[
  {
    "postal": "N6H9J6",
    "result": []
  },
  {
    "postal": "N6H9Z5",
    "result": []
  },
  {
    "postal": "N6H7H8",
    "result": []
  },
  {
    "postal": "N6H0P6",
    "result": []
  },
  {
    "postal": "N6H0S7",
    "result": []
  },
  {
    "postal": "N6H8B9",
    "result": []
  },
  {
    "postal": "N6H2A6",
    "result": [
      {
        "electoralDistricts": [
          {
            "election": null,
            "id": 54,
            "name": "London North Centre"
          }
        ],
        "pollDivisionIds": [
          10135384
        ],
        "postalCode": "N6H2A6",
        "streetName": "WHARNCLIFFE",
        "streetDirectionId": "N",
        "streetTypeId": "RD",
        "placeName": "LONDON",
        "streetNameDisplayText": "WHARNCLIFFE RD N, LONDON"
      }
    ]
  },
  {
    "postal": "N6H7V2",
    "result": []
  },
  {
    "postal": "N6H9P4",
    "result": []
  },
  {
    "postal": "N6H6G0",
    "result": []
  },
  {
    "postal": "N6H2K0",
    "result": []
  },
  {
    "postal": "N6H7N6",
    "result": []
  },
  {
    "postal": "N6H5R3",
    "result": [
      {
        "electoralDistricts": [
          {
            "election": null,
            "id": 55,
            "name": "London West"
          }
        ],
        "pollDivisionIds": [
          10139614
        ],
        "postalCode": "N6H5R3",
        "streetName": "INVERNESS",
        "streetDirectionId": null,
        "streetTypeId": "AVE",
        "placeName": "LONDON",
        "streetNameDisplayText": "INVERNESS AVE, LONDON"
      }
    ]
  },
  {
    "postal": "N6H7K0",
    "result": []
  },
  {
    "postal": "N6H3R2",
    "result": [
      {
        "electoralDistricts": [
          {
            "election": null,
            "id": 55,
            "name": "London West"
          }
        ],
        "pollDivisionIds": [
          10139609
        ],
        "postalCode": "N6H3R2",
        "streetName": "LARKSPUR",
        "streetDirectionId": null,
        "streetTypeId": "CRES",
        "placeName": "LONDON",
        "streetNameDisplayText": "LARKSPUR CRES, LONDON"
      }
    ]
  },
  {
    "postal": "N6H0J1",
    "result": [
      {
        "electoralDistricts": [
          {
            "election": null,
            "id": 55,
            "name": "London West"
          }
        ],
        "pollDivisionIds": [
          10139607
        ],
        "postalCode": "N6H0J1",
        "streetName": "BEAVERBROOK",
        "streetDirectionId": null,
        "streetTypeId": "AVE",
        "placeName": "LONDON",
        "streetNameDisplayText": "BEAVERBROOK AVE, LONDON"
      }
    ]
  },
  {
    "postal": "N6H0B0",
    "result": []
  },
  {
    "postal": "N6H5Z2",
    "result": []
  },
  {
    "postal": "N6H7P3",
    "result": []
  },
  {
    "postal": "N6H2K3",
    "result": [
      {
        "electoralDistricts": [
          {
            "election": null,
            "id": 54,
            "name": "London North Centre"
          }
        ],
        "pollDivisionIds": [
          10135372
        ],
        "postalCode": "N6H2K3",
        "streetName": "COLUMBIA",
        "streetDirectionId": null,
        "streetTypeId": "AVE",
        "placeName": "LONDON",
        "streetNameDisplayText": "COLUMBIA AVE, LONDON"
      }
    ]
  },
  {
    "postal": "N6H7Y6",
    "result": []
  },
  {
    "postal": "N6H1L9",
    "result": [
      {
        "electoralDistricts": [
          {
            "election": null,
            "id": 54,
            "name": "London North Centre"
          }
        ],
        "pollDivisionIds": [
          10135372
        ],
        "postalCode": "N6H1L9",
        "streetName": "EDINBURGH",
        "streetDirectionId": null,
        "streetTypeId": "ST",
        "placeName": "LONDON",
        "streetNameDisplayText": "EDINBURGH ST, LONDON"
      }
    ]
  },
  {
    "postal": "N6H8T0",
    "result": []
  },
  {
    "postal": "N6H3K8",
    "result": [
      {
        "electoralDistricts": [
          {
            "election": null,
            "id": 55,
            "name": "London West"
          }
        ],
        "pollDivisionIds": [
          10139614
        ],
        "postalCode": "N6H3K8",
        "streetName": "BISCAY",
        "streetDirectionId": null,
        "streetTypeId": "RD",
        "placeName": "LONDON",
        "streetNameDisplayText": "BISCAY RD, LONDON"
      }
    ]
  },
  {
    "postal": "N6H5W9",
    "result": []
  },
  {
    "postal": "N6H6T9",
    "result": []
  },
  {
    "postal": "N6H4H1",
    "result": [
      {
        "electoralDistricts": [
          {
            "election": null,
            "id": 55,
            "name": "London West"
          }
        ],
        "pollDivisionIds": [
          10139601
        ],
        "postalCode": "N6H4H1",
        "streetName": "PRINCE PHILIP",
        "streetDirectionId": null,
        "streetTypeId": "CRT",
        "placeName": "LONDON",
        "streetNameDisplayText": "PRINCE PHILIP CRT, LONDON"
      }
    ]
  },
  {
    "postal": "N6H7A2",
    "result": []
  },
  {
    "postal": "N6H5G0",
    "result": []
  },
  {
    "postal": "N6H8V5",
    "result": []
  },
  {
    "postal": "N6H2Y8",
    "result": [
      {
        "electoralDistricts": [
          {
            "election": null,
            "id": 55,
            "name": "London West"
          }
        ],
        "pollDivisionIds": [
          10139614
        ],
        "postalCode": "N6H2Y8",
        "streetName": "VALETTA",
        "streetDirectionId": null,
        "streetTypeId": "ST",
        "placeName": "LONDON",
        "streetNameDisplayText": "VALETTA ST, LONDON"
      }
    ]
  },
  {
    "postal": "N6H2B6",
    "result": [
      {
        "electoralDistricts": [
          {
            "election": null,
            "id": 54,
            "name": "London North Centre"
          }
        ],
        "pollDivisionIds": [
          10135373,
          10135371
        ],
        "postalCode": "N6H2B6",
        "streetName": "WHARNCLIFFE",
        "streetDirectionId": "N",
        "streetTypeId": "RD",
        "placeName": "LONDON",
        "streetNameDisplayText": "WHARNCLIFFE RD N, LONDON"
      }
    ]
  },
  {
    "postal": "N6H4W8",
    "result": [
      {
        "electoralDistricts": [
          {
            "election": null,
            "id": 55,
            "name": "London West"
          }
        ],
        "pollDivisionIds": [
          10139609
        ],
        "postalCode": "N6H4W8",
        "streetName": "CENTURY",
        "streetDirectionId": null,
        "streetTypeId": "PL",
        "placeName": "LONDON",
        "streetNameDisplayText": "CENTURY PL, LONDON"
      },
      {
        "electoralDistricts": [
          {
            "election": null,
            "id": 55,
            "name": "London West"
          }
        ],
        "pollDivisionIds": [
          10139609
        ],
        "postalCode": "N6H4W8",
        "streetName": "COLONIAL",
        "streetDirectionId": null,
        "streetTypeId": "CRES",
        "placeName": "LONDON",
        "streetNameDisplayText": "COLONIAL CRES, LONDON"
      },
      {
        "electoralDistricts": [
          {
            "election": null,
            "id": 55,
            "name": "London West"
          }
        ],
        "pollDivisionIds": [
          10139609
        ],
        "postalCode": "N6H4W8",
        "streetName": "LAUREL",
        "streetDirectionId": null,
        "streetTypeId": "ST",
        "placeName": "LONDON",
        "streetNameDisplayText": "LAUREL ST, LONDON"
      }
    ]
  },
  {
    "postal": "N6H8H7",
    "result": []
  },
  {
    "postal": "N6H5P1",
    "result": [
      {
        "electoralDistricts": [
          {
            "election": null,
            "id": 54,
            "name": "London North Centre"
          }
        ],
        "pollDivisionIds": [
          10135371
        ],
        "postalCode": "N6H5P1",
        "streetName": "BEAVERBROOK",
        "streetDirectionId": null,
        "streetTypeId": "AVE",
        "placeName": "LONDON",
        "streetNameDisplayText": "BEAVERBROOK AVE, LONDON"
      }
    ]
  },
  {
    "postal": "N6H2B8",
    "result": [
      {
        "electoralDistricts": [
          {
            "election": null,
            "id": 54,
            "name": "London North Centre"
          }
        ],
        "pollDivisionIds": [
          10135373
        ],
        "postalCode": "N6H2B8",
        "streetName": "WHARNCLIFFE",
        "streetDirectionId": "N",
        "streetTypeId": "RD",
        "placeName": "LONDON",
        "streetNameDisplayText": "WHARNCLIFFE RD N, LONDON"
      }
    ]
  },
  {
    "postal": "N6H0P2",
    "result": []
  },
  {
    "postal": "N6H9M1",
    "result": []
  },
  {
    "postal": "N6H3G0",
    "result": []
  },
  {
    "postal": "N6H9Z2",
    "result": []
  },
  {
    "postal": "N6H2A0",
    "result": []
  },
  {
    "postal": "N6H6Y0",
    "result": []
  },
  {
    "postal": "N6H2Z8",
    "result": [
      {
        "electoralDistricts": [
          {
            "election": null,
            "id": 55,
            "name": "London West"
          }
        ],
        "pollDivisionIds": [
          10139614
        ],
        "postalCode": "N6H2Z8",
        "streetName": "VALETTA",
        "streetDirectionId": null,
        "streetTypeId": "ST",
        "placeName": "LONDON",
        "streetNameDisplayText": "VALETTA ST, LONDON"
      }
    ]
  },
  {
    "postal": "N6H7Y3",
    "result": []
  },
  {
    "postal": "N6H6Z5",
    "result": []
  },
  {
    "postal": "N6H6E0",
    "result": []
  },
  {
    "postal": "N6H9B7",
    "result": []
  },
  {
    "postal": "N6H9S5",
    "result": []
  },
  {
    "postal": "N6H3X3",
    "result": [
      {
        "electoralDistricts": [
          {
            "election": null,
            "id": 55,
            "name": "London West"
          }
        ],
        "pollDivisionIds": [
          10139611
        ],
        "postalCode": "N6H3X3",
        "streetName": "RADCLIFFE",
        "streetDirectionId": null,
        "streetTypeId": "CRES",
        "placeName": "LONDON",
        "streetNameDisplayText": "RADCLIFFE CRES, LONDON"
      }
    ]
  },
  {
    "postal": "N6H7R5",
    "result": []
  },
  {
    "postal": "N6H2X3",
    "result": [
      {
        "electoralDistricts": [
          {
            "election": null,
            "id": 55,
            "name": "London West"
          }
        ],
        "pollDivisionIds": [
          10139614
        ],
        "postalCode": "N6H2X3",
        "streetName": "AMBERLEY",
        "streetDirectionId": null,
        "streetTypeId": "AVE",
        "placeName": "LONDON",
        "streetNameDisplayText": "AMBERLEY AVE, LONDON"
      }
    ]
  },
  {
    "postal": "N6H8Z9",
    "result": []
  },
  {
    "postal": "N6H0N4",
    "result": []
  },
  {
    "postal": "N6H1K1",
    "result": [
      {
        "electoralDistricts": [
          {
            "election": null,
            "id": 54,
            "name": "London North Centre"
          }
        ],
        "pollDivisionIds": [
          10135372
        ],
        "postalCode": "N6H1K1",
        "streetName": "BARRY",
        "streetDirectionId": null,
        "streetTypeId": "PL",
        "placeName": "LONDON",
        "streetNameDisplayText": "BARRY PL, LONDON"
      }
    ]
  },
  {
    "postal": "N6H1S3",
    "result": [
      {
        "electoralDistricts": [
          {
            "election": null,
            "id": 54,
            "name": "London North Centre"
          }
        ],
        "pollDivisionIds": [
          10135372
        ],
        "postalCode": "N6H1S3",
        "streetName": "OXFORD",
        "streetDirectionId": "W",
        "streetTypeId": "ST",
        "placeName": "LONDON",
        "streetNameDisplayText": "OXFORD ST W, LONDON"
      }
    ]
  },
  {
    "postal": "N6H6M4",
    "result": []
  },
  {
    "postal": "N6H9A9",
    "result": []
  },
  {
    "postal": "N6H9Z9",
    "result": []
  },
  {
    "postal": "N6H6T4",
    "result": []
  },
  {
    "postal": "N6H0B2",
    "result": [
      {
        "electoralDistricts": [
          {
            "election": null,
            "id": 55,
            "name": "London West"
          }
        ],
        "pollDivisionIds": [
          10139607
        ],
        "postalCode": "N6H0B2",
        "streetName": "CAPULET",
        "streetDirectionId": null,
        "streetTypeId": "LANE",
        "placeName": "LONDON",
        "streetNameDisplayText": "CAPULET LANE, LONDON"
      }
    ]
  },
  {
    "postal": "N6H2L9",
    "result": [
      {
        "electoralDistricts": [
          {
            "election": null,
            "id": 54,
            "name": "London North Centre"
          }
        ],
        "pollDivisionIds": [
          10135371
        ],
        "postalCode": "N6H2L9",
        "streetName": "CHERRYHILL",
        "streetDirectionId": null,
        "streetTypeId": "CIR",
        "placeName": "LONDON",
        "streetNameDisplayText": "CHERRYHILL CIR, LONDON"
      }
    ]
  },
  {
    "postal": "N6H8K9",
    "result": []
  },
  {
    "postal": "N6H2H9",
    "result": [
      {
        "electoralDistricts": [
          {
            "election": null,
            "id": 54,
            "name": "London North Centre"
          }
        ],
        "pollDivisionIds": [
          10135372
        ],
        "postalCode": "N6H2H9",
        "streetName": "BRITANNIA",
        "streetDirectionId": null,
        "streetTypeId": "AVE",
        "placeName": "LONDON",
        "streetNameDisplayText": "BRITANNIA AVE, LONDON"
      }
    ]
  },
  {
    "postal": "N6H3Z6",
    "result": [
      {
        "electoralDistricts": [
          {
            "election": null,
            "id": 55,
            "name": "London West"
          }
        ],
        "pollDivisionIds": [
          10139609
        ],
        "postalCode": "N6H3Z6",
        "streetName": "ROYAL YORK",
        "streetDirectionId": null,
        "streetTypeId": "RD",
        "placeName": "LONDON",
        "streetNameDisplayText": "ROYAL YORK RD, LONDON"
      }
    ]
  },
  {
    "postal": "N6H3B0",
    "result": []
  },
  {
    "postal": "N6H2H8",
    "result": [
      {
        "electoralDistricts": [
          {
            "election": null,
            "id": 54,
            "name": "London North Centre"
          }
        ],
        "pollDivisionIds": [
          10135384
        ],
        "postalCode": "N6H2H8",
        "streetName": "DELMAGE",
        "streetDirectionId": null,
        "streetTypeId": "AVE",
        "placeName": "LONDON",
        "streetNameDisplayText": "DELMAGE AVE, LONDON"
      }
    ]
  },
  {
    "postal": "N6H3X2",
    "result": [
      {
        "electoralDistricts": [
          {
            "election": null,
            "id": 55,
            "name": "London West"
          }
        ],
        "pollDivisionIds": [
          10139609
        ],
        "postalCode": "N6H3X2",
        "streetName": "GUILDWOOD",
        "streetDirectionId": null,
        "streetTypeId": "WALK",
        "placeName": "LONDON",
        "streetNameDisplayText": "GUILDWOOD WALK, LONDON"
      }
    ]
  },
  {
    "postal": "N6H2E9",
    "result": [
      {
        "electoralDistricts": [
          {
            "election": null,
            "id": 54,
            "name": "London North Centre"
          }
        ],
        "pollDivisionIds": [
          10135373
        ],
        "postalCode": "N6H2E9",
        "streetName": "RATHOWEN",
        "streetDirectionId": null,
        "streetTypeId": "ST",
        "placeName": "LONDON",
        "streetNameDisplayText": "RATHOWEN ST, LONDON"
      }
    ]
  },
  {
    "postal": "N6H9P6",
    "result": []
  },
  {
    "postal": "N6H9E2",
    "result": []
  },
  {
    "postal": "N6H9H2",
    "result": []
  },
  {
    "postal": "N6H1S8",
    "result": [
      {
        "electoralDistricts": [
          {
            "election": null,
            "id": 54,
            "name": "London North Centre"
          }
        ],
        "pollDivisionIds": [
          10135372
        ],
        "postalCode": "N6H1S8",
        "streetName": "OXFORD",
        "streetDirectionId": "W",
        "streetTypeId": "ST",
        "placeName": "LONDON",
        "streetNameDisplayText": "OXFORD ST W, LONDON"
      }
    ]
  },
  {
    "postal": "N6H3M6",
    "result": [
      {
        "electoralDistricts": [
          {
            "election": null,
            "id": 55,
            "name": "London West"
          }
        ],
        "pollDivisionIds": [
          10139613
        ],
        "postalCode": "N6H3M6",
        "streetName": "WEST MILE",
        "streetDirectionId": null,
        "streetTypeId": "RD",
        "placeName": "LONDON",
        "streetNameDisplayText": "WEST MILE RD, LONDON"
      }
    ]
  },
  {
    "postal": "N6H6Z8",
    "result": []
  },
  {
    "postal": "N6H4J2",
    "result": [
      {
        "electoralDistricts": [
          {
            "election": null,
            "id": 55,
            "name": "London West"
          }
        ],
        "pollDivisionIds": [
          10139611
        ],
        "postalCode": "N6H4J2",
        "streetName": "FARM MANOR",
        "streetDirectionId": null,
        "streetTypeId": "CRT",
        "placeName": "LONDON",
        "streetNameDisplayText": "FARM MANOR CRT, LONDON"
      }
    ]
  },
  {
    "postal": "N6H9Y1",
    "result": []
  },
  {
    "postal": "N6H8V6",
    "result": []
  },
  {
    "postal": "N6H6B2",
    "result": []
  },
  {
    "postal": "N6H1P8",
    "result": [
      {
        "electoralDistricts": [
          {
            "election": null,
            "id": 54,
            "name": "London North Centre"
          }
        ],
        "pollDivisionIds": [
          10135372
        ],
        "postalCode": "N6H1P8",
        "streetName": "CAMBRIDGE",
        "streetDirectionId": null,
        "streetTypeId": "ST",
        "placeName": "LONDON,ON",
        "streetNameDisplayText": "CAMBRIDGE ST, LONDON,ON"
      },
      {
        "electoralDistricts": [
          {
            "election": null,
            "id": 54,
            "name": "London North Centre"
          }
        ],
        "pollDivisionIds": [
          10135373
        ],
        "postalCode": "N6H1P8",
        "streetName": "PALMER",
        "streetDirectionId": null,
        "streetTypeId": "ST",
        "placeName": "LONDON",
        "streetNameDisplayText": "PALMER ST, LONDON"
      }
    ]
  },
  {
    "postal": "N6H0V8",
    "result": []
  },
  {
    "postal": "N6H4Y0",
    "result": []
  },
  {
    "postal": "N6H2T4",
    "result": [
      {
        "electoralDistricts": [
          {
            "election": null,
            "id": 55,
            "name": "London West"
          }
        ],
        "pollDivisionIds": [
          10139612
        ],
        "postalCode": "N6H2T4",
        "streetName": "RIVERSIDE",
        "streetDirectionId": null,
        "streetTypeId": "DR",
        "placeName": "LONDON",
        "streetNameDisplayText": "RIVERSIDE DR, LONDON"
      }
    ]
  },
  {
    "postal": "N6H2S3",
    "result": [
      {
        "electoralDistricts": [
          {
            "election": null,
            "id": 55,
            "name": "London West"
          }
        ],
        "pollDivisionIds": [
          10139614
        ],
        "postalCode": "N6H2S3",
        "streetName": "RIVERSIDE",
        "streetDirectionId": null,
        "streetTypeId": "DR",
        "placeName": "LONDON",
        "streetNameDisplayText": "RIVERSIDE DR, LONDON"
      }
    ]
  },
  {
    "postal": "N6H0K0",
    "result": []
  },
  {
    "postal": "N6H5N1",
    "result": [
      {
        "electoralDistricts": [
          {
            "election": null,
            "id": 55,
            "name": "London West"
          }
        ],
        "pollDivisionIds": [
          10139599,
          10139601
        ],
        "postalCode": "N6H5N1",
        "streetName": "GAINSBOROUGH",
        "streetDirectionId": null,
        "streetTypeId": "RD",
        "placeName": "LONDON",
        "streetNameDisplayText": "GAINSBOROUGH RD, LONDON"
      }
    ]
  },
  {
    "postal": "N6H7T0",
    "result": []
  },
  {
    "postal": "N6H9N2",
    "result": []
  },
  {
    "postal": "N6H5L1",
    "result": [
      {
        "electoralDistricts": [
          {
            "election": null,
            "id": 55,
            "name": "London West"
          }
        ],
        "pollDivisionIds": [
          10139608
        ],
        "postalCode": "N6H5L1",
        "streetName": "HYDE PARK",
        "streetDirectionId": null,
        "streetTypeId": "RD",
        "placeName": "LONDON",
        "streetNameDisplayText": "HYDE PARK RD, LONDON"
      }
    ]
  },
  {
    "postal": "N6H7G5",
    "result": []
  },
  {
    "postal": "N6H6K2",
    "result": []
  },
  {
    "postal": "N6H6P9",
    "result": []
  },
  {
    "postal": "N6H0E6",
    "result": [
      {
        "electoralDistricts": [
          {
            "election": null,
            "id": 55,
            "name": "London West"
          }
        ],
        "pollDivisionIds": [
          10139607
        ],
        "postalCode": "N6H0E6",
        "streetName": "ROULSTON",
        "streetDirectionId": null,
        "streetTypeId": "ST",
        "placeName": "LONDON",
        "streetNameDisplayText": "ROULSTON ST, LONDON"
      },
      {
        "electoralDistricts": [
          {
            "election": null,
            "id": 55,
            "name": "London West"
          }
        ],
        "pollDivisionIds": [
          10139607
        ],
        "postalCode": "N6H0E6",
        "streetName": "TEAKWOOD",
        "streetDirectionId": null,
        "streetTypeId": "LANE",
        "placeName": "LONDON",
        "streetNameDisplayText": "TEAKWOOD LANE, LONDON"
      },
      {
        "electoralDistricts": [
          {
            "election": null,
            "id": 55,
            "name": "London West"
          }
        ],
        "pollDivisionIds": [
          10139607
        ],
        "postalCode": "N6H0E6",
        "streetName": "WHETHERFIELD",
        "streetDirectionId": null,
        "streetTypeId": "ST",
        "placeName": "LONDON",
        "streetNameDisplayText": "WHETHERFIELD ST, LONDON"
      }
    ]
  },
  {
    "postal": "N6H8R9",
    "result": []
  },
  {
    "postal": "N6H3G9",
    "result": [
      {
        "electoralDistricts": [
          {
            "election": null,
            "id": 55,
            "name": "London West"
          }
        ],
        "pollDivisionIds": [
          10139614
        ],
        "postalCode": "N6H3G9",
        "streetName": "DUNEDIN",
        "streetDirectionId": null,
        "streetTypeId": "DR",
        "placeName": "LONDON",
        "streetNameDisplayText": "DUNEDIN DR, LONDON"
      }
    ]
  },
  {
    "postal": "N6H0V7",
    "result": []
  },
  {
    "postal": "N6H2Z1",
    "result": [
      {
        "electoralDistricts": [
          {
            "election": null,
            "id": 55,
            "name": "London West"
          }
        ],
        "pollDivisionIds": [
          10139614
        ],
        "postalCode": "N6H2Z1",
        "streetName": "VALETTA",
        "streetDirectionId": null,
        "streetTypeId": "ST",
        "placeName": "LONDON",
        "streetNameDisplayText": "VALETTA ST, LONDON"
      }
    ]
  },
  {
    "postal": "N6H7N1",
    "result": []
  },
  {
    "postal": "N6H3C6",
    "result": [
      {
        "electoralDistricts": [
          {
            "election": null,
            "id": 55,
            "name": "London West"
          }
        ],
        "pollDivisionIds": [
          10139614
        ],
        "postalCode": "N6H3C6",
        "streetName": "INVERNESS",
        "streetDirectionId": null,
        "streetTypeId": "AVE",
        "placeName": "LONDON",
        "streetNameDisplayText": "INVERNESS AVE, LONDON"
      }
    ]
  },
  {
    "postal": "N6H4M1",
    "result": [
      {
        "electoralDistricts": [
          {
            "election": null,
            "id": 55,
            "name": "London West"
          }
        ],
        "pollDivisionIds": [
          10139612
        ],
        "postalCode": "N6H4M1",
        "streetName": "FLINTLOCK",
        "streetDirectionId": null,
        "streetTypeId": "RD",
        "placeName": "LONDON",
        "streetNameDisplayText": "FLINTLOCK RD, LONDON"
      }
    ]
  },
  {
    "postal": "N6H9K2",
    "result": []
  },
  {
    "postal": "N6H9S6",
    "result": []
  },
  {
    "postal": "N6H4X1",
    "result": [
      {
        "electoralDistricts": [
          {
            "election": null,
            "id": 55,
            "name": "London West"
          }
        ],
        "pollDivisionIds": [
          10139609
        ],
        "postalCode": "N6H4X1",
        "streetName": "LAUREL",
        "streetDirectionId": null,
        "streetTypeId": "ST",
        "placeName": "LONDON",
        "streetNameDisplayText": "LAUREL ST, LONDON"
      }
    ]
  },
  {
    "postal": "N6H8W2",
    "result": []
  },
  {
    "postal": "N6H7N2",
    "result": []
  },
  {
    "postal": "N6H8S3",
    "result": []
  },
  {
    "postal": "N6H4V0",
    "result": []
  },
  {
    "postal": "N6H6W4",
    "result": []
  },
  {
    "postal": "N6H5M1",
    "result": [
      {
        "electoralDistricts": [
          {
            "election": null,
            "id": 55,
            "name": "London West"
          }
        ],
        "pollDivisionIds": [
          10139599
        ],
        "postalCode": "N6H5M1",
        "streetName": "MALLARD",
        "streetDirectionId": null,
        "streetTypeId": "RD",
        "placeName": "LONDON",
        "streetNameDisplayText": "MALLARD RD, LONDON"
      },
      {
        "electoralDistricts": [
          {
            "election": null,
            "id": 55,
            "name": "London West"
          }
        ],
        "pollDivisionIds": [
          10139599
        ],
        "postalCode": "N6H5M1",
        "streetName": "WOODCOCK",
        "streetDirectionId": null,
        "streetTypeId": "ST",
        "placeName": "LONDON",
        "streetNameDisplayText": "WOODCOCK ST, LONDON"
      }
    ]
  },
  {
    "postal": "N6H0S4",
    "result": []
  },
  {
    "postal": "N6H5X6",
    "result": [
      {
        "electoralDistricts": [
          {
            "election": null,
            "id": 55,
            "name": "London West"
          }
        ],
        "pollDivisionIds": [
          10139607,
          10139601
        ],
        "postalCode": "N6H5X6",
        "streetName": "BEAVERBROOK",
        "streetDirectionId": null,
        "streetTypeId": "AVE",
        "placeName": "LONDON",
        "streetNameDisplayText": "BEAVERBROOK AVE, LONDON"
      },
      {
        "electoralDistricts": [
          {
            "election": null,
            "id": 55,
            "name": "London West"
          }
        ],
        "pollDivisionIds": [
          10139607
        ],
        "postalCode": "N6H5X6",
        "streetName": "BITTERBUSH",
        "streetDirectionId": null,
        "streetTypeId": "CRES",
        "placeName": "LONDON",
        "streetNameDisplayText": "BITTERBUSH CRES, LONDON"
      }
    ]
  },
  {
    "postal": "N6H8L5",
    "result": []
  },
  {
    "postal": "N6H5M8",
    "result": []
  },
  {
    "postal": "N6H2G3",
    "result": [
      {
        "electoralDistricts": [
          {
            "election": null,
            "id": 54,
            "name": "London North Centre"
          }
        ],
        "pollDivisionIds": [
          10135373
        ],
        "postalCode": "N6H2G3",
        "streetName": "RATHOWEN",
        "streetDirectionId": null,
        "streetTypeId": "ST",
        "placeName": "LONDON",
        "streetNameDisplayText": "RATHOWEN ST, LONDON"
      }
    ]
  },
  {
    "postal": "N6H8E4",
    "result": []
  },
  {
    "postal": "N6H7S9",
    "result": []
  },
  {
    "postal": "N6H1K3",
    "result": [
      {
        "electoralDistricts": [
          {
            "election": null,
            "id": 54,
            "name": "London North Centre"
          }
        ],
        "pollDivisionIds": [
          10135373
        ],
        "postalCode": "N6H1K3",
        "streetName": "BLACKFRIARS",
        "streetDirectionId": null,
        "streetTypeId": "ST",
        "placeName": "LONDON",
        "streetNameDisplayText": "BLACKFRIARS ST, LONDON"
      }
    ]
  },
  {
    "postal": "N6H4E1",
    "result": [
      {
        "electoralDistricts": [
          {
            "election": null,
            "id": 55,
            "name": "London West"
          }
        ],
        "pollDivisionIds": [
          10139601
        ],
        "postalCode": "N6H4E1",
        "streetName": "PRINCE GEORGE",
        "streetDirectionId": null,
        "streetTypeId": "RD",
        "placeName": "LONDON",
        "streetNameDisplayText": "PRINCE GEORGE RD, LONDON"
      }
    ]
  },
  {
    "postal": "N6H4R2",
    "result": [
      {
        "electoralDistricts": [
          {
            "election": null,
            "id": 55,
            "name": "London West"
          }
        ],
        "pollDivisionIds": [
          10139609
        ],
        "postalCode": "N6H4R2",
        "streetName": "QUINTON",
        "streetDirectionId": null,
        "streetTypeId": "PL",
        "placeName": "LONDON",
        "streetNameDisplayText": "QUINTON PL, LONDON"
      }
    ]
  },
  {
    "postal": "N6H6T0",
    "result": []
  },
  {
    "postal": "N6H3K5",
    "result": [
      {
        "electoralDistricts": [
          {
            "election": null,
            "id": 55,
            "name": "London West"
          }
        ],
        "pollDivisionIds": [
          10139613
        ],
        "postalCode": "N6H3K5",
        "streetName": "EAST MILE",
        "streetDirectionId": null,
        "streetTypeId": "RD",
        "placeName": "LONDON",
        "streetNameDisplayText": "EAST MILE RD, LONDON"
      }
    ]
  },
  {
    "postal": "N6H3S3",
    "result": []
  },
  {
    "postal": "N6H3L4",
    "result": [
      {
        "electoralDistricts": [
          {
            "election": null,
            "id": 55,
            "name": "London West"
          }
        ],
        "pollDivisionIds": [
          10139613
        ],
        "postalCode": "N6H3L4",
        "streetName": "GLEN",
        "streetDirectionId": null,
        "streetTypeId": "CRES",
        "placeName": "LONDON",
        "streetNameDisplayText": "GLEN CRES, LONDON"
      }
    ]
  },
  {
    "postal": "N6H9Y2",
    "result": []
  },
  {
    "postal": "N6H1E0",
    "result": []
  },
  {
    "postal": "N6H9A4",
    "result": []
  },
  {
    "postal": "N6H1L3",
    "result": [
      {
        "electoralDistricts": [
          {
            "election": null,
            "id": 54,
            "name": "London North Centre"
          }
        ],
        "pollDivisionIds": [
          10135373
        ],
        "postalCode": "N6H1L3",
        "streetName": "PAUL",
        "streetDirectionId": null,
        "streetTypeId": "ST",
        "placeName": "LONDON",
        "streetNameDisplayText": "PAUL ST, LONDON"
      }
    ]
  },
  {
    "postal": "N6H6N1",
    "result": []
  },
  {
    "postal": "N6H6G7",
    "result": []
  },
  {
    "postal": "N6H7W1",
    "result": []
  },
  {
    "postal": "N6H4M6",
    "result": [
      {
        "electoralDistricts": [
          {
            "election": null,
            "id": 55,
            "name": "London West"
          }
        ],
        "pollDivisionIds": [
          10139613
        ],
        "postalCode": "N6H4M6",
        "streetName": "MACKELLAR",
        "streetDirectionId": null,
        "streetTypeId": "AVE",
        "placeName": "LONDON",
        "streetNameDisplayText": "MACKELLAR AVE, LONDON"
      }
    ]
  },
  {
    "postal": "N6H1K0",
    "result": []
  },
  {
    "postal": "N6H3E2",
    "result": [
      {
        "electoralDistricts": [
          {
            "election": null,
            "id": 54,
            "name": "London North Centre"
          }
        ],
        "pollDivisionIds": [
          10135384
        ],
        "postalCode": "N6H3E2",
        "streetName": "WONDERLAND",
        "streetDirectionId": "N",
        "streetTypeId": "RD",
        "placeName": "LONDON",
        "streetNameDisplayText": "WONDERLAND RD N, LONDON"
      },
      {
        "electoralDistricts": [
          {
            "election": null,
            "id": 55,
            "name": "London West"
          }
        ],
        "pollDivisionIds": [
          10139619
        ],
        "postalCode": "N6H3E2",
        "streetName": "WONDERLAND",
        "streetDirectionId": "S",
        "streetTypeId": "RD",
        "placeName": "LONDON",
        "streetNameDisplayText": "WONDERLAND RD S, LONDON"
      }
    ]
  },
  {
    "postal": "N6H5H4",
    "result": [
      {
        "electoralDistricts": [
          {
            "election": null,
            "id": 55,
            "name": "London West"
          }
        ],
        "pollDivisionIds": [
          10139608
        ],
        "postalCode": "N6H5H4",
        "streetName": "FITZWILLIAM",
        "streetDirectionId": null,
        "streetTypeId": "BLVD",
        "placeName": "LONDON",
        "streetNameDisplayText": "FITZWILLIAM BLVD, LONDON"
      }
    ]
  },
  {
    "postal": "N6H1K7",
    "result": [
      {
        "electoralDistricts": [
          {
            "election": null,
            "id": 54,
            "name": "London North Centre"
          }
        ],
        "pollDivisionIds": [
          10135373
        ],
        "postalCode": "N6H1K7",
        "streetName": "BLACKFRIARS",
        "streetDirectionId": null,
        "streetTypeId": "ST",
        "placeName": "LONDON",
        "streetNameDisplayText": "BLACKFRIARS ST, LONDON"
      }
    ]
  },
  {
    "postal": "N6H0H0",
    "result": []
  },
  {
    "postal": "N6H0J3",
    "result": [
      {
        "electoralDistricts": [
          {
            "election": null,
            "id": 54,
            "name": "London North Centre"
          }
        ],
        "pollDivisionIds": [
          10135383
        ],
        "postalCode": "N6H0J3",
        "streetName": "SUGARCREEK",
        "streetDirectionId": null,
        "streetTypeId": "TRAIL",
        "placeName": "LONDON",
        "streetNameDisplayText": "SUGARCREEK TRAIL, LONDON"
      }
    ]
  },
  {
    "postal": "N6H1X6",
    "result": [
      {
        "electoralDistricts": [
          {
            "election": null,
            "id": 54,
            "name": "London North Centre"
          }
        ],
        "pollDivisionIds": [
          10135373
        ],
        "postalCode": "N6H1X6",
        "streetName": "WILSON",
        "streetDirectionId": null,
        "streetTypeId": "AVE",
        "placeName": "LONDON",
        "streetNameDisplayText": "WILSON AVE, LONDON"
      }
    ]
  },
  {
    "postal": "N6H2Z6",
    "result": [
      {
        "electoralDistricts": [
          {
            "election": null,
            "id": 55,
            "name": "London West"
          }
        ],
        "pollDivisionIds": [
          10139614
        ],
        "postalCode": "N6H2Z6",
        "streetName": "VALETTA",
        "streetDirectionId": null,
        "streetTypeId": "ST",
        "placeName": "LONDON",
        "streetNameDisplayText": "VALETTA ST, LONDON"
      }
    ]
  },
  {
    "postal": "N6H4R9",
    "result": [
      {
        "electoralDistricts": [
          {
            "election": null,
            "id": 54,
            "name": "London North Centre"
          }
        ],
        "pollDivisionIds": [
          10135384,
          10135344
        ],
        "postalCode": "N6H4R9",
        "streetName": "RIVERSIDE",
        "streetDirectionId": null,
        "streetTypeId": "DR",
        "placeName": "LONDON",
        "streetNameDisplayText": "RIVERSIDE DR, LONDON"
      }
    ]
  },
  {
    "postal": "N6H0W8",
    "result": []
  },
  {
    "postal": "N6H1L4",
    "result": [
      {
        "electoralDistricts": [
          {
            "election": null,
            "id": 54,
            "name": "London North Centre"
          }
        ],
        "pollDivisionIds": [
          10135373
        ],
        "postalCode": "N6H1L4",
        "streetName": "PAUL",
        "streetDirectionId": null,
        "streetTypeId": "ST",
        "placeName": "LONDON",
        "streetNameDisplayText": "PAUL ST, LONDON"
      }
    ]
  },
  {
    "postal": "N6H0C8",
    "result": [
      {
        "electoralDistricts": [
          {
            "election": null,
            "id": 55,
            "name": "London West"
          }
        ],
        "pollDivisionIds": [
          10139601
        ],
        "postalCode": "N6H0C8",
        "streetName": "CHERRYWOOD",
        "streetDirectionId": null,
        "streetTypeId": "TRAIL",
        "placeName": "LONDON",
        "streetNameDisplayText": "CHERRYWOOD TRAIL, LONDON"
      }
    ]
  },
  {
    "postal": "N6H9X7",
    "result": []
  },
  {
    "postal": "N6H4T1",
    "result": [
      {
        "electoralDistricts": [
          {
            "election": null,
            "id": 55,
            "name": "London West"
          }
        ],
        "pollDivisionIds": [
          10139609
        ],
        "postalCode": "N6H4T1",
        "streetName": "FIDDLERS GREEN",
        "streetDirectionId": null,
        "streetTypeId": "RD",
        "placeName": "LONDON",
        "streetNameDisplayText": "FIDDLERS GREEN RD, LONDON"
      }
    ]
  },
  {
    "postal": "N6H0M0",
    "result": []
  },
  {
    "postal": "N6H6A2",
    "result": []
  },
  {
    "postal": "N6H9S8",
    "result": []
  },
  {
    "postal": "N6H9T4",
    "result": []
  },
  {
    "postal": "N6H9Y4",
    "result": []
  },
  {
    "postal": "N6H6G5",
    "result": []
  },
  {
    "postal": "N6H6H9",
    "result": []
  },
  {
    "postal": "N6H2P3",
    "result": [
      {
        "electoralDistricts": [
          {
            "election": null,
            "id": 55,
            "name": "London West"
          }
        ],
        "pollDivisionIds": [
          10139612
        ],
        "postalCode": "N6H2P3",
        "streetName": "HAMPTON",
        "streetDirectionId": null,
        "streetTypeId": "CRT",
        "placeName": "LONDON",
        "streetNameDisplayText": "HAMPTON CRT, LONDON"
      }
    ]
  },
  {
    "postal": "N6H1T6",
    "result": [
      {
        "electoralDistricts": [
          {
            "election": null,
            "id": 54,
            "name": "London North Centre"
          }
        ],
        "pollDivisionIds": [
          10135384
        ],
        "postalCode": "N6H1T6",
        "streetName": "OXFORD",
        "streetDirectionId": "W",
        "streetTypeId": "ST",
        "placeName": "LONDON",
        "streetNameDisplayText": "OXFORD ST W, LONDON"
      }
    ]
  },
  {
    "postal": "N6H4P6",
    "result": [
      {
        "electoralDistricts": [
          {
            "election": null,
            "id": 55,
            "name": "London West"
          }
        ],
        "pollDivisionIds": [
          10139613
        ],
        "postalCode": "N6H4P6",
        "streetName": "CLEARVIEW",
        "streetDirectionId": null,
        "streetTypeId": "CRES",
        "placeName": "LONDON",
        "streetNameDisplayText": "CLEARVIEW CRES, LONDON"
      }
    ]
  },
  {
    "postal": "N6H3K1",
    "result": [
      {
        "electoralDistricts": [
          {
            "election": null,
            "id": 55,
            "name": "London West"
          }
        ],
        "pollDivisionIds": [
          10139614
        ],
        "postalCode": "N6H3K1",
        "streetName": "SHERENE",
        "streetDirectionId": null,
        "streetTypeId": "TERR",
        "placeName": "LONDON",
        "streetNameDisplayText": "SHERENE TERR, LONDON"
      }
    ]
  },
  {
    "postal": "N6H6X4",
    "result": []
  },
  {
    "postal": "N6H4M8",
    "result": [
      {
        "electoralDistricts": [
          {
            "election": null,
            "id": 55,
            "name": "London West"
          }
        ],
        "pollDivisionIds": [
          10139613
        ],
        "postalCode": "N6H4M8",
        "streetName": "EVERGLADE",
        "streetDirectionId": null,
        "streetTypeId": "CRES",
        "placeName": "LONDON",
        "streetNameDisplayText": "EVERGLADE CRES, LONDON"
      }
    ]
  },
  {
    "postal": "N6H2Y1",
    "result": [
      {
        "electoralDistricts": [
          {
            "election": null,
            "id": 55,
            "name": "London West"
          }
        ],
        "pollDivisionIds": [
          10139614
        ],
        "postalCode": "N6H2Y1",
        "streetName": "PLANTATION",
        "streetDirectionId": null,
        "streetTypeId": "RD",
        "placeName": "LONDON",
        "streetNameDisplayText": "PLANTATION RD, LONDON"
      }
    ]
  },
  {
    "postal": "N6H6M1",
    "result": []
  },
  {
    "postal": "N6H5L8",
    "result": [
      {
        "electoralDistricts": [
          {
            "election": null,
            "id": 55,
            "name": "London West"
          }
        ],
        "pollDivisionIds": [
          10139599
        ],
        "postalCode": "N6H5L8",
        "streetName": "BLUE HERON",
        "streetDirectionId": null,
        "streetTypeId": "DR",
        "placeName": "LONDON",
        "streetNameDisplayText": "BLUE HERON DR, LONDON"
      },
      {
        "electoralDistricts": [
          {
            "election": null,
            "id": 55,
            "name": "London West"
          }
        ],
        "pollDivisionIds": [
          10139599
        ],
        "postalCode": "N6H5L8",
        "streetName": "MALLARD",
        "streetDirectionId": null,
        "streetTypeId": "RD",
        "placeName": "LONDON",
        "streetNameDisplayText": "MALLARD RD, LONDON"
      }
    ]
  },
  {
    "postal": "N6H3P6",
    "result": [
      {
        "electoralDistricts": [
          {
            "election": null,
            "id": 55,
            "name": "London West"
          }
        ],
        "pollDivisionIds": [
          10139614
        ],
        "postalCode": "N6H3P6",
        "streetName": "PALMTREE",
        "streetDirectionId": null,
        "streetTypeId": "AVE",
        "placeName": "LONDON",
        "streetNameDisplayText": "PALMTREE AVE, LONDON"
      }
    ]
  },
  {
    "postal": "N6H9A5",
    "result": []
  },
  {
    "postal": "N6H7K1",
    "result": []
  },
  {
    "postal": "N6H3J4",
    "result": [
      {
        "electoralDistricts": [
          {
            "election": null,
            "id": 55,
            "name": "London West"
          }
        ],
        "pollDivisionIds": [
          10139614
        ],
        "postalCode": "N6H3J4",
        "streetName": "SHERENE",
        "streetDirectionId": null,
        "streetTypeId": "TERR",
        "placeName": "LONDON",
        "streetNameDisplayText": "SHERENE TERR, LONDON"
      }
    ]
  },
  {
    "postal": "N6H5E7",
    "result": [
      {
        "electoralDistricts": [
          {
            "election": null,
            "id": 55,
            "name": "London West"
          }
        ],
        "pollDivisionIds": [
          10139608
        ],
        "postalCode": "N6H5E7",
        "streetName": "CEDARWOOD",
        "streetDirectionId": null,
        "streetTypeId": "CRES",
        "placeName": "LONDON",
        "streetNameDisplayText": "CEDARWOOD CRES, LONDON"
      },
      {
        "electoralDistricts": [
          {
            "election": null,
            "id": 55,
            "name": "London West"
          }
        ],
        "pollDivisionIds": [
          10139608
        ],
        "postalCode": "N6H5E7",
        "streetName": "CEDARWOOD",
        "streetDirectionId": null,
        "streetTypeId": "RD",
        "placeName": "LONDON",
        "streetNameDisplayText": "CEDARWOOD RD, LONDON"
      },
      {
        "electoralDistricts": [
          {
            "election": null,
            "id": 55,
            "name": "London West"
          }
        ],
        "pollDivisionIds": [
          10139608
        ],
        "postalCode": "N6H5E7",
        "streetName": "MEADOWOAK",
        "streetDirectionId": null,
        "streetTypeId": "CRES",
        "placeName": "LONDON",
        "streetNameDisplayText": "MEADOWOAK CRES, LONDON"
      }
    ]
  },
  {
    "postal": "N6H3A7",
    "result": [
      {
        "electoralDistricts": [
          {
            "election": null,
            "id": 55,
            "name": "London West"
          }
        ],
        "pollDivisionIds": [
          10139609
        ],
        "postalCode": "N6H3A7",
        "streetName": "QUINTON",
        "streetDirectionId": null,
        "streetTypeId": "RD",
        "placeName": "LONDON",
        "streetNameDisplayText": "QUINTON RD, LONDON"
      }
    ]
  },
  {
    "postal": "N6H1B9",
    "result": [
      {
        "electoralDistricts": [
          {
            "election": null,
            "id": 54,
            "name": "London North Centre"
          }
        ],
        "pollDivisionIds": [
          10135384
        ],
        "postalCode": "N6H1B9",
        "streetName": "FORWARD",
        "streetDirectionId": null,
        "streetTypeId": "AVE",
        "placeName": "LONDON",
        "streetNameDisplayText": "FORWARD AVE, LONDON"
      }
    ]
  },
  {
    "postal": "N6H9E8",
    "result": []
  },
  {
    "postal": "N6H1C9",
    "result": [
      {
        "electoralDistricts": [
          {
            "election": null,
            "id": 54,
            "name": "London North Centre"
          }
        ],
        "pollDivisionIds": [
          10135373
        ],
        "postalCode": "N6H1C9",
        "streetName": "MOUNT PLEASANT",
        "streetDirectionId": null,
        "streetTypeId": "AVE",
        "placeName": "LONDON",
        "streetNameDisplayText": "MOUNT PLEASANT AVE, LONDON"
      }
    ]
  },
  {
    "postal": "N6H3B5",
    "result": [
      {
        "electoralDistricts": [
          {
            "election": null,
            "id": 55,
            "name": "London West"
          }
        ],
        "pollDivisionIds": [
          10139614
        ],
        "postalCode": "N6H3B5",
        "streetName": "DEER PARK",
        "streetDirectionId": null,
        "streetTypeId": "CIR",
        "placeName": "LONDON",
        "streetNameDisplayText": "DEER PARK CIR, LONDON"
      }
    ]
  },
  {
    "postal": "N6H8R0",
    "result": []
  },
  {
    "postal": "N6H3P2",
    "result": [
      {
        "electoralDistricts": [
          {
            "election": null,
            "id": 55,
            "name": "London West"
          }
        ],
        "pollDivisionIds": [
          10139614
        ],
        "postalCode": "N6H3P2",
        "streetName": "HIBISCUS",
        "streetDirectionId": null,
        "streetTypeId": "AVE",
        "placeName": "LONDON",
        "streetNameDisplayText": "HIBISCUS AVE, LONDON"
      }
    ]
  },
  {
    "postal": "N6H5V4",
    "result": [
      {
        "electoralDistricts": [
          {
            "election": null,
            "id": 55,
            "name": "London West"
          }
        ],
        "pollDivisionIds": [
          10139609
        ],
        "postalCode": "N6H5V4",
        "streetName": "CAPULET",
        "streetDirectionId": null,
        "streetTypeId": "WALK",
        "placeName": "LONDON",
        "streetNameDisplayText": "CAPULET WALK, LONDON"
      }
    ]
  },
  {
    "postal": "N6H4H0",
    "result": []
  },
  {
    "postal": "N6H4S7",
    "result": [
      {
        "electoralDistricts": [
          {
            "election": null,
            "id": 55,
            "name": "London West"
          }
        ],
        "pollDivisionIds": [
          10139612
        ],
        "postalCode": "N6H4S7",
        "streetName": "FIDDLERS GREEN",
        "streetDirectionId": null,
        "streetTypeId": "RD",
        "placeName": "LONDON",
        "streetNameDisplayText": "FIDDLERS GREEN RD, LONDON"
      }
    ]
  },
  {
    "postal": "N6H6C2",
    "result": []
  },
  {
    "postal": "N6H8W3",
    "result": []
  },
  {
    "postal": "N6H4M5",
    "result": [
      {
        "electoralDistricts": [
          {
            "election": null,
            "id": 54,
            "name": "London North Centre"
          }
        ],
        "pollDivisionIds": [
          10135371
        ],
        "postalCode": "N6H4M5",
        "streetName": "CHERRYHILL",
        "streetDirectionId": null,
        "streetTypeId": "PL",
        "placeName": "LONDON",
        "streetNameDisplayText": "CHERRYHILL PL, LONDON"
      }
    ]
  },
  {
    "postal": "N6H5T1",
    "result": [
      {
        "electoralDistricts": [
          {
            "election": null,
            "id": 55,
            "name": "London West"
          }
        ],
        "pollDivisionIds": [
          10139608
        ],
        "postalCode": "N6H5T1",
        "streetName": "GUILDWOOD",
        "streetDirectionId": null,
        "streetTypeId": "BLVD",
        "placeName": "LONDON",
        "streetNameDisplayText": "GUILDWOOD BLVD, LONDON"
      }
    ]
  },
  {
    "postal": "N6H3B3",
    "result": [
      {
        "electoralDistricts": [
          {
            "election": null,
            "id": 55,
            "name": "London West"
          }
        ],
        "pollDivisionIds": [
          10139609
        ],
        "postalCode": "N6H3B3",
        "streetName": "TARBART",
        "streetDirectionId": null,
        "streetTypeId": "TERR",
        "placeName": "LONDON",
        "streetNameDisplayText": "TARBART TERR, LONDON"
      }
    ]
  },
  {
    "postal": "N6H6C6",
    "result": []
  },
  {
    "postal": "N6H7N8",
    "result": []
  },
  {
    "postal": "N6H2Y3",
    "result": [
      {
        "electoralDistricts": [
          {
            "election": null,
            "id": 55,
            "name": "London West"
          }
        ],
        "pollDivisionIds": [
          10139614
        ],
        "postalCode": "N6H2Y3",
        "streetName": "PLANTATION",
        "streetDirectionId": null,
        "streetTypeId": "RD",
        "placeName": "LONDON",
        "streetNameDisplayText": "PLANTATION RD, LONDON"
      }
    ]
  },
  {
    "postal": "N6H2R6",
    "result": [
      {
        "electoralDistricts": [
          {
            "election": null,
            "id": 55,
            "name": "London West"
          }
        ],
        "pollDivisionIds": [
          10139612
        ],
        "postalCode": "N6H2R6",
        "streetName": "GEORGIA",
        "streetDirectionId": null,
        "streetTypeId": "RD",
        "placeName": "LONDON",
        "streetNameDisplayText": "GEORGIA RD, LONDON"
      }
    ]
  },
  {
    "postal": "N6H7N3",
    "result": []
  },
  {
    "postal": "N6H8J2",
    "result": []
  },
  {
    "postal": "N6H6A9",
    "result": []
  },
  {
    "postal": "N6H3V2",
    "result": [
      {
        "electoralDistricts": [
          {
            "election": null,
            "id": 55,
            "name": "London West"
          }
        ],
        "pollDivisionIds": [
          10139611
        ],
        "postalCode": "N6H3V2",
        "streetName": "SUTTON",
        "streetDirectionId": null,
        "streetTypeId": "PL",
        "placeName": "LONDON",
        "streetNameDisplayText": "SUTTON PL, LONDON"
      }
    ]
  },
  {
    "postal": "N6H2N3",
    "result": [
      {
        "electoralDistricts": [
          {
            "election": null,
            "id": 55,
            "name": "London West"
          }
        ],
        "pollDivisionIds": [
          10139613
        ],
        "postalCode": "N6H2N3",
        "streetName": "CLEARVIEW",
        "streetDirectionId": null,
        "streetTypeId": "AVE",
        "placeName": "LONDON",
        "streetNameDisplayText": "CLEARVIEW AVE, LONDON"
      }
    ]
  },
  {
    "postal": "N6H1S5",
    "result": [
      {
        "electoralDistricts": [
          {
            "election": null,
            "id": 54,
            "name": "London North Centre"
          }
        ],
        "pollDivisionIds": [
          10135371
        ],
        "postalCode": "N6H1S5",
        "streetName": "OXFORD",
        "streetDirectionId": "W",
        "streetTypeId": "ST",
        "placeName": "LONDON",
        "streetNameDisplayText": "OXFORD ST W, LONDON"
      }
    ]
  },
  {
    "postal": "N6H4T7",
    "result": [
      {
        "electoralDistricts": [
          {
            "election": null,
            "id": 55,
            "name": "London West"
          }
        ],
        "pollDivisionIds": [
          10139607
        ],
        "postalCode": "N6H4T7",
        "streetName": "WONDERLAND",
        "streetDirectionId": "N",
        "streetTypeId": "RD",
        "placeName": "LONDON",
        "streetNameDisplayText": "WONDERLAND RD N, LONDON"
      }
    ]
  },
  {
    "postal": "N6H6Y7",
    "result": []
  },
  {
    "postal": "N6H0W7",
    "result": []
  },
  {
    "postal": "N6H2W9",
    "result": [
      {
        "electoralDistricts": [
          {
            "election": null,
            "id": 54,
            "name": "London North Centre"
          }
        ],
        "pollDivisionIds": [
          10135384
        ],
        "postalCode": "N6H2W9",
        "streetName": "WOOD",
        "streetDirectionId": null,
        "streetTypeId": "ST",
        "placeName": "LONDON",
        "streetNameDisplayText": "WOOD ST, LONDON"
      }
    ]
  },
  {
    "postal": "N6H8V0",
    "result": []
  },
  {
    "postal": "N6H0H4",
    "result": []
  },
  {
    "postal": "N6H2T1",
    "result": [
      {
        "electoralDistricts": [
          {
            "election": null,
            "id": 55,
            "name": "London West"
          }
        ],
        "pollDivisionIds": [
          10139613
        ],
        "postalCode": "N6H2T1",
        "streetName": "RIVERSIDE",
        "streetDirectionId": null,
        "streetTypeId": "DR",
        "placeName": "LONDON",
        "streetNameDisplayText": "RIVERSIDE DR, LONDON"
      }
    ]
  },
  {
    "postal": "N6H1B1",
    "result": []
  },
  {
    "postal": "N6H8B6",
    "result": []
  },
  {
    "postal": "N6H6H1",
    "result": []
  },
  {
    "postal": "N6H8T8",
    "result": []
  },
  {
    "postal": "N6H0T4",
    "result": []
  },
  {
    "postal": "N6H2C4",
    "result": [
      {
        "electoralDistricts": [
          {
            "election": null,
            "id": 54,
            "name": "London North Centre"
          }
        ],
        "pollDivisionIds": [
          10135373
        ],
        "postalCode": "N6H2C4",
        "streetName": "GRANVILLE",
        "streetDirectionId": null,
        "streetTypeId": "ST",
        "placeName": "LONDON",
        "streetNameDisplayText": "GRANVILLE ST, LONDON"
      }
    ]
  },
  {
    "postal": "N6H8N3",
    "result": []
  },
  {
    "postal": "N6H4L8",
    "result": [
      {
        "electoralDistricts": [
          {
            "election": null,
            "id": 55,
            "name": "London West"
          }
        ],
        "pollDivisionIds": [
          10139614
        ],
        "postalCode": "N6H4L8",
        "streetName": "WOODHAVEN",
        "streetDirectionId": null,
        "streetTypeId": "RD",
        "placeName": "LONDON",
        "streetNameDisplayText": "WOODHAVEN RD, LONDON"
      }
    ]
  },
  {
    "postal": "N6H2B5",
    "result": [
      {
        "electoralDistricts": [
          {
            "election": null,
            "id": 54,
            "name": "London North Centre"
          }
        ],
        "pollDivisionIds": [
          10135373
        ],
        "postalCode": "N6H2B5",
        "streetName": "WHARNCLIFFE",
        "streetDirectionId": "N",
        "streetTypeId": "RD",
        "placeName": "LONDON",
        "streetNameDisplayText": "WHARNCLIFFE RD N, LONDON"
      }
    ]
  },
  {
    "postal": "N6H3H1",
    "result": [
      {
        "electoralDistricts": [
          {
            "election": null,
            "id": 55,
            "name": "London West"
          }
        ],
        "pollDivisionIds": [
          10139614
        ],
        "postalCode": "N6H3H1",
        "streetName": "DUNEDIN",
        "streetDirectionId": null,
        "streetTypeId": "DR",
        "placeName": "LONDON",
        "streetNameDisplayText": "DUNEDIN DR, LONDON"
      }
    ]
  },
  {
    "postal": "N6H4Y1",
    "result": [
      {
        "electoralDistricts": [
          {
            "election": null,
            "id": 55,
            "name": "London West"
          }
        ],
        "pollDivisionIds": [
          10139611
        ],
        "postalCode": "N6H4Y1",
        "streetName": "CHALFONT",
        "streetDirectionId": null,
        "streetTypeId": "RD",
        "placeName": "LONDON",
        "streetNameDisplayText": "CHALFONT RD, LONDON"
      }
    ]
  },
  {
    "postal": "N6H7E2",
    "result": []
  },
  {
    "postal": "N6H2P5",
    "result": [
      {
        "electoralDistricts": [
          {
            "election": null,
            "id": 55,
            "name": "London West"
          }
        ],
        "pollDivisionIds": [
          10139613,
          10139612
        ],
        "postalCode": "N6H2P5",
        "streetName": "FULTON",
        "streetDirectionId": null,
        "streetTypeId": "AVE",
        "placeName": "LONDON",
        "streetNameDisplayText": "FULTON AVE, LONDON"
      }
    ]
  },
  {
    "postal": "N6H8R7",
    "result": []
  },
  {
    "postal": "N6H9P1",
    "result": []
  },
  {
    "postal": "N6H3B8",
    "result": [
      {
        "electoralDistricts": [
          {
            "election": null,
            "id": 55,
            "name": "London West"
          }
        ],
        "pollDivisionIds": [
          10139614
        ],
        "postalCode": "N6H3B8",
        "streetName": "DEER PARK",
        "streetDirectionId": null,
        "streetTypeId": "CIR",
        "placeName": "LONDON",
        "streetNameDisplayText": "DEER PARK CIR, LONDON"
      }
    ]
  },
  {
    "postal": "N6H3P7",
    "result": [
      {
        "electoralDistricts": [
          {
            "election": null,
            "id": 55,
            "name": "London West"
          }
        ],
        "pollDivisionIds": [
          10139614
        ],
        "postalCode": "N6H3P7",
        "streetName": "PALMTREE",
        "streetDirectionId": null,
        "streetTypeId": "AVE",
        "placeName": "LONDON",
        "streetNameDisplayText": "PALMTREE AVE, LONDON"
      }
    ]
  },
  {
    "postal": "N6H9B2",
    "result": []
  },
  {
    "postal": "N6H6Z3",
    "result": []
  },
  {
    "postal": "N6H4N5",
    "result": [
      {
        "electoralDistricts": [
          {
            "election": null,
            "id": 55,
            "name": "London West"
          }
        ],
        "pollDivisionIds": [
          10139614
        ],
        "postalCode": "N6H4N5",
        "streetName": "WOODHAVEN",
        "streetDirectionId": null,
        "streetTypeId": "RD",
        "placeName": "LONDON",
        "streetNameDisplayText": "WOODHAVEN RD, LONDON"
      }
    ]
  },
  {
    "postal": "N6H8T3",
    "result": []
  },
  {
    "postal": "N6H1V2",
    "result": [
      {
        "electoralDistricts": [
          {
            "election": null,
            "id": 55,
            "name": "London West"
          }
        ],
        "pollDivisionIds": [
          10139614
        ],
        "postalCode": "N6H1V2",
        "streetName": "OXFORD",
        "streetDirectionId": "W",
        "streetTypeId": "ST",
        "placeName": "LONDON",
        "streetNameDisplayText": "OXFORD ST W, LONDON"
      }
    ]
  },
  {
    "postal": "N6H1Y0",
    "result": []
  },
  {
    "postal": "N6H3G6",
    "result": [
      {
        "electoralDistricts": [
          {
            "election": null,
            "id": 55,
            "name": "London West"
          }
        ],
        "pollDivisionIds": [
          10139614
        ],
        "postalCode": "N6H3G6",
        "streetName": "CAYLEY",
        "streetDirectionId": null,
        "streetTypeId": "DR",
        "placeName": "LONDON",
        "streetNameDisplayText": "CAYLEY DR, LONDON"
      }
    ]
  },
  {
    "postal": "N6H3H7",
    "result": [
      {
        "electoralDistricts": [
          {
            "election": null,
            "id": 55,
            "name": "London West"
          }
        ],
        "pollDivisionIds": [
          10139614
        ],
        "postalCode": "N6H3H7",
        "streetName": "DONEGAL",
        "streetDirectionId": null,
        "streetTypeId": "DR",
        "placeName": "LONDON",
        "streetNameDisplayText": "DONEGAL DR, LONDON"
      }
    ]
  },
  {
    "postal": "N6H7X8",
    "result": []
  },
  {
    "postal": "N6H0C7",
    "result": [
      {
        "electoralDistricts": [
          {
            "election": null,
            "id": 54,
            "name": "London North Centre"
          }
        ],
        "pollDivisionIds": [
          10135344,
          10135383
        ],
        "postalCode": "N6H0C7",
        "streetName": "SUGARCREEK",
        "streetDirectionId": null,
        "streetTypeId": "TRAIL",
        "placeName": "LONDON",
        "streetNameDisplayText": "SUGARCREEK TRAIL, LONDON"
      }
    ]
  },
  {
    "postal": "N6H0W9",
    "result": []
  },
  {
    "postal": "N6H8E6",
    "result": []
  },
  {
    "postal": "N6H9Z8",
    "result": []
  },
  {
    "postal": "N6H3P4",
    "result": [
      {
        "electoralDistricts": [
          {
            "election": null,
            "id": 55,
            "name": "London West"
          }
        ],
        "pollDivisionIds": [
          10139613,
          10139614
        ],
        "postalCode": "N6H3P4",
        "streetName": "PALMTREE",
        "streetDirectionId": null,
        "streetTypeId": "AVE",
        "placeName": "LONDON",
        "streetNameDisplayText": "PALMTREE AVE, LONDON"
      }
    ]
  },
  {
    "postal": "N6H6L8",
    "result": []
  },
  {
    "postal": "N6H2R4",
    "result": [
      {
        "electoralDistricts": [
          {
            "election": null,
            "id": 55,
            "name": "London West"
          }
        ],
        "pollDivisionIds": [
          10139612
        ],
        "postalCode": "N6H2R4",
        "streetName": "ST ANTHONY",
        "streetDirectionId": null,
        "streetTypeId": "PL",
        "placeName": "LONDON",
        "streetNameDisplayText": "ST ANTHONY PL, LONDON"
      }
    ]
  },
  {
    "postal": "N6H2W1",
    "result": [
      {
        "electoralDistricts": [
          {
            "election": null,
            "id": 55,
            "name": "London West"
          }
        ],
        "pollDivisionIds": [
          10139614
        ],
        "postalCode": "N6H2W1",
        "streetName": "KELLY",
        "streetDirectionId": null,
        "streetTypeId": "ST",
        "placeName": "LONDON",
        "streetNameDisplayText": "KELLY ST, LONDON"
      }
    ]
  },
  {
    "postal": "N6H9H8",
    "result": []
  },
  {
    "postal": "N6H8X9",
    "result": []
  },
  {
    "postal": "N6H7H4",
    "result": []
  },
  {
    "postal": "N6H3J1",
    "result": [
      {
        "electoralDistricts": [
          {
            "election": null,
            "id": 55,
            "name": "London West"
          }
        ],
        "pollDivisionIds": [
          10139614
        ],
        "postalCode": "N6H3J1",
        "streetName": "KILDARE",
        "streetDirectionId": null,
        "streetTypeId": "RD",
        "placeName": "LONDON",
        "streetNameDisplayText": "KILDARE RD, LONDON"
      }
    ]
  },
  {
    "postal": "N6H1P4",
    "result": [
      {
        "electoralDistricts": [
          {
            "election": null,
            "id": 54,
            "name": "London North Centre"
          }
        ],
        "pollDivisionIds": [
          10135373
        ],
        "postalCode": "N6H1P4",
        "streetName": "ST PATRICK",
        "streetDirectionId": null,
        "streetTypeId": "ST",
        "placeName": "LONDON",
        "streetNameDisplayText": "ST PATRICK ST, LONDON"
      }
    ]
  },
  {
    "postal": "N6H2A3",
    "result": [
      {
        "electoralDistricts": [
          {
            "election": null,
            "id": 54,
            "name": "London North Centre"
          }
        ],
        "pollDivisionIds": [
          10135384
        ],
        "postalCode": "N6H2A3",
        "streetName": "WHARNCLIFFE",
        "streetDirectionId": "N",
        "streetTypeId": "RD",
        "placeName": "LONDON",
        "streetNameDisplayText": "WHARNCLIFFE RD N, LONDON"
      }
    ]
  },
  {
    "postal": "N6H0Z1",
    "result": []
  },
  {
    "postal": "N6H1C1",
    "result": [
      {
        "electoralDistricts": [
          {
            "election": null,
            "id": 54,
            "name": "London North Centre"
          }
        ],
        "pollDivisionIds": [
          10135373
        ],
        "postalCode": "N6H1C1",
        "streetName": "KENSINGTON",
        "streetDirectionId": null,
        "streetTypeId": "AVE",
        "placeName": "LONDON",
        "streetNameDisplayText": "KENSINGTON AVE, LONDON"
      }
    ]
  },
  {
    "postal": "N6H0H3",
    "result": []
  },
  {
    "postal": "N6H7B0",
    "result": []
  },
  {
    "postal": "N6H5K2",
    "result": [
      {
        "electoralDistricts": [
          {
            "election": null,
            "id": 55,
            "name": "London West"
          }
        ],
        "pollDivisionIds": [
          10139599
        ],
        "postalCode": "N6H5K2",
        "streetName": "HYDE PARK",
        "streetDirectionId": null,
        "streetTypeId": "RD",
        "placeName": "LONDON",
        "streetNameDisplayText": "HYDE PARK RD, LONDON"
      }
    ]
  },
  {
    "postal": "N6H1E9",
    "result": [
      {
        "electoralDistricts": [
          {
            "election": null,
            "id": 54,
            "name": "London North Centre"
          }
        ],
        "pollDivisionIds": [
          10135384
        ],
        "postalCode": "N6H1E9",
        "streetName": "RIVERSIDE",
        "streetDirectionId": null,
        "streetTypeId": "DR",
        "placeName": "LONDON",
        "streetNameDisplayText": "RIVERSIDE DR, LONDON"
      }
    ]
  },
  {
    "postal": "N6H9W7",
    "result": []
  },
  {
    "postal": "N6H5W6",
    "result": [
      {
        "electoralDistricts": [
          {
            "election": null,
            "id": 55,
            "name": "London West"
          }
        ],
        "pollDivisionIds": [
          10139610
        ],
        "postalCode": "N6H5W6",
        "streetName": "BEAVERBROOK",
        "streetDirectionId": null,
        "streetTypeId": "AVE",
        "placeName": "LONDON",
        "streetNameDisplayText": "BEAVERBROOK AVE, LONDON"
      }
    ]
  },
  {
    "postal": "N6H6S6",
    "result": []
  },
  {
    "postal": "N6H2P8",
    "result": [
      {
        "electoralDistricts": [
          {
            "election": null,
            "id": 55,
            "name": "London West"
          }
        ],
        "pollDivisionIds": [
          10139612
        ],
        "postalCode": "N6H2P8",
        "streetName": "ST ANTHONY",
        "streetDirectionId": null,
        "streetTypeId": "RD",
        "placeName": "LONDON",
        "streetNameDisplayText": "ST ANTHONY RD, LONDON"
      }
    ]
  },
  {
    "postal": "N6H4P8",
    "result": [
      {
        "electoralDistricts": [
          {
            "election": null,
            "id": 55,
            "name": "London West"
          }
        ],
        "pollDivisionIds": [
          10139612
        ],
        "postalCode": "N6H4P8",
        "streetName": "EVERGLADE",
        "streetDirectionId": null,
        "streetTypeId": "CRES",
        "placeName": "LONDON",
        "streetNameDisplayText": "EVERGLADE CRES, LONDON"
      }
    ]
  },
  {
    "postal": "N6H0V9",
    "result": []
  },
  {
    "postal": "N6H5Y2",
    "result": []
  },
  {
    "postal": "N6H7Z7",
    "result": []
  },
  {
    "postal": "N6H6Y8",
    "result": []
  },
  {
    "postal": "N6H2G7",
    "result": [
      {
        "electoralDistricts": [
          {
            "election": null,
            "id": 54,
            "name": "London North Centre"
          }
        ],
        "pollDivisionIds": [
          10135372
        ],
        "postalCode": "N6H2G7",
        "streetName": "WOODWARD",
        "streetDirectionId": null,
        "streetTypeId": "AVE",
        "placeName": "LONDON",
        "streetNameDisplayText": "WOODWARD AVE, LONDON"
      }
    ]
  },
  {
    "postal": "N6H8C1",
    "result": []
  },
  {
    "postal": "N6H5C5",
    "result": [
      {
        "electoralDistricts": [
          {
            "election": null,
            "id": 55,
            "name": "London West"
          }
        ],
        "pollDivisionIds": [
          10139613
        ],
        "postalCode": "N6H5C5",
        "streetName": "MACKELLAR",
        "streetDirectionId": null,
        "streetTypeId": "AVE",
        "placeName": "LONDON",
        "streetNameDisplayText": "MACKELLAR AVE, LONDON"
      }
    ]
  },
  {
    "postal": "N6H2X8",
    "result": [
      {
        "electoralDistricts": [
          {
            "election": null,
            "id": 55,
            "name": "London West"
          }
        ],
        "pollDivisionIds": [
          10139613
        ],
        "postalCode": "N6H2X8",
        "streetName": "NORTH MILE",
        "streetDirectionId": null,
        "streetTypeId": "RD",
        "placeName": "LONDON",
        "streetNameDisplayText": "NORTH MILE RD, LONDON"
      }
    ]
  },
  {
    "postal": "N6H1W5",
    "result": [
      {
        "electoralDistricts": [
          {
            "election": null,
            "id": 54,
            "name": "London North Centre"
          }
        ],
        "pollDivisionIds": [
          10135373
        ],
        "postalCode": "N6H1W5",
        "streetName": "NAPIER",
        "streetDirectionId": null,
        "streetTypeId": "ST",
        "placeName": "LONDON",
        "streetNameDisplayText": "NAPIER ST, LONDON"
      }
    ]
  },
  {
    "postal": "N6H7G0",
    "result": []
  },
  {
    "postal": "N6H8J8",
    "result": []
  },
  {
    "postal": "N6H3Y0",
    "result": []
  },
  {
    "postal": "N6H9T7",
    "result": []
  },
  {
    "postal": "N6H5P4",
    "result": [
      {
        "electoralDistricts": [
          {
            "election": null,
            "id": 55,
            "name": "London West"
          }
        ],
        "pollDivisionIds": [
          10139608
        ],
        "postalCode": "N6H5P4",
        "streetName": "CEDARWOOD",
        "streetDirectionId": null,
        "streetTypeId": "CRES",
        "placeName": "LONDON",
        "streetNameDisplayText": "CEDARWOOD CRES, LONDON"
      },
      {
        "electoralDistricts": [
          {
            "election": null,
            "id": 55,
            "name": "London West"
          }
        ],
        "pollDivisionIds": [
          10139608
        ],
        "postalCode": "N6H5P4",
        "streetName": "GUILDWOOD",
        "streetDirectionId": null,
        "streetTypeId": "BLVD",
        "placeName": "LONDON",
        "streetNameDisplayText": "GUILDWOOD BLVD, LONDON"
      }
    ]
  },
  {
    "postal": "N6H4B0",
    "result": []
  },
  {
    "postal": "N6H9N8",
    "result": []
  },
  {
    "postal": "N6H4A7",
    "result": [
      {
        "electoralDistricts": [
          {
            "election": null,
            "id": 55,
            "name": "London West"
          }
        ],
        "pollDivisionIds": [
          10139611
        ],
        "postalCode": "N6H4A7",
        "streetName": "REGENCY",
        "streetDirectionId": null,
        "streetTypeId": "RD",
        "placeName": "LONDON",
        "streetNameDisplayText": "REGENCY RD, LONDON"
      }
    ]
  },
  {
    "postal": "N6H4H9",
    "result": [
      {
        "electoralDistricts": [
          {
            "election": null,
            "id": 55,
            "name": "London West"
          }
        ],
        "pollDivisionIds": [
          10139608
        ],
        "postalCode": "N6H4H9",
        "streetName": "DRIFTWOOD",
        "streetDirectionId": null,
        "streetTypeId": "RD",
        "placeName": "LONDON",
        "streetNameDisplayText": "DRIFTWOOD RD, LONDON"
      }
    ]
  },
  {
    "postal": "N6H6X1",
    "result": []
  },
  {
    "postal": "N6H9Y7",
    "result": []
  },
  {
    "postal": "N6H2Y5",
    "result": [
      {
        "electoralDistricts": [
          {
            "election": null,
            "id": 55,
            "name": "London West"
          }
        ],
        "pollDivisionIds": [
          10139609
        ],
        "postalCode": "N6H2Y5",
        "streetName": "PLANTATION",
        "streetDirectionId": null,
        "streetTypeId": "RD",
        "placeName": "LONDON",
        "streetNameDisplayText": "PLANTATION RD, LONDON"
      }
    ]
  },
  {
    "postal": "N6H8L7",
    "result": []
  },
  {
    "postal": "N6H2A8",
    "result": [
      {
        "electoralDistricts": [
          {
            "election": null,
            "id": 54,
            "name": "London North Centre"
          }
        ],
        "pollDivisionIds": [
          10135373
        ],
        "postalCode": "N6H2A8",
        "streetName": "WHARNCLIFFE",
        "streetDirectionId": "N",
        "streetTypeId": "RD",
        "placeName": "LONDON",
        "streetNameDisplayText": "WHARNCLIFFE RD N, LONDON"
      }
    ]
  },
  {
    "postal": "N6H2K9",
    "result": [
      {
        "electoralDistricts": [
          {
            "election": null,
            "id": 54,
            "name": "London North Centre"
          }
        ],
        "pollDivisionIds": [
          10135372
        ],
        "postalCode": "N6H2K9",
        "streetName": "FOSTER",
        "streetDirectionId": null,
        "streetTypeId": "AVE",
        "placeName": "LONDON",
        "streetNameDisplayText": "FOSTER AVE, LONDON"
      }
    ]
  },
  {
    "postal": "N6H3E5",
    "result": [
      {
        "electoralDistricts": [
          {
            "election": null,
            "id": 55,
            "name": "London West"
          }
        ],
        "pollDivisionIds": [
          10139614
        ],
        "postalCode": "N6H3E5",
        "streetName": "WONDERLAND",
        "streetDirectionId": "N",
        "streetTypeId": "RD",
        "placeName": "LONDON",
        "streetNameDisplayText": "WONDERLAND RD N, LONDON"
      }
    ]
  },
  {
    "postal": "N6H8N6",
    "result": []
  },
  {
    "postal": "N6H8J4",
    "result": []
  },
  {
    "postal": "N6H4R7",
    "result": [
      {
        "electoralDistricts": [
          {
            "election": null,
            "id": 55,
            "name": "London West"
          }
        ],
        "pollDivisionIds": [
          10139611
        ],
        "postalCode": "N6H4R7",
        "streetName": "HUNT CLUB",
        "streetDirectionId": null,
        "streetTypeId": "MEWS",
        "placeName": "LONDON",
        "streetNameDisplayText": "HUNT CLUB MEWS, LONDON"
      }
    ]
  },
  {
    "postal": "N6H9K1",
    "result": []
  },
  {
    "postal": "N6H8E1",
    "result": []
  },
  {
    "postal": "N6H0R1",
    "result": []
  },
  {
    "postal": "N6H4J3",
    "result": [
      {
        "electoralDistricts": [
          {
            "election": null,
            "id": 55,
            "name": "London West"
          }
        ],
        "pollDivisionIds": [
          10139611
        ],
        "postalCode": "N6H4J3",
        "streetName": "FARM MANOR",
        "streetDirectionId": null,
        "streetTypeId": "CRT",
        "placeName": "LONDON",
        "streetNameDisplayText": "FARM MANOR CRT, LONDON"
      }
    ]
  },
  {
    "postal": "N6H7E7",
    "result": []
  },
  {
    "postal": "N6H0J0",
    "result": []
  },
  {
    "postal": "N6H7R8",
    "result": []
  },
  {
    "postal": "N6H9X0",
    "result": []
  },
  {
    "postal": "N6H7P6",
    "result": []
  },
  {
    "postal": "N6H0R7",
    "result": []
  },
  {
    "postal": "N6H5W1",
    "result": [
      {
        "electoralDistricts": [
          {
            "election": null,
            "id": 55,
            "name": "London West"
          }
        ],
        "pollDivisionIds": [
          10139607
        ],
        "postalCode": "N6H5W1",
        "streetName": "BLYTHWOOD",
        "streetDirectionId": null,
        "streetTypeId": "RD",
        "placeName": "LONDON",
        "streetNameDisplayText": "BLYTHWOOD RD, LONDON"
      }
    ]
  },
  {
    "postal": "N6H0K4",
    "result": []
  },
  {
    "postal": "N6H7N9",
    "result": []
  },
  {
    "postal": "N6H1N0",
    "result": []
  },
  {
    "postal": "N6H6P3",
    "result": []
  },
  {
    "postal": "N6H5A1",
    "result": [
      {
        "electoralDistricts": [
          {
            "election": null,
            "id": 55,
            "name": "London West"
          }
        ],
        "pollDivisionIds": [
          10139612
        ],
        "postalCode": "N6H5A1",
        "streetName": "HARTSON",
        "streetDirectionId": null,
        "streetTypeId": "RD",
        "placeName": "LONDON",
        "streetNameDisplayText": "HARTSON RD, LONDON"
      },
      {
        "electoralDistricts": [
          {
            "election": null,
            "id": 55,
            "name": "London West"
          }
        ],
        "pollDivisionIds": [
          10139612
        ],
        "postalCode": "N6H5A1",
        "streetName": "HAZELDEN",
        "streetDirectionId": null,
        "streetTypeId": "GROVE",
        "placeName": "LONDON",
        "streetNameDisplayText": "HAZELDEN GROVE, LONDON"
      },
      {
        "electoralDistricts": [
          {
            "election": null,
            "id": 55,
            "name": "London West"
          }
        ],
        "pollDivisionIds": [
          10139612
        ],
        "postalCode": "N6H5A1",
        "streetName": "HAZELDEN",
        "streetDirectionId": null,
        "streetTypeId": "LANE",
        "placeName": "LONDON",
        "streetNameDisplayText": "HAZELDEN LANE, LONDON"
      }
    ]
  },
  {
    "postal": "N6H9M9",
    "result": []
  },
  {
    "postal": "N6H7T6",
    "result": []
  },
  {
    "postal": "N6H3X0",
    "result": []
  },
  {
    "postal": "N6H2T0",
    "result": []
  },
  {
    "postal": "N6H5X9",
    "result": []
  },
  {
    "postal": "N6H2R3",
    "result": [
      {
        "electoralDistricts": [
          {
            "election": null,
            "id": 55,
            "name": "London West"
          }
        ],
        "pollDivisionIds": [
          10139612
        ],
        "postalCode": "N6H2R3",
        "streetName": "ST ANTHONY",
        "streetDirectionId": null,
        "streetTypeId": "RD",
        "placeName": "LONDON",
        "streetNameDisplayText": "ST ANTHONY RD, LONDON"
      }
    ]
  },
  {
    "postal": "N6H5N2",
    "result": [
      {
        "electoralDistricts": [
          {
            "election": null,
            "id": 55,
            "name": "London West"
          }
        ],
        "pollDivisionIds": [
          10139613
        ],
        "postalCode": "N6H5N2",
        "streetName": "WATERSTONE",
        "streetDirectionId": null,
        "streetTypeId": "PL",
        "placeName": "LONDON",
        "streetNameDisplayText": "WATERSTONE PL, LONDON"
      }
    ]
  },
  {
    "postal": "N6H4Y7",
    "result": [
      {
        "electoralDistricts": [
          {
            "election": null,
            "id": 54,
            "name": "London North Centre"
          }
        ],
        "pollDivisionIds": [
          10135393,
          10135344
        ],
        "postalCode": "N6H4Y7",
        "streetName": "PROUDFOOT",
        "streetDirectionId": null,
        "streetTypeId": "LANE",
        "placeName": "LONDON",
        "streetNameDisplayText": "PROUDFOOT LANE, LONDON"
      }
    ]
  },
  {
    "postal": "N6H7M0",
    "result": []
  },
  {
    "postal": "N6H8P3",
    "result": []
  },
  {
    "postal": "N6H3N3",
    "result": [
      {
        "electoralDistricts": [
          {
            "election": null,
            "id": 55,
            "name": "London West"
          }
        ],
        "pollDivisionIds": [
          10139613
        ],
        "postalCode": "N6H3N3",
        "streetName": "THAMES VALLEY",
        "streetDirectionId": null,
        "streetTypeId": "AVE",
        "placeName": "LONDON",
        "streetNameDisplayText": "THAMES VALLEY AVE, LONDON"
      }
    ]
  },
  {
    "postal": "N6H7S3",
    "result": []
  },
  {
    "postal": "N6H3V9",
    "result": [
      {
        "electoralDistricts": [
          {
            "election": null,
            "id": 55,
            "name": "London West"
          }
        ],
        "pollDivisionIds": [
          10139611
        ],
        "postalCode": "N6H3V9",
        "streetName": "SANTA MONICA",
        "streetDirectionId": null,
        "streetTypeId": "RD",
        "placeName": "LONDON",
        "streetNameDisplayText": "SANTA MONICA RD, LONDON"
      }
    ]
  },
  {
    "postal": "N6H9N7",
    "result": []
  },
  {
    "postal": "N6H0G4",
    "result": [
      {
        "electoralDistricts": [
          {
            "election": null,
            "id": 54,
            "name": "London North Centre"
          }
        ],
        "pollDivisionIds": [
          10135383
        ],
        "postalCode": "N6H0G4",
        "streetName": "SUGARCREEK",
        "streetDirectionId": null,
        "streetTypeId": "TRAIL",
        "placeName": "LONDON",
        "streetNameDisplayText": "SUGARCREEK TRAIL, LONDON"
      }
    ]
  },
  {
    "postal": "N6H2E2",
    "result": [
      {
        "electoralDistricts": [
          {
            "election": null,
            "id": 54,
            "name": "London North Centre"
          }
        ],
        "pollDivisionIds": [
          10135373
        ],
        "postalCode": "N6H2E2",
        "streetName": "RATHNALLY",
        "streetDirectionId": null,
        "streetTypeId": "ST",
        "placeName": "LONDON",
        "streetNameDisplayText": "RATHNALLY ST, LONDON"
      }
    ]
  },
  {
    "postal": "N6H7W8",
    "result": []
  },
  {
    "postal": "N6H7M5",
    "result": []
  },
  {
    "postal": "N6H5W8",
    "result": [
      {
        "electoralDistricts": [
          {
            "election": null,
            "id": 55,
            "name": "London West"
          }
        ],
        "pollDivisionIds": [
          10139609
        ],
        "postalCode": "N6H5W8",
        "streetName": "HYDE PARK",
        "streetDirectionId": null,
        "streetTypeId": "RD",
        "placeName": "LONDON",
        "streetNameDisplayText": "HYDE PARK RD, LONDON"
      }
    ]
  },
  {
    "postal": "N6H5E5",
    "result": [
      {
        "electoralDistricts": [
          {
            "election": null,
            "id": 55,
            "name": "London West"
          }
        ],
        "pollDivisionIds": [
          10139608
        ],
        "postalCode": "N6H5E5",
        "streetName": "GUILDWOOD",
        "streetDirectionId": null,
        "streetTypeId": "BLVD",
        "placeName": "LONDON",
        "streetNameDisplayText": "GUILDWOOD BLVD, LONDON"
      },
      {
        "electoralDistricts": [
          {
            "election": null,
            "id": 55,
            "name": "London West"
          }
        ],
        "pollDivisionIds": [
          10139608
        ],
        "postalCode": "N6H5E5",
        "streetName": "RICHMEADOW",
        "streetDirectionId": null,
        "streetTypeId": "CRES",
        "placeName": "LONDON",
        "streetNameDisplayText": "RICHMEADOW CRES, LONDON"
      }
    ]
  },
  {
    "postal": "N6H1P9",
    "result": [
      {
        "electoralDistricts": [
          {
            "election": null,
            "id": 54,
            "name": "London North Centre"
          }
        ],
        "pollDivisionIds": [
          10135373
        ],
        "postalCode": "N6H1P9",
        "streetName": "OXFORD",
        "streetDirectionId": "W",
        "streetTypeId": "ST",
        "placeName": "LONDON",
        "streetNameDisplayText": "OXFORD ST W, LONDON"
      }
    ]
  },
  {
    "postal": "N6H8V8",
    "result": []
  },
  {
    "postal": "N6H9G8",
    "result": []
  },
  {
    "postal": "N6H8H9",
    "result": []
  },
  {
    "postal": "N6H1Z1",
    "result": [
      {
        "electoralDistricts": [
          {
            "election": null,
            "id": 54,
            "name": "London North Centre"
          }
        ],
        "pollDivisionIds": [
          10135373
        ],
        "postalCode": "N6H1Z1",
        "streetName": "ALBION",
        "streetDirectionId": null,
        "streetTypeId": "ST",
        "placeName": "LONDON",
        "streetNameDisplayText": "ALBION ST, LONDON"
      }
    ]
  },
  {
    "postal": "N6H8M3",
    "result": []
  },
  {
    "postal": "N6H5H6",
    "result": [
      {
        "electoralDistricts": [
          {
            "election": null,
            "id": 55,
            "name": "London West"
          }
        ],
        "pollDivisionIds": [
          10139608
        ],
        "postalCode": "N6H5H6",
        "streetName": "FITZWILLIAM",
        "streetDirectionId": null,
        "streetTypeId": "BLVD",
        "placeName": "LONDON",
        "streetNameDisplayText": "FITZWILLIAM BLVD, LONDON"
      },
      {
        "electoralDistricts": [
          {
            "election": null,
            "id": 55,
            "name": "London West"
          }
        ],
        "pollDivisionIds": [
          10139608
        ],
        "postalCode": "N6H5H6",
        "streetName": "NORTHUMBERLAND",
        "streetDirectionId": null,
        "streetTypeId": "RD",
        "placeName": "LONDON",
        "streetNameDisplayText": "NORTHUMBERLAND RD, LONDON"
      }
    ]
  },
  {
    "postal": "N6H7W7",
    "result": []
  },
  {
    "postal": "N6H4L0",
    "result": []
  },
  {
    "postal": "N6H2N1",
    "result": [
      {
        "electoralDistricts": [
          {
            "election": null,
            "id": 55,
            "name": "London West"
          }
        ],
        "pollDivisionIds": [
          10139613
        ],
        "postalCode": "N6H2N1",
        "streetName": "CLEARVIEW",
        "streetDirectionId": null,
        "streetTypeId": "AVE",
        "placeName": "LONDON",
        "streetNameDisplayText": "CLEARVIEW AVE, LONDON"
      }
    ]
  },
  {
    "postal": "N6H2H4",
    "result": [
      {
        "electoralDistricts": [
          {
            "election": null,
            "id": 54,
            "name": "London North Centre"
          }
        ],
        "pollDivisionIds": [
          10135372
        ],
        "postalCode": "N6H2H4",
        "streetName": "WOODWARD",
        "streetDirectionId": null,
        "streetTypeId": "AVE",
        "placeName": "LONDON",
        "streetNameDisplayText": "WOODWARD AVE, LONDON"
      }
    ]
  },
  {
    "postal": "N6H5C8",
    "result": []
  },
  {
    "postal": "N6H8B0",
    "result": []
  },
  {
    "postal": "N6H1T4",
    "result": [
      {
        "electoralDistricts": [
          {
            "election": null,
            "id": 54,
            "name": "London North Centre"
          }
        ],
        "pollDivisionIds": [
          10135371
        ],
        "postalCode": "N6H1T4",
        "streetName": "OXFORD ST W",
        "streetDirectionId": "W",
        "streetTypeId": "ST",
        "placeName": "LONDON",
        "streetNameDisplayText": "OXFORD ST W ST W, LONDON"
      },
      {
        "electoralDistricts": [
          {
            "election": null,
            "id": 54,
            "name": "London North Centre"
          }
        ],
        "pollDivisionIds": [
          10135371
        ],
        "postalCode": "N6H1T4",
        "streetName": "OXFORD",
        "streetDirectionId": "W",
        "streetTypeId": "ST",
        "placeName": "LONDON",
        "streetNameDisplayText": "OXFORD ST W, LONDON"
      }
    ]
  },
  {
    "postal": "N6H7N7",
    "result": []
  },
  {
    "postal": "N6H4L3",
    "result": [
      {
        "electoralDistricts": [
          {
            "election": null,
            "id": 55,
            "name": "London West"
          }
        ],
        "pollDivisionIds": [
          10139614
        ],
        "postalCode": "N6H4L3",
        "streetName": "EVERGLADE",
        "streetDirectionId": null,
        "streetTypeId": "CRES",
        "placeName": "LONDON",
        "streetNameDisplayText": "EVERGLADE CRES, LONDON"
      }
    ]
  },
  {
    "postal": "N6H2N2",
    "result": [
      {
        "electoralDistricts": [
          {
            "election": null,
            "id": 55,
            "name": "London West"
          }
        ],
        "pollDivisionIds": [
          10139613
        ],
        "postalCode": "N6H2N2",
        "streetName": "CLEARVIEW",
        "streetDirectionId": null,
        "streetTypeId": "AVE",
        "placeName": "LONDON",
        "streetNameDisplayText": "CLEARVIEW AVE, LONDON"
      }
    ]
  },
  {
    "postal": "N6H4N8",
    "result": [
      {
        "electoralDistricts": [
          {
            "election": null,
            "id": 54,
            "name": "London North Centre"
          }
        ],
        "pollDivisionIds": [
          10135415
        ],
        "postalCode": "N6H4N8",
        "streetName": "OXFORD",
        "streetDirectionId": "W",
        "streetTypeId": "ST",
        "placeName": "LONDON",
        "streetNameDisplayText": "OXFORD ST W, LONDON"
      }
    ]
  },
  {
    "postal": "N6H3M5",
    "result": [
      {
        "electoralDistricts": [
          {
            "election": null,
            "id": 55,
            "name": "London West"
          }
        ],
        "pollDivisionIds": [
          10139613
        ],
        "postalCode": "N6H3M5",
        "streetName": "WEST MILE",
        "streetDirectionId": null,
        "streetTypeId": "RD",
        "placeName": "LONDON",
        "streetNameDisplayText": "WEST MILE RD, LONDON"
      }
    ]
  },
  {
    "postal": "N6H6H7",
    "result": []
  },
  {
    "postal": "N6H8Y8",
    "result": []
  },
  {
    "postal": "N6H5R9",
    "result": [
      {
        "electoralDistricts": [
          {
            "election": null,
            "id": 55,
            "name": "London West"
          }
        ],
        "pollDivisionIds": [
          10139608
        ],
        "postalCode": "N6H5R9",
        "streetName": "CEDARWOOD",
        "streetDirectionId": null,
        "streetTypeId": "RD",
        "placeName": "LONDON",
        "streetNameDisplayText": "CEDARWOOD RD, LONDON"
      },
      {
        "electoralDistricts": [
          {
            "election": null,
            "id": 55,
            "name": "London West"
          }
        ],
        "pollDivisionIds": [
          10139608
        ],
        "postalCode": "N6H5R9",
        "streetName": "MEADOWOAK",
        "streetDirectionId": null,
        "streetTypeId": "CRES",
        "placeName": "LONDON",
        "streetNameDisplayText": "MEADOWOAK CRES, LONDON"
      }
    ]
  },
  {
    "postal": "N6H8G3",
    "result": []
  },
  {
    "postal": "N6H4N7",
    "result": [
      {
        "electoralDistricts": [
          {
            "election": null,
            "id": 54,
            "name": "London North Centre"
          }
        ],
        "pollDivisionIds": [
          10135415
        ],
        "postalCode": "N6H4N7",
        "streetName": "OXFORD",
        "streetDirectionId": "W",
        "streetTypeId": "ST",
        "placeName": "LONDON",
        "streetNameDisplayText": "OXFORD ST W, LONDON"
      }
    ]
  },
  {
    "postal": "N6H0B9",
    "result": [
      {
        "electoralDistricts": [
          {
            "election": null,
            "id": 55,
            "name": "London West"
          }
        ],
        "pollDivisionIds": [
          10139601
        ],
        "postalCode": "N6H0B9",
        "streetName": "STAFFORDSHIRE",
        "streetDirectionId": null,
        "streetTypeId": "CRT",
        "placeName": "LONDON",
        "streetNameDisplayText": "STAFFORDSHIRE CRT, LONDON"
      },
      {
        "electoralDistricts": [
          {
            "election": null,
            "id": 55,
            "name": "London West"
          }
        ],
        "pollDivisionIds": [
          10139601
        ],
        "postalCode": "N6H0B9",
        "streetName": "STAFFORDSHIRE",
        "streetDirectionId": null,
        "streetTypeId": "RD",
        "placeName": "LONDON",
        "streetNameDisplayText": "STAFFORDSHIRE RD, LONDON"
      }
    ]
  },
  {
    "postal": "N6H9K7",
    "result": []
  },
  {
    "postal": "N6H9K9",
    "result": []
  },
  {
    "postal": "N6H3Z2",
    "result": [
      {
        "electoralDistricts": [
          {
            "election": null,
            "id": 55,
            "name": "London West"
          }
        ],
        "pollDivisionIds": [
          10139608
        ],
        "postalCode": "N6H3Z2",
        "streetName": "HUNT CLUB",
        "streetDirectionId": null,
        "streetTypeId": "DR",
        "placeName": "LONDON",
        "streetNameDisplayText": "HUNT CLUB DR, LONDON"
      }
    ]
  },
  {
    "postal": "N6H6W7",
    "result": []
  },
  {
    "postal": "N6H0P1",
    "result": []
  },
  {
    "postal": "N6H3A0",
    "result": []
  },
  {
    "postal": "N6H8L9",
    "result": []
  },
  {
    "postal": "N6H6X0",
    "result": []
  },
  {
    "postal": "N6H3E9",
    "result": [
      {
        "electoralDistricts": [
          {
            "election": null,
            "id": 55,
            "name": "London West"
          }
        ],
        "pollDivisionIds": [
          10139614
        ],
        "postalCode": "N6H3E9",
        "streetName": "OAKRIDGE",
        "streetDirectionId": null,
        "streetTypeId": "DR",
        "placeName": "LONDON",
        "streetNameDisplayText": "OAKRIDGE DR, LONDON"
      }
    ]
  },
  {
    "postal": "N6H0S5",
    "result": []
  },
  {
    "postal": "N6H1A2",
    "result": [
      {
        "electoralDistricts": [
          {
            "election": null,
            "id": 54,
            "name": "London North Centre"
          }
        ],
        "pollDivisionIds": [
          10135384
        ],
        "postalCode": "N6H1A2",
        "streetName": "CAVENDISH",
        "streetDirectionId": null,
        "streetTypeId": "CRES",
        "placeName": "LONDON",
        "streetNameDisplayText": "CAVENDISH CRES, LONDON"
      }
    ]
  },
  {
    "postal": "N6H5V8",
    "result": [
      {
        "electoralDistricts": [
          {
            "election": null,
            "id": 55,
            "name": "London West"
          }
        ],
        "pollDivisionIds": [
          10139607
        ],
        "postalCode": "N6H5V8",
        "streetName": "BUSHBY",
        "streetDirectionId": null,
        "streetTypeId": "CRT",
        "placeName": "LONDON",
        "streetNameDisplayText": "BUSHBY CRT, LONDON"
      },
      {
        "electoralDistricts": [
          {
            "election": null,
            "id": 55,
            "name": "London West"
          }
        ],
        "pollDivisionIds": [
          10139607
        ],
        "postalCode": "N6H5V8",
        "streetName": "OAKCROSSING",
        "streetDirectionId": null,
        "streetTypeId": "RD",
        "placeName": "LONDON",
        "streetNameDisplayText": "OAKCROSSING RD, LONDON"
      }
    ]
  },
  {
    "postal": "N6H8C5",
    "result": []
  },
  {
    "postal": "N6H6N0",
    "result": []
  },
  {
    "postal": "N6H9E6",
    "result": []
  },
  {
    "postal": "N6H5J7",
    "result": [
      {
        "electoralDistricts": [
          {
            "election": null,
            "id": 55,
            "name": "London West"
          }
        ],
        "pollDivisionIds": [
          10139599
        ],
        "postalCode": "N6H5J7",
        "streetName": "SUNNINGDALE",
        "streetDirectionId": "W",
        "streetTypeId": "RD",
        "placeName": "LONDON",
        "streetNameDisplayText": "SUNNINGDALE RD W, LONDON"
      }
    ]
  },
  {
    "postal": "N6H2R2",
    "result": [
      {
        "electoralDistricts": [
          {
            "election": null,
            "id": 55,
            "name": "London West"
          }
        ],
        "pollDivisionIds": [
          10139612
        ],
        "postalCode": "N6H2R2",
        "streetName": "ST ANTHONY",
        "streetDirectionId": null,
        "streetTypeId": "RD",
        "placeName": "LONDON",
        "streetNameDisplayText": "ST ANTHONY RD, LONDON"
      }
    ]
  },
  {
    "postal": "N6H0P5",
    "result": []
  },
  {
    "postal": "N6H5A7",
    "result": [
      {
        "electoralDistricts": [
          {
            "election": null,
            "id": 55,
            "name": "London West"
          }
        ],
        "pollDivisionIds": [
          10139612
        ],
        "postalCode": "N6H5A7",
        "streetName": "ALDER",
        "streetDirectionId": null,
        "streetTypeId": "GROVE",
        "placeName": "LONDON",
        "streetNameDisplayText": "ALDER GROVE, LONDON"
      },
      {
        "electoralDistricts": [
          {
            "election": null,
            "id": 55,
            "name": "London West"
          }
        ],
        "pollDivisionIds": [
          10139612
        ],
        "postalCode": "N6H5A7",
        "streetName": "GREEN HEDGE",
        "streetDirectionId": null,
        "streetTypeId": "LANE",
        "placeName": "LONDON",
        "streetNameDisplayText": "GREEN HEDGE LANE, LONDON"
      }
    ]
  },
  {
    "postal": "N6H1G1",
    "result": [
      {
        "electoralDistricts": [
          {
            "election": null,
            "id": 54,
            "name": "London North Centre"
          }
        ],
        "pollDivisionIds": [
          10135384
        ],
        "postalCode": "N6H1G1",
        "streetName": "RIVERSIDE",
        "streetDirectionId": null,
        "streetTypeId": "DR",
        "placeName": "LONDON",
        "streetNameDisplayText": "RIVERSIDE DR, LONDON"
      }
    ]
  },
  {
    "postal": "N6H9R6",
    "result": []
  },
  {
    "postal": "N6H4Z9",
    "result": [
      {
        "electoralDistricts": [
          {
            "election": null,
            "id": 55,
            "name": "London West"
          }
        ],
        "pollDivisionIds": [
          10139612
        ],
        "postalCode": "N6H4Z9",
        "streetName": "GARNET",
        "streetDirectionId": null,
        "streetTypeId": "CRT",
        "placeName": "LONDON",
        "streetNameDisplayText": "GARNET CRT, LONDON"
      },
      {
        "electoralDistricts": [
          {
            "election": null,
            "id": 55,
            "name": "London West"
          }
        ],
        "pollDivisionIds": [
          10139612
        ],
        "postalCode": "N6H4Z9",
        "streetName": "HAZELDEN",
        "streetDirectionId": null,
        "streetTypeId": "LANE",
        "placeName": "LONDON",
        "streetNameDisplayText": "HAZELDEN LANE, LONDON"
      },
      {
        "electoralDistricts": [
          {
            "election": null,
            "id": 55,
            "name": "London West"
          }
        ],
        "pollDivisionIds": [
          10139612
        ],
        "postalCode": "N6H4Z9",
        "streetName": "LITTLEFORD",
        "streetDirectionId": null,
        "streetTypeId": "PL",
        "placeName": "LONDON",
        "streetNameDisplayText": "LITTLEFORD PL, LONDON"
      },
      {
        "electoralDistricts": [
          {
            "election": null,
            "id": 55,
            "name": "London West"
          }
        ],
        "pollDivisionIds": [
          10139612
        ],
        "postalCode": "N6H4Z9",
        "streetName": "MANTLE",
        "streetDirectionId": null,
        "streetTypeId": "PL",
        "placeName": "LONDON",
        "streetNameDisplayText": "MANTLE PL, LONDON"
      }
    ]
  },
  {
    "postal": "N6H1V5",
    "result": []
  },
  {
    "postal": "N6H9Y5",
    "result": []
  },
  {
    "postal": "N6H1P2",
    "result": [
      {
        "electoralDistricts": [
          {
            "election": null,
            "id": 54,
            "name": "London North Centre"
          }
        ],
        "pollDivisionIds": [
          10135372
        ],
        "postalCode": "N6H1P2",
        "streetName": "CAMBRIDGE",
        "streetDirectionId": null,
        "streetTypeId": "ST",
        "placeName": "LONDON",
        "streetNameDisplayText": "CAMBRIDGE ST, LONDON"
      }
    ]
  },
  {
    "postal": "N6H5X0",
    "result": []
  },
  {
    "postal": "N6H7B8",
    "result": []
  },
  {
    "postal": "N6H0C6",
    "result": [
      {
        "electoralDistricts": [
          {
            "election": null,
            "id": 55,
            "name": "London West"
          }
        ],
        "pollDivisionIds": [
          10139601
        ],
        "postalCode": "N6H0C6",
        "streetName": "SOUTH CARRIAGE",
        "streetDirectionId": null,
        "streetTypeId": "RD",
        "placeName": "LONDON",
        "streetNameDisplayText": "SOUTH CARRIAGE RD, LONDON"
      }
    ]
  },
  {
    "postal": "N6H6G1",
    "result": []
  },
  {
    "postal": "N6H3K3",
    "result": [
      {
        "electoralDistricts": [
          {
            "election": null,
            "id": 55,
            "name": "London West"
          }
        ],
        "pollDivisionIds": [
          10139613
        ],
        "postalCode": "N6H3K3",
        "streetName": "EAST MILE",
        "streetDirectionId": null,
        "streetTypeId": "RD",
        "placeName": "LONDON",
        "streetNameDisplayText": "EAST MILE RD, LONDON"
      }
    ]
  },
  {
    "postal": "N6H9R0",
    "result": []
  },
  {
    "postal": "N6H4R8",
    "result": [
      {
        "electoralDistricts": [
          {
            "election": null,
            "id": 54,
            "name": "London North Centre"
          }
        ],
        "pollDivisionIds": [
          10135384
        ],
        "postalCode": "N6H4R8",
        "streetName": "KENSINGTON",
        "streetDirectionId": null,
        "streetTypeId": "PL",
        "placeName": "LONDON",
        "streetNameDisplayText": "KENSINGTON PL, LONDON"
      }
    ]
  },
  {
    "postal": "N6H5P9",
    "result": [
      {
        "electoralDistricts": [
          {
            "election": null,
            "id": 55,
            "name": "London West"
          }
        ],
        "pollDivisionIds": [
          10139601
        ],
        "postalCode": "N6H5P9",
        "streetName": "AINTREE",
        "streetDirectionId": null,
        "streetTypeId": "RD",
        "placeName": "LONDON",
        "streetNameDisplayText": "AINTREE RD, LONDON"
      },
      {
        "electoralDistricts": [
          {
            "election": null,
            "id": 55,
            "name": "London West"
          }
        ],
        "pollDivisionIds": [
          10139601
        ],
        "postalCode": "N6H5P9",
        "streetName": "CHELTENHAM",
        "streetDirectionId": null,
        "streetTypeId": "RD",
        "placeName": "LONDON",
        "streetNameDisplayText": "CHELTENHAM RD, LONDON"
      },
      {
        "electoralDistricts": [
          {
            "election": null,
            "id": 55,
            "name": "London West"
          }
        ],
        "pollDivisionIds": [
          10139601
        ],
        "postalCode": "N6H5P9",
        "streetName": "STAFFORDSHIRE",
        "streetDirectionId": null,
        "streetTypeId": "RD",
        "placeName": "LONDON",
        "streetNameDisplayText": "STAFFORDSHIRE RD, LONDON"
      }
    ]
  },
  {
    "postal": "N6H8N4",
    "result": []
  },
  {
    "postal": "N6H8H4",
    "result": []
  },
  {
    "postal": "N6H4V1",
    "result": []
  },
  {
    "postal": "N6H1K5",
    "result": [
      {
        "electoralDistricts": [
          {
            "election": null,
            "id": 54,
            "name": "London North Centre"
          }
        ],
        "pollDivisionIds": [
          10135373,
          10135372
        ],
        "postalCode": "N6H1K5",
        "streetName": "BLACKFRIARS",
        "streetDirectionId": null,
        "streetTypeId": "ST",
        "placeName": "LONDON",
        "streetNameDisplayText": "BLACKFRIARS ST, LONDON"
      }
    ]
  },
  {
    "postal": "N6H1Z5",
    "result": [
      {
        "electoralDistricts": [
          {
            "election": null,
            "id": 54,
            "name": "London North Centre"
          }
        ],
        "pollDivisionIds": [
          10135355,
          10135373
        ],
        "postalCode": "N6H1Z5",
        "streetName": "ST ANDREW",
        "streetDirectionId": null,
        "streetTypeId": "ST",
        "placeName": "LONDON",
        "streetNameDisplayText": "ST ANDREW ST, LONDON"
      }
    ]
  },
  {
    "postal": "N6H9L9",
    "result": []
  },
  {
    "postal": "N6H5L2",
    "result": [
      {
        "electoralDistricts": [
          {
            "election": null,
            "id": 50,
            "name": "LambtonKentMiddlesex"
          }
        ],
        "pollDivisionIds": [
          10139351
        ],
        "postalCode": "N6H5L2",
        "streetName": "BOSTON",
        "streetDirectionId": null,
        "streetTypeId": "DR",
        "placeName": "LONDON",
        "streetNameDisplayText": "BOSTON DR, LONDON"
      },
      {
        "electoralDistricts": [
          {
            "election": null,
            "id": 50,
            "name": "LambtonKentMiddlesex"
          }
        ],
        "pollDivisionIds": [
          10139351,
          10143942
        ],
        "postalCode": "N6H5L2",
        "streetName": "DENFIELD",
        "streetDirectionId": null,
        "streetTypeId": "RD",
        "placeName": "LONDON",
        "streetNameDisplayText": "DENFIELD RD, LONDON"
      },
      {
        "electoralDistricts": [
          {
            "election": null,
            "id": 50,
            "name": "LambtonKentMiddlesex"
          }
        ],
        "pollDivisionIds": [
          10139351
        ],
        "postalCode": "N6H5L2",
        "streetName": "EGREMONT",
        "streetDirectionId": null,
        "streetTypeId": "DR",
        "placeName": "LONDON",
        "streetNameDisplayText": "EGREMONT DR, LONDON"
      },
      {
        "electoralDistricts": [
          {
            "election": null,
            "id": 50,
            "name": "LambtonKentMiddlesex"
          }
        ],
        "pollDivisionIds": [
          10139351
        ],
        "postalCode": "N6H5L2",
        "streetName": "FRANK",
        "streetDirectionId": null,
        "streetTypeId": "LANE",
        "placeName": "LONDON",
        "streetNameDisplayText": "FRANK LANE, LONDON"
      },
      {
        "electoralDistricts": [
          {
            "election": null,
            "id": 50,
            "name": "LambtonKentMiddlesex"
          }
        ],
        "pollDivisionIds": [
          10139351
        ],
        "postalCode": "N6H5L2",
        "streetName": "FRANK'S",
        "streetDirectionId": null,
        "streetTypeId": "LANE",
        "placeName": "LONDON",
        "streetNameDisplayText": "FRANK'S LANE, LONDON"
      },
      {
        "electoralDistricts": [
          {
            "election": null,
            "id": 50,
            "name": "LambtonKentMiddlesex"
          },
          {
            "election": null,
            "id": 55,
            "name": "London West"
          }
        ],
        "pollDivisionIds": [
          10139351,
          10139599
        ],
        "postalCode": "N6H5L2",
        "streetName": "GAINSBOROUGH",
        "streetDirectionId": null,
        "streetTypeId": "RD",
        "placeName": "LONDON",
        "streetNameDisplayText": "GAINSBOROUGH RD, LONDON"
      },
      {
        "electoralDistricts": [
          {
            "election": null,
            "id": 50,
            "name": "LambtonKentMiddlesex"
          }
        ],
        "pollDivisionIds": [
          10139351
        ],
        "postalCode": "N6H5L2",
        "streetName": "NAIRN",
        "streetDirectionId": null,
        "streetTypeId": "RD",
        "placeName": "LONDON",
        "streetNameDisplayText": "NAIRN RD, LONDON"
      },
      {
        "electoralDistricts": [
          {
            "election": null,
            "id": 50,
            "name": "LambtonKentMiddlesex"
          }
        ],
        "pollDivisionIds": [
          10139351
        ],
        "postalCode": "N6H5L2",
        "streetName": "PULHAM",
        "streetDirectionId": null,
        "streetTypeId": "RD",
        "placeName": "LONDON",
        "streetNameDisplayText": "PULHAM RD, LONDON"
      },
      {
        "electoralDistricts": [
          {
            "election": null,
            "id": 50,
            "name": "LambtonKentMiddlesex"
          }
        ],
        "pollDivisionIds": [
          10139351
        ],
        "postalCode": "N6H5L2",
        "streetName": "PULLHAM",
        "streetDirectionId": null,
        "streetTypeId": "RD",
        "placeName": "LONDON",
        "streetNameDisplayText": "PULLHAM RD, LONDON"
      },
      {
        "electoralDistricts": [
          {
            "election": null,
            "id": 50,
            "name": "LambtonKentMiddlesex"
          }
        ],
        "pollDivisionIds": [
          10139351
        ],
        "postalCode": "N6H5L2",
        "streetName": "SUNNINGDALE",
        "streetDirectionId": "E",
        "streetTypeId": "RD",
        "placeName": "LONDON",
        "streetNameDisplayText": "SUNNINGDALE RD E, LONDON"
      },
      {
        "electoralDistricts": [
          {
            "election": null,
            "id": 50,
            "name": "LambtonKentMiddlesex"
          }
        ],
        "pollDivisionIds": [
          10143942,
          10139351
        ],
        "postalCode": "N6H5L2",
        "streetName": "SUNNINGDALE",
        "streetDirectionId": "W",
        "streetTypeId": "RD",
        "placeName": "LONDON",
        "streetNameDisplayText": "SUNNINGDALE RD W, LONDON"
      },
      {
        "electoralDistricts": [
          {
            "election": null,
            "id": 50,
            "name": "LambtonKentMiddlesex"
          }
        ],
        "pollDivisionIds": [
          10139351,
          10143942
        ],
        "postalCode": "N6H5L2",
        "streetName": "VANNECK",
        "streetDirectionId": null,
        "streetTypeId": "RD",
        "placeName": "LONDON",
        "streetNameDisplayText": "VANNECK RD, LONDON"
      },
      {
        "electoralDistricts": [
          {
            "election": null,
            "id": 50,
            "name": "LambtonKentMiddlesex"
          }
        ],
        "pollDivisionIds": [
          10139351
        ],
        "postalCode": "N6H5L2",
        "streetName": "WYNFIELD",
        "streetDirectionId": null,
        "streetTypeId": "GATE",
        "placeName": "LONDON",
        "streetNameDisplayText": "WYNFIELD GATE, LONDON"
      },
      {
        "electoralDistricts": [
          {
            "election": null,
            "id": 50,
            "name": "LambtonKentMiddlesex"
          }
        ],
        "pollDivisionIds": [
          10139351
        ],
        "postalCode": "N6H5L2",
        "streetName": "WYNFIELD",
        "streetDirectionId": null,
        "streetTypeId": "LANE",
        "placeName": "LONDON",
        "streetNameDisplayText": "WYNFIELD LANE, LONDON"
      }
    ]
  },
  {
    "postal": "N6H0M2",
    "result": []
  },
  {
    "postal": "N6H1K8",
    "result": [
      {
        "electoralDistricts": [
          {
            "election": null,
            "id": 54,
            "name": "London North Centre"
          }
        ],
        "pollDivisionIds": [
          10135373
        ],
        "postalCode": "N6H1K8",
        "streetName": "BLACKFRIARS",
        "streetDirectionId": null,
        "streetTypeId": "ST",
        "placeName": "LONDON",
        "streetNameDisplayText": "BLACKFRIARS ST, LONDON"
      }
    ]
  },
  {
    "postal": "N6H3M7",
    "result": [
      {
        "electoralDistricts": [
          {
            "election": null,
            "id": 55,
            "name": "London West"
          }
        ],
        "pollDivisionIds": [
          10139614
        ],
        "postalCode": "N6H3M7",
        "streetName": "JUNIPER",
        "streetDirectionId": null,
        "streetTypeId": "ST",
        "placeName": "LONDON",
        "streetNameDisplayText": "JUNIPER ST, LONDON"
      }
    ]
  },
  {
    "postal": "N6H1B2",
    "result": []
  },
  {
    "postal": "N6H0H9",
    "result": []
  },
  {
    "postal": "N6H8M4",
    "result": []
  },
  {
    "postal": "N6H2M5",
    "result": [
      {
        "electoralDistricts": [
          {
            "election": null,
            "id": 54,
            "name": "London North Centre"
          }
        ],
        "pollDivisionIds": [
          10135396,
          10135371,
          10135344
        ],
        "postalCode": "N6H2M5",
        "streetName": "WESTFIELD",
        "streetDirectionId": null,
        "streetTypeId": "DR",
        "placeName": "LONDON",
        "streetNameDisplayText": "WESTFIELD DR, LONDON"
      }
    ]
  },
  {
    "postal": "N6H0T9",
    "result": []
  },
  {
    "postal": "N6H3P1",
    "result": [
      {
        "electoralDistricts": [
          {
            "election": null,
            "id": 55,
            "name": "London West"
          }
        ],
        "pollDivisionIds": [
          10139614
        ],
        "postalCode": "N6H3P1",
        "streetName": "HIBISCUS",
        "streetDirectionId": null,
        "streetTypeId": "AVE",
        "placeName": "LONDON",
        "streetNameDisplayText": "HIBISCUS AVE, LONDON"
      }
    ]
  },
  {
    "postal": "N6H1R6",
    "result": []
  },
  {
    "postal": "N6H9V5",
    "result": []
  },
  {
    "postal": "N6H9T0",
    "result": []
  },
  {
    "postal": "N6H0A9",
    "result": [
      {
        "electoralDistricts": [
          {
            "election": null,
            "id": 55,
            "name": "London West"
          }
        ],
        "pollDivisionIds": [
          10139607
        ],
        "postalCode": "N6H0A9",
        "streetName": "BEAVERBROOK",
        "streetDirectionId": null,
        "streetTypeId": "AVE",
        "placeName": "LONDON",
        "streetNameDisplayText": "BEAVERBROOK AVE, LONDON"
      },
      {
        "electoralDistricts": [
          {
            "election": null,
            "id": 55,
            "name": "London West"
          }
        ],
        "pollDivisionIds": [
          10139607
        ],
        "postalCode": "N6H0A9",
        "streetName": "BITTERBUSH",
        "streetDirectionId": null,
        "streetTypeId": "CRES",
        "placeName": "LONDON",
        "streetNameDisplayText": "BITTERBUSH CRES, LONDON"
      }
    ]
  },
  {
    "postal": "N6H1M3",
    "result": [
      {
        "electoralDistricts": [
          {
            "election": null,
            "id": 54,
            "name": "London North Centre"
          }
        ],
        "pollDivisionIds": [
          10135372
        ],
        "postalCode": "N6H1M3",
        "streetName": "EDINBURGH",
        "streetDirectionId": null,
        "streetTypeId": "ST",
        "placeName": "LONDON",
        "streetNameDisplayText": "EDINBURGH ST, LONDON"
      }
    ]
  },
  {
    "postal": "N6H1W8",
    "result": []
  },
  {
    "postal": "N6H9J1",
    "result": []
  },
  {
    "postal": "N6H8N5",
    "result": []
  },
  {
    "postal": "N6H5X1",
    "result": [
      {
        "electoralDistricts": [
          {
            "election": null,
            "id": 55,
            "name": "London West"
          }
        ],
        "pollDivisionIds": [
          10139607
        ],
        "postalCode": "N6H5X1",
        "streetName": "BAIRD",
        "streetDirectionId": null,
        "streetTypeId": "ST",
        "placeName": "LONDON",
        "streetNameDisplayText": "BAIRD ST, LONDON"
      },
      {
        "electoralDistricts": [
          {
            "election": null,
            "id": 55,
            "name": "London West"
          }
        ],
        "pollDivisionIds": [
          10139607
        ],
        "postalCode": "N6H5X1",
        "streetName": "WHETHERFIELD",
        "streetDirectionId": null,
        "streetTypeId": "ST",
        "placeName": "LONDON",
        "streetNameDisplayText": "WHETHERFIELD ST, LONDON"
      }
    ]
  },
  {
    "postal": "N6H6S2",
    "result": []
  },
  {
    "postal": "N6H2A2",
    "result": [
      {
        "electoralDistricts": [
          {
            "election": null,
            "id": 54,
            "name": "London North Centre"
          }
        ],
        "pollDivisionIds": [
          10135384
        ],
        "postalCode": "N6H2A2",
        "streetName": "WHARNCLIFFE",
        "streetDirectionId": "N",
        "streetTypeId": "RD",
        "placeName": "LONDON",
        "streetNameDisplayText": "WHARNCLIFFE RD N, LONDON"
      }
    ]
  },
  {
    "postal": "N6H6A6",
    "result": []
  },
  {
    "postal": "N6H0S3",
    "result": []
  },
  {
    "postal": "N6H3E7",
    "result": []
  },
  {
    "postal": "N6H5R7",
    "result": [
      {
        "electoralDistricts": [
          {
            "election": null,
            "id": 55,
            "name": "London West"
          }
        ],
        "pollDivisionIds": [
          10139609
        ],
        "postalCode": "N6H5R7",
        "streetName": "BLACKSMITH",
        "streetDirectionId": null,
        "streetTypeId": "ST",
        "placeName": "LONDON",
        "streetNameDisplayText": "BLACKSMITH ST, LONDON"
      },
      {
        "electoralDistricts": [
          {
            "election": null,
            "id": 55,
            "name": "London West"
          }
        ],
        "pollDivisionIds": [
          10139607,
          10139609
        ],
        "postalCode": "N6H5R7",
        "streetName": "SILVERSMITH",
        "streetDirectionId": null,
        "streetTypeId": "ST",
        "placeName": "LONDON",
        "streetNameDisplayText": "SILVERSMITH ST, LONDON"
      }
    ]
  },
  {
    "postal": "N6H3R6",
    "result": [
      {
        "electoralDistricts": [
          {
            "election": null,
            "id": 55,
            "name": "London West"
          }
        ],
        "pollDivisionIds": [
          10139613
        ],
        "postalCode": "N6H3R6",
        "streetName": "HAZEL",
        "streetDirectionId": null,
        "streetTypeId": "AVE",
        "placeName": "LONDON",
        "streetNameDisplayText": "HAZEL AVE, LONDON"
      }
    ]
  },
  {
    "postal": "N6H6K4",
    "result": []
  },
  {
    "postal": "N6H2W5",
    "result": [
      {
        "electoralDistricts": [
          {
            "election": null,
            "id": 55,
            "name": "London West"
          }
        ],
        "pollDivisionIds": [
          10139612
        ],
        "postalCode": "N6H2W5",
        "streetName": "MAHOGANY",
        "streetDirectionId": null,
        "streetTypeId": "RD",
        "placeName": "LONDON",
        "streetNameDisplayText": "MAHOGANY RD, LONDON"
      }
    ]
  },
  {
    "postal": "N6H8W4",
    "result": []
  },
  {
    "postal": "N6H9C2",
    "result": []
  },
  {
    "postal": "N6H2C0",
    "result": []
  },
  {
    "postal": "N6H0E1",
    "result": [
      {
        "electoralDistricts": [
          {
            "election": null,
            "id": 55,
            "name": "London West"
          }
        ],
        "pollDivisionIds": [
          10139601
        ],
        "postalCode": "N6H0E1",
        "streetName": "CHERRYWOOD",
        "streetDirectionId": null,
        "streetTypeId": "TRAIL",
        "placeName": "LONDON",
        "streetNameDisplayText": "CHERRYWOOD TRAIL, LONDON"
      }
    ]
  },
  {
    "postal": "N6H1K9",
    "result": [
      {
        "electoralDistricts": [
          {
            "election": null,
            "id": 54,
            "name": "London North Centre"
          }
        ],
        "pollDivisionIds": [
          10135373
        ],
        "postalCode": "N6H1K9",
        "streetName": "BLACKFRIARS",
        "streetDirectionId": null,
        "streetTypeId": "ST",
        "placeName": "LONDON",
        "streetNameDisplayText": "BLACKFRIARS ST, LONDON"
      }
    ]
  },
  {
    "postal": "N6H1G7",
    "result": [
      {
        "electoralDistricts": [
          {
            "election": null,
            "id": 54,
            "name": "London North Centre"
          }
        ],
        "pollDivisionIds": [
          10135373
        ],
        "postalCode": "N6H1G7",
        "streetName": "ROGERS",
        "streetDirectionId": null,
        "streetTypeId": "AVE",
        "placeName": "LONDON",
        "streetNameDisplayText": "ROGERS AVE, LONDON"
      }
    ]
  },
  {
    "postal": "N6H4E9",
    "result": [
      {
        "electoralDistricts": [
          {
            "election": null,
            "id": 55,
            "name": "London West"
          }
        ],
        "pollDivisionIds": [
          10139601
        ],
        "postalCode": "N6H4E9",
        "streetName": "PHILLIP",
        "streetDirectionId": null,
        "streetTypeId": "DR",
        "placeName": "LONDON",
        "streetNameDisplayText": "PHILLIP DR, LONDON"
      },
      {
        "electoralDistricts": [
          {
            "election": null,
            "id": 55,
            "name": "London West"
          }
        ],
        "pollDivisionIds": [
          10139601
        ],
        "postalCode": "N6H4E9",
        "streetName": "PRINCE PHILIP",
        "streetDirectionId": null,
        "streetTypeId": "DR",
        "placeName": "LONDON",
        "streetNameDisplayText": "PRINCE PHILIP DR, LONDON"
      }
    ]
  },
  {
    "postal": "N6H9P0",
    "result": []
  },
  {
    "postal": "N6H5H3",
    "result": [
      {
        "electoralDistricts": [
          {
            "election": null,
            "id": 55,
            "name": "London West"
          }
        ],
        "pollDivisionIds": [
          10139608
        ],
        "postalCode": "N6H5H3",
        "streetName": "MANCHESTER",
        "streetDirectionId": null,
        "streetTypeId": "RD",
        "placeName": "LONDON",
        "streetNameDisplayText": "MANCHESTER RD, LONDON"
      },
      {
        "electoralDistricts": [
          {
            "election": null,
            "id": 55,
            "name": "London West"
          }
        ],
        "pollDivisionIds": [
          10139608
        ],
        "postalCode": "N6H5H3",
        "streetName": "TYNEDALE",
        "streetDirectionId": null,
        "streetTypeId": "AVE",
        "placeName": "LONDON",
        "streetNameDisplayText": "TYNEDALE AVE, LONDON"
      }
    ]
  },
  {
    "postal": "N6H9X6",
    "result": []
  },
  {
    "postal": "N6H5N7",
    "result": [
      {
        "electoralDistricts": [
          {
            "election": null,
            "id": 54,
            "name": "London North Centre"
          }
        ],
        "pollDivisionIds": [
          10135384
        ],
        "postalCode": "N6H5N7",
        "streetName": "WONDERLAND",
        "streetDirectionId": "N",
        "streetTypeId": "RD",
        "placeName": "LONDON",
        "streetNameDisplayText": "WONDERLAND RD N, LONDON"
      }
    ]
  },
  {
    "postal": "N6H5A6",
    "result": [
      {
        "electoralDistricts": [
          {
            "election": null,
            "id": 55,
            "name": "London West"
          }
        ],
        "pollDivisionIds": [
          10139612
        ],
        "postalCode": "N6H5A6",
        "streetName": "GREEN HEDGE",
        "streetDirectionId": null,
        "streetTypeId": "LANE",
        "placeName": "LONDON",
        "streetNameDisplayText": "GREEN HEDGE LANE, LONDON"
      }
    ]
  },
  {
    "postal": "N6H4M0",
    "result": []
  },
  {
    "postal": "N6H3V6",
    "result": [
      {
        "electoralDistricts": [
          {
            "election": null,
            "id": 55,
            "name": "London West"
          }
        ],
        "pollDivisionIds": [
          10139611
        ],
        "postalCode": "N6H3V6",
        "streetName": "HEADLEY",
        "streetDirectionId": null,
        "streetTypeId": "DR",
        "placeName": "LONDON",
        "streetNameDisplayText": "HEADLEY DR, LONDON"
      }
    ]
  },
  {
    "postal": "N6H1L7",
    "result": [
      {
        "electoralDistricts": [
          {
            "election": null,
            "id": 54,
            "name": "London North Centre"
          }
        ],
        "pollDivisionIds": [
          10135372,
          10135373
        ],
        "postalCode": "N6H1L7",
        "streetName": "EDINBURGH",
        "streetDirectionId": null,
        "streetTypeId": "ST",
        "placeName": "LONDON",
        "streetNameDisplayText": "EDINBURGH ST, LONDON"
      }
    ]
  },
  {
    "postal": "N6H2P9",
    "result": [
      {
        "electoralDistricts": [
          {
            "election": null,
            "id": 55,
            "name": "London West"
          }
        ],
        "pollDivisionIds": [
          10139612
        ],
        "postalCode": "N6H2P9",
        "streetName": "ST ANTHONY",
        "streetDirectionId": null,
        "streetTypeId": "RD",
        "placeName": "LONDON",
        "streetNameDisplayText": "ST ANTHONY RD, LONDON"
      }
    ]
  },
  {
    "postal": "N6H5T4",
    "result": [
      {
        "electoralDistricts": [
          {
            "election": null,
            "id": 55,
            "name": "London West"
          }
        ],
        "pollDivisionIds": [
          10139607
        ],
        "postalCode": "N6H5T4",
        "streetName": "SILVERSMITH",
        "streetDirectionId": null,
        "streetTypeId": "ST",
        "placeName": "LONDON",
        "streetNameDisplayText": "SILVERSMITH ST, LONDON"
      }
    ]
  },
  {
    "postal": "N6H5Z1",
    "result": []
  },
  {
    "postal": "N6H2X0",
    "result": []
  },
  {
    "postal": "N6H6Z2",
    "result": []
  },
  {
    "postal": "N6H0E0",
    "result": []
  },
  {
    "postal": "N6H3Z5",
    "result": [
      {
        "electoralDistricts": [
          {
            "election": null,
            "id": 55,
            "name": "London West"
          }
        ],
        "pollDivisionIds": [
          10139609
        ],
        "postalCode": "N6H3Z5",
        "streetName": "ROYAL YORK",
        "streetDirectionId": null,
        "streetTypeId": "RD",
        "placeName": "LONDON",
        "streetNameDisplayText": "ROYAL YORK RD, LONDON"
      }
    ]
  },
  {
    "postal": "N6H8H3",
    "result": []
  },
  {
    "postal": "N6H7S6",
    "result": []
  },
  {
    "postal": "N6H4C1",
    "result": [
      {
        "electoralDistricts": [
          {
            "election": null,
            "id": 55,
            "name": "London West"
          }
        ],
        "pollDivisionIds": [
          10139608
        ],
        "postalCode": "N6H4C1",
        "streetName": "IVANHILL",
        "streetDirectionId": null,
        "streetTypeId": "RD",
        "placeName": "LONDON",
        "streetNameDisplayText": "IVANHILL RD, LONDON"
      }
    ]
  },
  {
    "postal": "N6H3K2",
    "result": [
      {
        "electoralDistricts": [
          {
            "election": null,
            "id": 55,
            "name": "London West"
          }
        ],
        "pollDivisionIds": [
          10139614
        ],
        "postalCode": "N6H3K2",
        "streetName": "SHERENE",
        "streetDirectionId": null,
        "streetTypeId": "TERR",
        "placeName": "LONDON",
        "streetNameDisplayText": "SHERENE TERR, LONDON"
      }
    ]
  },
  {
    "postal": "N6H1Y5",
    "result": [
      {
        "electoralDistricts": [
          {
            "election": null,
            "id": 54,
            "name": "London North Centre"
          }
        ],
        "pollDivisionIds": [
          10135373
        ],
        "postalCode": "N6H1Y5",
        "streetName": "ARGYLE",
        "streetDirectionId": null,
        "streetTypeId": "ST",
        "placeName": "LONDON",
        "streetNameDisplayText": "ARGYLE ST, LONDON"
      }
    ]
  },
  {
    "postal": "N6H6P6",
    "result": []
  },
  {
    "postal": "N6H3N9",
    "result": [
      {
        "electoralDistricts": [
          {
            "election": null,
            "id": 55,
            "name": "London West"
          }
        ],
        "pollDivisionIds": [
          10139614
        ],
        "postalCode": "N6H3N9",
        "streetName": "HIBISCUS",
        "streetDirectionId": null,
        "streetTypeId": "AVE",
        "placeName": "LONDON",
        "streetNameDisplayText": "HIBISCUS AVE, LONDON"
      }
    ]
  },
  {
    "postal": "N6H3W2",
    "result": [
      {
        "electoralDistricts": [
          {
            "election": null,
            "id": 55,
            "name": "London West"
          }
        ],
        "pollDivisionIds": [
          10139611
        ],
        "postalCode": "N6H3W2",
        "streetName": "SANTA MONICA",
        "streetDirectionId": null,
        "streetTypeId": "RD",
        "placeName": "LONDON",
        "streetNameDisplayText": "SANTA MONICA RD, LONDON"
      }
    ]
  },
  {
    "postal": "N6H6H8",
    "result": []
  },
  {
    "postal": "N6H9T3",
    "result": []
  },
  {
    "postal": "N6H5L9",
    "result": [
      {
        "electoralDistricts": [
          {
            "election": null,
            "id": 55,
            "name": "London West"
          }
        ],
        "pollDivisionIds": [
          10139599
        ],
        "postalCode": "N6H5L9",
        "streetName": "BLUE HERON",
        "streetDirectionId": null,
        "streetTypeId": "DR",
        "placeName": "LONDON",
        "streetNameDisplayText": "BLUE HERON DR, LONDON"
      },
      {
        "electoralDistricts": [
          {
            "election": null,
            "id": 55,
            "name": "London West"
          }
        ],
        "pollDivisionIds": [
          10139599
        ],
        "postalCode": "N6H5L9",
        "streetName": "HYDE PARK",
        "streetDirectionId": null,
        "streetTypeId": "RD",
        "placeName": "LONDON",
        "streetNameDisplayText": "HYDE PARK RD, LONDON"
      },
      {
        "electoralDistricts": [
          {
            "election": null,
            "id": 55,
            "name": "London West"
          }
        ],
        "pollDivisionIds": [
          10139599
        ],
        "postalCode": "N6H5L9",
        "streetName": "SEAGULL",
        "streetDirectionId": null,
        "streetTypeId": "RD",
        "placeName": "LONDON",
        "streetNameDisplayText": "SEAGULL RD, LONDON"
      }
    ]
  },
  {
    "postal": "N6H7X7",
    "result": []
  },
  {
    "postal": "N6H3J5",
    "result": [
      {
        "electoralDistricts": [
          {
            "election": null,
            "id": 55,
            "name": "London West"
          }
        ],
        "pollDivisionIds": [
          10139614
        ],
        "postalCode": "N6H3J5",
        "streetName": "SHERENE",
        "streetDirectionId": null,
        "streetTypeId": "TERR",
        "placeName": "LONDON",
        "streetNameDisplayText": "SHERENE TERR, LONDON"
      }
    ]
  },
  {
    "postal": "N6H4J5",
    "result": [
      {
        "electoralDistricts": [
          {
            "election": null,
            "id": 55,
            "name": "London West"
          }
        ],
        "pollDivisionIds": [
          10139611
        ],
        "postalCode": "N6H4J5",
        "streetName": "MANCHESTER",
        "streetDirectionId": null,
        "streetTypeId": "RD",
        "placeName": "LONDON",
        "streetNameDisplayText": "MANCHESTER RD, LONDON"
      }
    ]
  },
  {
    "postal": "N6H6J2",
    "result": []
  },
  {
    "postal": "N6H5V6",
    "result": [
      {
        "electoralDistricts": [
          {
            "election": null,
            "id": 55,
            "name": "London West"
          }
        ],
        "pollDivisionIds": [
          10139609
        ],
        "postalCode": "N6H5V6",
        "streetName": "CAPULET",
        "streetDirectionId": null,
        "streetTypeId": "LANE",
        "placeName": "LONDON",
        "streetNameDisplayText": "CAPULET LANE, LONDON"
      }
    ]
  },
  {
    "postal": "N6H3N2",
    "result": [
      {
        "electoralDistricts": [
          {
            "election": null,
            "id": 55,
            "name": "London West"
          }
        ],
        "pollDivisionIds": [
          10139614
        ],
        "postalCode": "N6H3N2",
        "streetName": "PINETREE",
        "streetDirectionId": null,
        "streetTypeId": "DR",
        "placeName": "LONDON",
        "streetNameDisplayText": "PINETREE DR, LONDON"
      }
    ]
  },
  {
    "postal": "N6H3B1",
    "result": [
      {
        "electoralDistricts": [
          {
            "election": null,
            "id": 55,
            "name": "London West"
          }
        ],
        "pollDivisionIds": [
          10139609
        ],
        "postalCode": "N6H3B1",
        "streetName": "TARBART",
        "streetDirectionId": null,
        "streetTypeId": "TERR",
        "placeName": "LONDON",
        "streetNameDisplayText": "TARBART TERR, LONDON"
      }
    ]
  },
  {
    "postal": "N6H8B5",
    "result": []
  },
  {
    "postal": "N6H0K1",
    "result": []
  },
  {
    "postal": "N6H7M7",
    "result": []
  },
  {
    "postal": "N6H2M2",
    "result": [
      {
        "electoralDistricts": [
          {
            "election": null,
            "id": 54,
            "name": "London North Centre"
          }
        ],
        "pollDivisionIds": [
          10135396,
          10135344,
          10135371
        ],
        "postalCode": "N6H2M2",
        "streetName": "CHERRYHILL",
        "streetDirectionId": null,
        "streetTypeId": "CIR",
        "placeName": "LONDON",
        "streetNameDisplayText": "CHERRYHILL CIR, LONDON"
      }
    ]
  },
  {
    "postal": "N6H9N3",
    "result": []
  },
  {
    "postal": "N6H4Y8",
    "result": [
      {
        "electoralDistricts": [
          {
            "election": null,
            "id": 55,
            "name": "London West"
          },
          {
            "election": null,
            "id": 54,
            "name": "London North Centre"
          }
        ],
        "pollDivisionIds": [
          10139607,
          10135371
        ],
        "postalCode": "N6H4Y8",
        "streetName": "WONDERLAND",
        "streetDirectionId": "N",
        "streetTypeId": "RD",
        "placeName": "LONDON",
        "streetNameDisplayText": "WONDERLAND RD N, LONDON"
      }
    ]
  },
  {
    "postal": "N6H3V7",
    "result": [
      {
        "electoralDistricts": [
          {
            "election": null,
            "id": 55,
            "name": "London West"
          }
        ],
        "pollDivisionIds": [
          10139611
        ],
        "postalCode": "N6H3V7",
        "streetName": "HEADLEY",
        "streetDirectionId": null,
        "streetTypeId": "DR",
        "placeName": "LONDON",
        "streetNameDisplayText": "HEADLEY DR, LONDON"
      }
    ]
  },
  {
    "postal": "N6H8Z1",
    "result": []
  },
  {
    "postal": "N6H7B3",
    "result": []
  },
  {
    "postal": "N6H3A8",
    "result": [
      {
        "electoralDistricts": [
          {
            "election": null,
            "id": 55,
            "name": "London West"
          }
        ],
        "pollDivisionIds": [
          10139609
        ],
        "postalCode": "N6H3A8",
        "streetName": "QUINTON",
        "streetDirectionId": null,
        "streetTypeId": "RD",
        "placeName": "LONDON",
        "streetNameDisplayText": "QUINTON RD, LONDON"
      }
    ]
  },
  {
    "postal": "N6H7V5",
    "result": []
  },
  {
    "postal": "N6H2T2",
    "result": [
      {
        "electoralDistricts": [
          {
            "election": null,
            "id": 55,
            "name": "London West"
          }
        ],
        "pollDivisionIds": [
          10139613
        ],
        "postalCode": "N6H2T2",
        "streetName": "RIVERSIDE",
        "streetDirectionId": null,
        "streetTypeId": "DR",
        "placeName": "LONDON",
        "streetNameDisplayText": "RIVERSIDE DR, LONDON"
      }
    ]
  },
  {
    "postal": "N6H6L3",
    "result": []
  },
  {
    "postal": "N6H0L2",
    "result": []
  },
  {
    "postal": "N6H5Y8",
    "result": []
  },
  {
    "postal": "N6H0B8",
    "result": [
      {
        "electoralDistricts": [
          {
            "election": null,
            "id": 55,
            "name": "London West"
          }
        ],
        "pollDivisionIds": [
          10139601
        ],
        "postalCode": "N6H0B8",
        "streetName": "STAFFORDSHIRE",
        "streetDirectionId": null,
        "streetTypeId": "PL",
        "placeName": "LONDON",
        "streetNameDisplayText": "STAFFORDSHIRE PL, LONDON"
      },
      {
        "electoralDistricts": [
          {
            "election": null,
            "id": 55,
            "name": "London West"
          }
        ],
        "pollDivisionIds": [
          10139601
        ],
        "postalCode": "N6H0B8",
        "streetName": "STAFFORDSHIRE",
        "streetDirectionId": null,
        "streetTypeId": "RD",
        "placeName": "LONDON",
        "streetNameDisplayText": "STAFFORDSHIRE RD, LONDON"
      }
    ]
  },
  {
    "postal": "N6H6R5",
    "result": []
  },
  {
    "postal": "N6H8W6",
    "result": []
  },
  {
    "postal": "N6H8G6",
    "result": []
  },
  {
    "postal": "N6H6X3",
    "result": []
  },
  {
    "postal": "N6H7R7",
    "result": []
  },
  {
    "postal": "N6H4B6",
    "result": [
      {
        "electoralDistricts": [
          {
            "election": null,
            "id": 55,
            "name": "London West"
          }
        ],
        "pollDivisionIds": [
          10139608
        ],
        "postalCode": "N6H4B6",
        "streetName": "QUEEN ANNE",
        "streetDirectionId": null,
        "streetTypeId": "CIR",
        "placeName": "LONDON",
        "streetNameDisplayText": "QUEEN ANNE CIR, LONDON"
      }
    ]
  },
  {
    "postal": "N6H3P9",
    "result": [
      {
        "electoralDistricts": [
          {
            "election": null,
            "id": 55,
            "name": "London West"
          }
        ],
        "pollDivisionIds": [
          10139609
        ],
        "postalCode": "N6H3P9",
        "streetName": "SALWAY",
        "streetDirectionId": null,
        "streetTypeId": "ST",
        "placeName": "LONDON",
        "streetNameDisplayText": "SALWAY ST, LONDON"
      }
    ]
  },
  {
    "postal": "N6H2T3",
    "result": [
      {
        "electoralDistricts": [
          {
            "election": null,
            "id": 55,
            "name": "London West"
          }
        ],
        "pollDivisionIds": [
          10139613
        ],
        "postalCode": "N6H2T3",
        "streetName": "RIVERSIDE",
        "streetDirectionId": null,
        "streetTypeId": "DR",
        "placeName": "LONDON",
        "streetNameDisplayText": "RIVERSIDE DR, LONDON"
      }
    ]
  },
  {
    "postal": "N6H1M4",
    "result": [
      {
        "electoralDistricts": [
          {
            "election": null,
            "id": 54,
            "name": "London North Centre"
          }
        ],
        "pollDivisionIds": [
          10135372
        ],
        "postalCode": "N6H1M4",
        "streetName": "EDINBURGH",
        "streetDirectionId": null,
        "streetTypeId": "ST",
        "placeName": "LONDON",
        "streetNameDisplayText": "EDINBURGH ST, LONDON"
      }
    ]
  },
  {
    "postal": "N6H0H1",
    "result": [
      {
        "electoralDistricts": [
          {
            "election": null,
            "id": 55,
            "name": "London West"
          }
        ],
        "pollDivisionIds": [
          10139607
        ],
        "postalCode": "N6H0H1",
        "streetName": "OAKCROSSING",
        "streetDirectionId": null,
        "streetTypeId": "GATE",
        "placeName": "LONDON",
        "streetNameDisplayText": "OAKCROSSING GATE, LONDON"
      }
    ]
  },
  {
    "postal": "N6H9W3",
    "result": []
  },
  {
    "postal": "N6H6P1",
    "result": []
  },
  {
    "postal": "N6H7G2",
    "result": []
  },
  {
    "postal": "N6H4J9",
    "result": [
      {
        "electoralDistricts": [
          {
            "election": null,
            "id": 55,
            "name": "London West"
          }
        ],
        "pollDivisionIds": [
          10139608
        ],
        "postalCode": "N6H4J9",
        "streetName": "MANCHESTER",
        "streetDirectionId": null,
        "streetTypeId": "RD",
        "placeName": "LONDON",
        "streetNameDisplayText": "MANCHESTER RD, LONDON"
      }
    ]
  },
  {
    "postal": "N6H9E4",
    "result": []
  },
  {
    "postal": "N6H8H0",
    "result": []
  },
  {
    "postal": "N6H4M7",
    "result": [
      {
        "electoralDistricts": [
          {
            "election": null,
            "id": 55,
            "name": "London West"
          }
        ],
        "pollDivisionIds": [
          10139613
        ],
        "postalCode": "N6H4M7",
        "streetName": "EVERGLADE",
        "streetDirectionId": null,
        "streetTypeId": "CRES",
        "placeName": "LONDON",
        "streetNameDisplayText": "EVERGLADE CRES, LONDON"
      }
    ]
  },
  {
    "postal": "N6H2G9",
    "result": [
      {
        "electoralDistricts": [
          {
            "election": null,
            "id": 54,
            "name": "London North Centre"
          }
        ],
        "pollDivisionIds": [
          10135372
        ],
        "postalCode": "N6H2G9",
        "streetName": "WOODWARD",
        "streetDirectionId": null,
        "streetTypeId": "AVE",
        "placeName": "LONDON",
        "streetNameDisplayText": "WOODWARD AVE, LONDON"
      }
    ]
  },
  {
    "postal": "N6H8T2",
    "result": []
  },
  {
    "postal": "N6H7G7",
    "result": []
  },
  {
    "postal": "N6H4Z3",
    "result": [
      {
        "electoralDistricts": [
          {
            "election": null,
            "id": 55,
            "name": "London West"
          }
        ],
        "pollDivisionIds": [
          10139612
        ],
        "postalCode": "N6H4Z3",
        "streetName": "GREEN HEDGE",
        "streetDirectionId": null,
        "streetTypeId": "CRES",
        "placeName": "LONDON",
        "streetNameDisplayText": "GREEN HEDGE CRES, LONDON"
      },
      {
        "electoralDistricts": [
          {
            "election": null,
            "id": 55,
            "name": "London West"
          }
        ],
        "pollDivisionIds": [
          10139612
        ],
        "postalCode": "N6H4Z3",
        "streetName": "GREEN HEDGE",
        "streetDirectionId": null,
        "streetTypeId": "LANE",
        "placeName": "LONDON",
        "streetNameDisplayText": "GREEN HEDGE LANE, LONDON"
      }
    ]
  },
  {
    "postal": "N6H5B3",
    "result": [
      {
        "electoralDistricts": [
          {
            "election": null,
            "id": 55,
            "name": "London West"
          }
        ],
        "pollDivisionIds": [
          10139612
        ],
        "postalCode": "N6H5B3",
        "streetName": "HARTSON",
        "streetDirectionId": null,
        "streetTypeId": "CRT",
        "placeName": "LONDON",
        "streetNameDisplayText": "HARTSON CRT, LONDON"
      },
      {
        "electoralDistricts": [
          {
            "election": null,
            "id": 55,
            "name": "London West"
          }
        ],
        "pollDivisionIds": [
          10139612
        ],
        "postalCode": "N6H5B3",
        "streetName": "HARTSON",
        "streetDirectionId": null,
        "streetTypeId": "RD",
        "placeName": "LONDON",
        "streetNameDisplayText": "HARTSON RD, LONDON"
      }
    ]
  },
  {
    "postal": "N6H1S7",
    "result": [
      {
        "electoralDistricts": [
          {
            "election": null,
            "id": 54,
            "name": "London North Centre"
          }
        ],
        "pollDivisionIds": [
          10135372
        ],
        "postalCode": "N6H1S7",
        "streetName": "OXFORD",
        "streetDirectionId": "W",
        "streetTypeId": "ST",
        "placeName": "LONDON",
        "streetNameDisplayText": "OXFORD ST W, LONDON"
      }
    ]
  },
  {
    "postal": "N6H2N7",
    "result": [
      {
        "electoralDistricts": [
          {
            "election": null,
            "id": 55,
            "name": "London West"
          }
        ],
        "pollDivisionIds": [
          10139612
        ],
        "postalCode": "N6H2N7",
        "streetName": "HAMPTON",
        "streetDirectionId": null,
        "streetTypeId": "CRES",
        "placeName": "LONDON",
        "streetNameDisplayText": "HAMPTON CRES, LONDON"
      }
    ]
  },
  {
    "postal": "N6H0H8",
    "result": []
  },
  {
    "postal": "N6H7Z4",
    "result": []
  },
  {
    "postal": "N6H7B1",
    "result": []
  },
  {
    "postal": "N6H7P8",
    "result": []
  },
  {
    "postal": "N6H7N0",
    "result": []
  },
  {
    "postal": "N6H3Y5",
    "result": [
      {
        "electoralDistricts": [
          {
            "election": null,
            "id": 55,
            "name": "London West"
          }
        ],
        "pollDivisionIds": [
          10139611
        ],
        "postalCode": "N6H3Y5",
        "streetName": "HUNT CLUB",
        "streetDirectionId": null,
        "streetTypeId": "DR",
        "placeName": "LONDON",
        "streetNameDisplayText": "HUNT CLUB DR, LONDON"
      }
    ]
  },
  {
    "postal": "N6H6K1",
    "result": []
  },
  {
    "postal": "N6H9X5",
    "result": []
  },
  {
    "postal": "N6H7S5",
    "result": []
  },
  {
    "postal": "N6H0A4",
    "result": [
      {
        "electoralDistricts": [
          {
            "election": null,
            "id": 55,
            "name": "London West"
          }
        ],
        "pollDivisionIds": [
          10139607
        ],
        "postalCode": "N6H0A4",
        "streetName": "MAPLERIDGE",
        "streetDirectionId": null,
        "streetTypeId": "ST",
        "placeName": "LONDON",
        "streetNameDisplayText": "MAPLERIDGE ST, LONDON"
      },
      {
        "electoralDistricts": [
          {
            "election": null,
            "id": 55,
            "name": "London West"
          },
          {
            "election": null,
            "id": 54,
            "name": "London North Centre"
          }
        ],
        "pollDivisionIds": [
          10139607,
          10135371
        ],
        "postalCode": "N6H0A4",
        "streetName": "OAKCROSSING",
        "streetDirectionId": null,
        "streetTypeId": "RD",
        "placeName": "LONDON",
        "streetNameDisplayText": "OAKCROSSING RD, LONDON"
      },
      {
        "electoralDistricts": [
          {
            "election": null,
            "id": 54,
            "name": "London North Centre"
          }
        ],
        "pollDivisionIds": [
          10135371
        ],
        "postalCode": "N6H0A4",
        "streetName": "OAKCRSSING",
        "streetDirectionId": null,
        "streetTypeId": "RD",
        "placeName": "LONDON",
        "streetNameDisplayText": "OAKCRSSING RD, LONDON"
      }
    ]
  },
  {
    "postal": "N6H4T5",
    "result": [
      {
        "electoralDistricts": [
          {
            "election": null,
            "id": 55,
            "name": "London West"
          }
        ],
        "pollDivisionIds": [
          10139612
        ],
        "postalCode": "N6H4T5",
        "streetName": "WOODBOROUGH",
        "streetDirectionId": null,
        "streetTypeId": "ST",
        "placeName": "LONDON",
        "streetNameDisplayText": "WOODBOROUGH ST, LONDON"
      }
    ]
  },
  {
    "postal": "N6H5K1",
    "result": [
      {
        "electoralDistricts": [
          {
            "election": null,
            "id": 55,
            "name": "London West"
          }
        ],
        "pollDivisionIds": [
          10139601,
          10139607
        ],
        "postalCode": "N6H5K1",
        "streetName": "SARNIA",
        "streetDirectionId": null,
        "streetTypeId": "RD",
        "placeName": "LONDON",
        "streetNameDisplayText": "SARNIA RD, LONDON"
      }
    ]
  },
  {
    "postal": "N6H0Z9",
    "result": []
  },
  {
    "postal": "N6H7T2",
    "result": []
  },
  {
    "postal": "N6H1L5",
    "result": [
      {
        "electoralDistricts": [
          {
            "election": null,
            "id": 54,
            "name": "London North Centre"
          }
        ],
        "pollDivisionIds": [
          10135372
        ],
        "postalCode": "N6H1L5",
        "streetName": "PAUL",
        "streetDirectionId": null,
        "streetTypeId": "ST",
        "placeName": "LONDON",
        "streetNameDisplayText": "PAUL ST, LONDON"
      }
    ]
  },
  {
    "postal": "N6H3N5",
    "result": [
      {
        "electoralDistricts": [
          {
            "election": null,
            "id": 55,
            "name": "London West"
          }
        ],
        "pollDivisionIds": [
          10139613
        ],
        "postalCode": "N6H3N5",
        "streetName": "OAK PARK",
        "streetDirectionId": null,
        "streetTypeId": "DR",
        "placeName": "LONDON",
        "streetNameDisplayText": "OAK PARK DR, LONDON"
      }
    ]
  },
  {
    "postal": "N6H6H4",
    "result": []
  },
  {
    "postal": "N6H5A5",
    "result": [
      {
        "electoralDistricts": [
          {
            "election": null,
            "id": 55,
            "name": "London West"
          }
        ],
        "pollDivisionIds": [
          10139612
        ],
        "postalCode": "N6H5A5",
        "streetName": "GREEN HEDGE",
        "streetDirectionId": null,
        "streetTypeId": "CRT",
        "placeName": "LONDON",
        "streetNameDisplayText": "GREEN HEDGE CRT, LONDON"
      },
      {
        "electoralDistricts": [
          {
            "election": null,
            "id": 55,
            "name": "London West"
          }
        ],
        "pollDivisionIds": [
          10139612
        ],
        "postalCode": "N6H5A5",
        "streetName": "GREEN HEDGE",
        "streetDirectionId": null,
        "streetTypeId": "LANE",
        "placeName": "LONDON",
        "streetNameDisplayText": "GREEN HEDGE LANE, LONDON"
      }
    ]
  },
  {
    "postal": "N6H3R9",
    "result": [
      {
        "electoralDistricts": [
          {
            "election": null,
            "id": 55,
            "name": "London West"
          }
        ],
        "pollDivisionIds": [
          10139612
        ],
        "postalCode": "N6H3R9",
        "streetName": "HYDE PARK",
        "streetDirectionId": null,
        "streetTypeId": "RD",
        "placeName": "LONDON",
        "streetNameDisplayText": "HYDE PARK RD, LONDON"
      }
    ]
  },
  {
    "postal": "N6H7L8",
    "result": []
  },
  {
    "postal": "N6H6T6",
    "result": []
  },
  {
    "postal": "N6H7Y7",
    "result": []
  },
  {
    "postal": "N6H3M8",
    "result": [
      {
        "electoralDistricts": [
          {
            "election": null,
            "id": 55,
            "name": "London West"
          }
        ],
        "pollDivisionIds": [
          10139613,
          10139614
        ],
        "postalCode": "N6H3M8",
        "streetName": "PINETREE",
        "streetDirectionId": null,
        "streetTypeId": "DR",
        "placeName": "LONDON",
        "streetNameDisplayText": "PINETREE DR, LONDON"
      }
    ]
  },
  {
    "postal": "N6H2E0",
    "result": []
  },
  {
    "postal": "N6H4B5",
    "result": [
      {
        "electoralDistricts": [
          {
            "election": null,
            "id": 55,
            "name": "London West"
          }
        ],
        "pollDivisionIds": [
          10139611
        ],
        "postalCode": "N6H4B5",
        "streetName": "QUEEN MARY",
        "streetDirectionId": null,
        "streetTypeId": "CRES",
        "placeName": "LONDON",
        "streetNameDisplayText": "QUEEN MARY CRES, LONDON"
      }
    ]
  },
  {
    "postal": "N6H1J3",
    "result": [
      {
        "electoralDistricts": [
          {
            "election": null,
            "id": 54,
            "name": "London North Centre"
          }
        ],
        "pollDivisionIds": [
          10135373
        ],
        "postalCode": "N6H1J3",
        "streetName": "GRANVILLE",
        "streetDirectionId": null,
        "streetTypeId": "ST",
        "placeName": "LONDON",
        "streetNameDisplayText": "GRANVILLE ST, LONDON"
      },
      {
        "electoralDistricts": [
          {
            "election": null,
            "id": 54,
            "name": "London North Centre"
          }
        ],
        "pollDivisionIds": [
          10135373
        ],
        "postalCode": "N6H1J3",
        "streetName": "LEXINGTON",
        "streetDirectionId": null,
        "streetTypeId": "AVE",
        "placeName": "LONDON",
        "streetNameDisplayText": "LEXINGTON AVE, LONDON"
      }
    ]
  },
  {
    "postal": "N6H5S6",
    "result": [
      {
        "electoralDistricts": [
          {
            "election": null,
            "id": 55,
            "name": "London West"
          }
        ],
        "pollDivisionIds": [
          10139614
        ],
        "postalCode": "N6H5S6",
        "streetName": "THORNWOOD",
        "streetDirectionId": null,
        "streetTypeId": "DR",
        "placeName": "LONDON",
        "streetNameDisplayText": "THORNWOOD DR, LONDON"
      }
    ]
  },
  {
    "postal": "N6H8P7",
    "result": []
  },
  {
    "postal": "N6H7S7",
    "result": []
  },
  {
    "postal": "N6H4C2",
    "result": [
      {
        "electoralDistricts": [
          {
            "election": null,
            "id": 55,
            "name": "London West"
          }
        ],
        "pollDivisionIds": [
          10139608
        ],
        "postalCode": "N6H4C2",
        "streetName": "IVANHILL",
        "streetDirectionId": null,
        "streetTypeId": "RD",
        "placeName": "LONDON",
        "streetNameDisplayText": "IVANHILL RD, LONDON"
      }
    ]
  },
  {
    "postal": "N6H5Y0",
    "result": []
  },
  {
    "postal": "N6H2V7",
    "result": [
      {
        "electoralDistricts": [
          {
            "election": null,
            "id": 55,
            "name": "London West"
          }
        ],
        "pollDivisionIds": [
          10139613
        ],
        "postalCode": "N6H2V7",
        "streetName": "OBAN",
        "streetDirectionId": null,
        "streetTypeId": "CRES",
        "placeName": "LONDON",
        "streetNameDisplayText": "OBAN CRES, LONDON"
      }
    ]
  },
  {
    "postal": "N6H8P5",
    "result": []
  },
  {
    "postal": "N6H5P5",
    "result": [
      {
        "electoralDistricts": [
          {
            "election": null,
            "id": 55,
            "name": "London West"
          }
        ],
        "pollDivisionIds": [
          10139608
        ],
        "postalCode": "N6H5P5",
        "streetName": "CEDARWOOD",
        "streetDirectionId": null,
        "streetTypeId": "CRES",
        "placeName": "LONDON",
        "streetNameDisplayText": "CEDARWOOD CRES, LONDON"
      }
    ]
  },
  {
    "postal": "N6H5Z0",
    "result": []
  },
  {
    "postal": "N6H9B0",
    "result": []
  },
  {
    "postal": "N6H1L0",
    "result": []
  },
  {
    "postal": "N6H0B5",
    "result": [
      {
        "electoralDistricts": [
          {
            "election": null,
            "id": 55,
            "name": "London West"
          }
        ],
        "pollDivisionIds": [
          10139601
        ],
        "postalCode": "N6H0B5",
        "streetName": "HYDE PARK",
        "streetDirectionId": null,
        "streetTypeId": "RD",
        "placeName": "LONDON",
        "streetNameDisplayText": "HYDE PARK RD, LONDON"
      }
    ]
  },
  {
    "postal": "N6H3L2",
    "result": [
      {
        "electoralDistricts": [
          {
            "election": null,
            "id": 55,
            "name": "London West"
          }
        ],
        "pollDivisionIds": [
          10139613
        ],
        "postalCode": "N6H3L2",
        "streetName": "DOLWAY",
        "streetDirectionId": null,
        "streetTypeId": "PL",
        "placeName": "LONDON",
        "streetNameDisplayText": "DOLWAY PL, LONDON"
      }
    ]
  },
  {
    "postal": "N6H3B7",
    "result": [
      {
        "electoralDistricts": [
          {
            "election": null,
            "id": 55,
            "name": "London West"
          }
        ],
        "pollDivisionIds": [
          10139614
        ],
        "postalCode": "N6H3B7",
        "streetName": "DEER PARK",
        "streetDirectionId": null,
        "streetTypeId": "CIR",
        "placeName": "LONDON",
        "streetNameDisplayText": "DEER PARK CIR, LONDON"
      }
    ]
  },
  {
    "postal": "N6H8L1",
    "result": []
  },
  {
    "postal": "N6H5M4",
    "result": [
      {
        "electoralDistricts": [
          {
            "election": null,
            "id": 55,
            "name": "London West"
          }
        ],
        "pollDivisionIds": [
          10139601
        ],
        "postalCode": "N6H5M4",
        "streetName": "DISSING",
        "streetDirectionId": null,
        "streetTypeId": "CRES",
        "placeName": "LONDON",
        "streetNameDisplayText": "DISSING CRES, LONDON"
      },
      {
        "electoralDistricts": [
          {
            "election": null,
            "id": 55,
            "name": "London West"
          }
        ],
        "pollDivisionIds": [
          10139601
        ],
        "postalCode": "N6H5M4",
        "streetName": "PRINCE OF WALES",
        "streetDirectionId": null,
        "streetTypeId": "GATE",
        "placeName": "LONDON",
        "streetNameDisplayText": "PRINCE OF WALES GATE, LONDON"
      }
    ]
  },
  {
    "postal": "N6H4G9",
    "result": [
      {
        "electoralDistricts": [
          {
            "election": null,
            "id": 55,
            "name": "London West"
          }
        ],
        "pollDivisionIds": [
          10139608
        ],
        "postalCode": "N6H4G9",
        "streetName": "GUILDWOOD",
        "streetDirectionId": null,
        "streetTypeId": "BLVD",
        "placeName": "LONDON",
        "streetNameDisplayText": "GUILDWOOD BLVD, LONDON"
      }
    ]
  },
  {
    "postal": "N6H0P0",
    "result": []
  },
  {
    "postal": "N6H8G2",
    "result": []
  },
  {
    "postal": "N6H1V9",
    "result": [
      {
        "electoralDistricts": [
          {
            "election": null,
            "id": 55,
            "name": "London West"
          }
        ],
        "pollDivisionIds": [
          10139611
        ],
        "postalCode": "N6H1V9",
        "streetName": "OXFORD",
        "streetDirectionId": "W",
        "streetTypeId": "ST",
        "placeName": "LONDON",
        "streetNameDisplayText": "OXFORD ST W, LONDON"
      }
    ]
  },
  {
    "postal": "N6H8N8",
    "result": []
  },
  {
    "postal": "N6H6S8",
    "result": []
  },
  {
    "postal": "N6H8H2",
    "result": []
  },
  {
    "postal": "N6H5R8",
    "result": [
      {
        "electoralDistricts": [
          {
            "election": null,
            "id": 55,
            "name": "London West"
          }
        ],
        "pollDivisionIds": [
          10139609
        ],
        "postalCode": "N6H5R8",
        "streetName": "REDOAK",
        "streetDirectionId": null,
        "streetTypeId": "AVE",
        "placeName": "LONDON",
        "streetNameDisplayText": "REDOAK AVE, LONDON"
      },
      {
        "electoralDistricts": [
          {
            "election": null,
            "id": 55,
            "name": "London West"
          }
        ],
        "pollDivisionIds": [
          10139609
        ],
        "postalCode": "N6H5R8",
        "streetName": "REDOAK",
        "streetDirectionId": null,
        "streetTypeId": "PL",
        "placeName": "LONDON",
        "streetNameDisplayText": "REDOAK PL, LONDON"
      },
      {
        "electoralDistricts": [
          {
            "election": null,
            "id": 55,
            "name": "London West"
          }
        ],
        "pollDivisionIds": [
          10139609
        ],
        "postalCode": "N6H5R8",
        "streetName": "SILVERSMITH",
        "streetDirectionId": null,
        "streetTypeId": "ST",
        "placeName": "LONDON",
        "streetNameDisplayText": "SILVERSMITH ST, LONDON"
      }
    ]
  },
  {
    "postal": "N6H5L4",
    "result": [
      {
        "electoralDistricts": [
          {
            "election": null,
            "id": 55,
            "name": "London West"
          }
        ],
        "pollDivisionIds": [
          10139601
        ],
        "postalCode": "N6H5L4",
        "streetName": "GAINSBOROUGH",
        "streetDirectionId": null,
        "streetTypeId": "RD",
        "placeName": "LONDON",
        "streetNameDisplayText": "GAINSBOROUGH RD, LONDON"
      },
      {
        "electoralDistricts": [
          {
            "election": null,
            "id": 55,
            "name": "London West"
          }
        ],
        "pollDivisionIds": [
          10139601
        ],
        "postalCode": "N6H5L4",
        "streetName": "HYDE PARK",
        "streetDirectionId": null,
        "streetTypeId": "RD",
        "placeName": "LONDON",
        "streetNameDisplayText": "HYDE PARK RD, LONDON"
      }
    ]
  },
  {
    "postal": "N6H9E1",
    "result": []
  },
  {
    "postal": "N6H1C4",
    "result": [
      {
        "electoralDistricts": [
          {
            "election": null,
            "id": 54,
            "name": "London North Centre"
          }
        ],
        "pollDivisionIds": [
          10135384
        ],
        "postalCode": "N6H1C4",
        "streetName": "WALNUT",
        "streetDirectionId": null,
        "streetTypeId": "ST",
        "placeName": "LONDON",
        "streetNameDisplayText": "WALNUT ST, LONDON"
      }
    ]
  },
  {
    "postal": "N6H8W5",
    "result": []
  },
  {
    "postal": "N6H1Y4",
    "result": [
      {
        "electoralDistricts": [
          {
            "election": null,
            "id": 54,
            "name": "London North Centre"
          }
        ],
        "pollDivisionIds": [
          10135373
        ],
        "postalCode": "N6H1Y4",
        "streetName": "ARGYLE",
        "streetDirectionId": null,
        "streetTypeId": "ST",
        "placeName": "LONDON",
        "streetNameDisplayText": "ARGYLE ST, LONDON"
      }
    ]
  },
  {
    "postal": "N6H1C0",
    "result": []
  },
  {
    "postal": "N6H2J2",
    "result": [
      {
        "electoralDistricts": [
          {
            "election": null,
            "id": 54,
            "name": "London North Centre"
          }
        ],
        "pollDivisionIds": [
          10135372
        ],
        "postalCode": "N6H2J2",
        "streetName": "BRITANNIA",
        "streetDirectionId": null,
        "streetTypeId": "AVE",
        "placeName": "LONDON",
        "streetNameDisplayText": "BRITANNIA AVE, LONDON"
      }
    ]
  },
  {
    "postal": "N6H2J0",
    "result": []
  },
  {
    "postal": "N6H7A3",
    "result": []
  },
  {
    "postal": "N6H8M1",
    "result": []
  },
  {
    "postal": "N6H7T9",
    "result": []
  },
  {
    "postal": "N6H6C0",
    "result": []
  },
  {
    "postal": "N6H7X1",
    "result": []
  },
  {
    "postal": "N6H0G1",
    "result": [
      {
        "electoralDistricts": [
          {
            "election": null,
            "id": 55,
            "name": "London West"
          }
        ],
        "pollDivisionIds": [
          10139607
        ],
        "postalCode": "N6H0G1",
        "streetName": "BITTERBUSH",
        "streetDirectionId": null,
        "streetTypeId": "CRES",
        "placeName": "LONDON",
        "streetNameDisplayText": "BITTERBUSH CRES, LONDON"
      }
    ]
  },
  {
    "postal": "N6H4X2",
    "result": [
      {
        "electoralDistricts": [
          {
            "election": null,
            "id": 55,
            "name": "London West"
          }
        ],
        "pollDivisionIds": [
          10139609
        ],
        "postalCode": "N6H4X2",
        "streetName": "COLONIAL",
        "streetDirectionId": null,
        "streetTypeId": "CRES",
        "placeName": "LONDON",
        "streetNameDisplayText": "COLONIAL CRES, LONDON"
      }
    ]
  },
  {
    "postal": "N6H0N6",
    "result": []
  },
  {
    "postal": "N6H8E3",
    "result": []
  },
  {
    "postal": "N6H5S8",
    "result": [
      {
        "electoralDistricts": [
          {
            "election": null,
            "id": 54,
            "name": "London North Centre"
          }
        ],
        "pollDivisionIds": [
          10135372
        ],
        "postalCode": "N6H5S8",
        "streetName": "OXFORD",
        "streetDirectionId": "W",
        "streetTypeId": "ST",
        "placeName": "LONDON",
        "streetNameDisplayText": "OXFORD ST W, LONDON"
      }
    ]
  },
  {
    "postal": "N6H0R0",
    "result": []
  },
  {
    "postal": "N6H6J6",
    "result": []
  },
  {
    "postal": "N6H4B4",
    "result": [
      {
        "electoralDistricts": [
          {
            "election": null,
            "id": 55,
            "name": "London West"
          }
        ],
        "pollDivisionIds": [
          10139611
        ],
        "postalCode": "N6H4B4",
        "streetName": "QUEEN MARY",
        "streetDirectionId": null,
        "streetTypeId": "CRES",
        "placeName": "LONDON",
        "streetNameDisplayText": "QUEEN MARY CRES, LONDON"
      }
    ]
  },
  {
    "postal": "N6H7E3",
    "result": []
  },
  {
    "postal": "N6H3N6",
    "result": [
      {
        "electoralDistricts": [
          {
            "election": null,
            "id": 55,
            "name": "London West"
          }
        ],
        "pollDivisionIds": [
          10139614
        ],
        "postalCode": "N6H3N6",
        "streetName": "OAK PARK",
        "streetDirectionId": null,
        "streetTypeId": "DR",
        "placeName": "LONDON",
        "streetNameDisplayText": "OAK PARK DR, LONDON"
      }
    ]
  },
  {
    "postal": "N6H3X6",
    "result": [
      {
        "electoralDistricts": [
          {
            "election": null,
            "id": 55,
            "name": "London West"
          }
        ],
        "pollDivisionIds": [
          10139608
        ],
        "postalCode": "N6H3X6",
        "streetName": "WEMBLEY",
        "streetDirectionId": null,
        "streetTypeId": "RD",
        "placeName": "LONDON",
        "streetNameDisplayText": "WEMBLEY RD, LONDON"
      }
    ]
  },
  {
    "postal": "N6H8L0",
    "result": []
  },
  {
    "postal": "N6H8N1",
    "result": []
  },
  {
    "postal": "N6H4J0",
    "result": []
  },
  {
    "postal": "N6H0X7",
    "result": []
  },
  {
    "postal": "N6H6S4",
    "result": []
  },
  {
    "postal": "N6H0Z0",
    "result": []
  },
  {
    "postal": "N6H9X8",
    "result": []
  },
  {
    "postal": "N6H3H3",
    "result": [
      {
        "electoralDistricts": [
          {
            "election": null,
            "id": 55,
            "name": "London West"
          }
        ],
        "pollDivisionIds": [
          10139614
        ],
        "postalCode": "N6H3H3",
        "streetName": "DONEGAL",
        "streetDirectionId": null,
        "streetTypeId": "DR",
        "placeName": "LONDON",
        "streetNameDisplayText": "DONEGAL DR, LONDON"
      }
    ]
  },
  {
    "postal": "N6H7S2",
    "result": []
  },
  {
    "postal": "N6H3T3",
    "result": [
      {
        "electoralDistricts": [
          {
            "election": null,
            "id": 55,
            "name": "London West"
          }
        ],
        "pollDivisionIds": [
          10139611
        ],
        "postalCode": "N6H3T3",
        "streetName": "NAOMEE",
        "streetDirectionId": null,
        "streetTypeId": "CRES",
        "placeName": "LONDON",
        "streetNameDisplayText": "NAOMEE CRES, LONDON"
      }
    ]
  },
  {
    "postal": "N6H9P3",
    "result": []
  },
  {
    "postal": "N6H4H8",
    "result": [
      {
        "electoralDistricts": [
          {
            "election": null,
            "id": 55,
            "name": "London West"
          }
        ],
        "pollDivisionIds": [
          10139601
        ],
        "postalCode": "N6H4H8",
        "streetName": "FONTAINE",
        "streetDirectionId": null,
        "streetTypeId": "PL",
        "placeName": "LONDON",
        "streetNameDisplayText": "FONTAINE PL, LONDON"
      }
    ]
  },
  {
    "postal": "N6H6R1",
    "result": []
  },
  {
    "postal": "N6H1S0",
    "result": []
  },
  {
    "postal": "N6H3W8",
    "result": []
  },
  {
    "postal": "N6H4S3",
    "result": [
      {
        "electoralDistricts": [
          {
            "election": null,
            "id": 54,
            "name": "London North Centre"
          }
        ],
        "pollDivisionIds": [
          10135372
        ],
        "postalCode": "N6H4S3",
        "streetName": "SUMMIT",
        "streetDirectionId": null,
        "streetTypeId": "AVE",
        "placeName": "LONDON",
        "streetNameDisplayText": "SUMMIT AVE, LONDON"
      }
    ]
  },
  {
    "postal": "N6H1B6",
    "result": [
      {
        "electoralDistricts": [
          {
            "election": null,
            "id": 54,
            "name": "London North Centre"
          }
        ],
        "pollDivisionIds": [
          10135384
        ],
        "postalCode": "N6H1B6",
        "streetName": "FORWARD",
        "streetDirectionId": null,
        "streetTypeId": "AVE",
        "placeName": "LONDON",
        "streetNameDisplayText": "FORWARD AVE, LONDON"
      }
    ]
  },
  {
    "postal": "N6H8R3",
    "result": []
  },
  {
    "postal": "N6H4V9",
    "result": [
      {
        "electoralDistricts": [
          {
            "election": null,
            "id": 55,
            "name": "London West"
          }
        ],
        "pollDivisionIds": [
          10139612
        ],
        "postalCode": "N6H4V9",
        "streetName": "MAHOGANY",
        "streetDirectionId": null,
        "streetTypeId": "CRES",
        "placeName": "LONDON",
        "streetNameDisplayText": "MAHOGANY CRES, LONDON"
      }
    ]
  },
  {
    "postal": "N6H9W4",
    "result": []
  },
  {
    "postal": "N6H3T4",
    "result": [
      {
        "electoralDistricts": [
          {
            "election": null,
            "id": 55,
            "name": "London West"
          }
        ],
        "pollDivisionIds": [
          10139611
        ],
        "postalCode": "N6H3T4",
        "streetName": "NAOMEE",
        "streetDirectionId": null,
        "streetTypeId": "CRES",
        "placeName": "LONDON",
        "streetNameDisplayText": "NAOMEE CRES, LONDON"
      }
    ]
  },
  {
    "postal": "N6H5C7",
    "result": []
  },
  {
    "postal": "N6H3Y1",
    "result": [
      {
        "electoralDistricts": [
          {
            "election": null,
            "id": 55,
            "name": "London West"
          }
        ],
        "pollDivisionIds": [
          10139611
        ],
        "postalCode": "N6H3Y1",
        "streetName": "HUNT CLUB",
        "streetDirectionId": null,
        "streetTypeId": "DR",
        "placeName": "LONDON",
        "streetNameDisplayText": "HUNT CLUB DR, LONDON"
      }
    ]
  },
  {
    "postal": "N6H5V0",
    "result": []
  },
  {
    "postal": "N6H8G8",
    "result": []
  },
  {
    "postal": "N6H8B1",
    "result": []
  },
  {
    "postal": "N6H4P5",
    "result": [
      {
        "electoralDistricts": [
          {
            "election": null,
            "id": 54,
            "name": "London North Centre"
          }
        ],
        "pollDivisionIds": [
          10135400
        ],
        "postalCode": "N6H4P5",
        "streetName": "PLATT'S",
        "streetDirectionId": null,
        "streetTypeId": "LANE",
        "placeName": "LONDON",
        "streetNameDisplayText": "PLATT'S LANE, LONDON"
      }
    ]
  },
  {
    "postal": "N6H7B2",
    "result": []
  },
  {
    "postal": "N6H0R2",
    "result": []
  },
  {
    "postal": "N6H4M4",
    "result": [
      {
        "electoralDistricts": [
          {
            "election": null,
            "id": 54,
            "name": "London North Centre"
          }
        ],
        "pollDivisionIds": [
          10135396,
          10135371
        ],
        "postalCode": "N6H4M4",
        "streetName": "CHERRYHILL",
        "streetDirectionId": null,
        "streetTypeId": "PL",
        "placeName": "LONDON",
        "streetNameDisplayText": "CHERRYHILL PL, LONDON"
      }
    ]
  },
  {
    "postal": "N6H7M4",
    "result": []
  },
  {
    "postal": "N6H9S7",
    "result": []
  },
  {
    "postal": "N6H5Z7",
    "result": []
  },
  {
    "postal": "N6H7J7",
    "result": []
  },
  {
    "postal": "N6H8R8",
    "result": []
  },
  {
    "postal": "N6H9X1",
    "result": []
  },
  {
    "postal": "N6H5M9",
    "result": []
  },
  {
    "postal": "N6H9B4",
    "result": []
  },
  {
    "postal": "N6H0L9",
    "result": []
  },
  {
    "postal": "N6H9G4",
    "result": []
  },
  {
    "postal": "N6H1J4",
    "result": [
      {
        "electoralDistricts": [
          {
            "election": null,
            "id": 54,
            "name": "London North Centre"
          }
        ],
        "pollDivisionIds": [
          10135373
        ],
        "postalCode": "N6H1J4",
        "streetName": "CARROTHERS",
        "streetDirectionId": null,
        "streetTypeId": "AVE",
        "placeName": "LONDON",
        "streetNameDisplayText": "CARROTHERS AVE, LONDON"
      }
    ]
  },
  {
    "postal": "N6H0W6",
    "result": []
  }
]
