[
  {
    "postal": "L8G9J6",
    "result": []
  },
  {
    "postal": "L8G9Z5",
    "result": []
  },
  {
    "postal": "L8G7H8",
    "result": []
  },
  {
    "postal": "L8G0P6",
    "result": []
  },
  {
    "postal": "L8G0S7",
    "result": []
  },
  {
    "postal": "L8G8B9",
    "result": []
  },
  {
    "postal": "L8G2A6",
    "result": [
      {
        "electoralDistricts": [
          {
            "election": null,
            "id": 37,
            "name": "Hamilton East—Stoney Creek"
          }
        ],
        "pollDivisionIds": [
          10138657
        ],
        "postalCode": "L8G2A6",
        "streetName": "FELKER",
        "streetDirectionId": null,
        "streetTypeId": "CRES",
        "placeName": "STONEY CREEK",
        "streetNameDisplayText": "FELKER CRES, STONEY CREEK"
      }
    ]
  },
  {
    "postal": "L8G7V2",
    "result": []
  },
  {
    "postal": "L8G9P4",
    "result": []
  },
  {
    "postal": "L8G6G0",
    "result": []
  },
  {
    "postal": "L8G2K0",
    "result": []
  },
  {
    "postal": "L8G7N6",
    "result": []
  },
  {
    "postal": "L8G5R3",
    "result": []
  },
  {
    "postal": "L8G7K0",
    "result": []
  },
  {
    "postal": "L8G3R2",
    "result": [
      {
        "electoralDistricts": [
          {
            "election": null,
            "id": 37,
            "name": "Hamilton East—Stoney Creek"
          }
        ],
        "pollDivisionIds": [
          10138658
        ],
        "postalCode": "L8G3R2",
        "streetName": "BLAND",
        "streetDirectionId": null,
        "streetTypeId": "AVE",
        "placeName": "STONEY CREEK",
        "streetNameDisplayText": "BLAND AVE, STONEY CREEK"
      }
    ]
  },
  {
    "postal": "L8G0J1",
    "result": []
  },
  {
    "postal": "L8G0B0",
    "result": []
  },
  {
    "postal": "L8G5Z2",
    "result": []
  },
  {
    "postal": "L8G7P3",
    "result": []
  },
  {
    "postal": "L8G2K3",
    "result": [
      {
        "electoralDistricts": [
          {
            "election": null,
            "id": 37,
            "name": "Hamilton East—Stoney Creek"
          }
        ],
        "pollDivisionIds": [
          10138656
        ],
        "postalCode": "L8G2K3",
        "streetName": "ORLANDA",
        "streetDirectionId": null,
        "streetTypeId": "RD",
        "placeName": "HAMILTON",
        "streetNameDisplayText": "ORLANDA RD, HAMILTON"
      }
    ]
  },
  {
    "postal": "L8G7Y6",
    "result": []
  },
  {
    "postal": "L8G1L9",
    "result": [
      {
        "electoralDistricts": [
          {
            "election": null,
            "id": 37,
            "name": "Hamilton East—Stoney Creek"
          }
        ],
        "pollDivisionIds": [
          10138660
        ],
        "postalCode": "L8G1L9",
        "streetName": "KING",
        "streetDirectionId": "E",
        "streetTypeId": "ST",
        "placeName": "STONEY CREEK",
        "streetNameDisplayText": "KING ST E, STONEY CREEK"
      }
    ]
  },
  {
    "postal": "L8G8T0",
    "result": []
  },
  {
    "postal": "L8G3K8",
    "result": [
      {
        "electoralDistricts": [
          {
            "election": null,
            "id": 37,
            "name": "Hamilton East—Stoney Creek"
          }
        ],
        "pollDivisionIds": [
          10138658
        ],
        "postalCode": "L8G3K8",
        "streetName": "COLLEGIATE",
        "streetDirectionId": null,
        "streetTypeId": "AVE",
        "placeName": "STONEY CREEK",
        "streetNameDisplayText": "COLLEGIATE AVE, STONEY CREEK"
      }
    ]
  },
  {
    "postal": "L8G5W9",
    "result": []
  },
  {
    "postal": "L8G6T9",
    "result": []
  },
  {
    "postal": "L8G4H1",
    "result": [
      {
        "electoralDistricts": [
          {
            "election": null,
            "id": 37,
            "name": "Hamilton East—Stoney Creek"
          }
        ],
        "pollDivisionIds": [
          10138668
        ],
        "postalCode": "L8G4H1",
        "streetName": "FARMINGDALE",
        "streetDirectionId": null,
        "streetTypeId": "CRES",
        "placeName": "STONEY CREEK",
        "streetNameDisplayText": "FARMINGDALE CRES, STONEY CREEK"
      }
    ]
  },
  {
    "postal": "L8G7A2",
    "result": []
  },
  {
    "postal": "L8G5G0",
    "result": []
  },
  {
    "postal": "L8G8V5",
    "result": []
  },
  {
    "postal": "L8G2Y8",
    "result": [
      {
        "electoralDistricts": [
          {
            "election": null,
            "id": 37,
            "name": "Hamilton East—Stoney Creek"
          }
        ],
        "pollDivisionIds": [
          10138660
        ],
        "postalCode": "L8G2Y8",
        "streetName": "LINDSAY",
        "streetDirectionId": null,
        "streetTypeId": "CRT",
        "placeName": "STONEY CREEK",
        "streetNameDisplayText": "LINDSAY CRT, STONEY CREEK"
      }
    ]
  },
  {
    "postal": "L8G2B6",
    "result": []
  },
  {
    "postal": "L8G4W8",
    "result": [
      {
        "electoralDistricts": [
          {
            "election": null,
            "id": 37,
            "name": "Hamilton East—Stoney Creek"
          }
        ],
        "pollDivisionIds": [
          10138660
        ],
        "postalCode": "L8G4W8",
        "streetName": "CORMAN",
        "streetDirectionId": null,
        "streetTypeId": "AVE",
        "placeName": "STONEY CREEK",
        "streetNameDisplayText": "CORMAN AVE, STONEY CREEK"
      },
      {
        "electoralDistricts": [
          {
            "election": null,
            "id": 37,
            "name": "Hamilton East—Stoney Creek"
          }
        ],
        "pollDivisionIds": [
          10138660
        ],
        "postalCode": "L8G4W8",
        "streetName": "CORMAN",
        "streetDirectionId": null,
        "streetTypeId": "PL",
        "placeName": "STONEY CREEK",
        "streetNameDisplayText": "CORMAN PL, STONEY CREEK"
      }
    ]
  },
  {
    "postal": "L8G8H7",
    "result": []
  },
  {
    "postal": "L8G5P1",
    "result": []
  },
  {
    "postal": "L8G2B8",
    "result": [
      {
        "electoralDistricts": [
          {
            "election": null,
            "id": 37,
            "name": "Hamilton East—Stoney Creek"
          }
        ],
        "pollDivisionIds": [
          10138656
        ],
        "postalCode": "L8G2B8",
        "streetName": "CENTENNIAL",
        "streetDirectionId": "S",
        "streetTypeId": "PKY",
        "placeName": "STONEY CREEK",
        "streetNameDisplayText": "CENTENNIAL PKY S, STONEY CREEK"
      }
    ]
  },
  {
    "postal": "L8G0P2",
    "result": []
  },
  {
    "postal": "L8G9M1",
    "result": []
  },
  {
    "postal": "L8G3G0",
    "result": []
  },
  {
    "postal": "L8G9Z2",
    "result": []
  },
  {
    "postal": "L8G2A0",
    "result": []
  },
  {
    "postal": "L8G6Y0",
    "result": []
  },
  {
    "postal": "L8G2Z8",
    "result": [
      {
        "electoralDistricts": [
          {
            "election": null,
            "id": 37,
            "name": "Hamilton East—Stoney Creek"
          }
        ],
        "pollDivisionIds": [
          10138667
        ],
        "postalCode": "L8G2Z8",
        "streetName": "GLEN CANNON",
        "streetDirectionId": null,
        "streetTypeId": "DR",
        "placeName": "STONEY CREEK",
        "streetNameDisplayText": "GLEN CANNON DR, STONEY CREEK"
      }
    ]
  },
  {
    "postal": "L8G7Y3",
    "result": []
  },
  {
    "postal": "L8G6Z5",
    "result": []
  },
  {
    "postal": "L8G6E0",
    "result": []
  },
  {
    "postal": "L8G9B7",
    "result": []
  },
  {
    "postal": "L8G9S5",
    "result": []
  },
  {
    "postal": "L8G3X3",
    "result": []
  },
  {
    "postal": "L8G7R5",
    "result": []
  },
  {
    "postal": "L8G2X3",
    "result": [
      {
        "electoralDistricts": [
          {
            "election": null,
            "id": 37,
            "name": "Hamilton East—Stoney Creek"
          }
        ],
        "pollDivisionIds": [
          10138660
        ],
        "postalCode": "L8G2X3",
        "streetName": "BONITA",
        "streetDirectionId": null,
        "streetTypeId": "DR",
        "placeName": "STONEY CREEK",
        "streetNameDisplayText": "BONITA DR, STONEY CREEK"
      }
    ]
  },
  {
    "postal": "L8G8Z9",
    "result": []
  },
  {
    "postal": "L8G0N4",
    "result": []
  },
  {
    "postal": "L8G1K1",
    "result": [
      {
        "electoralDistricts": [
          {
            "election": null,
            "id": 37,
            "name": "Hamilton East—Stoney Creek"
          }
        ],
        "pollDivisionIds": [
          10138657
        ],
        "postalCode": "L8G1K1",
        "streetName": "KING",
        "streetDirectionId": "E",
        "streetTypeId": "ST",
        "placeName": "STONEY CREEK",
        "streetNameDisplayText": "KING ST E, STONEY CREEK"
      }
    ]
  },
  {
    "postal": "L8G1S3",
    "result": [
      {
        "electoralDistricts": [
          {
            "election": null,
            "id": 37,
            "name": "Hamilton East—Stoney Creek"
          }
        ],
        "pollDivisionIds": [
          10138658
        ],
        "postalCode": "L8G1S3",
        "streetName": "WARDROPE",
        "streetDirectionId": null,
        "streetTypeId": "AVE",
        "placeName": "STONEY CREEK",
        "streetNameDisplayText": "WARDROPE AVE, STONEY CREEK"
      }
    ]
  },
  {
    "postal": "L8G6M4",
    "result": []
  },
  {
    "postal": "L8G9A9",
    "result": []
  },
  {
    "postal": "L8G9Z9",
    "result": []
  },
  {
    "postal": "L8G6T4",
    "result": []
  },
  {
    "postal": "L8G0B2",
    "result": [
      {
        "electoralDistricts": [
          {
            "election": null,
            "id": 37,
            "name": "Hamilton East—Stoney Creek"
          }
        ],
        "pollDivisionIds": [
          10138679
        ],
        "postalCode": "L8G0B2",
        "streetName": "KING",
        "streetDirectionId": "E",
        "streetTypeId": "ST",
        "placeName": "STONEY CREEK",
        "streetNameDisplayText": "KING ST E, STONEY CREEK"
      }
    ]
  },
  {
    "postal": "L8G2L9",
    "result": [
      {
        "electoralDistricts": [
          {
            "election": null,
            "id": 37,
            "name": "Hamilton East—Stoney Creek"
          }
        ],
        "pollDivisionIds": [
          10138657
        ],
        "postalCode": "L8G2L9",
        "streetName": "FELKER",
        "streetDirectionId": null,
        "streetTypeId": "AVE",
        "placeName": "STONEY CREEK",
        "streetNameDisplayText": "FELKER AVE, STONEY CREEK"
      }
    ]
  },
  {
    "postal": "L8G8K9",
    "result": []
  },
  {
    "postal": "L8G2H9",
    "result": [
      {
        "electoralDistricts": [
          {
            "election": null,
            "id": 37,
            "name": "Hamilton East—Stoney Creek"
          }
        ],
        "pollDivisionIds": [
          10138656
        ],
        "postalCode": "L8G2H9",
        "streetName": "CLAPHAM",
        "streetDirectionId": null,
        "streetTypeId": "RD",
        "placeName": "HAMILTON",
        "streetNameDisplayText": "CLAPHAM RD, HAMILTON"
      }
    ]
  },
  {
    "postal": "L8G3Z6",
    "result": [
      {
        "electoralDistricts": [
          {
            "election": null,
            "id": 37,
            "name": "Hamilton East—Stoney Creek"
          }
        ],
        "pollDivisionIds": [
          10138658
        ],
        "postalCode": "L8G3Z6",
        "streetName": "MOUNTAIN",
        "streetDirectionId": "N",
        "streetTypeId": "AVE",
        "placeName": "STONEY CREEK",
        "streetNameDisplayText": "MOUNTAIN AVE N, STONEY CREEK"
      }
    ]
  },
  {
    "postal": "L8G3B0",
    "result": []
  },
  {
    "postal": "L8G2H8",
    "result": [
      {
        "electoralDistricts": [
          {
            "election": null,
            "id": 37,
            "name": "Hamilton East—Stoney Creek"
          }
        ],
        "pollDivisionIds": [
          10138656
        ],
        "postalCode": "L8G2H8",
        "streetName": "CLAPHAM",
        "streetDirectionId": null,
        "streetTypeId": "RD",
        "placeName": "HAMILTON",
        "streetNameDisplayText": "CLAPHAM RD, HAMILTON"
      }
    ]
  },
  {
    "postal": "L8G3X2",
    "result": [
      {
        "electoralDistricts": [
          {
            "election": null,
            "id": 37,
            "name": "Hamilton East—Stoney Creek"
          }
        ],
        "pollDivisionIds": [
          10138662
        ],
        "postalCode": "L8G3X2",
        "streetName": "GREEN",
        "streetDirectionId": null,
        "streetTypeId": "RD",
        "placeName": "STONEY CREEK",
        "streetNameDisplayText": "GREEN RD, STONEY CREEK"
      }
    ]
  },
  {
    "postal": "L8G2E9",
    "result": [
      {
        "electoralDistricts": [
          {
            "election": null,
            "id": 37,
            "name": "Hamilton East—Stoney Creek"
          }
        ],
        "pollDivisionIds": [
          10138656
        ],
        "postalCode": "L8G2E9",
        "streetName": "CROMWELL",
        "streetDirectionId": null,
        "streetTypeId": "CRES",
        "placeName": "HAMILTON",
        "streetNameDisplayText": "CROMWELL CRES, HAMILTON"
      }
    ]
  },
  {
    "postal": "L8G9P6",
    "result": []
  },
  {
    "postal": "L8G9E2",
    "result": []
  },
  {
    "postal": "L8G9H2",
    "result": []
  },
  {
    "postal": "L8G1S8",
    "result": [
      {
        "electoralDistricts": [
          {
            "election": null,
            "id": 37,
            "name": "Hamilton East—Stoney Creek"
          }
        ],
        "pollDivisionIds": [
          10138657
        ],
        "postalCode": "L8G1S8",
        "streetName": "UPPER WALKER",
        "streetDirectionId": null,
        "streetTypeId": "AVE",
        "placeName": "STONEY CREEK",
        "streetNameDisplayText": "UPPER WALKER AVE, STONEY CREEK"
      }
    ]
  },
  {
    "postal": "L8G3M6",
    "result": [
      {
        "electoralDistricts": [
          {
            "election": null,
            "id": 37,
            "name": "Hamilton East—Stoney Creek"
          }
        ],
        "pollDivisionIds": [
          10138660
        ],
        "postalCode": "L8G3M6",
        "streetName": "WESTBURY",
        "streetDirectionId": null,
        "streetTypeId": "AVE",
        "placeName": "STONEY CREEK",
        "streetNameDisplayText": "WESTBURY AVE, STONEY CREEK"
      }
    ]
  },
  {
    "postal": "L8G6Z8",
    "result": []
  },
  {
    "postal": "L8G4J2",
    "result": [
      {
        "electoralDistricts": [
          {
            "election": null,
            "id": 37,
            "name": "Hamilton East—Stoney Creek"
          }
        ],
        "pollDivisionIds": [
          10138667
        ],
        "postalCode": "L8G4J2",
        "streetName": "PLATEAU",
        "streetDirectionId": null,
        "streetTypeId": "PL",
        "placeName": "STONEY CREEK",
        "streetNameDisplayText": "PLATEAU PL, STONEY CREEK"
      }
    ]
  },
  {
    "postal": "L8G9Y1",
    "result": []
  },
  {
    "postal": "L8G8V6",
    "result": []
  },
  {
    "postal": "L8G6B2",
    "result": []
  },
  {
    "postal": "L8G1P8",
    "result": [
      {
        "electoralDistricts": [
          {
            "election": null,
            "id": 37,
            "name": "Hamilton East—Stoney Creek"
          }
        ],
        "pollDivisionIds": [
          10138657
        ],
        "postalCode": "L8G1P8",
        "streetName": "FIRST",
        "streetDirectionId": "S",
        "streetTypeId": "ST",
        "placeName": "STONEY CREEK",
        "streetNameDisplayText": "FIRST ST S, STONEY CREEK"
      }
    ]
  },
  {
    "postal": "L8G0V8",
    "result": []
  },
  {
    "postal": "L8G4Y0",
    "result": []
  },
  {
    "postal": "L8G2T4",
    "result": [
      {
        "electoralDistricts": [
          {
            "election": null,
            "id": 37,
            "name": "Hamilton East—Stoney Creek"
          }
        ],
        "pollDivisionIds": [
          10138660
        ],
        "postalCode": "L8G2T4",
        "streetName": "OAKRIDGE",
        "streetDirectionId": null,
        "streetTypeId": "DR",
        "placeName": "STONEY CREEK",
        "streetNameDisplayText": "OAKRIDGE DR, STONEY CREEK"
      }
    ]
  },
  {
    "postal": "L8G2S3",
    "result": [
      {
        "electoralDistricts": [
          {
            "election": null,
            "id": 37,
            "name": "Hamilton East—Stoney Creek"
          }
        ],
        "pollDivisionIds": [
          10138660
        ],
        "postalCode": "L8G2S3",
        "streetName": "JASPER",
        "streetDirectionId": null,
        "streetTypeId": "DR",
        "placeName": "STONEY CREEK",
        "streetNameDisplayText": "JASPER DR, STONEY CREEK"
      }
    ]
  },
  {
    "postal": "L8G0K0",
    "result": []
  },
  {
    "postal": "L8G5N1",
    "result": []
  },
  {
    "postal": "L8G7T0",
    "result": []
  },
  {
    "postal": "L8G9N2",
    "result": []
  },
  {
    "postal": "L8G5L1",
    "result": []
  },
  {
    "postal": "L8G7G5",
    "result": []
  },
  {
    "postal": "L8G6K2",
    "result": []
  },
  {
    "postal": "L8G6P9",
    "result": []
  },
  {
    "postal": "L8G0E6",
    "result": []
  },
  {
    "postal": "L8G8R9",
    "result": []
  },
  {
    "postal": "L8G3G9",
    "result": [
      {
        "electoralDistricts": [
          {
            "election": null,
            "id": 37,
            "name": "Hamilton East—Stoney Creek"
          }
        ],
        "pollDivisionIds": [
          10138667
        ],
        "postalCode": "L8G3G9",
        "streetName": "HOMESIDE",
        "streetDirectionId": null,
        "streetTypeId": "AVE",
        "placeName": "STONEY CREEK",
        "streetNameDisplayText": "HOMESIDE AVE, STONEY CREEK"
      }
    ]
  },
  {
    "postal": "L8G0V7",
    "result": []
  },
  {
    "postal": "L8G2Z1",
    "result": [
      {
        "electoralDistricts": [
          {
            "election": null,
            "id": 37,
            "name": "Hamilton East—Stoney Creek"
          }
        ],
        "pollDivisionIds": [
          10138662
        ],
        "postalCode": "L8G2Z1",
        "streetName": "GLENGARRY",
        "streetDirectionId": null,
        "streetTypeId": "DR",
        "placeName": "STONEY CREEK",
        "streetNameDisplayText": "GLENGARRY DR, STONEY CREEK"
      }
    ]
  },
  {
    "postal": "L8G7N1",
    "result": []
  },
  {
    "postal": "L8G3C6",
    "result": [
      {
        "electoralDistricts": [
          {
            "election": null,
            "id": 37,
            "name": "Hamilton East—Stoney Creek"
          }
        ],
        "pollDivisionIds": [
          10138667
        ],
        "postalCode": "L8G3C6",
        "streetName": "MAPLE",
        "streetDirectionId": null,
        "streetTypeId": "DR",
        "placeName": "STONEY CREEK",
        "streetNameDisplayText": "MAPLE DR, STONEY CREEK"
      }
    ]
  },
  {
    "postal": "L8G4M1",
    "result": [
      {
        "electoralDistricts": [
          {
            "election": null,
            "id": 37,
            "name": "Hamilton East—Stoney Creek"
          }
        ],
        "pollDivisionIds": [
          10138668
        ],
        "postalCode": "L8G4M1",
        "streetName": "ENVOY",
        "streetDirectionId": null,
        "streetTypeId": "BLVD",
        "placeName": "STONEY CREEK",
        "streetNameDisplayText": "ENVOY BLVD, STONEY CREEK"
      }
    ]
  },
  {
    "postal": "L8G9K2",
    "result": []
  },
  {
    "postal": "L8G9S6",
    "result": []
  },
  {
    "postal": "L8G4X1",
    "result": [
      {
        "electoralDistricts": [
          {
            "election": null,
            "id": 37,
            "name": "Hamilton East—Stoney Creek"
          }
        ],
        "pollDivisionIds": [
          10138656
        ],
        "postalCode": "L8G4X1",
        "streetName": "GREENHILL",
        "streetDirectionId": null,
        "streetTypeId": "AVE",
        "placeName": "HAMILTON",
        "streetNameDisplayText": "GREENHILL AVE, HAMILTON"
      }
    ]
  },
  {
    "postal": "L8G8W2",
    "result": []
  },
  {
    "postal": "L8G7N2",
    "result": []
  },
  {
    "postal": "L8G8S3",
    "result": []
  },
  {
    "postal": "L8G4V0",
    "result": []
  },
  {
    "postal": "L8G6W4",
    "result": []
  },
  {
    "postal": "L8G5M1",
    "result": []
  },
  {
    "postal": "L8G0S4",
    "result": []
  },
  {
    "postal": "L8G5X6",
    "result": []
  },
  {
    "postal": "L8G8L5",
    "result": []
  },
  {
    "postal": "L8G5M8",
    "result": []
  },
  {
    "postal": "L8G2G3",
    "result": [
      {
        "electoralDistricts": [
          {
            "election": null,
            "id": 37,
            "name": "Hamilton East—Stoney Creek"
          }
        ],
        "pollDivisionIds": [
          10138656
        ],
        "postalCode": "L8G2G3",
        "streetName": "CROMWELL",
        "streetDirectionId": null,
        "streetTypeId": "CRES",
        "placeName": "HAMILTON",
        "streetNameDisplayText": "CROMWELL CRES, HAMILTON"
      }
    ]
  },
  {
    "postal": "L8G8E4",
    "result": []
  },
  {
    "postal": "L8G7S9",
    "result": []
  },
  {
    "postal": "L8G1K3",
    "result": [
      {
        "electoralDistricts": [
          {
            "election": null,
            "id": 37,
            "name": "Hamilton East—Stoney Creek"
          }
        ],
        "pollDivisionIds": [
          10138658
        ],
        "postalCode": "L8G1K3",
        "streetName": "KING",
        "streetDirectionId": "E",
        "streetTypeId": "ST",
        "placeName": "STONEY CREEK",
        "streetNameDisplayText": "KING ST E, STONEY CREEK"
      }
    ]
  },
  {
    "postal": "L8G4E1",
    "result": [
      {
        "electoralDistricts": [
          {
            "election": null,
            "id": 37,
            "name": "Hamilton East—Stoney Creek"
          }
        ],
        "pollDivisionIds": [
          10138667
        ],
        "postalCode": "L8G4E1",
        "streetName": "GLEN CANNON",
        "streetDirectionId": null,
        "streetTypeId": "DR",
        "placeName": "STONEY CREEK",
        "streetNameDisplayText": "GLEN CANNON DR, STONEY CREEK"
      }
    ]
  },
  {
    "postal": "L8G4R2",
    "result": [
      {
        "electoralDistricts": [
          {
            "election": null,
            "id": 37,
            "name": "Hamilton East—Stoney Creek"
          }
        ],
        "pollDivisionIds": [
          10138656
        ],
        "postalCode": "L8G4R2",
        "streetName": "VIENNA",
        "streetDirectionId": null,
        "streetTypeId": "ST",
        "placeName": "HAMILTON",
        "streetNameDisplayText": "VIENNA ST, HAMILTON"
      }
    ]
  },
  {
    "postal": "L8G6T0",
    "result": []
  },
  {
    "postal": "L8G3K5",
    "result": [
      {
        "electoralDistricts": [
          {
            "election": null,
            "id": 37,
            "name": "Hamilton East—Stoney Creek"
          }
        ],
        "pollDivisionIds": [
          10138660
        ],
        "postalCode": "L8G3K5",
        "streetName": "JAMES",
        "streetDirectionId": null,
        "streetTypeId": "AVE",
        "placeName": "STONEY CREEK",
        "streetNameDisplayText": "JAMES AVE, STONEY CREEK"
      }
    ]
  },
  {
    "postal": "L8G3S3",
    "result": [
      {
        "electoralDistricts": [
          {
            "election": null,
            "id": 37,
            "name": "Hamilton East—Stoney Creek"
          }
        ],
        "pollDivisionIds": [
          10138658
        ],
        "postalCode": "L8G3S3",
        "streetName": "DONN",
        "streetDirectionId": null,
        "streetTypeId": "AVE",
        "placeName": "STONEY CREEK",
        "streetNameDisplayText": "DONN AVE, STONEY CREEK"
      }
    ]
  },
  {
    "postal": "L8G3L4",
    "result": [
      {
        "electoralDistricts": [
          {
            "election": null,
            "id": 37,
            "name": "Hamilton East—Stoney Creek"
          }
        ],
        "pollDivisionIds": [
          10138658
        ],
        "postalCode": "L8G3L4",
        "streetName": "COLLEGIATE",
        "streetDirectionId": null,
        "streetTypeId": "AVE",
        "placeName": "STONEY CREEK",
        "streetNameDisplayText": "COLLEGIATE AVE, STONEY CREEK"
      }
    ]
  },
  {
    "postal": "L8G9Y2",
    "result": []
  },
  {
    "postal": "L8G1E0",
    "result": []
  },
  {
    "postal": "L8G9A4",
    "result": []
  },
  {
    "postal": "L8G1L3",
    "result": [
      {
        "electoralDistricts": [
          {
            "election": null,
            "id": 37,
            "name": "Hamilton East—Stoney Creek"
          }
        ],
        "pollDivisionIds": [
          10138660
        ],
        "postalCode": "L8G1L3",
        "streetName": "KING",
        "streetDirectionId": "E",
        "streetTypeId": "ST",
        "placeName": "STONEY CREEK",
        "streetNameDisplayText": "KING ST E, STONEY CREEK"
      }
    ]
  },
  {
    "postal": "L8G6N1",
    "result": []
  },
  {
    "postal": "L8G6G7",
    "result": []
  },
  {
    "postal": "L8G7W1",
    "result": []
  },
  {
    "postal": "L8G4M6",
    "result": [
      {
        "electoralDistricts": [
          {
            "election": null,
            "id": 37,
            "name": "Hamilton East—Stoney Creek"
          }
        ],
        "pollDivisionIds": [
          10138656
        ],
        "postalCode": "L8G4M6",
        "streetName": "GREENHILL",
        "streetDirectionId": null,
        "streetTypeId": "AVE",
        "placeName": "HAMILTON",
        "streetNameDisplayText": "GREENHILL AVE, HAMILTON"
      }
    ]
  },
  {
    "postal": "L8G1K0",
    "result": []
  },
  {
    "postal": "L8G3E2",
    "result": [
      {
        "electoralDistricts": [
          {
            "election": null,
            "id": 37,
            "name": "Hamilton East—Stoney Creek"
          }
        ],
        "pollDivisionIds": [
          10138667
        ],
        "postalCode": "L8G3E2",
        "streetName": "KILBOURN",
        "streetDirectionId": null,
        "streetTypeId": "AVE",
        "placeName": "STONEY CREEK",
        "streetNameDisplayText": "KILBOURN AVE, STONEY CREEK"
      }
    ]
  },
  {
    "postal": "L8G5H4",
    "result": [
      {
        "electoralDistricts": [
          {
            "election": null,
            "id": 37,
            "name": "Hamilton East—Stoney Creek"
          }
        ],
        "pollDivisionIds": [
          10138656
        ],
        "postalCode": "L8G5H4",
        "streetName": "NASHVILLE",
        "streetDirectionId": null,
        "streetTypeId": "CIR",
        "placeName": "HAMILTON",
        "streetNameDisplayText": "NASHVILLE CIR, HAMILTON"
      }
    ]
  },
  {
    "postal": "L8G1K7",
    "result": [
      {
        "electoralDistricts": [
          {
            "election": null,
            "id": 37,
            "name": "Hamilton East—Stoney Creek"
          }
        ],
        "pollDivisionIds": [
          10138658
        ],
        "postalCode": "L8G1K7",
        "streetName": "KING",
        "streetDirectionId": "E",
        "streetTypeId": "ST",
        "placeName": "STONEY CREEK",
        "streetNameDisplayText": "KING ST E, STONEY CREEK"
      }
    ]
  },
  {
    "postal": "L8G0H0",
    "result": []
  },
  {
    "postal": "L8G0J3",
    "result": []
  },
  {
    "postal": "L8G1X6",
    "result": [
      {
        "electoralDistricts": [
          {
            "election": null,
            "id": 37,
            "name": "Hamilton East—Stoney Creek"
          }
        ],
        "pollDivisionIds": [
          10138657
        ],
        "postalCode": "L8G1X6",
        "streetName": "LAKE",
        "streetDirectionId": "N",
        "streetTypeId": "AVE",
        "placeName": "STONEY CREEK",
        "streetNameDisplayText": "LAKE AVE N, STONEY CREEK"
      },
      {
        "electoralDistricts": [
          {
            "election": null,
            "id": 37,
            "name": "Hamilton East—Stoney Creek"
          }
        ],
        "pollDivisionIds": [
          10138657
        ],
        "postalCode": "L8G1X6",
        "streetName": "LAKE AVENUE",
        "streetDirectionId": null,
        "streetTypeId": "DR",
        "placeName": "STONEY CREEK",
        "streetNameDisplayText": "LAKE AVENUE DR, STONEY CREEK"
      }
    ]
  },
  {
    "postal": "L8G2Z6",
    "result": [
      {
        "electoralDistricts": [
          {
            "election": null,
            "id": 37,
            "name": "Hamilton East—Stoney Creek"
          }
        ],
        "pollDivisionIds": [
          10138667
        ],
        "postalCode": "L8G2Z6",
        "streetName": "GLEN CANNON",
        "streetDirectionId": null,
        "streetTypeId": "DR",
        "placeName": "STONEY CREEK",
        "streetNameDisplayText": "GLEN CANNON DR, STONEY CREEK"
      }
    ]
  },
  {
    "postal": "L8G4R9",
    "result": [
      {
        "electoralDistricts": [
          {
            "election": null,
            "id": 37,
            "name": "Hamilton East—Stoney Creek"
          }
        ],
        "pollDivisionIds": [
          10138660
        ],
        "postalCode": "L8G4R9",
        "streetName": "STONEY BROOK",
        "streetDirectionId": null,
        "streetTypeId": "DR",
        "placeName": "STONEY CREEK",
        "streetNameDisplayText": "STONEY BROOK DR, STONEY CREEK"
      }
    ]
  },
  {
    "postal": "L8G0W8",
    "result": []
  },
  {
    "postal": "L8G1L4",
    "result": [
      {
        "electoralDistricts": [
          {
            "election": null,
            "id": 37,
            "name": "Hamilton East—Stoney Creek"
          }
        ],
        "pollDivisionIds": [
          10138660,
          10138679
        ],
        "postalCode": "L8G1L4",
        "streetName": "KING",
        "streetDirectionId": "E",
        "streetTypeId": "ST",
        "placeName": "STONEY CREEK",
        "streetNameDisplayText": "KING ST E, STONEY CREEK"
      }
    ]
  },
  {
    "postal": "L8G0C8",
    "result": []
  },
  {
    "postal": "L8G9X7",
    "result": []
  },
  {
    "postal": "L8G4T1",
    "result": []
  },
  {
    "postal": "L8G0M0",
    "result": []
  },
  {
    "postal": "L8G6A2",
    "result": []
  },
  {
    "postal": "L8G9S8",
    "result": []
  },
  {
    "postal": "L8G9T4",
    "result": []
  },
  {
    "postal": "L8G9Y4",
    "result": []
  },
  {
    "postal": "L8G6G5",
    "result": []
  },
  {
    "postal": "L8G6H9",
    "result": []
  },
  {
    "postal": "L8G2P3",
    "result": [
      {
        "electoralDistricts": [
          {
            "election": null,
            "id": 37,
            "name": "Hamilton East—Stoney Creek"
          }
        ],
        "pollDivisionIds": [
          10138658
        ],
        "postalCode": "L8G2P3",
        "streetName": "TREVOR",
        "streetDirectionId": null,
        "streetTypeId": "DR",
        "placeName": "STONEY CREEK",
        "streetNameDisplayText": "TREVOR DR, STONEY CREEK"
      }
    ]
  },
  {
    "postal": "L8G1T6",
    "result": [
      {
        "electoralDistricts": [
          {
            "election": null,
            "id": 37,
            "name": "Hamilton East—Stoney Creek"
          }
        ],
        "pollDivisionIds": [
          10138657
        ],
        "postalCode": "L8G1T6",
        "streetName": "WYNGATE",
        "streetDirectionId": null,
        "streetTypeId": "AVE",
        "placeName": "STONEY CREEK",
        "streetNameDisplayText": "WYNGATE AVE, STONEY CREEK"
      }
    ]
  },
  {
    "postal": "L8G4P6",
    "result": []
  },
  {
    "postal": "L8G3K1",
    "result": [
      {
        "electoralDistricts": [
          {
            "election": null,
            "id": 37,
            "name": "Hamilton East—Stoney Creek"
          }
        ],
        "pollDivisionIds": [
          10138658
        ],
        "postalCode": "L8G3K1",
        "streetName": "JAMES",
        "streetDirectionId": null,
        "streetTypeId": "AVE",
        "placeName": "STONEY CREEK",
        "streetNameDisplayText": "JAMES AVE, STONEY CREEK"
      }
    ]
  },
  {
    "postal": "L8G6X4",
    "result": []
  },
  {
    "postal": "L8G4M8",
    "result": [
      {
        "electoralDistricts": [
          {
            "election": null,
            "id": 37,
            "name": "Hamilton East—Stoney Creek"
          }
        ],
        "pollDivisionIds": [
          10138650
        ],
        "postalCode": "L8G4M8",
        "streetName": "TEAL",
        "streetDirectionId": null,
        "streetTypeId": "AVE",
        "placeName": "STONEY CREEK",
        "streetNameDisplayText": "TEAL AVE, STONEY CREEK"
      }
    ]
  },
  {
    "postal": "L8G2Y1",
    "result": [
      {
        "electoralDistricts": [
          {
            "election": null,
            "id": 37,
            "name": "Hamilton East—Stoney Creek"
          }
        ],
        "pollDivisionIds": [
          10138660
        ],
        "postalCode": "L8G2Y1",
        "streetName": "STONEY BROOK",
        "streetDirectionId": null,
        "streetTypeId": "DR",
        "placeName": "STONEY CREEK",
        "streetNameDisplayText": "STONEY BROOK DR, STONEY CREEK"
      }
    ]
  },
  {
    "postal": "L8G6M1",
    "result": []
  },
  {
    "postal": "L8G5L8",
    "result": []
  },
  {
    "postal": "L8G3P6",
    "result": [
      {
        "electoralDistricts": [
          {
            "election": null,
            "id": 37,
            "name": "Hamilton East—Stoney Creek"
          }
        ],
        "pollDivisionIds": [
          10138658
        ],
        "postalCode": "L8G3P6",
        "streetName": "MOUNTAIN",
        "streetDirectionId": "N",
        "streetTypeId": "AVE",
        "placeName": "STONEY CREEK",
        "streetNameDisplayText": "MOUNTAIN AVE N, STONEY CREEK"
      }
    ]
  },
  {
    "postal": "L8G9A5",
    "result": []
  },
  {
    "postal": "L8G7K1",
    "result": []
  },
  {
    "postal": "L8G3J4",
    "result": [
      {
        "electoralDistricts": [
          {
            "election": null,
            "id": 37,
            "name": "Hamilton East—Stoney Creek"
          }
        ],
        "pollDivisionIds": [
          10138658
        ],
        "postalCode": "L8G3J4",
        "streetName": "PASSMORE",
        "streetDirectionId": null,
        "streetTypeId": "ST",
        "placeName": "STONEY CREEK",
        "streetNameDisplayText": "PASSMORE ST, STONEY CREEK"
      }
    ]
  },
  {
    "postal": "L8G5E7",
    "result": [
      {
        "electoralDistricts": [
          {
            "election": null,
            "id": 37,
            "name": "Hamilton East—Stoney Creek"
          }
        ],
        "pollDivisionIds": [
          10138648
        ],
        "postalCode": "L8G5E7",
        "streetName": "HWY 8",
        "streetDirectionId": null,
        "streetTypeId": null,
        "placeName": "HAMILTON",
        "streetNameDisplayText": "HWY 8, HAMILTON"
      },
      {
        "electoralDistricts": [
          {
            "election": null,
            "id": 37,
            "name": "Hamilton East—Stoney Creek"
          }
        ],
        "pollDivisionIds": [
          10138668
        ],
        "postalCode": "L8G5E7",
        "streetName": "HWY 8",
        "streetDirectionId": null,
        "streetTypeId": null,
        "placeName": "STONEY CREEK",
        "streetNameDisplayText": "HWY 8, STONEY CREEK"
      }
    ]
  },
  {
    "postal": "L8G3A7",
    "result": [
      {
        "electoralDistricts": [
          {
            "election": null,
            "id": 37,
            "name": "Hamilton East—Stoney Creek"
          }
        ],
        "pollDivisionIds": [
          10138662
        ],
        "postalCode": "L8G3A7",
        "streetName": "GREEN FOREST",
        "streetDirectionId": null,
        "streetTypeId": "DR",
        "placeName": "STONEY CREEK",
        "streetNameDisplayText": "GREEN FOREST DR, STONEY CREEK"
      }
    ]
  },
  {
    "postal": "L8G1B9",
    "result": [
      {
        "electoralDistricts": [
          {
            "election": null,
            "id": 37,
            "name": "Hamilton East—Stoney Creek"
          }
        ],
        "pollDivisionIds": [
          10138660
        ],
        "postalCode": "L8G1B9",
        "streetName": "HWY 8",
        "streetDirectionId": null,
        "streetTypeId": "RD",
        "placeName": "STONEY CREEK",
        "streetNameDisplayText": "HWY 8 RD, STONEY CREEK"
      }
    ]
  },
  {
    "postal": "L8G9E8",
    "result": []
  },
  {
    "postal": "L8G1C9",
    "result": [
      {
        "electoralDistricts": [
          {
            "election": null,
            "id": 37,
            "name": "Hamilton East—Stoney Creek"
          }
        ],
        "pollDivisionIds": [
          10138662
        ],
        "postalCode": "L8G1C9",
        "streetName": "HWY 8",
        "streetDirectionId": null,
        "streetTypeId": null,
        "placeName": "STONEY CREEK",
        "streetNameDisplayText": "HWY 8, STONEY CREEK"
      }
    ]
  },
  {
    "postal": "L8G3B5",
    "result": [
      {
        "electoralDistricts": [
          {
            "election": null,
            "id": 37,
            "name": "Hamilton East—Stoney Creek"
          }
        ],
        "pollDivisionIds": [
          10138667
        ],
        "postalCode": "L8G3B5",
        "streetName": "ROYCE",
        "streetDirectionId": null,
        "streetTypeId": "AVE",
        "placeName": "STONEY CREEK",
        "streetNameDisplayText": "ROYCE AVE, STONEY CREEK"
      }
    ]
  },
  {
    "postal": "L8G8R0",
    "result": []
  },
  {
    "postal": "L8G3P2",
    "result": [
      {
        "electoralDistricts": [
          {
            "election": null,
            "id": 37,
            "name": "Hamilton East—Stoney Creek"
          }
        ],
        "pollDivisionIds": [
          10138658
        ],
        "postalCode": "L8G3P2",
        "streetName": "MOUNTAIN",
        "streetDirectionId": "N",
        "streetTypeId": "AVE",
        "placeName": "STONEY CREEK",
        "streetNameDisplayText": "MOUNTAIN AVE N, STONEY CREEK"
      }
    ]
  },
  {
    "postal": "L8G5V4",
    "result": []
  },
  {
    "postal": "L8G4H0",
    "result": []
  },
  {
    "postal": "L8G4S7",
    "result": []
  },
  {
    "postal": "L8G6C2",
    "result": []
  },
  {
    "postal": "L8G8W3",
    "result": []
  },
  {
    "postal": "L8G4M5",
    "result": [
      {
        "electoralDistricts": [
          {
            "election": null,
            "id": 37,
            "name": "Hamilton East—Stoney Creek"
          }
        ],
        "pollDivisionIds": [
          10138656
        ],
        "postalCode": "L8G4M5",
        "streetName": "MONTE",
        "streetDirectionId": null,
        "streetTypeId": "DR",
        "placeName": "HAMILTON",
        "streetNameDisplayText": "MONTE DR, HAMILTON"
      }
    ]
  },
  {
    "postal": "L8G5T1",
    "result": []
  },
  {
    "postal": "L8G3B3",
    "result": [
      {
        "electoralDistricts": [
          {
            "election": null,
            "id": 37,
            "name": "Hamilton East—Stoney Creek"
          }
        ],
        "pollDivisionIds": [
          10138667
        ],
        "postalCode": "L8G3B3",
        "streetName": "ELM",
        "streetDirectionId": null,
        "streetTypeId": "DR",
        "placeName": "STONEY CREEK",
        "streetNameDisplayText": "ELM DR, STONEY CREEK"
      }
    ]
  },
  {
    "postal": "L8G6C6",
    "result": []
  },
  {
    "postal": "L8G7N8",
    "result": []
  },
  {
    "postal": "L8G2Y3",
    "result": [
      {
        "electoralDistricts": [
          {
            "election": null,
            "id": 37,
            "name": "Hamilton East—Stoney Creek"
          }
        ],
        "pollDivisionIds": [
          10138660
        ],
        "postalCode": "L8G2Y3",
        "streetName": "REDWOOD",
        "streetDirectionId": null,
        "streetTypeId": "CRT",
        "placeName": "STONEY CREEK",
        "streetNameDisplayText": "REDWOOD CRT, STONEY CREEK"
      }
    ]
  },
  {
    "postal": "L8G2R6",
    "result": [
      {
        "electoralDistricts": [
          {
            "election": null,
            "id": 37,
            "name": "Hamilton East—Stoney Creek"
          }
        ],
        "pollDivisionIds": [
          10138660
        ],
        "postalCode": "L8G2R6",
        "streetName": "NEW MOUNTAIN",
        "streetDirectionId": null,
        "streetTypeId": "RD",
        "placeName": "STONEY CREEK",
        "streetNameDisplayText": "NEW MOUNTAIN RD, STONEY CREEK"
      }
    ]
  },
  {
    "postal": "L8G7N3",
    "result": []
  },
  {
    "postal": "L8G8J2",
    "result": []
  },
  {
    "postal": "L8G6A9",
    "result": []
  },
  {
    "postal": "L8G3V2",
    "result": [
      {
        "electoralDistricts": [
          {
            "election": null,
            "id": 37,
            "name": "Hamilton East—Stoney Creek"
          }
        ],
        "pollDivisionIds": [
          10138660
        ],
        "postalCode": "L8G3V2",
        "streetName": "GRAY",
        "streetDirectionId": null,
        "streetTypeId": "RD",
        "placeName": "STONEY CREEK",
        "streetNameDisplayText": "GRAY RD, STONEY CREEK"
      }
    ]
  },
  {
    "postal": "L8G2N3",
    "result": [
      {
        "electoralDistricts": [
          {
            "election": null,
            "id": 37,
            "name": "Hamilton East—Stoney Creek"
          }
        ],
        "pollDivisionIds": [
          10138657
        ],
        "postalCode": "L8G2N3",
        "streetName": "NEIL",
        "streetDirectionId": null,
        "streetTypeId": "AVE",
        "placeName": "STONEY CREEK",
        "streetNameDisplayText": "NEIL AVE, STONEY CREEK"
      }
    ]
  },
  {
    "postal": "L8G1S5",
    "result": [
      {
        "electoralDistricts": [
          {
            "election": null,
            "id": 37,
            "name": "Hamilton East—Stoney Creek"
          }
        ],
        "pollDivisionIds": [
          10138657
        ],
        "postalCode": "L8G1S5",
        "streetName": "WALKER",
        "streetDirectionId": null,
        "streetTypeId": "AVE",
        "placeName": "STONEY CREEK",
        "streetNameDisplayText": "WALKER AVE, STONEY CREEK"
      }
    ]
  },
  {
    "postal": "L8G4T7",
    "result": [
      {
        "electoralDistricts": [
          {
            "election": null,
            "id": 37,
            "name": "Hamilton East—Stoney Creek"
          }
        ],
        "pollDivisionIds": [
          10138668
        ],
        "postalCode": "L8G4T7",
        "streetName": "GOLDCREST",
        "streetDirectionId": null,
        "streetTypeId": "DR",
        "placeName": "STONEY CREEK",
        "streetNameDisplayText": "GOLDCREST DR, STONEY CREEK"
      }
    ]
  },
  {
    "postal": "L8G6Y7",
    "result": []
  },
  {
    "postal": "L8G0W7",
    "result": []
  },
  {
    "postal": "L8G2W9",
    "result": [
      {
        "electoralDistricts": [
          {
            "election": null,
            "id": 37,
            "name": "Hamilton East—Stoney Creek"
          }
        ],
        "pollDivisionIds": [
          10138660
        ],
        "postalCode": "L8G2W9",
        "streetName": "BRENTWOOD",
        "streetDirectionId": null,
        "streetTypeId": "DR",
        "placeName": "STONEY CREEK",
        "streetNameDisplayText": "BRENTWOOD DR, STONEY CREEK"
      }
    ]
  },
  {
    "postal": "L8G8V0",
    "result": []
  },
  {
    "postal": "L8G0H4",
    "result": []
  },
  {
    "postal": "L8G2T1",
    "result": [
      {
        "electoralDistricts": [
          {
            "election": null,
            "id": 37,
            "name": "Hamilton East—Stoney Creek"
          }
        ],
        "pollDivisionIds": [
          10138660
        ],
        "postalCode": "L8G2T1",
        "streetName": "TULIP",
        "streetDirectionId": null,
        "streetTypeId": "CRT",
        "placeName": "STONEY CREEK",
        "streetNameDisplayText": "TULIP CRT, STONEY CREEK"
      }
    ]
  },
  {
    "postal": "L8G1B1",
    "result": [
      {
        "electoralDistricts": [
          {
            "election": null,
            "id": 37,
            "name": "Hamilton East—Stoney Creek"
          }
        ],
        "pollDivisionIds": [
          10138649
        ],
        "postalCode": "L8G1B1",
        "streetName": "QUEENSTON",
        "streetDirectionId": null,
        "streetTypeId": "RD",
        "placeName": "STONEY CREEK",
        "streetNameDisplayText": "QUEENSTON RD, STONEY CREEK"
      }
    ]
  },
  {
    "postal": "L8G8B6",
    "result": []
  },
  {
    "postal": "L8G6H1",
    "result": []
  },
  {
    "postal": "L8G8T8",
    "result": []
  },
  {
    "postal": "L8G0T4",
    "result": []
  },
  {
    "postal": "L8G2C4",
    "result": [
      {
        "electoralDistricts": [
          {
            "election": null,
            "id": 37,
            "name": "Hamilton East—Stoney Creek"
          }
        ],
        "pollDivisionIds": [
          10138657
        ],
        "postalCode": "L8G2C4",
        "streetName": "CENTENNIAL",
        "streetDirectionId": "S",
        "streetTypeId": "PKY",
        "placeName": "STONEY CREEK",
        "streetNameDisplayText": "CENTENNIAL PKY S, STONEY CREEK"
      }
    ]
  },
  {
    "postal": "L8G8N3",
    "result": []
  },
  {
    "postal": "L8G4L8",
    "result": [
      {
        "electoralDistricts": [
          {
            "election": null,
            "id": 37,
            "name": "Hamilton East—Stoney Creek"
          }
        ],
        "pollDivisionIds": [
          10138662
        ],
        "postalCode": "L8G4L8",
        "streetName": "GLEN CASTLE",
        "streetDirectionId": null,
        "streetTypeId": "DR",
        "placeName": "STONEY CREEK",
        "streetNameDisplayText": "GLEN CASTLE DR, STONEY CREEK"
      }
    ]
  },
  {
    "postal": "L8G2B5",
    "result": [
      {
        "electoralDistricts": [
          {
            "election": null,
            "id": 37,
            "name": "Hamilton East—Stoney Creek"
          }
        ],
        "pollDivisionIds": [
          10138657
        ],
        "postalCode": "L8G2B5",
        "streetName": "IRENE",
        "streetDirectionId": null,
        "streetTypeId": "AVE",
        "placeName": "STONEY CREEK",
        "streetNameDisplayText": "IRENE AVE, STONEY CREEK"
      }
    ]
  },
  {
    "postal": "L8G3H1",
    "result": [
      {
        "electoralDistricts": [
          {
            "election": null,
            "id": 37,
            "name": "Hamilton East—Stoney Creek"
          }
        ],
        "pollDivisionIds": [
          10138667,
          10138668
        ],
        "postalCode": "L8G3H1",
        "streetName": "HOMESIDE",
        "streetDirectionId": null,
        "streetTypeId": "AVE",
        "placeName": "STONEY CREEK",
        "streetNameDisplayText": "HOMESIDE AVE, STONEY CREEK"
      }
    ]
  },
  {
    "postal": "L8G4Y1",
    "result": [
      {
        "electoralDistricts": [
          {
            "election": null,
            "id": 37,
            "name": "Hamilton East—Stoney Creek"
          }
        ],
        "pollDivisionIds": [
          10138668
        ],
        "postalCode": "L8G4Y1",
        "streetName": "SHADELAND",
        "streetDirectionId": null,
        "streetTypeId": "CRES",
        "placeName": "STONEY CREEK",
        "streetNameDisplayText": "SHADELAND CRES, STONEY CREEK"
      }
    ]
  },
  {
    "postal": "L8G7E2",
    "result": []
  },
  {
    "postal": "L8G2P5",
    "result": [
      {
        "electoralDistricts": [
          {
            "election": null,
            "id": 37,
            "name": "Hamilton East—Stoney Creek"
          }
        ],
        "pollDivisionIds": [
          10138658
        ],
        "postalCode": "L8G2P5",
        "streetName": "CHERRYWOOD",
        "streetDirectionId": null,
        "streetTypeId": "DR",
        "placeName": "STONEY CREEK",
        "streetNameDisplayText": "CHERRYWOOD DR, STONEY CREEK"
      }
    ]
  },
  {
    "postal": "L8G8R7",
    "result": []
  },
  {
    "postal": "L8G9P1",
    "result": []
  },
  {
    "postal": "L8G3B8",
    "result": [
      {
        "electoralDistricts": [
          {
            "election": null,
            "id": 37,
            "name": "Hamilton East—Stoney Creek"
          }
        ],
        "pollDivisionIds": [
          10138667
        ],
        "postalCode": "L8G3B8",
        "streetName": "PINE",
        "streetDirectionId": null,
        "streetTypeId": "DR",
        "placeName": "STONEY CREEK",
        "streetNameDisplayText": "PINE DR, STONEY CREEK"
      }
    ]
  },
  {
    "postal": "L8G3P7",
    "result": [
      {
        "electoralDistricts": [
          {
            "election": null,
            "id": 37,
            "name": "Hamilton East—Stoney Creek"
          }
        ],
        "pollDivisionIds": [
          10138658
        ],
        "postalCode": "L8G3P7",
        "streetName": "MOUNTAIN",
        "streetDirectionId": "N",
        "streetTypeId": "AVE",
        "placeName": "STONEY CREEK",
        "streetNameDisplayText": "MOUNTAIN AVE N, STONEY CREEK"
      }
    ]
  },
  {
    "postal": "L8G9B2",
    "result": []
  },
  {
    "postal": "L8G6Z3",
    "result": []
  },
  {
    "postal": "L8G4N5",
    "result": [
      {
        "electoralDistricts": [
          {
            "election": null,
            "id": 37,
            "name": "Hamilton East—Stoney Creek"
          }
        ],
        "pollDivisionIds": [
          10138667
        ],
        "postalCode": "L8G4N5",
        "streetName": "GREEN",
        "streetDirectionId": null,
        "streetTypeId": "RD",
        "placeName": "STONEY CREEK",
        "streetNameDisplayText": "GREEN RD, STONEY CREEK"
      }
    ]
  },
  {
    "postal": "L8G8T3",
    "result": []
  },
  {
    "postal": "L8G1V2",
    "result": [
      {
        "electoralDistricts": [
          {
            "election": null,
            "id": 37,
            "name": "Hamilton East—Stoney Creek"
          }
        ],
        "pollDivisionIds": [
          10138657
        ],
        "postalCode": "L8G1V2",
        "streetName": "BRANDOW",
        "streetDirectionId": null,
        "streetTypeId": "CRT",
        "placeName": "STONEY CREEK",
        "streetNameDisplayText": "BRANDOW CRT, STONEY CREEK"
      }
    ]
  },
  {
    "postal": "L8G1Y0",
    "result": []
  },
  {
    "postal": "L8G3G6",
    "result": [
      {
        "electoralDistricts": [
          {
            "election": null,
            "id": 37,
            "name": "Hamilton East—Stoney Creek"
          }
        ],
        "pollDivisionIds": [
          10138667
        ],
        "postalCode": "L8G3G6",
        "streetName": "MARGARET",
        "streetDirectionId": null,
        "streetTypeId": "AVE",
        "placeName": "STONEY CREEK",
        "streetNameDisplayText": "MARGARET AVE, STONEY CREEK"
      }
    ]
  },
  {
    "postal": "L8G3H7",
    "result": [
      {
        "electoralDistricts": [
          {
            "election": null,
            "id": 37,
            "name": "Hamilton East—Stoney Creek"
          }
        ],
        "pollDivisionIds": [
          10138658
        ],
        "postalCode": "L8G3H7",
        "streetName": "JONES",
        "streetDirectionId": null,
        "streetTypeId": "ST",
        "placeName": "STONEY CREEK",
        "streetNameDisplayText": "JONES ST, STONEY CREEK"
      }
    ]
  },
  {
    "postal": "L8G7X8",
    "result": []
  },
  {
    "postal": "L8G0C7",
    "result": []
  },
  {
    "postal": "L8G0W9",
    "result": []
  },
  {
    "postal": "L8G8E6",
    "result": []
  },
  {
    "postal": "L8G9Z8",
    "result": []
  },
  {
    "postal": "L8G3P4",
    "result": [
      {
        "electoralDistricts": [
          {
            "election": null,
            "id": 37,
            "name": "Hamilton East—Stoney Creek"
          }
        ],
        "pollDivisionIds": [
          10138658
        ],
        "postalCode": "L8G3P4",
        "streetName": "MOUNTAIN",
        "streetDirectionId": "N",
        "streetTypeId": "AVE",
        "placeName": "STONEY CREEK",
        "streetNameDisplayText": "MOUNTAIN AVE N, STONEY CREEK"
      }
    ]
  },
  {
    "postal": "L8G6L8",
    "result": []
  },
  {
    "postal": "L8G2R4",
    "result": [
      {
        "electoralDistricts": [
          {
            "election": null,
            "id": 37,
            "name": "Hamilton East—Stoney Creek"
          }
        ],
        "pollDivisionIds": [
          10138660,
          10138658
        ],
        "postalCode": "L8G2R4",
        "streetName": "NEW MOUNTAIN",
        "streetDirectionId": null,
        "streetTypeId": "RD",
        "placeName": "STONEY CREEK",
        "streetNameDisplayText": "NEW MOUNTAIN RD, STONEY CREEK"
      }
    ]
  },
  {
    "postal": "L8G2W1",
    "result": [
      {
        "electoralDistricts": [
          {
            "election": null,
            "id": 37,
            "name": "Hamilton East—Stoney Creek"
          }
        ],
        "pollDivisionIds": [
          10138657
        ],
        "postalCode": "L8G2W1",
        "streetName": "ELM",
        "streetDirectionId": null,
        "streetTypeId": "AVE",
        "placeName": "STONEY CREEK",
        "streetNameDisplayText": "ELM AVE, STONEY CREEK"
      }
    ]
  },
  {
    "postal": "L8G9H8",
    "result": []
  },
  {
    "postal": "L8G8X9",
    "result": []
  },
  {
    "postal": "L8G7H4",
    "result": []
  },
  {
    "postal": "L8G3J1",
    "result": []
  },
  {
    "postal": "L8G1P4",
    "result": [
      {
        "electoralDistricts": [
          {
            "election": null,
            "id": 37,
            "name": "Hamilton East—Stoney Creek"
          }
        ],
        "pollDivisionIds": [
          10138657
        ],
        "postalCode": "L8G1P4",
        "streetName": "UPPER LAKE",
        "streetDirectionId": null,
        "streetTypeId": "AVE",
        "placeName": "STONEY CREEK",
        "streetNameDisplayText": "UPPER LAKE AVE, STONEY CREEK"
      }
    ]
  },
  {
    "postal": "L8G2A3",
    "result": [
      {
        "electoralDistricts": [
          {
            "election": null,
            "id": 37,
            "name": "Hamilton East—Stoney Creek"
          }
        ],
        "pollDivisionIds": [
          10138657
        ],
        "postalCode": "L8G2A3",
        "streetName": "GALBRAITH",
        "streetDirectionId": null,
        "streetTypeId": "DR",
        "placeName": "STONEY CREEK",
        "streetNameDisplayText": "GALBRAITH DR, STONEY CREEK"
      }
    ]
  },
  {
    "postal": "L8G0Z1",
    "result": []
  },
  {
    "postal": "L8G1C1",
    "result": [
      {
        "electoralDistricts": [
          {
            "election": null,
            "id": 37,
            "name": "Hamilton East—Stoney Creek"
          }
        ],
        "pollDivisionIds": [
          10138659
        ],
        "postalCode": "L8G1C1",
        "streetName": "HWY 8",
        "streetDirectionId": null,
        "streetTypeId": null,
        "placeName": "STONEY CREEK",
        "streetNameDisplayText": "HWY 8, STONEY CREEK"
      }
    ]
  },
  {
    "postal": "L8G0H3",
    "result": []
  },
  {
    "postal": "L8G7B0",
    "result": []
  },
  {
    "postal": "L8G5K2",
    "result": []
  },
  {
    "postal": "L8G1E9",
    "result": [
      {
        "electoralDistricts": [
          {
            "election": null,
            "id": 37,
            "name": "Hamilton East—Stoney Creek"
          }
        ],
        "pollDivisionIds": [
          10138667
        ],
        "postalCode": "L8G1E9",
        "streetName": "HWY 8",
        "streetDirectionId": null,
        "streetTypeId": null,
        "placeName": "STONEY CREEK",
        "streetNameDisplayText": "HWY 8, STONEY CREEK"
      }
    ]
  },
  {
    "postal": "L8G9W7",
    "result": []
  },
  {
    "postal": "L8G5W6",
    "result": []
  },
  {
    "postal": "L8G6S6",
    "result": []
  },
  {
    "postal": "L8G2P8",
    "result": [
      {
        "electoralDistricts": [
          {
            "election": null,
            "id": 37,
            "name": "Hamilton East—Stoney Creek"
          }
        ],
        "pollDivisionIds": [
          10138658
        ],
        "postalCode": "L8G2P8",
        "streetName": "CHERRYWOOD",
        "streetDirectionId": null,
        "streetTypeId": "DR",
        "placeName": "STONEY CREEK",
        "streetNameDisplayText": "CHERRYWOOD DR, STONEY CREEK"
      }
    ]
  },
  {
    "postal": "L8G4P8",
    "result": [
      {
        "electoralDistricts": [
          {
            "election": null,
            "id": 37,
            "name": "Hamilton East—Stoney Creek"
          }
        ],
        "pollDivisionIds": [
          10138656
        ],
        "postalCode": "L8G4P8",
        "streetName": "PAVAROTTI",
        "streetDirectionId": null,
        "streetTypeId": "CRT",
        "placeName": "HAMILTON",
        "streetNameDisplayText": "PAVAROTTI CRT, HAMILTON"
      }
    ]
  },
  {
    "postal": "L8G0V9",
    "result": []
  },
  {
    "postal": "L8G5Y2",
    "result": []
  },
  {
    "postal": "L8G7Z7",
    "result": []
  },
  {
    "postal": "L8G6Y8",
    "result": []
  },
  {
    "postal": "L8G2G7",
    "result": [
      {
        "electoralDistricts": [
          {
            "election": null,
            "id": 37,
            "name": "Hamilton East—Stoney Creek"
          }
        ],
        "pollDivisionIds": [
          10138655
        ],
        "postalCode": "L8G2G7",
        "streetName": "GREENFORD",
        "streetDirectionId": null,
        "streetTypeId": "DR",
        "placeName": "HAMILTON",
        "streetNameDisplayText": "GREENFORD DR, HAMILTON"
      }
    ]
  },
  {
    "postal": "L8G8C1",
    "result": []
  },
  {
    "postal": "L8G5C5",
    "result": [
      {
        "electoralDistricts": [
          {
            "election": null,
            "id": 37,
            "name": "Hamilton East—Stoney Creek"
          }
        ],
        "pollDivisionIds": [
          10138668
        ],
        "postalCode": "L8G5C5",
        "streetName": "ADRIATIC",
        "streetDirectionId": null,
        "streetTypeId": "BLVD",
        "placeName": "STONEY CREEK",
        "streetNameDisplayText": "ADRIATIC BLVD, STONEY CREEK"
      },
      {
        "electoralDistricts": [
          {
            "election": null,
            "id": 37,
            "name": "Hamilton East—Stoney Creek"
          }
        ],
        "pollDivisionIds": [
          10138668
        ],
        "postalCode": "L8G5C5",
        "streetName": "ORR",
        "streetDirectionId": null,
        "streetTypeId": "CRES",
        "placeName": "STONEY CREEK",
        "streetNameDisplayText": "ORR CRES, STONEY CREEK"
      }
    ]
  },
  {
    "postal": "L8G2X8",
    "result": [
      {
        "electoralDistricts": [
          {
            "election": null,
            "id": 37,
            "name": "Hamilton East—Stoney Creek"
          }
        ],
        "pollDivisionIds": [
          10138660
        ],
        "postalCode": "L8G2X8",
        "streetName": "STONEY BROOK",
        "streetDirectionId": null,
        "streetTypeId": "DR",
        "placeName": "STONEY CREEK",
        "streetNameDisplayText": "STONEY BROOK DR, STONEY CREEK"
      }
    ]
  },
  {
    "postal": "L8G1W5",
    "result": [
      {
        "electoralDistricts": [
          {
            "election": null,
            "id": 37,
            "name": "Hamilton East—Stoney Creek"
          }
        ],
        "pollDivisionIds": [
          10138657
        ],
        "postalCode": "L8G1W5",
        "streetName": "RANDALL",
        "streetDirectionId": null,
        "streetTypeId": "AVE",
        "placeName": "STONEY CREEK",
        "streetNameDisplayText": "RANDALL AVE, STONEY CREEK"
      }
    ]
  },
  {
    "postal": "L8G7G0",
    "result": []
  },
  {
    "postal": "L8G8J8",
    "result": []
  },
  {
    "postal": "L8G3Y0",
    "result": []
  },
  {
    "postal": "L8G9T7",
    "result": []
  },
  {
    "postal": "L8G5P4",
    "result": []
  },
  {
    "postal": "L8G4B0",
    "result": []
  },
  {
    "postal": "L8G9N8",
    "result": []
  },
  {
    "postal": "L8G4A7",
    "result": [
      {
        "electoralDistricts": [
          {
            "election": null,
            "id": 37,
            "name": "Hamilton East—Stoney Creek"
          }
        ],
        "pollDivisionIds": [
          10138660
        ],
        "postalCode": "L8G4A7",
        "streetName": "GATESHEAD",
        "streetDirectionId": null,
        "streetTypeId": "CRES",
        "placeName": "STONEY CREEK",
        "streetNameDisplayText": "GATESHEAD CRES, STONEY CREEK"
      }
    ]
  },
  {
    "postal": "L8G4H9",
    "result": [
      {
        "electoralDistricts": [
          {
            "election": null,
            "id": 37,
            "name": "Hamilton East—Stoney Creek"
          }
        ],
        "pollDivisionIds": [
          10138668
        ],
        "postalCode": "L8G4H9",
        "streetName": "PRESIDENT",
        "streetDirectionId": null,
        "streetTypeId": "DR",
        "placeName": "STONEY CREEK",
        "streetNameDisplayText": "PRESIDENT DR, STONEY CREEK"
      }
    ]
  },
  {
    "postal": "L8G6X1",
    "result": []
  },
  {
    "postal": "L8G9Y7",
    "result": []
  },
  {
    "postal": "L8G2Y5",
    "result": [
      {
        "electoralDistricts": [
          {
            "election": null,
            "id": 37,
            "name": "Hamilton East—Stoney Creek"
          }
        ],
        "pollDivisionIds": [
          10138660
        ],
        "postalCode": "L8G2Y5",
        "streetName": "VANDERWOOD",
        "streetDirectionId": null,
        "streetTypeId": "CRT",
        "placeName": "STONEY CREEK",
        "streetNameDisplayText": "VANDERWOOD CRT, STONEY CREEK"
      }
    ]
  },
  {
    "postal": "L8G8L7",
    "result": []
  },
  {
    "postal": "L8G2A8",
    "result": [
      {
        "electoralDistricts": [
          {
            "election": null,
            "id": 37,
            "name": "Hamilton East—Stoney Creek"
          }
        ],
        "pollDivisionIds": [
          10138657
        ],
        "postalCode": "L8G2A8",
        "streetName": "BLANMORA",
        "streetDirectionId": null,
        "streetTypeId": "DR",
        "placeName": "STONEY CREEK",
        "streetNameDisplayText": "BLANMORA DR, STONEY CREEK"
      }
    ]
  },
  {
    "postal": "L8G2K9",
    "result": [
      {
        "electoralDistricts": [
          {
            "election": null,
            "id": 37,
            "name": "Hamilton East—Stoney Creek"
          }
        ],
        "pollDivisionIds": [
          10138657
        ],
        "postalCode": "L8G2K9",
        "streetName": "RANDALL",
        "streetDirectionId": null,
        "streetTypeId": "AVE",
        "placeName": "STONEY CREEK",
        "streetNameDisplayText": "RANDALL AVE, STONEY CREEK"
      }
    ]
  },
  {
    "postal": "L8G3E5",
    "result": [
      {
        "electoralDistricts": [
          {
            "election": null,
            "id": 37,
            "name": "Hamilton East—Stoney Creek"
          }
        ],
        "pollDivisionIds": [
          10138667
        ],
        "postalCode": "L8G3E5",
        "streetName": "SOUTHMEADOW",
        "streetDirectionId": null,
        "streetTypeId": "CRES",
        "placeName": "STONEY CREEK",
        "streetNameDisplayText": "SOUTHMEADOW CRES, STONEY CREEK"
      }
    ]
  },
  {
    "postal": "L8G8N6",
    "result": []
  },
  {
    "postal": "L8G8J4",
    "result": []
  },
  {
    "postal": "L8G4R7",
    "result": []
  },
  {
    "postal": "L8G9K1",
    "result": []
  },
  {
    "postal": "L8G8E1",
    "result": []
  },
  {
    "postal": "L8G0R1",
    "result": []
  },
  {
    "postal": "L8G4J3",
    "result": [
      {
        "electoralDistricts": [
          {
            "election": null,
            "id": 37,
            "name": "Hamilton East—Stoney Creek"
          }
        ],
        "pollDivisionIds": [
          10138667
        ],
        "postalCode": "L8G4J3",
        "streetName": "MATHERS",
        "streetDirectionId": null,
        "streetTypeId": "DR",
        "placeName": "STONEY CREEK",
        "streetNameDisplayText": "MATHERS DR, STONEY CREEK"
      }
    ]
  },
  {
    "postal": "L8G7E7",
    "result": []
  },
  {
    "postal": "L8G0J0",
    "result": []
  },
  {
    "postal": "L8G7R8",
    "result": []
  },
  {
    "postal": "L8G9X0",
    "result": []
  },
  {
    "postal": "L8G7P6",
    "result": []
  },
  {
    "postal": "L8G0R7",
    "result": []
  },
  {
    "postal": "L8G5W1",
    "result": []
  },
  {
    "postal": "L8G0K4",
    "result": []
  },
  {
    "postal": "L8G7N9",
    "result": []
  },
  {
    "postal": "L8G1N0",
    "result": []
  },
  {
    "postal": "L8G6P3",
    "result": []
  },
  {
    "postal": "L8G5A1",
    "result": [
      {
        "electoralDistricts": [
          {
            "election": null,
            "id": 37,
            "name": "Hamilton East—Stoney Creek"
          }
        ],
        "pollDivisionIds": [
          10138656
        ],
        "postalCode": "L8G5A1",
        "streetName": "CLAPHAM",
        "streetDirectionId": null,
        "streetTypeId": "RD",
        "placeName": "HAMILTON",
        "streetNameDisplayText": "CLAPHAM RD, HAMILTON"
      }
    ]
  },
  {
    "postal": "L8G9M9",
    "result": []
  },
  {
    "postal": "L8G7T6",
    "result": []
  },
  {
    "postal": "L8G3X0",
    "result": []
  },
  {
    "postal": "L8G2T0",
    "result": []
  },
  {
    "postal": "L8G5X9",
    "result": []
  },
  {
    "postal": "L8G2R3",
    "result": [
      {
        "electoralDistricts": [
          {
            "election": null,
            "id": 37,
            "name": "Hamilton East—Stoney Creek"
          }
        ],
        "pollDivisionIds": [
          10138658
        ],
        "postalCode": "L8G2R3",
        "streetName": "NEW MOUNTAIN",
        "streetDirectionId": null,
        "streetTypeId": "RD",
        "placeName": "STONEY CREEK",
        "streetNameDisplayText": "NEW MOUNTAIN RD, STONEY CREEK"
      }
    ]
  },
  {
    "postal": "L8G5N2",
    "result": []
  },
  {
    "postal": "L8G4Y7",
    "result": [
      {
        "electoralDistricts": [
          {
            "election": null,
            "id": 37,
            "name": "Hamilton East—Stoney Creek"
          }
        ],
        "pollDivisionIds": [
          10138668
        ],
        "postalCode": "L8G4Y7",
        "streetName": "REGALVIEW",
        "streetDirectionId": null,
        "streetTypeId": "DR",
        "placeName": "STONEY CREEK",
        "streetNameDisplayText": "REGALVIEW DR, STONEY CREEK"
      },
      {
        "electoralDistricts": [
          {
            "election": null,
            "id": 37,
            "name": "Hamilton East—Stoney Creek"
          }
        ],
        "pollDivisionIds": [
          10138668
        ],
        "postalCode": "L8G4Y7",
        "streetName": "SHADELAND",
        "streetDirectionId": null,
        "streetTypeId": "CRES",
        "placeName": "STONEY CREEK",
        "streetNameDisplayText": "SHADELAND CRES, STONEY CREEK"
      }
    ]
  },
  {
    "postal": "L8G7M0",
    "result": []
  },
  {
    "postal": "L8G8P3",
    "result": []
  },
  {
    "postal": "L8G3N3",
    "result": [
      {
        "electoralDistricts": [
          {
            "election": null,
            "id": 37,
            "name": "Hamilton East—Stoney Creek"
          }
        ],
        "pollDivisionIds": [
          10138658
        ],
        "postalCode": "L8G3N3",
        "streetName": "LAKE AVENUE",
        "streetDirectionId": null,
        "streetTypeId": "DR",
        "placeName": "STONEY CREEK",
        "streetNameDisplayText": "LAKE AVENUE DR, STONEY CREEK"
      }
    ]
  },
  {
    "postal": "L8G7S3",
    "result": []
  },
  {
    "postal": "L8G3V9",
    "result": [
      {
        "electoralDistricts": [
          {
            "election": null,
            "id": 37,
            "name": "Hamilton East—Stoney Creek"
          }
        ],
        "pollDivisionIds": [
          10138660
        ],
        "postalCode": "L8G3V9",
        "streetName": "STONEY BROOK",
        "streetDirectionId": null,
        "streetTypeId": "DR",
        "placeName": "STONEY CREEK",
        "streetNameDisplayText": "STONEY BROOK DR, STONEY CREEK"
      }
    ]
  },
  {
    "postal": "L8G9N7",
    "result": []
  },
  {
    "postal": "L8G0G4",
    "result": []
  },
  {
    "postal": "L8G2E2",
    "result": [
      {
        "electoralDistricts": [
          {
            "election": null,
            "id": 37,
            "name": "Hamilton East—Stoney Creek"
          }
        ],
        "pollDivisionIds": [
          10138656
        ],
        "postalCode": "L8G2E2",
        "streetName": "ALPINE",
        "streetDirectionId": null,
        "streetTypeId": "AVE",
        "placeName": "STONEY CREEK",
        "streetNameDisplayText": "ALPINE AVE, STONEY CREEK"
      }
    ]
  },
  {
    "postal": "L8G7W8",
    "result": []
  },
  {
    "postal": "L8G7M5",
    "result": []
  },
  {
    "postal": "L8G5W8",
    "result": []
  },
  {
    "postal": "L8G5E5",
    "result": []
  },
  {
    "postal": "L8G1P9",
    "result": [
      {
        "electoralDistricts": [
          {
            "election": null,
            "id": 37,
            "name": "Hamilton East—Stoney Creek"
          }
        ],
        "pollDivisionIds": [
          10138657
        ],
        "postalCode": "L8G1P9",
        "streetName": "ROSELLE",
        "streetDirectionId": null,
        "streetTypeId": "PL",
        "placeName": "STONEY CREEK",
        "streetNameDisplayText": "ROSELLE PL, STONEY CREEK"
      }
    ]
  },
  {
    "postal": "L8G8V8",
    "result": []
  },
  {
    "postal": "L8G9G8",
    "result": []
  },
  {
    "postal": "L8G8H9",
    "result": []
  },
  {
    "postal": "L8G1Z1",
    "result": [
      {
        "electoralDistricts": [
          {
            "election": null,
            "id": 37,
            "name": "Hamilton East—Stoney Creek"
          }
        ],
        "pollDivisionIds": [
          10138657
        ],
        "postalCode": "L8G1Z1",
        "streetName": "SECOND",
        "streetDirectionId": "N",
        "streetTypeId": "ST",
        "placeName": "STONEY CREEK",
        "streetNameDisplayText": "SECOND ST N, STONEY CREEK"
      }
    ]
  },
  {
    "postal": "L8G8M3",
    "result": []
  },
  {
    "postal": "L8G5H6",
    "result": [
      {
        "electoralDistricts": [
          {
            "election": null,
            "id": 37,
            "name": "Hamilton East—Stoney Creek"
          }
        ],
        "pollDivisionIds": [
          10138668
        ],
        "postalCode": "L8G5H6",
        "streetName": "REGALVIEW",
        "streetDirectionId": null,
        "streetTypeId": "DR",
        "placeName": "STONEY CREEK",
        "streetNameDisplayText": "REGALVIEW DR, STONEY CREEK"
      }
    ]
  },
  {
    "postal": "L8G7W7",
    "result": []
  },
  {
    "postal": "L8G4L0",
    "result": []
  },
  {
    "postal": "L8G2N1",
    "result": [
      {
        "electoralDistricts": [
          {
            "election": null,
            "id": 37,
            "name": "Hamilton East—Stoney Creek"
          }
        ],
        "pollDivisionIds": [
          10138657
        ],
        "postalCode": "L8G2N1",
        "streetName": "NEIL",
        "streetDirectionId": null,
        "streetTypeId": "AVE",
        "placeName": "STONEY CREEK",
        "streetNameDisplayText": "NEIL AVE, STONEY CREEK"
      }
    ]
  },
  {
    "postal": "L8G2H4",
    "result": [
      {
        "electoralDistricts": [
          {
            "election": null,
            "id": 37,
            "name": "Hamilton East—Stoney Creek"
          }
        ],
        "pollDivisionIds": [
          10138655
        ],
        "postalCode": "L8G2H4",
        "streetName": "OWEN",
        "streetDirectionId": null,
        "streetTypeId": "PL",
        "placeName": "HAMILTON",
        "streetNameDisplayText": "OWEN PL, HAMILTON"
      }
    ]
  },
  {
    "postal": "L8G5C8",
    "result": [
      {
        "electoralDistricts": [
          {
            "election": null,
            "id": 37,
            "name": "Hamilton East—Stoney Creek"
          }
        ],
        "pollDivisionIds": [
          10138668
        ],
        "postalCode": "L8G5C8",
        "streetName": "DYNASTY",
        "streetDirectionId": null,
        "streetTypeId": "AVE",
        "placeName": "STONEY CREEK",
        "streetNameDisplayText": "DYNASTY AVE, STONEY CREEK"
      }
    ]
  },
  {
    "postal": "L8G8B0",
    "result": []
  },
  {
    "postal": "L8G1T4",
    "result": [
      {
        "electoralDistricts": [
          {
            "election": null,
            "id": 37,
            "name": "Hamilton East—Stoney Creek"
          }
        ],
        "pollDivisionIds": [
          10138657
        ],
        "postalCode": "L8G1T4",
        "streetName": "WYNGATE",
        "streetDirectionId": null,
        "streetTypeId": "AVE",
        "placeName": "STONEY CREEK",
        "streetNameDisplayText": "WYNGATE AVE, STONEY CREEK"
      }
    ]
  },
  {
    "postal": "L8G7N7",
    "result": []
  },
  {
    "postal": "L8G4L3",
    "result": [
      {
        "electoralDistricts": [
          {
            "election": null,
            "id": 37,
            "name": "Hamilton East—Stoney Creek"
          }
        ],
        "pollDivisionIds": [
          10138668
        ],
        "postalCode": "L8G4L3",
        "streetName": "HERITAGE",
        "streetDirectionId": null,
        "streetTypeId": "DR",
        "placeName": "STONEY CREEK",
        "streetNameDisplayText": "HERITAGE DR, STONEY CREEK"
      }
    ]
  },
  {
    "postal": "L8G2N2",
    "result": [
      {
        "electoralDistricts": [
          {
            "election": null,
            "id": 37,
            "name": "Hamilton East—Stoney Creek"
          }
        ],
        "pollDivisionIds": [
          10138657
        ],
        "postalCode": "L8G2N2",
        "streetName": "NEIL",
        "streetDirectionId": null,
        "streetTypeId": "AVE",
        "placeName": "STONEY CREEK",
        "streetNameDisplayText": "NEIL AVE, STONEY CREEK"
      }
    ]
  },
  {
    "postal": "L8G4N8",
    "result": [
      {
        "electoralDistricts": [
          {
            "election": null,
            "id": 37,
            "name": "Hamilton East—Stoney Creek"
          }
        ],
        "pollDivisionIds": [
          10138667
        ],
        "postalCode": "L8G4N8",
        "streetName": "JENNY",
        "streetDirectionId": null,
        "streetTypeId": "CRT",
        "placeName": "STONEY CREEK",
        "streetNameDisplayText": "JENNY CRT, STONEY CREEK"
      }
    ]
  },
  {
    "postal": "L8G3M5",
    "result": [
      {
        "electoralDistricts": [
          {
            "election": null,
            "id": 37,
            "name": "Hamilton East—Stoney Creek"
          }
        ],
        "pollDivisionIds": [
          10138660
        ],
        "postalCode": "L8G3M5",
        "streetName": "WESTBURY",
        "streetDirectionId": null,
        "streetTypeId": "AVE",
        "placeName": "STONEY CREEK",
        "streetNameDisplayText": "WESTBURY AVE, STONEY CREEK"
      }
    ]
  },
  {
    "postal": "L8G6H7",
    "result": []
  },
  {
    "postal": "L8G8Y8",
    "result": []
  },
  {
    "postal": "L8G5R9",
    "result": []
  },
  {
    "postal": "L8G8G3",
    "result": []
  },
  {
    "postal": "L8G4N7",
    "result": [
      {
        "electoralDistricts": [
          {
            "election": null,
            "id": 37,
            "name": "Hamilton East—Stoney Creek"
          }
        ],
        "pollDivisionIds": [
          10138667
        ],
        "postalCode": "L8G4N7",
        "streetName": "EARLIDAWN",
        "streetDirectionId": null,
        "streetTypeId": "CRT",
        "placeName": "STONEY CREEK",
        "streetNameDisplayText": "EARLIDAWN CRT, STONEY CREEK"
      }
    ]
  },
  {
    "postal": "L8G0B9",
    "result": []
  },
  {
    "postal": "L8G9K7",
    "result": []
  },
  {
    "postal": "L8G9K9",
    "result": []
  },
  {
    "postal": "L8G3Z2",
    "result": [
      {
        "electoralDistricts": [
          {
            "election": null,
            "id": 37,
            "name": "Hamilton East—Stoney Creek"
          }
        ],
        "pollDivisionIds": [
          10138660
        ],
        "postalCode": "L8G3Z2",
        "streetName": "CHELTONWOOD",
        "streetDirectionId": null,
        "streetTypeId": "CRT",
        "placeName": "STONEY CREEK",
        "streetNameDisplayText": "CHELTONWOOD CRT, STONEY CREEK"
      }
    ]
  },
  {
    "postal": "L8G6W7",
    "result": []
  },
  {
    "postal": "L8G0P1",
    "result": []
  },
  {
    "postal": "L8G3A0",
    "result": []
  },
  {
    "postal": "L8G8L9",
    "result": []
  },
  {
    "postal": "L8G6X0",
    "result": []
  },
  {
    "postal": "L8G3E9",
    "result": [
      {
        "electoralDistricts": [
          {
            "election": null,
            "id": 37,
            "name": "Hamilton East—Stoney Creek"
          }
        ],
        "pollDivisionIds": [
          10138667
        ],
        "postalCode": "L8G3E9",
        "streetName": "MILLEN",
        "streetDirectionId": null,
        "streetTypeId": "RD",
        "placeName": "STONEY CREEK",
        "streetNameDisplayText": "MILLEN RD, STONEY CREEK"
      }
    ]
  },
  {
    "postal": "L8G0S5",
    "result": []
  },
  {
    "postal": "L8G1A2",
    "result": [
      {
        "electoralDistricts": [
          {
            "election": null,
            "id": 37,
            "name": "Hamilton East—Stoney Creek"
          }
        ],
        "pollDivisionIds": [
          10138656
        ],
        "postalCode": "L8G1A2",
        "streetName": "QUEENSTON",
        "streetDirectionId": null,
        "streetTypeId": "RD",
        "placeName": "HAMILTON",
        "streetNameDisplayText": "QUEENSTON RD, HAMILTON"
      }
    ]
  },
  {
    "postal": "L8G5V8",
    "result": []
  },
  {
    "postal": "L8G8C5",
    "result": []
  },
  {
    "postal": "L8G6N0",
    "result": []
  },
  {
    "postal": "L8G9E6",
    "result": []
  },
  {
    "postal": "L8G5J7",
    "result": []
  },
  {
    "postal": "L8G2R2",
    "result": [
      {
        "electoralDistricts": [
          {
            "election": null,
            "id": 37,
            "name": "Hamilton East—Stoney Creek"
          }
        ],
        "pollDivisionIds": [
          10138658
        ],
        "postalCode": "L8G2R2",
        "streetName": "NEW MOUNTAIN",
        "streetDirectionId": null,
        "streetTypeId": "RD",
        "placeName": "STONEY CREEK",
        "streetNameDisplayText": "NEW MOUNTAIN RD, STONEY CREEK"
      }
    ]
  },
  {
    "postal": "L8G0P5",
    "result": []
  },
  {
    "postal": "L8G5A7",
    "result": [
      {
        "electoralDistricts": [
          {
            "election": null,
            "id": 37,
            "name": "Hamilton East—Stoney Creek"
          }
        ],
        "pollDivisionIds": [
          10138656
        ],
        "postalCode": "L8G5A7",
        "streetName": "DEREK",
        "streetDirectionId": null,
        "streetTypeId": "DR",
        "placeName": "HAMILTON",
        "streetNameDisplayText": "DEREK DR, HAMILTON"
      },
      {
        "electoralDistricts": [
          {
            "election": null,
            "id": 37,
            "name": "Hamilton East—Stoney Creek"
          }
        ],
        "pollDivisionIds": [
          10138656
        ],
        "postalCode": "L8G5A7",
        "streetName": "NATIONAL",
        "streetDirectionId": null,
        "streetTypeId": "DR",
        "placeName": "HAMILTON",
        "streetNameDisplayText": "NATIONAL DR, HAMILTON"
      }
    ]
  },
  {
    "postal": "L8G1G1",
    "result": [
      {
        "electoralDistricts": [
          {
            "election": null,
            "id": 37,
            "name": "Hamilton East—Stoney Creek"
          }
        ],
        "pollDivisionIds": [
          10138662
        ],
        "postalCode": "L8G1G1",
        "streetName": "HWY 8",
        "streetDirectionId": null,
        "streetTypeId": null,
        "placeName": "STONEY CREEK",
        "streetNameDisplayText": "HWY 8, STONEY CREEK"
      }
    ]
  },
  {
    "postal": "L8G9R6",
    "result": []
  },
  {
    "postal": "L8G4Z9",
    "result": [
      {
        "electoralDistricts": [
          {
            "election": null,
            "id": 37,
            "name": "Hamilton East—Stoney Creek"
          }
        ],
        "pollDivisionIds": [
          10138668
        ],
        "postalCode": "L8G4Z9",
        "streetName": "PRESTIGE",
        "streetDirectionId": null,
        "streetTypeId": "DR",
        "placeName": "STONEY CREEK",
        "streetNameDisplayText": "PRESTIGE DR, STONEY CREEK"
      }
    ]
  },
  {
    "postal": "L8G1V5",
    "result": [
      {
        "electoralDistricts": [
          {
            "election": null,
            "id": 37,
            "name": "Hamilton East—Stoney Creek"
          }
        ],
        "pollDivisionIds": [
          10138657
        ],
        "postalCode": "L8G1V5",
        "streetName": "CHARLES",
        "streetDirectionId": null,
        "streetTypeId": "ST",
        "placeName": "STONEY CREEK",
        "streetNameDisplayText": "CHARLES ST, STONEY CREEK"
      }
    ]
  },
  {
    "postal": "L8G9Y5",
    "result": []
  },
  {
    "postal": "L8G1P2",
    "result": [
      {
        "electoralDistricts": [
          {
            "election": null,
            "id": 37,
            "name": "Hamilton East—Stoney Creek"
          }
        ],
        "pollDivisionIds": [
          10138657
        ],
        "postalCode": "L8G1P2",
        "streetName": "ALBA",
        "streetDirectionId": null,
        "streetTypeId": "ST",
        "placeName": "STONEY CREEK",
        "streetNameDisplayText": "ALBA ST, STONEY CREEK"
      }
    ]
  },
  {
    "postal": "L8G5X0",
    "result": []
  },
  {
    "postal": "L8G7B8",
    "result": []
  },
  {
    "postal": "L8G0C6",
    "result": []
  },
  {
    "postal": "L8G6G1",
    "result": []
  },
  {
    "postal": "L8G3K3",
    "result": [
      {
        "electoralDistricts": [
          {
            "election": null,
            "id": 37,
            "name": "Hamilton East—Stoney Creek"
          }
        ],
        "pollDivisionIds": [
          10138658
        ],
        "postalCode": "L8G3K3",
        "streetName": "JAMES",
        "streetDirectionId": null,
        "streetTypeId": "AVE",
        "placeName": "STONEY CREEK",
        "streetNameDisplayText": "JAMES AVE, STONEY CREEK"
      }
    ]
  },
  {
    "postal": "L8G9R0",
    "result": []
  },
  {
    "postal": "L8G4R8",
    "result": [
      {
        "electoralDistricts": [
          {
            "election": null,
            "id": 37,
            "name": "Hamilton East—Stoney Creek"
          }
        ],
        "pollDivisionIds": [
          10138660
        ],
        "postalCode": "L8G4R8",
        "streetName": "GREEN",
        "streetDirectionId": null,
        "streetTypeId": "RD",
        "placeName": "STONEY CREEK",
        "streetNameDisplayText": "GREEN RD, STONEY CREEK"
      }
    ]
  },
  {
    "postal": "L8G5P9",
    "result": []
  },
  {
    "postal": "L8G8N4",
    "result": []
  },
  {
    "postal": "L8G8H4",
    "result": []
  },
  {
    "postal": "L8G4V1",
    "result": [
      {
        "electoralDistricts": [
          {
            "election": null,
            "id": 37,
            "name": "Hamilton East—Stoney Creek"
          }
        ],
        "pollDivisionIds": [
          10138668
        ],
        "postalCode": "L8G4V1",
        "streetName": "ADRIATIC",
        "streetDirectionId": null,
        "streetTypeId": "BLVD",
        "placeName": "STONEY CREEK",
        "streetNameDisplayText": "ADRIATIC BLVD, STONEY CREEK"
      }
    ]
  },
  {
    "postal": "L8G1K5",
    "result": [
      {
        "electoralDistricts": [
          {
            "election": null,
            "id": 37,
            "name": "Hamilton East—Stoney Creek"
          }
        ],
        "pollDivisionIds": [
          10138658
        ],
        "postalCode": "L8G1K5",
        "streetName": "KING",
        "streetDirectionId": "E",
        "streetTypeId": "ST",
        "placeName": "STONEY CREEK",
        "streetNameDisplayText": "KING ST E, STONEY CREEK"
      }
    ]
  },
  {
    "postal": "L8G1Z5",
    "result": [
      {
        "electoralDistricts": [
          {
            "election": null,
            "id": 37,
            "name": "Hamilton East—Stoney Creek"
          }
        ],
        "pollDivisionIds": [
          10138657
        ],
        "postalCode": "L8G1Z5",
        "streetName": "SECOND",
        "streetDirectionId": "N",
        "streetTypeId": "ST",
        "placeName": "STONEY CREEK",
        "streetNameDisplayText": "SECOND ST N, STONEY CREEK"
      }
    ]
  },
  {
    "postal": "L8G9L9",
    "result": []
  },
  {
    "postal": "L8G5L2",
    "result": []
  },
  {
    "postal": "L8G0M2",
    "result": []
  },
  {
    "postal": "L8G1K8",
    "result": [
      {
        "electoralDistricts": [
          {
            "election": null,
            "id": 37,
            "name": "Hamilton East—Stoney Creek"
          }
        ],
        "pollDivisionIds": [
          10138658
        ],
        "postalCode": "L8G1K8",
        "streetName": "KING",
        "streetDirectionId": "E",
        "streetTypeId": "ST",
        "placeName": "STONEY CREEK",
        "streetNameDisplayText": "KING ST E, STONEY CREEK"
      }
    ]
  },
  {
    "postal": "L8G3M7",
    "result": [
      {
        "electoralDistricts": [
          {
            "election": null,
            "id": 37,
            "name": "Hamilton East—Stoney Creek"
          }
        ],
        "pollDivisionIds": [
          10138660
        ],
        "postalCode": "L8G3M7",
        "streetName": "CARLA",
        "streetDirectionId": null,
        "streetTypeId": "AVE",
        "placeName": "STONEY CREEK",
        "streetNameDisplayText": "CARLA AVE, STONEY CREEK"
      }
    ]
  },
  {
    "postal": "L8G1B2",
    "result": [
      {
        "electoralDistricts": [
          {
            "election": null,
            "id": 37,
            "name": "Hamilton East—Stoney Creek"
          }
        ],
        "pollDivisionIds": [
          10138649
        ],
        "postalCode": "L8G1B2",
        "streetName": "QUEENSTON",
        "streetDirectionId": null,
        "streetTypeId": "RD",
        "placeName": "STONEY CREEK",
        "streetNameDisplayText": "QUEENSTON RD, STONEY CREEK"
      }
    ]
  },
  {
    "postal": "L8G0H9",
    "result": []
  },
  {
    "postal": "L8G8M4",
    "result": []
  },
  {
    "postal": "L8G2M5",
    "result": [
      {
        "electoralDistricts": [
          {
            "election": null,
            "id": 37,
            "name": "Hamilton East—Stoney Creek"
          }
        ],
        "pollDivisionIds": [
          10138656
        ],
        "postalCode": "L8G2M5",
        "streetName": "CATALINA",
        "streetDirectionId": null,
        "streetTypeId": "DR",
        "placeName": "HAMILTON",
        "streetNameDisplayText": "CATALINA DR, HAMILTON"
      }
    ]
  },
  {
    "postal": "L8G0T9",
    "result": []
  },
  {
    "postal": "L8G3P1",
    "result": [
      {
        "electoralDistricts": [
          {
            "election": null,
            "id": 37,
            "name": "Hamilton East—Stoney Creek"
          }
        ],
        "pollDivisionIds": [
          10138658
        ],
        "postalCode": "L8G3P1",
        "streetName": "MOUNTAIN",
        "streetDirectionId": "N",
        "streetTypeId": "AVE",
        "placeName": "STONEY CREEK",
        "streetNameDisplayText": "MOUNTAIN AVE N, STONEY CREEK"
      }
    ]
  },
  {
    "postal": "L8G1R6",
    "result": [
      {
        "electoralDistricts": [
          {
            "election": null,
            "id": 37,
            "name": "Hamilton East—Stoney Creek"
          }
        ],
        "pollDivisionIds": [
          10138658
        ],
        "postalCode": "L8G1R6",
        "streetName": "MARION",
        "streetDirectionId": null,
        "streetTypeId": "PL",
        "placeName": "STONEY CREEK",
        "streetNameDisplayText": "MARION PL, STONEY CREEK"
      }
    ]
  },
  {
    "postal": "L8G9V5",
    "result": []
  },
  {
    "postal": "L8G9T0",
    "result": []
  },
  {
    "postal": "L8G0A9",
    "result": [
      {
        "electoralDistricts": [
          {
            "election": null,
            "id": 37,
            "name": "Hamilton East—Stoney Creek"
          }
        ],
        "pollDivisionIds": [
          10138656,
          10138650,
          10138657
        ],
        "postalCode": "L8G0A9",
        "streetName": "KING",
        "streetDirectionId": "W",
        "streetTypeId": "ST",
        "placeName": "STONEY CREEK",
        "streetNameDisplayText": "KING ST W, STONEY CREEK"
      }
    ]
  },
  {
    "postal": "L8G1M3",
    "result": [
      {
        "electoralDistricts": [
          {
            "election": null,
            "id": 37,
            "name": "Hamilton East—Stoney Creek"
          }
        ],
        "pollDivisionIds": [
          10138662
        ],
        "postalCode": "L8G1M3",
        "streetName": "KING",
        "streetDirectionId": "E",
        "streetTypeId": "ST",
        "placeName": "STONEY CREEK",
        "streetNameDisplayText": "KING ST E, STONEY CREEK"
      }
    ]
  },
  {
    "postal": "L8G1W8",
    "result": [
      {
        "electoralDistricts": [
          {
            "election": null,
            "id": 37,
            "name": "Hamilton East—Stoney Creek"
          }
        ],
        "pollDivisionIds": [
          10138657
        ],
        "postalCode": "L8G1W8",
        "streetName": "RANDALL",
        "streetDirectionId": null,
        "streetTypeId": "AVE",
        "placeName": "STONEY CREEK",
        "streetNameDisplayText": "RANDALL AVE, STONEY CREEK"
      }
    ]
  },
  {
    "postal": "L8G9J1",
    "result": []
  },
  {
    "postal": "L8G8N5",
    "result": []
  },
  {
    "postal": "L8G5X1",
    "result": []
  },
  {
    "postal": "L8G6S2",
    "result": []
  },
  {
    "postal": "L8G2A2",
    "result": [
      {
        "electoralDistricts": [
          {
            "election": null,
            "id": 37,
            "name": "Hamilton East—Stoney Creek"
          }
        ],
        "pollDivisionIds": [
          10138657
        ],
        "postalCode": "L8G2A2",
        "streetName": "GALBRAITH",
        "streetDirectionId": null,
        "streetTypeId": "DR",
        "placeName": "STONEY CREEK",
        "streetNameDisplayText": "GALBRAITH DR, STONEY CREEK"
      }
    ]
  },
  {
    "postal": "L8G6A6",
    "result": []
  },
  {
    "postal": "L8G0S3",
    "result": []
  },
  {
    "postal": "L8G3E7",
    "result": [
      {
        "electoralDistricts": [
          {
            "election": null,
            "id": 37,
            "name": "Hamilton East—Stoney Creek"
          }
        ],
        "pollDivisionIds": [
          10138667
        ],
        "postalCode": "L8G3E7",
        "streetName": "SOUTHMEADOW",
        "streetDirectionId": null,
        "streetTypeId": "CRES",
        "placeName": "STONEY CREEK",
        "streetNameDisplayText": "SOUTHMEADOW CRES, STONEY CREEK"
      }
    ]
  },
  {
    "postal": "L8G5R7",
    "result": []
  },
  {
    "postal": "L8G3R6",
    "result": [
      {
        "electoralDistricts": [
          {
            "election": null,
            "id": 37,
            "name": "Hamilton East—Stoney Creek"
          }
        ],
        "pollDivisionIds": [
          10138658
        ],
        "postalCode": "L8G3R6",
        "streetName": "DONN",
        "streetDirectionId": null,
        "streetTypeId": "AVE",
        "placeName": "STONEY CREEK",
        "streetNameDisplayText": "DONN AVE, STONEY CREEK"
      }
    ]
  },
  {
    "postal": "L8G6K4",
    "result": []
  },
  {
    "postal": "L8G2W5",
    "result": [
      {
        "electoralDistricts": [
          {
            "election": null,
            "id": 37,
            "name": "Hamilton East—Stoney Creek"
          }
        ],
        "pollDivisionIds": [
          10138660
        ],
        "postalCode": "L8G2W5",
        "streetName": "LOMA",
        "streetDirectionId": null,
        "streetTypeId": "DR",
        "placeName": "STONEY CREEK",
        "streetNameDisplayText": "LOMA DR, STONEY CREEK"
      }
    ]
  },
  {
    "postal": "L8G8W4",
    "result": []
  },
  {
    "postal": "L8G9C2",
    "result": []
  },
  {
    "postal": "L8G2C0",
    "result": []
  },
  {
    "postal": "L8G0E1",
    "result": []
  },
  {
    "postal": "L8G1K9",
    "result": [
      {
        "electoralDistricts": [
          {
            "election": null,
            "id": 37,
            "name": "Hamilton East—Stoney Creek"
          }
        ],
        "pollDivisionIds": [
          10138658
        ],
        "postalCode": "L8G1K9",
        "streetName": "KING",
        "streetDirectionId": "E",
        "streetTypeId": "ST",
        "placeName": "STONEY CREEK",
        "streetNameDisplayText": "KING ST E, STONEY CREEK"
      }
    ]
  },
  {
    "postal": "L8G1G7",
    "result": [
      {
        "electoralDistricts": [
          {
            "election": null,
            "id": 37,
            "name": "Hamilton East—Stoney Creek"
          }
        ],
        "pollDivisionIds": [
          10138657
        ],
        "postalCode": "L8G1G7",
        "streetName": "KING",
        "streetDirectionId": "W",
        "streetTypeId": "ST",
        "placeName": "STONEY CREEK",
        "streetNameDisplayText": "KING ST W, STONEY CREEK"
      }
    ]
  },
  {
    "postal": "L8G4E9",
    "result": [
      {
        "electoralDistricts": [
          {
            "election": null,
            "id": 37,
            "name": "Hamilton East—Stoney Creek"
          }
        ],
        "pollDivisionIds": [
          10138667
        ],
        "postalCode": "L8G4E9",
        "streetName": "GLENASHTON",
        "streetDirectionId": null,
        "streetTypeId": "DR",
        "placeName": "STONEY CREEK",
        "streetNameDisplayText": "GLENASHTON DR, STONEY CREEK"
      }
    ]
  },
  {
    "postal": "L8G9P0",
    "result": []
  },
  {
    "postal": "L8G5H3",
    "result": [
      {
        "electoralDistricts": [
          {
            "election": null,
            "id": 37,
            "name": "Hamilton East—Stoney Creek"
          }
        ],
        "pollDivisionIds": [
          10138656
        ],
        "postalCode": "L8G5H3",
        "streetName": "NASHVILLE",
        "streetDirectionId": null,
        "streetTypeId": "CIR",
        "placeName": "HAMILTON",
        "streetNameDisplayText": "NASHVILLE CIR, HAMILTON"
      },
      {
        "electoralDistricts": [
          {
            "election": null,
            "id": 37,
            "name": "Hamilton East—Stoney Creek"
          }
        ],
        "pollDivisionIds": [
          10138656
        ],
        "postalCode": "L8G5H3",
        "streetName": "WEBSTER",
        "streetDirectionId": null,
        "streetTypeId": "RD",
        "placeName": "HAMILTON",
        "streetNameDisplayText": "WEBSTER RD, HAMILTON"
      }
    ]
  },
  {
    "postal": "L8G9X6",
    "result": []
  },
  {
    "postal": "L8G5N7",
    "result": []
  },
  {
    "postal": "L8G5A6",
    "result": [
      {
        "electoralDistricts": [
          {
            "election": null,
            "id": 37,
            "name": "Hamilton East—Stoney Creek"
          }
        ],
        "pollDivisionIds": [
          10138656
        ],
        "postalCode": "L8G5A6",
        "streetName": "CHERT",
        "streetDirectionId": null,
        "streetTypeId": "AVE",
        "placeName": "HAMILTON",
        "streetNameDisplayText": "CHERT AVE, HAMILTON"
      },
      {
        "electoralDistricts": [
          {
            "election": null,
            "id": 37,
            "name": "Hamilton East—Stoney Creek"
          }
        ],
        "pollDivisionIds": [
          10138656
        ],
        "postalCode": "L8G5A6",
        "streetName": "DEREK",
        "streetDirectionId": null,
        "streetTypeId": "DR",
        "placeName": "HAMILTON",
        "streetNameDisplayText": "DEREK DR, HAMILTON"
      }
    ]
  },
  {
    "postal": "L8G4M0",
    "result": []
  },
  {
    "postal": "L8G3V6",
    "result": [
      {
        "electoralDistricts": [
          {
            "election": null,
            "id": 37,
            "name": "Hamilton East—Stoney Creek"
          }
        ],
        "pollDivisionIds": [
          10138660
        ],
        "postalCode": "L8G3V6",
        "streetName": "STONEY BROOK",
        "streetDirectionId": null,
        "streetTypeId": "DR",
        "placeName": "STONEY CREEK",
        "streetNameDisplayText": "STONEY BROOK DR, STONEY CREEK"
      }
    ]
  },
  {
    "postal": "L8G1L7",
    "result": [
      {
        "electoralDistricts": [
          {
            "election": null,
            "id": 37,
            "name": "Hamilton East—Stoney Creek"
          }
        ],
        "pollDivisionIds": [
          10138660
        ],
        "postalCode": "L8G1L7",
        "streetName": "KING",
        "streetDirectionId": "E",
        "streetTypeId": "ST",
        "placeName": "STONEY CREEK",
        "streetNameDisplayText": "KING ST E, STONEY CREEK"
      }
    ]
  },
  {
    "postal": "L8G2P9",
    "result": [
      {
        "electoralDistricts": [
          {
            "election": null,
            "id": 37,
            "name": "Hamilton East—Stoney Creek"
          }
        ],
        "pollDivisionIds": [
          10138658
        ],
        "postalCode": "L8G2P9",
        "streetName": "LESLIE",
        "streetDirectionId": null,
        "streetTypeId": "DR",
        "placeName": "STONEY CREEK",
        "streetNameDisplayText": "LESLIE DR, STONEY CREEK"
      }
    ]
  },
  {
    "postal": "L8G5T4",
    "result": []
  },
  {
    "postal": "L8G5Z1",
    "result": []
  },
  {
    "postal": "L8G2X0",
    "result": []
  },
  {
    "postal": "L8G6Z2",
    "result": []
  },
  {
    "postal": "L8G0E0",
    "result": []
  },
  {
    "postal": "L8G3Z5",
    "result": [
      {
        "electoralDistricts": [
          {
            "election": null,
            "id": 37,
            "name": "Hamilton East—Stoney Creek"
          }
        ],
        "pollDivisionIds": [
          10138658
        ],
        "postalCode": "L8G3Z5",
        "streetName": "MOUNTAIN",
        "streetDirectionId": "N",
        "streetTypeId": "AVE",
        "placeName": "STONEY CREEK",
        "streetNameDisplayText": "MOUNTAIN AVE N, STONEY CREEK"
      }
    ]
  },
  {
    "postal": "L8G8H3",
    "result": []
  },
  {
    "postal": "L8G7S6",
    "result": []
  },
  {
    "postal": "L8G4C1",
    "result": [
      {
        "electoralDistricts": [
          {
            "election": null,
            "id": 37,
            "name": "Hamilton East—Stoney Creek"
          }
        ],
        "pollDivisionIds": [
          10138667
        ],
        "postalCode": "L8G4C1",
        "streetName": "GLEN CASTLE",
        "streetDirectionId": null,
        "streetTypeId": "DR",
        "placeName": "STONEY CREEK",
        "streetNameDisplayText": "GLEN CASTLE DR, STONEY CREEK"
      }
    ]
  },
  {
    "postal": "L8G3K2",
    "result": [
      {
        "electoralDistricts": [
          {
            "election": null,
            "id": 37,
            "name": "Hamilton East—Stoney Creek"
          }
        ],
        "pollDivisionIds": [
          10138658
        ],
        "postalCode": "L8G3K2",
        "streetName": "JAMES",
        "streetDirectionId": null,
        "streetTypeId": "AVE",
        "placeName": "STONEY CREEK",
        "streetNameDisplayText": "JAMES AVE, STONEY CREEK"
      }
    ]
  },
  {
    "postal": "L8G1Y5",
    "result": [
      {
        "electoralDistricts": [
          {
            "election": null,
            "id": 37,
            "name": "Hamilton East—Stoney Creek"
          }
        ],
        "pollDivisionIds": [
          10138657
        ],
        "postalCode": "L8G1Y5",
        "streetName": "FIRST",
        "streetDirectionId": "N",
        "streetTypeId": "ST",
        "placeName": "STONEY CREEK",
        "streetNameDisplayText": "FIRST ST N, STONEY CREEK"
      }
    ]
  },
  {
    "postal": "L8G6P6",
    "result": []
  },
  {
    "postal": "L8G3N9",
    "result": [
      {
        "electoralDistricts": [
          {
            "election": null,
            "id": 37,
            "name": "Hamilton East—Stoney Creek"
          }
        ],
        "pollDivisionIds": [
          10138658
        ],
        "postalCode": "L8G3N9",
        "streetName": "MOUNTAIN",
        "streetDirectionId": "N",
        "streetTypeId": "AVE",
        "placeName": "STONEY CREEK",
        "streetNameDisplayText": "MOUNTAIN AVE N, STONEY CREEK"
      }
    ]
  },
  {
    "postal": "L8G3W2",
    "result": [
      {
        "electoralDistricts": [
          {
            "election": null,
            "id": 37,
            "name": "Hamilton East—Stoney Creek"
          }
        ],
        "pollDivisionIds": [
          10138660
        ],
        "postalCode": "L8G3W2",
        "streetName": "CORMAN",
        "streetDirectionId": null,
        "streetTypeId": "AVE",
        "placeName": "STONEY CREEK",
        "streetNameDisplayText": "CORMAN AVE, STONEY CREEK"
      }
    ]
  },
  {
    "postal": "L8G6H8",
    "result": []
  },
  {
    "postal": "L8G9T3",
    "result": []
  },
  {
    "postal": "L8G5L9",
    "result": []
  },
  {
    "postal": "L8G7X7",
    "result": []
  },
  {
    "postal": "L8G3J5",
    "result": [
      {
        "electoralDistricts": [
          {
            "election": null,
            "id": 37,
            "name": "Hamilton East—Stoney Creek"
          }
        ],
        "pollDivisionIds": [
          10138660
        ],
        "postalCode": "L8G3J5",
        "streetName": "PASSMORE",
        "streetDirectionId": null,
        "streetTypeId": "ST",
        "placeName": "STONEY CREEK",
        "streetNameDisplayText": "PASSMORE ST, STONEY CREEK"
      }
    ]
  },
  {
    "postal": "L8G4J5",
    "result": [
      {
        "electoralDistricts": [
          {
            "election": null,
            "id": 37,
            "name": "Hamilton East—Stoney Creek"
          }
        ],
        "pollDivisionIds": [
          10138667
        ],
        "postalCode": "L8G4J5",
        "streetName": "DEMARCHI",
        "streetDirectionId": null,
        "streetTypeId": "CRT",
        "placeName": "STONEY CREEK",
        "streetNameDisplayText": "DEMARCHI CRT, STONEY CREEK"
      }
    ]
  },
  {
    "postal": "L8G6J2",
    "result": []
  },
  {
    "postal": "L8G5V6",
    "result": []
  },
  {
    "postal": "L8G3N2",
    "result": [
      {
        "electoralDistricts": [
          {
            "election": null,
            "id": 37,
            "name": "Hamilton East—Stoney Creek"
          }
        ],
        "pollDivisionIds": [
          10138660
        ],
        "postalCode": "L8G3N2",
        "streetName": "CARLA",
        "streetDirectionId": null,
        "streetTypeId": "AVE",
        "placeName": "STONEY CREEK",
        "streetNameDisplayText": "CARLA AVE, STONEY CREEK"
      }
    ]
  },
  {
    "postal": "L8G3B1",
    "result": [
      {
        "electoralDistricts": [
          {
            "election": null,
            "id": 37,
            "name": "Hamilton East—Stoney Creek"
          }
        ],
        "pollDivisionIds": [
          10138662
        ],
        "postalCode": "L8G3B1",
        "streetName": "MEMORIAL",
        "streetDirectionId": null,
        "streetTypeId": "AVE",
        "placeName": "STONEY CREEK",
        "streetNameDisplayText": "MEMORIAL AVE, STONEY CREEK"
      }
    ]
  },
  {
    "postal": "L8G8B5",
    "result": []
  },
  {
    "postal": "L8G0K1",
    "result": []
  },
  {
    "postal": "L8G7M7",
    "result": []
  },
  {
    "postal": "L8G2M2",
    "result": [
      {
        "electoralDistricts": [
          {
            "election": null,
            "id": 37,
            "name": "Hamilton East—Stoney Creek"
          }
        ],
        "pollDivisionIds": [
          10138657
        ],
        "postalCode": "L8G2M2",
        "streetName": "FELKER",
        "streetDirectionId": null,
        "streetTypeId": "AVE",
        "placeName": "STONEY CREEK",
        "streetNameDisplayText": "FELKER AVE, STONEY CREEK"
      }
    ]
  },
  {
    "postal": "L8G9N3",
    "result": []
  },
  {
    "postal": "L8G4Y8",
    "result": [
      {
        "electoralDistricts": [
          {
            "election": null,
            "id": 37,
            "name": "Hamilton East—Stoney Creek"
          }
        ],
        "pollDivisionIds": [
          10138668
        ],
        "postalCode": "L8G4Y8",
        "streetName": "CLEARVIEW",
        "streetDirectionId": null,
        "streetTypeId": "DR",
        "placeName": "STONEY CREEK",
        "streetNameDisplayText": "CLEARVIEW DR, STONEY CREEK"
      }
    ]
  },
  {
    "postal": "L8G3V7",
    "result": [
      {
        "electoralDistricts": [
          {
            "election": null,
            "id": 37,
            "name": "Hamilton East—Stoney Creek"
          }
        ],
        "pollDivisionIds": [
          10138660
        ],
        "postalCode": "L8G3V7",
        "streetName": "STONEY BROOK",
        "streetDirectionId": null,
        "streetTypeId": "DR",
        "placeName": "STONEY CREEK",
        "streetNameDisplayText": "STONEY BROOK DR, STONEY CREEK"
      }
    ]
  },
  {
    "postal": "L8G8Z1",
    "result": []
  },
  {
    "postal": "L8G7B3",
    "result": []
  },
  {
    "postal": "L8G3A8",
    "result": [
      {
        "electoralDistricts": [
          {
            "election": null,
            "id": 37,
            "name": "Hamilton East—Stoney Creek"
          }
        ],
        "pollDivisionIds": [
          10138662
        ],
        "postalCode": "L8G3A8",
        "streetName": "GREEN FOREST",
        "streetDirectionId": null,
        "streetTypeId": "DR",
        "placeName": "STONEY CREEK",
        "streetNameDisplayText": "GREEN FOREST DR, STONEY CREEK"
      }
    ]
  },
  {
    "postal": "L8G7V5",
    "result": []
  },
  {
    "postal": "L8G2T2",
    "result": [
      {
        "electoralDistricts": [
          {
            "election": null,
            "id": 37,
            "name": "Hamilton East—Stoney Creek"
          }
        ],
        "pollDivisionIds": [
          10138660
        ],
        "postalCode": "L8G2T2",
        "streetName": "OLIVE",
        "streetDirectionId": null,
        "streetTypeId": "CRES",
        "placeName": "STONEY CREEK",
        "streetNameDisplayText": "OLIVE CRES, STONEY CREEK"
      }
    ]
  },
  {
    "postal": "L8G6L3",
    "result": []
  },
  {
    "postal": "L8G0L2",
    "result": []
  },
  {
    "postal": "L8G5Y8",
    "result": []
  },
  {
    "postal": "L8G0B8",
    "result": []
  },
  {
    "postal": "L8G6R5",
    "result": []
  },
  {
    "postal": "L8G8W6",
    "result": []
  },
  {
    "postal": "L8G8G6",
    "result": []
  },
  {
    "postal": "L8G6X3",
    "result": []
  },
  {
    "postal": "L8G7R7",
    "result": []
  },
  {
    "postal": "L8G4B6",
    "result": [
      {
        "electoralDistricts": [
          {
            "election": null,
            "id": 37,
            "name": "Hamilton East—Stoney Creek"
          }
        ],
        "pollDivisionIds": [
          10138667
        ],
        "postalCode": "L8G4B6",
        "streetName": "BIRCHLAWN",
        "streetDirectionId": null,
        "streetTypeId": "DR",
        "placeName": "STONEY CREEK",
        "streetNameDisplayText": "BIRCHLAWN DR, STONEY CREEK"
      }
    ]
  },
  {
    "postal": "L8G3P9",
    "result": [
      {
        "electoralDistricts": [
          {
            "election": null,
            "id": 37,
            "name": "Hamilton East—Stoney Creek"
          }
        ],
        "pollDivisionIds": [
          10138658
        ],
        "postalCode": "L8G3P9",
        "streetName": "GEMMA",
        "streetDirectionId": null,
        "streetTypeId": "CRT",
        "placeName": "STONEY CREEK",
        "streetNameDisplayText": "GEMMA CRT, STONEY CREEK"
      }
    ]
  },
  {
    "postal": "L8G2T3",
    "result": [
      {
        "electoralDistricts": [
          {
            "election": null,
            "id": 37,
            "name": "Hamilton East—Stoney Creek"
          }
        ],
        "pollDivisionIds": [
          10138660
        ],
        "postalCode": "L8G2T3",
        "streetName": "OLIVE",
        "streetDirectionId": null,
        "streetTypeId": "CRES",
        "placeName": "STONEY CREEK",
        "streetNameDisplayText": "OLIVE CRES, STONEY CREEK"
      }
    ]
  },
  {
    "postal": "L8G1M4",
    "result": [
      {
        "electoralDistricts": [
          {
            "election": null,
            "id": 37,
            "name": "Hamilton East—Stoney Creek"
          }
        ],
        "pollDivisionIds": [
          10138662
        ],
        "postalCode": "L8G1M4",
        "streetName": "KING",
        "streetDirectionId": "E",
        "streetTypeId": "ST",
        "placeName": "STONEY CREEK",
        "streetNameDisplayText": "KING ST E, STONEY CREEK"
      }
    ]
  },
  {
    "postal": "L8G0H1",
    "result": []
  },
  {
    "postal": "L8G9W3",
    "result": []
  },
  {
    "postal": "L8G6P1",
    "result": []
  },
  {
    "postal": "L8G7G2",
    "result": []
  },
  {
    "postal": "L8G4J9",
    "result": [
      {
        "electoralDistricts": [
          {
            "election": null,
            "id": 37,
            "name": "Hamilton East—Stoney Creek"
          }
        ],
        "pollDivisionIds": [
          10138668
        ],
        "postalCode": "L8G4J9",
        "streetName": "BEN NEVIS",
        "streetDirectionId": null,
        "streetTypeId": "DR",
        "placeName": "STONEY CREEK",
        "streetNameDisplayText": "BEN NEVIS DR, STONEY CREEK"
      }
    ]
  },
  {
    "postal": "L8G9E4",
    "result": []
  },
  {
    "postal": "L8G8H0",
    "result": []
  },
  {
    "postal": "L8G4M7",
    "result": [
      {
        "electoralDistricts": [
          {
            "election": null,
            "id": 37,
            "name": "Hamilton East—Stoney Creek"
          }
        ],
        "pollDivisionIds": [
          10138668
        ],
        "postalCode": "L8G4M7",
        "streetName": "TREDONIA",
        "streetDirectionId": null,
        "streetTypeId": "PL",
        "placeName": "STONEY CREEK",
        "streetNameDisplayText": "TREDONIA PL, STONEY CREEK"
      }
    ]
  },
  {
    "postal": "L8G2G9",
    "result": [
      {
        "electoralDistricts": [
          {
            "election": null,
            "id": 37,
            "name": "Hamilton East—Stoney Creek"
          }
        ],
        "pollDivisionIds": [
          10138655
        ],
        "postalCode": "L8G2G9",
        "streetName": "GREENFORD",
        "streetDirectionId": null,
        "streetTypeId": "DR",
        "placeName": "HAMILTON",
        "streetNameDisplayText": "GREENFORD DR, HAMILTON"
      }
    ]
  },
  {
    "postal": "L8G8T2",
    "result": []
  },
  {
    "postal": "L8G7G7",
    "result": []
  },
  {
    "postal": "L8G4Z3",
    "result": [
      {
        "electoralDistricts": [
          {
            "election": null,
            "id": 37,
            "name": "Hamilton East—Stoney Creek"
          }
        ],
        "pollDivisionIds": [
          10138668
        ],
        "postalCode": "L8G4Z3",
        "streetName": "GINTON",
        "streetDirectionId": null,
        "streetTypeId": "CRT",
        "placeName": "STONEY CREEK",
        "streetNameDisplayText": "GINTON CRT, STONEY CREEK"
      },
      {
        "electoralDistricts": [
          {
            "election": null,
            "id": 37,
            "name": "Hamilton East—Stoney Creek"
          }
        ],
        "pollDivisionIds": [
          10138668
        ],
        "postalCode": "L8G4Z3",
        "streetName": "HERITAGE",
        "streetDirectionId": null,
        "streetTypeId": "DR",
        "placeName": "STONEY CREEK",
        "streetNameDisplayText": "HERITAGE DR, STONEY CREEK"
      }
    ]
  },
  {
    "postal": "L8G5B3",
    "result": [
      {
        "electoralDistricts": [
          {
            "election": null,
            "id": 37,
            "name": "Hamilton East—Stoney Creek"
          }
        ],
        "pollDivisionIds": [
          10138656
        ],
        "postalCode": "L8G5B3",
        "streetName": "NATIONAL",
        "streetDirectionId": null,
        "streetTypeId": "DR",
        "placeName": "HAMILTON",
        "streetNameDisplayText": "NATIONAL DR, HAMILTON"
      },
      {
        "electoralDistricts": [
          {
            "election": null,
            "id": 37,
            "name": "Hamilton East—Stoney Creek"
          }
        ],
        "pollDivisionIds": [
          10138656
        ],
        "postalCode": "L8G5B3",
        "streetName": "TOMMAR",
        "streetDirectionId": null,
        "streetTypeId": "PL",
        "placeName": "HAMILTON",
        "streetNameDisplayText": "TOMMAR PL, HAMILTON"
      }
    ]
  },
  {
    "postal": "L8G1S7",
    "result": [
      {
        "electoralDistricts": [
          {
            "election": null,
            "id": 37,
            "name": "Hamilton East—Stoney Creek"
          }
        ],
        "pollDivisionIds": [
          10138657
        ],
        "postalCode": "L8G1S7",
        "streetName": "UPPER WALKER",
        "streetDirectionId": null,
        "streetTypeId": "AVE",
        "placeName": "STONEY CREEK",
        "streetNameDisplayText": "UPPER WALKER AVE, STONEY CREEK"
      }
    ]
  },
  {
    "postal": "L8G2N7",
    "result": [
      {
        "electoralDistricts": [
          {
            "election": null,
            "id": 37,
            "name": "Hamilton East—Stoney Creek"
          }
        ],
        "pollDivisionIds": [
          10138657
        ],
        "postalCode": "L8G2N7",
        "streetName": "MAPLE",
        "streetDirectionId": null,
        "streetTypeId": "AVE",
        "placeName": "STONEY CREEK",
        "streetNameDisplayText": "MAPLE AVE, STONEY CREEK"
      }
    ]
  },
  {
    "postal": "L8G0H8",
    "result": []
  },
  {
    "postal": "L8G7Z4",
    "result": []
  },
  {
    "postal": "L8G7B1",
    "result": []
  },
  {
    "postal": "L8G7P8",
    "result": []
  },
  {
    "postal": "L8G7N0",
    "result": []
  },
  {
    "postal": "L8G3Y5",
    "result": []
  },
  {
    "postal": "L8G6K1",
    "result": []
  },
  {
    "postal": "L8G9X5",
    "result": []
  },
  {
    "postal": "L8G7S5",
    "result": []
  },
  {
    "postal": "L8G0A4",
    "result": []
  },
  {
    "postal": "L8G4T5",
    "result": [
      {
        "electoralDistricts": [
          {
            "election": null,
            "id": 37,
            "name": "Hamilton East—Stoney Creek"
          }
        ],
        "pollDivisionIds": [
          10138668
        ],
        "postalCode": "L8G4T5",
        "streetName": "GOLDCREST",
        "streetDirectionId": null,
        "streetTypeId": "DR",
        "placeName": "STONEY CREEK",
        "streetNameDisplayText": "GOLDCREST DR, STONEY CREEK"
      }
    ]
  },
  {
    "postal": "L8G5K1",
    "result": []
  },
  {
    "postal": "L8G0Z9",
    "result": []
  },
  {
    "postal": "L8G7T2",
    "result": []
  },
  {
    "postal": "L8G1L5",
    "result": [
      {
        "electoralDistricts": [
          {
            "election": null,
            "id": 37,
            "name": "Hamilton East—Stoney Creek"
          }
        ],
        "pollDivisionIds": [
          10138660
        ],
        "postalCode": "L8G1L5",
        "streetName": "KING",
        "streetDirectionId": "E",
        "streetTypeId": "ST",
        "placeName": "STONEY CREEK",
        "streetNameDisplayText": "KING ST E, STONEY CREEK"
      }
    ]
  },
  {
    "postal": "L8G3N5",
    "result": [
      {
        "electoralDistricts": [
          {
            "election": null,
            "id": 37,
            "name": "Hamilton East—Stoney Creek"
          }
        ],
        "pollDivisionIds": [
          10138658
        ],
        "postalCode": "L8G3N5",
        "streetName": "LAKE AVENUE",
        "streetDirectionId": null,
        "streetTypeId": "DR",
        "placeName": "STONEY CREEK",
        "streetNameDisplayText": "LAKE AVENUE DR, STONEY CREEK"
      }
    ]
  },
  {
    "postal": "L8G6H4",
    "result": []
  },
  {
    "postal": "L8G5A5",
    "result": [
      {
        "electoralDistricts": [
          {
            "election": null,
            "id": 37,
            "name": "Hamilton East—Stoney Creek"
          }
        ],
        "pollDivisionIds": [
          10138656
        ],
        "postalCode": "L8G5A5",
        "streetName": "DEREK",
        "streetDirectionId": null,
        "streetTypeId": "DR",
        "placeName": "HAMILTON",
        "streetNameDisplayText": "DEREK DR, HAMILTON"
      }
    ]
  },
  {
    "postal": "L8G3R9",
    "result": [
      {
        "electoralDistricts": [
          {
            "election": null,
            "id": 37,
            "name": "Hamilton East—Stoney Creek"
          }
        ],
        "pollDivisionIds": [
          10138658
        ],
        "postalCode": "L8G3R9",
        "streetName": "DONN",
        "streetDirectionId": null,
        "streetTypeId": "AVE",
        "placeName": "STONEY CREEK",
        "streetNameDisplayText": "DONN AVE, STONEY CREEK"
      }
    ]
  },
  {
    "postal": "L8G7L8",
    "result": []
  },
  {
    "postal": "L8G6T6",
    "result": []
  },
  {
    "postal": "L8G7Y7",
    "result": []
  },
  {
    "postal": "L8G3M8",
    "result": [
      {
        "electoralDistricts": [
          {
            "election": null,
            "id": 37,
            "name": "Hamilton East—Stoney Creek"
          }
        ],
        "pollDivisionIds": [
          10138660
        ],
        "postalCode": "L8G3M8",
        "streetName": "CARLA",
        "streetDirectionId": null,
        "streetTypeId": "AVE",
        "placeName": "STONEY CREEK",
        "streetNameDisplayText": "CARLA AVE, STONEY CREEK"
      }
    ]
  },
  {
    "postal": "L8G2E0",
    "result": []
  },
  {
    "postal": "L8G4B5",
    "result": [
      {
        "electoralDistricts": [
          {
            "election": null,
            "id": 37,
            "name": "Hamilton East—Stoney Creek"
          }
        ],
        "pollDivisionIds": [
          10138667
        ],
        "postalCode": "L8G4B5",
        "streetName": "BIRCHLAWN",
        "streetDirectionId": null,
        "streetTypeId": "DR",
        "placeName": "STONEY CREEK",
        "streetNameDisplayText": "BIRCHLAWN DR, STONEY CREEK"
      }
    ]
  },
  {
    "postal": "L8G1J3",
    "result": [
      {
        "electoralDistricts": [
          {
            "election": null,
            "id": 37,
            "name": "Hamilton East—Stoney Creek"
          }
        ],
        "pollDivisionIds": [
          10138676,
          10138655
        ],
        "postalCode": "L8G1J3",
        "streetName": "KING",
        "streetDirectionId": "E",
        "streetTypeId": "ST",
        "placeName": "HAMILTON",
        "streetNameDisplayText": "KING ST E, HAMILTON"
      }
    ]
  },
  {
    "postal": "L8G5S6",
    "result": []
  },
  {
    "postal": "L8G8P7",
    "result": []
  },
  {
    "postal": "L8G7S7",
    "result": []
  },
  {
    "postal": "L8G4C2",
    "result": [
      {
        "electoralDistricts": [
          {
            "election": null,
            "id": 37,
            "name": "Hamilton East—Stoney Creek"
          }
        ],
        "pollDivisionIds": [
          10138667
        ],
        "postalCode": "L8G4C2",
        "streetName": "GLEN CASTLE",
        "streetDirectionId": null,
        "streetTypeId": "DR",
        "placeName": "STONEY CREEK",
        "streetNameDisplayText": "GLEN CASTLE DR, STONEY CREEK"
      }
    ]
  },
  {
    "postal": "L8G5Y0",
    "result": []
  },
  {
    "postal": "L8G2V7",
    "result": [
      {
        "electoralDistricts": [
          {
            "election": null,
            "id": 37,
            "name": "Hamilton East—Stoney Creek"
          }
        ],
        "pollDivisionIds": [
          10138658
        ],
        "postalCode": "L8G2V7",
        "streetName": "MOUNTAIN",
        "streetDirectionId": "S",
        "streetTypeId": "AVE",
        "placeName": "STONEY CREEK",
        "streetNameDisplayText": "MOUNTAIN AVE S, STONEY CREEK"
      }
    ]
  },
  {
    "postal": "L8G8P5",
    "result": []
  },
  {
    "postal": "L8G5P5",
    "result": []
  },
  {
    "postal": "L8G5Z0",
    "result": []
  },
  {
    "postal": "L8G9B0",
    "result": []
  },
  {
    "postal": "L8G1L0",
    "result": []
  },
  {
    "postal": "L8G0B5",
    "result": [
      {
        "electoralDistricts": [
          {
            "election": null,
            "id": 37,
            "name": "Hamilton East—Stoney Creek"
          }
        ],
        "pollDivisionIds": [
          10138656
        ],
        "postalCode": "L8G0B5",
        "streetName": "NASHVILLE",
        "streetDirectionId": null,
        "streetTypeId": "CIR",
        "placeName": "HAMILTON",
        "streetNameDisplayText": "NASHVILLE CIR, HAMILTON"
      }
    ]
  },
  {
    "postal": "L8G3L2",
    "result": [
      {
        "electoralDistricts": [
          {
            "election": null,
            "id": 37,
            "name": "Hamilton East—Stoney Creek"
          }
        ],
        "pollDivisionIds": [
          10138660
        ],
        "postalCode": "L8G3L2",
        "streetName": "COLLEGIATE",
        "streetDirectionId": null,
        "streetTypeId": "AVE",
        "placeName": "STONEY CREEK",
        "streetNameDisplayText": "COLLEGIATE AVE, STONEY CREEK"
      }
    ]
  },
  {
    "postal": "L8G3B7",
    "result": [
      {
        "electoralDistricts": [
          {
            "election": null,
            "id": 37,
            "name": "Hamilton East—Stoney Creek"
          }
        ],
        "pollDivisionIds": [
          10138667
        ],
        "postalCode": "L8G3B7",
        "streetName": "PINE",
        "streetDirectionId": null,
        "streetTypeId": "DR",
        "placeName": "STONEY CREEK",
        "streetNameDisplayText": "PINE DR, STONEY CREEK"
      }
    ]
  },
  {
    "postal": "L8G8L1",
    "result": []
  },
  {
    "postal": "L8G5M4",
    "result": []
  },
  {
    "postal": "L8G4G9",
    "result": [
      {
        "electoralDistricts": [
          {
            "election": null,
            "id": 37,
            "name": "Hamilton East—Stoney Creek"
          }
        ],
        "pollDivisionIds": [
          10138667
        ],
        "postalCode": "L8G4G9",
        "streetName": "BRAJER",
        "streetDirectionId": null,
        "streetTypeId": "CRT",
        "placeName": "STONEY CREEK",
        "streetNameDisplayText": "BRAJER CRT, STONEY CREEK"
      }
    ]
  },
  {
    "postal": "L8G0P0",
    "result": []
  },
  {
    "postal": "L8G8G2",
    "result": []
  },
  {
    "postal": "L8G1V9",
    "result": [
      {
        "electoralDistricts": [
          {
            "election": null,
            "id": 37,
            "name": "Hamilton East—Stoney Creek"
          }
        ],
        "pollDivisionIds": [
          10138657
        ],
        "postalCode": "L8G1V9",
        "streetName": "RANDALL",
        "streetDirectionId": null,
        "streetTypeId": "AVE",
        "placeName": "STONEY CREEK",
        "streetNameDisplayText": "RANDALL AVE, STONEY CREEK"
      }
    ]
  },
  {
    "postal": "L8G8N8",
    "result": []
  },
  {
    "postal": "L8G6S8",
    "result": []
  },
  {
    "postal": "L8G8H2",
    "result": []
  },
  {
    "postal": "L8G5R8",
    "result": []
  },
  {
    "postal": "L8G5L4",
    "result": []
  },
  {
    "postal": "L8G9E1",
    "result": []
  },
  {
    "postal": "L8G1C4",
    "result": [
      {
        "electoralDistricts": [
          {
            "election": null,
            "id": 37,
            "name": "Hamilton East—Stoney Creek"
          }
        ],
        "pollDivisionIds": [
          10138661
        ],
        "postalCode": "L8G1C4",
        "streetName": "HWY 8",
        "streetDirectionId": null,
        "streetTypeId": null,
        "placeName": "STONEY CREEK",
        "streetNameDisplayText": "HWY 8, STONEY CREEK"
      }
    ]
  },
  {
    "postal": "L8G8W5",
    "result": []
  },
  {
    "postal": "L8G1Y4",
    "result": [
      {
        "electoralDistricts": [
          {
            "election": null,
            "id": 37,
            "name": "Hamilton East—Stoney Creek"
          }
        ],
        "pollDivisionIds": [
          10138657
        ],
        "postalCode": "L8G1Y4",
        "streetName": "FIRST",
        "streetDirectionId": "N",
        "streetTypeId": "ST",
        "placeName": "STONEY CREEK",
        "streetNameDisplayText": "FIRST ST N, STONEY CREEK"
      }
    ]
  },
  {
    "postal": "L8G1C0",
    "result": []
  },
  {
    "postal": "L8G2J2",
    "result": [
      {
        "electoralDistricts": [
          {
            "election": null,
            "id": 37,
            "name": "Hamilton East—Stoney Creek"
          }
        ],
        "pollDivisionIds": [
          10138657
        ],
        "postalCode": "L8G2J2",
        "streetName": "VILLAGE GREEN",
        "streetDirectionId": null,
        "streetTypeId": "GREEN",
        "placeName": "STONEY CREEK",
        "streetNameDisplayText": "VILLAGE GREEN GREEN, STONEY CREEK"
      },
      {
        "electoralDistricts": [
          {
            "election": null,
            "id": 37,
            "name": "Hamilton East—Stoney Creek"
          }
        ],
        "pollDivisionIds": [
          10138657
        ],
        "postalCode": "L8G2J2",
        "streetName": "VILLAGE",
        "streetDirectionId": null,
        "streetTypeId": "GREEN",
        "placeName": "STONEY CREEK",
        "streetNameDisplayText": "VILLAGE GREEN, STONEY CREEK"
      }
    ]
  },
  {
    "postal": "L8G2J0",
    "result": []
  },
  {
    "postal": "L8G7A3",
    "result": []
  },
  {
    "postal": "L8G8M1",
    "result": []
  },
  {
    "postal": "L8G7T9",
    "result": []
  },
  {
    "postal": "L8G6C0",
    "result": []
  },
  {
    "postal": "L8G7X1",
    "result": []
  },
  {
    "postal": "L8G0G1",
    "result": []
  },
  {
    "postal": "L8G4X2",
    "result": [
      {
        "electoralDistricts": [
          {
            "election": null,
            "id": 37,
            "name": "Hamilton East—Stoney Creek"
          }
        ],
        "pollDivisionIds": [
          10138656
        ],
        "postalCode": "L8G4X2",
        "streetName": "CHERRYRIDGE",
        "streetDirectionId": null,
        "streetTypeId": "CLOSE",
        "placeName": "HAMILTON",
        "streetNameDisplayText": "CHERRYRIDGE CLOSE, HAMILTON"
      }
    ]
  },
  {
    "postal": "L8G0N6",
    "result": []
  },
  {
    "postal": "L8G8E3",
    "result": []
  },
  {
    "postal": "L8G5S8",
    "result": []
  },
  {
    "postal": "L8G0R0",
    "result": []
  },
  {
    "postal": "L8G6J6",
    "result": []
  },
  {
    "postal": "L8G4B4",
    "result": []
  },
  {
    "postal": "L8G7E3",
    "result": []
  },
  {
    "postal": "L8G3N6",
    "result": [
      {
        "electoralDistricts": [
          {
            "election": null,
            "id": 37,
            "name": "Hamilton East—Stoney Creek"
          }
        ],
        "pollDivisionIds": [
          10138658
        ],
        "postalCode": "L8G3N6",
        "streetName": "MOUNTAIN",
        "streetDirectionId": "N",
        "streetTypeId": "AVE",
        "placeName": "STONEY CREEK",
        "streetNameDisplayText": "MOUNTAIN AVE N, STONEY CREEK"
      }
    ]
  },
  {
    "postal": "L8G3X6",
    "result": []
  },
  {
    "postal": "L8G8L0",
    "result": []
  },
  {
    "postal": "L8G8N1",
    "result": []
  },
  {
    "postal": "L8G4J0",
    "result": []
  },
  {
    "postal": "L8G0X7",
    "result": []
  },
  {
    "postal": "L8G6S4",
    "result": []
  },
  {
    "postal": "L8G0Z0",
    "result": []
  },
  {
    "postal": "L8G9X8",
    "result": []
  },
  {
    "postal": "L8G3H3",
    "result": [
      {
        "electoralDistricts": [
          {
            "election": null,
            "id": 37,
            "name": "Hamilton East—Stoney Creek"
          }
        ],
        "pollDivisionIds": [
          10138667
        ],
        "postalCode": "L8G3H3",
        "streetName": "BURT",
        "streetDirectionId": null,
        "streetTypeId": "CRT",
        "placeName": "STONEY CREEK",
        "streetNameDisplayText": "BURT CRT, STONEY CREEK"
      }
    ]
  },
  {
    "postal": "L8G7S2",
    "result": []
  },
  {
    "postal": "L8G3T3",
    "result": [
      {
        "electoralDistricts": [
          {
            "election": null,
            "id": 37,
            "name": "Hamilton East—Stoney Creek"
          }
        ],
        "pollDivisionIds": [
          10138660
        ],
        "postalCode": "L8G3T3",
        "streetName": "EVERGREEN",
        "streetDirectionId": null,
        "streetTypeId": "AVE",
        "placeName": "STONEY CREEK",
        "streetNameDisplayText": "EVERGREEN AVE, STONEY CREEK"
      }
    ]
  },
  {
    "postal": "L8G9P3",
    "result": []
  },
  {
    "postal": "L8G4H8",
    "result": [
      {
        "electoralDistricts": [
          {
            "election": null,
            "id": 37,
            "name": "Hamilton East—Stoney Creek"
          }
        ],
        "pollDivisionIds": [
          10138668
        ],
        "postalCode": "L8G4H8",
        "streetName": "HERITAGE",
        "streetDirectionId": null,
        "streetTypeId": "DR",
        "placeName": "STONEY CREEK",
        "streetNameDisplayText": "HERITAGE DR, STONEY CREEK"
      }
    ]
  },
  {
    "postal": "L8G6R1",
    "result": []
  },
  {
    "postal": "L8G1S0",
    "result": []
  },
  {
    "postal": "L8G3W8",
    "result": [
      {
        "electoralDistricts": [
          {
            "election": null,
            "id": 37,
            "name": "Hamilton East—Stoney Creek"
          }
        ],
        "pollDivisionIds": [
          10138660
        ],
        "postalCode": "L8G3W8",
        "streetName": "ELVIA",
        "streetDirectionId": null,
        "streetTypeId": "CRT",
        "placeName": "STONEY CREEK",
        "streetNameDisplayText": "ELVIA CRT, STONEY CREEK"
      }
    ]
  },
  {
    "postal": "L8G4S3",
    "result": []
  },
  {
    "postal": "L8G1B6",
    "result": [
      {
        "electoralDistricts": [
          {
            "election": null,
            "id": 37,
            "name": "Hamilton East—Stoney Creek"
          }
        ],
        "pollDivisionIds": [
          10138649
        ],
        "postalCode": "L8G1B6",
        "streetName": "QUEENSTON",
        "streetDirectionId": null,
        "streetTypeId": "RD",
        "placeName": "STONEY CREEK",
        "streetNameDisplayText": "QUEENSTON RD, STONEY CREEK"
      }
    ]
  },
  {
    "postal": "L8G8R3",
    "result": []
  },
  {
    "postal": "L8G4V9",
    "result": [
      {
        "electoralDistricts": [
          {
            "election": null,
            "id": 37,
            "name": "Hamilton East—Stoney Creek"
          }
        ],
        "pollDivisionIds": [
          10138667
        ],
        "postalCode": "L8G4V9",
        "streetName": "BEN TIRRAN",
        "streetDirectionId": null,
        "streetTypeId": "CRES",
        "placeName": "STONEY CREEK",
        "streetNameDisplayText": "BEN TIRRAN CRES, STONEY CREEK"
      }
    ]
  },
  {
    "postal": "L8G9W4",
    "result": []
  },
  {
    "postal": "L8G3T4",
    "result": [
      {
        "electoralDistricts": [
          {
            "election": null,
            "id": 37,
            "name": "Hamilton East—Stoney Creek"
          }
        ],
        "pollDivisionIds": [
          10138658
        ],
        "postalCode": "L8G3T4",
        "streetName": "EVERGREEN",
        "streetDirectionId": null,
        "streetTypeId": "AVE",
        "placeName": "STONEY CREEK",
        "streetNameDisplayText": "EVERGREEN AVE, STONEY CREEK"
      }
    ]
  },
  {
    "postal": "L8G5C7",
    "result": [
      {
        "electoralDistricts": [
          {
            "election": null,
            "id": 37,
            "name": "Hamilton East—Stoney Creek"
          }
        ],
        "pollDivisionIds": [
          10138668
        ],
        "postalCode": "L8G5C7",
        "streetName": "DYNASTY",
        "streetDirectionId": null,
        "streetTypeId": "AVE",
        "placeName": "STONEY CREEK",
        "streetNameDisplayText": "DYNASTY AVE, STONEY CREEK"
      }
    ]
  },
  {
    "postal": "L8G3Y1",
    "result": []
  },
  {
    "postal": "L8G5V0",
    "result": []
  },
  {
    "postal": "L8G8G8",
    "result": []
  },
  {
    "postal": "L8G8B1",
    "result": []
  },
  {
    "postal": "L8G4P5",
    "result": [
      {
        "electoralDistricts": [
          {
            "election": null,
            "id": 37,
            "name": "Hamilton East—Stoney Creek"
          }
        ],
        "pollDivisionIds": [
          10138668
        ],
        "postalCode": "L8G4P5",
        "streetName": "HERITAGE",
        "streetDirectionId": null,
        "streetTypeId": "DR",
        "placeName": "STONEY CREEK",
        "streetNameDisplayText": "HERITAGE DR, STONEY CREEK"
      }
    ]
  },
  {
    "postal": "L8G7B2",
    "result": []
  },
  {
    "postal": "L8G0R2",
    "result": []
  },
  {
    "postal": "L8G4M4",
    "result": [
      {
        "electoralDistricts": [
          {
            "election": null,
            "id": 37,
            "name": "Hamilton East—Stoney Creek"
          }
        ],
        "pollDivisionIds": [
          10138656
        ],
        "postalCode": "L8G4M4",
        "streetName": "MONTE",
        "streetDirectionId": null,
        "streetTypeId": "DR",
        "placeName": "HAMILTON",
        "streetNameDisplayText": "MONTE DR, HAMILTON"
      }
    ]
  },
  {
    "postal": "L8G7M4",
    "result": []
  },
  {
    "postal": "L8G9S7",
    "result": []
  },
  {
    "postal": "L8G5Z7",
    "result": []
  },
  {
    "postal": "L8G7J7",
    "result": []
  },
  {
    "postal": "L8G8R8",
    "result": []
  },
  {
    "postal": "L8G9X1",
    "result": []
  },
  {
    "postal": "L8G5M9",
    "result": []
  },
  {
    "postal": "L8G9B4",
    "result": []
  },
  {
    "postal": "L8G0L9",
    "result": []
  },
  {
    "postal": "L8G9G4",
    "result": []
  },
  {
    "postal": "L8G1J4",
    "result": [
      {
        "electoralDistricts": [
          {
            "election": null,
            "id": 37,
            "name": "Hamilton East—Stoney Creek"
          }
        ],
        "pollDivisionIds": [
          10138656
        ],
        "postalCode": "L8G1J4",
        "streetName": "KING",
        "streetDirectionId": "E",
        "streetTypeId": "ST",
        "placeName": "HAMILTON",
        "streetNameDisplayText": "KING ST E, HAMILTON"
      }
    ]
  },
  {
    "postal": "L8G0W6",
    "result": []
  }
]
