[
  {
    "postal": "P0Y1A0",
    "result": [
      {
        "electoralDistricts": [
          {
            "election": null,
            "id": 44,
            "name": "Kenora—Rainy River"
          }
        ],
        "pollDivisionIds": [
          10138980
        ],
        "postalCode": "P0Y1A0",
        "streetName": "596",
        "streetDirectionId": null,
        "streetTypeId": "HWY",
        "placeName": "MINAKI",
        "streetNameDisplayText": "596 HWY, MINAKI"
      },
      {
        "electoralDistricts": [
          {
            "election": null,
            "id": 44,
            "name": "Kenora—Rainy River"
          }
        ],
        "pollDivisionIds": [
          10138981
        ],
        "postalCode": "P0Y1A0",
        "streetName": "GUNDY",
        "streetDirectionId": null,
        "streetTypeId": "ST",
        "placeName": "INGOLF",
        "streetNameDisplayText": "GUNDY ST, INGOLF"
      },
      {
        "electoralDistricts": [
          {
            "election": null,
            "id": 44,
            "name": "Kenora—Rainy River"
          }
        ],
        "pollDivisionIds": [
          10138981
        ],
        "postalCode": "P0Y1A0",
        "streetName": "GUNDY TWP",
        "streetDirectionId": null,
        "streetTypeId": null,
        "placeName": "INGOLF",
        "streetNameDisplayText": "GUNDY TWP, INGOLF"
      },
      {
        "electoralDistricts": [
          {
            "election": null,
            "id": 44,
            "name": "Kenora—Rainy River"
          }
        ],
        "pollDivisionIds": [
          10138981
        ],
        "postalCode": "P0Y1A0",
        "streetName": "INGOLF",
        "streetDirectionId": null,
        "streetTypeId": null,
        "placeName": "INGOLF",
        "streetNameDisplayText": "INGOLF, INGOLF"
      },
      {
        "electoralDistricts": [
          {
            "election": null,
            "id": 44,
            "name": "Kenora—Rainy River"
          }
        ],
        "pollDivisionIds": [
          10138981
        ],
        "postalCode": "P0Y1A0",
        "streetName": "LONGPINE LAKE",
        "streetDirectionId": null,
        "streetTypeId": null,
        "placeName": "INGOLF",
        "streetNameDisplayText": "LONGPINE LAKE, INGOLF"
      },
      {
        "electoralDistricts": [
          {
            "election": null,
            "id": 44,
            "name": "Kenora—Rainy River"
          }
        ],
        "pollDivisionIds": [
          10138981
        ],
        "postalCode": "P0Y1A0",
        "streetName": "MACARA LAKE",
        "streetDirectionId": null,
        "streetTypeId": null,
        "placeName": "INGOLF",
        "streetNameDisplayText": "MACARA LAKE, INGOLF"
      }
    ]
  }
]
