[
  {
    "postal": "K1R9J6",
    "result": []
  },
  {
    "postal": "K1R9Z5",
    "result": []
  },
  {
    "postal": "K1R7H8",
    "result": [
      {
        "electoralDistricts": [
          {
            "election": null,
            "id": 78,
            "name": "Ottawa Centre"
          }
        ],
        "pollDivisionIds": [
          10140553
        ],
        "postalCode": "K1R7H8",
        "streetName": "LEBRETON",
        "streetDirectionId": "N",
        "streetTypeId": "ST",
        "placeName": "OTTAWA",
        "streetNameDisplayText": "LEBRETON ST N, OTTAWA"
      }
    ]
  },
  {
    "postal": "K1R0P6",
    "result": []
  },
  {
    "postal": "K1R0S7",
    "result": []
  },
  {
    "postal": "K1R8B9",
    "result": []
  },
  {
    "postal": "K1R2A6",
    "result": []
  },
  {
    "postal": "K1R7V2",
    "result": []
  },
  {
    "postal": "K1R9P4",
    "result": []
  },
  {
    "postal": "K1R6G0",
    "result": []
  },
  {
    "postal": "K1R2K0",
    "result": []
  },
  {
    "postal": "K1R7N6",
    "result": [
      {
        "electoralDistricts": [
          {
            "election": null,
            "id": 78,
            "name": "Ottawa Centre"
          }
        ],
        "pollDivisionIds": [
          10140550
        ],
        "postalCode": "K1R7N6",
        "streetName": "PRESTON",
        "streetDirectionId": null,
        "streetTypeId": "ST",
        "placeName": "OTTAWA",
        "streetNameDisplayText": "PRESTON ST, OTTAWA"
      }
    ]
  },
  {
    "postal": "K1R5R3",
    "result": [
      {
        "electoralDistricts": [
          {
            "election": null,
            "id": 78,
            "name": "Ottawa Centre"
          }
        ],
        "pollDivisionIds": [
          10140559
        ],
        "postalCode": "K1R5R3",
        "streetName": "MCLEOD",
        "streetDirectionId": null,
        "streetTypeId": "ST",
        "placeName": "OTTAWA",
        "streetNameDisplayText": "MCLEOD ST, OTTAWA"
      }
    ]
  },
  {
    "postal": "K1R7K0",
    "result": []
  },
  {
    "postal": "K1R3R2",
    "result": []
  },
  {
    "postal": "K1R0J1",
    "result": []
  },
  {
    "postal": "K1R0B0",
    "result": []
  },
  {
    "postal": "K1R5Z2",
    "result": [
      {
        "electoralDistricts": [
          {
            "election": null,
            "id": 78,
            "name": "Ottawa Centre"
          }
        ],
        "pollDivisionIds": [
          10140549
        ],
        "postalCode": "K1R5Z2",
        "streetName": "BAY",
        "streetDirectionId": null,
        "streetTypeId": "ST",
        "placeName": "OTTAWA",
        "streetNameDisplayText": "BAY ST, OTTAWA"
      }
    ]
  },
  {
    "postal": "K1R7P3",
    "result": [
      {
        "electoralDistricts": [
          {
            "election": null,
            "id": 78,
            "name": "Ottawa Centre"
          }
        ],
        "pollDivisionIds": [
          10140552
        ],
        "postalCode": "K1R7P3",
        "streetName": "PRESTON",
        "streetDirectionId": null,
        "streetTypeId": "ST",
        "placeName": "OTTAWA",
        "streetNameDisplayText": "PRESTON ST, OTTAWA"
      }
    ]
  },
  {
    "postal": "K1R2K3",
    "result": []
  },
  {
    "postal": "K1R7Y6",
    "result": [
      {
        "electoralDistricts": [
          {
            "election": null,
            "id": 78,
            "name": "Ottawa Centre"
          }
        ],
        "pollDivisionIds": [
          10140549
        ],
        "postalCode": "K1R7Y6",
        "streetName": "ALBERT",
        "streetDirectionId": null,
        "streetTypeId": "ST",
        "placeName": "OTTAWA",
        "streetNameDisplayText": "ALBERT ST, OTTAWA"
      }
    ]
  },
  {
    "postal": "K1R1L9",
    "result": []
  },
  {
    "postal": "K1R8T0",
    "result": []
  },
  {
    "postal": "K1R3K8",
    "result": []
  },
  {
    "postal": "K1R5W9",
    "result": [
      {
        "electoralDistricts": [
          {
            "election": null,
            "id": 78,
            "name": "Ottawa Centre"
          }
        ],
        "pollDivisionIds": [
          10140562
        ],
        "postalCode": "K1R5W9",
        "streetName": "LYON",
        "streetDirectionId": "N",
        "streetTypeId": "ST",
        "placeName": "OTTAWA",
        "streetNameDisplayText": "LYON ST N, OTTAWA"
      }
    ]
  },
  {
    "postal": "K1R6T9",
    "result": [
      {
        "electoralDistricts": [
          {
            "election": null,
            "id": 78,
            "name": "Ottawa Centre"
          }
        ],
        "pollDivisionIds": [
          10140552
        ],
        "postalCode": "K1R6T9",
        "streetName": "LAUREL",
        "streetDirectionId": "E",
        "streetTypeId": "ST",
        "placeName": "OTTAWA",
        "streetNameDisplayText": "LAUREL ST E, OTTAWA"
      }
    ]
  },
  {
    "postal": "K1R4H1",
    "result": []
  },
  {
    "postal": "K1R7A2",
    "result": [
      {
        "electoralDistricts": [
          {
            "election": null,
            "id": 78,
            "name": "Ottawa Centre"
          }
        ],
        "pollDivisionIds": [
          10140553
        ],
        "postalCode": "K1R7A2",
        "streetName": "RAYMOND",
        "streetDirectionId": null,
        "streetTypeId": "ST",
        "placeName": "OTTAWA",
        "streetNameDisplayText": "RAYMOND ST, OTTAWA"
      }
    ]
  },
  {
    "postal": "K1R5G0",
    "result": []
  },
  {
    "postal": "K1R8V5",
    "result": []
  },
  {
    "postal": "K1R2Y8",
    "result": []
  },
  {
    "postal": "K1R2B6",
    "result": []
  },
  {
    "postal": "K1R4W8",
    "result": []
  },
  {
    "postal": "K1R8H7",
    "result": []
  },
  {
    "postal": "K1R5P1",
    "result": [
      {
        "electoralDistricts": [
          {
            "election": null,
            "id": 78,
            "name": "Ottawa Centre"
          }
        ],
        "pollDivisionIds": [
          10140559
        ],
        "postalCode": "K1R5P1",
        "streetName": "GLADSTONE",
        "streetDirectionId": null,
        "streetTypeId": "AVE",
        "placeName": "OTTAWA",
        "streetNameDisplayText": "GLADSTONE AVE, OTTAWA"
      }
    ]
  },
  {
    "postal": "K1R2B8",
    "result": []
  },
  {
    "postal": "K1R0P2",
    "result": []
  },
  {
    "postal": "K1R9M1",
    "result": []
  },
  {
    "postal": "K1R3G0",
    "result": []
  },
  {
    "postal": "K1R9Z2",
    "result": []
  },
  {
    "postal": "K1R2A0",
    "result": []
  },
  {
    "postal": "K1R6Y0",
    "result": []
  },
  {
    "postal": "K1R2Z8",
    "result": []
  },
  {
    "postal": "K1R7Y3",
    "result": []
  },
  {
    "postal": "K1R6Z5",
    "result": [
      {
        "electoralDistricts": [
          {
            "election": null,
            "id": 78,
            "name": "Ottawa Centre"
          }
        ],
        "pollDivisionIds": [
          10140553
        ],
        "postalCode": "K1R6Z5",
        "streetName": "ARLINGTON",
        "streetDirectionId": null,
        "streetTypeId": "AVE",
        "placeName": "OTTAWA",
        "streetNameDisplayText": "ARLINGTON AVE, OTTAWA"
      }
    ]
  },
  {
    "postal": "K1R6E0",
    "result": []
  },
  {
    "postal": "K1R9B7",
    "result": []
  },
  {
    "postal": "K1R9S5",
    "result": []
  },
  {
    "postal": "K1R3X3",
    "result": []
  },
  {
    "postal": "K1R7R5",
    "result": [
      {
        "electoralDistricts": [
          {
            "election": null,
            "id": 78,
            "name": "Ottawa Centre"
          }
        ],
        "pollDivisionIds": [
          10140553
        ],
        "postalCode": "K1R7R5",
        "streetName": "PRESTON",
        "streetDirectionId": null,
        "streetTypeId": "ST",
        "placeName": "OTTAWA",
        "streetNameDisplayText": "PRESTON ST, OTTAWA"
      }
    ]
  },
  {
    "postal": "K1R2X3",
    "result": []
  },
  {
    "postal": "K1R8Z9",
    "result": []
  },
  {
    "postal": "K1R0N4",
    "result": []
  },
  {
    "postal": "K1R1K1",
    "result": []
  },
  {
    "postal": "K1R1S3",
    "result": []
  },
  {
    "postal": "K1R6M4",
    "result": [
      {
        "electoralDistricts": [
          {
            "election": null,
            "id": 78,
            "name": "Ottawa Centre"
          }
        ],
        "pollDivisionIds": [
          10140550
        ],
        "postalCode": "K1R6M4",
        "streetName": "PRIMROSE",
        "streetDirectionId": null,
        "streetTypeId": "AVE",
        "placeName": "OTTAWA",
        "streetNameDisplayText": "PRIMROSE AVE, OTTAWA"
      }
    ]
  },
  {
    "postal": "K1R9A9",
    "result": []
  },
  {
    "postal": "K1R9Z9",
    "result": []
  },
  {
    "postal": "K1R6T4",
    "result": [
      {
        "electoralDistricts": [
          {
            "election": null,
            "id": 78,
            "name": "Ottawa Centre"
          }
        ],
        "pollDivisionIds": [
          10140552
        ],
        "postalCode": "K1R6T4",
        "streetName": "ANDERSON",
        "streetDirectionId": null,
        "streetTypeId": "ST",
        "placeName": "OTTAWA",
        "streetNameDisplayText": "ANDERSON ST, OTTAWA"
      }
    ]
  },
  {
    "postal": "K1R0B2",
    "result": [
      {
        "electoralDistricts": [
          {
            "election": null,
            "id": 78,
            "name": "Ottawa Centre"
          }
        ],
        "pollDivisionIds": [
          10140549
        ],
        "postalCode": "K1R0B2",
        "streetName": "SPARKS",
        "streetDirectionId": null,
        "streetTypeId": "ST",
        "placeName": "OTTAWA",
        "streetNameDisplayText": "SPARKS ST, OTTAWA"
      }
    ]
  },
  {
    "postal": "K1R2L9",
    "result": []
  },
  {
    "postal": "K1R8K9",
    "result": []
  },
  {
    "postal": "K1R2H9",
    "result": []
  },
  {
    "postal": "K1R3Z6",
    "result": []
  },
  {
    "postal": "K1R3B0",
    "result": []
  },
  {
    "postal": "K1R2H8",
    "result": []
  },
  {
    "postal": "K1R3X2",
    "result": []
  },
  {
    "postal": "K1R2E9",
    "result": []
  },
  {
    "postal": "K1R9P6",
    "result": []
  },
  {
    "postal": "K1R9E2",
    "result": []
  },
  {
    "postal": "K1R9H2",
    "result": []
  },
  {
    "postal": "K1R1S8",
    "result": []
  },
  {
    "postal": "K1R3M6",
    "result": []
  },
  {
    "postal": "K1R6Z8",
    "result": [
      {
        "electoralDistricts": [
          {
            "election": null,
            "id": 78,
            "name": "Ottawa Centre"
          }
        ],
        "pollDivisionIds": [
          10140553
        ],
        "postalCode": "K1R6Z8",
        "streetName": "ARLINGTON",
        "streetDirectionId": null,
        "streetTypeId": "AVE",
        "placeName": "OTTAWA",
        "streetNameDisplayText": "ARLINGTON AVE, OTTAWA"
      }
    ]
  },
  {
    "postal": "K1R4J2",
    "result": []
  },
  {
    "postal": "K1R9Y1",
    "result": []
  },
  {
    "postal": "K1R8V6",
    "result": []
  },
  {
    "postal": "K1R6B2",
    "result": [
      {
        "electoralDistricts": [
          {
            "election": null,
            "id": 78,
            "name": "Ottawa Centre"
          }
        ],
        "pollDivisionIds": [
          10140559
        ],
        "postalCode": "K1R6B2",
        "streetName": "BAY",
        "streetDirectionId": null,
        "streetTypeId": "ST",
        "placeName": "OTTAWA",
        "streetNameDisplayText": "BAY ST, OTTAWA"
      }
    ]
  },
  {
    "postal": "K1R1P8",
    "result": []
  },
  {
    "postal": "K1R0V8",
    "result": []
  },
  {
    "postal": "K1R4Y0",
    "result": []
  },
  {
    "postal": "K1R2T4",
    "result": []
  },
  {
    "postal": "K1R2S3",
    "result": []
  },
  {
    "postal": "K1R0K0",
    "result": []
  },
  {
    "postal": "K1R5N1",
    "result": [
      {
        "electoralDistricts": [
          {
            "election": null,
            "id": 78,
            "name": "Ottawa Centre"
          }
        ],
        "pollDivisionIds": [
          10140562
        ],
        "postalCode": "K1R5N1",
        "streetName": "FLORENCE",
        "streetDirectionId": null,
        "streetTypeId": "ST",
        "placeName": "OTTAWA",
        "streetNameDisplayText": "FLORENCE ST, OTTAWA"
      }
    ]
  },
  {
    "postal": "K1R7T0",
    "result": []
  },
  {
    "postal": "K1R9N2",
    "result": []
  },
  {
    "postal": "K1R5L1",
    "result": [
      {
        "electoralDistricts": [
          {
            "election": null,
            "id": 78,
            "name": "Ottawa Centre"
          }
        ],
        "pollDivisionIds": [
          10140559
        ],
        "postalCode": "K1R5L1",
        "streetName": "MACLAREN",
        "streetDirectionId": null,
        "streetTypeId": "ST",
        "placeName": "OTTAWA",
        "streetNameDisplayText": "MACLAREN ST, OTTAWA"
      }
    ]
  },
  {
    "postal": "K1R7G5",
    "result": [
      {
        "electoralDistricts": [
          {
            "election": null,
            "id": 78,
            "name": "Ottawa Centre"
          }
        ],
        "pollDivisionIds": [
          10140550
        ],
        "postalCode": "K1R7G5",
        "streetName": "PERKINS",
        "streetDirectionId": null,
        "streetTypeId": "ST",
        "placeName": "OTTAWA",
        "streetNameDisplayText": "PERKINS ST, OTTAWA"
      }
    ]
  },
  {
    "postal": "K1R6K2",
    "result": [
      {
        "electoralDistricts": [
          {
            "election": null,
            "id": 78,
            "name": "Ottawa Centre"
          }
        ],
        "pollDivisionIds": [
          10140559
        ],
        "postalCode": "K1R6K2",
        "streetName": "BRONSON",
        "streetDirectionId": null,
        "streetTypeId": "AVE",
        "placeName": "OTTAWA",
        "streetNameDisplayText": "BRONSON AVE, OTTAWA"
      }
    ]
  },
  {
    "postal": "K1R6P9",
    "result": [
      {
        "electoralDistricts": [
          {
            "election": null,
            "id": 78,
            "name": "Ottawa Centre"
          }
        ],
        "pollDivisionIds": [
          10140552
        ],
        "postalCode": "K1R6P9",
        "streetName": "SOMERSET",
        "streetDirectionId": "W",
        "streetTypeId": "ST",
        "placeName": "OTTAWA",
        "streetNameDisplayText": "SOMERSET ST W, OTTAWA"
      }
    ]
  },
  {
    "postal": "K1R0E6",
    "result": []
  },
  {
    "postal": "K1R8R9",
    "result": []
  },
  {
    "postal": "K1R3G9",
    "result": []
  },
  {
    "postal": "K1R0V7",
    "result": []
  },
  {
    "postal": "K1R2Z1",
    "result": []
  },
  {
    "postal": "K1R7N1",
    "result": [
      {
        "electoralDistricts": [
          {
            "election": null,
            "id": 78,
            "name": "Ottawa Centre"
          }
        ],
        "pollDivisionIds": [
          10140553
        ],
        "postalCode": "K1R7N1",
        "streetName": "ROCHESTER",
        "streetDirectionId": null,
        "streetTypeId": "ST",
        "placeName": "OTTAWA",
        "streetNameDisplayText": "ROCHESTER ST, OTTAWA"
      }
    ]
  },
  {
    "postal": "K1R3C6",
    "result": []
  },
  {
    "postal": "K1R4M1",
    "result": []
  },
  {
    "postal": "K1R9K2",
    "result": []
  },
  {
    "postal": "K1R9S6",
    "result": []
  },
  {
    "postal": "K1R4X1",
    "result": []
  },
  {
    "postal": "K1R8W2",
    "result": []
  },
  {
    "postal": "K1R7N2",
    "result": [
      {
        "electoralDistricts": [
          {
            "election": null,
            "id": 78,
            "name": "Ottawa Centre"
          }
        ],
        "pollDivisionIds": [
          10140553
        ],
        "postalCode": "K1R7N2",
        "streetName": "ROCHESTER",
        "streetDirectionId": null,
        "streetTypeId": "ST",
        "placeName": "OTTAWA",
        "streetNameDisplayText": "ROCHESTER ST, OTTAWA"
      }
    ]
  },
  {
    "postal": "K1R8S3",
    "result": []
  },
  {
    "postal": "K1R4V0",
    "result": []
  },
  {
    "postal": "K1R6W4",
    "result": [
      {
        "electoralDistricts": [
          {
            "election": null,
            "id": 78,
            "name": "Ottawa Centre"
          }
        ],
        "pollDivisionIds": [
          10140553
        ],
        "postalCode": "K1R6W4",
        "streetName": "LARCH",
        "streetDirectionId": null,
        "streetTypeId": "ST",
        "placeName": "OTTAWA",
        "streetNameDisplayText": "LARCH ST, OTTAWA"
      }
    ]
  },
  {
    "postal": "K1R5M1",
    "result": [
      {
        "electoralDistricts": [
          {
            "election": null,
            "id": 78,
            "name": "Ottawa Centre"
          }
        ],
        "pollDivisionIds": [
          10140559
        ],
        "postalCode": "K1R5M1",
        "streetName": "GILMOUR",
        "streetDirectionId": null,
        "streetTypeId": "ST",
        "placeName": "OTTAWA",
        "streetNameDisplayText": "GILMOUR ST, OTTAWA"
      }
    ]
  },
  {
    "postal": "K1R0S4",
    "result": []
  },
  {
    "postal": "K1R5X6",
    "result": [
      {
        "electoralDistricts": [
          {
            "election": null,
            "id": 78,
            "name": "Ottawa Centre"
          }
        ],
        "pollDivisionIds": [
          10140562
        ],
        "postalCode": "K1R5X6",
        "streetName": "LYON",
        "streetDirectionId": "N",
        "streetTypeId": "ST",
        "placeName": "OTTAWA",
        "streetNameDisplayText": "LYON ST N, OTTAWA"
      }
    ]
  },
  {
    "postal": "K1R8L5",
    "result": []
  },
  {
    "postal": "K1R5M8",
    "result": [
      {
        "electoralDistricts": [
          {
            "election": null,
            "id": 78,
            "name": "Ottawa Centre"
          }
        ],
        "pollDivisionIds": [
          10140559
        ],
        "postalCode": "K1R5M8",
        "streetName": "JAMES",
        "streetDirectionId": null,
        "streetTypeId": "ST",
        "placeName": "OTTAWA",
        "streetNameDisplayText": "JAMES ST, OTTAWA"
      }
    ]
  },
  {
    "postal": "K1R2G3",
    "result": []
  },
  {
    "postal": "K1R8E4",
    "result": []
  },
  {
    "postal": "K1R7S9",
    "result": []
  },
  {
    "postal": "K1R1K3",
    "result": []
  },
  {
    "postal": "K1R4E1",
    "result": []
  },
  {
    "postal": "K1R4R2",
    "result": []
  },
  {
    "postal": "K1R6T0",
    "result": []
  },
  {
    "postal": "K1R3K5",
    "result": []
  },
  {
    "postal": "K1R3S3",
    "result": []
  },
  {
    "postal": "K1R3L4",
    "result": []
  },
  {
    "postal": "K1R9Y2",
    "result": []
  },
  {
    "postal": "K1R1E0",
    "result": []
  },
  {
    "postal": "K1R9A4",
    "result": []
  },
  {
    "postal": "K1R1L3",
    "result": []
  },
  {
    "postal": "K1R6N1",
    "result": [
      {
        "electoralDistricts": [
          {
            "election": null,
            "id": 78,
            "name": "Ottawa Centre"
          }
        ],
        "pollDivisionIds": [
          10140550
        ],
        "postalCode": "K1R6N1",
        "streetName": "ELM",
        "streetDirectionId": null,
        "streetTypeId": "ST",
        "placeName": "OTTAWA",
        "streetNameDisplayText": "ELM ST, OTTAWA"
      }
    ]
  },
  {
    "postal": "K1R6G7",
    "result": [
      {
        "electoralDistricts": [
          {
            "election": null,
            "id": 78,
            "name": "Ottawa Centre"
          }
        ],
        "pollDivisionIds": [
          10140549
        ],
        "postalCode": "K1R6G7",
        "streetName": "BRONSON",
        "streetDirectionId": null,
        "streetTypeId": "AVE",
        "placeName": "OTTAWA",
        "streetNameDisplayText": "BRONSON AVE, OTTAWA"
      }
    ]
  },
  {
    "postal": "K1R7W1",
    "result": [
      {
        "electoralDistricts": [
          {
            "election": null,
            "id": 78,
            "name": "Ottawa Centre"
          }
        ],
        "pollDivisionIds": [
          10140550
        ],
        "postalCode": "K1R7W1",
        "streetName": "BOOTH",
        "streetDirectionId": null,
        "streetTypeId": "ST",
        "placeName": "OTTAWA",
        "streetNameDisplayText": "BOOTH ST, OTTAWA"
      }
    ]
  },
  {
    "postal": "K1R4M6",
    "result": []
  },
  {
    "postal": "K1R1K0",
    "result": []
  },
  {
    "postal": "K1R3E2",
    "result": []
  },
  {
    "postal": "K1R5H4",
    "result": [
      {
        "electoralDistricts": [
          {
            "election": null,
            "id": 78,
            "name": "Ottawa Centre"
          }
        ],
        "pollDivisionIds": [
          10140555
        ],
        "postalCode": "K1R5H4",
        "streetName": "LISGAR",
        "streetDirectionId": null,
        "streetTypeId": "ST",
        "placeName": "OTTAWA",
        "streetNameDisplayText": "LISGAR ST, OTTAWA"
      }
    ]
  },
  {
    "postal": "K1R1K7",
    "result": []
  },
  {
    "postal": "K1R0H0",
    "result": []
  },
  {
    "postal": "K1R0J3",
    "result": []
  },
  {
    "postal": "K1R1X6",
    "result": []
  },
  {
    "postal": "K1R2Z6",
    "result": []
  },
  {
    "postal": "K1R4R9",
    "result": []
  },
  {
    "postal": "K1R0W8",
    "result": []
  },
  {
    "postal": "K1R1L4",
    "result": []
  },
  {
    "postal": "K1R0C8",
    "result": []
  },
  {
    "postal": "K1R9X7",
    "result": []
  },
  {
    "postal": "K1R4T1",
    "result": []
  },
  {
    "postal": "K1R0M0",
    "result": []
  },
  {
    "postal": "K1R6A2",
    "result": [
      {
        "electoralDistricts": [
          {
            "election": null,
            "id": 78,
            "name": "Ottawa Centre"
          }
        ],
        "pollDivisionIds": [
          10140559
        ],
        "postalCode": "K1R6A2",
        "streetName": "BAY",
        "streetDirectionId": null,
        "streetTypeId": "ST",
        "placeName": "OTTAWA",
        "streetNameDisplayText": "BAY ST, OTTAWA"
      }
    ]
  },
  {
    "postal": "K1R9S8",
    "result": []
  },
  {
    "postal": "K1R9T4",
    "result": []
  },
  {
    "postal": "K1R9Y4",
    "result": []
  },
  {
    "postal": "K1R6G5",
    "result": [
      {
        "electoralDistricts": [
          {
            "election": null,
            "id": 78,
            "name": "Ottawa Centre"
          }
        ],
        "pollDivisionIds": [
          10140559
        ],
        "postalCode": "K1R6G5",
        "streetName": "PERCY",
        "streetDirectionId": null,
        "streetTypeId": "ST",
        "placeName": "OTTAWA",
        "streetNameDisplayText": "PERCY ST, OTTAWA"
      }
    ]
  },
  {
    "postal": "K1R6H9",
    "result": [
      {
        "electoralDistricts": [
          {
            "election": null,
            "id": 78,
            "name": "Ottawa Centre"
          }
        ],
        "pollDivisionIds": [
          10140550
        ],
        "postalCode": "K1R6H9",
        "streetName": "BRONSON",
        "streetDirectionId": null,
        "streetTypeId": "AVE",
        "placeName": "OTTAWA",
        "streetNameDisplayText": "BRONSON AVE, OTTAWA"
      }
    ]
  },
  {
    "postal": "K1R2P3",
    "result": []
  },
  {
    "postal": "K1R1T6",
    "result": []
  },
  {
    "postal": "K1R4P6",
    "result": []
  },
  {
    "postal": "K1R3K1",
    "result": []
  },
  {
    "postal": "K1R6X4",
    "result": [
      {
        "electoralDistricts": [
          {
            "election": null,
            "id": 78,
            "name": "Ottawa Centre"
          }
        ],
        "pollDivisionIds": [
          10140552
        ],
        "postalCode": "K1R6X4",
        "streetName": "GLADSTONE",
        "streetDirectionId": null,
        "streetTypeId": "AVE",
        "placeName": "OTTAWA",
        "streetNameDisplayText": "GLADSTONE AVE, OTTAWA"
      }
    ]
  },
  {
    "postal": "K1R4M8",
    "result": []
  },
  {
    "postal": "K1R2Y1",
    "result": []
  },
  {
    "postal": "K1R6M1",
    "result": [
      {
        "electoralDistricts": [
          {
            "election": null,
            "id": 78,
            "name": "Ottawa Centre"
          }
        ],
        "pollDivisionIds": [
          10140550
        ],
        "postalCode": "K1R6M1",
        "streetName": "PRIMROSE",
        "streetDirectionId": "E",
        "streetTypeId": "AVE",
        "placeName": "OTTAWA",
        "streetNameDisplayText": "PRIMROSE AVE E, OTTAWA"
      }
    ]
  },
  {
    "postal": "K1R5L8",
    "result": [
      {
        "electoralDistricts": [
          {
            "election": null,
            "id": 78,
            "name": "Ottawa Centre"
          }
        ],
        "pollDivisionIds": [
          10140559
        ],
        "postalCode": "K1R5L8",
        "streetName": "GILMOUR",
        "streetDirectionId": null,
        "streetTypeId": "ST",
        "placeName": "OTTAWA",
        "streetNameDisplayText": "GILMOUR ST, OTTAWA"
      }
    ]
  },
  {
    "postal": "K1R3P6",
    "result": []
  },
  {
    "postal": "K1R9A5",
    "result": []
  },
  {
    "postal": "K1R7K1",
    "result": [
      {
        "electoralDistricts": [
          {
            "election": null,
            "id": 78,
            "name": "Ottawa Centre"
          }
        ],
        "pollDivisionIds": [
          10140552
        ],
        "postalCode": "K1R7K1",
        "streetName": "BOOTH",
        "streetDirectionId": null,
        "streetTypeId": "ST",
        "placeName": "OTTAWA",
        "streetNameDisplayText": "BOOTH ST, OTTAWA"
      }
    ]
  },
  {
    "postal": "K1R3J4",
    "result": []
  },
  {
    "postal": "K1R5E7",
    "result": []
  },
  {
    "postal": "K1R3A7",
    "result": []
  },
  {
    "postal": "K1R1B9",
    "result": []
  },
  {
    "postal": "K1R9E8",
    "result": []
  },
  {
    "postal": "K1R1C9",
    "result": [
      {
        "electoralDistricts": [
          {
            "election": null,
            "id": 78,
            "name": "Ottawa Centre"
          }
        ],
        "pollDivisionIds": [
          10140552
        ],
        "postalCode": "K1R1C9",
        "streetName": "CHARISMA",
        "streetDirectionId": null,
        "streetTypeId": "PVT",
        "placeName": "OTTAWA",
        "streetNameDisplayText": "CHARISMA PVT, OTTAWA"
      }
    ]
  },
  {
    "postal": "K1R3B5",
    "result": []
  },
  {
    "postal": "K1R8R0",
    "result": []
  },
  {
    "postal": "K1R3P2",
    "result": []
  },
  {
    "postal": "K1R5V4",
    "result": []
  },
  {
    "postal": "K1R4H0",
    "result": []
  },
  {
    "postal": "K1R4S7",
    "result": []
  },
  {
    "postal": "K1R6C2",
    "result": []
  },
  {
    "postal": "K1R8W3",
    "result": []
  },
  {
    "postal": "K1R4M5",
    "result": []
  },
  {
    "postal": "K1R5T1",
    "result": [
      {
        "electoralDistricts": [
          {
            "election": null,
            "id": 78,
            "name": "Ottawa Centre"
          }
        ],
        "pollDivisionIds": [
          10140559
        ],
        "postalCode": "K1R5T1",
        "streetName": "ARLINGTON",
        "streetDirectionId": null,
        "streetTypeId": "AVE",
        "placeName": "OTTAWA",
        "streetNameDisplayText": "ARLINGTON AVE, OTTAWA"
      }
    ]
  },
  {
    "postal": "K1R3B3",
    "result": []
  },
  {
    "postal": "K1R6C6",
    "result": [
      {
        "electoralDistricts": [
          {
            "election": null,
            "id": 78,
            "name": "Ottawa Centre"
          }
        ],
        "pollDivisionIds": [
          10140555
        ],
        "postalCode": "K1R6C6",
        "streetName": "PERCY",
        "streetDirectionId": null,
        "streetTypeId": "ST",
        "placeName": "OTTAWA",
        "streetNameDisplayText": "PERCY ST, OTTAWA"
      }
    ]
  },
  {
    "postal": "K1R7N8",
    "result": [
      {
        "electoralDistricts": [
          {
            "election": null,
            "id": 78,
            "name": "Ottawa Centre"
          }
        ],
        "pollDivisionIds": [
          10140550
        ],
        "postalCode": "K1R7N8",
        "streetName": "PRESTON",
        "streetDirectionId": null,
        "streetTypeId": "ST",
        "placeName": "OTTAWA",
        "streetNameDisplayText": "PRESTON ST, OTTAWA"
      }
    ]
  },
  {
    "postal": "K1R2Y3",
    "result": []
  },
  {
    "postal": "K1R2R6",
    "result": []
  },
  {
    "postal": "K1R7N3",
    "result": [
      {
        "electoralDistricts": [
          {
            "election": null,
            "id": 78,
            "name": "Ottawa Centre"
          }
        ],
        "pollDivisionIds": [
          10140553
        ],
        "postalCode": "K1R7N3",
        "streetName": "ROCHESTER",
        "streetDirectionId": null,
        "streetTypeId": "ST",
        "placeName": "OTTAWA",
        "streetNameDisplayText": "ROCHESTER ST, OTTAWA"
      }
    ]
  },
  {
    "postal": "K1R8J2",
    "result": []
  },
  {
    "postal": "K1R6A9",
    "result": [
      {
        "electoralDistricts": [
          {
            "election": null,
            "id": 78,
            "name": "Ottawa Centre"
          }
        ],
        "pollDivisionIds": [
          10140559
        ],
        "postalCode": "K1R6A9",
        "streetName": "BAY",
        "streetDirectionId": null,
        "streetTypeId": "ST",
        "placeName": "OTTAWA",
        "streetNameDisplayText": "BAY ST, OTTAWA"
      }
    ]
  },
  {
    "postal": "K1R3V2",
    "result": []
  },
  {
    "postal": "K1R2N3",
    "result": []
  },
  {
    "postal": "K1R1S5",
    "result": []
  },
  {
    "postal": "K1R4T7",
    "result": []
  },
  {
    "postal": "K1R6Y7",
    "result": [
      {
        "electoralDistricts": [
          {
            "election": null,
            "id": 78,
            "name": "Ottawa Centre"
          }
        ],
        "pollDivisionIds": [
          10140553
        ],
        "postalCode": "K1R6Y7",
        "streetName": "LOUISA",
        "streetDirectionId": null,
        "streetTypeId": "ST",
        "placeName": "OTTAWA",
        "streetNameDisplayText": "LOUISA ST, OTTAWA"
      }
    ]
  },
  {
    "postal": "K1R0W7",
    "result": []
  },
  {
    "postal": "K1R2W9",
    "result": []
  },
  {
    "postal": "K1R8V0",
    "result": []
  },
  {
    "postal": "K1R0H4",
    "result": []
  },
  {
    "postal": "K1R2T1",
    "result": []
  },
  {
    "postal": "K1R1B1",
    "result": [
      {
        "electoralDistricts": [
          {
            "election": null,
            "id": 78,
            "name": "Ottawa Centre"
          }
        ],
        "pollDivisionIds": [
          10140549
        ],
        "postalCode": "K1R1B1",
        "streetName": "ALBERT",
        "streetDirectionId": null,
        "streetTypeId": "ST",
        "placeName": "OTTAWA",
        "streetNameDisplayText": "ALBERT ST, OTTAWA"
      }
    ]
  },
  {
    "postal": "K1R8B6",
    "result": []
  },
  {
    "postal": "K1R6H1",
    "result": [
      {
        "electoralDistricts": [
          {
            "election": null,
            "id": 78,
            "name": "Ottawa Centre"
          }
        ],
        "pollDivisionIds": [
          10140549
        ],
        "postalCode": "K1R6H1",
        "streetName": "BRONSON",
        "streetDirectionId": null,
        "streetTypeId": "AVE",
        "placeName": "OTTAWA",
        "streetNameDisplayText": "BRONSON AVE, OTTAWA"
      }
    ]
  },
  {
    "postal": "K1R8T8",
    "result": []
  },
  {
    "postal": "K1R0T4",
    "result": []
  },
  {
    "postal": "K1R2C4",
    "result": []
  },
  {
    "postal": "K1R8N3",
    "result": []
  },
  {
    "postal": "K1R4L8",
    "result": []
  },
  {
    "postal": "K1R2B5",
    "result": []
  },
  {
    "postal": "K1R3H1",
    "result": []
  },
  {
    "postal": "K1R4Y1",
    "result": []
  },
  {
    "postal": "K1R7E2",
    "result": []
  },
  {
    "postal": "K1R2P5",
    "result": []
  },
  {
    "postal": "K1R8R7",
    "result": []
  },
  {
    "postal": "K1R9P1",
    "result": []
  },
  {
    "postal": "K1R3B8",
    "result": []
  },
  {
    "postal": "K1R3P7",
    "result": []
  },
  {
    "postal": "K1R9B2",
    "result": []
  },
  {
    "postal": "K1R6Z3",
    "result": [
      {
        "electoralDistricts": [
          {
            "election": null,
            "id": 78,
            "name": "Ottawa Centre"
          }
        ],
        "pollDivisionIds": [
          10140553
        ],
        "postalCode": "K1R6Z3",
        "streetName": "ARLINGTON",
        "streetDirectionId": null,
        "streetTypeId": "AVE",
        "placeName": "OTTAWA",
        "streetNameDisplayText": "ARLINGTON AVE, OTTAWA"
      }
    ]
  },
  {
    "postal": "K1R4N5",
    "result": []
  },
  {
    "postal": "K1R8T3",
    "result": []
  },
  {
    "postal": "K1R1V2",
    "result": []
  },
  {
    "postal": "K1R1Y0",
    "result": []
  },
  {
    "postal": "K1R3G6",
    "result": []
  },
  {
    "postal": "K1R3H7",
    "result": []
  },
  {
    "postal": "K1R7X8",
    "result": []
  },
  {
    "postal": "K1R0C7",
    "result": []
  },
  {
    "postal": "K1R0W9",
    "result": []
  },
  {
    "postal": "K1R8E6",
    "result": []
  },
  {
    "postal": "K1R9Z8",
    "result": []
  },
  {
    "postal": "K1R3P4",
    "result": []
  },
  {
    "postal": "K1R6L8",
    "result": []
  },
  {
    "postal": "K1R2R4",
    "result": []
  },
  {
    "postal": "K1R2W1",
    "result": []
  },
  {
    "postal": "K1R9H8",
    "result": []
  },
  {
    "postal": "K1R8X9",
    "result": []
  },
  {
    "postal": "K1R7H4",
    "result": [
      {
        "electoralDistricts": [
          {
            "election": null,
            "id": 78,
            "name": "Ottawa Centre"
          }
        ],
        "pollDivisionIds": [
          10140552
        ],
        "postalCode": "K1R7H4",
        "streetName": "LEBRETON",
        "streetDirectionId": "N",
        "streetTypeId": "ST",
        "placeName": "OTTAWA",
        "streetNameDisplayText": "LEBRETON ST N, OTTAWA"
      }
    ]
  },
  {
    "postal": "K1R3J1",
    "result": []
  },
  {
    "postal": "K1R1P4",
    "result": []
  },
  {
    "postal": "K1R2A3",
    "result": []
  },
  {
    "postal": "K1R0Z1",
    "result": []
  },
  {
    "postal": "K1R1C1",
    "result": []
  },
  {
    "postal": "K1R0H3",
    "result": []
  },
  {
    "postal": "K1R7B0",
    "result": []
  },
  {
    "postal": "K1R5K2",
    "result": [
      {
        "electoralDistricts": [
          {
            "election": null,
            "id": 78,
            "name": "Ottawa Centre"
          }
        ],
        "pollDivisionIds": [
          10140559
        ],
        "postalCode": "K1R5K2",
        "streetName": "SOMERSET",
        "streetDirectionId": "W",
        "streetTypeId": "ST",
        "placeName": "OTTAWA",
        "streetNameDisplayText": "SOMERSET ST W, OTTAWA"
      }
    ]
  },
  {
    "postal": "K1R1E9",
    "result": []
  },
  {
    "postal": "K1R9W7",
    "result": []
  },
  {
    "postal": "K1R5W6",
    "result": [
      {
        "electoralDistricts": [
          {
            "election": null,
            "id": 78,
            "name": "Ottawa Centre"
          }
        ],
        "pollDivisionIds": [
          10140558
        ],
        "postalCode": "K1R5W6",
        "streetName": "LYON",
        "streetDirectionId": "N",
        "streetTypeId": "ST",
        "placeName": "OTTAWA",
        "streetNameDisplayText": "LYON ST N, OTTAWA"
      }
    ]
  },
  {
    "postal": "K1R6S6",
    "result": [
      {
        "electoralDistricts": [
          {
            "election": null,
            "id": 78,
            "name": "Ottawa Centre"
          }
        ],
        "pollDivisionIds": [
          10140552
        ],
        "postalCode": "K1R6S6",
        "streetName": "ECCLES",
        "streetDirectionId": null,
        "streetTypeId": "ST",
        "placeName": "OTTAWA",
        "streetNameDisplayText": "ECCLES ST, OTTAWA"
      }
    ]
  },
  {
    "postal": "K1R2P8",
    "result": []
  },
  {
    "postal": "K1R4P8",
    "result": []
  },
  {
    "postal": "K1R0V9",
    "result": []
  },
  {
    "postal": "K1R5Y2",
    "result": [
      {
        "electoralDistricts": [
          {
            "election": null,
            "id": 78,
            "name": "Ottawa Centre"
          }
        ],
        "pollDivisionIds": [
          10140559
        ],
        "postalCode": "K1R5Y2",
        "streetName": "LYON",
        "streetDirectionId": "N",
        "streetTypeId": "ST",
        "placeName": "OTTAWA",
        "streetNameDisplayText": "LYON ST N, OTTAWA"
      }
    ]
  },
  {
    "postal": "K1R7Z7",
    "result": []
  },
  {
    "postal": "K1R6Y8",
    "result": [
      {
        "electoralDistricts": [
          {
            "election": null,
            "id": 78,
            "name": "Ottawa Centre"
          }
        ],
        "pollDivisionIds": [
          10140553
        ],
        "postalCode": "K1R6Y8",
        "streetName": "LOUISA",
        "streetDirectionId": null,
        "streetTypeId": "ST",
        "placeName": "OTTAWA",
        "streetNameDisplayText": "LOUISA ST, OTTAWA"
      }
    ]
  },
  {
    "postal": "K1R2G7",
    "result": []
  },
  {
    "postal": "K1R8C1",
    "result": []
  },
  {
    "postal": "K1R5C5",
    "result": []
  },
  {
    "postal": "K1R2X8",
    "result": []
  },
  {
    "postal": "K1R1W5",
    "result": []
  },
  {
    "postal": "K1R7G0",
    "result": []
  },
  {
    "postal": "K1R8J8",
    "result": []
  },
  {
    "postal": "K1R3Y0",
    "result": []
  },
  {
    "postal": "K1R9T7",
    "result": []
  },
  {
    "postal": "K1R5P4",
    "result": [
      {
        "electoralDistricts": [
          {
            "election": null,
            "id": 78,
            "name": "Ottawa Centre"
          }
        ],
        "pollDivisionIds": [
          10140567,
          10140559
        ],
        "postalCode": "K1R5P4",
        "streetName": "GLADSTONE",
        "streetDirectionId": null,
        "streetTypeId": "AVE",
        "placeName": "OTTAWA",
        "streetNameDisplayText": "GLADSTONE AVE, OTTAWA"
      },
      {
        "electoralDistricts": [
          {
            "election": null,
            "id": 78,
            "name": "Ottawa Centre"
          }
        ],
        "pollDivisionIds": [
          10140559
        ],
        "postalCode": "K1R5P4",
        "streetName": "GLADSTONE1",
        "streetDirectionId": null,
        "streetTypeId": "AVE",
        "placeName": "OTTAWA",
        "streetNameDisplayText": "GLADSTONE1 AVE, OTTAWA"
      }
    ]
  },
  {
    "postal": "K1R4B0",
    "result": []
  },
  {
    "postal": "K1R9N8",
    "result": []
  },
  {
    "postal": "K1R4A7",
    "result": []
  },
  {
    "postal": "K1R4H9",
    "result": []
  },
  {
    "postal": "K1R6X1",
    "result": [
      {
        "electoralDistricts": [
          {
            "election": null,
            "id": 78,
            "name": "Ottawa Centre"
          }
        ],
        "pollDivisionIds": [
          10140553
        ],
        "postalCode": "K1R6X1",
        "streetName": "BALSAM",
        "streetDirectionId": null,
        "streetTypeId": "ST",
        "placeName": "OTTAWA",
        "streetNameDisplayText": "BALSAM ST, OTTAWA"
      }
    ]
  },
  {
    "postal": "K1R9Y7",
    "result": []
  },
  {
    "postal": "K1R2Y5",
    "result": []
  },
  {
    "postal": "K1R8L7",
    "result": []
  },
  {
    "postal": "K1R2A8",
    "result": []
  },
  {
    "postal": "K1R2K9",
    "result": []
  },
  {
    "postal": "K1R3E5",
    "result": []
  },
  {
    "postal": "K1R8N6",
    "result": []
  },
  {
    "postal": "K1R8J4",
    "result": []
  },
  {
    "postal": "K1R4R7",
    "result": []
  },
  {
    "postal": "K1R9K1",
    "result": []
  },
  {
    "postal": "K1R8E1",
    "result": []
  },
  {
    "postal": "K1R0R1",
    "result": []
  },
  {
    "postal": "K1R4J3",
    "result": []
  },
  {
    "postal": "K1R7E7",
    "result": []
  },
  {
    "postal": "K1R0J0",
    "result": []
  },
  {
    "postal": "K1R7R8",
    "result": []
  },
  {
    "postal": "K1R9X0",
    "result": []
  },
  {
    "postal": "K1R7P6",
    "result": [
      {
        "electoralDistricts": [
          {
            "election": null,
            "id": 78,
            "name": "Ottawa Centre"
          }
        ],
        "pollDivisionIds": [
          10140552
        ],
        "postalCode": "K1R7P6",
        "streetName": "PRESTON",
        "streetDirectionId": null,
        "streetTypeId": "ST",
        "placeName": "OTTAWA",
        "streetNameDisplayText": "PRESTON ST, OTTAWA"
      }
    ]
  },
  {
    "postal": "K1R0R7",
    "result": []
  },
  {
    "postal": "K1R5W1",
    "result": []
  },
  {
    "postal": "K1R0K4",
    "result": []
  },
  {
    "postal": "K1R7N9",
    "result": [
      {
        "electoralDistricts": [
          {
            "election": null,
            "id": 78,
            "name": "Ottawa Centre"
          }
        ],
        "pollDivisionIds": [
          10140550
        ],
        "postalCode": "K1R7N9",
        "streetName": "PRESTON",
        "streetDirectionId": null,
        "streetTypeId": "ST",
        "placeName": "OTTAWA",
        "streetNameDisplayText": "PRESTON ST, OTTAWA"
      }
    ]
  },
  {
    "postal": "K1R1N0",
    "result": []
  },
  {
    "postal": "K1R6P3",
    "result": [
      {
        "electoralDistricts": [
          {
            "election": null,
            "id": 78,
            "name": "Ottawa Centre"
          }
        ],
        "pollDivisionIds": [
          10140550
        ],
        "postalCode": "K1R6P3",
        "streetName": "SOMERSET",
        "streetDirectionId": "W",
        "streetTypeId": "ST",
        "placeName": "OTTAWA",
        "streetNameDisplayText": "SOMERSET ST W, OTTAWA"
      }
    ]
  },
  {
    "postal": "K1R5A1",
    "result": []
  },
  {
    "postal": "K1R9M9",
    "result": []
  },
  {
    "postal": "K1R7T6",
    "result": []
  },
  {
    "postal": "K1R3X0",
    "result": []
  },
  {
    "postal": "K1R2T0",
    "result": []
  },
  {
    "postal": "K1R5X9",
    "result": [
      {
        "electoralDistricts": [
          {
            "election": null,
            "id": 78,
            "name": "Ottawa Centre"
          }
        ],
        "pollDivisionIds": [
          10140559
        ],
        "postalCode": "K1R5X9",
        "streetName": "LYON",
        "streetDirectionId": "N",
        "streetTypeId": "ST",
        "placeName": "OTTAWA",
        "streetNameDisplayText": "LYON ST N, OTTAWA"
      }
    ]
  },
  {
    "postal": "K1R2R3",
    "result": []
  },
  {
    "postal": "K1R5N2",
    "result": [
      {
        "electoralDistricts": [
          {
            "election": null,
            "id": 78,
            "name": "Ottawa Centre"
          }
        ],
        "pollDivisionIds": [
          10140562
        ],
        "postalCode": "K1R5N2",
        "streetName": "FLORENCE",
        "streetDirectionId": null,
        "streetTypeId": "ST",
        "placeName": "OTTAWA",
        "streetNameDisplayText": "FLORENCE ST, OTTAWA"
      }
    ]
  },
  {
    "postal": "K1R4Y7",
    "result": []
  },
  {
    "postal": "K1R7M0",
    "result": []
  },
  {
    "postal": "K1R8P3",
    "result": []
  },
  {
    "postal": "K1R3N3",
    "result": []
  },
  {
    "postal": "K1R7S3",
    "result": [
      {
        "electoralDistricts": [
          {
            "election": null,
            "id": 78,
            "name": "Ottawa Centre"
          }
        ],
        "pollDivisionIds": [
          10140549
        ],
        "postalCode": "K1R7S3",
        "streetName": "SPARKS",
        "streetDirectionId": null,
        "streetTypeId": "ST",
        "placeName": "OTTAWA",
        "streetNameDisplayText": "SPARKS ST, OTTAWA"
      }
    ]
  },
  {
    "postal": "K1R3V9",
    "result": []
  },
  {
    "postal": "K1R9N7",
    "result": []
  },
  {
    "postal": "K1R0G4",
    "result": []
  },
  {
    "postal": "K1R2E2",
    "result": []
  },
  {
    "postal": "K1R7W8",
    "result": [
      {
        "electoralDistricts": [
          {
            "election": null,
            "id": 78,
            "name": "Ottawa Centre"
          }
        ],
        "pollDivisionIds": [
          10140549
        ],
        "postalCode": "K1R7W8",
        "streetName": "BAY",
        "streetDirectionId": null,
        "streetTypeId": "ST",
        "placeName": "OTTAWA",
        "streetNameDisplayText": "BAY ST, OTTAWA"
      }
    ]
  },
  {
    "postal": "K1R7M5",
    "result": [
      {
        "electoralDistricts": [
          {
            "election": null,
            "id": 78,
            "name": "Ottawa Centre"
          }
        ],
        "pollDivisionIds": [
          10140552
        ],
        "postalCode": "K1R7M5",
        "streetName": "ROCHESTER",
        "streetDirectionId": null,
        "streetTypeId": "ST",
        "placeName": "OTTAWA",
        "streetNameDisplayText": "ROCHESTER ST, OTTAWA"
      }
    ]
  },
  {
    "postal": "K1R5W8",
    "result": [
      {
        "electoralDistricts": [
          {
            "election": null,
            "id": 78,
            "name": "Ottawa Centre"
          }
        ],
        "pollDivisionIds": [
          10140562
        ],
        "postalCode": "K1R5W8",
        "streetName": "LYON",
        "streetDirectionId": "N",
        "streetTypeId": "ST",
        "placeName": "OTTAWA",
        "streetNameDisplayText": "LYON ST N, OTTAWA"
      }
    ]
  },
  {
    "postal": "K1R5E5",
    "result": [
      {
        "electoralDistricts": [
          {
            "election": null,
            "id": 78,
            "name": "Ottawa Centre"
          }
        ],
        "pollDivisionIds": [
          10140549
        ],
        "postalCode": "K1R5E5",
        "streetName": "GLOUCESTER",
        "streetDirectionId": null,
        "streetTypeId": "ST",
        "placeName": "OTTAWA",
        "streetNameDisplayText": "GLOUCESTER ST, OTTAWA"
      }
    ]
  },
  {
    "postal": "K1R1P9",
    "result": []
  },
  {
    "postal": "K1R8V8",
    "result": []
  },
  {
    "postal": "K1R9G8",
    "result": []
  },
  {
    "postal": "K1R8H9",
    "result": []
  },
  {
    "postal": "K1R1Z1",
    "result": []
  },
  {
    "postal": "K1R8M3",
    "result": []
  },
  {
    "postal": "K1R5H6",
    "result": [
      {
        "electoralDistricts": [
          {
            "election": null,
            "id": 78,
            "name": "Ottawa Centre"
          }
        ],
        "pollDivisionIds": [
          10140555
        ],
        "postalCode": "K1R5H6",
        "streetName": "LISGAR",
        "streetDirectionId": null,
        "streetTypeId": "ST",
        "placeName": "OTTAWA",
        "streetNameDisplayText": "LISGAR ST, OTTAWA"
      }
    ]
  },
  {
    "postal": "K1R7W7",
    "result": [
      {
        "electoralDistricts": [
          {
            "election": null,
            "id": 78,
            "name": "Ottawa Centre"
          }
        ],
        "pollDivisionIds": [
          10140550
        ],
        "postalCode": "K1R7W7",
        "streetName": "ALBERT",
        "streetDirectionId": null,
        "streetTypeId": "ST",
        "placeName": "OTTAWA",
        "streetNameDisplayText": "ALBERT ST, OTTAWA"
      }
    ]
  },
  {
    "postal": "K1R4L0",
    "result": []
  },
  {
    "postal": "K1R2N1",
    "result": []
  },
  {
    "postal": "K1R2H4",
    "result": []
  },
  {
    "postal": "K1R5C8",
    "result": []
  },
  {
    "postal": "K1R8B0",
    "result": []
  },
  {
    "postal": "K1R1T4",
    "result": []
  },
  {
    "postal": "K1R7N7",
    "result": [
      {
        "electoralDistricts": [
          {
            "election": null,
            "id": 78,
            "name": "Ottawa Centre"
          }
        ],
        "pollDivisionIds": [
          10140550
        ],
        "postalCode": "K1R7N7",
        "streetName": "PRESTON",
        "streetDirectionId": null,
        "streetTypeId": "ST",
        "placeName": "OTTAWA",
        "streetNameDisplayText": "PRESTON ST, OTTAWA"
      }
    ]
  },
  {
    "postal": "K1R4L3",
    "result": []
  },
  {
    "postal": "K1R2N2",
    "result": []
  },
  {
    "postal": "K1R4N8",
    "result": []
  },
  {
    "postal": "K1R3M5",
    "result": []
  },
  {
    "postal": "K1R6H7",
    "result": [
      {
        "electoralDistricts": [
          {
            "election": null,
            "id": 78,
            "name": "Ottawa Centre"
          }
        ],
        "pollDivisionIds": [
          10140555
        ],
        "postalCode": "K1R6H7",
        "streetName": "BRONSON",
        "streetDirectionId": null,
        "streetTypeId": "AVE",
        "placeName": "OTTAWA",
        "streetNameDisplayText": "BRONSON AVE, OTTAWA"
      }
    ]
  },
  {
    "postal": "K1R8Y8",
    "result": []
  },
  {
    "postal": "K1R5R9",
    "result": [
      {
        "electoralDistricts": [
          {
            "election": null,
            "id": 78,
            "name": "Ottawa Centre"
          }
        ],
        "pollDivisionIds": [
          10140559
        ],
        "postalCode": "K1R5R9",
        "streetName": "FLORA",
        "streetDirectionId": null,
        "streetTypeId": "ST",
        "placeName": "OTTAWA",
        "streetNameDisplayText": "FLORA ST, OTTAWA"
      }
    ]
  },
  {
    "postal": "K1R8G3",
    "result": []
  },
  {
    "postal": "K1R4N7",
    "result": []
  },
  {
    "postal": "K1R0B9",
    "result": [
      {
        "electoralDistricts": [
          {
            "election": null,
            "id": 78,
            "name": "Ottawa Centre"
          }
        ],
        "pollDivisionIds": [
          10140552,
          10140553
        ],
        "postalCode": "K1R0B9",
        "streetName": "BELL",
        "streetDirectionId": "N",
        "streetTypeId": "ST",
        "placeName": "OTTAWA",
        "streetNameDisplayText": "BELL ST N, OTTAWA"
      }
    ]
  },
  {
    "postal": "K1R9K7",
    "result": []
  },
  {
    "postal": "K1R9K9",
    "result": []
  },
  {
    "postal": "K1R3Z2",
    "result": []
  },
  {
    "postal": "K1R6W7",
    "result": [
      {
        "electoralDistricts": [
          {
            "election": null,
            "id": 78,
            "name": "Ottawa Centre"
          }
        ],
        "pollDivisionIds": [
          10140553
        ],
        "postalCode": "K1R6W7",
        "streetName": "BALSAM",
        "streetDirectionId": null,
        "streetTypeId": "ST",
        "placeName": "OTTAWA",
        "streetNameDisplayText": "BALSAM ST, OTTAWA"
      }
    ]
  },
  {
    "postal": "K1R0P1",
    "result": []
  },
  {
    "postal": "K1R3A0",
    "result": []
  },
  {
    "postal": "K1R8L9",
    "result": []
  },
  {
    "postal": "K1R6X0",
    "result": []
  },
  {
    "postal": "K1R3E9",
    "result": []
  },
  {
    "postal": "K1R0S5",
    "result": []
  },
  {
    "postal": "K1R1A2",
    "result": [
      {
        "electoralDistricts": [
          {
            "election": null,
            "id": 78,
            "name": "Ottawa Centre"
          }
        ],
        "pollDivisionIds": [
          10140553
        ],
        "postalCode": "K1R1A2",
        "streetName": "RAYMOND",
        "streetDirectionId": null,
        "streetTypeId": "ST",
        "placeName": "OTTAWA",
        "streetNameDisplayText": "RAYMOND ST, OTTAWA"
      }
    ]
  },
  {
    "postal": "K1R5V8",
    "result": []
  },
  {
    "postal": "K1R8C5",
    "result": []
  },
  {
    "postal": "K1R6N0",
    "result": []
  },
  {
    "postal": "K1R9E6",
    "result": []
  },
  {
    "postal": "K1R5J7",
    "result": [
      {
        "electoralDistricts": [
          {
            "election": null,
            "id": 78,
            "name": "Ottawa Centre"
          }
        ],
        "pollDivisionIds": [
          10140558
        ],
        "postalCode": "K1R5J7",
        "streetName": "SOMERSET",
        "streetDirectionId": "W",
        "streetTypeId": "ST",
        "placeName": "OTTAWA",
        "streetNameDisplayText": "SOMERSET ST W, OTTAWA"
      }
    ]
  },
  {
    "postal": "K1R2R2",
    "result": []
  },
  {
    "postal": "K1R0P5",
    "result": []
  },
  {
    "postal": "K1R5A7",
    "result": [
      {
        "electoralDistricts": [
          {
            "election": null,
            "id": 78,
            "name": "Ottawa Centre"
          }
        ],
        "pollDivisionIds": [
          10140549
        ],
        "postalCode": "K1R5A7",
        "streetName": "QUEEN",
        "streetDirectionId": null,
        "streetTypeId": "ST",
        "placeName": "OTTAWA",
        "streetNameDisplayText": "QUEEN ST, OTTAWA"
      }
    ]
  },
  {
    "postal": "K1R1G1",
    "result": []
  },
  {
    "postal": "K1R9R6",
    "result": []
  },
  {
    "postal": "K1R4Z9",
    "result": []
  },
  {
    "postal": "K1R1V5",
    "result": []
  },
  {
    "postal": "K1R9Y5",
    "result": []
  },
  {
    "postal": "K1R1P2",
    "result": []
  },
  {
    "postal": "K1R5X0",
    "result": []
  },
  {
    "postal": "K1R7B8",
    "result": [
      {
        "electoralDistricts": [
          {
            "election": null,
            "id": 78,
            "name": "Ottawa Centre"
          }
        ],
        "pollDivisionIds": [
          10140550
        ],
        "postalCode": "K1R7B8",
        "streetName": "ARTHUR",
        "streetDirectionId": null,
        "streetTypeId": "ST",
        "placeName": "OTTAWA",
        "streetNameDisplayText": "ARTHUR ST, OTTAWA"
      }
    ]
  },
  {
    "postal": "K1R0C6",
    "result": []
  },
  {
    "postal": "K1R6G1",
    "result": [
      {
        "electoralDistricts": [
          {
            "election": null,
            "id": 78,
            "name": "Ottawa Centre"
          }
        ],
        "pollDivisionIds": [
          10140559
        ],
        "postalCode": "K1R6G1",
        "streetName": "PERCY",
        "streetDirectionId": null,
        "streetTypeId": "ST",
        "placeName": "OTTAWA",
        "streetNameDisplayText": "PERCY ST, OTTAWA"
      }
    ]
  },
  {
    "postal": "K1R3K3",
    "result": []
  },
  {
    "postal": "K1R9R0",
    "result": []
  },
  {
    "postal": "K1R4R8",
    "result": []
  },
  {
    "postal": "K1R5P9",
    "result": [
      {
        "electoralDistricts": [
          {
            "election": null,
            "id": 78,
            "name": "Ottawa Centre"
          }
        ],
        "pollDivisionIds": [
          10140559
        ],
        "postalCode": "K1R5P9",
        "streetName": "MCLEOD",
        "streetDirectionId": null,
        "streetTypeId": "ST",
        "placeName": "OTTAWA",
        "streetNameDisplayText": "MCLEOD ST, OTTAWA"
      }
    ]
  },
  {
    "postal": "K1R8N4",
    "result": []
  },
  {
    "postal": "K1R8H4",
    "result": []
  },
  {
    "postal": "K1R4V1",
    "result": []
  },
  {
    "postal": "K1R1K5",
    "result": []
  },
  {
    "postal": "K1R1Z5",
    "result": []
  },
  {
    "postal": "K1R9L9",
    "result": []
  },
  {
    "postal": "K1R5L2",
    "result": [
      {
        "electoralDistricts": [
          {
            "election": null,
            "id": 78,
            "name": "Ottawa Centre"
          }
        ],
        "pollDivisionIds": [
          10140559
        ],
        "postalCode": "K1R5L2",
        "streetName": "MACLAREN",
        "streetDirectionId": null,
        "streetTypeId": "ST",
        "placeName": "OTTAWA",
        "streetNameDisplayText": "MACLAREN ST, OTTAWA"
      }
    ]
  },
  {
    "postal": "K1R0M2",
    "result": []
  },
  {
    "postal": "K1R1K8",
    "result": []
  },
  {
    "postal": "K1R3M7",
    "result": []
  },
  {
    "postal": "K1R1B2",
    "result": []
  },
  {
    "postal": "K1R0H9",
    "result": []
  },
  {
    "postal": "K1R8M4",
    "result": []
  },
  {
    "postal": "K1R2M5",
    "result": []
  },
  {
    "postal": "K1R0T9",
    "result": []
  },
  {
    "postal": "K1R3P1",
    "result": []
  },
  {
    "postal": "K1R1R6",
    "result": []
  },
  {
    "postal": "K1R9V5",
    "result": []
  },
  {
    "postal": "K1R9T0",
    "result": []
  },
  {
    "postal": "K1R0A9",
    "result": [
      {
        "electoralDistricts": [
          {
            "election": null,
            "id": 78,
            "name": "Ottawa Centre"
          }
        ],
        "pollDivisionIds": [
          10140552
        ],
        "postalCode": "K1R0A9",
        "streetName": "CHRISTIE",
        "streetDirectionId": null,
        "streetTypeId": "ST",
        "placeName": "OTTAWA",
        "streetNameDisplayText": "CHRISTIE ST, OTTAWA"
      }
    ]
  },
  {
    "postal": "K1R1M3",
    "result": []
  },
  {
    "postal": "K1R1W8",
    "result": []
  },
  {
    "postal": "K1R9J1",
    "result": []
  },
  {
    "postal": "K1R8N5",
    "result": []
  },
  {
    "postal": "K1R5X1",
    "result": [
      {
        "electoralDistricts": [
          {
            "election": null,
            "id": 78,
            "name": "Ottawa Centre"
          }
        ],
        "pollDivisionIds": [
          10140559
        ],
        "postalCode": "K1R5X1",
        "streetName": "LYON",
        "streetDirectionId": "N",
        "streetTypeId": "ST",
        "placeName": "OTTAWA",
        "streetNameDisplayText": "LYON ST N, OTTAWA"
      }
    ]
  },
  {
    "postal": "K1R6S2",
    "result": [
      {
        "electoralDistricts": [
          {
            "election": null,
            "id": 78,
            "name": "Ottawa Centre"
          }
        ],
        "pollDivisionIds": [
          10140552
        ],
        "postalCode": "K1R6S2",
        "streetName": "ECCLES",
        "streetDirectionId": null,
        "streetTypeId": "ST",
        "placeName": "OTTAWA",
        "streetNameDisplayText": "ECCLES ST, OTTAWA"
      }
    ]
  },
  {
    "postal": "K1R2A2",
    "result": []
  },
  {
    "postal": "K1R6A6",
    "result": [
      {
        "electoralDistricts": [
          {
            "election": null,
            "id": 78,
            "name": "Ottawa Centre"
          }
        ],
        "pollDivisionIds": [
          10140559
        ],
        "postalCode": "K1R6A6",
        "streetName": "BAY",
        "streetDirectionId": null,
        "streetTypeId": "ST",
        "placeName": "OTTAWA",
        "streetNameDisplayText": "BAY ST, OTTAWA"
      }
    ]
  },
  {
    "postal": "K1R0S3",
    "result": []
  },
  {
    "postal": "K1R3E7",
    "result": []
  },
  {
    "postal": "K1R5R7",
    "result": [
      {
        "electoralDistricts": [
          {
            "election": null,
            "id": 78,
            "name": "Ottawa Centre"
          }
        ],
        "pollDivisionIds": [
          10140559
        ],
        "postalCode": "K1R5R7",
        "streetName": "FLORA",
        "streetDirectionId": null,
        "streetTypeId": "ST",
        "placeName": "OTTAWA",
        "streetNameDisplayText": "FLORA ST, OTTAWA"
      }
    ]
  },
  {
    "postal": "K1R3R6",
    "result": []
  },
  {
    "postal": "K1R6K4",
    "result": [
      {
        "electoralDistricts": [
          {
            "election": null,
            "id": 78,
            "name": "Ottawa Centre"
          }
        ],
        "pollDivisionIds": [
          10140549
        ],
        "postalCode": "K1R6K4",
        "streetName": "MIDDLE",
        "streetDirectionId": null,
        "streetTypeId": "ST",
        "placeName": "OTTAWA",
        "streetNameDisplayText": "MIDDLE ST, OTTAWA"
      }
    ]
  },
  {
    "postal": "K1R2W5",
    "result": []
  },
  {
    "postal": "K1R8W4",
    "result": []
  },
  {
    "postal": "K1R9C2",
    "result": []
  },
  {
    "postal": "K1R2C0",
    "result": []
  },
  {
    "postal": "K1R0E1",
    "result": [
      {
        "electoralDistricts": [
          {
            "election": null,
            "id": 78,
            "name": "Ottawa Centre"
          }
        ],
        "pollDivisionIds": [
          10140549
        ],
        "postalCode": "K1R0E1",
        "streetName": "MIWATE",
        "streetDirectionId": null,
        "streetTypeId": "PVT",
        "placeName": "OTTAWA",
        "streetNameDisplayText": "MIWATE PVT, OTTAWA"
      }
    ]
  },
  {
    "postal": "K1R1K9",
    "result": []
  },
  {
    "postal": "K1R1G7",
    "result": []
  },
  {
    "postal": "K1R4E9",
    "result": []
  },
  {
    "postal": "K1R9P0",
    "result": []
  },
  {
    "postal": "K1R5H3",
    "result": [
      {
        "electoralDistricts": [
          {
            "election": null,
            "id": 78,
            "name": "Ottawa Centre"
          }
        ],
        "pollDivisionIds": [
          10140558
        ],
        "postalCode": "K1R5H3",
        "streetName": "LISGAR",
        "streetDirectionId": null,
        "streetTypeId": "ST",
        "placeName": "OTTAWA",
        "streetNameDisplayText": "LISGAR ST, OTTAWA"
      }
    ]
  },
  {
    "postal": "K1R9X6",
    "result": []
  },
  {
    "postal": "K1R5N7",
    "result": [
      {
        "electoralDistricts": [
          {
            "election": null,
            "id": 78,
            "name": "Ottawa Centre"
          }
        ],
        "pollDivisionIds": [
          10140562
        ],
        "postalCode": "K1R5N7",
        "streetName": "GLADSTONE",
        "streetDirectionId": null,
        "streetTypeId": "AVE",
        "placeName": "OTTAWA",
        "streetNameDisplayText": "GLADSTONE AVE, OTTAWA"
      }
    ]
  },
  {
    "postal": "K1R5A6",
    "result": [
      {
        "electoralDistricts": [
          {
            "election": null,
            "id": 78,
            "name": "Ottawa Centre"
          }
        ],
        "pollDivisionIds": [
          10140549
        ],
        "postalCode": "K1R5A6",
        "streetName": "QUEEN",
        "streetDirectionId": null,
        "streetTypeId": "ST",
        "placeName": "OTTAWA",
        "streetNameDisplayText": "QUEEN ST, OTTAWA"
      }
    ]
  },
  {
    "postal": "K1R4M0",
    "result": []
  },
  {
    "postal": "K1R3V6",
    "result": []
  },
  {
    "postal": "K1R1L7",
    "result": []
  },
  {
    "postal": "K1R2P9",
    "result": []
  },
  {
    "postal": "K1R5T4",
    "result": [
      {
        "electoralDistricts": [
          {
            "election": null,
            "id": 78,
            "name": "Ottawa Centre"
          }
        ],
        "pollDivisionIds": [
          10140559
        ],
        "postalCode": "K1R5T4",
        "streetName": "CATHERINE",
        "streetDirectionId": null,
        "streetTypeId": "ST",
        "placeName": "OTTAWA",
        "streetNameDisplayText": "CATHERINE ST, OTTAWA"
      }
    ]
  },
  {
    "postal": "K1R5Z1",
    "result": []
  },
  {
    "postal": "K1R2X0",
    "result": []
  },
  {
    "postal": "K1R6Z2",
    "result": [
      {
        "electoralDistricts": [
          {
            "election": null,
            "id": 78,
            "name": "Ottawa Centre"
          }
        ],
        "pollDivisionIds": [
          10140553
        ],
        "postalCode": "K1R6Z2",
        "streetName": "ARLINGTON",
        "streetDirectionId": null,
        "streetTypeId": "AVE",
        "placeName": "OTTAWA",
        "streetNameDisplayText": "ARLINGTON AVE, OTTAWA"
      }
    ]
  },
  {
    "postal": "K1R0E0",
    "result": []
  },
  {
    "postal": "K1R3Z5",
    "result": []
  },
  {
    "postal": "K1R8H3",
    "result": []
  },
  {
    "postal": "K1R7S6",
    "result": [
      {
        "electoralDistricts": [
          {
            "election": null,
            "id": 78,
            "name": "Ottawa Centre"
          }
        ],
        "pollDivisionIds": [
          10140637
        ],
        "postalCode": "K1R7S6",
        "streetName": "EMPRESS",
        "streetDirectionId": null,
        "streetTypeId": "AVE",
        "placeName": "OTTAWA",
        "streetNameDisplayText": "EMPRESS AVE, OTTAWA"
      }
    ]
  },
  {
    "postal": "K1R4C1",
    "result": []
  },
  {
    "postal": "K1R3K2",
    "result": []
  },
  {
    "postal": "K1R1Y5",
    "result": []
  },
  {
    "postal": "K1R6P6",
    "result": [
      {
        "electoralDistricts": [
          {
            "election": null,
            "id": 78,
            "name": "Ottawa Centre"
          }
        ],
        "pollDivisionIds": [
          10140552
        ],
        "postalCode": "K1R6P6",
        "streetName": "SOMERSET",
        "streetDirectionId": "W",
        "streetTypeId": "ST",
        "placeName": "OTTAWA",
        "streetNameDisplayText": "SOMERSET ST W, OTTAWA"
      }
    ]
  },
  {
    "postal": "K1R3N9",
    "result": []
  },
  {
    "postal": "K1R3W2",
    "result": []
  },
  {
    "postal": "K1R6H8",
    "result": [
      {
        "electoralDistricts": [
          {
            "election": null,
            "id": 78,
            "name": "Ottawa Centre"
          }
        ],
        "pollDivisionIds": [
          10140550
        ],
        "postalCode": "K1R6H8",
        "streetName": "BRONSON",
        "streetDirectionId": null,
        "streetTypeId": "AVE",
        "placeName": "OTTAWA",
        "streetNameDisplayText": "BRONSON AVE, OTTAWA"
      }
    ]
  },
  {
    "postal": "K1R9T3",
    "result": []
  },
  {
    "postal": "K1R5L9",
    "result": [
      {
        "electoralDistricts": [
          {
            "election": null,
            "id": 78,
            "name": "Ottawa Centre"
          }
        ],
        "pollDivisionIds": [
          10140559
        ],
        "postalCode": "K1R5L9",
        "streetName": "GILMOUR",
        "streetDirectionId": null,
        "streetTypeId": "ST",
        "placeName": "OTTAWA",
        "streetNameDisplayText": "GILMOUR ST, OTTAWA"
      }
    ]
  },
  {
    "postal": "K1R7X7",
    "result": [
      {
        "electoralDistricts": [
          {
            "election": null,
            "id": 78,
            "name": "Ottawa Centre"
          }
        ],
        "pollDivisionIds": [
          10140549
        ],
        "postalCode": "K1R7X7",
        "streetName": "ALBERT",
        "streetDirectionId": null,
        "streetTypeId": "ST",
        "placeName": "OTTAWA",
        "streetNameDisplayText": "ALBERT ST, OTTAWA"
      }
    ]
  },
  {
    "postal": "K1R3J5",
    "result": []
  },
  {
    "postal": "K1R4J5",
    "result": []
  },
  {
    "postal": "K1R6J2",
    "result": [
      {
        "electoralDistricts": [
          {
            "election": null,
            "id": 78,
            "name": "Ottawa Centre"
          }
        ],
        "pollDivisionIds": [
          10140559
        ],
        "postalCode": "K1R6J2",
        "streetName": "BRONSON",
        "streetDirectionId": null,
        "streetTypeId": "AVE",
        "placeName": "OTTAWA",
        "streetNameDisplayText": "BRONSON AVE, OTTAWA"
      }
    ]
  },
  {
    "postal": "K1R5V6",
    "result": []
  },
  {
    "postal": "K1R3N2",
    "result": []
  },
  {
    "postal": "K1R3B1",
    "result": []
  },
  {
    "postal": "K1R8B5",
    "result": []
  },
  {
    "postal": "K1R0K1",
    "result": []
  },
  {
    "postal": "K1R7M7",
    "result": [
      {
        "electoralDistricts": [
          {
            "election": null,
            "id": 78,
            "name": "Ottawa Centre"
          }
        ],
        "pollDivisionIds": [
          10140552
        ],
        "postalCode": "K1R7M7",
        "streetName": "ROCHESTER",
        "streetDirectionId": null,
        "streetTypeId": "ST",
        "placeName": "OTTAWA",
        "streetNameDisplayText": "ROCHESTER ST, OTTAWA"
      }
    ]
  },
  {
    "postal": "K1R2M2",
    "result": []
  },
  {
    "postal": "K1R9N3",
    "result": []
  },
  {
    "postal": "K1R4Y8",
    "result": []
  },
  {
    "postal": "K1R3V7",
    "result": []
  },
  {
    "postal": "K1R8Z1",
    "result": []
  },
  {
    "postal": "K1R7B3",
    "result": [
      {
        "electoralDistricts": [
          {
            "election": null,
            "id": 78,
            "name": "Ottawa Centre"
          }
        ],
        "pollDivisionIds": [
          10140553
        ],
        "postalCode": "K1R7B3",
        "streetName": "CAMBRIDGE",
        "streetDirectionId": "N",
        "streetTypeId": "ST",
        "placeName": "OTTAWA",
        "streetNameDisplayText": "CAMBRIDGE ST N, OTTAWA"
      }
    ]
  },
  {
    "postal": "K1R3A8",
    "result": []
  },
  {
    "postal": "K1R7V5",
    "result": [
      {
        "electoralDistricts": [
          {
            "election": null,
            "id": 78,
            "name": "Ottawa Centre"
          }
        ],
        "pollDivisionIds": [
          10140550
        ],
        "postalCode": "K1R7V5",
        "streetName": "PRIMROSE",
        "streetDirectionId": null,
        "streetTypeId": "AVE",
        "placeName": "OTTAWA",
        "streetNameDisplayText": "PRIMROSE AVE, OTTAWA"
      }
    ]
  },
  {
    "postal": "K1R2T2",
    "result": []
  },
  {
    "postal": "K1R6L3",
    "result": [
      {
        "electoralDistricts": [
          {
            "election": null,
            "id": 78,
            "name": "Ottawa Centre"
          }
        ],
        "pollDivisionIds": [
          10140550
        ],
        "postalCode": "K1R6L3",
        "streetName": "ALBERT",
        "streetDirectionId": null,
        "streetTypeId": "ST",
        "placeName": "OTTAWA",
        "streetNameDisplayText": "ALBERT ST, OTTAWA"
      }
    ]
  },
  {
    "postal": "K1R0L2",
    "result": []
  },
  {
    "postal": "K1R5Y8",
    "result": []
  },
  {
    "postal": "K1R0B8",
    "result": [
      {
        "electoralDistricts": [
          {
            "election": null,
            "id": 78,
            "name": "Ottawa Centre"
          }
        ],
        "pollDivisionIds": [
          10140549
        ],
        "postalCode": "K1R0B8",
        "streetName": "LETT",
        "streetDirectionId": null,
        "streetTypeId": "ST",
        "placeName": "OTTAWA",
        "streetNameDisplayText": "LETT ST, OTTAWA"
      }
    ]
  },
  {
    "postal": "K1R6R5",
    "result": [
      {
        "electoralDistricts": [
          {
            "election": null,
            "id": 78,
            "name": "Ottawa Centre"
          }
        ],
        "pollDivisionIds": [
          10140562,
          10140552,
          10140550
        ],
        "postalCode": "K1R6R5",
        "streetName": "SOMERSET",
        "streetDirectionId": "W",
        "streetTypeId": "ST",
        "placeName": "OTTAWA",
        "streetNameDisplayText": "SOMERSET ST W, OTTAWA"
      }
    ]
  },
  {
    "postal": "K1R8W6",
    "result": []
  },
  {
    "postal": "K1R8G6",
    "result": []
  },
  {
    "postal": "K1R6X3",
    "result": [
      {
        "electoralDistricts": [
          {
            "election": null,
            "id": 78,
            "name": "Ottawa Centre"
          }
        ],
        "pollDivisionIds": [
          10140553
        ],
        "postalCode": "K1R6X3",
        "streetName": "GLADSTONE",
        "streetDirectionId": null,
        "streetTypeId": "AVE",
        "placeName": "OTTAWA",
        "streetNameDisplayText": "GLADSTONE AVE, OTTAWA"
      }
    ]
  },
  {
    "postal": "K1R7R7",
    "result": [
      {
        "electoralDistricts": [
          {
            "election": null,
            "id": 78,
            "name": "Ottawa Centre"
          }
        ],
        "pollDivisionIds": [
          10140550
        ],
        "postalCode": "K1R7R7",
        "streetName": "CITY CENTRE",
        "streetDirectionId": null,
        "streetTypeId": "AVE",
        "placeName": "OTTAWA",
        "streetNameDisplayText": "CITY CENTRE AVE, OTTAWA"
      }
    ]
  },
  {
    "postal": "K1R4B6",
    "result": []
  },
  {
    "postal": "K1R3P9",
    "result": []
  },
  {
    "postal": "K1R2T3",
    "result": []
  },
  {
    "postal": "K1R1M4",
    "result": []
  },
  {
    "postal": "K1R0H1",
    "result": []
  },
  {
    "postal": "K1R9W3",
    "result": []
  },
  {
    "postal": "K1R6P1",
    "result": [
      {
        "electoralDistricts": [
          {
            "election": null,
            "id": 78,
            "name": "Ottawa Centre"
          }
        ],
        "pollDivisionIds": [
          10140550
        ],
        "postalCode": "K1R6P1",
        "streetName": "SPRUCE",
        "streetDirectionId": "W",
        "streetTypeId": "ST",
        "placeName": "OTTAWA",
        "streetNameDisplayText": "SPRUCE ST W, OTTAWA"
      }
    ]
  },
  {
    "postal": "K1R7G2",
    "result": [
      {
        "electoralDistricts": [
          {
            "election": null,
            "id": 78,
            "name": "Ottawa Centre"
          }
        ],
        "pollDivisionIds": [
          10140550
        ],
        "postalCode": "K1R7G2",
        "streetName": "EMPRESS",
        "streetDirectionId": null,
        "streetTypeId": "AVE",
        "placeName": "OTTAWA",
        "streetNameDisplayText": "EMPRESS AVE, OTTAWA"
      }
    ]
  },
  {
    "postal": "K1R4J9",
    "result": []
  },
  {
    "postal": "K1R9E4",
    "result": []
  },
  {
    "postal": "K1R8H0",
    "result": []
  },
  {
    "postal": "K1R4M7",
    "result": []
  },
  {
    "postal": "K1R2G9",
    "result": []
  },
  {
    "postal": "K1R8T2",
    "result": []
  },
  {
    "postal": "K1R7G7",
    "result": [
      {
        "electoralDistricts": [
          {
            "election": null,
            "id": 78,
            "name": "Ottawa Centre"
          }
        ],
        "pollDivisionIds": [
          10140550
        ],
        "postalCode": "K1R7G7",
        "streetName": "LORNE",
        "streetDirectionId": null,
        "streetTypeId": "AVE",
        "placeName": "OTTAWA",
        "streetNameDisplayText": "LORNE AVE, OTTAWA"
      },
      {
        "electoralDistricts": [
          {
            "election": null,
            "id": 78,
            "name": "Ottawa Centre"
          }
        ],
        "pollDivisionIds": [
          10140550
        ],
        "postalCode": "K1R7G7",
        "streetName": "UPPER LORNE",
        "streetDirectionId": null,
        "streetTypeId": "PL",
        "placeName": "OTTAWA",
        "streetNameDisplayText": "UPPER LORNE PL, OTTAWA"
      }
    ]
  },
  {
    "postal": "K1R4Z3",
    "result": []
  },
  {
    "postal": "K1R5B3",
    "result": []
  },
  {
    "postal": "K1R1S7",
    "result": []
  },
  {
    "postal": "K1R2N7",
    "result": []
  },
  {
    "postal": "K1R0H8",
    "result": []
  },
  {
    "postal": "K1R7Z4",
    "result": []
  },
  {
    "postal": "K1R7B1",
    "result": [
      {
        "electoralDistricts": [
          {
            "election": null,
            "id": 78,
            "name": "Ottawa Centre"
          }
        ],
        "pollDivisionIds": [
          10140552
        ],
        "postalCode": "K1R7B1",
        "streetName": "CAMBRIDGE",
        "streetDirectionId": "N",
        "streetTypeId": "ST",
        "placeName": "OTTAWA",
        "streetNameDisplayText": "CAMBRIDGE ST N, OTTAWA"
      },
      {
        "electoralDistricts": [
          {
            "election": null,
            "id": 78,
            "name": "Ottawa Centre"
          }
        ],
        "pollDivisionIds": [
          10140552
        ],
        "postalCode": "K1R7B1",
        "streetName": "CAMBRIDGE ST.",
        "streetDirectionId": "N",
        "streetTypeId": "ST",
        "placeName": "OTTAWA",
        "streetNameDisplayText": "CAMBRIDGE ST. ST N, OTTAWA"
      }
    ]
  },
  {
    "postal": "K1R7P8",
    "result": [
      {
        "electoralDistricts": [
          {
            "election": null,
            "id": 78,
            "name": "Ottawa Centre"
          }
        ],
        "pollDivisionIds": [
          10140552
        ],
        "postalCode": "K1R7P8",
        "streetName": "PRESTON",
        "streetDirectionId": null,
        "streetTypeId": "ST",
        "placeName": "OTTAWA",
        "streetNameDisplayText": "PRESTON ST, OTTAWA"
      }
    ]
  },
  {
    "postal": "K1R7N0",
    "result": []
  },
  {
    "postal": "K1R3Y5",
    "result": []
  },
  {
    "postal": "K1R6K1",
    "result": [
      {
        "electoralDistricts": [
          {
            "election": null,
            "id": 78,
            "name": "Ottawa Centre"
          }
        ],
        "pollDivisionIds": [
          10140559
        ],
        "postalCode": "K1R6K1",
        "streetName": "BRONSON",
        "streetDirectionId": null,
        "streetTypeId": "AVE",
        "placeName": "OTTAWA",
        "streetNameDisplayText": "BRONSON AVE, OTTAWA"
      }
    ]
  },
  {
    "postal": "K1R9X5",
    "result": []
  },
  {
    "postal": "K1R7S5",
    "result": [
      {
        "electoralDistricts": [
          {
            "election": null,
            "id": 78,
            "name": "Ottawa Centre"
          }
        ],
        "pollDivisionIds": [
          10140562
        ],
        "postalCode": "K1R7S5",
        "streetName": "CATHERINE",
        "streetDirectionId": null,
        "streetTypeId": "ST",
        "placeName": "OTTAWA",
        "streetNameDisplayText": "CATHERINE ST, OTTAWA"
      }
    ]
  },
  {
    "postal": "K1R0A4",
    "result": [
      {
        "electoralDistricts": [
          {
            "election": null,
            "id": 78,
            "name": "Ottawa Centre"
          }
        ],
        "pollDivisionIds": [
          10140549
        ],
        "postalCode": "K1R0A4",
        "streetName": "WELLINGTON",
        "streetDirectionId": null,
        "streetTypeId": "ST",
        "placeName": "OTTAWA",
        "streetNameDisplayText": "WELLINGTON ST, OTTAWA"
      }
    ]
  },
  {
    "postal": "K1R4T5",
    "result": []
  },
  {
    "postal": "K1R5K1",
    "result": [
      {
        "electoralDistricts": [
          {
            "election": null,
            "id": 78,
            "name": "Ottawa Centre"
          }
        ],
        "pollDivisionIds": [
          10140555
        ],
        "postalCode": "K1R5K1",
        "streetName": "SOMERSET",
        "streetDirectionId": "W",
        "streetTypeId": "ST",
        "placeName": "OTTAWA",
        "streetNameDisplayText": "SOMERSET ST W, OTTAWA"
      }
    ]
  },
  {
    "postal": "K1R0Z9",
    "result": []
  },
  {
    "postal": "K1R7T2",
    "result": [
      {
        "electoralDistricts": [
          {
            "election": null,
            "id": 78,
            "name": "Ottawa Centre"
          }
        ],
        "pollDivisionIds": [
          10140595,
          10140559
        ],
        "postalCode": "K1R7T2",
        "streetName": "BAY",
        "streetDirectionId": null,
        "streetTypeId": "ST",
        "placeName": "OTTAWA",
        "streetNameDisplayText": "BAY ST, OTTAWA"
      }
    ]
  },
  {
    "postal": "K1R1L5",
    "result": []
  },
  {
    "postal": "K1R3N5",
    "result": []
  },
  {
    "postal": "K1R6H4",
    "result": [
      {
        "electoralDistricts": [
          {
            "election": null,
            "id": 78,
            "name": "Ottawa Centre"
          }
        ],
        "pollDivisionIds": [
          10140555
        ],
        "postalCode": "K1R6H4",
        "streetName": "BRONSON",
        "streetDirectionId": null,
        "streetTypeId": "AVE",
        "placeName": "OTTAWA",
        "streetNameDisplayText": "BRONSON AVE, OTTAWA"
      }
    ]
  },
  {
    "postal": "K1R5A5",
    "result": [
      {
        "electoralDistricts": [
          {
            "election": null,
            "id": 78,
            "name": "Ottawa Centre"
          }
        ],
        "pollDivisionIds": [
          10140549
        ],
        "postalCode": "K1R5A5",
        "streetName": "QUEEN",
        "streetDirectionId": null,
        "streetTypeId": "ST",
        "placeName": "OTTAWA",
        "streetNameDisplayText": "QUEEN ST, OTTAWA"
      }
    ]
  },
  {
    "postal": "K1R3R9",
    "result": []
  },
  {
    "postal": "K1R7L8",
    "result": [
      {
        "electoralDistricts": [
          {
            "election": null,
            "id": 78,
            "name": "Ottawa Centre"
          }
        ],
        "pollDivisionIds": [
          10140550
        ],
        "postalCode": "K1R7L8",
        "streetName": "ROCHESTER",
        "streetDirectionId": null,
        "streetTypeId": "ST",
        "placeName": "OTTAWA",
        "streetNameDisplayText": "ROCHESTER ST, OTTAWA"
      }
    ]
  },
  {
    "postal": "K1R6T6",
    "result": [
      {
        "electoralDistricts": [
          {
            "election": null,
            "id": 78,
            "name": "Ottawa Centre"
          }
        ],
        "pollDivisionIds": [
          10140552
        ],
        "postalCode": "K1R6T6",
        "streetName": "ANDERSON",
        "streetDirectionId": null,
        "streetTypeId": "ST",
        "placeName": "OTTAWA",
        "streetNameDisplayText": "ANDERSON ST, OTTAWA"
      }
    ]
  },
  {
    "postal": "K1R7Y7",
    "result": [
      {
        "electoralDistricts": [
          {
            "election": null,
            "id": 78,
            "name": "Ottawa Centre"
          }
        ],
        "pollDivisionIds": [
          10140549
        ],
        "postalCode": "K1R7Y7",
        "streetName": "LAURIER",
        "streetDirectionId": "W",
        "streetTypeId": "AVE",
        "placeName": "OTTAWA",
        "streetNameDisplayText": "LAURIER AVE W, OTTAWA"
      }
    ]
  },
  {
    "postal": "K1R3M8",
    "result": []
  },
  {
    "postal": "K1R2E0",
    "result": []
  },
  {
    "postal": "K1R4B5",
    "result": []
  },
  {
    "postal": "K1R1J3",
    "result": []
  },
  {
    "postal": "K1R5S6",
    "result": [
      {
        "electoralDistricts": [
          {
            "election": null,
            "id": 78,
            "name": "Ottawa Centre"
          }
        ],
        "pollDivisionIds": [
          10140559
        ],
        "postalCode": "K1R5S6",
        "streetName": "ARLINGTON",
        "streetDirectionId": null,
        "streetTypeId": "AVE",
        "placeName": "OTTAWA",
        "streetNameDisplayText": "ARLINGTON AVE, OTTAWA"
      }
    ]
  },
  {
    "postal": "K1R8P7",
    "result": []
  },
  {
    "postal": "K1R7S7",
    "result": [
      {
        "electoralDistricts": [
          {
            "election": null,
            "id": 78,
            "name": "Ottawa Centre"
          }
        ],
        "pollDivisionIds": [
          10140598
        ],
        "postalCode": "K1R7S7",
        "streetName": "SLATER",
        "streetDirectionId": null,
        "streetTypeId": "AVE",
        "placeName": "OTTAWA",
        "streetNameDisplayText": "SLATER AVE, OTTAWA"
      },
      {
        "electoralDistricts": [
          {
            "election": null,
            "id": 78,
            "name": "Ottawa Centre"
          }
        ],
        "pollDivisionIds": [
          10140598
        ],
        "postalCode": "K1R7S7",
        "streetName": "SLATER",
        "streetDirectionId": null,
        "streetTypeId": "ST",
        "placeName": "OTTAWA",
        "streetNameDisplayText": "SLATER ST, OTTAWA"
      }
    ]
  },
  {
    "postal": "K1R4C2",
    "result": []
  },
  {
    "postal": "K1R5Y0",
    "result": []
  },
  {
    "postal": "K1R2V7",
    "result": []
  },
  {
    "postal": "K1R8P5",
    "result": []
  },
  {
    "postal": "K1R5P5",
    "result": [
      {
        "electoralDistricts": [
          {
            "election": null,
            "id": 78,
            "name": "Ottawa Centre"
          }
        ],
        "pollDivisionIds": [
          10140562
        ],
        "postalCode": "K1R5P5",
        "streetName": "MCLEOD",
        "streetDirectionId": null,
        "streetTypeId": "ST",
        "placeName": "OTTAWA",
        "streetNameDisplayText": "MCLEOD ST, OTTAWA"
      }
    ]
  },
  {
    "postal": "K1R5Z0",
    "result": []
  },
  {
    "postal": "K1R9B0",
    "result": []
  },
  {
    "postal": "K1R1L0",
    "result": []
  },
  {
    "postal": "K1R0B5",
    "result": []
  },
  {
    "postal": "K1R3L2",
    "result": []
  },
  {
    "postal": "K1R3B7",
    "result": []
  },
  {
    "postal": "K1R8L1",
    "result": []
  },
  {
    "postal": "K1R5M4",
    "result": [
      {
        "electoralDistricts": [
          {
            "election": null,
            "id": 78,
            "name": "Ottawa Centre"
          }
        ],
        "pollDivisionIds": [
          10140559
        ],
        "postalCode": "K1R5M4",
        "streetName": "JAMES",
        "streetDirectionId": null,
        "streetTypeId": "ST",
        "placeName": "OTTAWA",
        "streetNameDisplayText": "JAMES ST, OTTAWA"
      }
    ]
  },
  {
    "postal": "K1R4G9",
    "result": []
  },
  {
    "postal": "K1R0P0",
    "result": []
  },
  {
    "postal": "K1R8G2",
    "result": []
  },
  {
    "postal": "K1R1V9",
    "result": []
  },
  {
    "postal": "K1R8N8",
    "result": []
  },
  {
    "postal": "K1R6S8",
    "result": [
      {
        "electoralDistricts": [
          {
            "election": null,
            "id": 78,
            "name": "Ottawa Centre"
          }
        ],
        "pollDivisionIds": [
          10140552
        ],
        "postalCode": "K1R6S8",
        "streetName": "ECCLES",
        "streetDirectionId": null,
        "streetTypeId": "ST",
        "placeName": "OTTAWA",
        "streetNameDisplayText": "ECCLES ST, OTTAWA"
      }
    ]
  },
  {
    "postal": "K1R8H2",
    "result": []
  },
  {
    "postal": "K1R5R8",
    "result": [
      {
        "electoralDistricts": [
          {
            "election": null,
            "id": 78,
            "name": "Ottawa Centre"
          }
        ],
        "pollDivisionIds": [
          10140559
        ],
        "postalCode": "K1R5R8",
        "streetName": "FLORA",
        "streetDirectionId": null,
        "streetTypeId": "ST",
        "placeName": "OTTAWA",
        "streetNameDisplayText": "FLORA ST, OTTAWA"
      }
    ]
  },
  {
    "postal": "K1R5L4",
    "result": [
      {
        "electoralDistricts": [
          {
            "election": null,
            "id": 78,
            "name": "Ottawa Centre"
          }
        ],
        "pollDivisionIds": [
          10140562
        ],
        "postalCode": "K1R5L4",
        "streetName": "GILMOUR",
        "streetDirectionId": null,
        "streetTypeId": "ST",
        "placeName": "OTTAWA",
        "streetNameDisplayText": "GILMOUR ST, OTTAWA"
      }
    ]
  },
  {
    "postal": "K1R9E1",
    "result": []
  },
  {
    "postal": "K1R1C4",
    "result": []
  },
  {
    "postal": "K1R8W5",
    "result": []
  },
  {
    "postal": "K1R1Y4",
    "result": []
  },
  {
    "postal": "K1R1C0",
    "result": []
  },
  {
    "postal": "K1R2J2",
    "result": []
  },
  {
    "postal": "K1R2J0",
    "result": []
  },
  {
    "postal": "K1R7A3",
    "result": [
      {
        "electoralDistricts": [
          {
            "election": null,
            "id": 78,
            "name": "Ottawa Centre"
          }
        ],
        "pollDivisionIds": [
          10140553
        ],
        "postalCode": "K1R7A3",
        "streetName": "RAYMOND",
        "streetDirectionId": null,
        "streetTypeId": "ST",
        "placeName": "OTTAWA",
        "streetNameDisplayText": "RAYMOND ST, OTTAWA"
      }
    ]
  },
  {
    "postal": "K1R8M1",
    "result": []
  },
  {
    "postal": "K1R7T9",
    "result": []
  },
  {
    "postal": "K1R6C0",
    "result": []
  },
  {
    "postal": "K1R7X1",
    "result": [
      {
        "electoralDistricts": [
          {
            "election": null,
            "id": 78,
            "name": "Ottawa Centre"
          }
        ],
        "pollDivisionIds": [
          10140561,
          10140599
        ],
        "postalCode": "K1R7X1",
        "streetName": "LAURIER",
        "streetDirectionId": "W",
        "streetTypeId": "AVE",
        "placeName": "OTTAWA",
        "streetNameDisplayText": "LAURIER AVE W, OTTAWA"
      }
    ]
  },
  {
    "postal": "K1R0G1",
    "result": []
  },
  {
    "postal": "K1R4X2",
    "result": []
  },
  {
    "postal": "K1R0N6",
    "result": []
  },
  {
    "postal": "K1R8E3",
    "result": []
  },
  {
    "postal": "K1R5S8",
    "result": [
      {
        "electoralDistricts": [
          {
            "election": null,
            "id": 78,
            "name": "Ottawa Centre"
          }
        ],
        "pollDivisionIds": [
          10140559
        ],
        "postalCode": "K1R5S8",
        "streetName": "ARLINGTON",
        "streetDirectionId": null,
        "streetTypeId": "AVE",
        "placeName": "OTTAWA",
        "streetNameDisplayText": "ARLINGTON AVE, OTTAWA"
      }
    ]
  },
  {
    "postal": "K1R0R0",
    "result": []
  },
  {
    "postal": "K1R6J6",
    "result": [
      {
        "electoralDistricts": [
          {
            "election": null,
            "id": 78,
            "name": "Ottawa Centre"
          }
        ],
        "pollDivisionIds": [
          10140552
        ],
        "postalCode": "K1R6J6",
        "streetName": "BRONSON",
        "streetDirectionId": null,
        "streetTypeId": "AVE",
        "placeName": "OTTAWA",
        "streetNameDisplayText": "BRONSON AVE, OTTAWA"
      }
    ]
  },
  {
    "postal": "K1R4B4",
    "result": []
  },
  {
    "postal": "K1R7E3",
    "result": []
  },
  {
    "postal": "K1R3N6",
    "result": []
  },
  {
    "postal": "K1R3X6",
    "result": []
  },
  {
    "postal": "K1R8L0",
    "result": []
  },
  {
    "postal": "K1R8N1",
    "result": []
  },
  {
    "postal": "K1R4J0",
    "result": []
  },
  {
    "postal": "K1R0X7",
    "result": []
  },
  {
    "postal": "K1R6S4",
    "result": [
      {
        "electoralDistricts": [
          {
            "election": null,
            "id": 78,
            "name": "Ottawa Centre"
          }
        ],
        "pollDivisionIds": [
          10140552
        ],
        "postalCode": "K1R6S4",
        "streetName": "ECCLES",
        "streetDirectionId": null,
        "streetTypeId": "ST",
        "placeName": "OTTAWA",
        "streetNameDisplayText": "ECCLES ST, OTTAWA"
      }
    ]
  },
  {
    "postal": "K1R0Z0",
    "result": []
  },
  {
    "postal": "K1R9X8",
    "result": []
  },
  {
    "postal": "K1R3H3",
    "result": []
  },
  {
    "postal": "K1R7S2",
    "result": []
  },
  {
    "postal": "K1R3T3",
    "result": []
  },
  {
    "postal": "K1R9P3",
    "result": []
  },
  {
    "postal": "K1R4H8",
    "result": []
  },
  {
    "postal": "K1R6R1",
    "result": [
      {
        "electoralDistricts": [
          {
            "election": null,
            "id": 78,
            "name": "Ottawa Centre"
          }
        ],
        "pollDivisionIds": [
          10140550
        ],
        "postalCode": "K1R6R1",
        "streetName": "SOMERSET",
        "streetDirectionId": "W",
        "streetTypeId": "ST",
        "placeName": "OTTAWA",
        "streetNameDisplayText": "SOMERSET ST W, OTTAWA"
      }
    ]
  },
  {
    "postal": "K1R1S0",
    "result": []
  },
  {
    "postal": "K1R3W8",
    "result": []
  },
  {
    "postal": "K1R4S3",
    "result": []
  },
  {
    "postal": "K1R1B6",
    "result": [
      {
        "electoralDistricts": [
          {
            "election": null,
            "id": 78,
            "name": "Ottawa Centre"
          }
        ],
        "pollDivisionIds": [
          10140555
        ],
        "postalCode": "K1R1B6",
        "streetName": "ACADEMY",
        "streetDirectionId": null,
        "streetTypeId": "PVT",
        "placeName": "OTTAWA",
        "streetNameDisplayText": "ACADEMY PVT, OTTAWA"
      }
    ]
  },
  {
    "postal": "K1R8R3",
    "result": []
  },
  {
    "postal": "K1R4V9",
    "result": []
  },
  {
    "postal": "K1R9W4",
    "result": []
  },
  {
    "postal": "K1R3T4",
    "result": []
  },
  {
    "postal": "K1R5C7",
    "result": [
      {
        "electoralDistricts": [
          {
            "election": null,
            "id": 78,
            "name": "Ottawa Centre"
          }
        ],
        "pollDivisionIds": [
          10140549
        ],
        "postalCode": "K1R5C7",
        "streetName": "LAURIER",
        "streetDirectionId": "W",
        "streetTypeId": "AVE",
        "placeName": "OTTAWA",
        "streetNameDisplayText": "LAURIER AVE W, OTTAWA"
      }
    ]
  },
  {
    "postal": "K1R3Y1",
    "result": []
  },
  {
    "postal": "K1R5V0",
    "result": []
  },
  {
    "postal": "K1R8G8",
    "result": []
  },
  {
    "postal": "K1R8B1",
    "result": []
  },
  {
    "postal": "K1R4P5",
    "result": []
  },
  {
    "postal": "K1R7B2",
    "result": [
      {
        "electoralDistricts": [
          {
            "election": null,
            "id": 78,
            "name": "Ottawa Centre"
          }
        ],
        "pollDivisionIds": [
          10140552
        ],
        "postalCode": "K1R7B2",
        "streetName": "CAMBRIDGE",
        "streetDirectionId": "N",
        "streetTypeId": "ST",
        "placeName": "OTTAWA",
        "streetNameDisplayText": "CAMBRIDGE ST N, OTTAWA"
      }
    ]
  },
  {
    "postal": "K1R0R2",
    "result": []
  },
  {
    "postal": "K1R4M4",
    "result": []
  },
  {
    "postal": "K1R7M4",
    "result": [
      {
        "electoralDistricts": [
          {
            "election": null,
            "id": 78,
            "name": "Ottawa Centre"
          }
        ],
        "pollDivisionIds": [
          10140552
        ],
        "postalCode": "K1R7M4",
        "streetName": "ROCHESTER",
        "streetDirectionId": null,
        "streetTypeId": "ST",
        "placeName": "OTTAWA",
        "streetNameDisplayText": "ROCHESTER ST, OTTAWA"
      }
    ]
  },
  {
    "postal": "K1R9S7",
    "result": []
  },
  {
    "postal": "K1R5Z7",
    "result": [
      {
        "electoralDistricts": [
          {
            "election": null,
            "id": 78,
            "name": "Ottawa Centre"
          }
        ],
        "pollDivisionIds": [
          10140558
        ],
        "postalCode": "K1R5Z7",
        "streetName": "BAY",
        "streetDirectionId": null,
        "streetTypeId": "ST",
        "placeName": "OTTAWA",
        "streetNameDisplayText": "BAY ST, OTTAWA"
      }
    ]
  },
  {
    "postal": "K1R7J7",
    "result": [
      {
        "electoralDistricts": [
          {
            "election": null,
            "id": 78,
            "name": "Ottawa Centre"
          }
        ],
        "pollDivisionIds": [
          10140550
        ],
        "postalCode": "K1R7J7",
        "streetName": "BOOTH",
        "streetDirectionId": null,
        "streetTypeId": "ST",
        "placeName": "OTTAWA",
        "streetNameDisplayText": "BOOTH ST, OTTAWA"
      }
    ]
  },
  {
    "postal": "K1R8R8",
    "result": []
  },
  {
    "postal": "K1R9X1",
    "result": []
  },
  {
    "postal": "K1R5M9",
    "result": [
      {
        "electoralDistricts": [
          {
            "election": null,
            "id": 78,
            "name": "Ottawa Centre"
          }
        ],
        "pollDivisionIds": [
          10140559
        ],
        "postalCode": "K1R5M9",
        "streetName": "JAMES",
        "streetDirectionId": null,
        "streetTypeId": "ST",
        "placeName": "OTTAWA",
        "streetNameDisplayText": "JAMES ST, OTTAWA"
      }
    ]
  },
  {
    "postal": "K1R9B4",
    "result": []
  },
  {
    "postal": "K1R0L9",
    "result": []
  },
  {
    "postal": "K1R9G4",
    "result": []
  },
  {
    "postal": "K1R1J4",
    "result": []
  },
  {
    "postal": "K1R0W6",
    "result": []
  }
]
