[
  {
    "postal": "L9B9J6",
    "result": []
  },
  {
    "postal": "L9B9Z5",
    "result": []
  },
  {
    "postal": "L9B7H8",
    "result": []
  },
  {
    "postal": "L9B0P6",
    "result": []
  },
  {
    "postal": "L9B0S7",
    "result": []
  },
  {
    "postal": "L9B8B9",
    "result": []
  },
  {
    "postal": "L9B2A6",
    "result": [
      {
        "electoralDistricts": [
          {
            "election": null,
            "id": 38,
            "name": "Hamilton Mountain"
          }
        ],
        "pollDivisionIds": [
          10138687
        ],
        "postalCode": "L9B2A6",
        "streetName": "STONE CHURCH",
        "streetDirectionId": "E",
        "streetTypeId": "RD",
        "placeName": "HAMILTON",
        "streetNameDisplayText": "STONE CHURCH RD E, HAMILTON"
      }
    ]
  },
  {
    "postal": "L9B7V2",
    "result": []
  },
  {
    "postal": "L9B9P4",
    "result": []
  },
  {
    "postal": "L9B6G0",
    "result": []
  },
  {
    "postal": "L9B2K0",
    "result": []
  },
  {
    "postal": "L9B7N6",
    "result": []
  },
  {
    "postal": "L9B5R3",
    "result": []
  },
  {
    "postal": "L9B7K0",
    "result": []
  },
  {
    "postal": "L9B3R2",
    "result": []
  },
  {
    "postal": "L9B0J1",
    "result": [
      {
        "electoralDistricts": [
          {
            "election": null,
            "id": 38,
            "name": "Hamilton Mountain"
          }
        ],
        "pollDivisionIds": [
          10138686
        ],
        "postalCode": "L9B0J1",
        "streetName": "CIELO",
        "streetDirectionId": null,
        "streetTypeId": "CRT",
        "placeName": "HAMILTON",
        "streetNameDisplayText": "CIELO CRT, HAMILTON"
      },
      {
        "electoralDistricts": [
          {
            "election": null,
            "id": 38,
            "name": "Hamilton Mountain"
          }
        ],
        "pollDivisionIds": [
          10138686
        ],
        "postalCode": "L9B0J1",
        "streetName": "STELLE",
        "streetDirectionId": null,
        "streetTypeId": "LANE",
        "placeName": "HAMILTON",
        "streetNameDisplayText": "STELLE LANE, HAMILTON"
      }
    ]
  },
  {
    "postal": "L9B0B0",
    "result": []
  },
  {
    "postal": "L9B5Z2",
    "result": []
  },
  {
    "postal": "L9B7P3",
    "result": []
  },
  {
    "postal": "L9B2K3",
    "result": [
      {
        "electoralDistricts": [
          {
            "election": null,
            "id": 39,
            "name": "Hamilton West—Ancaster—Dundas"
          }
        ],
        "pollDivisionIds": [
          10135297
        ],
        "postalCode": "L9B2K3",
        "streetName": "DANSON",
        "streetDirectionId": null,
        "streetTypeId": "DR",
        "placeName": "HAMILTON",
        "streetNameDisplayText": "DANSON DR, HAMILTON"
      },
      {
        "electoralDistricts": [
          {
            "election": null,
            "id": 39,
            "name": "Hamilton West—Ancaster—Dundas"
          }
        ],
        "pollDivisionIds": [
          10135297
        ],
        "postalCode": "L9B2K3",
        "streetName": "DONNICI",
        "streetDirectionId": null,
        "streetTypeId": "DR",
        "placeName": "HAMILTON",
        "streetNameDisplayText": "DONNICI DR, HAMILTON"
      },
      {
        "electoralDistricts": [
          {
            "election": null,
            "id": 39,
            "name": "Hamilton West—Ancaster—Dundas"
          }
        ],
        "pollDivisionIds": [
          10135297
        ],
        "postalCode": "L9B2K3",
        "streetName": "SPADARA",
        "streetDirectionId": null,
        "streetTypeId": "DR",
        "placeName": "HAMILTON",
        "streetNameDisplayText": "SPADARA DR, HAMILTON"
      }
    ]
  },
  {
    "postal": "L9B7Y6",
    "result": []
  },
  {
    "postal": "L9B1L9",
    "result": [
      {
        "electoralDistricts": [
          {
            "election": null,
            "id": 31,
            "name": "Flamborough—Glanbrook"
          }
        ],
        "pollDivisionIds": [
          10138259
        ],
        "postalCode": "L9B1L9",
        "streetName": "SENECA",
        "streetDirectionId": null,
        "streetTypeId": "AVE",
        "placeName": "HAMILTON",
        "streetNameDisplayText": "SENECA AVE, HAMILTON"
      }
    ]
  },
  {
    "postal": "L9B8T0",
    "result": []
  },
  {
    "postal": "L9B3K8",
    "result": []
  },
  {
    "postal": "L9B5W9",
    "result": []
  },
  {
    "postal": "L9B6T9",
    "result": []
  },
  {
    "postal": "L9B4H1",
    "result": []
  },
  {
    "postal": "L9B7A2",
    "result": []
  },
  {
    "postal": "L9B5G0",
    "result": []
  },
  {
    "postal": "L9B8V5",
    "result": []
  },
  {
    "postal": "L9B2Y8",
    "result": []
  },
  {
    "postal": "L9B2B6",
    "result": [
      {
        "electoralDistricts": [
          {
            "election": null,
            "id": 38,
            "name": "Hamilton Mountain"
          }
        ],
        "pollDivisionIds": [
          10138687
        ],
        "postalCode": "L9B2B6",
        "streetName": "DUBLIN",
        "streetDirectionId": null,
        "streetTypeId": "DR",
        "placeName": "HAMILTON",
        "streetNameDisplayText": "DUBLIN DR, HAMILTON"
      }
    ]
  },
  {
    "postal": "L9B4W8",
    "result": []
  },
  {
    "postal": "L9B8H7",
    "result": []
  },
  {
    "postal": "L9B5P1",
    "result": []
  },
  {
    "postal": "L9B2B8",
    "result": [
      {
        "electoralDistricts": [
          {
            "election": null,
            "id": 38,
            "name": "Hamilton Mountain"
          }
        ],
        "pollDivisionIds": [
          10138687
        ],
        "postalCode": "L9B2B8",
        "streetName": "BRIGADE",
        "streetDirectionId": null,
        "streetTypeId": "DR",
        "placeName": "HAMILTON",
        "streetNameDisplayText": "BRIGADE DR, HAMILTON"
      }
    ]
  },
  {
    "postal": "L9B0P2",
    "result": []
  },
  {
    "postal": "L9B9M1",
    "result": []
  },
  {
    "postal": "L9B3G0",
    "result": []
  },
  {
    "postal": "L9B9Z2",
    "result": []
  },
  {
    "postal": "L9B2A0",
    "result": []
  },
  {
    "postal": "L9B6Y0",
    "result": []
  },
  {
    "postal": "L9B2Z8",
    "result": []
  },
  {
    "postal": "L9B7Y3",
    "result": []
  },
  {
    "postal": "L9B6Z5",
    "result": []
  },
  {
    "postal": "L9B6E0",
    "result": []
  },
  {
    "postal": "L9B9B7",
    "result": []
  },
  {
    "postal": "L9B9S5",
    "result": []
  },
  {
    "postal": "L9B3X3",
    "result": []
  },
  {
    "postal": "L9B7R5",
    "result": []
  },
  {
    "postal": "L9B2X3",
    "result": [
      {
        "electoralDistricts": [
          {
            "election": null,
            "id": 38,
            "name": "Hamilton Mountain"
          }
        ],
        "pollDivisionIds": [
          10138686
        ],
        "postalCode": "L9B2X3",
        "streetName": "STONE CHURCH",
        "streetDirectionId": "E",
        "streetTypeId": "RD",
        "placeName": "HAMILTON",
        "streetNameDisplayText": "STONE CHURCH RD E, HAMILTON"
      },
      {
        "electoralDistricts": [
          {
            "election": null,
            "id": 38,
            "name": "Hamilton Mountain"
          }
        ],
        "pollDivisionIds": [
          10138686
        ],
        "postalCode": "L9B2X3",
        "streetName": "STONE CHURCH",
        "streetDirectionId": null,
        "streetTypeId": "RD",
        "placeName": "HAMILTON",
        "streetNameDisplayText": "STONE CHURCH RD, HAMILTON"
      },
      {
        "electoralDistricts": [
          {
            "election": null,
            "id": 38,
            "name": "Hamilton Mountain"
          }
        ],
        "pollDivisionIds": [
          10138686
        ],
        "postalCode": "L9B2X3",
        "streetName": "STONECHURCH",
        "streetDirectionId": "E",
        "streetTypeId": "RD",
        "placeName": "HAMILTON",
        "streetNameDisplayText": "STONECHURCH RD E, HAMILTON"
      }
    ]
  },
  {
    "postal": "L9B8Z9",
    "result": []
  },
  {
    "postal": "L9B0N4",
    "result": []
  },
  {
    "postal": "L9B1K1",
    "result": [
      {
        "electoralDistricts": [
          {
            "election": null,
            "id": 31,
            "name": "Flamborough—Glanbrook"
          }
        ],
        "pollDivisionIds": [
          10138259
        ],
        "postalCode": "L9B1K1",
        "streetName": "CHRISTIE",
        "streetDirectionId": null,
        "streetTypeId": "ST",
        "placeName": "HAMILTON",
        "streetNameDisplayText": "CHRISTIE ST, HAMILTON"
      }
    ]
  },
  {
    "postal": "L9B1S3",
    "result": [
      {
        "electoralDistricts": [
          {
            "election": null,
            "id": 39,
            "name": "Hamilton West—Ancaster—Dundas"
          }
        ],
        "pollDivisionIds": [
          10135297
        ],
        "postalCode": "L9B1S3",
        "streetName": "FALKIRK",
        "streetDirectionId": null,
        "streetTypeId": "DR",
        "placeName": "HAMILTON",
        "streetNameDisplayText": "FALKIRK DR, HAMILTON"
      }
    ]
  },
  {
    "postal": "L9B6M4",
    "result": []
  },
  {
    "postal": "L9B9A9",
    "result": []
  },
  {
    "postal": "L9B9Z9",
    "result": []
  },
  {
    "postal": "L9B6T4",
    "result": []
  },
  {
    "postal": "L9B0B2",
    "result": [
      {
        "electoralDistricts": [
          {
            "election": null,
            "id": 39,
            "name": "Hamilton West—Ancaster—Dundas"
          }
        ],
        "pollDivisionIds": [
          10143849
        ],
        "postalCode": "L9B0B2",
        "streetName": "RYMAL",
        "streetDirectionId": "W",
        "streetTypeId": "RD",
        "placeName": "HAMILTON",
        "streetNameDisplayText": "RYMAL RD W, HAMILTON"
      }
    ]
  },
  {
    "postal": "L9B2L9",
    "result": [
      {
        "electoralDistricts": [
          {
            "election": null,
            "id": 31,
            "name": "Flamborough—Glanbrook"
          }
        ],
        "pollDivisionIds": [
          10138258
        ],
        "postalCode": "L9B2L9",
        "streetName": "FATHER CSILLA",
        "streetDirectionId": null,
        "streetTypeId": "TERR",
        "placeName": "HAMILTON",
        "streetNameDisplayText": "FATHER CSILLA TERR, HAMILTON"
      },
      {
        "electoralDistricts": [
          {
            "election": null,
            "id": 31,
            "name": "Flamborough—Glanbrook"
          }
        ],
        "pollDivisionIds": [
          10138258
        ],
        "postalCode": "L9B2L9",
        "streetName": "LIEUTENANT REPEI",
        "streetDirectionId": null,
        "streetTypeId": "LANE",
        "placeName": "HAMILTON",
        "streetNameDisplayText": "LIEUTENANT REPEI LANE, HAMILTON"
      },
      {
        "electoralDistricts": [
          {
            "election": null,
            "id": 31,
            "name": "Flamborough—Glanbrook"
          }
        ],
        "pollDivisionIds": [
          10138258
        ],
        "postalCode": "L9B2L9",
        "streetName": "SISTER KERN",
        "streetDirectionId": null,
        "streetTypeId": "TERR",
        "placeName": "HAMILTON",
        "streetNameDisplayText": "SISTER KERN TERR, HAMILTON"
      }
    ]
  },
  {
    "postal": "L9B8K9",
    "result": []
  },
  {
    "postal": "L9B2H9",
    "result": [
      {
        "electoralDistricts": [
          {
            "election": null,
            "id": 38,
            "name": "Hamilton Mountain"
          }
        ],
        "pollDivisionIds": [
          10138687
        ],
        "postalCode": "L9B2H9",
        "streetName": "ESSLING",
        "streetDirectionId": null,
        "streetTypeId": "AVE",
        "placeName": "HAMILTON",
        "streetNameDisplayText": "ESSLING AVE, HAMILTON"
      }
    ]
  },
  {
    "postal": "L9B3Z6",
    "result": []
  },
  {
    "postal": "L9B3B0",
    "result": []
  },
  {
    "postal": "L9B2H8",
    "result": [
      {
        "electoralDistricts": [
          {
            "election": null,
            "id": 38,
            "name": "Hamilton Mountain"
          }
        ],
        "pollDivisionIds": [
          10138685
        ],
        "postalCode": "L9B2H8",
        "streetName": "STONE CHURCH",
        "streetDirectionId": "W",
        "streetTypeId": "RD",
        "placeName": "HAMILTON",
        "streetNameDisplayText": "STONE CHURCH RD W, HAMILTON"
      }
    ]
  },
  {
    "postal": "L9B3X2",
    "result": []
  },
  {
    "postal": "L9B2E9",
    "result": [
      {
        "electoralDistricts": [
          {
            "election": null,
            "id": 38,
            "name": "Hamilton Mountain"
          }
        ],
        "pollDivisionIds": [
          10138687
        ],
        "postalCode": "L9B2E9",
        "streetName": "BOURBON",
        "streetDirectionId": null,
        "streetTypeId": "CRT",
        "placeName": "HAMILTON",
        "streetNameDisplayText": "BOURBON CRT, HAMILTON"
      },
      {
        "electoralDistricts": [
          {
            "election": null,
            "id": 38,
            "name": "Hamilton Mountain"
          }
        ],
        "pollDivisionIds": [
          10138687
        ],
        "postalCode": "L9B2E9",
        "streetName": "BRIGADE",
        "streetDirectionId": null,
        "streetTypeId": "DR",
        "placeName": "HAMILTON",
        "streetNameDisplayText": "BRIGADE DR, HAMILTON"
      }
    ]
  },
  {
    "postal": "L9B9P6",
    "result": []
  },
  {
    "postal": "L9B9E2",
    "result": []
  },
  {
    "postal": "L9B9H2",
    "result": []
  },
  {
    "postal": "L9B1S8",
    "result": []
  },
  {
    "postal": "L9B3M6",
    "result": []
  },
  {
    "postal": "L9B6Z8",
    "result": []
  },
  {
    "postal": "L9B4J2",
    "result": []
  },
  {
    "postal": "L9B9Y1",
    "result": []
  },
  {
    "postal": "L9B8V6",
    "result": []
  },
  {
    "postal": "L9B6B2",
    "result": []
  },
  {
    "postal": "L9B1P8",
    "result": [
      {
        "electoralDistricts": [
          {
            "election": null,
            "id": 31,
            "name": "Flamborough—Glanbrook"
          }
        ],
        "pollDivisionIds": [
          10138261
        ],
        "postalCode": "L9B1P8",
        "streetName": "SPRINGSIDE",
        "streetDirectionId": null,
        "streetTypeId": "DR",
        "placeName": "HAMILTON",
        "streetNameDisplayText": "SPRINGSIDE DR, HAMILTON"
      }
    ]
  },
  {
    "postal": "L9B0V8",
    "result": []
  },
  {
    "postal": "L9B4Y0",
    "result": []
  },
  {
    "postal": "L9B2T4",
    "result": [
      {
        "electoralDistricts": [
          {
            "election": null,
            "id": 31,
            "name": "Flamborough—Glanbrook"
          }
        ],
        "pollDivisionIds": [
          10138259
        ],
        "postalCode": "L9B2T4",
        "streetName": "JACQUELINE",
        "streetDirectionId": null,
        "streetTypeId": "BLVD",
        "placeName": "HAMILTON",
        "streetNameDisplayText": "JACQUELINE BLVD, HAMILTON"
      },
      {
        "electoralDistricts": [
          {
            "election": null,
            "id": 31,
            "name": "Flamborough—Glanbrook"
          }
        ],
        "pollDivisionIds": [
          10138259
        ],
        "postalCode": "L9B2T4",
        "streetName": "MEADOWPOINT",
        "streetDirectionId": null,
        "streetTypeId": "DR",
        "placeName": "HAMILTON",
        "streetNameDisplayText": "MEADOWPOINT DR, HAMILTON"
      },
      {
        "electoralDistricts": [
          {
            "election": null,
            "id": 31,
            "name": "Flamborough—Glanbrook"
          }
        ],
        "pollDivisionIds": [
          10138259
        ],
        "postalCode": "L9B2T4",
        "streetName": "PIANO",
        "streetDirectionId": null,
        "streetTypeId": "DR",
        "placeName": "HAMILTON",
        "streetNameDisplayText": "PIANO DR, HAMILTON"
      }
    ]
  },
  {
    "postal": "L9B2S3",
    "result": [
      {
        "electoralDistricts": [
          {
            "election": null,
            "id": 39,
            "name": "Hamilton West—Ancaster—Dundas"
          }
        ],
        "pollDivisionIds": [
          10135297
        ],
        "postalCode": "L9B2S3",
        "streetName": "CLAUDETTE",
        "streetDirectionId": null,
        "streetTypeId": "GATE",
        "placeName": "HAMILTON",
        "streetNameDisplayText": "CLAUDETTE GATE, HAMILTON"
      }
    ]
  },
  {
    "postal": "L9B0K0",
    "result": []
  },
  {
    "postal": "L9B5N1",
    "result": []
  },
  {
    "postal": "L9B7T0",
    "result": []
  },
  {
    "postal": "L9B9N2",
    "result": []
  },
  {
    "postal": "L9B5L1",
    "result": []
  },
  {
    "postal": "L9B7G5",
    "result": []
  },
  {
    "postal": "L9B6K2",
    "result": []
  },
  {
    "postal": "L9B6P9",
    "result": []
  },
  {
    "postal": "L9B0E6",
    "result": [
      {
        "electoralDistricts": [
          {
            "election": null,
            "id": 38,
            "name": "Hamilton Mountain"
          }
        ],
        "pollDivisionIds": [
          10138685
        ],
        "postalCode": "L9B0E6",
        "streetName": "MATTEO",
        "streetDirectionId": null,
        "streetTypeId": "TRAIL",
        "placeName": "HAMILTON",
        "streetNameDisplayText": "MATTEO TRAIL, HAMILTON"
      },
      {
        "electoralDistricts": [
          {
            "election": null,
            "id": 38,
            "name": "Hamilton Mountain"
          }
        ],
        "pollDivisionIds": [
          10138685
        ],
        "postalCode": "L9B0E6",
        "streetName": "MORNING MIST",
        "streetDirectionId": null,
        "streetTypeId": "DR",
        "placeName": "HAMILTON",
        "streetNameDisplayText": "MORNING MIST DR, HAMILTON"
      }
    ]
  },
  {
    "postal": "L9B8R9",
    "result": []
  },
  {
    "postal": "L9B3G9",
    "result": []
  },
  {
    "postal": "L9B0V7",
    "result": []
  },
  {
    "postal": "L9B2Z1",
    "result": []
  },
  {
    "postal": "L9B7N1",
    "result": []
  },
  {
    "postal": "L9B3C6",
    "result": []
  },
  {
    "postal": "L9B4M1",
    "result": []
  },
  {
    "postal": "L9B9K2",
    "result": []
  },
  {
    "postal": "L9B9S6",
    "result": []
  },
  {
    "postal": "L9B4X1",
    "result": []
  },
  {
    "postal": "L9B8W2",
    "result": []
  },
  {
    "postal": "L9B7N2",
    "result": []
  },
  {
    "postal": "L9B8S3",
    "result": []
  },
  {
    "postal": "L9B4V0",
    "result": []
  },
  {
    "postal": "L9B6W4",
    "result": []
  },
  {
    "postal": "L9B5M1",
    "result": []
  },
  {
    "postal": "L9B0S4",
    "result": []
  },
  {
    "postal": "L9B5X6",
    "result": []
  },
  {
    "postal": "L9B8L5",
    "result": []
  },
  {
    "postal": "L9B5M8",
    "result": []
  },
  {
    "postal": "L9B2G3",
    "result": [
      {
        "electoralDistricts": [
          {
            "election": null,
            "id": 38,
            "name": "Hamilton Mountain"
          }
        ],
        "pollDivisionIds": [
          10138704
        ],
        "postalCode": "L9B2G3",
        "streetName": "UPPER WENTWORTH",
        "streetDirectionId": null,
        "streetTypeId": "ST",
        "placeName": "HAMILTON",
        "streetNameDisplayText": "UPPER WENTWORTH ST, HAMILTON"
      }
    ]
  },
  {
    "postal": "L9B8E4",
    "result": []
  },
  {
    "postal": "L9B7S9",
    "result": []
  },
  {
    "postal": "L9B1K3",
    "result": [
      {
        "electoralDistricts": [
          {
            "election": null,
            "id": 31,
            "name": "Flamborough—Glanbrook"
          }
        ],
        "pollDivisionIds": [
          10138241
        ],
        "postalCode": "L9B1K3",
        "streetName": "6",
        "streetDirectionId": null,
        "streetTypeId": "HWY",
        "placeName": "HAMILTON",
        "streetNameDisplayText": "6 HWY, HAMILTON"
      },
      {
        "electoralDistricts": [
          {
            "election": null,
            "id": 38,
            "name": "Hamilton Mountain"
          },
          {
            "election": null,
            "id": 31,
            "name": "Flamborough—Glanbrook"
          }
        ],
        "pollDivisionIds": [
          10138685,
          10138259
        ],
        "postalCode": "L9B1K3",
        "streetName": "UPPER JAMES",
        "streetDirectionId": null,
        "streetTypeId": "ST",
        "placeName": "HAMILTON",
        "streetNameDisplayText": "UPPER JAMES ST, HAMILTON"
      }
    ]
  },
  {
    "postal": "L9B4E1",
    "result": []
  },
  {
    "postal": "L9B4R2",
    "result": []
  },
  {
    "postal": "L9B6T0",
    "result": []
  },
  {
    "postal": "L9B3K5",
    "result": []
  },
  {
    "postal": "L9B3S3",
    "result": []
  },
  {
    "postal": "L9B3L4",
    "result": []
  },
  {
    "postal": "L9B9Y2",
    "result": []
  },
  {
    "postal": "L9B1E0",
    "result": []
  },
  {
    "postal": "L9B9A4",
    "result": []
  },
  {
    "postal": "L9B1L3",
    "result": [
      {
        "electoralDistricts": [
          {
            "election": null,
            "id": 31,
            "name": "Flamborough—Glanbrook"
          }
        ],
        "pollDivisionIds": [
          10138259
        ],
        "postalCode": "L9B1L3",
        "streetName": "ALDERCREST",
        "streetDirectionId": null,
        "streetTypeId": "AVE",
        "placeName": "HAMILTON",
        "streetNameDisplayText": "ALDERCREST AVE, HAMILTON"
      }
    ]
  },
  {
    "postal": "L9B6N1",
    "result": []
  },
  {
    "postal": "L9B6G7",
    "result": []
  },
  {
    "postal": "L9B7W1",
    "result": []
  },
  {
    "postal": "L9B4M6",
    "result": []
  },
  {
    "postal": "L9B1K0",
    "result": []
  },
  {
    "postal": "L9B3E2",
    "result": []
  },
  {
    "postal": "L9B5H4",
    "result": []
  },
  {
    "postal": "L9B1K7",
    "result": [
      {
        "electoralDistricts": [
          {
            "election": null,
            "id": 31,
            "name": "Flamborough—Glanbrook"
          }
        ],
        "pollDivisionIds": [
          10138259
        ],
        "postalCode": "L9B1K7",
        "streetName": "UPPER JAMES",
        "streetDirectionId": null,
        "streetTypeId": "ST",
        "placeName": "HAMILTON",
        "streetNameDisplayText": "UPPER JAMES ST, HAMILTON"
      }
    ]
  },
  {
    "postal": "L9B0H0",
    "result": []
  },
  {
    "postal": "L9B0J3",
    "result": [
      {
        "electoralDistricts": [
          {
            "election": null,
            "id": 38,
            "name": "Hamilton Mountain"
          }
        ],
        "pollDivisionIds": [
          10138685
        ],
        "postalCode": "L9B0J3",
        "streetName": "CARMEL",
        "streetDirectionId": null,
        "streetTypeId": "DR",
        "placeName": "HAMILTON",
        "streetNameDisplayText": "CARMEL DR, HAMILTON"
      },
      {
        "electoralDistricts": [
          {
            "election": null,
            "id": 38,
            "name": "Hamilton Mountain"
          }
        ],
        "pollDivisionIds": [
          10138685
        ],
        "postalCode": "L9B0J3",
        "streetName": "SANTA BARBARA",
        "streetDirectionId": null,
        "streetTypeId": "LANE",
        "placeName": "HAMILTON",
        "streetNameDisplayText": "SANTA BARBARA LANE, HAMILTON"
      },
      {
        "electoralDistricts": [
          {
            "election": null,
            "id": 38,
            "name": "Hamilton Mountain"
          },
          {
            "election": null,
            "id": 39,
            "name": "Hamilton West—Ancaster—Dundas"
          }
        ],
        "pollDivisionIds": [
          10138685,
          10135287,
          10135268
        ],
        "postalCode": "L9B0J3",
        "streetName": "SONOMA VALLEY",
        "streetDirectionId": null,
        "streetTypeId": "CRES",
        "placeName": "HAMILTON",
        "streetNameDisplayText": "SONOMA VALLEY CRES, HAMILTON"
      },
      {
        "electoralDistricts": [
          {
            "election": null,
            "id": 38,
            "name": "Hamilton Mountain"
          }
        ],
        "pollDivisionIds": [
          10138685
        ],
        "postalCode": "L9B0J3",
        "streetName": "WEST 5TH",
        "streetDirectionId": null,
        "streetTypeId": "ST",
        "placeName": "HAMILTON",
        "streetNameDisplayText": "WEST 5TH ST, HAMILTON"
      }
    ]
  },
  {
    "postal": "L9B1X6",
    "result": [
      {
        "electoralDistricts": [
          {
            "election": null,
            "id": 39,
            "name": "Hamilton West—Ancaster—Dundas"
          }
        ],
        "pollDivisionIds": [
          10135297
        ],
        "postalCode": "L9B1X6",
        "streetName": "COURTLAND",
        "streetDirectionId": null,
        "streetTypeId": "AVE",
        "placeName": "HAMILTON",
        "streetNameDisplayText": "COURTLAND AVE, HAMILTON"
      },
      {
        "electoralDistricts": [
          {
            "election": null,
            "id": 39,
            "name": "Hamilton West—Ancaster—Dundas"
          }
        ],
        "pollDivisionIds": [
          10135297
        ],
        "postalCode": "L9B1X6",
        "streetName": "DYDZAK",
        "streetDirectionId": null,
        "streetTypeId": "CRT",
        "placeName": "HAMILTON",
        "streetNameDisplayText": "DYDZAK CRT, HAMILTON"
      }
    ]
  },
  {
    "postal": "L9B2Z6",
    "result": []
  },
  {
    "postal": "L9B4R9",
    "result": []
  },
  {
    "postal": "L9B0W8",
    "result": []
  },
  {
    "postal": "L9B1L4",
    "result": [
      {
        "electoralDistricts": [
          {
            "election": null,
            "id": 31,
            "name": "Flamborough—Glanbrook"
          }
        ],
        "pollDivisionIds": [
          10138259
        ],
        "postalCode": "L9B1L4",
        "streetName": "ALDERCREST",
        "streetDirectionId": null,
        "streetTypeId": "AVE",
        "placeName": "HAMILTON",
        "streetNameDisplayText": "ALDERCREST AVE, HAMILTON"
      }
    ]
  },
  {
    "postal": "L9B0C8",
    "result": [
      {
        "electoralDistricts": [
          {
            "election": null,
            "id": 31,
            "name": "Flamborough—Glanbrook"
          }
        ],
        "pollDivisionIds": [
          10138255
        ],
        "postalCode": "L9B0C8",
        "streetName": "BELLINI",
        "streetDirectionId": null,
        "streetTypeId": "LANE",
        "placeName": "HAMILTON",
        "streetNameDisplayText": "BELLINI LANE, HAMILTON"
      },
      {
        "electoralDistricts": [
          {
            "election": null,
            "id": 31,
            "name": "Flamborough—Glanbrook"
          }
        ],
        "pollDivisionIds": [
          10138255
        ],
        "postalCode": "L9B0C8",
        "streetName": "MEDICI",
        "streetDirectionId": null,
        "streetTypeId": "LANE",
        "placeName": "HAMILTON",
        "streetNameDisplayText": "MEDICI LANE, HAMILTON"
      }
    ]
  },
  {
    "postal": "L9B9X7",
    "result": []
  },
  {
    "postal": "L9B4T1",
    "result": []
  },
  {
    "postal": "L9B0M0",
    "result": []
  },
  {
    "postal": "L9B6A2",
    "result": []
  },
  {
    "postal": "L9B9S8",
    "result": []
  },
  {
    "postal": "L9B9T4",
    "result": []
  },
  {
    "postal": "L9B9Y4",
    "result": []
  },
  {
    "postal": "L9B6G5",
    "result": []
  },
  {
    "postal": "L9B6H9",
    "result": []
  },
  {
    "postal": "L9B2P3",
    "result": [
      {
        "electoralDistricts": [
          {
            "election": null,
            "id": 31,
            "name": "Flamborough—Glanbrook"
          }
        ],
        "pollDivisionIds": [
          10138255
        ],
        "postalCode": "L9B2P3",
        "streetName": "FALCONRIDGE",
        "streetDirectionId": null,
        "streetTypeId": "DR",
        "placeName": "HAMILTON",
        "streetNameDisplayText": "FALCONRIDGE DR, HAMILTON"
      },
      {
        "electoralDistricts": [
          {
            "election": null,
            "id": 31,
            "name": "Flamborough—Glanbrook"
          }
        ],
        "pollDivisionIds": [
          10138255
        ],
        "postalCode": "L9B2P3",
        "streetName": "HAWKSWOOD",
        "streetDirectionId": null,
        "streetTypeId": "TRAIL",
        "placeName": "HAMILTON",
        "streetNameDisplayText": "HAWKSWOOD TRAIL, HAMILTON"
      }
    ]
  },
  {
    "postal": "L9B1T6",
    "result": [
      {
        "electoralDistricts": [
          {
            "election": null,
            "id": 39,
            "name": "Hamilton West—Ancaster—Dundas"
          }
        ],
        "pollDivisionIds": [
          10135297
        ],
        "postalCode": "L9B1T6",
        "streetName": "REGENT",
        "streetDirectionId": null,
        "streetTypeId": "AVE",
        "placeName": "HAMILTON",
        "streetNameDisplayText": "REGENT AVE, HAMILTON"
      }
    ]
  },
  {
    "postal": "L9B4P6",
    "result": []
  },
  {
    "postal": "L9B3K1",
    "result": []
  },
  {
    "postal": "L9B6X4",
    "result": []
  },
  {
    "postal": "L9B4M8",
    "result": []
  },
  {
    "postal": "L9B2Y1",
    "result": [
      {
        "electoralDistricts": [
          {
            "election": null,
            "id": 39,
            "name": "Hamilton West—Ancaster—Dundas"
          }
        ],
        "pollDivisionIds": [
          10135297
        ],
        "postalCode": "L9B2Y1",
        "streetName": "MEADOWBANK",
        "streetDirectionId": null,
        "streetTypeId": "DR",
        "placeName": "HAMILTON",
        "streetNameDisplayText": "MEADOWBANK DR, HAMILTON"
      },
      {
        "electoralDistricts": [
          {
            "election": null,
            "id": 39,
            "name": "Hamilton West—Ancaster—Dundas"
          }
        ],
        "pollDivisionIds": [
          10135297
        ],
        "postalCode": "L9B2Y1",
        "streetName": "MOONSTONE",
        "streetDirectionId": null,
        "streetTypeId": "CRT",
        "placeName": "HAMILTON",
        "streetNameDisplayText": "MOONSTONE CRT, HAMILTON"
      }
    ]
  },
  {
    "postal": "L9B6M1",
    "result": []
  },
  {
    "postal": "L9B5L8",
    "result": []
  },
  {
    "postal": "L9B3P6",
    "result": []
  },
  {
    "postal": "L9B9A5",
    "result": []
  },
  {
    "postal": "L9B7K1",
    "result": []
  },
  {
    "postal": "L9B3J4",
    "result": []
  },
  {
    "postal": "L9B5E7",
    "result": []
  },
  {
    "postal": "L9B3A7",
    "result": []
  },
  {
    "postal": "L9B1B9",
    "result": [
      {
        "electoralDistricts": [
          {
            "election": null,
            "id": 38,
            "name": "Hamilton Mountain"
          }
        ],
        "pollDivisionIds": [
          10138686
        ],
        "postalCode": "L9B1B9",
        "streetName": "RYMAL",
        "streetDirectionId": "E",
        "streetTypeId": "RD",
        "placeName": "HAMILTON",
        "streetNameDisplayText": "RYMAL RD E, HAMILTON"
      }
    ]
  },
  {
    "postal": "L9B9E8",
    "result": []
  },
  {
    "postal": "L9B1C9",
    "result": [
      {
        "electoralDistricts": [
          {
            "election": null,
            "id": 31,
            "name": "Flamborough—Glanbrook"
          }
        ],
        "pollDivisionIds": [
          10138259
        ],
        "postalCode": "L9B1C9",
        "streetName": "LISTER",
        "streetDirectionId": null,
        "streetTypeId": "AVE",
        "placeName": "HAMILTON",
        "streetNameDisplayText": "LISTER AVE, HAMILTON"
      }
    ]
  },
  {
    "postal": "L9B3B5",
    "result": []
  },
  {
    "postal": "L9B8R0",
    "result": []
  },
  {
    "postal": "L9B3P2",
    "result": []
  },
  {
    "postal": "L9B5V4",
    "result": []
  },
  {
    "postal": "L9B4H0",
    "result": []
  },
  {
    "postal": "L9B4S7",
    "result": []
  },
  {
    "postal": "L9B6C2",
    "result": []
  },
  {
    "postal": "L9B8W3",
    "result": []
  },
  {
    "postal": "L9B4M5",
    "result": []
  },
  {
    "postal": "L9B5T1",
    "result": []
  },
  {
    "postal": "L9B3B3",
    "result": []
  },
  {
    "postal": "L9B6C6",
    "result": []
  },
  {
    "postal": "L9B7N8",
    "result": []
  },
  {
    "postal": "L9B2Y3",
    "result": [
      {
        "electoralDistricts": [
          {
            "election": null,
            "id": 31,
            "name": "Flamborough—Glanbrook"
          }
        ],
        "pollDivisionIds": [
          10138255
        ],
        "postalCode": "L9B2Y3",
        "streetName": "RYMAL",
        "streetDirectionId": "W",
        "streetTypeId": "RD",
        "placeName": "HAMILTON",
        "streetNameDisplayText": "RYMAL RD W, HAMILTON"
      }
    ]
  },
  {
    "postal": "L9B2R6",
    "result": [
      {
        "electoralDistricts": [
          {
            "election": null,
            "id": 31,
            "name": "Flamborough—Glanbrook"
          }
        ],
        "pollDivisionIds": [
          10138255
        ],
        "postalCode": "L9B2R6",
        "streetName": "EAGLEGLEN",
        "streetDirectionId": null,
        "streetTypeId": "WAY",
        "placeName": "HAMILTON",
        "streetNameDisplayText": "EAGLEGLEN WAY, HAMILTON"
      },
      {
        "electoralDistricts": [
          {
            "election": null,
            "id": 31,
            "name": "Flamborough—Glanbrook"
          }
        ],
        "pollDivisionIds": [
          10138255
        ],
        "postalCode": "L9B2R6",
        "streetName": "REDTAIL",
        "streetDirectionId": null,
        "streetTypeId": "CRES",
        "placeName": "HAMILTON",
        "streetNameDisplayText": "REDTAIL CRES, HAMILTON"
      }
    ]
  },
  {
    "postal": "L9B7N3",
    "result": []
  },
  {
    "postal": "L9B8J2",
    "result": []
  },
  {
    "postal": "L9B6A9",
    "result": []
  },
  {
    "postal": "L9B3V2",
    "result": []
  },
  {
    "postal": "L9B2N3",
    "result": [
      {
        "electoralDistricts": [
          {
            "election": null,
            "id": 39,
            "name": "Hamilton West—Ancaster—Dundas"
          }
        ],
        "pollDivisionIds": [
          10135297
        ],
        "postalCode": "L9B2N3",
        "streetName": "UPPER PARADISE",
        "streetDirectionId": null,
        "streetTypeId": "RD",
        "placeName": "HAMILTON",
        "streetNameDisplayText": "UPPER PARADISE RD, HAMILTON"
      }
    ]
  },
  {
    "postal": "L9B1S5",
    "result": [
      {
        "electoralDistricts": [
          {
            "election": null,
            "id": 39,
            "name": "Hamilton West—Ancaster—Dundas"
          }
        ],
        "pollDivisionIds": [
          10135297
        ],
        "postalCode": "L9B1S5",
        "streetName": "REGENT",
        "streetDirectionId": null,
        "streetTypeId": "AVE",
        "placeName": "HAMILTON",
        "streetNameDisplayText": "REGENT AVE, HAMILTON"
      }
    ]
  },
  {
    "postal": "L9B4T7",
    "result": []
  },
  {
    "postal": "L9B6Y7",
    "result": []
  },
  {
    "postal": "L9B0W7",
    "result": []
  },
  {
    "postal": "L9B2W9",
    "result": [
      {
        "electoralDistricts": [
          {
            "election": null,
            "id": 31,
            "name": "Flamborough—Glanbrook"
          }
        ],
        "pollDivisionIds": [
          10138260
        ],
        "postalCode": "L9B2W9",
        "streetName": "MORGANTE",
        "streetDirectionId": null,
        "streetTypeId": "CRT",
        "placeName": "HAMILTON",
        "streetNameDisplayText": "MORGANTE CRT, HAMILTON"
      }
    ]
  },
  {
    "postal": "L9B8V0",
    "result": []
  },
  {
    "postal": "L9B0H4",
    "result": [
      {
        "electoralDistricts": [
          {
            "election": null,
            "id": 31,
            "name": "Flamborough—Glanbrook"
          }
        ],
        "pollDivisionIds": [
          10138261
        ],
        "postalCode": "L9B0H4",
        "streetName": "DUNVEGAN",
        "streetDirectionId": null,
        "streetTypeId": "PL",
        "placeName": "HAMILTON",
        "streetNameDisplayText": "DUNVEGAN PL, HAMILTON"
      },
      {
        "electoralDistricts": [
          {
            "election": null,
            "id": 31,
            "name": "Flamborough—Glanbrook"
          }
        ],
        "pollDivisionIds": [
          10138261
        ],
        "postalCode": "L9B0H4",
        "streetName": "GRETI",
        "streetDirectionId": null,
        "streetTypeId": "DR",
        "placeName": "HAMILTON",
        "streetNameDisplayText": "GRETI DR, HAMILTON"
      }
    ]
  },
  {
    "postal": "L9B2T1",
    "result": [
      {
        "electoralDistricts": [
          {
            "election": null,
            "id": 31,
            "name": "Flamborough—Glanbrook"
          }
        ],
        "pollDivisionIds": [
          10138255
        ],
        "postalCode": "L9B2T1",
        "streetName": "HAWKSWOOD",
        "streetDirectionId": null,
        "streetTypeId": "TRAIL",
        "placeName": "HAMILTON",
        "streetNameDisplayText": "HAWKSWOOD TRAIL, HAMILTON"
      },
      {
        "electoralDistricts": [
          {
            "election": null,
            "id": 31,
            "name": "Flamborough—Glanbrook"
          }
        ],
        "pollDivisionIds": [
          10138255
        ],
        "postalCode": "L9B2T1",
        "streetName": "KITTYHAWK",
        "streetDirectionId": null,
        "streetTypeId": "DR",
        "placeName": "HAMILTON",
        "streetNameDisplayText": "KITTYHAWK DR, HAMILTON"
      }
    ]
  },
  {
    "postal": "L9B1B1",
    "result": [
      {
        "electoralDistricts": [
          {
            "election": null,
            "id": 38,
            "name": "Hamilton Mountain"
          }
        ],
        "pollDivisionIds": [
          10138686
        ],
        "postalCode": "L9B1B1",
        "streetName": "STONE CHURCH",
        "streetDirectionId": "E",
        "streetTypeId": "RD",
        "placeName": "HAMILTON",
        "streetNameDisplayText": "STONE CHURCH RD E, HAMILTON"
      },
      {
        "electoralDistricts": [
          {
            "election": null,
            "id": 38,
            "name": "Hamilton Mountain"
          }
        ],
        "pollDivisionIds": [
          10138686
        ],
        "postalCode": "L9B1B1",
        "streetName": "STONE CHURCH ROAD EAST",
        "streetDirectionId": "E",
        "streetTypeId": "RD",
        "placeName": "HAMILTON",
        "streetNameDisplayText": "STONE CHURCH ROAD EAST RD E, HAMILTON"
      }
    ]
  },
  {
    "postal": "L9B8B6",
    "result": []
  },
  {
    "postal": "L9B6H1",
    "result": []
  },
  {
    "postal": "L9B8T8",
    "result": []
  },
  {
    "postal": "L9B0T4",
    "result": []
  },
  {
    "postal": "L9B2C4",
    "result": [
      {
        "electoralDistricts": [
          {
            "election": null,
            "id": 38,
            "name": "Hamilton Mountain"
          }
        ],
        "pollDivisionIds": [
          10138686
        ],
        "postalCode": "L9B2C4",
        "streetName": "DICENZO",
        "streetDirectionId": null,
        "streetTypeId": "DR",
        "placeName": "HAMILTON",
        "streetNameDisplayText": "DICENZO DR, HAMILTON"
      },
      {
        "electoralDistricts": [
          {
            "election": null,
            "id": 38,
            "name": "Hamilton Mountain"
          }
        ],
        "pollDivisionIds": [
          10138686
        ],
        "postalCode": "L9B2C4",
        "streetName": "TERAMO",
        "streetDirectionId": null,
        "streetTypeId": "CRT",
        "placeName": "HAMILTON",
        "streetNameDisplayText": "TERAMO CRT, HAMILTON"
      }
    ]
  },
  {
    "postal": "L9B8N3",
    "result": []
  },
  {
    "postal": "L9B4L8",
    "result": []
  },
  {
    "postal": "L9B2B5",
    "result": [
      {
        "electoralDistricts": [
          {
            "election": null,
            "id": 38,
            "name": "Hamilton Mountain"
          }
        ],
        "pollDivisionIds": [
          10138687
        ],
        "postalCode": "L9B2B5",
        "streetName": "DELANCEY",
        "streetDirectionId": null,
        "streetTypeId": "BLVD",
        "placeName": "HAMILTON",
        "streetNameDisplayText": "DELANCEY BLVD, HAMILTON"
      },
      {
        "electoralDistricts": [
          {
            "election": null,
            "id": 38,
            "name": "Hamilton Mountain"
          }
        ],
        "pollDivisionIds": [
          10138687
        ],
        "postalCode": "L9B2B5",
        "streetName": "DUBLIN",
        "streetDirectionId": null,
        "streetTypeId": "DR",
        "placeName": "HAMILTON",
        "streetNameDisplayText": "DUBLIN DR, HAMILTON"
      }
    ]
  },
  {
    "postal": "L9B3H1",
    "result": []
  },
  {
    "postal": "L9B4Y1",
    "result": []
  },
  {
    "postal": "L9B7E2",
    "result": []
  },
  {
    "postal": "L9B2P5",
    "result": [
      {
        "electoralDistricts": [
          {
            "election": null,
            "id": 31,
            "name": "Flamborough—Glanbrook"
          }
        ],
        "pollDivisionIds": [
          10138260
        ],
        "postalCode": "L9B2P5",
        "streetName": "POLARIS",
        "streetDirectionId": null,
        "streetTypeId": "CRT",
        "placeName": "HAMILTON",
        "streetNameDisplayText": "POLARIS CRT, HAMILTON"
      }
    ]
  },
  {
    "postal": "L9B8R7",
    "result": []
  },
  {
    "postal": "L9B9P1",
    "result": []
  },
  {
    "postal": "L9B3B8",
    "result": []
  },
  {
    "postal": "L9B3P7",
    "result": []
  },
  {
    "postal": "L9B9B2",
    "result": []
  },
  {
    "postal": "L9B6Z3",
    "result": []
  },
  {
    "postal": "L9B4N5",
    "result": []
  },
  {
    "postal": "L9B8T3",
    "result": []
  },
  {
    "postal": "L9B1V2",
    "result": [
      {
        "electoralDistricts": [
          {
            "election": null,
            "id": 31,
            "name": "Flamborough—Glanbrook"
          }
        ],
        "pollDivisionIds": [
          10138258,
          10138284,
          10138255,
          10138257
        ],
        "postalCode": "L9B1V2",
        "streetName": "RYMAL",
        "streetDirectionId": "W",
        "streetTypeId": "RD",
        "placeName": "HAMILTON",
        "streetNameDisplayText": "RYMAL RD W, HAMILTON"
      }
    ]
  },
  {
    "postal": "L9B1Y0",
    "result": []
  },
  {
    "postal": "L9B3G6",
    "result": []
  },
  {
    "postal": "L9B3H7",
    "result": []
  },
  {
    "postal": "L9B7X8",
    "result": []
  },
  {
    "postal": "L9B0C7",
    "result": [
      {
        "electoralDistricts": [
          {
            "election": null,
            "id": 31,
            "name": "Flamborough—Glanbrook"
          }
        ],
        "pollDivisionIds": [
          10138255
        ],
        "postalCode": "L9B0C7",
        "streetName": "BERNINI",
        "streetDirectionId": null,
        "streetTypeId": "CRT",
        "placeName": "HAMILTON",
        "streetNameDisplayText": "BERNINI CRT, HAMILTON"
      },
      {
        "electoralDistricts": [
          {
            "election": null,
            "id": 31,
            "name": "Flamborough—Glanbrook"
          }
        ],
        "pollDivisionIds": [
          10138255
        ],
        "postalCode": "L9B0C7",
        "streetName": "EAGLEGLEN",
        "streetDirectionId": null,
        "streetTypeId": "WAY",
        "placeName": "HAMILTON",
        "streetNameDisplayText": "EAGLEGLEN WAY, HAMILTON"
      },
      {
        "electoralDistricts": [
          {
            "election": null,
            "id": 31,
            "name": "Flamborough—Glanbrook"
          }
        ],
        "pollDivisionIds": [
          10138255
        ],
        "postalCode": "L9B0C7",
        "streetName": "RAPHAEL",
        "streetDirectionId": null,
        "streetTypeId": "CRT",
        "placeName": "HAMILTON",
        "streetNameDisplayText": "RAPHAEL CRT, HAMILTON"
      }
    ]
  },
  {
    "postal": "L9B0W9",
    "result": []
  },
  {
    "postal": "L9B8E6",
    "result": []
  },
  {
    "postal": "L9B9Z8",
    "result": []
  },
  {
    "postal": "L9B3P4",
    "result": []
  },
  {
    "postal": "L9B6L8",
    "result": []
  },
  {
    "postal": "L9B2R4",
    "result": [
      {
        "electoralDistricts": [
          {
            "election": null,
            "id": 31,
            "name": "Flamborough—Glanbrook"
          }
        ],
        "pollDivisionIds": [
          10138255
        ],
        "postalCode": "L9B2R4",
        "streetName": "EAGLEGLEN",
        "streetDirectionId": null,
        "streetTypeId": "WAY",
        "placeName": "HAMILTON",
        "streetNameDisplayText": "EAGLEGLEN WAY, HAMILTON"
      },
      {
        "electoralDistricts": [
          {
            "election": null,
            "id": 31,
            "name": "Flamborough—Glanbrook"
          }
        ],
        "pollDivisionIds": [
          10138255
        ],
        "postalCode": "L9B2R4",
        "streetName": "HAWKSWOOD",
        "streetDirectionId": null,
        "streetTypeId": "TRAIL",
        "placeName": "HAMILTON",
        "streetNameDisplayText": "HAWKSWOOD TRAIL, HAMILTON"
      }
    ]
  },
  {
    "postal": "L9B2W1",
    "result": [
      {
        "electoralDistricts": [
          {
            "election": null,
            "id": 31,
            "name": "Flamborough—Glanbrook"
          }
        ],
        "pollDivisionIds": [
          10138283
        ],
        "postalCode": "L9B2W1",
        "streetName": "RYMAL",
        "streetDirectionId": "W",
        "streetTypeId": "RD",
        "placeName": "HAMILTON",
        "streetNameDisplayText": "RYMAL RD W, HAMILTON"
      }
    ]
  },
  {
    "postal": "L9B9H8",
    "result": []
  },
  {
    "postal": "L9B8X9",
    "result": []
  },
  {
    "postal": "L9B7H4",
    "result": []
  },
  {
    "postal": "L9B3J1",
    "result": []
  },
  {
    "postal": "L9B1P4",
    "result": [
      {
        "electoralDistricts": [
          {
            "election": null,
            "id": 31,
            "name": "Flamborough—Glanbrook"
          }
        ],
        "pollDivisionIds": [
          10138261
        ],
        "postalCode": "L9B1P4",
        "streetName": "MOTHERS",
        "streetDirectionId": null,
        "streetTypeId": "ST",
        "placeName": "HAMILTON",
        "streetNameDisplayText": "MOTHERS ST, HAMILTON"
      },
      {
        "electoralDistricts": [
          {
            "election": null,
            "id": 31,
            "name": "Flamborough—Glanbrook"
          }
        ],
        "pollDivisionIds": [
          10138261
        ],
        "postalCode": "L9B1P4",
        "streetName": "MOTHER'S",
        "streetDirectionId": null,
        "streetTypeId": "ST",
        "placeName": "HAMILTON",
        "streetNameDisplayText": "MOTHER'S ST, HAMILTON"
      }
    ]
  },
  {
    "postal": "L9B2A3",
    "result": [
      {
        "electoralDistricts": [
          {
            "election": null,
            "id": 38,
            "name": "Hamilton Mountain"
          }
        ],
        "pollDivisionIds": [
          10138687
        ],
        "postalCode": "L9B2A3",
        "streetName": "STONE CHURCH",
        "streetDirectionId": "E",
        "streetTypeId": "RD",
        "placeName": "HAMILTON",
        "streetNameDisplayText": "STONE CHURCH RD E, HAMILTON"
      }
    ]
  },
  {
    "postal": "L9B0Z1",
    "result": []
  },
  {
    "postal": "L9B1C1",
    "result": [
      {
        "electoralDistricts": [
          {
            "election": null,
            "id": 31,
            "name": "Flamborough—Glanbrook"
          }
        ],
        "pollDivisionIds": [
          10138259
        ],
        "postalCode": "L9B1C1",
        "streetName": "RYMAL",
        "streetDirectionId": "E",
        "streetTypeId": "RD",
        "placeName": "HAMILTON",
        "streetNameDisplayText": "RYMAL RD E, HAMILTON"
      }
    ]
  },
  {
    "postal": "L9B0H3",
    "result": []
  },
  {
    "postal": "L9B7B0",
    "result": []
  },
  {
    "postal": "L9B5K2",
    "result": []
  },
  {
    "postal": "L9B1E9",
    "result": [
      {
        "electoralDistricts": [
          {
            "election": null,
            "id": 31,
            "name": "Flamborough—Glanbrook"
          }
        ],
        "pollDivisionIds": [
          10138259
        ],
        "postalCode": "L9B1E9",
        "streetName": "MALTON",
        "streetDirectionId": null,
        "streetTypeId": "DR",
        "placeName": "HAMILTON",
        "streetNameDisplayText": "MALTON DR, HAMILTON"
      }
    ]
  },
  {
    "postal": "L9B9W7",
    "result": []
  },
  {
    "postal": "L9B5W6",
    "result": []
  },
  {
    "postal": "L9B6S6",
    "result": []
  },
  {
    "postal": "L9B2P8",
    "result": [
      {
        "electoralDistricts": [
          {
            "election": null,
            "id": 39,
            "name": "Hamilton West—Ancaster—Dundas"
          }
        ],
        "pollDivisionIds": [
          10135297
        ],
        "postalCode": "L9B2P8",
        "streetName": "ADELE",
        "streetDirectionId": null,
        "streetTypeId": "CRT",
        "placeName": "HAMILTON",
        "streetNameDisplayText": "ADELE CRT, HAMILTON"
      },
      {
        "electoralDistricts": [
          {
            "election": null,
            "id": 39,
            "name": "Hamilton West—Ancaster—Dundas"
          }
        ],
        "pollDivisionIds": [
          10135297
        ],
        "postalCode": "L9B2P8",
        "streetName": "CLAUDETTE",
        "streetDirectionId": null,
        "streetTypeId": "GATE",
        "placeName": "HAMILTON",
        "streetNameDisplayText": "CLAUDETTE GATE, HAMILTON"
      }
    ]
  },
  {
    "postal": "L9B4P8",
    "result": []
  },
  {
    "postal": "L9B0V9",
    "result": []
  },
  {
    "postal": "L9B5Y2",
    "result": []
  },
  {
    "postal": "L9B7Z7",
    "result": []
  },
  {
    "postal": "L9B6Y8",
    "result": []
  },
  {
    "postal": "L9B2G7",
    "result": [
      {
        "electoralDistricts": [
          {
            "election": null,
            "id": 38,
            "name": "Hamilton Mountain"
          }
        ],
        "pollDivisionIds": [
          10138687
        ],
        "postalCode": "L9B2G7",
        "streetName": "BORDEAUX",
        "streetDirectionId": null,
        "streetTypeId": "CRT",
        "placeName": "HAMILTON",
        "streetNameDisplayText": "BORDEAUX CRT, HAMILTON"
      },
      {
        "electoralDistricts": [
          {
            "election": null,
            "id": 38,
            "name": "Hamilton Mountain"
          }
        ],
        "pollDivisionIds": [
          10138687
        ],
        "postalCode": "L9B2G7",
        "streetName": "REPUBLIC",
        "streetDirectionId": null,
        "streetTypeId": "AVE",
        "placeName": "HAMILTON",
        "streetNameDisplayText": "REPUBLIC AVE, HAMILTON"
      }
    ]
  },
  {
    "postal": "L9B8C1",
    "result": []
  },
  {
    "postal": "L9B5C5",
    "result": []
  },
  {
    "postal": "L9B2X8",
    "result": [
      {
        "electoralDistricts": [
          {
            "election": null,
            "id": 31,
            "name": "Flamborough—Glanbrook"
          }
        ],
        "pollDivisionIds": [
          10138256
        ],
        "postalCode": "L9B2X8",
        "streetName": "ABBOTSFORD",
        "streetDirectionId": null,
        "streetTypeId": "TRAIL",
        "placeName": "HAMILTON",
        "streetNameDisplayText": "ABBOTSFORD TRAIL, HAMILTON"
      },
      {
        "electoralDistricts": [
          {
            "election": null,
            "id": 31,
            "name": "Flamborough—Glanbrook"
          }
        ],
        "pollDivisionIds": [
          10138256
        ],
        "postalCode": "L9B2X8",
        "streetName": "APPALACHIAN",
        "streetDirectionId": null,
        "streetTypeId": "TRAIL",
        "placeName": "HAMILTON",
        "streetNameDisplayText": "APPALACHIAN TRAIL, HAMILTON"
      },
      {
        "electoralDistricts": [
          {
            "election": null,
            "id": 31,
            "name": "Flamborough—Glanbrook"
          }
        ],
        "pollDivisionIds": [
          10138256
        ],
        "postalCode": "L9B2X8",
        "streetName": "GEORGIAN",
        "streetDirectionId": null,
        "streetTypeId": "TRAIL",
        "placeName": "HAMILTON",
        "streetNameDisplayText": "GEORGIAN TRAIL, HAMILTON"
      },
      {
        "electoralDistricts": [
          {
            "election": null,
            "id": 31,
            "name": "Flamborough—Glanbrook"
          }
        ],
        "pollDivisionIds": [
          10138256
        ],
        "postalCode": "L9B2X8",
        "streetName": "GRAVENHURST",
        "streetDirectionId": null,
        "streetTypeId": "TRAIL",
        "placeName": "HAMILTON",
        "streetNameDisplayText": "GRAVENHURST TRAIL, HAMILTON"
      },
      {
        "electoralDistricts": [
          {
            "election": null,
            "id": 31,
            "name": "Flamborough—Glanbrook"
          }
        ],
        "pollDivisionIds": [
          10138256
        ],
        "postalCode": "L9B2X8",
        "streetName": "MANITOULIN",
        "streetDirectionId": null,
        "streetTypeId": "TRAIL",
        "placeName": "HAMILTON",
        "streetNameDisplayText": "MANITOULIN TRAIL, HAMILTON"
      },
      {
        "electoralDistricts": [
          {
            "election": null,
            "id": 31,
            "name": "Flamborough—Glanbrook"
          }
        ],
        "pollDivisionIds": [
          10138256
        ],
        "postalCode": "L9B2X8",
        "streetName": "TIMBER",
        "streetDirectionId": null,
        "streetTypeId": "TRAIL",
        "placeName": "HAMILTON",
        "streetNameDisplayText": "TIMBER TRAIL, HAMILTON"
      }
    ]
  },
  {
    "postal": "L9B1W5",
    "result": [
      {
        "electoralDistricts": [
          {
            "election": null,
            "id": 39,
            "name": "Hamilton West—Ancaster—Dundas"
          }
        ],
        "pollDivisionIds": [
          10135297
        ],
        "postalCode": "L9B1W5",
        "streetName": "SUNDOWN",
        "streetDirectionId": null,
        "streetTypeId": "DR",
        "placeName": "HAMILTON",
        "streetNameDisplayText": "SUNDOWN DR, HAMILTON"
      }
    ]
  },
  {
    "postal": "L9B7G0",
    "result": []
  },
  {
    "postal": "L9B8J8",
    "result": []
  },
  {
    "postal": "L9B3Y0",
    "result": []
  },
  {
    "postal": "L9B9T7",
    "result": []
  },
  {
    "postal": "L9B5P4",
    "result": []
  },
  {
    "postal": "L9B4B0",
    "result": []
  },
  {
    "postal": "L9B9N8",
    "result": []
  },
  {
    "postal": "L9B4A7",
    "result": []
  },
  {
    "postal": "L9B4H9",
    "result": []
  },
  {
    "postal": "L9B6X1",
    "result": []
  },
  {
    "postal": "L9B9Y7",
    "result": []
  },
  {
    "postal": "L9B2Y5",
    "result": []
  },
  {
    "postal": "L9B8L7",
    "result": []
  },
  {
    "postal": "L9B2A8",
    "result": [
      {
        "electoralDistricts": [
          {
            "election": null,
            "id": 38,
            "name": "Hamilton Mountain"
          }
        ],
        "pollDivisionIds": [
          10138687
        ],
        "postalCode": "L9B2A8",
        "streetName": "STONE CHURCH",
        "streetDirectionId": "E",
        "streetTypeId": "RD",
        "placeName": "HAMILTON",
        "streetNameDisplayText": "STONE CHURCH RD E, HAMILTON"
      }
    ]
  },
  {
    "postal": "L9B2K9",
    "result": [
      {
        "electoralDistricts": [
          {
            "election": null,
            "id": 31,
            "name": "Flamborough—Glanbrook"
          }
        ],
        "pollDivisionIds": [
          10138259
        ],
        "postalCode": "L9B2K9",
        "streetName": "KATIE",
        "streetDirectionId": null,
        "streetTypeId": "CRT",
        "placeName": "HAMILTON",
        "streetNameDisplayText": "KATIE CRT, HAMILTON"
      },
      {
        "electoralDistricts": [
          {
            "election": null,
            "id": 31,
            "name": "Flamborough—Glanbrook"
          }
        ],
        "pollDivisionIds": [
          10138259
        ],
        "postalCode": "L9B2K9",
        "streetName": "WESTLAWN",
        "streetDirectionId": null,
        "streetTypeId": "DR",
        "placeName": "HAMILTON",
        "streetNameDisplayText": "WESTLAWN DR, HAMILTON"
      }
    ]
  },
  {
    "postal": "L9B3E5",
    "result": []
  },
  {
    "postal": "L9B8N6",
    "result": []
  },
  {
    "postal": "L9B8J4",
    "result": []
  },
  {
    "postal": "L9B4R7",
    "result": []
  },
  {
    "postal": "L9B9K1",
    "result": []
  },
  {
    "postal": "L9B8E1",
    "result": []
  },
  {
    "postal": "L9B0R1",
    "result": []
  },
  {
    "postal": "L9B4J3",
    "result": []
  },
  {
    "postal": "L9B7E7",
    "result": []
  },
  {
    "postal": "L9B0J0",
    "result": []
  },
  {
    "postal": "L9B7R8",
    "result": []
  },
  {
    "postal": "L9B9X0",
    "result": []
  },
  {
    "postal": "L9B7P6",
    "result": []
  },
  {
    "postal": "L9B0R7",
    "result": []
  },
  {
    "postal": "L9B5W1",
    "result": []
  },
  {
    "postal": "L9B0K4",
    "result": []
  },
  {
    "postal": "L9B7N9",
    "result": []
  },
  {
    "postal": "L9B1N0",
    "result": []
  },
  {
    "postal": "L9B6P3",
    "result": []
  },
  {
    "postal": "L9B5A1",
    "result": []
  },
  {
    "postal": "L9B9M9",
    "result": []
  },
  {
    "postal": "L9B7T6",
    "result": []
  },
  {
    "postal": "L9B3X0",
    "result": []
  },
  {
    "postal": "L9B2T0",
    "result": []
  },
  {
    "postal": "L9B5X9",
    "result": []
  },
  {
    "postal": "L9B2R3",
    "result": [
      {
        "electoralDistricts": [
          {
            "election": null,
            "id": 31,
            "name": "Flamborough—Glanbrook"
          }
        ],
        "pollDivisionIds": [
          10138259
        ],
        "postalCode": "L9B2R3",
        "streetName": "JACQUELINE",
        "streetDirectionId": null,
        "streetTypeId": "BLVD",
        "placeName": "HAMILTON",
        "streetNameDisplayText": "JACQUELINE BLVD, HAMILTON"
      },
      {
        "electoralDistricts": [
          {
            "election": null,
            "id": 31,
            "name": "Flamborough—Glanbrook"
          }
        ],
        "pollDivisionIds": [
          10138259
        ],
        "postalCode": "L9B2R3",
        "streetName": "KETTLEPOINT",
        "streetDirectionId": null,
        "streetTypeId": "DR",
        "placeName": "HAMILTON",
        "streetNameDisplayText": "KETTLEPOINT DR, HAMILTON"
      },
      {
        "electoralDistricts": [
          {
            "election": null,
            "id": 31,
            "name": "Flamborough—Glanbrook"
          }
        ],
        "pollDivisionIds": [
          10138259
        ],
        "postalCode": "L9B2R3",
        "streetName": "PIANO",
        "streetDirectionId": null,
        "streetTypeId": "DR",
        "placeName": "HAMILTON",
        "streetNameDisplayText": "PIANO DR, HAMILTON"
      }
    ]
  },
  {
    "postal": "L9B5N2",
    "result": []
  },
  {
    "postal": "L9B4Y7",
    "result": []
  },
  {
    "postal": "L9B7M0",
    "result": []
  },
  {
    "postal": "L9B8P3",
    "result": []
  },
  {
    "postal": "L9B3N3",
    "result": []
  },
  {
    "postal": "L9B7S3",
    "result": []
  },
  {
    "postal": "L9B3V9",
    "result": []
  },
  {
    "postal": "L9B9N7",
    "result": []
  },
  {
    "postal": "L9B0G4",
    "result": [
      {
        "electoralDistricts": [
          {
            "election": null,
            "id": 38,
            "name": "Hamilton Mountain"
          }
        ],
        "pollDivisionIds": [
          10138686
        ],
        "postalCode": "L9B0G4",
        "streetName": "ATESSA",
        "streetDirectionId": null,
        "streetTypeId": "DR",
        "placeName": "HAMILTON",
        "streetNameDisplayText": "ATESSA DR, HAMILTON"
      }
    ]
  },
  {
    "postal": "L9B2E2",
    "result": [
      {
        "electoralDistricts": [
          {
            "election": null,
            "id": 38,
            "name": "Hamilton Mountain"
          }
        ],
        "pollDivisionIds": [
          10138687
        ],
        "postalCode": "L9B2E2",
        "streetName": "BONAPARTE",
        "streetDirectionId": null,
        "streetTypeId": "WAY",
        "placeName": "HAMILTON",
        "streetNameDisplayText": "BONAPARTE WAY, HAMILTON"
      },
      {
        "electoralDistricts": [
          {
            "election": null,
            "id": 38,
            "name": "Hamilton Mountain"
          }
        ],
        "pollDivisionIds": [
          10138687
        ],
        "postalCode": "L9B2E2",
        "streetName": "CORSICA",
        "streetDirectionId": null,
        "streetTypeId": "CRT",
        "placeName": "HAMILTON",
        "streetNameDisplayText": "CORSICA CRT, HAMILTON"
      }
    ]
  },
  {
    "postal": "L9B7W8",
    "result": []
  },
  {
    "postal": "L9B7M5",
    "result": []
  },
  {
    "postal": "L9B5W8",
    "result": []
  },
  {
    "postal": "L9B5E5",
    "result": []
  },
  {
    "postal": "L9B1P9",
    "result": [
      {
        "electoralDistricts": [
          {
            "election": null,
            "id": 31,
            "name": "Flamborough—Glanbrook"
          }
        ],
        "pollDivisionIds": [
          10138261
        ],
        "postalCode": "L9B1P9",
        "streetName": "TWENTY",
        "streetDirectionId": "E",
        "streetTypeId": "RD",
        "placeName": "HAMILTON",
        "streetNameDisplayText": "TWENTY RD E, HAMILTON"
      }
    ]
  },
  {
    "postal": "L9B8V8",
    "result": []
  },
  {
    "postal": "L9B9G8",
    "result": []
  },
  {
    "postal": "L9B8H9",
    "result": []
  },
  {
    "postal": "L9B1Z1",
    "result": [
      {
        "electoralDistricts": [
          {
            "election": null,
            "id": 38,
            "name": "Hamilton Mountain"
          }
        ],
        "pollDivisionIds": [
          10138687
        ],
        "postalCode": "L9B1Z1",
        "streetName": "DELANCEY",
        "streetDirectionId": null,
        "streetTypeId": "BLVD",
        "placeName": "HAMILTON",
        "streetNameDisplayText": "DELANCEY BLVD, HAMILTON"
      }
    ]
  },
  {
    "postal": "L9B8M3",
    "result": []
  },
  {
    "postal": "L9B5H6",
    "result": []
  },
  {
    "postal": "L9B7W7",
    "result": []
  },
  {
    "postal": "L9B4L0",
    "result": []
  },
  {
    "postal": "L9B2N1",
    "result": [
      {
        "electoralDistricts": [
          {
            "election": null,
            "id": 39,
            "name": "Hamilton West—Ancaster—Dundas"
          }
        ],
        "pollDivisionIds": [
          10135297
        ],
        "postalCode": "L9B2N1",
        "streetName": "UPPER PARADISE",
        "streetDirectionId": null,
        "streetTypeId": "RD",
        "placeName": "HAMILTON",
        "streetNameDisplayText": "UPPER PARADISE RD, HAMILTON"
      }
    ]
  },
  {
    "postal": "L9B2H4",
    "result": [
      {
        "electoralDistricts": [
          {
            "election": null,
            "id": 38,
            "name": "Hamilton Mountain"
          }
        ],
        "pollDivisionIds": [
          10138687
        ],
        "postalCode": "L9B2H4",
        "streetName": "UPPER WELLINGTON",
        "streetDirectionId": null,
        "streetTypeId": "ST",
        "placeName": "HAMILTON",
        "streetNameDisplayText": "UPPER WELLINGTON ST, HAMILTON"
      }
    ]
  },
  {
    "postal": "L9B5C8",
    "result": []
  },
  {
    "postal": "L9B8B0",
    "result": []
  },
  {
    "postal": "L9B1T4",
    "result": [
      {
        "electoralDistricts": [
          {
            "election": null,
            "id": 38,
            "name": "Hamilton Mountain"
          },
          {
            "election": null,
            "id": 39,
            "name": "Hamilton West—Ancaster—Dundas"
          }
        ],
        "pollDivisionIds": [
          10138685,
          10135295
        ],
        "postalCode": "L9B1T4",
        "streetName": "GARTH",
        "streetDirectionId": null,
        "streetTypeId": "ST",
        "placeName": "HAMILTON",
        "streetNameDisplayText": "GARTH ST, HAMILTON"
      }
    ]
  },
  {
    "postal": "L9B7N7",
    "result": []
  },
  {
    "postal": "L9B4L3",
    "result": []
  },
  {
    "postal": "L9B2N2",
    "result": [
      {
        "electoralDistricts": [
          {
            "election": null,
            "id": 39,
            "name": "Hamilton West—Ancaster—Dundas"
          }
        ],
        "pollDivisionIds": [
          10135297
        ],
        "postalCode": "L9B2N2",
        "streetName": "KORDUN",
        "streetDirectionId": null,
        "streetTypeId": "ST",
        "placeName": "HAMILTON",
        "streetNameDisplayText": "KORDUN ST, HAMILTON"
      }
    ]
  },
  {
    "postal": "L9B4N8",
    "result": []
  },
  {
    "postal": "L9B3M5",
    "result": []
  },
  {
    "postal": "L9B6H7",
    "result": []
  },
  {
    "postal": "L9B8Y8",
    "result": []
  },
  {
    "postal": "L9B5R9",
    "result": []
  },
  {
    "postal": "L9B8G3",
    "result": []
  },
  {
    "postal": "L9B4N7",
    "result": []
  },
  {
    "postal": "L9B0B9",
    "result": [
      {
        "electoralDistricts": [
          {
            "election": null,
            "id": 31,
            "name": "Flamborough—Glanbrook"
          }
        ],
        "pollDivisionIds": [
          10138256
        ],
        "postalCode": "L9B0B9",
        "streetName": "FOURLEAF",
        "streetDirectionId": null,
        "streetTypeId": "TRAIL",
        "placeName": "HAMILTON",
        "streetNameDisplayText": "FOURLEAF TRAIL, HAMILTON"
      },
      {
        "electoralDistricts": [
          {
            "election": null,
            "id": 31,
            "name": "Flamborough—Glanbrook"
          }
        ],
        "pollDivisionIds": [
          10138256
        ],
        "postalCode": "L9B0B9",
        "streetName": "GROVETREE",
        "streetDirectionId": null,
        "streetTypeId": "TRAIL",
        "placeName": "HAMILTON",
        "streetNameDisplayText": "GROVETREE TRAIL, HAMILTON"
      }
    ]
  },
  {
    "postal": "L9B9K7",
    "result": []
  },
  {
    "postal": "L9B9K9",
    "result": []
  },
  {
    "postal": "L9B3Z2",
    "result": []
  },
  {
    "postal": "L9B6W7",
    "result": []
  },
  {
    "postal": "L9B0P1",
    "result": []
  },
  {
    "postal": "L9B3A0",
    "result": []
  },
  {
    "postal": "L9B8L9",
    "result": []
  },
  {
    "postal": "L9B6X0",
    "result": []
  },
  {
    "postal": "L9B3E9",
    "result": []
  },
  {
    "postal": "L9B0S5",
    "result": []
  },
  {
    "postal": "L9B1A2",
    "result": [
      {
        "electoralDistricts": [
          {
            "election": null,
            "id": 38,
            "name": "Hamilton Mountain"
          }
        ],
        "pollDivisionIds": [
          10138685
        ],
        "postalCode": "L9B1A2",
        "streetName": "GARTH",
        "streetDirectionId": null,
        "streetTypeId": "ST",
        "placeName": "HAMILTON",
        "streetNameDisplayText": "GARTH ST, HAMILTON"
      },
      {
        "electoralDistricts": [
          {
            "election": null,
            "id": 38,
            "name": "Hamilton Mountain"
          },
          {
            "election": null,
            "id": 39,
            "name": "Hamilton West—Ancaster—Dundas"
          }
        ],
        "pollDivisionIds": [
          10138685,
          10135292
        ],
        "postalCode": "L9B1A2",
        "streetName": "STONE CHURCH",
        "streetDirectionId": "W",
        "streetTypeId": "RD",
        "placeName": "HAMILTON",
        "streetNameDisplayText": "STONE CHURCH RD W, HAMILTON"
      }
    ]
  },
  {
    "postal": "L9B5V8",
    "result": []
  },
  {
    "postal": "L9B8C5",
    "result": []
  },
  {
    "postal": "L9B6N0",
    "result": []
  },
  {
    "postal": "L9B9E6",
    "result": []
  },
  {
    "postal": "L9B5J7",
    "result": []
  },
  {
    "postal": "L9B2R2",
    "result": [
      {
        "electoralDistricts": [
          {
            "election": null,
            "id": 31,
            "name": "Flamborough—Glanbrook"
          }
        ],
        "pollDivisionIds": [
          10138259
        ],
        "postalCode": "L9B2R2",
        "streetName": "JACQUELINE",
        "streetDirectionId": null,
        "streetTypeId": "BLVD",
        "placeName": "HAMILTON",
        "streetNameDisplayText": "JACQUELINE BLVD, HAMILTON"
      },
      {
        "electoralDistricts": [
          {
            "election": null,
            "id": 31,
            "name": "Flamborough—Glanbrook"
          }
        ],
        "pollDivisionIds": [
          10138259
        ],
        "postalCode": "L9B2R2",
        "streetName": "PIANO",
        "streetDirectionId": null,
        "streetTypeId": "DR",
        "placeName": "HAMILTON",
        "streetNameDisplayText": "PIANO DR, HAMILTON"
      }
    ]
  },
  {
    "postal": "L9B0P5",
    "result": []
  },
  {
    "postal": "L9B5A7",
    "result": []
  },
  {
    "postal": "L9B1G1",
    "result": [
      {
        "electoralDistricts": [
          {
            "election": null,
            "id": 31,
            "name": "Flamborough—Glanbrook"
          }
        ],
        "pollDivisionIds": [
          10138259
        ],
        "postalCode": "L9B1G1",
        "streetName": "MALTON",
        "streetDirectionId": null,
        "streetTypeId": "DR",
        "placeName": "HAMILTON",
        "streetNameDisplayText": "MALTON DR, HAMILTON"
      }
    ]
  },
  {
    "postal": "L9B9R6",
    "result": []
  },
  {
    "postal": "L9B4Z9",
    "result": []
  },
  {
    "postal": "L9B1V5",
    "result": []
  },
  {
    "postal": "L9B9Y5",
    "result": []
  },
  {
    "postal": "L9B1P2",
    "result": [
      {
        "electoralDistricts": [
          {
            "election": null,
            "id": 38,
            "name": "Hamilton Mountain"
          }
        ],
        "pollDivisionIds": [
          10138704
        ],
        "postalCode": "L9B1P2",
        "streetName": "UPPER WENTWORTH",
        "streetDirectionId": null,
        "streetTypeId": "ST",
        "placeName": "HAMILTON",
        "streetNameDisplayText": "UPPER WENTWORTH ST, HAMILTON"
      }
    ]
  },
  {
    "postal": "L9B5X0",
    "result": []
  },
  {
    "postal": "L9B7B8",
    "result": []
  },
  {
    "postal": "L9B0C6",
    "result": [
      {
        "electoralDistricts": [
          {
            "election": null,
            "id": 38,
            "name": "Hamilton Mountain"
          }
        ],
        "pollDivisionIds": [
          10138686
        ],
        "postalCode": "L9B0C6",
        "streetName": "ATESSA",
        "streetDirectionId": null,
        "streetTypeId": "DR",
        "placeName": "HAMILTON",
        "streetNameDisplayText": "ATESSA DR, HAMILTON"
      }
    ]
  },
  {
    "postal": "L9B6G1",
    "result": []
  },
  {
    "postal": "L9B3K3",
    "result": []
  },
  {
    "postal": "L9B9R0",
    "result": []
  },
  {
    "postal": "L9B4R8",
    "result": []
  },
  {
    "postal": "L9B5P9",
    "result": []
  },
  {
    "postal": "L9B8N4",
    "result": []
  },
  {
    "postal": "L9B8H4",
    "result": []
  },
  {
    "postal": "L9B4V1",
    "result": []
  },
  {
    "postal": "L9B1K5",
    "result": [
      {
        "electoralDistricts": [
          {
            "election": null,
            "id": 31,
            "name": "Flamborough—Glanbrook"
          }
        ],
        "pollDivisionIds": [
          10138259
        ],
        "postalCode": "L9B1K5",
        "streetName": "UPPER JAMES",
        "streetDirectionId": null,
        "streetTypeId": "ST",
        "placeName": "HAMILTON",
        "streetNameDisplayText": "UPPER JAMES ST, HAMILTON"
      }
    ]
  },
  {
    "postal": "L9B1Z5",
    "result": [
      {
        "electoralDistricts": [
          {
            "election": null,
            "id": 38,
            "name": "Hamilton Mountain"
          }
        ],
        "pollDivisionIds": [
          10138687
        ],
        "postalCode": "L9B1Z5",
        "streetName": "BRIGADE",
        "streetDirectionId": null,
        "streetTypeId": "DR",
        "placeName": "HAMILTON",
        "streetNameDisplayText": "BRIGADE DR, HAMILTON"
      },
      {
        "electoralDistricts": [
          {
            "election": null,
            "id": 38,
            "name": "Hamilton Mountain"
          }
        ],
        "pollDivisionIds": [
          10138687
        ],
        "postalCode": "L9B1Z5",
        "streetName": "CAVALRY",
        "streetDirectionId": null,
        "streetTypeId": "CRT",
        "placeName": "HAMILTON",
        "streetNameDisplayText": "CAVALRY CRT, HAMILTON"
      }
    ]
  },
  {
    "postal": "L9B9L9",
    "result": []
  },
  {
    "postal": "L9B5L2",
    "result": []
  },
  {
    "postal": "L9B0M2",
    "result": []
  },
  {
    "postal": "L9B1K8",
    "result": [
      {
        "electoralDistricts": [
          {
            "election": null,
            "id": 31,
            "name": "Flamborough—Glanbrook"
          }
        ],
        "pollDivisionIds": [
          10138261
        ],
        "postalCode": "L9B1K8",
        "streetName": "UPPER JAMES",
        "streetDirectionId": null,
        "streetTypeId": "ST",
        "placeName": "HAMILTON",
        "streetNameDisplayText": "UPPER JAMES ST, HAMILTON"
      }
    ]
  },
  {
    "postal": "L9B3M7",
    "result": []
  },
  {
    "postal": "L9B1B2",
    "result": [
      {
        "electoralDistricts": [
          {
            "election": null,
            "id": 38,
            "name": "Hamilton Mountain"
          }
        ],
        "pollDivisionIds": [
          10138687
        ],
        "postalCode": "L9B1B2",
        "streetName": "STONE CHURCH",
        "streetDirectionId": "E",
        "streetTypeId": "RD",
        "placeName": "HAMILTON",
        "streetNameDisplayText": "STONE CHURCH RD E, HAMILTON"
      }
    ]
  },
  {
    "postal": "L9B0H9",
    "result": [
      {
        "electoralDistricts": [
          {
            "election": null,
            "id": 38,
            "name": "Hamilton Mountain"
          }
        ],
        "pollDivisionIds": [
          10138686
        ],
        "postalCode": "L9B0H9",
        "streetName": "ASCOLI",
        "streetDirectionId": null,
        "streetTypeId": "DR",
        "placeName": "HAMILTON",
        "streetNameDisplayText": "ASCOLI DR, HAMILTON"
      },
      {
        "electoralDistricts": [
          {
            "election": null,
            "id": 38,
            "name": "Hamilton Mountain"
          }
        ],
        "pollDivisionIds": [
          10138686
        ],
        "postalCode": "L9B0H9",
        "streetName": "RIVA",
        "streetDirectionId": null,
        "streetTypeId": "CRT",
        "placeName": "HAMILTON",
        "streetNameDisplayText": "RIVA CRT, HAMILTON"
      },
      {
        "electoralDistricts": [
          {
            "election": null,
            "id": 38,
            "name": "Hamilton Mountain"
          }
        ],
        "pollDivisionIds": [
          10138686
        ],
        "postalCode": "L9B0H9",
        "streetName": "STELLE",
        "streetDirectionId": null,
        "streetTypeId": "LANE",
        "placeName": "HAMILTON",
        "streetNameDisplayText": "STELLE LANE, HAMILTON"
      }
    ]
  },
  {
    "postal": "L9B8M4",
    "result": []
  },
  {
    "postal": "L9B2M5",
    "result": [
      {
        "electoralDistricts": [
          {
            "election": null,
            "id": 39,
            "name": "Hamilton West—Ancaster—Dundas"
          }
        ],
        "pollDivisionIds": [
          10135297
        ],
        "postalCode": "L9B2M5",
        "streetName": "GISELE",
        "streetDirectionId": null,
        "streetTypeId": "DR",
        "placeName": "HAMILTON",
        "streetNameDisplayText": "GISELE DR, HAMILTON"
      },
      {
        "electoralDistricts": [
          {
            "election": null,
            "id": 39,
            "name": "Hamilton West—Ancaster—Dundas"
          }
        ],
        "pollDivisionIds": [
          10135297
        ],
        "postalCode": "L9B2M5",
        "streetName": "LYNNETTE",
        "streetDirectionId": null,
        "streetTypeId": "DR",
        "placeName": "HAMILTON",
        "streetNameDisplayText": "LYNNETTE DR, HAMILTON"
      },
      {
        "electoralDistricts": [
          {
            "election": null,
            "id": 39,
            "name": "Hamilton West—Ancaster—Dundas"
          }
        ],
        "pollDivisionIds": [
          10135297
        ],
        "postalCode": "L9B2M5",
        "streetName": "WESTVILLAGE",
        "streetDirectionId": null,
        "streetTypeId": "DR",
        "placeName": "HAMILTON",
        "streetNameDisplayText": "WESTVILLAGE DR, HAMILTON"
      }
    ]
  },
  {
    "postal": "L9B0T9",
    "result": []
  },
  {
    "postal": "L9B3P1",
    "result": []
  },
  {
    "postal": "L9B1R6",
    "result": [
      {
        "electoralDistricts": [
          {
            "election": null,
            "id": 39,
            "name": "Hamilton West—Ancaster—Dundas"
          }
        ],
        "pollDivisionIds": [
          10135297
        ],
        "postalCode": "L9B1R6",
        "streetName": "GARTH",
        "streetDirectionId": null,
        "streetTypeId": "ST",
        "placeName": "HAMILTON",
        "streetNameDisplayText": "GARTH ST, HAMILTON"
      }
    ]
  },
  {
    "postal": "L9B9V5",
    "result": []
  },
  {
    "postal": "L9B9T0",
    "result": []
  },
  {
    "postal": "L9B0A9",
    "result": [
      {
        "electoralDistricts": [
          {
            "election": null,
            "id": 39,
            "name": "Hamilton West—Ancaster—Dundas"
          }
        ],
        "pollDivisionIds": [
          10135297
        ],
        "postalCode": "L9B0A9",
        "streetName": "COPPERWOOD",
        "streetDirectionId": null,
        "streetTypeId": "AVE",
        "placeName": "HAMILTON",
        "streetNameDisplayText": "COPPERWOOD AVE, HAMILTON"
      },
      {
        "electoralDistricts": [
          {
            "election": null,
            "id": 39,
            "name": "Hamilton West—Ancaster—Dundas"
          }
        ],
        "pollDivisionIds": [
          10135297
        ],
        "postalCode": "L9B0A9",
        "streetName": "GATEWOOD",
        "streetDirectionId": null,
        "streetTypeId": "CRT",
        "placeName": "HAMILTON",
        "streetNameDisplayText": "GATEWOOD CRT, HAMILTON"
      }
    ]
  },
  {
    "postal": "L9B1M3",
    "result": [
      {
        "electoralDistricts": [
          {
            "election": null,
            "id": 31,
            "name": "Flamborough—Glanbrook"
          }
        ],
        "pollDivisionIds": [
          10138261
        ],
        "postalCode": "L9B1M3",
        "streetName": "SENECA",
        "streetDirectionId": null,
        "streetTypeId": "AVE",
        "placeName": "HAMILTON",
        "streetNameDisplayText": "SENECA AVE, HAMILTON"
      }
    ]
  },
  {
    "postal": "L9B1W8",
    "result": [
      {
        "electoralDistricts": [
          {
            "election": null,
            "id": 39,
            "name": "Hamilton West—Ancaster—Dundas"
          }
        ],
        "pollDivisionIds": [
          10135297
        ],
        "postalCode": "L9B1W8",
        "streetName": "CHRIS",
        "streetDirectionId": null,
        "streetTypeId": "CRT",
        "placeName": "HAMILTON",
        "streetNameDisplayText": "CHRIS CRT, HAMILTON"
      },
      {
        "electoralDistricts": [
          {
            "election": null,
            "id": 39,
            "name": "Hamilton West—Ancaster—Dundas"
          }
        ],
        "pollDivisionIds": [
          10135297
        ],
        "postalCode": "L9B1W8",
        "streetName": "HORIZON",
        "streetDirectionId": null,
        "streetTypeId": "CRT",
        "placeName": "HAMILTON",
        "streetNameDisplayText": "HORIZON CRT, HAMILTON"
      }
    ]
  },
  {
    "postal": "L9B9J1",
    "result": []
  },
  {
    "postal": "L9B8N5",
    "result": []
  },
  {
    "postal": "L9B5X1",
    "result": []
  },
  {
    "postal": "L9B6S2",
    "result": []
  },
  {
    "postal": "L9B2A2",
    "result": [
      {
        "electoralDistricts": [
          {
            "election": null,
            "id": 38,
            "name": "Hamilton Mountain"
          }
        ],
        "pollDivisionIds": [
          10138687
        ],
        "postalCode": "L9B2A2",
        "streetName": "STONE CHURCH",
        "streetDirectionId": "E",
        "streetTypeId": "RD",
        "placeName": "HAMILTON",
        "streetNameDisplayText": "STONE CHURCH RD E, HAMILTON"
      }
    ]
  },
  {
    "postal": "L9B6A6",
    "result": []
  },
  {
    "postal": "L9B0S3",
    "result": []
  },
  {
    "postal": "L9B3E7",
    "result": []
  },
  {
    "postal": "L9B5R7",
    "result": []
  },
  {
    "postal": "L9B3R6",
    "result": []
  },
  {
    "postal": "L9B6K4",
    "result": []
  },
  {
    "postal": "L9B2W5",
    "result": [
      {
        "electoralDistricts": [
          {
            "election": null,
            "id": 38,
            "name": "Hamilton Mountain"
          }
        ],
        "pollDivisionIds": [
          10138686
        ],
        "postalCode": "L9B2W5",
        "streetName": "COMO",
        "streetDirectionId": null,
        "streetTypeId": "PL",
        "placeName": "HAMILTON",
        "streetNameDisplayText": "COMO PL, HAMILTON"
      }
    ]
  },
  {
    "postal": "L9B8W4",
    "result": []
  },
  {
    "postal": "L9B9C2",
    "result": []
  },
  {
    "postal": "L9B2C0",
    "result": []
  },
  {
    "postal": "L9B0E1",
    "result": [
      {
        "electoralDistricts": [
          {
            "election": null,
            "id": 31,
            "name": "Flamborough—Glanbrook"
          }
        ],
        "pollDivisionIds": [
          10138261
        ],
        "postalCode": "L9B0E1",
        "streetName": "GRETI",
        "streetDirectionId": null,
        "streetTypeId": "AVE",
        "placeName": "HAMILTON",
        "streetNameDisplayText": "GRETI AVE, HAMILTON"
      },
      {
        "electoralDistricts": [
          {
            "election": null,
            "id": 31,
            "name": "Flamborough—Glanbrook"
          }
        ],
        "pollDivisionIds": [
          10138261
        ],
        "postalCode": "L9B0E1",
        "streetName": "GRETI",
        "streetDirectionId": null,
        "streetTypeId": "DR",
        "placeName": "HAMILTON",
        "streetNameDisplayText": "GRETI DR, HAMILTON"
      },
      {
        "electoralDistricts": [
          {
            "election": null,
            "id": 31,
            "name": "Flamborough—Glanbrook"
          }
        ],
        "pollDivisionIds": [
          10138261
        ],
        "postalCode": "L9B0E1",
        "streetName": "MOTHER'S",
        "streetDirectionId": null,
        "streetTypeId": "ST",
        "placeName": "HAMILTON",
        "streetNameDisplayText": "MOTHER'S ST, HAMILTON"
      }
    ]
  },
  {
    "postal": "L9B1K9",
    "result": [
      {
        "electoralDistricts": [
          {
            "election": null,
            "id": 31,
            "name": "Flamborough—Glanbrook"
          }
        ],
        "pollDivisionIds": [
          10138259,
          10138261
        ],
        "postalCode": "L9B1K9",
        "streetName": "UPPER JAMES",
        "streetDirectionId": null,
        "streetTypeId": "ST",
        "placeName": "HAMILTON",
        "streetNameDisplayText": "UPPER JAMES ST, HAMILTON"
      }
    ]
  },
  {
    "postal": "L9B1G7",
    "result": [
      {
        "electoralDistricts": [
          {
            "election": null,
            "id": 31,
            "name": "Flamborough—Glanbrook"
          }
        ],
        "pollDivisionIds": [
          10138259
        ],
        "postalCode": "L9B1G7",
        "streetName": "CHRISTOPHER",
        "streetDirectionId": null,
        "streetTypeId": "DR",
        "placeName": "HAMILTON",
        "streetNameDisplayText": "CHRISTOPHER DR, HAMILTON"
      }
    ]
  },
  {
    "postal": "L9B4E9",
    "result": []
  },
  {
    "postal": "L9B9P0",
    "result": []
  },
  {
    "postal": "L9B5H3",
    "result": []
  },
  {
    "postal": "L9B9X6",
    "result": []
  },
  {
    "postal": "L9B5N7",
    "result": []
  },
  {
    "postal": "L9B5A6",
    "result": []
  },
  {
    "postal": "L9B4M0",
    "result": []
  },
  {
    "postal": "L9B3V6",
    "result": []
  },
  {
    "postal": "L9B1L7",
    "result": [
      {
        "electoralDistricts": [
          {
            "election": null,
            "id": 31,
            "name": "Flamborough—Glanbrook"
          }
        ],
        "pollDivisionIds": [
          10138261
        ],
        "postalCode": "L9B1L7",
        "streetName": "ALDERCREST",
        "streetDirectionId": null,
        "streetTypeId": "AVE",
        "placeName": "HAMILTON",
        "streetNameDisplayText": "ALDERCREST AVE, HAMILTON"
      }
    ]
  },
  {
    "postal": "L9B2P9",
    "result": [
      {
        "electoralDistricts": [
          {
            "election": null,
            "id": 39,
            "name": "Hamilton West—Ancaster—Dundas"
          }
        ],
        "pollDivisionIds": [
          10135294,
          10135297,
          10135293
        ],
        "postalCode": "L9B2P9",
        "streetName": "STONE CHURCH",
        "streetDirectionId": "W",
        "streetTypeId": "RD",
        "placeName": "HAMILTON",
        "streetNameDisplayText": "STONE CHURCH RD W, HAMILTON"
      },
      {
        "electoralDistricts": [
          {
            "election": null,
            "id": 39,
            "name": "Hamilton West—Ancaster—Dundas"
          }
        ],
        "pollDivisionIds": [
          10135293
        ],
        "postalCode": "L9B2P9",
        "streetName": "STONECHURCH",
        "streetDirectionId": "W",
        "streetTypeId": "RD",
        "placeName": "HAMILTON",
        "streetNameDisplayText": "STONECHURCH RD W, HAMILTON"
      }
    ]
  },
  {
    "postal": "L9B5T4",
    "result": []
  },
  {
    "postal": "L9B5Z1",
    "result": []
  },
  {
    "postal": "L9B2X0",
    "result": []
  },
  {
    "postal": "L9B6Z2",
    "result": []
  },
  {
    "postal": "L9B0E0",
    "result": []
  },
  {
    "postal": "L9B3Z5",
    "result": []
  },
  {
    "postal": "L9B8H3",
    "result": []
  },
  {
    "postal": "L9B7S6",
    "result": []
  },
  {
    "postal": "L9B4C1",
    "result": []
  },
  {
    "postal": "L9B3K2",
    "result": []
  },
  {
    "postal": "L9B1Y5",
    "result": [
      {
        "electoralDistricts": [
          {
            "election": null,
            "id": 38,
            "name": "Hamilton Mountain"
          }
        ],
        "pollDivisionIds": [
          10138686
        ],
        "postalCode": "L9B1Y5",
        "streetName": "COMO",
        "streetDirectionId": null,
        "streetTypeId": "PL",
        "placeName": "HAMILTON",
        "streetNameDisplayText": "COMO PL, HAMILTON"
      },
      {
        "electoralDistricts": [
          {
            "election": null,
            "id": 38,
            "name": "Hamilton Mountain"
          }
        ],
        "pollDivisionIds": [
          10138686
        ],
        "postalCode": "L9B1Y5",
        "streetName": "TORINO",
        "streetDirectionId": null,
        "streetTypeId": "DR",
        "placeName": "HAMILTON",
        "streetNameDisplayText": "TORINO DR, HAMILTON"
      }
    ]
  },
  {
    "postal": "L9B6P6",
    "result": []
  },
  {
    "postal": "L9B3N9",
    "result": []
  },
  {
    "postal": "L9B3W2",
    "result": []
  },
  {
    "postal": "L9B6H8",
    "result": []
  },
  {
    "postal": "L9B9T3",
    "result": []
  },
  {
    "postal": "L9B5L9",
    "result": []
  },
  {
    "postal": "L9B7X7",
    "result": []
  },
  {
    "postal": "L9B3J5",
    "result": []
  },
  {
    "postal": "L9B4J5",
    "result": []
  },
  {
    "postal": "L9B6J2",
    "result": []
  },
  {
    "postal": "L9B5V6",
    "result": []
  },
  {
    "postal": "L9B3N2",
    "result": []
  },
  {
    "postal": "L9B3B1",
    "result": []
  },
  {
    "postal": "L9B8B5",
    "result": []
  },
  {
    "postal": "L9B0K1",
    "result": []
  },
  {
    "postal": "L9B7M7",
    "result": []
  },
  {
    "postal": "L9B2M2",
    "result": [
      {
        "electoralDistricts": [
          {
            "election": null,
            "id": 31,
            "name": "Flamborough—Glanbrook"
          }
        ],
        "pollDivisionIds": [
          10138258
        ],
        "postalCode": "L9B2M2",
        "streetName": "ARCHDEACON CLARK",
        "streetDirectionId": null,
        "streetTypeId": "TRAIL",
        "placeName": "HAMILTON",
        "streetNameDisplayText": "ARCHDEACON CLARK TRAIL, HAMILTON"
      },
      {
        "electoralDistricts": [
          {
            "election": null,
            "id": 31,
            "name": "Flamborough—Glanbrook"
          }
        ],
        "pollDivisionIds": [
          10138258
        ],
        "postalCode": "L9B2M2",
        "streetName": "LIEUTENANT REPEI",
        "streetDirectionId": null,
        "streetTypeId": "LANE",
        "placeName": "HAMILTON",
        "streetNameDisplayText": "LIEUTENANT REPEI LANE, HAMILTON"
      },
      {
        "electoralDistricts": [
          {
            "election": null,
            "id": 31,
            "name": "Flamborough—Glanbrook"
          }
        ],
        "pollDivisionIds": [
          10138258
        ],
        "postalCode": "L9B2M2",
        "streetName": "MONSEIGNEUR HENKEY",
        "streetDirectionId": null,
        "streetTypeId": "TERR",
        "placeName": "HAMILTON",
        "streetNameDisplayText": "MONSEIGNEUR HENKEY TERR, HAMILTON"
      }
    ]
  },
  {
    "postal": "L9B9N3",
    "result": []
  },
  {
    "postal": "L9B4Y8",
    "result": []
  },
  {
    "postal": "L9B3V7",
    "result": []
  },
  {
    "postal": "L9B8Z1",
    "result": []
  },
  {
    "postal": "L9B7B3",
    "result": []
  },
  {
    "postal": "L9B3A8",
    "result": []
  },
  {
    "postal": "L9B7V5",
    "result": []
  },
  {
    "postal": "L9B2T2",
    "result": [
      {
        "electoralDistricts": [
          {
            "election": null,
            "id": 31,
            "name": "Flamborough—Glanbrook"
          }
        ],
        "pollDivisionIds": [
          10138255
        ],
        "postalCode": "L9B2T2",
        "streetName": "KITTYHAWK",
        "streetDirectionId": null,
        "streetTypeId": "DR",
        "placeName": "HAMILTON",
        "streetNameDisplayText": "KITTYHAWK DR, HAMILTON"
      },
      {
        "electoralDistricts": [
          {
            "election": null,
            "id": 31,
            "name": "Flamborough—Glanbrook"
          }
        ],
        "pollDivisionIds": [
          10138255
        ],
        "postalCode": "L9B2T2",
        "streetName": "UPPER PARADISE",
        "streetDirectionId": null,
        "streetTypeId": "RD",
        "placeName": "HAMILTON",
        "streetNameDisplayText": "UPPER PARADISE RD, HAMILTON"
      }
    ]
  },
  {
    "postal": "L9B6L3",
    "result": []
  },
  {
    "postal": "L9B0L2",
    "result": []
  },
  {
    "postal": "L9B5Y8",
    "result": []
  },
  {
    "postal": "L9B0B8",
    "result": [
      {
        "electoralDistricts": [
          {
            "election": null,
            "id": 31,
            "name": "Flamborough—Glanbrook"
          }
        ],
        "pollDivisionIds": [
          10138256
        ],
        "postalCode": "L9B0B8",
        "streetName": "BALLANTYNE",
        "streetDirectionId": null,
        "streetTypeId": "TRAIL",
        "placeName": "HAMILTON",
        "streetNameDisplayText": "BALLANTYNE TRAIL, HAMILTON"
      },
      {
        "electoralDistricts": [
          {
            "election": null,
            "id": 31,
            "name": "Flamborough—Glanbrook"
          }
        ],
        "pollDivisionIds": [
          10138256
        ],
        "postalCode": "L9B0B8",
        "streetName": "EFFORT",
        "streetDirectionId": null,
        "streetTypeId": "TRAIL",
        "placeName": "HAMILTON",
        "streetNameDisplayText": "EFFORT TRAIL, HAMILTON"
      },
      {
        "electoralDistricts": [
          {
            "election": null,
            "id": 31,
            "name": "Flamborough—Glanbrook"
          }
        ],
        "pollDivisionIds": [
          10138256
        ],
        "postalCode": "L9B0B8",
        "streetName": "ENDWOOD",
        "streetDirectionId": null,
        "streetTypeId": "TRAIL",
        "placeName": "HAMILTON",
        "streetNameDisplayText": "ENDWOOD TRAIL, HAMILTON"
      },
      {
        "electoralDistricts": [
          {
            "election": null,
            "id": 31,
            "name": "Flamborough—Glanbrook"
          }
        ],
        "pollDivisionIds": [
          10138256
        ],
        "postalCode": "L9B0B8",
        "streetName": "HALLMARK",
        "streetDirectionId": null,
        "streetTypeId": "TRAIL",
        "placeName": "HAMILTON",
        "streetNameDisplayText": "HALLMARK TRAIL, HAMILTON"
      },
      {
        "electoralDistricts": [
          {
            "election": null,
            "id": 31,
            "name": "Flamborough—Glanbrook"
          }
        ],
        "pollDivisionIds": [
          10138256
        ],
        "postalCode": "L9B0B8",
        "streetName": "OAKHAMPTON",
        "streetDirectionId": null,
        "streetTypeId": "TRAIL",
        "placeName": "HAMILTON",
        "streetNameDisplayText": "OAKHAMPTON TRAIL, HAMILTON"
      }
    ]
  },
  {
    "postal": "L9B6R5",
    "result": []
  },
  {
    "postal": "L9B8W6",
    "result": []
  },
  {
    "postal": "L9B8G6",
    "result": []
  },
  {
    "postal": "L9B6X3",
    "result": []
  },
  {
    "postal": "L9B7R7",
    "result": []
  },
  {
    "postal": "L9B4B6",
    "result": []
  },
  {
    "postal": "L9B3P9",
    "result": []
  },
  {
    "postal": "L9B2T3",
    "result": [
      {
        "electoralDistricts": [
          {
            "election": null,
            "id": 38,
            "name": "Hamilton Mountain"
          }
        ],
        "pollDivisionIds": [
          10138685
        ],
        "postalCode": "L9B2T3",
        "streetName": "ALEXSIA",
        "streetDirectionId": null,
        "streetTypeId": "CRT",
        "placeName": "HAMILTON",
        "streetNameDisplayText": "ALEXSIA CRT, HAMILTON"
      },
      {
        "electoralDistricts": [
          {
            "election": null,
            "id": 38,
            "name": "Hamilton Mountain"
          }
        ],
        "pollDivisionIds": [
          10138685
        ],
        "postalCode": "L9B2T3",
        "streetName": "KONSTANTINE",
        "streetDirectionId": null,
        "streetTypeId": "CRT",
        "placeName": "HAMILTON",
        "streetNameDisplayText": "KONSTANTINE CRT, HAMILTON"
      }
    ]
  },
  {
    "postal": "L9B1M4",
    "result": [
      {
        "electoralDistricts": [
          {
            "election": null,
            "id": 31,
            "name": "Flamborough—Glanbrook"
          }
        ],
        "pollDivisionIds": [
          10138261
        ],
        "postalCode": "L9B1M4",
        "streetName": "SENECA",
        "streetDirectionId": null,
        "streetTypeId": "AVE",
        "placeName": "HAMILTON",
        "streetNameDisplayText": "SENECA AVE, HAMILTON"
      }
    ]
  },
  {
    "postal": "L9B0H1",
    "result": [
      {
        "electoralDistricts": [
          {
            "election": null,
            "id": 31,
            "name": "Flamborough—Glanbrook"
          },
          {
            "election": null,
            "id": 39,
            "name": "Hamilton West—Ancaster—Dundas"
          }
        ],
        "pollDivisionIds": [
          10138255,
          10135296
        ],
        "postalCode": "L9B0H1",
        "streetName": "MADONNA",
        "streetDirectionId": null,
        "streetTypeId": "DR",
        "placeName": "HAMILTON",
        "streetNameDisplayText": "MADONNA DR, HAMILTON"
      }
    ]
  },
  {
    "postal": "L9B9W3",
    "result": []
  },
  {
    "postal": "L9B6P1",
    "result": []
  },
  {
    "postal": "L9B7G2",
    "result": []
  },
  {
    "postal": "L9B4J9",
    "result": []
  },
  {
    "postal": "L9B9E4",
    "result": []
  },
  {
    "postal": "L9B8H0",
    "result": []
  },
  {
    "postal": "L9B4M7",
    "result": []
  },
  {
    "postal": "L9B2G9",
    "result": [
      {
        "electoralDistricts": [
          {
            "election": null,
            "id": 38,
            "name": "Hamilton Mountain"
          }
        ],
        "pollDivisionIds": [
          10138687
        ],
        "postalCode": "L9B2G9",
        "streetName": "BASTILLE",
        "streetDirectionId": null,
        "streetTypeId": "ST",
        "placeName": "HAMILTON",
        "streetNameDisplayText": "BASTILLE ST, HAMILTON"
      }
    ]
  },
  {
    "postal": "L9B8T2",
    "result": []
  },
  {
    "postal": "L9B7G7",
    "result": []
  },
  {
    "postal": "L9B4Z3",
    "result": []
  },
  {
    "postal": "L9B5B3",
    "result": []
  },
  {
    "postal": "L9B1S7",
    "result": [
      {
        "electoralDistricts": [
          {
            "election": null,
            "id": 39,
            "name": "Hamilton West—Ancaster—Dundas"
          }
        ],
        "pollDivisionIds": [
          10135297
        ],
        "postalCode": "L9B1S7",
        "streetName": "ROLAND",
        "streetDirectionId": null,
        "streetTypeId": "RD",
        "placeName": "HAMILTON",
        "streetNameDisplayText": "ROLAND RD, HAMILTON"
      }
    ]
  },
  {
    "postal": "L9B2N7",
    "result": [
      {
        "electoralDistricts": [
          {
            "election": null,
            "id": 39,
            "name": "Hamilton West—Ancaster—Dundas"
          }
        ],
        "pollDivisionIds": [
          10135297
        ],
        "postalCode": "L9B2N7",
        "streetName": "STONE CHURCH",
        "streetDirectionId": "W",
        "streetTypeId": "RD",
        "placeName": "HAMILTON",
        "streetNameDisplayText": "STONE CHURCH RD W, HAMILTON"
      }
    ]
  },
  {
    "postal": "L9B0H8",
    "result": [
      {
        "electoralDistricts": [
          {
            "election": null,
            "id": 38,
            "name": "Hamilton Mountain"
          }
        ],
        "pollDivisionIds": [
          10138686
        ],
        "postalCode": "L9B0H8",
        "streetName": "AQUASANTA",
        "streetDirectionId": null,
        "streetTypeId": "CRES",
        "placeName": "HAMILTON",
        "streetNameDisplayText": "AQUASANTA CRES, HAMILTON"
      },
      {
        "electoralDistricts": [
          {
            "election": null,
            "id": 38,
            "name": "Hamilton Mountain"
          }
        ],
        "pollDivisionIds": [
          10138686
        ],
        "postalCode": "L9B0H8",
        "streetName": "ASCOLI",
        "streetDirectionId": null,
        "streetTypeId": "DR",
        "placeName": "HAMILTON",
        "streetNameDisplayText": "ASCOLI DR, HAMILTON"
      }
    ]
  },
  {
    "postal": "L9B7Z4",
    "result": []
  },
  {
    "postal": "L9B7B1",
    "result": []
  },
  {
    "postal": "L9B7P8",
    "result": []
  },
  {
    "postal": "L9B7N0",
    "result": []
  },
  {
    "postal": "L9B3Y5",
    "result": []
  },
  {
    "postal": "L9B6K1",
    "result": []
  },
  {
    "postal": "L9B9X5",
    "result": []
  },
  {
    "postal": "L9B7S5",
    "result": []
  },
  {
    "postal": "L9B0A4",
    "result": [
      {
        "electoralDistricts": [
          {
            "election": null,
            "id": 31,
            "name": "Flamborough—Glanbrook"
          }
        ],
        "pollDivisionIds": [
          10138256
        ],
        "postalCode": "L9B0A4",
        "streetName": "ABBOTSFORD",
        "streetDirectionId": null,
        "streetTypeId": "TRAIL",
        "placeName": "HAMILTON",
        "streetNameDisplayText": "ABBOTSFORD TRAIL, HAMILTON"
      },
      {
        "electoralDistricts": [
          {
            "election": null,
            "id": 31,
            "name": "Flamborough—Glanbrook"
          }
        ],
        "pollDivisionIds": [
          10138256
        ],
        "postalCode": "L9B0A4",
        "streetName": "EFFORT",
        "streetDirectionId": null,
        "streetTypeId": "TRAIL",
        "placeName": "HAMILTON",
        "streetNameDisplayText": "EFFORT TRAIL, HAMILTON"
      },
      {
        "electoralDistricts": [
          {
            "election": null,
            "id": 31,
            "name": "Flamborough—Glanbrook"
          }
        ],
        "pollDivisionIds": [
          10138256
        ],
        "postalCode": "L9B0A4",
        "streetName": "HALLMARK",
        "streetDirectionId": null,
        "streetTypeId": "TRAIL",
        "placeName": "HAMILTON",
        "streetNameDisplayText": "HALLMARK TRAIL, HAMILTON"
      },
      {
        "electoralDistricts": [
          {
            "election": null,
            "id": 31,
            "name": "Flamborough—Glanbrook"
          }
        ],
        "pollDivisionIds": [
          10138256
        ],
        "postalCode": "L9B0A4",
        "streetName": "MAPLELEAF",
        "streetDirectionId": null,
        "streetTypeId": "TRAIL",
        "placeName": "HAMILTON",
        "streetNameDisplayText": "MAPLELEAF TRAIL, HAMILTON"
      },
      {
        "electoralDistricts": [
          {
            "election": null,
            "id": 31,
            "name": "Flamborough—Glanbrook"
          }
        ],
        "pollDivisionIds": [
          10138256
        ],
        "postalCode": "L9B0A4",
        "streetName": "MULLIGAN",
        "streetDirectionId": null,
        "streetTypeId": "TRAIL",
        "placeName": "HAMILTON",
        "streetNameDisplayText": "MULLIGAN TRAIL, HAMILTON"
      },
      {
        "electoralDistricts": [
          {
            "election": null,
            "id": 31,
            "name": "Flamborough—Glanbrook"
          }
        ],
        "pollDivisionIds": [
          10138256
        ],
        "postalCode": "L9B0A4",
        "streetName": "OAKHAMPTON",
        "streetDirectionId": null,
        "streetTypeId": "TRAIL",
        "placeName": "HAMILTON",
        "streetNameDisplayText": "OAKHAMPTON TRAIL, HAMILTON"
      }
    ]
  },
  {
    "postal": "L9B4T5",
    "result": []
  },
  {
    "postal": "L9B5K1",
    "result": []
  },
  {
    "postal": "L9B0Z9",
    "result": []
  },
  {
    "postal": "L9B7T2",
    "result": []
  },
  {
    "postal": "L9B1L5",
    "result": [
      {
        "electoralDistricts": [
          {
            "election": null,
            "id": 31,
            "name": "Flamborough—Glanbrook"
          }
        ],
        "pollDivisionIds": [
          10138261
        ],
        "postalCode": "L9B1L5",
        "streetName": "ALDERCREST",
        "streetDirectionId": null,
        "streetTypeId": "AVE",
        "placeName": "HAMILTON",
        "streetNameDisplayText": "ALDERCREST AVE, HAMILTON"
      }
    ]
  },
  {
    "postal": "L9B3N5",
    "result": []
  },
  {
    "postal": "L9B6H4",
    "result": []
  },
  {
    "postal": "L9B5A5",
    "result": []
  },
  {
    "postal": "L9B3R9",
    "result": []
  },
  {
    "postal": "L9B7L8",
    "result": []
  },
  {
    "postal": "L9B6T6",
    "result": []
  },
  {
    "postal": "L9B7Y7",
    "result": []
  },
  {
    "postal": "L9B3M8",
    "result": []
  },
  {
    "postal": "L9B2E0",
    "result": []
  },
  {
    "postal": "L9B4B5",
    "result": []
  },
  {
    "postal": "L9B1J3",
    "result": [
      {
        "electoralDistricts": [
          {
            "election": null,
            "id": 39,
            "name": "Hamilton West—Ancaster—Dundas"
          }
        ],
        "pollDivisionIds": [
          10135297
        ],
        "postalCode": "L9B1J3",
        "streetName": "MCINTOSH",
        "streetDirectionId": null,
        "streetTypeId": "AVE",
        "placeName": "HAMILTON",
        "streetNameDisplayText": "MCINTOSH AVE, HAMILTON"
      }
    ]
  },
  {
    "postal": "L9B5S6",
    "result": []
  },
  {
    "postal": "L9B8P7",
    "result": []
  },
  {
    "postal": "L9B7S7",
    "result": []
  },
  {
    "postal": "L9B4C2",
    "result": []
  },
  {
    "postal": "L9B5Y0",
    "result": []
  },
  {
    "postal": "L9B2V7",
    "result": [
      {
        "electoralDistricts": [
          {
            "election": null,
            "id": 31,
            "name": "Flamborough—Glanbrook"
          }
        ],
        "pollDivisionIds": [
          10138259
        ],
        "postalCode": "L9B2V7",
        "streetName": "JACQUELINE",
        "streetDirectionId": null,
        "streetTypeId": "BLVD",
        "placeName": "HAMILTON",
        "streetNameDisplayText": "JACQUELINE BLVD, HAMILTON"
      }
    ]
  },
  {
    "postal": "L9B8P5",
    "result": []
  },
  {
    "postal": "L9B5P5",
    "result": []
  },
  {
    "postal": "L9B5Z0",
    "result": []
  },
  {
    "postal": "L9B9B0",
    "result": []
  },
  {
    "postal": "L9B1L0",
    "result": []
  },
  {
    "postal": "L9B0B5",
    "result": [
      {
        "electoralDistricts": [
          {
            "election": null,
            "id": 38,
            "name": "Hamilton Mountain"
          }
        ],
        "pollDivisionIds": [
          10138686
        ],
        "postalCode": "L9B0B5",
        "streetName": "SAN FELICE",
        "streetDirectionId": null,
        "streetTypeId": "LANE",
        "placeName": "HAMILTON",
        "streetNameDisplayText": "SAN FELICE LANE, HAMILTON"
      },
      {
        "electoralDistricts": [
          {
            "election": null,
            "id": 38,
            "name": "Hamilton Mountain"
          }
        ],
        "pollDivisionIds": [
          10138686
        ],
        "postalCode": "L9B0B5",
        "streetName": "SILAS",
        "streetDirectionId": null,
        "streetTypeId": "ST",
        "placeName": "HAMILTON",
        "streetNameDisplayText": "SILAS ST, HAMILTON"
      }
    ]
  },
  {
    "postal": "L9B3L2",
    "result": []
  },
  {
    "postal": "L9B3B7",
    "result": []
  },
  {
    "postal": "L9B8L1",
    "result": []
  },
  {
    "postal": "L9B5M4",
    "result": []
  },
  {
    "postal": "L9B4G9",
    "result": []
  },
  {
    "postal": "L9B0P0",
    "result": []
  },
  {
    "postal": "L9B8G2",
    "result": []
  },
  {
    "postal": "L9B1V9",
    "result": [
      {
        "electoralDistricts": [
          {
            "election": null,
            "id": 39,
            "name": "Hamilton West—Ancaster—Dundas"
          }
        ],
        "pollDivisionIds": [
          10135297
        ],
        "postalCode": "L9B1V9",
        "streetName": "DYDZAK",
        "streetDirectionId": null,
        "streetTypeId": "CRT",
        "placeName": "HAMILTON",
        "streetNameDisplayText": "DYDZAK CRT, HAMILTON"
      }
    ]
  },
  {
    "postal": "L9B8N8",
    "result": []
  },
  {
    "postal": "L9B6S8",
    "result": []
  },
  {
    "postal": "L9B8H2",
    "result": []
  },
  {
    "postal": "L9B5R8",
    "result": []
  },
  {
    "postal": "L9B5L4",
    "result": []
  },
  {
    "postal": "L9B9E1",
    "result": []
  },
  {
    "postal": "L9B1C4",
    "result": [
      {
        "electoralDistricts": [
          {
            "election": null,
            "id": 31,
            "name": "Flamborough—Glanbrook"
          }
        ],
        "pollDivisionIds": [
          10138259
        ],
        "postalCode": "L9B1C4",
        "streetName": "KENNEDY",
        "streetDirectionId": null,
        "streetTypeId": "AVE",
        "placeName": "HAMILTON",
        "streetNameDisplayText": "KENNEDY AVE, HAMILTON"
      }
    ]
  },
  {
    "postal": "L9B8W5",
    "result": []
  },
  {
    "postal": "L9B1Y4",
    "result": [
      {
        "electoralDistricts": [
          {
            "election": null,
            "id": 38,
            "name": "Hamilton Mountain"
          }
        ],
        "pollDivisionIds": [
          10138686
        ],
        "postalCode": "L9B1Y4",
        "streetName": "COMO",
        "streetDirectionId": null,
        "streetTypeId": "PL",
        "placeName": "HAMILTON",
        "streetNameDisplayText": "COMO PL, HAMILTON"
      },
      {
        "electoralDistricts": [
          {
            "election": null,
            "id": 38,
            "name": "Hamilton Mountain"
          }
        ],
        "pollDivisionIds": [
          10138686
        ],
        "postalCode": "L9B1Y4",
        "streetName": "TORINO",
        "streetDirectionId": null,
        "streetTypeId": "DR",
        "placeName": "HAMILTON",
        "streetNameDisplayText": "TORINO DR, HAMILTON"
      }
    ]
  },
  {
    "postal": "L9B1C0",
    "result": []
  },
  {
    "postal": "L9B2J2",
    "result": [
      {
        "electoralDistricts": [
          {
            "election": null,
            "id": 38,
            "name": "Hamilton Mountain"
          }
        ],
        "pollDivisionIds": [
          10138687
        ],
        "postalCode": "L9B2J2",
        "streetName": "BYNG",
        "streetDirectionId": null,
        "streetTypeId": "ST",
        "placeName": "HAMILTON",
        "streetNameDisplayText": "BYNG ST, HAMILTON"
      },
      {
        "electoralDistricts": [
          {
            "election": null,
            "id": 38,
            "name": "Hamilton Mountain"
          }
        ],
        "pollDivisionIds": [
          10138687
        ],
        "postalCode": "L9B2J2",
        "streetName": "MASSENA",
        "streetDirectionId": null,
        "streetTypeId": "DR",
        "placeName": "HAMILTON",
        "streetNameDisplayText": "MASSENA DR, HAMILTON"
      },
      {
        "electoralDistricts": [
          {
            "election": null,
            "id": 38,
            "name": "Hamilton Mountain"
          }
        ],
        "pollDivisionIds": [
          10138687
        ],
        "postalCode": "L9B2J2",
        "streetName": "NAPLES",
        "streetDirectionId": null,
        "streetTypeId": "BLVD",
        "placeName": "HAMILTON",
        "streetNameDisplayText": "NAPLES BLVD, HAMILTON"
      }
    ]
  },
  {
    "postal": "L9B2J0",
    "result": []
  },
  {
    "postal": "L9B7A3",
    "result": []
  },
  {
    "postal": "L9B8M1",
    "result": []
  },
  {
    "postal": "L9B7T9",
    "result": []
  },
  {
    "postal": "L9B6C0",
    "result": []
  },
  {
    "postal": "L9B7X1",
    "result": []
  },
  {
    "postal": "L9B0G1",
    "result": [
      {
        "electoralDistricts": [
          {
            "election": null,
            "id": 38,
            "name": "Hamilton Mountain"
          }
        ],
        "pollDivisionIds": [
          10138685
        ],
        "postalCode": "L9B0G1",
        "streetName": "HAZELTON",
        "streetDirectionId": null,
        "streetTypeId": "AVE",
        "placeName": "HAMILTON",
        "streetNameDisplayText": "HAZELTON AVE, HAMILTON"
      },
      {
        "electoralDistricts": [
          {
            "election": null,
            "id": 38,
            "name": "Hamilton Mountain"
          }
        ],
        "pollDivisionIds": [
          10138685
        ],
        "postalCode": "L9B0G1",
        "streetName": "SUMMERBERRY",
        "streetDirectionId": null,
        "streetTypeId": "WAY",
        "placeName": "HAMILTON",
        "streetNameDisplayText": "SUMMERBERRY WAY, HAMILTON"
      }
    ]
  },
  {
    "postal": "L9B4X2",
    "result": []
  },
  {
    "postal": "L9B0N6",
    "result": []
  },
  {
    "postal": "L9B8E3",
    "result": []
  },
  {
    "postal": "L9B5S8",
    "result": []
  },
  {
    "postal": "L9B0R0",
    "result": []
  },
  {
    "postal": "L9B6J6",
    "result": []
  },
  {
    "postal": "L9B4B4",
    "result": []
  },
  {
    "postal": "L9B7E3",
    "result": []
  },
  {
    "postal": "L9B3N6",
    "result": []
  },
  {
    "postal": "L9B3X6",
    "result": []
  },
  {
    "postal": "L9B8L0",
    "result": []
  },
  {
    "postal": "L9B8N1",
    "result": []
  },
  {
    "postal": "L9B4J0",
    "result": []
  },
  {
    "postal": "L9B0X7",
    "result": []
  },
  {
    "postal": "L9B6S4",
    "result": []
  },
  {
    "postal": "L9B0Z0",
    "result": []
  },
  {
    "postal": "L9B9X8",
    "result": []
  },
  {
    "postal": "L9B3H3",
    "result": []
  },
  {
    "postal": "L9B7S2",
    "result": []
  },
  {
    "postal": "L9B3T3",
    "result": []
  },
  {
    "postal": "L9B9P3",
    "result": []
  },
  {
    "postal": "L9B4H8",
    "result": []
  },
  {
    "postal": "L9B6R1",
    "result": []
  },
  {
    "postal": "L9B1S0",
    "result": []
  },
  {
    "postal": "L9B3W8",
    "result": []
  },
  {
    "postal": "L9B4S3",
    "result": []
  },
  {
    "postal": "L9B1B6",
    "result": []
  },
  {
    "postal": "L9B8R3",
    "result": []
  },
  {
    "postal": "L9B4V9",
    "result": []
  },
  {
    "postal": "L9B9W4",
    "result": []
  },
  {
    "postal": "L9B3T4",
    "result": []
  },
  {
    "postal": "L9B5C7",
    "result": []
  },
  {
    "postal": "L9B3Y1",
    "result": []
  },
  {
    "postal": "L9B5V0",
    "result": []
  },
  {
    "postal": "L9B8G8",
    "result": []
  },
  {
    "postal": "L9B8B1",
    "result": []
  },
  {
    "postal": "L9B4P5",
    "result": []
  },
  {
    "postal": "L9B7B2",
    "result": []
  },
  {
    "postal": "L9B0R2",
    "result": []
  },
  {
    "postal": "L9B4M4",
    "result": []
  },
  {
    "postal": "L9B7M4",
    "result": []
  },
  {
    "postal": "L9B9S7",
    "result": []
  },
  {
    "postal": "L9B5Z7",
    "result": []
  },
  {
    "postal": "L9B7J7",
    "result": []
  },
  {
    "postal": "L9B8R8",
    "result": []
  },
  {
    "postal": "L9B9X1",
    "result": []
  },
  {
    "postal": "L9B5M9",
    "result": []
  },
  {
    "postal": "L9B9B4",
    "result": []
  },
  {
    "postal": "L9B0L9",
    "result": []
  },
  {
    "postal": "L9B9G4",
    "result": []
  },
  {
    "postal": "L9B1J4",
    "result": [
      {
        "electoralDistricts": [
          {
            "election": null,
            "id": 39,
            "name": "Hamilton West—Ancaster—Dundas"
          }
        ],
        "pollDivisionIds": [
          10135297
        ],
        "postalCode": "L9B1J4",
        "streetName": "MCINTOSH",
        "streetDirectionId": null,
        "streetTypeId": "AVE",
        "placeName": "HAMILTON",
        "streetNameDisplayText": "MCINTOSH AVE, HAMILTON"
      }
    ]
  },
  {
    "postal": "L9B0W6",
    "result": []
  },
  {
    "postal": "L9B4C5",
    "result": []
  },
  {
    "postal": "L9B7E4",
    "result": []
  },
  {
    "postal": "L9B1R9",
    "result": [
      {
        "electoralDistricts": [
          {
            "election": null,
            "id": 39,
            "name": "Hamilton West—Ancaster—Dundas"
          }
        ],
        "pollDivisionIds": [
          10135297
        ],
        "postalCode": "L9B1R9",
        "streetName": "MAYNARD",
        "streetDirectionId": null,
        "streetTypeId": "ST",
        "placeName": "HAMILTON",
        "streetNameDisplayText": "MAYNARD ST, HAMILTON"
      }
    ]
  },
  {
    "postal": "L9B2P0",
    "result": []
  },
  {
    "postal": "L9B5S4",
    "result": []
  },
  {
    "postal": "L9B5K8",
    "result": []
  },
  {
    "postal": "L9B8K4",
    "result": []
  },
  {
    "postal": "L9B7C1",
    "result": []
  },
  {
    "postal": "L9B7K9",
    "result": []
  },
  {
    "postal": "L9B5J1",
    "result": []
  },
  {
    "postal": "L9B4P9",
    "result": []
  },
  {
    "postal": "L9B0N2",
    "result": []
  },
  {
    "postal": "L9B2G6",
    "result": [
      {
        "electoralDistricts": [
          {
            "election": null,
            "id": 38,
            "name": "Hamilton Mountain"
          }
        ],
        "pollDivisionIds": [
          10138687
        ],
        "postalCode": "L9B2G6",
        "streetName": "REPUBLIC",
        "streetDirectionId": null,
        "streetTypeId": "AVE",
        "placeName": "HAMILTON",
        "streetNameDisplayText": "REPUBLIC AVE, HAMILTON"
      },
      {
        "electoralDistricts": [
          {
            "election": null,
            "id": 38,
            "name": "Hamilton Mountain"
          }
        ],
        "pollDivisionIds": [
          10138687
        ],
        "postalCode": "L9B2G6",
        "streetName": "ROBESPIERRE",
        "streetDirectionId": null,
        "streetTypeId": "CRT",
        "placeName": "HAMILTON",
        "streetNameDisplayText": "ROBESPIERRE CRT, HAMILTON"
      }
    ]
  },
  {
    "postal": "L9B6P4",
    "result": []
  },
  {
    "postal": "L9B3J0",
    "result": []
  },
  {
    "postal": "L9B8X4",
    "result": []
  },
  {
    "postal": "L9B1Y3",
    "result": [
      {
        "electoralDistricts": [
          {
            "election": null,
            "id": 38,
            "name": "Hamilton Mountain"
          }
        ],
        "pollDivisionIds": [
          10138686
        ],
        "postalCode": "L9B1Y3",
        "streetName": "ASCOLI",
        "streetDirectionId": null,
        "streetTypeId": "DR",
        "placeName": "HAMILTON",
        "streetNameDisplayText": "ASCOLI DR, HAMILTON"
      },
      {
        "electoralDistricts": [
          {
            "election": null,
            "id": 38,
            "name": "Hamilton Mountain"
          }
        ],
        "pollDivisionIds": [
          10138686
        ],
        "postalCode": "L9B1Y3",
        "streetName": "COMO",
        "streetDirectionId": null,
        "streetTypeId": "PL",
        "placeName": "HAMILTON",
        "streetNameDisplayText": "COMO PL, HAMILTON"
      }
    ]
  },
  {
    "postal": "L9B1A8",
    "result": [
      {
        "electoralDistricts": [
          {
            "election": null,
            "id": 38,
            "name": "Hamilton Mountain"
          }
        ],
        "pollDivisionIds": [
          10138686
        ],
        "postalCode": "L9B1A8",
        "streetName": "STONE CHURCH",
        "streetDirectionId": "E",
        "streetTypeId": "RD",
        "placeName": "HAMILTON",
        "streetNameDisplayText": "STONE CHURCH RD E, HAMILTON"
      }
    ]
  },
  {
    "postal": "L9B6Y5",
    "result": []
  },
  {
    "postal": "L9B0J6",
    "result": []
  },
  {
    "postal": "L9B2C9",
    "result": [
      {
        "electoralDistricts": [
          {
            "election": null,
            "id": 38,
            "name": "Hamilton Mountain"
          }
        ],
        "pollDivisionIds": [
          10138687
        ],
        "postalCode": "L9B2C9",
        "streetName": "BONAPARTE",
        "streetDirectionId": null,
        "streetTypeId": "WAY",
        "placeName": "HAMILTON",
        "streetNameDisplayText": "BONAPARTE WAY, HAMILTON"
      },
      {
        "electoralDistricts": [
          {
            "election": null,
            "id": 38,
            "name": "Hamilton Mountain"
          }
        ],
        "pollDivisionIds": [
          10138687
        ],
        "postalCode": "L9B2C9",
        "streetName": "BRIGADE",
        "streetDirectionId": null,
        "streetTypeId": "DR",
        "placeName": "HAMILTON",
        "streetNameDisplayText": "BRIGADE DR, HAMILTON"
      },
      {
        "electoralDistricts": [
          {
            "election": null,
            "id": 38,
            "name": "Hamilton Mountain"
          }
        ],
        "pollDivisionIds": [
          10138687
        ],
        "postalCode": "L9B2C9",
        "streetName": "DRAGOON",
        "streetDirectionId": null,
        "streetTypeId": "DR",
        "placeName": "HAMILTON",
        "streetNameDisplayText": "DRAGOON DR, HAMILTON"
      }
    ]
  },
  {
    "postal": "L9B8J6",
    "result": []
  },
  {
    "postal": "L9B8T4",
    "result": []
  },
  {
    "postal": "L9B1P7",
    "result": [
      {
        "electoralDistricts": [
          {
            "election": null,
            "id": 31,
            "name": "Flamborough—Glanbrook"
          }
        ],
        "pollDivisionIds": [
          10138261
        ],
        "postalCode": "L9B1P7",
        "streetName": "ALDERCREST",
        "streetDirectionId": null,
        "streetTypeId": "AVE",
        "placeName": "HAMILTON",
        "streetNameDisplayText": "ALDERCREST AVE, HAMILTON"
      }
    ]
  },
  {
    "postal": "L9B9V9",
    "result": []
  },
  {
    "postal": "L9B0M1",
    "result": []
  },
  {
    "postal": "L9B6K5",
    "result": []
  },
  {
    "postal": "L9B2T5",
    "result": [
      {
        "electoralDistricts": [
          {
            "election": null,
            "id": 38,
            "name": "Hamilton Mountain"
          }
        ],
        "pollDivisionIds": [
          10138686
        ],
        "postalCode": "L9B2T5",
        "streetName": "MARILYN",
        "streetDirectionId": null,
        "streetTypeId": "CRT",
        "placeName": "HAMILTON",
        "streetNameDisplayText": "MARILYN CRT, HAMILTON"
      }
    ]
  },
  {
    "postal": "L9B7E9",
    "result": []
  },
  {
    "postal": "L9B5K5",
    "result": []
  },
  {
    "postal": "L9B3R5",
    "result": []
  },
  {
    "postal": "L9B5B1",
    "result": []
  },
  {
    "postal": "L9B2P1",
    "result": [
      {
        "electoralDistricts": [
          {
            "election": null,
            "id": 39,
            "name": "Hamilton West—Ancaster—Dundas"
          }
        ],
        "pollDivisionIds": [
          10135297
        ],
        "postalCode": "L9B2P1",
        "streetName": "DONNICI",
        "streetDirectionId": null,
        "streetTypeId": "DR",
        "placeName": "HAMILTON",
        "streetNameDisplayText": "DONNICI DR, HAMILTON"
      },
      {
        "electoralDistricts": [
          {
            "election": null,
            "id": 39,
            "name": "Hamilton West—Ancaster—Dundas"
          }
        ],
        "pollDivisionIds": [
          10135297
        ],
        "postalCode": "L9B2P1",
        "streetName": "FILICE",
        "streetDirectionId": null,
        "streetTypeId": "CRT",
        "placeName": "HAMILTON",
        "streetNameDisplayText": "FILICE CRT, HAMILTON"
      }
    ]
  },
  {
    "postal": "L9B7L0",
    "result": []
  },
  {
    "postal": "L9B3L6",
    "result": []
  },
  {
    "postal": "L9B2A4",
    "result": [
      {
        "electoralDistricts": [
          {
            "election": null,
            "id": 38,
            "name": "Hamilton Mountain"
          }
        ],
        "pollDivisionIds": [
          10138687
        ],
        "postalCode": "L9B2A4",
        "streetName": "STONE CHURCH",
        "streetDirectionId": "E",
        "streetTypeId": "RD",
        "placeName": "HAMILTON",
        "streetNameDisplayText": "STONE CHURCH RD E, HAMILTON"
      }
    ]
  },
  {
    "postal": "L9B8S0",
    "result": []
  },
  {
    "postal": "L9B3L5",
    "result": []
  },
  {
    "postal": "L9B2R5",
    "result": [
      {
        "electoralDistricts": [
          {
            "election": null,
            "id": 31,
            "name": "Flamborough—Glanbrook"
          }
        ],
        "pollDivisionIds": [
          10138255
        ],
        "postalCode": "L9B2R5",
        "streetName": "HAWKSWOOD",
        "streetDirectionId": null,
        "streetTypeId": "TRAIL",
        "placeName": "HAMILTON",
        "streetNameDisplayText": "HAWKSWOOD TRAIL, HAMILTON"
      },
      {
        "electoralDistricts": [
          {
            "election": null,
            "id": 31,
            "name": "Flamborough—Glanbrook"
          }
        ],
        "pollDivisionIds": [
          10138255
        ],
        "postalCode": "L9B2R5",
        "streetName": "REDTAIL",
        "streetDirectionId": null,
        "streetTypeId": "CRES",
        "placeName": "HAMILTON",
        "streetNameDisplayText": "REDTAIL CRES, HAMILTON"
      }
    ]
  },
  {
    "postal": "L9B9T6",
    "result": []
  },
  {
    "postal": "L9B8Z2",
    "result": []
  },
  {
    "postal": "L9B0E9",
    "result": [
      {
        "electoralDistricts": [
          {
            "election": null,
            "id": 38,
            "name": "Hamilton Mountain"
          }
        ],
        "pollDivisionIds": [
          10138685
        ],
        "postalCode": "L9B0E9",
        "streetName": "ALESSIO",
        "streetDirectionId": null,
        "streetTypeId": "DR",
        "placeName": "HAMILTON",
        "streetNameDisplayText": "ALESSIO DR, HAMILTON"
      },
      {
        "electoralDistricts": [
          {
            "election": null,
            "id": 38,
            "name": "Hamilton Mountain"
          }
        ],
        "pollDivisionIds": [
          10138685
        ],
        "postalCode": "L9B0E9",
        "streetName": "HAZELTON",
        "streetDirectionId": null,
        "streetTypeId": "AVE",
        "placeName": "HAMILTON",
        "streetNameDisplayText": "HAZELTON AVE, HAMILTON"
      },
      {
        "electoralDistricts": [
          {
            "election": null,
            "id": 38,
            "name": "Hamilton Mountain"
          }
        ],
        "pollDivisionIds": [
          10138685
        ],
        "postalCode": "L9B0E9",
        "streetName": "MATTEO",
        "streetDirectionId": null,
        "streetTypeId": "TRAIL",
        "placeName": "HAMILTON",
        "streetNameDisplayText": "MATTEO TRAIL, HAMILTON"
      }
    ]
  },
  {
    "postal": "L9B8C0",
    "result": []
  },
  {
    "postal": "L9B3K7",
    "result": []
  },
  {
    "postal": "L9B2H3",
    "result": [
      {
        "electoralDistricts": [
          {
            "election": null,
            "id": 38,
            "name": "Hamilton Mountain"
          }
        ],
        "pollDivisionIds": [
          10138688
        ],
        "postalCode": "L9B2H3",
        "streetName": "STONE CHURCH",
        "streetDirectionId": "E",
        "streetTypeId": "RD",
        "placeName": "HAMILTON",
        "streetNameDisplayText": "STONE CHURCH RD E, HAMILTON"
      }
    ]
  },
  {
    "postal": "L9B2Y6",
    "result": [
      {
        "electoralDistricts": [
          {
            "election": null,
            "id": 38,
            "name": "Hamilton Mountain"
          }
        ],
        "pollDivisionIds": [
          10138687
        ],
        "postalCode": "L9B2Y6",
        "streetName": "VENNIO",
        "streetDirectionId": null,
        "streetTypeId": "LANE",
        "placeName": "HAMILTON",
        "streetNameDisplayText": "VENNIO LANE, HAMILTON"
      }
    ]
  },
  {
    "postal": "L9B7M2",
    "result": []
  },
  {
    "postal": "L9B6E2",
    "result": []
  },
  {
    "postal": "L9B3R0",
    "result": []
  },
  {
    "postal": "L9B4J7",
    "result": []
  },
  {
    "postal": "L9B6N8",
    "result": []
  },
  {
    "postal": "L9B0J7",
    "result": []
  },
  {
    "postal": "L9B7P2",
    "result": []
  },
  {
    "postal": "L9B3T8",
    "result": []
  },
  {
    "postal": "L9B3S7",
    "result": []
  },
  {
    "postal": "L9B2S7",
    "result": [
      {
        "electoralDistricts": [
          {
            "election": null,
            "id": 39,
            "name": "Hamilton West—Ancaster—Dundas"
          }
        ],
        "pollDivisionIds": [
          10135297
        ],
        "postalCode": "L9B2S7",
        "streetName": "UPPER PARADISE",
        "streetDirectionId": null,
        "streetTypeId": "RD",
        "placeName": "HAMILTON",
        "streetNameDisplayText": "UPPER PARADISE RD, HAMILTON"
      }
    ]
  },
  {
    "postal": "L9B1S4",
    "result": [
      {
        "electoralDistricts": [
          {
            "election": null,
            "id": 39,
            "name": "Hamilton West—Ancaster—Dundas"
          }
        ],
        "pollDivisionIds": [
          10135297
        ],
        "postalCode": "L9B1S4",
        "streetName": "FALKIRK",
        "streetDirectionId": null,
        "streetTypeId": "DR",
        "placeName": "HAMILTON",
        "streetNameDisplayText": "FALKIRK DR, HAMILTON"
      }
    ]
  },
  {
    "postal": "L9B1L8",
    "result": [
      {
        "electoralDistricts": [
          {
            "election": null,
            "id": 31,
            "name": "Flamborough—Glanbrook"
          }
        ],
        "pollDivisionIds": [
          10138259
        ],
        "postalCode": "L9B1L8",
        "streetName": "SENECA",
        "streetDirectionId": null,
        "streetTypeId": "AVE",
        "placeName": "HAMILTON",
        "streetNameDisplayText": "SENECA AVE, HAMILTON"
      }
    ]
  },
  {
    "postal": "L9B8E9",
    "result": []
  },
  {
    "postal": "L9B0T0",
    "result": []
  },
  {
    "postal": "L9B3G4",
    "result": []
  },
  {
    "postal": "L9B0V6",
    "result": []
  },
  {
    "postal": "L9B4W1",
    "result": []
  },
  {
    "postal": "L9B9G9",
    "result": []
  },
  {
    "postal": "L9B5W4",
    "result": []
  },
  {
    "postal": "L9B7M8",
    "result": []
  },
  {
    "postal": "L9B2C2",
    "result": [
      {
        "electoralDistricts": [
          {
            "election": null,
            "id": 38,
            "name": "Hamilton Mountain"
          }
        ],
        "pollDivisionIds": [
          10138686
        ],
        "postalCode": "L9B2C2",
        "streetName": "UPPER WELLINGTON",
        "streetDirectionId": null,
        "streetTypeId": "ST",
        "placeName": "HAMILTON",
        "streetNameDisplayText": "UPPER WELLINGTON ST, HAMILTON"
      }
    ]
  },
  {
    "postal": "L9B4Y2",
    "result": []
  },
  {
    "postal": "L9B9X9",
    "result": []
  },
  {
    "postal": "L9B3T0",
    "result": []
  },
  {
    "postal": "L9B4T8",
    "result": []
  },
  {
    "postal": "L9B9C4",
    "result": []
  },
  {
    "postal": "L9B8P2",
    "result": []
  },
  {
    "postal": "L9B0Y8",
    "result": []
  },
  {
    "postal": "L9B1G8",
    "result": [
      {
        "electoralDistricts": [
          {
            "election": null,
            "id": 31,
            "name": "Flamborough—Glanbrook"
          }
        ],
        "pollDivisionIds": [
          10138259
        ],
        "postalCode": "L9B1G8",
        "streetName": "CHRISTOPHER",
        "streetDirectionId": null,
        "streetTypeId": "DR",
        "placeName": "HAMILTON",
        "streetNameDisplayText": "CHRISTOPHER DR, HAMILTON"
      }
    ]
  },
  {
    "postal": "L9B2T6",
    "result": [
      {
        "electoralDistricts": [
          {
            "election": null,
            "id": 31,
            "name": "Flamborough—Glanbrook"
          }
        ],
        "pollDivisionIds": [
          10138259
        ],
        "postalCode": "L9B2T6",
        "streetName": "JACQUELINE",
        "streetDirectionId": null,
        "streetTypeId": "BLVD",
        "placeName": "HAMILTON",
        "streetNameDisplayText": "JACQUELINE BLVD, HAMILTON"
      },
      {
        "electoralDistricts": [
          {
            "election": null,
            "id": 31,
            "name": "Flamborough—Glanbrook"
          }
        ],
        "pollDivisionIds": [
          10138259
        ],
        "postalCode": "L9B2T6",
        "streetName": "MAGENTA",
        "streetDirectionId": null,
        "streetTypeId": "CRT",
        "placeName": "HAMILTON",
        "streetNameDisplayText": "MAGENTA CRT, HAMILTON"
      }
    ]
  },
  {
    "postal": "L9B1N7",
    "result": [
      {
        "electoralDistricts": [
          {
            "election": null,
            "id": 31,
            "name": "Flamborough—Glanbrook"
          }
        ],
        "pollDivisionIds": [
          10138261
        ],
        "postalCode": "L9B1N7",
        "streetName": "POWERLINE",
        "streetDirectionId": null,
        "streetTypeId": "CRT",
        "placeName": "HAMILTON",
        "streetNameDisplayText": "POWERLINE CRT, HAMILTON"
      }
    ]
  },
  {
    "postal": "L9B0L6",
    "result": []
  },
  {
    "postal": "L9B9V4",
    "result": []
  },
  {
    "postal": "L9B2V1",
    "result": [
      {
        "electoralDistricts": [
          {
            "election": null,
            "id": 31,
            "name": "Flamborough—Glanbrook"
          }
        ],
        "pollDivisionIds": [
          10138260
        ],
        "postalCode": "L9B2V1",
        "streetName": "BIANCA",
        "streetDirectionId": null,
        "streetTypeId": "DR",
        "placeName": "HAMILTON",
        "streetNameDisplayText": "BIANCA DR, HAMILTON"
      },
      {
        "electoralDistricts": [
          {
            "election": null,
            "id": 31,
            "name": "Flamborough—Glanbrook"
          }
        ],
        "pollDivisionIds": [
          10138260
        ],
        "postalCode": "L9B2V1",
        "streetName": "MORGANTE",
        "streetDirectionId": null,
        "streetTypeId": "CRT",
        "placeName": "HAMILTON",
        "streetNameDisplayText": "MORGANTE CRT, HAMILTON"
      },
      {
        "electoralDistricts": [
          {
            "election": null,
            "id": 31,
            "name": "Flamborough—Glanbrook"
          }
        ],
        "pollDivisionIds": [
          10138260
        ],
        "postalCode": "L9B2V1",
        "streetName": "PHILLIPO",
        "streetDirectionId": null,
        "streetTypeId": "DR",
        "placeName": "HAMILTON",
        "streetNameDisplayText": "PHILLIPO DR, HAMILTON"
      }
    ]
  },
  {
    "postal": "L9B3L8",
    "result": []
  },
  {
    "postal": "L9B2R8",
    "result": []
  },
  {
    "postal": "L9B5C1",
    "result": []
  },
  {
    "postal": "L9B4W3",
    "result": []
  },
  {
    "postal": "L9B5X5",
    "result": []
  },
  {
    "postal": "L9B9W5",
    "result": []
  },
  {
    "postal": "L9B3C4",
    "result": []
  },
  {
    "postal": "L9B1N6",
    "result": [
      {
        "electoralDistricts": [
          {
            "election": null,
            "id": 31,
            "name": "Flamborough—Glanbrook"
          }
        ],
        "pollDivisionIds": [
          10138261
        ],
        "postalCode": "L9B1N6",
        "streetName": "POWERLINE",
        "streetDirectionId": null,
        "streetTypeId": "CRT",
        "placeName": "HAMILTON",
        "streetNameDisplayText": "POWERLINE CRT, HAMILTON"
      }
    ]
  },
  {
    "postal": "L9B9S9",
    "result": []
  },
  {
    "postal": "L9B9M2",
    "result": []
  },
  {
    "postal": "L9B8Y4",
    "result": []
  },
  {
    "postal": "L9B7S4",
    "result": []
  },
  {
    "postal": "L9B0K6",
    "result": []
  },
  {
    "postal": "L9B1W3",
    "result": [
      {
        "electoralDistricts": [
          {
            "election": null,
            "id": 39,
            "name": "Hamilton West—Ancaster—Dundas"
          }
        ],
        "pollDivisionIds": [
          10135297
        ],
        "postalCode": "L9B1W3",
        "streetName": "MARCEL",
        "streetDirectionId": null,
        "streetTypeId": "PL",
        "placeName": "HAMILTON",
        "streetNameDisplayText": "MARCEL PL, HAMILTON"
      },
      {
        "electoralDistricts": [
          {
            "election": null,
            "id": 39,
            "name": "Hamilton West—Ancaster—Dundas"
          }
        ],
        "pollDivisionIds": [
          10135297
        ],
        "postalCode": "L9B1W3",
        "streetName": "SUNDOWN",
        "streetDirectionId": null,
        "streetTypeId": "DR",
        "placeName": "HAMILTON",
        "streetNameDisplayText": "SUNDOWN DR, HAMILTON"
      }
    ]
  },
  {
    "postal": "L9B7R2",
    "result": []
  },
  {
    "postal": "L9B2Y9",
    "result": [
      {
        "electoralDistricts": [
          {
            "election": null,
            "id": 39,
            "name": "Hamilton West—Ancaster—Dundas"
          }
        ],
        "pollDivisionIds": [
          10135297
        ],
        "postalCode": "L9B2Y9",
        "streetName": "MEADOWBANK",
        "streetDirectionId": null,
        "streetTypeId": "DR",
        "placeName": "HAMILTON",
        "streetNameDisplayText": "MEADOWBANK DR, HAMILTON"
      }
    ]
  },
  {
    "postal": "L9B7G4",
    "result": []
  },
  {
    "postal": "L9B7E5",
    "result": []
  },
  {
    "postal": "L9B9G2",
    "result": []
  },
  {
    "postal": "L9B7Y8",
    "result": []
  },
  {
    "postal": "L9B9V2",
    "result": []
  },
  {
    "postal": "L9B3T7",
    "result": []
  },
  {
    "postal": "L9B1H0",
    "result": []
  },
  {
    "postal": "L9B1M7",
    "result": [
      {
        "electoralDistricts": [
          {
            "election": null,
            "id": 31,
            "name": "Flamborough—Glanbrook"
          }
        ],
        "pollDivisionIds": [
          10138259
        ],
        "postalCode": "L9B1M7",
        "streetName": "SPRINGSIDE",
        "streetDirectionId": null,
        "streetTypeId": "DR",
        "placeName": "HAMILTON",
        "streetNameDisplayText": "SPRINGSIDE DR, HAMILTON"
      }
    ]
  },
  {
    "postal": "L9B8V4",
    "result": []
  },
  {
    "postal": "L9B4M2",
    "result": []
  },
  {
    "postal": "L9B0X2",
    "result": []
  },
  {
    "postal": "L9B5Z4",
    "result": []
  },
  {
    "postal": "L9B6V4",
    "result": []
  },
  {
    "postal": "L9B8J3",
    "result": []
  },
  {
    "postal": "L9B8E5",
    "result": []
  },
  {
    "postal": "L9B2V5",
    "result": [
      {
        "electoralDistricts": [
          {
            "election": null,
            "id": 39,
            "name": "Hamilton West—Ancaster—Dundas"
          }
        ],
        "pollDivisionIds": [
          10135297
        ],
        "postalCode": "L9B2V5",
        "streetName": "EDGEHILL",
        "streetDirectionId": null,
        "streetTypeId": "DR",
        "placeName": "HAMILTON",
        "streetNameDisplayText": "EDGEHILL DR, HAMILTON"
      },
      {
        "electoralDistricts": [
          {
            "election": null,
            "id": 39,
            "name": "Hamilton West—Ancaster—Dundas"
          }
        ],
        "pollDivisionIds": [
          10135297
        ],
        "postalCode": "L9B2V5",
        "streetName": "RICHVIEW",
        "streetDirectionId": null,
        "streetTypeId": "DR",
        "placeName": "HAMILTON",
        "streetNameDisplayText": "RICHVIEW DR, HAMILTON"
      }
    ]
  },
  {
    "postal": "L9B7S1",
    "result": []
  },
  {
    "postal": "L9B6V3",
    "result": []
  },
  {
    "postal": "L9B2L8",
    "result": [
      {
        "electoralDistricts": [
          {
            "election": null,
            "id": 31,
            "name": "Flamborough—Glanbrook"
          }
        ],
        "pollDivisionIds": [
          10138258
        ],
        "postalCode": "L9B2L8",
        "streetName": "BISHOP RYAN",
        "streetDirectionId": null,
        "streetTypeId": "WAY",
        "placeName": "HAMILTON",
        "streetNameDisplayText": "BISHOP RYAN WAY, HAMILTON"
      },
      {
        "electoralDistricts": [
          {
            "election": null,
            "id": 31,
            "name": "Flamborough—Glanbrook"
          }
        ],
        "pollDivisionIds": [
          10138258
        ],
        "postalCode": "L9B2L8",
        "streetName": "BISHOP TONNOS",
        "streetDirectionId": null,
        "streetTypeId": "TRAIL",
        "placeName": "HAMILTON",
        "streetNameDisplayText": "BISHOP TONNOS TRAIL, HAMILTON"
      }
    ]
  },
  {
    "postal": "L9B9V0",
    "result": []
  },
  {
    "postal": "L9B3M4",
    "result": []
  },
  {
    "postal": "L9B5B2",
    "result": []
  },
  {
    "postal": "L9B3X5",
    "result": []
  },
  {
    "postal": "L9B9R7",
    "result": []
  },
  {
    "postal": "L9B2X2",
    "result": [
      {
        "electoralDistricts": [
          {
            "election": null,
            "id": 31,
            "name": "Flamborough—Glanbrook"
          }
        ],
        "pollDivisionIds": [
          10138256
        ],
        "postalCode": "L9B2X2",
        "streetName": "GARTH TRAILS",
        "streetDirectionId": null,
        "streetTypeId": "CRES",
        "placeName": "HAMILTON",
        "streetNameDisplayText": "GARTH TRAILS CRES, HAMILTON"
      }
    ]
  },
  {
    "postal": "L9B8Z6",
    "result": []
  },
  {
    "postal": "L9B4R4",
    "result": []
  },
  {
    "postal": "L9B2R1",
    "result": [
      {
        "electoralDistricts": [
          {
            "election": null,
            "id": 31,
            "name": "Flamborough—Glanbrook"
          }
        ],
        "pollDivisionIds": [
          10138259
        ],
        "postalCode": "L9B2R1",
        "streetName": "JACQUELINE",
        "streetDirectionId": null,
        "streetTypeId": "BLVD",
        "placeName": "HAMILTON",
        "streetNameDisplayText": "JACQUELINE BLVD, HAMILTON"
      },
      {
        "electoralDistricts": [
          {
            "election": null,
            "id": 31,
            "name": "Flamborough—Glanbrook"
          }
        ],
        "pollDivisionIds": [
          10138259
        ],
        "postalCode": "L9B2R1",
        "streetName": "SEDONA",
        "streetDirectionId": null,
        "streetTypeId": "CRT",
        "placeName": "HAMILTON",
        "streetNameDisplayText": "SEDONA CRT, HAMILTON"
      }
    ]
  },
  {
    "postal": "L9B3R8",
    "result": []
  },
  {
    "postal": "L9B9A1",
    "result": []
  },
  {
    "postal": "L9B8L3",
    "result": []
  },
  {
    "postal": "L9B9K4",
    "result": []
  },
  {
    "postal": "L9B9S3",
    "result": []
  },
  {
    "postal": "L9B8N7",
    "result": []
  },
  {
    "postal": "L9B1C6",
    "result": [
      {
        "electoralDistricts": [
          {
            "election": null,
            "id": 31,
            "name": "Flamborough—Glanbrook"
          }
        ],
        "pollDivisionIds": [
          10138259
        ],
        "postalCode": "L9B1C6",
        "streetName": "KENNEDY",
        "streetDirectionId": null,
        "streetTypeId": "AVE",
        "placeName": "HAMILTON",
        "streetNameDisplayText": "KENNEDY AVE, HAMILTON"
      }
    ]
  },
  {
    "postal": "L9B3Z8",
    "result": []
  },
  {
    "postal": "L9B8G5",
    "result": []
  },
  {
    "postal": "L9B5R6",
    "result": []
  },
  {
    "postal": "L9B2W3",
    "result": [
      {
        "electoralDistricts": [
          {
            "election": null,
            "id": 38,
            "name": "Hamilton Mountain"
          }
        ],
        "pollDivisionIds": [
          10138687
        ],
        "postalCode": "L9B2W3",
        "streetName": "UPPER WENTWORTH",
        "streetDirectionId": null,
        "streetTypeId": "ST",
        "placeName": "HAMILTON",
        "streetNameDisplayText": "UPPER WENTWORTH ST, HAMILTON"
      }
    ]
  },
  {
    "postal": "L9B0A0",
    "result": []
  },
  {
    "postal": "L9B6P8",
    "result": []
  },
  {
    "postal": "L9B8N9",
    "result": []
  },
  {
    "postal": "L9B0S9",
    "result": []
  },
  {
    "postal": "L9B8G0",
    "result": []
  },
  {
    "postal": "L9B8C7",
    "result": []
  },
  {
    "postal": "L9B5X8",
    "result": []
  },
  {
    "postal": "L9B7E8",
    "result": []
  },
  {
    "postal": "L9B6X2",
    "result": []
  },
  {
    "postal": "L9B4C6",
    "result": []
  },
  {
    "postal": "L9B7H2",
    "result": []
  },
  {
    "postal": "L9B4R0",
    "result": []
  },
  {
    "postal": "L9B6J3",
    "result": []
  },
  {
    "postal": "L9B4B8",
    "result": []
  },
  {
    "postal": "L9B6H6",
    "result": []
  },
  {
    "postal": "L9B0S1",
    "result": []
  },
  {
    "postal": "L9B4E3",
    "result": []
  },
  {
    "postal": "L9B7K2",
    "result": []
  },
  {
    "postal": "L9B7T8",
    "result": []
  },
  {
    "postal": "L9B0J9",
    "result": []
  },
  {
    "postal": "L9B5J9",
    "result": []
  },
  {
    "postal": "L9B5S7",
    "result": []
  },
  {
    "postal": "L9B0G9",
    "result": [
      {
        "electoralDistricts": [
          {
            "election": null,
            "id": 31,
            "name": "Flamborough—Glanbrook"
          }
        ],
        "pollDivisionIds": [
          10138255
        ],
        "postalCode": "L9B0G9",
        "streetName": "MADONNA",
        "streetDirectionId": null,
        "streetTypeId": "DR",
        "placeName": "HAMILTON",
        "streetNameDisplayText": "MADONNA DR, HAMILTON"
      },
      {
        "electoralDistricts": [
          {
            "election": null,
            "id": 31,
            "name": "Flamborough—Glanbrook"
          }
        ],
        "pollDivisionIds": [
          10138255
        ],
        "postalCode": "L9B0G9",
        "streetName": "MEDICI",
        "streetDirectionId": null,
        "streetTypeId": "LANE",
        "placeName": "HAMILTON",
        "streetNameDisplayText": "MEDICI LANE, HAMILTON"
      }
    ]
  },
  {
    "postal": "L9B3J9",
    "result": []
  },
  {
    "postal": "L9B2Y0",
    "result": []
  },
  {
    "postal": "L9B8X5",
    "result": []
  },
  {
    "postal": "L9B2M7",
    "result": []
  },
  {
    "postal": "L9B9Z3",
    "result": []
  },
  {
    "postal": "L9B7W2",
    "result": []
  },
  {
    "postal": "L9B3W0",
    "result": []
  },
  {
    "postal": "L9B3M1",
    "result": []
  },
  {
    "postal": "L9B6A5",
    "result": []
  },
  {
    "postal": "L9B2M9",
    "result": [
      {
        "electoralDistricts": [
          {
            "election": null,
            "id": 39,
            "name": "Hamilton West—Ancaster—Dundas"
          }
        ],
        "pollDivisionIds": [
          10135297
        ],
        "postalCode": "L9B2M9",
        "streetName": "UPPER PARADISE",
        "streetDirectionId": null,
        "streetTypeId": "RD",
        "placeName": "HAMILTON",
        "streetNameDisplayText": "UPPER PARADISE RD, HAMILTON"
      }
    ]
  },
  {
    "postal": "L9B5C3",
    "result": []
  },
  {
    "postal": "L9B0Y6",
    "result": []
  },
  {
    "postal": "L9B9H7",
    "result": []
  },
  {
    "postal": "L9B3L0",
    "result": []
  },
  {
    "postal": "L9B5N9",
    "result": []
  },
  {
    "postal": "L9B5E3",
    "result": []
  },
  {
    "postal": "L9B7M9",
    "result": []
  },
  {
    "postal": "L9B8N2",
    "result": []
  },
  {
    "postal": "L9B9H3",
    "result": []
  },
  {
    "postal": "L9B2K8",
    "result": [
      {
        "electoralDistricts": [
          {
            "election": null,
            "id": 38,
            "name": "Hamilton Mountain"
          }
        ],
        "pollDivisionIds": [
          10138686
        ],
        "postalCode": "L9B2K8",
        "streetName": "AQUASANTA",
        "streetDirectionId": null,
        "streetTypeId": "CRES",
        "placeName": "HAMILTON",
        "streetNameDisplayText": "AQUASANTA CRES, HAMILTON"
      },
      {
        "electoralDistricts": [
          {
            "election": null,
            "id": 38,
            "name": "Hamilton Mountain"
          }
        ],
        "pollDivisionIds": [
          10138686
        ],
        "postalCode": "L9B2K8",
        "streetName": "DICENZO",
        "streetDirectionId": null,
        "streetTypeId": "DR",
        "placeName": "HAMILTON",
        "streetNameDisplayText": "DICENZO DR, HAMILTON"
      }
    ]
  },
  {
    "postal": "L9B9L0",
    "result": []
  },
  {
    "postal": "L9B6L9",
    "result": []
  },
  {
    "postal": "L9B6A8",
    "result": []
  },
  {
    "postal": "L9B2K6",
    "result": [
      {
        "electoralDistricts": [
          {
            "election": null,
            "id": 31,
            "name": "Flamborough—Glanbrook"
          }
        ],
        "pollDivisionIds": [
          10138260
        ],
        "postalCode": "L9B2K6",
        "streetName": "RYMAL",
        "streetDirectionId": "E",
        "streetTypeId": "RD",
        "placeName": "HAMILTON",
        "streetNameDisplayText": "RYMAL RD E, HAMILTON"
      }
    ]
  },
  {
    "postal": "L9B2M0",
    "result": []
  },
  {
    "postal": "L9B5X7",
    "result": []
  },
  {
    "postal": "L9B0M7",
    "result": []
  },
  {
    "postal": "L9B7A6",
    "result": []
  },
  {
    "postal": "L9B3C5",
    "result": []
  },
  {
    "postal": "L9B2P2",
    "result": [
      {
        "electoralDistricts": [
          {
            "election": null,
            "id": 31,
            "name": "Flamborough—Glanbrook"
          }
        ],
        "pollDivisionIds": [
          10138255
        ],
        "postalCode": "L9B2P2",
        "streetName": "FALCONRIDGE",
        "streetDirectionId": null,
        "streetTypeId": "DR",
        "placeName": "HAMILTON",
        "streetNameDisplayText": "FALCONRIDGE DR, HAMILTON"
      },
      {
        "electoralDistricts": [
          {
            "election": null,
            "id": 31,
            "name": "Flamborough—Glanbrook"
          }
        ],
        "pollDivisionIds": [
          10138255
        ],
        "postalCode": "L9B2P2",
        "streetName": "KESTREL",
        "streetDirectionId": null,
        "streetTypeId": "CRT",
        "placeName": "HAMILTON",
        "streetNameDisplayText": "KESTREL CRT, HAMILTON"
      },
      {
        "electoralDistricts": [
          {
            "election": null,
            "id": 31,
            "name": "Flamborough—Glanbrook"
          }
        ],
        "pollDivisionIds": [
          10138255
        ],
        "postalCode": "L9B2P2",
        "streetName": "UPPER PARADISE",
        "streetDirectionId": null,
        "streetTypeId": "RD",
        "placeName": "HAMILTON",
        "streetNameDisplayText": "UPPER PARADISE RD, HAMILTON"
      }
    ]
  },
  {
    "postal": "L9B9N4",
    "result": []
  },
  {
    "postal": "L9B3M9",
    "result": []
  },
  {
    "postal": "L9B8K6",
    "result": []
  },
  {
    "postal": "L9B1L2",
    "result": [
      {
        "electoralDistricts": [
          {
            "election": null,
            "id": 31,
            "name": "Flamborough—Glanbrook"
          }
        ],
        "pollDivisionIds": [
          10138259
        ],
        "postalCode": "L9B1L2",
        "streetName": "BARTLETT",
        "streetDirectionId": null,
        "streetTypeId": "AVE",
        "placeName": "HAMILTON",
        "streetNameDisplayText": "BARTLETT AVE, HAMILTON"
      }
    ]
  },
  {
    "postal": "L9B2Z9",
    "result": []
  },
  {
    "postal": "L9B2S2",
    "result": [
      {
        "electoralDistricts": [
          {
            "election": null,
            "id": 38,
            "name": "Hamilton Mountain"
          }
        ],
        "pollDivisionIds": [
          10138685
        ],
        "postalCode": "L9B2S2",
        "streetName": "WEST VILLAGE",
        "streetDirectionId": null,
        "streetTypeId": "DR",
        "placeName": "HAMILTON",
        "streetNameDisplayText": "WEST VILLAGE DR, HAMILTON"
      },
      {
        "electoralDistricts": [
          {
            "election": null,
            "id": 39,
            "name": "Hamilton West—Ancaster—Dundas"
          },
          {
            "election": null,
            "id": 38,
            "name": "Hamilton Mountain"
          }
        ],
        "pollDivisionIds": [
          10135297,
          10138685
        ],
        "postalCode": "L9B2S2",
        "streetName": "WESTVILLAGE",
        "streetDirectionId": null,
        "streetTypeId": "DR",
        "placeName": "HAMILTON",
        "streetNameDisplayText": "WESTVILLAGE DR, HAMILTON"
      }
    ]
  },
  {
    "postal": "L9B2W2",
    "result": [
      {
        "electoralDistricts": [
          {
            "election": null,
            "id": 31,
            "name": "Flamborough—Glanbrook"
          }
        ],
        "pollDivisionIds": [
          10138283
        ],
        "postalCode": "L9B2W2",
        "streetName": "RYMAL",
        "streetDirectionId": "W",
        "streetTypeId": "RD",
        "placeName": "HAMILTON",
        "streetNameDisplayText": "RYMAL RD W, HAMILTON"
      }
    ]
  },
  {
    "postal": "L9B2C3",
    "result": [
      {
        "electoralDistricts": [
          {
            "election": null,
            "id": 38,
            "name": "Hamilton Mountain"
          }
        ],
        "pollDivisionIds": [
          10138686
        ],
        "postalCode": "L9B2C3",
        "streetName": "DICENZO",
        "streetDirectionId": null,
        "streetTypeId": "DR",
        "placeName": "HAMILTON",
        "streetNameDisplayText": "DICENZO DR, HAMILTON"
      },
      {
        "electoralDistricts": [
          {
            "election": null,
            "id": 38,
            "name": "Hamilton Mountain"
          }
        ],
        "pollDivisionIds": [
          10138686
        ],
        "postalCode": "L9B2C3",
        "streetName": "TRIESTE",
        "streetDirectionId": null,
        "streetTypeId": "PL",
        "placeName": "HAMILTON",
        "streetNameDisplayText": "TRIESTE PL, HAMILTON"
      }
    ]
  },
  {
    "postal": "L9B6L7",
    "result": []
  },
  {
    "postal": "L9B3K0",
    "result": []
  },
  {
    "postal": "L9B3C1",
    "result": []
  },
  {
    "postal": "L9B6M9",
    "result": []
  },
  {
    "postal": "L9B4N9",
    "result": []
  },
  {
    "postal": "L9B3Y7",
    "result": []
  },
  {
    "postal": "L9B2A9",
    "result": [
      {
        "electoralDistricts": [
          {
            "election": null,
            "id": 38,
            "name": "Hamilton Mountain"
          }
        ],
        "pollDivisionIds": [
          10138687
        ],
        "postalCode": "L9B2A9",
        "streetName": "DELANCEY",
        "streetDirectionId": null,
        "streetTypeId": "BLVD",
        "placeName": "HAMILTON",
        "streetNameDisplayText": "DELANCEY BLVD, HAMILTON"
      }
    ]
  },
  {
    "postal": "L9B6H5",
    "result": []
  },
  {
    "postal": "L9B8B4",
    "result": []
  },
  {
    "postal": "L9B4Z2",
    "result": []
  },
  {
    "postal": "L9B9J0",
    "result": []
  },
  {
    "postal": "L9B7V7",
    "result": []
  },
  {
    "postal": "L9B5T5",
    "result": []
  },
  {
    "postal": "L9B4W5",
    "result": []
  },
  {
    "postal": "L9B1T8",
    "result": [
      {
        "electoralDistricts": [
          {
            "election": null,
            "id": 31,
            "name": "Flamborough—Glanbrook"
          }
        ],
        "pollDivisionIds": [
          10138258
        ],
        "postalCode": "L9B1T8",
        "streetName": "BOYES",
        "streetDirectionId": null,
        "streetTypeId": "GATE",
        "placeName": "HAMILTON",
        "streetNameDisplayText": "BOYES GATE, HAMILTON"
      },
      {
        "electoralDistricts": [
          {
            "election": null,
            "id": 31,
            "name": "Flamborough—Glanbrook"
          }
        ],
        "pollDivisionIds": [
          10138258,
          10138257
        ],
        "postalCode": "L9B1T8",
        "streetName": "FATHER BIRO",
        "streetDirectionId": null,
        "streetTypeId": "TRAIL",
        "placeName": "HAMILTON",
        "streetNameDisplayText": "FATHER BIRO TRAIL, HAMILTON"
      },
      {
        "electoralDistricts": [
          {
            "election": null,
            "id": 31,
            "name": "Flamborough—Glanbrook"
          }
        ],
        "pollDivisionIds": [
          10138257
        ],
        "postalCode": "L9B1T8",
        "streetName": "GATES",
        "streetDirectionId": null,
        "streetTypeId": "LANE",
        "placeName": "HAMILTON",
        "streetNameDisplayText": "GATES LANE, HAMILTON"
      },
      {
        "electoralDistricts": [
          {
            "election": null,
            "id": 31,
            "name": "Flamborough—Glanbrook"
          }
        ],
        "pollDivisionIds": [
          10138257
        ],
        "postalCode": "L9B1T8",
        "streetName": "JACZENKO",
        "streetDirectionId": null,
        "streetTypeId": "TERR",
        "placeName": "HAMILTON",
        "streetNameDisplayText": "JACZENKO TERR, HAMILTON"
      },
      {
        "electoralDistricts": [
          {
            "election": null,
            "id": 31,
            "name": "Flamborough—Glanbrook"
          }
        ],
        "pollDivisionIds": [
          10138258,
          10138257
        ],
        "postalCode": "L9B1T8",
        "streetName": "MCKENNA",
        "streetDirectionId": null,
        "streetTypeId": "CRT",
        "placeName": "HAMILTON",
        "streetNameDisplayText": "MCKENNA CRT, HAMILTON"
      },
      {
        "electoralDistricts": [
          {
            "election": null,
            "id": 31,
            "name": "Flamborough—Glanbrook"
          }
        ],
        "pollDivisionIds": [
          10138258,
          10138257
        ],
        "postalCode": "L9B1T8",
        "streetName": "NOLAN",
        "streetDirectionId": null,
        "streetTypeId": "TRAIL",
        "placeName": "HAMILTON",
        "streetNameDisplayText": "NOLAN TRAIL, HAMILTON"
      },
      {
        "electoralDistricts": [
          {
            "election": null,
            "id": 31,
            "name": "Flamborough—Glanbrook"
          }
        ],
        "pollDivisionIds": [
          10138257
        ],
        "postalCode": "L9B1T8",
        "streetName": "SISTER VARGA",
        "streetDirectionId": null,
        "streetTypeId": "TERR",
        "placeName": "HAMILTON",
        "streetNameDisplayText": "SISTER VARGA TERR, HAMILTON"
      },
      {
        "electoralDistricts": [
          {
            "election": null,
            "id": 31,
            "name": "Flamborough—Glanbrook"
          }
        ],
        "pollDivisionIds": [
          10138257
        ],
        "postalCode": "L9B1T8",
        "streetName": "SZOLLOSY",
        "streetDirectionId": null,
        "streetTypeId": "CIR",
        "placeName": "HAMILTON",
        "streetNameDisplayText": "SZOLLOSY CIR, HAMILTON"
      },
      {
        "electoralDistricts": [
          {
            "election": null,
            "id": 31,
            "name": "Flamborough—Glanbrook"
          }
        ],
        "pollDivisionIds": [
          10138257
        ],
        "postalCode": "L9B1T8",
        "streetName": "WHELAN'S",
        "streetDirectionId": null,
        "streetTypeId": "WAY",
        "placeName": "HAMILTON",
        "streetNameDisplayText": "WHELAN'S WAY, HAMILTON"
      },
      {
        "electoralDistricts": [
          {
            "election": null,
            "id": 31,
            "name": "Flamborough—Glanbrook"
          }
        ],
        "pollDivisionIds": [
          10138257
        ],
        "postalCode": "L9B1T8",
        "streetName": "YATES",
        "streetDirectionId": null,
        "streetTypeId": "GATE",
        "placeName": "HAMILTON",
        "streetNameDisplayText": "YATES GATE, HAMILTON"
      }
    ]
  },
  {
    "postal": "L9B9G6",
    "result": []
  },
  {
    "postal": "L9B1H3",
    "result": [
      {
        "electoralDistricts": [
          {
            "election": null,
            "id": 31,
            "name": "Flamborough—Glanbrook"
          }
        ],
        "pollDivisionIds": [
          10138261
        ],
        "postalCode": "L9B1H3",
        "streetName": "SPALDING",
        "streetDirectionId": null,
        "streetTypeId": "DR",
        "placeName": "HAMILTON",
        "streetNameDisplayText": "SPALDING DR, HAMILTON"
      }
    ]
  },
  {
    "postal": "L9B5R5",
    "result": []
  },
  {
    "postal": "L9B8A4",
    "result": []
  },
  {
    "postal": "L9B3T6",
    "result": []
  },
  {
    "postal": "L9B9W8",
    "result": []
  },
  {
    "postal": "L9B0N3",
    "result": []
  },
  {
    "postal": "L9B7V0",
    "result": []
  },
  {
    "postal": "L9B8T5",
    "result": []
  },
  {
    "postal": "L9B5N3",
    "result": []
  },
  {
    "postal": "L9B5G9",
    "result": []
  },
  {
    "postal": "L9B3X8",
    "result": []
  },
  {
    "postal": "L9B9R3",
    "result": []
  },
  {
    "postal": "L9B2S1",
    "result": [
      {
        "electoralDistricts": [
          {
            "election": null,
            "id": 38,
            "name": "Hamilton Mountain"
          }
        ],
        "pollDivisionIds": [
          10138686
        ],
        "postalCode": "L9B2S1",
        "streetName": "DICENZO",
        "streetDirectionId": null,
        "streetTypeId": "DR",
        "placeName": "HAMILTON",
        "streetNameDisplayText": "DICENZO DR, HAMILTON"
      }
    ]
  },
  {
    "postal": "L9B9J7",
    "result": []
  },
  {
    "postal": "L9B2J3",
    "result": [
      {
        "electoralDistricts": [
          {
            "election": null,
            "id": 38,
            "name": "Hamilton Mountain"
          }
        ],
        "pollDivisionIds": [
          10138687
        ],
        "postalCode": "L9B2J3",
        "streetName": "MASSENA",
        "streetDirectionId": null,
        "streetTypeId": "DR",
        "placeName": "HAMILTON",
        "streetNameDisplayText": "MASSENA DR, HAMILTON"
      },
      {
        "electoralDistricts": [
          {
            "election": null,
            "id": 38,
            "name": "Hamilton Mountain"
          }
        ],
        "pollDivisionIds": [
          10138687
        ],
        "postalCode": "L9B2J3",
        "streetName": "NAPLES",
        "streetDirectionId": null,
        "streetTypeId": "BLVD",
        "placeName": "HAMILTON",
        "streetNameDisplayText": "NAPLES BLVD, HAMILTON"
      }
    ]
  },
  {
    "postal": "L9B3B6",
    "result": []
  },
  {
    "postal": "L9B8J0",
    "result": []
  },
  {
    "postal": "L9B7R4",
    "result": []
  },
  {
    "postal": "L9B8K8",
    "result": []
  },
  {
    "postal": "L9B4P3",
    "result": []
  },
  {
    "postal": "L9B0A2",
    "result": [
      {
        "electoralDistricts": [
          {
            "election": null,
            "id": 31,
            "name": "Flamborough—Glanbrook"
          }
        ],
        "pollDivisionIds": [
          10138260
        ],
        "postalCode": "L9B0A2",
        "streetName": "UPPER WENTWORTH",
        "streetDirectionId": null,
        "streetTypeId": "ST",
        "placeName": "HAMILTON",
        "streetNameDisplayText": "UPPER WENTWORTH ST, HAMILTON"
      }
    ]
  },
  {
    "postal": "L9B2G2",
    "result": [
      {
        "electoralDistricts": [
          {
            "election": null,
            "id": 31,
            "name": "Flamborough—Glanbrook"
          }
        ],
        "pollDivisionIds": [
          10138259
        ],
        "postalCode": "L9B2G2",
        "streetName": "CHRISTIE",
        "streetDirectionId": null,
        "streetTypeId": "ST",
        "placeName": "HAMILTON",
        "streetNameDisplayText": "CHRISTIE ST, HAMILTON"
      }
    ]
  },
  {
    "postal": "L9B5Y9",
    "result": []
  },
  {
    "postal": "L9B7X0",
    "result": []
  },
  {
    "postal": "L9B7W3",
    "result": []
  },
  {
    "postal": "L9B7X5",
    "result": []
  },
  {
    "postal": "L9B5K6",
    "result": []
  },
  {
    "postal": "L9B5B6",
    "result": []
  },
  {
    "postal": "L9B7Z0",
    "result": []
  },
  {
    "postal": "L9B9H6",
    "result": []
  },
  {
    "postal": "L9B1B4",
    "result": [
      {
        "electoralDistricts": [
          {
            "election": null,
            "id": 39,
            "name": "Hamilton West—Ancaster—Dundas"
          }
        ],
        "pollDivisionIds": [
          10135297
        ],
        "postalCode": "L9B1B4",
        "streetName": "REGENT",
        "streetDirectionId": null,
        "streetTypeId": "AVE",
        "placeName": "HAMILTON",
        "streetNameDisplayText": "REGENT AVE, HAMILTON"
      }
    ]
  },
  {
    "postal": "L9B1A0",
    "result": []
  },
  {
    "postal": "L9B9A0",
    "result": []
  },
  {
    "postal": "L9B1M6",
    "result": [
      {
        "electoralDistricts": [
          {
            "election": null,
            "id": 31,
            "name": "Flamborough—Glanbrook"
          }
        ],
        "pollDivisionIds": [
          10138259
        ],
        "postalCode": "L9B1M6",
        "streetName": "SPRINGSIDE",
        "streetDirectionId": null,
        "streetTypeId": "DR",
        "placeName": "HAMILTON",
        "streetNameDisplayText": "SPRINGSIDE DR, HAMILTON"
      }
    ]
  },
  {
    "postal": "L9B5H0",
    "result": []
  },
  {
    "postal": "L9B1K6",
    "result": [
      {
        "electoralDistricts": [
          {
            "election": null,
            "id": 31,
            "name": "Flamborough—Glanbrook"
          }
        ],
        "pollDivisionIds": [
          10138259
        ],
        "postalCode": "L9B1K6",
        "streetName": "UPPER JAMES",
        "streetDirectionId": null,
        "streetTypeId": "ST",
        "placeName": "HAMILTON",
        "streetNameDisplayText": "UPPER JAMES ST, HAMILTON"
      }
    ]
  },
  {
    "postal": "L9B5E1",
    "result": []
  },
  {
    "postal": "L9B3T9",
    "result": []
  },
  {
    "postal": "L9B2M6",
    "result": [
      {
        "electoralDistricts": [
          {
            "election": null,
            "id": 38,
            "name": "Hamilton Mountain"
          }
        ],
        "pollDivisionIds": [
          10138704
        ],
        "postalCode": "L9B2M6",
        "streetName": "STONE CHURCH",
        "streetDirectionId": "E",
        "streetTypeId": "RD",
        "placeName": "HAMILTON",
        "streetNameDisplayText": "STONE CHURCH RD E, HAMILTON"
      },
      {
        "electoralDistricts": [
          {
            "election": null,
            "id": 39,
            "name": "Hamilton West—Ancaster—Dundas"
          }
        ],
        "pollDivisionIds": [
          10135295,
          10135294
        ],
        "postalCode": "L9B2M6",
        "streetName": "STONE CHURCH",
        "streetDirectionId": "W",
        "streetTypeId": "RD",
        "placeName": "HAMILTON",
        "streetNameDisplayText": "STONE CHURCH RD W, HAMILTON"
      }
    ]
  },
  {
    "postal": "L9B0G5",
    "result": [
      {
        "electoralDistricts": [
          {
            "election": null,
            "id": 38,
            "name": "Hamilton Mountain"
          }
        ],
        "pollDivisionIds": [
          10138682,
          10138686
        ],
        "postalCode": "L9B0G5",
        "streetName": "ATESSA",
        "streetDirectionId": null,
        "streetTypeId": "DR",
        "placeName": "HAMILTON",
        "streetNameDisplayText": "ATESSA DR, HAMILTON"
      }
    ]
  },
  {
    "postal": "L9B0Y2",
    "result": []
  },
  {
    "postal": "L9B2Y7",
    "result": [
      {
        "electoralDistricts": [
          {
            "election": null,
            "id": 38,
            "name": "Hamilton Mountain"
          }
        ],
        "pollDivisionIds": [
          10138687
        ],
        "postalCode": "L9B2Y7",
        "streetName": "VENNIO",
        "streetDirectionId": null,
        "streetTypeId": "LANE",
        "placeName": "HAMILTON",
        "streetNameDisplayText": "VENNIO LANE, HAMILTON"
      }
    ]
  },
  {
    "postal": "L9B2J7",
    "result": [
      {
        "electoralDistricts": [
          {
            "election": null,
            "id": 39,
            "name": "Hamilton West—Ancaster—Dundas"
          }
        ],
        "pollDivisionIds": [
          10135297
        ],
        "postalCode": "L9B2J7",
        "streetName": "BENVENUTO",
        "streetDirectionId": null,
        "streetTypeId": "CRES",
        "placeName": "HAMILTON",
        "streetNameDisplayText": "BENVENUTO CRES, HAMILTON"
      },
      {
        "electoralDistricts": [
          {
            "election": null,
            "id": 39,
            "name": "Hamilton West—Ancaster—Dundas"
          }
        ],
        "pollDivisionIds": [
          10135297
        ],
        "postalCode": "L9B2J7",
        "streetName": "CLAUDETTE",
        "streetDirectionId": null,
        "streetTypeId": "GATE",
        "placeName": "HAMILTON",
        "streetNameDisplayText": "CLAUDETTE GATE, HAMILTON"
      },
      {
        "electoralDistricts": [
          {
            "election": null,
            "id": 39,
            "name": "Hamilton West—Ancaster—Dundas"
          }
        ],
        "pollDivisionIds": [
          10135297
        ],
        "postalCode": "L9B2J7",
        "streetName": "LYNNETTE",
        "streetDirectionId": null,
        "streetTypeId": "DR",
        "placeName": "HAMILTON",
        "streetNameDisplayText": "LYNNETTE DR, HAMILTON"
      }
    ]
  },
  {
    "postal": "L9B4K7",
    "result": []
  },
  {
    "postal": "L9B7P9",
    "result": []
  },
  {
    "postal": "L9B8X0",
    "result": []
  },
  {
    "postal": "L9B3X1",
    "result": []
  },
  {
    "postal": "L9B1R5",
    "result": [
      {
        "electoralDistricts": [
          {
            "election": null,
            "id": 39,
            "name": "Hamilton West—Ancaster—Dundas"
          }
        ],
        "pollDivisionIds": [
          10135297
        ],
        "postalCode": "L9B1R5",
        "streetName": "MCINTOSH",
        "streetDirectionId": null,
        "streetTypeId": "AVE",
        "placeName": "HAMILTON",
        "streetNameDisplayText": "MCINTOSH AVE, HAMILTON"
      }
    ]
  },
  {
    "postal": "L9B6X6",
    "result": []
  },
  {
    "postal": "L9B0Y1",
    "result": []
  },
  {
    "postal": "L9B8G1",
    "result": []
  },
  {
    "postal": "L9B3J3",
    "result": []
  },
  {
    "postal": "L9B8C2",
    "result": []
  },
  {
    "postal": "L9B4X9",
    "result": []
  },
  {
    "postal": "L9B6G9",
    "result": []
  },
  {
    "postal": "L9B4M3",
    "result": []
  },
  {
    "postal": "L9B9P7",
    "result": []
  },
  {
    "postal": "L9B4E5",
    "result": []
  },
  {
    "postal": "L9B5K9",
    "result": []
  },
  {
    "postal": "L9B2V2",
    "result": [
      {
        "electoralDistricts": [
          {
            "election": null,
            "id": 39,
            "name": "Hamilton West—Ancaster—Dundas"
          }
        ],
        "pollDivisionIds": [
          10135297
        ],
        "postalCode": "L9B2V2",
        "streetName": "AMORE",
        "streetDirectionId": null,
        "streetTypeId": "BLVD",
        "placeName": "HAMILTON",
        "streetNameDisplayText": "AMORE BLVD, HAMILTON"
      }
    ]
  },
  {
    "postal": "L9B2N9",
    "result": [
      {
        "electoralDistricts": [
          {
            "election": null,
            "id": 31,
            "name": "Flamborough—Glanbrook"
          },
          {
            "election": null,
            "id": 38,
            "name": "Hamilton Mountain"
          }
        ],
        "pollDivisionIds": [
          10138255,
          10138691
        ],
        "postalCode": "L9B2N9",
        "streetName": "RYMAL",
        "streetDirectionId": "W",
        "streetTypeId": "RD",
        "placeName": "HAMILTON",
        "streetNameDisplayText": "RYMAL RD W, HAMILTON"
      }
    ]
  },
  {
    "postal": "L9B6L4",
    "result": []
  },
  {
    "postal": "L9B8E0",
    "result": []
  },
  {
    "postal": "L9B0N0",
    "result": []
  },
  {
    "postal": "L9B6R0",
    "result": []
  },
  {
    "postal": "L9B9C1",
    "result": []
  },
  {
    "postal": "L9B4H4",
    "result": []
  },
  {
    "postal": "L9B5W3",
    "result": []
  },
  {
    "postal": "L9B9N9",
    "result": []
  },
  {
    "postal": "L9B1V7",
    "result": []
  },
  {
    "postal": "L9B8J1",
    "result": []
  },
  {
    "postal": "L9B5V9",
    "result": []
  },
  {
    "postal": "L9B2S8",
    "result": [
      {
        "electoralDistricts": [
          {
            "election": null,
            "id": 38,
            "name": "Hamilton Mountain"
          }
        ],
        "pollDivisionIds": [
          10138685
        ],
        "postalCode": "L9B2S8",
        "streetName": "CHESLEY",
        "streetDirectionId": null,
        "streetTypeId": "ST",
        "placeName": "HAMILTON",
        "streetNameDisplayText": "CHESLEY ST, HAMILTON"
      },
      {
        "electoralDistricts": [
          {
            "election": null,
            "id": 38,
            "name": "Hamilton Mountain"
          }
        ],
        "pollDivisionIds": [
          10138685
        ],
        "postalCode": "L9B2S8",
        "streetName": "PANTANO",
        "streetDirectionId": null,
        "streetTypeId": "DR",
        "placeName": "HAMILTON",
        "streetNameDisplayText": "PANTANO DR, HAMILTON"
      }
    ]
  },
  {
    "postal": "L9B6P0",
    "result": []
  },
  {
    "postal": "L9B4J8",
    "result": []
  },
  {
    "postal": "L9B0N1",
    "result": []
  },
  {
    "postal": "L9B1Y7",
    "result": [
      {
        "electoralDistricts": [
          {
            "election": null,
            "id": 38,
            "name": "Hamilton Mountain"
          }
        ],
        "pollDivisionIds": [
          10138686
        ],
        "postalCode": "L9B1Y7",
        "streetName": "DICENZO",
        "streetDirectionId": null,
        "streetTypeId": "DR",
        "placeName": "HAMILTON",
        "streetNameDisplayText": "DICENZO DR, HAMILTON"
      },
      {
        "electoralDistricts": [
          {
            "election": null,
            "id": 38,
            "name": "Hamilton Mountain"
          }
        ],
        "pollDivisionIds": [
          10138686
        ],
        "postalCode": "L9B1Y7",
        "streetName": "TORINO",
        "streetDirectionId": null,
        "streetTypeId": "DR",
        "placeName": "HAMILTON",
        "streetNameDisplayText": "TORINO DR, HAMILTON"
      }
    ]
  },
  {
    "postal": "L9B7W5",
    "result": []
  },
  {
    "postal": "L9B3Z1",
    "result": []
  },
  {
    "postal": "L9B7M6",
    "result": []
  },
  {
    "postal": "L9B1W7",
    "result": [
      {
        "electoralDistricts": [
          {
            "election": null,
            "id": 39,
            "name": "Hamilton West—Ancaster—Dundas"
          }
        ],
        "pollDivisionIds": [
          10135297
        ],
        "postalCode": "L9B1W7",
        "streetName": "CHRIS",
        "streetDirectionId": null,
        "streetTypeId": "CRT",
        "placeName": "HAMILTON",
        "streetNameDisplayText": "CHRIS CRT, HAMILTON"
      }
    ]
  },
  {
    "postal": "L9B1X1",
    "result": [
      {
        "electoralDistricts": [
          {
            "election": null,
            "id": 39,
            "name": "Hamilton West—Ancaster—Dundas"
          }
        ],
        "pollDivisionIds": [
          10135297
        ],
        "postalCode": "L9B1X1",
        "streetName": "HORIZON",
        "streetDirectionId": null,
        "streetTypeId": "CRT",
        "placeName": "HAMILTON",
        "streetNameDisplayText": "HORIZON CRT, HAMILTON"
      }
    ]
  },
  {
    "postal": "L9B0C1",
    "result": [
      {
        "electoralDistricts": [
          {
            "election": null,
            "id": 31,
            "name": "Flamborough—Glanbrook"
          }
        ],
        "pollDivisionIds": [
          10138256
        ],
        "postalCode": "L9B0C1",
        "streetName": "GARTH",
        "streetDirectionId": null,
        "streetTypeId": "ST",
        "placeName": "HAMILTON",
        "streetNameDisplayText": "GARTH ST, HAMILTON"
      }
    ]
  },
  {
    "postal": "L9B4N3",
    "result": []
  },
  {
    "postal": "L9B4S8",
    "result": []
  },
  {
    "postal": "L9B1H6",
    "result": [
      {
        "electoralDistricts": [
          {
            "election": null,
            "id": 31,
            "name": "Flamborough—Glanbrook"
          }
        ],
        "pollDivisionIds": [
          10138261
        ],
        "postalCode": "L9B1H6",
        "streetName": "TWENTY",
        "streetDirectionId": "E",
        "streetTypeId": "RD",
        "placeName": "HAMILTON",
        "streetNameDisplayText": "TWENTY RD E, HAMILTON"
      }
    ]
  },
  {
    "postal": "L9B2Z4",
    "result": []
  },
  {
    "postal": "L9B7K3",
    "result": []
  },
  {
    "postal": "L9B8A2",
    "result": []
  },
  {
    "postal": "L9B6J1",
    "result": []
  },
  {
    "postal": "L9B5Z6",
    "result": []
  },
  {
    "postal": "L9B3Z0",
    "result": []
  },
  {
    "postal": "L9B8M0",
    "result": []
  },
  {
    "postal": "L9B1Z6",
    "result": [
      {
        "electoralDistricts": [
          {
            "election": null,
            "id": 38,
            "name": "Hamilton Mountain"
          }
        ],
        "pollDivisionIds": [
          10138687
        ],
        "postalCode": "L9B1Z6",
        "streetName": "BRIGADE",
        "streetDirectionId": null,
        "streetTypeId": "DR",
        "placeName": "HAMILTON",
        "streetNameDisplayText": "BRIGADE DR, HAMILTON"
      },
      {
        "electoralDistricts": [
          {
            "election": null,
            "id": 38,
            "name": "Hamilton Mountain"
          }
        ],
        "pollDivisionIds": [
          10138687
        ],
        "postalCode": "L9B1Z6",
        "streetName": "CAVALRY",
        "streetDirectionId": null,
        "streetTypeId": "CRT",
        "placeName": "HAMILTON",
        "streetNameDisplayText": "CAVALRY CRT, HAMILTON"
      },
      {
        "electoralDistricts": [
          {
            "election": null,
            "id": 38,
            "name": "Hamilton Mountain"
          }
        ],
        "pollDivisionIds": [
          10138687
        ],
        "postalCode": "L9B1Z6",
        "streetName": "DELANCEY",
        "streetDirectionId": null,
        "streetTypeId": "BLVD",
        "placeName": "HAMILTON",
        "streetNameDisplayText": "DELANCEY BLVD, HAMILTON"
      },
      {
        "electoralDistricts": [
          {
            "election": null,
            "id": 38,
            "name": "Hamilton Mountain"
          }
        ],
        "pollDivisionIds": [
          10138687
        ],
        "postalCode": "L9B1Z6",
        "streetName": "DUBLIN",
        "streetDirectionId": null,
        "streetTypeId": "DR",
        "placeName": "HAMILTON",
        "streetNameDisplayText": "DUBLIN DR, HAMILTON"
      }
    ]
  },
  {
    "postal": "L9B8K7",
    "result": []
  },
  {
    "postal": "L9B1N3",
    "result": [
      {
        "electoralDistricts": [
          {
            "election": null,
            "id": 31,
            "name": "Flamborough—Glanbrook"
          }
        ],
        "pollDivisionIds": [
          10138261
        ],
        "postalCode": "L9B1N3",
        "streetName": "SAVERYN",
        "streetDirectionId": null,
        "streetTypeId": "RD",
        "placeName": "HAMILTON",
        "streetNameDisplayText": "SAVERYN RD, HAMILTON"
      }
    ]
  },
  {
    "postal": "L9B9S2",
    "result": []
  },
  {
    "postal": "L9B2K1",
    "result": [
      {
        "electoralDistricts": [
          {
            "election": null,
            "id": 39,
            "name": "Hamilton West—Ancaster—Dundas"
          }
        ],
        "pollDivisionIds": [
          10135297
        ],
        "postalCode": "L9B2K1",
        "streetName": "CLAUDETTE",
        "streetDirectionId": null,
        "streetTypeId": "GATE",
        "placeName": "HAMILTON",
        "streetNameDisplayText": "CLAUDETTE GATE, HAMILTON"
      },
      {
        "electoralDistricts": [
          {
            "election": null,
            "id": 39,
            "name": "Hamilton West—Ancaster—Dundas"
          }
        ],
        "pollDivisionIds": [
          10135297
        ],
        "postalCode": "L9B2K1",
        "streetName": "PHILOMENA",
        "streetDirectionId": null,
        "streetTypeId": "DR",
        "placeName": "HAMILTON",
        "streetNameDisplayText": "PHILOMENA DR, HAMILTON"
      },
      {
        "electoralDistricts": [
          {
            "election": null,
            "id": 39,
            "name": "Hamilton West—Ancaster—Dundas"
          }
        ],
        "pollDivisionIds": [
          10135297
        ],
        "postalCode": "L9B2K1",
        "streetName": "SPADARA",
        "streetDirectionId": null,
        "streetTypeId": "DR",
        "placeName": "HAMILTON",
        "streetNameDisplayText": "SPADARA DR, HAMILTON"
      }
    ]
  },
  {
    "postal": "L9B1E8",
    "result": [
      {
        "electoralDistricts": [
          {
            "election": null,
            "id": 31,
            "name": "Flamborough—Glanbrook"
          }
        ],
        "pollDivisionIds": [
          10138259
        ],
        "postalCode": "L9B1E8",
        "streetName": "MALTON",
        "streetDirectionId": null,
        "streetTypeId": "DR",
        "placeName": "HAMILTON",
        "streetNameDisplayText": "MALTON DR, HAMILTON"
      }
    ]
  },
  {
    "postal": "L9B9B8",
    "result": []
  },
  {
    "postal": "L9B7X4",
    "result": []
  },
  {
    "postal": "L9B1Z4",
    "result": [
      {
        "electoralDistricts": [
          {
            "election": null,
            "id": 38,
            "name": "Hamilton Mountain"
          }
        ],
        "pollDivisionIds": [
          10138687
        ],
        "postalCode": "L9B1Z4",
        "streetName": "BRIGADE",
        "streetDirectionId": null,
        "streetTypeId": "DR",
        "placeName": "HAMILTON",
        "streetNameDisplayText": "BRIGADE DR, HAMILTON"
      }
    ]
  },
  {
    "postal": "L9B2C7",
    "result": [
      {
        "electoralDistricts": [
          {
            "election": null,
            "id": 31,
            "name": "Flamborough—Glanbrook"
          }
        ],
        "pollDivisionIds": [
          10138259
        ],
        "postalCode": "L9B2C7",
        "streetName": "KENNEDY",
        "streetDirectionId": null,
        "streetTypeId": "AVE",
        "placeName": "HAMILTON",
        "streetNameDisplayText": "KENNEDY AVE, HAMILTON"
      }
    ]
  },
  {
    "postal": "L9B2E7",
    "result": [
      {
        "electoralDistricts": [
          {
            "election": null,
            "id": 38,
            "name": "Hamilton Mountain"
          }
        ],
        "pollDivisionIds": [
          10138687
        ],
        "postalCode": "L9B2E7",
        "streetName": "ANTOINETTE",
        "streetDirectionId": null,
        "streetTypeId": "CRT",
        "placeName": "HAMILTON",
        "streetNameDisplayText": "ANTOINETTE CRT, HAMILTON"
      },
      {
        "electoralDistricts": [
          {
            "election": null,
            "id": 38,
            "name": "Hamilton Mountain"
          }
        ],
        "pollDivisionIds": [
          10138687
        ],
        "postalCode": "L9B2E7",
        "streetName": "ESSLING",
        "streetDirectionId": null,
        "streetTypeId": "AVE",
        "placeName": "HAMILTON",
        "streetNameDisplayText": "ESSLING AVE, HAMILTON"
      }
    ]
  },
  {
    "postal": "L9B3R1",
    "result": []
  },
  {
    "postal": "L9B4K4",
    "result": []
  },
  {
    "postal": "L9B9G3",
    "result": []
  },
  {
    "postal": "L9B6C9",
    "result": []
  },
  {
    "postal": "L9B9H5",
    "result": []
  },
  {
    "postal": "L9B1P5",
    "result": [
      {
        "electoralDistricts": [
          {
            "election": null,
            "id": 31,
            "name": "Flamborough—Glanbrook"
          }
        ],
        "pollDivisionIds": [
          10138261
        ],
        "postalCode": "L9B1P5",
        "streetName": "MOTHER'S",
        "streetDirectionId": null,
        "streetTypeId": "ST",
        "placeName": "HAMILTON",
        "streetNameDisplayText": "MOTHER'S ST, HAMILTON"
      }
    ]
  },
  {
    "postal": "L9B2J5",
    "result": [
      {
        "electoralDistricts": [
          {
            "election": null,
            "id": 38,
            "name": "Hamilton Mountain"
          }
        ],
        "pollDivisionIds": [
          10138687
        ],
        "postalCode": "L9B2J5",
        "streetName": "UPPER WELLINGTON",
        "streetDirectionId": null,
        "streetTypeId": "ST",
        "placeName": "HAMILTON",
        "streetNameDisplayText": "UPPER WELLINGTON ST, HAMILTON"
      }
    ]
  },
  {
    "postal": "L9B4W6",
    "result": []
  },
  {
    "postal": "L9B8M8",
    "result": []
  },
  {
    "postal": "L9B6C5",
    "result": []
  },
  {
    "postal": "L9B9H0",
    "result": []
  },
  {
    "postal": "L9B1X8",
    "result": [
      {
        "electoralDistricts": [
          {
            "election": null,
            "id": 38,
            "name": "Hamilton Mountain"
          }
        ],
        "pollDivisionIds": [
          10138685
        ],
        "postalCode": "L9B1X8",
        "streetName": "GARTH",
        "streetDirectionId": null,
        "streetTypeId": "ST",
        "placeName": "HAMILTON",
        "streetNameDisplayText": "GARTH ST, HAMILTON"
      }
    ]
  },
  {
    "postal": "L9B3H4",
    "result": []
  },
  {
    "postal": "L9B4E7",
    "result": []
  },
  {
    "postal": "L9B8A0",
    "result": []
  },
  {
    "postal": "L9B1Z7",
    "result": [
      {
        "electoralDistricts": [
          {
            "election": null,
            "id": 38,
            "name": "Hamilton Mountain"
          }
        ],
        "pollDivisionIds": [
          10138687
        ],
        "postalCode": "L9B1Z7",
        "streetName": "DUBLIN",
        "streetDirectionId": null,
        "streetTypeId": "DR",
        "placeName": "HAMILTON",
        "streetNameDisplayText": "DUBLIN DR, HAMILTON"
      }
    ]
  },
  {
    "postal": "L9B7Z3",
    "result": []
  },
  {
    "postal": "L9B0L7",
    "result": []
  },
  {
    "postal": "L9B2C6",
    "result": [
      {
        "electoralDistricts": [
          {
            "election": null,
            "id": 39,
            "name": "Hamilton West—Ancaster—Dundas"
          }
        ],
        "pollDivisionIds": [
          10135297
        ],
        "postalCode": "L9B2C6",
        "streetName": "ANGELINA",
        "streetDirectionId": null,
        "streetTypeId": "PL",
        "placeName": "HAMILTON",
        "streetNameDisplayText": "ANGELINA PL, HAMILTON"
      }
    ]
  },
  {
    "postal": "L9B6M3",
    "result": []
  },
  {
    "postal": "L9B2J1",
    "result": []
  },
  {
    "postal": "L9B3E3",
    "result": []
  },
  {
    "postal": "L9B6Z9",
    "result": []
  },
  {
    "postal": "L9B3M3",
    "result": []
  },
  {
    "postal": "L9B9B1",
    "result": []
  },
  {
    "postal": "L9B9J5",
    "result": []
  },
  {
    "postal": "L9B4V8",
    "result": []
  },
  {
    "postal": "L9B6W2",
    "result": []
  },
  {
    "postal": "L9B0V5",
    "result": []
  },
  {
    "postal": "L9B0Z8",
    "result": []
  },
  {
    "postal": "L9B5G2",
    "result": []
  },
  {
    "postal": "L9B4N4",
    "result": []
  },
  {
    "postal": "L9B8G7",
    "result": []
  },
  {
    "postal": "L9B8W1",
    "result": []
  },
  {
    "postal": "L9B1S6",
    "result": [
      {
        "electoralDistricts": [
          {
            "election": null,
            "id": 39,
            "name": "Hamilton West—Ancaster—Dundas"
          }
        ],
        "pollDivisionIds": [
          10135297
        ],
        "postalCode": "L9B1S6",
        "streetName": "ROLAND",
        "streetDirectionId": null,
        "streetTypeId": "RD",
        "placeName": "HAMILTON",
        "streetNameDisplayText": "ROLAND RD, HAMILTON"
      }
    ]
  },
  {
    "postal": "L9B4E0",
    "result": []
  },
  {
    "postal": "L9B4L9",
    "result": []
  },
  {
    "postal": "L9B5Z9",
    "result": []
  },
  {
    "postal": "L9B5V3",
    "result": []
  },
  {
    "postal": "L9B4V2",
    "result": []
  },
  {
    "postal": "L9B7C0",
    "result": []
  },
  {
    "postal": "L9B6L0",
    "result": []
  },
  {
    "postal": "L9B1S9",
    "result": [
      {
        "electoralDistricts": [
          {
            "election": null,
            "id": 39,
            "name": "Hamilton West—Ancaster—Dundas"
          }
        ],
        "pollDivisionIds": [
          10135297
        ],
        "postalCode": "L9B1S9",
        "streetName": "MAYNARD",
        "streetDirectionId": null,
        "streetTypeId": "ST",
        "placeName": "HAMILTON",
        "streetNameDisplayText": "MAYNARD ST, HAMILTON"
      }
    ]
  },
  {
    "postal": "L9B7R6",
    "result": []
  },
  {
    "postal": "L9B7J0",
    "result": []
  },
  {
    "postal": "L9B5M0",
    "result": []
  },
  {
    "postal": "L9B2E5",
    "result": [
      {
        "electoralDistricts": [
          {
            "election": null,
            "id": 38,
            "name": "Hamilton Mountain"
          }
        ],
        "pollDivisionIds": [
          10138687
        ],
        "postalCode": "L9B2E5",
        "streetName": "DRAGOON",
        "streetDirectionId": null,
        "streetTypeId": "DR",
        "placeName": "HAMILTON",
        "streetNameDisplayText": "DRAGOON DR, HAMILTON"
      },
      {
        "electoralDistricts": [
          {
            "election": null,
            "id": 38,
            "name": "Hamilton Mountain"
          }
        ],
        "pollDivisionIds": [
          10138687
        ],
        "postalCode": "L9B2E5",
        "streetName": "FUSILIER",
        "streetDirectionId": null,
        "streetTypeId": "DR",
        "placeName": "HAMILTON",
        "streetNameDisplayText": "FUSILIER DR, HAMILTON"
      }
    ]
  },
  {
    "postal": "L9B7C7",
    "result": []
  },
  {
    "postal": "L9B5C0",
    "result": []
  },
  {
    "postal": "L9B8V9",
    "result": []
  },
  {
    "postal": "L9B7E0",
    "result": []
  },
  {
    "postal": "L9B6R4",
    "result": []
  },
  {
    "postal": "L9B3Z7",
    "result": []
  },
  {
    "postal": "L9B1J9",
    "result": [
      {
        "electoralDistricts": [
          {
            "election": null,
            "id": 31,
            "name": "Flamborough—Glanbrook"
          }
        ],
        "pollDivisionIds": [
          10138259
        ],
        "postalCode": "L9B1J9",
        "streetName": "CHRISTIE",
        "streetDirectionId": null,
        "streetTypeId": "ST",
        "placeName": "HAMILTON",
        "streetNameDisplayText": "CHRISTIE ST, HAMILTON"
      }
    ]
  },
  {
    "postal": "L9B7K6",
    "result": []
  },
  {
    "postal": "L9B7Y5",
    "result": []
  },
  {
    "postal": "L9B1B7",
    "result": [
      {
        "electoralDistricts": [
          {
            "election": null,
            "id": 31,
            "name": "Flamborough—Glanbrook"
          }
        ],
        "pollDivisionIds": [
          10138255,
          10138259,
          10138258
        ],
        "postalCode": "L9B1B7",
        "streetName": "RYMAL",
        "streetDirectionId": "W",
        "streetTypeId": "RD",
        "placeName": "HAMILTON",
        "streetNameDisplayText": "RYMAL RD W, HAMILTON"
      }
    ]
  },
  {
    "postal": "L9B4S9",
    "result": []
  },
  {
    "postal": "L9B9R9",
    "result": []
  },
  {
    "postal": "L9B5K7",
    "result": []
  },
  {
    "postal": "L9B6P2",
    "result": []
  },
  {
    "postal": "L9B2C5",
    "result": [
      {
        "electoralDistricts": [
          {
            "election": null,
            "id": 38,
            "name": "Hamilton Mountain"
          }
        ],
        "pollDivisionIds": [
          10138686
        ],
        "postalCode": "L9B2C5",
        "streetName": "TRIESTE",
        "streetDirectionId": null,
        "streetTypeId": "PL",
        "placeName": "HAMILTON",
        "streetNameDisplayText": "TRIESTE PL, HAMILTON"
      }
    ]
  },
  {
    "postal": "L9B2N0",
    "result": []
  },
  {
    "postal": "L9B1G0",
    "result": []
  },
  {
    "postal": "L9B4K5",
    "result": []
  },
  {
    "postal": "L9B9B5",
    "result": []
  },
  {
    "postal": "L9B6T5",
    "result": []
  },
  {
    "postal": "L9B1N8",
    "result": [
      {
        "electoralDistricts": [
          {
            "election": null,
            "id": 38,
            "name": "Hamilton Mountain"
          }
        ],
        "pollDivisionIds": [
          10138687
        ],
        "postalCode": "L9B1N8",
        "streetName": "UPPER WELLINGTON",
        "streetDirectionId": null,
        "streetTypeId": "ST",
        "placeName": "HAMILTON",
        "streetNameDisplayText": "UPPER WELLINGTON ST, HAMILTON"
      }
    ]
  },
  {
    "postal": "L9B0C0",
    "result": []
  },
  {
    "postal": "L9B0R9",
    "result": []
  },
  {
    "postal": "L9B7L1",
    "result": []
  },
  {
    "postal": "L9B3Y8",
    "result": []
  },
  {
    "postal": "L9B7X9",
    "result": []
  },
  {
    "postal": "L9B1A7",
    "result": [
      {
        "electoralDistricts": [
          {
            "election": null,
            "id": 39,
            "name": "Hamilton West—Ancaster—Dundas"
          }
        ],
        "pollDivisionIds": [
          10135295
        ],
        "postalCode": "L9B1A7",
        "streetName": "STONE CHURCH",
        "streetDirectionId": "W",
        "streetTypeId": "RD",
        "placeName": "HAMILTON",
        "streetNameDisplayText": "STONE CHURCH RD W, HAMILTON"
      }
    ]
  },
  {
    "postal": "L9B2T9",
    "result": [
      {
        "electoralDistricts": [
          {
            "election": null,
            "id": 31,
            "name": "Flamborough—Glanbrook"
          }
        ],
        "pollDivisionIds": [
          10138260
        ],
        "postalCode": "L9B2T9",
        "streetName": "BIANCA",
        "streetDirectionId": null,
        "streetTypeId": "DR",
        "placeName": "HAMILTON",
        "streetNameDisplayText": "BIANCA DR, HAMILTON"
      },
      {
        "electoralDistricts": [
          {
            "election": null,
            "id": 31,
            "name": "Flamborough—Glanbrook"
          }
        ],
        "pollDivisionIds": [
          10138260
        ],
        "postalCode": "L9B2T9",
        "streetName": "PATTON",
        "streetDirectionId": null,
        "streetTypeId": "PL",
        "placeName": "HAMILTON",
        "streetNameDisplayText": "PATTON PL, HAMILTON"
      }
    ]
  },
  {
    "postal": "L9B2E6",
    "result": [
      {
        "electoralDistricts": [
          {
            "election": null,
            "id": 38,
            "name": "Hamilton Mountain"
          }
        ],
        "pollDivisionIds": [
          10138687
        ],
        "postalCode": "L9B2E6",
        "streetName": "BRIGADE",
        "streetDirectionId": null,
        "streetTypeId": "DR",
        "placeName": "HAMILTON",
        "streetNameDisplayText": "BRIGADE DR, HAMILTON"
      },
      {
        "electoralDistricts": [
          {
            "election": null,
            "id": 38,
            "name": "Hamilton Mountain"
          }
        ],
        "pollDivisionIds": [
          10138687
        ],
        "postalCode": "L9B2E6",
        "streetName": "EMPEROR",
        "streetDirectionId": null,
        "streetTypeId": "AVE",
        "placeName": "HAMILTON",
        "streetNameDisplayText": "EMPEROR AVE, HAMILTON"
      }
    ]
  },
  {
    "postal": "L9B8Y1",
    "result": []
  },
  {
    "postal": "L9B0J5",
    "result": [
      {
        "electoralDistricts": [
          {
            "election": null,
            "id": 31,
            "name": "Flamborough—Glanbrook"
          }
        ],
        "pollDivisionIds": [
          10138255
        ],
        "postalCode": "L9B0J5",
        "streetName": "RYMAL",
        "streetDirectionId": "W",
        "streetTypeId": "RD",
        "placeName": "HAMILTON",
        "streetNameDisplayText": "RYMAL RD W, HAMILTON"
      }
    ]
  },
  {
    "postal": "L9B4J1",
    "result": []
  },
  {
    "postal": "L9B1A5",
    "result": [
      {
        "electoralDistricts": [
          {
            "election": null,
            "id": 38,
            "name": "Hamilton Mountain"
          }
        ],
        "pollDivisionIds": [
          10138703
        ],
        "postalCode": "L9B1A5",
        "streetName": "STONE CHURCH",
        "streetDirectionId": "E",
        "streetTypeId": "RD",
        "placeName": "HAMILTON",
        "streetNameDisplayText": "STONE CHURCH RD E, HAMILTON"
      },
      {
        "electoralDistricts": [
          {
            "election": null,
            "id": 39,
            "name": "Hamilton West—Ancaster—Dundas"
          }
        ],
        "pollDivisionIds": [
          10135297
        ],
        "postalCode": "L9B1A5",
        "streetName": "STONE CHURCH",
        "streetDirectionId": "W",
        "streetTypeId": "RD",
        "placeName": "HAMILTON",
        "streetNameDisplayText": "STONE CHURCH RD W, HAMILTON"
      },
      {
        "electoralDistricts": [
          {
            "election": null,
            "id": 39,
            "name": "Hamilton West—Ancaster—Dundas"
          }
        ],
        "pollDivisionIds": [
          10135297
        ],
        "postalCode": "L9B1A5",
        "streetName": "STONECHURCH",
        "streetDirectionId": "W",
        "streetTypeId": "RD",
        "placeName": "HAMILTON",
        "streetNameDisplayText": "STONECHURCH RD W, HAMILTON"
      }
    ]
  },
  {
    "postal": "L9B6Z6",
    "result": []
  },
  {
    "postal": "L9B5K4",
    "result": []
  },
  {
    "postal": "L9B7R9",
    "result": []
  },
  {
    "postal": "L9B6G4",
    "result": []
  }
]
