[
  {
    "postal": "K2K9J6",
    "result": []
  },
  {
    "postal": "K2K9Z5",
    "result": []
  },
  {
    "postal": "K2K7H8",
    "result": []
  },
  {
    "postal": "K2K0P6",
    "result": []
  },
  {
    "postal": "K2K0S7",
    "result": []
  },
  {
    "postal": "K2K8B9",
    "result": []
  },
  {
    "postal": "K2K2A6",
    "result": []
  },
  {
    "postal": "K2K7V2",
    "result": []
  },
  {
    "postal": "K2K9P4",
    "result": []
  },
  {
    "postal": "K2K6G0",
    "result": []
  },
  {
    "postal": "K2K2K0",
    "result": []
  },
  {
    "postal": "K2K7N6",
    "result": []
  },
  {
    "postal": "K2K5R3",
    "result": []
  },
  {
    "postal": "K2K7K0",
    "result": []
  },
  {
    "postal": "K2K3R2",
    "result": [
      {
        "electoralDistricts": [
          {
            "election": null,
            "id": 43,
            "name": "Kanata—Carleton"
          }
        ],
        "pollDivisionIds": [
          10138945
        ],
        "postalCode": "K2K3R2",
        "streetName": "ABERFOYLE",
        "streetDirectionId": null,
        "streetTypeId": "CIR",
        "placeName": "KANATA",
        "streetNameDisplayText": "ABERFOYLE CIR, KANATA"
      }
    ]
  },
  {
    "postal": "K2K0J1",
    "result": []
  },
  {
    "postal": "K2K0B0",
    "result": []
  },
  {
    "postal": "K2K5Z2",
    "result": []
  },
  {
    "postal": "K2K7P3",
    "result": []
  },
  {
    "postal": "K2K2K3",
    "result": [
      {
        "electoralDistricts": [
          {
            "election": null,
            "id": 43,
            "name": "Kanata—Carleton"
          }
        ],
        "pollDivisionIds": [
          10138948
        ],
        "postalCode": "K2K2K3",
        "streetName": "WESLOCK",
        "streetDirectionId": null,
        "streetTypeId": "WAY",
        "placeName": "KANATA",
        "streetNameDisplayText": "WESLOCK WAY, KANATA"
      },
      {
        "electoralDistricts": [
          {
            "election": null,
            "id": 43,
            "name": "Kanata—Carleton"
          }
        ],
        "pollDivisionIds": [
          10138948
        ],
        "postalCode": "K2K2K3",
        "streetName": "ZOKOL",
        "streetDirectionId": null,
        "streetTypeId": "CRES",
        "placeName": "KANATA",
        "streetNameDisplayText": "ZOKOL CRES, KANATA"
      }
    ]
  },
  {
    "postal": "K2K7Y6",
    "result": []
  },
  {
    "postal": "K2K1L9",
    "result": [
      {
        "electoralDistricts": [
          {
            "election": null,
            "id": 43,
            "name": "Kanata—Carleton"
          }
        ],
        "pollDivisionIds": [
          10138964,
          10138951
        ],
        "postalCode": "K2K1L9",
        "streetName": "PENFIELD",
        "streetDirectionId": null,
        "streetTypeId": "DR",
        "placeName": "KANATA",
        "streetNameDisplayText": "PENFIELD DR, KANATA"
      }
    ]
  },
  {
    "postal": "K2K8T0",
    "result": []
  },
  {
    "postal": "K2K3K8",
    "result": [
      {
        "electoralDistricts": [
          {
            "election": null,
            "id": 43,
            "name": "Kanata—Carleton"
          }
        ],
        "pollDivisionIds": [
          10138942
        ],
        "postalCode": "K2K3K8",
        "streetName": "PEIKOFF",
        "streetDirectionId": null,
        "streetTypeId": "CRES",
        "placeName": "KANATA",
        "streetNameDisplayText": "PEIKOFF CRES, KANATA"
      },
      {
        "electoralDistricts": [
          {
            "election": null,
            "id": 43,
            "name": "Kanata—Carleton"
          }
        ],
        "pollDivisionIds": [
          10138942
        ],
        "postalCode": "K2K3K8",
        "streetName": "RAYBURN",
        "streetDirectionId": null,
        "streetTypeId": "ST",
        "placeName": "KANATA",
        "streetNameDisplayText": "RAYBURN ST, KANATA"
      }
    ]
  },
  {
    "postal": "K2K5W9",
    "result": []
  },
  {
    "postal": "K2K6T9",
    "result": []
  },
  {
    "postal": "K2K4H1",
    "result": []
  },
  {
    "postal": "K2K7A2",
    "result": []
  },
  {
    "postal": "K2K5G0",
    "result": []
  },
  {
    "postal": "K2K8V5",
    "result": []
  },
  {
    "postal": "K2K2Y8",
    "result": [
      {
        "electoralDistricts": [
          {
            "election": null,
            "id": 81,
            "name": "Ottawa West—Nepean"
          }
        ],
        "pollDivisionIds": [
          10140818
        ],
        "postalCode": "K2K2Y8",
        "streetName": "CARLING",
        "streetDirectionId": null,
        "streetTypeId": "AVE",
        "placeName": "NEPEAN",
        "streetNameDisplayText": "CARLING AVE, NEPEAN"
      }
    ]
  },
  {
    "postal": "K2K2B6",
    "result": [
      {
        "electoralDistricts": [
          {
            "election": null,
            "id": 43,
            "name": "Kanata—Carleton"
          }
        ],
        "pollDivisionIds": [
          10138951,
          10138971
        ],
        "postalCode": "K2K2B6",
        "streetName": "TERON",
        "streetDirectionId": null,
        "streetTypeId": "RD",
        "placeName": "KANATA",
        "streetNameDisplayText": "TERON RD, KANATA"
      }
    ]
  },
  {
    "postal": "K2K4W8",
    "result": []
  },
  {
    "postal": "K2K8H7",
    "result": []
  },
  {
    "postal": "K2K5P1",
    "result": []
  },
  {
    "postal": "K2K2B8",
    "result": []
  },
  {
    "postal": "K2K0P2",
    "result": []
  },
  {
    "postal": "K2K9M1",
    "result": []
  },
  {
    "postal": "K2K3G0",
    "result": []
  },
  {
    "postal": "K2K9Z2",
    "result": []
  },
  {
    "postal": "K2K2A0",
    "result": []
  },
  {
    "postal": "K2K6Y0",
    "result": []
  },
  {
    "postal": "K2K2Z8",
    "result": [
      {
        "electoralDistricts": [
          {
            "election": null,
            "id": 43,
            "name": "Kanata—Carleton"
          }
        ],
        "pollDivisionIds": [
          10138973
        ],
        "postalCode": "K2K2Z8",
        "streetName": "WEAVER",
        "streetDirectionId": null,
        "streetTypeId": "CRES",
        "placeName": "KANATA",
        "streetNameDisplayText": "WEAVER CRES, KANATA"
      }
    ]
  },
  {
    "postal": "K2K7Y3",
    "result": []
  },
  {
    "postal": "K2K6Z5",
    "result": []
  },
  {
    "postal": "K2K6E0",
    "result": []
  },
  {
    "postal": "K2K9B7",
    "result": []
  },
  {
    "postal": "K2K9S5",
    "result": []
  },
  {
    "postal": "K2K3X3",
    "result": []
  },
  {
    "postal": "K2K7R5",
    "result": []
  },
  {
    "postal": "K2K2X3",
    "result": [
      {
        "electoralDistricts": [
          {
            "election": null,
            "id": 43,
            "name": "Kanata—Carleton"
          }
        ],
        "pollDivisionIds": [
          10138945
        ],
        "postalCode": "K2K2X3",
        "streetName": "LEGGET",
        "streetDirectionId": null,
        "streetTypeId": "DR",
        "placeName": "KANATA",
        "streetNameDisplayText": "LEGGET DR, KANATA"
      }
    ]
  },
  {
    "postal": "K2K8Z9",
    "result": []
  },
  {
    "postal": "K2K0N4",
    "result": []
  },
  {
    "postal": "K2K1K1",
    "result": [
      {
        "electoralDistricts": [
          {
            "election": null,
            "id": 43,
            "name": "Kanata—Carleton"
          }
        ],
        "pollDivisionIds": [
          10138948
        ],
        "postalCode": "K2K1K1",
        "streetName": "CARMICHAEL",
        "streetDirectionId": null,
        "streetTypeId": "CRT",
        "placeName": "KANATA",
        "streetNameDisplayText": "CARMICHAEL CRT, KANATA"
      }
    ]
  },
  {
    "postal": "K2K1S3",
    "result": [
      {
        "electoralDistricts": [
          {
            "election": null,
            "id": 43,
            "name": "Kanata—Carleton"
          }
        ],
        "pollDivisionIds": [
          10138950
        ],
        "postalCode": "K2K1S3",
        "streetName": "LEACOCK",
        "streetDirectionId": null,
        "streetTypeId": "DR",
        "placeName": "KANATA",
        "streetNameDisplayText": "LEACOCK DR, KANATA"
      }
    ]
  },
  {
    "postal": "K2K6M4",
    "result": []
  },
  {
    "postal": "K2K9A9",
    "result": []
  },
  {
    "postal": "K2K9Z9",
    "result": []
  },
  {
    "postal": "K2K6T4",
    "result": []
  },
  {
    "postal": "K2K0B2",
    "result": [
      {
        "electoralDistricts": [
          {
            "election": null,
            "id": 43,
            "name": "Kanata—Carleton"
          }
        ],
        "pollDivisionIds": [
          10138942
        ],
        "postalCode": "K2K0B2",
        "streetName": "BRADY",
        "streetDirectionId": null,
        "streetTypeId": "AVE",
        "placeName": "KANATA",
        "streetNameDisplayText": "BRADY AVE, KANATA"
      },
      {
        "electoralDistricts": [
          {
            "election": null,
            "id": 43,
            "name": "Kanata—Carleton"
          }
        ],
        "pollDivisionIds": [
          10138944
        ],
        "postalCode": "K2K0B2",
        "streetName": "MALKOWSKI",
        "streetDirectionId": null,
        "streetTypeId": "ST",
        "placeName": "KANATA",
        "streetNameDisplayText": "MALKOWSKI ST, KANATA"
      },
      {
        "electoralDistricts": [
          {
            "election": null,
            "id": 43,
            "name": "Kanata—Carleton"
          }
        ],
        "pollDivisionIds": [
          10138944,
          10138942
        ],
        "postalCode": "K2K0B2",
        "streetName": "STATEWOOD",
        "streetDirectionId": null,
        "streetTypeId": "DR",
        "placeName": "KANATA",
        "streetNameDisplayText": "STATEWOOD DR, KANATA"
      }
    ]
  },
  {
    "postal": "K2K2L9",
    "result": [
      {
        "electoralDistricts": [
          {
            "election": null,
            "id": 43,
            "name": "Kanata—Carleton"
          }
        ],
        "pollDivisionIds": [
          10138948
        ],
        "postalCode": "K2K2L9",
        "streetName": "HANSEN",
        "streetDirectionId": null,
        "streetTypeId": "AVE",
        "placeName": "KANATA",
        "streetNameDisplayText": "HANSEN AVE, KANATA"
      },
      {
        "electoralDistricts": [
          {
            "election": null,
            "id": 43,
            "name": "Kanata—Carleton"
          }
        ],
        "pollDivisionIds": [
          10138948
        ],
        "postalCode": "K2K2L9",
        "streetName": "VERMEER",
        "streetDirectionId": null,
        "streetTypeId": "WAY",
        "placeName": "KANATA",
        "streetNameDisplayText": "VERMEER WAY, KANATA"
      }
    ]
  },
  {
    "postal": "K2K8K9",
    "result": []
  },
  {
    "postal": "K2K2H9",
    "result": []
  },
  {
    "postal": "K2K3Z6",
    "result": []
  },
  {
    "postal": "K2K3B0",
    "result": []
  },
  {
    "postal": "K2K2H8",
    "result": [
      {
        "electoralDistricts": [
          {
            "election": null,
            "id": 43,
            "name": "Kanata—Carleton"
          }
        ],
        "pollDivisionIds": [
          10138944
        ],
        "postalCode": "K2K2H8",
        "streetName": "AYTON",
        "streetDirectionId": null,
        "streetTypeId": "LANE",
        "placeName": "KANATA",
        "streetNameDisplayText": "AYTON LANE, KANATA"
      }
    ]
  },
  {
    "postal": "K2K3X2",
    "result": []
  },
  {
    "postal": "K2K2E9",
    "result": [
      {
        "electoralDistricts": [
          {
            "election": null,
            "id": 43,
            "name": "Kanata—Carleton"
          }
        ],
        "pollDivisionIds": [
          10138942
        ],
        "postalCode": "K2K2E9",
        "streetName": "FLAMBOROUGH",
        "streetDirectionId": null,
        "streetTypeId": "WAY",
        "placeName": "KANATA",
        "streetNameDisplayText": "FLAMBOROUGH WAY, KANATA"
      },
      {
        "electoralDistricts": [
          {
            "election": null,
            "id": 43,
            "name": "Kanata—Carleton"
          }
        ],
        "pollDivisionIds": [
          10138944
        ],
        "postalCode": "K2K2E9",
        "streetName": "MORGAN'S GRANT",
        "streetDirectionId": null,
        "streetTypeId": "WAY",
        "placeName": "KANATA",
        "streetNameDisplayText": "MORGAN'S GRANT WAY, KANATA"
      }
    ]
  },
  {
    "postal": "K2K9P6",
    "result": []
  },
  {
    "postal": "K2K9E2",
    "result": []
  },
  {
    "postal": "K2K9H2",
    "result": []
  },
  {
    "postal": "K2K1S8",
    "result": [
      {
        "electoralDistricts": [
          {
            "election": null,
            "id": 43,
            "name": "Kanata—Carleton"
          }
        ],
        "pollDivisionIds": [
          10138950
        ],
        "postalCode": "K2K1S8",
        "streetName": "LEACOCK",
        "streetDirectionId": null,
        "streetTypeId": "DR",
        "placeName": "KANATA",
        "streetNameDisplayText": "LEACOCK DR, KANATA"
      }
    ]
  },
  {
    "postal": "K2K3M6",
    "result": [
      {
        "electoralDistricts": [
          {
            "election": null,
            "id": 43,
            "name": "Kanata—Carleton"
          }
        ],
        "pollDivisionIds": [
          10138945
        ],
        "postalCode": "K2K3M6",
        "streetName": "CATTERICK",
        "streetDirectionId": null,
        "streetTypeId": "CRES",
        "placeName": "KANATA",
        "streetNameDisplayText": "CATTERICK CRES, KANATA"
      },
      {
        "electoralDistricts": [
          {
            "election": null,
            "id": 43,
            "name": "Kanata—Carleton"
          }
        ],
        "pollDivisionIds": [
          10138945
        ],
        "postalCode": "K2K3M6",
        "streetName": "SHIRLEY'S BROOK",
        "streetDirectionId": null,
        "streetTypeId": "DR",
        "placeName": "KANATA",
        "streetNameDisplayText": "SHIRLEY'S BROOK DR, KANATA"
      }
    ]
  },
  {
    "postal": "K2K6Z8",
    "result": []
  },
  {
    "postal": "K2K4J2",
    "result": []
  },
  {
    "postal": "K2K9Y1",
    "result": []
  },
  {
    "postal": "K2K8V6",
    "result": []
  },
  {
    "postal": "K2K6B2",
    "result": []
  },
  {
    "postal": "K2K1P8",
    "result": [
      {
        "electoralDistricts": [
          {
            "election": null,
            "id": 43,
            "name": "Kanata—Carleton"
          }
        ],
        "pollDivisionIds": [
          10138951
        ],
        "postalCode": "K2K1P8",
        "streetName": "BANTING",
        "streetDirectionId": null,
        "streetTypeId": "WAY",
        "placeName": "KANATA",
        "streetNameDisplayText": "BANTING WAY, KANATA"
      }
    ]
  },
  {
    "postal": "K2K0V8",
    "result": []
  },
  {
    "postal": "K2K4Y0",
    "result": []
  },
  {
    "postal": "K2K2T4",
    "result": [
      {
        "electoralDistricts": [
          {
            "election": null,
            "id": 43,
            "name": "Kanata—Carleton"
          }
        ],
        "pollDivisionIds": [
          10138947
        ],
        "postalCode": "K2K2T4",
        "streetName": "HODGSON",
        "streetDirectionId": null,
        "streetTypeId": "CRT",
        "placeName": "KANATA",
        "streetNameDisplayText": "HODGSON CRT, KANATA"
      },
      {
        "electoralDistricts": [
          {
            "election": null,
            "id": 43,
            "name": "Kanata—Carleton"
          }
        ],
        "pollDivisionIds": [
          10138947
        ],
        "postalCode": "K2K2T4",
        "streetName": "LONGBOAT",
        "streetDirectionId": null,
        "streetTypeId": "CRT",
        "placeName": "KANATA",
        "streetNameDisplayText": "LONGBOAT CRT, KANATA"
      }
    ]
  },
  {
    "postal": "K2K2S3",
    "result": [
      {
        "electoralDistricts": [
          {
            "election": null,
            "id": 43,
            "name": "Kanata—Carleton"
          }
        ],
        "pollDivisionIds": [
          10138945
        ],
        "postalCode": "K2K2S3",
        "streetName": "HELMSDALE",
        "streetDirectionId": null,
        "streetTypeId": "DR",
        "placeName": "KANATA",
        "streetNameDisplayText": "HELMSDALE DR, KANATA"
      },
      {
        "electoralDistricts": [
          {
            "election": null,
            "id": 43,
            "name": "Kanata—Carleton"
          }
        ],
        "pollDivisionIds": [
          10138945
        ],
        "postalCode": "K2K2S3",
        "streetName": "KIMBOLTON",
        "streetDirectionId": null,
        "streetTypeId": "CRES",
        "placeName": "KANATA",
        "streetNameDisplayText": "KIMBOLTON CRES, KANATA"
      }
    ]
  },
  {
    "postal": "K2K0K0",
    "result": []
  },
  {
    "postal": "K2K5N1",
    "result": []
  },
  {
    "postal": "K2K7T0",
    "result": []
  },
  {
    "postal": "K2K9N2",
    "result": []
  },
  {
    "postal": "K2K5L1",
    "result": []
  },
  {
    "postal": "K2K7G5",
    "result": []
  },
  {
    "postal": "K2K6K2",
    "result": []
  },
  {
    "postal": "K2K6P9",
    "result": []
  },
  {
    "postal": "K2K0E6",
    "result": [
      {
        "electoralDistricts": [
          {
            "election": null,
            "id": 43,
            "name": "Kanata—Carleton"
          }
        ],
        "pollDivisionIds": [
          10138942
        ],
        "postalCode": "K2K0E6",
        "streetName": "FORESTBROOK",
        "streetDirectionId": null,
        "streetTypeId": "ST",
        "placeName": "KANATA",
        "streetNameDisplayText": "FORESTBROOK ST, KANATA"
      },
      {
        "electoralDistricts": [
          {
            "election": null,
            "id": 43,
            "name": "Kanata—Carleton"
          }
        ],
        "pollDivisionIds": [
          10138942
        ],
        "postalCode": "K2K0E6",
        "streetName": "HUNTERBROOK",
        "streetDirectionId": "N",
        "streetTypeId": "ST",
        "placeName": "KANATA",
        "streetNameDisplayText": "HUNTERBROOK ST N, KANATA"
      }
    ]
  },
  {
    "postal": "K2K8R9",
    "result": []
  },
  {
    "postal": "K2K3G9",
    "result": [
      {
        "electoralDistricts": [
          {
            "election": null,
            "id": 43,
            "name": "Kanata—Carleton"
          }
        ],
        "pollDivisionIds": [
          10138950
        ],
        "postalCode": "K2K3G9",
        "streetName": "MORENZ",
        "streetDirectionId": null,
        "streetTypeId": "TERR",
        "placeName": "KANATA",
        "streetNameDisplayText": "MORENZ TERR, KANATA"
      },
      {
        "electoralDistricts": [
          {
            "election": null,
            "id": 43,
            "name": "Kanata—Carleton"
          }
        ],
        "pollDivisionIds": [
          10138950
        ],
        "postalCode": "K2K3G9",
        "streetName": "SAWCHUK",
        "streetDirectionId": null,
        "streetTypeId": "TERR",
        "placeName": "KANATA",
        "streetNameDisplayText": "SAWCHUK TERR, KANATA"
      },
      {
        "electoralDistricts": [
          {
            "election": null,
            "id": 43,
            "name": "Kanata—Carleton"
          }
        ],
        "pollDivisionIds": [
          10138950
        ],
        "postalCode": "K2K3G9",
        "streetName": "VEZINA",
        "streetDirectionId": null,
        "streetTypeId": "PL",
        "placeName": "KANATA",
        "streetNameDisplayText": "VEZINA PL, KANATA"
      }
    ]
  },
  {
    "postal": "K2K0V7",
    "result": []
  },
  {
    "postal": "K2K2Z1",
    "result": [
      {
        "electoralDistricts": [
          {
            "election": null,
            "id": 81,
            "name": "Ottawa West—Nepean"
          }
        ],
        "pollDivisionIds": [
          10140818
        ],
        "postalCode": "K2K2Z1",
        "streetName": "RIFLE",
        "streetDirectionId": null,
        "streetTypeId": "RD",
        "placeName": "NEPEAN",
        "streetNameDisplayText": "RIFLE RD, NEPEAN"
      }
    ]
  },
  {
    "postal": "K2K7N1",
    "result": []
  },
  {
    "postal": "K2K3C6",
    "result": [
      {
        "electoralDistricts": [
          {
            "election": null,
            "id": 43,
            "name": "Kanata—Carleton"
          }
        ],
        "pollDivisionIds": [
          10138948
        ],
        "postalCode": "K2K3C6",
        "streetName": "CECIL WALDEN",
        "streetDirectionId": null,
        "streetTypeId": "RIDGE",
        "placeName": "KANATA",
        "streetNameDisplayText": "CECIL WALDEN RIDGE, KANATA"
      }
    ]
  },
  {
    "postal": "K2K4M1",
    "result": []
  },
  {
    "postal": "K2K9K2",
    "result": []
  },
  {
    "postal": "K2K9S6",
    "result": []
  },
  {
    "postal": "K2K4X1",
    "result": []
  },
  {
    "postal": "K2K8W2",
    "result": []
  },
  {
    "postal": "K2K7N2",
    "result": []
  },
  {
    "postal": "K2K8S3",
    "result": []
  },
  {
    "postal": "K2K4V0",
    "result": []
  },
  {
    "postal": "K2K6W4",
    "result": []
  },
  {
    "postal": "K2K5M1",
    "result": []
  },
  {
    "postal": "K2K0S4",
    "result": []
  },
  {
    "postal": "K2K5X6",
    "result": []
  },
  {
    "postal": "K2K8L5",
    "result": []
  },
  {
    "postal": "K2K5M8",
    "result": []
  },
  {
    "postal": "K2K2G3",
    "result": [
      {
        "electoralDistricts": [
          {
            "election": null,
            "id": 43,
            "name": "Kanata—Carleton"
          }
        ],
        "pollDivisionIds": [
          10138944
        ],
        "postalCode": "K2K2G3",
        "streetName": "GATESHEAD",
        "streetDirectionId": null,
        "streetTypeId": "AVE",
        "placeName": "KANATA",
        "streetNameDisplayText": "GATESHEAD AVE, KANATA"
      },
      {
        "electoralDistricts": [
          {
            "election": null,
            "id": 43,
            "name": "Kanata—Carleton"
          }
        ],
        "pollDivisionIds": [
          10138944
        ],
        "postalCode": "K2K2G3",
        "streetName": "MORGAN'S GRANT",
        "streetDirectionId": null,
        "streetTypeId": "WAY",
        "placeName": "KANATA",
        "streetNameDisplayText": "MORGAN'S GRANT WAY, KANATA"
      }
    ]
  },
  {
    "postal": "K2K8E4",
    "result": []
  },
  {
    "postal": "K2K7S9",
    "result": []
  },
  {
    "postal": "K2K1K3",
    "result": [
      {
        "electoralDistricts": [
          {
            "election": null,
            "id": 43,
            "name": "Kanata—Carleton"
          }
        ],
        "pollDivisionIds": [
          10138948
        ],
        "postalCode": "K2K1K3",
        "streetName": "CARR",
        "streetDirectionId": null,
        "streetTypeId": "CRES",
        "placeName": "KANATA",
        "streetNameDisplayText": "CARR CRES, KANATA"
      }
    ]
  },
  {
    "postal": "K2K4E1",
    "result": []
  },
  {
    "postal": "K2K4R2",
    "result": []
  },
  {
    "postal": "K2K6T0",
    "result": []
  },
  {
    "postal": "K2K3K5",
    "result": [
      {
        "electoralDistricts": [
          {
            "election": null,
            "id": 43,
            "name": "Kanata—Carleton"
          }
        ],
        "pollDivisionIds": [
          10138947
        ],
        "postalCode": "K2K3K5",
        "streetName": "KANATA",
        "streetDirectionId": null,
        "streetTypeId": "AVE",
        "placeName": "KANATA",
        "streetNameDisplayText": "KANATA AVE, KANATA"
      }
    ]
  },
  {
    "postal": "K2K3S3",
    "result": []
  },
  {
    "postal": "K2K3L4",
    "result": [
      {
        "electoralDistricts": [
          {
            "election": null,
            "id": 43,
            "name": "Kanata—Carleton"
          }
        ],
        "pollDivisionIds": [
          10138951
        ],
        "postalCode": "K2K3L4",
        "streetName": "EDENVALE",
        "streetDirectionId": null,
        "streetTypeId": "DR",
        "placeName": "KANATA",
        "streetNameDisplayText": "EDENVALE DR, KANATA"
      }
    ]
  },
  {
    "postal": "K2K9Y2",
    "result": []
  },
  {
    "postal": "K2K1E0",
    "result": []
  },
  {
    "postal": "K2K9A4",
    "result": []
  },
  {
    "postal": "K2K1L3",
    "result": [
      {
        "electoralDistricts": [
          {
            "election": null,
            "id": 43,
            "name": "Kanata—Carleton"
          }
        ],
        "pollDivisionIds": [
          10138950
        ],
        "postalCode": "K2K1L3",
        "streetName": "BEAVERBROOK",
        "streetDirectionId": null,
        "streetTypeId": "LANE",
        "placeName": "KANATA",
        "streetNameDisplayText": "BEAVERBROOK LANE, KANATA"
      }
    ]
  },
  {
    "postal": "K2K6N1",
    "result": []
  },
  {
    "postal": "K2K6G7",
    "result": []
  },
  {
    "postal": "K2K7W1",
    "result": []
  },
  {
    "postal": "K2K4M6",
    "result": []
  },
  {
    "postal": "K2K1K0",
    "result": []
  },
  {
    "postal": "K2K3E2",
    "result": [
      {
        "electoralDistricts": [
          {
            "election": null,
            "id": 43,
            "name": "Kanata—Carleton"
          }
        ],
        "pollDivisionIds": [
          10138942
        ],
        "postalCode": "K2K3E2",
        "streetName": "LAXFORD",
        "streetDirectionId": null,
        "streetTypeId": "DR",
        "placeName": "KANATA",
        "streetNameDisplayText": "LAXFORD DR, KANATA"
      },
      {
        "electoralDistricts": [
          {
            "election": null,
            "id": 43,
            "name": "Kanata—Carleton"
          }
        ],
        "pollDivisionIds": [
          10138942
        ],
        "postalCode": "K2K3E2",
        "streetName": "REDCAR",
        "streetDirectionId": null,
        "streetTypeId": "CRES",
        "placeName": "KANATA",
        "streetNameDisplayText": "REDCAR CRES, KANATA"
      }
    ]
  },
  {
    "postal": "K2K5H4",
    "result": []
  },
  {
    "postal": "K2K1K7",
    "result": [
      {
        "electoralDistricts": [
          {
            "election": null,
            "id": 43,
            "name": "Kanata—Carleton"
          }
        ],
        "pollDivisionIds": [
          10138948
        ],
        "postalCode": "K2K1K7",
        "streetName": "CARR",
        "streetDirectionId": null,
        "streetTypeId": "PL",
        "placeName": "KANATA",
        "streetNameDisplayText": "CARR PL, KANATA"
      }
    ]
  },
  {
    "postal": "K2K0H0",
    "result": []
  },
  {
    "postal": "K2K0J3",
    "result": [
      {
        "electoralDistricts": [
          {
            "election": null,
            "id": 43,
            "name": "Kanata—Carleton"
          }
        ],
        "pollDivisionIds": [
          10138944
        ],
        "postalCode": "K2K0J3",
        "streetName": "INNOVATION",
        "streetDirectionId": null,
        "streetTypeId": "DR",
        "placeName": "KANATA",
        "streetNameDisplayText": "INNOVATION DR, KANATA"
      }
    ]
  },
  {
    "postal": "K2K1X6",
    "result": [
      {
        "electoralDistricts": [
          {
            "election": null,
            "id": 43,
            "name": "Kanata—Carleton"
          }
        ],
        "pollDivisionIds": [
          10138951
        ],
        "postalCode": "K2K1X6",
        "streetName": "TERON",
        "streetDirectionId": null,
        "streetTypeId": "RD",
        "placeName": "KANATA",
        "streetNameDisplayText": "TERON RD, KANATA"
      }
    ]
  },
  {
    "postal": "K2K2Z6",
    "result": [
      {
        "electoralDistricts": [
          {
            "election": null,
            "id": 43,
            "name": "Kanata—Carleton"
          }
        ],
        "pollDivisionIds": [
          10138968,
          10138947
        ],
        "postalCode": "K2K2Z6",
        "streetName": "EVANSHEN",
        "streetDirectionId": null,
        "streetTypeId": "CRES",
        "placeName": "KANATA",
        "streetNameDisplayText": "EVANSHEN CRES, KANATA"
      }
    ]
  },
  {
    "postal": "K2K4R9",
    "result": []
  },
  {
    "postal": "K2K0W8",
    "result": []
  },
  {
    "postal": "K2K1L4",
    "result": [
      {
        "electoralDistricts": [
          {
            "election": null,
            "id": 43,
            "name": "Kanata—Carleton"
          }
        ],
        "pollDivisionIds": [
          10138950
        ],
        "postalCode": "K2K1L4",
        "streetName": "BEAVERBROOK",
        "streetDirectionId": null,
        "streetTypeId": "LANE",
        "placeName": "KANATA",
        "streetNameDisplayText": "BEAVERBROOK LANE, KANATA"
      }
    ]
  },
  {
    "postal": "K2K0C8",
    "result": [
      {
        "electoralDistricts": [
          {
            "election": null,
            "id": 43,
            "name": "Kanata—Carleton"
          }
        ],
        "pollDivisionIds": [
          10138945
        ],
        "postalCode": "K2K0C8",
        "streetName": "APPLECROSS",
        "streetDirectionId": null,
        "streetTypeId": "CRES",
        "placeName": "KANATA",
        "streetNameDisplayText": "APPLECROSS CRES, KANATA"
      },
      {
        "electoralDistricts": [
          {
            "election": null,
            "id": 43,
            "name": "Kanata—Carleton"
          }
        ],
        "pollDivisionIds": [
          10138945
        ],
        "postalCode": "K2K0C8",
        "streetName": "STRATHCARRON",
        "streetDirectionId": null,
        "streetTypeId": "CRES",
        "placeName": "KANATA",
        "streetNameDisplayText": "STRATHCARRON CRES, KANATA"
      }
    ]
  },
  {
    "postal": "K2K9X7",
    "result": []
  },
  {
    "postal": "K2K4T1",
    "result": []
  },
  {
    "postal": "K2K0M0",
    "result": []
  },
  {
    "postal": "K2K6A2",
    "result": []
  },
  {
    "postal": "K2K9S8",
    "result": []
  },
  {
    "postal": "K2K9T4",
    "result": []
  },
  {
    "postal": "K2K9Y4",
    "result": []
  },
  {
    "postal": "K2K6G5",
    "result": []
  },
  {
    "postal": "K2K6H9",
    "result": []
  },
  {
    "postal": "K2K2P3",
    "result": []
  },
  {
    "postal": "K2K1T6",
    "result": [
      {
        "electoralDistricts": [
          {
            "election": null,
            "id": 43,
            "name": "Kanata—Carleton"
          }
        ],
        "pollDivisionIds": [
          10138950
        ],
        "postalCode": "K2K1T6",
        "streetName": "KINGSFORD",
        "streetDirectionId": null,
        "streetTypeId": "CRES",
        "placeName": "KANATA",
        "streetNameDisplayText": "KINGSFORD CRES, KANATA"
      }
    ]
  },
  {
    "postal": "K2K4P6",
    "result": []
  },
  {
    "postal": "K2K3K1",
    "result": [
      {
        "electoralDistricts": [
          {
            "election": null,
            "id": 43,
            "name": "Kanata—Carleton"
          }
        ],
        "pollDivisionIds": [
          10138944
        ],
        "postalCode": "K2K3K1",
        "streetName": "INNOVATION",
        "streetDirectionId": null,
        "streetTypeId": "DR",
        "placeName": "KANATA",
        "streetNameDisplayText": "INNOVATION DR, KANATA"
      }
    ]
  },
  {
    "postal": "K2K6X4",
    "result": []
  },
  {
    "postal": "K2K4M8",
    "result": []
  },
  {
    "postal": "K2K2Y1",
    "result": [
      {
        "electoralDistricts": [
          {
            "election": null,
            "id": 81,
            "name": "Ottawa West—Nepean"
          }
        ],
        "pollDivisionIds": [
          10140818
        ],
        "postalCode": "K2K2Y1",
        "streetName": "CORKSTOWN",
        "streetDirectionId": null,
        "streetTypeId": "RD",
        "placeName": "NEPEAN",
        "streetNameDisplayText": "CORKSTOWN RD, NEPEAN"
      }
    ]
  },
  {
    "postal": "K2K6M1",
    "result": []
  },
  {
    "postal": "K2K5L8",
    "result": []
  },
  {
    "postal": "K2K3P6",
    "result": []
  },
  {
    "postal": "K2K9A5",
    "result": []
  },
  {
    "postal": "K2K7K1",
    "result": []
  },
  {
    "postal": "K2K3J4",
    "result": [
      {
        "electoralDistricts": [
          {
            "election": null,
            "id": 43,
            "name": "Kanata—Carleton"
          }
        ],
        "pollDivisionIds": [
          10138951
        ],
        "postalCode": "K2K3J4",
        "streetName": "BELLROCK",
        "streetDirectionId": null,
        "streetTypeId": "DR",
        "placeName": "KANATA",
        "streetNameDisplayText": "BELLROCK DR, KANATA"
      },
      {
        "electoralDistricts": [
          {
            "election": null,
            "id": 43,
            "name": "Kanata—Carleton"
          }
        ],
        "pollDivisionIds": [
          10138951
        ],
        "postalCode": "K2K3J4",
        "streetName": "EDENVALE",
        "streetDirectionId": null,
        "streetTypeId": "DR",
        "placeName": "KANATA",
        "streetNameDisplayText": "EDENVALE DR, KANATA"
      }
    ]
  },
  {
    "postal": "K2K5E7",
    "result": []
  },
  {
    "postal": "K2K3A7",
    "result": [
      {
        "electoralDistricts": [
          {
            "election": null,
            "id": 43,
            "name": "Kanata—Carleton"
          }
        ],
        "pollDivisionIds": [
          10138945
        ],
        "postalCode": "K2K3A7",
        "streetName": "MERSEY",
        "streetDirectionId": null,
        "streetTypeId": "DR",
        "placeName": "KANATA",
        "streetNameDisplayText": "MERSEY DR, KANATA"
      }
    ]
  },
  {
    "postal": "K2K1B9",
    "result": [
      {
        "electoralDistricts": [
          {
            "election": null,
            "id": 43,
            "name": "Kanata—Carleton"
          }
        ],
        "pollDivisionIds": [
          10138948
        ],
        "postalCode": "K2K1B9",
        "streetName": "BETHUNE",
        "streetDirectionId": null,
        "streetTypeId": "CRT",
        "placeName": "KANATA",
        "streetNameDisplayText": "BETHUNE CRT, KANATA"
      },
      {
        "electoralDistricts": [
          {
            "election": null,
            "id": 43,
            "name": "Kanata—Carleton"
          }
        ],
        "pollDivisionIds": [
          10138948
        ],
        "postalCode": "K2K1B9",
        "streetName": "BETHUNE",
        "streetDirectionId": null,
        "streetTypeId": "WAY",
        "placeName": "KANATA",
        "streetNameDisplayText": "BETHUNE WAY, KANATA"
      }
    ]
  },
  {
    "postal": "K2K9E8",
    "result": []
  },
  {
    "postal": "K2K1C9",
    "result": [
      {
        "electoralDistricts": [
          {
            "election": null,
            "id": 43,
            "name": "Kanata—Carleton"
          }
        ],
        "pollDivisionIds": [
          10138948
        ],
        "postalCode": "K2K1C9",
        "streetName": "SELYE",
        "streetDirectionId": null,
        "streetTypeId": "CRES",
        "placeName": "KANATA",
        "streetNameDisplayText": "SELYE CRES, KANATA"
      }
    ]
  },
  {
    "postal": "K2K3B5",
    "result": [
      {
        "electoralDistricts": [
          {
            "election": null,
            "id": 43,
            "name": "Kanata—Carleton"
          }
        ],
        "pollDivisionIds": [
          10138942
        ],
        "postalCode": "K2K3B5",
        "streetName": "HALTON",
        "streetDirectionId": null,
        "streetTypeId": "TERR",
        "placeName": "KANATA",
        "streetNameDisplayText": "HALTON TERR, KANATA"
      },
      {
        "electoralDistricts": [
          {
            "election": null,
            "id": 43,
            "name": "Kanata—Carleton"
          }
        ],
        "pollDivisionIds": [
          10138942
        ],
        "postalCode": "K2K3B5",
        "streetName": "NEWCASTLE",
        "streetDirectionId": null,
        "streetTypeId": "AVE",
        "placeName": "KANATA",
        "streetNameDisplayText": "NEWCASTLE AVE, KANATA"
      }
    ]
  },
  {
    "postal": "K2K8R0",
    "result": []
  },
  {
    "postal": "K2K3P2",
    "result": [
      {
        "electoralDistricts": [
          {
            "election": null,
            "id": 43,
            "name": "Kanata—Carleton"
          }
        ],
        "pollDivisionIds": [
          10138945
        ],
        "postalCode": "K2K3P2",
        "streetName": "MARSH SPARROW",
        "streetDirectionId": null,
        "streetTypeId": "PVT",
        "placeName": "KANATA",
        "streetNameDisplayText": "MARSH SPARROW PVT, KANATA"
      }
    ]
  },
  {
    "postal": "K2K5V4",
    "result": []
  },
  {
    "postal": "K2K4H0",
    "result": []
  },
  {
    "postal": "K2K4S7",
    "result": []
  },
  {
    "postal": "K2K6C2",
    "result": []
  },
  {
    "postal": "K2K8W3",
    "result": []
  },
  {
    "postal": "K2K4M5",
    "result": []
  },
  {
    "postal": "K2K5T1",
    "result": []
  },
  {
    "postal": "K2K3B3",
    "result": [
      {
        "electoralDistricts": [
          {
            "election": null,
            "id": 43,
            "name": "Kanata—Carleton"
          }
        ],
        "pollDivisionIds": [
          10138944
        ],
        "postalCode": "K2K3B3",
        "streetName": "OAKHAM",
        "streetDirectionId": null,
        "streetTypeId": "RIDGE",
        "placeName": "KANATA",
        "streetNameDisplayText": "OAKHAM RIDGE, KANATA"
      }
    ]
  },
  {
    "postal": "K2K6C6",
    "result": []
  },
  {
    "postal": "K2K7N8",
    "result": []
  },
  {
    "postal": "K2K2Y3",
    "result": [
      {
        "electoralDistricts": [
          {
            "election": null,
            "id": 81,
            "name": "Ottawa West—Nepean"
          }
        ],
        "pollDivisionIds": [
          10140818
        ],
        "postalCode": "K2K2Y3",
        "streetName": "CARLING",
        "streetDirectionId": null,
        "streetTypeId": "AVE",
        "placeName": "NEPEAN",
        "streetNameDisplayText": "CARLING AVE, NEPEAN"
      },
      {
        "electoralDistricts": [
          {
            "election": null,
            "id": 81,
            "name": "Ottawa West—Nepean"
          }
        ],
        "pollDivisionIds": [
          10140818
        ],
        "postalCode": "K2K2Y3",
        "streetName": "HERZBERG",
        "streetDirectionId": null,
        "streetTypeId": "RD",
        "placeName": "KANATA",
        "streetNameDisplayText": "HERZBERG RD, KANATA"
      }
    ]
  },
  {
    "postal": "K2K2R6",
    "result": [
      {
        "electoralDistricts": [
          {
            "election": null,
            "id": 43,
            "name": "Kanata—Carleton"
          }
        ],
        "pollDivisionIds": [
          10138942
        ],
        "postalCode": "K2K2R6",
        "streetName": "BEAMISH",
        "streetDirectionId": null,
        "streetTypeId": "CRES",
        "placeName": "KANATA",
        "streetNameDisplayText": "BEAMISH CRES, KANATA"
      }
    ]
  },
  {
    "postal": "K2K7N3",
    "result": []
  },
  {
    "postal": "K2K8J2",
    "result": []
  },
  {
    "postal": "K2K6A9",
    "result": []
  },
  {
    "postal": "K2K3V2",
    "result": []
  },
  {
    "postal": "K2K2N3",
    "result": [
      {
        "electoralDistricts": [
          {
            "election": null,
            "id": 43,
            "name": "Kanata—Carleton"
          }
        ],
        "pollDivisionIds": [
          10138948
        ],
        "postalCode": "K2K2N3",
        "streetName": "KNUDSON",
        "streetDirectionId": null,
        "streetTypeId": "DR",
        "placeName": "KANATA",
        "streetNameDisplayText": "KNUDSON DR, KANATA"
      },
      {
        "electoralDistricts": [
          {
            "election": null,
            "id": 43,
            "name": "Kanata—Carleton"
          }
        ],
        "pollDivisionIds": [
          10138950,
          10138947
        ],
        "postalCode": "K2K2N3",
        "streetName": "SHAUGHNESSY",
        "streetDirectionId": null,
        "streetTypeId": "CRES",
        "placeName": "KANATA",
        "streetNameDisplayText": "SHAUGHNESSY CRES, KANATA"
      }
    ]
  },
  {
    "postal": "K2K1S5",
    "result": [
      {
        "electoralDistricts": [
          {
            "election": null,
            "id": 43,
            "name": "Kanata—Carleton"
          }
        ],
        "pollDivisionIds": [
          10138950
        ],
        "postalCode": "K2K1S5",
        "streetName": "LEACOCK",
        "streetDirectionId": null,
        "streetTypeId": "DR",
        "placeName": "KANATA",
        "streetNameDisplayText": "LEACOCK DR, KANATA"
      }
    ]
  },
  {
    "postal": "K2K4T7",
    "result": []
  },
  {
    "postal": "K2K6Y7",
    "result": []
  },
  {
    "postal": "K2K0W7",
    "result": []
  },
  {
    "postal": "K2K2W9",
    "result": [
      {
        "electoralDistricts": [
          {
            "election": null,
            "id": 43,
            "name": "Kanata—Carleton"
          }
        ],
        "pollDivisionIds": [
          10138951
        ],
        "postalCode": "K2K2W9",
        "streetName": "COLCHESTER",
        "streetDirectionId": null,
        "streetTypeId": "SQ",
        "placeName": "KANATA",
        "streetNameDisplayText": "COLCHESTER SQ, KANATA"
      },
      {
        "electoralDistricts": [
          {
            "election": null,
            "id": 43,
            "name": "Kanata—Carleton"
          }
        ],
        "pollDivisionIds": [
          10138951
        ],
        "postalCode": "K2K2W9",
        "streetName": "TEESWATER",
        "streetDirectionId": null,
        "streetTypeId": "ST",
        "placeName": "KANATA",
        "streetNameDisplayText": "TEESWATER ST, KANATA"
      }
    ]
  },
  {
    "postal": "K2K8V0",
    "result": []
  },
  {
    "postal": "K2K0H4",
    "result": [
      {
        "electoralDistricts": [
          {
            "election": null,
            "id": 43,
            "name": "Kanata—Carleton"
          }
        ],
        "pollDivisionIds": [
          10138951
        ],
        "postalCode": "K2K0H4",
        "streetName": "CANADIAN SHIELD",
        "streetDirectionId": null,
        "streetTypeId": "AVE",
        "placeName": "KANATA",
        "streetNameDisplayText": "CANADIAN SHIELD AVE, KANATA"
      }
    ]
  },
  {
    "postal": "K2K2T1",
    "result": [
      {
        "electoralDistricts": [
          {
            "election": null,
            "id": 43,
            "name": "Kanata—Carleton"
          }
        ],
        "pollDivisionIds": [
          10138947
        ],
        "postalCode": "K2K2T1",
        "streetName": "SHERRING",
        "streetDirectionId": null,
        "streetTypeId": "CRES",
        "placeName": "KANATA",
        "streetNameDisplayText": "SHERRING CRES, KANATA"
      },
      {
        "electoralDistricts": [
          {
            "election": null,
            "id": 43,
            "name": "Kanata—Carleton"
          }
        ],
        "pollDivisionIds": [
          10138947
        ],
        "postalCode": "K2K2T1",
        "streetName": "SHERRING",
        "streetDirectionId": null,
        "streetTypeId": "CRT",
        "placeName": "KANATA",
        "streetNameDisplayText": "SHERRING CRT, KANATA"
      }
    ]
  },
  {
    "postal": "K2K1B1",
    "result": [
      {
        "electoralDistricts": [
          {
            "election": null,
            "id": 43,
            "name": "Kanata—Carleton"
          }
        ],
        "pollDivisionIds": [
          10138948
        ],
        "postalCode": "K2K1B1",
        "streetName": "COLVILLE",
        "streetDirectionId": null,
        "streetTypeId": "CRT",
        "placeName": "KANATA",
        "streetNameDisplayText": "COLVILLE CRT, KANATA"
      }
    ]
  },
  {
    "postal": "K2K8B6",
    "result": []
  },
  {
    "postal": "K2K6H1",
    "result": []
  },
  {
    "postal": "K2K8T8",
    "result": []
  },
  {
    "postal": "K2K0T4",
    "result": []
  },
  {
    "postal": "K2K2C4",
    "result": [
      {
        "electoralDistricts": [
          {
            "election": null,
            "id": 43,
            "name": "Kanata—Carleton"
          }
        ],
        "pollDivisionIds": [
          10138950
        ],
        "postalCode": "K2K2C4",
        "streetName": "HALLDORSON",
        "streetDirectionId": null,
        "streetTypeId": "CRES",
        "placeName": "KANATA",
        "streetNameDisplayText": "HALLDORSON CRES, KANATA"
      }
    ]
  },
  {
    "postal": "K2K8N3",
    "result": []
  },
  {
    "postal": "K2K4L8",
    "result": []
  },
  {
    "postal": "K2K2B5",
    "result": [
      {
        "electoralDistricts": [
          {
            "election": null,
            "id": 43,
            "name": "Kanata—Carleton"
          }
        ],
        "pollDivisionIds": [
          10138948
        ],
        "postalCode": "K2K2B5",
        "streetName": "BREWER HUNT",
        "streetDirectionId": null,
        "streetTypeId": "WAY",
        "placeName": "KANATA",
        "streetNameDisplayText": "BREWER HUNT WAY, KANATA"
      },
      {
        "electoralDistricts": [
          {
            "election": null,
            "id": 43,
            "name": "Kanata—Carleton"
          }
        ],
        "pollDivisionIds": [
          10138948
        ],
        "postalCode": "K2K2B5",
        "streetName": "TERON",
        "streetDirectionId": null,
        "streetTypeId": "RD",
        "placeName": "KANATA",
        "streetNameDisplayText": "TERON RD, KANATA"
      }
    ]
  },
  {
    "postal": "K2K3H1",
    "result": [
      {
        "electoralDistricts": [
          {
            "election": null,
            "id": 43,
            "name": "Kanata—Carleton"
          }
        ],
        "pollDivisionIds": [
          10138950
        ],
        "postalCode": "K2K3H1",
        "streetName": "CONACHER",
        "streetDirectionId": null,
        "streetTypeId": "GATE",
        "placeName": "KANATA",
        "streetNameDisplayText": "CONACHER GATE, KANATA"
      },
      {
        "electoralDistricts": [
          {
            "election": null,
            "id": 43,
            "name": "Kanata—Carleton"
          }
        ],
        "pollDivisionIds": [
          10138950
        ],
        "postalCode": "K2K3H1",
        "streetName": "MORENZ",
        "streetDirectionId": null,
        "streetTypeId": "TERR",
        "placeName": "KANATA",
        "streetNameDisplayText": "MORENZ TERR, KANATA"
      },
      {
        "electoralDistricts": [
          {
            "election": null,
            "id": 43,
            "name": "Kanata—Carleton"
          }
        ],
        "pollDivisionIds": [
          10138957
        ],
        "postalCode": "K2K3H1",
        "streetName": "SAWCHUCK",
        "streetDirectionId": null,
        "streetTypeId": "TERR",
        "placeName": "KANATA",
        "streetNameDisplayText": "SAWCHUCK TERR, KANATA"
      },
      {
        "electoralDistricts": [
          {
            "election": null,
            "id": 43,
            "name": "Kanata—Carleton"
          }
        ],
        "pollDivisionIds": [
          10138950
        ],
        "postalCode": "K2K3H1",
        "streetName": "SAWCHUK",
        "streetDirectionId": null,
        "streetTypeId": "TERR",
        "placeName": "KANATA",
        "streetNameDisplayText": "SAWCHUK TERR, KANATA"
      }
    ]
  },
  {
    "postal": "K2K4Y1",
    "result": []
  },
  {
    "postal": "K2K7E2",
    "result": []
  },
  {
    "postal": "K2K2P5",
    "result": [
      {
        "electoralDistricts": [
          {
            "election": null,
            "id": 43,
            "name": "Kanata—Carleton"
          }
        ],
        "pollDivisionIds": [
          10138945
        ],
        "postalCode": "K2K2P5",
        "streetName": "TERRY FOX",
        "streetDirectionId": null,
        "streetTypeId": "DR",
        "placeName": "KANATA",
        "streetNameDisplayText": "TERRY FOX DR, KANATA"
      }
    ]
  },
  {
    "postal": "K2K8R7",
    "result": []
  },
  {
    "postal": "K2K9P1",
    "result": []
  },
  {
    "postal": "K2K3B8",
    "result": [
      {
        "electoralDistricts": [
          {
            "election": null,
            "id": 43,
            "name": "Kanata—Carleton"
          }
        ],
        "pollDivisionIds": [
          10138945
        ],
        "postalCode": "K2K3B8",
        "streetName": "LEGGET",
        "streetDirectionId": null,
        "streetTypeId": "DR",
        "placeName": "KANATA",
        "streetNameDisplayText": "LEGGET DR, KANATA"
      }
    ]
  },
  {
    "postal": "K2K3P7",
    "result": [
      {
        "electoralDistricts": [
          {
            "election": null,
            "id": 43,
            "name": "Kanata—Carleton"
          }
        ],
        "pollDivisionIds": [
          10138947
        ],
        "postalCode": "K2K3P7",
        "streetName": "LEVERTON",
        "streetDirectionId": null,
        "streetTypeId": "RD",
        "placeName": "KANATA",
        "streetNameDisplayText": "LEVERTON RD, KANATA"
      },
      {
        "electoralDistricts": [
          {
            "election": null,
            "id": 43,
            "name": "Kanata—Carleton"
          }
        ],
        "pollDivisionIds": [
          10138947
        ],
        "postalCode": "K2K3P7",
        "streetName": "WEAVER",
        "streetDirectionId": null,
        "streetTypeId": "CRES",
        "placeName": "KANATA",
        "streetNameDisplayText": "WEAVER CRES, KANATA"
      }
    ]
  },
  {
    "postal": "K2K9B2",
    "result": []
  },
  {
    "postal": "K2K6Z3",
    "result": []
  },
  {
    "postal": "K2K4N5",
    "result": []
  },
  {
    "postal": "K2K8T3",
    "result": []
  },
  {
    "postal": "K2K1V2",
    "result": [
      {
        "electoralDistricts": [
          {
            "election": null,
            "id": 43,
            "name": "Kanata—Carleton"
          }
        ],
        "pollDivisionIds": [
          10138950
        ],
        "postalCode": "K2K1V2",
        "streetName": "SANDWELL",
        "streetDirectionId": null,
        "streetTypeId": "CRES",
        "placeName": "KANATA",
        "streetNameDisplayText": "SANDWELL CRES, KANATA"
      }
    ]
  },
  {
    "postal": "K2K1Y0",
    "result": []
  },
  {
    "postal": "K2K3G6",
    "result": [
      {
        "electoralDistricts": [
          {
            "election": null,
            "id": 43,
            "name": "Kanata—Carleton"
          }
        ],
        "pollDivisionIds": [
          10138944
        ],
        "postalCode": "K2K3G6",
        "streetName": "INNOVATION",
        "streetDirectionId": null,
        "streetTypeId": "DR",
        "placeName": "KANATA",
        "streetNameDisplayText": "INNOVATION DR, KANATA"
      }
    ]
  },
  {
    "postal": "K2K3H7",
    "result": [
      {
        "electoralDistricts": [
          {
            "election": null,
            "id": 43,
            "name": "Kanata—Carleton"
          }
        ],
        "pollDivisionIds": [
          10138942
        ],
        "postalCode": "K2K3H7",
        "streetName": "LAXFORD",
        "streetDirectionId": null,
        "streetTypeId": "DR",
        "placeName": "KANATA",
        "streetNameDisplayText": "LAXFORD DR, KANATA"
      },
      {
        "electoralDistricts": [
          {
            "election": null,
            "id": 43,
            "name": "Kanata—Carleton"
          }
        ],
        "pollDivisionIds": [
          10138942
        ],
        "postalCode": "K2K3H7",
        "streetName": "TYNE",
        "streetDirectionId": null,
        "streetTypeId": "CRT",
        "placeName": "KANATA",
        "streetNameDisplayText": "TYNE CRT, KANATA"
      }
    ]
  },
  {
    "postal": "K2K7X8",
    "result": []
  },
  {
    "postal": "K2K0C7",
    "result": [
      {
        "electoralDistricts": [
          {
            "election": null,
            "id": 43,
            "name": "Kanata—Carleton"
          }
        ],
        "pollDivisionIds": [
          10138945
        ],
        "postalCode": "K2K0C7",
        "streetName": "APPLECROSS",
        "streetDirectionId": null,
        "streetTypeId": "CRES",
        "placeName": "KANATA",
        "streetNameDisplayText": "APPLECROSS CRES, KANATA"
      },
      {
        "electoralDistricts": [
          {
            "election": null,
            "id": 43,
            "name": "Kanata—Carleton"
          }
        ],
        "pollDivisionIds": [
          10138945
        ],
        "postalCode": "K2K0C7",
        "streetName": "STRATHCARRON",
        "streetDirectionId": null,
        "streetTypeId": "CRES",
        "placeName": "KANATA",
        "streetNameDisplayText": "STRATHCARRON CRES, KANATA"
      }
    ]
  },
  {
    "postal": "K2K0W9",
    "result": []
  },
  {
    "postal": "K2K8E6",
    "result": []
  },
  {
    "postal": "K2K9Z8",
    "result": []
  },
  {
    "postal": "K2K3P4",
    "result": [
      {
        "electoralDistricts": [
          {
            "election": null,
            "id": 43,
            "name": "Kanata—Carleton"
          }
        ],
        "pollDivisionIds": [
          10138947
        ],
        "postalCode": "K2K3P4",
        "streetName": "KANATA ROCKERIES",
        "streetDirectionId": null,
        "streetTypeId": "PVT",
        "placeName": "KANATA",
        "streetNameDisplayText": "KANATA ROCKERIES PVT, KANATA"
      }
    ]
  },
  {
    "postal": "K2K6L8",
    "result": []
  },
  {
    "postal": "K2K2R4",
    "result": [
      {
        "electoralDistricts": [
          {
            "election": null,
            "id": 43,
            "name": "Kanata—Carleton"
          }
        ],
        "pollDivisionIds": [
          10138944
        ],
        "postalCode": "K2K2R4",
        "streetName": "BEACON",
        "streetDirectionId": null,
        "streetTypeId": "WAY",
        "placeName": "KANATA",
        "streetNameDisplayText": "BEACON WAY, KANATA"
      },
      {
        "electoralDistricts": [
          {
            "election": null,
            "id": 43,
            "name": "Kanata—Carleton"
          }
        ],
        "pollDivisionIds": [
          10138944
        ],
        "postalCode": "K2K2R4",
        "streetName": "IPSWICH",
        "streetDirectionId": null,
        "streetTypeId": "TERR",
        "placeName": "KANATA",
        "streetNameDisplayText": "IPSWICH TERR, KANATA"
      }
    ]
  },
  {
    "postal": "K2K2W1",
    "result": [
      {
        "electoralDistricts": [
          {
            "election": null,
            "id": 43,
            "name": "Kanata—Carleton"
          }
        ],
        "pollDivisionIds": [
          10138947
        ],
        "postalCode": "K2K2W1",
        "streetName": "ROBSON",
        "streetDirectionId": null,
        "streetTypeId": "CRT",
        "placeName": "KANATA",
        "streetNameDisplayText": "ROBSON CRT, KANATA"
      }
    ]
  },
  {
    "postal": "K2K9H8",
    "result": []
  },
  {
    "postal": "K2K8X9",
    "result": []
  },
  {
    "postal": "K2K7H4",
    "result": []
  },
  {
    "postal": "K2K3J1",
    "result": [
      {
        "electoralDistricts": [
          {
            "election": null,
            "id": 43,
            "name": "Kanata—Carleton"
          }
        ],
        "pollDivisionIds": [
          10138945
        ],
        "postalCode": "K2K3J1",
        "streetName": "TERRY FOX",
        "streetDirectionId": null,
        "streetTypeId": "DR",
        "placeName": "KANATA",
        "streetNameDisplayText": "TERRY FOX DR, KANATA"
      }
    ]
  },
  {
    "postal": "K2K1P4",
    "result": [
      {
        "electoralDistricts": [
          {
            "election": null,
            "id": 43,
            "name": "Kanata—Carleton"
          }
        ],
        "pollDivisionIds": [
          10138951
        ],
        "postalCode": "K2K1P4",
        "streetName": "BANTING",
        "streetDirectionId": null,
        "streetTypeId": "CRES",
        "placeName": "KANATA",
        "streetNameDisplayText": "BANTING CRES, KANATA"
      }
    ]
  },
  {
    "postal": "K2K2A3",
    "result": [
      {
        "electoralDistricts": [
          {
            "election": null,
            "id": 43,
            "name": "Kanata—Carleton"
          }
        ],
        "pollDivisionIds": [
          10138945
        ],
        "postalCode": "K2K2A3",
        "streetName": "CARLING",
        "streetDirectionId": null,
        "streetTypeId": "AVE",
        "placeName": "KANATA",
        "streetNameDisplayText": "CARLING AVE, KANATA"
      }
    ]
  },
  {
    "postal": "K2K0Z1",
    "result": []
  },
  {
    "postal": "K2K1C1",
    "result": [
      {
        "electoralDistricts": [
          {
            "election": null,
            "id": 43,
            "name": "Kanata—Carleton"
          }
        ],
        "pollDivisionIds": [
          10138948
        ],
        "postalCode": "K2K1C1",
        "streetName": "BETHUNE",
        "streetDirectionId": null,
        "streetTypeId": "WAY",
        "placeName": "KANATA",
        "streetNameDisplayText": "BETHUNE WAY, KANATA"
      }
    ]
  },
  {
    "postal": "K2K0H3",
    "result": [
      {
        "electoralDistricts": [
          {
            "election": null,
            "id": 43,
            "name": "Kanata—Carleton"
          }
        ],
        "pollDivisionIds": [
          10138951
        ],
        "postalCode": "K2K0H3",
        "streetName": "CANADIAN SHIELD",
        "streetDirectionId": null,
        "streetTypeId": "AVE",
        "placeName": "KANATA",
        "streetNameDisplayText": "CANADIAN SHIELD AVE, KANATA"
      }
    ]
  },
  {
    "postal": "K2K7B0",
    "result": []
  },
  {
    "postal": "K2K5K2",
    "result": []
  },
  {
    "postal": "K2K1E9",
    "result": [
      {
        "electoralDistricts": [
          {
            "election": null,
            "id": 43,
            "name": "Kanata—Carleton"
          }
        ],
        "pollDivisionIds": [
          10138948
        ],
        "postalCode": "K2K1E9",
        "streetName": "VARLEY",
        "streetDirectionId": null,
        "streetTypeId": "DR",
        "placeName": "KANATA",
        "streetNameDisplayText": "VARLEY DR, KANATA"
      }
    ]
  },
  {
    "postal": "K2K9W7",
    "result": []
  },
  {
    "postal": "K2K5W6",
    "result": []
  },
  {
    "postal": "K2K6S6",
    "result": []
  },
  {
    "postal": "K2K2P8",
    "result": [
      {
        "electoralDistricts": [
          {
            "election": null,
            "id": 43,
            "name": "Kanata—Carleton"
          }
        ],
        "pollDivisionIds": [
          10138942
        ],
        "postalCode": "K2K2P8",
        "streetName": "BANNOCK",
        "streetDirectionId": null,
        "streetTypeId": "CRES",
        "placeName": "KANATA",
        "streetNameDisplayText": "BANNOCK CRES, KANATA"
      },
      {
        "electoralDistricts": [
          {
            "election": null,
            "id": 43,
            "name": "Kanata—Carleton"
          }
        ],
        "pollDivisionIds": [
          10138942
        ],
        "postalCode": "K2K2P8",
        "streetName": "HALTON",
        "streetDirectionId": null,
        "streetTypeId": "TERR",
        "placeName": "KANATA",
        "streetNameDisplayText": "HALTON TERR, KANATA"
      }
    ]
  },
  {
    "postal": "K2K4P8",
    "result": []
  },
  {
    "postal": "K2K0V9",
    "result": []
  },
  {
    "postal": "K2K5Y2",
    "result": []
  },
  {
    "postal": "K2K7Z7",
    "result": []
  },
  {
    "postal": "K2K6Y8",
    "result": []
  },
  {
    "postal": "K2K2G7",
    "result": [
      {
        "electoralDistricts": [
          {
            "election": null,
            "id": 43,
            "name": "Kanata—Carleton"
          }
        ],
        "pollDivisionIds": [
          10138944
        ],
        "postalCode": "K2K2G7",
        "streetName": "COLLINGWOOD",
        "streetDirectionId": null,
        "streetTypeId": "CRES",
        "placeName": "KANATA",
        "streetNameDisplayText": "COLLINGWOOD CRES, KANATA"
      }
    ]
  },
  {
    "postal": "K2K8C1",
    "result": []
  },
  {
    "postal": "K2K5C5",
    "result": []
  },
  {
    "postal": "K2K2X8",
    "result": [
      {
        "electoralDistricts": [
          {
            "election": null,
            "id": 43,
            "name": "Kanata—Carleton"
          }
        ],
        "pollDivisionIds": [
          10138968
        ],
        "postalCode": "K2K2X8",
        "streetName": "COULSON",
        "streetDirectionId": null,
        "streetTypeId": "CRT",
        "placeName": "KANATA",
        "streetNameDisplayText": "COULSON CRT, KANATA"
      },
      {
        "electoralDistricts": [
          {
            "election": null,
            "id": 43,
            "name": "Kanata—Carleton"
          }
        ],
        "pollDivisionIds": [
          10138968,
          10138947
        ],
        "postalCode": "K2K2X8",
        "streetName": "EVANSHEN",
        "streetDirectionId": null,
        "streetTypeId": "CRES",
        "placeName": "KANATA",
        "streetNameDisplayText": "EVANSHEN CRES, KANATA"
      }
    ]
  },
  {
    "postal": "K2K1W5",
    "result": [
      {
        "electoralDistricts": [
          {
            "election": null,
            "id": 43,
            "name": "Kanata—Carleton"
          }
        ],
        "pollDivisionIds": [
          10138950
        ],
        "postalCode": "K2K1W5",
        "streetName": "TIFFANY",
        "streetDirectionId": null,
        "streetTypeId": "PL",
        "placeName": "KANATA",
        "streetNameDisplayText": "TIFFANY PL, KANATA"
      }
    ]
  },
  {
    "postal": "K2K7G0",
    "result": []
  },
  {
    "postal": "K2K8J8",
    "result": []
  },
  {
    "postal": "K2K3Y0",
    "result": []
  },
  {
    "postal": "K2K9T7",
    "result": []
  },
  {
    "postal": "K2K5P4",
    "result": []
  },
  {
    "postal": "K2K4B0",
    "result": []
  },
  {
    "postal": "K2K9N8",
    "result": []
  },
  {
    "postal": "K2K4A7",
    "result": []
  },
  {
    "postal": "K2K4H9",
    "result": []
  },
  {
    "postal": "K2K6X1",
    "result": []
  },
  {
    "postal": "K2K9Y7",
    "result": []
  },
  {
    "postal": "K2K2Y5",
    "result": [
      {
        "electoralDistricts": [
          {
            "election": null,
            "id": 81,
            "name": "Ottawa West—Nepean"
          }
        ],
        "pollDivisionIds": [
          10140818
        ],
        "postalCode": "K2K2Y5",
        "streetName": "BURKE",
        "streetDirectionId": null,
        "streetTypeId": "RD",
        "placeName": "NEPEAN",
        "streetNameDisplayText": "BURKE RD, NEPEAN"
      }
    ]
  },
  {
    "postal": "K2K8L7",
    "result": []
  },
  {
    "postal": "K2K2A8",
    "result": [
      {
        "electoralDistricts": [
          {
            "election": null,
            "id": 43,
            "name": "Kanata—Carleton"
          }
        ],
        "pollDivisionIds": [
          10138950
        ],
        "postalCode": "K2K2A8",
        "streetName": "LEACOCK",
        "streetDirectionId": null,
        "streetTypeId": "DR",
        "placeName": "KANATA",
        "streetNameDisplayText": "LEACOCK DR, KANATA"
      }
    ]
  },
  {
    "postal": "K2K2K9",
    "result": [
      {
        "electoralDistricts": [
          {
            "election": null,
            "id": 43,
            "name": "Kanata—Carleton"
          }
        ],
        "pollDivisionIds": [
          10138948
        ],
        "postalCode": "K2K2K9",
        "streetName": "SLADE",
        "streetDirectionId": null,
        "streetTypeId": "CRES",
        "placeName": "KANATA",
        "streetNameDisplayText": "SLADE CRES, KANATA"
      }
    ]
  },
  {
    "postal": "K2K3E5",
    "result": [
      {
        "electoralDistricts": [
          {
            "election": null,
            "id": 43,
            "name": "Kanata—Carleton"
          }
        ],
        "pollDivisionIds": [
          10138947
        ],
        "postalCode": "K2K3E5",
        "streetName": "KENINS",
        "streetDirectionId": null,
        "streetTypeId": "CRES",
        "placeName": "KANATA",
        "streetNameDisplayText": "KENINS CRES, KANATA"
      }
    ]
  },
  {
    "postal": "K2K8N6",
    "result": []
  },
  {
    "postal": "K2K8J4",
    "result": []
  },
  {
    "postal": "K2K4R7",
    "result": []
  },
  {
    "postal": "K2K9K1",
    "result": []
  },
  {
    "postal": "K2K8E1",
    "result": []
  },
  {
    "postal": "K2K0R1",
    "result": []
  },
  {
    "postal": "K2K4J3",
    "result": []
  },
  {
    "postal": "K2K7E7",
    "result": []
  },
  {
    "postal": "K2K0J0",
    "result": []
  },
  {
    "postal": "K2K7R8",
    "result": []
  },
  {
    "postal": "K2K9X0",
    "result": []
  },
  {
    "postal": "K2K7P6",
    "result": []
  },
  {
    "postal": "K2K0R7",
    "result": []
  },
  {
    "postal": "K2K5W1",
    "result": []
  },
  {
    "postal": "K2K0K4",
    "result": [
      {
        "electoralDistricts": [
          {
            "election": null,
            "id": 81,
            "name": "Ottawa West—Nepean"
          },
          {
            "election": null,
            "id": 43,
            "name": "Kanata—Carleton"
          }
        ],
        "pollDivisionIds": [
          10140818,
          10138945
        ],
        "postalCode": "K2K0K4",
        "streetName": "HERZBERG",
        "streetDirectionId": null,
        "streetTypeId": "RD",
        "placeName": "KANATA",
        "streetNameDisplayText": "HERZBERG RD, KANATA"
      }
    ]
  },
  {
    "postal": "K2K7N9",
    "result": []
  },
  {
    "postal": "K2K1N0",
    "result": []
  },
  {
    "postal": "K2K6P3",
    "result": []
  },
  {
    "postal": "K2K5A1",
    "result": []
  },
  {
    "postal": "K2K9M9",
    "result": []
  },
  {
    "postal": "K2K7T6",
    "result": []
  },
  {
    "postal": "K2K3X0",
    "result": []
  },
  {
    "postal": "K2K2T0",
    "result": []
  },
  {
    "postal": "K2K5X9",
    "result": []
  },
  {
    "postal": "K2K2R3",
    "result": [
      {
        "electoralDistricts": [
          {
            "election": null,
            "id": 43,
            "name": "Kanata—Carleton"
          }
        ],
        "pollDivisionIds": [
          10138944
        ],
        "postalCode": "K2K2R3",
        "streetName": "BEACON",
        "streetDirectionId": null,
        "streetTypeId": "WAY",
        "placeName": "KANATA",
        "streetNameDisplayText": "BEACON WAY, KANATA"
      },
      {
        "electoralDistricts": [
          {
            "election": null,
            "id": 43,
            "name": "Kanata—Carleton"
          }
        ],
        "pollDivisionIds": [
          10138944
        ],
        "postalCode": "K2K2R3",
        "streetName": "IPSWICH",
        "streetDirectionId": null,
        "streetTypeId": "TERR",
        "placeName": "KANATA",
        "streetNameDisplayText": "IPSWICH TERR, KANATA"
      }
    ]
  },
  {
    "postal": "K2K5N2",
    "result": []
  },
  {
    "postal": "K2K4Y7",
    "result": []
  },
  {
    "postal": "K2K7M0",
    "result": []
  },
  {
    "postal": "K2K8P3",
    "result": []
  },
  {
    "postal": "K2K3N3",
    "result": [
      {
        "electoralDistricts": [
          {
            "election": null,
            "id": 43,
            "name": "Kanata—Carleton"
          }
        ],
        "pollDivisionIds": [
          10138947
        ],
        "postalCode": "K2K3N3",
        "streetName": "BROUGHTON",
        "streetDirectionId": null,
        "streetTypeId": "ST",
        "placeName": "KANATA",
        "streetNameDisplayText": "BROUGHTON ST, KANATA"
      },
      {
        "electoralDistricts": [
          {
            "election": null,
            "id": 43,
            "name": "Kanata—Carleton"
          }
        ],
        "pollDivisionIds": [
          10138947
        ],
        "postalCode": "K2K3N3",
        "streetName": "MANNING",
        "streetDirectionId": null,
        "streetTypeId": "CRT",
        "placeName": "KANATA",
        "streetNameDisplayText": "MANNING CRT, KANATA"
      }
    ]
  },
  {
    "postal": "K2K7S3",
    "result": []
  },
  {
    "postal": "K2K3V9",
    "result": []
  },
  {
    "postal": "K2K9N7",
    "result": []
  },
  {
    "postal": "K2K0G4",
    "result": [
      {
        "electoralDistricts": [
          {
            "election": null,
            "id": 43,
            "name": "Kanata—Carleton"
          }
        ],
        "pollDivisionIds": [
          10138970
        ],
        "postalCode": "K2K0G4",
        "streetName": "MARITIME",
        "streetDirectionId": null,
        "streetTypeId": "WAY",
        "placeName": "KANATA",
        "streetNameDisplayText": "MARITIME WAY, KANATA"
      },
      {
        "electoralDistricts": [
          {
            "election": null,
            "id": 43,
            "name": "Kanata—Carleton"
          }
        ],
        "pollDivisionIds": [
          10138970
        ],
        "postalCode": "K2K0G4",
        "streetName": "MARITIME",
        "streetDirectionId": null,
        "streetTypeId": "WAY",
        "placeName": "OTTAWA",
        "streetNameDisplayText": "MARITIME WAY, OTTAWA"
      }
    ]
  },
  {
    "postal": "K2K2E2",
    "result": [
      {
        "electoralDistricts": [
          {
            "election": null,
            "id": 43,
            "name": "Kanata—Carleton"
          }
        ],
        "pollDivisionIds": [
          10138948
        ],
        "postalCode": "K2K2E2",
        "streetName": "MARCH",
        "streetDirectionId": null,
        "streetTypeId": "RD",
        "placeName": "KANATA",
        "streetNameDisplayText": "MARCH RD, KANATA"
      }
    ]
  },
  {
    "postal": "K2K7W8",
    "result": []
  },
  {
    "postal": "K2K7M5",
    "result": []
  },
  {
    "postal": "K2K5W8",
    "result": []
  },
  {
    "postal": "K2K5E5",
    "result": []
  },
  {
    "postal": "K2K1P9",
    "result": []
  },
  {
    "postal": "K2K8V8",
    "result": []
  },
  {
    "postal": "K2K9G8",
    "result": []
  },
  {
    "postal": "K2K8H9",
    "result": []
  },
  {
    "postal": "K2K1Z1",
    "result": [
      {
        "electoralDistricts": [
          {
            "election": null,
            "id": 43,
            "name": "Kanata—Carleton"
          }
        ],
        "pollDivisionIds": [
          10138951
        ],
        "postalCode": "K2K1Z1",
        "streetName": "SALTER",
        "streetDirectionId": null,
        "streetTypeId": "CRES",
        "placeName": "KANATA",
        "streetNameDisplayText": "SALTER CRES, KANATA"
      }
    ]
  },
  {
    "postal": "K2K8M3",
    "result": []
  },
  {
    "postal": "K2K5H6",
    "result": []
  },
  {
    "postal": "K2K7W7",
    "result": []
  },
  {
    "postal": "K2K4L0",
    "result": []
  },
  {
    "postal": "K2K2N1",
    "result": [
      {
        "electoralDistricts": [
          {
            "election": null,
            "id": 43,
            "name": "Kanata—Carleton"
          }
        ],
        "pollDivisionIds": [
          10138950,
          10138947
        ],
        "postalCode": "K2K2N1",
        "streetName": "SHAUGHNESSY",
        "streetDirectionId": null,
        "streetTypeId": "CRES",
        "placeName": "KANATA",
        "streetNameDisplayText": "SHAUGHNESSY CRES, KANATA"
      }
    ]
  },
  {
    "postal": "K2K2H4",
    "result": [
      {
        "electoralDistricts": [
          {
            "election": null,
            "id": 43,
            "name": "Kanata—Carleton"
          }
        ],
        "pollDivisionIds": [
          10138944
        ],
        "postalCode": "K2K2H4",
        "streetName": "AYTON",
        "streetDirectionId": null,
        "streetTypeId": "LANE",
        "placeName": "KANATA",
        "streetNameDisplayText": "AYTON LANE, KANATA"
      }
    ]
  },
  {
    "postal": "K2K5C8",
    "result": []
  },
  {
    "postal": "K2K8B0",
    "result": []
  },
  {
    "postal": "K2K1T4",
    "result": [
      {
        "electoralDistricts": [
          {
            "election": null,
            "id": 43,
            "name": "Kanata—Carleton"
          }
        ],
        "pollDivisionIds": [
          10138950
        ],
        "postalCode": "K2K1T4",
        "streetName": "KINGSFORD",
        "streetDirectionId": null,
        "streetTypeId": "CRES",
        "placeName": "KANATA",
        "streetNameDisplayText": "KINGSFORD CRES, KANATA"
      }
    ]
  },
  {
    "postal": "K2K7N7",
    "result": []
  },
  {
    "postal": "K2K4L3",
    "result": []
  },
  {
    "postal": "K2K2N2",
    "result": [
      {
        "electoralDistricts": [
          {
            "election": null,
            "id": 43,
            "name": "Kanata—Carleton"
          }
        ],
        "pollDivisionIds": [
          10138947,
          10138950
        ],
        "postalCode": "K2K2N2",
        "streetName": "SHAUGHNESSY",
        "streetDirectionId": null,
        "streetTypeId": "CRES",
        "placeName": "KANATA",
        "streetNameDisplayText": "SHAUGHNESSY CRES, KANATA"
      }
    ]
  },
  {
    "postal": "K2K4N8",
    "result": []
  },
  {
    "postal": "K2K3M5",
    "result": [
      {
        "electoralDistricts": [
          {
            "election": null,
            "id": 43,
            "name": "Kanata—Carleton"
          }
        ],
        "pollDivisionIds": [
          10138945
        ],
        "postalCode": "K2K3M5",
        "streetName": "CATTERICK",
        "streetDirectionId": null,
        "streetTypeId": "CRES",
        "placeName": "KANATA",
        "streetNameDisplayText": "CATTERICK CRES, KANATA"
      },
      {
        "electoralDistricts": [
          {
            "election": null,
            "id": 43,
            "name": "Kanata—Carleton"
          }
        ],
        "pollDivisionIds": [
          10138945
        ],
        "postalCode": "K2K3M5",
        "streetName": "SHIRLEY'S BROOK",
        "streetDirectionId": null,
        "streetTypeId": "DR",
        "placeName": "KANATA",
        "streetNameDisplayText": "SHIRLEY'S BROOK DR, KANATA"
      }
    ]
  },
  {
    "postal": "K2K6H7",
    "result": []
  },
  {
    "postal": "K2K8Y8",
    "result": []
  },
  {
    "postal": "K2K5R9",
    "result": []
  },
  {
    "postal": "K2K8G3",
    "result": []
  },
  {
    "postal": "K2K4N7",
    "result": []
  },
  {
    "postal": "K2K0B9",
    "result": [
      {
        "electoralDistricts": [
          {
            "election": null,
            "id": 43,
            "name": "Kanata—Carleton"
          }
        ],
        "pollDivisionIds": [
          10138944
        ],
        "postalCode": "K2K0B9",
        "streetName": "FORESTBROOK",
        "streetDirectionId": null,
        "streetTypeId": "ST",
        "placeName": "KANATA",
        "streetNameDisplayText": "FORESTBROOK ST, KANATA"
      }
    ]
  },
  {
    "postal": "K2K9K7",
    "result": []
  },
  {
    "postal": "K2K9K9",
    "result": []
  },
  {
    "postal": "K2K3Z2",
    "result": []
  },
  {
    "postal": "K2K6W7",
    "result": []
  },
  {
    "postal": "K2K0P1",
    "result": []
  },
  {
    "postal": "K2K3A0",
    "result": []
  },
  {
    "postal": "K2K8L9",
    "result": []
  },
  {
    "postal": "K2K6X0",
    "result": []
  },
  {
    "postal": "K2K3E9",
    "result": [
      {
        "electoralDistricts": [
          {
            "election": null,
            "id": 43,
            "name": "Kanata—Carleton"
          }
        ],
        "pollDivisionIds": [
          10138974
        ],
        "postalCode": "K2K3E9",
        "streetName": "CAMPEAU",
        "streetDirectionId": null,
        "streetTypeId": "DR",
        "placeName": "KANATA",
        "streetNameDisplayText": "CAMPEAU DR, KANATA"
      }
    ]
  },
  {
    "postal": "K2K0S5",
    "result": []
  },
  {
    "postal": "K2K1A2",
    "result": [
      {
        "electoralDistricts": [
          {
            "election": null,
            "id": 43,
            "name": "Kanata—Carleton"
          }
        ],
        "pollDivisionIds": [
          10138948
        ],
        "postalCode": "K2K1A2",
        "streetName": "LISMER",
        "streetDirectionId": null,
        "streetTypeId": "CRES",
        "placeName": "KANATA",
        "streetNameDisplayText": "LISMER CRES, KANATA"
      }
    ]
  },
  {
    "postal": "K2K5V8",
    "result": []
  },
  {
    "postal": "K2K8C5",
    "result": []
  },
  {
    "postal": "K2K6N0",
    "result": []
  },
  {
    "postal": "K2K9E6",
    "result": []
  },
  {
    "postal": "K2K5J7",
    "result": []
  },
  {
    "postal": "K2K2R2",
    "result": [
      {
        "electoralDistricts": [
          {
            "election": null,
            "id": 43,
            "name": "Kanata—Carleton"
          }
        ],
        "pollDivisionIds": [
          10138942,
          10138944
        ],
        "postalCode": "K2K2R2",
        "streetName": "BRADY",
        "streetDirectionId": null,
        "streetTypeId": "AVE",
        "placeName": "KANATA",
        "streetNameDisplayText": "BRADY AVE, KANATA"
      },
      {
        "electoralDistricts": [
          {
            "election": null,
            "id": 43,
            "name": "Kanata—Carleton"
          }
        ],
        "pollDivisionIds": [
          10138944
        ],
        "postalCode": "K2K2R2",
        "streetName": "IPSWICH",
        "streetDirectionId": null,
        "streetTypeId": "TERR",
        "placeName": "KANATA",
        "streetNameDisplayText": "IPSWICH TERR, KANATA"
      },
      {
        "electoralDistricts": [
          {
            "election": null,
            "id": 43,
            "name": "Kanata—Carleton"
          }
        ],
        "pollDivisionIds": [
          10138942
        ],
        "postalCode": "K2K2R2",
        "streetName": "NEWCASTLE",
        "streetDirectionId": null,
        "streetTypeId": "AVE",
        "placeName": "KANATA",
        "streetNameDisplayText": "NEWCASTLE AVE, KANATA"
      }
    ]
  },
  {
    "postal": "K2K0P5",
    "result": []
  },
  {
    "postal": "K2K5A7",
    "result": []
  },
  {
    "postal": "K2K1G1",
    "result": [
      {
        "electoralDistricts": [
          {
            "election": null,
            "id": 43,
            "name": "Kanata—Carleton"
          }
        ],
        "pollDivisionIds": [
          10138948
        ],
        "postalCode": "K2K1G1",
        "streetName": "VARLEY",
        "streetDirectionId": null,
        "streetTypeId": "DR",
        "placeName": "KANATA",
        "streetNameDisplayText": "VARLEY DR, KANATA"
      }
    ]
  },
  {
    "postal": "K2K9R6",
    "result": []
  },
  {
    "postal": "K2K4Z9",
    "result": []
  },
  {
    "postal": "K2K1V5",
    "result": [
      {
        "electoralDistricts": [
          {
            "election": null,
            "id": 43,
            "name": "Kanata—Carleton"
          }
        ],
        "pollDivisionIds": [
          10138950
        ],
        "postalCode": "K2K1V5",
        "streetName": "PENTLAND",
        "streetDirectionId": null,
        "streetTypeId": "CRES",
        "placeName": "KANATA",
        "streetNameDisplayText": "PENTLAND CRES, KANATA"
      }
    ]
  },
  {
    "postal": "K2K9Y5",
    "result": []
  },
  {
    "postal": "K2K1P2",
    "result": [
      {
        "electoralDistricts": [
          {
            "election": null,
            "id": 43,
            "name": "Kanata—Carleton"
          }
        ],
        "pollDivisionIds": [
          10138951
        ],
        "postalCode": "K2K1P2",
        "streetName": "SELWYN",
        "streetDirectionId": null,
        "streetTypeId": "PL",
        "placeName": "KANATA",
        "streetNameDisplayText": "SELWYN PL, KANATA"
      }
    ]
  },
  {
    "postal": "K2K5X0",
    "result": []
  },
  {
    "postal": "K2K7B8",
    "result": []
  },
  {
    "postal": "K2K0C6",
    "result": [
      {
        "electoralDistricts": [
          {
            "election": null,
            "id": 43,
            "name": "Kanata—Carleton"
          }
        ],
        "pollDivisionIds": [
          10138945
        ],
        "postalCode": "K2K0C6",
        "streetName": "APPLECROSS",
        "streetDirectionId": null,
        "streetTypeId": "CRES",
        "placeName": "KANATA",
        "streetNameDisplayText": "APPLECROSS CRES, KANATA"
      },
      {
        "electoralDistricts": [
          {
            "election": null,
            "id": 43,
            "name": "Kanata—Carleton"
          }
        ],
        "pollDivisionIds": [
          10138945
        ],
        "postalCode": "K2K0C6",
        "streetName": "MARCONI",
        "streetDirectionId": null,
        "streetTypeId": "AVE",
        "placeName": "KANATA",
        "streetNameDisplayText": "MARCONI AVE, KANATA"
      }
    ]
  },
  {
    "postal": "K2K6G1",
    "result": []
  },
  {
    "postal": "K2K3K3",
    "result": [
      {
        "electoralDistricts": [
          {
            "election": null,
            "id": 43,
            "name": "Kanata—Carleton"
          }
        ],
        "pollDivisionIds": [
          10138945
        ],
        "postalCode": "K2K3K3",
        "streetName": "MARCH VALLEY",
        "streetDirectionId": null,
        "streetTypeId": "RD",
        "placeName": "KANATA",
        "streetNameDisplayText": "MARCH VALLEY RD, KANATA"
      }
    ]
  },
  {
    "postal": "K2K9R0",
    "result": []
  },
  {
    "postal": "K2K4R8",
    "result": []
  },
  {
    "postal": "K2K5P9",
    "result": []
  },
  {
    "postal": "K2K8N4",
    "result": []
  },
  {
    "postal": "K2K8H4",
    "result": []
  },
  {
    "postal": "K2K4V1",
    "result": []
  },
  {
    "postal": "K2K1K5",
    "result": [
      {
        "electoralDistricts": [
          {
            "election": null,
            "id": 43,
            "name": "Kanata—Carleton"
          }
        ],
        "pollDivisionIds": [
          10138948
        ],
        "postalCode": "K2K1K5",
        "streetName": "CARR",
        "streetDirectionId": null,
        "streetTypeId": "CRES",
        "placeName": "KANATA",
        "streetNameDisplayText": "CARR CRES, KANATA"
      }
    ]
  },
  {
    "postal": "K2K1Z5",
    "result": [
      {
        "electoralDistricts": [
          {
            "election": null,
            "id": 43,
            "name": "Kanata—Carleton"
          }
        ],
        "pollDivisionIds": [
          10138951
        ],
        "postalCode": "K2K1Z5",
        "streetName": "PETRIE",
        "streetDirectionId": null,
        "streetTypeId": "LANE",
        "placeName": "KANATA",
        "streetNameDisplayText": "PETRIE LANE, KANATA"
      }
    ]
  },
  {
    "postal": "K2K9L9",
    "result": []
  },
  {
    "postal": "K2K5L2",
    "result": []
  },
  {
    "postal": "K2K0M2",
    "result": []
  },
  {
    "postal": "K2K1K8",
    "result": [
      {
        "electoralDistricts": [
          {
            "election": null,
            "id": 43,
            "name": "Kanata—Carleton"
          }
        ],
        "pollDivisionIds": [
          10138948
        ],
        "postalCode": "K2K1K8",
        "streetName": "BORDUAS",
        "streetDirectionId": null,
        "streetTypeId": "CRT",
        "placeName": "KANATA",
        "streetNameDisplayText": "BORDUAS CRT, KANATA"
      }
    ]
  },
  {
    "postal": "K2K3M7",
    "result": [
      {
        "electoralDistricts": [
          {
            "election": null,
            "id": 43,
            "name": "Kanata—Carleton"
          }
        ],
        "pollDivisionIds": [
          10138945
        ],
        "postalCode": "K2K3M7",
        "streetName": "ARRISDALE",
        "streetDirectionId": null,
        "streetTypeId": "CRT",
        "placeName": "KANATA",
        "streetNameDisplayText": "ARRISDALE CRT, KANATA"
      },
      {
        "electoralDistricts": [
          {
            "election": null,
            "id": 43,
            "name": "Kanata—Carleton"
          }
        ],
        "pollDivisionIds": [
          10138945
        ],
        "postalCode": "K2K3M7",
        "streetName": "SHIRLEY'S BROOK",
        "streetDirectionId": null,
        "streetTypeId": "DR",
        "placeName": "KANATA",
        "streetNameDisplayText": "SHIRLEY'S BROOK DR, KANATA"
      }
    ]
  },
  {
    "postal": "K2K1B2",
    "result": [
      {
        "electoralDistricts": [
          {
            "election": null,
            "id": 43,
            "name": "Kanata—Carleton"
          }
        ],
        "pollDivisionIds": [
          10138948
        ],
        "postalCode": "K2K1B2",
        "streetName": "BINNING",
        "streetDirectionId": null,
        "streetTypeId": "CRT",
        "placeName": "KANATA",
        "streetNameDisplayText": "BINNING CRT, KANATA"
      }
    ]
  },
  {
    "postal": "K2K0H9",
    "result": [
      {
        "electoralDistricts": [
          {
            "election": null,
            "id": 43,
            "name": "Kanata—Carleton"
          }
        ],
        "pollDivisionIds": [
          10138945
        ],
        "postalCode": "K2K0H9",
        "streetName": "KLONDIKE",
        "streetDirectionId": null,
        "streetTypeId": "RD",
        "placeName": "KANATA",
        "streetNameDisplayText": "KLONDIKE RD, KANATA"
      }
    ]
  },
  {
    "postal": "K2K8M4",
    "result": []
  },
  {
    "postal": "K2K2M5",
    "result": [
      {
        "electoralDistricts": [
          {
            "election": null,
            "id": 43,
            "name": "Kanata—Carleton"
          }
        ],
        "pollDivisionIds": [
          10138944
        ],
        "postalCode": "K2K2M5",
        "streetName": "HINES",
        "streetDirectionId": null,
        "streetTypeId": "RD",
        "placeName": "KANATA",
        "streetNameDisplayText": "HINES RD, KANATA"
      },
      {
        "electoralDistricts": [
          {
            "election": null,
            "id": 43,
            "name": "Kanata—Carleton"
          }
        ],
        "pollDivisionIds": [
          10138944
        ],
        "postalCode": "K2K2M5",
        "streetName": "MARCH",
        "streetDirectionId": null,
        "streetTypeId": "RD",
        "placeName": "KANATA",
        "streetNameDisplayText": "MARCH RD, KANATA"
      }
    ]
  },
  {
    "postal": "K2K0T9",
    "result": []
  },
  {
    "postal": "K2K3P1",
    "result": [
      {
        "electoralDistricts": [
          {
            "election": null,
            "id": 43,
            "name": "Kanata—Carleton"
          }
        ],
        "pollDivisionIds": [
          10138945
        ],
        "postalCode": "K2K3P1",
        "streetName": "MARSH SPARROW",
        "streetDirectionId": null,
        "streetTypeId": "PVT",
        "placeName": "KANATA",
        "streetNameDisplayText": "MARSH SPARROW PVT, KANATA"
      },
      {
        "electoralDistricts": [
          {
            "election": null,
            "id": 43,
            "name": "Kanata—Carleton"
          }
        ],
        "pollDivisionIds": [
          10138945
        ],
        "postalCode": "K2K3P1",
        "streetName": "TURTLE POINT",
        "streetDirectionId": null,
        "streetTypeId": "PVT",
        "placeName": "KANATA",
        "streetNameDisplayText": "TURTLE POINT PVT, KANATA"
      }
    ]
  },
  {
    "postal": "K2K1R6",
    "result": [
      {
        "electoralDistricts": [
          {
            "election": null,
            "id": 43,
            "name": "Kanata—Carleton"
          }
        ],
        "pollDivisionIds": [
          10138950
        ],
        "postalCode": "K2K1R6",
        "streetName": "LEACOCK",
        "streetDirectionId": null,
        "streetTypeId": "DR",
        "placeName": "KANATA",
        "streetNameDisplayText": "LEACOCK DR, KANATA"
      }
    ]
  },
  {
    "postal": "K2K9V5",
    "result": []
  },
  {
    "postal": "K2K9T0",
    "result": []
  },
  {
    "postal": "K2K0A9",
    "result": [
      {
        "electoralDistricts": [
          {
            "election": null,
            "id": 43,
            "name": "Kanata—Carleton"
          }
        ],
        "pollDivisionIds": [
          10138942
        ],
        "postalCode": "K2K0A9",
        "streetName": "BRADY",
        "streetDirectionId": null,
        "streetTypeId": "AVE",
        "placeName": "KANATA",
        "streetNameDisplayText": "BRADY AVE, KANATA"
      },
      {
        "electoralDistricts": [
          {
            "election": null,
            "id": 43,
            "name": "Kanata—Carleton"
          }
        ],
        "pollDivisionIds": [
          10138942
        ],
        "postalCode": "K2K0A9",
        "streetName": "STATEWOOD",
        "streetDirectionId": null,
        "streetTypeId": "DR",
        "placeName": "KANATA",
        "streetNameDisplayText": "STATEWOOD DR, KANATA"
      }
    ]
  },
  {
    "postal": "K2K1M3",
    "result": [
      {
        "electoralDistricts": [
          {
            "election": null,
            "id": 43,
            "name": "Kanata—Carleton"
          }
        ],
        "pollDivisionIds": [
          10138951
        ],
        "postalCode": "K2K1M3",
        "streetName": "PENFIELD",
        "streetDirectionId": null,
        "streetTypeId": "DR",
        "placeName": "KANATA",
        "streetNameDisplayText": "PENFIELD DR, KANATA"
      }
    ]
  },
  {
    "postal": "K2K1W8",
    "result": [
      {
        "electoralDistricts": [
          {
            "election": null,
            "id": 43,
            "name": "Kanata—Carleton"
          }
        ],
        "pollDivisionIds": [
          10138950
        ],
        "postalCode": "K2K1W8",
        "streetName": "REANEY",
        "streetDirectionId": null,
        "streetTypeId": "CRT",
        "placeName": "KANATA",
        "streetNameDisplayText": "REANEY CRT, KANATA"
      }
    ]
  },
  {
    "postal": "K2K9J1",
    "result": []
  },
  {
    "postal": "K2K8N5",
    "result": []
  },
  {
    "postal": "K2K5X1",
    "result": []
  },
  {
    "postal": "K2K6S2",
    "result": []
  },
  {
    "postal": "K2K2A2",
    "result": []
  },
  {
    "postal": "K2K6A6",
    "result": []
  },
  {
    "postal": "K2K0S3",
    "result": []
  },
  {
    "postal": "K2K3E7",
    "result": [
      {
        "electoralDistricts": [
          {
            "election": null,
            "id": 43,
            "name": "Kanata—Carleton"
          }
        ],
        "pollDivisionIds": [
          10138944
        ],
        "postalCode": "K2K3E7",
        "streetName": "INNOVATION",
        "streetDirectionId": null,
        "streetTypeId": "DR",
        "placeName": "KANATA",
        "streetNameDisplayText": "INNOVATION DR, KANATA"
      }
    ]
  },
  {
    "postal": "K2K5R7",
    "result": []
  },
  {
    "postal": "K2K3R6",
    "result": [
      {
        "electoralDistricts": [
          {
            "election": null,
            "id": 43,
            "name": "Kanata—Carleton"
          }
        ],
        "pollDivisionIds": [
          10138945
        ],
        "postalCode": "K2K3R6",
        "streetName": "KINGHORN",
        "streetDirectionId": null,
        "streetTypeId": "CRES",
        "placeName": "KANATA",
        "streetNameDisplayText": "KINGHORN CRES, KANATA"
      }
    ]
  },
  {
    "postal": "K2K6K4",
    "result": []
  },
  {
    "postal": "K2K2W5",
    "result": []
  },
  {
    "postal": "K2K8W4",
    "result": []
  },
  {
    "postal": "K2K9C2",
    "result": []
  },
  {
    "postal": "K2K2C0",
    "result": []
  },
  {
    "postal": "K2K0E1",
    "result": [
      {
        "electoralDistricts": [
          {
            "election": null,
            "id": 43,
            "name": "Kanata—Carleton"
          }
        ],
        "pollDivisionIds": [
          10138944,
          10138945
        ],
        "postalCode": "K2K0E1",
        "streetName": "MACARA",
        "streetDirectionId": null,
        "streetTypeId": "CRES",
        "placeName": "KANATA",
        "streetNameDisplayText": "MACARA CRES, KANATA"
      }
    ]
  },
  {
    "postal": "K2K1K9",
    "result": [
      {
        "electoralDistricts": [
          {
            "election": null,
            "id": 43,
            "name": "Kanata—Carleton"
          }
        ],
        "pollDivisionIds": [
          10138948
        ],
        "postalCode": "K2K1K9",
        "streetName": "BORDUAS",
        "streetDirectionId": null,
        "streetTypeId": "CRT",
        "placeName": "KANATA",
        "streetNameDisplayText": "BORDUAS CRT, KANATA"
      }
    ]
  },
  {
    "postal": "K2K1G7",
    "result": [
      {
        "electoralDistricts": [
          {
            "election": null,
            "id": 43,
            "name": "Kanata—Carleton"
          }
        ],
        "pollDivisionIds": [
          10138948
        ],
        "postalCode": "K2K1G7",
        "streetName": "VARLEY",
        "streetDirectionId": null,
        "streetTypeId": "DR",
        "placeName": "KANATA",
        "streetNameDisplayText": "VARLEY DR, KANATA"
      }
    ]
  },
  {
    "postal": "K2K4E9",
    "result": []
  },
  {
    "postal": "K2K9P0",
    "result": []
  },
  {
    "postal": "K2K5H3",
    "result": []
  },
  {
    "postal": "K2K9X6",
    "result": []
  },
  {
    "postal": "K2K5N7",
    "result": []
  },
  {
    "postal": "K2K5A6",
    "result": []
  },
  {
    "postal": "K2K4M0",
    "result": []
  },
  {
    "postal": "K2K3V6",
    "result": []
  },
  {
    "postal": "K2K1L7",
    "result": [
      {
        "electoralDistricts": [
          {
            "election": null,
            "id": 43,
            "name": "Kanata—Carleton"
          }
        ],
        "pollDivisionIds": [
          10138950
        ],
        "postalCode": "K2K1L7",
        "streetName": "BEAVERBROOK",
        "streetDirectionId": null,
        "streetTypeId": "LANE",
        "placeName": "KANATA",
        "streetNameDisplayText": "BEAVERBROOK LANE, KANATA"
      }
    ]
  },
  {
    "postal": "K2K2P9",
    "result": [
      {
        "electoralDistricts": [
          {
            "election": null,
            "id": 43,
            "name": "Kanata—Carleton"
          }
        ],
        "pollDivisionIds": [
          10138942
        ],
        "postalCode": "K2K2P9",
        "streetName": "BANNOCK",
        "streetDirectionId": null,
        "streetTypeId": "CRES",
        "placeName": "KANATA",
        "streetNameDisplayText": "BANNOCK CRES, KANATA"
      },
      {
        "electoralDistricts": [
          {
            "election": null,
            "id": 43,
            "name": "Kanata—Carleton"
          }
        ],
        "pollDivisionIds": [
          10138942
        ],
        "postalCode": "K2K2P9",
        "streetName": "HALTON",
        "streetDirectionId": null,
        "streetTypeId": "TERR",
        "placeName": "KANATA",
        "streetNameDisplayText": "HALTON TERR, KANATA"
      }
    ]
  },
  {
    "postal": "K2K5T4",
    "result": []
  },
  {
    "postal": "K2K5Z1",
    "result": []
  },
  {
    "postal": "K2K2X0",
    "result": []
  },
  {
    "postal": "K2K6Z2",
    "result": []
  },
  {
    "postal": "K2K0E0",
    "result": []
  },
  {
    "postal": "K2K3Z5",
    "result": []
  },
  {
    "postal": "K2K8H3",
    "result": []
  },
  {
    "postal": "K2K7S6",
    "result": []
  },
  {
    "postal": "K2K4C1",
    "result": []
  },
  {
    "postal": "K2K3K2",
    "result": [
      {
        "electoralDistricts": [
          {
            "election": null,
            "id": 43,
            "name": "Kanata—Carleton"
          }
        ],
        "pollDivisionIds": [
          10138945
        ],
        "postalCode": "K2K3K2",
        "streetName": "MARCH",
        "streetDirectionId": null,
        "streetTypeId": "RD",
        "placeName": "KANATA",
        "streetNameDisplayText": "MARCH RD, KANATA"
      }
    ]
  },
  {
    "postal": "K2K1Y5",
    "result": [
      {
        "electoralDistricts": [
          {
            "election": null,
            "id": 43,
            "name": "Kanata—Carleton"
          }
        ],
        "pollDivisionIds": [
          10138945
        ],
        "postalCode": "K2K1Y5",
        "streetName": "LEGGET",
        "streetDirectionId": null,
        "streetTypeId": "DR",
        "placeName": "KANATA",
        "streetNameDisplayText": "LEGGET DR, KANATA"
      }
    ]
  },
  {
    "postal": "K2K6P6",
    "result": []
  },
  {
    "postal": "K2K3N9",
    "result": [
      {
        "electoralDistricts": [
          {
            "election": null,
            "id": 43,
            "name": "Kanata—Carleton"
          }
        ],
        "pollDivisionIds": [
          10138951
        ],
        "postalCode": "K2K3N9",
        "streetName": "EDENVALE",
        "streetDirectionId": null,
        "streetTypeId": "DR",
        "placeName": "KANATA",
        "streetNameDisplayText": "EDENVALE DR, KANATA"
      }
    ]
  },
  {
    "postal": "K2K3W2",
    "result": []
  },
  {
    "postal": "K2K6H8",
    "result": []
  },
  {
    "postal": "K2K9T3",
    "result": []
  },
  {
    "postal": "K2K5L9",
    "result": []
  },
  {
    "postal": "K2K7X7",
    "result": []
  },
  {
    "postal": "K2K3J5",
    "result": [
      {
        "electoralDistricts": [
          {
            "election": null,
            "id": 43,
            "name": "Kanata—Carleton"
          }
        ],
        "pollDivisionIds": [
          10138951
        ],
        "postalCode": "K2K3J5",
        "streetName": "GRAY",
        "streetDirectionId": null,
        "streetTypeId": "CRES",
        "placeName": "KANATA",
        "streetNameDisplayText": "GRAY CRES, KANATA"
      }
    ]
  },
  {
    "postal": "K2K4J5",
    "result": []
  },
  {
    "postal": "K2K6J2",
    "result": []
  },
  {
    "postal": "K2K5V6",
    "result": []
  },
  {
    "postal": "K2K3N2",
    "result": [
      {
        "electoralDistricts": [
          {
            "election": null,
            "id": 43,
            "name": "Kanata—Carleton"
          }
        ],
        "pollDivisionIds": [
          10138947
        ],
        "postalCode": "K2K3N2",
        "streetName": "MANNING",
        "streetDirectionId": null,
        "streetTypeId": "CRT",
        "placeName": "KANATA",
        "streetNameDisplayText": "MANNING CRT, KANATA"
      }
    ]
  },
  {
    "postal": "K2K3B1",
    "result": [
      {
        "electoralDistricts": [
          {
            "election": null,
            "id": 43,
            "name": "Kanata—Carleton"
          }
        ],
        "pollDivisionIds": [
          10138945,
          10138944
        ],
        "postalCode": "K2K3B1",
        "streetName": "WESTMEATH",
        "streetDirectionId": null,
        "streetTypeId": "CRES",
        "placeName": "KANATA",
        "streetNameDisplayText": "WESTMEATH CRES, KANATA"
      }
    ]
  },
  {
    "postal": "K2K8B5",
    "result": []
  },
  {
    "postal": "K2K0K1",
    "result": [
      {
        "electoralDistricts": [
          {
            "election": null,
            "id": 43,
            "name": "Kanata—Carleton"
          }
        ],
        "pollDivisionIds": [
          10138944
        ],
        "postalCode": "K2K0K1",
        "streetName": "MARCH",
        "streetDirectionId": null,
        "streetTypeId": "RD",
        "placeName": "KANATA",
        "streetNameDisplayText": "MARCH RD, KANATA"
      },
      {
        "electoralDistricts": [
          {
            "election": null,
            "id": 43,
            "name": "Kanata—Carleton"
          }
        ],
        "pollDivisionIds": [
          10138948
        ],
        "postalCode": "K2K0K1",
        "streetName": "STATION",
        "streetDirectionId": null,
        "streetTypeId": "RD",
        "placeName": "KANATA",
        "streetNameDisplayText": "STATION RD, KANATA"
      }
    ]
  },
  {
    "postal": "K2K7M7",
    "result": []
  },
  {
    "postal": "K2K2M2",
    "result": [
      {
        "electoralDistricts": [
          {
            "election": null,
            "id": 43,
            "name": "Kanata—Carleton"
          }
        ],
        "pollDivisionIds": [
          10138948
        ],
        "postalCode": "K2K2M2",
        "streetName": "HANSEN",
        "streetDirectionId": null,
        "streetTypeId": "AVE",
        "placeName": "KANATA",
        "streetNameDisplayText": "HANSEN AVE, KANATA"
      },
      {
        "electoralDistricts": [
          {
            "election": null,
            "id": 43,
            "name": "Kanata—Carleton"
          }
        ],
        "pollDivisionIds": [
          10138948
        ],
        "postalCode": "K2K2M2",
        "streetName": "VERMEER",
        "streetDirectionId": null,
        "streetTypeId": "WAY",
        "placeName": "KANATA",
        "streetNameDisplayText": "VERMEER WAY, KANATA"
      }
    ]
  },
  {
    "postal": "K2K9N3",
    "result": []
  },
  {
    "postal": "K2K4Y8",
    "result": []
  },
  {
    "postal": "K2K3V7",
    "result": []
  },
  {
    "postal": "K2K8Z1",
    "result": []
  },
  {
    "postal": "K2K7B3",
    "result": []
  },
  {
    "postal": "K2K3A8",
    "result": [
      {
        "electoralDistricts": [
          {
            "election": null,
            "id": 43,
            "name": "Kanata—Carleton"
          }
        ],
        "pollDivisionIds": [
          10138944
        ],
        "postalCode": "K2K3A8",
        "streetName": "GATESHEAD",
        "streetDirectionId": null,
        "streetTypeId": "AVE",
        "placeName": "KANATA",
        "streetNameDisplayText": "GATESHEAD AVE, KANATA"
      },
      {
        "electoralDistricts": [
          {
            "election": null,
            "id": 43,
            "name": "Kanata—Carleton"
          }
        ],
        "pollDivisionIds": [
          10138945
        ],
        "postalCode": "K2K3A8",
        "streetName": "MERSEY",
        "streetDirectionId": null,
        "streetTypeId": "DR",
        "placeName": "KANATA",
        "streetNameDisplayText": "MERSEY DR, KANATA"
      },
      {
        "electoralDistricts": [
          {
            "election": null,
            "id": 43,
            "name": "Kanata—Carleton"
          }
        ],
        "pollDivisionIds": [
          10138944
        ],
        "postalCode": "K2K3A8",
        "streetName": "SPALDING",
        "streetDirectionId": null,
        "streetTypeId": "AVE",
        "placeName": "KANATA",
        "streetNameDisplayText": "SPALDING AVE, KANATA"
      },
      {
        "electoralDistricts": [
          {
            "election": null,
            "id": 43,
            "name": "Kanata—Carleton"
          }
        ],
        "pollDivisionIds": [
          10138945
        ],
        "postalCode": "K2K3A8",
        "streetName": "WESTMORELAND",
        "streetDirectionId": null,
        "streetTypeId": "AVE",
        "placeName": "KANATA",
        "streetNameDisplayText": "WESTMORELAND AVE, KANATA"
      }
    ]
  },
  {
    "postal": "K2K7V5",
    "result": []
  },
  {
    "postal": "K2K2T2",
    "result": [
      {
        "electoralDistricts": [
          {
            "election": null,
            "id": 43,
            "name": "Kanata—Carleton"
          }
        ],
        "pollDivisionIds": [
          10138947
        ],
        "postalCode": "K2K2T2",
        "streetName": "SHERRING",
        "streetDirectionId": null,
        "streetTypeId": "CRES",
        "placeName": "KANATA",
        "streetNameDisplayText": "SHERRING CRES, KANATA"
      }
    ]
  },
  {
    "postal": "K2K6L3",
    "result": []
  },
  {
    "postal": "K2K0L2",
    "result": []
  },
  {
    "postal": "K2K5Y8",
    "result": []
  },
  {
    "postal": "K2K0B8",
    "result": [
      {
        "electoralDistricts": [
          {
            "election": null,
            "id": 43,
            "name": "Kanata—Carleton"
          }
        ],
        "pollDivisionIds": [
          10138944
        ],
        "postalCode": "K2K0B8",
        "streetName": "FORESTBROOK",
        "streetDirectionId": null,
        "streetTypeId": "ST",
        "placeName": "KANATA",
        "streetNameDisplayText": "FORESTBROOK ST, KANATA"
      },
      {
        "electoralDistricts": [
          {
            "election": null,
            "id": 43,
            "name": "Kanata—Carleton"
          }
        ],
        "pollDivisionIds": [
          10138944
        ],
        "postalCode": "K2K0B8",
        "streetName": "WOODMILL",
        "streetDirectionId": null,
        "streetTypeId": "TERR",
        "placeName": "KANATA",
        "streetNameDisplayText": "WOODMILL TERR, KANATA"
      }
    ]
  },
  {
    "postal": "K2K6R5",
    "result": []
  },
  {
    "postal": "K2K8W6",
    "result": []
  },
  {
    "postal": "K2K8G6",
    "result": []
  },
  {
    "postal": "K2K6X3",
    "result": []
  },
  {
    "postal": "K2K7R7",
    "result": []
  },
  {
    "postal": "K2K4B6",
    "result": []
  },
  {
    "postal": "K2K3P9",
    "result": [
      {
        "electoralDistricts": [
          {
            "election": null,
            "id": 43,
            "name": "Kanata—Carleton"
          }
        ],
        "pollDivisionIds": [
          10138945
        ],
        "postalCode": "K2K3P9",
        "streetName": "KINROSS",
        "streetDirectionId": null,
        "streetTypeId": "PVT",
        "placeName": "KANATA",
        "streetNameDisplayText": "KINROSS PVT, KANATA"
      }
    ]
  },
  {
    "postal": "K2K2T3",
    "result": [
      {
        "electoralDistricts": [
          {
            "election": null,
            "id": 43,
            "name": "Kanata—Carleton"
          }
        ],
        "pollDivisionIds": [
          10138947
        ],
        "postalCode": "K2K2T3",
        "streetName": "HODGSON",
        "streetDirectionId": null,
        "streetTypeId": "CRT",
        "placeName": "KANATA",
        "streetNameDisplayText": "HODGSON CRT, KANATA"
      },
      {
        "electoralDistricts": [
          {
            "election": null,
            "id": 43,
            "name": "Kanata—Carleton"
          }
        ],
        "pollDivisionIds": [
          10138947
        ],
        "postalCode": "K2K2T3",
        "streetName": "LONGBOAT",
        "streetDirectionId": null,
        "streetTypeId": "CRT",
        "placeName": "KANATA",
        "streetNameDisplayText": "LONGBOAT CRT, KANATA"
      }
    ]
  },
  {
    "postal": "K2K1M4",
    "result": [
      {
        "electoralDistricts": [
          {
            "election": null,
            "id": 43,
            "name": "Kanata—Carleton"
          }
        ],
        "pollDivisionIds": [
          10138951
        ],
        "postalCode": "K2K1M4",
        "streetName": "PENFIELD",
        "streetDirectionId": null,
        "streetTypeId": "DR",
        "placeName": "KANATA",
        "streetNameDisplayText": "PENFIELD DR, KANATA"
      }
    ]
  },
  {
    "postal": "K2K0H1",
    "result": [
      {
        "electoralDistricts": [
          {
            "election": null,
            "id": 43,
            "name": "Kanata—Carleton"
          }
        ],
        "pollDivisionIds": [
          10138945
        ],
        "postalCode": "K2K0H1",
        "streetName": "MOSAIC",
        "streetDirectionId": null,
        "streetTypeId": "PVT",
        "placeName": "KANATA",
        "streetNameDisplayText": "MOSAIC PVT, KANATA"
      }
    ]
  },
  {
    "postal": "K2K9W3",
    "result": []
  },
  {
    "postal": "K2K6P1",
    "result": []
  },
  {
    "postal": "K2K7G2",
    "result": []
  },
  {
    "postal": "K2K4J9",
    "result": []
  },
  {
    "postal": "K2K9E4",
    "result": []
  },
  {
    "postal": "K2K8H0",
    "result": []
  },
  {
    "postal": "K2K4M7",
    "result": []
  },
  {
    "postal": "K2K2G9",
    "result": [
      {
        "electoralDistricts": [
          {
            "election": null,
            "id": 43,
            "name": "Kanata—Carleton"
          }
        ],
        "pollDivisionIds": [
          10138944
        ],
        "postalCode": "K2K2G9",
        "streetName": "ACKLAM",
        "streetDirectionId": null,
        "streetTypeId": "TERR",
        "placeName": "KANATA",
        "streetNameDisplayText": "ACKLAM TERR, KANATA"
      }
    ]
  },
  {
    "postal": "K2K8T2",
    "result": []
  },
  {
    "postal": "K2K7G7",
    "result": []
  },
  {
    "postal": "K2K4Z3",
    "result": []
  },
  {
    "postal": "K2K5B3",
    "result": []
  },
  {
    "postal": "K2K1S7",
    "result": [
      {
        "electoralDistricts": [
          {
            "election": null,
            "id": 43,
            "name": "Kanata—Carleton"
          }
        ],
        "pollDivisionIds": [
          10138950
        ],
        "postalCode": "K2K1S7",
        "streetName": "LEACOCK",
        "streetDirectionId": null,
        "streetTypeId": "DR",
        "placeName": "KANATA",
        "streetNameDisplayText": "LEACOCK DR, KANATA"
      }
    ]
  },
  {
    "postal": "K2K2N7",
    "result": [
      {
        "electoralDistricts": [
          {
            "election": null,
            "id": 43,
            "name": "Kanata—Carleton"
          }
        ],
        "pollDivisionIds": [
          10138948
        ],
        "postalCode": "K2K2N7",
        "streetName": "A WESLOCK",
        "streetDirectionId": null,
        "streetTypeId": "WAY",
        "placeName": "KANATA",
        "streetNameDisplayText": "A WESLOCK WAY, KANATA"
      },
      {
        "electoralDistricts": [
          {
            "election": null,
            "id": 43,
            "name": "Kanata—Carleton"
          }
        ],
        "pollDivisionIds": [
          10138948
        ],
        "postalCode": "K2K2N7",
        "streetName": "B WESLOCK",
        "streetDirectionId": null,
        "streetTypeId": "WAY",
        "placeName": "KANATA",
        "streetNameDisplayText": "B WESLOCK WAY, KANATA"
      },
      {
        "electoralDistricts": [
          {
            "election": null,
            "id": 43,
            "name": "Kanata—Carleton"
          }
        ],
        "pollDivisionIds": [
          10138948,
          10138950
        ],
        "postalCode": "K2K2N7",
        "streetName": "KNUDSON",
        "streetDirectionId": null,
        "streetTypeId": "DR",
        "placeName": "KANATA",
        "streetNameDisplayText": "KNUDSON DR, KANATA"
      },
      {
        "electoralDistricts": [
          {
            "election": null,
            "id": 43,
            "name": "Kanata—Carleton"
          }
        ],
        "pollDivisionIds": [
          10138948
        ],
        "postalCode": "K2K2N7",
        "streetName": "WESLOCK",
        "streetDirectionId": null,
        "streetTypeId": "WAY",
        "placeName": "KANATA",
        "streetNameDisplayText": "WESLOCK WAY, KANATA"
      }
    ]
  },
  {
    "postal": "K2K0H8",
    "result": []
  },
  {
    "postal": "K2K7Z4",
    "result": []
  },
  {
    "postal": "K2K7B1",
    "result": []
  },
  {
    "postal": "K2K7P8",
    "result": []
  },
  {
    "postal": "K2K7N0",
    "result": []
  },
  {
    "postal": "K2K3Y5",
    "result": []
  },
  {
    "postal": "K2K6K1",
    "result": []
  },
  {
    "postal": "K2K9X5",
    "result": []
  },
  {
    "postal": "K2K7S5",
    "result": []
  },
  {
    "postal": "K2K0A4",
    "result": [
      {
        "electoralDistricts": [
          {
            "election": null,
            "id": 43,
            "name": "Kanata—Carleton"
          }
        ],
        "pollDivisionIds": [
          10138944
        ],
        "postalCode": "K2K0A4",
        "streetName": "MARCH",
        "streetDirectionId": null,
        "streetTypeId": "RD",
        "placeName": "CARP",
        "streetNameDisplayText": "MARCH RD, CARP"
      },
      {
        "electoralDistricts": [
          {
            "election": null,
            "id": 43,
            "name": "Kanata—Carleton"
          }
        ],
        "pollDivisionIds": [
          10138945
        ],
        "postalCode": "K2K0A4",
        "streetName": "MARCH",
        "streetDirectionId": null,
        "streetTypeId": "RD",
        "placeName": "KANATA",
        "streetNameDisplayText": "MARCH RD, KANATA"
      }
    ]
  },
  {
    "postal": "K2K4T5",
    "result": []
  },
  {
    "postal": "K2K5K1",
    "result": []
  },
  {
    "postal": "K2K0Z9",
    "result": []
  },
  {
    "postal": "K2K7T2",
    "result": []
  },
  {
    "postal": "K2K1L5",
    "result": [
      {
        "electoralDistricts": [
          {
            "election": null,
            "id": 43,
            "name": "Kanata—Carleton"
          }
        ],
        "pollDivisionIds": [
          10138950
        ],
        "postalCode": "K2K1L5",
        "streetName": "BEAVERBROOK",
        "streetDirectionId": null,
        "streetTypeId": "LANE",
        "placeName": "KANATA",
        "streetNameDisplayText": "BEAVERBROOK LANE, KANATA"
      }
    ]
  },
  {
    "postal": "K2K3N5",
    "result": [
      {
        "electoralDistricts": [
          {
            "election": null,
            "id": 43,
            "name": "Kanata—Carleton"
          }
        ],
        "pollDivisionIds": [
          10138948
        ],
        "postalCode": "K2K3N5",
        "streetName": "MARCH",
        "streetDirectionId": null,
        "streetTypeId": "RD",
        "placeName": "KANATA",
        "streetNameDisplayText": "MARCH RD, KANATA"
      }
    ]
  },
  {
    "postal": "K2K6H4",
    "result": []
  },
  {
    "postal": "K2K5A5",
    "result": []
  },
  {
    "postal": "K2K3R9",
    "result": []
  },
  {
    "postal": "K2K7L8",
    "result": []
  },
  {
    "postal": "K2K6T6",
    "result": []
  },
  {
    "postal": "K2K7Y7",
    "result": []
  },
  {
    "postal": "K2K3M8",
    "result": [
      {
        "electoralDistricts": [
          {
            "election": null,
            "id": 43,
            "name": "Kanata—Carleton"
          }
        ],
        "pollDivisionIds": [
          10138945,
          10138943
        ],
        "postalCode": "K2K3M8",
        "streetName": "SHIRLEY'S BROOK",
        "streetDirectionId": null,
        "streetTypeId": "DR",
        "placeName": "KANATA",
        "streetNameDisplayText": "SHIRLEY'S BROOK DR, KANATA"
      }
    ]
  },
  {
    "postal": "K2K2E0",
    "result": []
  },
  {
    "postal": "K2K4B5",
    "result": []
  },
  {
    "postal": "K2K1J3",
    "result": [
      {
        "electoralDistricts": [
          {
            "election": null,
            "id": 43,
            "name": "Kanata—Carleton"
          }
        ],
        "pollDivisionIds": [
          10138948
        ],
        "postalCode": "K2K1J3",
        "streetName": "RIOPELLE",
        "streetDirectionId": null,
        "streetTypeId": "CRT",
        "placeName": "KANATA",
        "streetNameDisplayText": "RIOPELLE CRT, KANATA"
      }
    ]
  },
  {
    "postal": "K2K5S6",
    "result": []
  },
  {
    "postal": "K2K8P7",
    "result": []
  },
  {
    "postal": "K2K7S7",
    "result": []
  },
  {
    "postal": "K2K4C2",
    "result": []
  },
  {
    "postal": "K2K5Y0",
    "result": []
  },
  {
    "postal": "K2K2V7",
    "result": [
      {
        "electoralDistricts": [
          {
            "election": null,
            "id": 43,
            "name": "Kanata—Carleton"
          }
        ],
        "pollDivisionIds": [
          10138945
        ],
        "postalCode": "K2K2V7",
        "streetName": "BILLINGHAM",
        "streetDirectionId": null,
        "streetTypeId": "CRES",
        "placeName": "KANATA",
        "streetNameDisplayText": "BILLINGHAM CRES, KANATA"
      },
      {
        "electoralDistricts": [
          {
            "election": null,
            "id": 43,
            "name": "Kanata—Carleton"
          }
        ],
        "pollDivisionIds": [
          10138945
        ],
        "postalCode": "K2K2V7",
        "streetName": "SANDHILL",
        "streetDirectionId": null,
        "streetTypeId": "RD",
        "placeName": "KANATA",
        "streetNameDisplayText": "SANDHILL RD, KANATA"
      }
    ]
  },
  {
    "postal": "K2K8P5",
    "result": []
  },
  {
    "postal": "K2K5P5",
    "result": []
  },
  {
    "postal": "K2K5Z0",
    "result": []
  },
  {
    "postal": "K2K9B0",
    "result": []
  },
  {
    "postal": "K2K1L0",
    "result": []
  },
  {
    "postal": "K2K0B5",
    "result": [
      {
        "electoralDistricts": [
          {
            "election": null,
            "id": 43,
            "name": "Kanata—Carleton"
          }
        ],
        "pollDivisionIds": [
          10138945
        ],
        "postalCode": "K2K0B5",
        "streetName": "ARNCLIFFE",
        "streetDirectionId": null,
        "streetTypeId": "AVE",
        "placeName": "KANATA",
        "streetNameDisplayText": "ARNCLIFFE AVE, KANATA"
      },
      {
        "electoralDistricts": [
          {
            "election": null,
            "id": 43,
            "name": "Kanata—Carleton"
          }
        ],
        "pollDivisionIds": [
          10138944
        ],
        "postalCode": "K2K0B5",
        "streetName": "BEAM",
        "streetDirectionId": null,
        "streetTypeId": "ST",
        "placeName": "KANATA",
        "streetNameDisplayText": "BEAM ST, KANATA"
      },
      {
        "electoralDistricts": [
          {
            "election": null,
            "id": 43,
            "name": "Kanata—Carleton"
          }
        ],
        "pollDivisionIds": [
          10138944
        ],
        "postalCode": "K2K0B5",
        "streetName": "FORESTBROOK",
        "streetDirectionId": null,
        "streetTypeId": "ST",
        "placeName": "KANATA",
        "streetNameDisplayText": "FORESTBROOK ST, KANATA"
      },
      {
        "electoralDistricts": [
          {
            "election": null,
            "id": 43,
            "name": "Kanata—Carleton"
          }
        ],
        "pollDivisionIds": [
          10138944
        ],
        "postalCode": "K2K0B5",
        "streetName": "WOODMILL",
        "streetDirectionId": null,
        "streetTypeId": "TERR",
        "placeName": "KANATA",
        "streetNameDisplayText": "WOODMILL TERR, KANATA"
      }
    ]
  },
  {
    "postal": "K2K3L2",
    "result": [
      {
        "electoralDistricts": [
          {
            "election": null,
            "id": 43,
            "name": "Kanata—Carleton"
          }
        ],
        "pollDivisionIds": [
          10138951
        ],
        "postalCode": "K2K3L2",
        "streetName": "GRAY",
        "streetDirectionId": null,
        "streetTypeId": "CRES",
        "placeName": "KANATA",
        "streetNameDisplayText": "GRAY CRES, KANATA"
      }
    ]
  },
  {
    "postal": "K2K3B7",
    "result": [
      {
        "electoralDistricts": [
          {
            "election": null,
            "id": 43,
            "name": "Kanata—Carleton"
          }
        ],
        "pollDivisionIds": [
          10138948
        ],
        "postalCode": "K2K3B7",
        "streetName": "HERZBERG",
        "streetDirectionId": null,
        "streetTypeId": "RD",
        "placeName": "KANATA",
        "streetNameDisplayText": "HERZBERG RD, KANATA"
      }
    ]
  },
  {
    "postal": "K2K8L1",
    "result": []
  },
  {
    "postal": "K2K5M4",
    "result": []
  },
  {
    "postal": "K2K4G9",
    "result": []
  },
  {
    "postal": "K2K0P0",
    "result": []
  },
  {
    "postal": "K2K8G2",
    "result": []
  },
  {
    "postal": "K2K1V9",
    "result": [
      {
        "electoralDistricts": [
          {
            "election": null,
            "id": 43,
            "name": "Kanata—Carleton"
          }
        ],
        "pollDivisionIds": [
          10138950
        ],
        "postalCode": "K2K1V9",
        "streetName": "PENTLAND",
        "streetDirectionId": null,
        "streetTypeId": "PL",
        "placeName": "KANATA",
        "streetNameDisplayText": "PENTLAND PL, KANATA"
      }
    ]
  },
  {
    "postal": "K2K8N8",
    "result": []
  },
  {
    "postal": "K2K6S8",
    "result": []
  },
  {
    "postal": "K2K8H2",
    "result": []
  },
  {
    "postal": "K2K5R8",
    "result": []
  },
  {
    "postal": "K2K5L4",
    "result": []
  },
  {
    "postal": "K2K9E1",
    "result": []
  },
  {
    "postal": "K2K1C4",
    "result": [
      {
        "electoralDistricts": [
          {
            "election": null,
            "id": 43,
            "name": "Kanata—Carleton"
          }
        ],
        "pollDivisionIds": [
          10138948
        ],
        "postalCode": "K2K1C4",
        "streetName": "BETHUNE",
        "streetDirectionId": null,
        "streetTypeId": "WAY",
        "placeName": "KANATA",
        "streetNameDisplayText": "BETHUNE WAY, KANATA"
      }
    ]
  },
  {
    "postal": "K2K8W5",
    "result": []
  },
  {
    "postal": "K2K1Y4",
    "result": [
      {
        "electoralDistricts": [
          {
            "election": null,
            "id": 43,
            "name": "Kanata—Carleton"
          }
        ],
        "pollDivisionIds": [
          10138950
        ],
        "postalCode": "K2K1Y4",
        "streetName": "THE PARKWAY",
        "streetDirectionId": null,
        "streetTypeId": null,
        "placeName": "KANATA",
        "streetNameDisplayText": "THE PARKWAY, KANATA"
      }
    ]
  },
  {
    "postal": "K2K1C0",
    "result": []
  },
  {
    "postal": "K2K2J2",
    "result": [
      {
        "electoralDistricts": [
          {
            "election": null,
            "id": 43,
            "name": "Kanata—Carleton"
          }
        ],
        "pollDivisionIds": [
          10138944
        ],
        "postalCode": "K2K2J2",
        "streetName": "ACKLAM",
        "streetDirectionId": null,
        "streetTypeId": "TERR",
        "placeName": "KANATA",
        "streetNameDisplayText": "ACKLAM TERR, KANATA"
      },
      {
        "electoralDistricts": [
          {
            "election": null,
            "id": 43,
            "name": "Kanata—Carleton"
          }
        ],
        "pollDivisionIds": [
          10138944
        ],
        "postalCode": "K2K2J2",
        "streetName": "AYTON",
        "streetDirectionId": null,
        "streetTypeId": "LANE",
        "placeName": "KANATA",
        "streetNameDisplayText": "AYTON LANE, KANATA"
      }
    ]
  },
  {
    "postal": "K2K2J0",
    "result": []
  },
  {
    "postal": "K2K7A3",
    "result": []
  },
  {
    "postal": "K2K8M1",
    "result": []
  },
  {
    "postal": "K2K7T9",
    "result": []
  },
  {
    "postal": "K2K6C0",
    "result": []
  },
  {
    "postal": "K2K7X1",
    "result": []
  },
  {
    "postal": "K2K0G1",
    "result": [
      {
        "electoralDistricts": [
          {
            "election": null,
            "id": 43,
            "name": "Kanata—Carleton"
          }
        ],
        "pollDivisionIds": [
          10138943,
          10138944
        ],
        "postalCode": "K2K0G1",
        "streetName": "KLONDIKE",
        "streetDirectionId": null,
        "streetTypeId": "RD",
        "placeName": "KANATA",
        "streetNameDisplayText": "KLONDIKE RD, KANATA"
      }
    ]
  },
  {
    "postal": "K2K4X2",
    "result": []
  },
  {
    "postal": "K2K0N6",
    "result": []
  },
  {
    "postal": "K2K8E3",
    "result": []
  },
  {
    "postal": "K2K5S8",
    "result": []
  },
  {
    "postal": "K2K0R0",
    "result": []
  },
  {
    "postal": "K2K6J6",
    "result": []
  },
  {
    "postal": "K2K4B4",
    "result": []
  },
  {
    "postal": "K2K7E3",
    "result": []
  },
  {
    "postal": "K2K3N6",
    "result": [
      {
        "electoralDistricts": [
          {
            "election": null,
            "id": 43,
            "name": "Kanata—Carleton"
          }
        ],
        "pollDivisionIds": [
          10138951
        ],
        "postalCode": "K2K3N6",
        "streetName": "EDENVALE",
        "streetDirectionId": null,
        "streetTypeId": "DR",
        "placeName": "KANATA",
        "streetNameDisplayText": "EDENVALE DR, KANATA"
      },
      {
        "electoralDistricts": [
          {
            "election": null,
            "id": 43,
            "name": "Kanata—Carleton"
          }
        ],
        "pollDivisionIds": [
          10138951
        ],
        "postalCode": "K2K3N6",
        "streetName": "EDENVALE",
        "streetDirectionId": null,
        "streetTypeId": "DR",
        "placeName": "OTTAWA",
        "streetNameDisplayText": "EDENVALE DR, OTTAWA"
      }
    ]
  },
  {
    "postal": "K2K3X6",
    "result": []
  },
  {
    "postal": "K2K8L0",
    "result": []
  },
  {
    "postal": "K2K8N1",
    "result": []
  },
  {
    "postal": "K2K4J0",
    "result": []
  },
  {
    "postal": "K2K0X7",
    "result": []
  },
  {
    "postal": "K2K6S4",
    "result": []
  },
  {
    "postal": "K2K0Z0",
    "result": []
  },
  {
    "postal": "K2K9X8",
    "result": []
  },
  {
    "postal": "K2K3H3",
    "result": [
      {
        "electoralDistricts": [
          {
            "election": null,
            "id": 43,
            "name": "Kanata—Carleton"
          }
        ],
        "pollDivisionIds": [
          10138944
        ],
        "postalCode": "K2K3H3",
        "streetName": "STATION",
        "streetDirectionId": null,
        "streetTypeId": "RD",
        "placeName": "KANATA",
        "streetNameDisplayText": "STATION RD, KANATA"
      }
    ]
  },
  {
    "postal": "K2K7S2",
    "result": []
  },
  {
    "postal": "K2K3T3",
    "result": []
  },
  {
    "postal": "K2K9P3",
    "result": []
  },
  {
    "postal": "K2K4H8",
    "result": []
  },
  {
    "postal": "K2K6R1",
    "result": []
  },
  {
    "postal": "K2K1S0",
    "result": []
  },
  {
    "postal": "K2K3W8",
    "result": []
  },
  {
    "postal": "K2K4S3",
    "result": []
  },
  {
    "postal": "K2K1B6",
    "result": [
      {
        "electoralDistricts": [
          {
            "election": null,
            "id": 43,
            "name": "Kanata—Carleton"
          }
        ],
        "pollDivisionIds": [
          10138948
        ],
        "postalCode": "K2K1B6",
        "streetName": "JACKSON",
        "streetDirectionId": null,
        "streetTypeId": "CRT",
        "placeName": "KANATA",
        "streetNameDisplayText": "JACKSON CRT, KANATA"
      }
    ]
  },
  {
    "postal": "K2K8R3",
    "result": []
  },
  {
    "postal": "K2K4V9",
    "result": []
  },
  {
    "postal": "K2K9W4",
    "result": []
  },
  {
    "postal": "K2K3T4",
    "result": []
  },
  {
    "postal": "K2K5C7",
    "result": []
  },
  {
    "postal": "K2K3Y1",
    "result": []
  },
  {
    "postal": "K2K5V0",
    "result": []
  },
  {
    "postal": "K2K8G8",
    "result": []
  },
  {
    "postal": "K2K8B1",
    "result": []
  },
  {
    "postal": "K2K4P5",
    "result": []
  },
  {
    "postal": "K2K7B2",
    "result": []
  },
  {
    "postal": "K2K0R2",
    "result": []
  },
  {
    "postal": "K2K4M4",
    "result": []
  },
  {
    "postal": "K2K7M4",
    "result": []
  },
  {
    "postal": "K2K9S7",
    "result": []
  },
  {
    "postal": "K2K5Z7",
    "result": []
  },
  {
    "postal": "K2K7J7",
    "result": []
  },
  {
    "postal": "K2K8R8",
    "result": []
  },
  {
    "postal": "K2K9X1",
    "result": []
  },
  {
    "postal": "K2K5M9",
    "result": []
  },
  {
    "postal": "K2K9B4",
    "result": []
  },
  {
    "postal": "K2K0L9",
    "result": []
  },
  {
    "postal": "K2K9G4",
    "result": []
  },
  {
    "postal": "K2K1J4",
    "result": [
      {
        "electoralDistricts": [
          {
            "election": null,
            "id": 43,
            "name": "Kanata—Carleton"
          }
        ],
        "pollDivisionIds": [
          10138948
        ],
        "postalCode": "K2K1J4",
        "streetName": "PELLAN",
        "streetDirectionId": null,
        "streetTypeId": "CRES",
        "placeName": "KANATA",
        "streetNameDisplayText": "PELLAN CRES, KANATA"
      }
    ]
  },
  {
    "postal": "K2K0W6",
    "result": []
  }
]
