[
  {
    "postal": "L6C9J6",
    "result": []
  },
  {
    "postal": "L6C9Z5",
    "result": []
  },
  {
    "postal": "L6C7H8",
    "result": []
  },
  {
    "postal": "L6C0P6",
    "result": [
      {
        "electoralDistricts": [
          {
            "election": null,
            "id": 58,
            "name": "Markham—Unionville"
          }
        ],
        "pollDivisionIds": [
          10139670
        ],
        "postalCode": "L6C0P6",
        "streetName": "WILLIAM BARTLETT",
        "streetDirectionId": null,
        "streetTypeId": "DR",
        "placeName": "MARKHAM",
        "streetNameDisplayText": "WILLIAM BARTLETT DR, MARKHAM"
      },
      {
        "electoralDistricts": [
          {
            "election": null,
            "id": 58,
            "name": "Markham—Unionville"
          }
        ],
        "pollDivisionIds": [
          10139670
        ],
        "postalCode": "L6C0P6",
        "streetName": "WILLIAM BERCZY",
        "streetDirectionId": null,
        "streetTypeId": "BLVD",
        "placeName": "MARKHAM",
        "streetNameDisplayText": "WILLIAM BERCZY BLVD, MARKHAM"
      }
    ]
  },
  {
    "postal": "L6C0S7",
    "result": [
      {
        "electoralDistricts": [
          {
            "election": null,
            "id": 58,
            "name": "Markham—Unionville"
          }
        ],
        "pollDivisionIds": [
          10139670
        ],
        "postalCode": "L6C0S7",
        "streetName": "BROCK",
        "streetDirectionId": null,
        "streetTypeId": "AVE",
        "placeName": "MARKHAM",
        "streetNameDisplayText": "BROCK AVE, MARKHAM"
      },
      {
        "electoralDistricts": [
          {
            "election": null,
            "id": 58,
            "name": "Markham—Unionville"
          }
        ],
        "pollDivisionIds": [
          10139670
        ],
        "postalCode": "L6C0S7",
        "streetName": "HOLST",
        "streetDirectionId": null,
        "streetTypeId": "AVE",
        "placeName": "MARKHAM",
        "streetNameDisplayText": "HOLST AVE, MARKHAM"
      }
    ]
  },
  {
    "postal": "L6C8B9",
    "result": []
  },
  {
    "postal": "L6C2A6",
    "result": [
      {
        "electoralDistricts": [
          {
            "election": null,
            "id": 58,
            "name": "Markham—Unionville"
          }
        ],
        "pollDivisionIds": [
          10139661
        ],
        "postalCode": "L6C2A6",
        "streetName": "ANGUS GLEN",
        "streetDirectionId": null,
        "streetTypeId": "BLVD",
        "placeName": "MARKHAM",
        "streetNameDisplayText": "ANGUS GLEN BLVD, MARKHAM"
      },
      {
        "electoralDistricts": [
          {
            "election": null,
            "id": 58,
            "name": "Markham—Unionville"
          }
        ],
        "pollDivisionIds": [
          10139661
        ],
        "postalCode": "L6C2A6",
        "streetName": "ROYAL TROON",
        "streetDirectionId": null,
        "streetTypeId": "CRES",
        "placeName": "MARKHAM",
        "streetNameDisplayText": "ROYAL TROON CRES, MARKHAM"
      }
    ]
  },
  {
    "postal": "L6C7V2",
    "result": []
  },
  {
    "postal": "L6C9P4",
    "result": []
  },
  {
    "postal": "L6C6G0",
    "result": []
  },
  {
    "postal": "L6C2K0",
    "result": []
  },
  {
    "postal": "L6C7N6",
    "result": []
  },
  {
    "postal": "L6C5R3",
    "result": []
  },
  {
    "postal": "L6C7K0",
    "result": []
  },
  {
    "postal": "L6C3R2",
    "result": []
  },
  {
    "postal": "L6C0J1",
    "result": []
  },
  {
    "postal": "L6C0B0",
    "result": []
  },
  {
    "postal": "L6C5Z2",
    "result": []
  },
  {
    "postal": "L6C7P3",
    "result": []
  },
  {
    "postal": "L6C2K3",
    "result": [
      {
        "electoralDistricts": [
          {
            "election": null,
            "id": 58,
            "name": "Markham—Unionville"
          }
        ],
        "pollDivisionIds": [
          10139663
        ],
        "postalCode": "L6C2K3",
        "streetName": "HARTWELL",
        "streetDirectionId": null,
        "streetTypeId": "PL",
        "placeName": "MARKHAM",
        "streetNameDisplayText": "HARTWELL PL, MARKHAM"
      },
      {
        "electoralDistricts": [
          {
            "election": null,
            "id": 58,
            "name": "Markham—Unionville"
          }
        ],
        "pollDivisionIds": [
          10139663
        ],
        "postalCode": "L6C2K3",
        "streetName": "HILLMOUNT",
        "streetDirectionId": null,
        "streetTypeId": "RD",
        "placeName": "MARKHAM",
        "streetNameDisplayText": "HILLMOUNT RD, MARKHAM"
      }
    ]
  },
  {
    "postal": "L6C7Y6",
    "result": []
  },
  {
    "postal": "L6C1L9",
    "result": [
      {
        "electoralDistricts": [
          {
            "election": null,
            "id": 58,
            "name": "Markham—Unionville"
          }
        ],
        "pollDivisionIds": [
          10139660
        ],
        "postalCode": "L6C1L9",
        "streetName": "19TH",
        "streetDirectionId": null,
        "streetTypeId": "AVE",
        "placeName": "MARKHAM",
        "streetNameDisplayText": "19TH AVE, MARKHAM"
      }
    ]
  },
  {
    "postal": "L6C8T0",
    "result": []
  },
  {
    "postal": "L6C3K8",
    "result": []
  },
  {
    "postal": "L6C5W9",
    "result": []
  },
  {
    "postal": "L6C6T9",
    "result": []
  },
  {
    "postal": "L6C4H1",
    "result": []
  },
  {
    "postal": "L6C7A2",
    "result": []
  },
  {
    "postal": "L6C5G0",
    "result": []
  },
  {
    "postal": "L6C8V5",
    "result": []
  },
  {
    "postal": "L6C2Y8",
    "result": [
      {
        "electoralDistricts": [
          {
            "election": null,
            "id": 58,
            "name": "Markham—Unionville"
          }
        ],
        "pollDivisionIds": [
          10139663
        ],
        "postalCode": "L6C2Y8",
        "streetName": "NICHOLS",
        "streetDirectionId": null,
        "streetTypeId": "BLVD",
        "placeName": "MARKHAM",
        "streetNameDisplayText": "NICHOLS BLVD, MARKHAM"
      },
      {
        "electoralDistricts": [
          {
            "election": null,
            "id": 58,
            "name": "Markham—Unionville"
          }
        ],
        "pollDivisionIds": [
          10139663
        ],
        "postalCode": "L6C2Y8",
        "streetName": "OAKFORD",
        "streetDirectionId": null,
        "streetTypeId": "DR",
        "placeName": "MARKHAM",
        "streetNameDisplayText": "OAKFORD DR, MARKHAM"
      },
      {
        "electoralDistricts": [
          {
            "election": null,
            "id": 58,
            "name": "Markham—Unionville"
          }
        ],
        "pollDivisionIds": [
          10139663
        ],
        "postalCode": "L6C2Y8",
        "streetName": "WILLOW HEIGHTS",
        "streetDirectionId": null,
        "streetTypeId": "BLVD",
        "placeName": "MARKHAM",
        "streetNameDisplayText": "WILLOW HEIGHTS BLVD, MARKHAM"
      }
    ]
  },
  {
    "postal": "L6C2B6",
    "result": [
      {
        "electoralDistricts": [
          {
            "election": null,
            "id": 58,
            "name": "Markham—Unionville"
          }
        ],
        "pollDivisionIds": [
          10139666
        ],
        "postalCode": "L6C2B6",
        "streetName": "ARIES",
        "streetDirectionId": null,
        "streetTypeId": "CRES",
        "placeName": "MARKHAM",
        "streetNameDisplayText": "ARIES CRES, MARKHAM"
      },
      {
        "electoralDistricts": [
          {
            "election": null,
            "id": 58,
            "name": "Markham—Unionville"
          }
        ],
        "pollDivisionIds": [
          10139666
        ],
        "postalCode": "L6C2B6",
        "streetName": "LIONHEART",
        "streetDirectionId": null,
        "streetTypeId": "LANE",
        "placeName": "MARKHAM",
        "streetNameDisplayText": "LIONHEART LANE, MARKHAM"
      },
      {
        "electoralDistricts": [
          {
            "election": null,
            "id": 58,
            "name": "Markham—Unionville"
          }
        ],
        "pollDivisionIds": [
          10139666
        ],
        "postalCode": "L6C2B6",
        "streetName": "WILLIAM BERCZY",
        "streetDirectionId": null,
        "streetTypeId": "BLVD",
        "placeName": "MARKHAM",
        "streetNameDisplayText": "WILLIAM BERCZY BLVD, MARKHAM"
      },
      {
        "electoralDistricts": [
          {
            "election": null,
            "id": 58,
            "name": "Markham—Unionville"
          }
        ],
        "pollDivisionIds": [
          10139666
        ],
        "postalCode": "L6C2B6",
        "streetName": "WINSTON CASTLE",
        "streetDirectionId": null,
        "streetTypeId": "DR",
        "placeName": "MARKHAM",
        "streetNameDisplayText": "WINSTON CASTLE DR, MARKHAM"
      }
    ]
  },
  {
    "postal": "L6C4W8",
    "result": []
  },
  {
    "postal": "L6C8H7",
    "result": []
  },
  {
    "postal": "L6C5P1",
    "result": []
  },
  {
    "postal": "L6C2B8",
    "result": [
      {
        "electoralDistricts": [
          {
            "election": null,
            "id": 58,
            "name": "Markham—Unionville"
          }
        ],
        "pollDivisionIds": [
          10139671
        ],
        "postalCode": "L6C2B8",
        "streetName": "BRIDLEFIELD",
        "streetDirectionId": null,
        "streetTypeId": "LANE",
        "placeName": "MARKHAM",
        "streetNameDisplayText": "BRIDLEFIELD LANE, MARKHAM"
      },
      {
        "electoralDistricts": [
          {
            "election": null,
            "id": 58,
            "name": "Markham—Unionville"
          }
        ],
        "pollDivisionIds": [
          10139671
        ],
        "postalCode": "L6C2B8",
        "streetName": "TRAIL RIDGE",
        "streetDirectionId": null,
        "streetTypeId": "LANE",
        "placeName": "MARKHAM",
        "streetNameDisplayText": "TRAIL RIDGE LANE, MARKHAM"
      }
    ]
  },
  {
    "postal": "L6C0P2",
    "result": [
      {
        "electoralDistricts": [
          {
            "election": null,
            "id": 58,
            "name": "Markham—Unionville"
          }
        ],
        "pollDivisionIds": [
          10139660
        ],
        "postalCode": "L6C0P2",
        "streetName": "ANTHONY ROMAN",
        "streetDirectionId": null,
        "streetTypeId": "AVE",
        "placeName": "MARKHAM",
        "streetNameDisplayText": "ANTHONY ROMAN AVE, MARKHAM"
      },
      {
        "electoralDistricts": [
          {
            "election": null,
            "id": 58,
            "name": "Markham—Unionville"
          }
        ],
        "pollDivisionIds": [
          10139660
        ],
        "postalCode": "L6C0P2",
        "streetName": "CATHEDRAL HIGH",
        "streetDirectionId": null,
        "streetTypeId": "ST",
        "placeName": "MARKHAM",
        "streetNameDisplayText": "CATHEDRAL HIGH ST, MARKHAM"
      },
      {
        "electoralDistricts": [
          {
            "election": null,
            "id": 58,
            "name": "Markham—Unionville"
          }
        ],
        "pollDivisionIds": [
          10139660
        ],
        "postalCode": "L6C0P2",
        "streetName": "HAUTE",
        "streetDirectionId": null,
        "streetTypeId": "LANE",
        "placeName": "MARKHAM",
        "streetNameDisplayText": "HAUTE LANE, MARKHAM"
      },
      {
        "electoralDistricts": [
          {
            "election": null,
            "id": 58,
            "name": "Markham—Unionville"
          }
        ],
        "pollDivisionIds": [
          10139660
        ],
        "postalCode": "L6C0P2",
        "streetName": "WOODBINE",
        "streetDirectionId": null,
        "streetTypeId": "AVE",
        "placeName": "MARKHAM",
        "streetNameDisplayText": "WOODBINE AVE, MARKHAM"
      }
    ]
  },
  {
    "postal": "L6C9M1",
    "result": []
  },
  {
    "postal": "L6C3G0",
    "result": []
  },
  {
    "postal": "L6C9Z2",
    "result": []
  },
  {
    "postal": "L6C2A0",
    "result": []
  },
  {
    "postal": "L6C6Y0",
    "result": []
  },
  {
    "postal": "L6C2Z8",
    "result": [
      {
        "electoralDistricts": [
          {
            "election": null,
            "id": 58,
            "name": "Markham—Unionville"
          }
        ],
        "pollDivisionIds": [
          10139671
        ],
        "postalCode": "L6C2Z8",
        "streetName": "JOSEPH GLOVER",
        "streetDirectionId": null,
        "streetTypeId": "AVE",
        "placeName": "MARKHAM",
        "streetNameDisplayText": "JOSEPH GLOVER AVE, MARKHAM"
      },
      {
        "electoralDistricts": [
          {
            "election": null,
            "id": 58,
            "name": "Markham—Unionville"
          }
        ],
        "pollDivisionIds": [
          10139671
        ],
        "postalCode": "L6C2Z8",
        "streetName": "OXFORDSHIRE",
        "streetDirectionId": null,
        "streetTypeId": "ST",
        "placeName": "MARKHAM",
        "streetNameDisplayText": "OXFORDSHIRE ST, MARKHAM"
      },
      {
        "electoralDistricts": [
          {
            "election": null,
            "id": 58,
            "name": "Markham—Unionville"
          }
        ],
        "pollDivisionIds": [
          10139671
        ],
        "postalCode": "L6C2Z8",
        "streetName": "STONEBRIDGE",
        "streetDirectionId": null,
        "streetTypeId": "DR",
        "placeName": "MARKHAM",
        "streetNameDisplayText": "STONEBRIDGE DR, MARKHAM"
      }
    ]
  },
  {
    "postal": "L6C7Y3",
    "result": []
  },
  {
    "postal": "L6C6Z5",
    "result": []
  },
  {
    "postal": "L6C6E0",
    "result": []
  },
  {
    "postal": "L6C9B7",
    "result": []
  },
  {
    "postal": "L6C9S5",
    "result": []
  },
  {
    "postal": "L6C3X3",
    "result": []
  },
  {
    "postal": "L6C7R5",
    "result": []
  },
  {
    "postal": "L6C2X3",
    "result": [
      {
        "electoralDistricts": [
          {
            "election": null,
            "id": 58,
            "name": "Markham—Unionville"
          }
        ],
        "pollDivisionIds": [
          10139667
        ],
        "postalCode": "L6C2X3",
        "streetName": "BROOKHAVEN",
        "streetDirectionId": null,
        "streetTypeId": "CRES",
        "placeName": "MARKHAM",
        "streetNameDisplayText": "BROOKHAVEN CRES, MARKHAM"
      },
      {
        "electoralDistricts": [
          {
            "election": null,
            "id": 58,
            "name": "Markham—Unionville"
          }
        ],
        "pollDivisionIds": [
          10139667
        ],
        "postalCode": "L6C2X3",
        "streetName": "GLENBROOK",
        "streetDirectionId": null,
        "streetTypeId": "DR",
        "placeName": "MARKHAM",
        "streetNameDisplayText": "GLENBROOK DR, MARKHAM"
      },
      {
        "electoralDistricts": [
          {
            "election": null,
            "id": 58,
            "name": "Markham—Unionville"
          }
        ],
        "pollDivisionIds": [
          10139667
        ],
        "postalCode": "L6C2X3",
        "streetName": "HILLWOOD",
        "streetDirectionId": null,
        "streetTypeId": "ST",
        "placeName": "MARKHAM",
        "streetNameDisplayText": "HILLWOOD ST, MARKHAM"
      },
      {
        "electoralDistricts": [
          {
            "election": null,
            "id": 58,
            "name": "Markham—Unionville"
          }
        ],
        "pollDivisionIds": [
          10139667
        ],
        "postalCode": "L6C2X3",
        "streetName": "WESTCHESTER",
        "streetDirectionId": null,
        "streetTypeId": "CRES",
        "placeName": "MARKHAM",
        "streetNameDisplayText": "WESTCHESTER CRES, MARKHAM"
      }
    ]
  },
  {
    "postal": "L6C8Z9",
    "result": []
  },
  {
    "postal": "L6C0N4",
    "result": [
      {
        "electoralDistricts": [
          {
            "election": null,
            "id": 58,
            "name": "Markham—Unionville"
          }
        ],
        "pollDivisionIds": [
          10139670
        ],
        "postalCode": "L6C0N4",
        "streetName": "GABLE",
        "streetDirectionId": null,
        "streetTypeId": "AVE",
        "placeName": "MARKHAM",
        "streetNameDisplayText": "GABLE AVE, MARKHAM"
      },
      {
        "electoralDistricts": [
          {
            "election": null,
            "id": 58,
            "name": "Markham—Unionville"
          }
        ],
        "pollDivisionIds": [
          10139670
        ],
        "postalCode": "L6C0N4",
        "streetName": "THOMAS FOSTER",
        "streetDirectionId": null,
        "streetTypeId": "ST",
        "placeName": "MARKHAM",
        "streetNameDisplayText": "THOMAS FOSTER ST, MARKHAM"
      }
    ]
  },
  {
    "postal": "L6C1K1",
    "result": []
  },
  {
    "postal": "L6C1S3",
    "result": [
      {
        "electoralDistricts": [
          {
            "election": null,
            "id": 58,
            "name": "Markham—Unionville"
          }
        ],
        "pollDivisionIds": [
          10139664
        ],
        "postalCode": "L6C1S3",
        "streetName": "EYER",
        "streetDirectionId": null,
        "streetTypeId": "DR",
        "placeName": "MARKHAM",
        "streetNameDisplayText": "EYER DR, MARKHAM"
      },
      {
        "electoralDistricts": [
          {
            "election": null,
            "id": 58,
            "name": "Markham—Unionville"
          }
        ],
        "pollDivisionIds": [
          10139664
        ],
        "postalCode": "L6C1S3",
        "streetName": "RODICK",
        "streetDirectionId": null,
        "streetTypeId": "RD",
        "placeName": "MARKHAM",
        "streetNameDisplayText": "RODICK RD, MARKHAM"
      }
    ]
  },
  {
    "postal": "L6C6M4",
    "result": []
  },
  {
    "postal": "L6C9A9",
    "result": []
  },
  {
    "postal": "L6C9Z9",
    "result": []
  },
  {
    "postal": "L6C6T4",
    "result": []
  },
  {
    "postal": "L6C0B2",
    "result": [
      {
        "electoralDistricts": [
          {
            "election": null,
            "id": 58,
            "name": "Markham—Unionville"
          }
        ],
        "pollDivisionIds": [
          10139670
        ],
        "postalCode": "L6C0B2",
        "streetName": "BRACKNELL",
        "streetDirectionId": null,
        "streetTypeId": "AVE",
        "placeName": "MARKHAM",
        "streetNameDisplayText": "BRACKNELL AVE, MARKHAM"
      },
      {
        "electoralDistricts": [
          {
            "election": null,
            "id": 58,
            "name": "Markham—Unionville"
          }
        ],
        "pollDivisionIds": [
          10139670
        ],
        "postalCode": "L6C0B2",
        "streetName": "ROONEY",
        "streetDirectionId": null,
        "streetTypeId": "RD",
        "placeName": "MARKHAM",
        "streetNameDisplayText": "ROONEY RD, MARKHAM"
      },
      {
        "electoralDistricts": [
          {
            "election": null,
            "id": 58,
            "name": "Markham—Unionville"
          }
        ],
        "pollDivisionIds": [
          10139671,
          10139670
        ],
        "postalCode": "L6C0B2",
        "streetName": "THE BRIDLE",
        "streetDirectionId": null,
        "streetTypeId": "WALK",
        "placeName": "MARKHAM",
        "streetNameDisplayText": "THE BRIDLE WALK, MARKHAM"
      },
      {
        "electoralDistricts": [
          {
            "election": null,
            "id": 58,
            "name": "Markham—Unionville"
          }
        ],
        "pollDivisionIds": [
          10139671,
          10139670
        ],
        "postalCode": "L6C0B2",
        "streetName": "WILFRED MURISON",
        "streetDirectionId": null,
        "streetTypeId": "AVE",
        "placeName": "MARKHAM",
        "streetNameDisplayText": "WILFRED MURISON AVE, MARKHAM"
      }
    ]
  },
  {
    "postal": "L6C2L9",
    "result": [
      {
        "electoralDistricts": [
          {
            "election": null,
            "id": 58,
            "name": "Markham—Unionville"
          }
        ],
        "pollDivisionIds": [
          10139670
        ],
        "postalCode": "L6C2L9",
        "streetName": "MADISON HEIGHTS",
        "streetDirectionId": null,
        "streetTypeId": "BLVD",
        "placeName": "MARKHAM",
        "streetNameDisplayText": "MADISON HEIGHTS BLVD, MARKHAM"
      },
      {
        "electoralDistricts": [
          {
            "election": null,
            "id": 58,
            "name": "Markham—Unionville"
          }
        ],
        "pollDivisionIds": [
          10139670
        ],
        "postalCode": "L6C2L9",
        "streetName": "RUSSELL HILL",
        "streetDirectionId": null,
        "streetTypeId": "RD",
        "placeName": "MARKHAM",
        "streetNameDisplayText": "RUSSELL HILL RD, MARKHAM"
      },
      {
        "electoralDistricts": [
          {
            "election": null,
            "id": 58,
            "name": "Markham—Unionville"
          }
        ],
        "pollDivisionIds": [
          10139670
        ],
        "postalCode": "L6C2L9",
        "streetName": "THE BRIDLE",
        "streetDirectionId": null,
        "streetTypeId": "WALK",
        "placeName": "MARKHAM",
        "streetNameDisplayText": "THE BRIDLE WALK, MARKHAM"
      }
    ]
  },
  {
    "postal": "L6C8K9",
    "result": []
  },
  {
    "postal": "L6C2H9",
    "result": [
      {
        "electoralDistricts": [
          {
            "election": null,
            "id": 58,
            "name": "Markham—Unionville"
          }
        ],
        "pollDivisionIds": [
          10139663
        ],
        "postalCode": "L6C2H9",
        "streetName": "MOSS CREEK",
        "streetDirectionId": null,
        "streetTypeId": "BLVD",
        "placeName": "MARKHAM",
        "streetNameDisplayText": "MOSS CREEK BLVD, MARKHAM"
      },
      {
        "electoralDistricts": [
          {
            "election": null,
            "id": 58,
            "name": "Markham—Unionville"
          }
        ],
        "pollDivisionIds": [
          10139663
        ],
        "postalCode": "L6C2H9",
        "streetName": "SAINTSBURY",
        "streetDirectionId": null,
        "streetTypeId": "RD",
        "placeName": "MARKHAM",
        "streetNameDisplayText": "SAINTSBURY RD, MARKHAM"
      }
    ]
  },
  {
    "postal": "L6C3Z6",
    "result": []
  },
  {
    "postal": "L6C3B0",
    "result": []
  },
  {
    "postal": "L6C2H8",
    "result": [
      {
        "electoralDistricts": [
          {
            "election": null,
            "id": 58,
            "name": "Markham—Unionville"
          }
        ],
        "pollDivisionIds": [
          10139663
        ],
        "postalCode": "L6C2H8",
        "streetName": "MOSS CREEK",
        "streetDirectionId": null,
        "streetTypeId": "BLVD",
        "placeName": "MARKHAM",
        "streetNameDisplayText": "MOSS CREEK BLVD, MARKHAM"
      },
      {
        "electoralDistricts": [
          {
            "election": null,
            "id": 58,
            "name": "Markham—Unionville"
          }
        ],
        "pollDivisionIds": [
          10139663
        ],
        "postalCode": "L6C2H8",
        "streetName": "SANDERSON",
        "streetDirectionId": null,
        "streetTypeId": "RD",
        "placeName": "MARKHAM",
        "streetNameDisplayText": "SANDERSON RD, MARKHAM"
      }
    ]
  },
  {
    "postal": "L6C3X2",
    "result": []
  },
  {
    "postal": "L6C2E9",
    "result": [
      {
        "electoralDistricts": [
          {
            "election": null,
            "id": 58,
            "name": "Markham—Unionville"
          }
        ],
        "pollDivisionIds": [
          10139670
        ],
        "postalCode": "L6C2E9",
        "streetName": "BUR OAK",
        "streetDirectionId": null,
        "streetTypeId": "AVE",
        "placeName": "MARKHAM",
        "streetNameDisplayText": "BUR OAK AVE, MARKHAM"
      },
      {
        "electoralDistricts": [
          {
            "election": null,
            "id": 58,
            "name": "Markham—Unionville"
          }
        ],
        "pollDivisionIds": [
          10139670
        ],
        "postalCode": "L6C2E9",
        "streetName": "HENRIETTA",
        "streetDirectionId": null,
        "streetTypeId": "ST",
        "placeName": "MARKHAM",
        "streetNameDisplayText": "HENRIETTA ST, MARKHAM"
      },
      {
        "electoralDistricts": [
          {
            "election": null,
            "id": 58,
            "name": "Markham—Unionville"
          }
        ],
        "pollDivisionIds": [
          10139670
        ],
        "postalCode": "L6C2E9",
        "streetName": "MADISON HEIGHTS",
        "streetDirectionId": null,
        "streetTypeId": "BLVD",
        "placeName": "MARKHAM",
        "streetNameDisplayText": "MADISON HEIGHTS BLVD, MARKHAM"
      }
    ]
  },
  {
    "postal": "L6C9P6",
    "result": []
  },
  {
    "postal": "L6C9E2",
    "result": []
  },
  {
    "postal": "L6C9H2",
    "result": []
  },
  {
    "postal": "L6C1S8",
    "result": [
      {
        "electoralDistricts": [
          {
            "election": null,
            "id": 58,
            "name": "Markham—Unionville"
          }
        ],
        "pollDivisionIds": [
          10139664
        ],
        "postalCode": "L6C1S8",
        "streetName": "CALVERT",
        "streetDirectionId": null,
        "streetTypeId": "RD",
        "placeName": "MARKHAM",
        "streetNameDisplayText": "CALVERT RD, MARKHAM"
      },
      {
        "electoralDistricts": [
          {
            "election": null,
            "id": 58,
            "name": "Markham—Unionville"
          }
        ],
        "pollDivisionIds": [
          10139664
        ],
        "postalCode": "L6C1S8",
        "streetName": "HANS",
        "streetDirectionId": null,
        "streetTypeId": "DR",
        "placeName": "MARKHAM",
        "streetNameDisplayText": "HANS DR, MARKHAM"
      },
      {
        "electoralDistricts": [
          {
            "election": null,
            "id": 58,
            "name": "Markham—Unionville"
          }
        ],
        "pollDivisionIds": [
          10139664
        ],
        "postalCode": "L6C1S8",
        "streetName": "RODICK",
        "streetDirectionId": null,
        "streetTypeId": "RD",
        "placeName": "MARKHAM",
        "streetNameDisplayText": "RODICK RD, MARKHAM"
      }
    ]
  },
  {
    "postal": "L6C3M6",
    "result": []
  },
  {
    "postal": "L6C6Z8",
    "result": []
  },
  {
    "postal": "L6C4J2",
    "result": []
  },
  {
    "postal": "L6C9Y1",
    "result": []
  },
  {
    "postal": "L6C8V6",
    "result": []
  },
  {
    "postal": "L6C6B2",
    "result": []
  },
  {
    "postal": "L6C1P8",
    "result": [
      {
        "electoralDistricts": [
          {
            "election": null,
            "id": 58,
            "name": "Markham—Unionville"
          }
        ],
        "pollDivisionIds": [
          10139661
        ],
        "postalCode": "L6C1P8",
        "streetName": "MAJOR MACKENZIE",
        "streetDirectionId": "E",
        "streetTypeId": "DR",
        "placeName": "MARKHAM",
        "streetNameDisplayText": "MAJOR MACKENZIE DR E, MARKHAM"
      }
    ]
  },
  {
    "postal": "L6C0V8",
    "result": [
      {
        "electoralDistricts": [
          {
            "election": null,
            "id": 58,
            "name": "Markham—Unionville"
          }
        ],
        "pollDivisionIds": [
          10139670
        ],
        "postalCode": "L6C0V8",
        "streetName": "16TH",
        "streetDirectionId": null,
        "streetTypeId": "AVE",
        "placeName": "MARKHAM",
        "streetNameDisplayText": "16TH AVE, MARKHAM"
      },
      {
        "electoralDistricts": [
          {
            "election": null,
            "id": 58,
            "name": "Markham—Unionville"
          }
        ],
        "pollDivisionIds": [
          10139670
        ],
        "postalCode": "L6C0V8",
        "streetName": "CHRISTIAN RITTER",
        "streetDirectionId": null,
        "streetTypeId": "DR",
        "placeName": "MARKHAM",
        "streetNameDisplayText": "CHRISTIAN RITTER DR, MARKHAM"
      }
    ]
  },
  {
    "postal": "L6C4Y0",
    "result": []
  },
  {
    "postal": "L6C2T4",
    "result": [
      {
        "electoralDistricts": [
          {
            "election": null,
            "id": 58,
            "name": "Markham—Unionville"
          }
        ],
        "pollDivisionIds": [
          10139665
        ],
        "postalCode": "L6C2T4",
        "streetName": "MACRILL",
        "streetDirectionId": null,
        "streetTypeId": "RD",
        "placeName": "MARKHAM",
        "streetNameDisplayText": "MACRILL RD, MARKHAM"
      },
      {
        "electoralDistricts": [
          {
            "election": null,
            "id": 58,
            "name": "Markham—Unionville"
          }
        ],
        "pollDivisionIds": [
          10139665
        ],
        "postalCode": "L6C2T4",
        "streetName": "MUMBERSON",
        "streetDirectionId": null,
        "streetTypeId": "CRT",
        "placeName": "MARKHAM",
        "streetNameDisplayText": "MUMBERSON CRT, MARKHAM"
      },
      {
        "electoralDistricts": [
          {
            "election": null,
            "id": 58,
            "name": "Markham—Unionville"
          }
        ],
        "pollDivisionIds": [
          10139665
        ],
        "postalCode": "L6C2T4",
        "streetName": "PEMBROOKE",
        "streetDirectionId": null,
        "streetTypeId": "RD",
        "placeName": "MARKHAM",
        "streetNameDisplayText": "PEMBROOKE RD, MARKHAM"
      },
      {
        "electoralDistricts": [
          {
            "election": null,
            "id": 58,
            "name": "Markham—Unionville"
          }
        ],
        "pollDivisionIds": [
          10139665
        ],
        "postalCode": "L6C2T4",
        "streetName": "RENBERG",
        "streetDirectionId": null,
        "streetTypeId": "DR",
        "placeName": "MARKHAM",
        "streetNameDisplayText": "RENBERG DR, MARKHAM"
      },
      {
        "electoralDistricts": [
          {
            "election": null,
            "id": 58,
            "name": "Markham—Unionville"
          }
        ],
        "pollDivisionIds": [
          10139665
        ],
        "postalCode": "L6C2T4",
        "streetName": "ROSEWELL",
        "streetDirectionId": null,
        "streetTypeId": "CRES",
        "placeName": "MARKHAM",
        "streetNameDisplayText": "ROSEWELL CRES, MARKHAM"
      }
    ]
  },
  {
    "postal": "L6C2S3",
    "result": [
      {
        "electoralDistricts": [
          {
            "election": null,
            "id": 58,
            "name": "Markham—Unionville"
          }
        ],
        "pollDivisionIds": [
          10139663
        ],
        "postalCode": "L6C2S3",
        "streetName": "HILLMOUNT",
        "streetDirectionId": null,
        "streetTypeId": "RD",
        "placeName": "MARKHAM",
        "streetNameDisplayText": "HILLMOUNT RD, MARKHAM"
      }
    ]
  },
  {
    "postal": "L6C0K0",
    "result": []
  },
  {
    "postal": "L6C5N1",
    "result": []
  },
  {
    "postal": "L6C7T0",
    "result": []
  },
  {
    "postal": "L6C9N2",
    "result": []
  },
  {
    "postal": "L6C5L1",
    "result": []
  },
  {
    "postal": "L6C7G5",
    "result": []
  },
  {
    "postal": "L6C6K2",
    "result": []
  },
  {
    "postal": "L6C6P9",
    "result": []
  },
  {
    "postal": "L6C0E6",
    "result": [
      {
        "electoralDistricts": [
          {
            "election": null,
            "id": 58,
            "name": "Markham—Unionville"
          }
        ],
        "pollDivisionIds": [
          10139660
        ],
        "postalCode": "L6C0E6",
        "streetName": "DUKE OF YORK",
        "streetDirectionId": null,
        "streetTypeId": "ST",
        "placeName": "MARKHAM",
        "streetNameDisplayText": "DUKE OF YORK ST, MARKHAM"
      },
      {
        "electoralDistricts": [
          {
            "election": null,
            "id": 58,
            "name": "Markham—Unionville"
          }
        ],
        "pollDivisionIds": [
          10139660
        ],
        "postalCode": "L6C0E6",
        "streetName": "WALTER SCOTT",
        "streetDirectionId": null,
        "streetTypeId": "CRES",
        "placeName": "MARKHAM",
        "streetNameDisplayText": "WALTER SCOTT CRES, MARKHAM"
      }
    ]
  },
  {
    "postal": "L6C8R9",
    "result": []
  },
  {
    "postal": "L6C3G9",
    "result": [
      {
        "electoralDistricts": [
          {
            "election": null,
            "id": 58,
            "name": "Markham—Unionville"
          }
        ],
        "pollDivisionIds": [
          10139662
        ],
        "postalCode": "L6C3G9",
        "streetName": "CASTLEVIEW",
        "streetDirectionId": null,
        "streetTypeId": "CRES",
        "placeName": "MARKHAM",
        "streetNameDisplayText": "CASTLEVIEW CRES, MARKHAM"
      },
      {
        "electoralDistricts": [
          {
            "election": null,
            "id": 58,
            "name": "Markham—Unionville"
          }
        ],
        "pollDivisionIds": [
          10139662
        ],
        "postalCode": "L6C3G9",
        "streetName": "HAZELTON",
        "streetDirectionId": null,
        "streetTypeId": "AVE",
        "placeName": "MARKHAM",
        "streetNameDisplayText": "HAZELTON AVE, MARKHAM"
      },
      {
        "electoralDistricts": [
          {
            "election": null,
            "id": 58,
            "name": "Markham—Unionville"
          }
        ],
        "pollDivisionIds": [
          10139662
        ],
        "postalCode": "L6C3G9",
        "streetName": "RIVER VALLEY",
        "streetDirectionId": null,
        "streetTypeId": "CRES",
        "placeName": "MARKHAM",
        "streetNameDisplayText": "RIVER VALLEY CRES, MARKHAM"
      }
    ]
  },
  {
    "postal": "L6C0V7",
    "result": [
      {
        "electoralDistricts": [
          {
            "election": null,
            "id": 58,
            "name": "Markham—Unionville"
          }
        ],
        "pollDivisionIds": [
          10139670
        ],
        "postalCode": "L6C0V7",
        "streetName": "THE BRIDLE",
        "streetDirectionId": null,
        "streetTypeId": "WALK",
        "placeName": "MARKHAM",
        "streetNameDisplayText": "THE BRIDLE WALK, MARKHAM"
      },
      {
        "electoralDistricts": [
          {
            "election": null,
            "id": 58,
            "name": "Markham—Unionville"
          }
        ],
        "pollDivisionIds": [
          10139670
        ],
        "postalCode": "L6C0V7",
        "streetName": "WILFRED MURISON",
        "streetDirectionId": null,
        "streetTypeId": "AVE",
        "placeName": "MARKHAM",
        "streetNameDisplayText": "WILFRED MURISON AVE, MARKHAM"
      },
      {
        "electoralDistricts": [
          {
            "election": null,
            "id": 58,
            "name": "Markham—Unionville"
          }
        ],
        "pollDivisionIds": [
          10139670
        ],
        "postalCode": "L6C0V7",
        "streetName": "WILLIAM BARTLETT",
        "streetDirectionId": null,
        "streetTypeId": "DR",
        "placeName": "MARKHAM",
        "streetNameDisplayText": "WILLIAM BARTLETT DR, MARKHAM"
      }
    ]
  },
  {
    "postal": "L6C2Z1",
    "result": [
      {
        "electoralDistricts": [
          {
            "election": null,
            "id": 58,
            "name": "Markham—Unionville"
          }
        ],
        "pollDivisionIds": [
          10139663
        ],
        "postalCode": "L6C2Z1",
        "streetName": "LAKESPRING",
        "streetDirectionId": null,
        "streetTypeId": "DR",
        "placeName": "MARKHAM",
        "streetNameDisplayText": "LAKESPRING DR, MARKHAM"
      }
    ]
  },
  {
    "postal": "L6C7N1",
    "result": []
  },
  {
    "postal": "L6C3C6",
    "result": [
      {
        "electoralDistricts": [
          {
            "election": null,
            "id": 58,
            "name": "Markham—Unionville"
          }
        ],
        "pollDivisionIds": [
          10139662
        ],
        "postalCode": "L6C3C6",
        "streetName": "ARTISAN",
        "streetDirectionId": null,
        "streetTypeId": "TRAIL",
        "placeName": "MARKHAM",
        "streetNameDisplayText": "ARTISAN TRAIL, MARKHAM"
      },
      {
        "electoralDistricts": [
          {
            "election": null,
            "id": 58,
            "name": "Markham—Unionville"
          }
        ],
        "pollDivisionIds": [
          10139662
        ],
        "postalCode": "L6C3C6",
        "streetName": "HARRY SWINGLER",
        "streetDirectionId": null,
        "streetTypeId": "DR",
        "placeName": "MARKHAM",
        "streetNameDisplayText": "HARRY SWINGLER DR, MARKHAM"
      },
      {
        "electoralDistricts": [
          {
            "election": null,
            "id": 58,
            "name": "Markham—Unionville"
          }
        ],
        "pollDivisionIds": [
          10139662
        ],
        "postalCode": "L6C3C6",
        "streetName": "VINE CLIFF",
        "streetDirectionId": null,
        "streetTypeId": "BLVD",
        "placeName": "MARKHAM",
        "streetNameDisplayText": "VINE CLIFF BLVD, MARKHAM"
      }
    ]
  },
  {
    "postal": "L6C4M1",
    "result": []
  },
  {
    "postal": "L6C9K2",
    "result": []
  },
  {
    "postal": "L6C9S6",
    "result": []
  },
  {
    "postal": "L6C4X1",
    "result": []
  },
  {
    "postal": "L6C8W2",
    "result": []
  },
  {
    "postal": "L6C7N2",
    "result": []
  },
  {
    "postal": "L6C8S3",
    "result": []
  },
  {
    "postal": "L6C4V0",
    "result": []
  },
  {
    "postal": "L6C6W4",
    "result": []
  },
  {
    "postal": "L6C5M1",
    "result": []
  },
  {
    "postal": "L6C0S4",
    "result": [
      {
        "electoralDistricts": [
          {
            "election": null,
            "id": 58,
            "name": "Markham—Unionville"
          }
        ],
        "pollDivisionIds": [
          10139670
        ],
        "postalCode": "L6C0S4",
        "streetName": "BROCK",
        "streetDirectionId": null,
        "streetTypeId": "AVE",
        "placeName": "MARKHAM",
        "streetNameDisplayText": "BROCK AVE, MARKHAM"
      },
      {
        "electoralDistricts": [
          {
            "election": null,
            "id": 58,
            "name": "Markham—Unionville"
          }
        ],
        "pollDivisionIds": [
          10139670
        ],
        "postalCode": "L6C0S4",
        "streetName": "WILFRED MURISON",
        "streetDirectionId": null,
        "streetTypeId": "AVE",
        "placeName": "MARKHAM",
        "streetNameDisplayText": "WILFRED MURISON AVE, MARKHAM"
      },
      {
        "electoralDistricts": [
          {
            "election": null,
            "id": 58,
            "name": "Markham—Unionville"
          }
        ],
        "pollDivisionIds": [
          10139670
        ],
        "postalCode": "L6C0S4",
        "streetName": "WILLIAM BERCZY",
        "streetDirectionId": null,
        "streetTypeId": "BLVD",
        "placeName": "MARKHAM",
        "streetNameDisplayText": "WILLIAM BERCZY BLVD, MARKHAM"
      }
    ]
  },
  {
    "postal": "L6C5X6",
    "result": []
  },
  {
    "postal": "L6C8L5",
    "result": []
  },
  {
    "postal": "L6C5M8",
    "result": []
  },
  {
    "postal": "L6C2G3",
    "result": [
      {
        "electoralDistricts": [
          {
            "election": null,
            "id": 58,
            "name": "Markham—Unionville"
          }
        ],
        "pollDivisionIds": [
          10139666
        ],
        "postalCode": "L6C2G3",
        "streetName": "MAJESTIC",
        "streetDirectionId": null,
        "streetTypeId": "DR",
        "placeName": "MARKHAM",
        "streetNameDisplayText": "MAJESTIC DR, MARKHAM"
      }
    ]
  },
  {
    "postal": "L6C8E4",
    "result": []
  },
  {
    "postal": "L6C7S9",
    "result": []
  },
  {
    "postal": "L6C1K3",
    "result": [
      {
        "electoralDistricts": [
          {
            "election": null,
            "id": 58,
            "name": "Markham—Unionville"
          }
        ],
        "pollDivisionIds": [
          10139664
        ],
        "postalCode": "L6C1K3",
        "streetName": "OLD 17TH",
        "streetDirectionId": null,
        "streetTypeId": "AVE",
        "placeName": "MARKHAM",
        "streetNameDisplayText": "OLD 17TH AVE, MARKHAM"
      }
    ]
  },
  {
    "postal": "L6C4E1",
    "result": []
  },
  {
    "postal": "L6C4R2",
    "result": []
  },
  {
    "postal": "L6C6T0",
    "result": []
  },
  {
    "postal": "L6C3K5",
    "result": []
  },
  {
    "postal": "L6C3S3",
    "result": []
  },
  {
    "postal": "L6C3L4",
    "result": []
  },
  {
    "postal": "L6C9Y2",
    "result": []
  },
  {
    "postal": "L6C1E0",
    "result": []
  },
  {
    "postal": "L6C9A4",
    "result": []
  },
  {
    "postal": "L6C1L3",
    "result": [
      {
        "electoralDistricts": [
          {
            "election": null,
            "id": 58,
            "name": "Markham—Unionville"
          }
        ],
        "pollDivisionIds": [
          10139661
        ],
        "postalCode": "L6C1L3",
        "streetName": "ELGIN MILLS",
        "streetDirectionId": "E",
        "streetTypeId": "RD",
        "placeName": "MARKHAM",
        "streetNameDisplayText": "ELGIN MILLS RD E, MARKHAM"
      }
    ]
  },
  {
    "postal": "L6C6N1",
    "result": []
  },
  {
    "postal": "L6C6G7",
    "result": []
  },
  {
    "postal": "L6C7W1",
    "result": []
  },
  {
    "postal": "L6C4M6",
    "result": []
  },
  {
    "postal": "L6C1K0",
    "result": []
  },
  {
    "postal": "L6C3E2",
    "result": [
      {
        "electoralDistricts": [
          {
            "election": null,
            "id": 58,
            "name": "Markham—Unionville"
          }
        ],
        "pollDivisionIds": [
          10139662
        ],
        "postalCode": "L6C3E2",
        "streetName": "HARRY SWINGLER",
        "streetDirectionId": null,
        "streetTypeId": "DR",
        "placeName": "MARKHAM",
        "streetNameDisplayText": "HARRY SWINGLER DR, MARKHAM"
      },
      {
        "electoralDistricts": [
          {
            "election": null,
            "id": 58,
            "name": "Markham—Unionville"
          }
        ],
        "pollDivisionIds": [
          10139662
        ],
        "postalCode": "L6C3E2",
        "streetName": "LARKMEAD",
        "streetDirectionId": null,
        "streetTypeId": "CRES",
        "placeName": "MARKHAM",
        "streetNameDisplayText": "LARKMEAD CRES, MARKHAM"
      },
      {
        "electoralDistricts": [
          {
            "election": null,
            "id": 58,
            "name": "Markham—Unionville"
          }
        ],
        "pollDivisionIds": [
          10139662
        ],
        "postalCode": "L6C3E2",
        "streetName": "VINE CLIFF",
        "streetDirectionId": null,
        "streetTypeId": "BLVD",
        "placeName": "MARKHAM",
        "streetNameDisplayText": "VINE CLIFF BLVD, MARKHAM"
      }
    ]
  },
  {
    "postal": "L6C5H4",
    "result": []
  },
  {
    "postal": "L6C1K7",
    "result": []
  },
  {
    "postal": "L6C0H0",
    "result": []
  },
  {
    "postal": "L6C0J3",
    "result": [
      {
        "electoralDistricts": [
          {
            "election": null,
            "id": 58,
            "name": "Markham—Unionville"
          }
        ],
        "pollDivisionIds": [
          10139660
        ],
        "postalCode": "L6C0J3",
        "streetName": "BEMBRIDGE",
        "streetDirectionId": null,
        "streetTypeId": "DR",
        "placeName": "MARKHAM",
        "streetNameDisplayText": "BEMBRIDGE DR, MARKHAM"
      },
      {
        "electoralDistricts": [
          {
            "election": null,
            "id": 58,
            "name": "Markham—Unionville"
          }
        ],
        "pollDivisionIds": [
          10139660
        ],
        "postalCode": "L6C0J3",
        "streetName": "LEBARR",
        "streetDirectionId": null,
        "streetTypeId": "RD",
        "placeName": "MARKHAM",
        "streetNameDisplayText": "LEBARR RD, MARKHAM"
      },
      {
        "electoralDistricts": [
          {
            "election": null,
            "id": 58,
            "name": "Markham—Unionville"
          }
        ],
        "pollDivisionIds": [
          10139660
        ],
        "postalCode": "L6C0J3",
        "streetName": "MURISON",
        "streetDirectionId": null,
        "streetTypeId": "DR",
        "placeName": "MARKHAM",
        "streetNameDisplayText": "MURISON DR, MARKHAM"
      }
    ]
  },
  {
    "postal": "L6C1X6",
    "result": [
      {
        "electoralDistricts": [
          {
            "election": null,
            "id": 58,
            "name": "Markham—Unionville"
          }
        ],
        "pollDivisionIds": [
          10139665
        ],
        "postalCode": "L6C1X6",
        "streetName": "REANSBURY",
        "streetDirectionId": null,
        "streetTypeId": "CRES",
        "placeName": "MARKHAM",
        "streetNameDisplayText": "REANSBURY CRES, MARKHAM"
      },
      {
        "electoralDistricts": [
          {
            "election": null,
            "id": 58,
            "name": "Markham—Unionville"
          }
        ],
        "pollDivisionIds": [
          10139665
        ],
        "postalCode": "L6C1X6",
        "streetName": "TEA ROSE",
        "streetDirectionId": null,
        "streetTypeId": "ST",
        "placeName": "MARKHAM",
        "streetNameDisplayText": "TEA ROSE ST, MARKHAM"
      }
    ]
  },
  {
    "postal": "L6C2Z6",
    "result": [
      {
        "electoralDistricts": [
          {
            "election": null,
            "id": 58,
            "name": "Markham—Unionville"
          }
        ],
        "pollDivisionIds": [
          10139663
        ],
        "postalCode": "L6C2Z6",
        "streetName": "BRIARGLEN",
        "streetDirectionId": null,
        "streetTypeId": "RD",
        "placeName": "MARKHAM",
        "streetNameDisplayText": "BRIARGLEN RD, MARKHAM"
      },
      {
        "electoralDistricts": [
          {
            "election": null,
            "id": 58,
            "name": "Markham—Unionville"
          }
        ],
        "pollDivisionIds": [
          10139663
        ],
        "postalCode": "L6C2Z6",
        "streetName": "MARKSHIRE",
        "streetDirectionId": null,
        "streetTypeId": "RD",
        "placeName": "MARKHAM",
        "streetNameDisplayText": "MARKSHIRE RD, MARKHAM"
      },
      {
        "electoralDistricts": [
          {
            "election": null,
            "id": 58,
            "name": "Markham—Unionville"
          }
        ],
        "pollDivisionIds": [
          10139663
        ],
        "postalCode": "L6C2Z6",
        "streetName": "MOSS CREEK",
        "streetDirectionId": null,
        "streetTypeId": "BLVD",
        "placeName": "MARKHAM",
        "streetNameDisplayText": "MOSS CREEK BLVD, MARKHAM"
      }
    ]
  },
  {
    "postal": "L6C4R9",
    "result": []
  },
  {
    "postal": "L6C0W8",
    "result": [
      {
        "electoralDistricts": [
          {
            "election": null,
            "id": 58,
            "name": "Markham—Unionville"
          }
        ],
        "pollDivisionIds": [
          10139670
        ],
        "postalCode": "L6C0W8",
        "streetName": "HARBORD",
        "streetDirectionId": null,
        "streetTypeId": "ST",
        "placeName": "MARKHAM",
        "streetNameDisplayText": "HARBORD ST, MARKHAM"
      },
      {
        "electoralDistricts": [
          {
            "election": null,
            "id": 58,
            "name": "Markham—Unionville"
          }
        ],
        "pollDivisionIds": [
          10139670
        ],
        "postalCode": "L6C0W8",
        "streetName": "HENRY BAUER",
        "streetDirectionId": null,
        "streetTypeId": "AVE",
        "placeName": "MARKHAM",
        "streetNameDisplayText": "HENRY BAUER AVE, MARKHAM"
      },
      {
        "electoralDistricts": [
          {
            "election": null,
            "id": 58,
            "name": "Markham—Unionville"
          }
        ],
        "pollDivisionIds": [
          10139670
        ],
        "postalCode": "L6C0W8",
        "streetName": "KENNEDY",
        "streetDirectionId": null,
        "streetTypeId": "RD",
        "placeName": "MARKHAM",
        "streetNameDisplayText": "KENNEDY RD, MARKHAM"
      }
    ]
  },
  {
    "postal": "L6C1L4",
    "result": [
      {
        "electoralDistricts": [
          {
            "election": null,
            "id": 58,
            "name": "Markham—Unionville"
          }
        ],
        "pollDivisionIds": [
          10139661
        ],
        "postalCode": "L6C1L4",
        "streetName": "ELGIN MILLS",
        "streetDirectionId": "E",
        "streetTypeId": "RD",
        "placeName": "MARKHAM",
        "streetNameDisplayText": "ELGIN MILLS RD E, MARKHAM"
      }
    ]
  },
  {
    "postal": "L6C0C8",
    "result": [
      {
        "electoralDistricts": [
          {
            "election": null,
            "id": 58,
            "name": "Markham—Unionville"
          }
        ],
        "pollDivisionIds": [
          10139660
        ],
        "postalCode": "L6C0C8",
        "streetName": "BETTY ROMAN",
        "streetDirectionId": null,
        "streetTypeId": "BLVD",
        "placeName": "MARKHAM",
        "streetNameDisplayText": "BETTY ROMAN BLVD, MARKHAM"
      },
      {
        "electoralDistricts": [
          {
            "election": null,
            "id": 58,
            "name": "Markham—Unionville"
          }
        ],
        "pollDivisionIds": [
          10139660
        ],
        "postalCode": "L6C0C8",
        "streetName": "CHARITY",
        "streetDirectionId": null,
        "streetTypeId": "CRES",
        "placeName": "MARKHAM",
        "streetNameDisplayText": "CHARITY CRES, MARKHAM"
      },
      {
        "electoralDistricts": [
          {
            "election": null,
            "id": 58,
            "name": "Markham—Unionville"
          }
        ],
        "pollDivisionIds": [
          10139660
        ],
        "postalCode": "L6C0C8",
        "streetName": "REFLECTION",
        "streetDirectionId": null,
        "streetTypeId": "RD",
        "placeName": "MARKHAM",
        "streetNameDisplayText": "REFLECTION RD, MARKHAM"
      }
    ]
  },
  {
    "postal": "L6C9X7",
    "result": []
  },
  {
    "postal": "L6C4T1",
    "result": []
  },
  {
    "postal": "L6C0M0",
    "result": []
  },
  {
    "postal": "L6C6A2",
    "result": []
  },
  {
    "postal": "L6C9S8",
    "result": []
  },
  {
    "postal": "L6C9T4",
    "result": []
  },
  {
    "postal": "L6C9Y4",
    "result": []
  },
  {
    "postal": "L6C6G5",
    "result": []
  },
  {
    "postal": "L6C6H9",
    "result": []
  },
  {
    "postal": "L6C2P3",
    "result": [
      {
        "electoralDistricts": [
          {
            "election": null,
            "id": 58,
            "name": "Markham—Unionville"
          }
        ],
        "pollDivisionIds": [
          10139670
        ],
        "postalCode": "L6C2P3",
        "streetName": "CYNTHIA JEAN",
        "streetDirectionId": null,
        "streetTypeId": "ST",
        "placeName": "MARKHAM",
        "streetNameDisplayText": "CYNTHIA JEAN ST, MARKHAM"
      },
      {
        "electoralDistricts": [
          {
            "election": null,
            "id": 58,
            "name": "Markham—Unionville"
          }
        ],
        "pollDivisionIds": [
          10139670
        ],
        "postalCode": "L6C2P3",
        "streetName": "LORNE GLEN",
        "streetDirectionId": null,
        "streetTypeId": "ST",
        "placeName": "MARKHAM",
        "streetNameDisplayText": "LORNE GLEN ST, MARKHAM"
      },
      {
        "electoralDistricts": [
          {
            "election": null,
            "id": 58,
            "name": "Markham—Unionville"
          }
        ],
        "pollDivisionIds": [
          10139670
        ],
        "postalCode": "L6C2P3",
        "streetName": "TANNIS",
        "streetDirectionId": null,
        "streetTypeId": "ST",
        "placeName": "MARKHAM",
        "streetNameDisplayText": "TANNIS ST, MARKHAM"
      },
      {
        "electoralDistricts": [
          {
            "election": null,
            "id": 58,
            "name": "Markham—Unionville"
          }
        ],
        "pollDivisionIds": [
          10139670
        ],
        "postalCode": "L6C2P3",
        "streetName": "VISCOUNT",
        "streetDirectionId": null,
        "streetTypeId": "DR",
        "placeName": "MARKHAM",
        "streetNameDisplayText": "VISCOUNT DR, MARKHAM"
      }
    ]
  },
  {
    "postal": "L6C1T6",
    "result": [
      {
        "electoralDistricts": [
          {
            "election": null,
            "id": 58,
            "name": "Markham—Unionville"
          }
        ],
        "pollDivisionIds": [
          10139663
        ],
        "postalCode": "L6C1T6",
        "streetName": "MARKLAND",
        "streetDirectionId": null,
        "streetTypeId": "ST",
        "placeName": "MARKHAM",
        "streetNameDisplayText": "MARKLAND ST, MARKHAM"
      }
    ]
  },
  {
    "postal": "L6C4P6",
    "result": []
  },
  {
    "postal": "L6C3K1",
    "result": []
  },
  {
    "postal": "L6C6X4",
    "result": []
  },
  {
    "postal": "L6C4M8",
    "result": []
  },
  {
    "postal": "L6C2Y1",
    "result": [
      {
        "electoralDistricts": [
          {
            "election": null,
            "id": 58,
            "name": "Markham—Unionville"
          }
        ],
        "pollDivisionIds": [
          10139667
        ],
        "postalCode": "L6C2Y1",
        "streetName": "CASTLEMORE",
        "streetDirectionId": null,
        "streetTypeId": "AVE",
        "placeName": "MARKHAM",
        "streetNameDisplayText": "CASTLEMORE AVE, MARKHAM"
      },
      {
        "electoralDistricts": [
          {
            "election": null,
            "id": 58,
            "name": "Markham—Unionville"
          }
        ],
        "pollDivisionIds": [
          10139667
        ],
        "postalCode": "L6C2Y1",
        "streetName": "GLENHAVEN",
        "streetDirectionId": null,
        "streetTypeId": "ST",
        "placeName": "MARKHAM",
        "streetNameDisplayText": "GLENHAVEN ST, MARKHAM"
      },
      {
        "electoralDistricts": [
          {
            "election": null,
            "id": 58,
            "name": "Markham—Unionville"
          }
        ],
        "pollDivisionIds": [
          10139667
        ],
        "postalCode": "L6C2Y1",
        "streetName": "STONEBRIDGE",
        "streetDirectionId": null,
        "streetTypeId": "DR",
        "placeName": "MARKHAM",
        "streetNameDisplayText": "STONEBRIDGE DR, MARKHAM"
      }
    ]
  },
  {
    "postal": "L6C6M1",
    "result": []
  },
  {
    "postal": "L6C5L8",
    "result": []
  },
  {
    "postal": "L6C3P6",
    "result": []
  },
  {
    "postal": "L6C9A5",
    "result": []
  },
  {
    "postal": "L6C7K1",
    "result": []
  },
  {
    "postal": "L6C3J4",
    "result": []
  },
  {
    "postal": "L6C5E7",
    "result": []
  },
  {
    "postal": "L6C3A7",
    "result": [
      {
        "electoralDistricts": [
          {
            "election": null,
            "id": 58,
            "name": "Markham—Unionville"
          }
        ],
        "pollDivisionIds": [
          10139667
        ],
        "postalCode": "L6C3A7",
        "streetName": "BUR OAK",
        "streetDirectionId": null,
        "streetTypeId": "AVE",
        "placeName": "MARKHAM",
        "streetNameDisplayText": "BUR OAK AVE, MARKHAM"
      },
      {
        "electoralDistricts": [
          {
            "election": null,
            "id": 58,
            "name": "Markham—Unionville"
          }
        ],
        "pollDivisionIds": [
          10139667
        ],
        "postalCode": "L6C3A7",
        "streetName": "DEVONWOOD",
        "streetDirectionId": null,
        "streetTypeId": "DR",
        "placeName": "MARKHAM",
        "streetNameDisplayText": "DEVONWOOD DR, MARKHAM"
      },
      {
        "electoralDistricts": [
          {
            "election": null,
            "id": 58,
            "name": "Markham—Unionville"
          }
        ],
        "pollDivisionIds": [
          10139667
        ],
        "postalCode": "L6C3A7",
        "streetName": "STONEBRIDGE",
        "streetDirectionId": null,
        "streetTypeId": "DR",
        "placeName": "MARKHAM",
        "streetNameDisplayText": "STONEBRIDGE DR, MARKHAM"
      }
    ]
  },
  {
    "postal": "L6C1B9",
    "result": [
      {
        "electoralDistricts": [
          {
            "election": null,
            "id": 58,
            "name": "Markham—Unionville"
          }
        ],
        "pollDivisionIds": [
          10139665
        ],
        "postalCode": "L6C1B9",
        "streetName": "CACHET",
        "streetDirectionId": null,
        "streetTypeId": "PKY",
        "placeName": "MARKHAM",
        "streetNameDisplayText": "CACHET PKY, MARKHAM"
      }
    ]
  },
  {
    "postal": "L6C9E8",
    "result": []
  },
  {
    "postal": "L6C1C9",
    "result": [
      {
        "electoralDistricts": [
          {
            "election": null,
            "id": 58,
            "name": "Markham—Unionville"
          }
        ],
        "pollDivisionIds": [
          10139664
        ],
        "postalCode": "L6C1C9",
        "streetName": "BERNADOTTE",
        "streetDirectionId": null,
        "streetTypeId": "DR",
        "placeName": "MARKHAM",
        "streetNameDisplayText": "BERNADOTTE DR, MARKHAM"
      }
    ]
  },
  {
    "postal": "L6C3B5",
    "result": []
  },
  {
    "postal": "L6C8R0",
    "result": []
  },
  {
    "postal": "L6C3P2",
    "result": []
  },
  {
    "postal": "L6C5V4",
    "result": []
  },
  {
    "postal": "L6C4H0",
    "result": []
  },
  {
    "postal": "L6C4S7",
    "result": []
  },
  {
    "postal": "L6C6C2",
    "result": []
  },
  {
    "postal": "L6C8W3",
    "result": []
  },
  {
    "postal": "L6C4M5",
    "result": []
  },
  {
    "postal": "L6C5T1",
    "result": []
  },
  {
    "postal": "L6C3B3",
    "result": [
      {
        "electoralDistricts": [
          {
            "election": null,
            "id": 58,
            "name": "Markham—Unionville"
          }
        ],
        "pollDivisionIds": [
          10139661
        ],
        "postalCode": "L6C3B3",
        "streetName": "HARPER HILL",
        "streetDirectionId": null,
        "streetTypeId": "RD",
        "placeName": "MARKHAM",
        "streetNameDisplayText": "HARPER HILL RD, MARKHAM"
      },
      {
        "electoralDistricts": [
          {
            "election": null,
            "id": 58,
            "name": "Markham—Unionville"
          }
        ],
        "pollDivisionIds": [
          10139661
        ],
        "postalCode": "L6C3B3",
        "streetName": "THE FAIRWAYS",
        "streetDirectionId": null,
        "streetTypeId": null,
        "placeName": "MARKHAM",
        "streetNameDisplayText": "THE FAIRWAYS, MARKHAM"
      }
    ]
  },
  {
    "postal": "L6C6C6",
    "result": []
  },
  {
    "postal": "L6C7N8",
    "result": []
  },
  {
    "postal": "L6C2Y3",
    "result": [
      {
        "electoralDistricts": [
          {
            "election": null,
            "id": 58,
            "name": "Markham—Unionville"
          }
        ],
        "pollDivisionIds": [
          10139670
        ],
        "postalCode": "L6C2Y3",
        "streetName": "THE BRIDLE",
        "streetDirectionId": null,
        "streetTypeId": "WALK",
        "placeName": "MARKHAM",
        "streetNameDisplayText": "THE BRIDLE WALK, MARKHAM"
      },
      {
        "electoralDistricts": [
          {
            "election": null,
            "id": 58,
            "name": "Markham—Unionville"
          }
        ],
        "pollDivisionIds": [
          10139663,
          10139670
        ],
        "postalCode": "L6C2Y3",
        "streetName": "WEATHERILL",
        "streetDirectionId": null,
        "streetTypeId": "RD",
        "placeName": "MARKHAM",
        "streetNameDisplayText": "WEATHERILL RD, MARKHAM"
      }
    ]
  },
  {
    "postal": "L6C2R6",
    "result": [
      {
        "electoralDistricts": [
          {
            "election": null,
            "id": 58,
            "name": "Markham—Unionville"
          }
        ],
        "pollDivisionIds": [
          10139667
        ],
        "postalCode": "L6C2R6",
        "streetName": "AYLESBURY",
        "streetDirectionId": null,
        "streetTypeId": "GATE",
        "placeName": "MARKHAM",
        "streetNameDisplayText": "AYLESBURY GATE, MARKHAM"
      },
      {
        "electoralDistricts": [
          {
            "election": null,
            "id": 58,
            "name": "Markham—Unionville"
          }
        ],
        "pollDivisionIds": [
          10139667
        ],
        "postalCode": "L6C2R6",
        "streetName": "CASTLEMORE",
        "streetDirectionId": null,
        "streetTypeId": "AVE",
        "placeName": "MARKHAM",
        "streetNameDisplayText": "CASTLEMORE AVE, MARKHAM"
      },
      {
        "electoralDistricts": [
          {
            "election": null,
            "id": 58,
            "name": "Markham—Unionville"
          }
        ],
        "pollDivisionIds": [
          10139667
        ],
        "postalCode": "L6C2R6",
        "streetName": "FULHAM",
        "streetDirectionId": null,
        "streetTypeId": "GATE",
        "placeName": "MARKHAM",
        "streetNameDisplayText": "FULHAM GATE, MARKHAM"
      },
      {
        "electoralDistricts": [
          {
            "election": null,
            "id": 58,
            "name": "Markham—Unionville"
          }
        ],
        "pollDivisionIds": [
          10139667
        ],
        "postalCode": "L6C2R6",
        "streetName": "LAURAVIEW",
        "streetDirectionId": null,
        "streetTypeId": "CRES",
        "placeName": "MARKHAM",
        "streetNameDisplayText": "LAURAVIEW CRES, MARKHAM"
      }
    ]
  },
  {
    "postal": "L6C7N3",
    "result": []
  },
  {
    "postal": "L6C8J2",
    "result": []
  },
  {
    "postal": "L6C6A9",
    "result": []
  },
  {
    "postal": "L6C3V2",
    "result": []
  },
  {
    "postal": "L6C2N3",
    "result": [
      {
        "electoralDistricts": [
          {
            "election": null,
            "id": 58,
            "name": "Markham—Unionville"
          }
        ],
        "pollDivisionIds": [
          10139667
        ],
        "postalCode": "L6C2N3",
        "streetName": "ABBOTSBURY",
        "streetDirectionId": null,
        "streetTypeId": "LANE",
        "placeName": "MARKHAM",
        "streetNameDisplayText": "ABBOTSBURY LANE, MARKHAM"
      },
      {
        "electoralDistricts": [
          {
            "election": null,
            "id": 58,
            "name": "Markham—Unionville"
          }
        ],
        "pollDivisionIds": [
          10139667
        ],
        "postalCode": "L6C2N3",
        "streetName": "WILTSHIRE",
        "streetDirectionId": null,
        "streetTypeId": "DR",
        "placeName": "MARKHAM",
        "streetNameDisplayText": "WILTSHIRE DR, MARKHAM"
      }
    ]
  },
  {
    "postal": "L6C1S5",
    "result": [
      {
        "electoralDistricts": [
          {
            "election": null,
            "id": 58,
            "name": "Markham—Unionville"
          }
        ],
        "pollDivisionIds": [
          10139664
        ],
        "postalCode": "L6C1S5",
        "streetName": "MOSES",
        "streetDirectionId": null,
        "streetTypeId": "CRES",
        "placeName": "MARKHAM",
        "streetNameDisplayText": "MOSES CRES, MARKHAM"
      }
    ]
  },
  {
    "postal": "L6C4T7",
    "result": []
  },
  {
    "postal": "L6C6Y7",
    "result": []
  },
  {
    "postal": "L6C0W7",
    "result": [
      {
        "electoralDistricts": [
          {
            "election": null,
            "id": 58,
            "name": "Markham—Unionville"
          }
        ],
        "pollDivisionIds": [
          10139670
        ],
        "postalCode": "L6C0W7",
        "streetName": "AKSEL RINCK",
        "streetDirectionId": null,
        "streetTypeId": "DR",
        "placeName": "MARKHAM",
        "streetNameDisplayText": "AKSEL RINCK DR, MARKHAM"
      },
      {
        "electoralDistricts": [
          {
            "election": null,
            "id": 58,
            "name": "Markham—Unionville"
          }
        ],
        "pollDivisionIds": [
          10139670
        ],
        "postalCode": "L6C0W7",
        "streetName": "HARBORD",
        "streetDirectionId": null,
        "streetTypeId": "ST",
        "placeName": "MARKHAM",
        "streetNameDisplayText": "HARBORD ST, MARKHAM"
      }
    ]
  },
  {
    "postal": "L6C2W9",
    "result": [
      {
        "electoralDistricts": [
          {
            "election": null,
            "id": 58,
            "name": "Markham—Unionville"
          }
        ],
        "pollDivisionIds": [
          10139670
        ],
        "postalCode": "L6C2W9",
        "streetName": "CYNTHIA JEAN",
        "streetDirectionId": null,
        "streetTypeId": "ST",
        "placeName": "MARKHAM",
        "streetNameDisplayText": "CYNTHIA JEAN ST, MARKHAM"
      },
      {
        "electoralDistricts": [
          {
            "election": null,
            "id": 58,
            "name": "Markham—Unionville"
          }
        ],
        "pollDivisionIds": [
          10139670
        ],
        "postalCode": "L6C2W9",
        "streetName": "GABLE",
        "streetDirectionId": null,
        "streetTypeId": "AVE",
        "placeName": "MARKHAM",
        "streetNameDisplayText": "GABLE AVE, MARKHAM"
      },
      {
        "electoralDistricts": [
          {
            "election": null,
            "id": 58,
            "name": "Markham—Unionville"
          }
        ],
        "pollDivisionIds": [
          10139670
        ],
        "postalCode": "L6C2W9",
        "streetName": "ORCHARD HILL",
        "streetDirectionId": null,
        "streetTypeId": "BLVD",
        "placeName": "MARKHAM",
        "streetNameDisplayText": "ORCHARD HILL BLVD, MARKHAM"
      }
    ]
  },
  {
    "postal": "L6C8V0",
    "result": []
  },
  {
    "postal": "L6C0H4",
    "result": [
      {
        "electoralDistricts": [
          {
            "election": null,
            "id": 58,
            "name": "Markham—Unionville"
          }
        ],
        "pollDivisionIds": [
          10139660
        ],
        "postalCode": "L6C0H4",
        "streetName": "TUCCIARONE",
        "streetDirectionId": null,
        "streetTypeId": "CRT",
        "placeName": "MARKHAM",
        "streetNameDisplayText": "TUCCIARONE CRT, MARKHAM"
      },
      {
        "electoralDistricts": [
          {
            "election": null,
            "id": 58,
            "name": "Markham—Unionville"
          }
        ],
        "pollDivisionIds": [
          10139660
        ],
        "postalCode": "L6C0H4",
        "streetName": "WOODBINE",
        "streetDirectionId": null,
        "streetTypeId": "AVE",
        "placeName": "MARKHAM",
        "streetNameDisplayText": "WOODBINE AVE, MARKHAM"
      }
    ]
  },
  {
    "postal": "L6C2T1",
    "result": [
      {
        "electoralDistricts": [
          {
            "election": null,
            "id": 58,
            "name": "Markham—Unionville"
          }
        ],
        "pollDivisionIds": [
          10139671
        ],
        "postalCode": "L6C2T1",
        "streetName": "BELGRAVE",
        "streetDirectionId": null,
        "streetTypeId": "SQ",
        "placeName": "MARKHAM",
        "streetNameDisplayText": "BELGRAVE SQ, MARKHAM"
      },
      {
        "electoralDistricts": [
          {
            "election": null,
            "id": 58,
            "name": "Markham—Unionville"
          }
        ],
        "pollDivisionIds": [
          10139671
        ],
        "postalCode": "L6C2T1",
        "streetName": "BUR OAK",
        "streetDirectionId": null,
        "streetTypeId": "AVE",
        "placeName": "MARKHAM",
        "streetNameDisplayText": "BUR OAK AVE, MARKHAM"
      }
    ]
  },
  {
    "postal": "L6C1B1",
    "result": [
      {
        "electoralDistricts": [
          {
            "election": null,
            "id": 58,
            "name": "Markham—Unionville"
          }
        ],
        "pollDivisionIds": [
          10139664
        ],
        "postalCode": "L6C1B1",
        "streetName": "RICHARD PERSON",
        "streetDirectionId": null,
        "streetTypeId": "DR",
        "placeName": "MARKHAM",
        "streetNameDisplayText": "RICHARD PERSON DR, MARKHAM"
      },
      {
        "electoralDistricts": [
          {
            "election": null,
            "id": 58,
            "name": "Markham—Unionville"
          }
        ],
        "pollDivisionIds": [
          10139664
        ],
        "postalCode": "L6C1B1",
        "streetName": "SYLVIA",
        "streetDirectionId": null,
        "streetTypeId": "CRT",
        "placeName": "MARKHAM",
        "streetNameDisplayText": "SYLVIA CRT, MARKHAM"
      }
    ]
  },
  {
    "postal": "L6C8B6",
    "result": []
  },
  {
    "postal": "L6C6H1",
    "result": []
  },
  {
    "postal": "L6C8T8",
    "result": []
  },
  {
    "postal": "L6C0T4",
    "result": [
      {
        "electoralDistricts": [
          {
            "election": null,
            "id": 58,
            "name": "Markham—Unionville"
          }
        ],
        "pollDivisionIds": [
          10139660
        ],
        "postalCode": "L6C0T4",
        "streetName": "LIVING",
        "streetDirectionId": null,
        "streetTypeId": "CRES",
        "placeName": "MARKHAM",
        "streetNameDisplayText": "LIVING CRES, MARKHAM"
      },
      {
        "electoralDistricts": [
          {
            "election": null,
            "id": 58,
            "name": "Markham—Unionville"
          }
        ],
        "pollDivisionIds": [
          10139660
        ],
        "postalCode": "L6C0T4",
        "streetName": "ZENG CHENG",
        "streetDirectionId": null,
        "streetTypeId": "DR",
        "placeName": "MARKHAM",
        "streetNameDisplayText": "ZENG CHENG DR, MARKHAM"
      }
    ]
  },
  {
    "postal": "L6C2C4",
    "result": [
      {
        "electoralDistricts": [
          {
            "election": null,
            "id": 58,
            "name": "Markham—Unionville"
          }
        ],
        "pollDivisionIds": [
          10139661
        ],
        "postalCode": "L6C2C4",
        "streetName": "DANCER'S",
        "streetDirectionId": null,
        "streetTypeId": "DR",
        "placeName": "MARKHAM",
        "streetNameDisplayText": "DANCER'S DR, MARKHAM"
      }
    ]
  },
  {
    "postal": "L6C8N3",
    "result": []
  },
  {
    "postal": "L6C4L8",
    "result": []
  },
  {
    "postal": "L6C2B5",
    "result": [
      {
        "electoralDistricts": [
          {
            "election": null,
            "id": 58,
            "name": "Markham—Unionville"
          }
        ],
        "pollDivisionIds": [
          10139666
        ],
        "postalCode": "L6C2B5",
        "streetName": "SAXONY",
        "streetDirectionId": null,
        "streetTypeId": "DR",
        "placeName": "MARKHAM",
        "streetNameDisplayText": "SAXONY DR, MARKHAM"
      },
      {
        "electoralDistricts": [
          {
            "election": null,
            "id": 58,
            "name": "Markham—Unionville"
          }
        ],
        "pollDivisionIds": [
          10139666
        ],
        "postalCode": "L6C2B5",
        "streetName": "WINSTON CASTLE",
        "streetDirectionId": null,
        "streetTypeId": "DR",
        "placeName": "MARKHAM",
        "streetNameDisplayText": "WINSTON CASTLE DR, MARKHAM"
      }
    ]
  },
  {
    "postal": "L6C3H1",
    "result": [
      {
        "electoralDistricts": [
          {
            "election": null,
            "id": 58,
            "name": "Markham—Unionville"
          }
        ],
        "pollDivisionIds": [
          10139665
        ],
        "postalCode": "L6C3H1",
        "streetName": "BERNADOTTE",
        "streetDirectionId": null,
        "streetTypeId": "DR",
        "placeName": "MARKHAM",
        "streetNameDisplayText": "BERNADOTTE DR, MARKHAM"
      },
      {
        "electoralDistricts": [
          {
            "election": null,
            "id": 58,
            "name": "Markham—Unionville"
          }
        ],
        "pollDivisionIds": [
          10139665
        ],
        "postalCode": "L6C3H1",
        "streetName": "HERITAGE WOODS",
        "streetDirectionId": null,
        "streetTypeId": "MANOR",
        "placeName": "MARKHAM",
        "streetNameDisplayText": "HERITAGE WOODS MANOR, MARKHAM"
      }
    ]
  },
  {
    "postal": "L6C4Y1",
    "result": []
  },
  {
    "postal": "L6C7E2",
    "result": []
  },
  {
    "postal": "L6C2P5",
    "result": [
      {
        "electoralDistricts": [
          {
            "election": null,
            "id": 58,
            "name": "Markham—Unionville"
          }
        ],
        "pollDivisionIds": [
          10139666,
          10139670
        ],
        "postalCode": "L6C2P5",
        "streetName": "WEATHERILL",
        "streetDirectionId": null,
        "streetTypeId": "RD",
        "placeName": "MARKHAM",
        "streetNameDisplayText": "WEATHERILL RD, MARKHAM"
      },
      {
        "electoralDistricts": [
          {
            "election": null,
            "id": 58,
            "name": "Markham—Unionville"
          }
        ],
        "pollDivisionIds": [
          10139666,
          10139670
        ],
        "postalCode": "L6C2P5",
        "streetName": "WILLIAM BERCZY",
        "streetDirectionId": null,
        "streetTypeId": "BLVD",
        "placeName": "MARKHAM",
        "streetNameDisplayText": "WILLIAM BERCZY BLVD, MARKHAM"
      }
    ]
  },
  {
    "postal": "L6C8R7",
    "result": []
  },
  {
    "postal": "L6C9P1",
    "result": []
  },
  {
    "postal": "L6C3B8",
    "result": [
      {
        "electoralDistricts": [
          {
            "election": null,
            "id": 58,
            "name": "Markham—Unionville"
          }
        ],
        "pollDivisionIds": [
          10139661
        ],
        "postalCode": "L6C3B8",
        "streetName": "ANGUS GLEN",
        "streetDirectionId": null,
        "streetTypeId": "BLVD",
        "placeName": "MARKHAM",
        "streetNameDisplayText": "ANGUS GLEN BLVD, MARKHAM"
      },
      {
        "electoralDistricts": [
          {
            "election": null,
            "id": 58,
            "name": "Markham—Unionville"
          }
        ],
        "pollDivisionIds": [
          10139661
        ],
        "postalCode": "L6C3B8",
        "streetName": "ROYAL TROON",
        "streetDirectionId": null,
        "streetTypeId": "CRES",
        "placeName": "MARKHAM",
        "streetNameDisplayText": "ROYAL TROON CRES, MARKHAM"
      }
    ]
  },
  {
    "postal": "L6C3P7",
    "result": []
  },
  {
    "postal": "L6C9B2",
    "result": []
  },
  {
    "postal": "L6C6Z3",
    "result": []
  },
  {
    "postal": "L6C4N5",
    "result": []
  },
  {
    "postal": "L6C8T3",
    "result": []
  },
  {
    "postal": "L6C1V2",
    "result": [
      {
        "electoralDistricts": [
          {
            "election": null,
            "id": 58,
            "name": "Markham—Unionville"
          }
        ],
        "pollDivisionIds": [
          10139664
        ],
        "postalCode": "L6C1V2",
        "streetName": "DUBORG",
        "streetDirectionId": null,
        "streetTypeId": "DR",
        "placeName": "MARKHAM",
        "streetNameDisplayText": "DUBORG DR, MARKHAM"
      },
      {
        "electoralDistricts": [
          {
            "election": null,
            "id": 58,
            "name": "Markham—Unionville"
          }
        ],
        "pollDivisionIds": [
          10139664
        ],
        "postalCode": "L6C1V2",
        "streetName": "FORESTER",
        "streetDirectionId": null,
        "streetTypeId": "CRES",
        "placeName": "MARKHAM",
        "streetNameDisplayText": "FORESTER CRES, MARKHAM"
      }
    ]
  },
  {
    "postal": "L6C1Y0",
    "result": []
  },
  {
    "postal": "L6C3G6",
    "result": [
      {
        "electoralDistricts": [
          {
            "election": null,
            "id": 58,
            "name": "Markham—Unionville"
          }
        ],
        "pollDivisionIds": [
          10139662
        ],
        "postalCode": "L6C3G6",
        "streetName": "RIVER VALLEY",
        "streetDirectionId": null,
        "streetTypeId": "CRES",
        "placeName": "MARKHAM",
        "streetNameDisplayText": "RIVER VALLEY CRES, MARKHAM"
      }
    ]
  },
  {
    "postal": "L6C3H7",
    "result": [
      {
        "electoralDistricts": [
          {
            "election": null,
            "id": 58,
            "name": "Markham—Unionville"
          }
        ],
        "pollDivisionIds": [
          10139662
        ],
        "postalCode": "L6C3H7",
        "streetName": "HAZELTON",
        "streetDirectionId": null,
        "streetTypeId": "AVE",
        "placeName": "MARKHAM",
        "streetNameDisplayText": "HAZELTON AVE, MARKHAM"
      }
    ]
  },
  {
    "postal": "L6C7X8",
    "result": []
  },
  {
    "postal": "L6C0C7",
    "result": [
      {
        "electoralDistricts": [
          {
            "election": null,
            "id": 58,
            "name": "Markham—Unionville"
          }
        ],
        "pollDivisionIds": [
          10139660
        ],
        "postalCode": "L6C0C7",
        "streetName": "REFLECTION",
        "streetDirectionId": null,
        "streetTypeId": "RD",
        "placeName": "MARKHAM",
        "streetNameDisplayText": "REFLECTION RD, MARKHAM"
      },
      {
        "electoralDistricts": [
          {
            "election": null,
            "id": 58,
            "name": "Markham—Unionville"
          }
        ],
        "pollDivisionIds": [
          10139660
        ],
        "postalCode": "L6C0C7",
        "streetName": "WOODBINE",
        "streetDirectionId": null,
        "streetTypeId": "AVE",
        "placeName": "MARKHAM",
        "streetNameDisplayText": "WOODBINE AVE, MARKHAM"
      }
    ]
  },
  {
    "postal": "L6C0W9",
    "result": [
      {
        "electoralDistricts": [
          {
            "election": null,
            "id": 58,
            "name": "Markham—Unionville"
          }
        ],
        "pollDivisionIds": [
          10139670
        ],
        "postalCode": "L6C0W9",
        "streetName": "HARBORD",
        "streetDirectionId": null,
        "streetTypeId": "ST",
        "placeName": "MARKHAM",
        "streetNameDisplayText": "HARBORD ST, MARKHAM"
      },
      {
        "electoralDistricts": [
          {
            "election": null,
            "id": 58,
            "name": "Markham—Unionville"
          }
        ],
        "pollDivisionIds": [
          10139670
        ],
        "postalCode": "L6C0W9",
        "streetName": "HENRY BAUER",
        "streetDirectionId": null,
        "streetTypeId": "AVE",
        "placeName": "MARKHAM",
        "streetNameDisplayText": "HENRY BAUER AVE, MARKHAM"
      },
      {
        "electoralDistricts": [
          {
            "election": null,
            "id": 58,
            "name": "Markham—Unionville"
          }
        ],
        "pollDivisionIds": [
          10139670
        ],
        "postalCode": "L6C0W9",
        "streetName": "WILFRED MURISON",
        "streetDirectionId": null,
        "streetTypeId": "AVE",
        "placeName": "MARKHAM",
        "streetNameDisplayText": "WILFRED MURISON AVE, MARKHAM"
      }
    ]
  },
  {
    "postal": "L6C8E6",
    "result": []
  },
  {
    "postal": "L6C9Z8",
    "result": []
  },
  {
    "postal": "L6C3P4",
    "result": []
  },
  {
    "postal": "L6C6L8",
    "result": []
  },
  {
    "postal": "L6C2R4",
    "result": [
      {
        "electoralDistricts": [
          {
            "election": null,
            "id": 58,
            "name": "Markham—Unionville"
          }
        ],
        "pollDivisionIds": [
          10139667
        ],
        "postalCode": "L6C2R4",
        "streetName": "AYLESBURY",
        "streetDirectionId": null,
        "streetTypeId": "GATE",
        "placeName": "MARKHAM",
        "streetNameDisplayText": "AYLESBURY GATE, MARKHAM"
      },
      {
        "electoralDistricts": [
          {
            "election": null,
            "id": 58,
            "name": "Markham—Unionville"
          }
        ],
        "pollDivisionIds": [
          10139667
        ],
        "postalCode": "L6C2R4",
        "streetName": "BRENTCLIFF",
        "streetDirectionId": null,
        "streetTypeId": "GATE",
        "placeName": "MARKHAM",
        "streetNameDisplayText": "BRENTCLIFF GATE, MARKHAM"
      },
      {
        "electoralDistricts": [
          {
            "election": null,
            "id": 58,
            "name": "Markham—Unionville"
          }
        ],
        "pollDivisionIds": [
          10139667
        ],
        "postalCode": "L6C2R4",
        "streetName": "CHESTERTOWN",
        "streetDirectionId": null,
        "streetTypeId": "SQ",
        "placeName": "MARKHAM",
        "streetNameDisplayText": "CHESTERTOWN SQ, MARKHAM"
      },
      {
        "electoralDistricts": [
          {
            "election": null,
            "id": 58,
            "name": "Markham—Unionville"
          }
        ],
        "pollDivisionIds": [
          10139667
        ],
        "postalCode": "L6C2R4",
        "streetName": "LAURAVIEW",
        "streetDirectionId": null,
        "streetTypeId": "CRES",
        "placeName": "MARKHAM",
        "streetNameDisplayText": "LAURAVIEW CRES, MARKHAM"
      }
    ]
  },
  {
    "postal": "L6C2W1",
    "result": [
      {
        "electoralDistricts": [
          {
            "election": null,
            "id": 58,
            "name": "Markham—Unionville"
          }
        ],
        "pollDivisionIds": [
          10139661
        ],
        "postalCode": "L6C2W1",
        "streetName": "BRUCE CREEK",
        "streetDirectionId": null,
        "streetTypeId": "DR",
        "placeName": "MARKHAM",
        "streetNameDisplayText": "BRUCE CREEK DR, MARKHAM"
      },
      {
        "electoralDistricts": [
          {
            "election": null,
            "id": 58,
            "name": "Markham—Unionville"
          }
        ],
        "pollDivisionIds": [
          10139661
        ],
        "postalCode": "L6C2W1",
        "streetName": "COLTY",
        "streetDirectionId": null,
        "streetTypeId": "DR",
        "placeName": "MARKHAM",
        "streetNameDisplayText": "COLTY DR, MARKHAM"
      },
      {
        "electoralDistricts": [
          {
            "election": null,
            "id": 58,
            "name": "Markham—Unionville"
          }
        ],
        "pollDivisionIds": [
          10139661
        ],
        "postalCode": "L6C2W1",
        "streetName": "PROSPECTOR'S",
        "streetDirectionId": null,
        "streetTypeId": "DR",
        "placeName": "MARKHAM",
        "streetNameDisplayText": "PROSPECTOR'S DR, MARKHAM"
      }
    ]
  },
  {
    "postal": "L6C9H8",
    "result": []
  },
  {
    "postal": "L6C8X9",
    "result": []
  },
  {
    "postal": "L6C7H4",
    "result": []
  },
  {
    "postal": "L6C3J1",
    "result": [
      {
        "electoralDistricts": [
          {
            "election": null,
            "id": 58,
            "name": "Markham—Unionville"
          }
        ],
        "pollDivisionIds": [
          10139662
        ],
        "postalCode": "L6C3J1",
        "streetName": "HAZELTON",
        "streetDirectionId": null,
        "streetTypeId": "AVE",
        "placeName": "MARKHAM",
        "streetNameDisplayText": "HAZELTON AVE, MARKHAM"
      },
      {
        "electoralDistricts": [
          {
            "election": null,
            "id": 58,
            "name": "Markham—Unionville"
          }
        ],
        "pollDivisionIds": [
          10139662
        ],
        "postalCode": "L6C3J1",
        "streetName": "SEQUOIA GROVE",
        "streetDirectionId": null,
        "streetTypeId": "DR",
        "placeName": "MARKHAM",
        "streetNameDisplayText": "SEQUOIA GROVE DR, MARKHAM"
      },
      {
        "electoralDistricts": [
          {
            "election": null,
            "id": 58,
            "name": "Markham—Unionville"
          }
        ],
        "pollDivisionIds": [
          10139662
        ],
        "postalCode": "L6C3J1",
        "streetName": "VINE CLIFF",
        "streetDirectionId": null,
        "streetTypeId": "BLVD",
        "placeName": "MARKHAM",
        "streetNameDisplayText": "VINE CLIFF BLVD, MARKHAM"
      }
    ]
  },
  {
    "postal": "L6C1P4",
    "result": []
  },
  {
    "postal": "L6C2A3",
    "result": [
      {
        "electoralDistricts": [
          {
            "election": null,
            "id": 58,
            "name": "Markham—Unionville"
          }
        ],
        "pollDivisionIds": [
          10139661
        ],
        "postalCode": "L6C2A3",
        "streetName": "THE FAIRWAYS",
        "streetDirectionId": null,
        "streetTypeId": null,
        "placeName": "MARKHAM",
        "streetNameDisplayText": "THE FAIRWAYS, MARKHAM"
      },
      {
        "electoralDistricts": [
          {
            "election": null,
            "id": 58,
            "name": "Markham—Unionville"
          }
        ],
        "pollDivisionIds": [
          10139661
        ],
        "postalCode": "L6C2A3",
        "streetName": "WOODGROVE",
        "streetDirectionId": null,
        "streetTypeId": "TRAIL",
        "placeName": "MARKHAM",
        "streetNameDisplayText": "WOODGROVE TRAIL, MARKHAM"
      }
    ]
  },
  {
    "postal": "L6C0Z1",
    "result": []
  },
  {
    "postal": "L6C1C1",
    "result": [
      {
        "electoralDistricts": [
          {
            "election": null,
            "id": 58,
            "name": "Markham—Unionville"
          }
        ],
        "pollDivisionIds": [
          10139665
        ],
        "postalCode": "L6C1C1",
        "streetName": "CACHET",
        "streetDirectionId": null,
        "streetTypeId": "PKY",
        "placeName": "MARKHAM",
        "streetNameDisplayText": "CACHET PKY, MARKHAM"
      }
    ]
  },
  {
    "postal": "L6C0H3",
    "result": [
      {
        "electoralDistricts": [
          {
            "election": null,
            "id": 58,
            "name": "Markham—Unionville"
          }
        ],
        "pollDivisionIds": [
          10139660
        ],
        "postalCode": "L6C0H3",
        "streetName": "TUCCIARONE",
        "streetDirectionId": null,
        "streetTypeId": "CRT",
        "placeName": "MARKHAM",
        "streetNameDisplayText": "TUCCIARONE CRT, MARKHAM"
      }
    ]
  },
  {
    "postal": "L6C7B0",
    "result": []
  },
  {
    "postal": "L6C5K2",
    "result": []
  },
  {
    "postal": "L6C1E9",
    "result": [
      {
        "electoralDistricts": [
          {
            "election": null,
            "id": 58,
            "name": "Markham—Unionville"
          }
        ],
        "pollDivisionIds": [
          10139664
        ],
        "postalCode": "L6C1E9",
        "streetName": "PERSONNA",
        "streetDirectionId": null,
        "streetTypeId": "BLVD",
        "placeName": "MARKHAM",
        "streetNameDisplayText": "PERSONNA BLVD, MARKHAM"
      }
    ]
  },
  {
    "postal": "L6C9W7",
    "result": []
  },
  {
    "postal": "L6C5W6",
    "result": []
  },
  {
    "postal": "L6C6S6",
    "result": []
  },
  {
    "postal": "L6C2P8",
    "result": [
      {
        "electoralDistricts": [
          {
            "election": null,
            "id": 58,
            "name": "Markham—Unionville"
          }
        ],
        "pollDivisionIds": [
          10139661
        ],
        "postalCode": "L6C2P8",
        "streetName": "OLD FARM LANE",
        "streetDirectionId": null,
        "streetTypeId": "WAY",
        "placeName": "MARKHAM",
        "streetNameDisplayText": "OLD FARM LANE WAY, MARKHAM"
      }
    ]
  },
  {
    "postal": "L6C4P8",
    "result": []
  },
  {
    "postal": "L6C0V9",
    "result": [
      {
        "electoralDistricts": [
          {
            "election": null,
            "id": 58,
            "name": "Markham—Unionville"
          }
        ],
        "pollDivisionIds": [
          10139670
        ],
        "postalCode": "L6C0V9",
        "streetName": "CHARLES VOGEL",
        "streetDirectionId": null,
        "streetTypeId": "DR",
        "placeName": "MARKHAM",
        "streetNameDisplayText": "CHARLES VOGEL DR, MARKHAM"
      },
      {
        "electoralDistricts": [
          {
            "election": null,
            "id": 58,
            "name": "Markham—Unionville"
          }
        ],
        "pollDivisionIds": [
          10139670
        ],
        "postalCode": "L6C0V9",
        "streetName": "CHRISTIAN RITTER",
        "streetDirectionId": null,
        "streetTypeId": "DR",
        "placeName": "MARKHAM",
        "streetNameDisplayText": "CHRISTIAN RITTER DR, MARKHAM"
      },
      {
        "electoralDistricts": [
          {
            "election": null,
            "id": 58,
            "name": "Markham—Unionville"
          }
        ],
        "pollDivisionIds": [
          10139670
        ],
        "postalCode": "L6C0V9",
        "streetName": "PERCY STOVER",
        "streetDirectionId": null,
        "streetTypeId": "DR",
        "placeName": "MARKHAM",
        "streetNameDisplayText": "PERCY STOVER DR, MARKHAM"
      }
    ]
  },
  {
    "postal": "L6C5Y2",
    "result": []
  },
  {
    "postal": "L6C7Z7",
    "result": []
  },
  {
    "postal": "L6C6Y8",
    "result": []
  },
  {
    "postal": "L6C2G7",
    "result": [
      {
        "electoralDistricts": [
          {
            "election": null,
            "id": 58,
            "name": "Markham—Unionville"
          }
        ],
        "pollDivisionIds": [
          10139666
        ],
        "postalCode": "L6C2G7",
        "streetName": "SAXONY",
        "streetDirectionId": null,
        "streetTypeId": "DR",
        "placeName": "MARKHAM",
        "streetNameDisplayText": "SAXONY DR, MARKHAM"
      },
      {
        "electoralDistricts": [
          {
            "election": null,
            "id": 58,
            "name": "Markham—Unionville"
          }
        ],
        "pollDivisionIds": [
          10139666
        ],
        "postalCode": "L6C2G7",
        "streetName": "WINSTON CASTLE",
        "streetDirectionId": null,
        "streetTypeId": "DR",
        "placeName": "MARKHAM",
        "streetNameDisplayText": "WINSTON CASTLE DR, MARKHAM"
      }
    ]
  },
  {
    "postal": "L6C8C1",
    "result": []
  },
  {
    "postal": "L6C5C5",
    "result": []
  },
  {
    "postal": "L6C2X8",
    "result": [
      {
        "electoralDistricts": [
          {
            "election": null,
            "id": 58,
            "name": "Markham—Unionville"
          }
        ],
        "pollDivisionIds": [
          10139667
        ],
        "postalCode": "L6C2X8",
        "streetName": "BROOKHAVEN",
        "streetDirectionId": null,
        "streetTypeId": "CRES",
        "placeName": "MARKHAM",
        "streetNameDisplayText": "BROOKHAVEN CRES, MARKHAM"
      },
      {
        "electoralDistricts": [
          {
            "election": null,
            "id": 58,
            "name": "Markham—Unionville"
          }
        ],
        "pollDivisionIds": [
          10139667
        ],
        "postalCode": "L6C2X8",
        "streetName": "HILLWOOD",
        "streetDirectionId": null,
        "streetTypeId": "ST",
        "placeName": "MARKHAM",
        "streetNameDisplayText": "HILLWOOD ST, MARKHAM"
      },
      {
        "electoralDistricts": [
          {
            "election": null,
            "id": 58,
            "name": "Markham—Unionville"
          }
        ],
        "pollDivisionIds": [
          10139667
        ],
        "postalCode": "L6C2X8",
        "streetName": "WESTCHESTER",
        "streetDirectionId": null,
        "streetTypeId": "CRES",
        "placeName": "MARKHAM",
        "streetNameDisplayText": "WESTCHESTER CRES, MARKHAM"
      }
    ]
  },
  {
    "postal": "L6C1W5",
    "result": [
      {
        "electoralDistricts": [
          {
            "election": null,
            "id": 58,
            "name": "Markham—Unionville"
          }
        ],
        "pollDivisionIds": [
          10139665,
          10139664
        ],
        "postalCode": "L6C1W5",
        "streetName": "GOLDEN TULIP",
        "streetDirectionId": null,
        "streetTypeId": "CRES",
        "placeName": "MARKHAM",
        "streetNameDisplayText": "GOLDEN TULIP CRES, MARKHAM"
      },
      {
        "electoralDistricts": [
          {
            "election": null,
            "id": 58,
            "name": "Markham—Unionville"
          }
        ],
        "pollDivisionIds": [
          10139664,
          10139665
        ],
        "postalCode": "L6C1W5",
        "streetName": "MACRILL",
        "streetDirectionId": null,
        "streetTypeId": "RD",
        "placeName": "MARKHAM",
        "streetNameDisplayText": "MACRILL RD, MARKHAM"
      },
      {
        "electoralDistricts": [
          {
            "election": null,
            "id": 58,
            "name": "Markham—Unionville"
          }
        ],
        "pollDivisionIds": [
          10139665,
          10139664
        ],
        "postalCode": "L6C1W5",
        "streetName": "VILLAGE GATE",
        "streetDirectionId": null,
        "streetTypeId": "DR",
        "placeName": "MARKHAM",
        "streetNameDisplayText": "VILLAGE GATE DR, MARKHAM"
      }
    ]
  },
  {
    "postal": "L6C7G0",
    "result": []
  },
  {
    "postal": "L6C8J8",
    "result": []
  },
  {
    "postal": "L6C3Y0",
    "result": []
  },
  {
    "postal": "L6C9T7",
    "result": []
  },
  {
    "postal": "L6C5P4",
    "result": []
  },
  {
    "postal": "L6C4B0",
    "result": []
  },
  {
    "postal": "L6C9N8",
    "result": []
  },
  {
    "postal": "L6C4A7",
    "result": []
  },
  {
    "postal": "L6C4H9",
    "result": []
  },
  {
    "postal": "L6C6X1",
    "result": []
  },
  {
    "postal": "L6C9Y7",
    "result": []
  },
  {
    "postal": "L6C2Y5",
    "result": [
      {
        "electoralDistricts": [
          {
            "election": null,
            "id": 58,
            "name": "Markham—Unionville"
          }
        ],
        "pollDivisionIds": [
          10139666,
          10139670
        ],
        "postalCode": "L6C2Y5",
        "streetName": "THE BRIDLE",
        "streetDirectionId": null,
        "streetTypeId": "WALK",
        "placeName": "MARKHAM",
        "streetNameDisplayText": "THE BRIDLE WALK, MARKHAM"
      }
    ]
  },
  {
    "postal": "L6C8L7",
    "result": []
  },
  {
    "postal": "L6C2A8",
    "result": [
      {
        "electoralDistricts": [
          {
            "election": null,
            "id": 58,
            "name": "Markham—Unionville"
          }
        ],
        "pollDivisionIds": [
          10139661
        ],
        "postalCode": "L6C2A8",
        "streetName": "DANCER'S",
        "streetDirectionId": null,
        "streetTypeId": "DR",
        "placeName": "MARKHAM",
        "streetNameDisplayText": "DANCER'S DR, MARKHAM"
      }
    ]
  },
  {
    "postal": "L6C2K9",
    "result": [
      {
        "electoralDistricts": [
          {
            "election": null,
            "id": 58,
            "name": "Markham—Unionville"
          }
        ],
        "pollDivisionIds": [
          10139663
        ],
        "postalCode": "L6C2K9",
        "streetName": "OAKFORD",
        "streetDirectionId": null,
        "streetTypeId": "DR",
        "placeName": "MARKHAM",
        "streetNameDisplayText": "OAKFORD DR, MARKHAM"
      },
      {
        "electoralDistricts": [
          {
            "election": null,
            "id": 58,
            "name": "Markham—Unionville"
          }
        ],
        "pollDivisionIds": [
          10139663
        ],
        "postalCode": "L6C2K9",
        "streetName": "STONEHEATH",
        "streetDirectionId": null,
        "streetTypeId": "CRES",
        "placeName": "MARKHAM",
        "streetNameDisplayText": "STONEHEATH CRES, MARKHAM"
      },
      {
        "electoralDistricts": [
          {
            "election": null,
            "id": 58,
            "name": "Markham—Unionville"
          }
        ],
        "pollDivisionIds": [
          10139663
        ],
        "postalCode": "L6C2K9",
        "streetName": "WILLOW HEIGHTS",
        "streetDirectionId": null,
        "streetTypeId": "BLVD",
        "placeName": "MARKHAM",
        "streetNameDisplayText": "WILLOW HEIGHTS BLVD, MARKHAM"
      }
    ]
  },
  {
    "postal": "L6C3E5",
    "result": [
      {
        "electoralDistricts": [
          {
            "election": null,
            "id": 58,
            "name": "Markham—Unionville"
          }
        ],
        "pollDivisionIds": [
          10139671
        ],
        "postalCode": "L6C3E5",
        "streetName": "BUR OAK",
        "streetDirectionId": null,
        "streetTypeId": "AVE",
        "placeName": "MARKHAM",
        "streetNameDisplayText": "BUR OAK AVE, MARKHAM"
      }
    ]
  },
  {
    "postal": "L6C8N6",
    "result": []
  },
  {
    "postal": "L6C8J4",
    "result": []
  },
  {
    "postal": "L6C4R7",
    "result": []
  },
  {
    "postal": "L6C9K1",
    "result": []
  },
  {
    "postal": "L6C8E1",
    "result": []
  },
  {
    "postal": "L6C0R1",
    "result": [
      {
        "electoralDistricts": [
          {
            "election": null,
            "id": 58,
            "name": "Markham—Unionville"
          }
        ],
        "pollDivisionIds": [
          10139670
        ],
        "postalCode": "L6C0R1",
        "streetName": "FOSHAN",
        "streetDirectionId": null,
        "streetTypeId": "AVE",
        "placeName": "MARKHAM",
        "streetNameDisplayText": "FOSHAN AVE, MARKHAM"
      },
      {
        "electoralDistricts": [
          {
            "election": null,
            "id": 58,
            "name": "Markham—Unionville"
          }
        ],
        "pollDivisionIds": [
          10139670
        ],
        "postalCode": "L6C0R1",
        "streetName": "WILLIAM BERCZY",
        "streetDirectionId": null,
        "streetTypeId": "BLVD",
        "placeName": "MARKHAM",
        "streetNameDisplayText": "WILLIAM BERCZY BLVD, MARKHAM"
      }
    ]
  },
  {
    "postal": "L6C4J3",
    "result": []
  },
  {
    "postal": "L6C7E7",
    "result": []
  },
  {
    "postal": "L6C0J0",
    "result": []
  },
  {
    "postal": "L6C7R8",
    "result": []
  },
  {
    "postal": "L6C9X0",
    "result": []
  },
  {
    "postal": "L6C7P6",
    "result": []
  },
  {
    "postal": "L6C0R7",
    "result": [
      {
        "electoralDistricts": [
          {
            "election": null,
            "id": 58,
            "name": "Markham—Unionville"
          }
        ],
        "pollDivisionIds": [
          10139670
        ],
        "postalCode": "L6C0R7",
        "streetName": "MANILA",
        "streetDirectionId": null,
        "streetTypeId": "AVE",
        "placeName": "MARKHAM",
        "streetNameDisplayText": "MANILA AVE, MARKHAM"
      },
      {
        "electoralDistricts": [
          {
            "election": null,
            "id": 58,
            "name": "Markham—Unionville"
          }
        ],
        "pollDivisionIds": [
          10139670
        ],
        "postalCode": "L6C0R7",
        "streetName": "WILLIAM BERCZY",
        "streetDirectionId": null,
        "streetTypeId": "BLVD",
        "placeName": "MARKHAM",
        "streetNameDisplayText": "WILLIAM BERCZY BLVD, MARKHAM"
      }
    ]
  },
  {
    "postal": "L6C5W1",
    "result": []
  },
  {
    "postal": "L6C0K4",
    "result": [
      {
        "electoralDistricts": [
          {
            "election": null,
            "id": 58,
            "name": "Markham—Unionville"
          }
        ],
        "pollDivisionIds": [
          10139660
        ],
        "postalCode": "L6C0K4",
        "streetName": "GEORGE HEENAN",
        "streetDirectionId": null,
        "streetTypeId": "ST",
        "placeName": "MARKHAM",
        "streetNameDisplayText": "GEORGE HEENAN ST, MARKHAM"
      },
      {
        "electoralDistricts": [
          {
            "election": null,
            "id": 58,
            "name": "Markham—Unionville"
          }
        ],
        "pollDivisionIds": [
          10139660
        ],
        "postalCode": "L6C0K4",
        "streetName": "WOODBINE",
        "streetDirectionId": null,
        "streetTypeId": "AVE",
        "placeName": "MARKHAM",
        "streetNameDisplayText": "WOODBINE AVE, MARKHAM"
      }
    ]
  },
  {
    "postal": "L6C7N9",
    "result": []
  },
  {
    "postal": "L6C1N0",
    "result": []
  },
  {
    "postal": "L6C6P3",
    "result": []
  },
  {
    "postal": "L6C5A1",
    "result": []
  },
  {
    "postal": "L6C9M9",
    "result": []
  },
  {
    "postal": "L6C7T6",
    "result": []
  },
  {
    "postal": "L6C3X0",
    "result": []
  },
  {
    "postal": "L6C2T0",
    "result": []
  },
  {
    "postal": "L6C5X9",
    "result": []
  },
  {
    "postal": "L6C2R3",
    "result": [
      {
        "electoralDistricts": [
          {
            "election": null,
            "id": 58,
            "name": "Markham—Unionville"
          }
        ],
        "pollDivisionIds": [
          10139661
        ],
        "postalCode": "L6C2R3",
        "streetName": "BERCZY CREEK",
        "streetDirectionId": null,
        "streetTypeId": "WAY",
        "placeName": "MARKHAM",
        "streetNameDisplayText": "BERCZY CREEK WAY, MARKHAM"
      },
      {
        "electoralDistricts": [
          {
            "election": null,
            "id": 58,
            "name": "Markham—Unionville"
          }
        ],
        "pollDivisionIds": [
          10139661
        ],
        "postalCode": "L6C2R3",
        "streetName": "FOREST DOWNS",
        "streetDirectionId": null,
        "streetTypeId": "WAY",
        "placeName": "MARKHAM",
        "streetNameDisplayText": "FOREST DOWNS WAY, MARKHAM"
      },
      {
        "electoralDistricts": [
          {
            "election": null,
            "id": 58,
            "name": "Markham—Unionville"
          }
        ],
        "pollDivisionIds": [
          10139661
        ],
        "postalCode": "L6C2R3",
        "streetName": "GLENBURN FOREST",
        "streetDirectionId": null,
        "streetTypeId": "WAY",
        "placeName": "MARKHAM",
        "streetNameDisplayText": "GLENBURN FOREST WAY, MARKHAM"
      }
    ]
  },
  {
    "postal": "L6C5N2",
    "result": []
  },
  {
    "postal": "L6C4Y7",
    "result": []
  },
  {
    "postal": "L6C7M0",
    "result": []
  },
  {
    "postal": "L6C8P3",
    "result": []
  },
  {
    "postal": "L6C3N3",
    "result": []
  },
  {
    "postal": "L6C7S3",
    "result": []
  },
  {
    "postal": "L6C3V9",
    "result": []
  },
  {
    "postal": "L6C9N7",
    "result": []
  },
  {
    "postal": "L6C0G4",
    "result": [
      {
        "electoralDistricts": [
          {
            "election": null,
            "id": 58,
            "name": "Markham—Unionville"
          }
        ],
        "pollDivisionIds": [
          10139660
        ],
        "postalCode": "L6C0G4",
        "streetName": "HERBERT WALES",
        "streetDirectionId": null,
        "streetTypeId": "CRES",
        "placeName": "MARKHAM",
        "streetNameDisplayText": "HERBERT WALES CRES, MARKHAM"
      }
    ]
  },
  {
    "postal": "L6C2E2",
    "result": [
      {
        "electoralDistricts": [
          {
            "election": null,
            "id": 58,
            "name": "Markham—Unionville"
          }
        ],
        "pollDivisionIds": [
          10139670
        ],
        "postalCode": "L6C2E2",
        "streetName": "BUR OAK",
        "streetDirectionId": null,
        "streetTypeId": "AVE",
        "placeName": "MARKHAM",
        "streetNameDisplayText": "BUR OAK AVE, MARKHAM"
      },
      {
        "electoralDistricts": [
          {
            "election": null,
            "id": 58,
            "name": "Markham—Unionville"
          }
        ],
        "pollDivisionIds": [
          10139670
        ],
        "postalCode": "L6C2E2",
        "streetName": "BUROAK",
        "streetDirectionId": null,
        "streetTypeId": "AVE",
        "placeName": "MARKHAM",
        "streetNameDisplayText": "BUROAK AVE, MARKHAM"
      },
      {
        "electoralDistricts": [
          {
            "election": null,
            "id": 58,
            "name": "Markham—Unionville"
          }
        ],
        "pollDivisionIds": [
          10139670
        ],
        "postalCode": "L6C2E2",
        "streetName": "MADISON HEIGHTS",
        "streetDirectionId": null,
        "streetTypeId": "BLVD",
        "placeName": "MARKHAM",
        "streetNameDisplayText": "MADISON HEIGHTS BLVD, MARKHAM"
      }
    ]
  },
  {
    "postal": "L6C7W8",
    "result": []
  },
  {
    "postal": "L6C7M5",
    "result": []
  },
  {
    "postal": "L6C5W8",
    "result": []
  },
  {
    "postal": "L6C5E5",
    "result": []
  },
  {
    "postal": "L6C1P9",
    "result": []
  },
  {
    "postal": "L6C8V8",
    "result": []
  },
  {
    "postal": "L6C9G8",
    "result": []
  },
  {
    "postal": "L6C8H9",
    "result": []
  },
  {
    "postal": "L6C1Z1",
    "result": [
      {
        "electoralDistricts": [
          {
            "election": null,
            "id": 58,
            "name": "Markham—Unionville"
          }
        ],
        "pollDivisionIds": [
          10139661
        ],
        "postalCode": "L6C1Z1",
        "streetName": "ANGUS GLEN",
        "streetDirectionId": null,
        "streetTypeId": "BLVD",
        "placeName": "MARKHAM",
        "streetNameDisplayText": "ANGUS GLEN BLVD, MARKHAM"
      },
      {
        "electoralDistricts": [
          {
            "election": null,
            "id": 58,
            "name": "Markham—Unionville"
          }
        ],
        "pollDivisionIds": [
          10139661
        ],
        "postalCode": "L6C1Z1",
        "streetName": "PROSPECTORS",
        "streetDirectionId": null,
        "streetTypeId": "DR",
        "placeName": "MARKHAM",
        "streetNameDisplayText": "PROSPECTORS DR, MARKHAM"
      },
      {
        "electoralDistricts": [
          {
            "election": null,
            "id": 58,
            "name": "Markham—Unionville"
          }
        ],
        "pollDivisionIds": [
          10139661
        ],
        "postalCode": "L6C1Z1",
        "streetName": "PROSPECTOR'S",
        "streetDirectionId": null,
        "streetTypeId": "DR",
        "placeName": "MARKHAM",
        "streetNameDisplayText": "PROSPECTOR'S DR, MARKHAM"
      }
    ]
  },
  {
    "postal": "L6C8M3",
    "result": []
  },
  {
    "postal": "L6C5H6",
    "result": []
  },
  {
    "postal": "L6C7W7",
    "result": []
  },
  {
    "postal": "L6C4L0",
    "result": []
  },
  {
    "postal": "L6C2N1",
    "result": [
      {
        "electoralDistricts": [
          {
            "election": null,
            "id": 58,
            "name": "Markham—Unionville"
          }
        ],
        "pollDivisionIds": [
          10139667
        ],
        "postalCode": "L6C2N1",
        "streetName": "KING HENRY",
        "streetDirectionId": null,
        "streetTypeId": "DR",
        "placeName": "MARKHAM",
        "streetNameDisplayText": "KING HENRY DR, MARKHAM"
      },
      {
        "electoralDistricts": [
          {
            "election": null,
            "id": 58,
            "name": "Markham—Unionville"
          }
        ],
        "pollDivisionIds": [
          10139667
        ],
        "postalCode": "L6C2N1",
        "streetName": "SARUM",
        "streetDirectionId": null,
        "streetTypeId": "CRES",
        "placeName": "MARKHAM",
        "streetNameDisplayText": "SARUM CRES, MARKHAM"
      },
      {
        "electoralDistricts": [
          {
            "election": null,
            "id": 58,
            "name": "Markham—Unionville"
          }
        ],
        "pollDivisionIds": [
          10139667
        ],
        "postalCode": "L6C2N1",
        "streetName": "THE BRIDLE",
        "streetDirectionId": null,
        "streetTypeId": "WALK",
        "placeName": "MARKHAM",
        "streetNameDisplayText": "THE BRIDLE WALK, MARKHAM"
      },
      {
        "electoralDistricts": [
          {
            "election": null,
            "id": 58,
            "name": "Markham—Unionville"
          }
        ],
        "pollDivisionIds": [
          10139667
        ],
        "postalCode": "L6C2N1",
        "streetName": "TOWER BRIDGE",
        "streetDirectionId": null,
        "streetTypeId": "CRES",
        "placeName": "MARKHAM",
        "streetNameDisplayText": "TOWER BRIDGE CRES, MARKHAM"
      }
    ]
  },
  {
    "postal": "L6C2H4",
    "result": [
      {
        "electoralDistricts": [
          {
            "election": null,
            "id": 58,
            "name": "Markham—Unionville"
          }
        ],
        "pollDivisionIds": [
          10139663
        ],
        "postalCode": "L6C2H4",
        "streetName": "HILLMOUNT",
        "streetDirectionId": null,
        "streetTypeId": "RD",
        "placeName": "MARKHAM",
        "streetNameDisplayText": "HILLMOUNT RD, MARKHAM"
      },
      {
        "electoralDistricts": [
          {
            "election": null,
            "id": 58,
            "name": "Markham—Unionville"
          }
        ],
        "pollDivisionIds": [
          10139663
        ],
        "postalCode": "L6C2H4",
        "streetName": "HOPECREST",
        "streetDirectionId": null,
        "streetTypeId": "RD",
        "placeName": "MARKHAM",
        "streetNameDisplayText": "HOPECREST RD, MARKHAM"
      },
      {
        "electoralDistricts": [
          {
            "election": null,
            "id": 58,
            "name": "Markham—Unionville"
          }
        ],
        "pollDivisionIds": [
          10139663
        ],
        "postalCode": "L6C2H4",
        "streetName": "SUMMER MIST",
        "streetDirectionId": null,
        "streetTypeId": "CRES",
        "placeName": "MARKHAM",
        "streetNameDisplayText": "SUMMER MIST CRES, MARKHAM"
      }
    ]
  },
  {
    "postal": "L6C5C8",
    "result": []
  },
  {
    "postal": "L6C8B0",
    "result": []
  },
  {
    "postal": "L6C1T4",
    "result": [
      {
        "electoralDistricts": [
          {
            "election": null,
            "id": 58,
            "name": "Markham—Unionville"
          }
        ],
        "pollDivisionIds": [
          10139664
        ],
        "postalCode": "L6C1T4",
        "streetName": "HOLMESDALE",
        "streetDirectionId": null,
        "streetTypeId": "DR",
        "placeName": "MARKHAM",
        "streetNameDisplayText": "HOLMESDALE DR, MARKHAM"
      },
      {
        "electoralDistricts": [
          {
            "election": null,
            "id": 58,
            "name": "Markham—Unionville"
          }
        ],
        "pollDivisionIds": [
          10139664
        ],
        "postalCode": "L6C1T4",
        "streetName": "TOWNSON",
        "streetDirectionId": null,
        "streetTypeId": "RD",
        "placeName": "MARKHAM",
        "streetNameDisplayText": "TOWNSON RD, MARKHAM"
      }
    ]
  },
  {
    "postal": "L6C7N7",
    "result": []
  },
  {
    "postal": "L6C4L3",
    "result": []
  },
  {
    "postal": "L6C2N2",
    "result": [
      {
        "electoralDistricts": [
          {
            "election": null,
            "id": 58,
            "name": "Markham—Unionville"
          }
        ],
        "pollDivisionIds": [
          10139667
        ],
        "postalCode": "L6C2N2",
        "streetName": "ABBOTSBURY",
        "streetDirectionId": null,
        "streetTypeId": "LANE",
        "placeName": "MARKHAM",
        "streetNameDisplayText": "ABBOTSBURY LANE, MARKHAM"
      },
      {
        "electoralDistricts": [
          {
            "election": null,
            "id": 58,
            "name": "Markham—Unionville"
          }
        ],
        "pollDivisionIds": [
          10139667
        ],
        "postalCode": "L6C2N2",
        "streetName": "KING HENRY",
        "streetDirectionId": null,
        "streetTypeId": "DR",
        "placeName": "MARKHAM",
        "streetNameDisplayText": "KING HENRY DR, MARKHAM"
      },
      {
        "electoralDistricts": [
          {
            "election": null,
            "id": 58,
            "name": "Markham—Unionville"
          }
        ],
        "pollDivisionIds": [
          10139667
        ],
        "postalCode": "L6C2N2",
        "streetName": "WILTSHIRE",
        "streetDirectionId": null,
        "streetTypeId": "DR",
        "placeName": "MARKHAM",
        "streetNameDisplayText": "WILTSHIRE DR, MARKHAM"
      }
    ]
  },
  {
    "postal": "L6C4N8",
    "result": []
  },
  {
    "postal": "L6C3M5",
    "result": []
  },
  {
    "postal": "L6C6H7",
    "result": []
  },
  {
    "postal": "L6C8Y8",
    "result": []
  },
  {
    "postal": "L6C5R9",
    "result": []
  },
  {
    "postal": "L6C8G3",
    "result": []
  },
  {
    "postal": "L6C4N7",
    "result": []
  },
  {
    "postal": "L6C0B9",
    "result": [
      {
        "electoralDistricts": [
          {
            "election": null,
            "id": 58,
            "name": "Markham—Unionville"
          }
        ],
        "pollDivisionIds": [
          10139667
        ],
        "postalCode": "L6C0B9",
        "streetName": "WARRINGTON",
        "streetDirectionId": null,
        "streetTypeId": "WAY",
        "placeName": "MARKHAM",
        "streetNameDisplayText": "WARRINGTON WAY, MARKHAM"
      }
    ]
  },
  {
    "postal": "L6C9K7",
    "result": []
  },
  {
    "postal": "L6C9K9",
    "result": []
  },
  {
    "postal": "L6C3Z2",
    "result": []
  },
  {
    "postal": "L6C6W7",
    "result": []
  },
  {
    "postal": "L6C0P1",
    "result": [
      {
        "electoralDistricts": [
          {
            "election": null,
            "id": 58,
            "name": "Markham—Unionville"
          }
        ],
        "pollDivisionIds": [
          10139660
        ],
        "postalCode": "L6C0P1",
        "streetName": "CATHEDRAL HIGH",
        "streetDirectionId": null,
        "streetTypeId": "ST",
        "placeName": "MARKHAM",
        "streetNameDisplayText": "CATHEDRAL HIGH ST, MARKHAM"
      },
      {
        "electoralDistricts": [
          {
            "election": null,
            "id": 58,
            "name": "Markham—Unionville"
          }
        ],
        "pollDivisionIds": [
          10139660
        ],
        "postalCode": "L6C0P1",
        "streetName": "DONALD BUTTRESS",
        "streetDirectionId": "W",
        "streetTypeId": "BLVD",
        "placeName": "MARKHAM",
        "streetNameDisplayText": "DONALD BUTTRESS BLVD W, MARKHAM"
      },
      {
        "electoralDistricts": [
          {
            "election": null,
            "id": 58,
            "name": "Markham—Unionville"
          }
        ],
        "pollDivisionIds": [
          10139660
        ],
        "postalCode": "L6C0P1",
        "streetName": "RUSKOV",
        "streetDirectionId": null,
        "streetTypeId": "LANE",
        "placeName": "MARKHAM",
        "streetNameDisplayText": "RUSKOV LANE, MARKHAM"
      },
      {
        "electoralDistricts": [
          {
            "election": null,
            "id": 58,
            "name": "Markham—Unionville"
          }
        ],
        "pollDivisionIds": [
          10139660
        ],
        "postalCode": "L6C0P1",
        "streetName": "VANDAAM",
        "streetDirectionId": null,
        "streetTypeId": "LANE",
        "placeName": "MARKHAM",
        "streetNameDisplayText": "VANDAAM LANE, MARKHAM"
      }
    ]
  },
  {
    "postal": "L6C3A0",
    "result": []
  },
  {
    "postal": "L6C8L9",
    "result": []
  },
  {
    "postal": "L6C6X0",
    "result": []
  },
  {
    "postal": "L6C3E9",
    "result": [
      {
        "electoralDistricts": [
          {
            "election": null,
            "id": 58,
            "name": "Markham—Unionville"
          }
        ],
        "pollDivisionIds": [
          10139667
        ],
        "postalCode": "L6C3E9",
        "streetName": "COBBLEHILL",
        "streetDirectionId": null,
        "streetTypeId": "CRT",
        "placeName": "MARKHAM",
        "streetNameDisplayText": "COBBLEHILL CRT, MARKHAM"
      },
      {
        "electoralDistricts": [
          {
            "election": null,
            "id": 58,
            "name": "Markham—Unionville"
          }
        ],
        "pollDivisionIds": [
          10139667
        ],
        "postalCode": "L6C3E9",
        "streetName": "DEVONWOOD",
        "streetDirectionId": null,
        "streetTypeId": "DR",
        "placeName": "MARKHAM",
        "streetNameDisplayText": "DEVONWOOD DR, MARKHAM"
      },
      {
        "electoralDistricts": [
          {
            "election": null,
            "id": 58,
            "name": "Markham—Unionville"
          }
        ],
        "pollDivisionIds": [
          10139667
        ],
        "postalCode": "L6C3E9",
        "streetName": "HILLWOOD",
        "streetDirectionId": null,
        "streetTypeId": "ST",
        "placeName": "MARKHAM",
        "streetNameDisplayText": "HILLWOOD ST, MARKHAM"
      }
    ]
  },
  {
    "postal": "L6C0S5",
    "result": [
      {
        "electoralDistricts": [
          {
            "election": null,
            "id": 58,
            "name": "Markham—Unionville"
          }
        ],
        "pollDivisionIds": [
          10139670
        ],
        "postalCode": "L6C0S5",
        "streetName": "BROCK",
        "streetDirectionId": null,
        "streetTypeId": "AVE",
        "placeName": "MARKHAM",
        "streetNameDisplayText": "BROCK AVE, MARKHAM"
      },
      {
        "electoralDistricts": [
          {
            "election": null,
            "id": 58,
            "name": "Markham—Unionville"
          }
        ],
        "pollDivisionIds": [
          10139670
        ],
        "postalCode": "L6C0S5",
        "streetName": "HOLST",
        "streetDirectionId": null,
        "streetTypeId": "AVE",
        "placeName": "MARKHAM",
        "streetNameDisplayText": "HOLST AVE, MARKHAM"
      },
      {
        "electoralDistricts": [
          {
            "election": null,
            "id": 58,
            "name": "Markham—Unionville"
          }
        ],
        "pollDivisionIds": [
          10139670
        ],
        "postalCode": "L6C0S5",
        "streetName": "HUBNER",
        "streetDirectionId": null,
        "streetTypeId": "AVE",
        "placeName": "MARKHAM",
        "streetNameDisplayText": "HUBNER AVE, MARKHAM"
      },
      {
        "electoralDistricts": [
          {
            "election": null,
            "id": 58,
            "name": "Markham—Unionville"
          }
        ],
        "pollDivisionIds": [
          10139670
        ],
        "postalCode": "L6C0S5",
        "streetName": "WILLIAM BERCZY",
        "streetDirectionId": null,
        "streetTypeId": "BLVD",
        "placeName": "MARKHAM",
        "streetNameDisplayText": "WILLIAM BERCZY BLVD, MARKHAM"
      }
    ]
  },
  {
    "postal": "L6C1A2",
    "result": [
      {
        "electoralDistricts": [
          {
            "election": null,
            "id": 58,
            "name": "Markham—Unionville"
          }
        ],
        "pollDivisionIds": [
          10139661
        ],
        "postalCode": "L6C1A2",
        "streetName": "GLENRIDGE",
        "streetDirectionId": null,
        "streetTypeId": "DR",
        "placeName": "MARKHAM",
        "streetNameDisplayText": "GLENRIDGE DR, MARKHAM"
      },
      {
        "electoralDistricts": [
          {
            "election": null,
            "id": 58,
            "name": "Markham—Unionville"
          }
        ],
        "pollDivisionIds": [
          10139661
        ],
        "postalCode": "L6C1A2",
        "streetName": "WALNUT GLEN",
        "streetDirectionId": null,
        "streetTypeId": "PL",
        "placeName": "MARKHAM",
        "streetNameDisplayText": "WALNUT GLEN PL, MARKHAM"
      }
    ]
  },
  {
    "postal": "L6C5V8",
    "result": []
  },
  {
    "postal": "L6C8C5",
    "result": []
  },
  {
    "postal": "L6C6N0",
    "result": []
  },
  {
    "postal": "L6C9E6",
    "result": []
  },
  {
    "postal": "L6C5J7",
    "result": []
  },
  {
    "postal": "L6C2R2",
    "result": [
      {
        "electoralDistricts": [
          {
            "election": null,
            "id": 58,
            "name": "Markham—Unionville"
          }
        ],
        "pollDivisionIds": [
          10139667
        ],
        "postalCode": "L6C2R2",
        "streetName": "BERTRAM EARNSHAW",
        "streetDirectionId": null,
        "streetTypeId": "DR",
        "placeName": "MARKHAM",
        "streetNameDisplayText": "BERTRAM EARNSHAW DR, MARKHAM"
      },
      {
        "electoralDistricts": [
          {
            "election": null,
            "id": 58,
            "name": "Markham—Unionville"
          }
        ],
        "pollDivisionIds": [
          10139667
        ],
        "postalCode": "L6C2R2",
        "streetName": "BRENTCLIFF",
        "streetDirectionId": null,
        "streetTypeId": "GATE",
        "placeName": "MARKHAM",
        "streetNameDisplayText": "BRENTCLIFF GATE, MARKHAM"
      },
      {
        "electoralDistricts": [
          {
            "election": null,
            "id": 58,
            "name": "Markham—Unionville"
          }
        ],
        "pollDivisionIds": [
          10139667
        ],
        "postalCode": "L6C2R2",
        "streetName": "CHESTERTOWN",
        "streetDirectionId": null,
        "streetTypeId": "SQ",
        "placeName": "MARKHAM",
        "streetNameDisplayText": "CHESTERTOWN SQ, MARKHAM"
      },
      {
        "electoralDistricts": [
          {
            "election": null,
            "id": 58,
            "name": "Markham—Unionville"
          }
        ],
        "pollDivisionIds": [
          10139667
        ],
        "postalCode": "L6C2R2",
        "streetName": "LAURAVIEW",
        "streetDirectionId": null,
        "streetTypeId": "CRES",
        "placeName": "MARKHAM",
        "streetNameDisplayText": "LAURAVIEW CRES, MARKHAM"
      },
      {
        "electoralDistricts": [
          {
            "election": null,
            "id": 58,
            "name": "Markham—Unionville"
          }
        ],
        "pollDivisionIds": [
          10139667
        ],
        "postalCode": "L6C2R2",
        "streetName": "RIDGECREST",
        "streetDirectionId": null,
        "streetTypeId": "RD",
        "placeName": "MARKHAM",
        "streetNameDisplayText": "RIDGECREST RD, MARKHAM"
      },
      {
        "electoralDistricts": [
          {
            "election": null,
            "id": 58,
            "name": "Markham—Unionville"
          }
        ],
        "pollDivisionIds": [
          10139667
        ],
        "postalCode": "L6C2R2",
        "streetName": "WILTSHIRE",
        "streetDirectionId": null,
        "streetTypeId": "DR",
        "placeName": "MARKHAM",
        "streetNameDisplayText": "WILTSHIRE DR, MARKHAM"
      }
    ]
  },
  {
    "postal": "L6C0P5",
    "result": [
      {
        "electoralDistricts": [
          {
            "election": null,
            "id": 58,
            "name": "Markham—Unionville"
          }
        ],
        "pollDivisionIds": [
          10139661
        ],
        "postalCode": "L6C0P5",
        "streetName": "ANGUS GLEN",
        "streetDirectionId": null,
        "streetTypeId": "BLVD",
        "placeName": "MARKHAM",
        "streetNameDisplayText": "ANGUS GLEN BLVD, MARKHAM"
      },
      {
        "electoralDistricts": [
          {
            "election": null,
            "id": 58,
            "name": "Markham—Unionville"
          }
        ],
        "pollDivisionIds": [
          10139661
        ],
        "postalCode": "L6C0P5",
        "streetName": "BERKSHIRE",
        "streetDirectionId": null,
        "streetTypeId": "CRES",
        "placeName": "MARKHAM",
        "streetNameDisplayText": "BERKSHIRE CRES, MARKHAM"
      },
      {
        "electoralDistricts": [
          {
            "election": null,
            "id": 58,
            "name": "Markham—Unionville"
          }
        ],
        "pollDivisionIds": [
          10139661
        ],
        "postalCode": "L6C0P5",
        "streetName": "STOLLERY POND",
        "streetDirectionId": null,
        "streetTypeId": "CRES",
        "placeName": "MARKHAM",
        "streetNameDisplayText": "STOLLERY POND CRES, MARKHAM"
      }
    ]
  },
  {
    "postal": "L6C5A7",
    "result": []
  },
  {
    "postal": "L6C1G1",
    "result": [
      {
        "electoralDistricts": [
          {
            "election": null,
            "id": 58,
            "name": "Markham—Unionville"
          }
        ],
        "pollDivisionIds": [
          10139664
        ],
        "postalCode": "L6C1G1",
        "streetName": "PERSONNA",
        "streetDirectionId": null,
        "streetTypeId": "BLVD",
        "placeName": "MARKHAM",
        "streetNameDisplayText": "PERSONNA BLVD, MARKHAM"
      }
    ]
  },
  {
    "postal": "L6C9R6",
    "result": []
  },
  {
    "postal": "L6C4Z9",
    "result": []
  },
  {
    "postal": "L6C1V5",
    "result": [
      {
        "electoralDistricts": [
          {
            "election": null,
            "id": 58,
            "name": "Markham—Unionville"
          }
        ],
        "pollDivisionIds": [
          10139665
        ],
        "postalCode": "L6C1V5",
        "streetName": "CALVERT",
        "streetDirectionId": null,
        "streetTypeId": "RD",
        "placeName": "MARKHAM",
        "streetNameDisplayText": "CALVERT RD, MARKHAM"
      },
      {
        "electoralDistricts": [
          {
            "election": null,
            "id": 58,
            "name": "Markham—Unionville"
          }
        ],
        "pollDivisionIds": [
          10139665
        ],
        "postalCode": "L6C1V5",
        "streetName": "VILLAGE GATE",
        "streetDirectionId": null,
        "streetTypeId": "DR",
        "placeName": "MARKHAM",
        "streetNameDisplayText": "VILLAGE GATE DR, MARKHAM"
      },
      {
        "electoralDistricts": [
          {
            "election": null,
            "id": 58,
            "name": "Markham—Unionville"
          }
        ],
        "pollDivisionIds": [
          10139665
        ],
        "postalCode": "L6C1V5",
        "streetName": "WILD ORCHID",
        "streetDirectionId": null,
        "streetTypeId": "CRES",
        "placeName": "MARKHAM",
        "streetNameDisplayText": "WILD ORCHID CRES, MARKHAM"
      }
    ]
  },
  {
    "postal": "L6C9Y5",
    "result": []
  },
  {
    "postal": "L6C1P2",
    "result": [
      {
        "electoralDistricts": [
          {
            "election": null,
            "id": 58,
            "name": "Markham—Unionville"
          }
        ],
        "pollDivisionIds": [
          10139661
        ],
        "postalCode": "L6C1P2",
        "streetName": "KENNEDY",
        "streetDirectionId": null,
        "streetTypeId": "RD",
        "placeName": "MARKHAM",
        "streetNameDisplayText": "KENNEDY RD, MARKHAM"
      }
    ]
  },
  {
    "postal": "L6C5X0",
    "result": []
  },
  {
    "postal": "L6C7B8",
    "result": []
  },
  {
    "postal": "L6C0C6",
    "result": [
      {
        "electoralDistricts": [
          {
            "election": null,
            "id": 58,
            "name": "Markham—Unionville"
          }
        ],
        "pollDivisionIds": [
          10139663
        ],
        "postalCode": "L6C0C6",
        "streetName": "MARKLAND",
        "streetDirectionId": null,
        "streetTypeId": "ST",
        "placeName": "MARKHAM",
        "streetNameDisplayText": "MARKLAND ST, MARKHAM"
      }
    ]
  },
  {
    "postal": "L6C6G1",
    "result": []
  },
  {
    "postal": "L6C3K3",
    "result": []
  },
  {
    "postal": "L6C9R0",
    "result": []
  },
  {
    "postal": "L6C4R8",
    "result": []
  },
  {
    "postal": "L6C5P9",
    "result": []
  },
  {
    "postal": "L6C8N4",
    "result": []
  },
  {
    "postal": "L6C8H4",
    "result": []
  },
  {
    "postal": "L6C4V1",
    "result": []
  },
  {
    "postal": "L6C1K5",
    "result": [
      {
        "electoralDistricts": [
          {
            "election": null,
            "id": 58,
            "name": "Markham—Unionville"
          }
        ],
        "pollDivisionIds": [
          10139661
        ],
        "postalCode": "L6C1K5",
        "streetName": "MAJOR MACKENZIE",
        "streetDirectionId": "E",
        "streetTypeId": "DR",
        "placeName": "MARKHAM",
        "streetNameDisplayText": "MAJOR MACKENZIE DR E, MARKHAM"
      }
    ]
  },
  {
    "postal": "L6C1Z5",
    "result": [
      {
        "electoralDistricts": [
          {
            "election": null,
            "id": 58,
            "name": "Markham—Unionville"
          }
        ],
        "pollDivisionIds": [
          10139663
        ],
        "postalCode": "L6C1Z5",
        "streetName": "MAJOR MACKENZIE",
        "streetDirectionId": "E",
        "streetTypeId": "DR",
        "placeName": "MARKHAM",
        "streetNameDisplayText": "MAJOR MACKENZIE DR E, MARKHAM"
      }
    ]
  },
  {
    "postal": "L6C9L9",
    "result": []
  },
  {
    "postal": "L6C5L2",
    "result": []
  },
  {
    "postal": "L6C0M2",
    "result": [
      {
        "electoralDistricts": [
          {
            "election": null,
            "id": 58,
            "name": "Markham—Unionville"
          }
        ],
        "pollDivisionIds": [
          10139660
        ],
        "postalCode": "L6C0M2",
        "streetName": "STAGLIN",
        "streetDirectionId": null,
        "streetTypeId": "CRT",
        "placeName": "MARKHAM",
        "streetNameDisplayText": "STAGLIN CRT, MARKHAM"
      }
    ]
  },
  {
    "postal": "L6C1K8",
    "result": [
      {
        "electoralDistricts": [
          {
            "election": null,
            "id": 58,
            "name": "Markham—Unionville"
          }
        ],
        "pollDivisionIds": [
          10139660
        ],
        "postalCode": "L6C1K8",
        "streetName": "ELGIN MILLS",
        "streetDirectionId": "E",
        "streetTypeId": "RD",
        "placeName": "MARKHAM",
        "streetNameDisplayText": "ELGIN MILLS RD E, MARKHAM"
      }
    ]
  },
  {
    "postal": "L6C3M7",
    "result": []
  },
  {
    "postal": "L6C1B2",
    "result": [
      {
        "electoralDistricts": [
          {
            "election": null,
            "id": 58,
            "name": "Markham—Unionville"
          }
        ],
        "pollDivisionIds": [
          10139664
        ],
        "postalCode": "L6C1B2",
        "streetName": "ALLEN",
        "streetDirectionId": null,
        "streetTypeId": "MANOR",
        "placeName": "MARKHAM",
        "streetNameDisplayText": "ALLEN MANOR, MARKHAM"
      }
    ]
  },
  {
    "postal": "L6C0H9",
    "result": []
  },
  {
    "postal": "L6C8M4",
    "result": []
  },
  {
    "postal": "L6C2M5",
    "result": [
      {
        "electoralDistricts": [
          {
            "election": null,
            "id": 58,
            "name": "Markham—Unionville"
          }
        ],
        "pollDivisionIds": [
          10139670
        ],
        "postalCode": "L6C2M5",
        "streetName": "BUR OAK",
        "streetDirectionId": null,
        "streetTypeId": "AVE",
        "placeName": "MARKHAM",
        "streetNameDisplayText": "BUR OAK AVE, MARKHAM"
      },
      {
        "electoralDistricts": [
          {
            "election": null,
            "id": 58,
            "name": "Markham—Unionville"
          }
        ],
        "pollDivisionIds": [
          10139670
        ],
        "postalCode": "L6C2M5",
        "streetName": "RUSSELL HILL",
        "streetDirectionId": null,
        "streetTypeId": "RD",
        "placeName": "MARKHAM",
        "streetNameDisplayText": "RUSSELL HILL RD, MARKHAM"
      },
      {
        "electoralDistricts": [
          {
            "election": null,
            "id": 58,
            "name": "Markham—Unionville"
          }
        ],
        "pollDivisionIds": [
          10139670
        ],
        "postalCode": "L6C2M5",
        "streetName": "THE BRIDLE",
        "streetDirectionId": null,
        "streetTypeId": "WALK",
        "placeName": "MARKHAM",
        "streetNameDisplayText": "THE BRIDLE WALK, MARKHAM"
      }
    ]
  },
  {
    "postal": "L6C0T9",
    "result": [
      {
        "electoralDistricts": [
          {
            "election": null,
            "id": 58,
            "name": "Markham—Unionville"
          }
        ],
        "pollDivisionIds": [
          10139660
        ],
        "postalCode": "L6C0T9",
        "streetName": "LIVANTE",
        "streetDirectionId": null,
        "streetTypeId": "CRT",
        "placeName": "MARKHAM",
        "streetNameDisplayText": "LIVANTE CRT, MARKHAM"
      }
    ]
  },
  {
    "postal": "L6C3P1",
    "result": []
  },
  {
    "postal": "L6C1R6",
    "result": [
      {
        "electoralDistricts": [
          {
            "election": null,
            "id": 58,
            "name": "Markham—Unionville"
          }
        ],
        "pollDivisionIds": [
          10139664
        ],
        "postalCode": "L6C1R6",
        "streetName": "DALT HICKS WAY",
        "streetDirectionId": null,
        "streetTypeId": "WAY",
        "placeName": "MARKHAM",
        "streetNameDisplayText": "DALT HICKS WAY WAY, MARKHAM"
      },
      {
        "electoralDistricts": [
          {
            "election": null,
            "id": 58,
            "name": "Markham—Unionville"
          }
        ],
        "pollDivisionIds": [
          10139664
        ],
        "postalCode": "L6C1R6",
        "streetName": "DALT HICKS",
        "streetDirectionId": null,
        "streetTypeId": "WAY",
        "placeName": "MARKHAM",
        "streetNameDisplayText": "DALT HICKS WAY, MARKHAM"
      },
      {
        "electoralDistricts": [
          {
            "election": null,
            "id": 58,
            "name": "Markham—Unionville"
          }
        ],
        "pollDivisionIds": [
          10139664
        ],
        "postalCode": "L6C1R6",
        "streetName": "FOUNDERS",
        "streetDirectionId": null,
        "streetTypeId": "WAY",
        "placeName": "MARKHAM",
        "streetNameDisplayText": "FOUNDERS WAY, MARKHAM"
      },
      {
        "electoralDistricts": [
          {
            "election": null,
            "id": 58,
            "name": "Markham—Unionville"
          }
        ],
        "pollDivisionIds": [
          10139664
        ],
        "postalCode": "L6C1R6",
        "streetName": "KIN",
        "streetDirectionId": null,
        "streetTypeId": "WAY",
        "placeName": "MARKHAM",
        "streetNameDisplayText": "KIN WAY, MARKHAM"
      }
    ]
  },
  {
    "postal": "L6C9V5",
    "result": []
  },
  {
    "postal": "L6C9T0",
    "result": []
  },
  {
    "postal": "L6C0A9",
    "result": [
      {
        "electoralDistricts": [
          {
            "election": null,
            "id": 58,
            "name": "Markham—Unionville"
          }
        ],
        "pollDivisionIds": [
          10139671
        ],
        "postalCode": "L6C0A9",
        "streetName": "CASTLEGLEN",
        "streetDirectionId": null,
        "streetTypeId": "BLVD",
        "placeName": "MARKHAM",
        "streetNameDisplayText": "CASTLEGLEN BLVD, MARKHAM"
      },
      {
        "electoralDistricts": [
          {
            "election": null,
            "id": 58,
            "name": "Markham—Unionville"
          }
        ],
        "pollDivisionIds": [
          10139671
        ],
        "postalCode": "L6C0A9",
        "streetName": "LARCASTIA",
        "streetDirectionId": null,
        "streetTypeId": "AVE",
        "placeName": "MARKHAM",
        "streetNameDisplayText": "LARCASTIA AVE, MARKHAM"
      },
      {
        "electoralDistricts": [
          {
            "election": null,
            "id": 58,
            "name": "Markham—Unionville"
          }
        ],
        "pollDivisionIds": [
          10139671
        ],
        "postalCode": "L6C0A9",
        "streetName": "LARCASTLE",
        "streetDirectionId": null,
        "streetTypeId": "AVE",
        "placeName": "MARKHAM",
        "streetNameDisplayText": "LARCASTLE AVE, MARKHAM"
      }
    ]
  },
  {
    "postal": "L6C1M3",
    "result": [
      {
        "electoralDistricts": [
          {
            "election": null,
            "id": 58,
            "name": "Markham—Unionville"
          }
        ],
        "pollDivisionIds": [
          10139661
        ],
        "postalCode": "L6C1M3",
        "streetName": "19TH",
        "streetDirectionId": null,
        "streetTypeId": "AVE",
        "placeName": "MARKHAM",
        "streetNameDisplayText": "19TH AVE, MARKHAM"
      }
    ]
  },
  {
    "postal": "L6C1W8",
    "result": [
      {
        "electoralDistricts": [
          {
            "election": null,
            "id": 58,
            "name": "Markham—Unionville"
          }
        ],
        "pollDivisionIds": [
          10139665
        ],
        "postalCode": "L6C1W8",
        "streetName": "GATSBY",
        "streetDirectionId": null,
        "streetTypeId": "CRT",
        "placeName": "MARKHAM",
        "streetNameDisplayText": "GATSBY CRT, MARKHAM"
      },
      {
        "electoralDistricts": [
          {
            "election": null,
            "id": 58,
            "name": "Markham—Unionville"
          }
        ],
        "pollDivisionIds": [
          10139665
        ],
        "postalCode": "L6C1W8",
        "streetName": "SILVER ROSE",
        "streetDirectionId": null,
        "streetTypeId": "CRES",
        "placeName": "MARKHAM",
        "streetNameDisplayText": "SILVER ROSE CRES, MARKHAM"
      }
    ]
  },
  {
    "postal": "L6C9J1",
    "result": []
  },
  {
    "postal": "L6C8N5",
    "result": []
  },
  {
    "postal": "L6C5X1",
    "result": []
  },
  {
    "postal": "L6C6S2",
    "result": []
  },
  {
    "postal": "L6C2A2",
    "result": [
      {
        "electoralDistricts": [
          {
            "election": null,
            "id": 58,
            "name": "Markham—Unionville"
          }
        ],
        "pollDivisionIds": [
          10139661
        ],
        "postalCode": "L6C2A2",
        "streetName": "MUIRFIELD",
        "streetDirectionId": null,
        "streetTypeId": "TRAIL",
        "placeName": "MARKHAM",
        "streetNameDisplayText": "MUIRFIELD TRAIL, MARKHAM"
      },
      {
        "electoralDistricts": [
          {
            "election": null,
            "id": 58,
            "name": "Markham—Unionville"
          }
        ],
        "pollDivisionIds": [
          10139661
        ],
        "postalCode": "L6C2A2",
        "streetName": "THE FAIRWAYS",
        "streetDirectionId": null,
        "streetTypeId": null,
        "placeName": "MARKHAM",
        "streetNameDisplayText": "THE FAIRWAYS, MARKHAM"
      }
    ]
  },
  {
    "postal": "L6C6A6",
    "result": []
  },
  {
    "postal": "L6C0S3",
    "result": [
      {
        "electoralDistricts": [
          {
            "election": null,
            "id": 58,
            "name": "Markham—Unionville"
          }
        ],
        "pollDivisionIds": [
          10139670
        ],
        "postalCode": "L6C0S3",
        "streetName": "BROCK",
        "streetDirectionId": null,
        "streetTypeId": "AVE",
        "placeName": "MARKHAM",
        "streetNameDisplayText": "BROCK AVE, MARKHAM"
      },
      {
        "electoralDistricts": [
          {
            "election": null,
            "id": 58,
            "name": "Markham—Unionville"
          }
        ],
        "pollDivisionIds": [
          10139670
        ],
        "postalCode": "L6C0S3",
        "streetName": "HENRY BAUER",
        "streetDirectionId": null,
        "streetTypeId": "AVE",
        "placeName": "MARKHAM",
        "streetNameDisplayText": "HENRY BAUER AVE, MARKHAM"
      },
      {
        "electoralDistricts": [
          {
            "election": null,
            "id": 58,
            "name": "Markham—Unionville"
          }
        ],
        "pollDivisionIds": [
          10139670
        ],
        "postalCode": "L6C0S3",
        "streetName": "WILLIAM BERCZY",
        "streetDirectionId": null,
        "streetTypeId": "BLVD",
        "placeName": "MARKHAM",
        "streetNameDisplayText": "WILLIAM BERCZY BLVD, MARKHAM"
      }
    ]
  },
  {
    "postal": "L6C3E7",
    "result": [
      {
        "electoralDistricts": [
          {
            "election": null,
            "id": 58,
            "name": "Markham—Unionville"
          }
        ],
        "pollDivisionIds": [
          10139667
        ],
        "postalCode": "L6C3E7",
        "streetName": "BRIARCREST",
        "streetDirectionId": null,
        "streetTypeId": "DR",
        "placeName": "MARKHAM",
        "streetNameDisplayText": "BRIARCREST DR, MARKHAM"
      },
      {
        "electoralDistricts": [
          {
            "election": null,
            "id": 58,
            "name": "Markham—Unionville"
          }
        ],
        "pollDivisionIds": [
          10139667
        ],
        "postalCode": "L6C3E7",
        "streetName": "HILLWOOD",
        "streetDirectionId": null,
        "streetTypeId": "ST",
        "placeName": "MARKHAM",
        "streetNameDisplayText": "HILLWOOD ST, MARKHAM"
      }
    ]
  },
  {
    "postal": "L6C5R7",
    "result": []
  },
  {
    "postal": "L6C3R6",
    "result": []
  },
  {
    "postal": "L6C6K4",
    "result": []
  },
  {
    "postal": "L6C2W5",
    "result": [
      {
        "electoralDistricts": [
          {
            "election": null,
            "id": 58,
            "name": "Markham—Unionville"
          }
        ],
        "pollDivisionIds": [
          10139667
        ],
        "postalCode": "L6C2W5",
        "streetName": "GLENBROOK",
        "streetDirectionId": null,
        "streetTypeId": "DR",
        "placeName": "MARKHAM",
        "streetNameDisplayText": "GLENBROOK DR, MARKHAM"
      },
      {
        "electoralDistricts": [
          {
            "election": null,
            "id": 58,
            "name": "Markham—Unionville"
          }
        ],
        "pollDivisionIds": [
          10139667
        ],
        "postalCode": "L6C2W5",
        "streetName": "WARREN BRADLEY",
        "streetDirectionId": null,
        "streetTypeId": "ST",
        "placeName": "MARKHAM",
        "streetNameDisplayText": "WARREN BRADLEY ST, MARKHAM"
      }
    ]
  },
  {
    "postal": "L6C8W4",
    "result": []
  },
  {
    "postal": "L6C9C2",
    "result": []
  },
  {
    "postal": "L6C2C0",
    "result": []
  },
  {
    "postal": "L6C0E1",
    "result": [
      {
        "electoralDistricts": [
          {
            "election": null,
            "id": 58,
            "name": "Markham—Unionville"
          }
        ],
        "pollDivisionIds": [
          10139660
        ],
        "postalCode": "L6C0E1",
        "streetName": "DUKE OF YORK",
        "streetDirectionId": null,
        "streetTypeId": "ST",
        "placeName": "MARKHAM",
        "streetNameDisplayText": "DUKE OF YORK ST, MARKHAM"
      },
      {
        "electoralDistricts": [
          {
            "election": null,
            "id": 58,
            "name": "Markham—Unionville"
          }
        ],
        "pollDivisionIds": [
          10139660
        ],
        "postalCode": "L6C0E1",
        "streetName": "PRINCE OF WALES",
        "streetDirectionId": null,
        "streetTypeId": "DR",
        "placeName": "MARKHAM",
        "streetNameDisplayText": "PRINCE OF WALES DR, MARKHAM"
      }
    ]
  },
  {
    "postal": "L6C1K9",
    "result": [
      {
        "electoralDistricts": [
          {
            "election": null,
            "id": 58,
            "name": "Markham—Unionville"
          }
        ],
        "pollDivisionIds": [
          10139660
        ],
        "postalCode": "L6C1K9",
        "streetName": "ELGIN MILLS",
        "streetDirectionId": "E",
        "streetTypeId": "RD",
        "placeName": "MARKHAM",
        "streetNameDisplayText": "ELGIN MILLS RD E, MARKHAM"
      }
    ]
  },
  {
    "postal": "L6C1G7",
    "result": [
      {
        "electoralDistricts": [
          {
            "election": null,
            "id": 58,
            "name": "Markham—Unionville"
          }
        ],
        "pollDivisionIds": [
          10139661
        ],
        "postalCode": "L6C1G7",
        "streetName": "CACHET",
        "streetDirectionId": null,
        "streetTypeId": "PKY",
        "placeName": "MARKHAM",
        "streetNameDisplayText": "CACHET PKY, MARKHAM"
      }
    ]
  },
  {
    "postal": "L6C4E9",
    "result": []
  },
  {
    "postal": "L6C9P0",
    "result": []
  },
  {
    "postal": "L6C5H3",
    "result": []
  },
  {
    "postal": "L6C9X6",
    "result": []
  },
  {
    "postal": "L6C5N7",
    "result": []
  },
  {
    "postal": "L6C5A6",
    "result": []
  },
  {
    "postal": "L6C4M0",
    "result": []
  },
  {
    "postal": "L6C3V6",
    "result": []
  },
  {
    "postal": "L6C1L7",
    "result": [
      {
        "electoralDistricts": [
          {
            "election": null,
            "id": 58,
            "name": "Markham—Unionville"
          }
        ],
        "pollDivisionIds": [
          10139660
        ],
        "postalCode": "L6C1L7",
        "streetName": "19TH",
        "streetDirectionId": null,
        "streetTypeId": "AVE",
        "placeName": "MARKHAM",
        "streetNameDisplayText": "19TH AVE, MARKHAM"
      }
    ]
  },
  {
    "postal": "L6C2P9",
    "result": [
      {
        "electoralDistricts": [
          {
            "election": null,
            "id": 58,
            "name": "Markham—Unionville"
          }
        ],
        "pollDivisionIds": [
          10139667
        ],
        "postalCode": "L6C2P9",
        "streetName": "CASTLEMORE",
        "streetDirectionId": null,
        "streetTypeId": "AVE",
        "placeName": "MARKHAM",
        "streetNameDisplayText": "CASTLEMORE AVE, MARKHAM"
      }
    ]
  },
  {
    "postal": "L6C5T4",
    "result": []
  },
  {
    "postal": "L6C5Z1",
    "result": []
  },
  {
    "postal": "L6C2X0",
    "result": []
  },
  {
    "postal": "L6C6Z2",
    "result": []
  },
  {
    "postal": "L6C0E0",
    "result": []
  },
  {
    "postal": "L6C3Z5",
    "result": []
  },
  {
    "postal": "L6C8H3",
    "result": []
  },
  {
    "postal": "L6C7S6",
    "result": []
  },
  {
    "postal": "L6C4C1",
    "result": []
  },
  {
    "postal": "L6C3K2",
    "result": []
  },
  {
    "postal": "L6C1Y5",
    "result": [
      {
        "electoralDistricts": [
          {
            "election": null,
            "id": 58,
            "name": "Markham—Unionville"
          }
        ],
        "pollDivisionIds": [
          10139665
        ],
        "postalCode": "L6C1Y5",
        "streetName": "RENBERG",
        "streetDirectionId": null,
        "streetTypeId": "DR",
        "placeName": "MARKHAM",
        "streetNameDisplayText": "RENBERG DR, MARKHAM"
      },
      {
        "electoralDistricts": [
          {
            "election": null,
            "id": 58,
            "name": "Markham—Unionville"
          }
        ],
        "pollDivisionIds": [
          10139665
        ],
        "postalCode": "L6C1Y5",
        "streetName": "VANDERMEER",
        "streetDirectionId": null,
        "streetTypeId": "DR",
        "placeName": "MARKHAM",
        "streetNameDisplayText": "VANDERMEER DR, MARKHAM"
      },
      {
        "electoralDistricts": [
          {
            "election": null,
            "id": 58,
            "name": "Markham—Unionville"
          }
        ],
        "pollDivisionIds": [
          10139665
        ],
        "postalCode": "L6C1Y5",
        "streetName": "VILLAGE GATE",
        "streetDirectionId": null,
        "streetTypeId": "DR",
        "placeName": "MARKHAM",
        "streetNameDisplayText": "VILLAGE GATE DR, MARKHAM"
      }
    ]
  },
  {
    "postal": "L6C6P6",
    "result": []
  },
  {
    "postal": "L6C3N9",
    "result": []
  },
  {
    "postal": "L6C3W2",
    "result": []
  },
  {
    "postal": "L6C6H8",
    "result": []
  },
  {
    "postal": "L6C9T3",
    "result": []
  },
  {
    "postal": "L6C5L9",
    "result": []
  },
  {
    "postal": "L6C7X7",
    "result": []
  },
  {
    "postal": "L6C3J5",
    "result": []
  },
  {
    "postal": "L6C4J5",
    "result": []
  },
  {
    "postal": "L6C6J2",
    "result": []
  },
  {
    "postal": "L6C5V6",
    "result": []
  },
  {
    "postal": "L6C3N2",
    "result": []
  },
  {
    "postal": "L6C3B1",
    "result": [
      {
        "electoralDistricts": [
          {
            "election": null,
            "id": 58,
            "name": "Markham—Unionville"
          }
        ],
        "pollDivisionIds": [
          10139671
        ],
        "postalCode": "L6C3B1",
        "streetName": "GLENBROOK",
        "streetDirectionId": null,
        "streetTypeId": "DR",
        "placeName": "MARKHAM",
        "streetNameDisplayText": "GLENBROOK DR, MARKHAM"
      }
    ]
  },
  {
    "postal": "L6C8B5",
    "result": []
  },
  {
    "postal": "L6C0K1",
    "result": [
      {
        "electoralDistricts": [
          {
            "election": null,
            "id": 58,
            "name": "Markham—Unionville"
          }
        ],
        "pollDivisionIds": [
          10139661
        ],
        "postalCode": "L6C0K1",
        "streetName": "ANGUS GLEN",
        "streetDirectionId": null,
        "streetTypeId": "BLVD",
        "placeName": "MARKHAM",
        "streetNameDisplayText": "ANGUS GLEN BLVD, MARKHAM"
      },
      {
        "electoralDistricts": [
          {
            "election": null,
            "id": 58,
            "name": "Markham—Unionville"
          }
        ],
        "pollDivisionIds": [
          10139661
        ],
        "postalCode": "L6C0K1",
        "streetName": "DUNGANNON",
        "streetDirectionId": null,
        "streetTypeId": "DR",
        "placeName": "MARKHAM",
        "streetNameDisplayText": "DUNGANNON DR, MARKHAM"
      },
      {
        "electoralDistricts": [
          {
            "election": null,
            "id": 58,
            "name": "Markham—Unionville"
          }
        ],
        "pollDivisionIds": [
          10139661
        ],
        "postalCode": "L6C0K1",
        "streetName": "ERNIE AMSLER",
        "streetDirectionId": null,
        "streetTypeId": "CRT",
        "placeName": "MARKHAM",
        "streetNameDisplayText": "ERNIE AMSLER CRT, MARKHAM"
      },
      {
        "electoralDistricts": [
          {
            "election": null,
            "id": 58,
            "name": "Markham—Unionville"
          }
        ],
        "pollDivisionIds": [
          10139661
        ],
        "postalCode": "L6C0K1",
        "streetName": "GLENGORDON",
        "streetDirectionId": null,
        "streetTypeId": "CRES",
        "placeName": "MARKHAM",
        "streetNameDisplayText": "GLENGORDON CRES, MARKHAM"
      },
      {
        "electoralDistricts": [
          {
            "election": null,
            "id": 58,
            "name": "Markham—Unionville"
          }
        ],
        "pollDivisionIds": [
          10139661
        ],
        "postalCode": "L6C0K1",
        "streetName": "ROYAL COUNTY DOWN",
        "streetDirectionId": null,
        "streetTypeId": "CRES",
        "placeName": "MARKHAM",
        "streetNameDisplayText": "ROYAL COUNTY DOWN CRES, MARKHAM"
      }
    ]
  },
  {
    "postal": "L6C7M7",
    "result": []
  },
  {
    "postal": "L6C2M2",
    "result": [
      {
        "electoralDistricts": [
          {
            "election": null,
            "id": 58,
            "name": "Markham—Unionville"
          }
        ],
        "pollDivisionIds": [
          10139670
        ],
        "postalCode": "L6C2M2",
        "streetName": "GABLE",
        "streetDirectionId": null,
        "streetTypeId": "AVE",
        "placeName": "MARKHAM",
        "streetNameDisplayText": "GABLE AVE, MARKHAM"
      },
      {
        "electoralDistricts": [
          {
            "election": null,
            "id": 58,
            "name": "Markham—Unionville"
          }
        ],
        "pollDivisionIds": [
          10139670
        ],
        "postalCode": "L6C2M2",
        "streetName": "HUNTER'S",
        "streetDirectionId": null,
        "streetTypeId": "CRNRS",
        "placeName": "MARKHAM",
        "streetNameDisplayText": "HUNTER'S CRNRS, MARKHAM"
      },
      {
        "electoralDistricts": [
          {
            "election": null,
            "id": 58,
            "name": "Markham—Unionville"
          }
        ],
        "pollDivisionIds": [
          10139670
        ],
        "postalCode": "L6C2M2",
        "streetName": "WILLIAM BERCZY",
        "streetDirectionId": null,
        "streetTypeId": "BLVD",
        "placeName": "MARKHAM",
        "streetNameDisplayText": "WILLIAM BERCZY BLVD, MARKHAM"
      }
    ]
  },
  {
    "postal": "L6C9N3",
    "result": []
  },
  {
    "postal": "L6C4Y8",
    "result": []
  },
  {
    "postal": "L6C3V7",
    "result": []
  },
  {
    "postal": "L6C8Z1",
    "result": []
  },
  {
    "postal": "L6C7B3",
    "result": []
  },
  {
    "postal": "L6C3A8",
    "result": [
      {
        "electoralDistricts": [
          {
            "election": null,
            "id": 58,
            "name": "Markham—Unionville"
          }
        ],
        "pollDivisionIds": [
          10139667
        ],
        "postalCode": "L6C3A8",
        "streetName": "BUR OAK",
        "streetDirectionId": null,
        "streetTypeId": "AVE",
        "placeName": "MARKHAM",
        "streetNameDisplayText": "BUR OAK AVE, MARKHAM"
      },
      {
        "electoralDistricts": [
          {
            "election": null,
            "id": 58,
            "name": "Markham—Unionville"
          }
        ],
        "pollDivisionIds": [
          10139667
        ],
        "postalCode": "L6C3A8",
        "streetName": "CHARLES STURDY",
        "streetDirectionId": null,
        "streetTypeId": "PL",
        "placeName": "MARKHAM",
        "streetNameDisplayText": "CHARLES STURDY PL, MARKHAM"
      }
    ]
  },
  {
    "postal": "L6C7V5",
    "result": []
  },
  {
    "postal": "L6C2T2",
    "result": [
      {
        "electoralDistricts": [
          {
            "election": null,
            "id": 58,
            "name": "Markham—Unionville"
          }
        ],
        "pollDivisionIds": [
          10139665
        ],
        "postalCode": "L6C2T2",
        "streetName": "MACRILL",
        "streetDirectionId": null,
        "streetTypeId": "RD",
        "placeName": "MARKHAM",
        "streetNameDisplayText": "MACRILL RD, MARKHAM"
      },
      {
        "electoralDistricts": [
          {
            "election": null,
            "id": 58,
            "name": "Markham—Unionville"
          }
        ],
        "pollDivisionIds": [
          10139665
        ],
        "postalCode": "L6C2T2",
        "streetName": "THUNDERBIRD",
        "streetDirectionId": null,
        "streetTypeId": "CRT",
        "placeName": "MARKHAM",
        "streetNameDisplayText": "THUNDERBIRD CRT, MARKHAM"
      }
    ]
  },
  {
    "postal": "L6C6L3",
    "result": []
  },
  {
    "postal": "L6C0L2",
    "result": [
      {
        "electoralDistricts": [
          {
            "election": null,
            "id": 58,
            "name": "Markham—Unionville"
          }
        ],
        "pollDivisionIds": [
          10139660
        ],
        "postalCode": "L6C0L2",
        "streetName": "BRUCE THOMSON",
        "streetDirectionId": null,
        "streetTypeId": "DR",
        "placeName": "MARKHAM",
        "streetNameDisplayText": "BRUCE THOMSON DR, MARKHAM"
      },
      {
        "electoralDistricts": [
          {
            "election": null,
            "id": 58,
            "name": "Markham—Unionville"
          }
        ],
        "pollDivisionIds": [
          10139660
        ],
        "postalCode": "L6C0L2",
        "streetName": "COLONEL GEORGE MCLAREN",
        "streetDirectionId": null,
        "streetTypeId": "DR",
        "placeName": "MARKHAM",
        "streetNameDisplayText": "COLONEL GEORGE MCLAREN DR, MARKHAM"
      },
      {
        "electoralDistricts": [
          {
            "election": null,
            "id": 58,
            "name": "Markham—Unionville"
          }
        ],
        "pollDivisionIds": [
          10139660
        ],
        "postalCode": "L6C0L2",
        "streetName": "VICTORIA SQUARE",
        "streetDirectionId": null,
        "streetTypeId": "BLVD",
        "placeName": "MARKHAM",
        "streetNameDisplayText": "VICTORIA SQUARE BLVD, MARKHAM"
      }
    ]
  },
  {
    "postal": "L6C5Y8",
    "result": []
  },
  {
    "postal": "L6C0B8",
    "result": [
      {
        "electoralDistricts": [
          {
            "election": null,
            "id": 58,
            "name": "Markham—Unionville"
          }
        ],
        "pollDivisionIds": [
          10139667
        ],
        "postalCode": "L6C0B8",
        "streetName": "HILLWOOD",
        "streetDirectionId": null,
        "streetTypeId": "ST",
        "placeName": "MARKHAM",
        "streetNameDisplayText": "HILLWOOD ST, MARKHAM"
      },
      {
        "electoralDistricts": [
          {
            "election": null,
            "id": 58,
            "name": "Markham—Unionville"
          }
        ],
        "pollDivisionIds": [
          10139667
        ],
        "postalCode": "L6C0B8",
        "streetName": "WARRINGTON",
        "streetDirectionId": null,
        "streetTypeId": "WAY",
        "placeName": "MARKHAM",
        "streetNameDisplayText": "WARRINGTON WAY, MARKHAM"
      }
    ]
  },
  {
    "postal": "L6C6R5",
    "result": []
  },
  {
    "postal": "L6C8W6",
    "result": []
  },
  {
    "postal": "L6C8G6",
    "result": []
  },
  {
    "postal": "L6C6X3",
    "result": []
  },
  {
    "postal": "L6C7R7",
    "result": []
  },
  {
    "postal": "L6C4B6",
    "result": []
  },
  {
    "postal": "L6C3P9",
    "result": []
  },
  {
    "postal": "L6C2T3",
    "result": [
      {
        "electoralDistricts": [
          {
            "election": null,
            "id": 58,
            "name": "Markham—Unionville"
          }
        ],
        "pollDivisionIds": [
          10139665
        ],
        "postalCode": "L6C2T3",
        "streetName": "MACRILL",
        "streetDirectionId": null,
        "streetTypeId": "RD",
        "placeName": "MARKHAM",
        "streetNameDisplayText": "MACRILL RD, MARKHAM"
      },
      {
        "electoralDistricts": [
          {
            "election": null,
            "id": 58,
            "name": "Markham—Unionville"
          }
        ],
        "pollDivisionIds": [
          10139665
        ],
        "postalCode": "L6C2T3",
        "streetName": "ODESSA",
        "streetDirectionId": null,
        "streetTypeId": "CRES",
        "placeName": "MARKHAM",
        "streetNameDisplayText": "ODESSA CRES, MARKHAM"
      },
      {
        "electoralDistricts": [
          {
            "election": null,
            "id": 58,
            "name": "Markham—Unionville"
          }
        ],
        "pollDivisionIds": [
          10139665
        ],
        "postalCode": "L6C2T3",
        "streetName": "WALLINGFORD",
        "streetDirectionId": null,
        "streetTypeId": "CRT",
        "placeName": "MARKHAM",
        "streetNameDisplayText": "WALLINGFORD CRT, MARKHAM"
      }
    ]
  },
  {
    "postal": "L6C1M4",
    "result": [
      {
        "electoralDistricts": [
          {
            "election": null,
            "id": 58,
            "name": "Markham—Unionville"
          }
        ],
        "pollDivisionIds": [
          10139661
        ],
        "postalCode": "L6C1M4",
        "streetName": "19TH",
        "streetDirectionId": null,
        "streetTypeId": "AVE",
        "placeName": "MARKHAM",
        "streetNameDisplayText": "19TH AVE, MARKHAM"
      }
    ]
  },
  {
    "postal": "L6C0H1",
    "result": [
      {
        "electoralDistricts": [
          {
            "election": null,
            "id": 58,
            "name": "Markham—Unionville"
          }
        ],
        "pollDivisionIds": [
          10139660
        ],
        "postalCode": "L6C0H1",
        "streetName": "IVORY SILK",
        "streetDirectionId": null,
        "streetTypeId": "DR",
        "placeName": "MARKHAM",
        "streetNameDisplayText": "IVORY SILK DR, MARKHAM"
      },
      {
        "electoralDistricts": [
          {
            "election": null,
            "id": 58,
            "name": "Markham—Unionville"
          }
        ],
        "pollDivisionIds": [
          10139660
        ],
        "postalCode": "L6C0H1",
        "streetName": "RUSSELL DAWSON",
        "streetDirectionId": null,
        "streetTypeId": "RD",
        "placeName": "MARKHAM",
        "streetNameDisplayText": "RUSSELL DAWSON RD, MARKHAM"
      },
      {
        "electoralDistricts": [
          {
            "election": null,
            "id": 58,
            "name": "Markham—Unionville"
          }
        ],
        "pollDivisionIds": [
          10139660
        ],
        "postalCode": "L6C0H1",
        "streetName": "SILVERADO HILLS",
        "streetDirectionId": null,
        "streetTypeId": "DR",
        "placeName": "MARKHAM",
        "streetNameDisplayText": "SILVERADO HILLS DR, MARKHAM"
      }
    ]
  },
  {
    "postal": "L6C9W3",
    "result": []
  },
  {
    "postal": "L6C6P1",
    "result": []
  },
  {
    "postal": "L6C7G2",
    "result": []
  },
  {
    "postal": "L6C4J9",
    "result": []
  },
  {
    "postal": "L6C9E4",
    "result": []
  },
  {
    "postal": "L6C8H0",
    "result": []
  },
  {
    "postal": "L6C4M7",
    "result": []
  },
  {
    "postal": "L6C2G9",
    "result": [
      {
        "electoralDistricts": [
          {
            "election": null,
            "id": 58,
            "name": "Markham—Unionville"
          }
        ],
        "pollDivisionIds": [
          10139666
        ],
        "postalCode": "L6C2G9",
        "streetName": "CASTLEMORE",
        "streetDirectionId": null,
        "streetTypeId": "AVE",
        "placeName": "MARKHAM",
        "streetNameDisplayText": "CASTLEMORE AVE, MARKHAM"
      },
      {
        "electoralDistricts": [
          {
            "election": null,
            "id": 58,
            "name": "Markham—Unionville"
          }
        ],
        "pollDivisionIds": [
          10139666
        ],
        "postalCode": "L6C2G9",
        "streetName": "MAJESTIC",
        "streetDirectionId": null,
        "streetTypeId": "DR",
        "placeName": "MARKHAM",
        "streetNameDisplayText": "MAJESTIC DR, MARKHAM"
      }
    ]
  },
  {
    "postal": "L6C8T2",
    "result": []
  },
  {
    "postal": "L6C7G7",
    "result": []
  },
  {
    "postal": "L6C4Z3",
    "result": []
  },
  {
    "postal": "L6C5B3",
    "result": []
  },
  {
    "postal": "L6C1S7",
    "result": [
      {
        "electoralDistricts": [
          {
            "election": null,
            "id": 58,
            "name": "Markham—Unionville"
          }
        ],
        "pollDivisionIds": [
          10139664
        ],
        "postalCode": "L6C1S7",
        "streetName": "LAZENBY",
        "streetDirectionId": null,
        "streetTypeId": "CRT",
        "placeName": "MARKHAM",
        "streetNameDisplayText": "LAZENBY CRT, MARKHAM"
      },
      {
        "electoralDistricts": [
          {
            "election": null,
            "id": 58,
            "name": "Markham—Unionville"
          }
        ],
        "pollDivisionIds": [
          10139664
        ],
        "postalCode": "L6C1S7",
        "streetName": "RODICK",
        "streetDirectionId": null,
        "streetTypeId": "RD",
        "placeName": "MARKHAM",
        "streetNameDisplayText": "RODICK RD, MARKHAM"
      }
    ]
  },
  {
    "postal": "L6C2N7",
    "result": [
      {
        "electoralDistricts": [
          {
            "election": null,
            "id": 58,
            "name": "Markham—Unionville"
          }
        ],
        "pollDivisionIds": [
          10139670
        ],
        "postalCode": "L6C2N7",
        "streetName": "CYNTHIA JEAN",
        "streetDirectionId": null,
        "streetTypeId": "ST",
        "placeName": "MARKHAM",
        "streetNameDisplayText": "CYNTHIA JEAN ST, MARKHAM"
      },
      {
        "electoralDistricts": [
          {
            "election": null,
            "id": 58,
            "name": "Markham—Unionville"
          }
        ],
        "pollDivisionIds": [
          10139666,
          10139670
        ],
        "postalCode": "L6C2N7",
        "streetName": "VISCOUNT",
        "streetDirectionId": null,
        "streetTypeId": "DR",
        "placeName": "MARKHAM",
        "streetNameDisplayText": "VISCOUNT DR, MARKHAM"
      },
      {
        "electoralDistricts": [
          {
            "election": null,
            "id": 58,
            "name": "Markham—Unionville"
          }
        ],
        "pollDivisionIds": [
          10139670,
          10139666
        ],
        "postalCode": "L6C2N7",
        "streetName": "WEATHERILL",
        "streetDirectionId": null,
        "streetTypeId": "RD",
        "placeName": "MARKHAM",
        "streetNameDisplayText": "WEATHERILL RD, MARKHAM"
      }
    ]
  },
  {
    "postal": "L6C0H8",
    "result": [
      {
        "electoralDistricts": [
          {
            "election": null,
            "id": 58,
            "name": "Markham—Unionville"
          }
        ],
        "pollDivisionIds": [
          10139660
        ],
        "postalCode": "L6C0H8",
        "streetName": "TUFO",
        "streetDirectionId": null,
        "streetTypeId": "AVE",
        "placeName": "MARKHAM",
        "streetNameDisplayText": "TUFO AVE, MARKHAM"
      }
    ]
  },
  {
    "postal": "L6C7Z4",
    "result": []
  },
  {
    "postal": "L6C7B1",
    "result": []
  },
  {
    "postal": "L6C7P8",
    "result": []
  },
  {
    "postal": "L6C7N0",
    "result": []
  },
  {
    "postal": "L6C3Y5",
    "result": []
  },
  {
    "postal": "L6C6K1",
    "result": []
  },
  {
    "postal": "L6C9X5",
    "result": []
  },
  {
    "postal": "L6C7S5",
    "result": []
  },
  {
    "postal": "L6C0A4",
    "result": [
      {
        "electoralDistricts": [
          {
            "election": null,
            "id": 58,
            "name": "Markham—Unionville"
          }
        ],
        "pollDivisionIds": [
          10139660
        ],
        "postalCode": "L6C0A4",
        "streetName": "BETTY ROMAN",
        "streetDirectionId": null,
        "streetTypeId": "BLVD",
        "placeName": "MARKHAM",
        "streetNameDisplayText": "BETTY ROMAN BLVD, MARKHAM"
      },
      {
        "electoralDistricts": [
          {
            "election": null,
            "id": 58,
            "name": "Markham—Unionville"
          }
        ],
        "pollDivisionIds": [
          10139660
        ],
        "postalCode": "L6C0A4",
        "streetName": "BONHEUR",
        "streetDirectionId": null,
        "streetTypeId": "RD",
        "placeName": "MARKHAM",
        "streetNameDisplayText": "BONHEUR RD, MARKHAM"
      },
      {
        "electoralDistricts": [
          {
            "election": null,
            "id": 58,
            "name": "Markham—Unionville"
          }
        ],
        "pollDivisionIds": [
          10139660
        ],
        "postalCode": "L6C0A4",
        "streetName": "GARDON",
        "streetDirectionId": null,
        "streetTypeId": "AVE",
        "placeName": "MARKHAM",
        "streetNameDisplayText": "GARDON AVE, MARKHAM"
      },
      {
        "electoralDistricts": [
          {
            "election": null,
            "id": 58,
            "name": "Markham—Unionville"
          }
        ],
        "pollDivisionIds": [
          10139660
        ],
        "postalCode": "L6C0A4",
        "streetName": "VICTORIA SQUARE",
        "streetDirectionId": null,
        "streetTypeId": "BLVD",
        "placeName": "MARKHAM",
        "streetNameDisplayText": "VICTORIA SQUARE BLVD, MARKHAM"
      }
    ]
  },
  {
    "postal": "L6C4T5",
    "result": []
  },
  {
    "postal": "L6C5K1",
    "result": []
  },
  {
    "postal": "L6C0Z9",
    "result": []
  },
  {
    "postal": "L6C7T2",
    "result": []
  },
  {
    "postal": "L6C1L5",
    "result": [
      {
        "electoralDistricts": [
          {
            "election": null,
            "id": 58,
            "name": "Markham—Unionville"
          }
        ],
        "pollDivisionIds": [
          10139661
        ],
        "postalCode": "L6C1L5",
        "streetName": "ELGIN MILLS",
        "streetDirectionId": "E",
        "streetTypeId": "RD",
        "placeName": "MARKHAM",
        "streetNameDisplayText": "ELGIN MILLS RD E, MARKHAM"
      }
    ]
  },
  {
    "postal": "L6C3N5",
    "result": []
  },
  {
    "postal": "L6C6H4",
    "result": []
  },
  {
    "postal": "L6C5A5",
    "result": []
  },
  {
    "postal": "L6C3R9",
    "result": []
  },
  {
    "postal": "L6C7L8",
    "result": []
  },
  {
    "postal": "L6C6T6",
    "result": []
  },
  {
    "postal": "L6C7Y7",
    "result": []
  },
  {
    "postal": "L6C3M8",
    "result": []
  },
  {
    "postal": "L6C2E0",
    "result": []
  },
  {
    "postal": "L6C4B5",
    "result": []
  },
  {
    "postal": "L6C1J3",
    "result": [
      {
        "electoralDistricts": [
          {
            "election": null,
            "id": 58,
            "name": "Markham—Unionville"
          }
        ],
        "pollDivisionIds": [
          10139660
        ],
        "postalCode": "L6C1J3",
        "streetName": "VICTORIA SQUARE",
        "streetDirectionId": null,
        "streetTypeId": "BLVD",
        "placeName": "MARKHAM",
        "streetNameDisplayText": "VICTORIA SQUARE BLVD, MARKHAM"
      }
    ]
  },
  {
    "postal": "L6C5S6",
    "result": []
  },
  {
    "postal": "L6C8P7",
    "result": []
  },
  {
    "postal": "L6C7S7",
    "result": []
  },
  {
    "postal": "L6C4C2",
    "result": []
  },
  {
    "postal": "L6C5Y0",
    "result": []
  },
  {
    "postal": "L6C2V7",
    "result": [
      {
        "electoralDistricts": [
          {
            "election": null,
            "id": 58,
            "name": "Markham—Unionville"
          }
        ],
        "pollDivisionIds": [
          10139663
        ],
        "postalCode": "L6C2V7",
        "streetName": "HOPECREST",
        "streetDirectionId": null,
        "streetTypeId": "RD",
        "placeName": "MARKHAM",
        "streetNameDisplayText": "HOPECREST RD, MARKHAM"
      }
    ]
  },
  {
    "postal": "L6C8P5",
    "result": []
  },
  {
    "postal": "L6C5P5",
    "result": []
  },
  {
    "postal": "L6C5Z0",
    "result": []
  },
  {
    "postal": "L6C9B0",
    "result": []
  },
  {
    "postal": "L6C1L0",
    "result": []
  },
  {
    "postal": "L6C0B5",
    "result": [
      {
        "electoralDistricts": [
          {
            "election": null,
            "id": 58,
            "name": "Markham—Unionville"
          }
        ],
        "pollDivisionIds": [
          10139667
        ],
        "postalCode": "L6C0B5",
        "streetName": "PRINCE CHARLES",
        "streetDirectionId": null,
        "streetTypeId": "WAY",
        "placeName": "MARKHAM",
        "streetNameDisplayText": "PRINCE CHARLES WAY, MARKHAM"
      }
    ]
  },
  {
    "postal": "L6C3L2",
    "result": []
  },
  {
    "postal": "L6C3B7",
    "result": [
      {
        "electoralDistricts": [
          {
            "election": null,
            "id": 58,
            "name": "Markham—Unionville"
          }
        ],
        "pollDivisionIds": [
          10139670
        ],
        "postalCode": "L6C3B7",
        "streetName": "OLIVIA",
        "streetDirectionId": null,
        "streetTypeId": "DR",
        "placeName": "MARKHAM",
        "streetNameDisplayText": "OLIVIA DR, MARKHAM"
      }
    ]
  },
  {
    "postal": "L6C8L1",
    "result": []
  },
  {
    "postal": "L6C5M4",
    "result": []
  },
  {
    "postal": "L6C4G9",
    "result": []
  },
  {
    "postal": "L6C0P0",
    "result": []
  },
  {
    "postal": "L6C8G2",
    "result": []
  },
  {
    "postal": "L6C1V9",
    "result": [
      {
        "electoralDistricts": [
          {
            "election": null,
            "id": 58,
            "name": "Markham—Unionville"
          }
        ],
        "pollDivisionIds": [
          10139665
        ],
        "postalCode": "L6C1V9",
        "streetName": "PLUM TREE",
        "streetDirectionId": null,
        "streetTypeId": "CIR",
        "placeName": "MARKHAM",
        "streetNameDisplayText": "PLUM TREE CIR, MARKHAM"
      }
    ]
  },
  {
    "postal": "L6C8N8",
    "result": []
  },
  {
    "postal": "L6C6S8",
    "result": []
  },
  {
    "postal": "L6C8H2",
    "result": []
  },
  {
    "postal": "L6C5R8",
    "result": []
  },
  {
    "postal": "L6C5L4",
    "result": []
  },
  {
    "postal": "L6C9E1",
    "result": []
  },
  {
    "postal": "L6C1C4",
    "result": [
      {
        "electoralDistricts": [
          {
            "election": null,
            "id": 58,
            "name": "Markham—Unionville"
          }
        ],
        "pollDivisionIds": [
          10139664
        ],
        "postalCode": "L6C1C4",
        "streetName": "CACHET",
        "streetDirectionId": null,
        "streetTypeId": "PKY",
        "placeName": "MARKHAM",
        "streetNameDisplayText": "CACHET PKY, MARKHAM"
      }
    ]
  },
  {
    "postal": "L6C8W5",
    "result": []
  },
  {
    "postal": "L6C1Y4",
    "result": [
      {
        "electoralDistricts": [
          {
            "election": null,
            "id": 58,
            "name": "Markham—Unionville"
          }
        ],
        "pollDivisionIds": [
          10139665
        ],
        "postalCode": "L6C1Y4",
        "streetName": "MACRILL",
        "streetDirectionId": null,
        "streetTypeId": "RD",
        "placeName": "MARKHAM",
        "streetNameDisplayText": "MACRILL RD, MARKHAM"
      },
      {
        "electoralDistricts": [
          {
            "election": null,
            "id": 58,
            "name": "Markham—Unionville"
          }
        ],
        "pollDivisionIds": [
          10139665
        ],
        "postalCode": "L6C1Y4",
        "streetName": "MUMBERSON",
        "streetDirectionId": null,
        "streetTypeId": "CRT",
        "placeName": "MARKHAM",
        "streetNameDisplayText": "MUMBERSON CRT, MARKHAM"
      },
      {
        "electoralDistricts": [
          {
            "election": null,
            "id": 58,
            "name": "Markham—Unionville"
          }
        ],
        "pollDivisionIds": [
          10139665
        ],
        "postalCode": "L6C1Y4",
        "streetName": "RENBERG",
        "streetDirectionId": null,
        "streetTypeId": "DR",
        "placeName": "MARKHAM",
        "streetNameDisplayText": "RENBERG DR, MARKHAM"
      },
      {
        "electoralDistricts": [
          {
            "election": null,
            "id": 58,
            "name": "Markham—Unionville"
          }
        ],
        "pollDivisionIds": [
          10139665
        ],
        "postalCode": "L6C1Y4",
        "streetName": "ROSEWELL",
        "streetDirectionId": null,
        "streetTypeId": "CRES",
        "placeName": "MARKHAM",
        "streetNameDisplayText": "ROSEWELL CRES, MARKHAM"
      },
      {
        "electoralDistricts": [
          {
            "election": null,
            "id": 58,
            "name": "Markham—Unionville"
          }
        ],
        "pollDivisionIds": [
          10139665
        ],
        "postalCode": "L6C1Y4",
        "streetName": "VILLAGE GATE",
        "streetDirectionId": null,
        "streetTypeId": "DR",
        "placeName": "MARKHAM",
        "streetNameDisplayText": "VILLAGE GATE DR, MARKHAM"
      }
    ]
  },
  {
    "postal": "L6C1C0",
    "result": []
  },
  {
    "postal": "L6C2J2",
    "result": [
      {
        "electoralDistricts": [
          {
            "election": null,
            "id": 58,
            "name": "Markham—Unionville"
          }
        ],
        "pollDivisionIds": [
          10139663
        ],
        "postalCode": "L6C2J2",
        "streetName": "HILLMOUNT",
        "streetDirectionId": null,
        "streetTypeId": "RD",
        "placeName": "MARKHAM",
        "streetNameDisplayText": "HILLMOUNT RD, MARKHAM"
      },
      {
        "electoralDistricts": [
          {
            "election": null,
            "id": 58,
            "name": "Markham—Unionville"
          }
        ],
        "pollDivisionIds": [
          10139663
        ],
        "postalCode": "L6C2J2",
        "streetName": "MOSS CREEK",
        "streetDirectionId": null,
        "streetTypeId": "BLVD",
        "placeName": "MARKHAM",
        "streetNameDisplayText": "MOSS CREEK BLVD, MARKHAM"
      },
      {
        "electoralDistricts": [
          {
            "election": null,
            "id": 58,
            "name": "Markham—Unionville"
          }
        ],
        "pollDivisionIds": [
          10139663
        ],
        "postalCode": "L6C2J2",
        "streetName": "WHITFORD",
        "streetDirectionId": null,
        "streetTypeId": "RD",
        "placeName": "MARKHAM",
        "streetNameDisplayText": "WHITFORD RD, MARKHAM"
      }
    ]
  },
  {
    "postal": "L6C2J0",
    "result": []
  },
  {
    "postal": "L6C7A3",
    "result": []
  },
  {
    "postal": "L6C8M1",
    "result": []
  },
  {
    "postal": "L6C7T9",
    "result": []
  },
  {
    "postal": "L6C6C0",
    "result": []
  },
  {
    "postal": "L6C7X1",
    "result": []
  },
  {
    "postal": "L6C0G1",
    "result": [
      {
        "electoralDistricts": [
          {
            "election": null,
            "id": 58,
            "name": "Markham—Unionville"
          }
        ],
        "pollDivisionIds": [
          10139660
        ],
        "postalCode": "L6C0G1",
        "streetName": "HERBERT WALES",
        "streetDirectionId": null,
        "streetTypeId": "CRES",
        "placeName": "MARKHAM",
        "streetNameDisplayText": "HERBERT WALES CRES, MARKHAM"
      },
      {
        "electoralDistricts": [
          {
            "election": null,
            "id": 58,
            "name": "Markham—Unionville"
          }
        ],
        "pollDivisionIds": [
          10139660
        ],
        "postalCode": "L6C0G1",
        "streetName": "PRINCE OF WALES",
        "streetDirectionId": null,
        "streetTypeId": "DR",
        "placeName": "MARKHAM",
        "streetNameDisplayText": "PRINCE OF WALES DR, MARKHAM"
      }
    ]
  },
  {
    "postal": "L6C4X2",
    "result": []
  },
  {
    "postal": "L6C0N6",
    "result": [
      {
        "electoralDistricts": [
          {
            "election": null,
            "id": 58,
            "name": "Markham—Unionville"
          }
        ],
        "pollDivisionIds": [
          10139660
        ],
        "postalCode": "L6C0N6",
        "streetName": "MAYTIME",
        "streetDirectionId": null,
        "streetTypeId": "WAY",
        "placeName": "MARKHAM",
        "streetNameDisplayText": "MAYTIME WAY, MARKHAM"
      },
      {
        "electoralDistricts": [
          {
            "election": null,
            "id": 58,
            "name": "Markham—Unionville"
          }
        ],
        "pollDivisionIds": [
          10139660
        ],
        "postalCode": "L6C0N6",
        "streetName": "VICTOR HERBERT",
        "streetDirectionId": null,
        "streetTypeId": "WAY",
        "placeName": "MARKHAM",
        "streetNameDisplayText": "VICTOR HERBERT WAY, MARKHAM"
      }
    ]
  },
  {
    "postal": "L6C8E3",
    "result": []
  },
  {
    "postal": "L6C5S8",
    "result": []
  },
  {
    "postal": "L6C0R0",
    "result": []
  },
  {
    "postal": "L6C6J6",
    "result": []
  },
  {
    "postal": "L6C4B4",
    "result": []
  },
  {
    "postal": "L6C7E3",
    "result": []
  },
  {
    "postal": "L6C3N6",
    "result": []
  },
  {
    "postal": "L6C3X6",
    "result": []
  },
  {
    "postal": "L6C8L0",
    "result": []
  },
  {
    "postal": "L6C8N1",
    "result": []
  },
  {
    "postal": "L6C4J0",
    "result": []
  },
  {
    "postal": "L6C0X7",
    "result": [
      {
        "electoralDistricts": [
          {
            "election": null,
            "id": 58,
            "name": "Markham—Unionville"
          }
        ],
        "pollDivisionIds": [
          10139670
        ],
        "postalCode": "L6C0X7",
        "streetName": "16TH",
        "streetDirectionId": null,
        "streetTypeId": "AVE",
        "placeName": "MARKHAM",
        "streetNameDisplayText": "16TH AVE, MARKHAM"
      },
      {
        "electoralDistricts": [
          {
            "election": null,
            "id": 58,
            "name": "Markham—Unionville"
          }
        ],
        "pollDivisionIds": [
          10139670
        ],
        "postalCode": "L6C0X7",
        "streetName": "KENNEDY",
        "streetDirectionId": null,
        "streetTypeId": "RD",
        "placeName": "MARKHAM",
        "streetNameDisplayText": "KENNEDY RD, MARKHAM"
      },
      {
        "electoralDistricts": [
          {
            "election": null,
            "id": 58,
            "name": "Markham—Unionville"
          }
        ],
        "pollDivisionIds": [
          10139670
        ],
        "postalCode": "L6C0X7",
        "streetName": "LONDON PLANE",
        "streetDirectionId": null,
        "streetTypeId": "DR",
        "placeName": "MARKHAM",
        "streetNameDisplayText": "LONDON PLANE DR, MARKHAM"
      },
      {
        "electoralDistricts": [
          {
            "election": null,
            "id": 58,
            "name": "Markham—Unionville"
          }
        ],
        "pollDivisionIds": [
          10139670
        ],
        "postalCode": "L6C0X7",
        "streetName": "NIPIGON",
        "streetDirectionId": null,
        "streetTypeId": "AVE",
        "placeName": "MARKHAM",
        "streetNameDisplayText": "NIPIGON AVE, MARKHAM"
      }
    ]
  },
  {
    "postal": "L6C6S4",
    "result": []
  },
  {
    "postal": "L6C0Z0",
    "result": []
  },
  {
    "postal": "L6C9X8",
    "result": []
  },
  {
    "postal": "L6C3H3",
    "result": [
      {
        "electoralDistricts": [
          {
            "election": null,
            "id": 58,
            "name": "Markham—Unionville"
          }
        ],
        "pollDivisionIds": [
          10139662
        ],
        "postalCode": "L6C3H3",
        "streetName": "SEQUOIA GROVE",
        "streetDirectionId": null,
        "streetTypeId": "DR",
        "placeName": "MARKHAM",
        "streetNameDisplayText": "SEQUOIA GROVE DR, MARKHAM"
      }
    ]
  },
  {
    "postal": "L6C7S2",
    "result": []
  },
  {
    "postal": "L6C3T3",
    "result": []
  },
  {
    "postal": "L6C9P3",
    "result": []
  },
  {
    "postal": "L6C4H8",
    "result": []
  },
  {
    "postal": "L6C6R1",
    "result": []
  },
  {
    "postal": "L6C1S0",
    "result": []
  },
  {
    "postal": "L6C3W8",
    "result": []
  },
  {
    "postal": "L6C4S3",
    "result": []
  },
  {
    "postal": "L6C1B6",
    "result": [
      {
        "electoralDistricts": [
          {
            "election": null,
            "id": 58,
            "name": "Markham—Unionville"
          }
        ],
        "pollDivisionIds": [
          10139664
        ],
        "postalCode": "L6C1B6",
        "streetName": "DECOURCY",
        "streetDirectionId": null,
        "streetTypeId": "CRT",
        "placeName": "MARKHAM",
        "streetNameDisplayText": "DECOURCY CRT, MARKHAM"
      }
    ]
  },
  {
    "postal": "L6C8R3",
    "result": []
  },
  {
    "postal": "L6C4V9",
    "result": []
  },
  {
    "postal": "L6C9W4",
    "result": []
  },
  {
    "postal": "L6C3T4",
    "result": []
  },
  {
    "postal": "L6C5C7",
    "result": []
  },
  {
    "postal": "L6C3Y1",
    "result": []
  },
  {
    "postal": "L6C5V0",
    "result": []
  },
  {
    "postal": "L6C8G8",
    "result": []
  },
  {
    "postal": "L6C8B1",
    "result": []
  },
  {
    "postal": "L6C4P5",
    "result": []
  },
  {
    "postal": "L6C7B2",
    "result": []
  },
  {
    "postal": "L6C0R2",
    "result": [
      {
        "electoralDistricts": [
          {
            "election": null,
            "id": 58,
            "name": "Markham—Unionville"
          }
        ],
        "pollDivisionIds": [
          10139670
        ],
        "postalCode": "L6C0R2",
        "streetName": "BRACKNELL",
        "streetDirectionId": null,
        "streetTypeId": "AVE",
        "placeName": "MARKHAM",
        "streetNameDisplayText": "BRACKNELL AVE, MARKHAM"
      },
      {
        "electoralDistricts": [
          {
            "election": null,
            "id": 58,
            "name": "Markham—Unionville"
          }
        ],
        "pollDivisionIds": [
          10139670
        ],
        "postalCode": "L6C0R2",
        "streetName": "HUA DU",
        "streetDirectionId": null,
        "streetTypeId": "AVE",
        "placeName": "MARKHAM",
        "streetNameDisplayText": "HUA DU AVE, MARKHAM"
      },
      {
        "electoralDistricts": [
          {
            "election": null,
            "id": 58,
            "name": "Markham—Unionville"
          }
        ],
        "pollDivisionIds": [
          10139670
        ],
        "postalCode": "L6C0R2",
        "streetName": "WILLIAM BERCZY",
        "streetDirectionId": null,
        "streetTypeId": "BLVD",
        "placeName": "MARKHAM",
        "streetNameDisplayText": "WILLIAM BERCZY BLVD, MARKHAM"
      }
    ]
  },
  {
    "postal": "L6C4M4",
    "result": []
  },
  {
    "postal": "L6C7M4",
    "result": []
  },
  {
    "postal": "L6C9S7",
    "result": []
  },
  {
    "postal": "L6C5Z7",
    "result": []
  },
  {
    "postal": "L6C7J7",
    "result": []
  },
  {
    "postal": "L6C8R8",
    "result": []
  },
  {
    "postal": "L6C9X1",
    "result": []
  },
  {
    "postal": "L6C5M9",
    "result": []
  },
  {
    "postal": "L6C9B4",
    "result": []
  },
  {
    "postal": "L6C0L9",
    "result": [
      {
        "electoralDistricts": [
          {
            "election": null,
            "id": 58,
            "name": "Markham—Unionville"
          }
        ],
        "pollDivisionIds": [
          10139662
        ],
        "postalCode": "L6C0L9",
        "streetName": "CAMPUS",
        "streetDirectionId": null,
        "streetTypeId": "CLOSE",
        "placeName": "MARKHAM",
        "streetNameDisplayText": "CAMPUS CLOSE, MARKHAM"
      },
      {
        "electoralDistricts": [
          {
            "election": null,
            "id": 58,
            "name": "Markham—Unionville"
          }
        ],
        "pollDivisionIds": [
          10139662
        ],
        "postalCode": "L6C0L9",
        "streetName": "HAZELTON",
        "streetDirectionId": null,
        "streetTypeId": "AVE",
        "placeName": "MARKHAM",
        "streetNameDisplayText": "HAZELTON AVE, MARKHAM"
      }
    ]
  },
  {
    "postal": "L6C9G4",
    "result": []
  },
  {
    "postal": "L6C1J4",
    "result": [
      {
        "electoralDistricts": [
          {
            "election": null,
            "id": 58,
            "name": "Markham—Unionville"
          }
        ],
        "pollDivisionIds": [
          10139660
        ],
        "postalCode": "L6C1J4",
        "streetName": "VICTORIA SQUARE",
        "streetDirectionId": null,
        "streetTypeId": "BLVD",
        "placeName": "MARKHAM",
        "streetNameDisplayText": "VICTORIA SQUARE BLVD, MARKHAM"
      },
      {
        "electoralDistricts": [
          {
            "election": null,
            "id": 58,
            "name": "Markham—Unionville"
          }
        ],
        "pollDivisionIds": [
          10139660
        ],
        "postalCode": "L6C1J4",
        "streetName": "WOODBINE",
        "streetDirectionId": null,
        "streetTypeId": "AVE",
        "placeName": "MARKHAM",
        "streetNameDisplayText": "WOODBINE AVE, MARKHAM"
      }
    ]
  },
  {
    "postal": "L6C0W6",
    "result": [
      {
        "electoralDistricts": [
          {
            "election": null,
            "id": 58,
            "name": "Markham—Unionville"
          }
        ],
        "pollDivisionIds": [
          10139670
        ],
        "postalCode": "L6C0W6",
        "streetName": "AKSEL RINCK",
        "streetDirectionId": null,
        "streetTypeId": "DR",
        "placeName": "MARKHAM",
        "streetNameDisplayText": "AKSEL RINCK DR, MARKHAM"
      },
      {
        "electoralDistricts": [
          {
            "election": null,
            "id": 58,
            "name": "Markham—Unionville"
          }
        ],
        "pollDivisionIds": [
          10139670
        ],
        "postalCode": "L6C0W6",
        "streetName": "BECKETT",
        "streetDirectionId": null,
        "streetTypeId": "AVE",
        "placeName": "MARKHAM",
        "streetNameDisplayText": "BECKETT AVE, MARKHAM"
      },
      {
        "electoralDistricts": [
          {
            "election": null,
            "id": 58,
            "name": "Markham—Unionville"
          }
        ],
        "pollDivisionIds": [
          10139670
        ],
        "postalCode": "L6C0W6",
        "streetName": "FIERHELLER",
        "streetDirectionId": null,
        "streetTypeId": "CRT",
        "placeName": "MARKHAM",
        "streetNameDisplayText": "FIERHELLER CRT, MARKHAM"
      },
      {
        "electoralDistricts": [
          {
            "election": null,
            "id": 58,
            "name": "Markham—Unionville"
          }
        ],
        "pollDivisionIds": [
          10139670
        ],
        "postalCode": "L6C0W6",
        "streetName": "HARBORD",
        "streetDirectionId": null,
        "streetTypeId": "ST",
        "placeName": "MARKHAM",
        "streetNameDisplayText": "HARBORD ST, MARKHAM"
      }
    ]
  }
]
