[
  {
    "postal": "N9Y9J6",
    "result": []
  },
  {
    "postal": "N9Y9Z5",
    "result": []
  },
  {
    "postal": "N9Y7H8",
    "result": []
  },
  {
    "postal": "N9Y0P6",
    "result": []
  },
  {
    "postal": "N9Y0S7",
    "result": []
  },
  {
    "postal": "N9Y8B9",
    "result": []
  },
  {
    "postal": "N9Y2A6",
    "result": [
      {
        "electoralDistricts": [
          {
            "election": null,
            "id": 27,
            "name": "Essex"
          }
        ],
        "pollDivisionIds": [
          10138044
        ],
        "postalCode": "N9Y2A6",
        "streetName": "QUEEN",
        "streetDirectionId": null,
        "streetTypeId": "ST",
        "placeName": "KINGSVILLE",
        "streetNameDisplayText": "QUEEN ST, KINGSVILLE"
      }
    ]
  },
  {
    "postal": "N9Y7V2",
    "result": []
  },
  {
    "postal": "N9Y9P4",
    "result": []
  },
  {
    "postal": "N9Y6G0",
    "result": []
  },
  {
    "postal": "N9Y2K0",
    "result": []
  },
  {
    "postal": "N9Y7N6",
    "result": []
  },
  {
    "postal": "N9Y5R3",
    "result": []
  },
  {
    "postal": "N9Y7K0",
    "result": []
  },
  {
    "postal": "N9Y3R2",
    "result": []
  },
  {
    "postal": "N9Y0J1",
    "result": []
  },
  {
    "postal": "N9Y0B0",
    "result": []
  },
  {
    "postal": "N9Y5Z2",
    "result": []
  },
  {
    "postal": "N9Y7P3",
    "result": []
  },
  {
    "postal": "N9Y2K3",
    "result": [
      {
        "electoralDistricts": [
          {
            "election": null,
            "id": 27,
            "name": "Essex"
          }
        ],
        "pollDivisionIds": [
          10138040
        ],
        "postalCode": "N9Y2K3",
        "streetName": "COUNTY 20",
        "streetDirectionId": null,
        "streetTypeId": "RD",
        "placeName": "KINGSVILLE",
        "streetNameDisplayText": "COUNTY 20 RD, KINGSVILLE"
      },
      {
        "electoralDistricts": [
          {
            "election": null,
            "id": 27,
            "name": "Essex"
          }
        ],
        "pollDivisionIds": [
          10138040
        ],
        "postalCode": "N9Y2K3",
        "streetName": "COUNTY RD 20",
        "streetDirectionId": null,
        "streetTypeId": null,
        "placeName": "KINGSVILLE",
        "streetNameDisplayText": "COUNTY RD 20, KINGSVILLE"
      },
      {
        "electoralDistricts": [
          {
            "election": null,
            "id": 27,
            "name": "Essex"
          }
        ],
        "pollDivisionIds": [
          10138040
        ],
        "postalCode": "N9Y2K3",
        "streetName": "COUNTY ROAD 20",
        "streetDirectionId": null,
        "streetTypeId": null,
        "placeName": "KINGSVILLE",
        "streetNameDisplayText": "COUNTY ROAD 20, KINGSVILLE"
      }
    ]
  },
  {
    "postal": "N9Y7Y6",
    "result": []
  },
  {
    "postal": "N9Y1L9",
    "result": [
      {
        "electoralDistricts": [
          {
            "election": null,
            "id": 27,
            "name": "Essex"
          }
        ],
        "pollDivisionIds": [
          10138043
        ],
        "postalCode": "N9Y1L9",
        "streetName": "GLASS",
        "streetDirectionId": null,
        "streetTypeId": "AVE",
        "placeName": "KINGSVILLE",
        "streetNameDisplayText": "GLASS AVE, KINGSVILLE"
      }
    ]
  },
  {
    "postal": "N9Y8T0",
    "result": []
  },
  {
    "postal": "N9Y3K8",
    "result": [
      {
        "electoralDistricts": [
          {
            "election": null,
            "id": 27,
            "name": "Essex"
          }
        ],
        "pollDivisionIds": [
          10138050
        ],
        "postalCode": "N9Y3K8",
        "streetName": "NOTTINGHAM",
        "streetDirectionId": null,
        "streetTypeId": "AVE",
        "placeName": "KINGSVILLE",
        "streetNameDisplayText": "NOTTINGHAM AVE, KINGSVILLE"
      }
    ]
  },
  {
    "postal": "N9Y5W9",
    "result": []
  },
  {
    "postal": "N9Y6T9",
    "result": []
  },
  {
    "postal": "N9Y4H1",
    "result": []
  },
  {
    "postal": "N9Y7A2",
    "result": []
  },
  {
    "postal": "N9Y5G0",
    "result": []
  },
  {
    "postal": "N9Y8V5",
    "result": []
  },
  {
    "postal": "N9Y2Y8",
    "result": [
      {
        "electoralDistricts": [
          {
            "election": null,
            "id": 27,
            "name": "Essex"
          }
        ],
        "pollDivisionIds": [
          10138041
        ],
        "postalCode": "N9Y2Y8",
        "streetName": "DIVISION",
        "streetDirectionId": "N",
        "streetTypeId": "RD",
        "placeName": "KINGSVILLE",
        "streetNameDisplayText": "DIVISION RD N, KINGSVILLE"
      }
    ]
  },
  {
    "postal": "N9Y2B6",
    "result": [
      {
        "electoralDistricts": [
          {
            "election": null,
            "id": 27,
            "name": "Essex"
          }
        ],
        "pollDivisionIds": [
          10138041
        ],
        "postalCode": "N9Y2B6",
        "streetName": "PRINCE ALBERT",
        "streetDirectionId": "S",
        "streetTypeId": "ST",
        "placeName": "KINGSVILLE",
        "streetNameDisplayText": "PRINCE ALBERT ST S, KINGSVILLE"
      }
    ]
  },
  {
    "postal": "N9Y4W8",
    "result": []
  },
  {
    "postal": "N9Y8H7",
    "result": []
  },
  {
    "postal": "N9Y5P1",
    "result": []
  },
  {
    "postal": "N9Y2B8",
    "result": [
      {
        "electoralDistricts": [
          {
            "election": null,
            "id": 27,
            "name": "Essex"
          }
        ],
        "pollDivisionIds": [
          10138041
        ],
        "postalCode": "N9Y2B8",
        "streetName": "PRINCE ALBERT",
        "streetDirectionId": "S",
        "streetTypeId": "ST",
        "placeName": "KINGSVILLE",
        "streetNameDisplayText": "PRINCE ALBERT ST S, KINGSVILLE"
      }
    ]
  },
  {
    "postal": "N9Y0P2",
    "result": []
  },
  {
    "postal": "N9Y9M1",
    "result": []
  },
  {
    "postal": "N9Y3G0",
    "result": []
  },
  {
    "postal": "N9Y9Z2",
    "result": []
  },
  {
    "postal": "N9Y2A0",
    "result": []
  },
  {
    "postal": "N9Y6Y0",
    "result": []
  },
  {
    "postal": "N9Y2Z8",
    "result": []
  },
  {
    "postal": "N9Y7Y3",
    "result": []
  },
  {
    "postal": "N9Y6Z5",
    "result": []
  },
  {
    "postal": "N9Y6E0",
    "result": []
  },
  {
    "postal": "N9Y9B7",
    "result": []
  },
  {
    "postal": "N9Y9S5",
    "result": []
  },
  {
    "postal": "N9Y3X3",
    "result": [
      {
        "electoralDistricts": [
          {
            "election": null,
            "id": 27,
            "name": "Essex"
          }
        ],
        "pollDivisionIds": [
          10138038
        ],
        "postalCode": "N9Y3X3",
        "streetName": "CHELSEA",
        "streetDirectionId": null,
        "streetTypeId": "CRES",
        "placeName": "KINGSVILLE",
        "streetNameDisplayText": "CHELSEA CRES, KINGSVILLE"
      }
    ]
  },
  {
    "postal": "N9Y7R5",
    "result": []
  },
  {
    "postal": "N9Y2X3",
    "result": [
      {
        "electoralDistricts": [
          {
            "election": null,
            "id": 27,
            "name": "Essex"
          }
        ],
        "pollDivisionIds": [
          10138050
        ],
        "postalCode": "N9Y2X3",
        "streetName": "CARDINAL",
        "streetDirectionId": null,
        "streetTypeId": "LANE",
        "placeName": "KINGSVILLE",
        "streetNameDisplayText": "CARDINAL LANE, KINGSVILLE"
      }
    ]
  },
  {
    "postal": "N9Y8Z9",
    "result": []
  },
  {
    "postal": "N9Y0N4",
    "result": []
  },
  {
    "postal": "N9Y1K1",
    "result": [
      {
        "electoralDistricts": [
          {
            "election": null,
            "id": 27,
            "name": "Essex"
          }
        ],
        "pollDivisionIds": [
          10138041
        ],
        "postalCode": "N9Y1K1",
        "streetName": "CHESTNUT",
        "streetDirectionId": null,
        "streetTypeId": "ST",
        "placeName": "KINGSVILLE",
        "streetNameDisplayText": "CHESTNUT ST, KINGSVILLE"
      }
    ]
  },
  {
    "postal": "N9Y1S3",
    "result": [
      {
        "electoralDistricts": [
          {
            "election": null,
            "id": 27,
            "name": "Essex"
          }
        ],
        "pollDivisionIds": [
          10138043
        ],
        "postalCode": "N9Y1S3",
        "streetName": "LANSDOWNE",
        "streetDirectionId": null,
        "streetTypeId": "AVE",
        "placeName": "KINGSVILLE",
        "streetNameDisplayText": "LANSDOWNE AVE, KINGSVILLE"
      }
    ]
  },
  {
    "postal": "N9Y6M4",
    "result": []
  },
  {
    "postal": "N9Y9A9",
    "result": []
  },
  {
    "postal": "N9Y9Z9",
    "result": []
  },
  {
    "postal": "N9Y6T4",
    "result": []
  },
  {
    "postal": "N9Y0B2",
    "result": [
      {
        "electoralDistricts": [
          {
            "election": null,
            "id": 27,
            "name": "Essex"
          }
        ],
        "pollDivisionIds": [
          10138045
        ],
        "postalCode": "N9Y0B2",
        "streetName": "HAZEL",
        "streetDirectionId": null,
        "streetTypeId": "CRES",
        "placeName": "KINGSVILLE",
        "streetNameDisplayText": "HAZEL CRES, KINGSVILLE"
      }
    ]
  },
  {
    "postal": "N9Y2L9",
    "result": [
      {
        "electoralDistricts": [
          {
            "election": null,
            "id": 27,
            "name": "Essex"
          }
        ],
        "pollDivisionIds": [
          10138050
        ],
        "postalCode": "N9Y2L9",
        "streetName": "SEACLIFF",
        "streetDirectionId": null,
        "streetTypeId": "DR",
        "placeName": "KINGSVILLE",
        "streetNameDisplayText": "SEACLIFF DR, KINGSVILLE"
      }
    ]
  },
  {
    "postal": "N9Y8K9",
    "result": []
  },
  {
    "postal": "N9Y2H9",
    "result": [
      {
        "electoralDistricts": [
          {
            "election": null,
            "id": 27,
            "name": "Essex"
          }
        ],
        "pollDivisionIds": [
          10138040
        ],
        "postalCode": "N9Y2H9",
        "streetName": "ALLEN",
        "streetDirectionId": null,
        "streetTypeId": "CRT",
        "placeName": "KINGSVILLE",
        "streetNameDisplayText": "ALLEN CRT, KINGSVILLE"
      }
    ]
  },
  {
    "postal": "N9Y3Z6",
    "result": [
      {
        "electoralDistricts": [
          {
            "election": null,
            "id": 27,
            "name": "Essex"
          }
        ],
        "pollDivisionIds": [
          10138043
        ],
        "postalCode": "N9Y3Z6",
        "streetName": "RAILWAY",
        "streetDirectionId": null,
        "streetTypeId": "CRT",
        "placeName": "KINGSVILLE",
        "streetNameDisplayText": "RAILWAY CRT, KINGSVILLE"
      },
      {
        "electoralDistricts": [
          {
            "election": null,
            "id": 27,
            "name": "Essex"
          }
        ],
        "pollDivisionIds": [
          10138043
        ],
        "postalCode": "N9Y3Z6",
        "streetName": "STATION",
        "streetDirectionId": null,
        "streetTypeId": "CRT",
        "placeName": "KINGSVILLE",
        "streetNameDisplayText": "STATION CRT, KINGSVILLE"
      },
      {
        "electoralDistricts": [
          {
            "election": null,
            "id": 27,
            "name": "Essex"
          }
        ],
        "pollDivisionIds": [
          10138043
        ],
        "postalCode": "N9Y3Z6",
        "streetName": "WALKER",
        "streetDirectionId": null,
        "streetTypeId": "DR",
        "placeName": "KINGSVILLE",
        "streetNameDisplayText": "WALKER DR, KINGSVILLE"
      }
    ]
  },
  {
    "postal": "N9Y3B0",
    "result": []
  },
  {
    "postal": "N9Y2H8",
    "result": [
      {
        "electoralDistricts": [
          {
            "election": null,
            "id": 27,
            "name": "Essex"
          }
        ],
        "pollDivisionIds": [
          10138040
        ],
        "postalCode": "N9Y2H8",
        "streetName": "ALLEN",
        "streetDirectionId": null,
        "streetTypeId": "CRT",
        "placeName": "KINGSVILLE",
        "streetNameDisplayText": "ALLEN CRT, KINGSVILLE"
      }
    ]
  },
  {
    "postal": "N9Y3X2",
    "result": [
      {
        "electoralDistricts": [
          {
            "election": null,
            "id": 27,
            "name": "Essex"
          }
        ],
        "pollDivisionIds": [
          10138038
        ],
        "postalCode": "N9Y3X2",
        "streetName": "FORD",
        "streetDirectionId": null,
        "streetTypeId": "ST",
        "placeName": "KINGSVILLE",
        "streetNameDisplayText": "FORD ST, KINGSVILLE"
      },
      {
        "electoralDistricts": [
          {
            "election": null,
            "id": 27,
            "name": "Essex"
          }
        ],
        "pollDivisionIds": [
          10138038
        ],
        "postalCode": "N9Y3X2",
        "streetName": "HERITAGE",
        "streetDirectionId": null,
        "streetTypeId": "RD",
        "placeName": "KINGSVILLE",
        "streetNameDisplayText": "HERITAGE RD, KINGSVILLE"
      }
    ]
  },
  {
    "postal": "N9Y2E9",
    "result": [
      {
        "electoralDistricts": [
          {
            "election": null,
            "id": 27,
            "name": "Essex"
          }
        ],
        "pollDivisionIds": [
          10138038
        ],
        "postalCode": "N9Y2E9",
        "streetName": "HERITAGE",
        "streetDirectionId": null,
        "streetTypeId": "RD",
        "placeName": "KINGSVILLE",
        "streetNameDisplayText": "HERITAGE RD, KINGSVILLE"
      },
      {
        "electoralDistricts": [
          {
            "election": null,
            "id": 27,
            "name": "Essex"
          }
        ],
        "pollDivisionIds": [
          10138044
        ],
        "postalCode": "N9Y2E9",
        "streetName": "PARK",
        "streetDirectionId": null,
        "streetTypeId": "ST",
        "placeName": "KINGSVILLE",
        "streetNameDisplayText": "PARK ST, KINGSVILLE"
      }
    ]
  },
  {
    "postal": "N9Y9P6",
    "result": []
  },
  {
    "postal": "N9Y9E2",
    "result": []
  },
  {
    "postal": "N9Y9H2",
    "result": []
  },
  {
    "postal": "N9Y1S8",
    "result": [
      {
        "electoralDistricts": [
          {
            "election": null,
            "id": 27,
            "name": "Essex"
          }
        ],
        "pollDivisionIds": [
          10138044
        ],
        "postalCode": "N9Y1S8",
        "streetName": "LANSDOWNE",
        "streetDirectionId": null,
        "streetTypeId": "AVE",
        "placeName": "KINGSVILLE",
        "streetNameDisplayText": "LANSDOWNE AVE, KINGSVILLE"
      }
    ]
  },
  {
    "postal": "N9Y3M6",
    "result": [
      {
        "electoralDistricts": [
          {
            "election": null,
            "id": 27,
            "name": "Essex"
          }
        ],
        "pollDivisionIds": [
          10138050
        ],
        "postalCode": "N9Y3M6",
        "streetName": "FULLER",
        "streetDirectionId": null,
        "streetTypeId": "DR",
        "placeName": "KINGSVILLE",
        "streetNameDisplayText": "FULLER DR, KINGSVILLE"
      }
    ]
  },
  {
    "postal": "N9Y6Z8",
    "result": []
  },
  {
    "postal": "N9Y4J2",
    "result": []
  },
  {
    "postal": "N9Y9Y1",
    "result": []
  },
  {
    "postal": "N9Y8V6",
    "result": []
  },
  {
    "postal": "N9Y6B2",
    "result": []
  },
  {
    "postal": "N9Y1P8",
    "result": [
      {
        "electoralDistricts": [
          {
            "election": null,
            "id": 27,
            "name": "Essex"
          }
        ],
        "pollDivisionIds": [
          10138044,
          10138043
        ],
        "postalCode": "N9Y1P8",
        "streetName": "DIVISION",
        "streetDirectionId": "S",
        "streetTypeId": "ST",
        "placeName": "KINGSVILLE",
        "streetNameDisplayText": "DIVISION ST S, KINGSVILLE"
      }
    ]
  },
  {
    "postal": "N9Y0V8",
    "result": []
  },
  {
    "postal": "N9Y4Y0",
    "result": []
  },
  {
    "postal": "N9Y2T4",
    "result": [
      {
        "electoralDistricts": [
          {
            "election": null,
            "id": 27,
            "name": "Essex"
          }
        ],
        "pollDivisionIds": [
          10138050
        ],
        "postalCode": "N9Y2T4",
        "streetName": "SUNSET",
        "streetDirectionId": null,
        "streetTypeId": "AVE",
        "placeName": "KINGSVILLE",
        "streetNameDisplayText": "SUNSET AVE, KINGSVILLE"
      }
    ]
  },
  {
    "postal": "N9Y2S3",
    "result": [
      {
        "electoralDistricts": [
          {
            "election": null,
            "id": 27,
            "name": "Essex"
          }
        ],
        "pollDivisionIds": [
          10138050
        ],
        "postalCode": "N9Y2S3",
        "streetName": "BRIARWOOD",
        "streetDirectionId": null,
        "streetTypeId": "CRES",
        "placeName": "KINGSVILLE",
        "streetNameDisplayText": "BRIARWOOD CRES, KINGSVILLE"
      }
    ]
  },
  {
    "postal": "N9Y0K0",
    "result": []
  },
  {
    "postal": "N9Y5N1",
    "result": []
  },
  {
    "postal": "N9Y7T0",
    "result": []
  },
  {
    "postal": "N9Y9N2",
    "result": []
  },
  {
    "postal": "N9Y5L1",
    "result": []
  },
  {
    "postal": "N9Y7G5",
    "result": []
  },
  {
    "postal": "N9Y6K2",
    "result": []
  },
  {
    "postal": "N9Y6P9",
    "result": []
  },
  {
    "postal": "N9Y0E6",
    "result": [
      {
        "electoralDistricts": [
          {
            "election": null,
            "id": 27,
            "name": "Essex"
          }
        ],
        "pollDivisionIds": [
          10138041,
          10138044
        ],
        "postalCode": "N9Y0E6",
        "streetName": "BERNATH",
        "streetDirectionId": null,
        "streetTypeId": "ST",
        "placeName": "KINGSVILLE",
        "streetNameDisplayText": "BERNATH ST, KINGSVILLE"
      }
    ]
  },
  {
    "postal": "N9Y8R9",
    "result": []
  },
  {
    "postal": "N9Y3G9",
    "result": [
      {
        "electoralDistricts": [
          {
            "election": null,
            "id": 27,
            "name": "Essex"
          }
        ],
        "pollDivisionIds": [
          10138040
        ],
        "postalCode": "N9Y3G9",
        "streetName": "PETER",
        "streetDirectionId": null,
        "streetTypeId": "ST",
        "placeName": "KINGSVILLE",
        "streetNameDisplayText": "PETER ST, KINGSVILLE"
      }
    ]
  },
  {
    "postal": "N9Y0V7",
    "result": []
  },
  {
    "postal": "N9Y2Z1",
    "result": [
      {
        "electoralDistricts": [
          {
            "election": null,
            "id": 27,
            "name": "Essex"
          }
        ],
        "pollDivisionIds": [
          10138041
        ],
        "postalCode": "N9Y2Z1",
        "streetName": "DIVISION",
        "streetDirectionId": "N",
        "streetTypeId": "RD",
        "placeName": "KINGSVILLE",
        "streetNameDisplayText": "DIVISION RD N, KINGSVILLE"
      }
    ]
  },
  {
    "postal": "N9Y7N1",
    "result": []
  },
  {
    "postal": "N9Y3C6",
    "result": [
      {
        "electoralDistricts": [
          {
            "election": null,
            "id": 27,
            "name": "Essex"
          }
        ],
        "pollDivisionIds": [
          10138040
        ],
        "postalCode": "N9Y3C6",
        "streetName": "PARK",
        "streetDirectionId": null,
        "streetTypeId": "AVE",
        "placeName": "KINGSVILLE",
        "streetNameDisplayText": "PARK AVE, KINGSVILLE"
      }
    ]
  },
  {
    "postal": "N9Y4M1",
    "result": []
  },
  {
    "postal": "N9Y9K2",
    "result": []
  },
  {
    "postal": "N9Y9S6",
    "result": []
  },
  {
    "postal": "N9Y4X1",
    "result": []
  },
  {
    "postal": "N9Y8W2",
    "result": []
  },
  {
    "postal": "N9Y7N2",
    "result": []
  },
  {
    "postal": "N9Y8S3",
    "result": []
  },
  {
    "postal": "N9Y4V0",
    "result": []
  },
  {
    "postal": "N9Y6W4",
    "result": []
  },
  {
    "postal": "N9Y5M1",
    "result": []
  },
  {
    "postal": "N9Y0S4",
    "result": []
  },
  {
    "postal": "N9Y5X6",
    "result": []
  },
  {
    "postal": "N9Y8L5",
    "result": []
  },
  {
    "postal": "N9Y5M8",
    "result": []
  },
  {
    "postal": "N9Y2G3",
    "result": [
      {
        "electoralDistricts": [
          {
            "election": null,
            "id": 27,
            "name": "Essex"
          }
        ],
        "pollDivisionIds": [
          10138050
        ],
        "postalCode": "N9Y2G3",
        "streetName": "CAMPBELL",
        "streetDirectionId": null,
        "streetTypeId": "LANE",
        "placeName": "KINGSVILLE",
        "streetNameDisplayText": "CAMPBELL LANE, KINGSVILLE"
      }
    ]
  },
  {
    "postal": "N9Y8E4",
    "result": []
  },
  {
    "postal": "N9Y7S9",
    "result": []
  },
  {
    "postal": "N9Y1K3",
    "result": [
      {
        "electoralDistricts": [
          {
            "election": null,
            "id": 27,
            "name": "Essex"
          }
        ],
        "pollDivisionIds": [
          10138043
        ],
        "postalCode": "N9Y1K3",
        "streetName": "PEARL",
        "streetDirectionId": "E",
        "streetTypeId": "ST",
        "placeName": "KINGSVILLE",
        "streetNameDisplayText": "PEARL ST E, KINGSVILLE"
      }
    ]
  },
  {
    "postal": "N9Y4E1",
    "result": [
      {
        "electoralDistricts": [
          {
            "election": null,
            "id": 27,
            "name": "Essex"
          }
        ],
        "pollDivisionIds": [
          10138041
        ],
        "postalCode": "N9Y4E1",
        "streetName": "SUMAC",
        "streetDirectionId": null,
        "streetTypeId": "DR",
        "placeName": "KINGSVILLE",
        "streetNameDisplayText": "SUMAC DR, KINGSVILLE"
      }
    ]
  },
  {
    "postal": "N9Y4R2",
    "result": []
  },
  {
    "postal": "N9Y6T0",
    "result": []
  },
  {
    "postal": "N9Y3K5",
    "result": []
  },
  {
    "postal": "N9Y3S3",
    "result": [
      {
        "electoralDistricts": [
          {
            "election": null,
            "id": 27,
            "name": "Essex"
          }
        ],
        "pollDivisionIds": [
          10138050
        ],
        "postalCode": "N9Y3S3",
        "streetName": "SEACLIFF",
        "streetDirectionId": null,
        "streetTypeId": "DR",
        "placeName": "KINGSVILLE",
        "streetNameDisplayText": "SEACLIFF DR, KINGSVILLE"
      }
    ]
  },
  {
    "postal": "N9Y3L4",
    "result": [
      {
        "electoralDistricts": [
          {
            "election": null,
            "id": 27,
            "name": "Essex"
          }
        ],
        "pollDivisionIds": [
          10138050
        ],
        "postalCode": "N9Y3L4",
        "streetName": "OXFORD",
        "streetDirectionId": null,
        "streetTypeId": "AVE",
        "placeName": "KINGSVILLE",
        "streetNameDisplayText": "OXFORD AVE, KINGSVILLE"
      }
    ]
  },
  {
    "postal": "N9Y9Y2",
    "result": []
  },
  {
    "postal": "N9Y1E0",
    "result": []
  },
  {
    "postal": "N9Y9A4",
    "result": []
  },
  {
    "postal": "N9Y1L3",
    "result": [
      {
        "electoralDistricts": [
          {
            "election": null,
            "id": 27,
            "name": "Essex"
          }
        ],
        "pollDivisionIds": [
          10138043
        ],
        "postalCode": "N9Y1L3",
        "streetName": "WELLINGTON",
        "streetDirectionId": null,
        "streetTypeId": "ST",
        "placeName": "KINGSVILLE",
        "streetNameDisplayText": "WELLINGTON ST, KINGSVILLE"
      }
    ]
  },
  {
    "postal": "N9Y6N1",
    "result": []
  },
  {
    "postal": "N9Y6G7",
    "result": []
  },
  {
    "postal": "N9Y7W1",
    "result": []
  },
  {
    "postal": "N9Y4M6",
    "result": []
  },
  {
    "postal": "N9Y1K0",
    "result": []
  },
  {
    "postal": "N9Y3E2",
    "result": [
      {
        "electoralDistricts": [
          {
            "election": null,
            "id": 27,
            "name": "Essex"
          }
        ],
        "pollDivisionIds": [
          10138040
        ],
        "postalCode": "N9Y3E2",
        "streetName": "ERIE",
        "streetDirectionId": "W",
        "streetTypeId": "AVE",
        "placeName": "KINGSVILLE",
        "streetNameDisplayText": "ERIE AVE W, KINGSVILLE"
      }
    ]
  },
  {
    "postal": "N9Y5H4",
    "result": []
  },
  {
    "postal": "N9Y1K7",
    "result": [
      {
        "electoralDistricts": [
          {
            "election": null,
            "id": 27,
            "name": "Essex"
          }
        ],
        "pollDivisionIds": [
          10138043
        ],
        "postalCode": "N9Y1K7",
        "streetName": "MILL",
        "streetDirectionId": "E",
        "streetTypeId": "ST",
        "placeName": "KINGSVILLE",
        "streetNameDisplayText": "MILL ST E, KINGSVILLE"
      }
    ]
  },
  {
    "postal": "N9Y0H0",
    "result": []
  },
  {
    "postal": "N9Y0J3",
    "result": []
  },
  {
    "postal": "N9Y1X6",
    "result": [
      {
        "electoralDistricts": [
          {
            "election": null,
            "id": 27,
            "name": "Essex"
          }
        ],
        "pollDivisionIds": [
          10138044
        ],
        "postalCode": "N9Y1X6",
        "streetName": "SHERMAN",
        "streetDirectionId": null,
        "streetTypeId": "RD",
        "placeName": "KINGSVILLE",
        "streetNameDisplayText": "SHERMAN RD, KINGSVILLE"
      }
    ]
  },
  {
    "postal": "N9Y2Z6",
    "result": [
      {
        "electoralDistricts": [
          {
            "election": null,
            "id": 27,
            "name": "Essex"
          }
        ],
        "pollDivisionIds": [
          10138041
        ],
        "postalCode": "N9Y2Z6",
        "streetName": "ROAD 2",
        "streetDirectionId": "W",
        "streetTypeId": null,
        "placeName": "KINGSVILLE",
        "streetNameDisplayText": "ROAD 2 W, KINGSVILLE"
      }
    ]
  },
  {
    "postal": "N9Y4R9",
    "result": []
  },
  {
    "postal": "N9Y0W8",
    "result": []
  },
  {
    "postal": "N9Y1L4",
    "result": [
      {
        "electoralDistricts": [
          {
            "election": null,
            "id": 27,
            "name": "Essex"
          }
        ],
        "pollDivisionIds": [
          10138043
        ],
        "postalCode": "N9Y1L4",
        "streetName": "WELLINGTON",
        "streetDirectionId": null,
        "streetTypeId": "ST",
        "placeName": "KINGSVILLE",
        "streetNameDisplayText": "WELLINGTON ST, KINGSVILLE"
      }
    ]
  },
  {
    "postal": "N9Y0C8",
    "result": [
      {
        "electoralDistricts": [
          {
            "election": null,
            "id": 27,
            "name": "Essex"
          }
        ],
        "pollDivisionIds": [
          10138040
        ],
        "postalCode": "N9Y0C8",
        "streetName": "EMILY",
        "streetDirectionId": null,
        "streetTypeId": "AVE",
        "placeName": "KINGSVILLE",
        "streetNameDisplayText": "EMILY AVE, KINGSVILLE"
      }
    ]
  },
  {
    "postal": "N9Y9X7",
    "result": []
  },
  {
    "postal": "N9Y4T1",
    "result": []
  },
  {
    "postal": "N9Y0M0",
    "result": []
  },
  {
    "postal": "N9Y6A2",
    "result": []
  },
  {
    "postal": "N9Y9S8",
    "result": []
  },
  {
    "postal": "N9Y9T4",
    "result": []
  },
  {
    "postal": "N9Y9Y4",
    "result": []
  },
  {
    "postal": "N9Y6G5",
    "result": []
  },
  {
    "postal": "N9Y6H9",
    "result": []
  },
  {
    "postal": "N9Y2P3",
    "result": [
      {
        "electoralDistricts": [
          {
            "election": null,
            "id": 27,
            "name": "Essex"
          }
        ],
        "pollDivisionIds": [
          10138044
        ],
        "postalCode": "N9Y2P3",
        "streetName": "CLOVELLY",
        "streetDirectionId": null,
        "streetTypeId": "DR",
        "placeName": "KINGSVILLE",
        "streetNameDisplayText": "CLOVELLY DR, KINGSVILLE"
      }
    ]
  },
  {
    "postal": "N9Y1T6",
    "result": [
      {
        "electoralDistricts": [
          {
            "election": null,
            "id": 27,
            "name": "Essex"
          }
        ],
        "pollDivisionIds": [
          10138043
        ],
        "postalCode": "N9Y1T6",
        "streetName": "SPRUCE",
        "streetDirectionId": "N",
        "streetTypeId": "ST",
        "placeName": "KINGSVILLE",
        "streetNameDisplayText": "SPRUCE ST N, KINGSVILLE"
      },
      {
        "electoralDistricts": [
          {
            "election": null,
            "id": 27,
            "name": "Essex"
          }
        ],
        "pollDivisionIds": [
          10138043
        ],
        "postalCode": "N9Y1T6",
        "streetName": "SPRUCE",
        "streetDirectionId": "S",
        "streetTypeId": "ST",
        "placeName": "KINGSVILLE",
        "streetNameDisplayText": "SPRUCE ST S, KINGSVILLE"
      }
    ]
  },
  {
    "postal": "N9Y4P6",
    "result": []
  },
  {
    "postal": "N9Y3K1",
    "result": [
      {
        "electoralDistricts": [
          {
            "election": null,
            "id": 27,
            "name": "Essex"
          }
        ],
        "pollDivisionIds": [
          10138045
        ],
        "postalCode": "N9Y3K1",
        "streetName": "KRATZ",
        "streetDirectionId": null,
        "streetTypeId": "RD",
        "placeName": "KINGSVILLE",
        "streetNameDisplayText": "KRATZ RD, KINGSVILLE"
      }
    ]
  },
  {
    "postal": "N9Y6X4",
    "result": []
  },
  {
    "postal": "N9Y4M8",
    "result": []
  },
  {
    "postal": "N9Y2Y1",
    "result": [
      {
        "electoralDistricts": [
          {
            "election": null,
            "id": 27,
            "name": "Essex"
          }
        ],
        "pollDivisionIds": [
          10138050
        ],
        "postalCode": "N9Y2Y1",
        "streetName": "ROWLEY PARK",
        "streetDirectionId": null,
        "streetTypeId": "DR",
        "placeName": "KINGSVILLE",
        "streetNameDisplayText": "ROWLEY PARK DR, KINGSVILLE"
      }
    ]
  },
  {
    "postal": "N9Y6M1",
    "result": []
  },
  {
    "postal": "N9Y5L8",
    "result": []
  },
  {
    "postal": "N9Y3P6",
    "result": [
      {
        "electoralDistricts": [
          {
            "election": null,
            "id": 27,
            "name": "Essex"
          }
        ],
        "pollDivisionIds": [
          10138045
        ],
        "postalCode": "N9Y3P6",
        "streetName": "PURPLE PLUM",
        "streetDirectionId": null,
        "streetTypeId": "DR",
        "placeName": "KINGSVILLE",
        "streetNameDisplayText": "PURPLE PLUM DR, KINGSVILLE"
      }
    ]
  },
  {
    "postal": "N9Y9A5",
    "result": []
  },
  {
    "postal": "N9Y7K1",
    "result": []
  },
  {
    "postal": "N9Y3J4",
    "result": [
      {
        "electoralDistricts": [
          {
            "election": null,
            "id": 27,
            "name": "Essex"
          }
        ],
        "pollDivisionIds": [
          10138045
        ],
        "postalCode": "N9Y3J4",
        "streetName": "JASPERSON",
        "streetDirectionId": null,
        "streetTypeId": "LANE",
        "placeName": "KINGSVILLE",
        "streetNameDisplayText": "JASPERSON LANE, KINGSVILLE"
      }
    ]
  },
  {
    "postal": "N9Y5E7",
    "result": []
  },
  {
    "postal": "N9Y3A7",
    "result": [
      {
        "electoralDistricts": [
          {
            "election": null,
            "id": 27,
            "name": "Essex"
          }
        ],
        "pollDivisionIds": [
          10138041
        ],
        "postalCode": "N9Y3A7",
        "streetName": "PALMER",
        "streetDirectionId": null,
        "streetTypeId": "DR",
        "placeName": "KINGSVILLE",
        "streetNameDisplayText": "PALMER DR, KINGSVILLE"
      }
    ]
  },
  {
    "postal": "N9Y1B9",
    "result": [
      {
        "electoralDistricts": [
          {
            "election": null,
            "id": 27,
            "name": "Essex"
          }
        ],
        "pollDivisionIds": [
          10138041
        ],
        "postalCode": "N9Y1B9",
        "streetName": "HORWATH",
        "streetDirectionId": null,
        "streetTypeId": "AVE",
        "placeName": "KINGSVILLE",
        "streetNameDisplayText": "HORWATH AVE, KINGSVILLE"
      }
    ]
  },
  {
    "postal": "N9Y9E8",
    "result": []
  },
  {
    "postal": "N9Y1C9",
    "result": [
      {
        "electoralDistricts": [
          {
            "election": null,
            "id": 27,
            "name": "Essex"
          }
        ],
        "pollDivisionIds": [
          10138041
        ],
        "postalCode": "N9Y1C9",
        "streetName": "DIVISION",
        "streetDirectionId": "N",
        "streetTypeId": "ST",
        "placeName": "KINGSVILLE",
        "streetNameDisplayText": "DIVISION ST N, KINGSVILLE"
      }
    ]
  },
  {
    "postal": "N9Y3B5",
    "result": [
      {
        "electoralDistricts": [
          {
            "election": null,
            "id": 27,
            "name": "Essex"
          }
        ],
        "pollDivisionIds": [
          10138041
        ],
        "postalCode": "N9Y3B5",
        "streetName": "PALMER",
        "streetDirectionId": null,
        "streetTypeId": "DR",
        "placeName": "KINGSVILLE",
        "streetNameDisplayText": "PALMER DR, KINGSVILLE"
      }
    ]
  },
  {
    "postal": "N9Y8R0",
    "result": []
  },
  {
    "postal": "N9Y3P2",
    "result": [
      {
        "electoralDistricts": [
          {
            "election": null,
            "id": 27,
            "name": "Essex"
          }
        ],
        "pollDivisionIds": [
          10138045
        ],
        "postalCode": "N9Y3P2",
        "streetName": "APPLEWOOD",
        "streetDirectionId": null,
        "streetTypeId": "RD",
        "placeName": "KINGSVILLE",
        "streetNameDisplayText": "APPLEWOOD RD, KINGSVILLE"
      }
    ]
  },
  {
    "postal": "N9Y5V4",
    "result": []
  },
  {
    "postal": "N9Y4H0",
    "result": []
  },
  {
    "postal": "N9Y4S7",
    "result": []
  },
  {
    "postal": "N9Y6C2",
    "result": []
  },
  {
    "postal": "N9Y8W3",
    "result": []
  },
  {
    "postal": "N9Y4M5",
    "result": []
  },
  {
    "postal": "N9Y5T1",
    "result": []
  },
  {
    "postal": "N9Y3B3",
    "result": [
      {
        "electoralDistricts": [
          {
            "election": null,
            "id": 27,
            "name": "Essex"
          }
        ],
        "pollDivisionIds": [
          10138040
        ],
        "postalCode": "N9Y3B3",
        "streetName": "HERITAGE",
        "streetDirectionId": null,
        "streetTypeId": "RD",
        "placeName": "KINGSVILLE",
        "streetNameDisplayText": "HERITAGE RD, KINGSVILLE"
      }
    ]
  },
  {
    "postal": "N9Y6C6",
    "result": []
  },
  {
    "postal": "N9Y7N8",
    "result": []
  },
  {
    "postal": "N9Y2Y3",
    "result": [
      {
        "electoralDistricts": [
          {
            "election": null,
            "id": 27,
            "name": "Essex"
          }
        ],
        "pollDivisionIds": [
          10138050
        ],
        "postalCode": "N9Y2Y3",
        "streetName": "ROWLEY PARK",
        "streetDirectionId": null,
        "streetTypeId": "DR",
        "placeName": "KINGSVILLE",
        "streetNameDisplayText": "ROWLEY PARK DR, KINGSVILLE"
      }
    ]
  },
  {
    "postal": "N9Y2R6",
    "result": [
      {
        "electoralDistricts": [
          {
            "election": null,
            "id": 27,
            "name": "Essex"
          }
        ],
        "pollDivisionIds": [
          10138050
        ],
        "postalCode": "N9Y2R6",
        "streetName": "ORCHARD",
        "streetDirectionId": null,
        "streetTypeId": "BLVD",
        "placeName": "KINGSVILLE",
        "streetNameDisplayText": "ORCHARD BLVD, KINGSVILLE"
      }
    ]
  },
  {
    "postal": "N9Y7N3",
    "result": []
  },
  {
    "postal": "N9Y8J2",
    "result": []
  },
  {
    "postal": "N9Y6A9",
    "result": []
  },
  {
    "postal": "N9Y3V2",
    "result": [
      {
        "electoralDistricts": [
          {
            "election": null,
            "id": 27,
            "name": "Essex"
          }
        ],
        "pollDivisionIds": [
          10138038
        ],
        "postalCode": "N9Y3V2",
        "streetName": "CHERRY",
        "streetDirectionId": null,
        "streetTypeId": "AVE",
        "placeName": "KINGSVILLE",
        "streetNameDisplayText": "CHERRY AVE, KINGSVILLE"
      },
      {
        "electoralDistricts": [
          {
            "election": null,
            "id": 27,
            "name": "Essex"
          }
        ],
        "pollDivisionIds": [
          10138038
        ],
        "postalCode": "N9Y3V2",
        "streetName": "HERITAGE",
        "streetDirectionId": null,
        "streetTypeId": "RD",
        "placeName": "KINGSVILLE",
        "streetNameDisplayText": "HERITAGE RD, KINGSVILLE"
      },
      {
        "electoralDistricts": [
          {
            "election": null,
            "id": 27,
            "name": "Essex"
          }
        ],
        "pollDivisionIds": [
          10138038
        ],
        "postalCode": "N9Y3V2",
        "streetName": "SPRUCE",
        "streetDirectionId": null,
        "streetTypeId": "AVE",
        "placeName": "KINGSVILLE",
        "streetNameDisplayText": "SPRUCE AVE, KINGSVILLE"
      }
    ]
  },
  {
    "postal": "N9Y2N3",
    "result": [
      {
        "electoralDistricts": [
          {
            "election": null,
            "id": 27,
            "name": "Essex"
          }
        ],
        "pollDivisionIds": [
          10138050
        ],
        "postalCode": "N9Y2N3",
        "streetName": "SEACLIFF",
        "streetDirectionId": null,
        "streetTypeId": "DR",
        "placeName": "KINGSVILLE",
        "streetNameDisplayText": "SEACLIFF DR, KINGSVILLE"
      }
    ]
  },
  {
    "postal": "N9Y1S5",
    "result": []
  },
  {
    "postal": "N9Y4T7",
    "result": []
  },
  {
    "postal": "N9Y6Y7",
    "result": []
  },
  {
    "postal": "N9Y0W7",
    "result": []
  },
  {
    "postal": "N9Y2W9",
    "result": [
      {
        "electoralDistricts": [
          {
            "election": null,
            "id": 27,
            "name": "Essex"
          }
        ],
        "pollDivisionIds": [
          10138050
        ],
        "postalCode": "N9Y2W9",
        "streetName": "RAVINE LINE",
        "streetDirectionId": null,
        "streetTypeId": "RD",
        "placeName": "KINGSVILLE",
        "streetNameDisplayText": "RAVINE LINE RD, KINGSVILLE"
      }
    ]
  },
  {
    "postal": "N9Y8V0",
    "result": []
  },
  {
    "postal": "N9Y0H4",
    "result": []
  },
  {
    "postal": "N9Y2T1",
    "result": [
      {
        "electoralDistricts": [
          {
            "election": null,
            "id": 27,
            "name": "Essex"
          }
        ],
        "pollDivisionIds": [
          10138050
        ],
        "postalCode": "N9Y2T1",
        "streetName": "SIMMERS",
        "streetDirectionId": null,
        "streetTypeId": "AVE",
        "placeName": "KINGSVILLE",
        "streetNameDisplayText": "SIMMERS AVE, KINGSVILLE"
      }
    ]
  },
  {
    "postal": "N9Y1B1",
    "result": [
      {
        "electoralDistricts": [
          {
            "election": null,
            "id": 27,
            "name": "Essex"
          }
        ],
        "pollDivisionIds": [
          10138041
        ],
        "postalCode": "N9Y1B1",
        "streetName": "BEECH",
        "streetDirectionId": null,
        "streetTypeId": "ST",
        "placeName": "KINGSVILLE",
        "streetNameDisplayText": "BEECH ST, KINGSVILLE"
      }
    ]
  },
  {
    "postal": "N9Y8B6",
    "result": []
  },
  {
    "postal": "N9Y6H1",
    "result": []
  },
  {
    "postal": "N9Y8T8",
    "result": []
  },
  {
    "postal": "N9Y0T4",
    "result": []
  },
  {
    "postal": "N9Y2C4",
    "result": [
      {
        "electoralDistricts": [
          {
            "election": null,
            "id": 27,
            "name": "Essex"
          }
        ],
        "pollDivisionIds": [
          10138041
        ],
        "postalCode": "N9Y2C4",
        "streetName": "MCDONALD",
        "streetDirectionId": null,
        "streetTypeId": "ST",
        "placeName": "KINGSVILLE",
        "streetNameDisplayText": "MCDONALD ST, KINGSVILLE"
      }
    ]
  },
  {
    "postal": "N9Y8N3",
    "result": []
  },
  {
    "postal": "N9Y4L8",
    "result": []
  },
  {
    "postal": "N9Y2B5",
    "result": [
      {
        "electoralDistricts": [
          {
            "election": null,
            "id": 27,
            "name": "Essex"
          }
        ],
        "pollDivisionIds": [
          10138041
        ],
        "postalCode": "N9Y2B5",
        "streetName": "PRINCE ALBERT",
        "streetDirectionId": "S",
        "streetTypeId": "ST",
        "placeName": "KINGSVILLE",
        "streetNameDisplayText": "PRINCE ALBERT ST S, KINGSVILLE"
      }
    ]
  },
  {
    "postal": "N9Y3H1",
    "result": [
      {
        "electoralDistricts": [
          {
            "election": null,
            "id": 27,
            "name": "Essex"
          }
        ],
        "pollDivisionIds": [
          10138040
        ],
        "postalCode": "N9Y3H1",
        "streetName": "SCOTCH",
        "streetDirectionId": null,
        "streetTypeId": "ALLEY",
        "placeName": "KINGSVILLE",
        "streetNameDisplayText": "SCOTCH ALLEY, KINGSVILLE"
      }
    ]
  },
  {
    "postal": "N9Y4Y1",
    "result": []
  },
  {
    "postal": "N9Y7E2",
    "result": []
  },
  {
    "postal": "N9Y2P5",
    "result": [
      {
        "electoralDistricts": [
          {
            "election": null,
            "id": 27,
            "name": "Essex"
          }
        ],
        "pollDivisionIds": [
          10138044
        ],
        "postalCode": "N9Y2P5",
        "streetName": "TORQUAY",
        "streetDirectionId": null,
        "streetTypeId": "DR",
        "placeName": "KINGSVILLE",
        "streetNameDisplayText": "TORQUAY DR, KINGSVILLE"
      }
    ]
  },
  {
    "postal": "N9Y8R7",
    "result": []
  },
  {
    "postal": "N9Y9P1",
    "result": []
  },
  {
    "postal": "N9Y3B8",
    "result": [
      {
        "electoralDistricts": [
          {
            "election": null,
            "id": 27,
            "name": "Essex"
          }
        ],
        "pollDivisionIds": [
          10138040
        ],
        "postalCode": "N9Y3B8",
        "streetName": "HERITAGE",
        "streetDirectionId": null,
        "streetTypeId": "RD",
        "placeName": "KINGSVILLE",
        "streetNameDisplayText": "HERITAGE RD, KINGSVILLE"
      }
    ]
  },
  {
    "postal": "N9Y3P7",
    "result": [
      {
        "electoralDistricts": [
          {
            "election": null,
            "id": 27,
            "name": "Essex"
          }
        ],
        "pollDivisionIds": [
          10138045
        ],
        "postalCode": "N9Y3P7",
        "streetName": "WOODYCREST",
        "streetDirectionId": null,
        "streetTypeId": "AVE",
        "placeName": "KINGSVILLE",
        "streetNameDisplayText": "WOODYCREST AVE, KINGSVILLE"
      }
    ]
  },
  {
    "postal": "N9Y9B2",
    "result": []
  },
  {
    "postal": "N9Y6Z3",
    "result": []
  },
  {
    "postal": "N9Y4N5",
    "result": []
  },
  {
    "postal": "N9Y8T3",
    "result": []
  },
  {
    "postal": "N9Y1V2",
    "result": [
      {
        "electoralDistricts": [
          {
            "election": null,
            "id": 27,
            "name": "Essex"
          }
        ],
        "pollDivisionIds": [
          10138044
        ],
        "postalCode": "N9Y1V2",
        "streetName": "WIGLE",
        "streetDirectionId": null,
        "streetTypeId": "AVE",
        "placeName": "KINGSVILLE",
        "streetNameDisplayText": "WIGLE AVE, KINGSVILLE"
      }
    ]
  },
  {
    "postal": "N9Y1Y0",
    "result": []
  },
  {
    "postal": "N9Y3G6",
    "result": [
      {
        "electoralDistricts": [
          {
            "election": null,
            "id": 27,
            "name": "Essex"
          }
        ],
        "pollDivisionIds": [
          10138040
        ],
        "postalCode": "N9Y3G6",
        "streetName": "MALO",
        "streetDirectionId": null,
        "streetTypeId": "ST",
        "placeName": "KINGSVILLE",
        "streetNameDisplayText": "MALO ST, KINGSVILLE"
      }
    ]
  },
  {
    "postal": "N9Y3H7",
    "result": [
      {
        "electoralDistricts": [
          {
            "election": null,
            "id": 27,
            "name": "Essex"
          }
        ],
        "pollDivisionIds": [
          10138040
        ],
        "postalCode": "N9Y3H7",
        "streetName": "KING",
        "streetDirectionId": "W",
        "streetTypeId": "ST",
        "placeName": "KINGSVILLE",
        "streetNameDisplayText": "KING ST W, KINGSVILLE"
      }
    ]
  },
  {
    "postal": "N9Y7X8",
    "result": []
  },
  {
    "postal": "N9Y0C7",
    "result": [
      {
        "electoralDistricts": [
          {
            "election": null,
            "id": 27,
            "name": "Essex"
          }
        ],
        "pollDivisionIds": [
          10138043
        ],
        "postalCode": "N9Y0C7",
        "streetName": "EMILY",
        "streetDirectionId": null,
        "streetTypeId": "AVE",
        "placeName": "KINGSVILLE",
        "streetNameDisplayText": "EMILY AVE, KINGSVILLE"
      },
      {
        "electoralDistricts": [
          {
            "election": null,
            "id": 27,
            "name": "Essex"
          }
        ],
        "pollDivisionIds": [
          10138044
        ],
        "postalCode": "N9Y0C7",
        "streetName": "GRANDVIEW",
        "streetDirectionId": null,
        "streetTypeId": "AVE",
        "placeName": "KINGSVILLE",
        "streetNameDisplayText": "GRANDVIEW AVE, KINGSVILLE"
      },
      {
        "electoralDistricts": [
          {
            "election": null,
            "id": 27,
            "name": "Essex"
          }
        ],
        "pollDivisionIds": [
          10138043,
          10138044
        ],
        "postalCode": "N9Y0C7",
        "streetName": "HOUSTON",
        "streetDirectionId": null,
        "streetTypeId": "AVE",
        "placeName": "KINGSVILLE",
        "streetNameDisplayText": "HOUSTON AVE, KINGSVILLE"
      }
    ]
  },
  {
    "postal": "N9Y0W9",
    "result": []
  },
  {
    "postal": "N9Y8E6",
    "result": []
  },
  {
    "postal": "N9Y9Z8",
    "result": []
  },
  {
    "postal": "N9Y3P4",
    "result": []
  },
  {
    "postal": "N9Y6L8",
    "result": []
  },
  {
    "postal": "N9Y2R4",
    "result": [
      {
        "electoralDistricts": [
          {
            "election": null,
            "id": 27,
            "name": "Essex"
          }
        ],
        "pollDivisionIds": [
          10138050
        ],
        "postalCode": "N9Y2R4",
        "streetName": "PATRICIA",
        "streetDirectionId": null,
        "streetTypeId": "BLVD",
        "placeName": "KINGSVILLE",
        "streetNameDisplayText": "PATRICIA BLVD, KINGSVILLE"
      }
    ]
  },
  {
    "postal": "N9Y2W1",
    "result": [
      {
        "electoralDistricts": [
          {
            "election": null,
            "id": 27,
            "name": "Essex"
          }
        ],
        "pollDivisionIds": [
          10138050
        ],
        "postalCode": "N9Y2W1",
        "streetName": "COTTONWOOD",
        "streetDirectionId": null,
        "streetTypeId": "AVE",
        "placeName": "KINGSVILLE",
        "streetNameDisplayText": "COTTONWOOD AVE, KINGSVILLE"
      }
    ]
  },
  {
    "postal": "N9Y9H8",
    "result": []
  },
  {
    "postal": "N9Y8X9",
    "result": []
  },
  {
    "postal": "N9Y7H4",
    "result": []
  },
  {
    "postal": "N9Y3J1",
    "result": [
      {
        "electoralDistricts": [
          {
            "election": null,
            "id": 27,
            "name": "Essex"
          }
        ],
        "pollDivisionIds": [
          10138041
        ],
        "postalCode": "N9Y3J1",
        "streetName": "SPRUCE",
        "streetDirectionId": "N",
        "streetTypeId": "ST",
        "placeName": "KINGSVILLE",
        "streetNameDisplayText": "SPRUCE ST N, KINGSVILLE"
      }
    ]
  },
  {
    "postal": "N9Y1P4",
    "result": [
      {
        "electoralDistricts": [
          {
            "election": null,
            "id": 27,
            "name": "Essex"
          }
        ],
        "pollDivisionIds": [
          10138043
        ],
        "postalCode": "N9Y1P4",
        "streetName": "DIVISION",
        "streetDirectionId": "S",
        "streetTypeId": "ST",
        "placeName": "KINGSVILLE",
        "streetNameDisplayText": "DIVISION ST S, KINGSVILLE"
      }
    ]
  },
  {
    "postal": "N9Y2A3",
    "result": [
      {
        "electoralDistricts": [
          {
            "election": null,
            "id": 27,
            "name": "Essex"
          }
        ],
        "pollDivisionIds": [
          10138041
        ],
        "postalCode": "N9Y2A3",
        "streetName": "QUEEN",
        "streetDirectionId": null,
        "streetTypeId": "ST",
        "placeName": "KINGSVILLE",
        "streetNameDisplayText": "QUEEN ST, KINGSVILLE"
      }
    ]
  },
  {
    "postal": "N9Y0Z1",
    "result": []
  },
  {
    "postal": "N9Y1C1",
    "result": [
      {
        "electoralDistricts": [
          {
            "election": null,
            "id": 27,
            "name": "Essex"
          }
        ],
        "pollDivisionIds": [
          10138045
        ],
        "postalCode": "N9Y1C1",
        "streetName": "MCCALLUM",
        "streetDirectionId": null,
        "streetTypeId": "ST",
        "placeName": "KINGSVILLE",
        "streetNameDisplayText": "MCCALLUM ST, KINGSVILLE"
      }
    ]
  },
  {
    "postal": "N9Y0H3",
    "result": []
  },
  {
    "postal": "N9Y7B0",
    "result": []
  },
  {
    "postal": "N9Y5K2",
    "result": []
  },
  {
    "postal": "N9Y1E9",
    "result": [
      {
        "electoralDistricts": [
          {
            "election": null,
            "id": 27,
            "name": "Essex"
          }
        ],
        "pollDivisionIds": [
          10138041
        ],
        "postalCode": "N9Y1E9",
        "streetName": "WATERMILL",
        "streetDirectionId": null,
        "streetTypeId": "ST",
        "placeName": "KINGSVILLE",
        "streetNameDisplayText": "WATERMILL ST, KINGSVILLE"
      }
    ]
  },
  {
    "postal": "N9Y9W7",
    "result": []
  },
  {
    "postal": "N9Y5W6",
    "result": []
  },
  {
    "postal": "N9Y6S6",
    "result": []
  },
  {
    "postal": "N9Y2P8",
    "result": [
      {
        "electoralDistricts": [
          {
            "election": null,
            "id": 27,
            "name": "Essex"
          }
        ],
        "pollDivisionIds": [
          10138044
        ],
        "postalCode": "N9Y2P8",
        "streetName": "LAKE ERIE",
        "streetDirectionId": null,
        "streetTypeId": "DR",
        "placeName": "KINGSVILLE",
        "streetNameDisplayText": "LAKE ERIE DR, KINGSVILLE"
      }
    ]
  },
  {
    "postal": "N9Y4P8",
    "result": []
  },
  {
    "postal": "N9Y0V9",
    "result": []
  },
  {
    "postal": "N9Y5Y2",
    "result": []
  },
  {
    "postal": "N9Y7Z7",
    "result": []
  },
  {
    "postal": "N9Y6Y8",
    "result": []
  },
  {
    "postal": "N9Y2G7",
    "result": [
      {
        "electoralDistricts": [
          {
            "election": null,
            "id": 27,
            "name": "Essex"
          }
        ],
        "pollDivisionIds": [
          10138050
        ],
        "postalCode": "N9Y2G7",
        "streetName": "OXFORD",
        "streetDirectionId": null,
        "streetTypeId": "AVE",
        "placeName": "KINGSVILLE",
        "streetNameDisplayText": "OXFORD AVE, KINGSVILLE"
      }
    ]
  },
  {
    "postal": "N9Y8C1",
    "result": []
  },
  {
    "postal": "N9Y5C5",
    "result": []
  },
  {
    "postal": "N9Y2X8",
    "result": [
      {
        "electoralDistricts": [
          {
            "election": null,
            "id": 27,
            "name": "Essex"
          }
        ],
        "pollDivisionIds": [
          10138050
        ],
        "postalCode": "N9Y2X8",
        "streetName": "HICKORY",
        "streetDirectionId": null,
        "streetTypeId": "LANE",
        "placeName": "KINGSVILLE",
        "streetNameDisplayText": "HICKORY LANE, KINGSVILLE"
      }
    ]
  },
  {
    "postal": "N9Y1W5",
    "result": [
      {
        "electoralDistricts": [
          {
            "election": null,
            "id": 27,
            "name": "Essex"
          }
        ],
        "pollDivisionIds": [
          10138041
        ],
        "postalCode": "N9Y1W5",
        "streetName": "MILL",
        "streetDirectionId": "W",
        "streetTypeId": "ST",
        "placeName": "KINGSVILLE",
        "streetNameDisplayText": "MILL ST W, KINGSVILLE"
      }
    ]
  },
  {
    "postal": "N9Y7G0",
    "result": []
  },
  {
    "postal": "N9Y8J8",
    "result": []
  },
  {
    "postal": "N9Y3Y0",
    "result": []
  },
  {
    "postal": "N9Y9T7",
    "result": []
  },
  {
    "postal": "N9Y5P4",
    "result": []
  },
  {
    "postal": "N9Y4B0",
    "result": []
  },
  {
    "postal": "N9Y9N8",
    "result": []
  },
  {
    "postal": "N9Y4A7",
    "result": [
      {
        "electoralDistricts": [
          {
            "election": null,
            "id": 27,
            "name": "Essex"
          }
        ],
        "pollDivisionIds": [
          10138043
        ],
        "postalCode": "N9Y4A7",
        "streetName": "VIOLA",
        "streetDirectionId": null,
        "streetTypeId": "CRES",
        "placeName": "KINGSVILLE",
        "streetNameDisplayText": "VIOLA CRES, KINGSVILLE"
      }
    ]
  },
  {
    "postal": "N9Y4H9",
    "result": []
  },
  {
    "postal": "N9Y6X1",
    "result": []
  },
  {
    "postal": "N9Y9Y7",
    "result": []
  },
  {
    "postal": "N9Y2Y5",
    "result": [
      {
        "electoralDistricts": [
          {
            "election": null,
            "id": 27,
            "name": "Essex"
          }
        ],
        "pollDivisionIds": [
          10138050
        ],
        "postalCode": "N9Y2Y5",
        "streetName": "AUTUMN",
        "streetDirectionId": null,
        "streetTypeId": "CRT",
        "placeName": "KINGSVILLE",
        "streetNameDisplayText": "AUTUMN CRT, KINGSVILLE"
      }
    ]
  },
  {
    "postal": "N9Y8L7",
    "result": []
  },
  {
    "postal": "N9Y2A8",
    "result": [
      {
        "electoralDistricts": [
          {
            "election": null,
            "id": 27,
            "name": "Essex"
          }
        ],
        "pollDivisionIds": [
          10138044
        ],
        "postalCode": "N9Y2A8",
        "streetName": "QUEEN",
        "streetDirectionId": null,
        "streetTypeId": "ST",
        "placeName": "KINGSVILLE",
        "streetNameDisplayText": "QUEEN ST, KINGSVILLE"
      }
    ]
  },
  {
    "postal": "N9Y2K9",
    "result": [
      {
        "electoralDistricts": [
          {
            "election": null,
            "id": 27,
            "name": "Essex"
          }
        ],
        "pollDivisionIds": [
          10138045
        ],
        "postalCode": "N9Y2K9",
        "streetName": "SEACLIFF",
        "streetDirectionId": null,
        "streetTypeId": "DR",
        "placeName": "KINGSVILLE",
        "streetNameDisplayText": "SEACLIFF DR, KINGSVILLE"
      }
    ]
  },
  {
    "postal": "N9Y3E5",
    "result": [
      {
        "electoralDistricts": [
          {
            "election": null,
            "id": 27,
            "name": "Essex"
          }
        ],
        "pollDivisionIds": [
          10138040
        ],
        "postalCode": "N9Y3E5",
        "streetName": "ERIE",
        "streetDirectionId": "W",
        "streetTypeId": "AVE",
        "placeName": "KINGSVILLE",
        "streetNameDisplayText": "ERIE AVE W, KINGSVILLE"
      }
    ]
  },
  {
    "postal": "N9Y8N6",
    "result": []
  },
  {
    "postal": "N9Y8J4",
    "result": []
  },
  {
    "postal": "N9Y4R7",
    "result": []
  },
  {
    "postal": "N9Y9K1",
    "result": []
  },
  {
    "postal": "N9Y8E1",
    "result": []
  },
  {
    "postal": "N9Y0R1",
    "result": []
  },
  {
    "postal": "N9Y4J3",
    "result": []
  },
  {
    "postal": "N9Y7E7",
    "result": []
  },
  {
    "postal": "N9Y0J0",
    "result": []
  },
  {
    "postal": "N9Y7R8",
    "result": []
  },
  {
    "postal": "N9Y9X0",
    "result": []
  },
  {
    "postal": "N9Y7P6",
    "result": []
  },
  {
    "postal": "N9Y0R7",
    "result": []
  },
  {
    "postal": "N9Y5W1",
    "result": []
  },
  {
    "postal": "N9Y0K4",
    "result": []
  },
  {
    "postal": "N9Y7N9",
    "result": []
  },
  {
    "postal": "N9Y1N0",
    "result": []
  },
  {
    "postal": "N9Y6P3",
    "result": []
  },
  {
    "postal": "N9Y5A1",
    "result": []
  },
  {
    "postal": "N9Y9M9",
    "result": []
  },
  {
    "postal": "N9Y7T6",
    "result": []
  },
  {
    "postal": "N9Y3X0",
    "result": []
  },
  {
    "postal": "N9Y2T0",
    "result": []
  },
  {
    "postal": "N9Y5X9",
    "result": []
  },
  {
    "postal": "N9Y2R3",
    "result": [
      {
        "electoralDistricts": [
          {
            "election": null,
            "id": 27,
            "name": "Essex"
          }
        ],
        "pollDivisionIds": [
          10138050
        ],
        "postalCode": "N9Y2R3",
        "streetName": "PATRICIA",
        "streetDirectionId": null,
        "streetTypeId": "BLVD",
        "placeName": "KINGSVILLE",
        "streetNameDisplayText": "PATRICIA BLVD, KINGSVILLE"
      }
    ]
  },
  {
    "postal": "N9Y5N2",
    "result": []
  },
  {
    "postal": "N9Y4Y7",
    "result": []
  },
  {
    "postal": "N9Y7M0",
    "result": []
  },
  {
    "postal": "N9Y8P3",
    "result": []
  },
  {
    "postal": "N9Y3N3",
    "result": [
      {
        "electoralDistricts": [
          {
            "election": null,
            "id": 27,
            "name": "Essex"
          }
        ],
        "pollDivisionIds": [
          10138044
        ],
        "postalCode": "N9Y3N3",
        "streetName": "JAMES",
        "streetDirectionId": null,
        "streetTypeId": "AVE",
        "placeName": "KINGSVILLE",
        "streetNameDisplayText": "JAMES AVE, KINGSVILLE"
      }
    ]
  },
  {
    "postal": "N9Y7S3",
    "result": []
  },
  {
    "postal": "N9Y3V9",
    "result": [
      {
        "electoralDistricts": [
          {
            "election": null,
            "id": 27,
            "name": "Essex"
          }
        ],
        "pollDivisionIds": [
          10138038
        ],
        "postalCode": "N9Y3V9",
        "streetName": "2ND",
        "streetDirectionId": null,
        "streetTypeId": "BLVD",
        "placeName": "KINGSVILLE",
        "streetNameDisplayText": "2ND BLVD, KINGSVILLE"
      },
      {
        "electoralDistricts": [
          {
            "election": null,
            "id": 27,
            "name": "Essex"
          }
        ],
        "pollDivisionIds": [
          10138038
        ],
        "postalCode": "N9Y3V9",
        "streetName": "CEDAR ISLAND",
        "streetDirectionId": null,
        "streetTypeId": "DR",
        "placeName": "KINGSVILLE",
        "streetNameDisplayText": "CEDAR ISLAND DR, KINGSVILLE"
      },
      {
        "electoralDistricts": [
          {
            "election": null,
            "id": 27,
            "name": "Essex"
          }
        ],
        "pollDivisionIds": [
          10138038
        ],
        "postalCode": "N9Y3V9",
        "streetName": "CEDAR ISLAND",
        "streetDirectionId": null,
        "streetTypeId": "LANE",
        "placeName": "KINGSVILLE",
        "streetNameDisplayText": "CEDAR ISLAND LANE, KINGSVILLE"
      }
    ]
  },
  {
    "postal": "N9Y9N7",
    "result": []
  },
  {
    "postal": "N9Y0G4",
    "result": []
  },
  {
    "postal": "N9Y2E2",
    "result": [
      {
        "electoralDistricts": [
          {
            "election": null,
            "id": 27,
            "name": "Essex"
          }
        ],
        "pollDivisionIds": [
          10138044
        ],
        "postalCode": "N9Y2E2",
        "streetName": "LAKEVIEW",
        "streetDirectionId": null,
        "streetTypeId": "AVE",
        "placeName": "KINGSVILLE",
        "streetNameDisplayText": "LAKEVIEW AVE, KINGSVILLE"
      }
    ]
  },
  {
    "postal": "N9Y7W8",
    "result": []
  },
  {
    "postal": "N9Y7M5",
    "result": []
  },
  {
    "postal": "N9Y5W8",
    "result": []
  },
  {
    "postal": "N9Y5E5",
    "result": []
  },
  {
    "postal": "N9Y1P9",
    "result": [
      {
        "electoralDistricts": [
          {
            "election": null,
            "id": 27,
            "name": "Essex"
          }
        ],
        "pollDivisionIds": [
          10138044
        ],
        "postalCode": "N9Y1P9",
        "streetName": "DIVISION",
        "streetDirectionId": "S",
        "streetTypeId": "ST",
        "placeName": "KINGSVILLE",
        "streetNameDisplayText": "DIVISION ST S, KINGSVILLE"
      }
    ]
  },
  {
    "postal": "N9Y8V8",
    "result": []
  },
  {
    "postal": "N9Y9G8",
    "result": []
  },
  {
    "postal": "N9Y8H9",
    "result": []
  },
  {
    "postal": "N9Y1Z1",
    "result": [
      {
        "electoralDistricts": [
          {
            "election": null,
            "id": 27,
            "name": "Essex"
          }
        ],
        "pollDivisionIds": [
          10138044
        ],
        "postalCode": "N9Y1Z1",
        "streetName": "PARKDALE",
        "streetDirectionId": null,
        "streetTypeId": "CRES",
        "placeName": "KINGSVILLE",
        "streetNameDisplayText": "PARKDALE CRES, KINGSVILLE"
      }
    ]
  },
  {
    "postal": "N9Y8M3",
    "result": []
  },
  {
    "postal": "N9Y5H6",
    "result": []
  },
  {
    "postal": "N9Y7W7",
    "result": []
  },
  {
    "postal": "N9Y4L0",
    "result": []
  },
  {
    "postal": "N9Y2N1",
    "result": [
      {
        "electoralDistricts": [
          {
            "election": null,
            "id": 27,
            "name": "Essex"
          }
        ],
        "pollDivisionIds": [
          10138050
        ],
        "postalCode": "N9Y2N1",
        "streetName": "SEACLIFF",
        "streetDirectionId": "E",
        "streetTypeId": "DR",
        "placeName": "KINGSVILLE",
        "streetNameDisplayText": "SEACLIFF DR E, KINGSVILLE"
      },
      {
        "electoralDistricts": [
          {
            "election": null,
            "id": 27,
            "name": "Essex"
          }
        ],
        "pollDivisionIds": [
          10138050
        ],
        "postalCode": "N9Y2N1",
        "streetName": "SEACLIFF",
        "streetDirectionId": null,
        "streetTypeId": "DR",
        "placeName": "KINGSVILLE",
        "streetNameDisplayText": "SEACLIFF DR, KINGSVILLE"
      }
    ]
  },
  {
    "postal": "N9Y2H4",
    "result": [
      {
        "electoralDistricts": [
          {
            "election": null,
            "id": 27,
            "name": "Essex"
          }
        ],
        "pollDivisionIds": [
          10138040
        ],
        "postalCode": "N9Y2H4",
        "streetName": "STONEHEDGE",
        "streetDirectionId": null,
        "streetTypeId": "DR",
        "placeName": "KINGSVILLE",
        "streetNameDisplayText": "STONEHEDGE DR, KINGSVILLE"
      }
    ]
  },
  {
    "postal": "N9Y5C8",
    "result": []
  },
  {
    "postal": "N9Y8B0",
    "result": []
  },
  {
    "postal": "N9Y1T4",
    "result": [
      {
        "electoralDistricts": [
          {
            "election": null,
            "id": 27,
            "name": "Essex"
          }
        ],
        "pollDivisionIds": [
          10138043
        ],
        "postalCode": "N9Y1T4",
        "streetName": "VICTORIA",
        "streetDirectionId": null,
        "streetTypeId": "AVE",
        "placeName": "KINGSVILLE",
        "streetNameDisplayText": "VICTORIA AVE, KINGSVILLE"
      }
    ]
  },
  {
    "postal": "N9Y7N7",
    "result": []
  },
  {
    "postal": "N9Y4L3",
    "result": []
  },
  {
    "postal": "N9Y2N2",
    "result": []
  },
  {
    "postal": "N9Y4N8",
    "result": []
  },
  {
    "postal": "N9Y3M5",
    "result": []
  },
  {
    "postal": "N9Y6H7",
    "result": []
  },
  {
    "postal": "N9Y8Y8",
    "result": []
  },
  {
    "postal": "N9Y5R9",
    "result": []
  },
  {
    "postal": "N9Y8G3",
    "result": []
  },
  {
    "postal": "N9Y4N7",
    "result": []
  },
  {
    "postal": "N9Y0B9",
    "result": [
      {
        "electoralDistricts": [
          {
            "election": null,
            "id": 27,
            "name": "Essex"
          }
        ],
        "pollDivisionIds": [
          10138045
        ],
        "postalCode": "N9Y0B9",
        "streetName": "BLUE JAY",
        "streetDirectionId": null,
        "streetTypeId": "CRES",
        "placeName": "KINGSVILLE",
        "streetNameDisplayText": "BLUE JAY CRES, KINGSVILLE"
      },
      {
        "electoralDistricts": [
          {
            "election": null,
            "id": 27,
            "name": "Essex"
          }
        ],
        "pollDivisionIds": [
          10138045
        ],
        "postalCode": "N9Y0B9",
        "streetName": "WOODYCREST",
        "streetDirectionId": null,
        "streetTypeId": "AVE",
        "placeName": "KINGSVILLE",
        "streetNameDisplayText": "WOODYCREST AVE, KINGSVILLE"
      }
    ]
  },
  {
    "postal": "N9Y9K7",
    "result": []
  },
  {
    "postal": "N9Y9K9",
    "result": []
  },
  {
    "postal": "N9Y3Z2",
    "result": [
      {
        "electoralDistricts": [
          {
            "election": null,
            "id": 27,
            "name": "Essex"
          }
        ],
        "pollDivisionIds": [
          10138040
        ],
        "postalCode": "N9Y3Z2",
        "streetName": "ORIOLE",
        "streetDirectionId": null,
        "streetTypeId": "CRT",
        "placeName": "KINGSVILLE",
        "streetNameDisplayText": "ORIOLE CRT, KINGSVILLE"
      }
    ]
  },
  {
    "postal": "N9Y6W7",
    "result": []
  },
  {
    "postal": "N9Y0P1",
    "result": []
  },
  {
    "postal": "N9Y3A0",
    "result": []
  },
  {
    "postal": "N9Y8L9",
    "result": []
  },
  {
    "postal": "N9Y6X0",
    "result": []
  },
  {
    "postal": "N9Y3E9",
    "result": [
      {
        "electoralDistricts": [
          {
            "election": null,
            "id": 27,
            "name": "Essex"
          }
        ],
        "pollDivisionIds": [
          10138040
        ],
        "postalCode": "N9Y3E9",
        "streetName": "WRIDE",
        "streetDirectionId": null,
        "streetTypeId": "AVE",
        "placeName": "KINGSVILLE",
        "streetNameDisplayText": "WRIDE AVE, KINGSVILLE"
      }
    ]
  },
  {
    "postal": "N9Y0S5",
    "result": []
  },
  {
    "postal": "N9Y1A2",
    "result": [
      {
        "electoralDistricts": [
          {
            "election": null,
            "id": 27,
            "name": "Essex"
          }
        ],
        "pollDivisionIds": [
          10138041
        ],
        "postalCode": "N9Y1A2",
        "streetName": "MAIN",
        "streetDirectionId": "E",
        "streetTypeId": "ST",
        "placeName": "KINGSVILLE",
        "streetNameDisplayText": "MAIN ST E, KINGSVILLE"
      }
    ]
  },
  {
    "postal": "N9Y5V8",
    "result": []
  },
  {
    "postal": "N9Y8C5",
    "result": []
  },
  {
    "postal": "N9Y6N0",
    "result": []
  },
  {
    "postal": "N9Y9E6",
    "result": []
  },
  {
    "postal": "N9Y5J7",
    "result": []
  },
  {
    "postal": "N9Y2R2",
    "result": [
      {
        "electoralDistricts": [
          {
            "election": null,
            "id": 27,
            "name": "Essex"
          }
        ],
        "pollDivisionIds": [
          10138044,
          10138050
        ],
        "postalCode": "N9Y2R2",
        "streetName": "LYNDON",
        "streetDirectionId": null,
        "streetTypeId": "WAY",
        "placeName": "KINGSVILLE",
        "streetNameDisplayText": "LYNDON WAY, KINGSVILLE"
      }
    ]
  },
  {
    "postal": "N9Y0P5",
    "result": []
  },
  {
    "postal": "N9Y5A7",
    "result": []
  },
  {
    "postal": "N9Y1G1",
    "result": [
      {
        "electoralDistricts": [
          {
            "election": null,
            "id": 27,
            "name": "Essex"
          }
        ],
        "pollDivisionIds": [
          10138041
        ],
        "postalCode": "N9Y1G1",
        "streetName": "SPRUCE",
        "streetDirectionId": "N",
        "streetTypeId": "ST",
        "placeName": "KINGSVILLE",
        "streetNameDisplayText": "SPRUCE ST N, KINGSVILLE"
      }
    ]
  },
  {
    "postal": "N9Y9R6",
    "result": []
  },
  {
    "postal": "N9Y4Z9",
    "result": []
  },
  {
    "postal": "N9Y1V5",
    "result": [
      {
        "electoralDistricts": [
          {
            "election": null,
            "id": 27,
            "name": "Essex"
          }
        ],
        "pollDivisionIds": [
          10138041
        ],
        "postalCode": "N9Y1V5",
        "streetName": "PEARL",
        "streetDirectionId": "W",
        "streetTypeId": "ST",
        "placeName": "KINGSVILLE",
        "streetNameDisplayText": "PEARL ST W, KINGSVILLE"
      }
    ]
  },
  {
    "postal": "N9Y9Y5",
    "result": []
  },
  {
    "postal": "N9Y1P2",
    "result": [
      {
        "electoralDistricts": [
          {
            "election": null,
            "id": 27,
            "name": "Essex"
          }
        ],
        "pollDivisionIds": [
          10138041
        ],
        "postalCode": "N9Y1P2",
        "streetName": "DIVISION",
        "streetDirectionId": "S",
        "streetTypeId": "ST",
        "placeName": "KINGSVILLE",
        "streetNameDisplayText": "DIVISION ST S, KINGSVILLE"
      }
    ]
  },
  {
    "postal": "N9Y5X0",
    "result": []
  },
  {
    "postal": "N9Y7B8",
    "result": []
  },
  {
    "postal": "N9Y0C6",
    "result": []
  },
  {
    "postal": "N9Y6G1",
    "result": []
  },
  {
    "postal": "N9Y3K3",
    "result": [
      {
        "electoralDistricts": [
          {
            "election": null,
            "id": 27,
            "name": "Essex"
          }
        ],
        "pollDivisionIds": [
          10138045
        ],
        "postalCode": "N9Y3K3",
        "streetName": "KRATZ",
        "streetDirectionId": null,
        "streetTypeId": "RD",
        "placeName": "KINGSVILLE",
        "streetNameDisplayText": "KRATZ RD, KINGSVILLE"
      },
      {
        "electoralDistricts": [
          {
            "election": null,
            "id": 27,
            "name": "Essex"
          }
        ],
        "pollDivisionIds": [
          10138045
        ],
        "postalCode": "N9Y3K3",
        "streetName": "KRATZ",
        "streetDirectionId": null,
        "streetTypeId": "SIDERD",
        "placeName": "KINGSVILLE",
        "streetNameDisplayText": "KRATZ SIDERD, KINGSVILLE"
      }
    ]
  },
  {
    "postal": "N9Y9R0",
    "result": []
  },
  {
    "postal": "N9Y4R8",
    "result": []
  },
  {
    "postal": "N9Y5P9",
    "result": []
  },
  {
    "postal": "N9Y8N4",
    "result": []
  },
  {
    "postal": "N9Y8H4",
    "result": []
  },
  {
    "postal": "N9Y4V1",
    "result": []
  },
  {
    "postal": "N9Y1K5",
    "result": []
  },
  {
    "postal": "N9Y1Z5",
    "result": [
      {
        "electoralDistricts": [
          {
            "election": null,
            "id": 27,
            "name": "Essex"
          }
        ],
        "pollDivisionIds": [
          10138040
        ],
        "postalCode": "N9Y1Z5",
        "streetName": "HAROLD CULL",
        "streetDirectionId": null,
        "streetTypeId": "DR",
        "placeName": "KINGSVILLE",
        "streetNameDisplayText": "HAROLD CULL DR, KINGSVILLE"
      }
    ]
  },
  {
    "postal": "N9Y9L9",
    "result": []
  },
  {
    "postal": "N9Y5L2",
    "result": []
  },
  {
    "postal": "N9Y0M2",
    "result": []
  },
  {
    "postal": "N9Y1K8",
    "result": [
      {
        "electoralDistricts": [
          {
            "election": null,
            "id": 27,
            "name": "Essex"
          }
        ],
        "pollDivisionIds": [
          10138043
        ],
        "postalCode": "N9Y1K8",
        "streetName": "MILL",
        "streetDirectionId": "E",
        "streetTypeId": "ST",
        "placeName": "KINGSVILLE",
        "streetNameDisplayText": "MILL ST E, KINGSVILLE"
      }
    ]
  },
  {
    "postal": "N9Y3M7",
    "result": [
      {
        "electoralDistricts": [
          {
            "election": null,
            "id": 27,
            "name": "Essex"
          }
        ],
        "pollDivisionIds": [
          10138050
        ],
        "postalCode": "N9Y3M7",
        "streetName": "FULLER",
        "streetDirectionId": null,
        "streetTypeId": "DR",
        "placeName": "KINGSVILLE",
        "streetNameDisplayText": "FULLER DR, KINGSVILLE"
      }
    ]
  },
  {
    "postal": "N9Y1B2",
    "result": [
      {
        "electoralDistricts": [
          {
            "election": null,
            "id": 27,
            "name": "Essex"
          }
        ],
        "pollDivisionIds": [
          10138041
        ],
        "postalCode": "N9Y1B2",
        "streetName": "BEECH",
        "streetDirectionId": null,
        "streetTypeId": "ST",
        "placeName": "KINGSVILLE",
        "streetNameDisplayText": "BEECH ST, KINGSVILLE"
      }
    ]
  },
  {
    "postal": "N9Y0H9",
    "result": []
  },
  {
    "postal": "N9Y8M4",
    "result": []
  },
  {
    "postal": "N9Y2M5",
    "result": [
      {
        "electoralDistricts": [
          {
            "election": null,
            "id": 27,
            "name": "Essex"
          }
        ],
        "pollDivisionIds": [
          10138050
        ],
        "postalCode": "N9Y2M5",
        "streetName": "SEACLIFF",
        "streetDirectionId": null,
        "streetTypeId": "DR",
        "placeName": "KINGSVILLE",
        "streetNameDisplayText": "SEACLIFF DR, KINGSVILLE"
      }
    ]
  },
  {
    "postal": "N9Y0T9",
    "result": []
  },
  {
    "postal": "N9Y3P1",
    "result": []
  },
  {
    "postal": "N9Y1R6",
    "result": [
      {
        "electoralDistricts": [
          {
            "election": null,
            "id": 27,
            "name": "Essex"
          }
        ],
        "pollDivisionIds": [
          10138044
        ],
        "postalCode": "N9Y1R6",
        "streetName": "DIVISION",
        "streetDirectionId": "S",
        "streetTypeId": "ST",
        "placeName": "KINGSVILLE",
        "streetNameDisplayText": "DIVISION ST S, KINGSVILLE"
      }
    ]
  },
  {
    "postal": "N9Y9V5",
    "result": []
  },
  {
    "postal": "N9Y9T0",
    "result": []
  },
  {
    "postal": "N9Y0A9",
    "result": [
      {
        "electoralDistricts": [
          {
            "election": null,
            "id": 27,
            "name": "Essex"
          }
        ],
        "pollDivisionIds": [
          10138045
        ],
        "postalCode": "N9Y0A9",
        "streetName": "HAZEL",
        "streetDirectionId": null,
        "streetTypeId": "CRES",
        "placeName": "KINGSVILLE",
        "streetNameDisplayText": "HAZEL CRES, KINGSVILLE"
      },
      {
        "electoralDistricts": [
          {
            "election": null,
            "id": 27,
            "name": "Essex"
          }
        ],
        "pollDivisionIds": [
          10138045
        ],
        "postalCode": "N9Y0A9",
        "streetName": "WOODLAND",
        "streetDirectionId": null,
        "streetTypeId": "ST",
        "placeName": "KINGSVILLE",
        "streetNameDisplayText": "WOODLAND ST, KINGSVILLE"
      }
    ]
  },
  {
    "postal": "N9Y1M3",
    "result": [
      {
        "electoralDistricts": [
          {
            "election": null,
            "id": 27,
            "name": "Essex"
          }
        ],
        "pollDivisionIds": [
          10138044
        ],
        "postalCode": "N9Y1M3",
        "streetName": "MYRTLE",
        "streetDirectionId": null,
        "streetTypeId": "ST",
        "placeName": "KINGSVILLE",
        "streetNameDisplayText": "MYRTLE ST, KINGSVILLE"
      }
    ]
  },
  {
    "postal": "N9Y1W8",
    "result": [
      {
        "electoralDistricts": [
          {
            "election": null,
            "id": 27,
            "name": "Essex"
          }
        ],
        "pollDivisionIds": [
          10138041,
          10138040
        ],
        "postalCode": "N9Y1W8",
        "streetName": "ELM",
        "streetDirectionId": null,
        "streetTypeId": "ST",
        "placeName": "KINGSVILLE",
        "streetNameDisplayText": "ELM ST, KINGSVILLE"
      }
    ]
  },
  {
    "postal": "N9Y9J1",
    "result": []
  },
  {
    "postal": "N9Y8N5",
    "result": []
  },
  {
    "postal": "N9Y5X1",
    "result": []
  },
  {
    "postal": "N9Y6S2",
    "result": []
  },
  {
    "postal": "N9Y2A2",
    "result": [
      {
        "electoralDistricts": [
          {
            "election": null,
            "id": 27,
            "name": "Essex"
          }
        ],
        "pollDivisionIds": [
          10138041
        ],
        "postalCode": "N9Y2A2",
        "streetName": "QUEEN",
        "streetDirectionId": null,
        "streetTypeId": "ST",
        "placeName": "KINGSVILLE",
        "streetNameDisplayText": "QUEEN ST, KINGSVILLE"
      }
    ]
  },
  {
    "postal": "N9Y6A6",
    "result": []
  },
  {
    "postal": "N9Y0S3",
    "result": []
  },
  {
    "postal": "N9Y3E7",
    "result": [
      {
        "electoralDistricts": [
          {
            "election": null,
            "id": 27,
            "name": "Essex"
          }
        ],
        "pollDivisionIds": [
          10138040
        ],
        "postalCode": "N9Y3E7",
        "streetName": "WRIDE",
        "streetDirectionId": null,
        "streetTypeId": "AVE",
        "placeName": "KINGSVILLE",
        "streetNameDisplayText": "WRIDE AVE, KINGSVILLE"
      }
    ]
  },
  {
    "postal": "N9Y5R7",
    "result": []
  },
  {
    "postal": "N9Y3R6",
    "result": [
      {
        "electoralDistricts": [
          {
            "election": null,
            "id": 27,
            "name": "Essex"
          }
        ],
        "pollDivisionIds": [
          10138044
        ],
        "postalCode": "N9Y3R6",
        "streetName": "KATRISHE",
        "streetDirectionId": null,
        "streetTypeId": "CRES",
        "placeName": "KINGSVILLE",
        "streetNameDisplayText": "KATRISHE CRES, KINGSVILLE"
      }
    ]
  },
  {
    "postal": "N9Y6K4",
    "result": []
  },
  {
    "postal": "N9Y2W5",
    "result": []
  },
  {
    "postal": "N9Y8W4",
    "result": []
  },
  {
    "postal": "N9Y9C2",
    "result": []
  },
  {
    "postal": "N9Y2C0",
    "result": []
  },
  {
    "postal": "N9Y0E1",
    "result": [
      {
        "electoralDistricts": [
          {
            "election": null,
            "id": 27,
            "name": "Essex"
          }
        ],
        "pollDivisionIds": [
          10138045
        ],
        "postalCode": "N9Y0E1",
        "streetName": "BLUE JAY",
        "streetDirectionId": null,
        "streetTypeId": "CRES",
        "placeName": "KINGSVILLE",
        "streetNameDisplayText": "BLUE JAY CRES, KINGSVILLE"
      },
      {
        "electoralDistricts": [
          {
            "election": null,
            "id": 27,
            "name": "Essex"
          }
        ],
        "pollDivisionIds": [
          10138017,
          10138045
        ],
        "postalCode": "N9Y0E1",
        "streetName": "LUKAS",
        "streetDirectionId": null,
        "streetTypeId": "DR",
        "placeName": "KINGSVILLE",
        "streetNameDisplayText": "LUKAS DR, KINGSVILLE"
      },
      {
        "electoralDistricts": [
          {
            "election": null,
            "id": 27,
            "name": "Essex"
          }
        ],
        "pollDivisionIds": [
          10138017
        ],
        "postalCode": "N9Y0E1",
        "streetName": "ROBIN",
        "streetDirectionId": null,
        "streetTypeId": "CRES",
        "placeName": "KINGSVILLE",
        "streetNameDisplayText": "ROBIN CRES, KINGSVILLE"
      },
      {
        "electoralDistricts": [
          {
            "election": null,
            "id": 27,
            "name": "Essex"
          }
        ],
        "pollDivisionIds": [
          10138039,
          10138045
        ],
        "postalCode": "N9Y0E1",
        "streetName": "ROBIN",
        "streetDirectionId": null,
        "streetTypeId": "CRT",
        "placeName": "KINGSVILLE",
        "streetNameDisplayText": "ROBIN CRT, KINGSVILLE"
      }
    ]
  },
  {
    "postal": "N9Y1K9",
    "result": [
      {
        "electoralDistricts": [
          {
            "election": null,
            "id": 27,
            "name": "Essex"
          }
        ],
        "pollDivisionIds": [
          10138044
        ],
        "postalCode": "N9Y1K9",
        "streetName": "INDUSTRY",
        "streetDirectionId": null,
        "streetTypeId": "RD",
        "placeName": "KINGSVILLE",
        "streetNameDisplayText": "INDUSTRY RD, KINGSVILLE"
      }
    ]
  },
  {
    "postal": "N9Y1G7",
    "result": [
      {
        "electoralDistricts": [
          {
            "election": null,
            "id": 27,
            "name": "Essex"
          }
        ],
        "pollDivisionIds": [
          10138045
        ],
        "postalCode": "N9Y1G7",
        "streetName": "MCCALLUM",
        "streetDirectionId": null,
        "streetTypeId": "DR",
        "placeName": "KINGSVILLE",
        "streetNameDisplayText": "MCCALLUM DR, KINGSVILLE"
      }
    ]
  },
  {
    "postal": "N9Y4E9",
    "result": [
      {
        "electoralDistricts": [
          {
            "election": null,
            "id": 27,
            "name": "Essex"
          }
        ],
        "pollDivisionIds": [
          10138040
        ],
        "postalCode": "N9Y4E9",
        "streetName": "NORMANDY",
        "streetDirectionId": null,
        "streetTypeId": "AVE",
        "placeName": "KINGSVILLE",
        "streetNameDisplayText": "NORMANDY AVE, KINGSVILLE"
      }
    ]
  },
  {
    "postal": "N9Y9P0",
    "result": []
  },
  {
    "postal": "N9Y5H3",
    "result": []
  },
  {
    "postal": "N9Y9X6",
    "result": []
  },
  {
    "postal": "N9Y5N7",
    "result": []
  },
  {
    "postal": "N9Y5A6",
    "result": []
  },
  {
    "postal": "N9Y4M0",
    "result": []
  },
  {
    "postal": "N9Y3V6",
    "result": [
      {
        "electoralDistricts": [
          {
            "election": null,
            "id": 27,
            "name": "Essex"
          },
          {
            "election": null,
            "id": 18,
            "name": "Chatham-KentLeamington"
          }
        ],
        "pollDivisionIds": [
          10138038,
          10137525
        ],
        "postalCode": "N9Y3V6",
        "streetName": "CEDAR",
        "streetDirectionId": null,
        "streetTypeId": "DR",
        "placeName": "KINGSVILLE",
        "streetNameDisplayText": "CEDAR DR, KINGSVILLE"
      }
    ]
  },
  {
    "postal": "N9Y1L7",
    "result": [
      {
        "electoralDistricts": [
          {
            "election": null,
            "id": 27,
            "name": "Essex"
          }
        ],
        "pollDivisionIds": [
          10138044
        ],
        "postalCode": "N9Y1L7",
        "streetName": "MAPLE",
        "streetDirectionId": null,
        "streetTypeId": "ST",
        "placeName": "KINGSVILLE",
        "streetNameDisplayText": "MAPLE ST, KINGSVILLE"
      }
    ]
  },
  {
    "postal": "N9Y2P9",
    "result": [
      {
        "electoralDistricts": [
          {
            "election": null,
            "id": 27,
            "name": "Essex"
          }
        ],
        "pollDivisionIds": [
          10138044
        ],
        "postalCode": "N9Y2P9",
        "streetName": "LAKE ERIE",
        "streetDirectionId": null,
        "streetTypeId": "DR",
        "placeName": "KINGSVILLE",
        "streetNameDisplayText": "LAKE ERIE DR, KINGSVILLE"
      }
    ]
  },
  {
    "postal": "N9Y5T4",
    "result": []
  },
  {
    "postal": "N9Y5Z1",
    "result": []
  },
  {
    "postal": "N9Y2X0",
    "result": []
  },
  {
    "postal": "N9Y6Z2",
    "result": []
  },
  {
    "postal": "N9Y0E0",
    "result": []
  },
  {
    "postal": "N9Y3Z5",
    "result": [
      {
        "electoralDistricts": [
          {
            "election": null,
            "id": 27,
            "name": "Essex"
          }
        ],
        "pollDivisionIds": [
          10138043
        ],
        "postalCode": "N9Y3Z5",
        "streetName": "SANTOS",
        "streetDirectionId": null,
        "streetTypeId": "DR",
        "placeName": "KINGSVILLE",
        "streetNameDisplayText": "SANTOS DR, KINGSVILLE"
      },
      {
        "electoralDistricts": [
          {
            "election": null,
            "id": 27,
            "name": "Essex"
          }
        ],
        "pollDivisionIds": [
          10138043
        ],
        "postalCode": "N9Y3Z5",
        "streetName": "WALKER",
        "streetDirectionId": null,
        "streetTypeId": "DR",
        "placeName": "KINGSVILLE",
        "streetNameDisplayText": "WALKER DR, KINGSVILLE"
      }
    ]
  },
  {
    "postal": "N9Y8H3",
    "result": []
  },
  {
    "postal": "N9Y7S6",
    "result": []
  },
  {
    "postal": "N9Y4C1",
    "result": [
      {
        "electoralDistricts": [
          {
            "election": null,
            "id": 27,
            "name": "Essex"
          }
        ],
        "pollDivisionIds": [
          10138044
        ],
        "postalCode": "N9Y4C1",
        "streetName": "LAKESIDE",
        "streetDirectionId": null,
        "streetTypeId": "CRES",
        "placeName": "KINGSVILLE",
        "streetNameDisplayText": "LAKESIDE CRES, KINGSVILLE"
      }
    ]
  },
  {
    "postal": "N9Y3K2",
    "result": []
  },
  {
    "postal": "N9Y1Y5",
    "result": [
      {
        "electoralDistricts": [
          {
            "election": null,
            "id": 27,
            "name": "Essex"
          }
        ],
        "pollDivisionIds": [
          10138044
        ],
        "postalCode": "N9Y1Y5",
        "streetName": "MELBOURNE",
        "streetDirectionId": null,
        "streetTypeId": "ST",
        "placeName": "KINGSVILLE",
        "streetNameDisplayText": "MELBOURNE ST, KINGSVILLE"
      }
    ]
  },
  {
    "postal": "N9Y6P6",
    "result": []
  },
  {
    "postal": "N9Y3N9",
    "result": [
      {
        "electoralDistricts": [
          {
            "election": null,
            "id": 27,
            "name": "Essex"
          }
        ],
        "pollDivisionIds": [
          10138043
        ],
        "postalCode": "N9Y3N9",
        "streetName": "APPLEWOOD",
        "streetDirectionId": null,
        "streetTypeId": "RD",
        "placeName": "KINGSVILLE",
        "streetNameDisplayText": "APPLEWOOD RD, KINGSVILLE"
      }
    ]
  },
  {
    "postal": "N9Y3W2",
    "result": [
      {
        "electoralDistricts": [
          {
            "election": null,
            "id": 27,
            "name": "Essex"
          }
        ],
        "pollDivisionIds": [
          10138038
        ],
        "postalCode": "N9Y3W2",
        "streetName": "3RD",
        "streetDirectionId": null,
        "streetTypeId": "BLVD",
        "placeName": "KINGSVILLE",
        "streetNameDisplayText": "3RD BLVD, KINGSVILLE"
      },
      {
        "electoralDistricts": [
          {
            "election": null,
            "id": 27,
            "name": "Essex"
          }
        ],
        "pollDivisionIds": [
          10138038
        ],
        "postalCode": "N9Y3W2",
        "streetName": "4TH",
        "streetDirectionId": null,
        "streetTypeId": "BLVD",
        "placeName": "KINGSVILLE",
        "streetNameDisplayText": "4TH BLVD, KINGSVILLE"
      }
    ]
  },
  {
    "postal": "N9Y6H8",
    "result": []
  },
  {
    "postal": "N9Y9T3",
    "result": []
  },
  {
    "postal": "N9Y5L9",
    "result": []
  },
  {
    "postal": "N9Y7X7",
    "result": []
  },
  {
    "postal": "N9Y3J5",
    "result": [
      {
        "electoralDistricts": [
          {
            "election": null,
            "id": 27,
            "name": "Essex"
          }
        ],
        "pollDivisionIds": [
          10138045
        ],
        "postalCode": "N9Y3J5",
        "streetName": "JASPERSON",
        "streetDirectionId": null,
        "streetTypeId": "LANE",
        "placeName": "KINGSVILLE",
        "streetNameDisplayText": "JASPERSON LANE, KINGSVILLE"
      },
      {
        "electoralDistricts": [
          {
            "election": null,
            "id": 27,
            "name": "Essex"
          }
        ],
        "pollDivisionIds": [
          10138045
        ],
        "postalCode": "N9Y3J5",
        "streetName": "JASPERSON",
        "streetDirectionId": null,
        "streetTypeId": "RD",
        "placeName": "KINGSVILLE",
        "streetNameDisplayText": "JASPERSON RD, KINGSVILLE"
      }
    ]
  },
  {
    "postal": "N9Y4J5",
    "result": []
  },
  {
    "postal": "N9Y6J2",
    "result": []
  },
  {
    "postal": "N9Y5V6",
    "result": []
  },
  {
    "postal": "N9Y3N2",
    "result": [
      {
        "electoralDistricts": [
          {
            "election": null,
            "id": 27,
            "name": "Essex"
          }
        ],
        "pollDivisionIds": [
          10138041
        ],
        "postalCode": "N9Y3N2",
        "streetName": "KINGSWOOD",
        "streetDirectionId": null,
        "streetTypeId": "DR",
        "placeName": "KINGSVILLE",
        "streetNameDisplayText": "KINGSWOOD DR, KINGSVILLE"
      }
    ]
  },
  {
    "postal": "N9Y3B1",
    "result": [
      {
        "electoralDistricts": [
          {
            "election": null,
            "id": 27,
            "name": "Essex"
          }
        ],
        "pollDivisionIds": [
          10138040,
          10138038
        ],
        "postalCode": "N9Y3B1",
        "streetName": "HERITAGE",
        "streetDirectionId": null,
        "streetTypeId": "RD",
        "placeName": "KINGSVILLE",
        "streetNameDisplayText": "HERITAGE RD, KINGSVILLE"
      }
    ]
  },
  {
    "postal": "N9Y8B5",
    "result": []
  },
  {
    "postal": "N9Y0K1",
    "result": []
  },
  {
    "postal": "N9Y7M7",
    "result": []
  },
  {
    "postal": "N9Y2M2",
    "result": [
      {
        "electoralDistricts": [
          {
            "election": null,
            "id": 27,
            "name": "Essex"
          }
        ],
        "pollDivisionIds": [
          10138050
        ],
        "postalCode": "N9Y2M2",
        "streetName": "SEACLIFF",
        "streetDirectionId": null,
        "streetTypeId": "DR",
        "placeName": "KINGSVILLE",
        "streetNameDisplayText": "SEACLIFF DR, KINGSVILLE"
      }
    ]
  },
  {
    "postal": "N9Y9N3",
    "result": []
  },
  {
    "postal": "N9Y4Y8",
    "result": []
  },
  {
    "postal": "N9Y3V7",
    "result": [
      {
        "electoralDistricts": [
          {
            "election": null,
            "id": 27,
            "name": "Essex"
          }
        ],
        "pollDivisionIds": [
          10138038
        ],
        "postalCode": "N9Y3V7",
        "streetName": "CEDAR",
        "streetDirectionId": null,
        "streetTypeId": "DR",
        "placeName": "KINGSVILLE",
        "streetNameDisplayText": "CEDAR DR, KINGSVILLE"
      },
      {
        "electoralDistricts": [
          {
            "election": null,
            "id": 27,
            "name": "Essex"
          }
        ],
        "pollDivisionIds": [
          10138038
        ],
        "postalCode": "N9Y3V7",
        "streetName": "CHERRY",
        "streetDirectionId": null,
        "streetTypeId": "AVE",
        "placeName": "KINGSVILLE",
        "streetNameDisplayText": "CHERRY AVE, KINGSVILLE"
      }
    ]
  },
  {
    "postal": "N9Y8Z1",
    "result": []
  },
  {
    "postal": "N9Y7B3",
    "result": []
  },
  {
    "postal": "N9Y3A8",
    "result": [
      {
        "electoralDistricts": [
          {
            "election": null,
            "id": 27,
            "name": "Essex"
          }
        ],
        "pollDivisionIds": [
          10138040
        ],
        "postalCode": "N9Y3A8",
        "streetName": "WATERVIEW",
        "streetDirectionId": null,
        "streetTypeId": "RD",
        "placeName": "KINGSVILLE",
        "streetNameDisplayText": "WATERVIEW RD, KINGSVILLE"
      }
    ]
  },
  {
    "postal": "N9Y7V5",
    "result": []
  },
  {
    "postal": "N9Y2T2",
    "result": [
      {
        "electoralDistricts": [
          {
            "election": null,
            "id": 27,
            "name": "Essex"
          }
        ],
        "pollDivisionIds": [
          10138050
        ],
        "postalCode": "N9Y2T2",
        "streetName": "SIMMERS",
        "streetDirectionId": null,
        "streetTypeId": "AVE",
        "placeName": "KINGSVILLE",
        "streetNameDisplayText": "SIMMERS AVE, KINGSVILLE"
      }
    ]
  },
  {
    "postal": "N9Y6L3",
    "result": []
  },
  {
    "postal": "N9Y0L2",
    "result": []
  },
  {
    "postal": "N9Y5Y8",
    "result": []
  },
  {
    "postal": "N9Y0B8",
    "result": [
      {
        "electoralDistricts": [
          {
            "election": null,
            "id": 27,
            "name": "Essex"
          }
        ],
        "pollDivisionIds": [
          10138045
        ],
        "postalCode": "N9Y0B8",
        "streetName": "MULBERRY",
        "streetDirectionId": null,
        "streetTypeId": "CRES",
        "placeName": "KINGSVILLE",
        "streetNameDisplayText": "MULBERRY CRES, KINGSVILLE"
      },
      {
        "electoralDistricts": [
          {
            "election": null,
            "id": 27,
            "name": "Essex"
          }
        ],
        "pollDivisionIds": [
          10138045
        ],
        "postalCode": "N9Y0B8",
        "streetName": "WOODYCREST",
        "streetDirectionId": null,
        "streetTypeId": "AVE",
        "placeName": "KINGSVILLE",
        "streetNameDisplayText": "WOODYCREST AVE, KINGSVILLE"
      }
    ]
  },
  {
    "postal": "N9Y6R5",
    "result": []
  },
  {
    "postal": "N9Y8W6",
    "result": []
  },
  {
    "postal": "N9Y8G6",
    "result": []
  },
  {
    "postal": "N9Y6X3",
    "result": []
  },
  {
    "postal": "N9Y7R7",
    "result": []
  },
  {
    "postal": "N9Y4B6",
    "result": [
      {
        "electoralDistricts": [
          {
            "election": null,
            "id": 27,
            "name": "Essex"
          }
        ],
        "pollDivisionIds": [
          10138044
        ],
        "postalCode": "N9Y4B6",
        "streetName": "JAN'S",
        "streetDirectionId": null,
        "streetTypeId": "CRES",
        "placeName": "KINGSVILLE",
        "streetNameDisplayText": "JAN'S CRES, KINGSVILLE"
      }
    ]
  },
  {
    "postal": "N9Y3P9",
    "result": [
      {
        "electoralDistricts": [
          {
            "election": null,
            "id": 27,
            "name": "Essex"
          }
        ],
        "pollDivisionIds": [
          10138043
        ],
        "postalCode": "N9Y3P9",
        "streetName": "MILL CREEK",
        "streetDirectionId": null,
        "streetTypeId": "CRES",
        "placeName": "KINGSVILLE",
        "streetNameDisplayText": "MILL CREEK CRES, KINGSVILLE"
      }
    ]
  },
  {
    "postal": "N9Y2T3",
    "result": [
      {
        "electoralDistricts": [
          {
            "election": null,
            "id": 27,
            "name": "Essex"
          }
        ],
        "pollDivisionIds": [
          10138050
        ],
        "postalCode": "N9Y2T3",
        "streetName": "SUNSET",
        "streetDirectionId": null,
        "streetTypeId": "AVE",
        "placeName": "KINGSVILLE",
        "streetNameDisplayText": "SUNSET AVE, KINGSVILLE"
      }
    ]
  },
  {
    "postal": "N9Y1M4",
    "result": [
      {
        "electoralDistricts": [
          {
            "election": null,
            "id": 27,
            "name": "Essex"
          }
        ],
        "pollDivisionIds": [
          10138044
        ],
        "postalCode": "N9Y1M4",
        "streetName": "ERIEVIEW",
        "streetDirectionId": null,
        "streetTypeId": "DR",
        "placeName": "KINGSVILLE",
        "streetNameDisplayText": "ERIEVIEW DR, KINGSVILLE"
      }
    ]
  },
  {
    "postal": "N9Y0H1",
    "result": []
  },
  {
    "postal": "N9Y9W3",
    "result": []
  },
  {
    "postal": "N9Y6P1",
    "result": []
  },
  {
    "postal": "N9Y7G2",
    "result": []
  },
  {
    "postal": "N9Y4J9",
    "result": []
  },
  {
    "postal": "N9Y9E4",
    "result": []
  },
  {
    "postal": "N9Y8H0",
    "result": []
  },
  {
    "postal": "N9Y4M7",
    "result": []
  },
  {
    "postal": "N9Y2G9",
    "result": [
      {
        "electoralDistricts": [
          {
            "election": null,
            "id": 27,
            "name": "Essex"
          }
        ],
        "pollDivisionIds": [
          10138050
        ],
        "postalCode": "N9Y2G9",
        "streetName": "GRAHAM",
        "streetDirectionId": null,
        "streetTypeId": "SIDERD",
        "placeName": "KINGSVILLE",
        "streetNameDisplayText": "GRAHAM SIDERD, KINGSVILLE"
      }
    ]
  },
  {
    "postal": "N9Y8T2",
    "result": []
  },
  {
    "postal": "N9Y7G7",
    "result": []
  },
  {
    "postal": "N9Y4Z3",
    "result": []
  },
  {
    "postal": "N9Y5B3",
    "result": []
  },
  {
    "postal": "N9Y1S7",
    "result": [
      {
        "electoralDistricts": [
          {
            "election": null,
            "id": 27,
            "name": "Essex"
          }
        ],
        "pollDivisionIds": [
          10138044
        ],
        "postalCode": "N9Y1S7",
        "streetName": "LANSDOWNE",
        "streetDirectionId": null,
        "streetTypeId": "AVE",
        "placeName": "KINGSVILLE",
        "streetNameDisplayText": "LANSDOWNE AVE, KINGSVILLE"
      }
    ]
  },
  {
    "postal": "N9Y2N7",
    "result": [
      {
        "electoralDistricts": [
          {
            "election": null,
            "id": 27,
            "name": "Essex"
          }
        ],
        "pollDivisionIds": [
          10138050
        ],
        "postalCode": "N9Y2N7",
        "streetName": "SEACLIFF",
        "streetDirectionId": null,
        "streetTypeId": "DR",
        "placeName": "KINGSVILLE",
        "streetNameDisplayText": "SEACLIFF DR, KINGSVILLE"
      }
    ]
  },
  {
    "postal": "N9Y0H8",
    "result": []
  },
  {
    "postal": "N9Y7Z4",
    "result": []
  },
  {
    "postal": "N9Y7B1",
    "result": []
  },
  {
    "postal": "N9Y7P8",
    "result": []
  },
  {
    "postal": "N9Y7N0",
    "result": []
  },
  {
    "postal": "N9Y3Y5",
    "result": [
      {
        "electoralDistricts": [
          {
            "election": null,
            "id": 27,
            "name": "Essex"
          }
        ],
        "pollDivisionIds": [
          10138045
        ],
        "postalCode": "N9Y3Y5",
        "streetName": "APPLEWOOD",
        "streetDirectionId": null,
        "streetTypeId": "RD",
        "placeName": "KINGSVILLE",
        "streetNameDisplayText": "APPLEWOOD RD, KINGSVILLE"
      }
    ]
  },
  {
    "postal": "N9Y6K1",
    "result": []
  },
  {
    "postal": "N9Y9X5",
    "result": []
  },
  {
    "postal": "N9Y7S5",
    "result": []
  },
  {
    "postal": "N9Y0A4",
    "result": [
      {
        "electoralDistricts": [
          {
            "election": null,
            "id": 27,
            "name": "Essex"
          }
        ],
        "pollDivisionIds": [
          10138045
        ],
        "postalCode": "N9Y0A4",
        "streetName": "PRIMROSE",
        "streetDirectionId": null,
        "streetTypeId": "DR",
        "placeName": "KINGSVILLE",
        "streetNameDisplayText": "PRIMROSE DR, KINGSVILLE"
      },
      {
        "electoralDistricts": [
          {
            "election": null,
            "id": 27,
            "name": "Essex"
          }
        ],
        "pollDivisionIds": [
          10138045
        ],
        "postalCode": "N9Y0A4",
        "streetName": "SANDY BROOK",
        "streetDirectionId": null,
        "streetTypeId": "WAY",
        "placeName": "KINGSVILLE",
        "streetNameDisplayText": "SANDY BROOK WAY, KINGSVILLE"
      },
      {
        "electoralDistricts": [
          {
            "election": null,
            "id": 27,
            "name": "Essex"
          }
        ],
        "pollDivisionIds": [
          10138045
        ],
        "postalCode": "N9Y0A4",
        "streetName": "SANDYBROOK",
        "streetDirectionId": null,
        "streetTypeId": "WAY",
        "placeName": "KINGSVILLE",
        "streetNameDisplayText": "SANDYBROOK WAY, KINGSVILLE"
      },
      {
        "electoralDistricts": [
          {
            "election": null,
            "id": 27,
            "name": "Essex"
          }
        ],
        "pollDivisionIds": [
          10138045
        ],
        "postalCode": "N9Y0A4",
        "streetName": "WOODYCREST",
        "streetDirectionId": null,
        "streetTypeId": "AVE",
        "placeName": "KINGSVILLE",
        "streetNameDisplayText": "WOODYCREST AVE, KINGSVILLE"
      }
    ]
  },
  {
    "postal": "N9Y4T5",
    "result": []
  },
  {
    "postal": "N9Y5K1",
    "result": []
  },
  {
    "postal": "N9Y0Z9",
    "result": []
  },
  {
    "postal": "N9Y7T2",
    "result": []
  },
  {
    "postal": "N9Y1L5",
    "result": [
      {
        "electoralDistricts": [
          {
            "election": null,
            "id": 27,
            "name": "Essex"
          }
        ],
        "pollDivisionIds": [
          10138043
        ],
        "postalCode": "N9Y1L5",
        "streetName": "GLADSTONE",
        "streetDirectionId": null,
        "streetTypeId": "AVE",
        "placeName": "KINGSVILLE",
        "streetNameDisplayText": "GLADSTONE AVE, KINGSVILLE"
      }
    ]
  },
  {
    "postal": "N9Y3N5",
    "result": [
      {
        "electoralDistricts": [
          {
            "election": null,
            "id": 27,
            "name": "Essex"
          }
        ],
        "pollDivisionIds": [
          10138044
        ],
        "postalCode": "N9Y3N5",
        "streetName": "KATRISHE",
        "streetDirectionId": null,
        "streetTypeId": "CRES",
        "placeName": "KINGSVILLE",
        "streetNameDisplayText": "KATRISHE CRES, KINGSVILLE"
      }
    ]
  },
  {
    "postal": "N9Y6H4",
    "result": []
  },
  {
    "postal": "N9Y5A5",
    "result": []
  },
  {
    "postal": "N9Y3R9",
    "result": [
      {
        "electoralDistricts": [
          {
            "election": null,
            "id": 27,
            "name": "Essex"
          }
        ],
        "pollDivisionIds": [
          10138045
        ],
        "postalCode": "N9Y3R9",
        "streetName": "SUMAC",
        "streetDirectionId": null,
        "streetTypeId": "DR",
        "placeName": "KINGSVILLE",
        "streetNameDisplayText": "SUMAC DR, KINGSVILLE"
      }
    ]
  },
  {
    "postal": "N9Y7L8",
    "result": []
  },
  {
    "postal": "N9Y6T6",
    "result": []
  },
  {
    "postal": "N9Y7Y7",
    "result": []
  },
  {
    "postal": "N9Y3M8",
    "result": [
      {
        "electoralDistricts": [
          {
            "election": null,
            "id": 27,
            "name": "Essex"
          }
        ],
        "pollDivisionIds": [
          10138050
        ],
        "postalCode": "N9Y3M8",
        "streetName": "COTTONWOOD",
        "streetDirectionId": "W",
        "streetTypeId": "AVE",
        "placeName": "KINGSVILLE",
        "streetNameDisplayText": "COTTONWOOD AVE W, KINGSVILLE"
      },
      {
        "electoralDistricts": [
          {
            "election": null,
            "id": 27,
            "name": "Essex"
          }
        ],
        "pollDivisionIds": [
          10138050
        ],
        "postalCode": "N9Y3M8",
        "streetName": "COTTONWOOD",
        "streetDirectionId": "W",
        "streetTypeId": "RD",
        "placeName": "KINGSVILLE",
        "streetNameDisplayText": "COTTONWOOD RD W, KINGSVILLE"
      }
    ]
  },
  {
    "postal": "N9Y2E0",
    "result": []
  },
  {
    "postal": "N9Y4B5",
    "result": [
      {
        "electoralDistricts": [
          {
            "election": null,
            "id": 27,
            "name": "Essex"
          }
        ],
        "pollDivisionIds": [
          10138043
        ],
        "postalCode": "N9Y4B5",
        "streetName": "VICTORIA",
        "streetDirectionId": null,
        "streetTypeId": "AVE",
        "placeName": "KINGSVILLE",
        "streetNameDisplayText": "VICTORIA AVE, KINGSVILLE"
      }
    ]
  },
  {
    "postal": "N9Y1J3",
    "result": [
      {
        "electoralDistricts": [
          {
            "election": null,
            "id": 27,
            "name": "Essex"
          }
        ],
        "pollDivisionIds": [
          10138041
        ],
        "postalCode": "N9Y1J3",
        "streetName": "WATER",
        "streetDirectionId": null,
        "streetTypeId": "ST",
        "placeName": "KINGSVILLE",
        "streetNameDisplayText": "WATER ST, KINGSVILLE"
      }
    ]
  },
  {
    "postal": "N9Y5S6",
    "result": []
  },
  {
    "postal": "N9Y8P7",
    "result": []
  },
  {
    "postal": "N9Y7S7",
    "result": []
  },
  {
    "postal": "N9Y4C2",
    "result": [
      {
        "electoralDistricts": [
          {
            "election": null,
            "id": 27,
            "name": "Essex"
          }
        ],
        "pollDivisionIds": [
          10138040
        ],
        "postalCode": "N9Y4C2",
        "streetName": "SCRATCH",
        "streetDirectionId": null,
        "streetTypeId": "LANE",
        "placeName": "KINGSVILLE",
        "streetNameDisplayText": "SCRATCH LANE, KINGSVILLE"
      }
    ]
  },
  {
    "postal": "N9Y5Y0",
    "result": []
  },
  {
    "postal": "N9Y2V7",
    "result": [
      {
        "electoralDistricts": [
          {
            "election": null,
            "id": 27,
            "name": "Essex"
          }
        ],
        "pollDivisionIds": [
          10138050
        ],
        "postalCode": "N9Y2V7",
        "streetName": "GREENWOOD",
        "streetDirectionId": null,
        "streetTypeId": "AVE",
        "placeName": "KINGSVILLE",
        "streetNameDisplayText": "GREENWOOD AVE, KINGSVILLE"
      },
      {
        "electoralDistricts": [
          {
            "election": null,
            "id": 27,
            "name": "Essex"
          }
        ],
        "pollDivisionIds": [
          10138050
        ],
        "postalCode": "N9Y2V7",
        "streetName": "GREENWOOD",
        "streetDirectionId": null,
        "streetTypeId": "RD",
        "placeName": "KINGSVILLE",
        "streetNameDisplayText": "GREENWOOD RD, KINGSVILLE"
      }
    ]
  },
  {
    "postal": "N9Y8P5",
    "result": []
  },
  {
    "postal": "N9Y5P5",
    "result": []
  },
  {
    "postal": "N9Y5Z0",
    "result": []
  },
  {
    "postal": "N9Y9B0",
    "result": []
  },
  {
    "postal": "N9Y1L0",
    "result": []
  },
  {
    "postal": "N9Y0B5",
    "result": [
      {
        "electoralDistricts": [
          {
            "election": null,
            "id": 27,
            "name": "Essex"
          }
        ],
        "pollDivisionIds": [
          10138043
        ],
        "postalCode": "N9Y0B5",
        "streetName": "BRUNER",
        "streetDirectionId": null,
        "streetTypeId": "CRT",
        "placeName": "KINGSVILLE",
        "streetNameDisplayText": "BRUNER CRT, KINGSVILLE"
      }
    ]
  },
  {
    "postal": "N9Y3L2",
    "result": [
      {
        "electoralDistricts": [
          {
            "election": null,
            "id": 27,
            "name": "Essex"
          }
        ],
        "pollDivisionIds": [
          10138044
        ],
        "postalCode": "N9Y3L2",
        "streetName": "OWENWOOD",
        "streetDirectionId": null,
        "streetTypeId": "DR",
        "placeName": "KINGSVILLE",
        "streetNameDisplayText": "OWENWOOD DR, KINGSVILLE"
      }
    ]
  },
  {
    "postal": "N9Y3B7",
    "result": [
      {
        "electoralDistricts": [
          {
            "election": null,
            "id": 27,
            "name": "Essex"
          }
        ],
        "pollDivisionIds": [
          10138040
        ],
        "postalCode": "N9Y3B7",
        "streetName": "HERITAGE",
        "streetDirectionId": null,
        "streetTypeId": "RD",
        "placeName": "KINGSVILLE",
        "streetNameDisplayText": "HERITAGE RD, KINGSVILLE"
      }
    ]
  },
  {
    "postal": "N9Y8L1",
    "result": []
  },
  {
    "postal": "N9Y5M4",
    "result": []
  },
  {
    "postal": "N9Y4G9",
    "result": []
  },
  {
    "postal": "N9Y0P0",
    "result": []
  },
  {
    "postal": "N9Y8G2",
    "result": []
  },
  {
    "postal": "N9Y1V9",
    "result": [
      {
        "electoralDistricts": [
          {
            "election": null,
            "id": 27,
            "name": "Essex"
          }
        ],
        "pollDivisionIds": [
          10138041
        ],
        "postalCode": "N9Y1V9",
        "streetName": "MILL",
        "streetDirectionId": "W",
        "streetTypeId": "ST",
        "placeName": "KINGSVILLE",
        "streetNameDisplayText": "MILL ST W, KINGSVILLE"
      }
    ]
  },
  {
    "postal": "N9Y8N8",
    "result": []
  },
  {
    "postal": "N9Y6S8",
    "result": []
  },
  {
    "postal": "N9Y8H2",
    "result": []
  },
  {
    "postal": "N9Y5R8",
    "result": []
  },
  {
    "postal": "N9Y5L4",
    "result": []
  },
  {
    "postal": "N9Y9E1",
    "result": []
  },
  {
    "postal": "N9Y1C4",
    "result": [
      {
        "electoralDistricts": [
          {
            "election": null,
            "id": 27,
            "name": "Essex"
          }
        ],
        "pollDivisionIds": [
          10138045,
          10138043
        ],
        "postalCode": "N9Y1C4",
        "streetName": "AUGUSTINE",
        "streetDirectionId": null,
        "streetTypeId": "DR",
        "placeName": "KINGSVILLE",
        "streetNameDisplayText": "AUGUSTINE DR, KINGSVILLE"
      }
    ]
  },
  {
    "postal": "N9Y8W5",
    "result": []
  },
  {
    "postal": "N9Y1Y4",
    "result": [
      {
        "electoralDistricts": [
          {
            "election": null,
            "id": 27,
            "name": "Essex"
          }
        ],
        "pollDivisionIds": [
          10138044
        ],
        "postalCode": "N9Y1Y4",
        "streetName": "MELBOURNE",
        "streetDirectionId": null,
        "streetTypeId": "ST",
        "placeName": "KINGSVILLE",
        "streetNameDisplayText": "MELBOURNE ST, KINGSVILLE"
      }
    ]
  },
  {
    "postal": "N9Y1C0",
    "result": []
  },
  {
    "postal": "N9Y2J2",
    "result": [
      {
        "electoralDistricts": [
          {
            "election": null,
            "id": 27,
            "name": "Essex"
          }
        ],
        "pollDivisionIds": [
          10138040
        ],
        "postalCode": "N9Y2J2",
        "streetName": "HARBOUR VIEW",
        "streetDirectionId": null,
        "streetTypeId": "DR",
        "placeName": "KINGSVILLE",
        "streetNameDisplayText": "HARBOUR VIEW DR, KINGSVILLE"
      }
    ]
  },
  {
    "postal": "N9Y2J0",
    "result": []
  },
  {
    "postal": "N9Y7A3",
    "result": []
  },
  {
    "postal": "N9Y8M1",
    "result": []
  },
  {
    "postal": "N9Y7T9",
    "result": []
  },
  {
    "postal": "N9Y6C0",
    "result": []
  },
  {
    "postal": "N9Y7X1",
    "result": []
  },
  {
    "postal": "N9Y0G1",
    "result": []
  },
  {
    "postal": "N9Y4X2",
    "result": []
  },
  {
    "postal": "N9Y0N6",
    "result": []
  },
  {
    "postal": "N9Y8E3",
    "result": []
  },
  {
    "postal": "N9Y5S8",
    "result": []
  },
  {
    "postal": "N9Y0R0",
    "result": []
  },
  {
    "postal": "N9Y6J6",
    "result": []
  },
  {
    "postal": "N9Y4B4",
    "result": [
      {
        "electoralDistricts": [
          {
            "election": null,
            "id": 27,
            "name": "Essex"
          }
        ],
        "pollDivisionIds": [
          10138040
        ],
        "postalCode": "N9Y4B4",
        "streetName": "DIEPPE",
        "streetDirectionId": null,
        "streetTypeId": "CRES",
        "placeName": "KINGSVILLE",
        "streetNameDisplayText": "DIEPPE CRES, KINGSVILLE"
      },
      {
        "electoralDistricts": [
          {
            "election": null,
            "id": 27,
            "name": "Essex"
          }
        ],
        "pollDivisionIds": [
          10138040
        ],
        "postalCode": "N9Y4B4",
        "streetName": "JAMES",
        "streetDirectionId": null,
        "streetTypeId": "AVE",
        "placeName": "KINGSVILLE",
        "streetNameDisplayText": "JAMES AVE, KINGSVILLE"
      },
      {
        "electoralDistricts": [
          {
            "election": null,
            "id": 27,
            "name": "Essex"
          }
        ],
        "pollDivisionIds": [
          10138040
        ],
        "postalCode": "N9Y4B4",
        "streetName": "JAMES",
        "streetDirectionId": null,
        "streetTypeId": "ST",
        "placeName": "KINGSVILLE",
        "streetNameDisplayText": "JAMES ST, KINGSVILLE"
      },
      {
        "electoralDistricts": [
          {
            "election": null,
            "id": 27,
            "name": "Essex"
          }
        ],
        "pollDivisionIds": [
          10138040
        ],
        "postalCode": "N9Y4B4",
        "streetName": "NORMANDY",
        "streetDirectionId": null,
        "streetTypeId": "AVE",
        "placeName": "KINGSVILLE",
        "streetNameDisplayText": "NORMANDY AVE, KINGSVILLE"
      }
    ]
  },
  {
    "postal": "N9Y7E3",
    "result": []
  },
  {
    "postal": "N9Y3N6",
    "result": [
      {
        "electoralDistricts": [
          {
            "election": null,
            "id": 27,
            "name": "Essex"
          }
        ],
        "pollDivisionIds": [
          10138045
        ],
        "postalCode": "N9Y3N6",
        "streetName": "SUMAC",
        "streetDirectionId": null,
        "streetTypeId": "DR",
        "placeName": "KINGSVILLE",
        "streetNameDisplayText": "SUMAC DR, KINGSVILLE"
      }
    ]
  },
  {
    "postal": "N9Y3X6",
    "result": [
      {
        "electoralDistricts": [
          {
            "election": null,
            "id": 27,
            "name": "Essex"
          }
        ],
        "pollDivisionIds": [
          10138043
        ],
        "postalCode": "N9Y3X6",
        "streetName": "REMARK",
        "streetDirectionId": null,
        "streetTypeId": "DR",
        "placeName": "KINGSVILLE",
        "streetNameDisplayText": "REMARK DR, KINGSVILLE"
      }
    ]
  },
  {
    "postal": "N9Y8L0",
    "result": []
  },
  {
    "postal": "N9Y8N1",
    "result": []
  },
  {
    "postal": "N9Y4J0",
    "result": []
  },
  {
    "postal": "N9Y0X7",
    "result": []
  },
  {
    "postal": "N9Y6S4",
    "result": []
  },
  {
    "postal": "N9Y0Z0",
    "result": []
  },
  {
    "postal": "N9Y9X8",
    "result": []
  },
  {
    "postal": "N9Y3H3",
    "result": [
      {
        "electoralDistricts": [
          {
            "election": null,
            "id": 27,
            "name": "Essex"
          }
        ],
        "pollDivisionIds": [
          10138050
        ],
        "postalCode": "N9Y3H3",
        "streetName": "SUNCREST",
        "streetDirectionId": null,
        "streetTypeId": "RD",
        "placeName": "KINGSVILLE",
        "streetNameDisplayText": "SUNCREST RD, KINGSVILLE"
      }
    ]
  },
  {
    "postal": "N9Y7S2",
    "result": []
  },
  {
    "postal": "N9Y3T3",
    "result": [
      {
        "electoralDistricts": [
          {
            "election": null,
            "id": 27,
            "name": "Essex"
          }
        ],
        "pollDivisionIds": [
          10138045
        ],
        "postalCode": "N9Y3T3",
        "streetName": "SUMAC",
        "streetDirectionId": null,
        "streetTypeId": "DR",
        "placeName": "KINGSVILLE",
        "streetNameDisplayText": "SUMAC DR, KINGSVILLE"
      }
    ]
  },
  {
    "postal": "N9Y9P3",
    "result": []
  },
  {
    "postal": "N9Y4H8",
    "result": []
  },
  {
    "postal": "N9Y6R1",
    "result": []
  },
  {
    "postal": "N9Y1S0",
    "result": []
  },
  {
    "postal": "N9Y3W8",
    "result": [
      {
        "electoralDistricts": [
          {
            "election": null,
            "id": 27,
            "name": "Essex"
          }
        ],
        "pollDivisionIds": [
          10138038
        ],
        "postalCode": "N9Y3W8",
        "streetName": "CEDAR ISLAND",
        "streetDirectionId": null,
        "streetTypeId": "DR",
        "placeName": "KINGSVILLE",
        "streetNameDisplayText": "CEDAR ISLAND DR, KINGSVILLE"
      }
    ]
  },
  {
    "postal": "N9Y4S3",
    "result": []
  },
  {
    "postal": "N9Y1B6",
    "result": [
      {
        "electoralDistricts": [
          {
            "election": null,
            "id": 27,
            "name": "Essex"
          }
        ],
        "pollDivisionIds": [
          10138041
        ],
        "postalCode": "N9Y1B6",
        "streetName": "THORNCREST",
        "streetDirectionId": null,
        "streetTypeId": "ST",
        "placeName": "KINGSVILLE",
        "streetNameDisplayText": "THORNCREST ST, KINGSVILLE"
      }
    ]
  },
  {
    "postal": "N9Y8R3",
    "result": []
  },
  {
    "postal": "N9Y4V9",
    "result": []
  },
  {
    "postal": "N9Y9W4",
    "result": []
  },
  {
    "postal": "N9Y3T4",
    "result": [
      {
        "electoralDistricts": [
          {
            "election": null,
            "id": 27,
            "name": "Essex"
          }
        ],
        "pollDivisionIds": [
          10138043
        ],
        "postalCode": "N9Y3T4",
        "streetName": "MURRAY",
        "streetDirectionId": null,
        "streetTypeId": "ST",
        "placeName": "KINGSVILLE",
        "streetNameDisplayText": "MURRAY ST, KINGSVILLE"
      },
      {
        "electoralDistricts": [
          {
            "election": null,
            "id": 27,
            "name": "Essex"
          }
        ],
        "pollDivisionIds": [
          10138043
        ],
        "postalCode": "N9Y3T4",
        "streetName": "WILLIAM",
        "streetDirectionId": null,
        "streetTypeId": "AVE",
        "placeName": "KINGSVILLE",
        "streetNameDisplayText": "WILLIAM AVE, KINGSVILLE"
      },
      {
        "electoralDistricts": [
          {
            "election": null,
            "id": 27,
            "name": "Essex"
          }
        ],
        "pollDivisionIds": [
          10138043
        ],
        "postalCode": "N9Y3T4",
        "streetName": "WINSTON",
        "streetDirectionId": null,
        "streetTypeId": "CRES",
        "placeName": "KINGSVILLE",
        "streetNameDisplayText": "WINSTON CRES, KINGSVILLE"
      }
    ]
  },
  {
    "postal": "N9Y5C7",
    "result": []
  },
  {
    "postal": "N9Y3Y1",
    "result": [
      {
        "electoralDistricts": [
          {
            "election": null,
            "id": 27,
            "name": "Essex"
          }
        ],
        "pollDivisionIds": [
          10138050
        ],
        "postalCode": "N9Y3Y1",
        "streetName": "COUNTY ROAD 45",
        "streetDirectionId": null,
        "streetTypeId": "AVE",
        "placeName": "KINGSVILLE",
        "streetNameDisplayText": "COUNTY ROAD 45 AVE, KINGSVILLE"
      },
      {
        "electoralDistricts": [
          {
            "election": null,
            "id": 27,
            "name": "Essex"
          }
        ],
        "pollDivisionIds": [
          10138050
        ],
        "postalCode": "N9Y3Y1",
        "streetName": "UNION",
        "streetDirectionId": null,
        "streetTypeId": "AV",
        "placeName": "KINGSVILLE",
        "streetNameDisplayText": "UNION AV, KINGSVILLE"
      },
      {
        "electoralDistricts": [
          {
            "election": null,
            "id": 27,
            "name": "Essex"
          }
        ],
        "pollDivisionIds": [
          10138050
        ],
        "postalCode": "N9Y3Y1",
        "streetName": "UNION",
        "streetDirectionId": null,
        "streetTypeId": "AVE",
        "placeName": "KINGSVILLE",
        "streetNameDisplayText": "UNION AVE, KINGSVILLE"
      }
    ]
  },
  {
    "postal": "N9Y5V0",
    "result": []
  },
  {
    "postal": "N9Y8G8",
    "result": []
  },
  {
    "postal": "N9Y8B1",
    "result": []
  },
  {
    "postal": "N9Y4P5",
    "result": []
  },
  {
    "postal": "N9Y7B2",
    "result": []
  },
  {
    "postal": "N9Y0R2",
    "result": []
  },
  {
    "postal": "N9Y4M4",
    "result": []
  },
  {
    "postal": "N9Y7M4",
    "result": []
  },
  {
    "postal": "N9Y9S7",
    "result": []
  },
  {
    "postal": "N9Y5Z7",
    "result": []
  },
  {
    "postal": "N9Y7J7",
    "result": []
  },
  {
    "postal": "N9Y8R8",
    "result": []
  },
  {
    "postal": "N9Y9X1",
    "result": []
  },
  {
    "postal": "N9Y5M9",
    "result": []
  },
  {
    "postal": "N9Y9B4",
    "result": []
  },
  {
    "postal": "N9Y0L9",
    "result": []
  },
  {
    "postal": "N9Y9G4",
    "result": []
  },
  {
    "postal": "N9Y1J4",
    "result": [
      {
        "electoralDistricts": [
          {
            "election": null,
            "id": 27,
            "name": "Essex"
          }
        ],
        "pollDivisionIds": [
          10138041
        ],
        "postalCode": "N9Y1J4",
        "streetName": "WATER",
        "streetDirectionId": null,
        "streetTypeId": "ST",
        "placeName": "KINGSVILLE",
        "streetNameDisplayText": "WATER ST, KINGSVILLE"
      }
    ]
  },
  {
    "postal": "N9Y0W6",
    "result": []
  }
]
