[
  {
    "postal": "K1E9J6",
    "result": []
  },
  {
    "postal": "K1E9Z5",
    "result": []
  },
  {
    "postal": "K1E7H8",
    "result": []
  },
  {
    "postal": "K1E0P6",
    "result": []
  },
  {
    "postal": "K1E0S7",
    "result": []
  },
  {
    "postal": "K1E8B9",
    "result": []
  },
  {
    "postal": "K1E2A6",
    "result": [
      {
        "electoralDistricts": [
          {
            "election": null,
            "id": 76,
            "name": "Orléans"
          }
        ],
        "pollDivisionIds": [
          10140434
        ],
        "postalCode": "K1E2A6",
        "streetName": "MOCKINGBIRD",
        "streetDirectionId": null,
        "streetTypeId": "DR",
        "placeName": "ORLEANS",
        "streetNameDisplayText": "MOCKINGBIRD DR, ORLEANS"
      }
    ]
  },
  {
    "postal": "K1E7V2",
    "result": []
  },
  {
    "postal": "K1E9P4",
    "result": []
  },
  {
    "postal": "K1E6G0",
    "result": []
  },
  {
    "postal": "K1E2K0",
    "result": []
  },
  {
    "postal": "K1E7N6",
    "result": []
  },
  {
    "postal": "K1E5R3",
    "result": []
  },
  {
    "postal": "K1E7K0",
    "result": []
  },
  {
    "postal": "K1E3R2",
    "result": [
      {
        "electoralDistricts": [
          {
            "election": null,
            "id": 76,
            "name": "Orléans"
          }
        ],
        "pollDivisionIds": [
          10140457
        ],
        "postalCode": "K1E3R2",
        "streetName": "LEGRAND",
        "streetDirectionId": null,
        "streetTypeId": "CRES",
        "placeName": "ORLEANS",
        "streetNameDisplayText": "LEGRAND CRES, ORLEANS"
      },
      {
        "electoralDistricts": [
          {
            "election": null,
            "id": 76,
            "name": "Orléans"
          }
        ],
        "pollDivisionIds": [
          10140457
        ],
        "postalCode": "K1E3R2",
        "streetName": "WENDLER",
        "streetDirectionId": null,
        "streetTypeId": "TERR",
        "placeName": "ORLEANS",
        "streetNameDisplayText": "WENDLER TERR, ORLEANS"
      }
    ]
  },
  {
    "postal": "K1E0J1",
    "result": []
  },
  {
    "postal": "K1E0B0",
    "result": []
  },
  {
    "postal": "K1E5Z2",
    "result": []
  },
  {
    "postal": "K1E7P3",
    "result": []
  },
  {
    "postal": "K1E2K3",
    "result": [
      {
        "electoralDistricts": [
          {
            "election": null,
            "id": 76,
            "name": "Orléans"
          }
        ],
        "pollDivisionIds": [
          10140455
        ],
        "postalCode": "K1E2K3",
        "streetName": "LOUISBOURG",
        "streetDirectionId": null,
        "streetTypeId": "CRES",
        "placeName": "ORLEANS",
        "streetNameDisplayText": "LOUISBOURG CRES, ORLEANS"
      }
    ]
  },
  {
    "postal": "K1E7Y6",
    "result": []
  },
  {
    "postal": "K1E1L9",
    "result": [
      {
        "electoralDistricts": [
          {
            "election": null,
            "id": 76,
            "name": "Orléans"
          }
        ],
        "pollDivisionIds": [
          10140455
        ],
        "postalCode": "K1E1L9",
        "streetName": "GLENEAGLES",
        "streetDirectionId": null,
        "streetTypeId": "AVE",
        "placeName": "ORLEANS",
        "streetNameDisplayText": "GLENEAGLES AVE, ORLEANS"
      }
    ]
  },
  {
    "postal": "K1E8T0",
    "result": []
  },
  {
    "postal": "K1E3K8",
    "result": [
      {
        "electoralDistricts": [
          {
            "election": null,
            "id": 76,
            "name": "Orléans"
          }
        ],
        "pollDivisionIds": [
          10140446
        ],
        "postalCode": "K1E3K8",
        "streetName": "BOURCIER",
        "streetDirectionId": null,
        "streetTypeId": "DR",
        "placeName": "ORLEANS",
        "streetNameDisplayText": "BOURCIER DR, ORLEANS"
      }
    ]
  },
  {
    "postal": "K1E5W9",
    "result": []
  },
  {
    "postal": "K1E6T9",
    "result": []
  },
  {
    "postal": "K1E4H1",
    "result": []
  },
  {
    "postal": "K1E7A2",
    "result": []
  },
  {
    "postal": "K1E5G0",
    "result": []
  },
  {
    "postal": "K1E8V5",
    "result": []
  },
  {
    "postal": "K1E2Y8",
    "result": [
      {
        "electoralDistricts": [
          {
            "election": null,
            "id": 76,
            "name": "Orléans"
          }
        ],
        "pollDivisionIds": [
          10140454
        ],
        "postalCode": "K1E2Y8",
        "streetName": "TIMBERLAND",
        "streetDirectionId": null,
        "streetTypeId": "TERR",
        "placeName": "ORLEANS",
        "streetNameDisplayText": "TIMBERLAND TERR, ORLEANS"
      }
    ]
  },
  {
    "postal": "K1E2B6",
    "result": [
      {
        "electoralDistricts": [
          {
            "election": null,
            "id": 76,
            "name": "Orléans"
          }
        ],
        "pollDivisionIds": [
          10140434
        ],
        "postalCode": "K1E2B6",
        "streetName": "BURNT EMBER",
        "streetDirectionId": null,
        "streetTypeId": "WAY",
        "placeName": "ORLEANS",
        "streetNameDisplayText": "BURNT EMBER WAY, ORLEANS"
      }
    ]
  },
  {
    "postal": "K1E4W8",
    "result": []
  },
  {
    "postal": "K1E8H7",
    "result": []
  },
  {
    "postal": "K1E5P1",
    "result": []
  },
  {
    "postal": "K1E2B8",
    "result": [
      {
        "electoralDistricts": [
          {
            "election": null,
            "id": 76,
            "name": "Orléans"
          }
        ],
        "pollDivisionIds": [
          10140434
        ],
        "postalCode": "K1E2B8",
        "streetName": "JEANNE D'ARC",
        "streetDirectionId": "N",
        "streetTypeId": "BLVD",
        "placeName": "ORLEANS",
        "streetNameDisplayText": "JEANNE D'ARC BLVD N, ORLEANS"
      }
    ]
  },
  {
    "postal": "K1E0P2",
    "result": []
  },
  {
    "postal": "K1E9M1",
    "result": []
  },
  {
    "postal": "K1E3G0",
    "result": []
  },
  {
    "postal": "K1E9Z2",
    "result": []
  },
  {
    "postal": "K1E2A0",
    "result": []
  },
  {
    "postal": "K1E6Y0",
    "result": []
  },
  {
    "postal": "K1E2Z8",
    "result": []
  },
  {
    "postal": "K1E7Y3",
    "result": []
  },
  {
    "postal": "K1E6Z5",
    "result": []
  },
  {
    "postal": "K1E6E0",
    "result": []
  },
  {
    "postal": "K1E9B7",
    "result": []
  },
  {
    "postal": "K1E9S5",
    "result": []
  },
  {
    "postal": "K1E3X3",
    "result": [
      {
        "electoralDistricts": [
          {
            "election": null,
            "id": 76,
            "name": "Orléans"
          }
        ],
        "pollDivisionIds": [
          10140441
        ],
        "postalCode": "K1E3X3",
        "streetName": "CARAVEL",
        "streetDirectionId": null,
        "streetTypeId": "CRES",
        "placeName": "ORLEANS",
        "streetNameDisplayText": "CARAVEL CRES, ORLEANS"
      },
      {
        "electoralDistricts": [
          {
            "election": null,
            "id": 76,
            "name": "Orléans"
          }
        ],
        "pollDivisionIds": [
          10140441
        ],
        "postalCode": "K1E3X3",
        "streetName": "TOMPKINS",
        "streetDirectionId": null,
        "streetTypeId": "AVE",
        "placeName": "ORLEANS",
        "streetNameDisplayText": "TOMPKINS AVE, ORLEANS"
      }
    ]
  },
  {
    "postal": "K1E7R5",
    "result": []
  },
  {
    "postal": "K1E2X3",
    "result": [
      {
        "electoralDistricts": [
          {
            "election": null,
            "id": 76,
            "name": "Orléans"
          }
        ],
        "pollDivisionIds": [
          10140446
        ],
        "postalCode": "K1E2X3",
        "streetName": "PRESTONE",
        "streetDirectionId": null,
        "streetTypeId": "DR",
        "placeName": "ORLEANS",
        "streetNameDisplayText": "PRESTONE DR, ORLEANS"
      }
    ]
  },
  {
    "postal": "K1E8Z9",
    "result": []
  },
  {
    "postal": "K1E0N4",
    "result": []
  },
  {
    "postal": "K1E1K1",
    "result": [
      {
        "electoralDistricts": [
          {
            "election": null,
            "id": 76,
            "name": "Orléans"
          }
        ],
        "pollDivisionIds": [
          10140446
        ],
        "postalCode": "K1E1K1",
        "streetName": "FRASER",
        "streetDirectionId": null,
        "streetTypeId": "PK",
        "placeName": "ORLEANS",
        "streetNameDisplayText": "FRASER PK, ORLEANS"
      }
    ]
  },
  {
    "postal": "K1E1S3",
    "result": [
      {
        "electoralDistricts": [
          {
            "election": null,
            "id": 76,
            "name": "Orléans"
          }
        ],
        "pollDivisionIds": [
          10140455
        ],
        "postalCode": "K1E1S3",
        "streetName": "PRESTWICK",
        "streetDirectionId": null,
        "streetTypeId": "DR",
        "placeName": "ORLEANS",
        "streetNameDisplayText": "PRESTWICK DR, ORLEANS"
      }
    ]
  },
  {
    "postal": "K1E6M4",
    "result": []
  },
  {
    "postal": "K1E9A9",
    "result": []
  },
  {
    "postal": "K1E9Z9",
    "result": []
  },
  {
    "postal": "K1E6T4",
    "result": []
  },
  {
    "postal": "K1E0B2",
    "result": [
      {
        "electoralDistricts": [
          {
            "election": null,
            "id": 76,
            "name": "Orléans"
          }
        ],
        "pollDivisionIds": [
          10140433
        ],
        "postalCode": "K1E0B2",
        "streetName": "ST JOSEPH",
        "streetDirectionId": null,
        "streetTypeId": "BLVD",
        "placeName": "ORLEANS",
        "streetNameDisplayText": "ST JOSEPH BLVD, ORLEANS"
      }
    ]
  },
  {
    "postal": "K1E2L9",
    "result": [
      {
        "electoralDistricts": [
          {
            "election": null,
            "id": 76,
            "name": "Orléans"
          }
        ],
        "pollDivisionIds": [
          10140454
        ],
        "postalCode": "K1E2L9",
        "streetName": "PRESTWICK",
        "streetDirectionId": null,
        "streetTypeId": "DR",
        "placeName": "ORLEANS",
        "streetNameDisplayText": "PRESTWICK DR, ORLEANS"
      }
    ]
  },
  {
    "postal": "K1E8K9",
    "result": []
  },
  {
    "postal": "K1E2H9",
    "result": [
      {
        "electoralDistricts": [
          {
            "election": null,
            "id": 76,
            "name": "Orléans"
          }
        ],
        "pollDivisionIds": [
          10140455
        ],
        "postalCode": "K1E2H9",
        "streetName": "SCHOUTEN",
        "streetDirectionId": null,
        "streetTypeId": "DR",
        "placeName": "ORLEANS",
        "streetNameDisplayText": "SCHOUTEN DR, ORLEANS"
      }
    ]
  },
  {
    "postal": "K1E3Z6",
    "result": []
  },
  {
    "postal": "K1E3B0",
    "result": []
  },
  {
    "postal": "K1E2H8",
    "result": [
      {
        "electoralDistricts": [
          {
            "election": null,
            "id": 76,
            "name": "Orléans"
          }
        ],
        "pollDivisionIds": [
          10140454
        ],
        "postalCode": "K1E2H8",
        "streetName": "TENTH LINE",
        "streetDirectionId": null,
        "streetTypeId": "RD",
        "placeName": "ORLEANS",
        "streetNameDisplayText": "TENTH LINE RD, ORLEANS"
      }
    ]
  },
  {
    "postal": "K1E3X2",
    "result": [
      {
        "electoralDistricts": [
          {
            "election": null,
            "id": 76,
            "name": "Orléans"
          }
        ],
        "pollDivisionIds": [
          10140449
        ],
        "postalCode": "K1E3X2",
        "streetName": "TENTH LINE",
        "streetDirectionId": null,
        "streetTypeId": "RD",
        "placeName": "ORLEANS",
        "streetNameDisplayText": "TENTH LINE RD, ORLEANS"
      }
    ]
  },
  {
    "postal": "K1E2E9",
    "result": [
      {
        "electoralDistricts": [
          {
            "election": null,
            "id": 76,
            "name": "Orléans"
          }
        ],
        "pollDivisionIds": [
          10140454
        ],
        "postalCode": "K1E2E9",
        "streetName": "PHOENIX",
        "streetDirectionId": null,
        "streetTypeId": "CRES",
        "placeName": "ORLEANS",
        "streetNameDisplayText": "PHOENIX CRES, ORLEANS"
      }
    ]
  },
  {
    "postal": "K1E9P6",
    "result": []
  },
  {
    "postal": "K1E9E2",
    "result": []
  },
  {
    "postal": "K1E9H2",
    "result": []
  },
  {
    "postal": "K1E1S8",
    "result": [
      {
        "electoralDistricts": [
          {
            "election": null,
            "id": 76,
            "name": "Orléans"
          }
        ],
        "pollDivisionIds": [
          10140454
        ],
        "postalCode": "K1E1S8",
        "streetName": "PAYETTE",
        "streetDirectionId": null,
        "streetTypeId": "DR",
        "placeName": "ORLEANS",
        "streetNameDisplayText": "PAYETTE DR, ORLEANS"
      }
    ]
  },
  {
    "postal": "K1E3M6",
    "result": [
      {
        "electoralDistricts": [
          {
            "election": null,
            "id": 76,
            "name": "Orléans"
          }
        ],
        "pollDivisionIds": [
          10140446
        ],
        "postalCode": "K1E3M6",
        "streetName": "BOUTON D'OR",
        "streetDirectionId": null,
        "streetTypeId": "WAY",
        "placeName": "ORLEANS",
        "streetNameDisplayText": "BOUTON D'OR WAY, ORLEANS"
      },
      {
        "electoralDistricts": [
          {
            "election": null,
            "id": 76,
            "name": "Orléans"
          }
        ],
        "pollDivisionIds": [
          10140446
        ],
        "postalCode": "K1E3M6",
        "streetName": "HAYES",
        "streetDirectionId": null,
        "streetTypeId": "ST",
        "placeName": "ORLEANS",
        "streetNameDisplayText": "HAYES ST, ORLEANS"
      }
    ]
  },
  {
    "postal": "K1E6Z8",
    "result": []
  },
  {
    "postal": "K1E4J2",
    "result": []
  },
  {
    "postal": "K1E9Y1",
    "result": []
  },
  {
    "postal": "K1E8V6",
    "result": []
  },
  {
    "postal": "K1E6B2",
    "result": []
  },
  {
    "postal": "K1E1P8",
    "result": [
      {
        "electoralDistricts": [
          {
            "election": null,
            "id": 76,
            "name": "Orléans"
          }
        ],
        "pollDivisionIds": [
          10140441
        ],
        "postalCode": "K1E1P8",
        "streetName": "ST GEORGES",
        "streetDirectionId": null,
        "streetTypeId": "ST",
        "placeName": "ORLEANS",
        "streetNameDisplayText": "ST GEORGES ST, ORLEANS"
      }
    ]
  },
  {
    "postal": "K1E0V8",
    "result": []
  },
  {
    "postal": "K1E4Y0",
    "result": []
  },
  {
    "postal": "K1E2T4",
    "result": [
      {
        "electoralDistricts": [
          {
            "election": null,
            "id": 76,
            "name": "Orléans"
          }
        ],
        "pollDivisionIds": [
          10140454
        ],
        "postalCode": "K1E2T4",
        "streetName": "PRESTWICK",
        "streetDirectionId": null,
        "streetTypeId": "DR",
        "placeName": "ORLEANS",
        "streetNameDisplayText": "PRESTWICK DR, ORLEANS"
      }
    ]
  },
  {
    "postal": "K1E2S3",
    "result": [
      {
        "electoralDistricts": [
          {
            "election": null,
            "id": 76,
            "name": "Orléans"
          }
        ],
        "pollDivisionIds": [
          10140454
        ],
        "postalCode": "K1E2S3",
        "streetName": "LOUIS RIEL",
        "streetDirectionId": null,
        "streetTypeId": "DR",
        "placeName": "ORLEANS",
        "streetNameDisplayText": "LOUIS RIEL DR, ORLEANS"
      }
    ]
  },
  {
    "postal": "K1E0K0",
    "result": []
  },
  {
    "postal": "K1E5N1",
    "result": []
  },
  {
    "postal": "K1E7T0",
    "result": []
  },
  {
    "postal": "K1E9N2",
    "result": []
  },
  {
    "postal": "K1E5L1",
    "result": []
  },
  {
    "postal": "K1E7G5",
    "result": []
  },
  {
    "postal": "K1E6K2",
    "result": []
  },
  {
    "postal": "K1E6P9",
    "result": []
  },
  {
    "postal": "K1E0E6",
    "result": []
  },
  {
    "postal": "K1E8R9",
    "result": []
  },
  {
    "postal": "K1E3G9",
    "result": [
      {
        "electoralDistricts": [
          {
            "election": null,
            "id": 76,
            "name": "Orléans"
          }
        ],
        "pollDivisionIds": [
          10140441
        ],
        "postalCode": "K1E3G9",
        "streetName": "LAURIN",
        "streetDirectionId": null,
        "streetTypeId": "CRES",
        "placeName": "ORLEANS",
        "streetNameDisplayText": "LAURIN CRES, ORLEANS"
      }
    ]
  },
  {
    "postal": "K1E0V7",
    "result": []
  },
  {
    "postal": "K1E2Z1",
    "result": [
      {
        "electoralDistricts": [
          {
            "election": null,
            "id": 76,
            "name": "Orléans"
          }
        ],
        "pollDivisionIds": [
          10140454
        ],
        "postalCode": "K1E2Z1",
        "streetName": "DU GRAND BOIS",
        "streetDirectionId": null,
        "streetTypeId": "AVE",
        "placeName": "ORLEANS",
        "streetNameDisplayText": "DU GRAND BOIS AVE, ORLEANS"
      }
    ]
  },
  {
    "postal": "K1E7N1",
    "result": []
  },
  {
    "postal": "K1E3C6",
    "result": []
  },
  {
    "postal": "K1E4M1",
    "result": []
  },
  {
    "postal": "K1E9K2",
    "result": []
  },
  {
    "postal": "K1E9S6",
    "result": []
  },
  {
    "postal": "K1E4X1",
    "result": []
  },
  {
    "postal": "K1E8W2",
    "result": []
  },
  {
    "postal": "K1E7N2",
    "result": []
  },
  {
    "postal": "K1E8S3",
    "result": []
  },
  {
    "postal": "K1E4V0",
    "result": []
  },
  {
    "postal": "K1E6W4",
    "result": []
  },
  {
    "postal": "K1E5M1",
    "result": []
  },
  {
    "postal": "K1E0S4",
    "result": []
  },
  {
    "postal": "K1E5X6",
    "result": []
  },
  {
    "postal": "K1E8L5",
    "result": []
  },
  {
    "postal": "K1E5M8",
    "result": []
  },
  {
    "postal": "K1E2G3",
    "result": [
      {
        "electoralDistricts": [
          {
            "election": null,
            "id": 76,
            "name": "Orléans"
          }
        ],
        "pollDivisionIds": [
          10140454
        ],
        "postalCode": "K1E2G3",
        "streetName": "GRANADA",
        "streetDirectionId": null,
        "streetTypeId": "DR",
        "placeName": "ORLEANS",
        "streetNameDisplayText": "GRANADA DR, ORLEANS"
      }
    ]
  },
  {
    "postal": "K1E8E4",
    "result": []
  },
  {
    "postal": "K1E7S9",
    "result": []
  },
  {
    "postal": "K1E1K3",
    "result": [
      {
        "electoralDistricts": [
          {
            "election": null,
            "id": 76,
            "name": "Orléans"
          }
        ],
        "pollDivisionIds": [
          10140446
        ],
        "postalCode": "K1E1K3",
        "streetName": "LACROIX",
        "streetDirectionId": null,
        "streetTypeId": "AVE",
        "placeName": "ORLEANS",
        "streetNameDisplayText": "LACROIX AVE, ORLEANS"
      }
    ]
  },
  {
    "postal": "K1E4E1",
    "result": []
  },
  {
    "postal": "K1E4R2",
    "result": []
  },
  {
    "postal": "K1E6T0",
    "result": []
  },
  {
    "postal": "K1E3K5",
    "result": [
      {
        "electoralDistricts": [
          {
            "election": null,
            "id": 76,
            "name": "Orléans"
          }
        ],
        "pollDivisionIds": [
          10140446
        ],
        "postalCode": "K1E3K5",
        "streetName": "MCEACHERN",
        "streetDirectionId": null,
        "streetTypeId": "CRES",
        "placeName": "ORLEANS",
        "streetNameDisplayText": "MCEACHERN CRES, ORLEANS"
      }
    ]
  },
  {
    "postal": "K1E3S3",
    "result": [
      {
        "electoralDistricts": [
          {
            "election": null,
            "id": 76,
            "name": "Orléans"
          }
        ],
        "pollDivisionIds": [
          10140457,
          10140455
        ],
        "postalCode": "K1E3S3",
        "streetName": "LECLAIR",
        "streetDirectionId": null,
        "streetTypeId": "CRES",
        "placeName": "ORLEANS",
        "streetNameDisplayText": "LECLAIR CRES, ORLEANS"
      }
    ]
  },
  {
    "postal": "K1E3L4",
    "result": [
      {
        "electoralDistricts": [
          {
            "election": null,
            "id": 76,
            "name": "Orléans"
          }
        ],
        "pollDivisionIds": [
          10140441
        ],
        "postalCode": "K1E3L4",
        "streetName": "COTE ROYALE",
        "streetDirectionId": null,
        "streetTypeId": "CRES",
        "placeName": "ORLEANS",
        "streetNameDisplayText": "COTE ROYALE CRES, ORLEANS"
      }
    ]
  },
  {
    "postal": "K1E9Y2",
    "result": []
  },
  {
    "postal": "K1E1E0",
    "result": []
  },
  {
    "postal": "K1E9A4",
    "result": []
  },
  {
    "postal": "K1E1L3",
    "result": [
      {
        "electoralDistricts": [
          {
            "election": null,
            "id": 76,
            "name": "Orléans"
          }
        ],
        "pollDivisionIds": [
          10140441
        ],
        "postalCode": "K1E1L3",
        "streetName": "QUEENSWOOD",
        "streetDirectionId": null,
        "streetTypeId": "CRES",
        "placeName": "ORLEANS",
        "streetNameDisplayText": "QUEENSWOOD CRES, ORLEANS"
      }
    ]
  },
  {
    "postal": "K1E6N1",
    "result": []
  },
  {
    "postal": "K1E6G7",
    "result": []
  },
  {
    "postal": "K1E7W1",
    "result": []
  },
  {
    "postal": "K1E4M6",
    "result": []
  },
  {
    "postal": "K1E1K0",
    "result": []
  },
  {
    "postal": "K1E3E2",
    "result": []
  },
  {
    "postal": "K1E5H4",
    "result": []
  },
  {
    "postal": "K1E1K7",
    "result": [
      {
        "electoralDistricts": [
          {
            "election": null,
            "id": 76,
            "name": "Orléans"
          }
        ],
        "pollDivisionIds": [
          10140446
        ],
        "postalCode": "K1E1K7",
        "streetName": "BLACKHEATH",
        "streetDirectionId": null,
        "streetTypeId": "ST",
        "placeName": "ORLEANS",
        "streetNameDisplayText": "BLACKHEATH ST, ORLEANS"
      }
    ]
  },
  {
    "postal": "K1E0H0",
    "result": []
  },
  {
    "postal": "K1E0J3",
    "result": []
  },
  {
    "postal": "K1E1X6",
    "result": [
      {
        "electoralDistricts": [
          {
            "election": null,
            "id": 76,
            "name": "Orléans"
          }
        ],
        "pollDivisionIds": [
          10140434
        ],
        "postalCode": "K1E1X6",
        "streetName": "BORLAND",
        "streetDirectionId": null,
        "streetTypeId": "DR",
        "placeName": "ORLEANS",
        "streetNameDisplayText": "BORLAND DR, ORLEANS"
      }
    ]
  },
  {
    "postal": "K1E2Z6",
    "result": [
      {
        "electoralDistricts": [
          {
            "election": null,
            "id": 76,
            "name": "Orléans"
          }
        ],
        "pollDivisionIds": [
          10140441
        ],
        "postalCode": "K1E2Z6",
        "streetName": "PRESTONE",
        "streetDirectionId": null,
        "streetTypeId": "DR",
        "placeName": "ORLEANS",
        "streetNameDisplayText": "PRESTONE DR, ORLEANS"
      }
    ]
  },
  {
    "postal": "K1E4R9",
    "result": []
  },
  {
    "postal": "K1E0W8",
    "result": []
  },
  {
    "postal": "K1E1L4",
    "result": [
      {
        "electoralDistricts": [
          {
            "election": null,
            "id": 76,
            "name": "Orléans"
          }
        ],
        "pollDivisionIds": [
          10140441
        ],
        "postalCode": "K1E1L4",
        "streetName": "QUEENSWOOD",
        "streetDirectionId": null,
        "streetTypeId": "CRES",
        "placeName": "ORLEANS",
        "streetNameDisplayText": "QUEENSWOOD CRES, ORLEANS"
      }
    ]
  },
  {
    "postal": "K1E0C8",
    "result": []
  },
  {
    "postal": "K1E9X7",
    "result": []
  },
  {
    "postal": "K1E4T1",
    "result": []
  },
  {
    "postal": "K1E0M0",
    "result": []
  },
  {
    "postal": "K1E6A2",
    "result": []
  },
  {
    "postal": "K1E9S8",
    "result": []
  },
  {
    "postal": "K1E9T4",
    "result": []
  },
  {
    "postal": "K1E9Y4",
    "result": []
  },
  {
    "postal": "K1E6G5",
    "result": []
  },
  {
    "postal": "K1E6H9",
    "result": []
  },
  {
    "postal": "K1E2P3",
    "result": [
      {
        "electoralDistricts": [
          {
            "election": null,
            "id": 76,
            "name": "Orléans"
          }
        ],
        "pollDivisionIds": [
          10140434
        ],
        "postalCode": "K1E2P3",
        "streetName": "HARLEQUIN",
        "streetDirectionId": null,
        "streetTypeId": "CRES",
        "placeName": "ORLEANS",
        "streetNameDisplayText": "HARLEQUIN CRES, ORLEANS"
      }
    ]
  },
  {
    "postal": "K1E1T6",
    "result": []
  },
  {
    "postal": "K1E4P6",
    "result": []
  },
  {
    "postal": "K1E3K1",
    "result": [
      {
        "electoralDistricts": [
          {
            "election": null,
            "id": 76,
            "name": "Orléans"
          }
        ],
        "pollDivisionIds": [
          10140446
        ],
        "postalCode": "K1E3K1",
        "streetName": "BOURCIER",
        "streetDirectionId": null,
        "streetTypeId": "DR",
        "placeName": "ORLEANS",
        "streetNameDisplayText": "BOURCIER DR, ORLEANS"
      }
    ]
  },
  {
    "postal": "K1E6X4",
    "result": []
  },
  {
    "postal": "K1E4M8",
    "result": []
  },
  {
    "postal": "K1E2Y1",
    "result": [
      {
        "electoralDistricts": [
          {
            "election": null,
            "id": 76,
            "name": "Orléans"
          }
        ],
        "pollDivisionIds": [
          10140454
        ],
        "postalCode": "K1E2Y1",
        "streetName": "PRESTWICK",
        "streetDirectionId": null,
        "streetTypeId": "DR",
        "placeName": "ORLEANS",
        "streetNameDisplayText": "PRESTWICK DR, ORLEANS"
      }
    ]
  },
  {
    "postal": "K1E6M1",
    "result": []
  },
  {
    "postal": "K1E5L8",
    "result": []
  },
  {
    "postal": "K1E3P6",
    "result": [
      {
        "electoralDistricts": [
          {
            "election": null,
            "id": 76,
            "name": "Orléans"
          }
        ],
        "pollDivisionIds": [
          10140443
        ],
        "postalCode": "K1E3P6",
        "streetName": "TENTH LINE",
        "streetDirectionId": null,
        "streetTypeId": "RD",
        "placeName": "ORLEANS",
        "streetNameDisplayText": "TENTH LINE RD, ORLEANS"
      }
    ]
  },
  {
    "postal": "K1E9A5",
    "result": []
  },
  {
    "postal": "K1E7K1",
    "result": []
  },
  {
    "postal": "K1E3J4",
    "result": [
      {
        "electoralDistricts": [
          {
            "election": null,
            "id": 76,
            "name": "Orléans"
          }
        ],
        "pollDivisionIds": [
          10140433
        ],
        "postalCode": "K1E3J4",
        "streetName": "CENTRUM",
        "streetDirectionId": null,
        "streetTypeId": "BLVD",
        "placeName": "ORLEANS",
        "streetNameDisplayText": "CENTRUM BLVD, ORLEANS"
      },
      {
        "electoralDistricts": [
          {
            "election": null,
            "id": 76,
            "name": "Orléans"
          }
        ],
        "pollDivisionIds": [
          10140433
        ],
        "postalCode": "K1E3J4",
        "streetName": "CENTRUM",
        "streetDirectionId": null,
        "streetTypeId": "BLVD",
        "placeName": "ORLÉANS",
        "streetNameDisplayText": "CENTRUM BLVD, ORLÉANS"
      }
    ]
  },
  {
    "postal": "K1E5E7",
    "result": []
  },
  {
    "postal": "K1E3A7",
    "result": []
  },
  {
    "postal": "K1E1B9",
    "result": [
      {
        "electoralDistricts": [
          {
            "election": null,
            "id": 76,
            "name": "Orléans"
          }
        ],
        "pollDivisionIds": [
          10140434
        ],
        "postalCode": "K1E1B9",
        "streetName": "BALSAM",
        "streetDirectionId": null,
        "streetTypeId": "DR",
        "placeName": "ORLEANS",
        "streetNameDisplayText": "BALSAM DR, ORLEANS"
      }
    ]
  },
  {
    "postal": "K1E9E8",
    "result": []
  },
  {
    "postal": "K1E1C9",
    "result": [
      {
        "electoralDistricts": [
          {
            "election": null,
            "id": 76,
            "name": "Orléans"
          }
        ],
        "pollDivisionIds": [
          10140434
        ],
        "postalCode": "K1E1C9",
        "streetName": "WILLOW",
        "streetDirectionId": null,
        "streetTypeId": "AVE",
        "placeName": "ORLEANS",
        "streetNameDisplayText": "WILLOW AVE, ORLEANS"
      },
      {
        "electoralDistricts": [
          {
            "election": null,
            "id": 76,
            "name": "Orléans"
          }
        ],
        "pollDivisionIds": [
          10140434
        ],
        "postalCode": "K1E1C9",
        "streetName": "WILLOW",
        "streetDirectionId": null,
        "streetTypeId": "AVE",
        "placeName": "ORLÉANS",
        "streetNameDisplayText": "WILLOW AVE, ORLÉANS"
      }
    ]
  },
  {
    "postal": "K1E3B5",
    "result": []
  },
  {
    "postal": "K1E8R0",
    "result": []
  },
  {
    "postal": "K1E3P2",
    "result": [
      {
        "electoralDistricts": [
          {
            "election": null,
            "id": 76,
            "name": "Orléans"
          }
        ],
        "pollDivisionIds": [
          10140441
        ],
        "postalCode": "K1E3P2",
        "streetName": "KENNEDY",
        "streetDirectionId": "E",
        "streetTypeId": "LANE",
        "placeName": "ORLEANS",
        "streetNameDisplayText": "KENNEDY LANE E, ORLEANS"
      }
    ]
  },
  {
    "postal": "K1E5V4",
    "result": []
  },
  {
    "postal": "K1E4H0",
    "result": []
  },
  {
    "postal": "K1E4S7",
    "result": []
  },
  {
    "postal": "K1E6C2",
    "result": []
  },
  {
    "postal": "K1E8W3",
    "result": []
  },
  {
    "postal": "K1E4M5",
    "result": []
  },
  {
    "postal": "K1E5T1",
    "result": []
  },
  {
    "postal": "K1E3B3",
    "result": []
  },
  {
    "postal": "K1E6C6",
    "result": []
  },
  {
    "postal": "K1E7N8",
    "result": []
  },
  {
    "postal": "K1E2Y3",
    "result": [
      {
        "electoralDistricts": [
          {
            "election": null,
            "id": 76,
            "name": "Orléans"
          }
        ],
        "pollDivisionIds": [
          10140454
        ],
        "postalCode": "K1E2Y3",
        "streetName": "SUMMERLANDS",
        "streetDirectionId": null,
        "streetTypeId": "CRES",
        "placeName": "ORLEANS",
        "streetNameDisplayText": "SUMMERLANDS CRES, ORLEANS"
      }
    ]
  },
  {
    "postal": "K1E2R6",
    "result": [
      {
        "electoralDistricts": [
          {
            "election": null,
            "id": 76,
            "name": "Orléans"
          }
        ],
        "pollDivisionIds": [
          10140454
        ],
        "postalCode": "K1E2R6",
        "streetName": "PRESTWICK",
        "streetDirectionId": null,
        "streetTypeId": "DR",
        "placeName": "ORLEANS",
        "streetNameDisplayText": "PRESTWICK DR, ORLEANS"
      }
    ]
  },
  {
    "postal": "K1E7N3",
    "result": []
  },
  {
    "postal": "K1E8J2",
    "result": []
  },
  {
    "postal": "K1E6A9",
    "result": []
  },
  {
    "postal": "K1E3V2",
    "result": [
      {
        "electoralDistricts": [
          {
            "election": null,
            "id": 76,
            "name": "Orléans"
          }
        ],
        "pollDivisionIds": [
          10140455
        ],
        "postalCode": "K1E3V2",
        "streetName": "MIDSUMMER",
        "streetDirectionId": null,
        "streetTypeId": "TERR",
        "placeName": "ORLEANS",
        "streetNameDisplayText": "MIDSUMMER TERR, ORLEANS"
      }
    ]
  },
  {
    "postal": "K1E2N3",
    "result": [
      {
        "electoralDistricts": [
          {
            "election": null,
            "id": 76,
            "name": "Orléans"
          }
        ],
        "pollDivisionIds": [
          10140454
        ],
        "postalCode": "K1E2N3",
        "streetName": "LAMOUREUX",
        "streetDirectionId": "E",
        "streetTypeId": "DR",
        "placeName": "ORLEANS",
        "streetNameDisplayText": "LAMOUREUX DR E, ORLEANS"
      },
      {
        "electoralDistricts": [
          {
            "election": null,
            "id": 76,
            "name": "Orléans"
          }
        ],
        "pollDivisionIds": [
          10140463,
          10140461,
          10140454
        ],
        "postalCode": "K1E2N3",
        "streetName": "LAMOUREUX",
        "streetDirectionId": null,
        "streetTypeId": "DR",
        "placeName": "ORLEANS",
        "streetNameDisplayText": "LAMOUREUX DR, ORLEANS"
      }
    ]
  },
  {
    "postal": "K1E1S5",
    "result": [
      {
        "electoralDistricts": [
          {
            "election": null,
            "id": 76,
            "name": "Orléans"
          }
        ],
        "pollDivisionIds": [
          10140455
        ],
        "postalCode": "K1E1S5",
        "streetName": "PRESTWICK",
        "streetDirectionId": null,
        "streetTypeId": "DR",
        "placeName": "ORLEANS",
        "streetNameDisplayText": "PRESTWICK DR, ORLEANS"
      }
    ]
  },
  {
    "postal": "K1E4T7",
    "result": []
  },
  {
    "postal": "K1E6Y7",
    "result": []
  },
  {
    "postal": "K1E0W7",
    "result": []
  },
  {
    "postal": "K1E2W9",
    "result": []
  },
  {
    "postal": "K1E8V0",
    "result": []
  },
  {
    "postal": "K1E0H4",
    "result": []
  },
  {
    "postal": "K1E2T1",
    "result": [
      {
        "electoralDistricts": [
          {
            "election": null,
            "id": 76,
            "name": "Orléans"
          }
        ],
        "pollDivisionIds": [
          10140454
        ],
        "postalCode": "K1E2T1",
        "streetName": "PARK GROVE",
        "streetDirectionId": null,
        "streetTypeId": "DR",
        "placeName": "ORLEANS",
        "streetNameDisplayText": "PARK GROVE DR, ORLEANS"
      }
    ]
  },
  {
    "postal": "K1E1B1",
    "result": [
      {
        "electoralDistricts": [
          {
            "election": null,
            "id": 76,
            "name": "Orléans"
          }
        ],
        "pollDivisionIds": [
          10140434
        ],
        "postalCode": "K1E1B1",
        "streetName": "JEANNE D'ARC",
        "streetDirectionId": "N",
        "streetTypeId": "BLVD",
        "placeName": "ORLEANS",
        "streetNameDisplayText": "JEANNE D'ARC BLVD N, ORLEANS"
      }
    ]
  },
  {
    "postal": "K1E8B6",
    "result": []
  },
  {
    "postal": "K1E6H1",
    "result": []
  },
  {
    "postal": "K1E8T8",
    "result": []
  },
  {
    "postal": "K1E0T4",
    "result": []
  },
  {
    "postal": "K1E2C4",
    "result": [
      {
        "electoralDistricts": [
          {
            "election": null,
            "id": 76,
            "name": "Orléans"
          }
        ],
        "pollDivisionIds": [
          10140436,
          10140434
        ],
        "postalCode": "K1E2C4",
        "streetName": "TEAL",
        "streetDirectionId": null,
        "streetTypeId": "CRES",
        "placeName": "ORLEANS",
        "streetNameDisplayText": "TEAL CRES, ORLEANS"
      }
    ]
  },
  {
    "postal": "K1E8N3",
    "result": []
  },
  {
    "postal": "K1E4L8",
    "result": []
  },
  {
    "postal": "K1E2B5",
    "result": [
      {
        "electoralDistricts": [
          {
            "election": null,
            "id": 76,
            "name": "Orléans"
          }
        ],
        "pollDivisionIds": [
          10140434
        ],
        "postalCode": "K1E2B5",
        "streetName": "BURNT EMBER",
        "streetDirectionId": null,
        "streetTypeId": "WAY",
        "placeName": "ORLEANS",
        "streetNameDisplayText": "BURNT EMBER WAY, ORLEANS"
      }
    ]
  },
  {
    "postal": "K1E3H1",
    "result": [
      {
        "electoralDistricts": [
          {
            "election": null,
            "id": 76,
            "name": "Orléans"
          }
        ],
        "pollDivisionIds": [
          10140441
        ],
        "postalCode": "K1E3H1",
        "streetName": "LAURIN",
        "streetDirectionId": null,
        "streetTypeId": "CRES",
        "placeName": "ORLEANS",
        "streetNameDisplayText": "LAURIN CRES, ORLEANS"
      }
    ]
  },
  {
    "postal": "K1E4Y1",
    "result": []
  },
  {
    "postal": "K1E7E2",
    "result": []
  },
  {
    "postal": "K1E2P5",
    "result": [
      {
        "electoralDistricts": [
          {
            "election": null,
            "id": 76,
            "name": "Orléans"
          }
        ],
        "pollDivisionIds": [
          10140455
        ],
        "postalCode": "K1E2P5",
        "streetName": "WAYSIDE",
        "streetDirectionId": null,
        "streetTypeId": "CRT",
        "placeName": "ORLEANS",
        "streetNameDisplayText": "WAYSIDE CRT, ORLEANS"
      }
    ]
  },
  {
    "postal": "K1E8R7",
    "result": []
  },
  {
    "postal": "K1E9P1",
    "result": []
  },
  {
    "postal": "K1E3B8",
    "result": []
  },
  {
    "postal": "K1E3P7",
    "result": [
      {
        "electoralDistricts": [
          {
            "election": null,
            "id": 76,
            "name": "Orléans"
          }
        ],
        "pollDivisionIds": [
          10140457
        ],
        "postalCode": "K1E3P7",
        "streetName": "LEGRAND",
        "streetDirectionId": null,
        "streetTypeId": "CRES",
        "placeName": "ORLEANS",
        "streetNameDisplayText": "LEGRAND CRES, ORLEANS"
      }
    ]
  },
  {
    "postal": "K1E9B2",
    "result": []
  },
  {
    "postal": "K1E6Z3",
    "result": []
  },
  {
    "postal": "K1E4N5",
    "result": []
  },
  {
    "postal": "K1E8T3",
    "result": []
  },
  {
    "postal": "K1E1V2",
    "result": [
      {
        "electoralDistricts": [
          {
            "election": null,
            "id": 76,
            "name": "Orléans"
          }
        ],
        "pollDivisionIds": [
          10140455
        ],
        "postalCode": "K1E1V2",
        "streetName": "ROXDALE",
        "streetDirectionId": null,
        "streetTypeId": "AVE",
        "placeName": "ORLEANS",
        "streetNameDisplayText": "ROXDALE AVE, ORLEANS"
      }
    ]
  },
  {
    "postal": "K1E1Y0",
    "result": []
  },
  {
    "postal": "K1E3G6",
    "result": [
      {
        "electoralDistricts": [
          {
            "election": null,
            "id": 76,
            "name": "Orléans"
          }
        ],
        "pollDivisionIds": [
          10140446
        ],
        "postalCode": "K1E3G6",
        "streetName": "DUFORD",
        "streetDirectionId": null,
        "streetTypeId": "DR",
        "placeName": "ORLEANS",
        "streetNameDisplayText": "DUFORD DR, ORLEANS"
      }
    ]
  },
  {
    "postal": "K1E3H7",
    "result": [
      {
        "electoralDistricts": [
          {
            "election": null,
            "id": 76,
            "name": "Orléans"
          }
        ],
        "pollDivisionIds": [
          10140446
        ],
        "postalCode": "K1E3H7",
        "streetName": "ST JOSEPH",
        "streetDirectionId": null,
        "streetTypeId": "BLVD",
        "placeName": "ORLÉANS",
        "streetNameDisplayText": "ST JOSEPH BLVD, ORLÉANS"
      }
    ]
  },
  {
    "postal": "K1E7X8",
    "result": []
  },
  {
    "postal": "K1E0C7",
    "result": []
  },
  {
    "postal": "K1E0W9",
    "result": []
  },
  {
    "postal": "K1E8E6",
    "result": []
  },
  {
    "postal": "K1E9Z8",
    "result": []
  },
  {
    "postal": "K1E3P4",
    "result": [
      {
        "electoralDistricts": [
          {
            "election": null,
            "id": 76,
            "name": "Orléans"
          }
        ],
        "pollDivisionIds": [
          10140433
        ],
        "postalCode": "K1E3P4",
        "streetName": "CENTRUM",
        "streetDirectionId": null,
        "streetTypeId": "BLVD",
        "placeName": "ORLÉANS",
        "streetNameDisplayText": "CENTRUM BLVD, ORLÉANS"
      }
    ]
  },
  {
    "postal": "K1E6L8",
    "result": []
  },
  {
    "postal": "K1E2R4",
    "result": [
      {
        "electoralDistricts": [
          {
            "election": null,
            "id": 76,
            "name": "Orléans"
          }
        ],
        "pollDivisionIds": [
          10140454
        ],
        "postalCode": "K1E2R4",
        "streetName": "DES PRAIRIES",
        "streetDirectionId": null,
        "streetTypeId": "AVE",
        "placeName": "ORLEANS",
        "streetNameDisplayText": "DES PRAIRIES AVE, ORLEANS"
      }
    ]
  },
  {
    "postal": "K1E2W1",
    "result": [
      {
        "electoralDistricts": [
          {
            "election": null,
            "id": 76,
            "name": "Orléans"
          }
        ],
        "pollDivisionIds": [
          10140455
        ],
        "postalCode": "K1E2W1",
        "streetName": "WOODHAVEN HEIGHTS",
        "streetDirectionId": null,
        "streetTypeId": "ST",
        "placeName": "ORLEANS",
        "streetNameDisplayText": "WOODHAVEN HEIGHTS ST, ORLEANS"
      }
    ]
  },
  {
    "postal": "K1E9H8",
    "result": []
  },
  {
    "postal": "K1E8X9",
    "result": []
  },
  {
    "postal": "K1E7H4",
    "result": []
  },
  {
    "postal": "K1E3J1",
    "result": [
      {
        "electoralDistricts": [
          {
            "election": null,
            "id": 76,
            "name": "Orléans"
          }
        ],
        "pollDivisionIds": [
          10140433
        ],
        "postalCode": "K1E3J1",
        "streetName": "CENTRUM",
        "streetDirectionId": null,
        "streetTypeId": "BLVD",
        "placeName": "ORLÉANS",
        "streetNameDisplayText": "CENTRUM BLVD, ORLÉANS"
      }
    ]
  },
  {
    "postal": "K1E1P4",
    "result": [
      {
        "electoralDistricts": [
          {
            "election": null,
            "id": 76,
            "name": "Orléans"
          }
        ],
        "pollDivisionIds": [
          10140441
        ],
        "postalCode": "K1E1P4",
        "streetName": "ST GEORGES",
        "streetDirectionId": null,
        "streetTypeId": "ST",
        "placeName": "ORLEANS",
        "streetNameDisplayText": "ST GEORGES ST, ORLEANS"
      }
    ]
  },
  {
    "postal": "K1E2A3",
    "result": [
      {
        "electoralDistricts": [
          {
            "election": null,
            "id": 76,
            "name": "Orléans"
          }
        ],
        "pollDivisionIds": [
          10140434
        ],
        "postalCode": "K1E2A3",
        "streetName": "WARBLER",
        "streetDirectionId": null,
        "streetTypeId": "BAY",
        "placeName": "ORLEANS",
        "streetNameDisplayText": "WARBLER BAY, ORLEANS"
      }
    ]
  },
  {
    "postal": "K1E0Z1",
    "result": []
  },
  {
    "postal": "K1E1C1",
    "result": [
      {
        "electoralDistricts": [
          {
            "election": null,
            "id": 76,
            "name": "Orléans"
          }
        ],
        "pollDivisionIds": [
          10140440
        ],
        "postalCode": "K1E1C1",
        "streetName": "ALPINE",
        "streetDirectionId": null,
        "streetTypeId": "ST",
        "placeName": "ORLEANS",
        "streetNameDisplayText": "ALPINE ST, ORLEANS"
      }
    ]
  },
  {
    "postal": "K1E0H3",
    "result": []
  },
  {
    "postal": "K1E7B0",
    "result": []
  },
  {
    "postal": "K1E5K2",
    "result": []
  },
  {
    "postal": "K1E1E9",
    "result": [
      {
        "electoralDistricts": [
          {
            "election": null,
            "id": 76,
            "name": "Orléans"
          }
        ],
        "pollDivisionIds": [
          10140446
        ],
        "postalCode": "K1E1E9",
        "streetName": "DUFORD",
        "streetDirectionId": null,
        "streetTypeId": "DR",
        "placeName": "ORLEANS",
        "streetNameDisplayText": "DUFORD DR, ORLEANS"
      }
    ]
  },
  {
    "postal": "K1E9W7",
    "result": []
  },
  {
    "postal": "K1E5W6",
    "result": []
  },
  {
    "postal": "K1E6S6",
    "result": []
  },
  {
    "postal": "K1E2P8",
    "result": [
      {
        "electoralDistricts": [
          {
            "election": null,
            "id": 76,
            "name": "Orléans"
          }
        ],
        "pollDivisionIds": [
          10140455
        ],
        "postalCode": "K1E2P8",
        "streetName": "ST GEORGES",
        "streetDirectionId": null,
        "streetTypeId": "ST",
        "placeName": "ORLEANS",
        "streetNameDisplayText": "ST GEORGES ST, ORLEANS"
      }
    ]
  },
  {
    "postal": "K1E4P8",
    "result": []
  },
  {
    "postal": "K1E0V9",
    "result": []
  },
  {
    "postal": "K1E5Y2",
    "result": []
  },
  {
    "postal": "K1E7Z7",
    "result": []
  },
  {
    "postal": "K1E6Y8",
    "result": []
  },
  {
    "postal": "K1E2G7",
    "result": [
      {
        "electoralDistricts": [
          {
            "election": null,
            "id": 76,
            "name": "Orléans"
          }
        ],
        "pollDivisionIds": [
          10140454
        ],
        "postalCode": "K1E2G7",
        "streetName": "DES EPINETTES",
        "streetDirectionId": null,
        "streetTypeId": "AV",
        "placeName": "ORLEANS",
        "streetNameDisplayText": "DES EPINETTES AV, ORLEANS"
      },
      {
        "electoralDistricts": [
          {
            "election": null,
            "id": 76,
            "name": "Orléans"
          }
        ],
        "pollDivisionIds": [
          10140454
        ],
        "postalCode": "K1E2G7",
        "streetName": "DES EPINETTES",
        "streetDirectionId": null,
        "streetTypeId": "AVE",
        "placeName": "ORLEANS",
        "streetNameDisplayText": "DES EPINETTES AVE, ORLEANS"
      }
    ]
  },
  {
    "postal": "K1E8C1",
    "result": []
  },
  {
    "postal": "K1E5C5",
    "result": []
  },
  {
    "postal": "K1E2X8",
    "result": [
      {
        "electoralDistricts": [
          {
            "election": null,
            "id": 76,
            "name": "Orléans"
          }
        ],
        "pollDivisionIds": [
          10140454
        ],
        "postalCode": "K1E2X8",
        "streetName": "OMER-LACASSE",
        "streetDirectionId": null,
        "streetTypeId": "AVE",
        "placeName": "ORLEANS",
        "streetNameDisplayText": "OMER-LACASSE AVE, ORLEANS"
      }
    ]
  },
  {
    "postal": "K1E1W5",
    "result": [
      {
        "electoralDistricts": [
          {
            "election": null,
            "id": 76,
            "name": "Orléans"
          }
        ],
        "pollDivisionIds": [
          10140440
        ],
        "postalCode": "K1E1W5",
        "streetName": "JEANNE D'ARC",
        "streetDirectionId": "N",
        "streetTypeId": "BLVD",
        "placeName": "ORLEANS",
        "streetNameDisplayText": "JEANNE D'ARC BLVD N, ORLEANS"
      }
    ]
  },
  {
    "postal": "K1E7G0",
    "result": []
  },
  {
    "postal": "K1E8J8",
    "result": []
  },
  {
    "postal": "K1E3Y0",
    "result": []
  },
  {
    "postal": "K1E9T7",
    "result": []
  },
  {
    "postal": "K1E5P4",
    "result": []
  },
  {
    "postal": "K1E4B0",
    "result": []
  },
  {
    "postal": "K1E9N8",
    "result": []
  },
  {
    "postal": "K1E4A7",
    "result": []
  },
  {
    "postal": "K1E4H9",
    "result": []
  },
  {
    "postal": "K1E6X1",
    "result": []
  },
  {
    "postal": "K1E9Y7",
    "result": []
  },
  {
    "postal": "K1E2Y5",
    "result": [
      {
        "electoralDistricts": [
          {
            "election": null,
            "id": 76,
            "name": "Orléans"
          }
        ],
        "pollDivisionIds": [
          10140441
        ],
        "postalCode": "K1E2Y5",
        "streetName": "TURNER",
        "streetDirectionId": null,
        "streetTypeId": "CRES",
        "placeName": "ORLEANS",
        "streetNameDisplayText": "TURNER CRES, ORLEANS"
      }
    ]
  },
  {
    "postal": "K1E8L7",
    "result": []
  },
  {
    "postal": "K1E2A8",
    "result": [
      {
        "electoralDistricts": [
          {
            "election": null,
            "id": 76,
            "name": "Orléans"
          }
        ],
        "pollDivisionIds": [
          10140434
        ],
        "postalCode": "K1E2A8",
        "streetName": "MOCKINGBIRD",
        "streetDirectionId": null,
        "streetTypeId": "DR",
        "placeName": "ORLEANS",
        "streetNameDisplayText": "MOCKINGBIRD DR, ORLEANS"
      }
    ]
  },
  {
    "postal": "K1E2K9",
    "result": [
      {
        "electoralDistricts": [
          {
            "election": null,
            "id": 76,
            "name": "Orléans"
          }
        ],
        "pollDivisionIds": [
          10140455
        ],
        "postalCode": "K1E2K9",
        "streetName": "BROCK",
        "streetDirectionId": null,
        "streetTypeId": "PL",
        "placeName": "ORLEANS",
        "streetNameDisplayText": "BROCK PL, ORLEANS"
      }
    ]
  },
  {
    "postal": "K1E3E5",
    "result": []
  },
  {
    "postal": "K1E8N6",
    "result": []
  },
  {
    "postal": "K1E8J4",
    "result": []
  },
  {
    "postal": "K1E4R7",
    "result": []
  },
  {
    "postal": "K1E9K1",
    "result": []
  },
  {
    "postal": "K1E8E1",
    "result": []
  },
  {
    "postal": "K1E0R1",
    "result": []
  },
  {
    "postal": "K1E4J3",
    "result": []
  },
  {
    "postal": "K1E7E7",
    "result": []
  },
  {
    "postal": "K1E0J0",
    "result": []
  },
  {
    "postal": "K1E7R8",
    "result": []
  },
  {
    "postal": "K1E9X0",
    "result": []
  },
  {
    "postal": "K1E7P6",
    "result": []
  },
  {
    "postal": "K1E0R7",
    "result": []
  },
  {
    "postal": "K1E5W1",
    "result": []
  },
  {
    "postal": "K1E0K4",
    "result": []
  },
  {
    "postal": "K1E7N9",
    "result": []
  },
  {
    "postal": "K1E1N0",
    "result": []
  },
  {
    "postal": "K1E6P3",
    "result": []
  },
  {
    "postal": "K1E5A1",
    "result": []
  },
  {
    "postal": "K1E9M9",
    "result": []
  },
  {
    "postal": "K1E7T6",
    "result": []
  },
  {
    "postal": "K1E3X0",
    "result": []
  },
  {
    "postal": "K1E2T0",
    "result": []
  },
  {
    "postal": "K1E5X9",
    "result": []
  },
  {
    "postal": "K1E2R3",
    "result": [
      {
        "electoralDistricts": [
          {
            "election": null,
            "id": 76,
            "name": "Orléans"
          }
        ],
        "pollDivisionIds": [
          10140454
        ],
        "postalCode": "K1E2R3",
        "streetName": "DES PRAIRIES",
        "streetDirectionId": null,
        "streetTypeId": "AVE",
        "placeName": "ORLEANS",
        "streetNameDisplayText": "DES PRAIRIES AVE, ORLEANS"
      }
    ]
  },
  {
    "postal": "K1E5N2",
    "result": []
  },
  {
    "postal": "K1E4Y7",
    "result": []
  },
  {
    "postal": "K1E7M0",
    "result": []
  },
  {
    "postal": "K1E8P3",
    "result": []
  },
  {
    "postal": "K1E3N3",
    "result": [
      {
        "electoralDistricts": [
          {
            "election": null,
            "id": 76,
            "name": "Orléans"
          }
        ],
        "pollDivisionIds": [
          10140441
        ],
        "postalCode": "K1E3N3",
        "streetName": "RIVER RIDGE",
        "streetDirectionId": null,
        "streetTypeId": "CRES",
        "placeName": "ORLEANS",
        "streetNameDisplayText": "RIVER RIDGE CRES, ORLEANS"
      }
    ]
  },
  {
    "postal": "K1E7S3",
    "result": []
  },
  {
    "postal": "K1E3V9",
    "result": [
      {
        "electoralDistricts": [
          {
            "election": null,
            "id": 76,
            "name": "Orléans"
          }
        ],
        "pollDivisionIds": [
          10140455
        ],
        "postalCode": "K1E3V9",
        "streetName": "CLAIBORNE",
        "streetDirectionId": null,
        "streetTypeId": "WAY",
        "placeName": "ORLEANS",
        "streetNameDisplayText": "CLAIBORNE WAY, ORLEANS"
      }
    ]
  },
  {
    "postal": "K1E9N7",
    "result": []
  },
  {
    "postal": "K1E0G4",
    "result": []
  },
  {
    "postal": "K1E2E2",
    "result": [
      {
        "electoralDistricts": [
          {
            "election": null,
            "id": 76,
            "name": "Orléans"
          }
        ],
        "pollDivisionIds": [
          10140454
        ],
        "postalCode": "K1E2E2",
        "streetName": "PAYETTE",
        "streetDirectionId": null,
        "streetTypeId": "DR",
        "placeName": "ORLEANS",
        "streetNameDisplayText": "PAYETTE DR, ORLEANS"
      }
    ]
  },
  {
    "postal": "K1E7W8",
    "result": []
  },
  {
    "postal": "K1E7M5",
    "result": []
  },
  {
    "postal": "K1E5W8",
    "result": []
  },
  {
    "postal": "K1E5E5",
    "result": []
  },
  {
    "postal": "K1E1P9",
    "result": [
      {
        "electoralDistricts": [
          {
            "election": null,
            "id": 76,
            "name": "Orléans"
          }
        ],
        "pollDivisionIds": [
          10140455
        ],
        "postalCode": "K1E1P9",
        "streetName": "ST GEORGES",
        "streetDirectionId": null,
        "streetTypeId": "ST",
        "placeName": "ORLEANS",
        "streetNameDisplayText": "ST GEORGES ST, ORLEANS"
      }
    ]
  },
  {
    "postal": "K1E8V8",
    "result": []
  },
  {
    "postal": "K1E9G8",
    "result": []
  },
  {
    "postal": "K1E8H9",
    "result": []
  },
  {
    "postal": "K1E1Z1",
    "result": [
      {
        "electoralDistricts": [
          {
            "election": null,
            "id": 76,
            "name": "Orléans"
          }
        ],
        "pollDivisionIds": [
          10140434
        ],
        "postalCode": "K1E1Z1",
        "streetName": "ELDERBERRY",
        "streetDirectionId": null,
        "streetTypeId": "TERR",
        "placeName": "ORLEANS",
        "streetNameDisplayText": "ELDERBERRY TERR, ORLEANS"
      }
    ]
  },
  {
    "postal": "K1E8M3",
    "result": []
  },
  {
    "postal": "K1E5H6",
    "result": []
  },
  {
    "postal": "K1E7W7",
    "result": []
  },
  {
    "postal": "K1E4L0",
    "result": []
  },
  {
    "postal": "K1E2N1",
    "result": [
      {
        "electoralDistricts": [
          {
            "election": null,
            "id": 76,
            "name": "Orléans"
          }
        ],
        "pollDivisionIds": [
          10140455
        ],
        "postalCode": "K1E2N1",
        "streetName": "PRESTWICK",
        "streetDirectionId": null,
        "streetTypeId": "DR",
        "placeName": "ORLEANS",
        "streetNameDisplayText": "PRESTWICK DR, ORLEANS"
      }
    ]
  },
  {
    "postal": "K1E2H4",
    "result": [
      {
        "electoralDistricts": [
          {
            "election": null,
            "id": 76,
            "name": "Orléans"
          }
        ],
        "pollDivisionIds": [
          10140454
        ],
        "postalCode": "K1E2H4",
        "streetName": "LAMOUREUX",
        "streetDirectionId": null,
        "streetTypeId": "DR",
        "placeName": "ORLEANS",
        "streetNameDisplayText": "LAMOUREUX DR, ORLEANS"
      }
    ]
  },
  {
    "postal": "K1E5C8",
    "result": []
  },
  {
    "postal": "K1E8B0",
    "result": []
  },
  {
    "postal": "K1E1T4",
    "result": [
      {
        "electoralDistricts": [
          {
            "election": null,
            "id": 76,
            "name": "Orléans"
          }
        ],
        "pollDivisionIds": [
          10140455
        ],
        "postalCode": "K1E1T4",
        "streetName": "WARDEN",
        "streetDirectionId": null,
        "streetTypeId": "AVE",
        "placeName": "ORLEANS",
        "streetNameDisplayText": "WARDEN AVE, ORLEANS"
      }
    ]
  },
  {
    "postal": "K1E7N7",
    "result": []
  },
  {
    "postal": "K1E4L3",
    "result": []
  },
  {
    "postal": "K1E2N2",
    "result": [
      {
        "electoralDistricts": [
          {
            "election": null,
            "id": 76,
            "name": "Orléans"
          }
        ],
        "pollDivisionIds": [
          10140454,
          10140442
        ],
        "postalCode": "K1E2N2",
        "streetName": "LAMOUREUX",
        "streetDirectionId": null,
        "streetTypeId": "DR",
        "placeName": "ORLEANS",
        "streetNameDisplayText": "LAMOUREUX DR, ORLEANS"
      },
      {
        "electoralDistricts": [
          {
            "election": null,
            "id": 76,
            "name": "Orléans"
          }
        ],
        "pollDivisionIds": [
          10140454
        ],
        "postalCode": "K1E2N2",
        "streetName": "LAMOUREUX",
        "streetDirectionId": null,
        "streetTypeId": "DR",
        "placeName": "ORLÉANS",
        "streetNameDisplayText": "LAMOUREUX DR, ORLÉANS"
      }
    ]
  },
  {
    "postal": "K1E4N8",
    "result": []
  },
  {
    "postal": "K1E3M5",
    "result": [
      {
        "electoralDistricts": [
          {
            "election": null,
            "id": 76,
            "name": "Orléans"
          }
        ],
        "pollDivisionIds": [
          10140441,
          10140446
        ],
        "postalCode": "K1E3M5",
        "streetName": "KENNEDY",
        "streetDirectionId": "E",
        "streetTypeId": "LANE",
        "placeName": "ORLEANS",
        "streetNameDisplayText": "KENNEDY LANE E, ORLEANS"
      }
    ]
  },
  {
    "postal": "K1E6H7",
    "result": []
  },
  {
    "postal": "K1E8Y8",
    "result": []
  },
  {
    "postal": "K1E5R9",
    "result": []
  },
  {
    "postal": "K1E8G3",
    "result": []
  },
  {
    "postal": "K1E4N7",
    "result": []
  },
  {
    "postal": "K1E0B9",
    "result": []
  },
  {
    "postal": "K1E9K7",
    "result": []
  },
  {
    "postal": "K1E9K9",
    "result": []
  },
  {
    "postal": "K1E3Z2",
    "result": []
  },
  {
    "postal": "K1E6W7",
    "result": []
  },
  {
    "postal": "K1E0P1",
    "result": []
  },
  {
    "postal": "K1E3A0",
    "result": []
  },
  {
    "postal": "K1E8L9",
    "result": []
  },
  {
    "postal": "K1E6X0",
    "result": []
  },
  {
    "postal": "K1E3E9",
    "result": []
  },
  {
    "postal": "K1E0S5",
    "result": []
  },
  {
    "postal": "K1E1A2",
    "result": [
      {
        "electoralDistricts": [
          {
            "election": null,
            "id": 76,
            "name": "Orléans"
          }
        ],
        "pollDivisionIds": [
          10140434
        ],
        "postalCode": "K1E1A2",
        "streetName": "LARCH",
        "streetDirectionId": null,
        "streetTypeId": "CRES",
        "placeName": "ORLEANS",
        "streetNameDisplayText": "LARCH CRES, ORLEANS"
      }
    ]
  },
  {
    "postal": "K1E5V8",
    "result": []
  },
  {
    "postal": "K1E8C5",
    "result": []
  },
  {
    "postal": "K1E6N0",
    "result": []
  },
  {
    "postal": "K1E9E6",
    "result": []
  },
  {
    "postal": "K1E5J7",
    "result": []
  },
  {
    "postal": "K1E2R2",
    "result": [
      {
        "electoralDistricts": [
          {
            "election": null,
            "id": 76,
            "name": "Orléans"
          }
        ],
        "pollDivisionIds": [
          10140454
        ],
        "postalCode": "K1E2R2",
        "streetName": "DES PRAIRIES",
        "streetDirectionId": null,
        "streetTypeId": "AVE",
        "placeName": "ORLEANS",
        "streetNameDisplayText": "DES PRAIRIES AVE, ORLEANS"
      }
    ]
  },
  {
    "postal": "K1E0P5",
    "result": []
  },
  {
    "postal": "K1E5A7",
    "result": []
  },
  {
    "postal": "K1E1G1",
    "result": [
      {
        "electoralDistricts": [
          {
            "election": null,
            "id": 76,
            "name": "Orléans"
          }
        ],
        "pollDivisionIds": [
          10140446
        ],
        "postalCode": "K1E1G1",
        "streetName": "DUFORD",
        "streetDirectionId": null,
        "streetTypeId": "DR",
        "placeName": "ORLEANS",
        "streetNameDisplayText": "DUFORD DR, ORLEANS"
      }
    ]
  },
  {
    "postal": "K1E9R6",
    "result": []
  },
  {
    "postal": "K1E4Z9",
    "result": []
  },
  {
    "postal": "K1E1V5",
    "result": [
      {
        "electoralDistricts": [
          {
            "election": null,
            "id": 76,
            "name": "Orléans"
          }
        ],
        "pollDivisionIds": [
          10140454
        ],
        "postalCode": "K1E1V5",
        "streetName": "ROXDALE",
        "streetDirectionId": null,
        "streetTypeId": "AVE",
        "placeName": "ORLEANS",
        "streetNameDisplayText": "ROXDALE AVE, ORLEANS"
      }
    ]
  },
  {
    "postal": "K1E9Y5",
    "result": []
  },
  {
    "postal": "K1E1P2",
    "result": [
      {
        "electoralDistricts": [
          {
            "election": null,
            "id": 76,
            "name": "Orléans"
          }
        ],
        "pollDivisionIds": [
          10140455
        ],
        "postalCode": "K1E1P2",
        "streetName": "AMIENS",
        "streetDirectionId": null,
        "streetTypeId": "ST",
        "placeName": "ORLEANS",
        "streetNameDisplayText": "AMIENS ST, ORLEANS"
      }
    ]
  },
  {
    "postal": "K1E5X0",
    "result": []
  },
  {
    "postal": "K1E7B8",
    "result": []
  },
  {
    "postal": "K1E0C6",
    "result": []
  },
  {
    "postal": "K1E6G1",
    "result": []
  },
  {
    "postal": "K1E3K3",
    "result": [
      {
        "electoralDistricts": [
          {
            "election": null,
            "id": 76,
            "name": "Orléans"
          }
        ],
        "pollDivisionIds": [
          10140441,
          10140446
        ],
        "postalCode": "K1E3K3",
        "streetName": "MCEACHERN",
        "streetDirectionId": null,
        "streetTypeId": "CRES",
        "placeName": "ORLEANS",
        "streetNameDisplayText": "MCEACHERN CRES, ORLEANS"
      }
    ]
  },
  {
    "postal": "K1E9R0",
    "result": []
  },
  {
    "postal": "K1E4R8",
    "result": []
  },
  {
    "postal": "K1E5P9",
    "result": []
  },
  {
    "postal": "K1E8N4",
    "result": []
  },
  {
    "postal": "K1E8H4",
    "result": []
  },
  {
    "postal": "K1E4V1",
    "result": []
  },
  {
    "postal": "K1E1K5",
    "result": [
      {
        "electoralDistricts": [
          {
            "election": null,
            "id": 76,
            "name": "Orléans"
          }
        ],
        "pollDivisionIds": [
          10140446
        ],
        "postalCode": "K1E1K5",
        "streetName": "GRACELAND",
        "streetDirectionId": null,
        "streetTypeId": "CRT",
        "placeName": "ORLEANS",
        "streetNameDisplayText": "GRACELAND CRT, ORLEANS"
      }
    ]
  },
  {
    "postal": "K1E1Z5",
    "result": [
      {
        "electoralDistricts": [
          {
            "election": null,
            "id": 76,
            "name": "Orléans"
          }
        ],
        "pollDivisionIds": [
          10140434
        ],
        "postalCode": "K1E1Z5",
        "streetName": "LAVEROCK",
        "streetDirectionId": null,
        "streetTypeId": "BAY",
        "placeName": "ORLEANS",
        "streetNameDisplayText": "LAVEROCK BAY, ORLEANS"
      }
    ]
  },
  {
    "postal": "K1E9L9",
    "result": []
  },
  {
    "postal": "K1E5L2",
    "result": []
  },
  {
    "postal": "K1E0M2",
    "result": []
  },
  {
    "postal": "K1E1K8",
    "result": [
      {
        "electoralDistricts": [
          {
            "election": null,
            "id": 76,
            "name": "Orléans"
          }
        ],
        "pollDivisionIds": [
          10140441
        ],
        "postalCode": "K1E1K8",
        "streetName": "BLACKHEATH",
        "streetDirectionId": null,
        "streetTypeId": "ST",
        "placeName": "ORLEANS",
        "streetNameDisplayText": "BLACKHEATH ST, ORLEANS"
      }
    ]
  },
  {
    "postal": "K1E3M7",
    "result": [
      {
        "electoralDistricts": [
          {
            "election": null,
            "id": 76,
            "name": "Orléans"
          }
        ],
        "pollDivisionIds": [
          10140446
        ],
        "postalCode": "K1E3M7",
        "streetName": "HAYES",
        "streetDirectionId": null,
        "streetTypeId": "ST",
        "placeName": "ORLEANS",
        "streetNameDisplayText": "HAYES ST, ORLEANS"
      }
    ]
  },
  {
    "postal": "K1E1B2",
    "result": [
      {
        "electoralDistricts": [
          {
            "election": null,
            "id": 76,
            "name": "Orléans"
          }
        ],
        "pollDivisionIds": [
          10140440
        ],
        "postalCode": "K1E1B2",
        "streetName": "CEDAR",
        "streetDirectionId": null,
        "streetTypeId": "ST",
        "placeName": "ORLEANS",
        "streetNameDisplayText": "CEDAR ST, ORLEANS"
      }
    ]
  },
  {
    "postal": "K1E0H9",
    "result": []
  },
  {
    "postal": "K1E8M4",
    "result": []
  },
  {
    "postal": "K1E2M5",
    "result": [
      {
        "electoralDistricts": [
          {
            "election": null,
            "id": 76,
            "name": "Orléans"
          }
        ],
        "pollDivisionIds": [
          10140446
        ],
        "postalCode": "K1E2M5",
        "streetName": "HOYLAKE",
        "streetDirectionId": null,
        "streetTypeId": "CRES",
        "placeName": "ORLEANS",
        "streetNameDisplayText": "HOYLAKE CRES, ORLEANS"
      }
    ]
  },
  {
    "postal": "K1E0T9",
    "result": []
  },
  {
    "postal": "K1E3P1",
    "result": []
  },
  {
    "postal": "K1E1R6",
    "result": [
      {
        "electoralDistricts": [
          {
            "election": null,
            "id": 76,
            "name": "Orléans"
          }
        ],
        "pollDivisionIds": [
          10140455
        ],
        "postalCode": "K1E1R6",
        "streetName": "NAGEL",
        "streetDirectionId": null,
        "streetTypeId": "AVE",
        "placeName": "ORLEANS",
        "streetNameDisplayText": "NAGEL AVE, ORLEANS"
      }
    ]
  },
  {
    "postal": "K1E9V5",
    "result": []
  },
  {
    "postal": "K1E9T0",
    "result": []
  },
  {
    "postal": "K1E0A9",
    "result": [
      {
        "electoralDistricts": [
          {
            "election": null,
            "id": 76,
            "name": "Orléans"
          }
        ],
        "pollDivisionIds": [
          10140433
        ],
        "postalCode": "K1E0A9",
        "streetName": "ST JOSEPH",
        "streetDirectionId": null,
        "streetTypeId": "BLVD",
        "placeName": "ORLEANS",
        "streetNameDisplayText": "ST JOSEPH BLVD, ORLEANS"
      },
      {
        "electoralDistricts": [
          {
            "election": null,
            "id": 76,
            "name": "Orléans"
          }
        ],
        "pollDivisionIds": [
          10140433,
          10140441
        ],
        "postalCode": "K1E0A9",
        "streetName": "ST JOSEPH",
        "streetDirectionId": null,
        "streetTypeId": "BLVD",
        "placeName": "ORLÉANS",
        "streetNameDisplayText": "ST JOSEPH BLVD, ORLÉANS"
      }
    ]
  },
  {
    "postal": "K1E1M3",
    "result": [
      {
        "electoralDistricts": [
          {
            "election": null,
            "id": 76,
            "name": "Orléans"
          }
        ],
        "pollDivisionIds": [
          10140441
        ],
        "postalCode": "K1E1M3",
        "streetName": "PRESTONE",
        "streetDirectionId": null,
        "streetTypeId": "DR",
        "placeName": "ORLEANS",
        "streetNameDisplayText": "PRESTONE DR, ORLEANS"
      }
    ]
  },
  {
    "postal": "K1E1W8",
    "result": [
      {
        "electoralDistricts": [
          {
            "election": null,
            "id": 76,
            "name": "Orléans"
          }
        ],
        "pollDivisionIds": [
          10140434
        ],
        "postalCode": "K1E1W8",
        "streetName": "JEANNE D'ARC",
        "streetDirectionId": "N",
        "streetTypeId": "BLVD",
        "placeName": "ORLEANS",
        "streetNameDisplayText": "JEANNE D'ARC BLVD N, ORLEANS"
      }
    ]
  },
  {
    "postal": "K1E9J1",
    "result": []
  },
  {
    "postal": "K1E8N5",
    "result": []
  },
  {
    "postal": "K1E5X1",
    "result": []
  },
  {
    "postal": "K1E6S2",
    "result": []
  },
  {
    "postal": "K1E2A2",
    "result": [
      {
        "electoralDistricts": [
          {
            "election": null,
            "id": 76,
            "name": "Orléans"
          }
        ],
        "pollDivisionIds": [
          10140434
        ],
        "postalCode": "K1E2A2",
        "streetName": "WARBLER",
        "streetDirectionId": null,
        "streetTypeId": "BAY",
        "placeName": "ORLEANS",
        "streetNameDisplayText": "WARBLER BAY, ORLEANS"
      }
    ]
  },
  {
    "postal": "K1E6A6",
    "result": []
  },
  {
    "postal": "K1E0S3",
    "result": []
  },
  {
    "postal": "K1E3E7",
    "result": []
  },
  {
    "postal": "K1E5R7",
    "result": []
  },
  {
    "postal": "K1E3R6",
    "result": [
      {
        "electoralDistricts": [
          {
            "election": null,
            "id": 76,
            "name": "Orléans"
          }
        ],
        "pollDivisionIds": [
          10140455
        ],
        "postalCode": "K1E3R6",
        "streetName": "DANNISTON",
        "streetDirectionId": null,
        "streetTypeId": "CRES",
        "placeName": "ORLEANS",
        "streetNameDisplayText": "DANNISTON CRES, ORLEANS"
      },
      {
        "electoralDistricts": [
          {
            "election": null,
            "id": 76,
            "name": "Orléans"
          }
        ],
        "pollDivisionIds": [
          10140457
        ],
        "postalCode": "K1E3R6",
        "streetName": "WILDFLOWER",
        "streetDirectionId": null,
        "streetTypeId": "DR",
        "placeName": "ORLEANS",
        "streetNameDisplayText": "WILDFLOWER DR, ORLEANS"
      }
    ]
  },
  {
    "postal": "K1E6K4",
    "result": []
  },
  {
    "postal": "K1E2W5",
    "result": [
      {
        "electoralDistricts": [
          {
            "election": null,
            "id": 76,
            "name": "Orléans"
          }
        ],
        "pollDivisionIds": [
          10140441
        ],
        "postalCode": "K1E2W5",
        "streetName": "LEFEBVRE",
        "streetDirectionId": null,
        "streetTypeId": "WAY",
        "placeName": "ORLEANS",
        "streetNameDisplayText": "LEFEBVRE WAY, ORLEANS"
      }
    ]
  },
  {
    "postal": "K1E8W4",
    "result": []
  },
  {
    "postal": "K1E9C2",
    "result": []
  },
  {
    "postal": "K1E2C0",
    "result": []
  },
  {
    "postal": "K1E0E1",
    "result": []
  },
  {
    "postal": "K1E1K9",
    "result": [
      {
        "electoralDistricts": [
          {
            "election": null,
            "id": 76,
            "name": "Orléans"
          }
        ],
        "pollDivisionIds": [
          10140441
        ],
        "postalCode": "K1E1K9",
        "streetName": "BLACKHEATH",
        "streetDirectionId": null,
        "streetTypeId": "ST",
        "placeName": "ORLEANS",
        "streetNameDisplayText": "BLACKHEATH ST, ORLEANS"
      }
    ]
  },
  {
    "postal": "K1E1G7",
    "result": [
      {
        "electoralDistricts": [
          {
            "election": null,
            "id": 76,
            "name": "Orléans"
          }
        ],
        "pollDivisionIds": [
          10140446
        ],
        "postalCode": "K1E1G7",
        "streetName": "KENNEDY",
        "streetDirectionId": "W",
        "streetTypeId": "LANE",
        "placeName": "ORLEANS",
        "streetNameDisplayText": "KENNEDY LANE W, ORLEANS"
      }
    ]
  },
  {
    "postal": "K1E4E9",
    "result": []
  },
  {
    "postal": "K1E9P0",
    "result": []
  },
  {
    "postal": "K1E5H3",
    "result": []
  },
  {
    "postal": "K1E9X6",
    "result": []
  },
  {
    "postal": "K1E5N7",
    "result": []
  },
  {
    "postal": "K1E5A6",
    "result": []
  },
  {
    "postal": "K1E4M0",
    "result": []
  },
  {
    "postal": "K1E3V6",
    "result": [
      {
        "electoralDistricts": [
          {
            "election": null,
            "id": 76,
            "name": "Orléans"
          }
        ],
        "pollDivisionIds": [
          10140455
        ],
        "postalCode": "K1E3V6",
        "streetName": "MIDSUMMER",
        "streetDirectionId": null,
        "streetTypeId": "TERR",
        "placeName": "ORLEANS",
        "streetNameDisplayText": "MIDSUMMER TERR, ORLEANS"
      },
      {
        "electoralDistricts": [
          {
            "election": null,
            "id": 76,
            "name": "Orléans"
          }
        ],
        "pollDivisionIds": [
          10140455
        ],
        "postalCode": "K1E3V6",
        "streetName": "WILDFLOWER",
        "streetDirectionId": null,
        "streetTypeId": "DR",
        "placeName": "ORLEANS",
        "streetNameDisplayText": "WILDFLOWER DR, ORLEANS"
      }
    ]
  },
  {
    "postal": "K1E1L7",
    "result": [
      {
        "electoralDistricts": [
          {
            "election": null,
            "id": 76,
            "name": "Orléans"
          }
        ],
        "pollDivisionIds": [
          10140441
        ],
        "postalCode": "K1E1L7",
        "streetName": "GLENEAGLES",
        "streetDirectionId": null,
        "streetTypeId": "AVE",
        "placeName": "ORLEANS",
        "streetNameDisplayText": "GLENEAGLES AVE, ORLEANS"
      }
    ]
  },
  {
    "postal": "K1E2P9",
    "result": [
      {
        "electoralDistricts": [
          {
            "election": null,
            "id": 76,
            "name": "Orléans"
          }
        ],
        "pollDivisionIds": [
          10140434
        ],
        "postalCode": "K1E2P9",
        "streetName": "JEANNE D'ARC",
        "streetDirectionId": "N",
        "streetTypeId": "BLVD",
        "placeName": "ORLEANS",
        "streetNameDisplayText": "JEANNE D'ARC BLVD N, ORLEANS"
      }
    ]
  },
  {
    "postal": "K1E5T4",
    "result": []
  },
  {
    "postal": "K1E5Z1",
    "result": []
  },
  {
    "postal": "K1E2X0",
    "result": []
  },
  {
    "postal": "K1E6Z2",
    "result": []
  },
  {
    "postal": "K1E0E0",
    "result": []
  },
  {
    "postal": "K1E3Z5",
    "result": []
  },
  {
    "postal": "K1E8H3",
    "result": []
  },
  {
    "postal": "K1E7S6",
    "result": []
  },
  {
    "postal": "K1E4C1",
    "result": []
  },
  {
    "postal": "K1E3K2",
    "result": [
      {
        "electoralDistricts": [
          {
            "election": null,
            "id": 76,
            "name": "Orléans"
          }
        ],
        "pollDivisionIds": [
          10140446
        ],
        "postalCode": "K1E3K2",
        "streetName": "MCEACHERN",
        "streetDirectionId": null,
        "streetTypeId": "CRES",
        "placeName": "ORLEANS",
        "streetNameDisplayText": "MCEACHERN CRES, ORLEANS"
      }
    ]
  },
  {
    "postal": "K1E1Y5",
    "result": [
      {
        "electoralDistricts": [
          {
            "election": null,
            "id": 76,
            "name": "Orléans"
          }
        ],
        "pollDivisionIds": [
          10140434
        ],
        "postalCode": "K1E1Y5",
        "streetName": "LAWNSBERRY",
        "streetDirectionId": null,
        "streetTypeId": "DR",
        "placeName": "ORLEANS",
        "streetNameDisplayText": "LAWNSBERRY DR, ORLEANS"
      }
    ]
  },
  {
    "postal": "K1E6P6",
    "result": []
  },
  {
    "postal": "K1E3N9",
    "result": [
      {
        "electoralDistricts": [
          {
            "election": null,
            "id": 76,
            "name": "Orléans"
          }
        ],
        "pollDivisionIds": [
          10140441
        ],
        "postalCode": "K1E3N9",
        "streetName": "MONICA",
        "streetDirectionId": null,
        "streetTypeId": "CRES",
        "placeName": "ORLEANS",
        "streetNameDisplayText": "MONICA CRES, ORLEANS"
      }
    ]
  },
  {
    "postal": "K1E3W2",
    "result": [
      {
        "electoralDistricts": [
          {
            "election": null,
            "id": 76,
            "name": "Orléans"
          }
        ],
        "pollDivisionIds": [
          10140433
        ],
        "postalCode": "K1E3W2",
        "streetName": "CENTRUM",
        "streetDirectionId": null,
        "streetTypeId": "BLVD",
        "placeName": "ORLEANS",
        "streetNameDisplayText": "CENTRUM BLVD, ORLEANS"
      },
      {
        "electoralDistricts": [
          {
            "election": null,
            "id": 76,
            "name": "Orléans"
          }
        ],
        "pollDivisionIds": [
          10140433
        ],
        "postalCode": "K1E3W2",
        "streetName": "CENTRUM",
        "streetDirectionId": null,
        "streetTypeId": "BLVD",
        "placeName": "ORLÉANS",
        "streetNameDisplayText": "CENTRUM BLVD, ORLÉANS"
      }
    ]
  },
  {
    "postal": "K1E6H8",
    "result": []
  },
  {
    "postal": "K1E9T3",
    "result": []
  },
  {
    "postal": "K1E5L9",
    "result": []
  },
  {
    "postal": "K1E7X7",
    "result": []
  },
  {
    "postal": "K1E3J5",
    "result": [
      {
        "electoralDistricts": [
          {
            "election": null,
            "id": 76,
            "name": "Orléans"
          }
        ],
        "pollDivisionIds": [
          10140446
        ],
        "postalCode": "K1E3J5",
        "streetName": "BOURCIER",
        "streetDirectionId": null,
        "streetTypeId": "DR",
        "placeName": "ORLEANS",
        "streetNameDisplayText": "BOURCIER DR, ORLEANS"
      }
    ]
  },
  {
    "postal": "K1E4J5",
    "result": []
  },
  {
    "postal": "K1E6J2",
    "result": []
  },
  {
    "postal": "K1E5V6",
    "result": []
  },
  {
    "postal": "K1E3N2",
    "result": [
      {
        "electoralDistricts": [
          {
            "election": null,
            "id": 76,
            "name": "Orléans"
          }
        ],
        "pollDivisionIds": [
          10140441
        ],
        "postalCode": "K1E3N2",
        "streetName": "RIVER RIDGE",
        "streetDirectionId": null,
        "streetTypeId": "CRES",
        "placeName": "ORLEANS",
        "streetNameDisplayText": "RIVER RIDGE CRES, ORLEANS"
      }
    ]
  },
  {
    "postal": "K1E3B1",
    "result": []
  },
  {
    "postal": "K1E8B5",
    "result": []
  },
  {
    "postal": "K1E0K1",
    "result": []
  },
  {
    "postal": "K1E7M7",
    "result": []
  },
  {
    "postal": "K1E2M2",
    "result": [
      {
        "electoralDistricts": [
          {
            "election": null,
            "id": 76,
            "name": "Orléans"
          }
        ],
        "pollDivisionIds": [
          10140446
        ],
        "postalCode": "K1E2M2",
        "streetName": "DUFORD",
        "streetDirectionId": null,
        "streetTypeId": "DR",
        "placeName": "ORLEANS",
        "streetNameDisplayText": "DUFORD DR, ORLEANS"
      }
    ]
  },
  {
    "postal": "K1E9N3",
    "result": []
  },
  {
    "postal": "K1E4Y8",
    "result": []
  },
  {
    "postal": "K1E3V7",
    "result": [
      {
        "electoralDistricts": [
          {
            "election": null,
            "id": 76,
            "name": "Orléans"
          }
        ],
        "pollDivisionIds": [
          10140433
        ],
        "postalCode": "K1E3V7",
        "streetName": "CENTRUM",
        "streetDirectionId": null,
        "streetTypeId": "BLVD",
        "placeName": "ORLEANS",
        "streetNameDisplayText": "CENTRUM BLVD, ORLEANS"
      }
    ]
  },
  {
    "postal": "K1E8Z1",
    "result": []
  },
  {
    "postal": "K1E7B3",
    "result": []
  },
  {
    "postal": "K1E3A8",
    "result": []
  },
  {
    "postal": "K1E7V5",
    "result": []
  },
  {
    "postal": "K1E2T2",
    "result": [
      {
        "electoralDistricts": [
          {
            "election": null,
            "id": 76,
            "name": "Orléans"
          }
        ],
        "pollDivisionIds": [
          10140440
        ],
        "postalCode": "K1E2T2",
        "streetName": "JUNIPER",
        "streetDirectionId": null,
        "streetTypeId": "ST",
        "placeName": "ORLEANS",
        "streetNameDisplayText": "JUNIPER ST, ORLEANS"
      }
    ]
  },
  {
    "postal": "K1E6L3",
    "result": []
  },
  {
    "postal": "K1E0L2",
    "result": []
  },
  {
    "postal": "K1E5Y8",
    "result": []
  },
  {
    "postal": "K1E0B8",
    "result": []
  },
  {
    "postal": "K1E6R5",
    "result": []
  },
  {
    "postal": "K1E8W6",
    "result": []
  },
  {
    "postal": "K1E8G6",
    "result": []
  },
  {
    "postal": "K1E6X3",
    "result": []
  },
  {
    "postal": "K1E7R7",
    "result": []
  },
  {
    "postal": "K1E4B6",
    "result": []
  },
  {
    "postal": "K1E3P9",
    "result": [
      {
        "electoralDistricts": [
          {
            "election": null,
            "id": 76,
            "name": "Orléans"
          }
        ],
        "pollDivisionIds": [
          10140457
        ],
        "postalCode": "K1E3P9",
        "streetName": "LEGRAND",
        "streetDirectionId": null,
        "streetTypeId": "CRES",
        "placeName": "ORLEANS",
        "streetNameDisplayText": "LEGRAND CRES, ORLEANS"
      }
    ]
  },
  {
    "postal": "K1E2T3",
    "result": [
      {
        "electoralDistricts": [
          {
            "election": null,
            "id": 76,
            "name": "Orléans"
          }
        ],
        "pollDivisionIds": [
          10140454
        ],
        "postalCode": "K1E2T3",
        "streetName": "PRESTWICK",
        "streetDirectionId": null,
        "streetTypeId": "DR",
        "placeName": "ORLEANS",
        "streetNameDisplayText": "PRESTWICK DR, ORLEANS"
      }
    ]
  },
  {
    "postal": "K1E1M4",
    "result": [
      {
        "electoralDistricts": [
          {
            "election": null,
            "id": 76,
            "name": "Orléans"
          }
        ],
        "pollDivisionIds": [
          10140446
        ],
        "postalCode": "K1E1M4",
        "streetName": "PRESTONE",
        "streetDirectionId": null,
        "streetTypeId": "DR",
        "placeName": "ORLEANS",
        "streetNameDisplayText": "PRESTONE DR, ORLEANS"
      }
    ]
  },
  {
    "postal": "K1E0H1",
    "result": []
  },
  {
    "postal": "K1E9W3",
    "result": []
  },
  {
    "postal": "K1E6P1",
    "result": []
  },
  {
    "postal": "K1E7G2",
    "result": []
  },
  {
    "postal": "K1E4J9",
    "result": []
  },
  {
    "postal": "K1E9E4",
    "result": []
  },
  {
    "postal": "K1E8H0",
    "result": []
  },
  {
    "postal": "K1E4M7",
    "result": []
  },
  {
    "postal": "K1E2G9",
    "result": [
      {
        "electoralDistricts": [
          {
            "election": null,
            "id": 76,
            "name": "Orléans"
          }
        ],
        "pollDivisionIds": [
          10140454
        ],
        "postalCode": "K1E2G9",
        "streetName": "PRESTWICK",
        "streetDirectionId": null,
        "streetTypeId": "DR",
        "placeName": "ORLEANS",
        "streetNameDisplayText": "PRESTWICK DR, ORLEANS"
      }
    ]
  },
  {
    "postal": "K1E8T2",
    "result": []
  },
  {
    "postal": "K1E7G7",
    "result": []
  },
  {
    "postal": "K1E4Z3",
    "result": []
  },
  {
    "postal": "K1E5B3",
    "result": []
  },
  {
    "postal": "K1E1S7",
    "result": [
      {
        "electoralDistricts": [
          {
            "election": null,
            "id": 76,
            "name": "Orléans"
          }
        ],
        "pollDivisionIds": [
          10140454
        ],
        "postalCode": "K1E1S7",
        "streetName": "PAYETTE",
        "streetDirectionId": null,
        "streetTypeId": "DR",
        "placeName": "ORLEANS",
        "streetNameDisplayText": "PAYETTE DR, ORLEANS"
      }
    ]
  },
  {
    "postal": "K1E2N7",
    "result": [
      {
        "electoralDistricts": [
          {
            "election": null,
            "id": 76,
            "name": "Orléans"
          }
        ],
        "pollDivisionIds": [
          10140454
        ],
        "postalCode": "K1E2N7",
        "streetName": "DUVERNAY",
        "streetDirectionId": null,
        "streetTypeId": "DR",
        "placeName": "ORLEANS",
        "streetNameDisplayText": "DUVERNAY DR, ORLEANS"
      }
    ]
  },
  {
    "postal": "K1E0H8",
    "result": []
  },
  {
    "postal": "K1E7Z4",
    "result": []
  },
  {
    "postal": "K1E7B1",
    "result": []
  },
  {
    "postal": "K1E7P8",
    "result": []
  },
  {
    "postal": "K1E7N0",
    "result": []
  },
  {
    "postal": "K1E3Y5",
    "result": []
  },
  {
    "postal": "K1E6K1",
    "result": []
  },
  {
    "postal": "K1E9X5",
    "result": []
  },
  {
    "postal": "K1E7S5",
    "result": []
  },
  {
    "postal": "K1E0A4",
    "result": []
  },
  {
    "postal": "K1E4T5",
    "result": []
  },
  {
    "postal": "K1E5K1",
    "result": []
  },
  {
    "postal": "K1E0Z9",
    "result": []
  },
  {
    "postal": "K1E7T2",
    "result": []
  },
  {
    "postal": "K1E1L5",
    "result": [
      {
        "electoralDistricts": [
          {
            "election": null,
            "id": 76,
            "name": "Orléans"
          }
        ],
        "pollDivisionIds": [
          10140446
        ],
        "postalCode": "K1E1L5",
        "streetName": "QUEENSWOOD",
        "streetDirectionId": null,
        "streetTypeId": "CRES",
        "placeName": "ORLEANS",
        "streetNameDisplayText": "QUEENSWOOD CRES, ORLEANS"
      }
    ]
  },
  {
    "postal": "K1E3N5",
    "result": [
      {
        "electoralDistricts": [
          {
            "election": null,
            "id": 76,
            "name": "Orléans"
          }
        ],
        "pollDivisionIds": [
          10140441
        ],
        "postalCode": "K1E3N5",
        "streetName": "MONICA",
        "streetDirectionId": null,
        "streetTypeId": "CRES",
        "placeName": "ORLEANS",
        "streetNameDisplayText": "MONICA CRES, ORLEANS"
      }
    ]
  },
  {
    "postal": "K1E6H4",
    "result": []
  },
  {
    "postal": "K1E5A5",
    "result": []
  },
  {
    "postal": "K1E3R9",
    "result": [
      {
        "electoralDistricts": [
          {
            "election": null,
            "id": 76,
            "name": "Orléans"
          }
        ],
        "pollDivisionIds": [
          10140455
        ],
        "postalCode": "K1E3R9",
        "streetName": "LECLAIR",
        "streetDirectionId": null,
        "streetTypeId": "CRES",
        "placeName": "ORLEANS",
        "streetNameDisplayText": "LECLAIR CRES, ORLEANS"
      }
    ]
  },
  {
    "postal": "K1E7L8",
    "result": []
  },
  {
    "postal": "K1E6T6",
    "result": []
  },
  {
    "postal": "K1E7Y7",
    "result": []
  },
  {
    "postal": "K1E3M8",
    "result": [
      {
        "electoralDistricts": [
          {
            "election": null,
            "id": 76,
            "name": "Orléans"
          }
        ],
        "pollDivisionIds": [
          10140446
        ],
        "postalCode": "K1E3M8",
        "streetName": "HAYES",
        "streetDirectionId": null,
        "streetTypeId": "ST",
        "placeName": "ORLEANS",
        "streetNameDisplayText": "HAYES ST, ORLEANS"
      },
      {
        "electoralDistricts": [
          {
            "election": null,
            "id": 76,
            "name": "Orléans"
          }
        ],
        "pollDivisionIds": [
          10140446
        ],
        "postalCode": "K1E3M8",
        "streetName": "TOMPKINS",
        "streetDirectionId": null,
        "streetTypeId": "AVE",
        "placeName": "ORLEANS",
        "streetNameDisplayText": "TOMPKINS AVE, ORLEANS"
      }
    ]
  },
  {
    "postal": "K1E2E0",
    "result": []
  },
  {
    "postal": "K1E4B5",
    "result": []
  },
  {
    "postal": "K1E1J3",
    "result": [
      {
        "electoralDistricts": [
          {
            "election": null,
            "id": 76,
            "name": "Orléans"
          }
        ],
        "pollDivisionIds": [
          10140446
        ],
        "postalCode": "K1E1J3",
        "streetName": "TOULON",
        "streetDirectionId": null,
        "streetTypeId": "ST",
        "placeName": "ORLEANS",
        "streetNameDisplayText": "TOULON ST, ORLEANS"
      }
    ]
  },
  {
    "postal": "K1E5S6",
    "result": []
  },
  {
    "postal": "K1E8P7",
    "result": []
  },
  {
    "postal": "K1E7S7",
    "result": []
  },
  {
    "postal": "K1E4C2",
    "result": []
  },
  {
    "postal": "K1E5Y0",
    "result": []
  },
  {
    "postal": "K1E2V7",
    "result": [
      {
        "electoralDistricts": [
          {
            "election": null,
            "id": 76,
            "name": "Orléans"
          }
        ],
        "pollDivisionIds": [
          10140455
        ],
        "postalCode": "K1E2V7",
        "streetName": "ANGLEHART",
        "streetDirectionId": null,
        "streetTypeId": "AVE",
        "placeName": "ORLEANS",
        "streetNameDisplayText": "ANGLEHART AVE, ORLEANS"
      }
    ]
  },
  {
    "postal": "K1E8P5",
    "result": []
  },
  {
    "postal": "K1E5P5",
    "result": []
  },
  {
    "postal": "K1E5Z0",
    "result": []
  },
  {
    "postal": "K1E9B0",
    "result": []
  },
  {
    "postal": "K1E1L0",
    "result": []
  },
  {
    "postal": "K1E0B5",
    "result": [
      {
        "electoralDistricts": [
          {
            "election": null,
            "id": 76,
            "name": "Orléans"
          }
        ],
        "pollDivisionIds": [
          10140433
        ],
        "postalCode": "K1E0B5",
        "streetName": "RECOLTE",
        "streetDirectionId": null,
        "streetTypeId": "PVT",
        "placeName": "ORLEANS",
        "streetNameDisplayText": "RECOLTE PVT, ORLEANS"
      },
      {
        "electoralDistricts": [
          {
            "election": null,
            "id": 76,
            "name": "Orléans"
          }
        ],
        "pollDivisionIds": [
          10140433
        ],
        "postalCode": "K1E0B5",
        "streetName": "RECOLTE",
        "streetDirectionId": null,
        "streetTypeId": "PVT",
        "placeName": "ORLÉANS",
        "streetNameDisplayText": "RECOLTE PVT, ORLÉANS"
      }
    ]
  },
  {
    "postal": "K1E3L2",
    "result": [
      {
        "electoralDistricts": [
          {
            "election": null,
            "id": 76,
            "name": "Orléans"
          }
        ],
        "pollDivisionIds": [
          10140446
        ],
        "postalCode": "K1E3L2",
        "streetName": "BOURCIER",
        "streetDirectionId": null,
        "streetTypeId": "DR",
        "placeName": "ORLEANS",
        "streetNameDisplayText": "BOURCIER DR, ORLEANS"
      },
      {
        "electoralDistricts": [
          {
            "election": null,
            "id": 76,
            "name": "Orléans"
          }
        ],
        "pollDivisionIds": [
          10140446
        ],
        "postalCode": "K1E3L2",
        "streetName": "BOUTON D'OR",
        "streetDirectionId": null,
        "streetTypeId": "WAY",
        "placeName": "ORLEANS",
        "streetNameDisplayText": "BOUTON D'OR WAY, ORLEANS"
      }
    ]
  },
  {
    "postal": "K1E3B7",
    "result": []
  },
  {
    "postal": "K1E8L1",
    "result": []
  },
  {
    "postal": "K1E5M4",
    "result": []
  },
  {
    "postal": "K1E4G9",
    "result": []
  },
  {
    "postal": "K1E0P0",
    "result": []
  },
  {
    "postal": "K1E8G2",
    "result": []
  },
  {
    "postal": "K1E1V9",
    "result": [
      {
        "electoralDistricts": [
          {
            "election": null,
            "id": 76,
            "name": "Orléans"
          }
        ],
        "pollDivisionIds": [
          10140454
        ],
        "postalCode": "K1E1V9",
        "streetName": "LEANNE",
        "streetDirectionId": null,
        "streetTypeId": "ST",
        "placeName": "ORLEANS",
        "streetNameDisplayText": "LEANNE ST, ORLEANS"
      }
    ]
  },
  {
    "postal": "K1E8N8",
    "result": []
  },
  {
    "postal": "K1E6S8",
    "result": []
  },
  {
    "postal": "K1E8H2",
    "result": []
  },
  {
    "postal": "K1E5R8",
    "result": []
  },
  {
    "postal": "K1E5L4",
    "result": []
  },
  {
    "postal": "K1E9E1",
    "result": []
  },
  {
    "postal": "K1E1C4",
    "result": [
      {
        "electoralDistricts": [
          {
            "election": null,
            "id": 76,
            "name": "Orléans"
          }
        ],
        "pollDivisionIds": [
          10140440
        ],
        "postalCode": "K1E1C4",
        "streetName": "WILLOW",
        "streetDirectionId": null,
        "streetTypeId": "AVE",
        "placeName": "ORLEANS",
        "streetNameDisplayText": "WILLOW AVE, ORLEANS"
      }
    ]
  },
  {
    "postal": "K1E8W5",
    "result": []
  },
  {
    "postal": "K1E1Y4",
    "result": [
      {
        "electoralDistricts": [
          {
            "election": null,
            "id": 76,
            "name": "Orléans"
          }
        ],
        "pollDivisionIds": [
          10140434
        ],
        "postalCode": "K1E1Y4",
        "streetName": "LAWNSBERRY",
        "streetDirectionId": null,
        "streetTypeId": "DR",
        "placeName": "ORLEANS",
        "streetNameDisplayText": "LAWNSBERRY DR, ORLEANS"
      }
    ]
  },
  {
    "postal": "K1E1C0",
    "result": []
  },
  {
    "postal": "K1E2J2",
    "result": [
      {
        "electoralDistricts": [
          {
            "election": null,
            "id": 76,
            "name": "Orléans"
          }
        ],
        "pollDivisionIds": [
          10140455
        ],
        "postalCode": "K1E2J2",
        "streetName": "ST GEORGES",
        "streetDirectionId": null,
        "streetTypeId": "ST",
        "placeName": "ORLEANS",
        "streetNameDisplayText": "ST GEORGES ST, ORLEANS"
      }
    ]
  },
  {
    "postal": "K1E2J0",
    "result": []
  },
  {
    "postal": "K1E7A3",
    "result": []
  },
  {
    "postal": "K1E8M1",
    "result": []
  },
  {
    "postal": "K1E7T9",
    "result": []
  },
  {
    "postal": "K1E6C0",
    "result": []
  },
  {
    "postal": "K1E7X1",
    "result": []
  },
  {
    "postal": "K1E0G1",
    "result": []
  },
  {
    "postal": "K1E4X2",
    "result": []
  },
  {
    "postal": "K1E0N6",
    "result": []
  },
  {
    "postal": "K1E8E3",
    "result": []
  },
  {
    "postal": "K1E5S8",
    "result": []
  },
  {
    "postal": "K1E0R0",
    "result": []
  },
  {
    "postal": "K1E6J6",
    "result": []
  },
  {
    "postal": "K1E4B4",
    "result": []
  },
  {
    "postal": "K1E7E3",
    "result": []
  },
  {
    "postal": "K1E3N6",
    "result": [
      {
        "electoralDistricts": [
          {
            "election": null,
            "id": 76,
            "name": "Orléans"
          }
        ],
        "pollDivisionIds": [
          10140441
        ],
        "postalCode": "K1E3N6",
        "streetName": "MONICA",
        "streetDirectionId": null,
        "streetTypeId": "CRES",
        "placeName": "ORLEANS",
        "streetNameDisplayText": "MONICA CRES, ORLEANS"
      }
    ]
  },
  {
    "postal": "K1E3X6",
    "result": [
      {
        "electoralDistricts": [
          {
            "election": null,
            "id": 76,
            "name": "Orléans"
          }
        ],
        "pollDivisionIds": [
          10140441
        ],
        "postalCode": "K1E3X6",
        "streetName": "PRESTONE",
        "streetDirectionId": null,
        "streetTypeId": "DR",
        "placeName": "ORLEANS",
        "streetNameDisplayText": "PRESTONE DR, ORLEANS"
      }
    ]
  },
  {
    "postal": "K1E8L0",
    "result": []
  },
  {
    "postal": "K1E8N1",
    "result": []
  },
  {
    "postal": "K1E4J0",
    "result": []
  },
  {
    "postal": "K1E0X7",
    "result": []
  },
  {
    "postal": "K1E6S4",
    "result": []
  },
  {
    "postal": "K1E0Z0",
    "result": []
  },
  {
    "postal": "K1E9X8",
    "result": []
  },
  {
    "postal": "K1E3H3",
    "result": [
      {
        "electoralDistricts": [
          {
            "election": null,
            "id": 76,
            "name": "Orléans"
          }
        ],
        "pollDivisionIds": [
          10140441
        ],
        "postalCode": "K1E3H3",
        "streetName": "LAURIN",
        "streetDirectionId": null,
        "streetTypeId": "CRES",
        "placeName": "ORLEANS",
        "streetNameDisplayText": "LAURIN CRES, ORLEANS"
      }
    ]
  },
  {
    "postal": "K1E7S2",
    "result": []
  },
  {
    "postal": "K1E3T3",
    "result": [
      {
        "electoralDistricts": [
          {
            "election": null,
            "id": 76,
            "name": "Orléans"
          }
        ],
        "pollDivisionIds": [
          10140457
        ],
        "postalCode": "K1E3T3",
        "streetName": "LEGRAND",
        "streetDirectionId": null,
        "streetTypeId": "CRES",
        "placeName": "ORLEANS",
        "streetNameDisplayText": "LEGRAND CRES, ORLEANS"
      }
    ]
  },
  {
    "postal": "K1E9P3",
    "result": []
  },
  {
    "postal": "K1E4H8",
    "result": []
  },
  {
    "postal": "K1E6R1",
    "result": []
  },
  {
    "postal": "K1E1S0",
    "result": []
  },
  {
    "postal": "K1E3W8",
    "result": [
      {
        "electoralDistricts": [
          {
            "election": null,
            "id": 76,
            "name": "Orléans"
          }
        ],
        "pollDivisionIds": [
          10140433
        ],
        "postalCode": "K1E3W8",
        "streetName": "CENTRUM",
        "streetDirectionId": null,
        "streetTypeId": "BLVD",
        "placeName": "ORLEANS",
        "streetNameDisplayText": "CENTRUM BLVD, ORLEANS"
      },
      {
        "electoralDistricts": [
          {
            "election": null,
            "id": 76,
            "name": "Orléans"
          }
        ],
        "pollDivisionIds": [
          10140433
        ],
        "postalCode": "K1E3W8",
        "streetName": "CENTRUM",
        "streetDirectionId": null,
        "streetTypeId": "BLVD",
        "placeName": "ORLÉANS",
        "streetNameDisplayText": "CENTRUM BLVD, ORLÉANS"
      }
    ]
  },
  {
    "postal": "K1E4S3",
    "result": []
  },
  {
    "postal": "K1E1B6",
    "result": [
      {
        "electoralDistricts": [
          {
            "election": null,
            "id": 76,
            "name": "Orléans"
          }
        ],
        "pollDivisionIds": [
          10140440
        ],
        "postalCode": "K1E1B6",
        "streetName": "BALSAM",
        "streetDirectionId": null,
        "streetTypeId": "DR",
        "placeName": "ORLEANS",
        "streetNameDisplayText": "BALSAM DR, ORLEANS"
      }
    ]
  },
  {
    "postal": "K1E8R3",
    "result": []
  },
  {
    "postal": "K1E4V9",
    "result": []
  },
  {
    "postal": "K1E9W4",
    "result": []
  },
  {
    "postal": "K1E3T4",
    "result": [
      {
        "electoralDistricts": [
          {
            "election": null,
            "id": 76,
            "name": "Orléans"
          }
        ],
        "pollDivisionIds": [
          10140457
        ],
        "postalCode": "K1E3T4",
        "streetName": "LEGRAND",
        "streetDirectionId": null,
        "streetTypeId": "CRES",
        "placeName": "ORLEANS",
        "streetNameDisplayText": "LEGRAND CRES, ORLEANS"
      },
      {
        "electoralDistricts": [
          {
            "election": null,
            "id": 76,
            "name": "Orléans"
          }
        ],
        "pollDivisionIds": [
          10140457
        ],
        "postalCode": "K1E3T4",
        "streetName": "WENDLER",
        "streetDirectionId": null,
        "streetTypeId": "TERR",
        "placeName": "ORLEANS",
        "streetNameDisplayText": "WENDLER TERR, ORLEANS"
      }
    ]
  },
  {
    "postal": "K1E5C7",
    "result": []
  },
  {
    "postal": "K1E3Y1",
    "result": [
      {
        "electoralDistricts": [
          {
            "election": null,
            "id": 76,
            "name": "Orléans"
          }
        ],
        "pollDivisionIds": [
          10140457
        ],
        "postalCode": "K1E3Y1",
        "streetName": "CHAPELIER",
        "streetDirectionId": null,
        "streetTypeId": "PVT",
        "placeName": "ORLEANS",
        "streetNameDisplayText": "CHAPELIER PVT, ORLEANS"
      }
    ]
  },
  {
    "postal": "K1E5V0",
    "result": []
  },
  {
    "postal": "K1E8G8",
    "result": []
  },
  {
    "postal": "K1E8B1",
    "result": []
  },
  {
    "postal": "K1E4P5",
    "result": []
  },
  {
    "postal": "K1E7B2",
    "result": []
  },
  {
    "postal": "K1E0R2",
    "result": []
  },
  {
    "postal": "K1E4M4",
    "result": []
  },
  {
    "postal": "K1E7M4",
    "result": []
  },
  {
    "postal": "K1E9S7",
    "result": []
  },
  {
    "postal": "K1E5Z7",
    "result": []
  },
  {
    "postal": "K1E7J7",
    "result": []
  },
  {
    "postal": "K1E8R8",
    "result": []
  },
  {
    "postal": "K1E9X1",
    "result": []
  },
  {
    "postal": "K1E5M9",
    "result": []
  },
  {
    "postal": "K1E9B4",
    "result": []
  },
  {
    "postal": "K1E0L9",
    "result": []
  },
  {
    "postal": "K1E9G4",
    "result": []
  },
  {
    "postal": "K1E1J4",
    "result": [
      {
        "electoralDistricts": [
          {
            "election": null,
            "id": 76,
            "name": "Orléans"
          }
        ],
        "pollDivisionIds": [
          10140446
        ],
        "postalCode": "K1E1J4",
        "streetName": "JAMISON",
        "streetDirectionId": null,
        "streetTypeId": "AVE",
        "placeName": "ORLEANS",
        "streetNameDisplayText": "JAMISON AVE, ORLEANS"
      }
    ]
  },
  {
    "postal": "K1E0W6",
    "result": []
  },
  {
    "postal": "K1E4C5",
    "result": []
  },
  {
    "postal": "K1E7E4",
    "result": []
  },
  {
    "postal": "K1E1R9",
    "result": [
      {
        "electoralDistricts": [
          {
            "election": null,
            "id": 76,
            "name": "Orléans"
          }
        ],
        "pollDivisionIds": [
          10140455
        ],
        "postalCode": "K1E1R9",
        "streetName": "VISA",
        "streetDirectionId": null,
        "streetTypeId": "CRT",
        "placeName": "ORLEANS",
        "streetNameDisplayText": "VISA CRT, ORLEANS"
      }
    ]
  },
  {
    "postal": "K1E2P0",
    "result": []
  },
  {
    "postal": "K1E5S4",
    "result": []
  },
  {
    "postal": "K1E5K8",
    "result": []
  },
  {
    "postal": "K1E8K4",
    "result": []
  },
  {
    "postal": "K1E7C1",
    "result": []
  },
  {
    "postal": "K1E7K9",
    "result": []
  },
  {
    "postal": "K1E5J1",
    "result": []
  },
  {
    "postal": "K1E4P9",
    "result": []
  },
  {
    "postal": "K1E0N2",
    "result": []
  },
  {
    "postal": "K1E2G6",
    "result": [
      {
        "electoralDistricts": [
          {
            "election": null,
            "id": 76,
            "name": "Orléans"
          }
        ],
        "pollDivisionIds": [
          10140454
        ],
        "postalCode": "K1E2G6",
        "streetName": "PRESTWICK",
        "streetDirectionId": null,
        "streetTypeId": "DR",
        "placeName": "ORLEANS",
        "streetNameDisplayText": "PRESTWICK DR, ORLEANS"
      }
    ]
  },
  {
    "postal": "K1E6P4",
    "result": []
  },
  {
    "postal": "K1E3J0",
    "result": []
  },
  {
    "postal": "K1E8X4",
    "result": []
  },
  {
    "postal": "K1E1Y3",
    "result": [
      {
        "electoralDistricts": [
          {
            "election": null,
            "id": 76,
            "name": "Orléans"
          }
        ],
        "pollDivisionIds": [
          10140434
        ],
        "postalCode": "K1E1Y3",
        "streetName": "LAWNSBERRY",
        "streetDirectionId": null,
        "streetTypeId": "DR",
        "placeName": "ORLEANS",
        "streetNameDisplayText": "LAWNSBERRY DR, ORLEANS"
      }
    ]
  },
  {
    "postal": "K1E1A8",
    "result": [
      {
        "electoralDistricts": [
          {
            "election": null,
            "id": 76,
            "name": "Orléans"
          }
        ],
        "pollDivisionIds": [
          10140440
        ],
        "postalCode": "K1E1A8",
        "streetName": "JEANNE D'ARC",
        "streetDirectionId": "N",
        "streetTypeId": "BLVD",
        "placeName": "ORLEANS",
        "streetNameDisplayText": "JEANNE D'ARC BLVD N, ORLEANS"
      }
    ]
  },
  {
    "postal": "K1E6Y5",
    "result": []
  },
  {
    "postal": "K1E0J6",
    "result": []
  },
  {
    "postal": "K1E2C9",
    "result": [
      {
        "electoralDistricts": [
          {
            "election": null,
            "id": 76,
            "name": "Orléans"
          }
        ],
        "pollDivisionIds": [
          10140434
        ],
        "postalCode": "K1E2C9",
        "streetName": "MILLROAD",
        "streetDirectionId": null,
        "streetTypeId": "WAY",
        "placeName": "ORLEANS",
        "streetNameDisplayText": "MILLROAD WAY, ORLEANS"
      }
    ]
  },
  {
    "postal": "K1E8J6",
    "result": []
  },
  {
    "postal": "K1E8T4",
    "result": []
  },
  {
    "postal": "K1E1P7",
    "result": [
      {
        "electoralDistricts": [
          {
            "election": null,
            "id": 76,
            "name": "Orléans"
          }
        ],
        "pollDivisionIds": [
          10140441
        ],
        "postalCode": "K1E1P7",
        "streetName": "ST GEORGES",
        "streetDirectionId": null,
        "streetTypeId": "ST",
        "placeName": "ORLEANS",
        "streetNameDisplayText": "ST GEORGES ST, ORLEANS"
      },
      {
        "electoralDistricts": [
          {
            "election": null,
            "id": 76,
            "name": "Orléans"
          }
        ],
        "pollDivisionIds": [
          10140441
        ],
        "postalCode": "K1E1P7",
        "streetName": "ST. GEORGES",
        "streetDirectionId": null,
        "streetTypeId": "ST",
        "placeName": "ORLEANS",
        "streetNameDisplayText": "ST. GEORGES ST, ORLEANS"
      }
    ]
  },
  {
    "postal": "K1E9V9",
    "result": []
  },
  {
    "postal": "K1E0M1",
    "result": []
  },
  {
    "postal": "K1E6K5",
    "result": []
  },
  {
    "postal": "K1E2T5",
    "result": [
      {
        "electoralDistricts": [
          {
            "election": null,
            "id": 76,
            "name": "Orléans"
          }
        ],
        "pollDivisionIds": [
          10140454
        ],
        "postalCode": "K1E2T5",
        "streetName": "DES PINS",
        "streetDirectionId": null,
        "streetTypeId": "PL",
        "placeName": "ORLEANS",
        "streetNameDisplayText": "DES PINS PL, ORLEANS"
      }
    ]
  },
  {
    "postal": "K1E7E9",
    "result": []
  },
  {
    "postal": "K1E5K5",
    "result": []
  },
  {
    "postal": "K1E3R5",
    "result": [
      {
        "electoralDistricts": [
          {
            "election": null,
            "id": 76,
            "name": "Orléans"
          }
        ],
        "pollDivisionIds": [
          10140457
        ],
        "postalCode": "K1E3R5",
        "streetName": "WILDFLOWER",
        "streetDirectionId": null,
        "streetTypeId": "DR",
        "placeName": "ORLEANS",
        "streetNameDisplayText": "WILDFLOWER DR, ORLEANS"
      }
    ]
  },
  {
    "postal": "K1E5B1",
    "result": []
  },
  {
    "postal": "K1E2P1",
    "result": [
      {
        "electoralDistricts": [
          {
            "election": null,
            "id": 76,
            "name": "Orléans"
          }
        ],
        "pollDivisionIds": [
          10140455
        ],
        "postalCode": "K1E2P1",
        "streetName": "DES EPINETTES",
        "streetDirectionId": null,
        "streetTypeId": "AVE",
        "placeName": "ORLEANS",
        "streetNameDisplayText": "DES EPINETTES AVE, ORLEANS"
      }
    ]
  },
  {
    "postal": "K1E7L0",
    "result": []
  },
  {
    "postal": "K1E3L6",
    "result": [
      {
        "electoralDistricts": [
          {
            "election": null,
            "id": 76,
            "name": "Orléans"
          }
        ],
        "pollDivisionIds": [
          10140441
        ],
        "postalCode": "K1E3L6",
        "streetName": "FITZPATRICK",
        "streetDirectionId": null,
        "streetTypeId": "ST",
        "placeName": "ORLEANS",
        "streetNameDisplayText": "FITZPATRICK ST, ORLEANS"
      }
    ]
  },
  {
    "postal": "K1E2A4",
    "result": [
      {
        "electoralDistricts": [
          {
            "election": null,
            "id": 76,
            "name": "Orléans"
          }
        ],
        "pollDivisionIds": [
          10140434
        ],
        "postalCode": "K1E2A4",
        "streetName": "MOCKINGBIRD",
        "streetDirectionId": null,
        "streetTypeId": "DR",
        "placeName": "ORLEANS",
        "streetNameDisplayText": "MOCKINGBIRD DR, ORLEANS"
      }
    ]
  },
  {
    "postal": "K1E8S0",
    "result": []
  },
  {
    "postal": "K1E3L5",
    "result": [
      {
        "electoralDistricts": [
          {
            "election": null,
            "id": 76,
            "name": "Orléans"
          }
        ],
        "pollDivisionIds": [
          10140441
        ],
        "postalCode": "K1E3L5",
        "streetName": "COTE ROYALE",
        "streetDirectionId": null,
        "streetTypeId": "CRES",
        "placeName": "ORLEANS",
        "streetNameDisplayText": "COTE ROYALE CRES, ORLEANS"
      }
    ]
  },
  {
    "postal": "K1E2R5",
    "result": [
      {
        "electoralDistricts": [
          {
            "election": null,
            "id": 76,
            "name": "Orléans"
          }
        ],
        "pollDivisionIds": [
          10140454
        ],
        "postalCode": "K1E2R5",
        "streetName": "DES PRAIRIES",
        "streetDirectionId": null,
        "streetTypeId": "AVE",
        "placeName": "ORLEANS",
        "streetNameDisplayText": "DES PRAIRIES AVE, ORLEANS"
      }
    ]
  },
  {
    "postal": "K1E9T6",
    "result": []
  },
  {
    "postal": "K1E8Z2",
    "result": []
  },
  {
    "postal": "K1E0E9",
    "result": []
  },
  {
    "postal": "K1E8C0",
    "result": []
  },
  {
    "postal": "K1E3K7",
    "result": [
      {
        "electoralDistricts": [
          {
            "election": null,
            "id": 76,
            "name": "Orléans"
          }
        ],
        "pollDivisionIds": [
          10140441
        ],
        "postalCode": "K1E3K7",
        "streetName": "MCEACHERN",
        "streetDirectionId": null,
        "streetTypeId": "CRES",
        "placeName": "ORLEANS",
        "streetNameDisplayText": "MCEACHERN CRES, ORLEANS"
      },
      {
        "electoralDistricts": [
          {
            "election": null,
            "id": 76,
            "name": "Orléans"
          }
        ],
        "pollDivisionIds": [
          10140446,
          10140440
        ],
        "postalCode": "K1E3K7",
        "streetName": "TOMPKINS",
        "streetDirectionId": null,
        "streetTypeId": "AVE",
        "placeName": "ORLEANS",
        "streetNameDisplayText": "TOMPKINS AVE, ORLEANS"
      }
    ]
  },
  {
    "postal": "K1E2H3",
    "result": [
      {
        "electoralDistricts": [
          {
            "election": null,
            "id": 76,
            "name": "Orléans"
          }
        ],
        "pollDivisionIds": [
          10140454
        ],
        "postalCode": "K1E2H3",
        "streetName": "LAMOUREUX",
        "streetDirectionId": null,
        "streetTypeId": "DR",
        "placeName": "ORLEANS",
        "streetNameDisplayText": "LAMOUREUX DR, ORLEANS"
      }
    ]
  },
  {
    "postal": "K1E2Y6",
    "result": [
      {
        "electoralDistricts": [
          {
            "election": null,
            "id": 76,
            "name": "Orléans"
          }
        ],
        "pollDivisionIds": [
          10140446
        ],
        "postalCode": "K1E2Y6",
        "streetName": "DUFORD",
        "streetDirectionId": null,
        "streetTypeId": "DR",
        "placeName": "ORLEANS",
        "streetNameDisplayText": "DUFORD DR, ORLEANS"
      }
    ]
  },
  {
    "postal": "K1E7M2",
    "result": []
  },
  {
    "postal": "K1E6E2",
    "result": []
  },
  {
    "postal": "K1E3R0",
    "result": []
  },
  {
    "postal": "K1E4J7",
    "result": []
  },
  {
    "postal": "K1E6N8",
    "result": []
  },
  {
    "postal": "K1E0J7",
    "result": []
  },
  {
    "postal": "K1E7P2",
    "result": []
  },
  {
    "postal": "K1E3T8",
    "result": [
      {
        "electoralDistricts": [
          {
            "election": null,
            "id": 76,
            "name": "Orléans"
          }
        ],
        "pollDivisionIds": [
          10140455
        ],
        "postalCode": "K1E3T8",
        "streetName": "TURNBERRY",
        "streetDirectionId": null,
        "streetTypeId": "RD",
        "placeName": "ORLEANS",
        "streetNameDisplayText": "TURNBERRY RD, ORLEANS"
      }
    ]
  },
  {
    "postal": "K1E3S7",
    "result": [
      {
        "electoralDistricts": [
          {
            "election": null,
            "id": 76,
            "name": "Orléans"
          }
        ],
        "pollDivisionIds": [
          10140457
        ],
        "postalCode": "K1E3S7",
        "streetName": "LECLAIR",
        "streetDirectionId": null,
        "streetTypeId": "CRES",
        "placeName": "ORLEANS",
        "streetNameDisplayText": "LECLAIR CRES, ORLEANS"
      },
      {
        "electoralDistricts": [
          {
            "election": null,
            "id": 76,
            "name": "Orléans"
          }
        ],
        "pollDivisionIds": [
          10140457
        ],
        "postalCode": "K1E3S7",
        "streetName": "PIMPRENELLE",
        "streetDirectionId": null,
        "streetTypeId": "TERR",
        "placeName": "ORLEANS",
        "streetNameDisplayText": "PIMPRENELLE TERR, ORLEANS"
      }
    ]
  },
  {
    "postal": "K1E2S7",
    "result": [
      {
        "electoralDistricts": [
          {
            "election": null,
            "id": 76,
            "name": "Orléans"
          }
        ],
        "pollDivisionIds": [
          10140454
        ],
        "postalCode": "K1E2S7",
        "streetName": "DU GRAND BOIS",
        "streetDirectionId": null,
        "streetTypeId": "AVE",
        "placeName": "ORLEANS",
        "streetNameDisplayText": "DU GRAND BOIS AVE, ORLEANS"
      }
    ]
  },
  {
    "postal": "K1E1S4",
    "result": [
      {
        "electoralDistricts": [
          {
            "election": null,
            "id": 76,
            "name": "Orléans"
          }
        ],
        "pollDivisionIds": [
          10140455,
          10140454
        ],
        "postalCode": "K1E1S4",
        "streetName": "PRESTWICK",
        "streetDirectionId": null,
        "streetTypeId": "DR",
        "placeName": "ORLEANS",
        "streetNameDisplayText": "PRESTWICK DR, ORLEANS"
      }
    ]
  },
  {
    "postal": "K1E1L8",
    "result": [
      {
        "electoralDistricts": [
          {
            "election": null,
            "id": 76,
            "name": "Orléans"
          }
        ],
        "pollDivisionIds": [
          10140455
        ],
        "postalCode": "K1E1L8",
        "streetName": "GLENEAGLES",
        "streetDirectionId": null,
        "streetTypeId": "AVE",
        "placeName": "ORLEANS",
        "streetNameDisplayText": "GLENEAGLES AVE, ORLEANS"
      }
    ]
  },
  {
    "postal": "K1E8E9",
    "result": []
  },
  {
    "postal": "K1E0T0",
    "result": []
  },
  {
    "postal": "K1E3G4",
    "result": [
      {
        "electoralDistricts": [
          {
            "election": null,
            "id": 76,
            "name": "Orléans"
          }
        ],
        "pollDivisionIds": [
          10140441
        ],
        "postalCode": "K1E3G4",
        "streetName": "MOUNTAINSIDE",
        "streetDirectionId": null,
        "streetTypeId": "CRES",
        "placeName": "ORLEANS",
        "streetNameDisplayText": "MOUNTAINSIDE CRES, ORLEANS"
      }
    ]
  },
  {
    "postal": "K1E0V6",
    "result": []
  },
  {
    "postal": "K1E4W1",
    "result": []
  },
  {
    "postal": "K1E9G9",
    "result": []
  },
  {
    "postal": "K1E5W4",
    "result": []
  },
  {
    "postal": "K1E7M8",
    "result": []
  },
  {
    "postal": "K1E2C2",
    "result": [
      {
        "electoralDistricts": [
          {
            "election": null,
            "id": 76,
            "name": "Orléans"
          }
        ],
        "pollDivisionIds": [
          10140434
        ],
        "postalCode": "K1E2C2",
        "streetName": "TEAL",
        "streetDirectionId": null,
        "streetTypeId": "CRES",
        "placeName": "ORLEANS",
        "streetNameDisplayText": "TEAL CRES, ORLEANS"
      }
    ]
  },
  {
    "postal": "K1E4Y2",
    "result": []
  },
  {
    "postal": "K1E9X9",
    "result": []
  },
  {
    "postal": "K1E3T0",
    "result": []
  },
  {
    "postal": "K1E4T8",
    "result": []
  },
  {
    "postal": "K1E9C4",
    "result": []
  },
  {
    "postal": "K1E8P2",
    "result": []
  },
  {
    "postal": "K1E0Y8",
    "result": []
  },
  {
    "postal": "K1E1G8",
    "result": [
      {
        "electoralDistricts": [
          {
            "election": null,
            "id": 76,
            "name": "Orléans"
          }
        ],
        "pollDivisionIds": [
          10140446
        ],
        "postalCode": "K1E1G8",
        "streetName": "SAULT",
        "streetDirectionId": null,
        "streetTypeId": "ST",
        "placeName": "ORLEANS",
        "streetNameDisplayText": "SAULT ST, ORLEANS"
      }
    ]
  },
  {
    "postal": "K1E2T6",
    "result": [
      {
        "electoralDistricts": [
          {
            "election": null,
            "id": 76,
            "name": "Orléans"
          }
        ],
        "pollDivisionIds": [
          10140455
        ],
        "postalCode": "K1E2T6",
        "streetName": "DES ARBRES",
        "streetDirectionId": null,
        "streetTypeId": "ST",
        "placeName": "ORLEANS",
        "streetNameDisplayText": "DES ARBRES ST, ORLEANS"
      }
    ]
  },
  {
    "postal": "K1E1N7",
    "result": [
      {
        "electoralDistricts": [
          {
            "election": null,
            "id": 76,
            "name": "Orléans"
          }
        ],
        "pollDivisionIds": [
          10140441
        ],
        "postalCode": "K1E1N7",
        "streetName": "AMIENS",
        "streetDirectionId": null,
        "streetTypeId": "ST",
        "placeName": "ORLEANS",
        "streetNameDisplayText": "AMIENS ST, ORLEANS"
      }
    ]
  },
  {
    "postal": "K1E0L6",
    "result": []
  },
  {
    "postal": "K1E9V4",
    "result": []
  },
  {
    "postal": "K1E2V1",
    "result": [
      {
        "electoralDistricts": [
          {
            "election": null,
            "id": 76,
            "name": "Orléans"
          }
        ],
        "pollDivisionIds": [
          10140434
        ],
        "postalCode": "K1E2V1",
        "streetName": "KINGLET",
        "streetDirectionId": null,
        "streetTypeId": "WAY",
        "placeName": "ORLEANS",
        "streetNameDisplayText": "KINGLET WAY, ORLEANS"
      }
    ]
  },
  {
    "postal": "K1E3L8",
    "result": [
      {
        "electoralDistricts": [
          {
            "election": null,
            "id": 76,
            "name": "Orléans"
          }
        ],
        "pollDivisionIds": [
          10140441
        ],
        "postalCode": "K1E3L8",
        "streetName": "COTE ROYALE",
        "streetDirectionId": null,
        "streetTypeId": "CRES",
        "placeName": "ORLEANS",
        "streetNameDisplayText": "COTE ROYALE CRES, ORLEANS"
      },
      {
        "electoralDistricts": [
          {
            "election": null,
            "id": 76,
            "name": "Orléans"
          }
        ],
        "pollDivisionIds": [
          10140441
        ],
        "postalCode": "K1E3L8",
        "streetName": "SYLVIE",
        "streetDirectionId": null,
        "streetTypeId": "TERR",
        "placeName": "ORLEANS",
        "streetNameDisplayText": "SYLVIE TERR, ORLEANS"
      }
    ]
  },
  {
    "postal": "K1E2R8",
    "result": [
      {
        "electoralDistricts": [
          {
            "election": null,
            "id": 76,
            "name": "Orléans"
          }
        ],
        "pollDivisionIds": [
          10140454
        ],
        "postalCode": "K1E2R8",
        "streetName": "CLOVERHEATH",
        "streetDirectionId": null,
        "streetTypeId": "CRES",
        "placeName": "ORLEANS",
        "streetNameDisplayText": "CLOVERHEATH CRES, ORLEANS"
      }
    ]
  },
  {
    "postal": "K1E5C1",
    "result": []
  },
  {
    "postal": "K1E4W3",
    "result": []
  },
  {
    "postal": "K1E5X5",
    "result": []
  },
  {
    "postal": "K1E9W5",
    "result": []
  },
  {
    "postal": "K1E3C4",
    "result": []
  },
  {
    "postal": "K1E1N6",
    "result": [
      {
        "electoralDistricts": [
          {
            "election": null,
            "id": 76,
            "name": "Orléans"
          }
        ],
        "pollDivisionIds": [
          10140446
        ],
        "postalCode": "K1E1N6",
        "streetName": "AMIENS",
        "streetDirectionId": null,
        "streetTypeId": "ST",
        "placeName": "ORLEANS",
        "streetNameDisplayText": "AMIENS ST, ORLEANS"
      }
    ]
  },
  {
    "postal": "K1E9S9",
    "result": []
  },
  {
    "postal": "K1E9M2",
    "result": []
  },
  {
    "postal": "K1E8Y4",
    "result": []
  },
  {
    "postal": "K1E7S4",
    "result": []
  },
  {
    "postal": "K1E0K6",
    "result": []
  },
  {
    "postal": "K1E1W3",
    "result": [
      {
        "electoralDistricts": [
          {
            "election": null,
            "id": 76,
            "name": "Orléans"
          }
        ],
        "pollDivisionIds": [
          10140455
        ],
        "postalCode": "K1E1W3",
        "streetName": "GALLOWAY",
        "streetDirectionId": null,
        "streetTypeId": "DR",
        "placeName": "ORLEANS",
        "streetNameDisplayText": "GALLOWAY DR, ORLEANS"
      }
    ]
  },
  {
    "postal": "K1E7R2",
    "result": []
  },
  {
    "postal": "K1E2Y9",
    "result": [
      {
        "electoralDistricts": [
          {
            "election": null,
            "id": 76,
            "name": "Orléans"
          }
        ],
        "pollDivisionIds": [
          10140454
        ],
        "postalCode": "K1E2Y9",
        "streetName": "TIMBERLAND",
        "streetDirectionId": null,
        "streetTypeId": "TERR",
        "placeName": "ORLEANS",
        "streetNameDisplayText": "TIMBERLAND TERR, ORLEANS"
      }
    ]
  },
  {
    "postal": "K1E7G4",
    "result": []
  },
  {
    "postal": "K1E7E5",
    "result": []
  },
  {
    "postal": "K1E9G2",
    "result": []
  },
  {
    "postal": "K1E7Y8",
    "result": []
  },
  {
    "postal": "K1E9V2",
    "result": []
  },
  {
    "postal": "K1E3T7",
    "result": [
      {
        "electoralDistricts": [
          {
            "election": null,
            "id": 76,
            "name": "Orléans"
          }
        ],
        "pollDivisionIds": [
          10140455
        ],
        "postalCode": "K1E3T7",
        "streetName": "TURNBERRY",
        "streetDirectionId": null,
        "streetTypeId": "RD",
        "placeName": "ORLEANS",
        "streetNameDisplayText": "TURNBERRY RD, ORLEANS"
      }
    ]
  },
  {
    "postal": "K1E1H0",
    "result": []
  },
  {
    "postal": "K1E1M7",
    "result": [
      {
        "electoralDistricts": [
          {
            "election": null,
            "id": 76,
            "name": "Orléans"
          }
        ],
        "pollDivisionIds": [
          10140441
        ],
        "postalCode": "K1E1M7",
        "streetName": "HATFIELD",
        "streetDirectionId": null,
        "streetTypeId": "CRES",
        "placeName": "ORLEANS",
        "streetNameDisplayText": "HATFIELD CRES, ORLEANS"
      }
    ]
  },
  {
    "postal": "K1E8V4",
    "result": []
  },
  {
    "postal": "K1E4M2",
    "result": []
  },
  {
    "postal": "K1E0X2",
    "result": []
  },
  {
    "postal": "K1E5Z4",
    "result": []
  },
  {
    "postal": "K1E6V4",
    "result": []
  },
  {
    "postal": "K1E8J3",
    "result": []
  },
  {
    "postal": "K1E8E5",
    "result": []
  },
  {
    "postal": "K1E2V5",
    "result": [
      {
        "electoralDistricts": [
          {
            "election": null,
            "id": 76,
            "name": "Orléans"
          }
        ],
        "pollDivisionIds": [
          10140434
        ],
        "postalCode": "K1E2V5",
        "streetName": "SANDERLING",
        "streetDirectionId": null,
        "streetTypeId": "CRT",
        "placeName": "ORLEANS",
        "streetNameDisplayText": "SANDERLING CRT, ORLEANS"
      }
    ]
  },
  {
    "postal": "K1E7S1",
    "result": []
  },
  {
    "postal": "K1E6V3",
    "result": []
  },
  {
    "postal": "K1E2L8",
    "result": [
      {
        "electoralDistricts": [
          {
            "election": null,
            "id": 76,
            "name": "Orléans"
          }
        ],
        "pollDivisionIds": [
          10140454
        ],
        "postalCode": "K1E2L8",
        "streetName": "LAFRANCE",
        "streetDirectionId": null,
        "streetTypeId": "DR",
        "placeName": "ORLEANS",
        "streetNameDisplayText": "LAFRANCE DR, ORLEANS"
      }
    ]
  },
  {
    "postal": "K1E9V0",
    "result": []
  },
  {
    "postal": "K1E3M4",
    "result": [
      {
        "electoralDistricts": [
          {
            "election": null,
            "id": 76,
            "name": "Orléans"
          }
        ],
        "pollDivisionIds": [
          10140441,
          10140446
        ],
        "postalCode": "K1E3M4",
        "streetName": "KENNEDY",
        "streetDirectionId": "E",
        "streetTypeId": "LANE",
        "placeName": "ORLEANS",
        "streetNameDisplayText": "KENNEDY LANE E, ORLEANS"
      }
    ]
  },
  {
    "postal": "K1E5B2",
    "result": []
  },
  {
    "postal": "K1E3X5",
    "result": [
      {
        "electoralDistricts": [
          {
            "election": null,
            "id": 76,
            "name": "Orléans"
          }
        ],
        "pollDivisionIds": [
          10140475
        ],
        "postalCode": "K1E3X5",
        "streetName": "KENNEDY",
        "streetDirectionId": "E",
        "streetTypeId": "LANE",
        "placeName": "ORLEANS",
        "streetNameDisplayText": "KENNEDY LANE E, ORLEANS"
      }
    ]
  },
  {
    "postal": "K1E9R7",
    "result": []
  },
  {
    "postal": "K1E2X2",
    "result": [
      {
        "electoralDistricts": [
          {
            "election": null,
            "id": 76,
            "name": "Orléans"
          }
        ],
        "pollDivisionIds": [
          10140441
        ],
        "postalCode": "K1E2X2",
        "streetName": "HODGE",
        "streetDirectionId": null,
        "streetTypeId": "CRES",
        "placeName": "ORLEANS",
        "streetNameDisplayText": "HODGE CRES, ORLEANS"
      }
    ]
  },
  {
    "postal": "K1E8Z6",
    "result": []
  },
  {
    "postal": "K1E4R4",
    "result": []
  },
  {
    "postal": "K1E2R1",
    "result": [
      {
        "electoralDistricts": [
          {
            "election": null,
            "id": 76,
            "name": "Orléans"
          }
        ],
        "pollDivisionIds": [
          10140454
        ],
        "postalCode": "K1E2R1",
        "streetName": "DES PRAIRIES",
        "streetDirectionId": null,
        "streetTypeId": "AVE",
        "placeName": "ORLEANS",
        "streetNameDisplayText": "DES PRAIRIES AVE, ORLEANS"
      }
    ]
  },
  {
    "postal": "K1E3R8",
    "result": [
      {
        "electoralDistricts": [
          {
            "election": null,
            "id": 76,
            "name": "Orléans"
          }
        ],
        "pollDivisionIds": [
          10140455
        ],
        "postalCode": "K1E3R8",
        "streetName": "LECLAIR",
        "streetDirectionId": null,
        "streetTypeId": "CRES",
        "placeName": "ORLEANS",
        "streetNameDisplayText": "LECLAIR CRES, ORLEANS"
      }
    ]
  },
  {
    "postal": "K1E9A1",
    "result": []
  },
  {
    "postal": "K1E8L3",
    "result": []
  },
  {
    "postal": "K1E9K4",
    "result": []
  },
  {
    "postal": "K1E9S3",
    "result": []
  },
  {
    "postal": "K1E8N7",
    "result": []
  },
  {
    "postal": "K1E1C6",
    "result": [
      {
        "electoralDistricts": [
          {
            "election": null,
            "id": 76,
            "name": "Orléans"
          }
        ],
        "pollDivisionIds": [
          10140440
        ],
        "postalCode": "K1E1C6",
        "streetName": "WILLOW",
        "streetDirectionId": null,
        "streetTypeId": "AVE",
        "placeName": "ORLEANS",
        "streetNameDisplayText": "WILLOW AVE, ORLEANS"
      }
    ]
  },
  {
    "postal": "K1E3Z8",
    "result": []
  },
  {
    "postal": "K1E8G5",
    "result": []
  },
  {
    "postal": "K1E5R6",
    "result": []
  },
  {
    "postal": "K1E2W3",
    "result": [
      {
        "electoralDistricts": [
          {
            "election": null,
            "id": 76,
            "name": "Orléans"
          }
        ],
        "pollDivisionIds": [
          10140455
        ],
        "postalCode": "K1E2W3",
        "streetName": "WOODHAVEN HEIGHTS",
        "streetDirectionId": null,
        "streetTypeId": "ST",
        "placeName": "ORLEANS",
        "streetNameDisplayText": "WOODHAVEN HEIGHTS ST, ORLEANS"
      },
      {
        "electoralDistricts": [
          {
            "election": null,
            "id": 76,
            "name": "Orléans"
          }
        ],
        "pollDivisionIds": [
          10140436,
          10140455
        ],
        "postalCode": "K1E2W3",
        "streetName": "WOODHAVEN",
        "streetDirectionId": null,
        "streetTypeId": "HTS",
        "placeName": "ORLEANS",
        "streetNameDisplayText": "WOODHAVEN HTS, ORLEANS"
      }
    ]
  },
  {
    "postal": "K1E0A0",
    "result": []
  },
  {
    "postal": "K1E6P8",
    "result": []
  },
  {
    "postal": "K1E8N9",
    "result": []
  },
  {
    "postal": "K1E0S9",
    "result": []
  },
  {
    "postal": "K1E8G0",
    "result": []
  },
  {
    "postal": "K1E8C7",
    "result": []
  },
  {
    "postal": "K1E5X8",
    "result": []
  },
  {
    "postal": "K1E7E8",
    "result": []
  },
  {
    "postal": "K1E6X2",
    "result": []
  },
  {
    "postal": "K1E4C6",
    "result": []
  },
  {
    "postal": "K1E7H2",
    "result": []
  },
  {
    "postal": "K1E4R0",
    "result": []
  },
  {
    "postal": "K1E6J3",
    "result": []
  },
  {
    "postal": "K1E4B8",
    "result": []
  },
  {
    "postal": "K1E6H6",
    "result": []
  },
  {
    "postal": "K1E0S1",
    "result": []
  },
  {
    "postal": "K1E4E3",
    "result": []
  },
  {
    "postal": "K1E7K2",
    "result": []
  },
  {
    "postal": "K1E7T8",
    "result": []
  },
  {
    "postal": "K1E0J9",
    "result": []
  },
  {
    "postal": "K1E5J9",
    "result": []
  },
  {
    "postal": "K1E5S7",
    "result": []
  },
  {
    "postal": "K1E0G9",
    "result": []
  },
  {
    "postal": "K1E3J9",
    "result": [
      {
        "electoralDistricts": [
          {
            "election": null,
            "id": 76,
            "name": "Orléans"
          }
        ],
        "pollDivisionIds": [
          10140446
        ],
        "postalCode": "K1E3J9",
        "streetName": "BOURCIER",
        "streetDirectionId": null,
        "streetTypeId": "DR",
        "placeName": "ORLEANS",
        "streetNameDisplayText": "BOURCIER DR, ORLEANS"
      }
    ]
  },
  {
    "postal": "K1E2Y0",
    "result": []
  },
  {
    "postal": "K1E8X5",
    "result": []
  },
  {
    "postal": "K1E2M7",
    "result": [
      {
        "electoralDistricts": [
          {
            "election": null,
            "id": 76,
            "name": "Orléans"
          }
        ],
        "pollDivisionIds": [
          10140446
        ],
        "postalCode": "K1E2M7",
        "streetName": "MISSYABIT",
        "streetDirectionId": null,
        "streetTypeId": "DR",
        "placeName": "ORLEANS",
        "streetNameDisplayText": "MISSYABIT DR, ORLEANS"
      }
    ]
  },
  {
    "postal": "K1E9Z3",
    "result": []
  },
  {
    "postal": "K1E7W2",
    "result": []
  },
  {
    "postal": "K1E3W0",
    "result": []
  },
  {
    "postal": "K1E3M1",
    "result": [
      {
        "electoralDistricts": [
          {
            "election": null,
            "id": 76,
            "name": "Orléans"
          }
        ],
        "pollDivisionIds": [
          10140441
        ],
        "postalCode": "K1E3M1",
        "streetName": "COTE ROYALE",
        "streetDirectionId": null,
        "streetTypeId": "CRES",
        "placeName": "ORLEANS",
        "streetNameDisplayText": "COTE ROYALE CRES, ORLEANS"
      }
    ]
  },
  {
    "postal": "K1E6A5",
    "result": []
  },
  {
    "postal": "K1E2M9",
    "result": [
      {
        "electoralDistricts": [
          {
            "election": null,
            "id": 76,
            "name": "Orléans"
          }
        ],
        "pollDivisionIds": [
          10140455
        ],
        "postalCode": "K1E2M9",
        "streetName": "ST GEORGES",
        "streetDirectionId": null,
        "streetTypeId": "ST",
        "placeName": "ORLEANS",
        "streetNameDisplayText": "ST GEORGES ST, ORLEANS"
      }
    ]
  },
  {
    "postal": "K1E5C3",
    "result": []
  },
  {
    "postal": "K1E0Y6",
    "result": []
  },
  {
    "postal": "K1E9H7",
    "result": []
  },
  {
    "postal": "K1E3L0",
    "result": []
  },
  {
    "postal": "K1E5N9",
    "result": []
  },
  {
    "postal": "K1E5E3",
    "result": []
  },
  {
    "postal": "K1E7M9",
    "result": []
  },
  {
    "postal": "K1E8N2",
    "result": []
  },
  {
    "postal": "K1E9H3",
    "result": []
  },
  {
    "postal": "K1E2K8",
    "result": [
      {
        "electoralDistricts": [
          {
            "election": null,
            "id": 76,
            "name": "Orléans"
          }
        ],
        "pollDivisionIds": [
          10140455
        ],
        "postalCode": "K1E2K8",
        "streetName": "MARCOUX",
        "streetDirectionId": null,
        "streetTypeId": "DR",
        "placeName": "ORLEANS",
        "streetNameDisplayText": "MARCOUX DR, ORLEANS"
      }
    ]
  },
  {
    "postal": "K1E9L0",
    "result": []
  },
  {
    "postal": "K1E6L9",
    "result": []
  },
  {
    "postal": "K1E6A8",
    "result": []
  },
  {
    "postal": "K1E2K6",
    "result": [
      {
        "electoralDistricts": [
          {
            "election": null,
            "id": 76,
            "name": "Orléans"
          }
        ],
        "pollDivisionIds": [
          10140455
        ],
        "postalCode": "K1E2K6",
        "streetName": "MARCOUX",
        "streetDirectionId": null,
        "streetTypeId": "DR",
        "placeName": "ORLEANS",
        "streetNameDisplayText": "MARCOUX DR, ORLEANS"
      }
    ]
  },
  {
    "postal": "K1E2M0",
    "result": []
  },
  {
    "postal": "K1E5X7",
    "result": []
  },
  {
    "postal": "K1E0M7",
    "result": []
  },
  {
    "postal": "K1E7A6",
    "result": []
  },
  {
    "postal": "K1E3C5",
    "result": []
  },
  {
    "postal": "K1E2P2",
    "result": [
      {
        "electoralDistricts": [
          {
            "election": null,
            "id": 76,
            "name": "Orléans"
          }
        ],
        "pollDivisionIds": [
          10140455
        ],
        "postalCode": "K1E2P2",
        "streetName": "BONAIR",
        "streetDirectionId": null,
        "streetTypeId": "DR",
        "placeName": "ORLEANS",
        "streetNameDisplayText": "BONAIR DR, ORLEANS"
      }
    ]
  },
  {
    "postal": "K1E9N4",
    "result": []
  },
  {
    "postal": "K1E3M9",
    "result": [
      {
        "electoralDistricts": [
          {
            "election": null,
            "id": 76,
            "name": "Orléans"
          }
        ],
        "pollDivisionIds": [
          10140441
        ],
        "postalCode": "K1E3M9",
        "streetName": "HINTERLAND",
        "streetDirectionId": null,
        "streetTypeId": "CRT",
        "placeName": "ORLEANS",
        "streetNameDisplayText": "HINTERLAND CRT, ORLEANS"
      },
      {
        "electoralDistricts": [
          {
            "election": null,
            "id": 76,
            "name": "Orléans"
          }
        ],
        "pollDivisionIds": [
          10140441
        ],
        "postalCode": "K1E3M9",
        "streetName": "RIVER RIDGE",
        "streetDirectionId": null,
        "streetTypeId": "CRES",
        "placeName": "ORLEANS",
        "streetNameDisplayText": "RIVER RIDGE CRES, ORLEANS"
      }
    ]
  },
  {
    "postal": "K1E8K6",
    "result": []
  },
  {
    "postal": "K1E1L2",
    "result": [
      {
        "electoralDistricts": [
          {
            "election": null,
            "id": 76,
            "name": "Orléans"
          }
        ],
        "pollDivisionIds": [
          10140446
        ],
        "postalCode": "K1E1L2",
        "streetName": "MARIETTE",
        "streetDirectionId": null,
        "streetTypeId": "ST",
        "placeName": "ORLEANS",
        "streetNameDisplayText": "MARIETTE ST, ORLEANS"
      }
    ]
  },
  {
    "postal": "K1E2Z9",
    "result": []
  },
  {
    "postal": "K1E2S2",
    "result": [
      {
        "electoralDistricts": [
          {
            "election": null,
            "id": 76,
            "name": "Orléans"
          }
        ],
        "pollDivisionIds": [
          10140454
        ],
        "postalCode": "K1E2S2",
        "streetName": "GRASSLAND",
        "streetDirectionId": null,
        "streetTypeId": "TERR",
        "placeName": "ORLEANS",
        "streetNameDisplayText": "GRASSLAND TERR, ORLEANS"
      }
    ]
  },
  {
    "postal": "K1E2W2",
    "result": [
      {
        "electoralDistricts": [
          {
            "election": null,
            "id": 76,
            "name": "Orléans"
          }
        ],
        "pollDivisionIds": [
          10140455
        ],
        "postalCode": "K1E2W2",
        "streetName": "WOODHAVEN HEIGHTS",
        "streetDirectionId": null,
        "streetTypeId": "ST",
        "placeName": "ORLEANS",
        "streetNameDisplayText": "WOODHAVEN HEIGHTS ST, ORLEANS"
      },
      {
        "electoralDistricts": [
          {
            "election": null,
            "id": 76,
            "name": "Orléans"
          },
          {
            "election": null,
            "id": 80,
            "name": "Ottawa—Vanier"
          }
        ],
        "pollDivisionIds": [
          10140455,
          10140708
        ],
        "postalCode": "K1E2W2",
        "streetName": "WOODHAVEN",
        "streetDirectionId": null,
        "streetTypeId": "HTS",
        "placeName": "ORLEANS",
        "streetNameDisplayText": "WOODHAVEN HTS, ORLEANS"
      }
    ]
  },
  {
    "postal": "K1E2C3",
    "result": [
      {
        "electoralDistricts": [
          {
            "election": null,
            "id": 76,
            "name": "Orléans"
          }
        ],
        "pollDivisionIds": [
          10140434
        ],
        "postalCode": "K1E2C3",
        "streetName": "TEAL",
        "streetDirectionId": null,
        "streetTypeId": "CRES",
        "placeName": "ORLEANS",
        "streetNameDisplayText": "TEAL CRES, ORLEANS"
      }
    ]
  },
  {
    "postal": "K1E6L7",
    "result": []
  },
  {
    "postal": "K1E3K0",
    "result": []
  },
  {
    "postal": "K1E3C1",
    "result": []
  },
  {
    "postal": "K1E6M9",
    "result": []
  },
  {
    "postal": "K1E4N9",
    "result": []
  },
  {
    "postal": "K1E3Y7",
    "result": []
  },
  {
    "postal": "K1E2A9",
    "result": [
      {
        "electoralDistricts": [
          {
            "election": null,
            "id": 76,
            "name": "Orléans"
          }
        ],
        "pollDivisionIds": [
          10140434
        ],
        "postalCode": "K1E2A9",
        "streetName": "TULIP",
        "streetDirectionId": null,
        "streetTypeId": "CRES",
        "placeName": "ORLEANS",
        "streetNameDisplayText": "TULIP CRES, ORLEANS"
      }
    ]
  },
  {
    "postal": "K1E6H5",
    "result": []
  },
  {
    "postal": "K1E8B4",
    "result": []
  },
  {
    "postal": "K1E4Z2",
    "result": []
  },
  {
    "postal": "K1E9J0",
    "result": []
  },
  {
    "postal": "K1E7V7",
    "result": []
  },
  {
    "postal": "K1E5T5",
    "result": []
  },
  {
    "postal": "K1E4W5",
    "result": []
  },
  {
    "postal": "K1E1T8",
    "result": [
      {
        "electoralDistricts": [
          {
            "election": null,
            "id": 76,
            "name": "Orléans"
          }
        ],
        "pollDivisionIds": [
          10140441
        ],
        "postalCode": "K1E1T8",
        "streetName": "ROXDALE",
        "streetDirectionId": null,
        "streetTypeId": "AVE",
        "placeName": "ORLEANS",
        "streetNameDisplayText": "ROXDALE AVE, ORLEANS"
      }
    ]
  },
  {
    "postal": "K1E9G6",
    "result": []
  },
  {
    "postal": "K1E1H3",
    "result": [
      {
        "electoralDistricts": [
          {
            "election": null,
            "id": 76,
            "name": "Orléans"
          }
        ],
        "pollDivisionIds": [
          10140446
        ],
        "postalCode": "K1E1H3",
        "streetName": "MAJOR",
        "streetDirectionId": null,
        "streetTypeId": "RD",
        "placeName": "ORLEANS",
        "streetNameDisplayText": "MAJOR RD, ORLEANS"
      }
    ]
  },
  {
    "postal": "K1E5R5",
    "result": []
  },
  {
    "postal": "K1E8A4",
    "result": []
  },
  {
    "postal": "K1E3T6",
    "result": [
      {
        "electoralDistricts": [
          {
            "election": null,
            "id": 76,
            "name": "Orléans"
          }
        ],
        "pollDivisionIds": [
          10140457
        ],
        "postalCode": "K1E3T6",
        "streetName": "LEGRAND",
        "streetDirectionId": null,
        "streetTypeId": "CRES",
        "placeName": "ORLEANS",
        "streetNameDisplayText": "LEGRAND CRES, ORLEANS"
      }
    ]
  },
  {
    "postal": "K1E9W8",
    "result": []
  },
  {
    "postal": "K1E0N3",
    "result": []
  },
  {
    "postal": "K1E7V0",
    "result": []
  },
  {
    "postal": "K1E8T5",
    "result": []
  },
  {
    "postal": "K1E5N3",
    "result": []
  },
  {
    "postal": "K1E5G9",
    "result": []
  },
  {
    "postal": "K1E3X8",
    "result": [
      {
        "electoralDistricts": [
          {
            "election": null,
            "id": 76,
            "name": "Orléans"
          }
        ],
        "pollDivisionIds": [
          10140433
        ],
        "postalCode": "K1E3X8",
        "streetName": "ST JOSEPH",
        "streetDirectionId": null,
        "streetTypeId": "BLVD",
        "placeName": "ORLEANS",
        "streetNameDisplayText": "ST JOSEPH BLVD, ORLEANS"
      }
    ]
  },
  {
    "postal": "K1E9R3",
    "result": []
  },
  {
    "postal": "K1E2S1",
    "result": [
      {
        "electoralDistricts": [
          {
            "election": null,
            "id": 76,
            "name": "Orléans"
          }
        ],
        "pollDivisionIds": [
          10140454
        ],
        "postalCode": "K1E2S1",
        "streetName": "GRASSLAND",
        "streetDirectionId": null,
        "streetTypeId": "TERR",
        "placeName": "ORLEANS",
        "streetNameDisplayText": "GRASSLAND TERR, ORLEANS"
      }
    ]
  },
  {
    "postal": "K1E9J7",
    "result": []
  },
  {
    "postal": "K1E2J3",
    "result": [
      {
        "electoralDistricts": [
          {
            "election": null,
            "id": 76,
            "name": "Orléans"
          }
        ],
        "pollDivisionIds": [
          10140455
        ],
        "postalCode": "K1E2J3",
        "streetName": "SCHOUTEN",
        "streetDirectionId": null,
        "streetTypeId": "DR",
        "placeName": "ORLEANS",
        "streetNameDisplayText": "SCHOUTEN DR, ORLEANS"
      }
    ]
  },
  {
    "postal": "K1E3B6",
    "result": []
  },
  {
    "postal": "K1E8J0",
    "result": []
  },
  {
    "postal": "K1E7R4",
    "result": []
  },
  {
    "postal": "K1E8K8",
    "result": []
  },
  {
    "postal": "K1E4P3",
    "result": []
  },
  {
    "postal": "K1E0A2",
    "result": [
      {
        "electoralDistricts": [
          {
            "election": null,
            "id": 76,
            "name": "Orléans"
          }
        ],
        "pollDivisionIds": [
          10140446
        ],
        "postalCode": "K1E0A2",
        "streetName": "VIEILLE CASERNE",
        "streetDirectionId": null,
        "streetTypeId": "PVT",
        "placeName": "ORLEANS",
        "streetNameDisplayText": "VIEILLE CASERNE PVT, ORLEANS"
      }
    ]
  },
  {
    "postal": "K1E2G2",
    "result": [
      {
        "electoralDistricts": [
          {
            "election": null,
            "id": 76,
            "name": "Orléans"
          }
        ],
        "pollDivisionIds": [
          10140454
        ],
        "postalCode": "K1E2G2",
        "streetName": "PHOENIX",
        "streetDirectionId": null,
        "streetTypeId": "CRES",
        "placeName": "ORLEANS",
        "streetNameDisplayText": "PHOENIX CRES, ORLEANS"
      }
    ]
  },
  {
    "postal": "K1E5Y9",
    "result": []
  },
  {
    "postal": "K1E7X0",
    "result": []
  },
  {
    "postal": "K1E7W3",
    "result": []
  },
  {
    "postal": "K1E7X5",
    "result": []
  },
  {
    "postal": "K1E5K6",
    "result": []
  },
  {
    "postal": "K1E5B6",
    "result": []
  },
  {
    "postal": "K1E7Z0",
    "result": []
  },
  {
    "postal": "K1E9H6",
    "result": []
  },
  {
    "postal": "K1E1B4",
    "result": [
      {
        "electoralDistricts": [
          {
            "election": null,
            "id": 76,
            "name": "Orléans"
          }
        ],
        "pollDivisionIds": [
          10140440
        ],
        "postalCode": "K1E1B4",
        "streetName": "BALSAM",
        "streetDirectionId": null,
        "streetTypeId": "DR",
        "placeName": "ORLEANS",
        "streetNameDisplayText": "BALSAM DR, ORLEANS"
      }
    ]
  },
  {
    "postal": "K1E1A0",
    "result": []
  },
  {
    "postal": "K1E9A0",
    "result": []
  },
  {
    "postal": "K1E1M6",
    "result": [
      {
        "electoralDistricts": [
          {
            "election": null,
            "id": 76,
            "name": "Orléans"
          }
        ],
        "pollDivisionIds": [
          10140441
        ],
        "postalCode": "K1E1M6",
        "streetName": "HATFIELD",
        "streetDirectionId": null,
        "streetTypeId": "CRES",
        "placeName": "ORLEANS",
        "streetNameDisplayText": "HATFIELD CRES, ORLEANS"
      }
    ]
  },
  {
    "postal": "K1E5H0",
    "result": []
  },
  {
    "postal": "K1E1K6",
    "result": [
      {
        "electoralDistricts": [
          {
            "election": null,
            "id": 76,
            "name": "Orléans"
          }
        ],
        "pollDivisionIds": [
          10140446
        ],
        "postalCode": "K1E1K6",
        "streetName": "BLACKHEATH",
        "streetDirectionId": null,
        "streetTypeId": "ST",
        "placeName": "ORLEANS",
        "streetNameDisplayText": "BLACKHEATH ST, ORLEANS"
      }
    ]
  },
  {
    "postal": "K1E5E1",
    "result": []
  },
  {
    "postal": "K1E3T9",
    "result": [
      {
        "electoralDistricts": [
          {
            "election": null,
            "id": 76,
            "name": "Orléans"
          }
        ],
        "pollDivisionIds": [
          10140455
        ],
        "postalCode": "K1E3T9",
        "streetName": "TURNBERRY",
        "streetDirectionId": null,
        "streetTypeId": "RD",
        "placeName": "ORLEANS",
        "streetNameDisplayText": "TURNBERRY RD, ORLEANS"
      }
    ]
  },
  {
    "postal": "K1E2M6",
    "result": [
      {
        "electoralDistricts": [
          {
            "election": null,
            "id": 76,
            "name": "Orléans"
          }
        ],
        "pollDivisionIds": [
          10140446
        ],
        "postalCode": "K1E2M6",
        "streetName": "MISSYABIT",
        "streetDirectionId": null,
        "streetTypeId": "DR",
        "placeName": "ORLEANS",
        "streetNameDisplayText": "MISSYABIT DR, ORLEANS"
      }
    ]
  },
  {
    "postal": "K1E0G5",
    "result": []
  },
  {
    "postal": "K1E0Y2",
    "result": []
  },
  {
    "postal": "K1E2Y7",
    "result": [
      {
        "electoralDistricts": [
          {
            "election": null,
            "id": 76,
            "name": "Orléans"
          }
        ],
        "pollDivisionIds": [
          10140454
        ],
        "postalCode": "K1E2Y7",
        "streetName": "DES VISONS",
        "streetDirectionId": null,
        "streetTypeId": "PL",
        "placeName": "ORLEANS",
        "streetNameDisplayText": "DES VISONS PL, ORLEANS"
      }
    ]
  },
  {
    "postal": "K1E2J7",
    "result": [
      {
        "electoralDistricts": [
          {
            "election": null,
            "id": 76,
            "name": "Orléans"
          }
        ],
        "pollDivisionIds": [
          10140455
        ],
        "postalCode": "K1E2J7",
        "streetName": "CHARBONNEAU",
        "streetDirectionId": null,
        "streetTypeId": "ST",
        "placeName": "ORLEANS",
        "streetNameDisplayText": "CHARBONNEAU ST, ORLEANS"
      }
    ]
  },
  {
    "postal": "K1E4K7",
    "result": []
  },
  {
    "postal": "K1E7P9",
    "result": []
  },
  {
    "postal": "K1E8X0",
    "result": []
  },
  {
    "postal": "K1E3X1",
    "result": [
      {
        "electoralDistricts": [
          {
            "election": null,
            "id": 76,
            "name": "Orléans"
          }
        ],
        "pollDivisionIds": [
          10140433
        ],
        "postalCode": "K1E3X1",
        "streetName": "CENTRUM",
        "streetDirectionId": null,
        "streetTypeId": "BLVD",
        "placeName": "ORLEANS",
        "streetNameDisplayText": "CENTRUM BLVD, ORLEANS"
      }
    ]
  },
  {
    "postal": "K1E1R5",
    "result": [
      {
        "electoralDistricts": [
          {
            "election": null,
            "id": 76,
            "name": "Orléans"
          }
        ],
        "pollDivisionIds": [
          10140455
        ],
        "postalCode": "K1E1R5",
        "streetName": "BEACONFIELD",
        "streetDirectionId": null,
        "streetTypeId": "ST",
        "placeName": "ORLEANS",
        "streetNameDisplayText": "BEACONFIELD ST, ORLEANS"
      }
    ]
  },
  {
    "postal": "K1E6X6",
    "result": []
  },
  {
    "postal": "K1E0Y1",
    "result": []
  },
  {
    "postal": "K1E8G1",
    "result": []
  },
  {
    "postal": "K1E3J3",
    "result": [
      {
        "electoralDistricts": [
          {
            "election": null,
            "id": 76,
            "name": "Orléans"
          }
        ],
        "pollDivisionIds": [
          10140446,
          10140441
        ],
        "postalCode": "K1E3J3",
        "streetName": "BOURCIER",
        "streetDirectionId": null,
        "streetTypeId": "DR",
        "placeName": "ORLEANS",
        "streetNameDisplayText": "BOURCIER DR, ORLEANS"
      }
    ]
  },
  {
    "postal": "K1E8C2",
    "result": []
  },
  {
    "postal": "K1E4X9",
    "result": []
  },
  {
    "postal": "K1E6G9",
    "result": []
  },
  {
    "postal": "K1E4M3",
    "result": []
  },
  {
    "postal": "K1E9P7",
    "result": []
  },
  {
    "postal": "K1E4E5",
    "result": []
  },
  {
    "postal": "K1E5K9",
    "result": []
  },
  {
    "postal": "K1E2V2",
    "result": [
      {
        "electoralDistricts": [
          {
            "election": null,
            "id": 76,
            "name": "Orléans"
          }
        ],
        "pollDivisionIds": [
          10140434
        ],
        "postalCode": "K1E2V2",
        "streetName": "TURNSTONE",
        "streetDirectionId": null,
        "streetTypeId": "CRT",
        "placeName": "ORLEANS",
        "streetNameDisplayText": "TURNSTONE CRT, ORLEANS"
      }
    ]
  },
  {
    "postal": "K1E2N9",
    "result": [
      {
        "electoralDistricts": [
          {
            "election": null,
            "id": 76,
            "name": "Orléans"
          }
        ],
        "pollDivisionIds": [
          10140455
        ],
        "postalCode": "K1E2N9",
        "streetName": "BONAIR",
        "streetDirectionId": null,
        "streetTypeId": "DR",
        "placeName": "ORLEANS",
        "streetNameDisplayText": "BONAIR DR, ORLEANS"
      }
    ]
  },
  {
    "postal": "K1E6L4",
    "result": []
  },
  {
    "postal": "K1E8E0",
    "result": []
  },
  {
    "postal": "K1E0N0",
    "result": []
  },
  {
    "postal": "K1E6R0",
    "result": []
  },
  {
    "postal": "K1E9C1",
    "result": []
  },
  {
    "postal": "K1E4H4",
    "result": []
  },
  {
    "postal": "K1E5W3",
    "result": []
  },
  {
    "postal": "K1E9N9",
    "result": []
  },
  {
    "postal": "K1E1V7",
    "result": [
      {
        "electoralDistricts": [
          {
            "election": null,
            "id": 76,
            "name": "Orléans"
          }
        ],
        "pollDivisionIds": [
          10140454
        ],
        "postalCode": "K1E1V7",
        "streetName": "PHOENIX",
        "streetDirectionId": null,
        "streetTypeId": "CRES",
        "placeName": "ORLEANS",
        "streetNameDisplayText": "PHOENIX CRES, ORLEANS"
      }
    ]
  },
  {
    "postal": "K1E8J1",
    "result": []
  },
  {
    "postal": "K1E5V9",
    "result": []
  },
  {
    "postal": "K1E2S8",
    "result": [
      {
        "electoralDistricts": [
          {
            "election": null,
            "id": 76,
            "name": "Orléans"
          }
        ],
        "pollDivisionIds": [
          10140454
        ],
        "postalCode": "K1E2S8",
        "streetName": "DU GRAND BOIS",
        "streetDirectionId": null,
        "streetTypeId": "AVE",
        "placeName": "ORLEANS",
        "streetNameDisplayText": "DU GRAND BOIS AVE, ORLEANS"
      }
    ]
  },
  {
    "postal": "K1E6P0",
    "result": []
  },
  {
    "postal": "K1E4J8",
    "result": []
  },
  {
    "postal": "K1E0N1",
    "result": []
  },
  {
    "postal": "K1E1Y7",
    "result": [
      {
        "electoralDistricts": [
          {
            "election": null,
            "id": 76,
            "name": "Orléans"
          }
        ],
        "pollDivisionIds": [
          10140434
        ],
        "postalCode": "K1E1Y7",
        "streetName": "NIGHTINGALE",
        "streetDirectionId": null,
        "streetTypeId": "ST",
        "placeName": "ORLEANS",
        "streetNameDisplayText": "NIGHTINGALE ST, ORLEANS"
      }
    ]
  },
  {
    "postal": "K1E7W5",
    "result": []
  },
  {
    "postal": "K1E3Z1",
    "result": []
  },
  {
    "postal": "K1E7M6",
    "result": []
  },
  {
    "postal": "K1E1W7",
    "result": [
      {
        "electoralDistricts": [
          {
            "election": null,
            "id": 76,
            "name": "Orléans"
          }
        ],
        "pollDivisionIds": [
          10140434
        ],
        "postalCode": "K1E1W7",
        "streetName": "JEANNE D'ARC",
        "streetDirectionId": "N",
        "streetTypeId": "BLVD",
        "placeName": "ORLEANS",
        "streetNameDisplayText": "JEANNE D'ARC BLVD N, ORLEANS"
      }
    ]
  },
  {
    "postal": "K1E1X1",
    "result": [
      {
        "electoralDistricts": [
          {
            "election": null,
            "id": 76,
            "name": "Orléans"
          }
        ],
        "pollDivisionIds": [
          10140434
        ],
        "postalCode": "K1E1X1",
        "streetName": "VINETTE",
        "streetDirectionId": null,
        "streetTypeId": "CRES",
        "placeName": "ORLEANS",
        "streetNameDisplayText": "VINETTE CRES, ORLEANS"
      }
    ]
  },
  {
    "postal": "K1E0C1",
    "result": []
  },
  {
    "postal": "K1E4N3",
    "result": []
  },
  {
    "postal": "K1E4S8",
    "result": []
  },
  {
    "postal": "K1E1H6",
    "result": [
      {
        "electoralDistricts": [
          {
            "election": null,
            "id": 76,
            "name": "Orléans"
          }
        ],
        "pollDivisionIds": [
          10140446
        ],
        "postalCode": "K1E1H6",
        "streetName": "MAJOR",
        "streetDirectionId": null,
        "streetTypeId": "RD",
        "placeName": "ORLEANS",
        "streetNameDisplayText": "MAJOR RD, ORLEANS"
      }
    ]
  },
  {
    "postal": "K1E2Z4",
    "result": [
      {
        "electoralDistricts": [
          {
            "election": null,
            "id": 76,
            "name": "Orléans"
          }
        ],
        "pollDivisionIds": [
          10140455
        ],
        "postalCode": "K1E2Z4",
        "streetName": "FERNLEAF",
        "streetDirectionId": null,
        "streetTypeId": "CRES",
        "placeName": "ORLEANS",
        "streetNameDisplayText": "FERNLEAF CRES, ORLEANS"
      }
    ]
  },
  {
    "postal": "K1E7K3",
    "result": []
  },
  {
    "postal": "K1E8A2",
    "result": []
  },
  {
    "postal": "K1E6J1",
    "result": []
  },
  {
    "postal": "K1E5Z6",
    "result": []
  },
  {
    "postal": "K1E3Z0",
    "result": []
  },
  {
    "postal": "K1E8M0",
    "result": []
  },
  {
    "postal": "K1E1Z6",
    "result": [
      {
        "electoralDistricts": [
          {
            "election": null,
            "id": 76,
            "name": "Orléans"
          }
        ],
        "pollDivisionIds": [
          10140434
        ],
        "postalCode": "K1E1Z6",
        "streetName": "SANDPIPER",
        "streetDirectionId": null,
        "streetTypeId": "CRT",
        "placeName": "ORLEANS",
        "streetNameDisplayText": "SANDPIPER CRT, ORLEANS"
      }
    ]
  },
  {
    "postal": "K1E8K7",
    "result": []
  },
  {
    "postal": "K1E1N3",
    "result": [
      {
        "electoralDistricts": [
          {
            "election": null,
            "id": 76,
            "name": "Orléans"
          }
        ],
        "pollDivisionIds": [
          10140446
        ],
        "postalCode": "K1E1N3",
        "streetName": "AMIENS",
        "streetDirectionId": null,
        "streetTypeId": "ST",
        "placeName": "ORLEANS",
        "streetNameDisplayText": "AMIENS ST, ORLEANS"
      }
    ]
  },
  {
    "postal": "K1E9S2",
    "result": []
  },
  {
    "postal": "K1E2K1",
    "result": [
      {
        "electoralDistricts": [
          {
            "election": null,
            "id": 76,
            "name": "Orléans"
          }
        ],
        "pollDivisionIds": [
          10140454
        ],
        "postalCode": "K1E2K1",
        "streetName": "DUVAL",
        "streetDirectionId": null,
        "streetTypeId": "LANE",
        "placeName": "ORLEANS",
        "streetNameDisplayText": "DUVAL LANE, ORLEANS"
      }
    ]
  },
  {
    "postal": "K1E1E8",
    "result": [
      {
        "electoralDistricts": [
          {
            "election": null,
            "id": 76,
            "name": "Orléans"
          }
        ],
        "pollDivisionIds": [
          10140446
        ],
        "postalCode": "K1E1E8",
        "streetName": "DUFORD",
        "streetDirectionId": null,
        "streetTypeId": "DR",
        "placeName": "ORLEANS",
        "streetNameDisplayText": "DUFORD DR, ORLEANS"
      }
    ]
  },
  {
    "postal": "K1E9B8",
    "result": []
  },
  {
    "postal": "K1E7X4",
    "result": []
  },
  {
    "postal": "K1E1Z4",
    "result": [
      {
        "electoralDistricts": [
          {
            "election": null,
            "id": 76,
            "name": "Orléans"
          }
        ],
        "pollDivisionIds": [
          10140434
        ],
        "postalCode": "K1E1Z4",
        "streetName": "LAVEROCK",
        "streetDirectionId": null,
        "streetTypeId": "BAY",
        "placeName": "ORLEANS",
        "streetNameDisplayText": "LAVEROCK BAY, ORLEANS"
      }
    ]
  },
  {
    "postal": "K1E2C7",
    "result": [
      {
        "electoralDistricts": [
          {
            "election": null,
            "id": 76,
            "name": "Orléans"
          }
        ],
        "pollDivisionIds": [
          10140434
        ],
        "postalCode": "K1E2C7",
        "streetName": "CATTAIL",
        "streetDirectionId": null,
        "streetTypeId": "WAY",
        "placeName": "ORLEANS",
        "streetNameDisplayText": "CATTAIL WAY, ORLEANS"
      }
    ]
  },
  {
    "postal": "K1E2E7",
    "result": [
      {
        "electoralDistricts": [
          {
            "election": null,
            "id": 81,
            "name": "Ottawa West—Nepean"
          },
          {
            "election": null,
            "id": 76,
            "name": "Orléans"
          }
        ],
        "pollDivisionIds": [
          10140848,
          10140454
        ],
        "postalCode": "K1E2E7",
        "streetName": "PAYETTE",
        "streetDirectionId": null,
        "streetTypeId": "DR",
        "placeName": "ORLEANS",
        "streetNameDisplayText": "PAYETTE DR, ORLEANS"
      }
    ]
  },
  {
    "postal": "K1E3R1",
    "result": [
      {
        "electoralDistricts": [
          {
            "election": null,
            "id": 76,
            "name": "Orléans"
          }
        ],
        "pollDivisionIds": [
          10140457
        ],
        "postalCode": "K1E3R1",
        "streetName": "LEGRAND",
        "streetDirectionId": null,
        "streetTypeId": "CRES",
        "placeName": "ORLEANS",
        "streetNameDisplayText": "LEGRAND CRES, ORLEANS"
      }
    ]
  },
  {
    "postal": "K1E4K4",
    "result": []
  },
  {
    "postal": "K1E9G3",
    "result": []
  },
  {
    "postal": "K1E6C9",
    "result": []
  },
  {
    "postal": "K1E9H5",
    "result": []
  },
  {
    "postal": "K1E1P5",
    "result": [
      {
        "electoralDistricts": [
          {
            "election": null,
            "id": 76,
            "name": "Orléans"
          }
        ],
        "pollDivisionIds": [
          10140441
        ],
        "postalCode": "K1E1P5",
        "streetName": "ST GEORGES",
        "streetDirectionId": null,
        "streetTypeId": "ST",
        "placeName": "ORLEANS",
        "streetNameDisplayText": "ST GEORGES ST, ORLEANS"
      }
    ]
  },
  {
    "postal": "K1E2J5",
    "result": [
      {
        "electoralDistricts": [
          {
            "election": null,
            "id": 76,
            "name": "Orléans"
          }
        ],
        "pollDivisionIds": [
          10140455
        ],
        "postalCode": "K1E2J5",
        "streetName": "SCHOUTEN",
        "streetDirectionId": null,
        "streetTypeId": "DR",
        "placeName": "ORLEANS",
        "streetNameDisplayText": "SCHOUTEN DR, ORLEANS"
      }
    ]
  },
  {
    "postal": "K1E4W6",
    "result": []
  },
  {
    "postal": "K1E8M8",
    "result": []
  },
  {
    "postal": "K1E6C5",
    "result": []
  },
  {
    "postal": "K1E9H0",
    "result": []
  },
  {
    "postal": "K1E1X8",
    "result": [
      {
        "electoralDistricts": [
          {
            "election": null,
            "id": 76,
            "name": "Orléans"
          }
        ],
        "pollDivisionIds": [
          10140434
        ],
        "postalCode": "K1E1X8",
        "streetName": "LAWNSBERRY",
        "streetDirectionId": null,
        "streetTypeId": "DR",
        "placeName": "ORLEANS",
        "streetNameDisplayText": "LAWNSBERRY DR, ORLEANS"
      }
    ]
  },
  {
    "postal": "K1E3H4",
    "result": [
      {
        "electoralDistricts": [
          {
            "election": null,
            "id": 76,
            "name": "Orléans"
          }
        ],
        "pollDivisionIds": [
          10140441
        ],
        "postalCode": "K1E3H4",
        "streetName": "TOMPKINS",
        "streetDirectionId": null,
        "streetTypeId": "AVE",
        "placeName": "ORLÉANS",
        "streetNameDisplayText": "TOMPKINS AVE, ORLÉANS"
      }
    ]
  },
  {
    "postal": "K1E4E7",
    "result": []
  },
  {
    "postal": "K1E8A0",
    "result": []
  },
  {
    "postal": "K1E1Z7",
    "result": [
      {
        "electoralDistricts": [
          {
            "election": null,
            "id": 76,
            "name": "Orléans"
          }
        ],
        "pollDivisionIds": [
          10140434
        ],
        "postalCode": "K1E1Z7",
        "streetName": "SANDPIPER",
        "streetDirectionId": null,
        "streetTypeId": "CRT",
        "placeName": "ORLEANS",
        "streetNameDisplayText": "SANDPIPER CRT, ORLEANS"
      }
    ]
  },
  {
    "postal": "K1E7Z3",
    "result": []
  },
  {
    "postal": "K1E0L7",
    "result": []
  },
  {
    "postal": "K1E2C6",
    "result": [
      {
        "electoralDistricts": [
          {
            "election": null,
            "id": 76,
            "name": "Orléans"
          }
        ],
        "pollDivisionIds": [
          10140434
        ],
        "postalCode": "K1E2C6",
        "streetName": "CATTAIL",
        "streetDirectionId": null,
        "streetTypeId": "WAY",
        "placeName": "ORLEANS",
        "streetNameDisplayText": "CATTAIL WAY, ORLEANS"
      }
    ]
  },
  {
    "postal": "K1E6M3",
    "result": []
  },
  {
    "postal": "K1E2J1",
    "result": [
      {
        "electoralDistricts": [
          {
            "election": null,
            "id": 76,
            "name": "Orléans"
          }
        ],
        "pollDivisionIds": [
          10140454
        ],
        "postalCode": "K1E2J1",
        "streetName": "PAYETTE",
        "streetDirectionId": null,
        "streetTypeId": "DR",
        "placeName": "ORLEANS",
        "streetNameDisplayText": "PAYETTE DR, ORLEANS"
      }
    ]
  },
  {
    "postal": "K1E3E3",
    "result": []
  },
  {
    "postal": "K1E6Z9",
    "result": []
  },
  {
    "postal": "K1E3M3",
    "result": [
      {
        "electoralDistricts": [
          {
            "election": null,
            "id": 76,
            "name": "Orléans"
          }
        ],
        "pollDivisionIds": [
          10140441,
          10140446
        ],
        "postalCode": "K1E3M3",
        "streetName": "HAYES",
        "streetDirectionId": null,
        "streetTypeId": "ST",
        "placeName": "ORLEANS",
        "streetNameDisplayText": "HAYES ST, ORLEANS"
      },
      {
        "electoralDistricts": [
          {
            "election": null,
            "id": 76,
            "name": "Orléans"
          }
        ],
        "pollDivisionIds": [
          10140441
        ],
        "postalCode": "K1E3M3",
        "streetName": "KENNEDY",
        "streetDirectionId": "E",
        "streetTypeId": "LANE",
        "placeName": "ORLEANS",
        "streetNameDisplayText": "KENNEDY LANE E, ORLEANS"
      }
    ]
  },
  {
    "postal": "K1E9B1",
    "result": []
  },
  {
    "postal": "K1E9J5",
    "result": []
  },
  {
    "postal": "K1E4V8",
    "result": []
  },
  {
    "postal": "K1E6W2",
    "result": []
  },
  {
    "postal": "K1E0V5",
    "result": []
  },
  {
    "postal": "K1E0Z8",
    "result": []
  },
  {
    "postal": "K1E5G2",
    "result": []
  },
  {
    "postal": "K1E4N4",
    "result": []
  },
  {
    "postal": "K1E8G7",
    "result": []
  },
  {
    "postal": "K1E8W1",
    "result": []
  },
  {
    "postal": "K1E1S6",
    "result": [
      {
        "electoralDistricts": [
          {
            "election": null,
            "id": 76,
            "name": "Orléans"
          }
        ],
        "pollDivisionIds": [
          10140455
        ],
        "postalCode": "K1E1S6",
        "streetName": "PRESTWICK",
        "streetDirectionId": null,
        "streetTypeId": "DR",
        "placeName": "ORLEANS",
        "streetNameDisplayText": "PRESTWICK DR, ORLEANS"
      }
    ]
  },
  {
    "postal": "K1E4E0",
    "result": []
  },
  {
    "postal": "K1E4L9",
    "result": []
  },
  {
    "postal": "K1E5Z9",
    "result": []
  },
  {
    "postal": "K1E5V3",
    "result": []
  },
  {
    "postal": "K1E4V2",
    "result": []
  },
  {
    "postal": "K1E7C0",
    "result": []
  },
  {
    "postal": "K1E6L0",
    "result": []
  },
  {
    "postal": "K1E1S9",
    "result": [
      {
        "electoralDistricts": [
          {
            "election": null,
            "id": 76,
            "name": "Orléans"
          }
        ],
        "pollDivisionIds": [
          10140454
        ],
        "postalCode": "K1E1S9",
        "streetName": "PAYETTE",
        "streetDirectionId": null,
        "streetTypeId": "DR",
        "placeName": "ORLEANS",
        "streetNameDisplayText": "PAYETTE DR, ORLEANS"
      }
    ]
  },
  {
    "postal": "K1E7R6",
    "result": []
  },
  {
    "postal": "K1E7J0",
    "result": []
  },
  {
    "postal": "K1E5M0",
    "result": []
  },
  {
    "postal": "K1E2E5",
    "result": [
      {
        "electoralDistricts": [
          {
            "election": null,
            "id": 76,
            "name": "Orléans"
          }
        ],
        "pollDivisionIds": [
          10140454
        ],
        "postalCode": "K1E2E5",
        "streetName": "PHOENIX",
        "streetDirectionId": null,
        "streetTypeId": "CRES",
        "placeName": "ORLEANS",
        "streetNameDisplayText": "PHOENIX CRES, ORLEANS"
      }
    ]
  },
  {
    "postal": "K1E7C7",
    "result": []
  },
  {
    "postal": "K1E5C0",
    "result": []
  },
  {
    "postal": "K1E8V9",
    "result": []
  },
  {
    "postal": "K1E7E0",
    "result": []
  },
  {
    "postal": "K1E6R4",
    "result": []
  },
  {
    "postal": "K1E3Z7",
    "result": []
  },
  {
    "postal": "K1E1J9",
    "result": [
      {
        "electoralDistricts": [
          {
            "election": null,
            "id": 76,
            "name": "Orléans"
          }
        ],
        "pollDivisionIds": [
          10140446
        ],
        "postalCode": "K1E1J9",
        "streetName": "FRASER",
        "streetDirectionId": null,
        "streetTypeId": "PK",
        "placeName": "ORLEANS",
        "streetNameDisplayText": "FRASER PK, ORLEANS"
      }
    ]
  },
  {
    "postal": "K1E7K6",
    "result": []
  },
  {
    "postal": "K1E7Y5",
    "result": []
  },
  {
    "postal": "K1E1B7",
    "result": [
      {
        "electoralDistricts": [
          {
            "election": null,
            "id": 76,
            "name": "Orléans"
          }
        ],
        "pollDivisionIds": [
          10140440,
          10140461
        ],
        "postalCode": "K1E1B7",
        "streetName": "BALSAM",
        "streetDirectionId": null,
        "streetTypeId": "DR",
        "placeName": "ORLEANS",
        "streetNameDisplayText": "BALSAM DR, ORLEANS"
      }
    ]
  },
  {
    "postal": "K1E4S9",
    "result": []
  },
  {
    "postal": "K1E9R9",
    "result": []
  },
  {
    "postal": "K1E5K7",
    "result": []
  },
  {
    "postal": "K1E6P2",
    "result": []
  },
  {
    "postal": "K1E2C5",
    "result": [
      {
        "electoralDistricts": [
          {
            "election": null,
            "id": 76,
            "name": "Orléans"
          }
        ],
        "pollDivisionIds": [
          10140434
        ],
        "postalCode": "K1E2C5",
        "streetName": "TEAL",
        "streetDirectionId": null,
        "streetTypeId": "CRES",
        "placeName": "ORLEANS",
        "streetNameDisplayText": "TEAL CRES, ORLEANS"
      }
    ]
  },
  {
    "postal": "K1E2N0",
    "result": []
  },
  {
    "postal": "K1E1G0",
    "result": []
  },
  {
    "postal": "K1E4K5",
    "result": []
  },
  {
    "postal": "K1E9B5",
    "result": []
  },
  {
    "postal": "K1E6T5",
    "result": []
  },
  {
    "postal": "K1E1N8",
    "result": [
      {
        "electoralDistricts": [
          {
            "election": null,
            "id": 76,
            "name": "Orléans"
          }
        ],
        "pollDivisionIds": [
          10140441
        ],
        "postalCode": "K1E1N8",
        "streetName": "AMIENS",
        "streetDirectionId": null,
        "streetTypeId": "ST",
        "placeName": "ORLEANS",
        "streetNameDisplayText": "AMIENS ST, ORLEANS"
      }
    ]
  },
  {
    "postal": "K1E0C0",
    "result": []
  },
  {
    "postal": "K1E0R9",
    "result": []
  },
  {
    "postal": "K1E7L1",
    "result": []
  },
  {
    "postal": "K1E3Y8",
    "result": []
  },
  {
    "postal": "K1E7X9",
    "result": []
  },
  {
    "postal": "K1E1A7",
    "result": [
      {
        "electoralDistricts": [
          {
            "election": null,
            "id": 76,
            "name": "Orléans"
          }
        ],
        "pollDivisionIds": [
          10140434
        ],
        "postalCode": "K1E1A7",
        "streetName": "HEMLOCK",
        "streetDirectionId": null,
        "streetTypeId": "CRES",
        "placeName": "ORLEANS",
        "streetNameDisplayText": "HEMLOCK CRES, ORLEANS"
      }
    ]
  },
  {
    "postal": "K1E2T9",
    "result": [
      {
        "electoralDistricts": [
          {
            "election": null,
            "id": 76,
            "name": "Orléans"
          }
        ],
        "pollDivisionIds": [
          10140434
        ],
        "postalCode": "K1E2T9",
        "streetName": "KINGLET",
        "streetDirectionId": null,
        "streetTypeId": "WAY",
        "placeName": "ORLEANS",
        "streetNameDisplayText": "KINGLET WAY, ORLEANS"
      }
    ]
  },
  {
    "postal": "K1E2E6",
    "result": [
      {
        "electoralDistricts": [
          {
            "election": null,
            "id": 76,
            "name": "Orléans"
          }
        ],
        "pollDivisionIds": [
          10140454
        ],
        "postalCode": "K1E2E6",
        "streetName": "PRESTWICK",
        "streetDirectionId": null,
        "streetTypeId": "DR",
        "placeName": "ORLEANS",
        "streetNameDisplayText": "PRESTWICK DR, ORLEANS"
      }
    ]
  },
  {
    "postal": "K1E8Y1",
    "result": []
  },
  {
    "postal": "K1E0J5",
    "result": []
  },
  {
    "postal": "K1E4J1",
    "result": []
  },
  {
    "postal": "K1E1A5",
    "result": [
      {
        "electoralDistricts": [
          {
            "election": null,
            "id": 76,
            "name": "Orléans"
          }
        ],
        "pollDivisionIds": [
          10140434
        ],
        "postalCode": "K1E1A5",
        "streetName": "FIR",
        "streetDirectionId": null,
        "streetTypeId": "ST",
        "placeName": "ORLEANS",
        "streetNameDisplayText": "FIR ST, ORLEANS"
      }
    ]
  },
  {
    "postal": "K1E6Z6",
    "result": []
  },
  {
    "postal": "K1E5K4",
    "result": []
  },
  {
    "postal": "K1E7R9",
    "result": []
  },
  {
    "postal": "K1E6G4",
    "result": []
  }
]
