[
  {
    "postal": "K4K9J6",
    "result": []
  },
  {
    "postal": "K4K9Z5",
    "result": []
  },
  {
    "postal": "K4K7H8",
    "result": []
  },
  {
    "postal": "K4K0P6",
    "result": []
  },
  {
    "postal": "K4K0S7",
    "result": []
  },
  {
    "postal": "K4K8B9",
    "result": []
  },
  {
    "postal": "K4K2A6",
    "result": []
  },
  {
    "postal": "K4K7V2",
    "result": []
  },
  {
    "postal": "K4K9P4",
    "result": []
  },
  {
    "postal": "K4K6G0",
    "result": []
  },
  {
    "postal": "K4K2K0",
    "result": []
  },
  {
    "postal": "K4K7N6",
    "result": []
  },
  {
    "postal": "K4K5R3",
    "result": []
  },
  {
    "postal": "K4K7K0",
    "result": []
  },
  {
    "postal": "K4K3R2",
    "result": []
  },
  {
    "postal": "K4K0J1",
    "result": [
      {
        "electoralDistricts": [
          {
            "election": null,
            "id": 32,
            "name": "Glengarry—Prescott—Russell"
          }
        ],
        "pollDivisionIds": [
          10138293
        ],
        "postalCode": "K4K0J1",
        "streetName": "DIAMOND",
        "streetDirectionId": null,
        "streetTypeId": "ST",
        "placeName": "ROCKLAND",
        "streetNameDisplayText": "DIAMOND ST, ROCKLAND"
      },
      {
        "electoralDistricts": [
          {
            "election": null,
            "id": 32,
            "name": "Glengarry—Prescott—Russell"
          }
        ],
        "pollDivisionIds": [
          10138293
        ],
        "postalCode": "K4K0J1",
        "streetName": "GRANITE",
        "streetDirectionId": null,
        "streetTypeId": "ST",
        "placeName": "ROCKLAND",
        "streetNameDisplayText": "GRANITE ST, ROCKLAND"
      }
    ]
  },
  {
    "postal": "K4K0B0",
    "result": []
  },
  {
    "postal": "K4K5Z2",
    "result": []
  },
  {
    "postal": "K4K7P3",
    "result": []
  },
  {
    "postal": "K4K2K3",
    "result": []
  },
  {
    "postal": "K4K7Y6",
    "result": []
  },
  {
    "postal": "K4K1L9",
    "result": [
      {
        "electoralDistricts": [
          {
            "election": null,
            "id": 32,
            "name": "Glengarry—Prescott—Russell"
          }
        ],
        "pollDivisionIds": [
          10138293
        ],
        "postalCode": "K4K1L9",
        "streetName": "CHENE",
        "streetDirectionId": null,
        "streetTypeId": "ST",
        "placeName": "ROCKLAND",
        "streetNameDisplayText": "CHENE ST, ROCKLAND"
      },
      {
        "electoralDistricts": [
          {
            "election": null,
            "id": 32,
            "name": "Glengarry—Prescott—Russell"
          }
        ],
        "pollDivisionIds": [
          10138293
        ],
        "postalCode": "K4K1L9",
        "streetName": "JULIETTE",
        "streetDirectionId": null,
        "streetTypeId": "ST",
        "placeName": "ROCKLAND",
        "streetNameDisplayText": "JULIETTE ST, ROCKLAND"
      },
      {
        "electoralDistricts": [
          {
            "election": null,
            "id": 32,
            "name": "Glengarry—Prescott—Russell"
          }
        ],
        "pollDivisionIds": [
          10138293
        ],
        "postalCode": "K4K1L9",
        "streetName": "POWERS",
        "streetDirectionId": null,
        "streetTypeId": "ST",
        "placeName": "ROCKLAND",
        "streetNameDisplayText": "POWERS ST, ROCKLAND"
      }
    ]
  },
  {
    "postal": "K4K8T0",
    "result": []
  },
  {
    "postal": "K4K3K8",
    "result": []
  },
  {
    "postal": "K4K5W9",
    "result": []
  },
  {
    "postal": "K4K6T9",
    "result": []
  },
  {
    "postal": "K4K4H1",
    "result": []
  },
  {
    "postal": "K4K7A2",
    "result": []
  },
  {
    "postal": "K4K5G0",
    "result": []
  },
  {
    "postal": "K4K8V5",
    "result": []
  },
  {
    "postal": "K4K2Y8",
    "result": []
  },
  {
    "postal": "K4K2B6",
    "result": []
  },
  {
    "postal": "K4K4W8",
    "result": []
  },
  {
    "postal": "K4K8H7",
    "result": []
  },
  {
    "postal": "K4K5P1",
    "result": []
  },
  {
    "postal": "K4K2B8",
    "result": []
  },
  {
    "postal": "K4K0P2",
    "result": []
  },
  {
    "postal": "K4K9M1",
    "result": []
  },
  {
    "postal": "K4K3G0",
    "result": []
  },
  {
    "postal": "K4K9Z2",
    "result": []
  },
  {
    "postal": "K4K2A0",
    "result": []
  },
  {
    "postal": "K4K6Y0",
    "result": []
  },
  {
    "postal": "K4K2Z8",
    "result": []
  },
  {
    "postal": "K4K7Y3",
    "result": []
  },
  {
    "postal": "K4K6Z5",
    "result": []
  },
  {
    "postal": "K4K6E0",
    "result": []
  },
  {
    "postal": "K4K9B7",
    "result": []
  },
  {
    "postal": "K4K9S5",
    "result": []
  },
  {
    "postal": "K4K3X3",
    "result": []
  },
  {
    "postal": "K4K7R5",
    "result": []
  },
  {
    "postal": "K4K2X3",
    "result": []
  },
  {
    "postal": "K4K8Z9",
    "result": []
  },
  {
    "postal": "K4K0N4",
    "result": []
  },
  {
    "postal": "K4K1K1",
    "result": [
      {
        "electoralDistricts": [
          {
            "election": null,
            "id": 32,
            "name": "Glengarry—Prescott—Russell"
          }
        ],
        "pollDivisionIds": [
          10138293
        ],
        "postalCode": "K4K1K1",
        "streetName": "ALBERT",
        "streetDirectionId": null,
        "streetTypeId": "ST",
        "placeName": "ROCKLAND",
        "streetNameDisplayText": "ALBERT ST, ROCKLAND"
      },
      {
        "electoralDistricts": [
          {
            "election": null,
            "id": 32,
            "name": "Glengarry—Prescott—Russell"
          }
        ],
        "pollDivisionIds": [
          10138293
        ],
        "postalCode": "K4K1K1",
        "streetName": "CHENE",
        "streetDirectionId": null,
        "streetTypeId": "ST",
        "placeName": "ROCKLAND",
        "streetNameDisplayText": "CHENE ST, ROCKLAND"
      },
      {
        "electoralDistricts": [
          {
            "election": null,
            "id": 32,
            "name": "Glengarry—Prescott—Russell"
          }
        ],
        "pollDivisionIds": [
          10138293
        ],
        "postalCode": "K4K1K1",
        "streetName": "EDWARDS",
        "streetDirectionId": null,
        "streetTypeId": "ST",
        "placeName": "ROCKLAND",
        "streetNameDisplayText": "EDWARDS ST, ROCKLAND"
      },
      {
        "electoralDistricts": [
          {
            "election": null,
            "id": 32,
            "name": "Glengarry—Prescott—Russell"
          }
        ],
        "pollDivisionIds": [
          10138293
        ],
        "postalCode": "K4K1K1",
        "streetName": "GIROUX",
        "streetDirectionId": null,
        "streetTypeId": "ST",
        "placeName": "ROCKLAND",
        "streetNameDisplayText": "GIROUX ST, ROCKLAND"
      },
      {
        "electoralDistricts": [
          {
            "election": null,
            "id": 32,
            "name": "Glengarry—Prescott—Russell"
          }
        ],
        "pollDivisionIds": [
          10138293
        ],
        "postalCode": "K4K1K1",
        "streetName": "HUDON",
        "streetDirectionId": null,
        "streetTypeId": "ST",
        "placeName": "ROCKLAND",
        "streetNameDisplayText": "HUDON ST, ROCKLAND"
      },
      {
        "electoralDistricts": [
          {
            "election": null,
            "id": 32,
            "name": "Glengarry—Prescott—Russell"
          }
        ],
        "pollDivisionIds": [
          10138293
        ],
        "postalCode": "K4K1K1",
        "streetName": "JULIETTE",
        "streetDirectionId": null,
        "streetTypeId": "ST",
        "placeName": "ROCKLAND",
        "streetNameDisplayText": "JULIETTE ST, ROCKLAND"
      },
      {
        "electoralDistricts": [
          {
            "election": null,
            "id": 32,
            "name": "Glengarry—Prescott—Russell"
          }
        ],
        "pollDivisionIds": [
          10138293
        ],
        "postalCode": "K4K1K1",
        "streetName": "LAURIER",
        "streetDirectionId": null,
        "streetTypeId": "ST",
        "placeName": "ROCKLAND",
        "streetNameDisplayText": "LAURIER ST, ROCKLAND"
      },
      {
        "electoralDistricts": [
          {
            "election": null,
            "id": 32,
            "name": "Glengarry—Prescott—Russell"
          }
        ],
        "pollDivisionIds": [
          10138293
        ],
        "postalCode": "K4K1K1",
        "streetName": "LAVIOLETTE",
        "streetDirectionId": null,
        "streetTypeId": "ST",
        "placeName": "ROCKLAND",
        "streetNameDisplayText": "LAVIOLETTE ST, ROCKLAND"
      },
      {
        "electoralDistricts": [
          {
            "election": null,
            "id": 32,
            "name": "Glengarry—Prescott—Russell"
          }
        ],
        "pollDivisionIds": [
          10138293
        ],
        "postalCode": "K4K1K1",
        "streetName": "MARION",
        "streetDirectionId": null,
        "streetTypeId": "ST",
        "placeName": "ROCKLAND",
        "streetNameDisplayText": "MARION ST, ROCKLAND"
      },
      {
        "electoralDistricts": [
          {
            "election": null,
            "id": 32,
            "name": "Glengarry—Prescott—Russell"
          }
        ],
        "pollDivisionIds": [
          10138293
        ],
        "postalCode": "K4K1K1",
        "streetName": "MARTIN",
        "streetDirectionId": null,
        "streetTypeId": "LANE",
        "placeName": "ROCKLAND",
        "streetNameDisplayText": "MARTIN LANE, ROCKLAND"
      },
      {
        "electoralDistricts": [
          {
            "election": null,
            "id": 32,
            "name": "Glengarry—Prescott—Russell"
          }
        ],
        "pollDivisionIds": [
          10138293
        ],
        "postalCode": "K4K1K1",
        "streetName": "POWERS",
        "streetDirectionId": null,
        "streetTypeId": "ST",
        "placeName": "ROCKLAND",
        "streetNameDisplayText": "POWERS ST, ROCKLAND"
      },
      {
        "electoralDistricts": [
          {
            "election": null,
            "id": 32,
            "name": "Glengarry—Prescott—Russell"
          }
        ],
        "pollDivisionIds": [
          10138293
        ],
        "postalCode": "K4K1K1",
        "streetName": "RAYMOND",
        "streetDirectionId": null,
        "streetTypeId": "ST",
        "placeName": "ROCKLAND",
        "streetNameDisplayText": "RAYMOND ST, ROCKLAND"
      },
      {
        "electoralDistricts": [
          {
            "election": null,
            "id": 32,
            "name": "Glengarry—Prescott—Russell"
          }
        ],
        "pollDivisionIds": [
          10138293
        ],
        "postalCode": "K4K1K1",
        "streetName": "ST JEAN",
        "streetDirectionId": null,
        "streetTypeId": "ST",
        "placeName": "ROCKLAND",
        "streetNameDisplayText": "ST JEAN ST, ROCKLAND"
      },
      {
        "electoralDistricts": [
          {
            "election": null,
            "id": 32,
            "name": "Glengarry—Prescott—Russell"
          }
        ],
        "pollDivisionIds": [
          10138293
        ],
        "postalCode": "K4K1K1",
        "streetName": "ST. JACQUES",
        "streetDirectionId": null,
        "streetTypeId": "ST",
        "placeName": "ROCKLAND",
        "streetNameDisplayText": "ST. JACQUES ST, ROCKLAND"
      },
      {
        "electoralDistricts": [
          {
            "election": null,
            "id": 32,
            "name": "Glengarry—Prescott—Russell"
          }
        ],
        "pollDivisionIds": [
          10138293
        ],
        "postalCode": "K4K1K1",
        "streetName": "ST. JEAN",
        "streetDirectionId": null,
        "streetTypeId": "ST",
        "placeName": "ROCKLAND",
        "streetNameDisplayText": "ST. JEAN ST, ROCKLAND"
      },
      {
        "electoralDistricts": [
          {
            "election": null,
            "id": 32,
            "name": "Glengarry—Prescott—Russell"
          }
        ],
        "pollDivisionIds": [
          10138293
        ],
        "postalCode": "K4K1K1",
        "streetName": "ST. JOSEPH",
        "streetDirectionId": null,
        "streetTypeId": "ST",
        "placeName": "ROCKLAND",
        "streetNameDisplayText": "ST. JOSEPH ST, ROCKLAND"
      },
      {
        "electoralDistricts": [
          {
            "election": null,
            "id": 32,
            "name": "Glengarry—Prescott—Russell"
          }
        ],
        "pollDivisionIds": [
          10138293
        ],
        "postalCode": "K4K1K1",
        "streetName": "ST. LOUIS",
        "streetDirectionId": null,
        "streetTypeId": "ST",
        "placeName": "ROCKLAND",
        "streetNameDisplayText": "ST. LOUIS ST, ROCKLAND"
      },
      {
        "electoralDistricts": [
          {
            "election": null,
            "id": 32,
            "name": "Glengarry—Prescott—Russell"
          }
        ],
        "pollDivisionIds": [
          10138293
        ],
        "postalCode": "K4K1K1",
        "streetName": "TUCKER",
        "streetDirectionId": null,
        "streetTypeId": "RD",
        "placeName": "ROCKLAND",
        "streetNameDisplayText": "TUCKER RD, ROCKLAND"
      },
      {
        "electoralDistricts": [
          {
            "election": null,
            "id": 32,
            "name": "Glengarry—Prescott—Russell"
          }
        ],
        "pollDivisionIds": [
          10138293
        ],
        "postalCode": "K4K1K1",
        "streetName": "VICTORIA",
        "streetDirectionId": null,
        "streetTypeId": "ST",
        "placeName": "ROCKLAND",
        "streetNameDisplayText": "VICTORIA ST, ROCKLAND"
      }
    ]
  },
  {
    "postal": "K4K1S3",
    "result": [
      {
        "electoralDistricts": [
          {
            "election": null,
            "id": 32,
            "name": "Glengarry—Prescott—Russell"
          }
        ],
        "pollDivisionIds": [
          10138293
        ],
        "postalCode": "K4K1S3",
        "streetName": "CECILE",
        "streetDirectionId": null,
        "streetTypeId": "CRES",
        "placeName": "ROCKLAND",
        "streetNameDisplayText": "CECILE CRES, ROCKLAND"
      },
      {
        "electoralDistricts": [
          {
            "election": null,
            "id": 32,
            "name": "Glengarry—Prescott—Russell"
          }
        ],
        "pollDivisionIds": [
          10138293
        ],
        "postalCode": "K4K1S3",
        "streetName": "RICHELIEU",
        "streetDirectionId": null,
        "streetTypeId": "ST",
        "placeName": "ROCKLAND",
        "streetNameDisplayText": "RICHELIEU ST, ROCKLAND"
      }
    ]
  },
  {
    "postal": "K4K6M4",
    "result": []
  },
  {
    "postal": "K4K9A9",
    "result": []
  },
  {
    "postal": "K4K9Z9",
    "result": []
  },
  {
    "postal": "K4K6T4",
    "result": []
  },
  {
    "postal": "K4K0B2",
    "result": [
      {
        "electoralDistricts": [
          {
            "election": null,
            "id": 32,
            "name": "Glengarry—Prescott—Russell"
          }
        ],
        "pollDivisionIds": [
          10138293
        ],
        "postalCode": "K4K0B2",
        "streetName": "CHAMBERLAND",
        "streetDirectionId": null,
        "streetTypeId": "ST",
        "placeName": "ROCKLAND",
        "streetNameDisplayText": "CHAMBERLAND ST, ROCKLAND"
      }
    ]
  },
  {
    "postal": "K4K2L9",
    "result": []
  },
  {
    "postal": "K4K8K9",
    "result": []
  },
  {
    "postal": "K4K2H9",
    "result": []
  },
  {
    "postal": "K4K3Z6",
    "result": []
  },
  {
    "postal": "K4K3B0",
    "result": []
  },
  {
    "postal": "K4K2H8",
    "result": []
  },
  {
    "postal": "K4K3X2",
    "result": []
  },
  {
    "postal": "K4K2E9",
    "result": []
  },
  {
    "postal": "K4K9P6",
    "result": []
  },
  {
    "postal": "K4K9E2",
    "result": []
  },
  {
    "postal": "K4K9H2",
    "result": []
  },
  {
    "postal": "K4K1S8",
    "result": []
  },
  {
    "postal": "K4K3M6",
    "result": []
  },
  {
    "postal": "K4K6Z8",
    "result": []
  },
  {
    "postal": "K4K4J2",
    "result": []
  },
  {
    "postal": "K4K9Y1",
    "result": []
  },
  {
    "postal": "K4K8V6",
    "result": []
  },
  {
    "postal": "K4K6B2",
    "result": []
  },
  {
    "postal": "K4K1P8",
    "result": [
      {
        "electoralDistricts": [
          {
            "election": null,
            "id": 32,
            "name": "Glengarry—Prescott—Russell"
          }
        ],
        "pollDivisionIds": [
          10138293
        ],
        "postalCode": "K4K1P8",
        "streetName": "DIANNE",
        "streetDirectionId": null,
        "streetTypeId": "AVE",
        "placeName": "ROCKLAND",
        "streetNameDisplayText": "DIANNE AVE, ROCKLAND"
      },
      {
        "electoralDistricts": [
          {
            "election": null,
            "id": 32,
            "name": "Glengarry—Prescott—Russell"
          }
        ],
        "pollDivisionIds": [
          10138293
        ],
        "postalCode": "K4K1P8",
        "streetName": "PAUL",
        "streetDirectionId": null,
        "streetTypeId": "TERR",
        "placeName": "ROCKLAND",
        "streetNameDisplayText": "PAUL TERR, ROCKLAND"
      }
    ]
  },
  {
    "postal": "K4K0V8",
    "result": []
  },
  {
    "postal": "K4K4Y0",
    "result": []
  },
  {
    "postal": "K4K2T4",
    "result": []
  },
  {
    "postal": "K4K2S3",
    "result": []
  },
  {
    "postal": "K4K0K0",
    "result": []
  },
  {
    "postal": "K4K5N1",
    "result": []
  },
  {
    "postal": "K4K7T0",
    "result": []
  },
  {
    "postal": "K4K9N2",
    "result": []
  },
  {
    "postal": "K4K5L1",
    "result": []
  },
  {
    "postal": "K4K7G5",
    "result": []
  },
  {
    "postal": "K4K6K2",
    "result": []
  },
  {
    "postal": "K4K6P9",
    "result": []
  },
  {
    "postal": "K4K0E6",
    "result": [
      {
        "electoralDistricts": [
          {
            "election": null,
            "id": 32,
            "name": "Glengarry—Prescott—Russell"
          }
        ],
        "pollDivisionIds": [
          10138293
        ],
        "postalCode": "K4K0E6",
        "streetName": "ELIOT",
        "streetDirectionId": null,
        "streetTypeId": "ST",
        "placeName": "ROCKLAND",
        "streetNameDisplayText": "ELIOT ST, ROCKLAND"
      }
    ]
  },
  {
    "postal": "K4K8R9",
    "result": []
  },
  {
    "postal": "K4K3G9",
    "result": []
  },
  {
    "postal": "K4K0V7",
    "result": []
  },
  {
    "postal": "K4K2Z1",
    "result": []
  },
  {
    "postal": "K4K7N1",
    "result": []
  },
  {
    "postal": "K4K3C6",
    "result": []
  },
  {
    "postal": "K4K4M1",
    "result": []
  },
  {
    "postal": "K4K9K2",
    "result": []
  },
  {
    "postal": "K4K9S6",
    "result": []
  },
  {
    "postal": "K4K4X1",
    "result": []
  },
  {
    "postal": "K4K8W2",
    "result": []
  },
  {
    "postal": "K4K7N2",
    "result": []
  },
  {
    "postal": "K4K8S3",
    "result": []
  },
  {
    "postal": "K4K4V0",
    "result": []
  },
  {
    "postal": "K4K6W4",
    "result": []
  },
  {
    "postal": "K4K5M1",
    "result": []
  },
  {
    "postal": "K4K0S4",
    "result": []
  },
  {
    "postal": "K4K5X6",
    "result": []
  },
  {
    "postal": "K4K8L5",
    "result": []
  },
  {
    "postal": "K4K5M8",
    "result": []
  },
  {
    "postal": "K4K2G3",
    "result": []
  },
  {
    "postal": "K4K8E4",
    "result": []
  },
  {
    "postal": "K4K7S9",
    "result": []
  },
  {
    "postal": "K4K1K3",
    "result": [
      {
        "electoralDistricts": [
          {
            "election": null,
            "id": 32,
            "name": "Glengarry—Prescott—Russell"
          }
        ],
        "pollDivisionIds": [
          10138293
        ],
        "postalCode": "K4K1K3",
        "streetName": "ALBERT",
        "streetDirectionId": null,
        "streetTypeId": "ST",
        "placeName": "ROCKLAND",
        "streetNameDisplayText": "ALBERT ST, ROCKLAND"
      },
      {
        "electoralDistricts": [
          {
            "election": null,
            "id": 32,
            "name": "Glengarry—Prescott—Russell"
          }
        ],
        "pollDivisionIds": [
          10138293
        ],
        "postalCode": "K4K1K3",
        "streetName": "CHENE",
        "streetDirectionId": null,
        "streetTypeId": "ST",
        "placeName": "ROCKLAND",
        "streetNameDisplayText": "CHENE ST, ROCKLAND"
      },
      {
        "electoralDistricts": [
          {
            "election": null,
            "id": 32,
            "name": "Glengarry—Prescott—Russell"
          }
        ],
        "pollDivisionIds": [
          10138293
        ],
        "postalCode": "K4K1K3",
        "streetName": "CHENÉ",
        "streetDirectionId": null,
        "streetTypeId": "ST",
        "placeName": "ROCKLAND",
        "streetNameDisplayText": "CHENÉ ST, ROCKLAND"
      },
      {
        "electoralDistricts": [
          {
            "election": null,
            "id": 32,
            "name": "Glengarry—Prescott—Russell"
          }
        ],
        "pollDivisionIds": [
          10138293
        ],
        "postalCode": "K4K1K3",
        "streetName": "COUNTY 17",
        "streetDirectionId": null,
        "streetTypeId": "RD",
        "placeName": "ROCKLAND",
        "streetNameDisplayText": "COUNTY 17 RD, ROCKLAND"
      },
      {
        "electoralDistricts": [
          {
            "election": null,
            "id": 32,
            "name": "Glengarry—Prescott—Russell"
          }
        ],
        "pollDivisionIds": [
          10138293
        ],
        "postalCode": "K4K1K3",
        "streetName": "EDWARDS",
        "streetDirectionId": null,
        "streetTypeId": "ST",
        "placeName": "ROCKLAND",
        "streetNameDisplayText": "EDWARDS ST, ROCKLAND"
      },
      {
        "electoralDistricts": [
          {
            "election": null,
            "id": 32,
            "name": "Glengarry—Prescott—Russell"
          }
        ],
        "pollDivisionIds": [
          10138293
        ],
        "postalCode": "K4K1K3",
        "streetName": "GIROUX",
        "streetDirectionId": null,
        "streetTypeId": "ST",
        "placeName": "ROCKLAND",
        "streetNameDisplayText": "GIROUX ST, ROCKLAND"
      },
      {
        "electoralDistricts": [
          {
            "election": null,
            "id": 32,
            "name": "Glengarry—Prescott—Russell"
          }
        ],
        "pollDivisionIds": [
          10138293
        ],
        "postalCode": "K4K1K3",
        "streetName": "HUDON",
        "streetDirectionId": null,
        "streetTypeId": "ST",
        "placeName": "ROCKLAND",
        "streetNameDisplayText": "HUDON ST, ROCKLAND"
      },
      {
        "electoralDistricts": [
          {
            "election": null,
            "id": 32,
            "name": "Glengarry—Prescott—Russell"
          }
        ],
        "pollDivisionIds": [
          10138293
        ],
        "postalCode": "K4K1K3",
        "streetName": "JULIETTE",
        "streetDirectionId": null,
        "streetTypeId": "ST",
        "placeName": "ROCKLAND",
        "streetNameDisplayText": "JULIETTE ST, ROCKLAND"
      },
      {
        "electoralDistricts": [
          {
            "election": null,
            "id": 32,
            "name": "Glengarry—Prescott—Russell"
          }
        ],
        "pollDivisionIds": [
          10138293
        ],
        "postalCode": "K4K1K3",
        "streetName": "LAURIER",
        "streetDirectionId": null,
        "streetTypeId": "ST",
        "placeName": "ROCKLAND",
        "streetNameDisplayText": "LAURIER ST, ROCKLAND"
      },
      {
        "electoralDistricts": [
          {
            "election": null,
            "id": 32,
            "name": "Glengarry—Prescott—Russell"
          }
        ],
        "pollDivisionIds": [
          10138293
        ],
        "postalCode": "K4K1K3",
        "streetName": "LAVIOLETTE",
        "streetDirectionId": null,
        "streetTypeId": "ST",
        "placeName": "ROCKLAND",
        "streetNameDisplayText": "LAVIOLETTE ST, ROCKLAND"
      },
      {
        "electoralDistricts": [
          {
            "election": null,
            "id": 32,
            "name": "Glengarry—Prescott—Russell"
          }
        ],
        "pollDivisionIds": [
          10138293
        ],
        "postalCode": "K4K1K3",
        "streetName": "MARION",
        "streetDirectionId": null,
        "streetTypeId": "ST",
        "placeName": "ROCKLAND",
        "streetNameDisplayText": "MARION ST, ROCKLAND"
      },
      {
        "electoralDistricts": [
          {
            "election": null,
            "id": 32,
            "name": "Glengarry—Prescott—Russell"
          }
        ],
        "pollDivisionIds": [
          10138293
        ],
        "postalCode": "K4K1K3",
        "streetName": "MARTIN",
        "streetDirectionId": null,
        "streetTypeId": "LANE",
        "placeName": "ROCKLAND",
        "streetNameDisplayText": "MARTIN LANE, ROCKLAND"
      },
      {
        "electoralDistricts": [
          {
            "election": null,
            "id": 32,
            "name": "Glengarry—Prescott—Russell"
          }
        ],
        "pollDivisionIds": [
          10138293
        ],
        "postalCode": "K4K1K3",
        "streetName": "MC CALL",
        "streetDirectionId": null,
        "streetTypeId": "ST",
        "placeName": "ROCKLAND",
        "streetNameDisplayText": "MC CALL ST, ROCKLAND"
      },
      {
        "electoralDistricts": [
          {
            "election": null,
            "id": 32,
            "name": "Glengarry—Prescott—Russell"
          }
        ],
        "pollDivisionIds": [
          10138293
        ],
        "postalCode": "K4K1K3",
        "streetName": "MCCALL",
        "streetDirectionId": null,
        "streetTypeId": "ST",
        "placeName": "ROCKLAND",
        "streetNameDisplayText": "MCCALL ST, ROCKLAND"
      },
      {
        "electoralDistricts": [
          {
            "election": null,
            "id": 32,
            "name": "Glengarry—Prescott—Russell"
          }
        ],
        "pollDivisionIds": [
          10138293
        ],
        "postalCode": "K4K1K3",
        "streetName": "OUTAOUAIS",
        "streetDirectionId": null,
        "streetTypeId": "MONTÉE",
        "placeName": "ROCKLAND",
        "streetNameDisplayText": "OUTAOUAIS MONTÉE, ROCKLAND"
      },
      {
        "electoralDistricts": [
          {
            "election": null,
            "id": 32,
            "name": "Glengarry—Prescott—Russell"
          }
        ],
        "pollDivisionIds": [
          10138293
        ],
        "postalCode": "K4K1K3",
        "streetName": "PAGO",
        "streetDirectionId": null,
        "streetTypeId": "RD",
        "placeName": "ROCKLAND",
        "streetNameDisplayText": "PAGO RD, ROCKLAND"
      },
      {
        "electoralDistricts": [
          {
            "election": null,
            "id": 32,
            "name": "Glengarry—Prescott—Russell"
          }
        ],
        "pollDivisionIds": [
          10138293
        ],
        "postalCode": "K4K1K3",
        "streetName": "POWERS",
        "streetDirectionId": null,
        "streetTypeId": "ST",
        "placeName": "ROCKLAND",
        "streetNameDisplayText": "POWERS ST, ROCKLAND"
      },
      {
        "electoralDistricts": [
          {
            "election": null,
            "id": 32,
            "name": "Glengarry—Prescott—Russell"
          }
        ],
        "pollDivisionIds": [
          10138293
        ],
        "postalCode": "K4K1K3",
        "streetName": "RAYMOND",
        "streetDirectionId": null,
        "streetTypeId": "ST",
        "placeName": "ROCKLAND",
        "streetNameDisplayText": "RAYMOND ST, ROCKLAND"
      },
      {
        "electoralDistricts": [
          {
            "election": null,
            "id": 32,
            "name": "Glengarry—Prescott—Russell"
          }
        ],
        "pollDivisionIds": [
          10138293
        ],
        "postalCode": "K4K1K3",
        "streetName": "RUE GIROUX",
        "streetDirectionId": null,
        "streetTypeId": null,
        "placeName": "ROCKLAND",
        "streetNameDisplayText": "RUE GIROUX, ROCKLAND"
      },
      {
        "electoralDistricts": [
          {
            "election": null,
            "id": 32,
            "name": "Glengarry—Prescott—Russell"
          }
        ],
        "pollDivisionIds": [
          10138293
        ],
        "postalCode": "K4K1K3",
        "streetName": "ST JEAN",
        "streetDirectionId": null,
        "streetTypeId": "ST",
        "placeName": "ROCKLAND",
        "streetNameDisplayText": "ST JEAN ST, ROCKLAND"
      },
      {
        "electoralDistricts": [
          {
            "election": null,
            "id": 32,
            "name": "Glengarry—Prescott—Russell"
          }
        ],
        "pollDivisionIds": [
          10138293
        ],
        "postalCode": "K4K1K3",
        "streetName": "ST. JACQUES",
        "streetDirectionId": null,
        "streetTypeId": "ST",
        "placeName": "ROCKLAND",
        "streetNameDisplayText": "ST. JACQUES ST, ROCKLAND"
      },
      {
        "electoralDistricts": [
          {
            "election": null,
            "id": 32,
            "name": "Glengarry—Prescott—Russell"
          }
        ],
        "pollDivisionIds": [
          10138293
        ],
        "postalCode": "K4K1K3",
        "streetName": "ST. JEAN",
        "streetDirectionId": null,
        "streetTypeId": "ST",
        "placeName": "ROCKLAND",
        "streetNameDisplayText": "ST. JEAN ST, ROCKLAND"
      },
      {
        "electoralDistricts": [
          {
            "election": null,
            "id": 32,
            "name": "Glengarry—Prescott—Russell"
          }
        ],
        "pollDivisionIds": [
          10138293
        ],
        "postalCode": "K4K1K3",
        "streetName": "ST. JOSEPH",
        "streetDirectionId": null,
        "streetTypeId": "ST",
        "placeName": "ROCKLAND",
        "streetNameDisplayText": "ST. JOSEPH ST, ROCKLAND"
      },
      {
        "electoralDistricts": [
          {
            "election": null,
            "id": 32,
            "name": "Glengarry—Prescott—Russell"
          }
        ],
        "pollDivisionIds": [
          10138293
        ],
        "postalCode": "K4K1K3",
        "streetName": "ST. LOUIS",
        "streetDirectionId": null,
        "streetTypeId": "ST",
        "placeName": "ROCKLAND",
        "streetNameDisplayText": "ST. LOUIS ST, ROCKLAND"
      },
      {
        "electoralDistricts": [
          {
            "election": null,
            "id": 32,
            "name": "Glengarry—Prescott—Russell"
          }
        ],
        "pollDivisionIds": [
          10138293
        ],
        "postalCode": "K4K1K3",
        "streetName": "VICTORIA",
        "streetDirectionId": null,
        "streetTypeId": "ST",
        "placeName": "ROCKLAND",
        "streetNameDisplayText": "VICTORIA ST, ROCKLAND"
      }
    ]
  },
  {
    "postal": "K4K4E1",
    "result": []
  },
  {
    "postal": "K4K4R2",
    "result": []
  },
  {
    "postal": "K4K6T0",
    "result": []
  },
  {
    "postal": "K4K3K5",
    "result": []
  },
  {
    "postal": "K4K3S3",
    "result": []
  },
  {
    "postal": "K4K3L4",
    "result": []
  },
  {
    "postal": "K4K9Y2",
    "result": []
  },
  {
    "postal": "K4K1E0",
    "result": []
  },
  {
    "postal": "K4K9A4",
    "result": []
  },
  {
    "postal": "K4K1L3",
    "result": [
      {
        "electoralDistricts": [
          {
            "election": null,
            "id": 32,
            "name": "Glengarry—Prescott—Russell"
          }
        ],
        "pollDivisionIds": [
          10138293
        ],
        "postalCode": "K4K1L3",
        "streetName": "ALBERT",
        "streetDirectionId": null,
        "streetTypeId": "ST",
        "placeName": "ROCKLAND",
        "streetNameDisplayText": "ALBERT ST, ROCKLAND"
      }
    ]
  },
  {
    "postal": "K4K6N1",
    "result": []
  },
  {
    "postal": "K4K6G7",
    "result": []
  },
  {
    "postal": "K4K7W1",
    "result": []
  },
  {
    "postal": "K4K4M6",
    "result": []
  },
  {
    "postal": "K4K1K0",
    "result": []
  },
  {
    "postal": "K4K3E2",
    "result": []
  },
  {
    "postal": "K4K5H4",
    "result": []
  },
  {
    "postal": "K4K1K7",
    "result": [
      {
        "electoralDistricts": [
          {
            "election": null,
            "id": 32,
            "name": "Glengarry—Prescott—Russell"
          }
        ],
        "pollDivisionIds": [
          10138293
        ],
        "postalCode": "K4K1K7",
        "streetName": "ADOLPHUS",
        "streetDirectionId": null,
        "streetTypeId": "CRT",
        "placeName": "ROCKLAND",
        "streetNameDisplayText": "ADOLPHUS CRT, ROCKLAND"
      },
      {
        "electoralDistricts": [
          {
            "election": null,
            "id": 32,
            "name": "Glengarry—Prescott—Russell"
          }
        ],
        "pollDivisionIds": [
          10138293
        ],
        "postalCode": "K4K1K7",
        "streetName": "ADRIEN",
        "streetDirectionId": null,
        "streetTypeId": "ST",
        "placeName": "ROCKLAND",
        "streetNameDisplayText": "ADRIEN ST, ROCKLAND"
      },
      {
        "electoralDistricts": [
          {
            "election": null,
            "id": 32,
            "name": "Glengarry—Prescott—Russell"
          }
        ],
        "pollDivisionIds": [
          10138293
        ],
        "postalCode": "K4K1K7",
        "streetName": "AGATHE",
        "streetDirectionId": null,
        "streetTypeId": "ST",
        "placeName": "ROCKLAND",
        "streetNameDisplayText": "AGATHE ST, ROCKLAND"
      },
      {
        "electoralDistricts": [
          {
            "election": null,
            "id": 32,
            "name": "Glengarry—Prescott—Russell"
          }
        ],
        "pollDivisionIds": [
          10138293
        ],
        "postalCode": "K4K1K7",
        "streetName": "ALARY",
        "streetDirectionId": null,
        "streetTypeId": "RD",
        "placeName": "ROCKLAND",
        "streetNameDisplayText": "ALARY RD, ROCKLAND"
      },
      {
        "electoralDistricts": [
          {
            "election": null,
            "id": 32,
            "name": "Glengarry—Prescott—Russell"
          }
        ],
        "pollDivisionIds": [
          10138293
        ],
        "postalCode": "K4K1K7",
        "streetName": "ALEXANDER",
        "streetDirectionId": null,
        "streetTypeId": "ST",
        "placeName": "ROCKLAND",
        "streetNameDisplayText": "ALEXANDER ST, ROCKLAND"
      },
      {
        "electoralDistricts": [
          {
            "election": null,
            "id": 32,
            "name": "Glengarry—Prescott—Russell"
          }
        ],
        "pollDivisionIds": [
          10138294,
          10138293
        ],
        "postalCode": "K4K1K7",
        "streetName": "BASELINE",
        "streetDirectionId": null,
        "streetTypeId": "RD",
        "placeName": "ROCKLAND",
        "streetNameDisplayText": "BASELINE RD, ROCKLAND"
      },
      {
        "electoralDistricts": [
          {
            "election": null,
            "id": 32,
            "name": "Glengarry—Prescott—Russell"
          }
        ],
        "pollDivisionIds": [
          10138293
        ],
        "postalCode": "K4K1K7",
        "streetName": "BOULEAUX",
        "streetDirectionId": null,
        "streetTypeId": null,
        "placeName": "ROCKLAND",
        "streetNameDisplayText": "BOULEAUX, ROCKLAND"
      },
      {
        "electoralDistricts": [
          {
            "election": null,
            "id": 32,
            "name": "Glengarry—Prescott—Russell"
          }
        ],
        "pollDivisionIds": [
          10138293
        ],
        "postalCode": "K4K1K7",
        "streetName": "CARON",
        "streetDirectionId": null,
        "streetTypeId": "ST",
        "placeName": "ROCKLAND",
        "streetNameDisplayText": "CARON ST, ROCKLAND"
      },
      {
        "electoralDistricts": [
          {
            "election": null,
            "id": 32,
            "name": "Glengarry—Prescott—Russell"
          }
        ],
        "pollDivisionIds": [
          10138293
        ],
        "postalCode": "K4K1K7",
        "streetName": "CHARBONNEAU",
        "streetDirectionId": null,
        "streetTypeId": "ST",
        "placeName": "ROCKLAND",
        "streetNameDisplayText": "CHARBONNEAU ST, ROCKLAND"
      },
      {
        "electoralDistricts": [
          {
            "election": null,
            "id": 32,
            "name": "Glengarry—Prescott—Russell"
          }
        ],
        "pollDivisionIds": [
          10138293
        ],
        "postalCode": "K4K1K7",
        "streetName": "CHARLEBOIS",
        "streetDirectionId": null,
        "streetTypeId": "ST",
        "placeName": "ROCKLAND",
        "streetNameDisplayText": "CHARLEBOIS ST, ROCKLAND"
      },
      {
        "electoralDistricts": [
          {
            "election": null,
            "id": 32,
            "name": "Glengarry—Prescott—Russell"
          }
        ],
        "pollDivisionIds": [
          10138293,
          10138286
        ],
        "postalCode": "K4K1K7",
        "streetName": "CHEMIN DU RUISSEAU",
        "streetDirectionId": null,
        "streetTypeId": "ST",
        "placeName": "ROCKLAND",
        "streetNameDisplayText": "CHEMIN DU RUISSEAU ST, ROCKLAND"
      },
      {
        "electoralDistricts": [
          {
            "election": null,
            "id": 32,
            "name": "Glengarry—Prescott—Russell"
          }
        ],
        "pollDivisionIds": [
          10138293
        ],
        "postalCode": "K4K1K7",
        "streetName": "CHEMIN RAMAGE",
        "streetDirectionId": null,
        "streetTypeId": "CH",
        "placeName": "ROCKLAND",
        "streetNameDisplayText": "CHEMIN RAMAGE CH, ROCKLAND"
      },
      {
        "electoralDistricts": [
          {
            "election": null,
            "id": 32,
            "name": "Glengarry—Prescott—Russell"
          }
        ],
        "pollDivisionIds": [
          10138293
        ],
        "postalCode": "K4K1K7",
        "streetName": "CHRISTOPHER VERDON",
        "streetDirectionId": null,
        "streetTypeId": "ST",
        "placeName": "ROCKLAND",
        "streetNameDisplayText": "CHRISTOPHER VERDON ST, ROCKLAND"
      },
      {
        "electoralDistricts": [
          {
            "election": null,
            "id": 32,
            "name": "Glengarry—Prescott—Russell"
          }
        ],
        "pollDivisionIds": [
          10138293
        ],
        "postalCode": "K4K1K7",
        "streetName": "CLARENCE",
        "streetDirectionId": null,
        "streetTypeId": "CRT",
        "placeName": "ROCKLAND",
        "streetNameDisplayText": "CLARENCE CRT, ROCKLAND"
      },
      {
        "electoralDistricts": [
          {
            "election": null,
            "id": 32,
            "name": "Glengarry—Prescott—Russell"
          }
        ],
        "pollDivisionIds": [
          10138300,
          10138293
        ],
        "postalCode": "K4K1K7",
        "streetName": "CLARK",
        "streetDirectionId": null,
        "streetTypeId": "RD",
        "placeName": "ROCKLAND",
        "streetNameDisplayText": "CLARK RD, ROCKLAND"
      },
      {
        "electoralDistricts": [
          {
            "election": null,
            "id": 32,
            "name": "Glengarry—Prescott—Russell"
          }
        ],
        "pollDivisionIds": [
          10138293
        ],
        "postalCode": "K4K1K7",
        "streetName": "CLAUDETTE",
        "streetDirectionId": null,
        "streetTypeId": "DR",
        "placeName": "ROCKLAND",
        "streetNameDisplayText": "CLAUDETTE DR, ROCKLAND"
      },
      {
        "electoralDistricts": [
          {
            "election": null,
            "id": 32,
            "name": "Glengarry—Prescott—Russell"
          }
        ],
        "pollDivisionIds": [
          10138293,
          10138300
        ],
        "postalCode": "K4K1K7",
        "streetName": "COUNTY 17",
        "streetDirectionId": null,
        "streetTypeId": "RD",
        "placeName": "ROCKLAND",
        "streetNameDisplayText": "COUNTY 17 RD, ROCKLAND"
      },
      {
        "electoralDistricts": [
          {
            "election": null,
            "id": 32,
            "name": "Glengarry—Prescott—Russell"
          }
        ],
        "pollDivisionIds": [
          10138300
        ],
        "postalCode": "K4K1K7",
        "streetName": "COUNTY 17",
        "streetDirectionId": null,
        "streetTypeId": "RD",
        "placeName": "SAINT-PASCAL-BAYLON",
        "streetNameDisplayText": "COUNTY 17 RD, SAINT-PASCAL-BAYLON"
      },
      {
        "electoralDistricts": [
          {
            "election": null,
            "id": 32,
            "name": "Glengarry—Prescott—Russell"
          }
        ],
        "pollDivisionIds": [
          10138300
        ],
        "postalCode": "K4K1K7",
        "streetName": "COUNTY ROAD 17",
        "streetDirectionId": null,
        "streetTypeId": null,
        "placeName": "ROCKLAND",
        "streetNameDisplayText": "COUNTY ROAD 17, ROCKLAND"
      },
      {
        "electoralDistricts": [
          {
            "election": null,
            "id": 32,
            "name": "Glengarry—Prescott—Russell"
          }
        ],
        "pollDivisionIds": [
          10138293
        ],
        "postalCode": "K4K1K7",
        "streetName": "DALLAIRE",
        "streetDirectionId": null,
        "streetTypeId": "RD",
        "placeName": "ROCKLAND",
        "streetNameDisplayText": "DALLAIRE RD, ROCKLAND"
      },
      {
        "electoralDistricts": [
          {
            "election": null,
            "id": 32,
            "name": "Glengarry—Prescott—Russell"
          }
        ],
        "pollDivisionIds": [
          10138293
        ],
        "postalCode": "K4K1K7",
        "streetName": "DALLAIRE",
        "streetDirectionId": null,
        "streetTypeId": "ST",
        "placeName": "ROCKLAND",
        "streetNameDisplayText": "DALLAIRE ST, ROCKLAND"
      },
      {
        "electoralDistricts": [
          {
            "election": null,
            "id": 32,
            "name": "Glengarry—Prescott—Russell"
          }
        ],
        "pollDivisionIds": [
          10138293
        ],
        "postalCode": "K4K1K7",
        "streetName": "DANIEL",
        "streetDirectionId": null,
        "streetTypeId": "CRES",
        "placeName": "ROCKLAND",
        "streetNameDisplayText": "DANIEL CRES, ROCKLAND"
      },
      {
        "electoralDistricts": [
          {
            "election": null,
            "id": 32,
            "name": "Glengarry—Prescott—Russell"
          }
        ],
        "pollDivisionIds": [
          10138293
        ],
        "postalCode": "K4K1K7",
        "streetName": "DANIEL",
        "streetDirectionId": null,
        "streetTypeId": "ST",
        "placeName": "ROCKLAND",
        "streetNameDisplayText": "DANIEL ST, ROCKLAND"
      },
      {
        "electoralDistricts": [
          {
            "election": null,
            "id": 32,
            "name": "Glengarry—Prescott—Russell"
          }
        ],
        "pollDivisionIds": [
          10138293
        ],
        "postalCode": "K4K1K7",
        "streetName": "DAVID",
        "streetDirectionId": null,
        "streetTypeId": "RD",
        "placeName": "ROCKLAND",
        "streetNameDisplayText": "DAVID RD, ROCKLAND"
      },
      {
        "electoralDistricts": [
          {
            "election": null,
            "id": 32,
            "name": "Glengarry—Prescott—Russell"
          }
        ],
        "pollDivisionIds": [
          10138293
        ],
        "postalCode": "K4K1K7",
        "streetName": "DAVID",
        "streetDirectionId": null,
        "streetTypeId": "ST",
        "placeName": "ROCKLAND",
        "streetNameDisplayText": "DAVID ST, ROCKLAND"
      },
      {
        "electoralDistricts": [
          {
            "election": null,
            "id": 32,
            "name": "Glengarry—Prescott—Russell"
          }
        ],
        "pollDivisionIds": [
          10138293
        ],
        "postalCode": "K4K1K7",
        "streetName": "DU PLATEAU",
        "streetDirectionId": null,
        "streetTypeId": "ST",
        "placeName": "ROCKLAND",
        "streetNameDisplayText": "DU PLATEAU ST, ROCKLAND"
      },
      {
        "electoralDistricts": [
          {
            "election": null,
            "id": 32,
            "name": "Glengarry—Prescott—Russell"
          }
        ],
        "pollDivisionIds": [
          10138293
        ],
        "postalCode": "K4K1K7",
        "streetName": "DU RUISSEAU",
        "streetDirectionId": null,
        "streetTypeId": "RD",
        "placeName": "ROCKLAND",
        "streetNameDisplayText": "DU RUISSEAU RD, ROCKLAND"
      },
      {
        "electoralDistricts": [
          {
            "election": null,
            "id": 32,
            "name": "Glengarry—Prescott—Russell"
          }
        ],
        "pollDivisionIds": [
          10138293,
          10138286
        ],
        "postalCode": "K4K1K7",
        "streetName": "DU RUISSEAU",
        "streetDirectionId": null,
        "streetTypeId": "ST",
        "placeName": "ROCKLAND",
        "streetNameDisplayText": "DU RUISSEAU ST, ROCKLAND"
      },
      {
        "electoralDistricts": [
          {
            "election": null,
            "id": 32,
            "name": "Glengarry—Prescott—Russell"
          }
        ],
        "pollDivisionIds": [
          10138300,
          10138293
        ],
        "postalCode": "K4K1K7",
        "streetName": "DUBOIS",
        "streetDirectionId": null,
        "streetTypeId": "ST",
        "placeName": "ROCKLAND",
        "streetNameDisplayText": "DUBOIS ST, ROCKLAND"
      },
      {
        "electoralDistricts": [
          {
            "election": null,
            "id": 32,
            "name": "Glengarry—Prescott—Russell"
          }
        ],
        "pollDivisionIds": [
          10138293
        ],
        "postalCode": "K4K1K7",
        "streetName": "HUNTERS HOLLOW",
        "streetDirectionId": null,
        "streetTypeId": "DR",
        "placeName": "ROCKLAND",
        "streetNameDisplayText": "HUNTERS HOLLOW DR, ROCKLAND"
      },
      {
        "electoralDistricts": [
          {
            "election": null,
            "id": 32,
            "name": "Glengarry—Prescott—Russell"
          }
        ],
        "pollDivisionIds": [
          10138293
        ],
        "postalCode": "K4K1K7",
        "streetName": "HUNTER'S HOLLOW",
        "streetDirectionId": null,
        "streetTypeId": "DR",
        "placeName": "ROCKLAND",
        "streetNameDisplayText": "HUNTER'S HOLLOW DR, ROCKLAND"
      },
      {
        "electoralDistricts": [
          {
            "election": null,
            "id": 32,
            "name": "Glengarry—Prescott—Russell"
          }
        ],
        "pollDivisionIds": [
          10138293
        ],
        "postalCode": "K4K1K7",
        "streetName": "HUNTERS HOLLOW",
        "streetDirectionId": null,
        "streetTypeId": null,
        "placeName": "CLARENCE-ROCKLAND",
        "streetNameDisplayText": "HUNTERS HOLLOW, CLARENCE-ROCKLAND"
      },
      {
        "electoralDistricts": [
          {
            "election": null,
            "id": 32,
            "name": "Glengarry—Prescott—Russell"
          }
        ],
        "pollDivisionIds": [
          10138286,
          10138293
        ],
        "postalCode": "K4K1K7",
        "streetName": "LANDRY",
        "streetDirectionId": null,
        "streetTypeId": "ST",
        "placeName": "ROCKLAND",
        "streetNameDisplayText": "LANDRY ST, ROCKLAND"
      },
      {
        "electoralDistricts": [
          {
            "election": null,
            "id": 32,
            "name": "Glengarry—Prescott—Russell"
          }
        ],
        "pollDivisionIds": [
          10138293
        ],
        "postalCode": "K4K1K7",
        "streetName": "LASALLE",
        "streetDirectionId": null,
        "streetTypeId": "ST",
        "placeName": "ROCKLAND",
        "streetNameDisplayText": "LASALLE ST, ROCKLAND"
      },
      {
        "electoralDistricts": [
          {
            "election": null,
            "id": 32,
            "name": "Glengarry—Prescott—Russell"
          }
        ],
        "pollDivisionIds": [
          10138293
        ],
        "postalCode": "K4K1K7",
        "streetName": "LORRAINE",
        "streetDirectionId": null,
        "streetTypeId": "ST",
        "placeName": "ROCKLAND",
        "streetNameDisplayText": "LORRAINE ST, ROCKLAND"
      },
      {
        "electoralDistricts": [
          {
            "election": null,
            "id": 32,
            "name": "Glengarry—Prescott—Russell"
          }
        ],
        "pollDivisionIds": [
          10138293
        ],
        "postalCode": "K4K1K7",
        "streetName": "LOUIS-HEBERT",
        "streetDirectionId": null,
        "streetTypeId": "ST",
        "placeName": "ROCKLAND",
        "streetNameDisplayText": "LOUIS-HEBERT ST, ROCKLAND"
      },
      {
        "electoralDistricts": [
          {
            "election": null,
            "id": 32,
            "name": "Glengarry—Prescott—Russell"
          }
        ],
        "pollDivisionIds": [
          10138293
        ],
        "postalCode": "K4K1K7",
        "streetName": "MARQUETTE",
        "streetDirectionId": null,
        "streetTypeId": "ST",
        "placeName": "ROCKLAND",
        "streetNameDisplayText": "MARQUETTE ST, ROCKLAND"
      },
      {
        "electoralDistricts": [
          {
            "election": null,
            "id": 32,
            "name": "Glengarry—Prescott—Russell"
          }
        ],
        "pollDivisionIds": [
          10138293
        ],
        "postalCode": "K4K1K7",
        "streetName": "MARTEL",
        "streetDirectionId": null,
        "streetTypeId": "ST",
        "placeName": "ROCKLAND",
        "streetNameDisplayText": "MARTEL ST, ROCKLAND"
      },
      {
        "electoralDistricts": [
          {
            "election": null,
            "id": 32,
            "name": "Glengarry—Prescott—Russell"
          }
        ],
        "pollDivisionIds": [
          10138293
        ],
        "postalCode": "K4K1K7",
        "streetName": "MCINTYRE",
        "streetDirectionId": null,
        "streetTypeId": "LANE",
        "placeName": "ROCKLAND",
        "streetNameDisplayText": "MCINTYRE LANE, ROCKLAND"
      },
      {
        "electoralDistricts": [
          {
            "election": null,
            "id": 32,
            "name": "Glengarry—Prescott—Russell"
          }
        ],
        "pollDivisionIds": [
          10138293
        ],
        "postalCode": "K4K1K7",
        "streetName": "OLD 17",
        "streetDirectionId": null,
        "streetTypeId": "HWY",
        "placeName": "ROCKAND",
        "streetNameDisplayText": "OLD 17 HWY, ROCKAND"
      },
      {
        "electoralDistricts": [
          {
            "election": null,
            "id": 32,
            "name": "Glengarry—Prescott—Russell"
          }
        ],
        "pollDivisionIds": [
          10138293
        ],
        "postalCode": "K4K1K7",
        "streetName": "OLD 17",
        "streetDirectionId": null,
        "streetTypeId": "HWY",
        "placeName": "ROCKLAND",
        "streetNameDisplayText": "OLD 17 HWY, ROCKLAND"
      },
      {
        "electoralDistricts": [
          {
            "election": null,
            "id": 32,
            "name": "Glengarry—Prescott—Russell"
          }
        ],
        "pollDivisionIds": [
          10138293
        ],
        "postalCode": "K4K1K7",
        "streetName": "OLD 17 HWY",
        "streetDirectionId": null,
        "streetTypeId": null,
        "placeName": "ROCKLAND",
        "streetNameDisplayText": "OLD 17 HWY, ROCKLAND"
      },
      {
        "electoralDistricts": [
          {
            "election": null,
            "id": 32,
            "name": "Glengarry—Prescott—Russell"
          }
        ],
        "pollDivisionIds": [
          10138293
        ],
        "postalCode": "K4K1K7",
        "streetName": "OLD HIGHWAY 17",
        "streetDirectionId": null,
        "streetTypeId": null,
        "placeName": "ROCKLAND",
        "streetNameDisplayText": "OLD HIGHWAY 17, ROCKLAND"
      },
      {
        "electoralDistricts": [
          {
            "election": null,
            "id": 32,
            "name": "Glengarry—Prescott—Russell"
          }
        ],
        "pollDivisionIds": [
          10138293
        ],
        "postalCode": "K4K1K7",
        "streetName": "OLD HWY 17",
        "streetDirectionId": null,
        "streetTypeId": null,
        "placeName": "ROCKLAND",
        "streetNameDisplayText": "OLD HWY 17, ROCKLAND"
      },
      {
        "electoralDistricts": [
          {
            "election": null,
            "id": 32,
            "name": "Glengarry—Prescott—Russell"
          }
        ],
        "pollDivisionIds": [
          10138300,
          10138293
        ],
        "postalCode": "K4K1K7",
        "streetName": "ONESIME GUIBORD",
        "streetDirectionId": null,
        "streetTypeId": "RD",
        "placeName": "ROCKLAND",
        "streetNameDisplayText": "ONESIME GUIBORD RD, ROCKLAND"
      },
      {
        "electoralDistricts": [
          {
            "election": null,
            "id": 32,
            "name": "Glengarry—Prescott—Russell"
          }
        ],
        "pollDivisionIds": [
          10138293
        ],
        "postalCode": "K4K1K7",
        "streetName": "OUTAOUAIS",
        "streetDirectionId": null,
        "streetTypeId": "MONTÉE",
        "placeName": "ROCKLAND",
        "streetNameDisplayText": "OUTAOUAIS MONTÉE, ROCKLAND"
      },
      {
        "electoralDistricts": [
          {
            "election": null,
            "id": 32,
            "name": "Glengarry—Prescott—Russell"
          }
        ],
        "pollDivisionIds": [
          10138293
        ],
        "postalCode": "K4K1K7",
        "streetName": "PAGO",
        "streetDirectionId": null,
        "streetTypeId": "RD",
        "placeName": "ROCKLAND",
        "streetNameDisplayText": "PAGO RD, ROCKLAND"
      },
      {
        "electoralDistricts": [
          {
            "election": null,
            "id": 32,
            "name": "Glengarry—Prescott—Russell"
          }
        ],
        "pollDivisionIds": [
          10138293
        ],
        "postalCode": "K4K1K7",
        "streetName": "PATRICK",
        "streetDirectionId": null,
        "streetTypeId": "ST",
        "placeName": "ROCKLAND",
        "streetNameDisplayText": "PATRICK ST, ROCKLAND"
      },
      {
        "electoralDistricts": [
          {
            "election": null,
            "id": 32,
            "name": "Glengarry—Prescott—Russell"
          }
        ],
        "pollDivisionIds": [
          10138293,
          10138300
        ],
        "postalCode": "K4K1K7",
        "streetName": "RAMAGE",
        "streetDirectionId": null,
        "streetTypeId": "RD",
        "placeName": "ROCKLAND",
        "streetNameDisplayText": "RAMAGE RD, ROCKLAND"
      },
      {
        "electoralDistricts": [
          {
            "election": null,
            "id": 32,
            "name": "Glengarry—Prescott—Russell"
          }
        ],
        "pollDivisionIds": [
          10138293
        ],
        "postalCode": "K4K1K7",
        "streetName": "SAPINS",
        "streetDirectionId": null,
        "streetTypeId": "ST",
        "placeName": "ROCKLAND",
        "streetNameDisplayText": "SAPINS ST, ROCKLAND"
      },
      {
        "electoralDistricts": [
          {
            "election": null,
            "id": 32,
            "name": "Glengarry—Prescott—Russell"
          }
        ],
        "pollDivisionIds": [
          10138293
        ],
        "postalCode": "K4K1K7",
        "streetName": "SOPHIE",
        "streetDirectionId": null,
        "streetTypeId": "ST",
        "placeName": "ROCKLAND",
        "streetNameDisplayText": "SOPHIE ST, ROCKLAND"
      },
      {
        "electoralDistricts": [
          {
            "election": null,
            "id": 32,
            "name": "Glengarry—Prescott—Russell"
          }
        ],
        "pollDivisionIds": [
          10138293
        ],
        "postalCode": "K4K1K7",
        "streetName": "SPARKS",
        "streetDirectionId": null,
        "streetTypeId": "ST",
        "placeName": "ROCKLAND",
        "streetNameDisplayText": "SPARKS ST, ROCKLAND"
      },
      {
        "electoralDistricts": [
          {
            "election": null,
            "id": 32,
            "name": "Glengarry—Prescott—Russell"
          }
        ],
        "pollDivisionIds": [
          10138293
        ],
        "postalCode": "K4K1K7",
        "streetName": "ST. JEAN",
        "streetDirectionId": null,
        "streetTypeId": "ST",
        "placeName": "ROCKLAND",
        "streetNameDisplayText": "ST. JEAN ST, ROCKLAND"
      },
      {
        "electoralDistricts": [
          {
            "election": null,
            "id": 32,
            "name": "Glengarry—Prescott—Russell"
          }
        ],
        "pollDivisionIds": [
          10138293
        ],
        "postalCode": "K4K1K7",
        "streetName": "SUZANNE",
        "streetDirectionId": null,
        "streetTypeId": "ST",
        "placeName": "ROCKLAND",
        "streetNameDisplayText": "SUZANNE ST, ROCKLAND"
      },
      {
        "electoralDistricts": [
          {
            "election": null,
            "id": 32,
            "name": "Glengarry—Prescott—Russell"
          }
        ],
        "pollDivisionIds": [
          10138293
        ],
        "postalCode": "K4K1K7",
        "streetName": "TAMARAK",
        "streetDirectionId": null,
        "streetTypeId": null,
        "placeName": "ROCKLAND",
        "streetNameDisplayText": "TAMARAK, ROCKLAND"
      },
      {
        "electoralDistricts": [
          {
            "election": null,
            "id": 32,
            "name": "Glengarry—Prescott—Russell"
          }
        ],
        "pollDivisionIds": [
          10138293
        ],
        "postalCode": "K4K1K7",
        "streetName": "TUCKER",
        "streetDirectionId": null,
        "streetTypeId": "RD",
        "placeName": "ROCKLAND",
        "streetNameDisplayText": "TUCKER RD, ROCKLAND"
      },
      {
        "electoralDistricts": [
          {
            "election": null,
            "id": 32,
            "name": "Glengarry—Prescott—Russell"
          }
        ],
        "pollDivisionIds": [
          10138293
        ],
        "postalCode": "K4K1K7",
        "streetName": "VAUDREUIL",
        "streetDirectionId": null,
        "streetTypeId": "ST",
        "placeName": "ROCKLAND",
        "streetNameDisplayText": "VAUDREUIL ST, ROCKLAND"
      },
      {
        "electoralDistricts": [
          {
            "election": null,
            "id": 32,
            "name": "Glengarry—Prescott—Russell"
          }
        ],
        "pollDivisionIds": [
          10138293
        ],
        "postalCode": "K4K1K7",
        "streetName": "WILSON",
        "streetDirectionId": null,
        "streetTypeId": "RD",
        "placeName": "ROCKLAND",
        "streetNameDisplayText": "WILSON RD, ROCKLAND"
      },
      {
        "electoralDistricts": [
          {
            "election": null,
            "id": 32,
            "name": "Glengarry—Prescott—Russell"
          }
        ],
        "pollDivisionIds": [
          10138293
        ],
        "postalCode": "K4K1K7",
        "streetName": "WOLFE",
        "streetDirectionId": null,
        "streetTypeId": "CRES",
        "placeName": "ROCKLAND",
        "streetNameDisplayText": "WOLFE CRES, ROCKLAND"
      }
    ]
  },
  {
    "postal": "K4K0H0",
    "result": []
  },
  {
    "postal": "K4K0J3",
    "result": [
      {
        "electoralDistricts": [
          {
            "election": null,
            "id": 32,
            "name": "Glengarry—Prescott—Russell"
          }
        ],
        "pollDivisionIds": [
          10138293
        ],
        "postalCode": "K4K0J3",
        "streetName": "NATHALIE",
        "streetDirectionId": null,
        "streetTypeId": "ST",
        "placeName": "ROCKLAND",
        "streetNameDisplayText": "NATHALIE ST, ROCKLAND"
      }
    ]
  },
  {
    "postal": "K4K1X6",
    "result": []
  },
  {
    "postal": "K4K2Z6",
    "result": []
  },
  {
    "postal": "K4K4R9",
    "result": []
  },
  {
    "postal": "K4K0W8",
    "result": []
  },
  {
    "postal": "K4K1L4",
    "result": [
      {
        "electoralDistricts": [
          {
            "election": null,
            "id": 32,
            "name": "Glengarry—Prescott—Russell"
          }
        ],
        "pollDivisionIds": [
          10138293
        ],
        "postalCode": "K4K1L4",
        "streetName": "ALBERT",
        "streetDirectionId": null,
        "streetTypeId": "ST",
        "placeName": "ROCKLAND",
        "streetNameDisplayText": "ALBERT ST, ROCKLAND"
      },
      {
        "electoralDistricts": [
          {
            "election": null,
            "id": 32,
            "name": "Glengarry—Prescott—Russell"
          }
        ],
        "pollDivisionIds": [
          10138293
        ],
        "postalCode": "K4K1L4",
        "streetName": "CHENE",
        "streetDirectionId": null,
        "streetTypeId": "ST",
        "placeName": "ROCKLAND",
        "streetNameDisplayText": "CHENE ST, ROCKLAND"
      },
      {
        "electoralDistricts": [
          {
            "election": null,
            "id": 32,
            "name": "Glengarry—Prescott—Russell"
          }
        ],
        "pollDivisionIds": [
          10138293
        ],
        "postalCode": "K4K1L4",
        "streetName": "EDWARDS",
        "streetDirectionId": null,
        "streetTypeId": "ST",
        "placeName": "ROCKLAND",
        "streetNameDisplayText": "EDWARDS ST, ROCKLAND"
      },
      {
        "electoralDistricts": [
          {
            "election": null,
            "id": 32,
            "name": "Glengarry—Prescott—Russell"
          }
        ],
        "pollDivisionIds": [
          10138293
        ],
        "postalCode": "K4K1L4",
        "streetName": "GIROUX",
        "streetDirectionId": null,
        "streetTypeId": "ST",
        "placeName": "ROCKLAND",
        "streetNameDisplayText": "GIROUX ST, ROCKLAND"
      },
      {
        "electoralDistricts": [
          {
            "election": null,
            "id": 32,
            "name": "Glengarry—Prescott—Russell"
          }
        ],
        "pollDivisionIds": [
          10138293
        ],
        "postalCode": "K4K1L4",
        "streetName": "JULIETTE",
        "streetDirectionId": null,
        "streetTypeId": "ST",
        "placeName": "ROCKLAND",
        "streetNameDisplayText": "JULIETTE ST, ROCKLAND"
      },
      {
        "electoralDistricts": [
          {
            "election": null,
            "id": 32,
            "name": "Glengarry—Prescott—Russell"
          }
        ],
        "pollDivisionIds": [
          10138293
        ],
        "postalCode": "K4K1L4",
        "streetName": "LAURIER",
        "streetDirectionId": null,
        "streetTypeId": "ST",
        "placeName": "ROCKLAND",
        "streetNameDisplayText": "LAURIER ST, ROCKLAND"
      },
      {
        "electoralDistricts": [
          {
            "election": null,
            "id": 32,
            "name": "Glengarry—Prescott—Russell"
          }
        ],
        "pollDivisionIds": [
          10138293
        ],
        "postalCode": "K4K1L4",
        "streetName": "LAVIOLETTE",
        "streetDirectionId": null,
        "streetTypeId": "ST",
        "placeName": "ROCKLAND",
        "streetNameDisplayText": "LAVIOLETTE ST, ROCKLAND"
      },
      {
        "electoralDistricts": [
          {
            "election": null,
            "id": 32,
            "name": "Glengarry—Prescott—Russell"
          }
        ],
        "pollDivisionIds": [
          10138293
        ],
        "postalCode": "K4K1L4",
        "streetName": "MARTIN",
        "streetDirectionId": null,
        "streetTypeId": "LANE",
        "placeName": "ROCKLAND",
        "streetNameDisplayText": "MARTIN LANE, ROCKLAND"
      },
      {
        "electoralDistricts": [
          {
            "election": null,
            "id": 32,
            "name": "Glengarry—Prescott—Russell"
          }
        ],
        "pollDivisionIds": [
          10138293
        ],
        "postalCode": "K4K1L4",
        "streetName": "MCCALL",
        "streetDirectionId": null,
        "streetTypeId": "ST",
        "placeName": "ROCKLAND",
        "streetNameDisplayText": "MCCALL ST, ROCKLAND"
      },
      {
        "electoralDistricts": [
          {
            "election": null,
            "id": 32,
            "name": "Glengarry—Prescott—Russell"
          }
        ],
        "pollDivisionIds": [
          10138293
        ],
        "postalCode": "K4K1L4",
        "streetName": "ST JOSEPH",
        "streetDirectionId": null,
        "streetTypeId": "ST",
        "placeName": "ROCKLAND",
        "streetNameDisplayText": "ST JOSEPH ST, ROCKLAND"
      },
      {
        "electoralDistricts": [
          {
            "election": null,
            "id": 32,
            "name": "Glengarry—Prescott—Russell"
          }
        ],
        "pollDivisionIds": [
          10138293
        ],
        "postalCode": "K4K1L4",
        "streetName": "ST. JACQUES",
        "streetDirectionId": null,
        "streetTypeId": "ST",
        "placeName": "ROCKLAND",
        "streetNameDisplayText": "ST. JACQUES ST, ROCKLAND"
      },
      {
        "electoralDistricts": [
          {
            "election": null,
            "id": 32,
            "name": "Glengarry—Prescott—Russell"
          }
        ],
        "pollDivisionIds": [
          10138293
        ],
        "postalCode": "K4K1L4",
        "streetName": "ST. JEAN",
        "streetDirectionId": null,
        "streetTypeId": "ST",
        "placeName": "ROCKLAND",
        "streetNameDisplayText": "ST. JEAN ST, ROCKLAND"
      },
      {
        "electoralDistricts": [
          {
            "election": null,
            "id": 32,
            "name": "Glengarry—Prescott—Russell"
          }
        ],
        "pollDivisionIds": [
          10138293
        ],
        "postalCode": "K4K1L4",
        "streetName": "ST. JOSEPH",
        "streetDirectionId": null,
        "streetTypeId": "ST",
        "placeName": "ROCKLAND",
        "streetNameDisplayText": "ST. JOSEPH ST, ROCKLAND"
      },
      {
        "electoralDistricts": [
          {
            "election": null,
            "id": 32,
            "name": "Glengarry—Prescott—Russell"
          }
        ],
        "pollDivisionIds": [
          10138293
        ],
        "postalCode": "K4K1L4",
        "streetName": "ST. LAURENT",
        "streetDirectionId": null,
        "streetTypeId": "ST",
        "placeName": "ROCKLAND",
        "streetNameDisplayText": "ST. LAURENT ST, ROCKLAND"
      },
      {
        "electoralDistricts": [
          {
            "election": null,
            "id": 32,
            "name": "Glengarry—Prescott—Russell"
          }
        ],
        "pollDivisionIds": [
          10138293
        ],
        "postalCode": "K4K1L4",
        "streetName": "ST. LOUIS",
        "streetDirectionId": null,
        "streetTypeId": "ST",
        "placeName": "ROCKLAND",
        "streetNameDisplayText": "ST. LOUIS ST, ROCKLAND"
      },
      {
        "electoralDistricts": [
          {
            "election": null,
            "id": 32,
            "name": "Glengarry—Prescott—Russell"
          }
        ],
        "pollDivisionIds": [
          10138293
        ],
        "postalCode": "K4K1L4",
        "streetName": "VICTORIA",
        "streetDirectionId": null,
        "streetTypeId": "ST",
        "placeName": "ROCKLAND",
        "streetNameDisplayText": "VICTORIA ST, ROCKLAND"
      }
    ]
  },
  {
    "postal": "K4K0C8",
    "result": [
      {
        "electoralDistricts": [
          {
            "election": null,
            "id": 32,
            "name": "Glengarry—Prescott—Russell"
          }
        ],
        "pollDivisionIds": [
          10138293
        ],
        "postalCode": "K4K0C8",
        "streetName": "JADE",
        "streetDirectionId": null,
        "streetTypeId": "ST",
        "placeName": "ROCKLAND",
        "streetNameDisplayText": "JADE ST, ROCKLAND"
      },
      {
        "electoralDistricts": [
          {
            "election": null,
            "id": 32,
            "name": "Glengarry—Prescott—Russell"
          }
        ],
        "pollDivisionIds": [
          10138293
        ],
        "postalCode": "K4K0C8",
        "streetName": "JASPER",
        "streetDirectionId": null,
        "streetTypeId": "CRES",
        "placeName": "ROCKLAND",
        "streetNameDisplayText": "JASPER CRES, ROCKLAND"
      }
    ]
  },
  {
    "postal": "K4K9X7",
    "result": []
  },
  {
    "postal": "K4K4T1",
    "result": []
  },
  {
    "postal": "K4K0M0",
    "result": []
  },
  {
    "postal": "K4K6A2",
    "result": []
  },
  {
    "postal": "K4K9S8",
    "result": []
  },
  {
    "postal": "K4K9T4",
    "result": []
  },
  {
    "postal": "K4K9Y4",
    "result": []
  },
  {
    "postal": "K4K6G5",
    "result": []
  },
  {
    "postal": "K4K6H9",
    "result": []
  },
  {
    "postal": "K4K2P3",
    "result": []
  },
  {
    "postal": "K4K1T6",
    "result": [
      {
        "electoralDistricts": [
          {
            "election": null,
            "id": 32,
            "name": "Glengarry—Prescott—Russell"
          }
        ],
        "pollDivisionIds": [
          10138293
        ],
        "postalCode": "K4K1T6",
        "streetName": "CARON",
        "streetDirectionId": null,
        "streetTypeId": "ST",
        "placeName": "ROCKLAND",
        "streetNameDisplayText": "CARON ST, ROCKLAND"
      }
    ]
  },
  {
    "postal": "K4K4P6",
    "result": []
  },
  {
    "postal": "K4K3K1",
    "result": []
  },
  {
    "postal": "K4K6X4",
    "result": []
  },
  {
    "postal": "K4K4M8",
    "result": []
  },
  {
    "postal": "K4K2Y1",
    "result": []
  },
  {
    "postal": "K4K6M1",
    "result": []
  },
  {
    "postal": "K4K5L8",
    "result": []
  },
  {
    "postal": "K4K3P6",
    "result": []
  },
  {
    "postal": "K4K9A5",
    "result": []
  },
  {
    "postal": "K4K7K1",
    "result": []
  },
  {
    "postal": "K4K3J4",
    "result": []
  },
  {
    "postal": "K4K5E7",
    "result": []
  },
  {
    "postal": "K4K3A7",
    "result": []
  },
  {
    "postal": "K4K1B9",
    "result": [
      {
        "electoralDistricts": [
          {
            "election": null,
            "id": 32,
            "name": "Glengarry—Prescott—Russell"
          }
        ],
        "pollDivisionIds": [
          10138293
        ],
        "postalCode": "K4K1B9",
        "streetName": "IBERVILLE",
        "streetDirectionId": null,
        "streetTypeId": "ST",
        "placeName": "ROCKLAND",
        "streetNameDisplayText": "IBERVILLE ST, ROCKLAND"
      },
      {
        "electoralDistricts": [
          {
            "election": null,
            "id": 32,
            "name": "Glengarry—Prescott—Russell"
          }
        ],
        "pollDivisionIds": [
          10138293
        ],
        "postalCode": "K4K1B9",
        "streetName": "LAVIOLETTE",
        "streetDirectionId": null,
        "streetTypeId": "ST",
        "placeName": "ROCKLAND",
        "streetNameDisplayText": "LAVIOLETTE ST, ROCKLAND"
      },
      {
        "electoralDistricts": [
          {
            "election": null,
            "id": 32,
            "name": "Glengarry—Prescott—Russell"
          }
        ],
        "pollDivisionIds": [
          10138293
        ],
        "postalCode": "K4K1B9",
        "streetName": "PATRICIA",
        "streetDirectionId": null,
        "streetTypeId": "ST",
        "placeName": "ROCKLAND",
        "streetNameDisplayText": "PATRICIA ST, ROCKLAND"
      }
    ]
  },
  {
    "postal": "K4K9E8",
    "result": []
  },
  {
    "postal": "K4K1C9",
    "result": [
      {
        "electoralDistricts": [
          {
            "election": null,
            "id": 32,
            "name": "Glengarry—Prescott—Russell"
          }
        ],
        "pollDivisionIds": [
          10138293
        ],
        "postalCode": "K4K1C9",
        "streetName": "ALBERT",
        "streetDirectionId": null,
        "streetTypeId": "ST",
        "placeName": "ROCKLAND",
        "streetNameDisplayText": "ALBERT ST, ROCKLAND"
      },
      {
        "electoralDistricts": [
          {
            "election": null,
            "id": 32,
            "name": "Glengarry—Prescott—Russell"
          }
        ],
        "pollDivisionIds": [
          10138293
        ],
        "postalCode": "K4K1C9",
        "streetName": "POULIOTTE",
        "streetDirectionId": null,
        "streetTypeId": "ST",
        "placeName": "ROCKLAND",
        "streetNameDisplayText": "POULIOTTE ST, ROCKLAND"
      },
      {
        "electoralDistricts": [
          {
            "election": null,
            "id": 32,
            "name": "Glengarry—Prescott—Russell"
          }
        ],
        "pollDivisionIds": [
          10138293
        ],
        "postalCode": "K4K1C9",
        "streetName": "WALLACE",
        "streetDirectionId": null,
        "streetTypeId": "ST",
        "placeName": "ROCKLAND",
        "streetNameDisplayText": "WALLACE ST, ROCKLAND"
      }
    ]
  },
  {
    "postal": "K4K3B5",
    "result": []
  },
  {
    "postal": "K4K8R0",
    "result": []
  },
  {
    "postal": "K4K3P2",
    "result": []
  },
  {
    "postal": "K4K5V4",
    "result": []
  },
  {
    "postal": "K4K4H0",
    "result": []
  },
  {
    "postal": "K4K4S7",
    "result": []
  },
  {
    "postal": "K4K6C2",
    "result": []
  },
  {
    "postal": "K4K8W3",
    "result": []
  },
  {
    "postal": "K4K4M5",
    "result": []
  },
  {
    "postal": "K4K5T1",
    "result": []
  },
  {
    "postal": "K4K3B3",
    "result": []
  },
  {
    "postal": "K4K6C6",
    "result": []
  },
  {
    "postal": "K4K7N8",
    "result": []
  },
  {
    "postal": "K4K2Y3",
    "result": []
  },
  {
    "postal": "K4K2R6",
    "result": []
  },
  {
    "postal": "K4K7N3",
    "result": []
  },
  {
    "postal": "K4K8J2",
    "result": []
  },
  {
    "postal": "K4K6A9",
    "result": []
  },
  {
    "postal": "K4K3V2",
    "result": []
  },
  {
    "postal": "K4K2N3",
    "result": []
  },
  {
    "postal": "K4K1S5",
    "result": [
      {
        "electoralDistricts": [
          {
            "election": null,
            "id": 32,
            "name": "Glengarry—Prescott—Russell"
          }
        ],
        "pollDivisionIds": [
          10138293
        ],
        "postalCode": "K4K1S5",
        "streetName": "HENRI",
        "streetDirectionId": null,
        "streetTypeId": "CIR",
        "placeName": "ROCKLAND",
        "streetNameDisplayText": "HENRI CIR, ROCKLAND"
      },
      {
        "electoralDistricts": [
          {
            "election": null,
            "id": 32,
            "name": "Glengarry—Prescott—Russell"
          }
        ],
        "pollDivisionIds": [
          10138293
        ],
        "postalCode": "K4K1S5",
        "streetName": "LAURIER",
        "streetDirectionId": null,
        "streetTypeId": "ST",
        "placeName": "ROCKLAND",
        "streetNameDisplayText": "LAURIER ST, ROCKLAND"
      }
    ]
  },
  {
    "postal": "K4K4T7",
    "result": []
  },
  {
    "postal": "K4K6Y7",
    "result": []
  },
  {
    "postal": "K4K0W7",
    "result": []
  },
  {
    "postal": "K4K2W9",
    "result": []
  },
  {
    "postal": "K4K8V0",
    "result": []
  },
  {
    "postal": "K4K0H4",
    "result": [
      {
        "electoralDistricts": [
          {
            "election": null,
            "id": 32,
            "name": "Glengarry—Prescott—Russell"
          }
        ],
        "pollDivisionIds": [
          10138293
        ],
        "postalCode": "K4K0H4",
        "streetName": "ONYX",
        "streetDirectionId": null,
        "streetTypeId": "CRES",
        "placeName": "ROCKLAND",
        "streetNameDisplayText": "ONYX CRES, ROCKLAND"
      },
      {
        "electoralDistricts": [
          {
            "election": null,
            "id": 32,
            "name": "Glengarry—Prescott—Russell"
          }
        ],
        "pollDivisionIds": [
          10138293
        ],
        "postalCode": "K4K0H4",
        "streetName": "RUBY",
        "streetDirectionId": null,
        "streetTypeId": "ST",
        "placeName": "ROCKLAND",
        "streetNameDisplayText": "RUBY ST, ROCKLAND"
      }
    ]
  },
  {
    "postal": "K4K2T1",
    "result": []
  },
  {
    "postal": "K4K1B1",
    "result": [
      {
        "electoralDistricts": [
          {
            "election": null,
            "id": 32,
            "name": "Glengarry—Prescott—Russell"
          }
        ],
        "pollDivisionIds": [
          10138293
        ],
        "postalCode": "K4K1B1",
        "streetName": "ALBERT",
        "streetDirectionId": null,
        "streetTypeId": "ST",
        "placeName": "ROCKLAND",
        "streetNameDisplayText": "ALBERT ST, ROCKLAND"
      },
      {
        "electoralDistricts": [
          {
            "election": null,
            "id": 32,
            "name": "Glengarry—Prescott—Russell"
          }
        ],
        "pollDivisionIds": [
          10138293
        ],
        "postalCode": "K4K1B1",
        "streetName": "LALONDE",
        "streetDirectionId": null,
        "streetTypeId": "ST",
        "placeName": "ROCKLAND",
        "streetNameDisplayText": "LALONDE ST, ROCKLAND"
      },
      {
        "electoralDistricts": [
          {
            "election": null,
            "id": 32,
            "name": "Glengarry—Prescott—Russell"
          }
        ],
        "pollDivisionIds": [
          10138293,
          10138344
        ],
        "postalCode": "K4K1B1",
        "streetName": "LAURIER",
        "streetDirectionId": null,
        "streetTypeId": "ST",
        "placeName": "ROCKLAND",
        "streetNameDisplayText": "LAURIER ST, ROCKLAND"
      },
      {
        "electoralDistricts": [
          {
            "election": null,
            "id": 32,
            "name": "Glengarry—Prescott—Russell"
          }
        ],
        "pollDivisionIds": [
          10138293
        ],
        "postalCode": "K4K1B1",
        "streetName": "RODRIGUE",
        "streetDirectionId": null,
        "streetTypeId": "ST",
        "placeName": "ROCKLAND",
        "streetNameDisplayText": "RODRIGUE ST, ROCKLAND"
      }
    ]
  },
  {
    "postal": "K4K8B6",
    "result": []
  },
  {
    "postal": "K4K6H1",
    "result": []
  },
  {
    "postal": "K4K8T8",
    "result": []
  },
  {
    "postal": "K4K0T4",
    "result": []
  },
  {
    "postal": "K4K2C4",
    "result": []
  },
  {
    "postal": "K4K8N3",
    "result": []
  },
  {
    "postal": "K4K4L8",
    "result": []
  },
  {
    "postal": "K4K2B5",
    "result": []
  },
  {
    "postal": "K4K3H1",
    "result": []
  },
  {
    "postal": "K4K4Y1",
    "result": []
  },
  {
    "postal": "K4K7E2",
    "result": []
  },
  {
    "postal": "K4K2P5",
    "result": []
  },
  {
    "postal": "K4K8R7",
    "result": []
  },
  {
    "postal": "K4K9P1",
    "result": []
  },
  {
    "postal": "K4K3B8",
    "result": []
  },
  {
    "postal": "K4K3P7",
    "result": []
  },
  {
    "postal": "K4K9B2",
    "result": []
  },
  {
    "postal": "K4K6Z3",
    "result": []
  },
  {
    "postal": "K4K4N5",
    "result": []
  },
  {
    "postal": "K4K8T3",
    "result": []
  },
  {
    "postal": "K4K1V2",
    "result": [
      {
        "electoralDistricts": [
          {
            "election": null,
            "id": 32,
            "name": "Glengarry—Prescott—Russell"
          }
        ],
        "pollDivisionIds": [
          10138293
        ],
        "postalCode": "K4K1V2",
        "streetName": "LAURIER",
        "streetDirectionId": null,
        "streetTypeId": "ST",
        "placeName": "ROCKLAND",
        "streetNameDisplayText": "LAURIER ST, ROCKLAND"
      }
    ]
  },
  {
    "postal": "K4K1Y0",
    "result": []
  },
  {
    "postal": "K4K3G6",
    "result": []
  },
  {
    "postal": "K4K3H7",
    "result": []
  },
  {
    "postal": "K4K7X8",
    "result": []
  },
  {
    "postal": "K4K0C7",
    "result": [
      {
        "electoralDistricts": [
          {
            "election": null,
            "id": 32,
            "name": "Glengarry—Prescott—Russell"
          }
        ],
        "pollDivisionIds": [
          10138293
        ],
        "postalCode": "K4K0C7",
        "streetName": "JASPER",
        "streetDirectionId": null,
        "streetTypeId": "CRES",
        "placeName": "ROCKLAND",
        "streetNameDisplayText": "JASPER CRES, ROCKLAND"
      },
      {
        "electoralDistricts": [
          {
            "election": null,
            "id": 32,
            "name": "Glengarry—Prescott—Russell"
          }
        ],
        "pollDivisionIds": [
          10138293
        ],
        "postalCode": "K4K0C7",
        "streetName": "QUARTZ",
        "streetDirectionId": null,
        "streetTypeId": "AVE",
        "placeName": "ROCKLAND",
        "streetNameDisplayText": "QUARTZ AVE, ROCKLAND"
      }
    ]
  },
  {
    "postal": "K4K0W9",
    "result": []
  },
  {
    "postal": "K4K8E6",
    "result": []
  },
  {
    "postal": "K4K9Z8",
    "result": []
  },
  {
    "postal": "K4K3P4",
    "result": []
  },
  {
    "postal": "K4K6L8",
    "result": []
  },
  {
    "postal": "K4K2R4",
    "result": []
  },
  {
    "postal": "K4K2W1",
    "result": []
  },
  {
    "postal": "K4K9H8",
    "result": []
  },
  {
    "postal": "K4K8X9",
    "result": []
  },
  {
    "postal": "K4K7H4",
    "result": []
  },
  {
    "postal": "K4K3J1",
    "result": []
  },
  {
    "postal": "K4K1P4",
    "result": [
      {
        "electoralDistricts": [
          {
            "election": null,
            "id": 32,
            "name": "Glengarry—Prescott—Russell"
          }
        ],
        "pollDivisionIds": [
          10138293
        ],
        "postalCode": "K4K1P4",
        "streetName": "ST JEAN",
        "streetDirectionId": null,
        "streetTypeId": "ST",
        "placeName": "ROCKLAND",
        "streetNameDisplayText": "ST JEAN ST, ROCKLAND"
      },
      {
        "electoralDistricts": [
          {
            "election": null,
            "id": 32,
            "name": "Glengarry—Prescott—Russell"
          }
        ],
        "pollDivisionIds": [
          10138293
        ],
        "postalCode": "K4K1P4",
        "streetName": "ST. JEAN",
        "streetDirectionId": null,
        "streetTypeId": "ST",
        "placeName": "ROCKLAND",
        "streetNameDisplayText": "ST. JEAN ST, ROCKLAND"
      }
    ]
  },
  {
    "postal": "K4K2A3",
    "result": []
  },
  {
    "postal": "K4K0Z1",
    "result": []
  },
  {
    "postal": "K4K1C1",
    "result": [
      {
        "electoralDistricts": [
          {
            "election": null,
            "id": 32,
            "name": "Glengarry—Prescott—Russell"
          }
        ],
        "pollDivisionIds": [
          10138293
        ],
        "postalCode": "K4K1C1",
        "streetName": "IBERVILLE",
        "streetDirectionId": null,
        "streetTypeId": "ST",
        "placeName": "ROCKLAND",
        "streetNameDisplayText": "IBERVILLE ST, ROCKLAND"
      },
      {
        "electoralDistricts": [
          {
            "election": null,
            "id": 32,
            "name": "Glengarry—Prescott—Russell"
          }
        ],
        "pollDivisionIds": [
          10138293
        ],
        "postalCode": "K4K1C1",
        "streetName": "PATRICIA",
        "streetDirectionId": null,
        "streetTypeId": "ST",
        "placeName": "ROCKLAND",
        "streetNameDisplayText": "PATRICIA ST, ROCKLAND"
      },
      {
        "electoralDistricts": [
          {
            "election": null,
            "id": 32,
            "name": "Glengarry—Prescott—Russell"
          }
        ],
        "pollDivisionIds": [
          10138293
        ],
        "postalCode": "K4K1C1",
        "streetName": "ST JACQUES",
        "streetDirectionId": null,
        "streetTypeId": "ST",
        "placeName": "ROCKLAND",
        "streetNameDisplayText": "ST JACQUES ST, ROCKLAND"
      },
      {
        "electoralDistricts": [
          {
            "election": null,
            "id": 32,
            "name": "Glengarry—Prescott—Russell"
          }
        ],
        "pollDivisionIds": [
          10138293
        ],
        "postalCode": "K4K1C1",
        "streetName": "ST. JACQUES",
        "streetDirectionId": null,
        "streetTypeId": "ST",
        "placeName": "ROCKLAND",
        "streetNameDisplayText": "ST. JACQUES ST, ROCKLAND"
      },
      {
        "electoralDistricts": [
          {
            "election": null,
            "id": 32,
            "name": "Glengarry—Prescott—Russell"
          }
        ],
        "pollDivisionIds": [
          10138293
        ],
        "postalCode": "K4K1C1",
        "streetName": "STE. ANNE",
        "streetDirectionId": null,
        "streetTypeId": "ST",
        "placeName": "ROCKLAND",
        "streetNameDisplayText": "STE. ANNE ST, ROCKLAND"
      }
    ]
  },
  {
    "postal": "K4K0H3",
    "result": [
      {
        "electoralDistricts": [
          {
            "election": null,
            "id": 32,
            "name": "Glengarry—Prescott—Russell"
          }
        ],
        "pollDivisionIds": [
          10138293
        ],
        "postalCode": "K4K0H3",
        "streetName": "RUBY",
        "streetDirectionId": null,
        "streetTypeId": "ST",
        "placeName": "ROCKLAND",
        "streetNameDisplayText": "RUBY ST, ROCKLAND"
      }
    ]
  },
  {
    "postal": "K4K7B0",
    "result": []
  },
  {
    "postal": "K4K5K2",
    "result": []
  },
  {
    "postal": "K4K1E9",
    "result": [
      {
        "electoralDistricts": [
          {
            "election": null,
            "id": 32,
            "name": "Glengarry—Prescott—Russell"
          }
        ],
        "pollDivisionIds": [
          10138293
        ],
        "postalCode": "K4K1E9",
        "streetName": "ROBERT",
        "streetDirectionId": null,
        "streetTypeId": "ST",
        "placeName": "ROCKLAND",
        "streetNameDisplayText": "ROBERT ST, ROCKLAND"
      },
      {
        "electoralDistricts": [
          {
            "election": null,
            "id": 32,
            "name": "Glengarry—Prescott—Russell"
          }
        ],
        "pollDivisionIds": [
          10138293
        ],
        "postalCode": "K4K1E9",
        "streetName": "ST. JOSEPH",
        "streetDirectionId": null,
        "streetTypeId": "ST",
        "placeName": "ROCKLAND",
        "streetNameDisplayText": "ST. JOSEPH ST, ROCKLAND"
      },
      {
        "electoralDistricts": [
          {
            "election": null,
            "id": 32,
            "name": "Glengarry—Prescott—Russell"
          }
        ],
        "pollDivisionIds": [
          10138293
        ],
        "postalCode": "K4K1E9",
        "streetName": "YVES",
        "streetDirectionId": null,
        "streetTypeId": "ST",
        "placeName": "ROCKLAND",
        "streetNameDisplayText": "YVES ST, ROCKLAND"
      }
    ]
  },
  {
    "postal": "K4K9W7",
    "result": []
  },
  {
    "postal": "K4K5W6",
    "result": []
  },
  {
    "postal": "K4K6S6",
    "result": []
  },
  {
    "postal": "K4K2P8",
    "result": []
  },
  {
    "postal": "K4K4P8",
    "result": []
  },
  {
    "postal": "K4K0V9",
    "result": []
  },
  {
    "postal": "K4K5Y2",
    "result": []
  },
  {
    "postal": "K4K7Z7",
    "result": []
  },
  {
    "postal": "K4K6Y8",
    "result": []
  },
  {
    "postal": "K4K2G7",
    "result": []
  },
  {
    "postal": "K4K8C1",
    "result": []
  },
  {
    "postal": "K4K5C5",
    "result": []
  },
  {
    "postal": "K4K2X8",
    "result": []
  },
  {
    "postal": "K4K1W5",
    "result": [
      {
        "electoralDistricts": [
          {
            "election": null,
            "id": 32,
            "name": "Glengarry—Prescott—Russell"
          }
        ],
        "pollDivisionIds": [
          10138300
        ],
        "postalCode": "K4K1W5",
        "streetName": "COUNTY 17",
        "streetDirectionId": null,
        "streetTypeId": "RD",
        "placeName": "ROCKLAND",
        "streetNameDisplayText": "COUNTY 17 RD, ROCKLAND"
      }
    ]
  },
  {
    "postal": "K4K7G0",
    "result": []
  },
  {
    "postal": "K4K8J8",
    "result": []
  },
  {
    "postal": "K4K3Y0",
    "result": []
  },
  {
    "postal": "K4K9T7",
    "result": []
  },
  {
    "postal": "K4K5P4",
    "result": []
  },
  {
    "postal": "K4K4B0",
    "result": []
  },
  {
    "postal": "K4K9N8",
    "result": []
  },
  {
    "postal": "K4K4A7",
    "result": []
  },
  {
    "postal": "K4K4H9",
    "result": []
  },
  {
    "postal": "K4K6X1",
    "result": []
  },
  {
    "postal": "K4K9Y7",
    "result": []
  },
  {
    "postal": "K4K2Y5",
    "result": []
  },
  {
    "postal": "K4K8L7",
    "result": []
  },
  {
    "postal": "K4K2A8",
    "result": []
  },
  {
    "postal": "K4K2K9",
    "result": []
  },
  {
    "postal": "K4K3E5",
    "result": []
  },
  {
    "postal": "K4K8N6",
    "result": []
  },
  {
    "postal": "K4K8J4",
    "result": []
  },
  {
    "postal": "K4K4R7",
    "result": []
  },
  {
    "postal": "K4K9K1",
    "result": []
  },
  {
    "postal": "K4K8E1",
    "result": []
  },
  {
    "postal": "K4K0R1",
    "result": []
  },
  {
    "postal": "K4K4J3",
    "result": []
  },
  {
    "postal": "K4K7E7",
    "result": []
  },
  {
    "postal": "K4K0J0",
    "result": []
  },
  {
    "postal": "K4K7R8",
    "result": []
  },
  {
    "postal": "K4K9X0",
    "result": []
  },
  {
    "postal": "K4K7P6",
    "result": []
  },
  {
    "postal": "K4K0R7",
    "result": []
  },
  {
    "postal": "K4K5W1",
    "result": []
  },
  {
    "postal": "K4K0K4",
    "result": [
      {
        "electoralDistricts": [
          {
            "election": null,
            "id": 32,
            "name": "Glengarry—Prescott—Russell"
          }
        ],
        "pollDivisionIds": [
          10138293
        ],
        "postalCode": "K4K0K4",
        "streetName": "DU RIVAGE",
        "streetDirectionId": null,
        "streetTypeId": "ST",
        "placeName": "ROCKLAND",
        "streetNameDisplayText": "DU RIVAGE ST, ROCKLAND"
      }
    ]
  },
  {
    "postal": "K4K7N9",
    "result": []
  },
  {
    "postal": "K4K1N0",
    "result": [
      {
        "electoralDistricts": [
          {
            "election": null,
            "id": 32,
            "name": "Glengarry—Prescott—Russell"
          }
        ],
        "pollDivisionIds": [
          10138293
        ],
        "postalCode": "K4K1N0",
        "streetName": "BRAZEAU",
        "streetDirectionId": null,
        "streetTypeId": "RD",
        "placeName": "ROCKLAND",
        "streetNameDisplayText": "BRAZEAU RD, ROCKLAND"
      }
    ]
  },
  {
    "postal": "K4K6P3",
    "result": []
  },
  {
    "postal": "K4K5A1",
    "result": []
  },
  {
    "postal": "K4K9M9",
    "result": []
  },
  {
    "postal": "K4K7T6",
    "result": []
  },
  {
    "postal": "K4K3X0",
    "result": []
  },
  {
    "postal": "K4K2T0",
    "result": []
  },
  {
    "postal": "K4K5X9",
    "result": []
  },
  {
    "postal": "K4K2R3",
    "result": []
  },
  {
    "postal": "K4K5N2",
    "result": []
  },
  {
    "postal": "K4K4Y7",
    "result": []
  },
  {
    "postal": "K4K7M0",
    "result": []
  },
  {
    "postal": "K4K8P3",
    "result": []
  },
  {
    "postal": "K4K3N3",
    "result": []
  },
  {
    "postal": "K4K7S3",
    "result": []
  },
  {
    "postal": "K4K3V9",
    "result": []
  },
  {
    "postal": "K4K9N7",
    "result": []
  },
  {
    "postal": "K4K0G4",
    "result": [
      {
        "electoralDistricts": [
          {
            "election": null,
            "id": 32,
            "name": "Glengarry—Prescott—Russell"
          }
        ],
        "pollDivisionIds": [
          10138293
        ],
        "postalCode": "K4K0G4",
        "streetName": "ELIOT",
        "streetDirectionId": null,
        "streetTypeId": "ST",
        "placeName": "ROCKLAND",
        "streetNameDisplayText": "ELIOT ST, ROCKLAND"
      }
    ]
  },
  {
    "postal": "K4K2E2",
    "result": []
  },
  {
    "postal": "K4K7W8",
    "result": []
  },
  {
    "postal": "K4K7M5",
    "result": []
  },
  {
    "postal": "K4K5W8",
    "result": []
  },
  {
    "postal": "K4K5E5",
    "result": []
  },
  {
    "postal": "K4K1P9",
    "result": []
  },
  {
    "postal": "K4K8V8",
    "result": []
  },
  {
    "postal": "K4K9G8",
    "result": []
  },
  {
    "postal": "K4K8H9",
    "result": []
  },
  {
    "postal": "K4K1Z1",
    "result": []
  },
  {
    "postal": "K4K8M3",
    "result": []
  },
  {
    "postal": "K4K5H6",
    "result": []
  },
  {
    "postal": "K4K7W7",
    "result": []
  },
  {
    "postal": "K4K4L0",
    "result": []
  },
  {
    "postal": "K4K2N1",
    "result": []
  },
  {
    "postal": "K4K2H4",
    "result": []
  },
  {
    "postal": "K4K5C8",
    "result": []
  },
  {
    "postal": "K4K8B0",
    "result": []
  },
  {
    "postal": "K4K1T4",
    "result": [
      {
        "electoralDistricts": [
          {
            "election": null,
            "id": 32,
            "name": "Glengarry—Prescott—Russell"
          }
        ],
        "pollDivisionIds": [
          10138293
        ],
        "postalCode": "K4K1T4",
        "streetName": "HERITAGE",
        "streetDirectionId": null,
        "streetTypeId": "DR",
        "placeName": "ROCKLAND",
        "streetNameDisplayText": "HERITAGE DR, ROCKLAND"
      },
      {
        "electoralDistricts": [
          {
            "election": null,
            "id": 32,
            "name": "Glengarry—Prescott—Russell"
          }
        ],
        "pollDivisionIds": [
          10138293
        ],
        "postalCode": "K4K1T4",
        "streetName": "HERITAGE",
        "streetDirectionId": null,
        "streetTypeId": "RD",
        "placeName": "ROCKLAND",
        "streetNameDisplayText": "HERITAGE RD, ROCKLAND"
      },
      {
        "electoralDistricts": [
          {
            "election": null,
            "id": 32,
            "name": "Glengarry—Prescott—Russell"
          }
        ],
        "pollDivisionIds": [
          10138293
        ],
        "postalCode": "K4K1T4",
        "streetName": "PATRICIA",
        "streetDirectionId": null,
        "streetTypeId": "ST",
        "placeName": "ROCKLAND",
        "streetNameDisplayText": "PATRICIA ST, ROCKLAND"
      }
    ]
  },
  {
    "postal": "K4K7N7",
    "result": []
  },
  {
    "postal": "K4K4L3",
    "result": []
  },
  {
    "postal": "K4K2N2",
    "result": []
  },
  {
    "postal": "K4K4N8",
    "result": []
  },
  {
    "postal": "K4K3M5",
    "result": []
  },
  {
    "postal": "K4K6H7",
    "result": []
  },
  {
    "postal": "K4K8Y8",
    "result": []
  },
  {
    "postal": "K4K5R9",
    "result": []
  },
  {
    "postal": "K4K8G3",
    "result": []
  },
  {
    "postal": "K4K4N7",
    "result": []
  },
  {
    "postal": "K4K0B9",
    "result": [
      {
        "electoralDistricts": [
          {
            "election": null,
            "id": 32,
            "name": "Glengarry—Prescott—Russell"
          }
        ],
        "pollDivisionIds": [
          10138293
        ],
        "postalCode": "K4K0B9",
        "streetName": "EMERALD",
        "streetDirectionId": null,
        "streetTypeId": "ST",
        "placeName": "ROCKLAND",
        "streetNameDisplayText": "EMERALD ST, ROCKLAND"
      },
      {
        "electoralDistricts": [
          {
            "election": null,
            "id": 32,
            "name": "Glengarry—Prescott—Russell"
          }
        ],
        "pollDivisionIds": [
          10138293
        ],
        "postalCode": "K4K0B9",
        "streetName": "JASPER",
        "streetDirectionId": null,
        "streetTypeId": "CRES",
        "placeName": "ROCKLAND",
        "streetNameDisplayText": "JASPER CRES, ROCKLAND"
      }
    ]
  },
  {
    "postal": "K4K9K7",
    "result": []
  },
  {
    "postal": "K4K9K9",
    "result": []
  },
  {
    "postal": "K4K3Z2",
    "result": []
  },
  {
    "postal": "K4K6W7",
    "result": []
  },
  {
    "postal": "K4K0P1",
    "result": []
  },
  {
    "postal": "K4K3A0",
    "result": []
  },
  {
    "postal": "K4K8L9",
    "result": []
  },
  {
    "postal": "K4K6X0",
    "result": []
  },
  {
    "postal": "K4K3E9",
    "result": []
  },
  {
    "postal": "K4K0S5",
    "result": []
  },
  {
    "postal": "K4K1A2",
    "result": [
      {
        "electoralDistricts": [
          {
            "election": null,
            "id": 32,
            "name": "Glengarry—Prescott—Russell"
          }
        ],
        "pollDivisionIds": [
          10138293
        ],
        "postalCode": "K4K1A2",
        "streetName": "LAURIER",
        "streetDirectionId": null,
        "streetTypeId": "ST",
        "placeName": "ROCKLAND",
        "streetNameDisplayText": "LAURIER ST, ROCKLAND"
      }
    ]
  },
  {
    "postal": "K4K5V8",
    "result": []
  },
  {
    "postal": "K4K8C5",
    "result": []
  },
  {
    "postal": "K4K6N0",
    "result": []
  },
  {
    "postal": "K4K9E6",
    "result": []
  },
  {
    "postal": "K4K5J7",
    "result": []
  },
  {
    "postal": "K4K2R2",
    "result": []
  },
  {
    "postal": "K4K0P5",
    "result": []
  },
  {
    "postal": "K4K5A7",
    "result": []
  },
  {
    "postal": "K4K1G1",
    "result": [
      {
        "electoralDistricts": [
          {
            "election": null,
            "id": 32,
            "name": "Glengarry—Prescott—Russell"
          }
        ],
        "pollDivisionIds": [
          10138293
        ],
        "postalCode": "K4K1G1",
        "streetName": "YVES",
        "streetDirectionId": null,
        "streetTypeId": "ST",
        "placeName": "ROCKLAND",
        "streetNameDisplayText": "YVES ST, ROCKLAND"
      }
    ]
  },
  {
    "postal": "K4K9R6",
    "result": []
  },
  {
    "postal": "K4K4Z9",
    "result": []
  },
  {
    "postal": "K4K1V5",
    "result": []
  },
  {
    "postal": "K4K9Y5",
    "result": []
  },
  {
    "postal": "K4K1P2",
    "result": []
  },
  {
    "postal": "K4K5X0",
    "result": []
  },
  {
    "postal": "K4K7B8",
    "result": []
  },
  {
    "postal": "K4K0C6",
    "result": [
      {
        "electoralDistricts": [
          {
            "election": null,
            "id": 32,
            "name": "Glengarry—Prescott—Russell"
          }
        ],
        "pollDivisionIds": [
          10138293
        ],
        "postalCode": "K4K0C6",
        "streetName": "LAURIER",
        "streetDirectionId": null,
        "streetTypeId": "ST",
        "placeName": "ROCKLAND",
        "streetNameDisplayText": "LAURIER ST, ROCKLAND"
      }
    ]
  },
  {
    "postal": "K4K6G1",
    "result": []
  },
  {
    "postal": "K4K3K3",
    "result": []
  },
  {
    "postal": "K4K9R0",
    "result": []
  },
  {
    "postal": "K4K4R8",
    "result": []
  },
  {
    "postal": "K4K5P9",
    "result": []
  },
  {
    "postal": "K4K8N4",
    "result": []
  },
  {
    "postal": "K4K8H4",
    "result": []
  },
  {
    "postal": "K4K4V1",
    "result": []
  },
  {
    "postal": "K4K1K5",
    "result": [
      {
        "electoralDistricts": [
          {
            "election": null,
            "id": 32,
            "name": "Glengarry—Prescott—Russell"
          }
        ],
        "pollDivisionIds": [
          10138293
        ],
        "postalCode": "K4K1K5",
        "streetName": "ALBERT",
        "streetDirectionId": null,
        "streetTypeId": "ST",
        "placeName": "ROCKLAND",
        "streetNameDisplayText": "ALBERT ST, ROCKLAND"
      },
      {
        "electoralDistricts": [
          {
            "election": null,
            "id": 32,
            "name": "Glengarry—Prescott—Russell"
          }
        ],
        "pollDivisionIds": [
          10138293
        ],
        "postalCode": "K4K1K5",
        "streetName": "CHENE",
        "streetDirectionId": null,
        "streetTypeId": "ST",
        "placeName": "ROCKLAND",
        "streetNameDisplayText": "CHENE ST, ROCKLAND"
      },
      {
        "electoralDistricts": [
          {
            "election": null,
            "id": 32,
            "name": "Glengarry—Prescott—Russell"
          }
        ],
        "pollDivisionIds": [
          10138293
        ],
        "postalCode": "K4K1K5",
        "streetName": "CHENÉ",
        "streetDirectionId": null,
        "streetTypeId": "ST",
        "placeName": "ROCKLAND",
        "streetNameDisplayText": "CHENÉ ST, ROCKLAND"
      },
      {
        "electoralDistricts": [
          {
            "election": null,
            "id": 32,
            "name": "Glengarry—Prescott—Russell"
          }
        ],
        "pollDivisionIds": [
          10138293
        ],
        "postalCode": "K4K1K5",
        "streetName": "EDWARDS",
        "streetDirectionId": null,
        "streetTypeId": "ST",
        "placeName": "ROCKLAND",
        "streetNameDisplayText": "EDWARDS ST, ROCKLAND"
      },
      {
        "electoralDistricts": [
          {
            "election": null,
            "id": 32,
            "name": "Glengarry—Prescott—Russell"
          }
        ],
        "pollDivisionIds": [
          10138293
        ],
        "postalCode": "K4K1K5",
        "streetName": "GIROUX",
        "streetDirectionId": null,
        "streetTypeId": "ST",
        "placeName": "ROCKLAND",
        "streetNameDisplayText": "GIROUX ST, ROCKLAND"
      },
      {
        "electoralDistricts": [
          {
            "election": null,
            "id": 32,
            "name": "Glengarry—Prescott—Russell"
          }
        ],
        "pollDivisionIds": [
          10138293
        ],
        "postalCode": "K4K1K5",
        "streetName": "HUDON",
        "streetDirectionId": null,
        "streetTypeId": "ST",
        "placeName": "ROCKLAND",
        "streetNameDisplayText": "HUDON ST, ROCKLAND"
      },
      {
        "electoralDistricts": [
          {
            "election": null,
            "id": 32,
            "name": "Glengarry—Prescott—Russell"
          }
        ],
        "pollDivisionIds": [
          10138293
        ],
        "postalCode": "K4K1K5",
        "streetName": "JULIETTE",
        "streetDirectionId": null,
        "streetTypeId": "ST",
        "placeName": "ROCKLAND",
        "streetNameDisplayText": "JULIETTE ST, ROCKLAND"
      },
      {
        "electoralDistricts": [
          {
            "election": null,
            "id": 32,
            "name": "Glengarry—Prescott—Russell"
          }
        ],
        "pollDivisionIds": [
          10138293
        ],
        "postalCode": "K4K1K5",
        "streetName": "LAURIER",
        "streetDirectionId": null,
        "streetTypeId": "ST",
        "placeName": "ROCKLAND",
        "streetNameDisplayText": "LAURIER ST, ROCKLAND"
      },
      {
        "electoralDistricts": [
          {
            "election": null,
            "id": 32,
            "name": "Glengarry—Prescott—Russell"
          }
        ],
        "pollDivisionIds": [
          10138293
        ],
        "postalCode": "K4K1K5",
        "streetName": "LAVIOLETTE",
        "streetDirectionId": null,
        "streetTypeId": "ST",
        "placeName": "ROCKLAND",
        "streetNameDisplayText": "LAVIOLETTE ST, ROCKLAND"
      },
      {
        "electoralDistricts": [
          {
            "election": null,
            "id": 32,
            "name": "Glengarry—Prescott—Russell"
          }
        ],
        "pollDivisionIds": [
          10138293
        ],
        "postalCode": "K4K1K5",
        "streetName": "MARTIN",
        "streetDirectionId": null,
        "streetTypeId": "LANE",
        "placeName": "ROCKLAND",
        "streetNameDisplayText": "MARTIN LANE, ROCKLAND"
      },
      {
        "electoralDistricts": [
          {
            "election": null,
            "id": 32,
            "name": "Glengarry—Prescott—Russell"
          }
        ],
        "pollDivisionIds": [
          10138293
        ],
        "postalCode": "K4K1K5",
        "streetName": "MCCALL",
        "streetDirectionId": null,
        "streetTypeId": "ST",
        "placeName": "ROCKLAND",
        "streetNameDisplayText": "MCCALL ST, ROCKLAND"
      },
      {
        "electoralDistricts": [
          {
            "election": null,
            "id": 32,
            "name": "Glengarry—Prescott—Russell"
          }
        ],
        "pollDivisionIds": [
          10138293
        ],
        "postalCode": "K4K1K5",
        "streetName": "POWERS",
        "streetDirectionId": null,
        "streetTypeId": "ST",
        "placeName": "ROCKLAND",
        "streetNameDisplayText": "POWERS ST, ROCKLAND"
      },
      {
        "electoralDistricts": [
          {
            "election": null,
            "id": 32,
            "name": "Glengarry—Prescott—Russell"
          }
        ],
        "pollDivisionIds": [
          10138293
        ],
        "postalCode": "K4K1K5",
        "streetName": "RAYMOND",
        "streetDirectionId": null,
        "streetTypeId": "ST",
        "placeName": "ROCKLAND",
        "streetNameDisplayText": "RAYMOND ST, ROCKLAND"
      },
      {
        "electoralDistricts": [
          {
            "election": null,
            "id": 32,
            "name": "Glengarry—Prescott—Russell"
          }
        ],
        "pollDivisionIds": [
          10138293
        ],
        "postalCode": "K4K1K5",
        "streetName": "ST JACQUES",
        "streetDirectionId": null,
        "streetTypeId": "ST",
        "placeName": "ROCKLAND",
        "streetNameDisplayText": "ST JACQUES ST, ROCKLAND"
      },
      {
        "electoralDistricts": [
          {
            "election": null,
            "id": 32,
            "name": "Glengarry—Prescott—Russell"
          }
        ],
        "pollDivisionIds": [
          10138293
        ],
        "postalCode": "K4K1K5",
        "streetName": "ST JEAN",
        "streetDirectionId": null,
        "streetTypeId": "ST",
        "placeName": "ROCKLAND",
        "streetNameDisplayText": "ST JEAN ST, ROCKLAND"
      },
      {
        "electoralDistricts": [
          {
            "election": null,
            "id": 32,
            "name": "Glengarry—Prescott—Russell"
          }
        ],
        "pollDivisionIds": [
          10138293
        ],
        "postalCode": "K4K1K5",
        "streetName": "ST JEAN",
        "streetDirectionId": null,
        "streetTypeId": null,
        "placeName": "ROCKLAND",
        "streetNameDisplayText": "ST JEAN, ROCKLAND"
      },
      {
        "electoralDistricts": [
          {
            "election": null,
            "id": 32,
            "name": "Glengarry—Prescott—Russell"
          }
        ],
        "pollDivisionIds": [
          10138286
        ],
        "postalCode": "K4K1K5",
        "streetName": "ST JOSEPH",
        "streetDirectionId": null,
        "streetTypeId": "ST",
        "placeName": "ROCKLAND",
        "streetNameDisplayText": "ST JOSEPH ST, ROCKLAND"
      },
      {
        "electoralDistricts": [
          {
            "election": null,
            "id": 32,
            "name": "Glengarry—Prescott—Russell"
          }
        ],
        "pollDivisionIds": [
          10138293
        ],
        "postalCode": "K4K1K5",
        "streetName": "ST. JACQUES",
        "streetDirectionId": null,
        "streetTypeId": "ST",
        "placeName": "ROCKLAND",
        "streetNameDisplayText": "ST. JACQUES ST, ROCKLAND"
      },
      {
        "electoralDistricts": [
          {
            "election": null,
            "id": 32,
            "name": "Glengarry—Prescott—Russell"
          }
        ],
        "pollDivisionIds": [
          10138345,
          10138293
        ],
        "postalCode": "K4K1K5",
        "streetName": "ST. JEAN",
        "streetDirectionId": null,
        "streetTypeId": "ST",
        "placeName": "ROCKLAND",
        "streetNameDisplayText": "ST. JEAN ST, ROCKLAND"
      },
      {
        "electoralDistricts": [
          {
            "election": null,
            "id": 32,
            "name": "Glengarry—Prescott—Russell"
          }
        ],
        "pollDivisionIds": [
          10138293
        ],
        "postalCode": "K4K1K5",
        "streetName": "ST. JOSEPH",
        "streetDirectionId": null,
        "streetTypeId": "ST",
        "placeName": "ROCKLAND",
        "streetNameDisplayText": "ST. JOSEPH ST, ROCKLAND"
      },
      {
        "electoralDistricts": [
          {
            "election": null,
            "id": 32,
            "name": "Glengarry—Prescott—Russell"
          }
        ],
        "pollDivisionIds": [
          10138293
        ],
        "postalCode": "K4K1K5",
        "streetName": "ST. LOUIS",
        "streetDirectionId": null,
        "streetTypeId": "ST",
        "placeName": "ROCKLAND",
        "streetNameDisplayText": "ST. LOUIS ST, ROCKLAND"
      },
      {
        "electoralDistricts": [
          {
            "election": null,
            "id": 32,
            "name": "Glengarry—Prescott—Russell"
          }
        ],
        "pollDivisionIds": [
          10138293
        ],
        "postalCode": "K4K1K5",
        "streetName": "VICTORIA",
        "streetDirectionId": null,
        "streetTypeId": "ST",
        "placeName": "ROCKLAND",
        "streetNameDisplayText": "VICTORIA ST, ROCKLAND"
      }
    ]
  },
  {
    "postal": "K4K1Z5",
    "result": []
  },
  {
    "postal": "K4K9L9",
    "result": []
  },
  {
    "postal": "K4K5L2",
    "result": []
  },
  {
    "postal": "K4K0M2",
    "result": []
  },
  {
    "postal": "K4K1K8",
    "result": []
  },
  {
    "postal": "K4K3M7",
    "result": []
  },
  {
    "postal": "K4K1B2",
    "result": [
      {
        "electoralDistricts": [
          {
            "election": null,
            "id": 32,
            "name": "Glengarry—Prescott—Russell"
          }
        ],
        "pollDivisionIds": [
          10138293
        ],
        "postalCode": "K4K1B2",
        "streetName": "ANDRE",
        "streetDirectionId": null,
        "streetTypeId": "ST",
        "placeName": "ROCKLAND",
        "streetNameDisplayText": "ANDRE ST, ROCKLAND"
      },
      {
        "electoralDistricts": [
          {
            "election": null,
            "id": 32,
            "name": "Glengarry—Prescott—Russell"
          }
        ],
        "pollDivisionIds": [
          10138293
        ],
        "postalCode": "K4K1B2",
        "streetName": "CHARRON",
        "streetDirectionId": null,
        "streetTypeId": "ST",
        "placeName": "ROCKLAND",
        "streetNameDisplayText": "CHARRON ST, ROCKLAND"
      },
      {
        "electoralDistricts": [
          {
            "election": null,
            "id": 32,
            "name": "Glengarry—Prescott—Russell"
          }
        ],
        "pollDivisionIds": [
          10138293
        ],
        "postalCode": "K4K1B2",
        "streetName": "PATRICIA",
        "streetDirectionId": null,
        "streetTypeId": "ST",
        "placeName": "ROCKLAND",
        "streetNameDisplayText": "PATRICIA ST, ROCKLAND"
      }
    ]
  },
  {
    "postal": "K4K0H9",
    "result": [
      {
        "electoralDistricts": [
          {
            "election": null,
            "id": 32,
            "name": "Glengarry—Prescott—Russell"
          }
        ],
        "pollDivisionIds": [
          10138293
        ],
        "postalCode": "K4K0H9",
        "streetName": "PLATINUM",
        "streetDirectionId": null,
        "streetTypeId": "ST",
        "placeName": "ROCKLAND",
        "streetNameDisplayText": "PLATINUM ST, ROCKLAND"
      },
      {
        "electoralDistricts": [
          {
            "election": null,
            "id": 32,
            "name": "Glengarry—Prescott—Russell"
          }
        ],
        "pollDivisionIds": [
          10138293
        ],
        "postalCode": "K4K0H9",
        "streetName": "STERLING",
        "streetDirectionId": null,
        "streetTypeId": "AVE",
        "placeName": "ROCKLAND",
        "streetNameDisplayText": "STERLING AVE, ROCKLAND"
      },
      {
        "electoralDistricts": [
          {
            "election": null,
            "id": 32,
            "name": "Glengarry—Prescott—Russell"
          }
        ],
        "pollDivisionIds": [
          10138293
        ],
        "postalCode": "K4K0H9",
        "streetName": "ZIRCON",
        "streetDirectionId": null,
        "streetTypeId": "ST",
        "placeName": "ROCKLAND",
        "streetNameDisplayText": "ZIRCON ST, ROCKLAND"
      }
    ]
  },
  {
    "postal": "K4K8M4",
    "result": []
  },
  {
    "postal": "K4K2M5",
    "result": []
  },
  {
    "postal": "K4K0T9",
    "result": []
  },
  {
    "postal": "K4K3P1",
    "result": []
  },
  {
    "postal": "K4K1R6",
    "result": [
      {
        "electoralDistricts": [
          {
            "election": null,
            "id": 32,
            "name": "Glengarry—Prescott—Russell"
          }
        ],
        "pollDivisionIds": [
          10138293
        ],
        "postalCode": "K4K1R6",
        "streetName": "BEAUMONT",
        "streetDirectionId": null,
        "streetTypeId": "AVE",
        "placeName": "ROCKLAND",
        "streetNameDisplayText": "BEAUMONT AVE, ROCKLAND"
      },
      {
        "electoralDistricts": [
          {
            "election": null,
            "id": 32,
            "name": "Glengarry—Prescott—Russell"
          }
        ],
        "pollDivisionIds": [
          10138293
        ],
        "postalCode": "K4K1R6",
        "streetName": "SANDRA",
        "streetDirectionId": null,
        "streetTypeId": "CRES",
        "placeName": "ROCKLAND",
        "streetNameDisplayText": "SANDRA CRES, ROCKLAND"
      }
    ]
  },
  {
    "postal": "K4K9V5",
    "result": []
  },
  {
    "postal": "K4K9T0",
    "result": []
  },
  {
    "postal": "K4K0A9",
    "result": []
  },
  {
    "postal": "K4K1M3",
    "result": [
      {
        "electoralDistricts": [
          {
            "election": null,
            "id": 32,
            "name": "Glengarry—Prescott—Russell"
          }
        ],
        "pollDivisionIds": [
          10138293
        ],
        "postalCode": "K4K1M3",
        "streetName": "JULIE",
        "streetDirectionId": null,
        "streetTypeId": "ST",
        "placeName": "ROCKLAND",
        "streetNameDisplayText": "JULIE ST, ROCKLAND"
      },
      {
        "electoralDistricts": [
          {
            "election": null,
            "id": 32,
            "name": "Glengarry—Prescott—Russell"
          }
        ],
        "pollDivisionIds": [
          10138293
        ],
        "postalCode": "K4K1M3",
        "streetName": "LILIANE",
        "streetDirectionId": null,
        "streetTypeId": "ST",
        "placeName": "ROCKLAND",
        "streetNameDisplayText": "LILIANE ST, ROCKLAND"
      },
      {
        "electoralDistricts": [
          {
            "election": null,
            "id": 32,
            "name": "Glengarry—Prescott—Russell"
          }
        ],
        "pollDivisionIds": [
          10138293
        ],
        "postalCode": "K4K1M3",
        "streetName": "ST. JACQUES",
        "streetDirectionId": null,
        "streetTypeId": "ST",
        "placeName": "ROCKLAND",
        "streetNameDisplayText": "ST. JACQUES ST, ROCKLAND"
      }
    ]
  },
  {
    "postal": "K4K1W8",
    "result": []
  },
  {
    "postal": "K4K9J1",
    "result": []
  },
  {
    "postal": "K4K8N5",
    "result": []
  },
  {
    "postal": "K4K5X1",
    "result": []
  },
  {
    "postal": "K4K6S2",
    "result": []
  },
  {
    "postal": "K4K2A2",
    "result": []
  },
  {
    "postal": "K4K6A6",
    "result": []
  },
  {
    "postal": "K4K0S3",
    "result": []
  },
  {
    "postal": "K4K3E7",
    "result": []
  },
  {
    "postal": "K4K5R7",
    "result": []
  },
  {
    "postal": "K4K3R6",
    "result": []
  },
  {
    "postal": "K4K6K4",
    "result": []
  },
  {
    "postal": "K4K2W5",
    "result": []
  },
  {
    "postal": "K4K8W4",
    "result": []
  },
  {
    "postal": "K4K9C2",
    "result": []
  },
  {
    "postal": "K4K2C0",
    "result": []
  },
  {
    "postal": "K4K0E1",
    "result": []
  },
  {
    "postal": "K4K1K9",
    "result": [
      {
        "electoralDistricts": [
          {
            "election": null,
            "id": 32,
            "name": "Glengarry—Prescott—Russell"
          }
        ],
        "pollDivisionIds": [
          10138293
        ],
        "postalCode": "K4K1K9",
        "streetName": "BASELINE",
        "streetDirectionId": null,
        "streetTypeId": "RD",
        "placeName": "ROCKLAND",
        "streetNameDisplayText": "BASELINE RD, ROCKLAND"
      },
      {
        "electoralDistricts": [
          {
            "election": null,
            "id": 32,
            "name": "Glengarry—Prescott—Russell"
          }
        ],
        "pollDivisionIds": [
          10138293
        ],
        "postalCode": "K4K1K9",
        "streetName": "BLUE JAY",
        "streetDirectionId": null,
        "streetTypeId": "DR",
        "placeName": "ROCKLAND",
        "streetNameDisplayText": "BLUE JAY DR, ROCKLAND"
      },
      {
        "electoralDistricts": [
          {
            "election": null,
            "id": 32,
            "name": "Glengarry—Prescott—Russell"
          }
        ],
        "pollDivisionIds": [
          10138293
        ],
        "postalCode": "K4K1K9",
        "streetName": "CANAAN",
        "streetDirectionId": null,
        "streetTypeId": "RD",
        "placeName": "ROCKLAND",
        "streetNameDisplayText": "CANAAN RD, ROCKLAND"
      },
      {
        "electoralDistricts": [
          {
            "election": null,
            "id": 32,
            "name": "Glengarry—Prescott—Russell"
          }
        ],
        "pollDivisionIds": [
          10138293
        ],
        "postalCode": "K4K1K9",
        "streetName": "CARDINAL",
        "streetDirectionId": null,
        "streetTypeId": "CRES",
        "placeName": "ROCKLAND",
        "streetNameDisplayText": "CARDINAL CRES, ROCKLAND"
      },
      {
        "electoralDistricts": [
          {
            "election": null,
            "id": 32,
            "name": "Glengarry—Prescott—Russell"
          }
        ],
        "pollDivisionIds": [
          10138293
        ],
        "postalCode": "K4K1K9",
        "streetName": "COUNTY 17",
        "streetDirectionId": null,
        "streetTypeId": "RD",
        "placeName": "CLARENCE CREEK",
        "streetNameDisplayText": "COUNTY 17 RD, CLARENCE CREEK"
      },
      {
        "electoralDistricts": [
          {
            "election": null,
            "id": 32,
            "name": "Glengarry—Prescott—Russell"
          }
        ],
        "pollDivisionIds": [
          10138293
        ],
        "postalCode": "K4K1K9",
        "streetName": "COUNTY 17",
        "streetDirectionId": null,
        "streetTypeId": "RD",
        "placeName": "ROCKLAND",
        "streetNameDisplayText": "COUNTY 17 RD, ROCKLAND"
      },
      {
        "electoralDistricts": [
          {
            "election": null,
            "id": 32,
            "name": "Glengarry—Prescott—Russell"
          }
        ],
        "pollDivisionIds": [
          10138293
        ],
        "postalCode": "K4K1K9",
        "streetName": "DE LA BAIE",
        "streetDirectionId": null,
        "streetTypeId": "RD",
        "placeName": "ROCKLAND",
        "streetNameDisplayText": "DE LA BAIE RD, ROCKLAND"
      },
      {
        "electoralDistricts": [
          {
            "election": null,
            "id": 32,
            "name": "Glengarry—Prescott—Russell"
          }
        ],
        "pollDivisionIds": [
          10138293
        ],
        "postalCode": "K4K1K9",
        "streetName": "DE LA FORET",
        "streetDirectionId": null,
        "streetTypeId": "ST",
        "placeName": "ROCKLAND",
        "streetNameDisplayText": "DE LA FORET ST, ROCKLAND"
      },
      {
        "electoralDistricts": [
          {
            "election": null,
            "id": 32,
            "name": "Glengarry—Prescott—Russell"
          }
        ],
        "pollDivisionIds": [
          10138293
        ],
        "postalCode": "K4K1K9",
        "streetName": "DES CERISIERS",
        "streetDirectionId": null,
        "streetTypeId": "ST",
        "placeName": "ROCKLAND",
        "streetNameDisplayText": "DES CERISIERS ST, ROCKLAND"
      },
      {
        "electoralDistricts": [
          {
            "election": null,
            "id": 32,
            "name": "Glengarry—Prescott—Russell"
          }
        ],
        "pollDivisionIds": [
          10138293
        ],
        "postalCode": "K4K1K9",
        "streetName": "DES EPINETTES",
        "streetDirectionId": null,
        "streetTypeId": "CRT",
        "placeName": "ROCKLAND",
        "streetNameDisplayText": "DES EPINETTES CRT, ROCKLAND"
      },
      {
        "electoralDistricts": [
          {
            "election": null,
            "id": 32,
            "name": "Glengarry—Prescott—Russell"
          }
        ],
        "pollDivisionIds": [
          10138293
        ],
        "postalCode": "K4K1K9",
        "streetName": "DES ERABLES",
        "streetDirectionId": null,
        "streetTypeId": "CRT",
        "placeName": "ROCKLAND",
        "streetNameDisplayText": "DES ERABLES CRT, ROCKLAND"
      },
      {
        "electoralDistricts": [
          {
            "election": null,
            "id": 32,
            "name": "Glengarry—Prescott—Russell"
          }
        ],
        "pollDivisionIds": [
          10138293
        ],
        "postalCode": "K4K1K9",
        "streetName": "DES ERABLES",
        "streetDirectionId": null,
        "streetTypeId": null,
        "placeName": "CLARENCE-ROCKLAND",
        "streetNameDisplayText": "DES ERABLES, CLARENCE-ROCKLAND"
      },
      {
        "electoralDistricts": [
          {
            "election": null,
            "id": 32,
            "name": "Glengarry—Prescott—Russell"
          }
        ],
        "pollDivisionIds": [
          10138293
        ],
        "postalCode": "K4K1K9",
        "streetName": "DES MERISIERS",
        "streetDirectionId": null,
        "streetTypeId": "ST",
        "placeName": "ROCKLAND",
        "streetNameDisplayText": "DES MERISIERS ST, ROCKLAND"
      },
      {
        "electoralDistricts": [
          {
            "election": null,
            "id": 32,
            "name": "Glengarry—Prescott—Russell"
          }
        ],
        "pollDivisionIds": [
          10138293
        ],
        "postalCode": "K4K1K9",
        "streetName": "DES ORMES",
        "streetDirectionId": null,
        "streetTypeId": "ST",
        "placeName": "ROCKLAND",
        "streetNameDisplayText": "DES ORMES ST, ROCKLAND"
      },
      {
        "electoralDistricts": [
          {
            "election": null,
            "id": 32,
            "name": "Glengarry—Prescott—Russell"
          }
        ],
        "pollDivisionIds": [
          10138293
        ],
        "postalCode": "K4K1K9",
        "streetName": "DES POMMIERS",
        "streetDirectionId": null,
        "streetTypeId": "ST",
        "placeName": "ROCKLAND",
        "streetNameDisplayText": "DES POMMIERS ST, ROCKLAND"
      },
      {
        "electoralDistricts": [
          {
            "election": null,
            "id": 32,
            "name": "Glengarry—Prescott—Russell"
          }
        ],
        "pollDivisionIds": [
          10138293
        ],
        "postalCode": "K4K1K9",
        "streetName": "HEMLOCK",
        "streetDirectionId": null,
        "streetTypeId": "ST",
        "placeName": "ROCKLAND",
        "streetNameDisplayText": "HEMLOCK ST, ROCKLAND"
      },
      {
        "electoralDistricts": [
          {
            "election": null,
            "id": 32,
            "name": "Glengarry—Prescott—Russell"
          }
        ],
        "pollDivisionIds": [
          10138293
        ],
        "postalCode": "K4K1K9",
        "streetName": "HICKORY",
        "streetDirectionId": null,
        "streetTypeId": "ST",
        "placeName": "ROCKLAND",
        "streetNameDisplayText": "HICKORY ST, ROCKLAND"
      },
      {
        "electoralDistricts": [
          {
            "election": null,
            "id": 32,
            "name": "Glengarry—Prescott—Russell"
          }
        ],
        "pollDivisionIds": [
          10138293
        ],
        "postalCode": "K4K1K9",
        "streetName": "MCDERMITT",
        "streetDirectionId": null,
        "streetTypeId": "DR",
        "placeName": "ROCKLAND",
        "streetNameDisplayText": "MCDERMITT DR, ROCKLAND"
      },
      {
        "electoralDistricts": [
          {
            "election": null,
            "id": 32,
            "name": "Glengarry—Prescott—Russell"
          }
        ],
        "pollDivisionIds": [
          10138286
        ],
        "postalCode": "K4K1K9",
        "streetName": "MCDERMOTT",
        "streetDirectionId": null,
        "streetTypeId": null,
        "placeName": "ROCKLAND",
        "streetNameDisplayText": "MCDERMOTT, ROCKLAND"
      },
      {
        "electoralDistricts": [
          {
            "election": null,
            "id": 32,
            "name": "Glengarry—Prescott—Russell"
          }
        ],
        "pollDivisionIds": [
          10138293
        ],
        "postalCode": "K4K1K9",
        "streetName": "MCTEER",
        "streetDirectionId": null,
        "streetTypeId": "RD",
        "placeName": "ROCKLAND",
        "streetNameDisplayText": "MCTEER RD, ROCKLAND"
      },
      {
        "electoralDistricts": [
          {
            "election": null,
            "id": 32,
            "name": "Glengarry—Prescott—Russell"
          }
        ],
        "pollDivisionIds": [
          10138293
        ],
        "postalCode": "K4K1K9",
        "streetName": "OAKWOOD",
        "streetDirectionId": null,
        "streetTypeId": "DR",
        "placeName": "ROCKLAND",
        "streetNameDisplayText": "OAKWOOD DR, ROCKLAND"
      },
      {
        "electoralDistricts": [
          {
            "election": null,
            "id": 32,
            "name": "Glengarry—Prescott—Russell"
          }
        ],
        "pollDivisionIds": [
          10138293
        ],
        "postalCode": "K4K1K9",
        "streetName": "POUPART",
        "streetDirectionId": null,
        "streetTypeId": "RD",
        "placeName": "ROCKLAND",
        "streetNameDisplayText": "POUPART RD, ROCKLAND"
      },
      {
        "electoralDistricts": [
          {
            "election": null,
            "id": 32,
            "name": "Glengarry—Prescott—Russell"
          }
        ],
        "pollDivisionIds": [
          10138293
        ],
        "postalCode": "K4K1K9",
        "streetName": "SCHARF",
        "streetDirectionId": null,
        "streetTypeId": "ST",
        "placeName": "ROCKLAND",
        "streetNameDisplayText": "SCHARF ST, ROCKLAND"
      },
      {
        "electoralDistricts": [
          {
            "election": null,
            "id": 32,
            "name": "Glengarry—Prescott—Russell"
          }
        ],
        "pollDivisionIds": [
          10138293
        ],
        "postalCode": "K4K1K9",
        "streetName": "ST JEAN",
        "streetDirectionId": null,
        "streetTypeId": "ST",
        "placeName": "ROCKLAND",
        "streetNameDisplayText": "ST JEAN ST, ROCKLAND"
      },
      {
        "electoralDistricts": [
          {
            "election": null,
            "id": 32,
            "name": "Glengarry—Prescott—Russell"
          }
        ],
        "pollDivisionIds": [
          10138293
        ],
        "postalCode": "K4K1K9",
        "streetName": "ST. JEAN",
        "streetDirectionId": null,
        "streetTypeId": "ST",
        "placeName": "ROCKLAND",
        "streetNameDisplayText": "ST. JEAN ST, ROCKLAND"
      },
      {
        "electoralDistricts": [
          {
            "election": null,
            "id": 32,
            "name": "Glengarry—Prescott—Russell"
          }
        ],
        "pollDivisionIds": [
          10138293
        ],
        "postalCode": "K4K1K9",
        "streetName": "SYCAMORE",
        "streetDirectionId": null,
        "streetTypeId": "ST",
        "placeName": "ROCKLAND",
        "streetNameDisplayText": "SYCAMORE ST, ROCKLAND"
      }
    ]
  },
  {
    "postal": "K4K1G7",
    "result": [
      {
        "electoralDistricts": [
          {
            "election": null,
            "id": 32,
            "name": "Glengarry—Prescott—Russell"
          }
        ],
        "pollDivisionIds": [
          10138293
        ],
        "postalCode": "K4K1G7",
        "streetName": "DALRYMPLE",
        "streetDirectionId": null,
        "streetTypeId": "DR",
        "placeName": "ROCKLAND",
        "streetNameDisplayText": "DALRYMPLE DR, ROCKLAND"
      },
      {
        "electoralDistricts": [
          {
            "election": null,
            "id": 32,
            "name": "Glengarry—Prescott—Russell"
          }
        ],
        "pollDivisionIds": [
          10138293
        ],
        "postalCode": "K4K1G7",
        "streetName": "DIANNE",
        "streetDirectionId": null,
        "streetTypeId": "AVE",
        "placeName": "ROCKLAND",
        "streetNameDisplayText": "DIANNE AVE, ROCKLAND"
      },
      {
        "electoralDistricts": [
          {
            "election": null,
            "id": 32,
            "name": "Glengarry—Prescott—Russell"
          }
        ],
        "pollDivisionIds": [
          10138293
        ],
        "postalCode": "K4K1G7",
        "streetName": "PAUL",
        "streetDirectionId": null,
        "streetTypeId": "TERR",
        "placeName": "ROCKLAND",
        "streetNameDisplayText": "PAUL TERR, ROCKLAND"
      }
    ]
  },
  {
    "postal": "K4K4E9",
    "result": []
  },
  {
    "postal": "K4K9P0",
    "result": []
  },
  {
    "postal": "K4K5H3",
    "result": []
  },
  {
    "postal": "K4K9X6",
    "result": []
  },
  {
    "postal": "K4K5N7",
    "result": []
  },
  {
    "postal": "K4K5A6",
    "result": []
  },
  {
    "postal": "K4K4M0",
    "result": []
  },
  {
    "postal": "K4K3V6",
    "result": []
  },
  {
    "postal": "K4K1L7",
    "result": [
      {
        "electoralDistricts": [
          {
            "election": null,
            "id": 32,
            "name": "Glengarry—Prescott—Russell"
          }
        ],
        "pollDivisionIds": [
          10138293
        ],
        "postalCode": "K4K1L7",
        "streetName": "CHENE",
        "streetDirectionId": null,
        "streetTypeId": "ST",
        "placeName": "ROCKLAND",
        "streetNameDisplayText": "CHENE ST, ROCKLAND"
      },
      {
        "electoralDistricts": [
          {
            "election": null,
            "id": 32,
            "name": "Glengarry—Prescott—Russell"
          }
        ],
        "pollDivisionIds": [
          10138293
        ],
        "postalCode": "K4K1L7",
        "streetName": "EDWARDS",
        "streetDirectionId": null,
        "streetTypeId": "ST",
        "placeName": "ROCKLAND",
        "streetNameDisplayText": "EDWARDS ST, ROCKLAND"
      },
      {
        "electoralDistricts": [
          {
            "election": null,
            "id": 32,
            "name": "Glengarry—Prescott—Russell"
          }
        ],
        "pollDivisionIds": [
          10138293
        ],
        "postalCode": "K4K1L7",
        "streetName": "GIROUX",
        "streetDirectionId": null,
        "streetTypeId": "ST",
        "placeName": "ROCKLAND",
        "streetNameDisplayText": "GIROUX ST, ROCKLAND"
      },
      {
        "electoralDistricts": [
          {
            "election": null,
            "id": 32,
            "name": "Glengarry—Prescott—Russell"
          }
        ],
        "pollDivisionIds": [
          10138293
        ],
        "postalCode": "K4K1L7",
        "streetName": "JULIETTE",
        "streetDirectionId": null,
        "streetTypeId": "ST",
        "placeName": "ROCKLAND",
        "streetNameDisplayText": "JULIETTE ST, ROCKLAND"
      },
      {
        "electoralDistricts": [
          {
            "election": null,
            "id": 32,
            "name": "Glengarry—Prescott—Russell"
          }
        ],
        "pollDivisionIds": [
          10138293
        ],
        "postalCode": "K4K1L7",
        "streetName": "LAURIER",
        "streetDirectionId": null,
        "streetTypeId": "ST",
        "placeName": "ROCKLAND",
        "streetNameDisplayText": "LAURIER ST, ROCKLAND"
      },
      {
        "electoralDistricts": [
          {
            "election": null,
            "id": 32,
            "name": "Glengarry—Prescott—Russell"
          }
        ],
        "pollDivisionIds": [
          10138293
        ],
        "postalCode": "K4K1L7",
        "streetName": "MCCALL",
        "streetDirectionId": null,
        "streetTypeId": "ST",
        "placeName": "ROCKLAND",
        "streetNameDisplayText": "MCCALL ST, ROCKLAND"
      },
      {
        "electoralDistricts": [
          {
            "election": null,
            "id": 32,
            "name": "Glengarry—Prescott—Russell"
          }
        ],
        "pollDivisionIds": [
          10138293
        ],
        "postalCode": "K4K1L7",
        "streetName": "POWERS",
        "streetDirectionId": null,
        "streetTypeId": "ST",
        "placeName": "ROCKLAND",
        "streetNameDisplayText": "POWERS ST, ROCKLAND"
      },
      {
        "electoralDistricts": [
          {
            "election": null,
            "id": 32,
            "name": "Glengarry—Prescott—Russell"
          }
        ],
        "pollDivisionIds": [
          10138293
        ],
        "postalCode": "K4K1L7",
        "streetName": "ST JACQUES",
        "streetDirectionId": null,
        "streetTypeId": "ST",
        "placeName": "ROCKLAND",
        "streetNameDisplayText": "ST JACQUES ST, ROCKLAND"
      },
      {
        "electoralDistricts": [
          {
            "election": null,
            "id": 32,
            "name": "Glengarry—Prescott—Russell"
          }
        ],
        "pollDivisionIds": [
          10138293
        ],
        "postalCode": "K4K1L7",
        "streetName": "ST JEAN",
        "streetDirectionId": null,
        "streetTypeId": "ST",
        "placeName": "ROCKLAND",
        "streetNameDisplayText": "ST JEAN ST, ROCKLAND"
      },
      {
        "electoralDistricts": [
          {
            "election": null,
            "id": 32,
            "name": "Glengarry—Prescott—Russell"
          }
        ],
        "pollDivisionIds": [
          10138293
        ],
        "postalCode": "K4K1L7",
        "streetName": "ST. JACQUES",
        "streetDirectionId": null,
        "streetTypeId": "ST",
        "placeName": "ROCKLAND",
        "streetNameDisplayText": "ST. JACQUES ST, ROCKLAND"
      },
      {
        "electoralDistricts": [
          {
            "election": null,
            "id": 32,
            "name": "Glengarry—Prescott—Russell"
          }
        ],
        "pollDivisionIds": [
          10138293
        ],
        "postalCode": "K4K1L7",
        "streetName": "ST. JEAN",
        "streetDirectionId": null,
        "streetTypeId": "ST",
        "placeName": "ROCKLAND",
        "streetNameDisplayText": "ST. JEAN ST, ROCKLAND"
      },
      {
        "electoralDistricts": [
          {
            "election": null,
            "id": 32,
            "name": "Glengarry—Prescott—Russell"
          }
        ],
        "pollDivisionIds": [
          10138293
        ],
        "postalCode": "K4K1L7",
        "streetName": "STN MAIN",
        "streetDirectionId": null,
        "streetTypeId": null,
        "placeName": "ROCKLAND",
        "streetNameDisplayText": "STN MAIN, ROCKLAND"
      }
    ]
  },
  {
    "postal": "K4K2P9",
    "result": []
  },
  {
    "postal": "K4K5T4",
    "result": []
  },
  {
    "postal": "K4K5Z1",
    "result": []
  },
  {
    "postal": "K4K2X0",
    "result": []
  },
  {
    "postal": "K4K6Z2",
    "result": []
  },
  {
    "postal": "K4K0E0",
    "result": []
  },
  {
    "postal": "K4K3Z5",
    "result": []
  },
  {
    "postal": "K4K8H3",
    "result": []
  },
  {
    "postal": "K4K7S6",
    "result": []
  },
  {
    "postal": "K4K4C1",
    "result": []
  },
  {
    "postal": "K4K3K2",
    "result": []
  },
  {
    "postal": "K4K1Y5",
    "result": []
  },
  {
    "postal": "K4K6P6",
    "result": []
  },
  {
    "postal": "K4K3N9",
    "result": []
  },
  {
    "postal": "K4K3W2",
    "result": []
  },
  {
    "postal": "K4K6H8",
    "result": []
  },
  {
    "postal": "K4K9T3",
    "result": []
  },
  {
    "postal": "K4K5L9",
    "result": []
  },
  {
    "postal": "K4K7X7",
    "result": []
  },
  {
    "postal": "K4K3J5",
    "result": []
  },
  {
    "postal": "K4K4J5",
    "result": []
  },
  {
    "postal": "K4K6J2",
    "result": []
  },
  {
    "postal": "K4K5V6",
    "result": []
  },
  {
    "postal": "K4K3N2",
    "result": []
  },
  {
    "postal": "K4K3B1",
    "result": []
  },
  {
    "postal": "K4K8B5",
    "result": []
  },
  {
    "postal": "K4K0K1",
    "result": [
      {
        "electoralDistricts": [
          {
            "election": null,
            "id": 32,
            "name": "Glengarry—Prescott—Russell"
          }
        ],
        "pollDivisionIds": [
          10138293
        ],
        "postalCode": "K4K0K1",
        "streetName": "DE L'ÉTANG",
        "streetDirectionId": null,
        "streetTypeId": "ST",
        "placeName": "ROCKLAND",
        "streetNameDisplayText": "DE L'ÉTANG ST, ROCKLAND"
      },
      {
        "electoralDistricts": [
          {
            "election": null,
            "id": 32,
            "name": "Glengarry—Prescott—Russell"
          }
        ],
        "pollDivisionIds": [
          10138293
        ],
        "postalCode": "K4K0K1",
        "streetName": "DU RIVAGE",
        "streetDirectionId": null,
        "streetTypeId": "ST",
        "placeName": "ROCKLAND",
        "streetNameDisplayText": "DU RIVAGE ST, ROCKLAND"
      }
    ]
  },
  {
    "postal": "K4K7M7",
    "result": []
  },
  {
    "postal": "K4K2M2",
    "result": []
  },
  {
    "postal": "K4K9N3",
    "result": []
  },
  {
    "postal": "K4K4Y8",
    "result": []
  },
  {
    "postal": "K4K3V7",
    "result": []
  },
  {
    "postal": "K4K8Z1",
    "result": []
  },
  {
    "postal": "K4K7B3",
    "result": []
  },
  {
    "postal": "K4K3A8",
    "result": []
  },
  {
    "postal": "K4K7V5",
    "result": []
  },
  {
    "postal": "K4K2T2",
    "result": []
  },
  {
    "postal": "K4K6L3",
    "result": []
  },
  {
    "postal": "K4K0L2",
    "result": []
  },
  {
    "postal": "K4K5Y8",
    "result": []
  },
  {
    "postal": "K4K0B8",
    "result": [
      {
        "electoralDistricts": [
          {
            "election": null,
            "id": 32,
            "name": "Glengarry—Prescott—Russell"
          }
        ],
        "pollDivisionIds": [
          10138293
        ],
        "postalCode": "K4K0B8",
        "streetName": "CHAMBERLAND",
        "streetDirectionId": null,
        "streetTypeId": "ST",
        "placeName": "ROCKLAND",
        "streetNameDisplayText": "CHAMBERLAND ST, ROCKLAND"
      }
    ]
  },
  {
    "postal": "K4K6R5",
    "result": []
  },
  {
    "postal": "K4K8W6",
    "result": []
  },
  {
    "postal": "K4K8G6",
    "result": []
  },
  {
    "postal": "K4K6X3",
    "result": []
  },
  {
    "postal": "K4K7R7",
    "result": []
  },
  {
    "postal": "K4K4B6",
    "result": []
  },
  {
    "postal": "K4K3P9",
    "result": []
  },
  {
    "postal": "K4K2T3",
    "result": []
  },
  {
    "postal": "K4K1M4",
    "result": [
      {
        "electoralDistricts": [
          {
            "election": null,
            "id": 32,
            "name": "Glengarry—Prescott—Russell"
          }
        ],
        "pollDivisionIds": [
          10138293
        ],
        "postalCode": "K4K1M4",
        "streetName": "CARON",
        "streetDirectionId": null,
        "streetTypeId": "ST",
        "placeName": "ROCKLAND",
        "streetNameDisplayText": "CARON ST, ROCKLAND"
      },
      {
        "electoralDistricts": [
          {
            "election": null,
            "id": 32,
            "name": "Glengarry—Prescott—Russell"
          }
        ],
        "pollDivisionIds": [
          10138293
        ],
        "postalCode": "K4K1M4",
        "streetName": "POTVIN",
        "streetDirectionId": null,
        "streetTypeId": "AVE",
        "placeName": "ROCKLAND",
        "streetNameDisplayText": "POTVIN AVE, ROCKLAND"
      }
    ]
  },
  {
    "postal": "K4K0H1",
    "result": [
      {
        "electoralDistricts": [
          {
            "election": null,
            "id": 32,
            "name": "Glengarry—Prescott—Russell"
          }
        ],
        "pollDivisionIds": [
          10138293,
          10138321
        ],
        "postalCode": "K4K0H1",
        "streetName": "MARBLE",
        "streetDirectionId": null,
        "streetTypeId": "CRES",
        "placeName": "ROCKLAND",
        "streetNameDisplayText": "MARBLE CRES, ROCKLAND"
      }
    ]
  },
  {
    "postal": "K4K9W3",
    "result": []
  },
  {
    "postal": "K4K6P1",
    "result": []
  },
  {
    "postal": "K4K7G2",
    "result": []
  },
  {
    "postal": "K4K4J9",
    "result": []
  },
  {
    "postal": "K4K9E4",
    "result": []
  },
  {
    "postal": "K4K8H0",
    "result": []
  },
  {
    "postal": "K4K4M7",
    "result": []
  },
  {
    "postal": "K4K2G9",
    "result": []
  },
  {
    "postal": "K4K8T2",
    "result": []
  },
  {
    "postal": "K4K7G7",
    "result": []
  },
  {
    "postal": "K4K4Z3",
    "result": []
  },
  {
    "postal": "K4K5B3",
    "result": []
  },
  {
    "postal": "K4K1S7",
    "result": []
  },
  {
    "postal": "K4K2N7",
    "result": []
  },
  {
    "postal": "K4K0H8",
    "result": [
      {
        "electoralDistricts": [
          {
            "election": null,
            "id": 32,
            "name": "Glengarry—Prescott—Russell"
          }
        ],
        "pollDivisionIds": [
          10138293
        ],
        "postalCode": "K4K0H8",
        "streetName": "GRANITE",
        "streetDirectionId": null,
        "streetTypeId": "ST",
        "placeName": "ROCKLAND",
        "streetNameDisplayText": "GRANITE ST, ROCKLAND"
      },
      {
        "electoralDistricts": [
          {
            "election": null,
            "id": 32,
            "name": "Glengarry—Prescott—Russell"
          }
        ],
        "pollDivisionIds": [
          10138293
        ],
        "postalCode": "K4K0H8",
        "streetName": "ZIRCON",
        "streetDirectionId": null,
        "streetTypeId": "ST",
        "placeName": "ROCKLAND",
        "streetNameDisplayText": "ZIRCON ST, ROCKLAND"
      }
    ]
  },
  {
    "postal": "K4K7Z4",
    "result": []
  },
  {
    "postal": "K4K7B1",
    "result": []
  },
  {
    "postal": "K4K7P8",
    "result": []
  },
  {
    "postal": "K4K7N0",
    "result": []
  },
  {
    "postal": "K4K3Y5",
    "result": []
  },
  {
    "postal": "K4K6K1",
    "result": []
  },
  {
    "postal": "K4K9X5",
    "result": []
  },
  {
    "postal": "K4K7S5",
    "result": []
  },
  {
    "postal": "K4K0A4",
    "result": [
      {
        "electoralDistricts": [
          {
            "election": null,
            "id": 32,
            "name": "Glengarry—Prescott—Russell"
          }
        ],
        "pollDivisionIds": [
          10138293
        ],
        "postalCode": "K4K0A4",
        "streetName": "EMERALD",
        "streetDirectionId": null,
        "streetTypeId": "ST",
        "placeName": "ROCKLAND",
        "streetNameDisplayText": "EMERALD ST, ROCKLAND"
      },
      {
        "electoralDistricts": [
          {
            "election": null,
            "id": 32,
            "name": "Glengarry—Prescott—Russell"
          }
        ],
        "pollDivisionIds": [
          10138293
        ],
        "postalCode": "K4K0A4",
        "streetName": "JASPER",
        "streetDirectionId": null,
        "streetTypeId": "CRES",
        "placeName": "ROCKLAND",
        "streetNameDisplayText": "JASPER CRES, ROCKLAND"
      }
    ]
  },
  {
    "postal": "K4K4T5",
    "result": []
  },
  {
    "postal": "K4K5K1",
    "result": []
  },
  {
    "postal": "K4K0Z9",
    "result": []
  },
  {
    "postal": "K4K7T2",
    "result": []
  },
  {
    "postal": "K4K1L5",
    "result": [
      {
        "electoralDistricts": [
          {
            "election": null,
            "id": 32,
            "name": "Glengarry—Prescott—Russell"
          }
        ],
        "pollDivisionIds": [
          10138293
        ],
        "postalCode": "K4K1L5",
        "streetName": "ALBERT",
        "streetDirectionId": null,
        "streetTypeId": "ST",
        "placeName": "ROCKLAND",
        "streetNameDisplayText": "ALBERT ST, ROCKLAND"
      },
      {
        "electoralDistricts": [
          {
            "election": null,
            "id": 32,
            "name": "Glengarry—Prescott—Russell"
          }
        ],
        "pollDivisionIds": [
          10138293
        ],
        "postalCode": "K4K1L5",
        "streetName": "CHENE",
        "streetDirectionId": null,
        "streetTypeId": "ST",
        "placeName": "ROCKLAND",
        "streetNameDisplayText": "CHENE ST, ROCKLAND"
      },
      {
        "electoralDistricts": [
          {
            "election": null,
            "id": 32,
            "name": "Glengarry—Prescott—Russell"
          }
        ],
        "pollDivisionIds": [
          10138293
        ],
        "postalCode": "K4K1L5",
        "streetName": "EDWARDS",
        "streetDirectionId": null,
        "streetTypeId": "ST",
        "placeName": "ROCKLAND",
        "streetNameDisplayText": "EDWARDS ST, ROCKLAND"
      },
      {
        "electoralDistricts": [
          {
            "election": null,
            "id": 32,
            "name": "Glengarry—Prescott—Russell"
          }
        ],
        "pollDivisionIds": [
          10138293
        ],
        "postalCode": "K4K1L5",
        "streetName": "GIROUX",
        "streetDirectionId": null,
        "streetTypeId": "ST",
        "placeName": "ROCKLAND",
        "streetNameDisplayText": "GIROUX ST, ROCKLAND"
      },
      {
        "electoralDistricts": [
          {
            "election": null,
            "id": 32,
            "name": "Glengarry—Prescott—Russell"
          }
        ],
        "pollDivisionIds": [
          10138293
        ],
        "postalCode": "K4K1L5",
        "streetName": "LAURIER",
        "streetDirectionId": null,
        "streetTypeId": "ST",
        "placeName": "CUMBERLAND",
        "streetNameDisplayText": "LAURIER ST, CUMBERLAND"
      },
      {
        "electoralDistricts": [
          {
            "election": null,
            "id": 32,
            "name": "Glengarry—Prescott—Russell"
          }
        ],
        "pollDivisionIds": [
          10138293
        ],
        "postalCode": "K4K1L5",
        "streetName": "LAURIER",
        "streetDirectionId": null,
        "streetTypeId": "ST",
        "placeName": "ROCKLAND",
        "streetNameDisplayText": "LAURIER ST, ROCKLAND"
      },
      {
        "electoralDistricts": [
          {
            "election": null,
            "id": 32,
            "name": "Glengarry—Prescott—Russell"
          }
        ],
        "pollDivisionIds": [
          10138293
        ],
        "postalCode": "K4K1L5",
        "streetName": "LAVIOLETTE",
        "streetDirectionId": null,
        "streetTypeId": "ST",
        "placeName": "ROCKLAND",
        "streetNameDisplayText": "LAVIOLETTE ST, ROCKLAND"
      },
      {
        "electoralDistricts": [
          {
            "election": null,
            "id": 32,
            "name": "Glengarry—Prescott—Russell"
          }
        ],
        "pollDivisionIds": [
          10138293
        ],
        "postalCode": "K4K1L5",
        "streetName": "MARTIN",
        "streetDirectionId": null,
        "streetTypeId": "LANE",
        "placeName": "ROCKLAND",
        "streetNameDisplayText": "MARTIN LANE, ROCKLAND"
      },
      {
        "electoralDistricts": [
          {
            "election": null,
            "id": 32,
            "name": "Glengarry—Prescott—Russell"
          }
        ],
        "pollDivisionIds": [
          10138293
        ],
        "postalCode": "K4K1L5",
        "streetName": "PAGO",
        "streetDirectionId": null,
        "streetTypeId": "RD",
        "placeName": "ROCKLAND",
        "streetNameDisplayText": "PAGO RD, ROCKLAND"
      },
      {
        "electoralDistricts": [
          {
            "election": null,
            "id": 32,
            "name": "Glengarry—Prescott—Russell"
          }
        ],
        "pollDivisionIds": [
          10138293
        ],
        "postalCode": "K4K1L5",
        "streetName": "POWERS",
        "streetDirectionId": null,
        "streetTypeId": "ST",
        "placeName": "ROCKLAND",
        "streetNameDisplayText": "POWERS ST, ROCKLAND"
      },
      {
        "electoralDistricts": [
          {
            "election": null,
            "id": 32,
            "name": "Glengarry—Prescott—Russell"
          }
        ],
        "pollDivisionIds": [
          10138293
        ],
        "postalCode": "K4K1L5",
        "streetName": "ST JACQUES",
        "streetDirectionId": null,
        "streetTypeId": "ST",
        "placeName": "ROCKLAND",
        "streetNameDisplayText": "ST JACQUES ST, ROCKLAND"
      },
      {
        "electoralDistricts": [
          {
            "election": null,
            "id": 32,
            "name": "Glengarry—Prescott—Russell"
          }
        ],
        "pollDivisionIds": [
          10138293
        ],
        "postalCode": "K4K1L5",
        "streetName": "ST JEAN",
        "streetDirectionId": null,
        "streetTypeId": "ST",
        "placeName": "ROCKLAND",
        "streetNameDisplayText": "ST JEAN ST, ROCKLAND"
      },
      {
        "electoralDistricts": [
          {
            "election": null,
            "id": 32,
            "name": "Glengarry—Prescott—Russell"
          }
        ],
        "pollDivisionIds": [
          10138293
        ],
        "postalCode": "K4K1L5",
        "streetName": "ST. JACQUES",
        "streetDirectionId": null,
        "streetTypeId": "ST",
        "placeName": "ROCKLAND",
        "streetNameDisplayText": "ST. JACQUES ST, ROCKLAND"
      },
      {
        "electoralDistricts": [
          {
            "election": null,
            "id": 32,
            "name": "Glengarry—Prescott—Russell"
          }
        ],
        "pollDivisionIds": [
          10138293
        ],
        "postalCode": "K4K1L5",
        "streetName": "ST. JEAN",
        "streetDirectionId": null,
        "streetTypeId": "ST",
        "placeName": "ROCKLAND",
        "streetNameDisplayText": "ST. JEAN ST, ROCKLAND"
      },
      {
        "electoralDistricts": [
          {
            "election": null,
            "id": 32,
            "name": "Glengarry—Prescott—Russell"
          }
        ],
        "pollDivisionIds": [
          10138293
        ],
        "postalCode": "K4K1L5",
        "streetName": "ST. LOUIS",
        "streetDirectionId": null,
        "streetTypeId": "ST",
        "placeName": "ROCKLAND",
        "streetNameDisplayText": "ST. LOUIS ST, ROCKLAND"
      },
      {
        "electoralDistricts": [
          {
            "election": null,
            "id": 32,
            "name": "Glengarry—Prescott—Russell"
          }
        ],
        "pollDivisionIds": [
          10138293
        ],
        "postalCode": "K4K1L5",
        "streetName": "VICTORIA",
        "streetDirectionId": null,
        "streetTypeId": "ST",
        "placeName": "ROCKLAND",
        "streetNameDisplayText": "VICTORIA ST, ROCKLAND"
      }
    ]
  },
  {
    "postal": "K4K3N5",
    "result": []
  },
  {
    "postal": "K4K6H4",
    "result": []
  },
  {
    "postal": "K4K5A5",
    "result": []
  },
  {
    "postal": "K4K3R9",
    "result": []
  },
  {
    "postal": "K4K7L8",
    "result": []
  },
  {
    "postal": "K4K6T6",
    "result": []
  },
  {
    "postal": "K4K7Y7",
    "result": []
  },
  {
    "postal": "K4K3M8",
    "result": []
  },
  {
    "postal": "K4K2E0",
    "result": []
  },
  {
    "postal": "K4K4B5",
    "result": []
  },
  {
    "postal": "K4K1J3",
    "result": [
      {
        "electoralDistricts": [
          {
            "election": null,
            "id": 32,
            "name": "Glengarry—Prescott—Russell"
          }
        ],
        "pollDivisionIds": [
          10138293
        ],
        "postalCode": "K4K1J3",
        "streetName": "AVE DU CHATEAU",
        "streetDirectionId": null,
        "streetTypeId": "AVE",
        "placeName": "ROCKLAND",
        "streetNameDisplayText": "AVE DU CHATEAU AVE, ROCKLAND"
      },
      {
        "electoralDistricts": [
          {
            "election": null,
            "id": 32,
            "name": "Glengarry—Prescott—Russell"
          }
        ],
        "pollDivisionIds": [
          10138293
        ],
        "postalCode": "K4K1J3",
        "streetName": "CATHERINE",
        "streetDirectionId": null,
        "streetTypeId": "ST",
        "placeName": "ROCKLAND",
        "streetNameDisplayText": "CATHERINE ST, ROCKLAND"
      },
      {
        "electoralDistricts": [
          {
            "election": null,
            "id": 32,
            "name": "Glengarry—Prescott—Russell"
          }
        ],
        "pollDivisionIds": [
          10138293
        ],
        "postalCode": "K4K1J3",
        "streetName": "DU CHATEAU",
        "streetDirectionId": null,
        "streetTypeId": "AVE",
        "placeName": "ROCKLAND",
        "streetNameDisplayText": "DU CHATEAU AVE, ROCKLAND"
      },
      {
        "electoralDistricts": [
          {
            "election": null,
            "id": 32,
            "name": "Glengarry—Prescott—Russell"
          }
        ],
        "pollDivisionIds": [
          10138293
        ],
        "postalCode": "K4K1J3",
        "streetName": "DU CHÂTEAU",
        "streetDirectionId": null,
        "streetTypeId": "AVE",
        "placeName": "ROCKLAND",
        "streetNameDisplayText": "DU CHÂTEAU AVE, ROCKLAND"
      },
      {
        "electoralDistricts": [
          {
            "election": null,
            "id": 32,
            "name": "Glengarry—Prescott—Russell"
          }
        ],
        "pollDivisionIds": [
          10138293
        ],
        "postalCode": "K4K1J3",
        "streetName": "WOODS",
        "streetDirectionId": null,
        "streetTypeId": "ST",
        "placeName": "ROCKLAND",
        "streetNameDisplayText": "WOODS ST, ROCKLAND"
      }
    ]
  },
  {
    "postal": "K4K5S6",
    "result": []
  },
  {
    "postal": "K4K8P7",
    "result": []
  },
  {
    "postal": "K4K7S7",
    "result": []
  },
  {
    "postal": "K4K4C2",
    "result": []
  },
  {
    "postal": "K4K5Y0",
    "result": []
  },
  {
    "postal": "K4K2V7",
    "result": []
  },
  {
    "postal": "K4K8P5",
    "result": []
  },
  {
    "postal": "K4K5P5",
    "result": []
  },
  {
    "postal": "K4K5Z0",
    "result": []
  },
  {
    "postal": "K4K9B0",
    "result": []
  },
  {
    "postal": "K4K1L0",
    "result": []
  },
  {
    "postal": "K4K0B5",
    "result": []
  },
  {
    "postal": "K4K3L2",
    "result": []
  },
  {
    "postal": "K4K3B7",
    "result": []
  },
  {
    "postal": "K4K8L1",
    "result": []
  },
  {
    "postal": "K4K5M4",
    "result": []
  },
  {
    "postal": "K4K4G9",
    "result": []
  },
  {
    "postal": "K4K0P0",
    "result": []
  },
  {
    "postal": "K4K8G2",
    "result": []
  },
  {
    "postal": "K4K1V9",
    "result": [
      {
        "electoralDistricts": [
          {
            "election": null,
            "id": 32,
            "name": "Glengarry—Prescott—Russell"
          }
        ],
        "pollDivisionIds": [
          10138293
        ],
        "postalCode": "K4K1V9",
        "streetName": "HERITAGE",
        "streetDirectionId": null,
        "streetTypeId": "DR",
        "placeName": "ROCKLAND",
        "streetNameDisplayText": "HERITAGE DR, ROCKLAND"
      },
      {
        "electoralDistricts": [
          {
            "election": null,
            "id": 32,
            "name": "Glengarry—Prescott—Russell"
          }
        ],
        "pollDivisionIds": [
          10138293
        ],
        "postalCode": "K4K1V9",
        "streetName": "SEBASTIEN",
        "streetDirectionId": null,
        "streetTypeId": "CRES",
        "placeName": "ROCKLAND",
        "streetNameDisplayText": "SEBASTIEN CRES, ROCKLAND"
      },
      {
        "electoralDistricts": [
          {
            "election": null,
            "id": 32,
            "name": "Glengarry—Prescott—Russell"
          }
        ],
        "pollDivisionIds": [
          10138293
        ],
        "postalCode": "K4K1V9",
        "streetName": "ST JACQUES",
        "streetDirectionId": null,
        "streetTypeId": "ST",
        "placeName": "ROCKLAND",
        "streetNameDisplayText": "ST JACQUES ST, ROCKLAND"
      },
      {
        "electoralDistricts": [
          {
            "election": null,
            "id": 32,
            "name": "Glengarry—Prescott—Russell"
          }
        ],
        "pollDivisionIds": [
          10138293
        ],
        "postalCode": "K4K1V9",
        "streetName": "ST. JACQUES",
        "streetDirectionId": null,
        "streetTypeId": "ST",
        "placeName": "ROCKLAND",
        "streetNameDisplayText": "ST. JACQUES ST, ROCKLAND"
      }
    ]
  },
  {
    "postal": "K4K8N8",
    "result": []
  },
  {
    "postal": "K4K6S8",
    "result": []
  },
  {
    "postal": "K4K8H2",
    "result": []
  },
  {
    "postal": "K4K5R8",
    "result": []
  },
  {
    "postal": "K4K5L4",
    "result": []
  },
  {
    "postal": "K4K9E1",
    "result": []
  },
  {
    "postal": "K4K1C4",
    "result": [
      {
        "electoralDistricts": [
          {
            "election": null,
            "id": 32,
            "name": "Glengarry—Prescott—Russell"
          }
        ],
        "pollDivisionIds": [
          10138293
        ],
        "postalCode": "K4K1C4",
        "streetName": "LAURIER",
        "streetDirectionId": null,
        "streetTypeId": "ST",
        "placeName": "ROCKLAND",
        "streetNameDisplayText": "LAURIER ST, ROCKLAND"
      }
    ]
  },
  {
    "postal": "K4K8W5",
    "result": []
  },
  {
    "postal": "K4K1Y4",
    "result": []
  },
  {
    "postal": "K4K1C0",
    "result": []
  },
  {
    "postal": "K4K2J2",
    "result": []
  },
  {
    "postal": "K4K2J0",
    "result": []
  },
  {
    "postal": "K4K7A3",
    "result": []
  },
  {
    "postal": "K4K8M1",
    "result": []
  },
  {
    "postal": "K4K7T9",
    "result": []
  },
  {
    "postal": "K4K6C0",
    "result": []
  },
  {
    "postal": "K4K7X1",
    "result": []
  },
  {
    "postal": "K4K0G1",
    "result": [
      {
        "electoralDistricts": [
          {
            "election": null,
            "id": 32,
            "name": "Glengarry—Prescott—Russell"
          }
        ],
        "pollDivisionIds": [
          10138293
        ],
        "postalCode": "K4K0G1",
        "streetName": "DAHLIA",
        "streetDirectionId": null,
        "streetTypeId": "ST",
        "placeName": "ROCKLAND",
        "streetNameDisplayText": "DAHLIA ST, ROCKLAND"
      }
    ]
  },
  {
    "postal": "K4K4X2",
    "result": []
  },
  {
    "postal": "K4K0N6",
    "result": []
  },
  {
    "postal": "K4K8E3",
    "result": []
  },
  {
    "postal": "K4K5S8",
    "result": []
  },
  {
    "postal": "K4K0R0",
    "result": []
  },
  {
    "postal": "K4K6J6",
    "result": []
  },
  {
    "postal": "K4K4B4",
    "result": []
  },
  {
    "postal": "K4K7E3",
    "result": []
  },
  {
    "postal": "K4K3N6",
    "result": []
  },
  {
    "postal": "K4K3X6",
    "result": []
  },
  {
    "postal": "K4K8L0",
    "result": []
  },
  {
    "postal": "K4K8N1",
    "result": []
  },
  {
    "postal": "K4K4J0",
    "result": []
  },
  {
    "postal": "K4K0X7",
    "result": []
  },
  {
    "postal": "K4K6S4",
    "result": []
  },
  {
    "postal": "K4K0Z0",
    "result": []
  },
  {
    "postal": "K4K9X8",
    "result": []
  },
  {
    "postal": "K4K3H3",
    "result": []
  },
  {
    "postal": "K4K7S2",
    "result": []
  },
  {
    "postal": "K4K3T3",
    "result": []
  },
  {
    "postal": "K4K9P3",
    "result": []
  },
  {
    "postal": "K4K4H8",
    "result": []
  },
  {
    "postal": "K4K6R1",
    "result": []
  },
  {
    "postal": "K4K1S0",
    "result": []
  },
  {
    "postal": "K4K3W8",
    "result": []
  },
  {
    "postal": "K4K4S3",
    "result": []
  },
  {
    "postal": "K4K1B6",
    "result": [
      {
        "electoralDistricts": [
          {
            "election": null,
            "id": 32,
            "name": "Glengarry—Prescott—Russell"
          }
        ],
        "pollDivisionIds": [
          10138293
        ],
        "postalCode": "K4K1B6",
        "streetName": "CAMPEAU",
        "streetDirectionId": null,
        "streetTypeId": "CRES",
        "placeName": "ROCKLAND",
        "streetNameDisplayText": "CAMPEAU CRES, ROCKLAND"
      }
    ]
  },
  {
    "postal": "K4K8R3",
    "result": []
  },
  {
    "postal": "K4K4V9",
    "result": []
  },
  {
    "postal": "K4K9W4",
    "result": []
  },
  {
    "postal": "K4K3T4",
    "result": []
  },
  {
    "postal": "K4K5C7",
    "result": []
  },
  {
    "postal": "K4K3Y1",
    "result": []
  },
  {
    "postal": "K4K5V0",
    "result": []
  },
  {
    "postal": "K4K8G8",
    "result": []
  },
  {
    "postal": "K4K8B1",
    "result": []
  },
  {
    "postal": "K4K4P5",
    "result": []
  },
  {
    "postal": "K4K7B2",
    "result": []
  },
  {
    "postal": "K4K0R2",
    "result": []
  },
  {
    "postal": "K4K4M4",
    "result": []
  },
  {
    "postal": "K4K7M4",
    "result": []
  },
  {
    "postal": "K4K9S7",
    "result": []
  },
  {
    "postal": "K4K5Z7",
    "result": []
  },
  {
    "postal": "K4K7J7",
    "result": []
  },
  {
    "postal": "K4K8R8",
    "result": []
  },
  {
    "postal": "K4K9X1",
    "result": []
  },
  {
    "postal": "K4K5M9",
    "result": []
  },
  {
    "postal": "K4K9B4",
    "result": []
  },
  {
    "postal": "K4K0L9",
    "result": []
  },
  {
    "postal": "K4K9G4",
    "result": []
  },
  {
    "postal": "K4K1J4",
    "result": [
      {
        "electoralDistricts": [
          {
            "election": null,
            "id": 32,
            "name": "Glengarry—Prescott—Russell"
          }
        ],
        "pollDivisionIds": [
          10138293
        ],
        "postalCode": "K4K1J4",
        "streetName": "RIVIERA",
        "streetDirectionId": null,
        "streetTypeId": "TERR",
        "placeName": "ROCKLAND",
        "streetNameDisplayText": "RIVIERA TERR, ROCKLAND"
      }
    ]
  },
  {
    "postal": "K4K0W6",
    "result": []
  }
]
