[
  {
    "postal": "N2A9J6",
    "result": []
  },
  {
    "postal": "N2A9Z5",
    "result": []
  },
  {
    "postal": "N2A7H8",
    "result": []
  },
  {
    "postal": "N2A0P6",
    "result": []
  },
  {
    "postal": "N2A0S7",
    "result": []
  },
  {
    "postal": "N2A8B9",
    "result": []
  },
  {
    "postal": "N2A2A6",
    "result": [
      {
        "electoralDistricts": [
          {
            "election": null,
            "id": 47,
            "name": "Kitchener Centre"
          }
        ],
        "pollDivisionIds": [
          10139212
        ],
        "postalCode": "N2A2A6",
        "streetName": "DREGER",
        "streetDirectionId": null,
        "streetTypeId": "AVE",
        "placeName": "KITCHENER",
        "streetNameDisplayText": "DREGER AVE, KITCHENER"
      }
    ]
  },
  {
    "postal": "N2A7V2",
    "result": []
  },
  {
    "postal": "N2A9P4",
    "result": []
  },
  {
    "postal": "N2A6G0",
    "result": []
  },
  {
    "postal": "N2A2K0",
    "result": []
  },
  {
    "postal": "N2A7N6",
    "result": []
  },
  {
    "postal": "N2A5R3",
    "result": []
  },
  {
    "postal": "N2A7K0",
    "result": []
  },
  {
    "postal": "N2A3R2",
    "result": [
      {
        "electoralDistricts": [
          {
            "election": null,
            "id": 47,
            "name": "Kitchener Centre"
          }
        ],
        "pollDivisionIds": [
          10139220
        ],
        "postalCode": "N2A3R2",
        "streetName": "EBYDALE",
        "streetDirectionId": null,
        "streetTypeId": "DR",
        "placeName": "KITCHENER",
        "streetNameDisplayText": "EBYDALE DR, KITCHENER"
      },
      {
        "electoralDistricts": [
          {
            "election": null,
            "id": 47,
            "name": "Kitchener Centre"
          }
        ],
        "pollDivisionIds": [
          10139220
        ],
        "postalCode": "N2A3R2",
        "streetName": "GRAY",
        "streetDirectionId": null,
        "streetTypeId": "ST",
        "placeName": "KITCHENER",
        "streetNameDisplayText": "GRAY ST, KITCHENER"
      }
    ]
  },
  {
    "postal": "N2A0J1",
    "result": [
      {
        "electoralDistricts": [
          {
            "election": null,
            "id": 47,
            "name": "Kitchener Centre"
          }
        ],
        "pollDivisionIds": [
          10139221
        ],
        "postalCode": "N2A0J1",
        "streetName": "STILLWATER",
        "streetDirectionId": null,
        "streetTypeId": "ST",
        "placeName": "KITCHENER",
        "streetNameDisplayText": "STILLWATER ST, KITCHENER"
      }
    ]
  },
  {
    "postal": "N2A0B0",
    "result": []
  },
  {
    "postal": "N2A5Z2",
    "result": []
  },
  {
    "postal": "N2A7P3",
    "result": []
  },
  {
    "postal": "N2A2K3",
    "result": [
      {
        "electoralDistricts": [
          {
            "election": null,
            "id": 47,
            "name": "Kitchener Centre"
          }
        ],
        "pollDivisionIds": [
          10139217
        ],
        "postalCode": "N2A2K3",
        "streetName": "KINZIE",
        "streetDirectionId": null,
        "streetTypeId": "AVE",
        "placeName": "KITCHENER",
        "streetNameDisplayText": "KINZIE AVE, KITCHENER"
      }
    ]
  },
  {
    "postal": "N2A7Y6",
    "result": []
  },
  {
    "postal": "N2A1L9",
    "result": [
      {
        "electoralDistricts": [
          {
            "election": null,
            "id": 47,
            "name": "Kitchener Centre"
          }
        ],
        "pollDivisionIds": [
          10139216
        ],
        "postalCode": "N2A1L9",
        "streetName": "PARKVIEW",
        "streetDirectionId": null,
        "streetTypeId": "CRES",
        "placeName": "KITCHENER",
        "streetNameDisplayText": "PARKVIEW CRES, KITCHENER"
      }
    ]
  },
  {
    "postal": "N2A8T0",
    "result": []
  },
  {
    "postal": "N2A3K8",
    "result": [
      {
        "electoralDistricts": [
          {
            "election": null,
            "id": 47,
            "name": "Kitchener Centre"
          }
        ],
        "pollDivisionIds": [
          10139219
        ],
        "postalCode": "N2A3K8",
        "streetName": "ROEHAMPTON",
        "streetDirectionId": null,
        "streetTypeId": "CRT",
        "placeName": "KITCHENER",
        "streetNameDisplayText": "ROEHAMPTON CRT, KITCHENER"
      },
      {
        "electoralDistricts": [
          {
            "election": null,
            "id": 47,
            "name": "Kitchener Centre"
          }
        ],
        "pollDivisionIds": [
          10139219
        ],
        "postalCode": "N2A3K8",
        "streetName": "TWEEDSMUIR",
        "streetDirectionId": null,
        "streetTypeId": "CRT",
        "placeName": "KITCHENER",
        "streetNameDisplayText": "TWEEDSMUIR CRT, KITCHENER"
      }
    ]
  },
  {
    "postal": "N2A5W9",
    "result": []
  },
  {
    "postal": "N2A6T9",
    "result": []
  },
  {
    "postal": "N2A4H1",
    "result": [
      {
        "electoralDistricts": [
          {
            "election": null,
            "id": 47,
            "name": "Kitchener Centre"
          }
        ],
        "pollDivisionIds": [
          10139219
        ],
        "postalCode": "N2A4H1",
        "streetName": "OLD CHICOPEE",
        "streetDirectionId": null,
        "streetTypeId": "TRAIL",
        "placeName": "KITCHENER",
        "streetNameDisplayText": "OLD CHICOPEE TRAIL, KITCHENER"
      }
    ]
  },
  {
    "postal": "N2A7A2",
    "result": []
  },
  {
    "postal": "N2A5G0",
    "result": []
  },
  {
    "postal": "N2A8V5",
    "result": []
  },
  {
    "postal": "N2A2Y8",
    "result": [
      {
        "electoralDistricts": [
          {
            "election": null,
            "id": 49,
            "name": "Kitchener South—Hespeler"
          }
        ],
        "pollDivisionIds": [
          10139297
        ],
        "postalCode": "N2A2Y8",
        "streetName": "STONEGATE",
        "streetDirectionId": null,
        "streetTypeId": "DR",
        "placeName": "KITCHENER",
        "streetNameDisplayText": "STONEGATE DR, KITCHENER"
      }
    ]
  },
  {
    "postal": "N2A2B6",
    "result": [
      {
        "electoralDistricts": [
          {
            "election": null,
            "id": 47,
            "name": "Kitchener Centre"
          }
        ],
        "pollDivisionIds": [
          10139216
        ],
        "postalCode": "N2A2B6",
        "streetName": "KENORA",
        "streetDirectionId": null,
        "streetTypeId": "DR",
        "placeName": "KITCHENER",
        "streetNameDisplayText": "KENORA DR, KITCHENER"
      }
    ]
  },
  {
    "postal": "N2A4W8",
    "result": []
  },
  {
    "postal": "N2A8H7",
    "result": []
  },
  {
    "postal": "N2A5P1",
    "result": []
  },
  {
    "postal": "N2A2B8",
    "result": [
      {
        "electoralDistricts": [
          {
            "election": null,
            "id": 47,
            "name": "Kitchener Centre"
          }
        ],
        "pollDivisionIds": [
          10139216
        ],
        "postalCode": "N2A2B8",
        "streetName": "KENORA",
        "streetDirectionId": null,
        "streetTypeId": "DR",
        "placeName": "KITCHENER",
        "streetNameDisplayText": "KENORA DR, KITCHENER"
      }
    ]
  },
  {
    "postal": "N2A0P2",
    "result": []
  },
  {
    "postal": "N2A9M1",
    "result": []
  },
  {
    "postal": "N2A3G0",
    "result": []
  },
  {
    "postal": "N2A9Z2",
    "result": []
  },
  {
    "postal": "N2A2A0",
    "result": []
  },
  {
    "postal": "N2A6Y0",
    "result": []
  },
  {
    "postal": "N2A2Z8",
    "result": [
      {
        "electoralDistricts": [
          {
            "election": null,
            "id": 47,
            "name": "Kitchener Centre"
          }
        ],
        "pollDivisionIds": [
          10139214
        ],
        "postalCode": "N2A2Z8",
        "streetName": "BROADVIEW",
        "streetDirectionId": null,
        "streetTypeId": "AVE",
        "placeName": "KITCHENER",
        "streetNameDisplayText": "BROADVIEW AVE, KITCHENER"
      }
    ]
  },
  {
    "postal": "N2A7Y3",
    "result": []
  },
  {
    "postal": "N2A6Z5",
    "result": []
  },
  {
    "postal": "N2A6E0",
    "result": []
  },
  {
    "postal": "N2A9B7",
    "result": []
  },
  {
    "postal": "N2A9S5",
    "result": []
  },
  {
    "postal": "N2A3X3",
    "result": [
      {
        "electoralDistricts": [
          {
            "election": null,
            "id": 47,
            "name": "Kitchener Centre"
          }
        ],
        "pollDivisionIds": [
          10139220
        ],
        "postalCode": "N2A3X3",
        "streetName": "BURNT EMBER",
        "streetDirectionId": null,
        "streetTypeId": "CRT",
        "placeName": "KITCHENER",
        "streetNameDisplayText": "BURNT EMBER CRT, KITCHENER"
      }
    ]
  },
  {
    "postal": "N2A7R5",
    "result": []
  },
  {
    "postal": "N2A2X3",
    "result": []
  },
  {
    "postal": "N2A8Z9",
    "result": []
  },
  {
    "postal": "N2A0N4",
    "result": []
  },
  {
    "postal": "N2A1K1",
    "result": [
      {
        "electoralDistricts": [
          {
            "election": null,
            "id": 47,
            "name": "Kitchener Centre"
          }
        ],
        "pollDivisionIds": [
          10139214
        ],
        "postalCode": "N2A1K1",
        "streetName": "VIEWMONT",
        "streetDirectionId": null,
        "streetTypeId": "CLOSE",
        "placeName": "KITCHENER",
        "streetNameDisplayText": "VIEWMONT CLOSE, KITCHENER"
      }
    ]
  },
  {
    "postal": "N2A1S3",
    "result": [
      {
        "electoralDistricts": [
          {
            "election": null,
            "id": 47,
            "name": "Kitchener Centre"
          }
        ],
        "pollDivisionIds": [
          10139217
        ],
        "postalCode": "N2A1S3",
        "streetName": "HUBER",
        "streetDirectionId": null,
        "streetTypeId": "ST",
        "placeName": "KITCHENER",
        "streetNameDisplayText": "HUBER ST, KITCHENER"
      }
    ]
  },
  {
    "postal": "N2A6M4",
    "result": []
  },
  {
    "postal": "N2A9A9",
    "result": []
  },
  {
    "postal": "N2A9Z9",
    "result": []
  },
  {
    "postal": "N2A6T4",
    "result": []
  },
  {
    "postal": "N2A0B2",
    "result": [
      {
        "electoralDistricts": [
          {
            "election": null,
            "id": 47,
            "name": "Kitchener Centre"
          }
        ],
        "pollDivisionIds": [
          10139220
        ],
        "postalCode": "N2A0B2",
        "streetName": "ZELLER",
        "streetDirectionId": null,
        "streetTypeId": "DR",
        "placeName": "KITCHENER",
        "streetNameDisplayText": "ZELLER DR, KITCHENER"
      }
    ]
  },
  {
    "postal": "N2A2L9",
    "result": [
      {
        "electoralDistricts": [
          {
            "election": null,
            "id": 47,
            "name": "Kitchener Centre"
          }
        ],
        "pollDivisionIds": [
          10139217
        ],
        "postalCode": "N2A2L9",
        "streetName": "KINGSBURY",
        "streetDirectionId": null,
        "streetTypeId": "DR",
        "placeName": "KITCHENER",
        "streetNameDisplayText": "KINGSBURY DR, KITCHENER"
      }
    ]
  },
  {
    "postal": "N2A8K9",
    "result": []
  },
  {
    "postal": "N2A2H9",
    "result": [
      {
        "electoralDistricts": [
          {
            "election": null,
            "id": 47,
            "name": "Kitchener Centre"
          }
        ],
        "pollDivisionIds": [
          10139217
        ],
        "postalCode": "N2A2H9",
        "streetName": "HAROLD",
        "streetDirectionId": null,
        "streetTypeId": "AVE",
        "placeName": "KITCHENER",
        "streetNameDisplayText": "HAROLD AVE, KITCHENER"
      }
    ]
  },
  {
    "postal": "N2A3Z6",
    "result": [
      {
        "electoralDistricts": [
          {
            "election": null,
            "id": 49,
            "name": "Kitchener South—Hespeler"
          }
        ],
        "pollDivisionIds": [
          10139300
        ],
        "postalCode": "N2A3Z6",
        "streetName": "CHANDOS",
        "streetDirectionId": null,
        "streetTypeId": "DR",
        "placeName": "KITCHENER",
        "streetNameDisplayText": "CHANDOS DR, KITCHENER"
      }
    ]
  },
  {
    "postal": "N2A3B0",
    "result": []
  },
  {
    "postal": "N2A2H8",
    "result": [
      {
        "electoralDistricts": [
          {
            "election": null,
            "id": 47,
            "name": "Kitchener Centre"
          }
        ],
        "pollDivisionIds": [
          10139217
        ],
        "postalCode": "N2A2H8",
        "streetName": "HAROLD",
        "streetDirectionId": null,
        "streetTypeId": "AVE",
        "placeName": "KITCHENER",
        "streetNameDisplayText": "HAROLD AVE, KITCHENER"
      }
    ]
  },
  {
    "postal": "N2A3X2",
    "result": [
      {
        "electoralDistricts": [
          {
            "election": null,
            "id": 47,
            "name": "Kitchener Centre"
          }
        ],
        "pollDivisionIds": [
          10139219
        ],
        "postalCode": "N2A3X2",
        "streetName": "APPLE TREE",
        "streetDirectionId": null,
        "streetTypeId": "CRT",
        "placeName": "KITCHENER",
        "streetNameDisplayText": "APPLE TREE CRT, KITCHENER"
      },
      {
        "electoralDistricts": [
          {
            "election": null,
            "id": 47,
            "name": "Kitchener Centre"
          }
        ],
        "pollDivisionIds": [
          10139219
        ],
        "postalCode": "N2A3X2",
        "streetName": "APPLE TREE",
        "streetDirectionId": null,
        "streetTypeId": "DR",
        "placeName": "KITCHENER",
        "streetNameDisplayText": "APPLE TREE DR, KITCHENER"
      },
      {
        "electoralDistricts": [
          {
            "election": null,
            "id": 47,
            "name": "Kitchener Centre"
          }
        ],
        "pollDivisionIds": [
          10139219
        ],
        "postalCode": "N2A3X2",
        "streetName": "CORFIELD",
        "streetDirectionId": null,
        "streetTypeId": "DR",
        "placeName": "KITCHENER",
        "streetNameDisplayText": "CORFIELD DR, KITCHENER"
      },
      {
        "electoralDistricts": [
          {
            "election": null,
            "id": 47,
            "name": "Kitchener Centre"
          }
        ],
        "pollDivisionIds": [
          10139219
        ],
        "postalCode": "N2A3X2",
        "streetName": "ROLLING ACRES",
        "streetDirectionId": null,
        "streetTypeId": "DR",
        "placeName": "KITCHENER",
        "streetNameDisplayText": "ROLLING ACRES DR, KITCHENER"
      }
    ]
  },
  {
    "postal": "N2A2E9",
    "result": [
      {
        "electoralDistricts": [
          {
            "election": null,
            "id": 47,
            "name": "Kitchener Centre"
          }
        ],
        "pollDivisionIds": [
          10139216
        ],
        "postalCode": "N2A2E9",
        "streetName": "HOLBORN",
        "streetDirectionId": null,
        "streetTypeId": "DR",
        "placeName": "KITCHENER",
        "streetNameDisplayText": "HOLBORN DR, KITCHENER"
      }
    ]
  },
  {
    "postal": "N2A9P6",
    "result": []
  },
  {
    "postal": "N2A9E2",
    "result": []
  },
  {
    "postal": "N2A9H2",
    "result": []
  },
  {
    "postal": "N2A1S8",
    "result": [
      {
        "electoralDistricts": [
          {
            "election": null,
            "id": 47,
            "name": "Kitchener Centre"
          }
        ],
        "pollDivisionIds": [
          10139217
        ],
        "postalCode": "N2A1S8",
        "streetName": "GUERIN",
        "streetDirectionId": null,
        "streetTypeId": "AVE",
        "placeName": "KITCHENER",
        "streetNameDisplayText": "GUERIN AVE, KITCHENER"
      }
    ]
  },
  {
    "postal": "N2A3M6",
    "result": [
      {
        "electoralDistricts": [
          {
            "election": null,
            "id": 47,
            "name": "Kitchener Centre"
          }
        ],
        "pollDivisionIds": [
          10139219,
          10139216
        ],
        "postalCode": "N2A3M6",
        "streetName": "EDENBRIDGE",
        "streetDirectionId": null,
        "streetTypeId": "DR",
        "placeName": "KITCHENER",
        "streetNameDisplayText": "EDENBRIDGE DR, KITCHENER"
      }
    ]
  },
  {
    "postal": "N2A6Z8",
    "result": []
  },
  {
    "postal": "N2A4J2",
    "result": [
      {
        "electoralDistricts": [
          {
            "election": null,
            "id": 47,
            "name": "Kitchener Centre"
          }
        ],
        "pollDivisionIds": [
          10139219
        ],
        "postalCode": "N2A4J2",
        "streetName": "OLD CHICOPEE",
        "streetDirectionId": null,
        "streetTypeId": "DR",
        "placeName": "KITCHENER",
        "streetNameDisplayText": "OLD CHICOPEE DR, KITCHENER"
      }
    ]
  },
  {
    "postal": "N2A9Y1",
    "result": []
  },
  {
    "postal": "N2A8V6",
    "result": []
  },
  {
    "postal": "N2A6B2",
    "result": []
  },
  {
    "postal": "N2A1P8",
    "result": [
      {
        "electoralDistricts": [
          {
            "election": null,
            "id": 47,
            "name": "Kitchener Centre"
          }
        ],
        "pollDivisionIds": [
          10139217
        ],
        "postalCode": "N2A1P8",
        "streetName": "RUTHERFORD",
        "streetDirectionId": null,
        "streetTypeId": "DR",
        "placeName": "KITCHENER",
        "streetNameDisplayText": "RUTHERFORD DR, KITCHENER"
      }
    ]
  },
  {
    "postal": "N2A0V8",
    "result": []
  },
  {
    "postal": "N2A4Y0",
    "result": []
  },
  {
    "postal": "N2A2T4",
    "result": [
      {
        "electoralDistricts": [
          {
            "election": null,
            "id": 49,
            "name": "Kitchener South—Hespeler"
          }
        ],
        "pollDivisionIds": [
          10139300
        ],
        "postalCode": "N2A2T4",
        "streetName": "MORRISON",
        "streetDirectionId": null,
        "streetTypeId": "RD",
        "placeName": "KITCHENER",
        "streetNameDisplayText": "MORRISON RD, KITCHENER"
      }
    ]
  },
  {
    "postal": "N2A2S3",
    "result": [
      {
        "electoralDistricts": [
          {
            "election": null,
            "id": 49,
            "name": "Kitchener South—Hespeler"
          }
        ],
        "pollDivisionIds": [
          10139297
        ],
        "postalCode": "N2A2S3",
        "streetName": "MORGAN",
        "streetDirectionId": null,
        "streetTypeId": "AVE",
        "placeName": "KITCHENER",
        "streetNameDisplayText": "MORGAN AVE, KITCHENER"
      }
    ]
  },
  {
    "postal": "N2A0K0",
    "result": []
  },
  {
    "postal": "N2A5N1",
    "result": []
  },
  {
    "postal": "N2A7T0",
    "result": []
  },
  {
    "postal": "N2A9N2",
    "result": []
  },
  {
    "postal": "N2A5L1",
    "result": []
  },
  {
    "postal": "N2A7G5",
    "result": []
  },
  {
    "postal": "N2A6K2",
    "result": []
  },
  {
    "postal": "N2A6P9",
    "result": []
  },
  {
    "postal": "N2A0E6",
    "result": []
  },
  {
    "postal": "N2A8R9",
    "result": []
  },
  {
    "postal": "N2A3G9",
    "result": [
      {
        "electoralDistricts": [
          {
            "election": null,
            "id": 49,
            "name": "Kitchener South—Hespeler"
          }
        ],
        "pollDivisionIds": [
          10139300
        ],
        "postalCode": "N2A3G9",
        "streetName": "TINATAWA",
        "streetDirectionId": null,
        "streetTypeId": "CRT",
        "placeName": "KITCHENER",
        "streetNameDisplayText": "TINATAWA CRT, KITCHENER"
      }
    ]
  },
  {
    "postal": "N2A0V7",
    "result": []
  },
  {
    "postal": "N2A2Z1",
    "result": [
      {
        "electoralDistricts": [
          {
            "election": null,
            "id": 49,
            "name": "Kitchener South—Hespeler"
          }
        ],
        "pollDivisionIds": [
          10139297
        ],
        "postalCode": "N2A2Z1",
        "streetName": "STONEGATE",
        "streetDirectionId": null,
        "streetTypeId": "DR",
        "placeName": "KITCHENER",
        "streetNameDisplayText": "STONEGATE DR, KITCHENER"
      }
    ]
  },
  {
    "postal": "N2A7N1",
    "result": []
  },
  {
    "postal": "N2A3C6",
    "result": [
      {
        "electoralDistricts": [
          {
            "election": null,
            "id": 49,
            "name": "Kitchener South—Hespeler"
          }
        ],
        "pollDivisionIds": [
          10139300
        ],
        "postalCode": "N2A3C6",
        "streetName": "MORRISON",
        "streetDirectionId": null,
        "streetTypeId": "RD",
        "placeName": "KITCHENER",
        "streetNameDisplayText": "MORRISON RD, KITCHENER"
      }
    ]
  },
  {
    "postal": "N2A4M1",
    "result": [
      {
        "electoralDistricts": [
          {
            "election": null,
            "id": 49,
            "name": "Kitchener South—Hespeler"
          }
        ],
        "pollDivisionIds": [
          10139302
        ],
        "postalCode": "N2A4M1",
        "streetName": "EDGEWATER",
        "streetDirectionId": null,
        "streetTypeId": "CRES",
        "placeName": "KITCHENER",
        "streetNameDisplayText": "EDGEWATER CRES, KITCHENER"
      },
      {
        "electoralDistricts": [
          {
            "election": null,
            "id": 49,
            "name": "Kitchener South—Hespeler"
          }
        ],
        "pollDivisionIds": [
          10139302
        ],
        "postalCode": "N2A4M1",
        "streetName": "JANINE",
        "streetDirectionId": null,
        "streetTypeId": "ST",
        "placeName": "KITCHENER",
        "streetNameDisplayText": "JANINE ST, KITCHENER"
      }
    ]
  },
  {
    "postal": "N2A9K2",
    "result": []
  },
  {
    "postal": "N2A9S6",
    "result": []
  },
  {
    "postal": "N2A4X1",
    "result": []
  },
  {
    "postal": "N2A8W2",
    "result": []
  },
  {
    "postal": "N2A7N2",
    "result": []
  },
  {
    "postal": "N2A8S3",
    "result": []
  },
  {
    "postal": "N2A4V0",
    "result": []
  },
  {
    "postal": "N2A6W4",
    "result": []
  },
  {
    "postal": "N2A5M1",
    "result": []
  },
  {
    "postal": "N2A0S4",
    "result": []
  },
  {
    "postal": "N2A5X6",
    "result": []
  },
  {
    "postal": "N2A8L5",
    "result": []
  },
  {
    "postal": "N2A5M8",
    "result": []
  },
  {
    "postal": "N2A2G3",
    "result": []
  },
  {
    "postal": "N2A8E4",
    "result": []
  },
  {
    "postal": "N2A7S9",
    "result": []
  },
  {
    "postal": "N2A1K3",
    "result": [
      {
        "electoralDistricts": [
          {
            "election": null,
            "id": 47,
            "name": "Kitchener Centre"
          }
        ],
        "pollDivisionIds": [
          10139214
        ],
        "postalCode": "N2A1K3",
        "streetName": "BRADLEY",
        "streetDirectionId": null,
        "streetTypeId": "DR",
        "placeName": "KITCHENER",
        "streetNameDisplayText": "BRADLEY DR, KITCHENER"
      }
    ]
  },
  {
    "postal": "N2A4E1",
    "result": [
      {
        "electoralDistricts": [
          {
            "election": null,
            "id": 47,
            "name": "Kitchener Centre"
          }
        ],
        "pollDivisionIds": [
          10139241
        ],
        "postalCode": "N2A4E1",
        "streetName": "WEBER",
        "streetDirectionId": "E",
        "streetTypeId": "ST",
        "placeName": "KITCHENER",
        "streetNameDisplayText": "WEBER ST E, KITCHENER"
      }
    ]
  },
  {
    "postal": "N2A4R2",
    "result": []
  },
  {
    "postal": "N2A6T0",
    "result": []
  },
  {
    "postal": "N2A3K5",
    "result": [
      {
        "electoralDistricts": [
          {
            "election": null,
            "id": 47,
            "name": "Kitchener Centre"
          }
        ],
        "pollDivisionIds": [
          10139219
        ],
        "postalCode": "N2A3K5",
        "streetName": "HUNTINGDALE",
        "streetDirectionId": null,
        "streetTypeId": "DR",
        "placeName": "KITCHENER",
        "streetNameDisplayText": "HUNTINGDALE DR, KITCHENER"
      }
    ]
  },
  {
    "postal": "N2A3S3",
    "result": [
      {
        "electoralDistricts": [
          {
            "election": null,
            "id": 47,
            "name": "Kitchener Centre"
          }
        ],
        "pollDivisionIds": [
          10139220
        ],
        "postalCode": "N2A3S3",
        "streetName": "BATTERSWOOD",
        "streetDirectionId": null,
        "streetTypeId": "CRT",
        "placeName": "KITCHENER",
        "streetNameDisplayText": "BATTERSWOOD CRT, KITCHENER"
      },
      {
        "electoralDistricts": [
          {
            "election": null,
            "id": 47,
            "name": "Kitchener Centre"
          }
        ],
        "pollDivisionIds": [
          10139220,
          10139216
        ],
        "postalCode": "N2A3S3",
        "streetName": "OLDFIELD",
        "streetDirectionId": null,
        "streetTypeId": "DR",
        "placeName": "KITCHENER",
        "streetNameDisplayText": "OLDFIELD DR, KITCHENER"
      }
    ]
  },
  {
    "postal": "N2A3L4",
    "result": [
      {
        "electoralDistricts": [
          {
            "election": null,
            "id": 47,
            "name": "Kitchener Centre"
          }
        ],
        "pollDivisionIds": [
          10139216
        ],
        "postalCode": "N2A3L4",
        "streetName": "NOTCHWOOD",
        "streetDirectionId": null,
        "streetTypeId": "CRT",
        "placeName": "KITCHENER",
        "streetNameDisplayText": "NOTCHWOOD CRT, KITCHENER"
      }
    ]
  },
  {
    "postal": "N2A9Y2",
    "result": []
  },
  {
    "postal": "N2A1E0",
    "result": []
  },
  {
    "postal": "N2A9A4",
    "result": []
  },
  {
    "postal": "N2A1L3",
    "result": [
      {
        "electoralDistricts": [
          {
            "election": null,
            "id": 47,
            "name": "Kitchener Centre"
          }
        ],
        "pollDivisionIds": [
          10139212
        ],
        "postalCode": "N2A1L3",
        "streetName": "SIMPSON",
        "streetDirectionId": null,
        "streetTypeId": "AVE",
        "placeName": "KITCHENER",
        "streetNameDisplayText": "SIMPSON AVE, KITCHENER"
      }
    ]
  },
  {
    "postal": "N2A6N1",
    "result": []
  },
  {
    "postal": "N2A6G7",
    "result": []
  },
  {
    "postal": "N2A7W1",
    "result": []
  },
  {
    "postal": "N2A4M6",
    "result": [
      {
        "electoralDistricts": [
          {
            "election": null,
            "id": 47,
            "name": "Kitchener Centre"
          }
        ],
        "pollDivisionIds": [
          10139221
        ],
        "postalCode": "N2A4M6",
        "streetName": "FEENSTRA",
        "streetDirectionId": null,
        "streetTypeId": "ST",
        "placeName": "KITCHENER",
        "streetNameDisplayText": "FEENSTRA ST, KITCHENER"
      },
      {
        "electoralDistricts": [
          {
            "election": null,
            "id": 47,
            "name": "Kitchener Centre"
          }
        ],
        "pollDivisionIds": [
          10139221
        ],
        "postalCode": "N2A4M6",
        "streetName": "PEBBLECREEK",
        "streetDirectionId": null,
        "streetTypeId": "CRT",
        "placeName": "KITCHENER",
        "streetNameDisplayText": "PEBBLECREEK CRT, KITCHENER"
      },
      {
        "electoralDistricts": [
          {
            "election": null,
            "id": 47,
            "name": "Kitchener Centre"
          }
        ],
        "pollDivisionIds": [
          10139221
        ],
        "postalCode": "N2A4M6",
        "streetName": "PEBBLECREEK",
        "streetDirectionId": null,
        "streetTypeId": "DR",
        "placeName": "KITCHENER",
        "streetNameDisplayText": "PEBBLECREEK DR, KITCHENER"
      }
    ]
  },
  {
    "postal": "N2A1K0",
    "result": []
  },
  {
    "postal": "N2A3E2",
    "result": [
      {
        "electoralDistricts": [
          {
            "election": null,
            "id": 49,
            "name": "Kitchener South—Hespeler"
          }
        ],
        "pollDivisionIds": [
          10139297
        ],
        "postalCode": "N2A3E2",
        "streetName": "CHICOPEE PARK",
        "streetDirectionId": null,
        "streetTypeId": "CRT",
        "placeName": "KITCHENER",
        "streetNameDisplayText": "CHICOPEE PARK CRT, KITCHENER"
      }
    ]
  },
  {
    "postal": "N2A5H4",
    "result": []
  },
  {
    "postal": "N2A1K7",
    "result": [
      {
        "electoralDistricts": [
          {
            "election": null,
            "id": 47,
            "name": "Kitchener Centre"
          }
        ],
        "pollDivisionIds": [
          10139214
        ],
        "postalCode": "N2A1K7",
        "streetName": "BRADLEY",
        "streetDirectionId": null,
        "streetTypeId": "DR",
        "placeName": "KITCHENER",
        "streetNameDisplayText": "BRADLEY DR, KITCHENER"
      }
    ]
  },
  {
    "postal": "N2A0H0",
    "result": []
  },
  {
    "postal": "N2A0J3",
    "result": [
      {
        "electoralDistricts": [
          {
            "election": null,
            "id": 47,
            "name": "Kitchener Centre"
          }
        ],
        "pollDivisionIds": [
          10139221
        ],
        "postalCode": "N2A0J3",
        "streetName": "FAIRVIEW",
        "streetDirectionId": "N",
        "streetTypeId": "AVE",
        "placeName": "KITCHENER",
        "streetNameDisplayText": "FAIRVIEW AVE N, KITCHENER"
      },
      {
        "electoralDistricts": [
          {
            "election": null,
            "id": 47,
            "name": "Kitchener Centre"
          }
        ],
        "pollDivisionIds": [
          10139221
        ],
        "postalCode": "N2A0J3",
        "streetName": "FAIRVIEW",
        "streetDirectionId": "N",
        "streetTypeId": "RD",
        "placeName": "KITCHENER",
        "streetNameDisplayText": "FAIRVIEW RD N, KITCHENER"
      },
      {
        "electoralDistricts": [
          {
            "election": null,
            "id": 47,
            "name": "Kitchener Centre"
          }
        ],
        "pollDivisionIds": [
          10139220,
          10139221
        ],
        "postalCode": "N2A0J3",
        "streetName": "FAIRWAY",
        "streetDirectionId": "N",
        "streetTypeId": "RD",
        "placeName": "KITCHENER",
        "streetNameDisplayText": "FAIRWAY RD N, KITCHENER"
      },
      {
        "electoralDistricts": [
          {
            "election": null,
            "id": 47,
            "name": "Kitchener Centre"
          }
        ],
        "pollDivisionIds": [
          10139186
        ],
        "postalCode": "N2A0J3",
        "streetName": "FAIRWAY RD.",
        "streetDirectionId": "N",
        "streetTypeId": "RD",
        "placeName": "KITCHENER",
        "streetNameDisplayText": "FAIRWAY RD. RD N, KITCHENER"
      },
      {
        "electoralDistricts": [
          {
            "election": null,
            "id": 47,
            "name": "Kitchener Centre"
          }
        ],
        "pollDivisionIds": [
          10139221
        ],
        "postalCode": "N2A0J3",
        "streetName": "WILLOWRUN",
        "streetDirectionId": null,
        "streetTypeId": "DR",
        "placeName": "KITCHENER",
        "streetNameDisplayText": "WILLOWRUN DR, KITCHENER"
      }
    ]
  },
  {
    "postal": "N2A1X6",
    "result": [
      {
        "electoralDistricts": [
          {
            "election": null,
            "id": 47,
            "name": "Kitchener Centre"
          }
        ],
        "pollDivisionIds": [
          10139214
        ],
        "postalCode": "N2A1X6",
        "streetName": "EULER",
        "streetDirectionId": null,
        "streetTypeId": "AVE",
        "placeName": "KITCHENER",
        "streetNameDisplayText": "EULER AVE, KITCHENER"
      }
    ]
  },
  {
    "postal": "N2A2Z6",
    "result": [
      {
        "electoralDistricts": [
          {
            "election": null,
            "id": 49,
            "name": "Kitchener South—Hespeler"
          }
        ],
        "pollDivisionIds": [
          10139300
        ],
        "postalCode": "N2A2Z6",
        "streetName": "MORRISON",
        "streetDirectionId": null,
        "streetTypeId": "RD",
        "placeName": "KITCHENER",
        "streetNameDisplayText": "MORRISON RD, KITCHENER"
      }
    ]
  },
  {
    "postal": "N2A4R9",
    "result": []
  },
  {
    "postal": "N2A0W8",
    "result": []
  },
  {
    "postal": "N2A1L4",
    "result": [
      {
        "electoralDistricts": [
          {
            "election": null,
            "id": 47,
            "name": "Kitchener Centre"
          }
        ],
        "pollDivisionIds": [
          10139212
        ],
        "postalCode": "N2A1L4",
        "streetName": "DOOLEY",
        "streetDirectionId": null,
        "streetTypeId": "DR",
        "placeName": "KITCHENER",
        "streetNameDisplayText": "DOOLEY DR, KITCHENER"
      }
    ]
  },
  {
    "postal": "N2A0C8",
    "result": [
      {
        "electoralDistricts": [
          {
            "election": null,
            "id": 47,
            "name": "Kitchener Centre"
          }
        ],
        "pollDivisionIds": [
          10139220
        ],
        "postalCode": "N2A0C8",
        "streetName": "BRIDGEMILL",
        "streetDirectionId": null,
        "streetTypeId": "CRES",
        "placeName": "KITCHENER",
        "streetNameDisplayText": "BRIDGEMILL CRES, KITCHENER"
      },
      {
        "electoralDistricts": [
          {
            "election": null,
            "id": 47,
            "name": "Kitchener Centre"
          }
        ],
        "pollDivisionIds": [
          10139220,
          10139221
        ],
        "postalCode": "N2A0C8",
        "streetName": "ZELLER",
        "streetDirectionId": null,
        "streetTypeId": "DR",
        "placeName": "KITCHENER",
        "streetNameDisplayText": "ZELLER DR, KITCHENER"
      }
    ]
  },
  {
    "postal": "N2A9X7",
    "result": []
  },
  {
    "postal": "N2A4T1",
    "result": []
  },
  {
    "postal": "N2A0M0",
    "result": []
  },
  {
    "postal": "N2A6A2",
    "result": []
  },
  {
    "postal": "N2A9S8",
    "result": []
  },
  {
    "postal": "N2A9T4",
    "result": []
  },
  {
    "postal": "N2A9Y4",
    "result": []
  },
  {
    "postal": "N2A6G5",
    "result": []
  },
  {
    "postal": "N2A6H9",
    "result": []
  },
  {
    "postal": "N2A2P3",
    "result": [
      {
        "electoralDistricts": [
          {
            "election": null,
            "id": 49,
            "name": "Kitchener South—Hespeler"
          }
        ],
        "pollDivisionIds": [
          10139297
        ],
        "postalCode": "N2A2P3",
        "streetName": "WINDOM",
        "streetDirectionId": null,
        "streetTypeId": "RD",
        "placeName": "KITCHENER",
        "streetNameDisplayText": "WINDOM RD, KITCHENER"
      }
    ]
  },
  {
    "postal": "N2A1T6",
    "result": [
      {
        "electoralDistricts": [
          {
            "election": null,
            "id": 47,
            "name": "Kitchener Centre"
          }
        ],
        "pollDivisionIds": [
          10139214
        ],
        "postalCode": "N2A1T6",
        "streetName": "SHANTZ",
        "streetDirectionId": null,
        "streetTypeId": "LANE",
        "placeName": "KITCHENER",
        "streetNameDisplayText": "SHANTZ LANE, KITCHENER"
      }
    ]
  },
  {
    "postal": "N2A4P6",
    "result": []
  },
  {
    "postal": "N2A3K1",
    "result": [
      {
        "electoralDistricts": [
          {
            "election": null,
            "id": 49,
            "name": "Kitchener South—Hespeler"
          }
        ],
        "pollDivisionIds": [
          10139300
        ],
        "postalCode": "N2A3K1",
        "streetName": "QUINTE",
        "streetDirectionId": null,
        "streetTypeId": "CRES",
        "placeName": "KITCHENER",
        "streetNameDisplayText": "QUINTE CRES, KITCHENER"
      },
      {
        "electoralDistricts": [
          {
            "election": null,
            "id": 49,
            "name": "Kitchener South—Hespeler"
          }
        ],
        "pollDivisionIds": [
          10139300
        ],
        "postalCode": "N2A3K1",
        "streetName": "QUINTE",
        "streetDirectionId": null,
        "streetTypeId": "CRT",
        "placeName": "KITCHENER",
        "streetNameDisplayText": "QUINTE CRT, KITCHENER"
      }
    ]
  },
  {
    "postal": "N2A6X4",
    "result": []
  },
  {
    "postal": "N2A4M8",
    "result": [
      {
        "electoralDistricts": [
          {
            "election": null,
            "id": 47,
            "name": "Kitchener Centre"
          }
        ],
        "pollDivisionIds": [
          10139221
        ],
        "postalCode": "N2A4M8",
        "streetName": "OLD ZELLAR",
        "streetDirectionId": null,
        "streetTypeId": "DR",
        "placeName": "KITCHENER",
        "streetNameDisplayText": "OLD ZELLAR DR, KITCHENER"
      },
      {
        "electoralDistricts": [
          {
            "election": null,
            "id": 47,
            "name": "Kitchener Centre"
          }
        ],
        "pollDivisionIds": [
          10139221
        ],
        "postalCode": "N2A4M8",
        "streetName": "OLD ZELLER",
        "streetDirectionId": null,
        "streetTypeId": "DR",
        "placeName": "KITCHENER",
        "streetNameDisplayText": "OLD ZELLER DR, KITCHENER"
      },
      {
        "electoralDistricts": [
          {
            "election": null,
            "id": 47,
            "name": "Kitchener Centre"
          }
        ],
        "pollDivisionIds": [
          10139221
        ],
        "postalCode": "N2A4M8",
        "streetName": "PEBBLECREEK",
        "streetDirectionId": null,
        "streetTypeId": "DR",
        "placeName": "KITCHENER",
        "streetNameDisplayText": "PEBBLECREEK DR, KITCHENER"
      }
    ]
  },
  {
    "postal": "N2A2Y1",
    "result": [
      {
        "electoralDistricts": [
          {
            "election": null,
            "id": 47,
            "name": "Kitchener Centre"
          }
        ],
        "pollDivisionIds": [
          10139214
        ],
        "postalCode": "N2A2Y1",
        "streetName": "SHUH",
        "streetDirectionId": null,
        "streetTypeId": "AVE",
        "placeName": "KITCHENER",
        "streetNameDisplayText": "SHUH AVE, KITCHENER"
      }
    ]
  },
  {
    "postal": "N2A6M1",
    "result": []
  },
  {
    "postal": "N2A5L8",
    "result": []
  },
  {
    "postal": "N2A3P6",
    "result": [
      {
        "electoralDistricts": [
          {
            "election": null,
            "id": 47,
            "name": "Kitchener Centre"
          }
        ],
        "pollDivisionIds": [
          10139220
        ],
        "postalCode": "N2A3P6",
        "streetName": "BRIERDALE",
        "streetDirectionId": null,
        "streetTypeId": "DR",
        "placeName": "KITCHENER",
        "streetNameDisplayText": "BRIERDALE DR, KITCHENER"
      },
      {
        "electoralDistricts": [
          {
            "election": null,
            "id": 47,
            "name": "Kitchener Centre"
          }
        ],
        "pollDivisionIds": [
          10139220
        ],
        "postalCode": "N2A3P6",
        "streetName": "BRIERDALE",
        "streetDirectionId": null,
        "streetTypeId": "PL",
        "placeName": "KITCHENER",
        "streetNameDisplayText": "BRIERDALE PL, KITCHENER"
      }
    ]
  },
  {
    "postal": "N2A9A5",
    "result": []
  },
  {
    "postal": "N2A7K1",
    "result": []
  },
  {
    "postal": "N2A3J4",
    "result": [
      {
        "electoralDistricts": [
          {
            "election": null,
            "id": 49,
            "name": "Kitchener South—Hespeler"
          }
        ],
        "pollDivisionIds": [
          10139300
        ],
        "postalCode": "N2A3J4",
        "streetName": "MANITOULIN",
        "streetDirectionId": null,
        "streetTypeId": "CRES",
        "placeName": "KITCHENER",
        "streetNameDisplayText": "MANITOULIN CRES, KITCHENER"
      }
    ]
  },
  {
    "postal": "N2A5E7",
    "result": []
  },
  {
    "postal": "N2A3A7",
    "result": [
      {
        "electoralDistricts": [
          {
            "election": null,
            "id": 47,
            "name": "Kitchener Centre"
          }
        ],
        "pollDivisionIds": [
          10139217
        ],
        "postalCode": "N2A3A7",
        "streetName": "WEBER",
        "streetDirectionId": "E",
        "streetTypeId": "ST",
        "placeName": "KITCHENER",
        "streetNameDisplayText": "WEBER ST E, KITCHENER"
      }
    ]
  },
  {
    "postal": "N2A1B9",
    "result": [
      {
        "electoralDistricts": [
          {
            "election": null,
            "id": 47,
            "name": "Kitchener Centre"
          }
        ],
        "pollDivisionIds": [
          10139214
        ],
        "postalCode": "N2A1B9",
        "streetName": "WEBER",
        "streetDirectionId": "E",
        "streetTypeId": "ST",
        "placeName": "KITCHENER",
        "streetNameDisplayText": "WEBER ST E, KITCHENER"
      }
    ]
  },
  {
    "postal": "N2A9E8",
    "result": []
  },
  {
    "postal": "N2A1C9",
    "result": [
      {
        "electoralDistricts": [
          {
            "election": null,
            "id": 47,
            "name": "Kitchener Centre"
          }
        ],
        "pollDivisionIds": [
          10139214
        ],
        "postalCode": "N2A1C9",
        "streetName": "PROSPECT",
        "streetDirectionId": null,
        "streetTypeId": "AVE",
        "placeName": "KITCHENER",
        "streetNameDisplayText": "PROSPECT AVE, KITCHENER"
      }
    ]
  },
  {
    "postal": "N2A3B5",
    "result": []
  },
  {
    "postal": "N2A8R0",
    "result": []
  },
  {
    "postal": "N2A3P2",
    "result": [
      {
        "electoralDistricts": [
          {
            "election": null,
            "id": 47,
            "name": "Kitchener Centre"
          }
        ],
        "pollDivisionIds": [
          10139220
        ],
        "postalCode": "N2A3P2",
        "streetName": "CASEY",
        "streetDirectionId": null,
        "streetTypeId": "DR",
        "placeName": "KITCHENER",
        "streetNameDisplayText": "CASEY DR, KITCHENER"
      },
      {
        "electoralDistricts": [
          {
            "election": null,
            "id": 47,
            "name": "Kitchener Centre"
          }
        ],
        "pollDivisionIds": [
          10139220
        ],
        "postalCode": "N2A3P2",
        "streetName": "MCGIBBON",
        "streetDirectionId": null,
        "streetTypeId": "CRT",
        "placeName": "KITCHENER",
        "streetNameDisplayText": "MCGIBBON CRT, KITCHENER"
      }
    ]
  },
  {
    "postal": "N2A5V4",
    "result": []
  },
  {
    "postal": "N2A4H0",
    "result": []
  },
  {
    "postal": "N2A4S7",
    "result": []
  },
  {
    "postal": "N2A6C2",
    "result": []
  },
  {
    "postal": "N2A8W3",
    "result": []
  },
  {
    "postal": "N2A4M5",
    "result": [
      {
        "electoralDistricts": [
          {
            "election": null,
            "id": 47,
            "name": "Kitchener Centre"
          }
        ],
        "pollDivisionIds": [
          10139221
        ],
        "postalCode": "N2A4M5",
        "streetName": "APPLEROCK",
        "streetDirectionId": null,
        "streetTypeId": "CRT",
        "placeName": "KITCHENER",
        "streetNameDisplayText": "APPLEROCK CRT, KITCHENER"
      },
      {
        "electoralDistricts": [
          {
            "election": null,
            "id": 47,
            "name": "Kitchener Centre"
          }
        ],
        "pollDivisionIds": [
          10139221
        ],
        "postalCode": "N2A4M5",
        "streetName": "PEBBLECREEK",
        "streetDirectionId": null,
        "streetTypeId": "DR",
        "placeName": "KITCHENER",
        "streetNameDisplayText": "PEBBLECREEK DR, KITCHENER"
      }
    ]
  },
  {
    "postal": "N2A5T1",
    "result": []
  },
  {
    "postal": "N2A3B3",
    "result": [
      {
        "electoralDistricts": [
          {
            "election": null,
            "id": 49,
            "name": "Kitchener South—Hespeler"
          }
        ],
        "pollDivisionIds": [
          10139297
        ],
        "postalCode": "N2A3B3",
        "streetName": "STONEGATE",
        "streetDirectionId": null,
        "streetTypeId": "DR",
        "placeName": "KITCHENER",
        "streetNameDisplayText": "STONEGATE DR, KITCHENER"
      }
    ]
  },
  {
    "postal": "N2A6C6",
    "result": []
  },
  {
    "postal": "N2A7N8",
    "result": []
  },
  {
    "postal": "N2A2Y3",
    "result": [
      {
        "electoralDistricts": [
          {
            "election": null,
            "id": 47,
            "name": "Kitchener Centre"
          }
        ],
        "pollDivisionIds": [
          10139219
        ],
        "postalCode": "N2A2Y3",
        "streetName": "VERONICA",
        "streetDirectionId": null,
        "streetTypeId": "DR",
        "placeName": "KITCHENER",
        "streetNameDisplayText": "VERONICA DR, KITCHENER"
      }
    ]
  },
  {
    "postal": "N2A2R6",
    "result": [
      {
        "electoralDistricts": [
          {
            "election": null,
            "id": 49,
            "name": "Kitchener South—Hespeler"
          }
        ],
        "pollDivisionIds": [
          10139297
        ],
        "postalCode": "N2A2R6",
        "streetName": "GREENDALE",
        "streetDirectionId": null,
        "streetTypeId": "CRES",
        "placeName": "KITCHENER",
        "streetNameDisplayText": "GREENDALE CRES, KITCHENER"
      }
    ]
  },
  {
    "postal": "N2A7N3",
    "result": []
  },
  {
    "postal": "N2A8J2",
    "result": []
  },
  {
    "postal": "N2A6A9",
    "result": []
  },
  {
    "postal": "N2A3V2",
    "result": [
      {
        "electoralDistricts": [
          {
            "election": null,
            "id": 47,
            "name": "Kitchener Centre"
          }
        ],
        "pollDivisionIds": [
          10139220
        ],
        "postalCode": "N2A3V2",
        "streetName": "SPRINGMOUNT",
        "streetDirectionId": null,
        "streetTypeId": "DR",
        "placeName": "KITCHENER",
        "streetNameDisplayText": "SPRINGMOUNT DR, KITCHENER"
      }
    ]
  },
  {
    "postal": "N2A2N3",
    "result": [
      {
        "electoralDistricts": [
          {
            "election": null,
            "id": 49,
            "name": "Kitchener South—Hespeler"
          }
        ],
        "pollDivisionIds": [
          10139297
        ],
        "postalCode": "N2A2N3",
        "streetName": "FAIRWAY",
        "streetDirectionId": "S",
        "streetTypeId": "RD",
        "placeName": "KITCHENER",
        "streetNameDisplayText": "FAIRWAY RD S, KITCHENER"
      }
    ]
  },
  {
    "postal": "N2A1S5",
    "result": [
      {
        "electoralDistricts": [
          {
            "election": null,
            "id": 47,
            "name": "Kitchener Centre"
          }
        ],
        "pollDivisionIds": [
          10139217
        ],
        "postalCode": "N2A1S5",
        "streetName": "WALKER",
        "streetDirectionId": null,
        "streetTypeId": "ST",
        "placeName": "KITCHENER",
        "streetNameDisplayText": "WALKER ST, KITCHENER"
      }
    ]
  },
  {
    "postal": "N2A4T7",
    "result": []
  },
  {
    "postal": "N2A6Y7",
    "result": []
  },
  {
    "postal": "N2A0W7",
    "result": []
  },
  {
    "postal": "N2A2W9",
    "result": [
      {
        "electoralDistricts": [
          {
            "election": null,
            "id": 49,
            "name": "Kitchener South—Hespeler"
          }
        ],
        "pollDivisionIds": [
          10139297
        ],
        "postalCode": "N2A2W9",
        "streetName": "CAMEO",
        "streetDirectionId": null,
        "streetTypeId": "DR",
        "placeName": "KITCHENER",
        "streetNameDisplayText": "CAMEO DR, KITCHENER"
      }
    ]
  },
  {
    "postal": "N2A8V0",
    "result": []
  },
  {
    "postal": "N2A0H4",
    "result": [
      {
        "electoralDistricts": [
          {
            "election": null,
            "id": 47,
            "name": "Kitchener Centre"
          }
        ],
        "pollDivisionIds": [
          10139221
        ],
        "postalCode": "N2A0H4",
        "streetName": "EDEN OAK",
        "streetDirectionId": null,
        "streetTypeId": "CRT",
        "placeName": "KITCHENER",
        "streetNameDisplayText": "EDEN OAK CRT, KITCHENER"
      }
    ]
  },
  {
    "postal": "N2A2T1",
    "result": [
      {
        "electoralDistricts": [
          {
            "election": null,
            "id": 49,
            "name": "Kitchener South—Hespeler"
          }
        ],
        "pollDivisionIds": [
          10139300
        ],
        "postalCode": "N2A2T1",
        "streetName": "GRAND RIVER",
        "streetDirectionId": null,
        "streetTypeId": "BLVD",
        "placeName": "KITCHENER",
        "streetNameDisplayText": "GRAND RIVER BLVD, KITCHENER"
      }
    ]
  },
  {
    "postal": "N2A1B1",
    "result": [
      {
        "electoralDistricts": [
          {
            "election": null,
            "id": 49,
            "name": "Kitchener South—Hespeler"
          }
        ],
        "pollDivisionIds": [
          10139297
        ],
        "postalCode": "N2A1B1",
        "streetName": "KING",
        "streetDirectionId": "E",
        "streetTypeId": "ST",
        "placeName": "KITCHENER",
        "streetNameDisplayText": "KING ST E, KITCHENER"
      }
    ]
  },
  {
    "postal": "N2A8B6",
    "result": []
  },
  {
    "postal": "N2A6H1",
    "result": []
  },
  {
    "postal": "N2A8T8",
    "result": []
  },
  {
    "postal": "N2A0T4",
    "result": []
  },
  {
    "postal": "N2A2C4",
    "result": [
      {
        "electoralDistricts": [
          {
            "election": null,
            "id": 47,
            "name": "Kitchener Centre"
          }
        ],
        "pollDivisionIds": [
          10139216
        ],
        "postalCode": "N2A2C4",
        "streetName": "CONWAY",
        "streetDirectionId": null,
        "streetTypeId": "DR",
        "placeName": "KITCHENER",
        "streetNameDisplayText": "CONWAY DR, KITCHENER"
      }
    ]
  },
  {
    "postal": "N2A8N3",
    "result": []
  },
  {
    "postal": "N2A4L8",
    "result": [
      {
        "electoralDistricts": [
          {
            "election": null,
            "id": 49,
            "name": "Kitchener South—Hespeler"
          }
        ],
        "pollDivisionIds": [
          10139302
        ],
        "postalCode": "N2A4L8",
        "streetName": "TREMAINE",
        "streetDirectionId": null,
        "streetTypeId": "CRES",
        "placeName": "KITCHENER",
        "streetNameDisplayText": "TREMAINE CRES, KITCHENER"
      },
      {
        "electoralDistricts": [
          {
            "election": null,
            "id": 49,
            "name": "Kitchener South—Hespeler"
          }
        ],
        "pollDivisionIds": [
          10139302
        ],
        "postalCode": "N2A4L8",
        "streetName": "TREMAINE",
        "streetDirectionId": null,
        "streetTypeId": "DR",
        "placeName": "KITCHENER",
        "streetNameDisplayText": "TREMAINE DR, KITCHENER"
      }
    ]
  },
  {
    "postal": "N2A2B5",
    "result": [
      {
        "electoralDistricts": [
          {
            "election": null,
            "id": 47,
            "name": "Kitchener Centre"
          }
        ],
        "pollDivisionIds": [
          10139216
        ],
        "postalCode": "N2A2B5",
        "streetName": "KENORA",
        "streetDirectionId": null,
        "streetTypeId": "DR",
        "placeName": "KITCHENER",
        "streetNameDisplayText": "KENORA DR, KITCHENER"
      }
    ]
  },
  {
    "postal": "N2A3H1",
    "result": [
      {
        "electoralDistricts": [
          {
            "election": null,
            "id": 49,
            "name": "Kitchener South—Hespeler"
          }
        ],
        "pollDivisionIds": [
          10139300
        ],
        "postalCode": "N2A3H1",
        "streetName": "TINATAWA",
        "streetDirectionId": null,
        "streetTypeId": "CRT",
        "placeName": "KITCHENER",
        "streetNameDisplayText": "TINATAWA CRT, KITCHENER"
      }
    ]
  },
  {
    "postal": "N2A4Y1",
    "result": []
  },
  {
    "postal": "N2A7E2",
    "result": []
  },
  {
    "postal": "N2A2P5",
    "result": [
      {
        "electoralDistricts": [
          {
            "election": null,
            "id": 49,
            "name": "Kitchener South—Hespeler"
          }
        ],
        "pollDivisionIds": [
          10139300
        ],
        "postalCode": "N2A2P5",
        "streetName": "SCENIC",
        "streetDirectionId": null,
        "streetTypeId": "DR",
        "placeName": "KITCHENER",
        "streetNameDisplayText": "SCENIC DR, KITCHENER"
      }
    ]
  },
  {
    "postal": "N2A8R7",
    "result": []
  },
  {
    "postal": "N2A9P1",
    "result": []
  },
  {
    "postal": "N2A3B8",
    "result": [
      {
        "electoralDistricts": [
          {
            "election": null,
            "id": 47,
            "name": "Kitchener Centre"
          }
        ],
        "pollDivisionIds": [
          10139217
        ],
        "postalCode": "N2A3B8",
        "streetName": "BURGETZ",
        "streetDirectionId": null,
        "streetTypeId": "AVE",
        "placeName": "KITCHENER",
        "streetNameDisplayText": "BURGETZ AVE, KITCHENER"
      }
    ]
  },
  {
    "postal": "N2A3P7",
    "result": [
      {
        "electoralDistricts": [
          {
            "election": null,
            "id": 47,
            "name": "Kitchener Centre"
          }
        ],
        "pollDivisionIds": [
          10139220
        ],
        "postalCode": "N2A3P7",
        "streetName": "GRAY",
        "streetDirectionId": null,
        "streetTypeId": "ST",
        "placeName": "KITCHENER",
        "streetNameDisplayText": "GRAY ST, KITCHENER"
      }
    ]
  },
  {
    "postal": "N2A9B2",
    "result": []
  },
  {
    "postal": "N2A6Z3",
    "result": []
  },
  {
    "postal": "N2A4N5",
    "result": []
  },
  {
    "postal": "N2A8T3",
    "result": []
  },
  {
    "postal": "N2A1V2",
    "result": [
      {
        "electoralDistricts": [
          {
            "election": null,
            "id": 47,
            "name": "Kitchener Centre"
          }
        ],
        "pollDivisionIds": [
          10139214
        ],
        "postalCode": "N2A1V2",
        "streetName": "ROSS",
        "streetDirectionId": null,
        "streetTypeId": "AVE",
        "placeName": "KITCHENER",
        "streetNameDisplayText": "ROSS AVE, KITCHENER"
      }
    ]
  },
  {
    "postal": "N2A1Y0",
    "result": []
  },
  {
    "postal": "N2A3G6",
    "result": [
      {
        "electoralDistricts": [
          {
            "election": null,
            "id": 49,
            "name": "Kitchener South—Hespeler"
          }
        ],
        "pollDivisionIds": [
          10139300
        ],
        "postalCode": "N2A3G6",
        "streetName": "GRAND RIVER",
        "streetDirectionId": null,
        "streetTypeId": "BLVD",
        "placeName": "KITCHENER",
        "streetNameDisplayText": "GRAND RIVER BLVD, KITCHENER"
      }
    ]
  },
  {
    "postal": "N2A3H7",
    "result": [
      {
        "electoralDistricts": [
          {
            "election": null,
            "id": 49,
            "name": "Kitchener South—Hespeler"
          }
        ],
        "pollDivisionIds": [
          10139300
        ],
        "postalCode": "N2A3H7",
        "streetName": "GRAND RIVER",
        "streetDirectionId": null,
        "streetTypeId": "BLVD",
        "placeName": "KITCHENER",
        "streetNameDisplayText": "GRAND RIVER BLVD, KITCHENER"
      }
    ]
  },
  {
    "postal": "N2A7X8",
    "result": []
  },
  {
    "postal": "N2A0C7",
    "result": [
      {
        "electoralDistricts": [
          {
            "election": null,
            "id": 47,
            "name": "Kitchener Centre"
          }
        ],
        "pollDivisionIds": [
          10139221
        ],
        "postalCode": "N2A0C7",
        "streetName": "ZELLER",
        "streetDirectionId": null,
        "streetTypeId": "CRES",
        "placeName": "KITCHENER",
        "streetNameDisplayText": "ZELLER CRES, KITCHENER"
      },
      {
        "electoralDistricts": [
          {
            "election": null,
            "id": 47,
            "name": "Kitchener Centre"
          }
        ],
        "pollDivisionIds": [
          10139221
        ],
        "postalCode": "N2A0C7",
        "streetName": "ZELLER",
        "streetDirectionId": null,
        "streetTypeId": "DR",
        "placeName": "KITCHENER",
        "streetNameDisplayText": "ZELLER DR, KITCHENER"
      }
    ]
  },
  {
    "postal": "N2A0W9",
    "result": []
  },
  {
    "postal": "N2A8E6",
    "result": []
  },
  {
    "postal": "N2A9Z8",
    "result": []
  },
  {
    "postal": "N2A3P4",
    "result": [
      {
        "electoralDistricts": [
          {
            "election": null,
            "id": 47,
            "name": "Kitchener Centre"
          }
        ],
        "pollDivisionIds": [
          10139220
        ],
        "postalCode": "N2A3P4",
        "streetName": "BRIERDALE",
        "streetDirectionId": null,
        "streetTypeId": "DR",
        "placeName": "KITCHENER",
        "streetNameDisplayText": "BRIERDALE DR, KITCHENER"
      },
      {
        "electoralDistricts": [
          {
            "election": null,
            "id": 47,
            "name": "Kitchener Centre"
          }
        ],
        "pollDivisionIds": [
          10139220
        ],
        "postalCode": "N2A3P4",
        "streetName": "CASEY",
        "streetDirectionId": null,
        "streetTypeId": "DR",
        "placeName": "KITCHENER",
        "streetNameDisplayText": "CASEY DR, KITCHENER"
      }
    ]
  },
  {
    "postal": "N2A6L8",
    "result": []
  },
  {
    "postal": "N2A2R4",
    "result": [
      {
        "electoralDistricts": [
          {
            "election": null,
            "id": 49,
            "name": "Kitchener South—Hespeler"
          }
        ],
        "pollDivisionIds": [
          10139297
        ],
        "postalCode": "N2A2R4",
        "streetName": "PEPPERWOOD",
        "streetDirectionId": null,
        "streetTypeId": "CRES",
        "placeName": "KITCHENER",
        "streetNameDisplayText": "PEPPERWOOD CRES, KITCHENER"
      }
    ]
  },
  {
    "postal": "N2A2W1",
    "result": [
      {
        "electoralDistricts": [
          {
            "election": null,
            "id": 49,
            "name": "Kitchener South—Hespeler"
          }
        ],
        "pollDivisionIds": [
          10139300
        ],
        "postalCode": "N2A2W1",
        "streetName": "KING",
        "streetDirectionId": "E",
        "streetTypeId": "ST",
        "placeName": "KITCHENER",
        "streetNameDisplayText": "KING ST E, KITCHENER"
      }
    ]
  },
  {
    "postal": "N2A9H8",
    "result": []
  },
  {
    "postal": "N2A8X9",
    "result": []
  },
  {
    "postal": "N2A7H4",
    "result": []
  },
  {
    "postal": "N2A3J1",
    "result": [
      {
        "electoralDistricts": [
          {
            "election": null,
            "id": 49,
            "name": "Kitchener South—Hespeler"
          }
        ],
        "pollDivisionIds": [
          10139300
        ],
        "postalCode": "N2A3J1",
        "streetName": "WYANDOTTE",
        "streetDirectionId": null,
        "streetTypeId": "CRT",
        "placeName": "KITCHENER",
        "streetNameDisplayText": "WYANDOTTE CRT, KITCHENER"
      }
    ]
  },
  {
    "postal": "N2A1P4",
    "result": [
      {
        "electoralDistricts": [
          {
            "election": null,
            "id": 47,
            "name": "Kitchener Centre"
          }
        ],
        "pollDivisionIds": [
          10139217
        ],
        "postalCode": "N2A1P4",
        "streetName": "CLOVER",
        "streetDirectionId": null,
        "streetTypeId": "PL",
        "placeName": "KITCHENER",
        "streetNameDisplayText": "CLOVER PL, KITCHENER"
      }
    ]
  },
  {
    "postal": "N2A2A3",
    "result": [
      {
        "electoralDistricts": [
          {
            "election": null,
            "id": 47,
            "name": "Kitchener Centre"
          }
        ],
        "pollDivisionIds": [
          10139212
        ],
        "postalCode": "N2A2A3",
        "streetName": "DREGER",
        "streetDirectionId": null,
        "streetTypeId": "AVE",
        "placeName": "KITCHENER",
        "streetNameDisplayText": "DREGER AVE, KITCHENER"
      }
    ]
  },
  {
    "postal": "N2A0Z1",
    "result": []
  },
  {
    "postal": "N2A1C1",
    "result": [
      {
        "electoralDistricts": [
          {
            "election": null,
            "id": 47,
            "name": "Kitchener Centre"
          }
        ],
        "pollDivisionIds": [
          10139214
        ],
        "postalCode": "N2A1C1",
        "streetName": "WEBER",
        "streetDirectionId": "E",
        "streetTypeId": "ST",
        "placeName": "KITCHENER",
        "streetNameDisplayText": "WEBER ST E, KITCHENER"
      }
    ]
  },
  {
    "postal": "N2A0H3",
    "result": [
      {
        "electoralDistricts": [
          {
            "election": null,
            "id": 47,
            "name": "Kitchener Centre"
          }
        ],
        "pollDivisionIds": [
          10139221
        ],
        "postalCode": "N2A0H3",
        "streetName": "GRAND FLATS",
        "streetDirectionId": null,
        "streetTypeId": "TRAIL",
        "placeName": "KITCHENER",
        "streetNameDisplayText": "GRAND FLATS TRAIL, KITCHENER"
      },
      {
        "electoralDistricts": [
          {
            "election": null,
            "id": 47,
            "name": "Kitchener Centre"
          }
        ],
        "pollDivisionIds": [
          10139221
        ],
        "postalCode": "N2A0H3",
        "streetName": "OLD ZELLER",
        "streetDirectionId": null,
        "streetTypeId": "DR",
        "placeName": "KITCHENER",
        "streetNameDisplayText": "OLD ZELLER DR, KITCHENER"
      },
      {
        "electoralDistricts": [
          {
            "election": null,
            "id": 47,
            "name": "Kitchener Centre"
          }
        ],
        "pollDivisionIds": [
          10139221
        ],
        "postalCode": "N2A0H3",
        "streetName": "RIVERTRAIL",
        "streetDirectionId": null,
        "streetTypeId": "AVE",
        "placeName": "KITCHENER",
        "streetNameDisplayText": "RIVERTRAIL AVE, KITCHENER"
      },
      {
        "electoralDistricts": [
          {
            "election": null,
            "id": 47,
            "name": "Kitchener Centre"
          }
        ],
        "pollDivisionIds": [
          10139221
        ],
        "postalCode": "N2A0H3",
        "streetName": "WILLOWRUN",
        "streetDirectionId": null,
        "streetTypeId": "DR",
        "placeName": "KITCHENER",
        "streetNameDisplayText": "WILLOWRUN DR, KITCHENER"
      }
    ]
  },
  {
    "postal": "N2A7B0",
    "result": []
  },
  {
    "postal": "N2A5K2",
    "result": []
  },
  {
    "postal": "N2A1E9",
    "result": [
      {
        "electoralDistricts": [
          {
            "election": null,
            "id": 47,
            "name": "Kitchener Centre"
          }
        ],
        "pollDivisionIds": [
          10139212
        ],
        "postalCode": "N2A1E9",
        "streetName": "PENROSE",
        "streetDirectionId": null,
        "streetTypeId": "AVE",
        "placeName": "KITCHENER",
        "streetNameDisplayText": "PENROSE AVE, KITCHENER"
      }
    ]
  },
  {
    "postal": "N2A9W7",
    "result": []
  },
  {
    "postal": "N2A5W6",
    "result": []
  },
  {
    "postal": "N2A6S6",
    "result": []
  },
  {
    "postal": "N2A2P8",
    "result": [
      {
        "electoralDistricts": [
          {
            "election": null,
            "id": 49,
            "name": "Kitchener South—Hespeler"
          }
        ],
        "pollDivisionIds": [
          10139300
        ],
        "postalCode": "N2A2P8",
        "streetName": "VOLTA",
        "streetDirectionId": null,
        "streetTypeId": "AVE",
        "placeName": "KITCHENER",
        "streetNameDisplayText": "VOLTA AVE, KITCHENER"
      }
    ]
  },
  {
    "postal": "N2A4P8",
    "result": []
  },
  {
    "postal": "N2A0V9",
    "result": []
  },
  {
    "postal": "N2A5Y2",
    "result": []
  },
  {
    "postal": "N2A7Z7",
    "result": []
  },
  {
    "postal": "N2A6Y8",
    "result": []
  },
  {
    "postal": "N2A2G7",
    "result": [
      {
        "electoralDistricts": [
          {
            "election": null,
            "id": 47,
            "name": "Kitchener Centre"
          }
        ],
        "pollDivisionIds": [
          10139214
        ],
        "postalCode": "N2A2G7",
        "streetName": "PINECREST",
        "streetDirectionId": null,
        "streetTypeId": "DR",
        "placeName": "KITCHENER",
        "streetNameDisplayText": "PINECREST DR, KITCHENER"
      }
    ]
  },
  {
    "postal": "N2A8C1",
    "result": []
  },
  {
    "postal": "N2A5C5",
    "result": []
  },
  {
    "postal": "N2A2X8",
    "result": [
      {
        "electoralDistricts": [
          {
            "election": null,
            "id": 47,
            "name": "Kitchener Centre"
          }
        ],
        "pollDivisionIds": [
          10139214
        ],
        "postalCode": "N2A2X8",
        "streetName": "BROADVIEW",
        "streetDirectionId": null,
        "streetTypeId": "CRT",
        "placeName": "KITCHENER",
        "streetNameDisplayText": "BROADVIEW CRT, KITCHENER"
      }
    ]
  },
  {
    "postal": "N2A1W5",
    "result": [
      {
        "electoralDistricts": [
          {
            "election": null,
            "id": 47,
            "name": "Kitchener Centre"
          }
        ],
        "pollDivisionIds": [
          10139214
        ],
        "postalCode": "N2A1W5",
        "streetName": "KENNETH",
        "streetDirectionId": null,
        "streetTypeId": "AVE",
        "placeName": "KITCHENER",
        "streetNameDisplayText": "KENNETH AVE, KITCHENER"
      }
    ]
  },
  {
    "postal": "N2A7G0",
    "result": []
  },
  {
    "postal": "N2A8J8",
    "result": []
  },
  {
    "postal": "N2A3Y0",
    "result": []
  },
  {
    "postal": "N2A9T7",
    "result": []
  },
  {
    "postal": "N2A5P4",
    "result": []
  },
  {
    "postal": "N2A4B0",
    "result": []
  },
  {
    "postal": "N2A9N8",
    "result": []
  },
  {
    "postal": "N2A4A7",
    "result": []
  },
  {
    "postal": "N2A4H9",
    "result": [
      {
        "electoralDistricts": [
          {
            "election": null,
            "id": 47,
            "name": "Kitchener Centre"
          }
        ],
        "pollDivisionIds": [
          10139219
        ],
        "postalCode": "N2A4H9",
        "streetName": "LYNN",
        "streetDirectionId": null,
        "streetTypeId": "CRT",
        "placeName": "KITCHENER",
        "streetNameDisplayText": "LYNN CRT, KITCHENER"
      },
      {
        "electoralDistricts": [
          {
            "election": null,
            "id": 47,
            "name": "Kitchener Centre"
          }
        ],
        "pollDivisionIds": [
          10139219
        ],
        "postalCode": "N2A4H9",
        "streetName": "SANDWELL",
        "streetDirectionId": null,
        "streetTypeId": "CRT",
        "placeName": "KITCHENER",
        "streetNameDisplayText": "SANDWELL CRT, KITCHENER"
      }
    ]
  },
  {
    "postal": "N2A6X1",
    "result": []
  },
  {
    "postal": "N2A9Y7",
    "result": []
  },
  {
    "postal": "N2A2Y5",
    "result": [
      {
        "electoralDistricts": [
          {
            "election": null,
            "id": 47,
            "name": "Kitchener Centre"
          }
        ],
        "pollDivisionIds": [
          10139217
        ],
        "postalCode": "N2A2Y5",
        "streetName": "WEBER",
        "streetDirectionId": "E",
        "streetTypeId": "ST",
        "placeName": "KITCHENER",
        "streetNameDisplayText": "WEBER ST E, KITCHENER"
      }
    ]
  },
  {
    "postal": "N2A8L7",
    "result": []
  },
  {
    "postal": "N2A2A8",
    "result": [
      {
        "electoralDistricts": [
          {
            "election": null,
            "id": 47,
            "name": "Kitchener Centre"
          }
        ],
        "pollDivisionIds": [
          10139212
        ],
        "postalCode": "N2A2A8",
        "streetName": "MIDLAND",
        "streetDirectionId": null,
        "streetTypeId": "DR",
        "placeName": "KITCHENER",
        "streetNameDisplayText": "MIDLAND DR, KITCHENER"
      }
    ]
  },
  {
    "postal": "N2A2K9",
    "result": [
      {
        "electoralDistricts": [
          {
            "election": null,
            "id": 47,
            "name": "Kitchener Centre"
          }
        ],
        "pollDivisionIds": [
          10139217
        ],
        "postalCode": "N2A2K9",
        "streetName": "FLORENCE",
        "streetDirectionId": null,
        "streetTypeId": "AVE",
        "placeName": "KITCHENER",
        "streetNameDisplayText": "FLORENCE AVE, KITCHENER"
      }
    ]
  },
  {
    "postal": "N2A3E5",
    "result": [
      {
        "electoralDistricts": [
          {
            "election": null,
            "id": 49,
            "name": "Kitchener South—Hespeler"
          }
        ],
        "pollDivisionIds": [
          10139297
        ],
        "postalCode": "N2A3E5",
        "streetName": "WOODVIEW",
        "streetDirectionId": null,
        "streetTypeId": "CRES",
        "placeName": "KITCHENER",
        "streetNameDisplayText": "WOODVIEW CRES, KITCHENER"
      }
    ]
  },
  {
    "postal": "N2A8N6",
    "result": []
  },
  {
    "postal": "N2A8J4",
    "result": []
  },
  {
    "postal": "N2A4R7",
    "result": []
  },
  {
    "postal": "N2A9K1",
    "result": []
  },
  {
    "postal": "N2A8E1",
    "result": []
  },
  {
    "postal": "N2A0R1",
    "result": []
  },
  {
    "postal": "N2A4J3",
    "result": [
      {
        "electoralDistricts": [
          {
            "election": null,
            "id": 47,
            "name": "Kitchener Centre"
          }
        ],
        "pollDivisionIds": [
          10139240
        ],
        "postalCode": "N2A4J3",
        "streetName": "FRANKLIN",
        "streetDirectionId": "N",
        "streetTypeId": "ST",
        "placeName": "KITCHENER",
        "streetNameDisplayText": "FRANKLIN ST N, KITCHENER"
      }
    ]
  },
  {
    "postal": "N2A7E7",
    "result": []
  },
  {
    "postal": "N2A0J0",
    "result": []
  },
  {
    "postal": "N2A7R8",
    "result": []
  },
  {
    "postal": "N2A9X0",
    "result": []
  },
  {
    "postal": "N2A7P6",
    "result": []
  },
  {
    "postal": "N2A0R7",
    "result": []
  },
  {
    "postal": "N2A5W1",
    "result": []
  },
  {
    "postal": "N2A0K4",
    "result": [
      {
        "electoralDistricts": [
          {
            "election": null,
            "id": 47,
            "name": "Kitchener Centre"
          }
        ],
        "pollDivisionIds": [
          10139221
        ],
        "postalCode": "N2A0K4",
        "streetName": "RIVERTRAIL",
        "streetDirectionId": null,
        "streetTypeId": "AVE",
        "placeName": "KITCHENER",
        "streetNameDisplayText": "RIVERTRAIL AVE, KITCHENER"
      }
    ]
  },
  {
    "postal": "N2A7N9",
    "result": []
  },
  {
    "postal": "N2A1N0",
    "result": []
  },
  {
    "postal": "N2A6P3",
    "result": []
  },
  {
    "postal": "N2A5A1",
    "result": []
  },
  {
    "postal": "N2A9M9",
    "result": []
  },
  {
    "postal": "N2A7T6",
    "result": []
  },
  {
    "postal": "N2A3X0",
    "result": []
  },
  {
    "postal": "N2A2T0",
    "result": []
  },
  {
    "postal": "N2A5X9",
    "result": []
  },
  {
    "postal": "N2A2R3",
    "result": [
      {
        "electoralDistricts": [
          {
            "election": null,
            "id": 49,
            "name": "Kitchener South—Hespeler"
          }
        ],
        "pollDivisionIds": [
          10139297
        ],
        "postalCode": "N2A2R3",
        "streetName": "PEPPERWOOD",
        "streetDirectionId": null,
        "streetTypeId": "CRES",
        "placeName": "KITCHENER",
        "streetNameDisplayText": "PEPPERWOOD CRES, KITCHENER"
      }
    ]
  },
  {
    "postal": "N2A5N2",
    "result": []
  },
  {
    "postal": "N2A4Y7",
    "result": []
  },
  {
    "postal": "N2A7M0",
    "result": []
  },
  {
    "postal": "N2A8P3",
    "result": []
  },
  {
    "postal": "N2A3N3",
    "result": []
  },
  {
    "postal": "N2A7S3",
    "result": []
  },
  {
    "postal": "N2A3V9",
    "result": [
      {
        "electoralDistricts": [
          {
            "election": null,
            "id": 47,
            "name": "Kitchener Centre"
          }
        ],
        "pollDivisionIds": [
          10139220
        ],
        "postalCode": "N2A3V9",
        "streetName": "MICHENER",
        "streetDirectionId": null,
        "streetTypeId": "CRES",
        "placeName": "KITCHENER",
        "streetNameDisplayText": "MICHENER CRES, KITCHENER"
      }
    ]
  },
  {
    "postal": "N2A9N7",
    "result": []
  },
  {
    "postal": "N2A0G4",
    "result": [
      {
        "electoralDistricts": [
          {
            "election": null,
            "id": 47,
            "name": "Kitchener Centre"
          }
        ],
        "pollDivisionIds": [
          10139221
        ],
        "postalCode": "N2A0G4",
        "streetName": "EDEN OAK",
        "streetDirectionId": null,
        "streetTypeId": "TRAIL",
        "placeName": "KITCHENER",
        "streetNameDisplayText": "EDEN OAK TRAIL, KITCHENER"
      },
      {
        "electoralDistricts": [
          {
            "election": null,
            "id": 47,
            "name": "Kitchener Centre"
          }
        ],
        "pollDivisionIds": [
          10139221
        ],
        "postalCode": "N2A0G4",
        "streetName": "RIVER RIDGE",
        "streetDirectionId": null,
        "streetTypeId": "ST",
        "placeName": "KITCHENER",
        "streetNameDisplayText": "RIVER RIDGE ST, KITCHENER"
      }
    ]
  },
  {
    "postal": "N2A2E2",
    "result": [
      {
        "electoralDistricts": [
          {
            "election": null,
            "id": 47,
            "name": "Kitchener Centre"
          }
        ],
        "pollDivisionIds": [
          10139216
        ],
        "postalCode": "N2A2E2",
        "streetName": "HOLBORN",
        "streetDirectionId": null,
        "streetTypeId": "DR",
        "placeName": "KITCHENER",
        "streetNameDisplayText": "HOLBORN DR, KITCHENER"
      }
    ]
  },
  {
    "postal": "N2A7W8",
    "result": []
  },
  {
    "postal": "N2A7M5",
    "result": []
  },
  {
    "postal": "N2A5W8",
    "result": []
  },
  {
    "postal": "N2A5E5",
    "result": []
  },
  {
    "postal": "N2A1P9",
    "result": [
      {
        "electoralDistricts": [
          {
            "election": null,
            "id": 47,
            "name": "Kitchener Centre"
          }
        ],
        "pollDivisionIds": [
          10139217
        ],
        "postalCode": "N2A1P9",
        "streetName": "RUTHERFORD",
        "streetDirectionId": null,
        "streetTypeId": "DR",
        "placeName": "KITCHENER",
        "streetNameDisplayText": "RUTHERFORD DR, KITCHENER"
      }
    ]
  },
  {
    "postal": "N2A8V8",
    "result": []
  },
  {
    "postal": "N2A9G8",
    "result": []
  },
  {
    "postal": "N2A8H9",
    "result": []
  },
  {
    "postal": "N2A1Z1",
    "result": [
      {
        "electoralDistricts": [
          {
            "election": null,
            "id": 47,
            "name": "Kitchener Centre"
          }
        ],
        "pollDivisionIds": [
          10139212
        ],
        "postalCode": "N2A1Z1",
        "streetName": "FRANKLIN",
        "streetDirectionId": "N",
        "streetTypeId": "ST",
        "placeName": "KITCHENER",
        "streetNameDisplayText": "FRANKLIN ST N, KITCHENER"
      }
    ]
  },
  {
    "postal": "N2A8M3",
    "result": []
  },
  {
    "postal": "N2A5H6",
    "result": []
  },
  {
    "postal": "N2A7W7",
    "result": []
  },
  {
    "postal": "N2A4L0",
    "result": []
  },
  {
    "postal": "N2A2N1",
    "result": [
      {
        "electoralDistricts": [
          {
            "election": null,
            "id": 49,
            "name": "Kitchener South—Hespeler"
          }
        ],
        "pollDivisionIds": [
          10139297
        ],
        "postalCode": "N2A2N1",
        "streetName": "MORGAN",
        "streetDirectionId": null,
        "streetTypeId": "AVE",
        "placeName": "KITCHENER",
        "streetNameDisplayText": "MORGAN AVE, KITCHENER"
      }
    ]
  },
  {
    "postal": "N2A2H4",
    "result": [
      {
        "electoralDistricts": [
          {
            "election": null,
            "id": 47,
            "name": "Kitchener Centre"
          }
        ],
        "pollDivisionIds": [
          10139217
        ],
        "postalCode": "N2A2H4",
        "streetName": "FERGUS",
        "streetDirectionId": null,
        "streetTypeId": "AVE",
        "placeName": "KITCHENER",
        "streetNameDisplayText": "FERGUS AVE, KITCHENER"
      }
    ]
  },
  {
    "postal": "N2A5C8",
    "result": []
  },
  {
    "postal": "N2A8B0",
    "result": []
  },
  {
    "postal": "N2A1T4",
    "result": [
      {
        "electoralDistricts": [
          {
            "election": null,
            "id": 49,
            "name": "Kitchener South—Hespeler"
          }
        ],
        "pollDivisionIds": [
          10139300
        ],
        "postalCode": "N2A1T4",
        "streetName": "CHICOPEE",
        "streetDirectionId": null,
        "streetTypeId": "TERR",
        "placeName": "KITCHENER",
        "streetNameDisplayText": "CHICOPEE TERR, KITCHENER"
      }
    ]
  },
  {
    "postal": "N2A7N7",
    "result": []
  },
  {
    "postal": "N2A4L3",
    "result": [
      {
        "electoralDistricts": [
          {
            "election": null,
            "id": 49,
            "name": "Kitchener South—Hespeler"
          }
        ],
        "pollDivisionIds": [
          10139302
        ],
        "postalCode": "N2A4L3",
        "streetName": "GRASSWOOD",
        "streetDirectionId": null,
        "streetTypeId": "ST",
        "placeName": "KITCHENER",
        "streetNameDisplayText": "GRASSWOOD ST, KITCHENER"
      },
      {
        "electoralDistricts": [
          {
            "election": null,
            "id": 49,
            "name": "Kitchener South—Hespeler"
          }
        ],
        "pollDivisionIds": [
          10139302
        ],
        "postalCode": "N2A4L3",
        "streetName": "WATERBEND",
        "streetDirectionId": null,
        "streetTypeId": "CRES",
        "placeName": "KITCHENER",
        "streetNameDisplayText": "WATERBEND CRES, KITCHENER"
      }
    ]
  },
  {
    "postal": "N2A2N2",
    "result": [
      {
        "electoralDistricts": [
          {
            "election": null,
            "id": 47,
            "name": "Kitchener Centre"
          }
        ],
        "pollDivisionIds": [
          10139217
        ],
        "postalCode": "N2A2N2",
        "streetName": "FAIRWAY",
        "streetDirectionId": "S",
        "streetTypeId": "RD",
        "placeName": "KITCHENER",
        "streetNameDisplayText": "FAIRWAY RD S, KITCHENER"
      }
    ]
  },
  {
    "postal": "N2A4N8",
    "result": []
  },
  {
    "postal": "N2A3M5",
    "result": [
      {
        "electoralDistricts": [
          {
            "election": null,
            "id": 47,
            "name": "Kitchener Centre"
          }
        ],
        "pollDivisionIds": [
          10139216
        ],
        "postalCode": "N2A3M5",
        "streetName": "DARLINGTON",
        "streetDirectionId": null,
        "streetTypeId": "PL",
        "placeName": "KITCHENER",
        "streetNameDisplayText": "DARLINGTON PL, KITCHENER"
      },
      {
        "electoralDistricts": [
          {
            "election": null,
            "id": 47,
            "name": "Kitchener Centre"
          }
        ],
        "pollDivisionIds": [
          10139216
        ],
        "postalCode": "N2A3M5",
        "streetName": "DUNNINGTON",
        "streetDirectionId": null,
        "streetTypeId": "CRT",
        "placeName": "KITCHENER",
        "streetNameDisplayText": "DUNNINGTON CRT, KITCHENER"
      }
    ]
  },
  {
    "postal": "N2A6H7",
    "result": []
  },
  {
    "postal": "N2A8Y8",
    "result": []
  },
  {
    "postal": "N2A5R9",
    "result": []
  },
  {
    "postal": "N2A8G3",
    "result": []
  },
  {
    "postal": "N2A4N7",
    "result": []
  },
  {
    "postal": "N2A0B9",
    "result": [
      {
        "electoralDistricts": [
          {
            "election": null,
            "id": 49,
            "name": "Kitchener South—Hespeler"
          }
        ],
        "pollDivisionIds": [
          10139302
        ],
        "postalCode": "N2A0B9",
        "streetName": "UPPER MERCER",
        "streetDirectionId": null,
        "streetTypeId": "ST",
        "placeName": "KITCHENER",
        "streetNameDisplayText": "UPPER MERCER ST, KITCHENER"
      }
    ]
  },
  {
    "postal": "N2A9K7",
    "result": []
  },
  {
    "postal": "N2A9K9",
    "result": []
  },
  {
    "postal": "N2A3Z2",
    "result": [
      {
        "electoralDistricts": [
          {
            "election": null,
            "id": 47,
            "name": "Kitchener Centre"
          }
        ],
        "pollDivisionIds": [
          10139216
        ],
        "postalCode": "N2A3Z2",
        "streetName": "HOLBORN",
        "streetDirectionId": null,
        "streetTypeId": "DR",
        "placeName": "KITCHENER",
        "streetNameDisplayText": "HOLBORN DR, KITCHENER"
      }
    ]
  },
  {
    "postal": "N2A6W7",
    "result": []
  },
  {
    "postal": "N2A0P1",
    "result": []
  },
  {
    "postal": "N2A3A0",
    "result": []
  },
  {
    "postal": "N2A8L9",
    "result": []
  },
  {
    "postal": "N2A6X0",
    "result": []
  },
  {
    "postal": "N2A3E9",
    "result": [
      {
        "electoralDistricts": [
          {
            "election": null,
            "id": 49,
            "name": "Kitchener South—Hespeler"
          }
        ],
        "pollDivisionIds": [
          10139300
        ],
        "postalCode": "N2A3E9",
        "streetName": "ONEIDA",
        "streetDirectionId": null,
        "streetTypeId": "PL",
        "placeName": "KITCHENER",
        "streetNameDisplayText": "ONEIDA PL, KITCHENER"
      }
    ]
  },
  {
    "postal": "N2A0S5",
    "result": []
  },
  {
    "postal": "N2A1A2",
    "result": []
  },
  {
    "postal": "N2A5V8",
    "result": []
  },
  {
    "postal": "N2A8C5",
    "result": []
  },
  {
    "postal": "N2A6N0",
    "result": []
  },
  {
    "postal": "N2A9E6",
    "result": []
  },
  {
    "postal": "N2A5J7",
    "result": []
  },
  {
    "postal": "N2A2R2",
    "result": [
      {
        "electoralDistricts": [
          {
            "election": null,
            "id": 49,
            "name": "Kitchener South—Hespeler"
          }
        ],
        "pollDivisionIds": [
          10139297
        ],
        "postalCode": "N2A2R2",
        "streetName": "SOUTHILL",
        "streetDirectionId": null,
        "streetTypeId": "DR",
        "placeName": "KITCHENER",
        "streetNameDisplayText": "SOUTHILL DR, KITCHENER"
      }
    ]
  },
  {
    "postal": "N2A0P5",
    "result": []
  },
  {
    "postal": "N2A5A7",
    "result": []
  },
  {
    "postal": "N2A1G1",
    "result": [
      {
        "electoralDistricts": [
          {
            "election": null,
            "id": 47,
            "name": "Kitchener Centre"
          }
        ],
        "pollDivisionIds": [
          10139212
        ],
        "postalCode": "N2A1G1",
        "streetName": "PENROSE",
        "streetDirectionId": null,
        "streetTypeId": "AVE",
        "placeName": "KITCHENER",
        "streetNameDisplayText": "PENROSE AVE, KITCHENER"
      }
    ]
  },
  {
    "postal": "N2A9R6",
    "result": []
  },
  {
    "postal": "N2A4Z9",
    "result": []
  },
  {
    "postal": "N2A1V5",
    "result": [
      {
        "electoralDistricts": [
          {
            "election": null,
            "id": 47,
            "name": "Kitchener Centre"
          }
        ],
        "pollDivisionIds": [
          10139214
        ],
        "postalCode": "N2A1V5",
        "streetName": "ROSS",
        "streetDirectionId": null,
        "streetTypeId": "AVE",
        "placeName": "KITCHENER",
        "streetNameDisplayText": "ROSS AVE, KITCHENER"
      }
    ]
  },
  {
    "postal": "N2A9Y5",
    "result": []
  },
  {
    "postal": "N2A1P2",
    "result": [
      {
        "electoralDistricts": [
          {
            "election": null,
            "id": 47,
            "name": "Kitchener Centre"
          }
        ],
        "pollDivisionIds": [
          10139217
        ],
        "postalCode": "N2A1P2",
        "streetName": "JEAN",
        "streetDirectionId": null,
        "streetTypeId": "AVE",
        "placeName": "KITCHENER",
        "streetNameDisplayText": "JEAN AVE, KITCHENER"
      }
    ]
  },
  {
    "postal": "N2A5X0",
    "result": []
  },
  {
    "postal": "N2A7B8",
    "result": []
  },
  {
    "postal": "N2A0C6",
    "result": [
      {
        "electoralDistricts": [
          {
            "election": null,
            "id": 47,
            "name": "Kitchener Centre"
          }
        ],
        "pollDivisionIds": [
          10139221
        ],
        "postalCode": "N2A0C6",
        "streetName": "OLD ZELLER",
        "streetDirectionId": null,
        "streetTypeId": "DR",
        "placeName": "KITCHENER",
        "streetNameDisplayText": "OLD ZELLER DR, KITCHENER"
      }
    ]
  },
  {
    "postal": "N2A6G1",
    "result": []
  },
  {
    "postal": "N2A3K3",
    "result": [
      {
        "electoralDistricts": [
          {
            "election": null,
            "id": 49,
            "name": "Kitchener South—Hespeler"
          }
        ],
        "pollDivisionIds": [
          10139300
        ],
        "postalCode": "N2A3K3",
        "streetName": "QUINTE",
        "streetDirectionId": null,
        "streetTypeId": "CRES",
        "placeName": "KITCHENER",
        "streetNameDisplayText": "QUINTE CRES, KITCHENER"
      }
    ]
  },
  {
    "postal": "N2A9R0",
    "result": []
  },
  {
    "postal": "N2A4R8",
    "result": []
  },
  {
    "postal": "N2A5P9",
    "result": []
  },
  {
    "postal": "N2A8N4",
    "result": []
  },
  {
    "postal": "N2A8H4",
    "result": []
  },
  {
    "postal": "N2A4V1",
    "result": []
  },
  {
    "postal": "N2A1K5",
    "result": [
      {
        "electoralDistricts": [
          {
            "election": null,
            "id": 47,
            "name": "Kitchener Centre"
          }
        ],
        "pollDivisionIds": [
          10139214
        ],
        "postalCode": "N2A1K5",
        "streetName": "BRADLEY",
        "streetDirectionId": null,
        "streetTypeId": "DR",
        "placeName": "KITCHENER",
        "streetNameDisplayText": "BRADLEY DR, KITCHENER"
      }
    ]
  },
  {
    "postal": "N2A1Z5",
    "result": [
      {
        "electoralDistricts": [
          {
            "election": null,
            "id": 47,
            "name": "Kitchener Centre"
          }
        ],
        "pollDivisionIds": [
          10139214
        ],
        "postalCode": "N2A1Z5",
        "streetName": "TRAFALGAR",
        "streetDirectionId": null,
        "streetTypeId": "AVE",
        "placeName": "KITCHENER",
        "streetNameDisplayText": "TRAFALGAR AVE, KITCHENER"
      }
    ]
  },
  {
    "postal": "N2A9L9",
    "result": []
  },
  {
    "postal": "N2A5L2",
    "result": []
  },
  {
    "postal": "N2A0M2",
    "result": []
  },
  {
    "postal": "N2A1K8",
    "result": [
      {
        "electoralDistricts": [
          {
            "election": null,
            "id": 47,
            "name": "Kitchener Centre"
          }
        ],
        "pollDivisionIds": [
          10139212
        ],
        "postalCode": "N2A1K8",
        "streetName": "BRADLEY",
        "streetDirectionId": null,
        "streetTypeId": "DR",
        "placeName": "KITCHENER",
        "streetNameDisplayText": "BRADLEY DR, KITCHENER"
      }
    ]
  },
  {
    "postal": "N2A3M7",
    "result": [
      {
        "electoralDistricts": [
          {
            "election": null,
            "id": 47,
            "name": "Kitchener Centre"
          }
        ],
        "pollDivisionIds": [
          10139219
        ],
        "postalCode": "N2A3M7",
        "streetName": "EDENBRIDGE",
        "streetDirectionId": null,
        "streetTypeId": "DR",
        "placeName": "KITCHENER",
        "streetNameDisplayText": "EDENBRIDGE DR, KITCHENER"
      },
      {
        "electoralDistricts": [
          {
            "election": null,
            "id": 47,
            "name": "Kitchener Centre"
          }
        ],
        "pollDivisionIds": [
          10139219
        ],
        "postalCode": "N2A3M7",
        "streetName": "EDENBRIDGE",
        "streetDirectionId": null,
        "streetTypeId": "PL",
        "placeName": "KITCHENER",
        "streetNameDisplayText": "EDENBRIDGE PL, KITCHENER"
      },
      {
        "electoralDistricts": [
          {
            "election": null,
            "id": 47,
            "name": "Kitchener Centre"
          }
        ],
        "pollDivisionIds": [
          10139219
        ],
        "postalCode": "N2A3M7",
        "streetName": "TEMPLETON",
        "streetDirectionId": null,
        "streetTypeId": "DR",
        "placeName": "KITCHENER",
        "streetNameDisplayText": "TEMPLETON DR, KITCHENER"
      }
    ]
  },
  {
    "postal": "N2A1B2",
    "result": [
      {
        "electoralDistricts": [
          {
            "election": null,
            "id": 49,
            "name": "Kitchener South—Hespeler"
          }
        ],
        "pollDivisionIds": [
          10139297
        ],
        "postalCode": "N2A1B2",
        "streetName": "KING",
        "streetDirectionId": "E",
        "streetTypeId": "ST",
        "placeName": "KITCHENER",
        "streetNameDisplayText": "KING ST E, KITCHENER"
      }
    ]
  },
  {
    "postal": "N2A0H9",
    "result": [
      {
        "electoralDistricts": [
          {
            "election": null,
            "id": 47,
            "name": "Kitchener Centre"
          }
        ],
        "pollDivisionIds": [
          10139221
        ],
        "postalCode": "N2A0H9",
        "streetName": "EDEN OAK",
        "streetDirectionId": null,
        "streetTypeId": "TRAIL",
        "placeName": "KITCHENER",
        "streetNameDisplayText": "EDEN OAK TRAIL, KITCHENER"
      },
      {
        "electoralDistricts": [
          {
            "election": null,
            "id": 47,
            "name": "Kitchener Centre"
          }
        ],
        "pollDivisionIds": [
          10139221
        ],
        "postalCode": "N2A0H9",
        "streetName": "RIVERTRAIL",
        "streetDirectionId": null,
        "streetTypeId": "AVE",
        "placeName": "KITCHENER",
        "streetNameDisplayText": "RIVERTRAIL AVE, KITCHENER"
      }
    ]
  },
  {
    "postal": "N2A8M4",
    "result": []
  },
  {
    "postal": "N2A2M5",
    "result": [
      {
        "electoralDistricts": [
          {
            "election": null,
            "id": 49,
            "name": "Kitchener South—Hespeler"
          }
        ],
        "pollDivisionIds": [
          10139297
        ],
        "postalCode": "N2A2M5",
        "streetName": "MORGAN",
        "streetDirectionId": null,
        "streetTypeId": "AVE",
        "placeName": "KITCHENER",
        "streetNameDisplayText": "MORGAN AVE, KITCHENER"
      }
    ]
  },
  {
    "postal": "N2A0T9",
    "result": []
  },
  {
    "postal": "N2A3P1",
    "result": [
      {
        "electoralDistricts": [
          {
            "election": null,
            "id": 47,
            "name": "Kitchener Centre"
          }
        ],
        "pollDivisionIds": [
          10139220
        ],
        "postalCode": "N2A3P1",
        "streetName": "CASEY",
        "streetDirectionId": null,
        "streetTypeId": "DR",
        "placeName": "KITCHENER",
        "streetNameDisplayText": "CASEY DR, KITCHENER"
      }
    ]
  },
  {
    "postal": "N2A1R6",
    "result": [
      {
        "electoralDistricts": [
          {
            "election": null,
            "id": 49,
            "name": "Kitchener South—Hespeler"
          }
        ],
        "pollDivisionIds": [
          10139297
        ],
        "postalCode": "N2A1R6",
        "streetName": "THALER",
        "streetDirectionId": null,
        "streetTypeId": "AVE",
        "placeName": "KITCHENER",
        "streetNameDisplayText": "THALER AVE, KITCHENER"
      }
    ]
  },
  {
    "postal": "N2A9V5",
    "result": []
  },
  {
    "postal": "N2A9T0",
    "result": []
  },
  {
    "postal": "N2A0A9",
    "result": [
      {
        "electoralDistricts": [
          {
            "election": null,
            "id": 49,
            "name": "Kitchener South—Hespeler"
          }
        ],
        "pollDivisionIds": [
          10139300
        ],
        "postalCode": "N2A0A9",
        "streetName": "BEAUMONT",
        "streetDirectionId": null,
        "streetTypeId": "CRES",
        "placeName": "KITCHENER",
        "streetNameDisplayText": "BEAUMONT CRES, KITCHENER"
      },
      {
        "electoralDistricts": [
          {
            "election": null,
            "id": 49,
            "name": "Kitchener South—Hespeler"
          }
        ],
        "pollDivisionIds": [
          10139300
        ],
        "postalCode": "N2A0A9",
        "streetName": "SIMS ESTATE",
        "streetDirectionId": null,
        "streetTypeId": "DR",
        "placeName": "KITCHENER",
        "streetNameDisplayText": "SIMS ESTATE DR, KITCHENER"
      }
    ]
  },
  {
    "postal": "N2A1M3",
    "result": [
      {
        "electoralDistricts": [
          {
            "election": null,
            "id": 47,
            "name": "Kitchener Centre"
          }
        ],
        "pollDivisionIds": [
          10139216
        ],
        "postalCode": "N2A1M3",
        "streetName": "WAYNE",
        "streetDirectionId": null,
        "streetTypeId": "DR",
        "placeName": "KITCHENER",
        "streetNameDisplayText": "WAYNE DR, KITCHENER"
      }
    ]
  },
  {
    "postal": "N2A1W8",
    "result": [
      {
        "electoralDistricts": [
          {
            "election": null,
            "id": 47,
            "name": "Kitchener Centre"
          }
        ],
        "pollDivisionIds": [
          10139214
        ],
        "postalCode": "N2A1W8",
        "streetName": "WILFRED",
        "streetDirectionId": null,
        "streetTypeId": "AVE",
        "placeName": "KITCHENER",
        "streetNameDisplayText": "WILFRED AVE, KITCHENER"
      }
    ]
  },
  {
    "postal": "N2A9J1",
    "result": []
  },
  {
    "postal": "N2A8N5",
    "result": []
  },
  {
    "postal": "N2A5X1",
    "result": []
  },
  {
    "postal": "N2A6S2",
    "result": []
  },
  {
    "postal": "N2A2A2",
    "result": [
      {
        "electoralDistricts": [
          {
            "election": null,
            "id": 47,
            "name": "Kitchener Centre"
          }
        ],
        "pollDivisionIds": [
          10139212
        ],
        "postalCode": "N2A2A2",
        "streetName": "EASTWOOD",
        "streetDirectionId": null,
        "streetTypeId": "DR",
        "placeName": "KITCHENER",
        "streetNameDisplayText": "EASTWOOD DR, KITCHENER"
      }
    ]
  },
  {
    "postal": "N2A6A6",
    "result": []
  },
  {
    "postal": "N2A0S3",
    "result": []
  },
  {
    "postal": "N2A3E7",
    "result": []
  },
  {
    "postal": "N2A5R7",
    "result": []
  },
  {
    "postal": "N2A3R6",
    "result": [
      {
        "electoralDistricts": [
          {
            "election": null,
            "id": 47,
            "name": "Kitchener Centre"
          }
        ],
        "pollDivisionIds": [
          10139220
        ],
        "postalCode": "N2A3R6",
        "streetName": "BRIERDALE",
        "streetDirectionId": null,
        "streetTypeId": "DR",
        "placeName": "KITCHENER",
        "streetNameDisplayText": "BRIERDALE DR, KITCHENER"
      },
      {
        "electoralDistricts": [
          {
            "election": null,
            "id": 47,
            "name": "Kitchener Centre"
          }
        ],
        "pollDivisionIds": [
          10139220
        ],
        "postalCode": "N2A3R6",
        "streetName": "QUAISER",
        "streetDirectionId": null,
        "streetTypeId": "ST",
        "placeName": "KITCHENER",
        "streetNameDisplayText": "QUAISER ST, KITCHENER"
      },
      {
        "electoralDistricts": [
          {
            "election": null,
            "id": 47,
            "name": "Kitchener Centre"
          }
        ],
        "pollDivisionIds": [
          10139220
        ],
        "postalCode": "N2A3R6",
        "streetName": "WENDY",
        "streetDirectionId": null,
        "streetTypeId": "CRES",
        "placeName": "KITCHENER",
        "streetNameDisplayText": "WENDY CRES, KITCHENER"
      }
    ]
  },
  {
    "postal": "N2A6K4",
    "result": []
  },
  {
    "postal": "N2A2W5",
    "result": [
      {
        "electoralDistricts": [
          {
            "election": null,
            "id": 47,
            "name": "Kitchener Centre"
          }
        ],
        "pollDivisionIds": [
          10139216
        ],
        "postalCode": "N2A2W5",
        "streetName": "SHAFTSBURY",
        "streetDirectionId": null,
        "streetTypeId": "DR",
        "placeName": "KITCHENER",
        "streetNameDisplayText": "SHAFTSBURY DR, KITCHENER"
      }
    ]
  },
  {
    "postal": "N2A8W4",
    "result": []
  },
  {
    "postal": "N2A9C2",
    "result": []
  },
  {
    "postal": "N2A2C0",
    "result": []
  },
  {
    "postal": "N2A0E1",
    "result": [
      {
        "electoralDistricts": [
          {
            "election": null,
            "id": 47,
            "name": "Kitchener Centre"
          }
        ],
        "pollDivisionIds": [
          10139240,
          10139214
        ],
        "postalCode": "N2A0E1",
        "streetName": "FRANKLIN",
        "streetDirectionId": "N",
        "streetTypeId": "ST",
        "placeName": "KITCHENER",
        "streetNameDisplayText": "FRANKLIN ST N, KITCHENER"
      }
    ]
  },
  {
    "postal": "N2A1K9",
    "result": [
      {
        "electoralDistricts": [
          {
            "election": null,
            "id": 47,
            "name": "Kitchener Centre"
          }
        ],
        "pollDivisionIds": [
          10139212
        ],
        "postalCode": "N2A1K9",
        "streetName": "ASKIN",
        "streetDirectionId": null,
        "streetTypeId": "PL",
        "placeName": "KITCHENER",
        "streetNameDisplayText": "ASKIN PL, KITCHENER"
      }
    ]
  },
  {
    "postal": "N2A1G7",
    "result": [
      {
        "electoralDistricts": [
          {
            "election": null,
            "id": 47,
            "name": "Kitchener Centre"
          }
        ],
        "pollDivisionIds": [
          10139212
        ],
        "postalCode": "N2A1G7",
        "streetName": "GRABER",
        "streetDirectionId": null,
        "streetTypeId": "PL",
        "placeName": "KITCHENER",
        "streetNameDisplayText": "GRABER PL, KITCHENER"
      }
    ]
  },
  {
    "postal": "N2A4E9",
    "result": [
      {
        "electoralDistricts": [
          {
            "election": null,
            "id": 47,
            "name": "Kitchener Centre"
          }
        ],
        "pollDivisionIds": [
          10139219
        ],
        "postalCode": "N2A4E9",
        "streetName": "VERONICA",
        "streetDirectionId": null,
        "streetTypeId": "DR",
        "placeName": "KITCHENER",
        "streetNameDisplayText": "VERONICA DR, KITCHENER"
      }
    ]
  },
  {
    "postal": "N2A9P0",
    "result": []
  },
  {
    "postal": "N2A5H3",
    "result": []
  },
  {
    "postal": "N2A9X6",
    "result": []
  },
  {
    "postal": "N2A5N7",
    "result": []
  },
  {
    "postal": "N2A5A6",
    "result": []
  },
  {
    "postal": "N2A4M0",
    "result": []
  },
  {
    "postal": "N2A3V6",
    "result": [
      {
        "electoralDistricts": [
          {
            "election": null,
            "id": 47,
            "name": "Kitchener Centre"
          }
        ],
        "pollDivisionIds": [
          10139220
        ],
        "postalCode": "N2A3V6",
        "streetName": "MICHENER",
        "streetDirectionId": null,
        "streetTypeId": "CRES",
        "placeName": "KITCHENER",
        "streetNameDisplayText": "MICHENER CRES, KITCHENER"
      }
    ]
  },
  {
    "postal": "N2A1L7",
    "result": [
      {
        "electoralDistricts": [
          {
            "election": null,
            "id": 47,
            "name": "Kitchener Centre"
          }
        ],
        "pollDivisionIds": [
          10139216
        ],
        "postalCode": "N2A1L7",
        "streetName": "WREN",
        "streetDirectionId": null,
        "streetTypeId": "PL",
        "placeName": "KITCHENER",
        "streetNameDisplayText": "WREN PL, KITCHENER"
      }
    ]
  },
  {
    "postal": "N2A2P9",
    "result": [
      {
        "electoralDistricts": [
          {
            "election": null,
            "id": 49,
            "name": "Kitchener South—Hespeler"
          }
        ],
        "pollDivisionIds": [
          10139300
        ],
        "postalCode": "N2A2P9",
        "streetName": "VOLTA",
        "streetDirectionId": null,
        "streetTypeId": "AVE",
        "placeName": "KITCHENER",
        "streetNameDisplayText": "VOLTA AVE, KITCHENER"
      }
    ]
  },
  {
    "postal": "N2A5T4",
    "result": []
  },
  {
    "postal": "N2A5Z1",
    "result": []
  },
  {
    "postal": "N2A2X0",
    "result": []
  },
  {
    "postal": "N2A6Z2",
    "result": []
  },
  {
    "postal": "N2A0E0",
    "result": []
  },
  {
    "postal": "N2A3Z5",
    "result": [
      {
        "electoralDistricts": [
          {
            "election": null,
            "id": 49,
            "name": "Kitchener South—Hespeler"
          }
        ],
        "pollDivisionIds": [
          10139300
        ],
        "postalCode": "N2A3Z5",
        "streetName": "CHANDOS",
        "streetDirectionId": null,
        "streetTypeId": "DR",
        "placeName": "KITCHENER",
        "streetNameDisplayText": "CHANDOS DR, KITCHENER"
      }
    ]
  },
  {
    "postal": "N2A8H3",
    "result": []
  },
  {
    "postal": "N2A7S6",
    "result": []
  },
  {
    "postal": "N2A4C1",
    "result": [
      {
        "electoralDistricts": [
          {
            "election": null,
            "id": 49,
            "name": "Kitchener South—Hespeler"
          }
        ],
        "pollDivisionIds": [
          10139302
        ],
        "postalCode": "N2A4C1",
        "streetName": "FAIRWAY",
        "streetDirectionId": null,
        "streetTypeId": "CRES",
        "placeName": "KITCHENER",
        "streetNameDisplayText": "FAIRWAY CRES, KITCHENER"
      }
    ]
  },
  {
    "postal": "N2A3K2",
    "result": [
      {
        "electoralDistricts": [
          {
            "election": null,
            "id": 49,
            "name": "Kitchener South—Hespeler"
          }
        ],
        "pollDivisionIds": [
          10139300
        ],
        "postalCode": "N2A3K2",
        "streetName": "QUINTE",
        "streetDirectionId": null,
        "streetTypeId": "CRES",
        "placeName": "KITCHENER",
        "streetNameDisplayText": "QUINTE CRES, KITCHENER"
      },
      {
        "electoralDistricts": [
          {
            "election": null,
            "id": 49,
            "name": "Kitchener South—Hespeler"
          }
        ],
        "pollDivisionIds": [
          10139300
        ],
        "postalCode": "N2A3K2",
        "streetName": "QUINTE",
        "streetDirectionId": null,
        "streetTypeId": "CRT",
        "placeName": "KITCHENER",
        "streetNameDisplayText": "QUINTE CRT, KITCHENER"
      }
    ]
  },
  {
    "postal": "N2A1Y5",
    "result": [
      {
        "electoralDistricts": [
          {
            "election": null,
            "id": 47,
            "name": "Kitchener Centre"
          }
        ],
        "pollDivisionIds": [
          10139240
        ],
        "postalCode": "N2A1Y5",
        "streetName": "FRANKLIN",
        "streetDirectionId": "N",
        "streetTypeId": "ST",
        "placeName": "KITCHENER",
        "streetNameDisplayText": "FRANKLIN ST N, KITCHENER"
      }
    ]
  },
  {
    "postal": "N2A6P6",
    "result": []
  },
  {
    "postal": "N2A3N9",
    "result": [
      {
        "electoralDistricts": [
          {
            "election": null,
            "id": 47,
            "name": "Kitchener Centre"
          }
        ],
        "pollDivisionIds": [
          10139216
        ],
        "postalCode": "N2A3N9",
        "streetName": "HERITAGE",
        "streetDirectionId": null,
        "streetTypeId": "DR",
        "placeName": "KITCHENER",
        "streetNameDisplayText": "HERITAGE DR, KITCHENER"
      },
      {
        "electoralDistricts": [
          {
            "election": null,
            "id": 47,
            "name": "Kitchener Centre"
          }
        ],
        "pollDivisionIds": [
          10139216,
          10139220
        ],
        "postalCode": "N2A3N9",
        "streetName": "OLDFIELD",
        "streetDirectionId": null,
        "streetTypeId": "DR",
        "placeName": "KITCHENER",
        "streetNameDisplayText": "OLDFIELD DR, KITCHENER"
      }
    ]
  },
  {
    "postal": "N2A3W2",
    "result": [
      {
        "electoralDistricts": [
          {
            "election": null,
            "id": 47,
            "name": "Kitchener Centre"
          }
        ],
        "pollDivisionIds": [
          10139219,
          10139220
        ],
        "postalCode": "N2A3W2",
        "streetName": "DAIMLER",
        "streetDirectionId": null,
        "streetTypeId": "DR",
        "placeName": "KITCHENER",
        "streetNameDisplayText": "DAIMLER DR, KITCHENER"
      },
      {
        "electoralDistricts": [
          {
            "election": null,
            "id": 47,
            "name": "Kitchener Centre"
          }
        ],
        "pollDivisionIds": [
          10139220
        ],
        "postalCode": "N2A3W2",
        "streetName": "IDLE RIDGE",
        "streetDirectionId": null,
        "streetTypeId": "CRT",
        "placeName": "KITCHENER",
        "streetNameDisplayText": "IDLE RIDGE CRT, KITCHENER"
      },
      {
        "electoralDistricts": [
          {
            "election": null,
            "id": 47,
            "name": "Kitchener Centre"
          }
        ],
        "pollDivisionIds": [
          10139219
        ],
        "postalCode": "N2A3W2",
        "streetName": "ROLLING ACRES",
        "streetDirectionId": null,
        "streetTypeId": "DR",
        "placeName": "KITCHENER",
        "streetNameDisplayText": "ROLLING ACRES DR, KITCHENER"
      }
    ]
  },
  {
    "postal": "N2A6H8",
    "result": []
  },
  {
    "postal": "N2A9T3",
    "result": []
  },
  {
    "postal": "N2A5L9",
    "result": []
  },
  {
    "postal": "N2A7X7",
    "result": []
  },
  {
    "postal": "N2A3J5",
    "result": [
      {
        "electoralDistricts": [
          {
            "election": null,
            "id": 49,
            "name": "Kitchener South—Hespeler"
          }
        ],
        "pollDivisionIds": [
          10139300
        ],
        "postalCode": "N2A3J5",
        "streetName": "MORRISON",
        "streetDirectionId": null,
        "streetTypeId": "RD",
        "placeName": "KITCHENER",
        "streetNameDisplayText": "MORRISON RD, KITCHENER"
      }
    ]
  },
  {
    "postal": "N2A4J5",
    "result": [
      {
        "electoralDistricts": [
          {
            "election": null,
            "id": 47,
            "name": "Kitchener Centre"
          }
        ],
        "pollDivisionIds": [
          10139220
        ],
        "postalCode": "N2A4J5",
        "streetName": "BRYAN",
        "streetDirectionId": null,
        "streetTypeId": "CRT",
        "placeName": "KITCHENER",
        "streetNameDisplayText": "BRYAN CRT, KITCHENER"
      }
    ]
  },
  {
    "postal": "N2A6J2",
    "result": []
  },
  {
    "postal": "N2A5V6",
    "result": []
  },
  {
    "postal": "N2A3N2",
    "result": [
      {
        "electoralDistricts": [
          {
            "election": null,
            "id": 47,
            "name": "Kitchener Centre"
          }
        ],
        "pollDivisionIds": [
          10139217
        ],
        "postalCode": "N2A3N2",
        "streetName": "SCENIC WOOD",
        "streetDirectionId": null,
        "streetTypeId": "CRES",
        "placeName": "KITCHENER",
        "streetNameDisplayText": "SCENIC WOOD CRES, KITCHENER"
      }
    ]
  },
  {
    "postal": "N2A3B1",
    "result": []
  },
  {
    "postal": "N2A8B5",
    "result": []
  },
  {
    "postal": "N2A0K1",
    "result": [
      {
        "electoralDistricts": [
          {
            "election": null,
            "id": 47,
            "name": "Kitchener Centre"
          }
        ],
        "pollDivisionIds": [
          10139221
        ],
        "postalCode": "N2A0K1",
        "streetName": "BEAVERTRAIL",
        "streetDirectionId": null,
        "streetTypeId": "AVE",
        "placeName": "KITCHENER",
        "streetNameDisplayText": "BEAVERTRAIL AVE, KITCHENER"
      },
      {
        "electoralDistricts": [
          {
            "election": null,
            "id": 47,
            "name": "Kitchener Centre"
          }
        ],
        "pollDivisionIds": [
          10139221
        ],
        "postalCode": "N2A0K1",
        "streetName": "RIVERTRAIL",
        "streetDirectionId": null,
        "streetTypeId": "AVE",
        "placeName": "KITCHENER",
        "streetNameDisplayText": "RIVERTRAIL AVE, KITCHENER"
      },
      {
        "electoralDistricts": [
          {
            "election": null,
            "id": 47,
            "name": "Kitchener Centre"
          }
        ],
        "pollDivisionIds": [
          10139221
        ],
        "postalCode": "N2A0K1",
        "streetName": "VALLEYBROOK",
        "streetDirectionId": null,
        "streetTypeId": "DR",
        "placeName": "KITCHENER",
        "streetNameDisplayText": "VALLEYBROOK DR, KITCHENER"
      }
    ]
  },
  {
    "postal": "N2A7M7",
    "result": []
  },
  {
    "postal": "N2A2M2",
    "result": [
      {
        "electoralDistricts": [
          {
            "election": null,
            "id": 47,
            "name": "Kitchener Centre"
          }
        ],
        "pollDivisionIds": [
          10139217
        ],
        "postalCode": "N2A2M2",
        "streetName": "MORGAN",
        "streetDirectionId": null,
        "streetTypeId": "AVE",
        "placeName": "KITCHENER",
        "streetNameDisplayText": "MORGAN AVE, KITCHENER"
      }
    ]
  },
  {
    "postal": "N2A9N3",
    "result": []
  },
  {
    "postal": "N2A4Y8",
    "result": []
  },
  {
    "postal": "N2A3V7",
    "result": [
      {
        "electoralDistricts": [
          {
            "election": null,
            "id": 47,
            "name": "Kitchener Centre"
          }
        ],
        "pollDivisionIds": [
          10139220
        ],
        "postalCode": "N2A3V7",
        "streetName": "MICHENER",
        "streetDirectionId": null,
        "streetTypeId": "CRES",
        "placeName": "KITCHENER",
        "streetNameDisplayText": "MICHENER CRES, KITCHENER"
      }
    ]
  },
  {
    "postal": "N2A8Z1",
    "result": []
  },
  {
    "postal": "N2A7B3",
    "result": []
  },
  {
    "postal": "N2A3A8",
    "result": []
  },
  {
    "postal": "N2A7V5",
    "result": []
  },
  {
    "postal": "N2A2T2",
    "result": [
      {
        "electoralDistricts": [
          {
            "election": null,
            "id": 49,
            "name": "Kitchener South—Hespeler"
          }
        ],
        "pollDivisionIds": [
          10139297
        ],
        "postalCode": "N2A2T2",
        "streetName": "GRAND RIVER",
        "streetDirectionId": null,
        "streetTypeId": "BLVD",
        "placeName": "KITCHENER",
        "streetNameDisplayText": "GRAND RIVER BLVD, KITCHENER"
      }
    ]
  },
  {
    "postal": "N2A6L3",
    "result": []
  },
  {
    "postal": "N2A0L2",
    "result": []
  },
  {
    "postal": "N2A5Y8",
    "result": []
  },
  {
    "postal": "N2A0B8",
    "result": [
      {
        "electoralDistricts": [
          {
            "election": null,
            "id": 49,
            "name": "Kitchener South—Hespeler"
          }
        ],
        "pollDivisionIds": [
          10139302
        ],
        "postalCode": "N2A0B8",
        "streetName": "UPPER MERCER",
        "streetDirectionId": null,
        "streetTypeId": "ST",
        "placeName": "KITCHENER",
        "streetNameDisplayText": "UPPER MERCER ST, KITCHENER"
      }
    ]
  },
  {
    "postal": "N2A6R5",
    "result": []
  },
  {
    "postal": "N2A8W6",
    "result": []
  },
  {
    "postal": "N2A8G6",
    "result": []
  },
  {
    "postal": "N2A6X3",
    "result": []
  },
  {
    "postal": "N2A7R7",
    "result": []
  },
  {
    "postal": "N2A4B6",
    "result": [
      {
        "electoralDistricts": [
          {
            "election": null,
            "id": 47,
            "name": "Kitchener Centre"
          }
        ],
        "pollDivisionIds": [
          10139219
        ],
        "postalCode": "N2A4B6",
        "streetName": "BRIARFIELD",
        "streetDirectionId": null,
        "streetTypeId": "CRT",
        "placeName": "KITCHENER",
        "streetNameDisplayText": "BRIARFIELD CRT, KITCHENER"
      },
      {
        "electoralDistricts": [
          {
            "election": null,
            "id": 47,
            "name": "Kitchener Centre"
          }
        ],
        "pollDivisionIds": [
          10139219
        ],
        "postalCode": "N2A4B6",
        "streetName": "BRIARFIELD",
        "streetDirectionId": null,
        "streetTypeId": "ST",
        "placeName": "KITCHENER",
        "streetNameDisplayText": "BRIARFIELD ST, KITCHENER"
      }
    ]
  },
  {
    "postal": "N2A3P9",
    "result": [
      {
        "electoralDistricts": [
          {
            "election": null,
            "id": 47,
            "name": "Kitchener Centre"
          }
        ],
        "pollDivisionIds": [
          10139220
        ],
        "postalCode": "N2A3P9",
        "streetName": "CASEY",
        "streetDirectionId": null,
        "streetTypeId": "DR",
        "placeName": "KITCHENER",
        "streetNameDisplayText": "CASEY DR, KITCHENER"
      }
    ]
  },
  {
    "postal": "N2A2T3",
    "result": [
      {
        "electoralDistricts": [
          {
            "election": null,
            "id": 49,
            "name": "Kitchener South—Hespeler"
          }
        ],
        "pollDivisionIds": [
          10139300
        ],
        "postalCode": "N2A2T3",
        "streetName": "GRAND RIVER",
        "streetDirectionId": null,
        "streetTypeId": "BLVD",
        "placeName": "KITCHENER",
        "streetNameDisplayText": "GRAND RIVER BLVD, KITCHENER"
      }
    ]
  },
  {
    "postal": "N2A1M4",
    "result": [
      {
        "electoralDistricts": [
          {
            "election": null,
            "id": 47,
            "name": "Kitchener Centre"
          }
        ],
        "pollDivisionIds": [
          10139216
        ],
        "postalCode": "N2A1M4",
        "streetName": "WAYNE",
        "streetDirectionId": null,
        "streetTypeId": "DR",
        "placeName": "KITCHENER",
        "streetNameDisplayText": "WAYNE DR, KITCHENER"
      }
    ]
  },
  {
    "postal": "N2A0H1",
    "result": []
  },
  {
    "postal": "N2A9W3",
    "result": []
  },
  {
    "postal": "N2A6P1",
    "result": []
  },
  {
    "postal": "N2A7G2",
    "result": []
  },
  {
    "postal": "N2A4J9",
    "result": [
      {
        "electoralDistricts": [
          {
            "election": null,
            "id": 47,
            "name": "Kitchener Centre"
          }
        ],
        "pollDivisionIds": [
          10139221
        ],
        "postalCode": "N2A4J9",
        "streetName": "COUNTRY CLAIR",
        "streetDirectionId": null,
        "streetTypeId": "ST",
        "placeName": "KITCHENER",
        "streetNameDisplayText": "COUNTRY CLAIR ST, KITCHENER"
      }
    ]
  },
  {
    "postal": "N2A9E4",
    "result": []
  },
  {
    "postal": "N2A8H0",
    "result": []
  },
  {
    "postal": "N2A4M7",
    "result": [
      {
        "electoralDistricts": [
          {
            "election": null,
            "id": 47,
            "name": "Kitchener Centre"
          }
        ],
        "pollDivisionIds": [
          10139221
        ],
        "postalCode": "N2A4M7",
        "streetName": "COUNRY CLAIR",
        "streetDirectionId": null,
        "streetTypeId": "ST",
        "placeName": "KITCHENER",
        "streetNameDisplayText": "COUNRY CLAIR ST, KITCHENER"
      },
      {
        "electoralDistricts": [
          {
            "election": null,
            "id": 47,
            "name": "Kitchener Centre"
          }
        ],
        "pollDivisionIds": [
          10139221
        ],
        "postalCode": "N2A4M7",
        "streetName": "COUNTRY CLAIR",
        "streetDirectionId": null,
        "streetTypeId": "PL",
        "placeName": "KITCHENER",
        "streetNameDisplayText": "COUNTRY CLAIR PL, KITCHENER"
      },
      {
        "electoralDistricts": [
          {
            "election": null,
            "id": 47,
            "name": "Kitchener Centre"
          }
        ],
        "pollDivisionIds": [
          10139221
        ],
        "postalCode": "N2A4M7",
        "streetName": "COUNTRY CLAIR",
        "streetDirectionId": null,
        "streetTypeId": "ST",
        "placeName": "KITCHENER",
        "streetNameDisplayText": "COUNTRY CLAIR ST, KITCHENER"
      }
    ]
  },
  {
    "postal": "N2A2G9",
    "result": [
      {
        "electoralDistricts": [
          {
            "election": null,
            "id": 47,
            "name": "Kitchener Centre"
          }
        ],
        "pollDivisionIds": [
          10139214
        ],
        "postalCode": "N2A2G9",
        "streetName": "ARLINGTON",
        "streetDirectionId": null,
        "streetTypeId": "BLVD",
        "placeName": "KITCHENER",
        "streetNameDisplayText": "ARLINGTON BLVD, KITCHENER"
      }
    ]
  },
  {
    "postal": "N2A8T2",
    "result": []
  },
  {
    "postal": "N2A7G7",
    "result": []
  },
  {
    "postal": "N2A4Z3",
    "result": []
  },
  {
    "postal": "N2A5B3",
    "result": []
  },
  {
    "postal": "N2A1S7",
    "result": [
      {
        "electoralDistricts": [
          {
            "election": null,
            "id": 47,
            "name": "Kitchener Centre"
          }
        ],
        "pollDivisionIds": [
          10139217
        ],
        "postalCode": "N2A1S7",
        "streetName": "WALKER",
        "streetDirectionId": null,
        "streetTypeId": "ST",
        "placeName": "KITCHENER",
        "streetNameDisplayText": "WALKER ST, KITCHENER"
      }
    ]
  },
  {
    "postal": "N2A2N7",
    "result": [
      {
        "electoralDistricts": [
          {
            "election": null,
            "id": 49,
            "name": "Kitchener South—Hespeler"
          }
        ],
        "pollDivisionIds": [
          10139297
        ],
        "postalCode": "N2A2N7",
        "streetName": "FAIRWAY",
        "streetDirectionId": "N",
        "streetTypeId": "RD",
        "placeName": "KITCHENER",
        "streetNameDisplayText": "FAIRWAY RD N, KITCHENER"
      }
    ]
  },
  {
    "postal": "N2A0H8",
    "result": [
      {
        "electoralDistricts": [
          {
            "election": null,
            "id": 47,
            "name": "Kitchener Centre"
          }
        ],
        "pollDivisionIds": [
          10139221
        ],
        "postalCode": "N2A0H8",
        "streetName": "RIVERTRAIL",
        "streetDirectionId": null,
        "streetTypeId": "AVE",
        "placeName": "KITCHENER",
        "streetNameDisplayText": "RIVERTRAIL AVE, KITCHENER"
      }
    ]
  },
  {
    "postal": "N2A7Z4",
    "result": []
  },
  {
    "postal": "N2A7B1",
    "result": []
  },
  {
    "postal": "N2A7P8",
    "result": []
  },
  {
    "postal": "N2A7N0",
    "result": []
  },
  {
    "postal": "N2A3Y5",
    "result": [
      {
        "electoralDistricts": [
          {
            "election": null,
            "id": 47,
            "name": "Kitchener Centre"
          }
        ],
        "pollDivisionIds": [
          10139214
        ],
        "postalCode": "N2A3Y5",
        "streetName": "WEBER",
        "streetDirectionId": "E",
        "streetTypeId": "ST",
        "placeName": "KITCHENER",
        "streetNameDisplayText": "WEBER ST E, KITCHENER"
      }
    ]
  },
  {
    "postal": "N2A6K1",
    "result": []
  },
  {
    "postal": "N2A9X5",
    "result": []
  },
  {
    "postal": "N2A7S5",
    "result": []
  },
  {
    "postal": "N2A0A4",
    "result": [
      {
        "electoralDistricts": [
          {
            "election": null,
            "id": 47,
            "name": "Kitchener Centre"
          }
        ],
        "pollDivisionIds": [
          10139216
        ],
        "postalCode": "N2A0A4",
        "streetName": "HOLBORN",
        "streetDirectionId": null,
        "streetTypeId": "DR",
        "placeName": "KITCHENER",
        "streetNameDisplayText": "HOLBORN DR, KITCHENER"
      }
    ]
  },
  {
    "postal": "N2A4T5",
    "result": []
  },
  {
    "postal": "N2A5K1",
    "result": []
  },
  {
    "postal": "N2A0Z9",
    "result": []
  },
  {
    "postal": "N2A7T2",
    "result": []
  },
  {
    "postal": "N2A1L5",
    "result": [
      {
        "electoralDistricts": [
          {
            "election": null,
            "id": 47,
            "name": "Kitchener Centre"
          }
        ],
        "pollDivisionIds": [
          10139212
        ],
        "postalCode": "N2A1L5",
        "streetName": "DOOLEY",
        "streetDirectionId": null,
        "streetTypeId": "DR",
        "placeName": "KITCHENER",
        "streetNameDisplayText": "DOOLEY DR, KITCHENER"
      }
    ]
  },
  {
    "postal": "N2A3N5",
    "result": []
  },
  {
    "postal": "N2A6H4",
    "result": []
  },
  {
    "postal": "N2A5A5",
    "result": []
  },
  {
    "postal": "N2A3R9",
    "result": []
  },
  {
    "postal": "N2A7L8",
    "result": []
  },
  {
    "postal": "N2A6T6",
    "result": []
  },
  {
    "postal": "N2A7Y7",
    "result": []
  },
  {
    "postal": "N2A3M8",
    "result": [
      {
        "electoralDistricts": [
          {
            "election": null,
            "id": 47,
            "name": "Kitchener Centre"
          }
        ],
        "pollDivisionIds": [
          10139216
        ],
        "postalCode": "N2A3M8",
        "streetName": "OLD CHICOPEE",
        "streetDirectionId": null,
        "streetTypeId": "DR",
        "placeName": "KITCHENER",
        "streetNameDisplayText": "OLD CHICOPEE DR, KITCHENER"
      }
    ]
  },
  {
    "postal": "N2A2E0",
    "result": []
  },
  {
    "postal": "N2A4B5",
    "result": [
      {
        "electoralDistricts": [
          {
            "election": null,
            "id": 49,
            "name": "Kitchener South—Hespeler"
          }
        ],
        "pollDivisionIds": [
          10139302
        ],
        "postalCode": "N2A4B5",
        "streetName": "FAIRWAY",
        "streetDirectionId": null,
        "streetTypeId": "CRES",
        "placeName": "KITCHENER",
        "streetNameDisplayText": "FAIRWAY CRES, KITCHENER"
      }
    ]
  },
  {
    "postal": "N2A1J3",
    "result": [
      {
        "electoralDistricts": [
          {
            "election": null,
            "id": 47,
            "name": "Kitchener Centre"
          }
        ],
        "pollDivisionIds": [
          10139214
        ],
        "postalCode": "N2A1J3",
        "streetName": "IDLEWOOD",
        "streetDirectionId": null,
        "streetTypeId": "DR",
        "placeName": "KITCHENER",
        "streetNameDisplayText": "IDLEWOOD DR, KITCHENER"
      }
    ]
  },
  {
    "postal": "N2A5S6",
    "result": []
  },
  {
    "postal": "N2A8P7",
    "result": []
  },
  {
    "postal": "N2A7S7",
    "result": []
  },
  {
    "postal": "N2A4C2",
    "result": [
      {
        "electoralDistricts": [
          {
            "election": null,
            "id": 47,
            "name": "Kitchener Centre"
          }
        ],
        "pollDivisionIds": [
          10139219
        ],
        "postalCode": "N2A4C2",
        "streetName": "DAIMLER",
        "streetDirectionId": null,
        "streetTypeId": "DR",
        "placeName": "KITCHENER",
        "streetNameDisplayText": "DAIMLER DR, KITCHENER"
      }
    ]
  },
  {
    "postal": "N2A5Y0",
    "result": []
  },
  {
    "postal": "N2A2V7",
    "result": []
  },
  {
    "postal": "N2A8P5",
    "result": []
  },
  {
    "postal": "N2A5P5",
    "result": []
  },
  {
    "postal": "N2A5Z0",
    "result": []
  },
  {
    "postal": "N2A9B0",
    "result": []
  },
  {
    "postal": "N2A1L0",
    "result": []
  },
  {
    "postal": "N2A0B5",
    "result": [
      {
        "electoralDistricts": [
          {
            "election": null,
            "id": 47,
            "name": "Kitchener Centre"
          }
        ],
        "pollDivisionIds": [
          10139220
        ],
        "postalCode": "N2A0B5",
        "streetName": "BROOKMEAD",
        "streetDirectionId": null,
        "streetTypeId": "ST",
        "placeName": "KITCHENER",
        "streetNameDisplayText": "BROOKMEAD ST, KITCHENER"
      },
      {
        "electoralDistricts": [
          {
            "election": null,
            "id": 47,
            "name": "Kitchener Centre"
          }
        ],
        "pollDivisionIds": [
          10139220
        ],
        "postalCode": "N2A0B5",
        "streetName": "VALEBROOK",
        "streetDirectionId": null,
        "streetTypeId": "ST",
        "placeName": "KITCHENER",
        "streetNameDisplayText": "VALEBROOK ST, KITCHENER"
      },
      {
        "electoralDistricts": [
          {
            "election": null,
            "id": 47,
            "name": "Kitchener Centre"
          }
        ],
        "pollDivisionIds": [
          10139220
        ],
        "postalCode": "N2A0B5",
        "streetName": "ZELLER",
        "streetDirectionId": null,
        "streetTypeId": "DR",
        "placeName": "KITCHENER",
        "streetNameDisplayText": "ZELLER DR, KITCHENER"
      }
    ]
  },
  {
    "postal": "N2A3L2",
    "result": [
      {
        "electoralDistricts": [
          {
            "election": null,
            "id": 47,
            "name": "Kitchener Centre"
          }
        ],
        "pollDivisionIds": [
          10139219
        ],
        "postalCode": "N2A3L2",
        "streetName": "BOUND BROOK",
        "streetDirectionId": null,
        "streetTypeId": "CRT",
        "placeName": "KITCHENER",
        "streetNameDisplayText": "BOUND BROOK CRT, KITCHENER"
      }
    ]
  },
  {
    "postal": "N2A3B7",
    "result": []
  },
  {
    "postal": "N2A8L1",
    "result": []
  },
  {
    "postal": "N2A5M4",
    "result": []
  },
  {
    "postal": "N2A4G9",
    "result": []
  },
  {
    "postal": "N2A0P0",
    "result": []
  },
  {
    "postal": "N2A8G2",
    "result": []
  },
  {
    "postal": "N2A1V9",
    "result": [
      {
        "electoralDistricts": [
          {
            "election": null,
            "id": 47,
            "name": "Kitchener Centre"
          }
        ],
        "pollDivisionIds": [
          10139214
        ],
        "postalCode": "N2A1V9",
        "streetName": "KENNETH",
        "streetDirectionId": null,
        "streetTypeId": "AVE",
        "placeName": "KITCHENER",
        "streetNameDisplayText": "KENNETH AVE, KITCHENER"
      }
    ]
  },
  {
    "postal": "N2A8N8",
    "result": []
  },
  {
    "postal": "N2A6S8",
    "result": []
  },
  {
    "postal": "N2A8H2",
    "result": []
  },
  {
    "postal": "N2A5R8",
    "result": []
  },
  {
    "postal": "N2A5L4",
    "result": []
  },
  {
    "postal": "N2A9E1",
    "result": []
  },
  {
    "postal": "N2A1C4",
    "result": [
      {
        "electoralDistricts": [
          {
            "election": null,
            "id": 47,
            "name": "Kitchener Centre"
          }
        ],
        "pollDivisionIds": [
          10139217
        ],
        "postalCode": "N2A1C4",
        "streetName": "WEBER",
        "streetDirectionId": "E",
        "streetTypeId": "ST",
        "placeName": "KITCHENER",
        "streetNameDisplayText": "WEBER ST E, KITCHENER"
      }
    ]
  },
  {
    "postal": "N2A8W5",
    "result": []
  },
  {
    "postal": "N2A1Y4",
    "result": [
      {
        "electoralDistricts": [
          {
            "election": null,
            "id": 47,
            "name": "Kitchener Centre"
          }
        ],
        "pollDivisionIds": [
          10139214
        ],
        "postalCode": "N2A1Y4",
        "streetName": "FRANKLIN",
        "streetDirectionId": "N",
        "streetTypeId": "ST",
        "placeName": "KITCHENER",
        "streetNameDisplayText": "FRANKLIN ST N, KITCHENER"
      }
    ]
  },
  {
    "postal": "N2A1C0",
    "result": []
  },
  {
    "postal": "N2A2J2",
    "result": [
      {
        "electoralDistricts": [
          {
            "election": null,
            "id": 47,
            "name": "Kitchener Centre"
          }
        ],
        "pollDivisionIds": [
          10139217
        ],
        "postalCode": "N2A2J2",
        "streetName": "KRAFT",
        "streetDirectionId": null,
        "streetTypeId": "AVE",
        "placeName": "KITCHENER",
        "streetNameDisplayText": "KRAFT AVE, KITCHENER"
      }
    ]
  },
  {
    "postal": "N2A2J0",
    "result": []
  },
  {
    "postal": "N2A7A3",
    "result": []
  },
  {
    "postal": "N2A8M1",
    "result": []
  },
  {
    "postal": "N2A7T9",
    "result": []
  },
  {
    "postal": "N2A6C0",
    "result": []
  },
  {
    "postal": "N2A7X1",
    "result": []
  },
  {
    "postal": "N2A0G1",
    "result": [
      {
        "electoralDistricts": [
          {
            "election": null,
            "id": 47,
            "name": "Kitchener Centre"
          }
        ],
        "pollDivisionIds": [
          10139221
        ],
        "postalCode": "N2A0G1",
        "streetName": "EDEN OAK",
        "streetDirectionId": null,
        "streetTypeId": "TRAIL",
        "placeName": "KITCHENER",
        "streetNameDisplayText": "EDEN OAK TRAIL, KITCHENER"
      },
      {
        "electoralDistricts": [
          {
            "election": null,
            "id": 47,
            "name": "Kitchener Centre"
          }
        ],
        "pollDivisionIds": [
          10139221
        ],
        "postalCode": "N2A0G1",
        "streetName": "WATERVALE",
        "streetDirectionId": null,
        "streetTypeId": "CRES",
        "placeName": "KITCHENER",
        "streetNameDisplayText": "WATERVALE CRES, KITCHENER"
      },
      {
        "electoralDistricts": [
          {
            "election": null,
            "id": 47,
            "name": "Kitchener Centre"
          }
        ],
        "pollDivisionIds": [
          10139221
        ],
        "postalCode": "N2A0G1",
        "streetName": "WATERVALE",
        "streetDirectionId": null,
        "streetTypeId": "DR",
        "placeName": "KITCHENER",
        "streetNameDisplayText": "WATERVALE DR, KITCHENER"
      }
    ]
  },
  {
    "postal": "N2A4X2",
    "result": []
  },
  {
    "postal": "N2A0N6",
    "result": []
  },
  {
    "postal": "N2A8E3",
    "result": []
  },
  {
    "postal": "N2A5S8",
    "result": []
  },
  {
    "postal": "N2A0R0",
    "result": []
  },
  {
    "postal": "N2A6J6",
    "result": []
  },
  {
    "postal": "N2A4B4",
    "result": [
      {
        "electoralDistricts": [
          {
            "election": null,
            "id": 49,
            "name": "Kitchener South—Hespeler"
          }
        ],
        "pollDivisionIds": [
          10139302
        ],
        "postalCode": "N2A4B4",
        "streetName": "FAIRWAY",
        "streetDirectionId": null,
        "streetTypeId": "CRT",
        "placeName": "KITCHENER",
        "streetNameDisplayText": "FAIRWAY CRT, KITCHENER"
      }
    ]
  },
  {
    "postal": "N2A7E3",
    "result": []
  },
  {
    "postal": "N2A3N6",
    "result": [
      {
        "electoralDistricts": [
          {
            "election": null,
            "id": 47,
            "name": "Kitchener Centre"
          }
        ],
        "pollDivisionIds": [
          10139217
        ],
        "postalCode": "N2A3N6",
        "streetName": "SCENIC WOOD",
        "streetDirectionId": null,
        "streetTypeId": "CRES",
        "placeName": "KITCHENER",
        "streetNameDisplayText": "SCENIC WOOD CRES, KITCHENER"
      }
    ]
  },
  {
    "postal": "N2A3X6",
    "result": [
      {
        "electoralDistricts": [
          {
            "election": null,
            "id": 47,
            "name": "Kitchener Centre"
          }
        ],
        "pollDivisionIds": [
          10139216
        ],
        "postalCode": "N2A3X6",
        "streetName": "DRUMOAK",
        "streetDirectionId": null,
        "streetTypeId": "PL",
        "placeName": "KITCHENER",
        "streetNameDisplayText": "DRUMOAK PL, KITCHENER"
      }
    ]
  },
  {
    "postal": "N2A8L0",
    "result": []
  },
  {
    "postal": "N2A8N1",
    "result": []
  },
  {
    "postal": "N2A4J0",
    "result": []
  },
  {
    "postal": "N2A0X7",
    "result": []
  },
  {
    "postal": "N2A6S4",
    "result": []
  },
  {
    "postal": "N2A0Z0",
    "result": []
  },
  {
    "postal": "N2A9X8",
    "result": []
  },
  {
    "postal": "N2A3H3",
    "result": [
      {
        "electoralDistricts": [
          {
            "election": null,
            "id": 49,
            "name": "Kitchener South—Hespeler"
          }
        ],
        "pollDivisionIds": [
          10139300
        ],
        "postalCode": "N2A3H3",
        "streetName": "CHEROKEE",
        "streetDirectionId": null,
        "streetTypeId": "CRT",
        "placeName": "KITCHENER",
        "streetNameDisplayText": "CHEROKEE CRT, KITCHENER"
      },
      {
        "electoralDistricts": [
          {
            "election": null,
            "id": 49,
            "name": "Kitchener South—Hespeler"
          }
        ],
        "pollDivisionIds": [
          10139300
        ],
        "postalCode": "N2A3H3",
        "streetName": "GRAND RIVER",
        "streetDirectionId": null,
        "streetTypeId": "BLVD",
        "placeName": "KITCHENER",
        "streetNameDisplayText": "GRAND RIVER BLVD, KITCHENER"
      }
    ]
  },
  {
    "postal": "N2A7S2",
    "result": []
  },
  {
    "postal": "N2A3T3",
    "result": [
      {
        "electoralDistricts": [
          {
            "election": null,
            "id": 47,
            "name": "Kitchener Centre"
          }
        ],
        "pollDivisionIds": [
          10139220
        ],
        "postalCode": "N2A3T3",
        "streetName": "OLDFIELD",
        "streetDirectionId": null,
        "streetTypeId": "DR",
        "placeName": "KITCHENER",
        "streetNameDisplayText": "OLDFIELD DR, KITCHENER"
      },
      {
        "electoralDistricts": [
          {
            "election": null,
            "id": 47,
            "name": "Kitchener Centre"
          }
        ],
        "pollDivisionIds": [
          10139220
        ],
        "postalCode": "N2A3T3",
        "streetName": "WENDY",
        "streetDirectionId": null,
        "streetTypeId": "CRT",
        "placeName": "KITCHENER",
        "streetNameDisplayText": "WENDY CRT, KITCHENER"
      }
    ]
  },
  {
    "postal": "N2A9P3",
    "result": []
  },
  {
    "postal": "N2A4H8",
    "result": [
      {
        "electoralDistricts": [
          {
            "election": null,
            "id": 49,
            "name": "Kitchener South—Hespeler"
          },
          {
            "election": null,
            "id": 47,
            "name": "Kitchener Centre"
          }
        ],
        "pollDivisionIds": [
          10139300,
          10139221
        ],
        "postalCode": "N2A4H8",
        "streetName": "CHANDOS",
        "streetDirectionId": null,
        "streetTypeId": "DR",
        "placeName": "KITCHENER",
        "streetNameDisplayText": "CHANDOS DR, KITCHENER"
      }
    ]
  },
  {
    "postal": "N2A6R1",
    "result": []
  },
  {
    "postal": "N2A1S0",
    "result": []
  },
  {
    "postal": "N2A3W8",
    "result": [
      {
        "electoralDistricts": [
          {
            "election": null,
            "id": 47,
            "name": "Kitchener Centre"
          }
        ],
        "pollDivisionIds": [
          10139219
        ],
        "postalCode": "N2A3W8",
        "streetName": "CORFIELD",
        "streetDirectionId": null,
        "streetTypeId": "DR",
        "placeName": "KITCHENER",
        "streetNameDisplayText": "CORFIELD DR, KITCHENER"
      },
      {
        "electoralDistricts": [
          {
            "election": null,
            "id": 47,
            "name": "Kitchener Centre"
          }
        ],
        "pollDivisionIds": [
          10139219
        ],
        "postalCode": "N2A3W8",
        "streetName": "CORFIELD",
        "streetDirectionId": null,
        "streetTypeId": "PL",
        "placeName": "KITCHENER",
        "streetNameDisplayText": "CORFIELD PL, KITCHENER"
      }
    ]
  },
  {
    "postal": "N2A4S3",
    "result": []
  },
  {
    "postal": "N2A1B6",
    "result": [
      {
        "electoralDistricts": [
          {
            "election": null,
            "id": 47,
            "name": "Kitchener Centre"
          }
        ],
        "pollDivisionIds": [
          10139214
        ],
        "postalCode": "N2A1B6",
        "streetName": "WEBER",
        "streetDirectionId": "E",
        "streetTypeId": "ST",
        "placeName": "KITCHENER",
        "streetNameDisplayText": "WEBER ST E, KITCHENER"
      }
    ]
  },
  {
    "postal": "N2A8R3",
    "result": []
  },
  {
    "postal": "N2A4V9",
    "result": []
  },
  {
    "postal": "N2A9W4",
    "result": []
  },
  {
    "postal": "N2A3T4",
    "result": [
      {
        "electoralDistricts": [
          {
            "election": null,
            "id": 47,
            "name": "Kitchener Centre"
          }
        ],
        "pollDivisionIds": [
          10139220
        ],
        "postalCode": "N2A3T4",
        "streetName": "WENDY",
        "streetDirectionId": null,
        "streetTypeId": "CRES",
        "placeName": "KITCHENER",
        "streetNameDisplayText": "WENDY CRES, KITCHENER"
      }
    ]
  },
  {
    "postal": "N2A5C7",
    "result": []
  },
  {
    "postal": "N2A3Y1",
    "result": [
      {
        "electoralDistricts": [
          {
            "election": null,
            "id": 49,
            "name": "Kitchener South—Hespeler"
          }
        ],
        "pollDivisionIds": [
          10139300
        ],
        "postalCode": "N2A3Y1",
        "streetName": "MORRISON",
        "streetDirectionId": null,
        "streetTypeId": "RD",
        "placeName": "KITCHENER",
        "streetNameDisplayText": "MORRISON RD, KITCHENER"
      }
    ]
  },
  {
    "postal": "N2A5V0",
    "result": []
  },
  {
    "postal": "N2A8G8",
    "result": []
  },
  {
    "postal": "N2A8B1",
    "result": []
  },
  {
    "postal": "N2A4P5",
    "result": []
  },
  {
    "postal": "N2A7B2",
    "result": []
  },
  {
    "postal": "N2A0R2",
    "result": []
  },
  {
    "postal": "N2A4M4",
    "result": [
      {
        "electoralDistricts": [
          {
            "election": null,
            "id": 47,
            "name": "Kitchener Centre"
          }
        ],
        "pollDivisionIds": [
          10139221
        ],
        "postalCode": "N2A4M4",
        "streetName": "PEBBLECREEK",
        "streetDirectionId": null,
        "streetTypeId": "DR",
        "placeName": "KITCHENER",
        "streetNameDisplayText": "PEBBLECREEK DR, KITCHENER"
      },
      {
        "electoralDistricts": [
          {
            "election": null,
            "id": 47,
            "name": "Kitchener Centre"
          }
        ],
        "pollDivisionIds": [
          10139221
        ],
        "postalCode": "N2A4M4",
        "streetName": "ZELLER",
        "streetDirectionId": null,
        "streetTypeId": "DR",
        "placeName": "KITCHENER",
        "streetNameDisplayText": "ZELLER DR, KITCHENER"
      }
    ]
  },
  {
    "postal": "N2A7M4",
    "result": []
  },
  {
    "postal": "N2A9S7",
    "result": []
  },
  {
    "postal": "N2A5Z7",
    "result": []
  },
  {
    "postal": "N2A7J7",
    "result": []
  },
  {
    "postal": "N2A8R8",
    "result": []
  },
  {
    "postal": "N2A9X1",
    "result": []
  },
  {
    "postal": "N2A5M9",
    "result": []
  },
  {
    "postal": "N2A9B4",
    "result": []
  },
  {
    "postal": "N2A0L9",
    "result": []
  },
  {
    "postal": "N2A9G4",
    "result": []
  },
  {
    "postal": "N2A1J4",
    "result": [
      {
        "electoralDistricts": [
          {
            "election": null,
            "id": 47,
            "name": "Kitchener Centre"
          }
        ],
        "pollDivisionIds": [
          10139214
        ],
        "postalCode": "N2A1J4",
        "streetName": "RENNIE",
        "streetDirectionId": null,
        "streetTypeId": "DR",
        "placeName": "KITCHENER",
        "streetNameDisplayText": "RENNIE DR, KITCHENER"
      }
    ]
  },
  {
    "postal": "N2A0W6",
    "result": []
  }
]
