[
  {
    "postal": "N3C9J6",
    "result": []
  },
  {
    "postal": "N3C9Z5",
    "result": []
  },
  {
    "postal": "N3C7H8",
    "result": []
  },
  {
    "postal": "N3C0P6",
    "result": []
  },
  {
    "postal": "N3C0S7",
    "result": []
  },
  {
    "postal": "N3C8B9",
    "result": []
  },
  {
    "postal": "N3C2A6",
    "result": [
      {
        "electoralDistricts": [
          {
            "election": null,
            "id": 49,
            "name": "Kitchener South—Hespeler"
          }
        ],
        "pollDivisionIds": [
          10139307
        ],
        "postalCode": "N3C2A6",
        "streetName": "QUEEN",
        "streetDirectionId": "E",
        "streetTypeId": "ST",
        "placeName": "CAMBRIDGE",
        "streetNameDisplayText": "QUEEN ST E, CAMBRIDGE"
      }
    ]
  },
  {
    "postal": "N3C7V2",
    "result": []
  },
  {
    "postal": "N3C9P4",
    "result": []
  },
  {
    "postal": "N3C6G0",
    "result": []
  },
  {
    "postal": "N3C2K0",
    "result": []
  },
  {
    "postal": "N3C7N6",
    "result": []
  },
  {
    "postal": "N3C5R3",
    "result": []
  },
  {
    "postal": "N3C7K0",
    "result": []
  },
  {
    "postal": "N3C3R2",
    "result": [
      {
        "electoralDistricts": [
          {
            "election": null,
            "id": 49,
            "name": "Kitchener South—Hespeler"
          }
        ],
        "pollDivisionIds": [
          10139305
        ],
        "postalCode": "N3C3R2",
        "streetName": "HUBERT",
        "streetDirectionId": null,
        "streetTypeId": "CRT",
        "placeName": "CAMBRIDGE",
        "streetNameDisplayText": "HUBERT CRT, CAMBRIDGE"
      }
    ]
  },
  {
    "postal": "N3C0J1",
    "result": []
  },
  {
    "postal": "N3C0B0",
    "result": []
  },
  {
    "postal": "N3C5Z2",
    "result": []
  },
  {
    "postal": "N3C7P3",
    "result": []
  },
  {
    "postal": "N3C2K3",
    "result": [
      {
        "electoralDistricts": [
          {
            "election": null,
            "id": 49,
            "name": "Kitchener South—Hespeler"
          }
        ],
        "pollDivisionIds": [
          10139308
        ],
        "postalCode": "N3C2K3",
        "streetName": "ADAM",
        "streetDirectionId": null,
        "streetTypeId": "ST",
        "placeName": "CAMBRIDGE",
        "streetNameDisplayText": "ADAM ST, CAMBRIDGE"
      }
    ]
  },
  {
    "postal": "N3C7Y6",
    "result": []
  },
  {
    "postal": "N3C1L9",
    "result": [
      {
        "electoralDistricts": [
          {
            "election": null,
            "id": 49,
            "name": "Kitchener South—Hespeler"
          }
        ],
        "pollDivisionIds": [
          10139305
        ],
        "postalCode": "N3C1L9",
        "streetName": "WINSTON",
        "streetDirectionId": null,
        "streetTypeId": "BLVD",
        "placeName": "CAMBRIDGE",
        "streetNameDisplayText": "WINSTON BLVD, CAMBRIDGE"
      }
    ]
  },
  {
    "postal": "N3C8T0",
    "result": []
  },
  {
    "postal": "N3C3K8",
    "result": [
      {
        "electoralDistricts": [
          {
            "election": null,
            "id": 49,
            "name": "Kitchener South—Hespeler"
          }
        ],
        "pollDivisionIds": [
          10139306
        ],
        "postalCode": "N3C3K8",
        "streetName": "TRINDER",
        "streetDirectionId": null,
        "streetTypeId": "CRT",
        "placeName": "CAMBRIDGE",
        "streetNameDisplayText": "TRINDER CRT, CAMBRIDGE"
      }
    ]
  },
  {
    "postal": "N3C5W9",
    "result": []
  },
  {
    "postal": "N3C6T9",
    "result": []
  },
  {
    "postal": "N3C4H1",
    "result": [
      {
        "electoralDistricts": [
          {
            "election": null,
            "id": 49,
            "name": "Kitchener South—Hespeler"
          }
        ],
        "pollDivisionIds": [
          10139309,
          10139311
        ],
        "postalCode": "N3C4H1",
        "streetName": "WERSTINE",
        "streetDirectionId": null,
        "streetTypeId": "TERR",
        "placeName": "CAMBRIDGE",
        "streetNameDisplayText": "WERSTINE TERR, CAMBRIDGE"
      }
    ]
  },
  {
    "postal": "N3C7A2",
    "result": []
  },
  {
    "postal": "N3C5G0",
    "result": []
  },
  {
    "postal": "N3C8V5",
    "result": []
  },
  {
    "postal": "N3C2Y8",
    "result": [
      {
        "electoralDistricts": [
          {
            "election": null,
            "id": 49,
            "name": "Kitchener South—Hespeler"
          }
        ],
        "pollDivisionIds": [
          10139305
        ],
        "postalCode": "N3C2Y8",
        "streetName": "HEATHER",
        "streetDirectionId": null,
        "streetTypeId": "AVE",
        "placeName": "CAMBRIDGE",
        "streetNameDisplayText": "HEATHER AVE, CAMBRIDGE"
      }
    ]
  },
  {
    "postal": "N3C2B6",
    "result": [
      {
        "electoralDistricts": [
          {
            "election": null,
            "id": 49,
            "name": "Kitchener South—Hespeler"
          }
        ],
        "pollDivisionIds": [
          10139309
        ],
        "postalCode": "N3C2B6",
        "streetName": "QUEEN",
        "streetDirectionId": "E",
        "streetTypeId": "ST",
        "placeName": "CAMBRIDGE",
        "streetNameDisplayText": "QUEEN ST E, CAMBRIDGE"
      }
    ]
  },
  {
    "postal": "N3C4W8",
    "result": []
  },
  {
    "postal": "N3C8H7",
    "result": []
  },
  {
    "postal": "N3C5P1",
    "result": []
  },
  {
    "postal": "N3C2B8",
    "result": [
      {
        "electoralDistricts": [
          {
            "election": null,
            "id": 49,
            "name": "Kitchener South—Hespeler"
          }
        ],
        "pollDivisionIds": [
          10139309
        ],
        "postalCode": "N3C2B8",
        "streetName": "RIVER",
        "streetDirectionId": null,
        "streetTypeId": "RD",
        "placeName": "CAMBRIDGE",
        "streetNameDisplayText": "RIVER RD, CAMBRIDGE"
      }
    ]
  },
  {
    "postal": "N3C0P2",
    "result": []
  },
  {
    "postal": "N3C9M1",
    "result": []
  },
  {
    "postal": "N3C3G0",
    "result": []
  },
  {
    "postal": "N3C9Z2",
    "result": []
  },
  {
    "postal": "N3C2A0",
    "result": []
  },
  {
    "postal": "N3C6Y0",
    "result": []
  },
  {
    "postal": "N3C2Z8",
    "result": [
      {
        "electoralDistricts": [
          {
            "election": null,
            "id": 49,
            "name": "Kitchener South—Hespeler"
          }
        ],
        "pollDivisionIds": [
          10139310
        ],
        "postalCode": "N3C2Z8",
        "streetName": "HIDDEN VALLEY",
        "streetDirectionId": null,
        "streetTypeId": "RD",
        "placeName": "CAMBRIDGE",
        "streetNameDisplayText": "HIDDEN VALLEY RD, CAMBRIDGE"
      }
    ]
  },
  {
    "postal": "N3C7Y3",
    "result": []
  },
  {
    "postal": "N3C6Z5",
    "result": []
  },
  {
    "postal": "N3C6E0",
    "result": []
  },
  {
    "postal": "N3C9B7",
    "result": []
  },
  {
    "postal": "N3C9S5",
    "result": []
  },
  {
    "postal": "N3C3X3",
    "result": [
      {
        "electoralDistricts": [
          {
            "election": null,
            "id": 49,
            "name": "Kitchener South—Hespeler"
          }
        ],
        "pollDivisionIds": [
          10139306
        ],
        "postalCode": "N3C3X3",
        "streetName": "DAWN",
        "streetDirectionId": null,
        "streetTypeId": "CRES",
        "placeName": "CAMBRIDGE",
        "streetNameDisplayText": "DAWN CRES, CAMBRIDGE"
      },
      {
        "electoralDistricts": [
          {
            "election": null,
            "id": 49,
            "name": "Kitchener South—Hespeler"
          }
        ],
        "pollDivisionIds": [
          10139306
        ],
        "postalCode": "N3C3X3",
        "streetName": "POPLAR",
        "streetDirectionId": null,
        "streetTypeId": "DR",
        "placeName": "CAMBRIDGE",
        "streetNameDisplayText": "POPLAR DR, CAMBRIDGE"
      }
    ]
  },
  {
    "postal": "N3C7R5",
    "result": []
  },
  {
    "postal": "N3C2X3",
    "result": [
      {
        "electoralDistricts": [
          {
            "election": null,
            "id": 49,
            "name": "Kitchener South—Hespeler"
          }
        ],
        "pollDivisionIds": [
          10139304
        ],
        "postalCode": "N3C2X3",
        "streetName": "SCOTT",
        "streetDirectionId": null,
        "streetTypeId": "RD",
        "placeName": "CAMBRIDGE",
        "streetNameDisplayText": "SCOTT RD, CAMBRIDGE"
      }
    ]
  },
  {
    "postal": "N3C8Z9",
    "result": []
  },
  {
    "postal": "N3C0N4",
    "result": []
  },
  {
    "postal": "N3C1K1",
    "result": [
      {
        "electoralDistricts": [
          {
            "election": null,
            "id": 49,
            "name": "Kitchener South—Hespeler"
          }
        ],
        "pollDivisionIds": [
          10139305
        ],
        "postalCode": "N3C1K1",
        "streetName": "EDWARD",
        "streetDirectionId": null,
        "streetTypeId": "ST",
        "placeName": "CAMBRIDGE",
        "streetNameDisplayText": "EDWARD ST, CAMBRIDGE"
      }
    ]
  },
  {
    "postal": "N3C1S3",
    "result": [
      {
        "electoralDistricts": [
          {
            "election": null,
            "id": 49,
            "name": "Kitchener South—Hespeler"
          }
        ],
        "pollDivisionIds": [
          10139305
        ],
        "postalCode": "N3C1S3",
        "streetName": "COURTNEY",
        "streetDirectionId": null,
        "streetTypeId": "ST",
        "placeName": "CAMBRIDGE",
        "streetNameDisplayText": "COURTNEY ST, CAMBRIDGE"
      }
    ]
  },
  {
    "postal": "N3C6M4",
    "result": []
  },
  {
    "postal": "N3C9A9",
    "result": []
  },
  {
    "postal": "N3C9Z9",
    "result": []
  },
  {
    "postal": "N3C6T4",
    "result": []
  },
  {
    "postal": "N3C0B2",
    "result": [
      {
        "electoralDistricts": [
          {
            "election": null,
            "id": 49,
            "name": "Kitchener South—Hespeler"
          }
        ],
        "pollDivisionIds": [
          10139307
        ],
        "postalCode": "N3C0B2",
        "streetName": "CALLAWAY",
        "streetDirectionId": null,
        "streetTypeId": "DR",
        "placeName": "CAMBRIDGE",
        "streetNameDisplayText": "CALLAWAY DR, CAMBRIDGE"
      },
      {
        "electoralDistricts": [
          {
            "election": null,
            "id": 49,
            "name": "Kitchener South—Hespeler"
          }
        ],
        "pollDivisionIds": [
          10139307
        ],
        "postalCode": "N3C0B2",
        "streetName": "CHASE",
        "streetDirectionId": null,
        "streetTypeId": "CRES",
        "placeName": "CAMBRIDGE",
        "streetNameDisplayText": "CHASE CRES, CAMBRIDGE"
      },
      {
        "electoralDistricts": [
          {
            "election": null,
            "id": 49,
            "name": "Kitchener South—Hespeler"
          }
        ],
        "pollDivisionIds": [
          10139307
        ],
        "postalCode": "N3C0B2",
        "streetName": "HENWOOD",
        "streetDirectionId": null,
        "streetTypeId": "DR",
        "placeName": "CAMBRIDGE",
        "streetNameDisplayText": "HENWOOD DR, CAMBRIDGE"
      }
    ]
  },
  {
    "postal": "N3C2L9",
    "result": [
      {
        "electoralDistricts": [
          {
            "election": null,
            "id": 49,
            "name": "Kitchener South—Hespeler"
          }
        ],
        "pollDivisionIds": [
          10139308
        ],
        "postalCode": "N3C2L9",
        "streetName": "KRIBS",
        "streetDirectionId": null,
        "streetTypeId": "ST",
        "placeName": "CAMBRIDGE",
        "streetNameDisplayText": "KRIBS ST, CAMBRIDGE"
      }
    ]
  },
  {
    "postal": "N3C8K9",
    "result": []
  },
  {
    "postal": "N3C2H9",
    "result": [
      {
        "electoralDistricts": [
          {
            "election": null,
            "id": 49,
            "name": "Kitchener South—Hespeler"
          }
        ],
        "pollDivisionIds": [
          10139309
        ],
        "postalCode": "N3C2H9",
        "streetName": "ONTARIO",
        "streetDirectionId": null,
        "streetTypeId": "ST",
        "placeName": "CAMBRIDGE",
        "streetNameDisplayText": "ONTARIO ST, CAMBRIDGE"
      }
    ]
  },
  {
    "postal": "N3C3Z6",
    "result": [
      {
        "electoralDistricts": [
          {
            "election": null,
            "id": 49,
            "name": "Kitchener South—Hespeler"
          }
        ],
        "pollDivisionIds": [
          10139306
        ],
        "postalCode": "N3C3Z6",
        "streetName": "MEMORY",
        "streetDirectionId": null,
        "streetTypeId": "LANE",
        "placeName": "CAMBRIDGE",
        "streetNameDisplayText": "MEMORY LANE, CAMBRIDGE"
      },
      {
        "electoralDistricts": [
          {
            "election": null,
            "id": 49,
            "name": "Kitchener South—Hespeler"
          }
        ],
        "pollDivisionIds": [
          10139306
        ],
        "postalCode": "N3C3Z6",
        "streetName": "SCOTT",
        "streetDirectionId": null,
        "streetTypeId": "RD",
        "placeName": "CAMBRIDGE",
        "streetNameDisplayText": "SCOTT RD, CAMBRIDGE"
      }
    ]
  },
  {
    "postal": "N3C3B0",
    "result": []
  },
  {
    "postal": "N3C2H8",
    "result": [
      {
        "electoralDistricts": [
          {
            "election": null,
            "id": 49,
            "name": "Kitchener South—Hespeler"
          }
        ],
        "pollDivisionIds": [
          10139309
        ],
        "postalCode": "N3C2H8",
        "streetName": "ONTARIO",
        "streetDirectionId": null,
        "streetTypeId": "ST",
        "placeName": "CAMBRIDGE",
        "streetNameDisplayText": "ONTARIO ST, CAMBRIDGE"
      }
    ]
  },
  {
    "postal": "N3C3X2",
    "result": [
      {
        "electoralDistricts": [
          {
            "election": null,
            "id": 49,
            "name": "Kitchener South—Hespeler"
          }
        ],
        "pollDivisionIds": [
          10139306
        ],
        "postalCode": "N3C3X2",
        "streetName": "DAWN",
        "streetDirectionId": null,
        "streetTypeId": "CRES",
        "placeName": "CAMBRIDGE",
        "streetNameDisplayText": "DAWN CRES, CAMBRIDGE"
      },
      {
        "electoralDistricts": [
          {
            "election": null,
            "id": 49,
            "name": "Kitchener South—Hespeler"
          }
        ],
        "pollDivisionIds": [
          10139306
        ],
        "postalCode": "N3C3X2",
        "streetName": "POPLAR",
        "streetDirectionId": null,
        "streetTypeId": "DR",
        "placeName": "CAMBRIDGE",
        "streetNameDisplayText": "POPLAR DR, CAMBRIDGE"
      }
    ]
  },
  {
    "postal": "N3C2E9",
    "result": [
      {
        "electoralDistricts": [
          {
            "election": null,
            "id": 49,
            "name": "Kitchener South—Hespeler"
          }
        ],
        "pollDivisionIds": [
          10139309
        ],
        "postalCode": "N3C2E9",
        "streetName": "AVONDALE",
        "streetDirectionId": null,
        "streetTypeId": "RD",
        "placeName": "CAMBRIDGE",
        "streetNameDisplayText": "AVONDALE RD, CAMBRIDGE"
      }
    ]
  },
  {
    "postal": "N3C9P6",
    "result": []
  },
  {
    "postal": "N3C9E2",
    "result": []
  },
  {
    "postal": "N3C9H2",
    "result": []
  },
  {
    "postal": "N3C1S8",
    "result": [
      {
        "electoralDistricts": [
          {
            "election": null,
            "id": 49,
            "name": "Kitchener South—Hespeler"
          }
        ],
        "pollDivisionIds": [
          10139305
        ],
        "postalCode": "N3C1S8",
        "streetName": "MAPLE",
        "streetDirectionId": null,
        "streetTypeId": "ST",
        "placeName": "CAMBRIDGE",
        "streetNameDisplayText": "MAPLE ST, CAMBRIDGE"
      }
    ]
  },
  {
    "postal": "N3C3M6",
    "result": [
      {
        "electoralDistricts": [
          {
            "election": null,
            "id": 49,
            "name": "Kitchener South—Hespeler"
          }
        ],
        "pollDivisionIds": [
          10139305
        ],
        "postalCode": "N3C3M6",
        "streetName": "HUBERT",
        "streetDirectionId": null,
        "streetTypeId": "ST",
        "placeName": "CAMBRIDGE",
        "streetNameDisplayText": "HUBERT ST, CAMBRIDGE"
      }
    ]
  },
  {
    "postal": "N3C6Z8",
    "result": []
  },
  {
    "postal": "N3C4J2",
    "result": [
      {
        "electoralDistricts": [
          {
            "election": null,
            "id": 49,
            "name": "Kitchener South—Hespeler"
          }
        ],
        "pollDivisionIds": [
          10139311
        ],
        "postalCode": "N3C4J2",
        "streetName": "KING WILLIAM",
        "streetDirectionId": null,
        "streetTypeId": "CRT",
        "placeName": "CAMBRIDGE",
        "streetNameDisplayText": "KING WILLIAM CRT, CAMBRIDGE"
      }
    ]
  },
  {
    "postal": "N3C9Y1",
    "result": []
  },
  {
    "postal": "N3C8V6",
    "result": []
  },
  {
    "postal": "N3C6B2",
    "result": []
  },
  {
    "postal": "N3C1P8",
    "result": [
      {
        "electoralDistricts": [
          {
            "election": null,
            "id": 49,
            "name": "Kitchener South—Hespeler"
          }
        ],
        "pollDivisionIds": [
          10139308
        ],
        "postalCode": "N3C1P8",
        "streetName": "JARDINE",
        "streetDirectionId": null,
        "streetTypeId": "ST",
        "placeName": "CAMBRIDGE",
        "streetNameDisplayText": "JARDINE ST, CAMBRIDGE"
      }
    ]
  },
  {
    "postal": "N3C0V8",
    "result": []
  },
  {
    "postal": "N3C4Y0",
    "result": []
  },
  {
    "postal": "N3C2T4",
    "result": [
      {
        "electoralDistricts": [
          {
            "election": null,
            "id": 49,
            "name": "Kitchener South—Hespeler"
          }
        ],
        "pollDivisionIds": [
          10139309
        ],
        "postalCode": "N3C2T4",
        "streetName": "RENWICK",
        "streetDirectionId": null,
        "streetTypeId": "AVE",
        "placeName": "CAMBRIDGE",
        "streetNameDisplayText": "RENWICK AVE, CAMBRIDGE"
      }
    ]
  },
  {
    "postal": "N3C2S3",
    "result": [
      {
        "electoralDistricts": [
          {
            "election": null,
            "id": 49,
            "name": "Kitchener South—Hespeler"
          }
        ],
        "pollDivisionIds": [
          10139309
        ],
        "postalCode": "N3C2S3",
        "streetName": "REDWOOD",
        "streetDirectionId": null,
        "streetTypeId": "AVE",
        "placeName": "CAMBRIDGE",
        "streetNameDisplayText": "REDWOOD AVE, CAMBRIDGE"
      }
    ]
  },
  {
    "postal": "N3C0K0",
    "result": []
  },
  {
    "postal": "N3C5N1",
    "result": []
  },
  {
    "postal": "N3C7T0",
    "result": []
  },
  {
    "postal": "N3C9N2",
    "result": []
  },
  {
    "postal": "N3C5L1",
    "result": []
  },
  {
    "postal": "N3C7G5",
    "result": []
  },
  {
    "postal": "N3C6K2",
    "result": []
  },
  {
    "postal": "N3C6P9",
    "result": []
  },
  {
    "postal": "N3C0E6",
    "result": []
  },
  {
    "postal": "N3C8R9",
    "result": []
  },
  {
    "postal": "N3C3G9",
    "result": [
      {
        "electoralDistricts": [
          {
            "election": null,
            "id": 49,
            "name": "Kitchener South—Hespeler"
          }
        ],
        "pollDivisionIds": [
          10139310
        ],
        "postalCode": "N3C3G9",
        "streetName": "FIELDSTONE",
        "streetDirectionId": null,
        "streetTypeId": "CRT",
        "placeName": "CAMBRIDGE",
        "streetNameDisplayText": "FIELDSTONE CRT, CAMBRIDGE"
      }
    ]
  },
  {
    "postal": "N3C0V7",
    "result": []
  },
  {
    "postal": "N3C2Z1",
    "result": [
      {
        "electoralDistricts": [
          {
            "election": null,
            "id": 49,
            "name": "Kitchener South—Hespeler"
          }
        ],
        "pollDivisionIds": [
          10139304
        ],
        "postalCode": "N3C2Z1",
        "streetName": "HAHN",
        "streetDirectionId": null,
        "streetTypeId": "AVE",
        "placeName": "CAMBRIDGE",
        "streetNameDisplayText": "HAHN AVE, CAMBRIDGE"
      }
    ]
  },
  {
    "postal": "N3C7N1",
    "result": []
  },
  {
    "postal": "N3C3C6",
    "result": [
      {
        "electoralDistricts": [
          {
            "election": null,
            "id": 49,
            "name": "Kitchener South—Hespeler"
          }
        ],
        "pollDivisionIds": [
          10139308
        ],
        "postalCode": "N3C3C6",
        "streetName": "THOMAS",
        "streetDirectionId": null,
        "streetTypeId": "ST",
        "placeName": "CAMBRIDGE",
        "streetNameDisplayText": "THOMAS ST, CAMBRIDGE"
      }
    ]
  },
  {
    "postal": "N3C4M1",
    "result": [
      {
        "electoralDistricts": [
          {
            "election": null,
            "id": 49,
            "name": "Kitchener South—Hespeler"
          }
        ],
        "pollDivisionIds": [
          10139311
        ],
        "postalCode": "N3C4M1",
        "streetName": "HAMER",
        "streetDirectionId": null,
        "streetTypeId": "CRES",
        "placeName": "CAMBRIDGE",
        "streetNameDisplayText": "HAMER CRES, CAMBRIDGE"
      }
    ]
  },
  {
    "postal": "N3C9K2",
    "result": []
  },
  {
    "postal": "N3C9S6",
    "result": []
  },
  {
    "postal": "N3C4X1",
    "result": []
  },
  {
    "postal": "N3C8W2",
    "result": []
  },
  {
    "postal": "N3C7N2",
    "result": []
  },
  {
    "postal": "N3C8S3",
    "result": []
  },
  {
    "postal": "N3C4V0",
    "result": []
  },
  {
    "postal": "N3C6W4",
    "result": []
  },
  {
    "postal": "N3C5M1",
    "result": []
  },
  {
    "postal": "N3C0S4",
    "result": []
  },
  {
    "postal": "N3C5X6",
    "result": []
  },
  {
    "postal": "N3C8L5",
    "result": []
  },
  {
    "postal": "N3C5M8",
    "result": []
  },
  {
    "postal": "N3C2G3",
    "result": [
      {
        "electoralDistricts": [
          {
            "election": null,
            "id": 49,
            "name": "Kitchener South—Hespeler"
          }
        ],
        "pollDivisionIds": [
          10139309
        ],
        "postalCode": "N3C2G3",
        "streetName": "HENDERSON",
        "streetDirectionId": null,
        "streetTypeId": "ST",
        "placeName": "CAMBRIDGE",
        "streetNameDisplayText": "HENDERSON ST, CAMBRIDGE"
      }
    ]
  },
  {
    "postal": "N3C8E4",
    "result": []
  },
  {
    "postal": "N3C7S9",
    "result": []
  },
  {
    "postal": "N3C1K3",
    "result": [
      {
        "electoralDistricts": [
          {
            "election": null,
            "id": 49,
            "name": "Kitchener South—Hespeler"
          }
        ],
        "pollDivisionIds": [
          10139305
        ],
        "postalCode": "N3C1K3",
        "streetName": "EDWARD",
        "streetDirectionId": null,
        "streetTypeId": "ST",
        "placeName": "CAMBRIDGE",
        "streetNameDisplayText": "EDWARD ST, CAMBRIDGE"
      }
    ]
  },
  {
    "postal": "N3C4E1",
    "result": [
      {
        "electoralDistricts": [
          {
            "election": null,
            "id": 49,
            "name": "Kitchener South—Hespeler"
          }
        ],
        "pollDivisionIds": [
          10139311
        ],
        "postalCode": "N3C4E1",
        "streetName": "JORDAN",
        "streetDirectionId": null,
        "streetTypeId": "DR",
        "placeName": "CAMBRIDGE",
        "streetNameDisplayText": "JORDAN DR, CAMBRIDGE"
      },
      {
        "electoralDistricts": [
          {
            "election": null,
            "id": 49,
            "name": "Kitchener South—Hespeler"
          }
        ],
        "pollDivisionIds": [
          10139309
        ],
        "postalCode": "N3C4E1",
        "streetName": "MCCORMICK",
        "streetDirectionId": null,
        "streetTypeId": "DR",
        "placeName": "CAMBRIDGE",
        "streetNameDisplayText": "MCCORMICK DR, CAMBRIDGE"
      }
    ]
  },
  {
    "postal": "N3C4R2",
    "result": []
  },
  {
    "postal": "N3C6T0",
    "result": []
  },
  {
    "postal": "N3C3K5",
    "result": []
  },
  {
    "postal": "N3C3S3",
    "result": [
      {
        "electoralDistricts": [
          {
            "election": null,
            "id": 49,
            "name": "Kitchener South—Hespeler"
          }
        ],
        "pollDivisionIds": [
          10139310
        ],
        "postalCode": "N3C3S3",
        "streetName": "CHIPMAN",
        "streetDirectionId": null,
        "streetTypeId": "ST",
        "placeName": "CAMBRIDGE",
        "streetNameDisplayText": "CHIPMAN ST, CAMBRIDGE"
      },
      {
        "electoralDistricts": [
          {
            "election": null,
            "id": 49,
            "name": "Kitchener South—Hespeler"
          }
        ],
        "pollDivisionIds": [
          10139310
        ],
        "postalCode": "N3C3S3",
        "streetName": "PEZZACK",
        "streetDirectionId": null,
        "streetTypeId": "ST",
        "placeName": "CAMBRIDGE",
        "streetNameDisplayText": "PEZZACK ST, CAMBRIDGE"
      }
    ]
  },
  {
    "postal": "N3C3L4",
    "result": [
      {
        "electoralDistricts": [
          {
            "election": null,
            "id": 49,
            "name": "Kitchener South—Hespeler"
          }
        ],
        "pollDivisionIds": [
          10139310
        ],
        "postalCode": "N3C3L4",
        "streetName": "KRIBS",
        "streetDirectionId": null,
        "streetTypeId": "ST",
        "placeName": "CAMBRIDGE",
        "streetNameDisplayText": "KRIBS ST, CAMBRIDGE"
      }
    ]
  },
  {
    "postal": "N3C9Y2",
    "result": []
  },
  {
    "postal": "N3C1E0",
    "result": []
  },
  {
    "postal": "N3C9A4",
    "result": []
  },
  {
    "postal": "N3C1L3",
    "result": [
      {
        "electoralDistricts": [
          {
            "election": null,
            "id": 49,
            "name": "Kitchener South—Hespeler"
          }
        ],
        "pollDivisionIds": [
          10139308
        ],
        "postalCode": "N3C1L3",
        "streetName": "THOMAS",
        "streetDirectionId": null,
        "streetTypeId": "ST",
        "placeName": "CAMBRIDGE",
        "streetNameDisplayText": "THOMAS ST, CAMBRIDGE"
      }
    ]
  },
  {
    "postal": "N3C6N1",
    "result": []
  },
  {
    "postal": "N3C6G7",
    "result": []
  },
  {
    "postal": "N3C7W1",
    "result": []
  },
  {
    "postal": "N3C4M6",
    "result": [
      {
        "electoralDistricts": [
          {
            "election": null,
            "id": 49,
            "name": "Kitchener South—Hespeler"
          }
        ],
        "pollDivisionIds": [
          10139311
        ],
        "postalCode": "N3C4M6",
        "streetName": "KERWOOD",
        "streetDirectionId": null,
        "streetTypeId": "DR",
        "placeName": "CAMBRIDGE",
        "streetNameDisplayText": "KERWOOD DR, CAMBRIDGE"
      },
      {
        "electoralDistricts": [
          {
            "election": null,
            "id": 49,
            "name": "Kitchener South—Hespeler"
          }
        ],
        "pollDivisionIds": [
          10139311
        ],
        "postalCode": "N3C4M6",
        "streetName": "NORTHCLIFFE",
        "streetDirectionId": null,
        "streetTypeId": "CRES",
        "placeName": "CAMBRIDGE",
        "streetNameDisplayText": "NORTHCLIFFE CRES, CAMBRIDGE"
      },
      {
        "electoralDistricts": [
          {
            "election": null,
            "id": 49,
            "name": "Kitchener South—Hespeler"
          }
        ],
        "pollDivisionIds": [
          10139311
        ],
        "postalCode": "N3C4M6",
        "streetName": "SOFRON",
        "streetDirectionId": null,
        "streetTypeId": "DR",
        "placeName": "CAMBRIDGE",
        "streetNameDisplayText": "SOFRON DR, CAMBRIDGE"
      }
    ]
  },
  {
    "postal": "N3C1K0",
    "result": []
  },
  {
    "postal": "N3C3E2",
    "result": [
      {
        "electoralDistricts": [
          {
            "election": null,
            "id": 49,
            "name": "Kitchener South—Hespeler"
          }
        ],
        "pollDivisionIds": [
          10139310
        ],
        "postalCode": "N3C3E2",
        "streetName": "GUNN",
        "streetDirectionId": null,
        "streetTypeId": "AVE",
        "placeName": "CAMBRIDGE",
        "streetNameDisplayText": "GUNN AVE, CAMBRIDGE"
      }
    ]
  },
  {
    "postal": "N3C5H4",
    "result": []
  },
  {
    "postal": "N3C1K7",
    "result": [
      {
        "electoralDistricts": [
          {
            "election": null,
            "id": 49,
            "name": "Kitchener South—Hespeler"
          }
        ],
        "pollDivisionIds": [
          10139305
        ],
        "postalCode": "N3C1K7",
        "streetName": "EDWARD",
        "streetDirectionId": null,
        "streetTypeId": "ST",
        "placeName": "CAMBRIDGE",
        "streetNameDisplayText": "EDWARD ST, CAMBRIDGE"
      }
    ]
  },
  {
    "postal": "N3C0H0",
    "result": []
  },
  {
    "postal": "N3C0J3",
    "result": []
  },
  {
    "postal": "N3C1X6",
    "result": [
      {
        "electoralDistricts": [
          {
            "election": null,
            "id": 49,
            "name": "Kitchener South—Hespeler"
          }
        ],
        "pollDivisionIds": [
          10139305
        ],
        "postalCode": "N3C1X6",
        "streetName": "BEECH",
        "streetDirectionId": null,
        "streetTypeId": "AVE",
        "placeName": "CAMBRIDGE",
        "streetNameDisplayText": "BEECH AVE, CAMBRIDGE"
      }
    ]
  },
  {
    "postal": "N3C2Z6",
    "result": [
      {
        "electoralDistricts": [
          {
            "election": null,
            "id": 49,
            "name": "Kitchener South—Hespeler"
          }
        ],
        "pollDivisionIds": [
          10139310
        ],
        "postalCode": "N3C2Z6",
        "streetName": "GUNN",
        "streetDirectionId": null,
        "streetTypeId": "AVE",
        "placeName": "CAMBRIDGE",
        "streetNameDisplayText": "GUNN AVE, CAMBRIDGE"
      }
    ]
  },
  {
    "postal": "N3C4R9",
    "result": []
  },
  {
    "postal": "N3C0W8",
    "result": []
  },
  {
    "postal": "N3C1L4",
    "result": [
      {
        "electoralDistricts": [
          {
            "election": null,
            "id": 49,
            "name": "Kitchener South—Hespeler"
          }
        ],
        "pollDivisionIds": [
          10139305
        ],
        "postalCode": "N3C1L4",
        "streetName": "WINSTON",
        "streetDirectionId": null,
        "streetTypeId": "BLVD",
        "placeName": "CAMBRIDGE",
        "streetNameDisplayText": "WINSTON BLVD, CAMBRIDGE"
      }
    ]
  },
  {
    "postal": "N3C0C8",
    "result": [
      {
        "electoralDistricts": [
          {
            "election": null,
            "id": 49,
            "name": "Kitchener South—Hespeler"
          }
        ],
        "pollDivisionIds": [
          10139307
        ],
        "postalCode": "N3C0C8",
        "streetName": "ABBOTT",
        "streetDirectionId": null,
        "streetTypeId": "CRES",
        "placeName": "CAMBRIDGE",
        "streetNameDisplayText": "ABBOTT CRES, CAMBRIDGE"
      },
      {
        "electoralDistricts": [
          {
            "election": null,
            "id": 49,
            "name": "Kitchener South—Hespeler"
          }
        ],
        "pollDivisionIds": [
          10139307
        ],
        "postalCode": "N3C0C8",
        "streetName": "HOLLAND",
        "streetDirectionId": null,
        "streetTypeId": "CIR",
        "placeName": "CAMBRIDGE",
        "streetNameDisplayText": "HOLLAND CIR, CAMBRIDGE"
      },
      {
        "electoralDistricts": [
          {
            "election": null,
            "id": 49,
            "name": "Kitchener South—Hespeler"
          }
        ],
        "pollDivisionIds": [
          10139307
        ],
        "postalCode": "N3C0C8",
        "streetName": "MICHIGAN",
        "streetDirectionId": null,
        "streetTypeId": "AVE",
        "placeName": "CAMBRIDGE",
        "streetNameDisplayText": "MICHIGAN AVE, CAMBRIDGE"
      }
    ]
  },
  {
    "postal": "N3C9X7",
    "result": []
  },
  {
    "postal": "N3C4T1",
    "result": []
  },
  {
    "postal": "N3C0M0",
    "result": []
  },
  {
    "postal": "N3C6A2",
    "result": []
  },
  {
    "postal": "N3C9S8",
    "result": []
  },
  {
    "postal": "N3C9T4",
    "result": []
  },
  {
    "postal": "N3C9Y4",
    "result": []
  },
  {
    "postal": "N3C6G5",
    "result": []
  },
  {
    "postal": "N3C6H9",
    "result": []
  },
  {
    "postal": "N3C2P3",
    "result": []
  },
  {
    "postal": "N3C1T6",
    "result": [
      {
        "electoralDistricts": [
          {
            "election": null,
            "id": 49,
            "name": "Kitchener South—Hespeler"
          }
        ],
        "pollDivisionIds": [
          10139305
        ],
        "postalCode": "N3C1T6",
        "streetName": "MILLVUE",
        "streetDirectionId": null,
        "streetTypeId": "ST",
        "placeName": "CAMBRIDGE",
        "streetNameDisplayText": "MILLVUE ST, CAMBRIDGE"
      }
    ]
  },
  {
    "postal": "N3C4P6",
    "result": [
      {
        "electoralDistricts": [
          {
            "election": null,
            "id": 49,
            "name": "Kitchener South—Hespeler"
          }
        ],
        "pollDivisionIds": [
          10139305
        ],
        "postalCode": "N3C4P6",
        "streetName": "ETHEL",
        "streetDirectionId": null,
        "streetTypeId": "ST",
        "placeName": "CAMBRIDGE",
        "streetNameDisplayText": "ETHEL ST, CAMBRIDGE"
      }
    ]
  },
  {
    "postal": "N3C3K1",
    "result": []
  },
  {
    "postal": "N3C6X4",
    "result": []
  },
  {
    "postal": "N3C4M8",
    "result": [
      {
        "electoralDistricts": [
          {
            "election": null,
            "id": 49,
            "name": "Kitchener South—Hespeler"
          }
        ],
        "pollDivisionIds": [
          10139311
        ],
        "postalCode": "N3C4M8",
        "streetName": "NORTHCLIFFE",
        "streetDirectionId": null,
        "streetTypeId": "CRES",
        "placeName": "CAMBRIDGE",
        "streetNameDisplayText": "NORTHCLIFFE CRES, CAMBRIDGE"
      },
      {
        "electoralDistricts": [
          {
            "election": null,
            "id": 49,
            "name": "Kitchener South—Hespeler"
          }
        ],
        "pollDivisionIds": [
          10139311
        ],
        "postalCode": "N3C4M8",
        "streetName": "SOFRON",
        "streetDirectionId": null,
        "streetTypeId": "DR",
        "placeName": "CAMBRIDGE",
        "streetNameDisplayText": "SOFRON DR, CAMBRIDGE"
      }
    ]
  },
  {
    "postal": "N3C2Y1",
    "result": [
      {
        "electoralDistricts": [
          {
            "election": null,
            "id": 49,
            "name": "Kitchener South—Hespeler"
          }
        ],
        "pollDivisionIds": [
          10139307
        ],
        "postalCode": "N3C2Y1",
        "streetName": "KRIBS",
        "streetDirectionId": null,
        "streetTypeId": "ST",
        "placeName": "CAMBRIDGE",
        "streetNameDisplayText": "KRIBS ST, CAMBRIDGE"
      }
    ]
  },
  {
    "postal": "N3C6M1",
    "result": []
  },
  {
    "postal": "N3C5L8",
    "result": []
  },
  {
    "postal": "N3C3P6",
    "result": [
      {
        "electoralDistricts": [
          {
            "election": null,
            "id": 49,
            "name": "Kitchener South—Hespeler"
          }
        ],
        "pollDivisionIds": [
          10139305
        ],
        "postalCode": "N3C3P6",
        "streetName": "HOLIDAY INN",
        "streetDirectionId": null,
        "streetTypeId": "DR",
        "placeName": "CAMBRIDGE",
        "streetNameDisplayText": "HOLIDAY INN DR, CAMBRIDGE"
      }
    ]
  },
  {
    "postal": "N3C9A5",
    "result": []
  },
  {
    "postal": "N3C7K1",
    "result": []
  },
  {
    "postal": "N3C3J4",
    "result": [
      {
        "electoralDistricts": [
          {
            "election": null,
            "id": 49,
            "name": "Kitchener South—Hespeler"
          }
        ],
        "pollDivisionIds": [
          10139305
        ],
        "postalCode": "N3C3J4",
        "streetName": "WESTBROOK",
        "streetDirectionId": null,
        "streetTypeId": "PL",
        "placeName": "CAMBRIDGE",
        "streetNameDisplayText": "WESTBROOK PL, CAMBRIDGE"
      }
    ]
  },
  {
    "postal": "N3C5E7",
    "result": []
  },
  {
    "postal": "N3C3A7",
    "result": [
      {
        "electoralDistricts": [
          {
            "election": null,
            "id": 49,
            "name": "Kitchener South—Hespeler"
          }
        ],
        "pollDivisionIds": [
          10139310
        ],
        "postalCode": "N3C3A7",
        "streetName": "PINTAIL",
        "streetDirectionId": null,
        "streetTypeId": "PL",
        "placeName": "CAMBRIDGE",
        "streetNameDisplayText": "PINTAIL PL, CAMBRIDGE"
      }
    ]
  },
  {
    "postal": "N3C1B9",
    "result": [
      {
        "electoralDistricts": [
          {
            "election": null,
            "id": 49,
            "name": "Kitchener South—Hespeler"
          }
        ],
        "pollDivisionIds": [
          10139306
        ],
        "postalCode": "N3C1B9",
        "streetName": "LIMPERT",
        "streetDirectionId": null,
        "streetTypeId": "AVE",
        "placeName": "CAMBRIDGE",
        "streetNameDisplayText": "LIMPERT AVE, CAMBRIDGE"
      }
    ]
  },
  {
    "postal": "N3C9E8",
    "result": []
  },
  {
    "postal": "N3C1C9",
    "result": [
      {
        "electoralDistricts": [
          {
            "election": null,
            "id": 49,
            "name": "Kitchener South—Hespeler"
          }
        ],
        "pollDivisionIds": [
          10139306
        ],
        "postalCode": "N3C1C9",
        "streetName": "FISHER MILLS",
        "streetDirectionId": null,
        "streetTypeId": "RD",
        "placeName": "CAMBRIDGE",
        "streetNameDisplayText": "FISHER MILLS RD, CAMBRIDGE"
      }
    ]
  },
  {
    "postal": "N3C3B5",
    "result": [
      {
        "electoralDistricts": [
          {
            "election": null,
            "id": 49,
            "name": "Kitchener South—Hespeler"
          }
        ],
        "pollDivisionIds": [
          10139304
        ],
        "postalCode": "N3C3B5",
        "streetName": "RUDI",
        "streetDirectionId": null,
        "streetTypeId": "CRT",
        "placeName": "CAMBRIDGE",
        "streetNameDisplayText": "RUDI CRT, CAMBRIDGE"
      }
    ]
  },
  {
    "postal": "N3C8R0",
    "result": []
  },
  {
    "postal": "N3C3P2",
    "result": [
      {
        "electoralDistricts": [
          {
            "election": null,
            "id": 49,
            "name": "Kitchener South—Hespeler"
          }
        ],
        "pollDivisionIds": [
          10139306
        ],
        "postalCode": "N3C3P2",
        "streetName": "LIMPERT",
        "streetDirectionId": null,
        "streetTypeId": "AVE",
        "placeName": "CAMBRIDGE",
        "streetNameDisplayText": "LIMPERT AVE, CAMBRIDGE"
      }
    ]
  },
  {
    "postal": "N3C5V4",
    "result": []
  },
  {
    "postal": "N3C4H0",
    "result": []
  },
  {
    "postal": "N3C4S7",
    "result": []
  },
  {
    "postal": "N3C6C2",
    "result": []
  },
  {
    "postal": "N3C8W3",
    "result": []
  },
  {
    "postal": "N3C4M5",
    "result": [
      {
        "electoralDistricts": [
          {
            "election": null,
            "id": 49,
            "name": "Kitchener South—Hespeler"
          }
        ],
        "pollDivisionIds": [
          10139311
        ],
        "postalCode": "N3C4M5",
        "streetName": "GEES",
        "streetDirectionId": null,
        "streetTypeId": "WAY",
        "placeName": "CAMBRIDGE",
        "streetNameDisplayText": "GEES WAY, CAMBRIDGE"
      },
      {
        "electoralDistricts": [
          {
            "election": null,
            "id": 49,
            "name": "Kitchener South—Hespeler"
          }
        ],
        "pollDivisionIds": [
          10139311
        ],
        "postalCode": "N3C4M5",
        "streetName": "KERWOOD",
        "streetDirectionId": null,
        "streetTypeId": "DR",
        "placeName": "CAMBRIDGE",
        "streetNameDisplayText": "KERWOOD DR, CAMBRIDGE"
      }
    ]
  },
  {
    "postal": "N3C5T1",
    "result": []
  },
  {
    "postal": "N3C3B3",
    "result": [
      {
        "electoralDistricts": [
          {
            "election": null,
            "id": 49,
            "name": "Kitchener South—Hespeler"
          }
        ],
        "pollDivisionIds": [
          10139304
        ],
        "postalCode": "N3C3B3",
        "streetName": "PINO",
        "streetDirectionId": null,
        "streetTypeId": "PL",
        "placeName": "CAMBRIDGE",
        "streetNameDisplayText": "PINO PL, CAMBRIDGE"
      }
    ]
  },
  {
    "postal": "N3C6C6",
    "result": []
  },
  {
    "postal": "N3C7N8",
    "result": []
  },
  {
    "postal": "N3C2Y3",
    "result": [
      {
        "electoralDistricts": [
          {
            "election": null,
            "id": 49,
            "name": "Kitchener South—Hespeler"
          }
        ],
        "pollDivisionIds": [
          10139306
        ],
        "postalCode": "N3C2Y3",
        "streetName": "MILTON",
        "streetDirectionId": "W",
        "streetTypeId": "AVE",
        "placeName": "CAMBRIDGE",
        "streetNameDisplayText": "MILTON AVE W, CAMBRIDGE"
      }
    ]
  },
  {
    "postal": "N3C2R6",
    "result": [
      {
        "electoralDistricts": [
          {
            "election": null,
            "id": 49,
            "name": "Kitchener South—Hespeler"
          }
        ],
        "pollDivisionIds": [
          10139309
        ],
        "postalCode": "N3C2R6",
        "streetName": "GERRARD",
        "streetDirectionId": null,
        "streetTypeId": "AVE",
        "placeName": "CAMBRIDGE",
        "streetNameDisplayText": "GERRARD AVE, CAMBRIDGE"
      }
    ]
  },
  {
    "postal": "N3C7N3",
    "result": []
  },
  {
    "postal": "N3C8J2",
    "result": []
  },
  {
    "postal": "N3C6A9",
    "result": []
  },
  {
    "postal": "N3C3V2",
    "result": [
      {
        "electoralDistricts": [
          {
            "election": null,
            "id": 49,
            "name": "Kitchener South—Hespeler"
          }
        ],
        "pollDivisionIds": [
          10139310
        ],
        "postalCode": "N3C3V2",
        "streetName": "BREWSTER",
        "streetDirectionId": null,
        "streetTypeId": "PL",
        "placeName": "CAMBRIDGE",
        "streetNameDisplayText": "BREWSTER PL, CAMBRIDGE"
      }
    ]
  },
  {
    "postal": "N3C2N3",
    "result": [
      {
        "electoralDistricts": [
          {
            "election": null,
            "id": 49,
            "name": "Kitchener South—Hespeler"
          }
        ],
        "pollDivisionIds": [
          10139307
        ],
        "postalCode": "N3C2N3",
        "streetName": "COOPER",
        "streetDirectionId": null,
        "streetTypeId": "ST",
        "placeName": "CAMBRIDGE",
        "streetNameDisplayText": "COOPER ST, CAMBRIDGE"
      }
    ]
  },
  {
    "postal": "N3C1S5",
    "result": [
      {
        "electoralDistricts": [
          {
            "election": null,
            "id": 49,
            "name": "Kitchener South—Hespeler"
          }
        ],
        "pollDivisionIds": [
          10139305
        ],
        "postalCode": "N3C1S5",
        "streetName": "MAPLE",
        "streetDirectionId": null,
        "streetTypeId": "ST",
        "placeName": "CAMBRIDGE",
        "streetNameDisplayText": "MAPLE ST, CAMBRIDGE"
      }
    ]
  },
  {
    "postal": "N3C4T7",
    "result": []
  },
  {
    "postal": "N3C6Y7",
    "result": []
  },
  {
    "postal": "N3C0W7",
    "result": []
  },
  {
    "postal": "N3C2W9",
    "result": [
      {
        "electoralDistricts": [
          {
            "election": null,
            "id": 49,
            "name": "Kitchener South—Hespeler"
          }
        ],
        "pollDivisionIds": [
          10139304
        ],
        "postalCode": "N3C2W9",
        "streetName": "BRETZ",
        "streetDirectionId": null,
        "streetTypeId": "AVE",
        "placeName": "CAMBRIDGE",
        "streetNameDisplayText": "BRETZ AVE, CAMBRIDGE"
      }
    ]
  },
  {
    "postal": "N3C8V0",
    "result": []
  },
  {
    "postal": "N3C0H4",
    "result": []
  },
  {
    "postal": "N3C2T1",
    "result": [
      {
        "electoralDistricts": [
          {
            "election": null,
            "id": 49,
            "name": "Kitchener South—Hespeler"
          }
        ],
        "pollDivisionIds": [
          10139309
        ],
        "postalCode": "N3C2T1",
        "streetName": "ELIZABETH",
        "streetDirectionId": null,
        "streetTypeId": "ST",
        "placeName": "CAMBRIDGE",
        "streetNameDisplayText": "ELIZABETH ST, CAMBRIDGE"
      }
    ]
  },
  {
    "postal": "N3C1B1",
    "result": [
      {
        "electoralDistricts": [
          {
            "election": null,
            "id": 49,
            "name": "Kitchener South—Hespeler"
          }
        ],
        "pollDivisionIds": [
          10139307
        ],
        "postalCode": "N3C1B1",
        "streetName": "HENRY VILLA",
        "streetDirectionId": null,
        "streetTypeId": "DR",
        "placeName": "CAMBRIDGE",
        "streetNameDisplayText": "HENRY VILLA DR, CAMBRIDGE"
      }
    ]
  },
  {
    "postal": "N3C8B6",
    "result": []
  },
  {
    "postal": "N3C6H1",
    "result": []
  },
  {
    "postal": "N3C8T8",
    "result": []
  },
  {
    "postal": "N3C0T4",
    "result": []
  },
  {
    "postal": "N3C2C4",
    "result": [
      {
        "electoralDistricts": [
          {
            "election": null,
            "id": 49,
            "name": "Kitchener South—Hespeler"
          }
        ],
        "pollDivisionIds": [
          10139309
        ],
        "postalCode": "N3C2C4",
        "streetName": "WALKER",
        "streetDirectionId": null,
        "streetTypeId": "ST",
        "placeName": "CAMBRIDGE",
        "streetNameDisplayText": "WALKER ST, CAMBRIDGE"
      }
    ]
  },
  {
    "postal": "N3C8N3",
    "result": []
  },
  {
    "postal": "N3C4L8",
    "result": [
      {
        "electoralDistricts": [
          {
            "election": null,
            "id": 49,
            "name": "Kitchener South—Hespeler"
          }
        ],
        "pollDivisionIds": [
          10139309
        ],
        "postalCode": "N3C4L8",
        "streetName": "HAMMET",
        "streetDirectionId": null,
        "streetTypeId": "ST",
        "placeName": "CAMBRIDGE",
        "streetNameDisplayText": "HAMMET ST, CAMBRIDGE"
      }
    ]
  },
  {
    "postal": "N3C2B5",
    "result": [
      {
        "electoralDistricts": [
          {
            "election": null,
            "id": 49,
            "name": "Kitchener South—Hespeler"
          }
        ],
        "pollDivisionIds": [
          10139309
        ],
        "postalCode": "N3C2B5",
        "streetName": "QUEEN",
        "streetDirectionId": "E",
        "streetTypeId": "ST",
        "placeName": "CAMBRIDGE",
        "streetNameDisplayText": "QUEEN ST E, CAMBRIDGE"
      }
    ]
  },
  {
    "postal": "N3C3H1",
    "result": []
  },
  {
    "postal": "N3C4Y1",
    "result": []
  },
  {
    "postal": "N3C7E2",
    "result": []
  },
  {
    "postal": "N3C2P5",
    "result": [
      {
        "electoralDistricts": [
          {
            "election": null,
            "id": 49,
            "name": "Kitchener South—Hespeler"
          }
        ],
        "pollDivisionIds": [
          10139307
        ],
        "postalCode": "N3C2P5",
        "streetName": "HUNGERFORD",
        "streetDirectionId": null,
        "streetTypeId": "RD",
        "placeName": "CAMBRIDGE",
        "streetNameDisplayText": "HUNGERFORD RD, CAMBRIDGE"
      }
    ]
  },
  {
    "postal": "N3C8R7",
    "result": []
  },
  {
    "postal": "N3C9P1",
    "result": []
  },
  {
    "postal": "N3C3B8",
    "result": [
      {
        "electoralDistricts": [
          {
            "election": null,
            "id": 49,
            "name": "Kitchener South—Hespeler"
          }
        ],
        "pollDivisionIds": [
          10139310
        ],
        "postalCode": "N3C3B8",
        "streetName": "RAMSAY",
        "streetDirectionId": null,
        "streetTypeId": "AVE",
        "placeName": "CAMBRIDGE",
        "streetNameDisplayText": "RAMSAY AVE, CAMBRIDGE"
      }
    ]
  },
  {
    "postal": "N3C3P7",
    "result": []
  },
  {
    "postal": "N3C9B2",
    "result": []
  },
  {
    "postal": "N3C6Z3",
    "result": []
  },
  {
    "postal": "N3C4N5",
    "result": [
      {
        "electoralDistricts": [
          {
            "election": null,
            "id": 49,
            "name": "Kitchener South—Hespeler"
          }
        ],
        "pollDivisionIds": [
          10139306
        ],
        "postalCode": "N3C4N5",
        "streetName": "FISHER MILLS",
        "streetDirectionId": null,
        "streetTypeId": "RD",
        "placeName": "CAMBRIDGE",
        "streetNameDisplayText": "FISHER MILLS RD, CAMBRIDGE"
      }
    ]
  },
  {
    "postal": "N3C8T3",
    "result": []
  },
  {
    "postal": "N3C1V2",
    "result": [
      {
        "electoralDistricts": [
          {
            "election": null,
            "id": 49,
            "name": "Kitchener South—Hespeler"
          }
        ],
        "pollDivisionIds": [
          10139305
        ],
        "postalCode": "N3C1V2",
        "streetName": "WOODSDALE",
        "streetDirectionId": null,
        "streetTypeId": "BLVD",
        "placeName": "CAMBRIDGE",
        "streetNameDisplayText": "WOODSDALE BLVD, CAMBRIDGE"
      }
    ]
  },
  {
    "postal": "N3C1Y0",
    "result": []
  },
  {
    "postal": "N3C3G6",
    "result": [
      {
        "electoralDistricts": [
          {
            "election": null,
            "id": 49,
            "name": "Kitchener South—Hespeler"
          }
        ],
        "pollDivisionIds": [
          10139310
        ],
        "postalCode": "N3C3G6",
        "streetName": "FOXRIDGE",
        "streetDirectionId": null,
        "streetTypeId": "DR",
        "placeName": "CAMBRIDGE",
        "streetNameDisplayText": "FOXRIDGE DR, CAMBRIDGE"
      }
    ]
  },
  {
    "postal": "N3C3H7",
    "result": [
      {
        "electoralDistricts": [
          {
            "election": null,
            "id": 49,
            "name": "Kitchener South—Hespeler"
          }
        ],
        "pollDivisionIds": [
          10139310
        ],
        "postalCode": "N3C3H7",
        "streetName": "ASHWOOD",
        "streetDirectionId": null,
        "streetTypeId": "DR",
        "placeName": "CAMBRIDGE",
        "streetNameDisplayText": "ASHWOOD DR, CAMBRIDGE"
      }
    ]
  },
  {
    "postal": "N3C7X8",
    "result": []
  },
  {
    "postal": "N3C0C7",
    "result": [
      {
        "electoralDistricts": [
          {
            "election": null,
            "id": 49,
            "name": "Kitchener South—Hespeler"
          }
        ],
        "pollDivisionIds": [
          10139307
        ],
        "postalCode": "N3C0C7",
        "streetName": "CHASE",
        "streetDirectionId": null,
        "streetTypeId": "CRES",
        "placeName": "CAMBRIDGE",
        "streetNameDisplayText": "CHASE CRES, CAMBRIDGE"
      },
      {
        "electoralDistricts": [
          {
            "election": null,
            "id": 49,
            "name": "Kitchener South—Hespeler"
          }
        ],
        "pollDivisionIds": [
          10139307
        ],
        "postalCode": "N3C0C7",
        "streetName": "HORTON",
        "streetDirectionId": null,
        "streetTypeId": "WALK",
        "placeName": "CAMBRIDGE",
        "streetNameDisplayText": "HORTON WALK, CAMBRIDGE"
      },
      {
        "electoralDistricts": [
          {
            "election": null,
            "id": 49,
            "name": "Kitchener South—Hespeler"
          }
        ],
        "pollDivisionIds": [
          10139307
        ],
        "postalCode": "N3C0C7",
        "streetName": "MICHIGAN",
        "streetDirectionId": null,
        "streetTypeId": "AVE",
        "placeName": "CAMBRIDGE",
        "streetNameDisplayText": "MICHIGAN AVE, CAMBRIDGE"
      }
    ]
  },
  {
    "postal": "N3C0W9",
    "result": []
  },
  {
    "postal": "N3C8E6",
    "result": []
  },
  {
    "postal": "N3C9Z8",
    "result": []
  },
  {
    "postal": "N3C3P4",
    "result": [
      {
        "electoralDistricts": [
          {
            "election": null,
            "id": 49,
            "name": "Kitchener South—Hespeler"
          }
        ],
        "pollDivisionIds": [
          10139305,
          10139328,
          10139308
        ],
        "postalCode": "N3C3P4",
        "streetName": "FRANKLIN",
        "streetDirectionId": null,
        "streetTypeId": "BLVD",
        "placeName": "CAMBRIDGE",
        "streetNameDisplayText": "FRANKLIN BLVD, CAMBRIDGE"
      }
    ]
  },
  {
    "postal": "N3C6L8",
    "result": []
  },
  {
    "postal": "N3C2R4",
    "result": [
      {
        "electoralDistricts": [
          {
            "election": null,
            "id": 49,
            "name": "Kitchener South—Hespeler"
          }
        ],
        "pollDivisionIds": [
          10139309,
          10139307
        ],
        "postalCode": "N3C2R4",
        "streetName": "HUNGERFORD",
        "streetDirectionId": null,
        "streetTypeId": "RD",
        "placeName": "CAMBRIDGE",
        "streetNameDisplayText": "HUNGERFORD RD, CAMBRIDGE"
      }
    ]
  },
  {
    "postal": "N3C2W1",
    "result": []
  },
  {
    "postal": "N3C9H8",
    "result": []
  },
  {
    "postal": "N3C8X9",
    "result": []
  },
  {
    "postal": "N3C7H4",
    "result": []
  },
  {
    "postal": "N3C3J1",
    "result": [
      {
        "electoralDistricts": [
          {
            "election": null,
            "id": 49,
            "name": "Kitchener South—Hespeler"
          }
        ],
        "pollDivisionIds": [
          10139310
        ],
        "postalCode": "N3C3J1",
        "streetName": "KRIBS",
        "streetDirectionId": null,
        "streetTypeId": "ST",
        "placeName": "CAMBRIDGE",
        "streetNameDisplayText": "KRIBS ST, CAMBRIDGE"
      }
    ]
  },
  {
    "postal": "N3C1P4",
    "result": [
      {
        "electoralDistricts": [
          {
            "election": null,
            "id": 49,
            "name": "Kitchener South—Hespeler"
          }
        ],
        "pollDivisionIds": [
          10139308
        ],
        "postalCode": "N3C1P4",
        "streetName": "FRANKLIN",
        "streetDirectionId": null,
        "streetTypeId": "BLVD",
        "placeName": "CAMBRIDGE",
        "streetNameDisplayText": "FRANKLIN BLVD, CAMBRIDGE"
      }
    ]
  },
  {
    "postal": "N3C2A3",
    "result": [
      {
        "electoralDistricts": [
          {
            "election": null,
            "id": 49,
            "name": "Kitchener South—Hespeler"
          }
        ],
        "pollDivisionIds": [
          10139305
        ],
        "postalCode": "N3C2A3",
        "streetName": "ROOSHILL",
        "streetDirectionId": null,
        "streetTypeId": "AVE",
        "placeName": "CAMBRIDGE",
        "streetNameDisplayText": "ROOSHILL AVE, CAMBRIDGE"
      }
    ]
  },
  {
    "postal": "N3C0Z1",
    "result": []
  },
  {
    "postal": "N3C1C1",
    "result": [
      {
        "electoralDistricts": [
          {
            "election": null,
            "id": 49,
            "name": "Kitchener South—Hespeler"
          }
        ],
        "pollDivisionIds": [
          10139306
        ],
        "postalCode": "N3C1C1",
        "streetName": "WOODFORD",
        "streetDirectionId": null,
        "streetTypeId": "DR",
        "placeName": "CAMBRIDGE",
        "streetNameDisplayText": "WOODFORD DR, CAMBRIDGE"
      }
    ]
  },
  {
    "postal": "N3C0H3",
    "result": []
  },
  {
    "postal": "N3C7B0",
    "result": []
  },
  {
    "postal": "N3C5K2",
    "result": []
  },
  {
    "postal": "N3C1E9",
    "result": [
      {
        "electoralDistricts": [
          {
            "election": null,
            "id": 49,
            "name": "Kitchener South—Hespeler"
          }
        ],
        "pollDivisionIds": [
          10139307
        ],
        "postalCode": "N3C1E9",
        "streetName": "MILTON",
        "streetDirectionId": "E",
        "streetTypeId": "AVE",
        "placeName": "CAMBRIDGE",
        "streetNameDisplayText": "MILTON AVE E, CAMBRIDGE"
      }
    ]
  },
  {
    "postal": "N3C9W7",
    "result": []
  },
  {
    "postal": "N3C5W6",
    "result": []
  },
  {
    "postal": "N3C6S6",
    "result": []
  },
  {
    "postal": "N3C2P8",
    "result": [
      {
        "electoralDistricts": [
          {
            "election": null,
            "id": 49,
            "name": "Kitchener South—Hespeler"
          }
        ],
        "pollDivisionIds": [
          10139309
        ],
        "postalCode": "N3C2P8",
        "streetName": "HUNGERFORD",
        "streetDirectionId": null,
        "streetTypeId": "RD",
        "placeName": "CAMBRIDGE",
        "streetNameDisplayText": "HUNGERFORD RD, CAMBRIDGE"
      }
    ]
  },
  {
    "postal": "N3C4P8",
    "result": []
  },
  {
    "postal": "N3C0V9",
    "result": []
  },
  {
    "postal": "N3C5Y2",
    "result": []
  },
  {
    "postal": "N3C7Z7",
    "result": []
  },
  {
    "postal": "N3C6Y8",
    "result": []
  },
  {
    "postal": "N3C2G7",
    "result": [
      {
        "electoralDistricts": [
          {
            "election": null,
            "id": 49,
            "name": "Kitchener South—Hespeler"
          }
        ],
        "pollDivisionIds": [
          10139308
        ],
        "postalCode": "N3C2G7",
        "streetName": "RIFE",
        "streetDirectionId": null,
        "streetTypeId": "AVE",
        "placeName": "CAMBRIDGE",
        "streetNameDisplayText": "RIFE AVE, CAMBRIDGE"
      }
    ]
  },
  {
    "postal": "N3C8C1",
    "result": []
  },
  {
    "postal": "N3C5C5",
    "result": []
  },
  {
    "postal": "N3C2X8",
    "result": [
      {
        "electoralDistricts": [
          {
            "election": null,
            "id": 49,
            "name": "Kitchener South—Hespeler"
          }
        ],
        "pollDivisionIds": [
          10139304
        ],
        "postalCode": "N3C2X8",
        "streetName": "SCOTT",
        "streetDirectionId": null,
        "streetTypeId": "RD",
        "placeName": "CAMBRIDGE",
        "streetNameDisplayText": "SCOTT RD, CAMBRIDGE"
      }
    ]
  },
  {
    "postal": "N3C1W5",
    "result": [
      {
        "electoralDistricts": [
          {
            "election": null,
            "id": 49,
            "name": "Kitchener South—Hespeler"
          }
        ],
        "pollDivisionIds": [
          10139305
        ],
        "postalCode": "N3C1W5",
        "streetName": "WEAVER",
        "streetDirectionId": null,
        "streetTypeId": "ST",
        "placeName": "CAMBRIDGE",
        "streetNameDisplayText": "WEAVER ST, CAMBRIDGE"
      }
    ]
  },
  {
    "postal": "N3C7G0",
    "result": []
  },
  {
    "postal": "N3C8J8",
    "result": []
  },
  {
    "postal": "N3C3Y0",
    "result": []
  },
  {
    "postal": "N3C9T7",
    "result": []
  },
  {
    "postal": "N3C5P4",
    "result": []
  },
  {
    "postal": "N3C4B0",
    "result": []
  },
  {
    "postal": "N3C9N8",
    "result": []
  },
  {
    "postal": "N3C4A7",
    "result": [
      {
        "electoralDistricts": [
          {
            "election": null,
            "id": 49,
            "name": "Kitchener South—Hespeler"
          }
        ],
        "pollDivisionIds": [
          10139306
        ],
        "postalCode": "N3C4A7",
        "streetName": "MCLELLAN",
        "streetDirectionId": null,
        "streetTypeId": "CRT",
        "placeName": "CAMBRIDGE",
        "streetNameDisplayText": "MCLELLAN CRT, CAMBRIDGE"
      },
      {
        "electoralDistricts": [
          {
            "election": null,
            "id": 49,
            "name": "Kitchener South—Hespeler"
          }
        ],
        "pollDivisionIds": [
          10139306
        ],
        "postalCode": "N3C4A7",
        "streetName": "SACHA",
        "streetDirectionId": null,
        "streetTypeId": "RD",
        "placeName": "CAMBRIDGE",
        "streetNameDisplayText": "SACHA RD, CAMBRIDGE"
      }
    ]
  },
  {
    "postal": "N3C4H9",
    "result": [
      {
        "electoralDistricts": [
          {
            "election": null,
            "id": 49,
            "name": "Kitchener South—Hespeler"
          }
        ],
        "pollDivisionIds": [
          10139311
        ],
        "postalCode": "N3C4H9",
        "streetName": "BLUEWATER",
        "streetDirectionId": null,
        "streetTypeId": "DR",
        "placeName": "CAMBRIDGE",
        "streetNameDisplayText": "BLUEWATER DR, CAMBRIDGE"
      },
      {
        "electoralDistricts": [
          {
            "election": null,
            "id": 49,
            "name": "Kitchener South—Hespeler"
          }
        ],
        "pollDivisionIds": [
          10139311
        ],
        "postalCode": "N3C4H9",
        "streetName": "SOFRON",
        "streetDirectionId": null,
        "streetTypeId": "DR",
        "placeName": "CAMBRIDGE",
        "streetNameDisplayText": "SOFRON DR, CAMBRIDGE"
      },
      {
        "electoralDistricts": [
          {
            "election": null,
            "id": 49,
            "name": "Kitchener South—Hespeler"
          }
        ],
        "pollDivisionIds": [
          10139311
        ],
        "postalCode": "N3C4H9",
        "streetName": "SWEENEY",
        "streetDirectionId": null,
        "streetTypeId": "CRES",
        "placeName": "CAMBRIDGE",
        "streetNameDisplayText": "SWEENEY CRES, CAMBRIDGE"
      }
    ]
  },
  {
    "postal": "N3C6X1",
    "result": []
  },
  {
    "postal": "N3C9Y7",
    "result": []
  },
  {
    "postal": "N3C2Y5",
    "result": [
      {
        "electoralDistricts": [
          {
            "election": null,
            "id": 49,
            "name": "Kitchener South—Hespeler"
          }
        ],
        "pollDivisionIds": [
          10139306
        ],
        "postalCode": "N3C2Y5",
        "streetName": "MILTON",
        "streetDirectionId": "W",
        "streetTypeId": "AVE",
        "placeName": "CAMBRIDGE",
        "streetNameDisplayText": "MILTON AVE W, CAMBRIDGE"
      }
    ]
  },
  {
    "postal": "N3C8L7",
    "result": []
  },
  {
    "postal": "N3C2A8",
    "result": [
      {
        "electoralDistricts": [
          {
            "election": null,
            "id": 49,
            "name": "Kitchener South—Hespeler"
          }
        ],
        "pollDivisionIds": [
          10139307
        ],
        "postalCode": "N3C2A8",
        "streetName": "QUEEN",
        "streetDirectionId": "E",
        "streetTypeId": "ST",
        "placeName": "CAMBRIDGE",
        "streetNameDisplayText": "QUEEN ST E, CAMBRIDGE"
      }
    ]
  },
  {
    "postal": "N3C2K9",
    "result": []
  },
  {
    "postal": "N3C3E5",
    "result": [
      {
        "electoralDistricts": [
          {
            "election": null,
            "id": 49,
            "name": "Kitchener South—Hespeler"
          }
        ],
        "pollDivisionIds": [
          10139308
        ],
        "postalCode": "N3C3E5",
        "streetName": "GUNN",
        "streetDirectionId": null,
        "streetTypeId": "AVE",
        "placeName": "CAMBRIDGE",
        "streetNameDisplayText": "GUNN AVE, CAMBRIDGE"
      }
    ]
  },
  {
    "postal": "N3C8N6",
    "result": []
  },
  {
    "postal": "N3C8J4",
    "result": []
  },
  {
    "postal": "N3C4R7",
    "result": []
  },
  {
    "postal": "N3C9K1",
    "result": []
  },
  {
    "postal": "N3C8E1",
    "result": []
  },
  {
    "postal": "N3C0R1",
    "result": []
  },
  {
    "postal": "N3C4J3",
    "result": [
      {
        "electoralDistricts": [
          {
            "election": null,
            "id": 49,
            "name": "Kitchener South—Hespeler"
          }
        ],
        "pollDivisionIds": [
          10139311
        ],
        "postalCode": "N3C4J3",
        "streetName": "KING WILLIAM",
        "streetDirectionId": null,
        "streetTypeId": "CRT",
        "placeName": "CAMBRIDGE",
        "streetNameDisplayText": "KING WILLIAM CRT, CAMBRIDGE"
      },
      {
        "electoralDistricts": [
          {
            "election": null,
            "id": 49,
            "name": "Kitchener South—Hespeler"
          }
        ],
        "pollDivisionIds": [
          10139311
        ],
        "postalCode": "N3C4J3",
        "streetName": "NUTTAL",
        "streetDirectionId": null,
        "streetTypeId": "ST",
        "placeName": "CAMBRIDGE",
        "streetNameDisplayText": "NUTTAL ST, CAMBRIDGE"
      }
    ]
  },
  {
    "postal": "N3C7E7",
    "result": []
  },
  {
    "postal": "N3C0J0",
    "result": []
  },
  {
    "postal": "N3C7R8",
    "result": []
  },
  {
    "postal": "N3C9X0",
    "result": []
  },
  {
    "postal": "N3C7P6",
    "result": []
  },
  {
    "postal": "N3C0R7",
    "result": []
  },
  {
    "postal": "N3C5W1",
    "result": []
  },
  {
    "postal": "N3C0K4",
    "result": []
  },
  {
    "postal": "N3C7N9",
    "result": []
  },
  {
    "postal": "N3C1N0",
    "result": []
  },
  {
    "postal": "N3C6P3",
    "result": []
  },
  {
    "postal": "N3C5A1",
    "result": []
  },
  {
    "postal": "N3C9M9",
    "result": []
  },
  {
    "postal": "N3C7T6",
    "result": []
  },
  {
    "postal": "N3C3X0",
    "result": []
  },
  {
    "postal": "N3C2T0",
    "result": []
  },
  {
    "postal": "N3C5X9",
    "result": []
  },
  {
    "postal": "N3C2R3",
    "result": [
      {
        "electoralDistricts": [
          {
            "election": null,
            "id": 49,
            "name": "Kitchener South—Hespeler"
          }
        ],
        "pollDivisionIds": [
          10139309
        ],
        "postalCode": "N3C2R3",
        "streetName": "HUNGERFORD",
        "streetDirectionId": null,
        "streetTypeId": "RD",
        "placeName": "CAMBRIDGE",
        "streetNameDisplayText": "HUNGERFORD RD, CAMBRIDGE"
      }
    ]
  },
  {
    "postal": "N3C5N2",
    "result": []
  },
  {
    "postal": "N3C4Y7",
    "result": []
  },
  {
    "postal": "N3C7M0",
    "result": []
  },
  {
    "postal": "N3C8P3",
    "result": []
  },
  {
    "postal": "N3C3N3",
    "result": [
      {
        "electoralDistricts": [
          {
            "election": null,
            "id": 49,
            "name": "Kitchener South—Hespeler"
          }
        ],
        "pollDivisionIds": [
          10139310
        ],
        "postalCode": "N3C3N3",
        "streetName": "HOLM",
        "streetDirectionId": null,
        "streetTypeId": "ST",
        "placeName": "CAMBRIDGE",
        "streetNameDisplayText": "HOLM ST, CAMBRIDGE"
      }
    ]
  },
  {
    "postal": "N3C7S3",
    "result": []
  },
  {
    "postal": "N3C3V9",
    "result": [
      {
        "electoralDistricts": [
          {
            "election": null,
            "id": 49,
            "name": "Kitchener South—Hespeler"
          }
        ],
        "pollDivisionIds": [
          10139310
        ],
        "postalCode": "N3C3V9",
        "streetName": "GUNN",
        "streetDirectionId": null,
        "streetTypeId": "AVE",
        "placeName": "CAMBRIDGE",
        "streetNameDisplayText": "GUNN AVE, CAMBRIDGE"
      }
    ]
  },
  {
    "postal": "N3C9N7",
    "result": []
  },
  {
    "postal": "N3C0G4",
    "result": [
      {
        "electoralDistricts": [
          {
            "election": null,
            "id": 49,
            "name": "Kitchener South—Hespeler"
          }
        ],
        "pollDivisionIds": [
          10139306
        ],
        "postalCode": "N3C0G4",
        "streetName": "POPLAR",
        "streetDirectionId": null,
        "streetTypeId": "DR",
        "placeName": "CAMBRIDGE",
        "streetNameDisplayText": "POPLAR DR, CAMBRIDGE"
      }
    ]
  },
  {
    "postal": "N3C2E2",
    "result": [
      {
        "electoralDistricts": [
          {
            "election": null,
            "id": 49,
            "name": "Kitchener South—Hespeler"
          }
        ],
        "pollDivisionIds": [
          10139307
        ],
        "postalCode": "N3C2E2",
        "streetName": "FORBES",
        "streetDirectionId": null,
        "streetTypeId": "ST",
        "placeName": "CAMBRIDGE",
        "streetNameDisplayText": "FORBES ST, CAMBRIDGE"
      }
    ]
  },
  {
    "postal": "N3C7W8",
    "result": []
  },
  {
    "postal": "N3C7M5",
    "result": []
  },
  {
    "postal": "N3C5W8",
    "result": []
  },
  {
    "postal": "N3C5E5",
    "result": []
  },
  {
    "postal": "N3C1P9",
    "result": [
      {
        "electoralDistricts": [
          {
            "election": null,
            "id": 49,
            "name": "Kitchener South—Hespeler"
          }
        ],
        "pollDivisionIds": [
          10139308
        ],
        "postalCode": "N3C1P9",
        "streetName": "JARDINE",
        "streetDirectionId": null,
        "streetTypeId": "ST",
        "placeName": "CAMBRIDGE",
        "streetNameDisplayText": "JARDINE ST, CAMBRIDGE"
      }
    ]
  },
  {
    "postal": "N3C8V8",
    "result": []
  },
  {
    "postal": "N3C9G8",
    "result": []
  },
  {
    "postal": "N3C8H9",
    "result": []
  },
  {
    "postal": "N3C1Z1",
    "result": [
      {
        "electoralDistricts": [
          {
            "election": null,
            "id": 49,
            "name": "Kitchener South—Hespeler"
          }
        ],
        "pollDivisionIds": [
          10139305
        ],
        "postalCode": "N3C1Z1",
        "streetName": "GOEBEL",
        "streetDirectionId": null,
        "streetTypeId": "AVE",
        "placeName": "CAMBRIDGE",
        "streetNameDisplayText": "GOEBEL AVE, CAMBRIDGE"
      }
    ]
  },
  {
    "postal": "N3C8M3",
    "result": []
  },
  {
    "postal": "N3C5H6",
    "result": []
  },
  {
    "postal": "N3C7W7",
    "result": []
  },
  {
    "postal": "N3C4L0",
    "result": []
  },
  {
    "postal": "N3C2N1",
    "result": [
      {
        "electoralDistricts": [
          {
            "election": null,
            "id": 49,
            "name": "Kitchener South—Hespeler"
          }
        ],
        "pollDivisionIds": [
          10139307
        ],
        "postalCode": "N3C2N1",
        "streetName": "COOPER",
        "streetDirectionId": null,
        "streetTypeId": "ST",
        "placeName": "CAMBRIDGE",
        "streetNameDisplayText": "COOPER ST, CAMBRIDGE"
      }
    ]
  },
  {
    "postal": "N3C2H4",
    "result": [
      {
        "electoralDistricts": [
          {
            "election": null,
            "id": 49,
            "name": "Kitchener South—Hespeler"
          }
        ],
        "pollDivisionIds": [
          10139309
        ],
        "postalCode": "N3C2H4",
        "streetName": "HAMMET",
        "streetDirectionId": null,
        "streetTypeId": "ST",
        "placeName": "CAMBRIDGE",
        "streetNameDisplayText": "HAMMET ST, CAMBRIDGE"
      }
    ]
  },
  {
    "postal": "N3C5C8",
    "result": []
  },
  {
    "postal": "N3C8B0",
    "result": []
  },
  {
    "postal": "N3C1T4",
    "result": [
      {
        "electoralDistricts": [
          {
            "election": null,
            "id": 49,
            "name": "Kitchener South—Hespeler"
          }
        ],
        "pollDivisionIds": [
          10139305
        ],
        "postalCode": "N3C1T4",
        "streetName": "MILLVUE",
        "streetDirectionId": null,
        "streetTypeId": "ST",
        "placeName": "CAMBRIDGE",
        "streetNameDisplayText": "MILLVUE ST, CAMBRIDGE"
      }
    ]
  },
  {
    "postal": "N3C7N7",
    "result": []
  },
  {
    "postal": "N3C4L3",
    "result": [
      {
        "electoralDistricts": [
          {
            "election": null,
            "id": 49,
            "name": "Kitchener South—Hespeler"
          }
        ],
        "pollDivisionIds": [
          10139311
        ],
        "postalCode": "N3C4L3",
        "streetName": "HOUGHTON",
        "streetDirectionId": null,
        "streetTypeId": "ST",
        "placeName": "CAMBRIDGE",
        "streetNameDisplayText": "HOUGHTON ST, CAMBRIDGE"
      },
      {
        "electoralDistricts": [
          {
            "election": null,
            "id": 49,
            "name": "Kitchener South—Hespeler"
          }
        ],
        "pollDivisionIds": [
          10139311
        ],
        "postalCode": "N3C4L3",
        "streetName": "PATTON",
        "streetDirectionId": null,
        "streetTypeId": "DR",
        "placeName": "CAMBRIDGE",
        "streetNameDisplayText": "PATTON DR, CAMBRIDGE"
      }
    ]
  },
  {
    "postal": "N3C2N2",
    "result": [
      {
        "electoralDistricts": [
          {
            "election": null,
            "id": 42,
            "name": "Huron—Bruce"
          },
          {
            "election": null,
            "id": 49,
            "name": "Kitchener South—Hespeler"
          }
        ],
        "pollDivisionIds": [
          10138841,
          10139307
        ],
        "postalCode": "N3C2N2",
        "streetName": "COOPER",
        "streetDirectionId": null,
        "streetTypeId": "ST",
        "placeName": "CAMBRIDGE",
        "streetNameDisplayText": "COOPER ST, CAMBRIDGE"
      }
    ]
  },
  {
    "postal": "N3C4N8",
    "result": [
      {
        "electoralDistricts": [
          {
            "election": null,
            "id": 49,
            "name": "Kitchener South—Hespeler"
          }
        ],
        "pollDivisionIds": [
          10139309
        ],
        "postalCode": "N3C4N8",
        "streetName": "MCMEEKEN",
        "streetDirectionId": null,
        "streetTypeId": "DR",
        "placeName": "CAMBRIDGE",
        "streetNameDisplayText": "MCMEEKEN DR, CAMBRIDGE"
      },
      {
        "electoralDistricts": [
          {
            "election": null,
            "id": 49,
            "name": "Kitchener South—Hespeler"
          }
        ],
        "pollDivisionIds": [
          10139309
        ],
        "postalCode": "N3C4N8",
        "streetName": "RENNER",
        "streetDirectionId": null,
        "streetTypeId": "DR",
        "placeName": "CAMBRIDGE",
        "streetNameDisplayText": "RENNER DR, CAMBRIDGE"
      }
    ]
  },
  {
    "postal": "N3C3M5",
    "result": [
      {
        "electoralDistricts": [
          {
            "election": null,
            "id": 49,
            "name": "Kitchener South—Hespeler"
          }
        ],
        "pollDivisionIds": [
          10139305
        ],
        "postalCode": "N3C3M5",
        "streetName": "HUBERT",
        "streetDirectionId": null,
        "streetTypeId": "ST",
        "placeName": "CAMBRIDGE",
        "streetNameDisplayText": "HUBERT ST, CAMBRIDGE"
      }
    ]
  },
  {
    "postal": "N3C6H7",
    "result": []
  },
  {
    "postal": "N3C8Y8",
    "result": []
  },
  {
    "postal": "N3C5R9",
    "result": []
  },
  {
    "postal": "N3C8G3",
    "result": []
  },
  {
    "postal": "N3C4N7",
    "result": [
      {
        "electoralDistricts": [
          {
            "election": null,
            "id": 49,
            "name": "Kitchener South—Hespeler"
          }
        ],
        "pollDivisionIds": [
          10139309
        ],
        "postalCode": "N3C4N7",
        "streetName": "MCMEEKEN",
        "streetDirectionId": null,
        "streetTypeId": "DR",
        "placeName": "CAMBRIDGE",
        "streetNameDisplayText": "MCMEEKEN DR, CAMBRIDGE"
      },
      {
        "electoralDistricts": [
          {
            "election": null,
            "id": 49,
            "name": "Kitchener South—Hespeler"
          }
        ],
        "pollDivisionIds": [
          10139309
        ],
        "postalCode": "N3C4N7",
        "streetName": "RENNER",
        "streetDirectionId": null,
        "streetTypeId": "DR",
        "placeName": "CAMBRIDGE",
        "streetNameDisplayText": "RENNER DR, CAMBRIDGE"
      },
      {
        "electoralDistricts": [
          {
            "election": null,
            "id": 49,
            "name": "Kitchener South—Hespeler"
          }
        ],
        "pollDivisionIds": [
          10139309
        ],
        "postalCode": "N3C4N7",
        "streetName": "SKIPTON",
        "streetDirectionId": null,
        "streetTypeId": "CRES",
        "placeName": "CAMBRIDGE",
        "streetNameDisplayText": "SKIPTON CRES, CAMBRIDGE"
      }
    ]
  },
  {
    "postal": "N3C0B9",
    "result": [
      {
        "electoralDistricts": [
          {
            "election": null,
            "id": 49,
            "name": "Kitchener South—Hespeler"
          }
        ],
        "pollDivisionIds": [
          10139307
        ],
        "postalCode": "N3C0B9",
        "streetName": "HENWOOD",
        "streetDirectionId": null,
        "streetTypeId": "DR",
        "placeName": "CAMBRIDGE",
        "streetNameDisplayText": "HENWOOD DR, CAMBRIDGE"
      },
      {
        "electoralDistricts": [
          {
            "election": null,
            "id": 49,
            "name": "Kitchener South—Hespeler"
          }
        ],
        "pollDivisionIds": [
          10139307
        ],
        "postalCode": "N3C0B9",
        "streetName": "PORTER",
        "streetDirectionId": null,
        "streetTypeId": "CRES",
        "placeName": "CAMBRIDGE",
        "streetNameDisplayText": "PORTER CRES, CAMBRIDGE"
      },
      {
        "electoralDistricts": [
          {
            "election": null,
            "id": 49,
            "name": "Kitchener South—Hespeler"
          }
        ],
        "pollDivisionIds": [
          10139307
        ],
        "postalCode": "N3C0B9",
        "streetName": "WEIR",
        "streetDirectionId": null,
        "streetTypeId": "ST",
        "placeName": "CAMBRIDGE",
        "streetNameDisplayText": "WEIR ST, CAMBRIDGE"
      }
    ]
  },
  {
    "postal": "N3C9K7",
    "result": []
  },
  {
    "postal": "N3C9K9",
    "result": []
  },
  {
    "postal": "N3C3Z2",
    "result": [
      {
        "electoralDistricts": [
          {
            "election": null,
            "id": 49,
            "name": "Kitchener South—Hespeler"
          }
        ],
        "pollDivisionIds": [
          10139310
        ],
        "postalCode": "N3C3Z2",
        "streetName": "ROSE BRIDGE",
        "streetDirectionId": null,
        "streetTypeId": "CRES",
        "placeName": "CAMBRIDGE",
        "streetNameDisplayText": "ROSE BRIDGE CRES, CAMBRIDGE"
      }
    ]
  },
  {
    "postal": "N3C6W7",
    "result": []
  },
  {
    "postal": "N3C0P1",
    "result": []
  },
  {
    "postal": "N3C3A0",
    "result": []
  },
  {
    "postal": "N3C8L9",
    "result": []
  },
  {
    "postal": "N3C6X0",
    "result": []
  },
  {
    "postal": "N3C3E9",
    "result": [
      {
        "electoralDistricts": [
          {
            "election": null,
            "id": 49,
            "name": "Kitchener South—Hespeler"
          }
        ],
        "pollDivisionIds": [
          10139308
        ],
        "postalCode": "N3C3E9",
        "streetName": "GREY ABBEY",
        "streetDirectionId": null,
        "streetTypeId": "TRAIL",
        "placeName": "CAMBRIDGE",
        "streetNameDisplayText": "GREY ABBEY TRAIL, CAMBRIDGE"
      }
    ]
  },
  {
    "postal": "N3C0S5",
    "result": []
  },
  {
    "postal": "N3C1A2",
    "result": [
      {
        "electoralDistricts": [
          {
            "election": null,
            "id": 49,
            "name": "Kitchener South—Hespeler"
          }
        ],
        "pollDivisionIds": [
          10139307
        ],
        "postalCode": "N3C1A2",
        "streetName": "GUELPH",
        "streetDirectionId": null,
        "streetTypeId": "AVE",
        "placeName": "CAMBRIDGE",
        "streetNameDisplayText": "GUELPH AVE, CAMBRIDGE"
      }
    ]
  },
  {
    "postal": "N3C5V8",
    "result": []
  },
  {
    "postal": "N3C8C5",
    "result": []
  },
  {
    "postal": "N3C6N0",
    "result": []
  },
  {
    "postal": "N3C9E6",
    "result": []
  },
  {
    "postal": "N3C5J7",
    "result": []
  },
  {
    "postal": "N3C2R2",
    "result": [
      {
        "electoralDistricts": [
          {
            "election": null,
            "id": 49,
            "name": "Kitchener South—Hespeler"
          }
        ],
        "pollDivisionIds": [
          10139309
        ],
        "postalCode": "N3C2R2",
        "streetName": "HUNGERFORD",
        "streetDirectionId": null,
        "streetTypeId": "RD",
        "placeName": "CAMBRIDGE",
        "streetNameDisplayText": "HUNGERFORD RD, CAMBRIDGE"
      }
    ]
  },
  {
    "postal": "N3C0P5",
    "result": []
  },
  {
    "postal": "N3C5A7",
    "result": []
  },
  {
    "postal": "N3C1G1",
    "result": [
      {
        "electoralDistricts": [
          {
            "election": null,
            "id": 49,
            "name": "Kitchener South—Hespeler"
          }
        ],
        "pollDivisionIds": [
          10139305
        ],
        "postalCode": "N3C1G1",
        "streetName": "QUEEN",
        "streetDirectionId": "W",
        "streetTypeId": "ST",
        "placeName": "CAMBRIDGE",
        "streetNameDisplayText": "QUEEN ST W, CAMBRIDGE"
      }
    ]
  },
  {
    "postal": "N3C9R6",
    "result": []
  },
  {
    "postal": "N3C4Z9",
    "result": []
  },
  {
    "postal": "N3C1V5",
    "result": [
      {
        "electoralDistricts": [
          {
            "election": null,
            "id": 49,
            "name": "Kitchener South—Hespeler"
          }
        ],
        "pollDivisionIds": [
          10139305
        ],
        "postalCode": "N3C1V5",
        "streetName": "GLENFOREST",
        "streetDirectionId": null,
        "streetTypeId": "RD",
        "placeName": "CAMBRIDGE",
        "streetNameDisplayText": "GLENFOREST RD, CAMBRIDGE"
      }
    ]
  },
  {
    "postal": "N3C9Y5",
    "result": []
  },
  {
    "postal": "N3C1P2",
    "result": [
      {
        "electoralDistricts": [
          {
            "election": null,
            "id": 49,
            "name": "Kitchener South—Hespeler"
          }
        ],
        "pollDivisionIds": [
          10139305
        ],
        "postalCode": "N3C1P2",
        "streetName": "FRANKLIN",
        "streetDirectionId": null,
        "streetTypeId": "BLVD",
        "placeName": "CAMBRIDGE",
        "streetNameDisplayText": "FRANKLIN BLVD, CAMBRIDGE"
      }
    ]
  },
  {
    "postal": "N3C5X0",
    "result": []
  },
  {
    "postal": "N3C7B8",
    "result": []
  },
  {
    "postal": "N3C0C6",
    "result": [
      {
        "electoralDistricts": [
          {
            "election": null,
            "id": 49,
            "name": "Kitchener South—Hespeler"
          }
        ],
        "pollDivisionIds": [
          10139307
        ],
        "postalCode": "N3C0C6",
        "streetName": "CHASE",
        "streetDirectionId": null,
        "streetTypeId": "CRES",
        "placeName": "CAMBRIDGE",
        "streetNameDisplayText": "CHASE CRES, CAMBRIDGE"
      },
      {
        "electoralDistricts": [
          {
            "election": null,
            "id": 49,
            "name": "Kitchener South—Hespeler"
          }
        ],
        "pollDivisionIds": [
          10139307
        ],
        "postalCode": "N3C0C6",
        "streetName": "SILVERTHORNE",
        "streetDirectionId": null,
        "streetTypeId": "DR",
        "placeName": "CAMBRIDGE",
        "streetNameDisplayText": "SILVERTHORNE DR, CAMBRIDGE"
      }
    ]
  },
  {
    "postal": "N3C6G1",
    "result": []
  },
  {
    "postal": "N3C3K3",
    "result": [
      {
        "electoralDistricts": [
          {
            "election": null,
            "id": 49,
            "name": "Kitchener South—Hespeler"
          }
        ],
        "pollDivisionIds": [
          10139310
        ],
        "postalCode": "N3C3K3",
        "streetName": "COTTONTAIL",
        "streetDirectionId": null,
        "streetTypeId": "PL",
        "placeName": "CAMBRIDGE",
        "streetNameDisplayText": "COTTONTAIL PL, CAMBRIDGE"
      }
    ]
  },
  {
    "postal": "N3C9R0",
    "result": []
  },
  {
    "postal": "N3C4R8",
    "result": []
  },
  {
    "postal": "N3C5P9",
    "result": []
  },
  {
    "postal": "N3C8N4",
    "result": []
  },
  {
    "postal": "N3C8H4",
    "result": []
  },
  {
    "postal": "N3C4V1",
    "result": []
  },
  {
    "postal": "N3C1K5",
    "result": [
      {
        "electoralDistricts": [
          {
            "election": null,
            "id": 49,
            "name": "Kitchener South—Hespeler"
          }
        ],
        "pollDivisionIds": [
          10139305
        ],
        "postalCode": "N3C1K5",
        "streetName": "EDWARD",
        "streetDirectionId": null,
        "streetTypeId": "ST",
        "placeName": "CAMBRIDGE",
        "streetNameDisplayText": "EDWARD ST, CAMBRIDGE"
      }
    ]
  },
  {
    "postal": "N3C1Z5",
    "result": []
  },
  {
    "postal": "N3C9L9",
    "result": []
  },
  {
    "postal": "N3C5L2",
    "result": []
  },
  {
    "postal": "N3C0M2",
    "result": []
  },
  {
    "postal": "N3C1K8",
    "result": [
      {
        "electoralDistricts": [
          {
            "election": null,
            "id": 49,
            "name": "Kitchener South—Hespeler"
          }
        ],
        "pollDivisionIds": [
          10139305
        ],
        "postalCode": "N3C1K8",
        "streetName": "EDWARD",
        "streetDirectionId": null,
        "streetTypeId": "ST",
        "placeName": "CAMBRIDGE",
        "streetNameDisplayText": "EDWARD ST, CAMBRIDGE"
      }
    ]
  },
  {
    "postal": "N3C3M7",
    "result": [
      {
        "electoralDistricts": [
          {
            "election": null,
            "id": 49,
            "name": "Kitchener South—Hespeler"
          }
        ],
        "pollDivisionIds": [
          10139305
        ],
        "postalCode": "N3C3M7",
        "streetName": "BARNICKE",
        "streetDirectionId": null,
        "streetTypeId": "DR",
        "placeName": "CAMBRIDGE",
        "streetNameDisplayText": "BARNICKE DR, CAMBRIDGE"
      }
    ]
  },
  {
    "postal": "N3C1B2",
    "result": [
      {
        "electoralDistricts": [
          {
            "election": null,
            "id": 49,
            "name": "Kitchener South—Hespeler"
          }
        ],
        "pollDivisionIds": [
          10139307
        ],
        "postalCode": "N3C1B2",
        "streetName": "HENRY VILLA",
        "streetDirectionId": null,
        "streetTypeId": "DR",
        "placeName": "CAMBRIDGE",
        "streetNameDisplayText": "HENRY VILLA DR, CAMBRIDGE"
      }
    ]
  },
  {
    "postal": "N3C0H9",
    "result": []
  },
  {
    "postal": "N3C8M4",
    "result": []
  },
  {
    "postal": "N3C2M5",
    "result": [
      {
        "electoralDistricts": [
          {
            "election": null,
            "id": 49,
            "name": "Kitchener South—Hespeler"
          }
        ],
        "pollDivisionIds": [
          10139308
        ],
        "postalCode": "N3C2M5",
        "streetName": "RAMSAY",
        "streetDirectionId": null,
        "streetTypeId": "AVE",
        "placeName": "CAMBRIDGE",
        "streetNameDisplayText": "RAMSAY AVE, CAMBRIDGE"
      }
    ]
  },
  {
    "postal": "N3C0T9",
    "result": []
  },
  {
    "postal": "N3C3P1",
    "result": [
      {
        "electoralDistricts": [
          {
            "election": null,
            "id": 49,
            "name": "Kitchener South—Hespeler"
          }
        ],
        "pollDivisionIds": [
          10139305
        ],
        "postalCode": "N3C3P1",
        "streetName": "CHEVAL",
        "streetDirectionId": null,
        "streetTypeId": "ST",
        "placeName": "CAMBRIDGE",
        "streetNameDisplayText": "CHEVAL ST, CAMBRIDGE"
      }
    ]
  },
  {
    "postal": "N3C1R6",
    "result": [
      {
        "electoralDistricts": [
          {
            "election": null,
            "id": 49,
            "name": "Kitchener South—Hespeler"
          }
        ],
        "pollDivisionIds": [
          10139308
        ],
        "postalCode": "N3C1R6",
        "streetName": "FARR",
        "streetDirectionId": null,
        "streetTypeId": "CRES",
        "placeName": "CAMBRIDGE",
        "streetNameDisplayText": "FARR CRES, CAMBRIDGE"
      }
    ]
  },
  {
    "postal": "N3C9V5",
    "result": []
  },
  {
    "postal": "N3C9T0",
    "result": []
  },
  {
    "postal": "N3C0A9",
    "result": [
      {
        "electoralDistricts": [
          {
            "election": null,
            "id": 49,
            "name": "Kitchener South—Hespeler"
          }
        ],
        "pollDivisionIds": [
          10139306,
          10139307
        ],
        "postalCode": "N3C0A9",
        "streetName": "BLACKBIRD",
        "streetDirectionId": null,
        "streetTypeId": "CIR",
        "placeName": "CAMBRIDGE",
        "streetNameDisplayText": "BLACKBIRD CIR, CAMBRIDGE"
      },
      {
        "electoralDistricts": [
          {
            "election": null,
            "id": 49,
            "name": "Kitchener South—Hespeler"
          }
        ],
        "pollDivisionIds": [
          10139307
        ],
        "postalCode": "N3C0A9",
        "streetName": "OWL",
        "streetDirectionId": null,
        "streetTypeId": "ST",
        "placeName": "CAMBRIDGE",
        "streetNameDisplayText": "OWL ST, CAMBRIDGE"
      }
    ]
  },
  {
    "postal": "N3C1M3",
    "result": [
      {
        "electoralDistricts": [
          {
            "election": null,
            "id": 49,
            "name": "Kitchener South—Hespeler"
          }
        ],
        "pollDivisionIds": [
          10139305
        ],
        "postalCode": "N3C1M3",
        "streetName": "WINSTON",
        "streetDirectionId": null,
        "streetTypeId": "BLVD",
        "placeName": "CAMBRIDGE",
        "streetNameDisplayText": "WINSTON BLVD, CAMBRIDGE"
      }
    ]
  },
  {
    "postal": "N3C1W8",
    "result": [
      {
        "electoralDistricts": [
          {
            "election": null,
            "id": 49,
            "name": "Kitchener South—Hespeler"
          }
        ],
        "pollDivisionIds": [
          10139305
        ],
        "postalCode": "N3C1W8",
        "streetName": "HIPEL",
        "streetDirectionId": null,
        "streetTypeId": "AVE",
        "placeName": "CAMBRIDGE",
        "streetNameDisplayText": "HIPEL AVE, CAMBRIDGE"
      }
    ]
  },
  {
    "postal": "N3C9J1",
    "result": []
  },
  {
    "postal": "N3C8N5",
    "result": []
  },
  {
    "postal": "N3C5X1",
    "result": []
  },
  {
    "postal": "N3C6S2",
    "result": []
  },
  {
    "postal": "N3C2A2",
    "result": [
      {
        "electoralDistricts": [
          {
            "election": null,
            "id": 49,
            "name": "Kitchener South—Hespeler"
          }
        ],
        "pollDivisionIds": [
          10139305
        ],
        "postalCode": "N3C2A2",
        "streetName": "ROOSHILL",
        "streetDirectionId": null,
        "streetTypeId": "AVE",
        "placeName": "CAMBRIDGE",
        "streetNameDisplayText": "ROOSHILL AVE, CAMBRIDGE"
      }
    ]
  },
  {
    "postal": "N3C6A6",
    "result": []
  },
  {
    "postal": "N3C0S3",
    "result": []
  },
  {
    "postal": "N3C3E7",
    "result": [
      {
        "electoralDistricts": [
          {
            "election": null,
            "id": 49,
            "name": "Kitchener South—Hespeler"
          }
        ],
        "pollDivisionIds": [
          10139310
        ],
        "postalCode": "N3C3E7",
        "streetName": "ERINDALE",
        "streetDirectionId": null,
        "streetTypeId": "CRES",
        "placeName": "CAMBRIDGE",
        "streetNameDisplayText": "ERINDALE CRES, CAMBRIDGE"
      }
    ]
  },
  {
    "postal": "N3C5R7",
    "result": []
  },
  {
    "postal": "N3C3R6",
    "result": [
      {
        "electoralDistricts": [
          {
            "election": null,
            "id": 49,
            "name": "Kitchener South—Hespeler"
          }
        ],
        "pollDivisionIds": [
          10139310
        ],
        "postalCode": "N3C3R6",
        "streetName": "BITZER",
        "streetDirectionId": null,
        "streetTypeId": "CRT",
        "placeName": "CAMBRIDGE",
        "streetNameDisplayText": "BITZER CRT, CAMBRIDGE"
      },
      {
        "electoralDistricts": [
          {
            "election": null,
            "id": 49,
            "name": "Kitchener South—Hespeler"
          }
        ],
        "pollDivisionIds": [
          10139310
        ],
        "postalCode": "N3C3R6",
        "streetName": "PEZZACK",
        "streetDirectionId": null,
        "streetTypeId": "ST",
        "placeName": "CAMBRIDGE",
        "streetNameDisplayText": "PEZZACK ST, CAMBRIDGE"
      }
    ]
  },
  {
    "postal": "N3C6K4",
    "result": []
  },
  {
    "postal": "N3C2W5",
    "result": [
      {
        "electoralDistricts": [
          {
            "election": null,
            "id": 49,
            "name": "Kitchener South—Hespeler"
          }
        ],
        "pollDivisionIds": [
          10139308
        ],
        "postalCode": "N3C2W5",
        "streetName": "HIDDEN VALLEY",
        "streetDirectionId": null,
        "streetTypeId": "RD",
        "placeName": "CAMBRIDGE",
        "streetNameDisplayText": "HIDDEN VALLEY RD, CAMBRIDGE"
      }
    ]
  },
  {
    "postal": "N3C8W4",
    "result": []
  },
  {
    "postal": "N3C9C2",
    "result": []
  },
  {
    "postal": "N3C2C0",
    "result": []
  },
  {
    "postal": "N3C0E1",
    "result": [
      {
        "electoralDistricts": [
          {
            "election": null,
            "id": 49,
            "name": "Kitchener South—Hespeler"
          }
        ],
        "pollDivisionIds": [
          10139307
        ],
        "postalCode": "N3C0E1",
        "streetName": "HOLLAND",
        "streetDirectionId": null,
        "streetTypeId": "CIR",
        "placeName": "CAMBRIDGE",
        "streetNameDisplayText": "HOLLAND CIR, CAMBRIDGE"
      }
    ]
  },
  {
    "postal": "N3C1K9",
    "result": [
      {
        "electoralDistricts": [
          {
            "election": null,
            "id": 49,
            "name": "Kitchener South—Hespeler"
          }
        ],
        "pollDivisionIds": [
          10139308
        ],
        "postalCode": "N3C1K9",
        "streetName": "CLARENCE",
        "streetDirectionId": null,
        "streetTypeId": "ST",
        "placeName": "CAMBRIDGE",
        "streetNameDisplayText": "CLARENCE ST, CAMBRIDGE"
      }
    ]
  },
  {
    "postal": "N3C1G7",
    "result": [
      {
        "electoralDistricts": [
          {
            "election": null,
            "id": 49,
            "name": "Kitchener South—Hespeler"
          }
        ],
        "pollDivisionIds": [
          10139305
        ],
        "postalCode": "N3C1G7",
        "streetName": "QUEEN",
        "streetDirectionId": "W",
        "streetTypeId": "ST",
        "placeName": "CAMBRIDGE",
        "streetNameDisplayText": "QUEEN ST W, CAMBRIDGE"
      }
    ]
  },
  {
    "postal": "N3C4E9",
    "result": [
      {
        "electoralDistricts": [
          {
            "election": null,
            "id": 49,
            "name": "Kitchener South—Hespeler"
          }
        ],
        "pollDivisionIds": [
          10139311
        ],
        "postalCode": "N3C4E9",
        "streetName": "JERRY",
        "streetDirectionId": null,
        "streetTypeId": "DR",
        "placeName": "CAMBRIDGE",
        "streetNameDisplayText": "JERRY DR, CAMBRIDGE"
      },
      {
        "electoralDistricts": [
          {
            "election": null,
            "id": 49,
            "name": "Kitchener South—Hespeler"
          }
        ],
        "pollDivisionIds": [
          10139311
        ],
        "postalCode": "N3C4E9",
        "streetName": "KERWOOD",
        "streetDirectionId": null,
        "streetTypeId": "DR",
        "placeName": "CAMBRIDGE",
        "streetNameDisplayText": "KERWOOD DR, CAMBRIDGE"
      }
    ]
  },
  {
    "postal": "N3C9P0",
    "result": []
  },
  {
    "postal": "N3C5H3",
    "result": []
  },
  {
    "postal": "N3C9X6",
    "result": []
  },
  {
    "postal": "N3C5N7",
    "result": []
  },
  {
    "postal": "N3C5A6",
    "result": []
  },
  {
    "postal": "N3C4M0",
    "result": []
  },
  {
    "postal": "N3C3V6",
    "result": []
  },
  {
    "postal": "N3C1L7",
    "result": [
      {
        "electoralDistricts": [
          {
            "election": null,
            "id": 49,
            "name": "Kitchener South—Hespeler"
          }
        ],
        "pollDivisionIds": [
          10139305
        ],
        "postalCode": "N3C1L7",
        "streetName": "WINSTON",
        "streetDirectionId": null,
        "streetTypeId": "BLVD",
        "placeName": "CAMBRIDGE",
        "streetNameDisplayText": "WINSTON BLVD, CAMBRIDGE"
      }
    ]
  },
  {
    "postal": "N3C2P9",
    "result": [
      {
        "electoralDistricts": [
          {
            "election": null,
            "id": 49,
            "name": "Kitchener South—Hespeler"
          }
        ],
        "pollDivisionIds": [
          10139309
        ],
        "postalCode": "N3C2P9",
        "streetName": "HUNGERFORD",
        "streetDirectionId": null,
        "streetTypeId": "RD",
        "placeName": "CAMBRIDGE",
        "streetNameDisplayText": "HUNGERFORD RD, CAMBRIDGE"
      }
    ]
  },
  {
    "postal": "N3C5T4",
    "result": []
  },
  {
    "postal": "N3C5Z1",
    "result": []
  },
  {
    "postal": "N3C2X0",
    "result": []
  },
  {
    "postal": "N3C6Z2",
    "result": []
  },
  {
    "postal": "N3C0E0",
    "result": []
  },
  {
    "postal": "N3C3Z5",
    "result": [
      {
        "electoralDistricts": [
          {
            "election": null,
            "id": 49,
            "name": "Kitchener South—Hespeler"
          }
        ],
        "pollDivisionIds": [
          10139310,
          10139311
        ],
        "postalCode": "N3C3Z5",
        "streetName": "COOPER",
        "streetDirectionId": null,
        "streetTypeId": "ST",
        "placeName": "CAMBRIDGE",
        "streetNameDisplayText": "COOPER ST, CAMBRIDGE"
      }
    ]
  },
  {
    "postal": "N3C8H3",
    "result": []
  },
  {
    "postal": "N3C7S6",
    "result": []
  },
  {
    "postal": "N3C4C1",
    "result": [
      {
        "electoralDistricts": [
          {
            "election": null,
            "id": 49,
            "name": "Kitchener South—Hespeler"
          }
        ],
        "pollDivisionIds": [
          10139309
        ],
        "postalCode": "N3C4C1",
        "streetName": "ENDEAVOUR",
        "streetDirectionId": null,
        "streetTypeId": "DR",
        "placeName": "CAMBRIDGE",
        "streetNameDisplayText": "ENDEAVOUR DR, CAMBRIDGE"
      },
      {
        "electoralDistricts": [
          {
            "election": null,
            "id": 49,
            "name": "Kitchener South—Hespeler"
          }
        ],
        "pollDivisionIds": [
          10139309
        ],
        "postalCode": "N3C4C1",
        "streetName": "MELRAN",
        "streetDirectionId": null,
        "streetTypeId": "DR",
        "placeName": "CAMBRIDGE",
        "streetNameDisplayText": "MELRAN DR, CAMBRIDGE"
      }
    ]
  },
  {
    "postal": "N3C3K2",
    "result": [
      {
        "electoralDistricts": [
          {
            "election": null,
            "id": 49,
            "name": "Kitchener South—Hespeler"
          }
        ],
        "pollDivisionIds": [
          10139305
        ],
        "postalCode": "N3C3K2",
        "streetName": "SUNNYHILL",
        "streetDirectionId": null,
        "streetTypeId": "RD",
        "placeName": "CAMBRIDGE",
        "streetNameDisplayText": "SUNNYHILL RD, CAMBRIDGE"
      }
    ]
  },
  {
    "postal": "N3C1Y5",
    "result": [
      {
        "electoralDistricts": [
          {
            "election": null,
            "id": 49,
            "name": "Kitchener South—Hespeler"
          }
        ],
        "pollDivisionIds": [
          10139305
        ],
        "postalCode": "N3C1Y5",
        "streetName": "KARCH",
        "streetDirectionId": null,
        "streetTypeId": "ST",
        "placeName": "CAMBRIDGE",
        "streetNameDisplayText": "KARCH ST, CAMBRIDGE"
      }
    ]
  },
  {
    "postal": "N3C6P6",
    "result": []
  },
  {
    "postal": "N3C3N9",
    "result": [
      {
        "electoralDistricts": [
          {
            "election": null,
            "id": 49,
            "name": "Kitchener South—Hespeler"
          }
        ],
        "pollDivisionIds": [
          10139308
        ],
        "postalCode": "N3C3N9",
        "streetName": "STRATHCONA",
        "streetDirectionId": null,
        "streetTypeId": "ST",
        "placeName": "CAMBRIDGE",
        "streetNameDisplayText": "STRATHCONA ST, CAMBRIDGE"
      }
    ]
  },
  {
    "postal": "N3C3W2",
    "result": [
      {
        "electoralDistricts": [
          {
            "election": null,
            "id": 49,
            "name": "Kitchener South—Hespeler"
          }
        ],
        "pollDivisionIds": [
          10139304
        ],
        "postalCode": "N3C3W2",
        "streetName": "CLEMENS",
        "streetDirectionId": null,
        "streetTypeId": "AVE",
        "placeName": "CAMBRIDGE",
        "streetNameDisplayText": "CLEMENS AVE, CAMBRIDGE"
      }
    ]
  },
  {
    "postal": "N3C6H8",
    "result": []
  },
  {
    "postal": "N3C9T3",
    "result": []
  },
  {
    "postal": "N3C5L9",
    "result": []
  },
  {
    "postal": "N3C7X7",
    "result": []
  },
  {
    "postal": "N3C3J5",
    "result": [
      {
        "electoralDistricts": [
          {
            "election": null,
            "id": 49,
            "name": "Kitchener South—Hespeler"
          }
        ],
        "pollDivisionIds": [
          10139308
        ],
        "postalCode": "N3C3J5",
        "streetName": "WESTBURY",
        "streetDirectionId": null,
        "streetTypeId": "CRES",
        "placeName": "CAMBRIDGE",
        "streetNameDisplayText": "WESTBURY CRES, CAMBRIDGE"
      }
    ]
  },
  {
    "postal": "N3C4J5",
    "result": [
      {
        "electoralDistricts": [
          {
            "election": null,
            "id": 49,
            "name": "Kitchener South—Hespeler"
          }
        ],
        "pollDivisionIds": [
          10139311
        ],
        "postalCode": "N3C4J5",
        "streetName": "ADLER",
        "streetDirectionId": null,
        "streetTypeId": "DR",
        "placeName": "CAMBRIDGE",
        "streetNameDisplayText": "ADLER DR, CAMBRIDGE"
      },
      {
        "electoralDistricts": [
          {
            "election": null,
            "id": 49,
            "name": "Kitchener South—Hespeler"
          }
        ],
        "pollDivisionIds": [
          10139311
        ],
        "postalCode": "N3C4J5",
        "streetName": "CALVIN",
        "streetDirectionId": null,
        "streetTypeId": "CRT",
        "placeName": "CAMBRIDGE",
        "streetNameDisplayText": "CALVIN CRT, CAMBRIDGE"
      }
    ]
  },
  {
    "postal": "N3C6J2",
    "result": []
  },
  {
    "postal": "N3C5V6",
    "result": []
  },
  {
    "postal": "N3C3N2",
    "result": [
      {
        "electoralDistricts": [
          {
            "election": null,
            "id": 49,
            "name": "Kitchener South—Hespeler"
          }
        ],
        "pollDivisionIds": [
          10139305
        ],
        "postalCode": "N3C3N2",
        "streetName": "GILLESPIE",
        "streetDirectionId": null,
        "streetTypeId": "CRT",
        "placeName": "CAMBRIDGE",
        "streetNameDisplayText": "GILLESPIE CRT, CAMBRIDGE"
      }
    ]
  },
  {
    "postal": "N3C3B1",
    "result": [
      {
        "electoralDistricts": [
          {
            "election": null,
            "id": 49,
            "name": "Kitchener South—Hespeler"
          }
        ],
        "pollDivisionIds": [
          10139304
        ],
        "postalCode": "N3C3B1",
        "streetName": "HAHN",
        "streetDirectionId": null,
        "streetTypeId": "AVE",
        "placeName": "CAMBRIDGE",
        "streetNameDisplayText": "HAHN AVE, CAMBRIDGE"
      }
    ]
  },
  {
    "postal": "N3C8B5",
    "result": []
  },
  {
    "postal": "N3C0K1",
    "result": []
  },
  {
    "postal": "N3C7M7",
    "result": []
  },
  {
    "postal": "N3C2M2",
    "result": [
      {
        "electoralDistricts": [
          {
            "election": null,
            "id": 49,
            "name": "Kitchener South—Hespeler"
          }
        ],
        "pollDivisionIds": [
          10139310
        ],
        "postalCode": "N3C2M2",
        "streetName": "RAMSAY",
        "streetDirectionId": null,
        "streetTypeId": "AVE",
        "placeName": "CAMBRIDGE",
        "streetNameDisplayText": "RAMSAY AVE, CAMBRIDGE"
      }
    ]
  },
  {
    "postal": "N3C9N3",
    "result": []
  },
  {
    "postal": "N3C4Y8",
    "result": []
  },
  {
    "postal": "N3C3V7",
    "result": [
      {
        "electoralDistricts": [
          {
            "election": null,
            "id": 49,
            "name": "Kitchener South—Hespeler"
          }
        ],
        "pollDivisionIds": [
          10139305
        ],
        "postalCode": "N3C3V7",
        "streetName": "FOXRIDGE",
        "streetDirectionId": null,
        "streetTypeId": "DR",
        "placeName": "CAMBRIDGE",
        "streetNameDisplayText": "FOXRIDGE DR, CAMBRIDGE"
      }
    ]
  },
  {
    "postal": "N3C8Z1",
    "result": []
  },
  {
    "postal": "N3C7B3",
    "result": []
  },
  {
    "postal": "N3C3A8",
    "result": [
      {
        "electoralDistricts": [
          {
            "election": null,
            "id": 49,
            "name": "Kitchener South—Hespeler"
          }
        ],
        "pollDivisionIds": [
          10139310
        ],
        "postalCode": "N3C3A8",
        "streetName": "TAMARACK",
        "streetDirectionId": null,
        "streetTypeId": "CRT",
        "placeName": "CAMBRIDGE",
        "streetNameDisplayText": "TAMARACK CRT, CAMBRIDGE"
      }
    ]
  },
  {
    "postal": "N3C7V5",
    "result": []
  },
  {
    "postal": "N3C2T2",
    "result": [
      {
        "electoralDistricts": [
          {
            "election": null,
            "id": 49,
            "name": "Kitchener South—Hespeler"
          }
        ],
        "pollDivisionIds": [
          10139309
        ],
        "postalCode": "N3C2T2",
        "streetName": "ELIZABETH",
        "streetDirectionId": null,
        "streetTypeId": "ST",
        "placeName": "CAMBRIDGE",
        "streetNameDisplayText": "ELIZABETH ST, CAMBRIDGE"
      }
    ]
  },
  {
    "postal": "N3C6L3",
    "result": []
  },
  {
    "postal": "N3C0L2",
    "result": []
  },
  {
    "postal": "N3C5Y8",
    "result": []
  },
  {
    "postal": "N3C0B8",
    "result": [
      {
        "electoralDistricts": [
          {
            "election": null,
            "id": 49,
            "name": "Kitchener South—Hespeler"
          }
        ],
        "pollDivisionIds": [
          10139307
        ],
        "postalCode": "N3C0B8",
        "streetName": "BALDWIN",
        "streetDirectionId": null,
        "streetTypeId": "DR",
        "placeName": "CAMBRIDGE",
        "streetNameDisplayText": "BALDWIN DR, CAMBRIDGE"
      },
      {
        "electoralDistricts": [
          {
            "election": null,
            "id": 49,
            "name": "Kitchener South—Hespeler"
          }
        ],
        "pollDivisionIds": [
          10139307
        ],
        "postalCode": "N3C0B8",
        "streetName": "HENWOOD",
        "streetDirectionId": null,
        "streetTypeId": "DR",
        "placeName": "CAMBRIDGE",
        "streetNameDisplayText": "HENWOOD DR, CAMBRIDGE"
      }
    ]
  },
  {
    "postal": "N3C6R5",
    "result": []
  },
  {
    "postal": "N3C8W6",
    "result": []
  },
  {
    "postal": "N3C8G6",
    "result": []
  },
  {
    "postal": "N3C6X3",
    "result": []
  },
  {
    "postal": "N3C7R7",
    "result": []
  },
  {
    "postal": "N3C4B6",
    "result": []
  },
  {
    "postal": "N3C3P9",
    "result": [
      {
        "electoralDistricts": [
          {
            "election": null,
            "id": 49,
            "name": "Kitchener South—Hespeler"
          }
        ],
        "pollDivisionIds": [
          10139310
        ],
        "postalCode": "N3C3P9",
        "streetName": "WINSTON",
        "streetDirectionId": null,
        "streetTypeId": "BLVD",
        "placeName": "CAMBRIDGE",
        "streetNameDisplayText": "WINSTON BLVD, CAMBRIDGE"
      }
    ]
  },
  {
    "postal": "N3C2T3",
    "result": [
      {
        "electoralDistricts": [
          {
            "election": null,
            "id": 49,
            "name": "Kitchener South—Hespeler"
          }
        ],
        "pollDivisionIds": [
          10139309
        ],
        "postalCode": "N3C2T3",
        "streetName": "RENWICK",
        "streetDirectionId": null,
        "streetTypeId": "AVE",
        "placeName": "CAMBRIDGE",
        "streetNameDisplayText": "RENWICK AVE, CAMBRIDGE"
      }
    ]
  },
  {
    "postal": "N3C1M4",
    "result": [
      {
        "electoralDistricts": [
          {
            "election": null,
            "id": 49,
            "name": "Kitchener South—Hespeler"
          }
        ],
        "pollDivisionIds": [
          10139308
        ],
        "postalCode": "N3C1M4",
        "streetName": "WINSTON",
        "streetDirectionId": null,
        "streetTypeId": "BLVD",
        "placeName": "CAMBRIDGE",
        "streetNameDisplayText": "WINSTON BLVD, CAMBRIDGE"
      }
    ]
  },
  {
    "postal": "N3C0H1",
    "result": []
  },
  {
    "postal": "N3C9W3",
    "result": []
  },
  {
    "postal": "N3C6P1",
    "result": []
  },
  {
    "postal": "N3C7G2",
    "result": []
  },
  {
    "postal": "N3C4J9",
    "result": [
      {
        "electoralDistricts": [
          {
            "election": null,
            "id": 49,
            "name": "Kitchener South—Hespeler"
          }
        ],
        "pollDivisionIds": [
          10139311
        ],
        "postalCode": "N3C4J9",
        "streetName": "ADLER",
        "streetDirectionId": null,
        "streetTypeId": "DR",
        "placeName": "CAMBRIDGE",
        "streetNameDisplayText": "ADLER DR, CAMBRIDGE"
      },
      {
        "electoralDistricts": [
          {
            "election": null,
            "id": 49,
            "name": "Kitchener South—Hespeler"
          }
        ],
        "pollDivisionIds": [
          10139311
        ],
        "postalCode": "N3C4J9",
        "streetName": "MCFARLANE",
        "streetDirectionId": null,
        "streetTypeId": "DR",
        "placeName": "CAMBRIDGE",
        "streetNameDisplayText": "MCFARLANE DR, CAMBRIDGE"
      }
    ]
  },
  {
    "postal": "N3C9E4",
    "result": []
  },
  {
    "postal": "N3C8H0",
    "result": []
  },
  {
    "postal": "N3C4M7",
    "result": [
      {
        "electoralDistricts": [
          {
            "election": null,
            "id": 49,
            "name": "Kitchener South—Hespeler"
          }
        ],
        "pollDivisionIds": [
          10139311
        ],
        "postalCode": "N3C4M7",
        "streetName": "NORTHCLIFFE",
        "streetDirectionId": null,
        "streetTypeId": "CRES",
        "placeName": "CAMBRIDGE",
        "streetNameDisplayText": "NORTHCLIFFE CRES, CAMBRIDGE"
      }
    ]
  },
  {
    "postal": "N3C2G9",
    "result": [
      {
        "electoralDistricts": [
          {
            "election": null,
            "id": 49,
            "name": "Kitchener South—Hespeler"
          }
        ],
        "pollDivisionIds": [
          10139309
        ],
        "postalCode": "N3C2G9",
        "streetName": "RIFE",
        "streetDirectionId": null,
        "streetTypeId": "AVE",
        "placeName": "CAMBRIDGE",
        "streetNameDisplayText": "RIFE AVE, CAMBRIDGE"
      }
    ]
  },
  {
    "postal": "N3C8T2",
    "result": []
  },
  {
    "postal": "N3C7G7",
    "result": []
  },
  {
    "postal": "N3C4Z3",
    "result": []
  },
  {
    "postal": "N3C5B3",
    "result": []
  },
  {
    "postal": "N3C1S7",
    "result": [
      {
        "electoralDistricts": [
          {
            "election": null,
            "id": 49,
            "name": "Kitchener South—Hespeler"
          }
        ],
        "pollDivisionIds": [
          10139305
        ],
        "postalCode": "N3C1S7",
        "streetName": "MAPLE",
        "streetDirectionId": null,
        "streetTypeId": "ST",
        "placeName": "CAMBRIDGE",
        "streetNameDisplayText": "MAPLE ST, CAMBRIDGE"
      }
    ]
  },
  {
    "postal": "N3C2N7",
    "result": [
      {
        "electoralDistricts": [
          {
            "election": null,
            "id": 49,
            "name": "Kitchener South—Hespeler"
          }
        ],
        "pollDivisionIds": [
          10139309
        ],
        "postalCode": "N3C2N7",
        "streetName": "COOPER",
        "streetDirectionId": null,
        "streetTypeId": "ST",
        "placeName": "CAMBRIDGE",
        "streetNameDisplayText": "COOPER ST, CAMBRIDGE"
      }
    ]
  },
  {
    "postal": "N3C0H8",
    "result": []
  },
  {
    "postal": "N3C7Z4",
    "result": []
  },
  {
    "postal": "N3C7B1",
    "result": []
  },
  {
    "postal": "N3C7P8",
    "result": []
  },
  {
    "postal": "N3C7N0",
    "result": []
  },
  {
    "postal": "N3C3Y5",
    "result": [
      {
        "electoralDistricts": [
          {
            "election": null,
            "id": 49,
            "name": "Kitchener South—Hespeler"
          }
        ],
        "pollDivisionIds": [
          10139310
        ],
        "postalCode": "N3C3Y5",
        "streetName": "ALONA",
        "streetDirectionId": null,
        "streetTypeId": "AVE",
        "placeName": "CAMBRIDGE",
        "streetNameDisplayText": "ALONA AVE, CAMBRIDGE"
      },
      {
        "electoralDistricts": [
          {
            "election": null,
            "id": 49,
            "name": "Kitchener South—Hespeler"
          }
        ],
        "pollDivisionIds": [
          10139310
        ],
        "postalCode": "N3C3Y5",
        "streetName": "CHARLTON",
        "streetDirectionId": null,
        "streetTypeId": "PL",
        "placeName": "CAMBRIDGE",
        "streetNameDisplayText": "CHARLTON PL, CAMBRIDGE"
      },
      {
        "electoralDistricts": [
          {
            "election": null,
            "id": 49,
            "name": "Kitchener South—Hespeler"
          }
        ],
        "pollDivisionIds": [
          10139310
        ],
        "postalCode": "N3C3Y5",
        "streetName": "WINSTON",
        "streetDirectionId": null,
        "streetTypeId": "BLVD",
        "placeName": "CAMBRIDGE",
        "streetNameDisplayText": "WINSTON BLVD, CAMBRIDGE"
      }
    ]
  },
  {
    "postal": "N3C6K1",
    "result": []
  },
  {
    "postal": "N3C9X5",
    "result": []
  },
  {
    "postal": "N3C7S5",
    "result": []
  },
  {
    "postal": "N3C0A4",
    "result": []
  },
  {
    "postal": "N3C4T5",
    "result": []
  },
  {
    "postal": "N3C5K1",
    "result": []
  },
  {
    "postal": "N3C0Z9",
    "result": []
  },
  {
    "postal": "N3C7T2",
    "result": []
  },
  {
    "postal": "N3C1L5",
    "result": [
      {
        "electoralDistricts": [
          {
            "election": null,
            "id": 49,
            "name": "Kitchener South—Hespeler"
          }
        ],
        "pollDivisionIds": [
          10139305
        ],
        "postalCode": "N3C1L5",
        "streetName": "WINSTON",
        "streetDirectionId": null,
        "streetTypeId": "BLVD",
        "placeName": "CAMBRIDGE",
        "streetNameDisplayText": "WINSTON BLVD, CAMBRIDGE"
      }
    ]
  },
  {
    "postal": "N3C3N5",
    "result": [
      {
        "electoralDistricts": [
          {
            "election": null,
            "id": 49,
            "name": "Kitchener South—Hespeler"
          }
        ],
        "pollDivisionIds": [
          10139308
        ],
        "postalCode": "N3C3N5",
        "streetName": "KRIBS",
        "streetDirectionId": null,
        "streetTypeId": "ST",
        "placeName": "CAMBRIDGE",
        "streetNameDisplayText": "KRIBS ST, CAMBRIDGE"
      }
    ]
  },
  {
    "postal": "N3C6H4",
    "result": []
  },
  {
    "postal": "N3C5A5",
    "result": []
  },
  {
    "postal": "N3C3R9",
    "result": [
      {
        "electoralDistricts": [
          {
            "election": null,
            "id": 49,
            "name": "Kitchener South—Hespeler"
          }
        ],
        "pollDivisionIds": [
          10139310
        ],
        "postalCode": "N3C3R9",
        "streetName": "CHIPMAN",
        "streetDirectionId": null,
        "streetTypeId": "ST",
        "placeName": "CAMBRIDGE",
        "streetNameDisplayText": "CHIPMAN ST, CAMBRIDGE"
      }
    ]
  },
  {
    "postal": "N3C7L8",
    "result": []
  },
  {
    "postal": "N3C6T6",
    "result": []
  },
  {
    "postal": "N3C7Y7",
    "result": []
  },
  {
    "postal": "N3C3M8",
    "result": [
      {
        "electoralDistricts": [
          {
            "election": null,
            "id": 49,
            "name": "Kitchener South—Hespeler"
          }
        ],
        "pollDivisionIds": [
          10139305
        ],
        "postalCode": "N3C3M8",
        "streetName": "FOXRIDGE",
        "streetDirectionId": null,
        "streetTypeId": "DR",
        "placeName": "CAMBRIDGE",
        "streetNameDisplayText": "FOXRIDGE DR, CAMBRIDGE"
      }
    ]
  },
  {
    "postal": "N3C2E0",
    "result": []
  },
  {
    "postal": "N3C4B5",
    "result": [
      {
        "electoralDistricts": [
          {
            "election": null,
            "id": 49,
            "name": "Kitchener South—Hespeler"
          }
        ],
        "pollDivisionIds": [
          10139323
        ],
        "postalCode": "N3C4B5",
        "streetName": "JAMIESON",
        "streetDirectionId": null,
        "streetTypeId": "PKY",
        "placeName": "CAMBRIDGE",
        "streetNameDisplayText": "JAMIESON PKY, CAMBRIDGE"
      }
    ]
  },
  {
    "postal": "N3C1J3",
    "result": [
      {
        "electoralDistricts": [
          {
            "election": null,
            "id": 49,
            "name": "Kitchener South—Hespeler"
          }
        ],
        "pollDivisionIds": [
          10139305
        ],
        "postalCode": "N3C1J3",
        "streetName": "SUNNYHILL",
        "streetDirectionId": null,
        "streetTypeId": "RD",
        "placeName": "CAMBRIDGE",
        "streetNameDisplayText": "SUNNYHILL RD, CAMBRIDGE"
      }
    ]
  },
  {
    "postal": "N3C5S6",
    "result": []
  },
  {
    "postal": "N3C8P7",
    "result": []
  },
  {
    "postal": "N3C7S7",
    "result": []
  },
  {
    "postal": "N3C4C2",
    "result": [
      {
        "electoralDistricts": [
          {
            "election": null,
            "id": 49,
            "name": "Kitchener South—Hespeler"
          }
        ],
        "pollDivisionIds": [
          10139309
        ],
        "postalCode": "N3C4C2",
        "streetName": "ENDEAVOUR",
        "streetDirectionId": null,
        "streetTypeId": "DR",
        "placeName": "CAMBRIDGE",
        "streetNameDisplayText": "ENDEAVOUR DR, CAMBRIDGE"
      },
      {
        "electoralDistricts": [
          {
            "election": null,
            "id": 49,
            "name": "Kitchener South—Hespeler"
          }
        ],
        "pollDivisionIds": [
          10139309
        ],
        "postalCode": "N3C4C2",
        "streetName": "GIBB",
        "streetDirectionId": null,
        "streetTypeId": "ST",
        "placeName": "CAMBRIDGE",
        "streetNameDisplayText": "GIBB ST, CAMBRIDGE"
      }
    ]
  },
  {
    "postal": "N3C5Y0",
    "result": []
  },
  {
    "postal": "N3C2V7",
    "result": []
  },
  {
    "postal": "N3C8P5",
    "result": []
  },
  {
    "postal": "N3C5P5",
    "result": []
  },
  {
    "postal": "N3C5Z0",
    "result": []
  },
  {
    "postal": "N3C9B0",
    "result": []
  },
  {
    "postal": "N3C1L0",
    "result": []
  },
  {
    "postal": "N3C0B5",
    "result": [
      {
        "electoralDistricts": [
          {
            "election": null,
            "id": 49,
            "name": "Kitchener South—Hespeler"
          }
        ],
        "pollDivisionIds": [
          10139307
        ],
        "postalCode": "N3C0B5",
        "streetName": "FLETCHER",
        "streetDirectionId": null,
        "streetTypeId": "CIR",
        "placeName": "CAMBRIDGE",
        "streetNameDisplayText": "FLETCHER CIR, CAMBRIDGE"
      }
    ]
  },
  {
    "postal": "N3C3L2",
    "result": [
      {
        "electoralDistricts": [
          {
            "election": null,
            "id": 49,
            "name": "Kitchener South—Hespeler"
          }
        ],
        "pollDivisionIds": [
          10139308
        ],
        "postalCode": "N3C3L2",
        "streetName": "RANDALL",
        "streetDirectionId": null,
        "streetTypeId": "RD",
        "placeName": "CAMBRIDGE",
        "streetNameDisplayText": "RANDALL RD, CAMBRIDGE"
      }
    ]
  },
  {
    "postal": "N3C3B7",
    "result": [
      {
        "electoralDistricts": [
          {
            "election": null,
            "id": 49,
            "name": "Kitchener South—Hespeler"
          }
        ],
        "pollDivisionIds": [
          10139310
        ],
        "postalCode": "N3C3B7",
        "streetName": "RAMSAY",
        "streetDirectionId": null,
        "streetTypeId": "AVE",
        "placeName": "CAMBRIDGE",
        "streetNameDisplayText": "RAMSAY AVE, CAMBRIDGE"
      }
    ]
  },
  {
    "postal": "N3C8L1",
    "result": []
  },
  {
    "postal": "N3C5M4",
    "result": []
  },
  {
    "postal": "N3C4G9",
    "result": [
      {
        "electoralDistricts": [
          {
            "election": null,
            "id": 49,
            "name": "Kitchener South—Hespeler"
          }
        ],
        "pollDivisionIds": [
          10139311,
          10139309
        ],
        "postalCode": "N3C4G9",
        "streetName": "MCMEEKEN",
        "streetDirectionId": null,
        "streetTypeId": "DR",
        "placeName": "CAMBRIDGE",
        "streetNameDisplayText": "MCMEEKEN DR, CAMBRIDGE"
      },
      {
        "electoralDistricts": [
          {
            "election": null,
            "id": 49,
            "name": "Kitchener South—Hespeler"
          }
        ],
        "pollDivisionIds": [
          10139309,
          10139311
        ],
        "postalCode": "N3C4G9",
        "streetName": "WERSTINE",
        "streetDirectionId": null,
        "streetTypeId": "TERR",
        "placeName": "CAMBRIDGE",
        "streetNameDisplayText": "WERSTINE TERR, CAMBRIDGE"
      }
    ]
  },
  {
    "postal": "N3C0P0",
    "result": []
  },
  {
    "postal": "N3C8G2",
    "result": []
  },
  {
    "postal": "N3C1V9",
    "result": [
      {
        "electoralDistricts": [
          {
            "election": null,
            "id": 49,
            "name": "Kitchener South—Hespeler"
          }
        ],
        "pollDivisionIds": [
          10139305
        ],
        "postalCode": "N3C1V9",
        "streetName": "WEAVER",
        "streetDirectionId": null,
        "streetTypeId": "ST",
        "placeName": "CAMBRIDGE",
        "streetNameDisplayText": "WEAVER ST, CAMBRIDGE"
      }
    ]
  },
  {
    "postal": "N3C8N8",
    "result": []
  },
  {
    "postal": "N3C6S8",
    "result": []
  },
  {
    "postal": "N3C8H2",
    "result": []
  },
  {
    "postal": "N3C5R8",
    "result": []
  },
  {
    "postal": "N3C5L4",
    "result": []
  },
  {
    "postal": "N3C9E1",
    "result": []
  },
  {
    "postal": "N3C1C4",
    "result": [
      {
        "electoralDistricts": [
          {
            "election": null,
            "id": 49,
            "name": "Kitchener South—Hespeler"
          }
        ],
        "pollDivisionIds": [
          10139304
        ],
        "postalCode": "N3C1C4",
        "streetName": "SHEFFIELD",
        "streetDirectionId": null,
        "streetTypeId": "ST",
        "placeName": "CAMBRIDGE",
        "streetNameDisplayText": "SHEFFIELD ST, CAMBRIDGE"
      }
    ]
  },
  {
    "postal": "N3C8W5",
    "result": []
  },
  {
    "postal": "N3C1Y4",
    "result": [
      {
        "electoralDistricts": [
          {
            "election": null,
            "id": 49,
            "name": "Kitchener South—Hespeler"
          }
        ],
        "pollDivisionIds": [
          10139305
        ],
        "postalCode": "N3C1Y4",
        "streetName": "KARCH",
        "streetDirectionId": null,
        "streetTypeId": "ST",
        "placeName": "CAMBRIDGE",
        "streetNameDisplayText": "KARCH ST, CAMBRIDGE"
      }
    ]
  },
  {
    "postal": "N3C1C0",
    "result": []
  },
  {
    "postal": "N3C2J2",
    "result": [
      {
        "electoralDistricts": [
          {
            "election": null,
            "id": 49,
            "name": "Kitchener South—Hespeler"
          }
        ],
        "pollDivisionIds": [
          10139308
        ],
        "postalCode": "N3C2J2",
        "streetName": "DAVID",
        "streetDirectionId": null,
        "streetTypeId": "ST",
        "placeName": "CAMBRIDGE",
        "streetNameDisplayText": "DAVID ST, CAMBRIDGE"
      }
    ]
  },
  {
    "postal": "N3C2J0",
    "result": []
  },
  {
    "postal": "N3C7A3",
    "result": []
  },
  {
    "postal": "N3C8M1",
    "result": []
  },
  {
    "postal": "N3C7T9",
    "result": []
  },
  {
    "postal": "N3C6C0",
    "result": []
  },
  {
    "postal": "N3C7X1",
    "result": []
  },
  {
    "postal": "N3C0G1",
    "result": [
      {
        "electoralDistricts": [
          {
            "election": null,
            "id": 49,
            "name": "Kitchener South—Hespeler"
          }
        ],
        "pollDivisionIds": [
          10139307
        ],
        "postalCode": "N3C0G1",
        "streetName": "BALDWIN",
        "streetDirectionId": null,
        "streetTypeId": "DR",
        "placeName": "CAMBRIDGE",
        "streetNameDisplayText": "BALDWIN DR, CAMBRIDGE"
      }
    ]
  },
  {
    "postal": "N3C4X2",
    "result": []
  },
  {
    "postal": "N3C0N6",
    "result": []
  },
  {
    "postal": "N3C8E3",
    "result": []
  },
  {
    "postal": "N3C5S8",
    "result": []
  },
  {
    "postal": "N3C0R0",
    "result": []
  },
  {
    "postal": "N3C6J6",
    "result": []
  },
  {
    "postal": "N3C4B4",
    "result": [
      {
        "electoralDistricts": [
          {
            "election": null,
            "id": 49,
            "name": "Kitchener South—Hespeler"
          }
        ],
        "pollDivisionIds": [
          10139305
        ],
        "postalCode": "N3C4B4",
        "streetName": "QUEEN",
        "streetDirectionId": "W",
        "streetTypeId": "ST",
        "placeName": "CAMBRIDGE",
        "streetNameDisplayText": "QUEEN ST W, CAMBRIDGE"
      }
    ]
  },
  {
    "postal": "N3C7E3",
    "result": []
  },
  {
    "postal": "N3C3N6",
    "result": [
      {
        "electoralDistricts": [
          {
            "election": null,
            "id": 49,
            "name": "Kitchener South—Hespeler"
          }
        ],
        "pollDivisionIds": [
          10139310
        ],
        "postalCode": "N3C3N6",
        "streetName": "ASHWOOD",
        "streetDirectionId": null,
        "streetTypeId": "DR",
        "placeName": "CAMBRIDGE",
        "streetNameDisplayText": "ASHWOOD DR, CAMBRIDGE"
      }
    ]
  },
  {
    "postal": "N3C3X6",
    "result": [
      {
        "electoralDistricts": [
          {
            "election": null,
            "id": 49,
            "name": "Kitchener South—Hespeler"
          }
        ],
        "pollDivisionIds": [
          10139309
        ],
        "postalCode": "N3C3X6",
        "streetName": "RICHMOND",
        "streetDirectionId": null,
        "streetTypeId": "ST",
        "placeName": "CAMBRIDGE",
        "streetNameDisplayText": "RICHMOND ST, CAMBRIDGE"
      }
    ]
  },
  {
    "postal": "N3C8L0",
    "result": []
  },
  {
    "postal": "N3C8N1",
    "result": []
  },
  {
    "postal": "N3C4J0",
    "result": []
  },
  {
    "postal": "N3C0X7",
    "result": []
  },
  {
    "postal": "N3C6S4",
    "result": []
  },
  {
    "postal": "N3C0Z0",
    "result": []
  },
  {
    "postal": "N3C9X8",
    "result": []
  },
  {
    "postal": "N3C3H3",
    "result": [
      {
        "electoralDistricts": [
          {
            "election": null,
            "id": 49,
            "name": "Kitchener South—Hespeler"
          }
        ],
        "pollDivisionIds": [
          10139310
        ],
        "postalCode": "N3C3H3",
        "streetName": "IVANHOE",
        "streetDirectionId": null,
        "streetTypeId": "CRT",
        "placeName": "CAMBRIDGE",
        "streetNameDisplayText": "IVANHOE CRT, CAMBRIDGE"
      }
    ]
  },
  {
    "postal": "N3C7S2",
    "result": []
  },
  {
    "postal": "N3C3T3",
    "result": [
      {
        "electoralDistricts": [
          {
            "election": null,
            "id": 49,
            "name": "Kitchener South—Hespeler"
          }
        ],
        "pollDivisionIds": [
          10139310
        ],
        "postalCode": "N3C3T3",
        "streetName": "LEGAULT",
        "streetDirectionId": null,
        "streetTypeId": "CRES",
        "placeName": "CAMBRIDGE",
        "streetNameDisplayText": "LEGAULT CRES, CAMBRIDGE"
      }
    ]
  },
  {
    "postal": "N3C9P3",
    "result": []
  },
  {
    "postal": "N3C4H8",
    "result": [
      {
        "electoralDistricts": [
          {
            "election": null,
            "id": 49,
            "name": "Kitchener South—Hespeler"
          }
        ],
        "pollDivisionIds": [
          10139311
        ],
        "postalCode": "N3C4H8",
        "streetName": "FABIAN",
        "streetDirectionId": null,
        "streetTypeId": "CRT",
        "placeName": "CAMBRIDGE",
        "streetNameDisplayText": "FABIAN CRT, CAMBRIDGE"
      }
    ]
  },
  {
    "postal": "N3C6R1",
    "result": []
  },
  {
    "postal": "N3C1S0",
    "result": []
  },
  {
    "postal": "N3C3W8",
    "result": [
      {
        "electoralDistricts": [
          {
            "election": null,
            "id": 49,
            "name": "Kitchener South—Hespeler"
          }
        ],
        "pollDivisionIds": [
          10139306
        ],
        "postalCode": "N3C3W8",
        "streetName": "MILTON",
        "streetDirectionId": "W",
        "streetTypeId": "AVE",
        "placeName": "CAMBRIDGE",
        "streetNameDisplayText": "MILTON AVE W, CAMBRIDGE"
      },
      {
        "electoralDistricts": [
          {
            "election": null,
            "id": 49,
            "name": "Kitchener South—Hespeler"
          }
        ],
        "pollDivisionIds": [
          10139306
        ],
        "postalCode": "N3C3W8",
        "streetName": "SCOTT",
        "streetDirectionId": null,
        "streetTypeId": "RD",
        "placeName": "CAMBRIDGE",
        "streetNameDisplayText": "SCOTT RD, CAMBRIDGE"
      }
    ]
  },
  {
    "postal": "N3C4S3",
    "result": []
  },
  {
    "postal": "N3C1B6",
    "result": [
      {
        "electoralDistricts": [
          {
            "election": null,
            "id": 49,
            "name": "Kitchener South—Hespeler"
          }
        ],
        "pollDivisionIds": [
          10139306
        ],
        "postalCode": "N3C1B6",
        "streetName": "FEARNWOOD",
        "streetDirectionId": null,
        "streetTypeId": "ST",
        "placeName": "CAMBRIDGE",
        "streetNameDisplayText": "FEARNWOOD ST, CAMBRIDGE"
      }
    ]
  },
  {
    "postal": "N3C8R3",
    "result": []
  },
  {
    "postal": "N3C4V9",
    "result": []
  },
  {
    "postal": "N3C9W4",
    "result": []
  },
  {
    "postal": "N3C3T4",
    "result": [
      {
        "electoralDistricts": [
          {
            "election": null,
            "id": 49,
            "name": "Kitchener South—Hespeler"
          }
        ],
        "pollDivisionIds": [
          10139310
        ],
        "postalCode": "N3C3T4",
        "streetName": "LEGAULT",
        "streetDirectionId": null,
        "streetTypeId": "CRES",
        "placeName": "CAMBRIDGE",
        "streetNameDisplayText": "LEGAULT CRES, CAMBRIDGE"
      }
    ]
  },
  {
    "postal": "N3C5C7",
    "result": []
  },
  {
    "postal": "N3C3Y1",
    "result": [
      {
        "electoralDistricts": [
          {
            "election": null,
            "id": 49,
            "name": "Kitchener South—Hespeler"
          }
        ],
        "pollDivisionIds": [
          10139310
        ],
        "postalCode": "N3C3Y1",
        "streetName": "DARREN",
        "streetDirectionId": null,
        "streetTypeId": "CRES",
        "placeName": "CAMBRIDGE",
        "streetNameDisplayText": "DARREN CRES, CAMBRIDGE"
      },
      {
        "electoralDistricts": [
          {
            "election": null,
            "id": 49,
            "name": "Kitchener South—Hespeler"
          }
        ],
        "pollDivisionIds": [
          10139310
        ],
        "postalCode": "N3C3Y1",
        "streetName": "WINSTON",
        "streetDirectionId": null,
        "streetTypeId": "BLVD",
        "placeName": "CAMBRIDGE",
        "streetNameDisplayText": "WINSTON BLVD, CAMBRIDGE"
      }
    ]
  },
  {
    "postal": "N3C5V0",
    "result": []
  },
  {
    "postal": "N3C8G8",
    "result": []
  },
  {
    "postal": "N3C8B1",
    "result": []
  },
  {
    "postal": "N3C4P5",
    "result": [
      {
        "electoralDistricts": [
          {
            "election": null,
            "id": 49,
            "name": "Kitchener South—Hespeler"
          }
        ],
        "pollDivisionIds": [
          10139311
        ],
        "postalCode": "N3C4P5",
        "streetName": "BLUEWATER",
        "streetDirectionId": null,
        "streetTypeId": "DR",
        "placeName": "CAMBRIDGE",
        "streetNameDisplayText": "BLUEWATER DR, CAMBRIDGE"
      },
      {
        "electoralDistricts": [
          {
            "election": null,
            "id": 49,
            "name": "Kitchener South—Hespeler"
          }
        ],
        "pollDivisionIds": [
          10139311
        ],
        "postalCode": "N3C4P5",
        "streetName": "LEMONWOOD",
        "streetDirectionId": null,
        "streetTypeId": "PL",
        "placeName": "CAMBRIDGE",
        "streetNameDisplayText": "LEMONWOOD PL, CAMBRIDGE"
      }
    ]
  },
  {
    "postal": "N3C7B2",
    "result": []
  },
  {
    "postal": "N3C0R2",
    "result": []
  },
  {
    "postal": "N3C4M4",
    "result": [
      {
        "electoralDistricts": [
          {
            "election": null,
            "id": 49,
            "name": "Kitchener South—Hespeler"
          }
        ],
        "pollDivisionIds": [
          10139311
        ],
        "postalCode": "N3C4M4",
        "streetName": "DECARO",
        "streetDirectionId": null,
        "streetTypeId": "CRES",
        "placeName": "CAMBRIDGE",
        "streetNameDisplayText": "DECARO CRES, CAMBRIDGE"
      },
      {
        "electoralDistricts": [
          {
            "election": null,
            "id": 49,
            "name": "Kitchener South—Hespeler"
          }
        ],
        "pollDivisionIds": [
          10139311
        ],
        "postalCode": "N3C4M4",
        "streetName": "KERWOOD",
        "streetDirectionId": null,
        "streetTypeId": "DR",
        "placeName": "CAMBRIDGE",
        "streetNameDisplayText": "KERWOOD DR, CAMBRIDGE"
      },
      {
        "electoralDistricts": [
          {
            "election": null,
            "id": 49,
            "name": "Kitchener South—Hespeler"
          }
        ],
        "pollDivisionIds": [
          10139311
        ],
        "postalCode": "N3C4M4",
        "streetName": "MCLAUGHLIN",
        "streetDirectionId": null,
        "streetTypeId": "ST",
        "placeName": "CAMBRIDGE",
        "streetNameDisplayText": "MCLAUGHLIN ST, CAMBRIDGE"
      }
    ]
  },
  {
    "postal": "N3C7M4",
    "result": []
  },
  {
    "postal": "N3C9S7",
    "result": []
  },
  {
    "postal": "N3C5Z7",
    "result": []
  },
  {
    "postal": "N3C7J7",
    "result": []
  },
  {
    "postal": "N3C8R8",
    "result": []
  },
  {
    "postal": "N3C9X1",
    "result": []
  },
  {
    "postal": "N3C5M9",
    "result": []
  },
  {
    "postal": "N3C9B4",
    "result": []
  },
  {
    "postal": "N3C0L9",
    "result": []
  },
  {
    "postal": "N3C9G4",
    "result": []
  },
  {
    "postal": "N3C1J4",
    "result": [
      {
        "electoralDistricts": [
          {
            "election": null,
            "id": 49,
            "name": "Kitchener South—Hespeler"
          }
        ],
        "pollDivisionIds": [
          10139305
        ],
        "postalCode": "N3C1J4",
        "streetName": "SUNNYHILL",
        "streetDirectionId": null,
        "streetTypeId": "RD",
        "placeName": "CAMBRIDGE",
        "streetNameDisplayText": "SUNNYHILL RD, CAMBRIDGE"
      }
    ]
  },
  {
    "postal": "N3C0W6",
    "result": []
  }
]
