[
  {
    "postal": "K8H9J6",
    "result": []
  },
  {
    "postal": "K8H9Z5",
    "result": []
  },
  {
    "postal": "K8H7H8",
    "result": []
  },
  {
    "postal": "K8H0P6",
    "result": []
  },
  {
    "postal": "K8H0S7",
    "result": []
  },
  {
    "postal": "K8H8B9",
    "result": []
  },
  {
    "postal": "K8H2A6",
    "result": [
      {
        "electoralDistricts": [
          {
            "election": null,
            "id": 88,
            "name": "Renfrew—Nipissing—Pembroke"
          }
        ],
        "pollDivisionIds": [
          10141193
        ],
        "postalCode": "K8H2A6",
        "streetName": "HARRY",
        "streetDirectionId": null,
        "streetTypeId": "ST",
        "placeName": "PETAWAWA",
        "streetNameDisplayText": "HARRY ST, PETAWAWA"
      }
    ]
  },
  {
    "postal": "K8H7V2",
    "result": []
  },
  {
    "postal": "K8H9P4",
    "result": []
  },
  {
    "postal": "K8H6G0",
    "result": []
  },
  {
    "postal": "K8H2K0",
    "result": []
  },
  {
    "postal": "K8H7N6",
    "result": []
  },
  {
    "postal": "K8H5R3",
    "result": []
  },
  {
    "postal": "K8H7K0",
    "result": []
  },
  {
    "postal": "K8H3R2",
    "result": [
      {
        "electoralDistricts": [
          {
            "election": null,
            "id": 88,
            "name": "Renfrew—Nipissing—Pembroke"
          }
        ],
        "pollDivisionIds": [
          10141192
        ],
        "postalCode": "K8H3R2",
        "streetName": "ISLAND VIEW",
        "streetDirectionId": null,
        "streetTypeId": "DR",
        "placeName": "PETAWAWA",
        "streetNameDisplayText": "ISLAND VIEW DR, PETAWAWA"
      },
      {
        "electoralDistricts": [
          {
            "election": null,
            "id": 88,
            "name": "Renfrew—Nipissing—Pembroke"
          }
        ],
        "pollDivisionIds": [
          10141192
        ],
        "postalCode": "K8H3R2",
        "streetName": "ISLANDVIEW",
        "streetDirectionId": null,
        "streetTypeId": "DR",
        "placeName": "PETAWAWA",
        "streetNameDisplayText": "ISLANDVIEW DR, PETAWAWA"
      }
    ]
  },
  {
    "postal": "K8H0J1",
    "result": []
  },
  {
    "postal": "K8H0B0",
    "result": []
  },
  {
    "postal": "K8H5Z2",
    "result": []
  },
  {
    "postal": "K8H7P3",
    "result": []
  },
  {
    "postal": "K8H2K3",
    "result": [
      {
        "electoralDistricts": [
          {
            "election": null,
            "id": 88,
            "name": "Renfrew—Nipissing—Pembroke"
          }
        ],
        "pollDivisionIds": [
          10141192
        ],
        "postalCode": "K8H2K3",
        "streetName": "WILLIAM",
        "streetDirectionId": null,
        "streetTypeId": "ST",
        "placeName": "PETAWAWA",
        "streetNameDisplayText": "WILLIAM ST, PETAWAWA"
      }
    ]
  },
  {
    "postal": "K8H7Y6",
    "result": []
  },
  {
    "postal": "K8H1L9",
    "result": [
      {
        "electoralDistricts": [
          {
            "election": null,
            "id": 88,
            "name": "Renfrew—Nipissing—Pembroke"
          }
        ],
        "pollDivisionIds": [
          10141194
        ],
        "postalCode": "K8H1L9",
        "streetName": "NIDDOTISA",
        "streetDirectionId": null,
        "streetTypeId": "ST",
        "placeName": "PETAWAWA",
        "streetNameDisplayText": "NIDDOTISA ST, PETAWAWA"
      },
      {
        "electoralDistricts": [
          {
            "election": null,
            "id": 88,
            "name": "Renfrew—Nipissing—Pembroke"
          }
        ],
        "pollDivisionIds": [
          10141194
        ],
        "postalCode": "K8H1L9",
        "streetName": "NISSORIA",
        "streetDirectionId": null,
        "streetTypeId": "ST",
        "placeName": "PETAWAWA",
        "streetNameDisplayText": "NISSORIA ST, PETAWAWA"
      }
    ]
  },
  {
    "postal": "K8H8T0",
    "result": []
  },
  {
    "postal": "K8H3K8",
    "result": [
      {
        "electoralDistricts": [
          {
            "election": null,
            "id": 88,
            "name": "Renfrew—Nipissing—Pembroke"
          }
        ],
        "pollDivisionIds": [
          10141192
        ],
        "postalCode": "K8H3K8",
        "streetName": "VIKING",
        "streetDirectionId": null,
        "streetTypeId": "RD",
        "placeName": "PETAWAWA",
        "streetNameDisplayText": "VIKING RD, PETAWAWA"
      }
    ]
  },
  {
    "postal": "K8H5W9",
    "result": []
  },
  {
    "postal": "K8H6T9",
    "result": []
  },
  {
    "postal": "K8H4H1",
    "result": []
  },
  {
    "postal": "K8H7A2",
    "result": []
  },
  {
    "postal": "K8H5G0",
    "result": []
  },
  {
    "postal": "K8H8V5",
    "result": []
  },
  {
    "postal": "K8H2Y8",
    "result": [
      {
        "electoralDistricts": [
          {
            "election": null,
            "id": 88,
            "name": "Renfrew—Nipissing—Pembroke"
          }
        ],
        "pollDivisionIds": [
          10141192,
          10141193
        ],
        "postalCode": "K8H2Y8",
        "streetName": "MAPLE",
        "streetDirectionId": null,
        "streetTypeId": "AVE",
        "placeName": "PETAWAWA",
        "streetNameDisplayText": "MAPLE AVE, PETAWAWA"
      }
    ]
  },
  {
    "postal": "K8H2B6",
    "result": []
  },
  {
    "postal": "K8H4W8",
    "result": []
  },
  {
    "postal": "K8H8H7",
    "result": []
  },
  {
    "postal": "K8H5P1",
    "result": []
  },
  {
    "postal": "K8H2B8",
    "result": [
      {
        "electoralDistricts": [
          {
            "election": null,
            "id": 88,
            "name": "Renfrew—Nipissing—Pembroke"
          }
        ],
        "pollDivisionIds": [
          10141193
        ],
        "postalCode": "K8H2B8",
        "streetName": "ETHEL",
        "streetDirectionId": null,
        "streetTypeId": "ST",
        "placeName": "PETAWAWA",
        "streetNameDisplayText": "ETHEL ST, PETAWAWA"
      }
    ]
  },
  {
    "postal": "K8H0P2",
    "result": []
  },
  {
    "postal": "K8H9M1",
    "result": []
  },
  {
    "postal": "K8H3G0",
    "result": []
  },
  {
    "postal": "K8H9Z2",
    "result": []
  },
  {
    "postal": "K8H2A0",
    "result": []
  },
  {
    "postal": "K8H6Y0",
    "result": []
  },
  {
    "postal": "K8H2Z8",
    "result": [
      {
        "electoralDistricts": [
          {
            "election": null,
            "id": 88,
            "name": "Renfrew—Nipissing—Pembroke"
          }
        ],
        "pollDivisionIds": [
          10141193
        ],
        "postalCode": "K8H2Z8",
        "streetName": "LISA",
        "streetDirectionId": null,
        "streetTypeId": "CRES",
        "placeName": "PETAWAWA",
        "streetNameDisplayText": "LISA CRES, PETAWAWA"
      }
    ]
  },
  {
    "postal": "K8H7Y3",
    "result": []
  },
  {
    "postal": "K8H6Z5",
    "result": []
  },
  {
    "postal": "K8H6E0",
    "result": []
  },
  {
    "postal": "K8H9B7",
    "result": []
  },
  {
    "postal": "K8H9S5",
    "result": []
  },
  {
    "postal": "K8H3X3",
    "result": []
  },
  {
    "postal": "K8H7R5",
    "result": []
  },
  {
    "postal": "K8H2X3",
    "result": [
      {
        "electoralDistricts": [
          {
            "election": null,
            "id": 88,
            "name": "Renfrew—Nipissing—Pembroke"
          }
        ],
        "pollDivisionIds": [
          10141191
        ],
        "postalCode": "K8H2X3",
        "streetName": "AMIENS",
        "streetDirectionId": null,
        "streetTypeId": "RD",
        "placeName": "MABERLY",
        "streetNameDisplayText": "AMIENS RD, MABERLY"
      },
      {
        "electoralDistricts": [
          {
            "election": null,
            "id": 88,
            "name": "Renfrew—Nipissing—Pembroke"
          }
        ],
        "pollDivisionIds": [
          10141191
        ],
        "postalCode": "K8H2X3",
        "streetName": "AMIENS",
        "streetDirectionId": null,
        "streetTypeId": "RD",
        "placeName": "PETAWAWA",
        "streetNameDisplayText": "AMIENS RD, PETAWAWA"
      },
      {
        "electoralDistricts": [
          {
            "election": null,
            "id": 88,
            "name": "Renfrew—Nipissing—Pembroke"
          }
        ],
        "pollDivisionIds": [
          10141191
        ],
        "postalCode": "K8H2X3",
        "streetName": "AMIENS",
        "streetDirectionId": null,
        "streetTypeId": "RD",
        "placeName": "SCARBOROUGH",
        "streetNameDisplayText": "AMIENS RD, SCARBOROUGH"
      },
      {
        "electoralDistricts": [
          {
            "election": null,
            "id": 88,
            "name": "Renfrew—Nipissing—Pembroke"
          }
        ],
        "pollDivisionIds": [
          10141191
        ],
        "postalCode": "K8H2X3",
        "streetName": "ARRAS",
        "streetDirectionId": null,
        "streetTypeId": "RD",
        "placeName": "PETAWAWA",
        "streetNameDisplayText": "ARRAS RD, PETAWAWA"
      },
      {
        "electoralDistricts": [
          {
            "election": null,
            "id": 88,
            "name": "Renfrew—Nipissing—Pembroke"
          }
        ],
        "pollDivisionIds": [
          10141191
        ],
        "postalCode": "K8H2X3",
        "streetName": "FESTUBERT",
        "streetDirectionId": null,
        "streetTypeId": "BLVD",
        "placeName": "PETAWAWA",
        "streetNameDisplayText": "FESTUBERT BLVD, PETAWAWA"
      },
      {
        "electoralDistricts": [
          {
            "election": null,
            "id": 88,
            "name": "Renfrew—Nipissing—Pembroke"
          }
        ],
        "pollDivisionIds": [
          10141192
        ],
        "postalCode": "K8H2X3",
        "streetName": "GARRISON PETAWAW",
        "streetDirectionId": null,
        "streetTypeId": null,
        "placeName": "PETAWAWA",
        "streetNameDisplayText": "GARRISON PETAWAW, PETAWAWA"
      },
      {
        "electoralDistricts": [
          {
            "election": null,
            "id": 88,
            "name": "Renfrew—Nipissing—Pembroke"
          }
        ],
        "pollDivisionIds": [
          10141191
        ],
        "postalCode": "K8H2X3",
        "streetName": "GARRISON",
        "streetDirectionId": null,
        "streetTypeId": null,
        "placeName": "PETAWAWA",
        "streetNameDisplayText": "GARRISON, PETAWAWA"
      },
      {
        "electoralDistricts": [
          {
            "election": null,
            "id": 88,
            "name": "Renfrew—Nipissing—Pembroke"
          }
        ],
        "pollDivisionIds": [
          10141191
        ],
        "postalCode": "K8H2X3",
        "streetName": "MEIN",
        "streetDirectionId": null,
        "streetTypeId": "ST",
        "placeName": "PETAWAWA",
        "streetNameDisplayText": "MEIN ST, PETAWAWA"
      },
      {
        "electoralDistricts": [
          {
            "election": null,
            "id": 88,
            "name": "Renfrew—Nipissing—Pembroke"
          }
        ],
        "pollDivisionIds": [
          10141191
        ],
        "postalCode": "K8H2X3",
        "streetName": "MENIN",
        "streetDirectionId": "N",
        "streetTypeId": "RD",
        "placeName": "PETAWAWA",
        "streetNameDisplayText": "MENIN RD N, PETAWAWA"
      },
      {
        "electoralDistricts": [
          {
            "election": null,
            "id": 88,
            "name": "Renfrew—Nipissing—Pembroke"
          }
        ],
        "pollDivisionIds": [
          10141191
        ],
        "postalCode": "K8H2X3",
        "streetName": "MENIN",
        "streetDirectionId": null,
        "streetTypeId": "RD",
        "placeName": "GUELPH",
        "streetNameDisplayText": "MENIN RD, GUELPH"
      },
      {
        "electoralDistricts": [
          {
            "election": null,
            "id": 88,
            "name": "Renfrew—Nipissing—Pembroke"
          }
        ],
        "pollDivisionIds": [
          10141191
        ],
        "postalCode": "K8H2X3",
        "streetName": "MENIN",
        "streetDirectionId": null,
        "streetTypeId": "RD",
        "placeName": "MISSISSAUGA",
        "streetNameDisplayText": "MENIN RD, MISSISSAUGA"
      },
      {
        "electoralDistricts": [
          {
            "election": null,
            "id": 88,
            "name": "Renfrew—Nipissing—Pembroke"
          }
        ],
        "pollDivisionIds": [
          10141191
        ],
        "postalCode": "K8H2X3",
        "streetName": "MENIN",
        "streetDirectionId": null,
        "streetTypeId": "RD",
        "placeName": "PETAWAWA",
        "streetNameDisplayText": "MENIN RD, PETAWAWA"
      },
      {
        "electoralDistricts": [
          {
            "election": null,
            "id": 88,
            "name": "Renfrew—Nipissing—Pembroke"
          }
        ],
        "pollDivisionIds": [
          10141191
        ],
        "postalCode": "K8H2X3",
        "streetName": "MENIN",
        "streetDirectionId": null,
        "streetTypeId": "RD",
        "placeName": "WINGHAM",
        "streetNameDisplayText": "MENIN RD, WINGHAM"
      },
      {
        "electoralDistricts": [
          {
            "election": null,
            "id": 88,
            "name": "Renfrew—Nipissing—Pembroke"
          }
        ],
        "pollDivisionIds": [
          10141191
        ],
        "postalCode": "K8H2X3",
        "streetName": "MONTGOMERY",
        "streetDirectionId": null,
        "streetTypeId": "RD",
        "placeName": "PETAWAWA",
        "streetNameDisplayText": "MONTGOMERY RD, PETAWAWA"
      },
      {
        "electoralDistricts": [
          {
            "election": null,
            "id": 88,
            "name": "Renfrew—Nipissing—Pembroke"
          }
        ],
        "pollDivisionIds": [
          10141191
        ],
        "postalCode": "K8H2X3",
        "streetName": "NICKLIN PARADE",
        "streetDirectionId": null,
        "streetTypeId": "SQ",
        "placeName": "LONDON",
        "streetNameDisplayText": "NICKLIN PARADE SQ, LONDON"
      },
      {
        "electoralDistricts": [
          {
            "election": null,
            "id": 88,
            "name": "Renfrew—Nipissing—Pembroke"
          }
        ],
        "pollDivisionIds": [
          10141191
        ],
        "postalCode": "K8H2X3",
        "streetName": "NICKLIN PARADE",
        "streetDirectionId": null,
        "streetTypeId": "SQ",
        "placeName": "NORTH GOWER",
        "streetNameDisplayText": "NICKLIN PARADE SQ, NORTH GOWER"
      },
      {
        "electoralDistricts": [
          {
            "election": null,
            "id": 88,
            "name": "Renfrew—Nipissing—Pembroke"
          }
        ],
        "pollDivisionIds": [
          10141191
        ],
        "postalCode": "K8H2X3",
        "streetName": "NICKLIN PARADE",
        "streetDirectionId": null,
        "streetTypeId": "SQ",
        "placeName": "PETAWAWA",
        "streetNameDisplayText": "NICKLIN PARADE SQ, PETAWAWA"
      },
      {
        "electoralDistricts": [
          {
            "election": null,
            "id": 88,
            "name": "Renfrew—Nipissing—Pembroke"
          }
        ],
        "pollDivisionIds": [
          10141191
        ],
        "postalCode": "K8H2X3",
        "streetName": "NICKLIN PARADE",
        "streetDirectionId": null,
        "streetTypeId": "SQ",
        "placeName": "RICHMOND HILL",
        "streetNameDisplayText": "NICKLIN PARADE SQ, RICHMOND HILL"
      },
      {
        "electoralDistricts": [
          {
            "election": null,
            "id": 88,
            "name": "Renfrew—Nipissing—Pembroke"
          }
        ],
        "pollDivisionIds": [
          10141194
        ],
        "postalCode": "K8H2X3",
        "streetName": "PAARDEBURG",
        "streetDirectionId": null,
        "streetTypeId": "BLVD",
        "placeName": "PETAWAWA",
        "streetNameDisplayText": "PAARDEBURG BLVD, PETAWAWA"
      },
      {
        "electoralDistricts": [
          {
            "election": null,
            "id": 88,
            "name": "Renfrew—Nipissing—Pembroke"
          }
        ],
        "pollDivisionIds": [
          10141191
        ],
        "postalCode": "K8H2X3",
        "streetName": "SIMMONDS PARADE",
        "streetDirectionId": null,
        "streetTypeId": "SQ",
        "placeName": "GUELPH",
        "streetNameDisplayText": "SIMMONDS PARADE SQ, GUELPH"
      },
      {
        "electoralDistricts": [
          {
            "election": null,
            "id": 88,
            "name": "Renfrew—Nipissing—Pembroke"
          }
        ],
        "pollDivisionIds": [
          10141191
        ],
        "postalCode": "K8H2X3",
        "streetName": "SIMMONDS PARADE",
        "streetDirectionId": null,
        "streetTypeId": "SQ",
        "placeName": "PETAWAWA",
        "streetNameDisplayText": "SIMMONDS PARADE SQ, PETAWAWA"
      },
      {
        "electoralDistricts": [
          {
            "election": null,
            "id": 88,
            "name": "Renfrew—Nipissing—Pembroke"
          }
        ],
        "pollDivisionIds": [
          10141193
        ],
        "postalCode": "K8H2X3",
        "streetName": "SIMOND PARADE",
        "streetDirectionId": null,
        "streetTypeId": "SQ",
        "placeName": "PETAWAWA",
        "streetNameDisplayText": "SIMOND PARADE SQ, PETAWAWA"
      },
      {
        "electoralDistricts": [
          {
            "election": null,
            "id": 88,
            "name": "Renfrew—Nipissing—Pembroke"
          }
        ],
        "pollDivisionIds": [
          10141191
        ],
        "postalCode": "K8H2X3",
        "streetName": "SIMONDS PARADE",
        "streetDirectionId": null,
        "streetTypeId": "SQ",
        "placeName": "PETAWAWA",
        "streetNameDisplayText": "SIMONDS PARADE SQ, PETAWAWA"
      },
      {
        "electoralDistricts": [
          {
            "election": null,
            "id": 88,
            "name": "Renfrew—Nipissing—Pembroke"
          }
        ],
        "pollDivisionIds": [
          10141191
        ],
        "postalCode": "K8H2X3",
        "streetName": "SOMME",
        "streetDirectionId": null,
        "streetTypeId": "RD",
        "placeName": "PETAWAWA",
        "streetNameDisplayText": "SOMME RD, PETAWAWA"
      },
      {
        "electoralDistricts": [
          {
            "election": null,
            "id": 88,
            "name": "Renfrew—Nipissing—Pembroke"
          }
        ],
        "pollDivisionIds": [
          10141192,
          10141193,
          10141191
        ],
        "postalCode": "K8H2X3",
        "streetName": "SPRINGBOK",
        "streetDirectionId": null,
        "streetTypeId": "LANE",
        "placeName": "PETAWAWA",
        "streetNameDisplayText": "SPRINGBOK LANE, PETAWAWA"
      },
      {
        "electoralDistricts": [
          {
            "election": null,
            "id": 88,
            "name": "Renfrew—Nipissing—Pembroke"
          }
        ],
        "pollDivisionIds": [
          10141191
        ],
        "postalCode": "K8H2X3",
        "streetName": "SPRINGBOK",
        "streetDirectionId": null,
        "streetTypeId": "LANE",
        "placeName": "SUDBURY",
        "streetNameDisplayText": "SPRINGBOK LANE, SUDBURY"
      },
      {
        "electoralDistricts": [
          {
            "election": null,
            "id": 88,
            "name": "Renfrew—Nipissing—Pembroke"
          }
        ],
        "pollDivisionIds": [
          10141191
        ],
        "postalCode": "K8H2X3",
        "streetName": "STATION MAIL",
        "streetDirectionId": null,
        "streetTypeId": null,
        "placeName": "PETAWAWA",
        "streetNameDisplayText": "STATION MAIL, PETAWAWA"
      },
      {
        "electoralDistricts": [
          {
            "election": null,
            "id": 88,
            "name": "Renfrew—Nipissing—Pembroke"
          }
        ],
        "pollDivisionIds": [
          10141191
        ],
        "postalCode": "K8H2X3",
        "streetName": "WORTHINGTON",
        "streetDirectionId": null,
        "streetTypeId": "RD",
        "placeName": "PETAWAWA",
        "streetNameDisplayText": "WORTHINGTON RD, PETAWAWA"
      }
    ]
  },
  {
    "postal": "K8H8Z9",
    "result": []
  },
  {
    "postal": "K8H0N4",
    "result": []
  },
  {
    "postal": "K8H1K1",
    "result": [
      {
        "electoralDistricts": [
          {
            "election": null,
            "id": 88,
            "name": "Renfrew—Nipissing—Pembroke"
          }
        ],
        "pollDivisionIds": [
          10141191
        ],
        "postalCode": "K8H1K1",
        "streetName": "FALAISE",
        "streetDirectionId": null,
        "streetTypeId": "ST",
        "placeName": "PETAWAWA",
        "streetNameDisplayText": "FALAISE ST, PETAWAWA"
      }
    ]
  },
  {
    "postal": "K8H1S3",
    "result": [
      {
        "electoralDistricts": [
          {
            "election": null,
            "id": 88,
            "name": "Renfrew—Nipissing—Pembroke"
          }
        ],
        "pollDivisionIds": [
          10141193
        ],
        "postalCode": "K8H1S3",
        "streetName": "MARY",
        "streetDirectionId": null,
        "streetTypeId": "ST",
        "placeName": "PETAWAWA",
        "streetNameDisplayText": "MARY ST, PETAWAWA"
      }
    ]
  },
  {
    "postal": "K8H6M4",
    "result": []
  },
  {
    "postal": "K8H9A9",
    "result": []
  },
  {
    "postal": "K8H9Z9",
    "result": []
  },
  {
    "postal": "K8H6T4",
    "result": []
  },
  {
    "postal": "K8H0B2",
    "result": [
      {
        "electoralDistricts": [
          {
            "election": null,
            "id": 88,
            "name": "Renfrew—Nipissing—Pembroke"
          }
        ],
        "pollDivisionIds": [
          10141192
        ],
        "postalCode": "K8H0B2",
        "streetName": "BOULDER CREEK",
        "streetDirectionId": null,
        "streetTypeId": "TRAIL",
        "placeName": "PETAWAWA",
        "streetNameDisplayText": "BOULDER CREEK TRAIL, PETAWAWA"
      },
      {
        "electoralDistricts": [
          {
            "election": null,
            "id": 88,
            "name": "Renfrew—Nipissing—Pembroke"
          }
        ],
        "pollDivisionIds": [
          10141192
        ],
        "postalCode": "K8H0B2",
        "streetName": "SANDSTONE",
        "streetDirectionId": null,
        "streetTypeId": "CRES",
        "placeName": "PETAWAWA",
        "streetNameDisplayText": "SANDSTONE CRES, PETAWAWA"
      }
    ]
  },
  {
    "postal": "K8H2L9",
    "result": [
      {
        "electoralDistricts": [
          {
            "election": null,
            "id": 88,
            "name": "Renfrew—Nipissing—Pembroke"
          }
        ],
        "pollDivisionIds": [
          10141192
        ],
        "postalCode": "K8H2L9",
        "streetName": "SUNSET",
        "streetDirectionId": null,
        "streetTypeId": "CRES",
        "placeName": "PETAWAWA",
        "streetNameDisplayText": "SUNSET CRES, PETAWAWA"
      }
    ]
  },
  {
    "postal": "K8H8K9",
    "result": []
  },
  {
    "postal": "K8H2H9",
    "result": [
      {
        "electoralDistricts": [
          {
            "election": null,
            "id": 88,
            "name": "Renfrew—Nipissing—Pembroke"
          }
        ],
        "pollDivisionIds": [
          10141192
        ],
        "postalCode": "K8H2H9",
        "streetName": "LABINE",
        "streetDirectionId": null,
        "streetTypeId": "CRES",
        "placeName": "PETAWAWA",
        "streetNameDisplayText": "LABINE CRES, PETAWAWA"
      }
    ]
  },
  {
    "postal": "K8H3Z6",
    "result": []
  },
  {
    "postal": "K8H3B0",
    "result": []
  },
  {
    "postal": "K8H2H8",
    "result": [
      {
        "electoralDistricts": [
          {
            "election": null,
            "id": 88,
            "name": "Renfrew—Nipissing—Pembroke"
          }
        ],
        "pollDivisionIds": [
          10141192
        ],
        "postalCode": "K8H2H8",
        "streetName": "VICTOR",
        "streetDirectionId": null,
        "streetTypeId": "ST",
        "placeName": "PETAWAWA",
        "streetNameDisplayText": "VICTOR ST, PETAWAWA"
      }
    ]
  },
  {
    "postal": "K8H3X2",
    "result": []
  },
  {
    "postal": "K8H2E9",
    "result": [
      {
        "electoralDistricts": [
          {
            "election": null,
            "id": 88,
            "name": "Renfrew—Nipissing—Pembroke"
          }
        ],
        "pollDivisionIds": [
          10141192
        ],
        "postalCode": "K8H2E9",
        "streetName": "VICTORIA",
        "streetDirectionId": null,
        "streetTypeId": "ST",
        "placeName": "PETAWAWA",
        "streetNameDisplayText": "VICTORIA ST, PETAWAWA"
      }
    ]
  },
  {
    "postal": "K8H9P6",
    "result": []
  },
  {
    "postal": "K8H9E2",
    "result": []
  },
  {
    "postal": "K8H9H2",
    "result": []
  },
  {
    "postal": "K8H1S8",
    "result": [
      {
        "electoralDistricts": [
          {
            "election": null,
            "id": 88,
            "name": "Renfrew—Nipissing—Pembroke"
          }
        ],
        "pollDivisionIds": [
          10141193
        ],
        "postalCode": "K8H1S8",
        "streetName": "JOHN",
        "streetDirectionId": null,
        "streetTypeId": "ST",
        "placeName": "PETAWAWA",
        "streetNameDisplayText": "JOHN ST, PETAWAWA"
      }
    ]
  },
  {
    "postal": "K8H3M6",
    "result": []
  },
  {
    "postal": "K8H6Z8",
    "result": []
  },
  {
    "postal": "K8H4J2",
    "result": []
  },
  {
    "postal": "K8H9Y1",
    "result": []
  },
  {
    "postal": "K8H8V6",
    "result": []
  },
  {
    "postal": "K8H6B2",
    "result": []
  },
  {
    "postal": "K8H1P8",
    "result": [
      {
        "electoralDistricts": [
          {
            "election": null,
            "id": 88,
            "name": "Renfrew—Nipissing—Pembroke"
          }
        ],
        "pollDivisionIds": [
          10141193
        ],
        "postalCode": "K8H1P8",
        "streetName": "DORAN",
        "streetDirectionId": null,
        "streetTypeId": "RD",
        "placeName": "PETAWAWA",
        "streetNameDisplayText": "DORAN RD, PETAWAWA"
      },
      {
        "electoralDistricts": [
          {
            "election": null,
            "id": 88,
            "name": "Renfrew—Nipissing—Pembroke"
          }
        ],
        "pollDivisionIds": [
          10141192,
          10141193
        ],
        "postalCode": "K8H1P8",
        "streetName": "DORAN",
        "streetDirectionId": null,
        "streetTypeId": "ST",
        "placeName": "PETAWAWA",
        "streetNameDisplayText": "DORAN ST, PETAWAWA"
      }
    ]
  },
  {
    "postal": "K8H0V8",
    "result": []
  },
  {
    "postal": "K8H4Y0",
    "result": []
  },
  {
    "postal": "K8H2T4",
    "result": [
      {
        "electoralDistricts": [
          {
            "election": null,
            "id": 88,
            "name": "Renfrew—Nipissing—Pembroke"
          }
        ],
        "pollDivisionIds": [
          10141193
        ],
        "postalCode": "K8H2T4",
        "streetName": "BORDEN",
        "streetDirectionId": null,
        "streetTypeId": "AVE",
        "placeName": "PETAWAWA",
        "streetNameDisplayText": "BORDEN AVE, PETAWAWA"
      }
    ]
  },
  {
    "postal": "K8H2S3",
    "result": [
      {
        "electoralDistricts": [
          {
            "election": null,
            "id": 88,
            "name": "Renfrew—Nipissing—Pembroke"
          }
        ],
        "pollDivisionIds": [
          10141192
        ],
        "postalCode": "K8H2S3",
        "streetName": "ARMSTRONG",
        "streetDirectionId": null,
        "streetTypeId": "RD",
        "placeName": "PETAWAWA",
        "streetNameDisplayText": "ARMSTRONG RD, PETAWAWA"
      }
    ]
  },
  {
    "postal": "K8H0K0",
    "result": []
  },
  {
    "postal": "K8H5N1",
    "result": []
  },
  {
    "postal": "K8H7T0",
    "result": []
  },
  {
    "postal": "K8H9N2",
    "result": []
  },
  {
    "postal": "K8H5L1",
    "result": []
  },
  {
    "postal": "K8H7G5",
    "result": []
  },
  {
    "postal": "K8H6K2",
    "result": []
  },
  {
    "postal": "K8H6P9",
    "result": []
  },
  {
    "postal": "K8H0E6",
    "result": []
  },
  {
    "postal": "K8H8R9",
    "result": []
  },
  {
    "postal": "K8H3G9",
    "result": [
      {
        "electoralDistricts": [
          {
            "election": null,
            "id": 88,
            "name": "Renfrew—Nipissing—Pembroke"
          }
        ],
        "pollDivisionIds": [
          10141192
        ],
        "postalCode": "K8H3G9",
        "streetName": "SELLEY",
        "streetDirectionId": null,
        "streetTypeId": "ST",
        "placeName": "PETAWAWA",
        "streetNameDisplayText": "SELLEY ST, PETAWAWA"
      }
    ]
  },
  {
    "postal": "K8H0V7",
    "result": []
  },
  {
    "postal": "K8H2Z1",
    "result": [
      {
        "electoralDistricts": [
          {
            "election": null,
            "id": 88,
            "name": "Renfrew—Nipissing—Pembroke"
          }
        ],
        "pollDivisionIds": [
          10141192
        ],
        "postalCode": "K8H2Z1",
        "streetName": "GUTZMAN",
        "streetDirectionId": null,
        "streetTypeId": "RD",
        "placeName": "PETAWAWA",
        "streetNameDisplayText": "GUTZMAN RD, PETAWAWA"
      }
    ]
  },
  {
    "postal": "K8H7N1",
    "result": []
  },
  {
    "postal": "K8H3C6",
    "result": [
      {
        "electoralDistricts": [
          {
            "election": null,
            "id": 88,
            "name": "Renfrew—Nipissing—Pembroke"
          }
        ],
        "pollDivisionIds": [
          10141193
        ],
        "postalCode": "K8H3C6",
        "streetName": "MARY",
        "streetDirectionId": null,
        "streetTypeId": "ST",
        "placeName": "PETAWAWA",
        "streetNameDisplayText": "MARY ST, PETAWAWA"
      }
    ]
  },
  {
    "postal": "K8H4M1",
    "result": []
  },
  {
    "postal": "K8H9K2",
    "result": []
  },
  {
    "postal": "K8H9S6",
    "result": []
  },
  {
    "postal": "K8H4X1",
    "result": []
  },
  {
    "postal": "K8H8W2",
    "result": []
  },
  {
    "postal": "K8H7N2",
    "result": []
  },
  {
    "postal": "K8H8S3",
    "result": []
  },
  {
    "postal": "K8H4V0",
    "result": []
  },
  {
    "postal": "K8H6W4",
    "result": []
  },
  {
    "postal": "K8H5M1",
    "result": []
  },
  {
    "postal": "K8H0S4",
    "result": []
  },
  {
    "postal": "K8H5X6",
    "result": []
  },
  {
    "postal": "K8H8L5",
    "result": []
  },
  {
    "postal": "K8H5M8",
    "result": []
  },
  {
    "postal": "K8H2G3",
    "result": [
      {
        "electoralDistricts": [
          {
            "election": null,
            "id": 88,
            "name": "Renfrew—Nipissing—Pembroke"
          }
        ],
        "pollDivisionIds": [
          10141192
        ],
        "postalCode": "K8H2G3",
        "streetName": "VICTORIA",
        "streetDirectionId": null,
        "streetTypeId": "ST",
        "placeName": "PETAWAWA",
        "streetNameDisplayText": "VICTORIA ST, PETAWAWA"
      }
    ]
  },
  {
    "postal": "K8H8E4",
    "result": []
  },
  {
    "postal": "K8H7S9",
    "result": []
  },
  {
    "postal": "K8H1K3",
    "result": [
      {
        "electoralDistricts": [
          {
            "election": null,
            "id": 88,
            "name": "Renfrew—Nipissing—Pembroke"
          }
        ],
        "pollDivisionIds": [
          10141191
        ],
        "postalCode": "K8H1K3",
        "streetName": "DIEPPE",
        "streetDirectionId": null,
        "streetTypeId": "ST",
        "placeName": "PETAWAWA",
        "streetNameDisplayText": "DIEPPE ST, PETAWAWA"
      }
    ]
  },
  {
    "postal": "K8H4E1",
    "result": []
  },
  {
    "postal": "K8H4R2",
    "result": []
  },
  {
    "postal": "K8H6T0",
    "result": []
  },
  {
    "postal": "K8H3K5",
    "result": [
      {
        "electoralDistricts": [
          {
            "election": null,
            "id": 88,
            "name": "Renfrew—Nipissing—Pembroke"
          }
        ],
        "pollDivisionIds": [
          10141192
        ],
        "postalCode": "K8H3K5",
        "streetName": "ARROWHEAD",
        "streetDirectionId": null,
        "streetTypeId": "RD",
        "placeName": "PETAWAWA",
        "streetNameDisplayText": "ARROWHEAD RD, PETAWAWA"
      }
    ]
  },
  {
    "postal": "K8H3S3",
    "result": [
      {
        "electoralDistricts": [
          {
            "election": null,
            "id": 88,
            "name": "Renfrew—Nipissing—Pembroke"
          }
        ],
        "pollDivisionIds": [
          10141192
        ],
        "postalCode": "K8H3S3",
        "streetName": "BIESENTHAL",
        "streetDirectionId": null,
        "streetTypeId": "RD",
        "placeName": "PETAWAWA",
        "streetNameDisplayText": "BIESENTHAL RD, PETAWAWA"
      }
    ]
  },
  {
    "postal": "K8H3L4",
    "result": [
      {
        "electoralDistricts": [
          {
            "election": null,
            "id": 88,
            "name": "Renfrew—Nipissing—Pembroke"
          }
        ],
        "pollDivisionIds": [
          10141193
        ],
        "postalCode": "K8H3L4",
        "streetName": "CRAIG",
        "streetDirectionId": null,
        "streetTypeId": "PL",
        "placeName": "PETAWAWA",
        "streetNameDisplayText": "CRAIG PL, PETAWAWA"
      }
    ]
  },
  {
    "postal": "K8H9Y2",
    "result": []
  },
  {
    "postal": "K8H1E0",
    "result": []
  },
  {
    "postal": "K8H9A4",
    "result": []
  },
  {
    "postal": "K8H1L3",
    "result": [
      {
        "electoralDistricts": [
          {
            "election": null,
            "id": 88,
            "name": "Renfrew—Nipissing—Pembroke"
          }
        ],
        "pollDivisionIds": [
          10141194
        ],
        "postalCode": "K8H1L3",
        "streetName": "REGALBUTO",
        "streetDirectionId": null,
        "streetTypeId": "AVE",
        "placeName": "PETAWAWA",
        "streetNameDisplayText": "REGALBUTO AVE, PETAWAWA"
      },
      {
        "electoralDistricts": [
          {
            "election": null,
            "id": 88,
            "name": "Renfrew—Nipissing—Pembroke"
          }
        ],
        "pollDivisionIds": [
          10141194
        ],
        "postalCode": "K8H1L3",
        "streetName": "REGALBUTO",
        "streetDirectionId": null,
        "streetTypeId": "ST",
        "placeName": "PETAWAWA",
        "streetNameDisplayText": "REGALBUTO ST, PETAWAWA"
      }
    ]
  },
  {
    "postal": "K8H6N1",
    "result": []
  },
  {
    "postal": "K8H6G7",
    "result": []
  },
  {
    "postal": "K8H7W1",
    "result": []
  },
  {
    "postal": "K8H4M6",
    "result": []
  },
  {
    "postal": "K8H1K0",
    "result": []
  },
  {
    "postal": "K8H3E2",
    "result": [
      {
        "electoralDistricts": [
          {
            "election": null,
            "id": 88,
            "name": "Renfrew—Nipissing—Pembroke"
          }
        ],
        "pollDivisionIds": [
          10141192
        ],
        "postalCode": "K8H3E2",
        "streetName": "COUNTRY LANE",
        "streetDirectionId": null,
        "streetTypeId": "LANE",
        "placeName": "PETAWAWA",
        "streetNameDisplayText": "COUNTRY LANE LANE, PETAWAWA"
      },
      {
        "electoralDistricts": [
          {
            "election": null,
            "id": 88,
            "name": "Renfrew—Nipissing—Pembroke"
          }
        ],
        "pollDivisionIds": [
          10141192
        ],
        "postalCode": "K8H3E2",
        "streetName": "COUNTRY",
        "streetDirectionId": null,
        "streetTypeId": "LANE",
        "placeName": "PETAWAWA",
        "streetNameDisplayText": "COUNTRY LANE, PETAWAWA"
      }
    ]
  },
  {
    "postal": "K8H5H4",
    "result": []
  },
  {
    "postal": "K8H1K7",
    "result": [
      {
        "electoralDistricts": [
          {
            "election": null,
            "id": 88,
            "name": "Renfrew—Nipissing—Pembroke"
          }
        ],
        "pollDivisionIds": [
          10141191
        ],
        "postalCode": "K8H1K7",
        "streetName": "CAEN",
        "streetDirectionId": null,
        "streetTypeId": "ST",
        "placeName": "PETAWAWA",
        "streetNameDisplayText": "CAEN ST, PETAWAWA"
      }
    ]
  },
  {
    "postal": "K8H0H0",
    "result": []
  },
  {
    "postal": "K8H0J3",
    "result": []
  },
  {
    "postal": "K8H1X6",
    "result": [
      {
        "electoralDistricts": [
          {
            "election": null,
            "id": 88,
            "name": "Renfrew—Nipissing—Pembroke"
          }
        ],
        "pollDivisionIds": [
          10141193
        ],
        "postalCode": "K8H1X6",
        "streetName": "PETAWAWA",
        "streetDirectionId": null,
        "streetTypeId": "BLVD",
        "placeName": "PETAWAWA",
        "streetNameDisplayText": "PETAWAWA BLVD, PETAWAWA"
      }
    ]
  },
  {
    "postal": "K8H2Z6",
    "result": [
      {
        "electoralDistricts": [
          {
            "election": null,
            "id": 88,
            "name": "Renfrew—Nipissing—Pembroke"
          }
        ],
        "pollDivisionIds": [
          10141193
        ],
        "postalCode": "K8H2Z6",
        "streetName": "HILDA",
        "streetDirectionId": null,
        "streetTypeId": "ST",
        "placeName": "PETAWAWA",
        "streetNameDisplayText": "HILDA ST, PETAWAWA"
      }
    ]
  },
  {
    "postal": "K8H4R9",
    "result": []
  },
  {
    "postal": "K8H0W8",
    "result": []
  },
  {
    "postal": "K8H1L4",
    "result": [
      {
        "electoralDistricts": [
          {
            "election": null,
            "id": 88,
            "name": "Renfrew—Nipissing—Pembroke"
          }
        ],
        "pollDivisionIds": [
          10141194
        ],
        "postalCode": "K8H1L4",
        "streetName": "REGALBUTO",
        "streetDirectionId": null,
        "streetTypeId": "AVE",
        "placeName": "PETAWAWA",
        "streetNameDisplayText": "REGALBUTO AVE, PETAWAWA"
      }
    ]
  },
  {
    "postal": "K8H0C8",
    "result": []
  },
  {
    "postal": "K8H9X7",
    "result": []
  },
  {
    "postal": "K8H4T1",
    "result": []
  },
  {
    "postal": "K8H0M0",
    "result": []
  },
  {
    "postal": "K8H6A2",
    "result": []
  },
  {
    "postal": "K8H9S8",
    "result": []
  },
  {
    "postal": "K8H9T4",
    "result": []
  },
  {
    "postal": "K8H9Y4",
    "result": []
  },
  {
    "postal": "K8H6G5",
    "result": []
  },
  {
    "postal": "K8H6H9",
    "result": []
  },
  {
    "postal": "K8H2P3",
    "result": [
      {
        "electoralDistricts": [
          {
            "election": null,
            "id": 88,
            "name": "Renfrew—Nipissing—Pembroke"
          }
        ],
        "pollDivisionIds": [
          10141192
        ],
        "postalCode": "K8H2P3",
        "streetName": "ALICE",
        "streetDirectionId": null,
        "streetTypeId": "ST",
        "placeName": "PETAWAWA",
        "streetNameDisplayText": "ALICE ST, PETAWAWA"
      }
    ]
  },
  {
    "postal": "K8H1T6",
    "result": [
      {
        "electoralDistricts": [
          {
            "election": null,
            "id": 88,
            "name": "Renfrew—Nipissing—Pembroke"
          }
        ],
        "pollDivisionIds": [
          10141193
        ],
        "postalCode": "K8H1T6",
        "streetName": "HILDA",
        "streetDirectionId": null,
        "streetTypeId": "ST",
        "placeName": "PETAWAWA",
        "streetNameDisplayText": "HILDA ST, PETAWAWA"
      }
    ]
  },
  {
    "postal": "K8H4P6",
    "result": []
  },
  {
    "postal": "K8H3K1",
    "result": [
      {
        "electoralDistricts": [
          {
            "election": null,
            "id": 88,
            "name": "Renfrew—Nipissing—Pembroke"
          }
        ],
        "pollDivisionIds": [
          10141192
        ],
        "postalCode": "K8H3K1",
        "streetName": "CHIPPEWA",
        "streetDirectionId": null,
        "streetTypeId": "RD",
        "placeName": "PETAWAWA",
        "streetNameDisplayText": "CHIPPEWA RD, PETAWAWA"
      }
    ]
  },
  {
    "postal": "K8H6X4",
    "result": []
  },
  {
    "postal": "K8H4M8",
    "result": []
  },
  {
    "postal": "K8H2Y1",
    "result": [
      {
        "electoralDistricts": [
          {
            "election": null,
            "id": 88,
            "name": "Renfrew—Nipissing—Pembroke"
          }
        ],
        "pollDivisionIds": [
          10141191,
          10141193
        ],
        "postalCode": "K8H2Y1",
        "streetName": "PETAWAWA",
        "streetDirectionId": null,
        "streetTypeId": "BLVD",
        "placeName": "PETAWAWA",
        "streetNameDisplayText": "PETAWAWA BLVD, PETAWAWA"
      }
    ]
  },
  {
    "postal": "K8H6M1",
    "result": []
  },
  {
    "postal": "K8H5L8",
    "result": []
  },
  {
    "postal": "K8H3P6",
    "result": [
      {
        "electoralDistricts": [
          {
            "election": null,
            "id": 88,
            "name": "Renfrew—Nipissing—Pembroke"
          }
        ],
        "pollDivisionIds": [
          10141193
        ],
        "postalCode": "K8H3P6",
        "streetName": "DANIEL",
        "streetDirectionId": null,
        "streetTypeId": "AVE",
        "placeName": "PETAWAWA",
        "streetNameDisplayText": "DANIEL AVE, PETAWAWA"
      },
      {
        "electoralDistricts": [
          {
            "election": null,
            "id": 88,
            "name": "Renfrew—Nipissing—Pembroke"
          }
        ],
        "pollDivisionIds": [
          10141193
        ],
        "postalCode": "K8H3P6",
        "streetName": "PORTAGE",
        "streetDirectionId": null,
        "streetTypeId": "RD",
        "placeName": "PETAWAWA",
        "streetNameDisplayText": "PORTAGE RD, PETAWAWA"
      }
    ]
  },
  {
    "postal": "K8H9A5",
    "result": []
  },
  {
    "postal": "K8H7K1",
    "result": []
  },
  {
    "postal": "K8H3J4",
    "result": [
      {
        "electoralDistricts": [
          {
            "election": null,
            "id": 88,
            "name": "Renfrew—Nipissing—Pembroke"
          }
        ],
        "pollDivisionIds": [
          10141192
        ],
        "postalCode": "K8H3J4",
        "streetName": "CHIPPEWA",
        "streetDirectionId": null,
        "streetTypeId": "RD",
        "placeName": "PETAWAWA",
        "streetNameDisplayText": "CHIPPEWA RD, PETAWAWA"
      }
    ]
  },
  {
    "postal": "K8H5E7",
    "result": []
  },
  {
    "postal": "K8H3A7",
    "result": [
      {
        "electoralDistricts": [
          {
            "election": null,
            "id": 88,
            "name": "Renfrew—Nipissing—Pembroke"
          }
        ],
        "pollDivisionIds": [
          10141193
        ],
        "postalCode": "K8H3A7",
        "streetName": "SCOTT",
        "streetDirectionId": null,
        "streetTypeId": "AVE",
        "placeName": "PETAWAWA",
        "streetNameDisplayText": "SCOTT AVE, PETAWAWA"
      }
    ]
  },
  {
    "postal": "K8H1B9",
    "result": [
      {
        "electoralDistricts": [
          {
            "election": null,
            "id": 88,
            "name": "Renfrew—Nipissing—Pembroke"
          }
        ],
        "pollDivisionIds": [
          10141194
        ],
        "postalCode": "K8H1B9",
        "streetName": "PACHINO",
        "streetDirectionId": null,
        "streetTypeId": "ST",
        "placeName": "PETAWAWA",
        "streetNameDisplayText": "PACHINO ST, PETAWAWA"
      }
    ]
  },
  {
    "postal": "K8H9E8",
    "result": []
  },
  {
    "postal": "K8H1C9",
    "result": [
      {
        "electoralDistricts": [
          {
            "election": null,
            "id": 88,
            "name": "Renfrew—Nipissing—Pembroke"
          }
        ],
        "pollDivisionIds": [
          10141194
        ],
        "postalCode": "K8H1C9",
        "streetName": "YPRES",
        "streetDirectionId": null,
        "streetTypeId": "BLVD",
        "placeName": "PETAWAWA",
        "streetNameDisplayText": "YPRES BLVD, PETAWAWA"
      },
      {
        "electoralDistricts": [
          {
            "election": null,
            "id": 88,
            "name": "Renfrew—Nipissing—Pembroke"
          }
        ],
        "pollDivisionIds": [
          10141194
        ],
        "postalCode": "K8H1C9",
        "streetName": "YPRES",
        "streetDirectionId": null,
        "streetTypeId": "ST",
        "placeName": "PETAWAWA",
        "streetNameDisplayText": "YPRES ST, PETAWAWA"
      }
    ]
  },
  {
    "postal": "K8H3B5",
    "result": [
      {
        "electoralDistricts": [
          {
            "election": null,
            "id": 88,
            "name": "Renfrew—Nipissing—Pembroke"
          }
        ],
        "pollDivisionIds": [
          10141193
        ],
        "postalCode": "K8H3B5",
        "streetName": "JAMES",
        "streetDirectionId": null,
        "streetTypeId": "ST",
        "placeName": "PETAWAWA",
        "streetNameDisplayText": "JAMES ST, PETAWAWA"
      }
    ]
  },
  {
    "postal": "K8H8R0",
    "result": []
  },
  {
    "postal": "K8H3P2",
    "result": [
      {
        "electoralDistricts": [
          {
            "election": null,
            "id": 88,
            "name": "Renfrew—Nipissing—Pembroke"
          }
        ],
        "pollDivisionIds": [
          10141193
        ],
        "postalCode": "K8H3P2",
        "streetName": "BRIARWOOD",
        "streetDirectionId": null,
        "streetTypeId": "DR",
        "placeName": "PETAWAWA",
        "streetNameDisplayText": "BRIARWOOD DR, PETAWAWA"
      }
    ]
  },
  {
    "postal": "K8H5V4",
    "result": []
  },
  {
    "postal": "K8H4H0",
    "result": []
  },
  {
    "postal": "K8H4S7",
    "result": []
  },
  {
    "postal": "K8H6C2",
    "result": []
  },
  {
    "postal": "K8H8W3",
    "result": []
  },
  {
    "postal": "K8H4M5",
    "result": []
  },
  {
    "postal": "K8H5T1",
    "result": []
  },
  {
    "postal": "K8H3B3",
    "result": []
  },
  {
    "postal": "K8H6C6",
    "result": []
  },
  {
    "postal": "K8H7N8",
    "result": []
  },
  {
    "postal": "K8H2Y3",
    "result": [
      {
        "electoralDistricts": [
          {
            "election": null,
            "id": 88,
            "name": "Renfrew—Nipissing—Pembroke"
          }
        ],
        "pollDivisionIds": [
          10141193
        ],
        "postalCode": "K8H2Y3",
        "streetName": "GERALD",
        "streetDirectionId": null,
        "streetTypeId": "AVE",
        "placeName": "PETAWAWA",
        "streetNameDisplayText": "GERALD AVE, PETAWAWA"
      },
      {
        "electoralDistricts": [
          {
            "election": null,
            "id": 88,
            "name": "Renfrew—Nipissing—Pembroke"
          }
        ],
        "pollDivisionIds": [
          10141193
        ],
        "postalCode": "K8H2Y3",
        "streetName": "WILSON",
        "streetDirectionId": null,
        "streetTypeId": "AVE",
        "placeName": "PETAWAWA",
        "streetNameDisplayText": "WILSON AVE, PETAWAWA"
      }
    ]
  },
  {
    "postal": "K8H2R6",
    "result": []
  },
  {
    "postal": "K8H7N3",
    "result": []
  },
  {
    "postal": "K8H8J2",
    "result": []
  },
  {
    "postal": "K8H6A9",
    "result": []
  },
  {
    "postal": "K8H3V2",
    "result": []
  },
  {
    "postal": "K8H2N3",
    "result": [
      {
        "electoralDistricts": [
          {
            "election": null,
            "id": 88,
            "name": "Renfrew—Nipissing—Pembroke"
          }
        ],
        "pollDivisionIds": [
          10141192
        ],
        "postalCode": "K8H2N3",
        "streetName": "ALBERT",
        "streetDirectionId": null,
        "streetTypeId": "ST",
        "placeName": "PETAWAWA",
        "streetNameDisplayText": "ALBERT ST, PETAWAWA"
      }
    ]
  },
  {
    "postal": "K8H1S5",
    "result": [
      {
        "electoralDistricts": [
          {
            "election": null,
            "id": 88,
            "name": "Renfrew—Nipissing—Pembroke"
          }
        ],
        "pollDivisionIds": [
          10141193
        ],
        "postalCode": "K8H1S5",
        "streetName": "JOHN",
        "streetDirectionId": null,
        "streetTypeId": "ST",
        "placeName": "PETAWAWA",
        "streetNameDisplayText": "JOHN ST, PETAWAWA"
      }
    ]
  },
  {
    "postal": "K8H4T7",
    "result": []
  },
  {
    "postal": "K8H6Y7",
    "result": []
  },
  {
    "postal": "K8H0W7",
    "result": []
  },
  {
    "postal": "K8H2W9",
    "result": []
  },
  {
    "postal": "K8H8V0",
    "result": []
  },
  {
    "postal": "K8H0H4",
    "result": []
  },
  {
    "postal": "K8H2T1",
    "result": [
      {
        "electoralDistricts": [
          {
            "election": null,
            "id": 88,
            "name": "Renfrew—Nipissing—Pembroke"
          }
        ],
        "pollDivisionIds": [
          10141193
        ],
        "postalCode": "K8H2T1",
        "streetName": "BORDEN",
        "streetDirectionId": null,
        "streetTypeId": "AVE",
        "placeName": "PETAWAWA",
        "streetNameDisplayText": "BORDEN AVE, PETAWAWA"
      }
    ]
  },
  {
    "postal": "K8H1B1",
    "result": [
      {
        "electoralDistricts": [
          {
            "election": null,
            "id": 88,
            "name": "Renfrew—Nipissing—Pembroke"
          }
        ],
        "pollDivisionIds": [
          10141191
        ],
        "postalCode": "K8H1B1",
        "streetName": "ORTONA",
        "streetDirectionId": null,
        "streetTypeId": "AVE",
        "placeName": "PETAWAWA",
        "streetNameDisplayText": "ORTONA AVE, PETAWAWA"
      }
    ]
  },
  {
    "postal": "K8H8B6",
    "result": []
  },
  {
    "postal": "K8H6H1",
    "result": []
  },
  {
    "postal": "K8H8T8",
    "result": []
  },
  {
    "postal": "K8H0T4",
    "result": []
  },
  {
    "postal": "K8H2C4",
    "result": [
      {
        "electoralDistricts": [
          {
            "election": null,
            "id": 88,
            "name": "Renfrew—Nipissing—Pembroke"
          }
        ],
        "pollDivisionIds": [
          10141193
        ],
        "postalCode": "K8H2C4",
        "streetName": "VIOLET",
        "streetDirectionId": null,
        "streetTypeId": "ST",
        "placeName": "PETAWAWA",
        "streetNameDisplayText": "VIOLET ST, PETAWAWA"
      }
    ]
  },
  {
    "postal": "K8H8N3",
    "result": []
  },
  {
    "postal": "K8H4L8",
    "result": []
  },
  {
    "postal": "K8H2B5",
    "result": [
      {
        "electoralDistricts": [
          {
            "election": null,
            "id": 88,
            "name": "Renfrew—Nipissing—Pembroke"
          }
        ],
        "pollDivisionIds": [
          10141193
        ],
        "postalCode": "K8H2B5",
        "streetName": "MOHNS",
        "streetDirectionId": null,
        "streetTypeId": "AVE",
        "placeName": "PETAWAWA",
        "streetNameDisplayText": "MOHNS AVE, PETAWAWA"
      }
    ]
  },
  {
    "postal": "K8H3H1",
    "result": [
      {
        "electoralDistricts": [
          {
            "election": null,
            "id": 88,
            "name": "Renfrew—Nipissing—Pembroke"
          }
        ],
        "pollDivisionIds": [
          10141192
        ],
        "postalCode": "K8H3H1",
        "streetName": "SELLEY",
        "streetDirectionId": null,
        "streetTypeId": "ST",
        "placeName": "PETAWAWA",
        "streetNameDisplayText": "SELLEY ST, PETAWAWA"
      }
    ]
  },
  {
    "postal": "K8H4Y1",
    "result": []
  },
  {
    "postal": "K8H7E2",
    "result": []
  },
  {
    "postal": "K8H2P5",
    "result": [
      {
        "electoralDistricts": [
          {
            "election": null,
            "id": 88,
            "name": "Renfrew—Nipissing—Pembroke"
          }
        ],
        "pollDivisionIds": [
          10141192
        ],
        "postalCode": "K8H2P5",
        "streetName": "TALL PINES",
        "streetDirectionId": null,
        "streetTypeId": "RD",
        "placeName": "PETAWAWA",
        "streetNameDisplayText": "TALL PINES RD, PETAWAWA"
      }
    ]
  },
  {
    "postal": "K8H8R7",
    "result": []
  },
  {
    "postal": "K8H9P1",
    "result": []
  },
  {
    "postal": "K8H3B8",
    "result": []
  },
  {
    "postal": "K8H3P7",
    "result": [
      {
        "electoralDistricts": [
          {
            "election": null,
            "id": 88,
            "name": "Renfrew—Nipissing—Pembroke"
          }
        ],
        "pollDivisionIds": [
          10141193
        ],
        "postalCode": "K8H3P7",
        "streetName": "SAMMY",
        "streetDirectionId": null,
        "streetTypeId": "DR",
        "placeName": "PETAWAWA",
        "streetNameDisplayText": "SAMMY DR, PETAWAWA"
      }
    ]
  },
  {
    "postal": "K8H9B2",
    "result": []
  },
  {
    "postal": "K8H6Z3",
    "result": []
  },
  {
    "postal": "K8H4N5",
    "result": []
  },
  {
    "postal": "K8H8T3",
    "result": []
  },
  {
    "postal": "K8H1V2",
    "result": [
      {
        "electoralDistricts": [
          {
            "election": null,
            "id": 88,
            "name": "Renfrew—Nipissing—Pembroke"
          }
        ],
        "pollDivisionIds": [
          10141193
        ],
        "postalCode": "K8H1V2",
        "streetName": "LAURA",
        "streetDirectionId": null,
        "streetTypeId": "ST",
        "placeName": "PETAWAWA",
        "streetNameDisplayText": "LAURA ST, PETAWAWA"
      }
    ]
  },
  {
    "postal": "K8H1Y0",
    "result": []
  },
  {
    "postal": "K8H3G6",
    "result": [
      {
        "electoralDistricts": [
          {
            "election": null,
            "id": 88,
            "name": "Renfrew—Nipissing—Pembroke"
          }
        ],
        "pollDivisionIds": [
          10141192
        ],
        "postalCode": "K8H3G6",
        "streetName": "GUTZMAN",
        "streetDirectionId": null,
        "streetTypeId": "RD",
        "placeName": "PETAWAWA",
        "streetNameDisplayText": "GUTZMAN RD, PETAWAWA"
      }
    ]
  },
  {
    "postal": "K8H3H7",
    "result": [
      {
        "electoralDistricts": [
          {
            "election": null,
            "id": 88,
            "name": "Renfrew—Nipissing—Pembroke"
          }
        ],
        "pollDivisionIds": [
          10141193
        ],
        "postalCode": "K8H3H7",
        "streetName": "SPRUCE",
        "streetDirectionId": null,
        "streetTypeId": "ST",
        "placeName": "PETAWAWA",
        "streetNameDisplayText": "SPRUCE ST, PETAWAWA"
      }
    ]
  },
  {
    "postal": "K8H7X8",
    "result": []
  },
  {
    "postal": "K8H0C7",
    "result": []
  },
  {
    "postal": "K8H0W9",
    "result": []
  },
  {
    "postal": "K8H8E6",
    "result": []
  },
  {
    "postal": "K8H9Z8",
    "result": []
  },
  {
    "postal": "K8H3P4",
    "result": [
      {
        "electoralDistricts": [
          {
            "election": null,
            "id": 88,
            "name": "Renfrew—Nipissing—Pembroke"
          }
        ],
        "pollDivisionIds": [
          10141193
        ],
        "postalCode": "K8H3P4",
        "streetName": "RUSSELL",
        "streetDirectionId": null,
        "streetTypeId": "ST",
        "placeName": "PETAWAWA",
        "streetNameDisplayText": "RUSSELL ST, PETAWAWA"
      }
    ]
  },
  {
    "postal": "K8H6L8",
    "result": []
  },
  {
    "postal": "K8H2R4",
    "result": [
      {
        "electoralDistricts": [
          {
            "election": null,
            "id": 88,
            "name": "Renfrew—Nipissing—Pembroke"
          }
        ],
        "pollDivisionIds": [
          10141192
        ],
        "postalCode": "K8H2R4",
        "streetName": "ISLAND VIEW",
        "streetDirectionId": null,
        "streetTypeId": "DR",
        "placeName": "PETAWAWA",
        "streetNameDisplayText": "ISLAND VIEW DR, PETAWAWA"
      }
    ]
  },
  {
    "postal": "K8H2W1",
    "result": [
      {
        "electoralDistricts": [
          {
            "election": null,
            "id": 88,
            "name": "Renfrew—Nipissing—Pembroke"
          }
        ],
        "pollDivisionIds": [
          10141193
        ],
        "postalCode": "K8H2W1",
        "streetName": "DUNDONALD",
        "streetDirectionId": null,
        "streetTypeId": "DR",
        "placeName": "PETAWAWA",
        "streetNameDisplayText": "DUNDONALD DR, PETAWAWA"
      }
    ]
  },
  {
    "postal": "K8H9H8",
    "result": []
  },
  {
    "postal": "K8H8X9",
    "result": []
  },
  {
    "postal": "K8H7H4",
    "result": []
  },
  {
    "postal": "K8H3J1",
    "result": [
      {
        "electoralDistricts": [
          {
            "election": null,
            "id": 88,
            "name": "Renfrew—Nipissing—Pembroke"
          }
        ],
        "pollDivisionIds": [
          10141191
        ],
        "postalCode": "K8H3J1",
        "streetName": "MENIN",
        "streetDirectionId": null,
        "streetTypeId": "RD",
        "placeName": "PETAWAWA",
        "streetNameDisplayText": "MENIN RD, PETAWAWA"
      }
    ]
  },
  {
    "postal": "K8H1P4",
    "result": [
      {
        "electoralDistricts": [
          {
            "election": null,
            "id": 88,
            "name": "Renfrew—Nipissing—Pembroke"
          }
        ],
        "pollDivisionIds": [
          10141193
        ],
        "postalCode": "K8H1P4",
        "streetName": "SELKIRK",
        "streetDirectionId": null,
        "streetTypeId": "ST",
        "placeName": "PETAWAWA",
        "streetNameDisplayText": "SELKIRK ST, PETAWAWA"
      }
    ]
  },
  {
    "postal": "K8H2A3",
    "result": [
      {
        "electoralDistricts": [
          {
            "election": null,
            "id": 88,
            "name": "Renfrew—Nipissing—Pembroke"
          }
        ],
        "pollDivisionIds": [
          10141193
        ],
        "postalCode": "K8H2A3",
        "streetName": "HARRY",
        "streetDirectionId": null,
        "streetTypeId": "ST",
        "placeName": "PETAWAWA",
        "streetNameDisplayText": "HARRY ST, PETAWAWA"
      }
    ]
  },
  {
    "postal": "K8H0Z1",
    "result": []
  },
  {
    "postal": "K8H1C1",
    "result": [
      {
        "electoralDistricts": [
          {
            "election": null,
            "id": 88,
            "name": "Renfrew—Nipissing—Pembroke"
          }
        ],
        "pollDivisionIds": [
          10141194
        ],
        "postalCode": "K8H1C1",
        "streetName": "PACHINO",
        "streetDirectionId": null,
        "streetTypeId": "ST",
        "placeName": "PETAWAWA",
        "streetNameDisplayText": "PACHINO ST, PETAWAWA"
      }
    ]
  },
  {
    "postal": "K8H0H3",
    "result": []
  },
  {
    "postal": "K8H7B0",
    "result": []
  },
  {
    "postal": "K8H5K2",
    "result": []
  },
  {
    "postal": "K8H1E9",
    "result": [
      {
        "electoralDistricts": [
          {
            "election": null,
            "id": 88,
            "name": "Renfrew—Nipissing—Pembroke"
          }
        ],
        "pollDivisionIds": [
          10141194
        ],
        "postalCode": "K8H1E9",
        "streetName": "YPRES",
        "streetDirectionId": null,
        "streetTypeId": "BLVD",
        "placeName": "PETAWAWA",
        "streetNameDisplayText": "YPRES BLVD, PETAWAWA"
      }
    ]
  },
  {
    "postal": "K8H9W7",
    "result": []
  },
  {
    "postal": "K8H5W6",
    "result": []
  },
  {
    "postal": "K8H6S6",
    "result": []
  },
  {
    "postal": "K8H2P8",
    "result": [
      {
        "electoralDistricts": [
          {
            "election": null,
            "id": 88,
            "name": "Renfrew—Nipissing—Pembroke"
          }
        ],
        "pollDivisionIds": [
          10141192
        ],
        "postalCode": "K8H2P8",
        "streetName": "LOUISE",
        "streetDirectionId": null,
        "streetTypeId": "ST",
        "placeName": "PETAWAWA",
        "streetNameDisplayText": "LOUISE ST, PETAWAWA"
      }
    ]
  },
  {
    "postal": "K8H4P8",
    "result": []
  },
  {
    "postal": "K8H0V9",
    "result": []
  },
  {
    "postal": "K8H5Y2",
    "result": []
  },
  {
    "postal": "K8H7Z7",
    "result": []
  },
  {
    "postal": "K8H6Y8",
    "result": []
  },
  {
    "postal": "K8H2G7",
    "result": [
      {
        "electoralDistricts": [
          {
            "election": null,
            "id": 88,
            "name": "Renfrew—Nipissing—Pembroke"
          }
        ],
        "pollDivisionIds": [
          10141193
        ],
        "postalCode": "K8H2G7",
        "streetName": "MOHNS",
        "streetDirectionId": null,
        "streetTypeId": "AVE",
        "placeName": "PETAWAWA",
        "streetNameDisplayText": "MOHNS AVE, PETAWAWA"
      }
    ]
  },
  {
    "postal": "K8H8C1",
    "result": []
  },
  {
    "postal": "K8H5C5",
    "result": []
  },
  {
    "postal": "K8H2X8",
    "result": [
      {
        "electoralDistricts": [
          {
            "election": null,
            "id": 88,
            "name": "Renfrew—Nipissing—Pembroke"
          }
        ],
        "pollDivisionIds": [
          10141193
        ],
        "postalCode": "K8H2X8",
        "streetName": "JOHN",
        "streetDirectionId": null,
        "streetTypeId": "ST",
        "placeName": "PETAWAWA",
        "streetNameDisplayText": "JOHN ST, PETAWAWA"
      }
    ]
  },
  {
    "postal": "K8H1W5",
    "result": [
      {
        "electoralDistricts": [
          {
            "election": null,
            "id": 88,
            "name": "Renfrew—Nipissing—Pembroke"
          }
        ],
        "pollDivisionIds": [
          10141193
        ],
        "postalCode": "K8H1W5",
        "streetName": "MURPHY",
        "streetDirectionId": null,
        "streetTypeId": "RD",
        "placeName": "PETAWAWA",
        "streetNameDisplayText": "MURPHY RD, PETAWAWA"
      }
    ]
  },
  {
    "postal": "K8H7G0",
    "result": []
  },
  {
    "postal": "K8H8J8",
    "result": []
  },
  {
    "postal": "K8H3Y0",
    "result": []
  },
  {
    "postal": "K8H9T7",
    "result": []
  },
  {
    "postal": "K8H5P4",
    "result": []
  },
  {
    "postal": "K8H4B0",
    "result": []
  },
  {
    "postal": "K8H9N8",
    "result": []
  },
  {
    "postal": "K8H4A7",
    "result": []
  },
  {
    "postal": "K8H4H9",
    "result": []
  },
  {
    "postal": "K8H6X1",
    "result": []
  },
  {
    "postal": "K8H9Y7",
    "result": []
  },
  {
    "postal": "K8H2Y5",
    "result": [
      {
        "electoralDistricts": [
          {
            "election": null,
            "id": 88,
            "name": "Renfrew—Nipissing—Pembroke"
          }
        ],
        "pollDivisionIds": [
          10141193
        ],
        "postalCode": "K8H2Y5",
        "streetName": "MAPLE",
        "streetDirectionId": null,
        "streetTypeId": "AVE",
        "placeName": "PETAWAWA",
        "streetNameDisplayText": "MAPLE AVE, PETAWAWA"
      }
    ]
  },
  {
    "postal": "K8H8L7",
    "result": []
  },
  {
    "postal": "K8H2A8",
    "result": [
      {
        "electoralDistricts": [
          {
            "election": null,
            "id": 88,
            "name": "Renfrew—Nipissing—Pembroke"
          }
        ],
        "pollDivisionIds": [
          10141193
        ],
        "postalCode": "K8H2A8",
        "streetName": "ALGONQUIN",
        "streetDirectionId": null,
        "streetTypeId": "ST",
        "placeName": "PETAWAWA",
        "streetNameDisplayText": "ALGONQUIN ST, PETAWAWA"
      }
    ]
  },
  {
    "postal": "K8H2K9",
    "result": [
      {
        "electoralDistricts": [
          {
            "election": null,
            "id": 88,
            "name": "Renfrew—Nipissing—Pembroke"
          }
        ],
        "pollDivisionIds": [
          10141192
        ],
        "postalCode": "K8H2K9",
        "streetName": "SILKE",
        "streetDirectionId": null,
        "streetTypeId": "DR",
        "placeName": "PETAWAWA",
        "streetNameDisplayText": "SILKE DR, PETAWAWA"
      }
    ]
  },
  {
    "postal": "K8H3E5",
    "result": [
      {
        "electoralDistricts": [
          {
            "election": null,
            "id": 88,
            "name": "Renfrew—Nipissing—Pembroke"
          }
        ],
        "pollDivisionIds": [
          10141192
        ],
        "postalCode": "K8H3E5",
        "streetName": "SANDY",
        "streetDirectionId": null,
        "streetTypeId": "DR",
        "placeName": "PETAWAWA",
        "streetNameDisplayText": "SANDY DR, PETAWAWA"
      }
    ]
  },
  {
    "postal": "K8H8N6",
    "result": []
  },
  {
    "postal": "K8H8J4",
    "result": []
  },
  {
    "postal": "K8H4R7",
    "result": []
  },
  {
    "postal": "K8H9K1",
    "result": []
  },
  {
    "postal": "K8H8E1",
    "result": []
  },
  {
    "postal": "K8H0R1",
    "result": []
  },
  {
    "postal": "K8H4J3",
    "result": []
  },
  {
    "postal": "K8H7E7",
    "result": []
  },
  {
    "postal": "K8H0J0",
    "result": []
  },
  {
    "postal": "K8H7R8",
    "result": []
  },
  {
    "postal": "K8H9X0",
    "result": []
  },
  {
    "postal": "K8H7P6",
    "result": []
  },
  {
    "postal": "K8H0R7",
    "result": []
  },
  {
    "postal": "K8H5W1",
    "result": []
  },
  {
    "postal": "K8H0K4",
    "result": []
  },
  {
    "postal": "K8H7N9",
    "result": []
  },
  {
    "postal": "K8H1N0",
    "result": []
  },
  {
    "postal": "K8H6P3",
    "result": []
  },
  {
    "postal": "K8H5A1",
    "result": []
  },
  {
    "postal": "K8H9M9",
    "result": []
  },
  {
    "postal": "K8H7T6",
    "result": []
  },
  {
    "postal": "K8H3X0",
    "result": []
  },
  {
    "postal": "K8H2T0",
    "result": []
  },
  {
    "postal": "K8H5X9",
    "result": []
  },
  {
    "postal": "K8H2R3",
    "result": []
  },
  {
    "postal": "K8H5N2",
    "result": []
  },
  {
    "postal": "K8H4Y7",
    "result": []
  },
  {
    "postal": "K8H7M0",
    "result": []
  },
  {
    "postal": "K8H8P3",
    "result": []
  },
  {
    "postal": "K8H3N3",
    "result": [
      {
        "electoralDistricts": [
          {
            "election": null,
            "id": 88,
            "name": "Renfrew—Nipissing—Pembroke"
          }
        ],
        "pollDivisionIds": [
          10141192
        ],
        "postalCode": "K8H3N3",
        "streetName": "VERMONT",
        "streetDirectionId": null,
        "streetTypeId": "MEADOW",
        "placeName": "PETAWAWA",
        "streetNameDisplayText": "VERMONT MEADOW, PETAWAWA"
      }
    ]
  },
  {
    "postal": "K8H7S3",
    "result": []
  },
  {
    "postal": "K8H3V9",
    "result": []
  },
  {
    "postal": "K8H9N7",
    "result": []
  },
  {
    "postal": "K8H0G4",
    "result": [
      {
        "electoralDistricts": [
          {
            "election": null,
            "id": 88,
            "name": "Renfrew—Nipissing—Pembroke"
          }
        ],
        "pollDivisionIds": [
          10141192
        ],
        "postalCode": "K8H0G4",
        "streetName": "DREW",
        "streetDirectionId": null,
        "streetTypeId": "ST",
        "placeName": "PETAWAWA",
        "streetNameDisplayText": "DREW ST, PETAWAWA"
      }
    ]
  },
  {
    "postal": "K8H2E2",
    "result": [
      {
        "electoralDistricts": [
          {
            "election": null,
            "id": 88,
            "name": "Renfrew—Nipissing—Pembroke"
          }
        ],
        "pollDivisionIds": [
          10141192
        ],
        "postalCode": "K8H2E2",
        "streetName": "CLEMOW",
        "streetDirectionId": null,
        "streetTypeId": "AVE",
        "placeName": "PETAWAWA",
        "streetNameDisplayText": "CLEMOW AVE, PETAWAWA"
      },
      {
        "electoralDistricts": [
          {
            "election": null,
            "id": 88,
            "name": "Renfrew—Nipissing—Pembroke"
          }
        ],
        "pollDivisionIds": [
          10141193
        ],
        "postalCode": "K8H2E2",
        "streetName": "VICTORIA",
        "streetDirectionId": null,
        "streetTypeId": "ST",
        "placeName": "PETAWAWA",
        "streetNameDisplayText": "VICTORIA ST, PETAWAWA"
      }
    ]
  },
  {
    "postal": "K8H7W8",
    "result": []
  },
  {
    "postal": "K8H7M5",
    "result": []
  },
  {
    "postal": "K8H5W8",
    "result": []
  },
  {
    "postal": "K8H5E5",
    "result": []
  },
  {
    "postal": "K8H1P9",
    "result": [
      {
        "electoralDistricts": [
          {
            "election": null,
            "id": 88,
            "name": "Renfrew—Nipissing—Pembroke"
          }
        ],
        "pollDivisionIds": [
          10141192,
          10141193
        ],
        "postalCode": "K8H1P9",
        "streetName": "DORAN",
        "streetDirectionId": null,
        "streetTypeId": "RD",
        "placeName": "PETAWAWA",
        "streetNameDisplayText": "DORAN RD, PETAWAWA"
      },
      {
        "electoralDistricts": [
          {
            "election": null,
            "id": 88,
            "name": "Renfrew—Nipissing—Pembroke"
          }
        ],
        "pollDivisionIds": [
          10141193,
          10141192
        ],
        "postalCode": "K8H1P9",
        "streetName": "DORAN",
        "streetDirectionId": null,
        "streetTypeId": "ST",
        "placeName": "PETAWAWA",
        "streetNameDisplayText": "DORAN ST, PETAWAWA"
      }
    ]
  },
  {
    "postal": "K8H8V8",
    "result": []
  },
  {
    "postal": "K8H9G8",
    "result": []
  },
  {
    "postal": "K8H8H9",
    "result": []
  },
  {
    "postal": "K8H1Z1",
    "result": [
      {
        "electoralDistricts": [
          {
            "election": null,
            "id": 88,
            "name": "Renfrew—Nipissing—Pembroke"
          }
        ],
        "pollDivisionIds": [
          10141192
        ],
        "postalCode": "K8H1Z1",
        "streetName": "ISABEL",
        "streetDirectionId": null,
        "streetTypeId": "ST",
        "placeName": "PETAWAWA",
        "streetNameDisplayText": "ISABEL ST, PETAWAWA"
      }
    ]
  },
  {
    "postal": "K8H8M3",
    "result": []
  },
  {
    "postal": "K8H5H6",
    "result": []
  },
  {
    "postal": "K8H7W7",
    "result": []
  },
  {
    "postal": "K8H4L0",
    "result": []
  },
  {
    "postal": "K8H2N1",
    "result": [
      {
        "electoralDistricts": [
          {
            "election": null,
            "id": 88,
            "name": "Renfrew—Nipissing—Pembroke"
          }
        ],
        "pollDivisionIds": [
          10141192
        ],
        "postalCode": "K8H2N1",
        "streetName": "LAURENTIAN",
        "streetDirectionId": null,
        "streetTypeId": "DR",
        "placeName": "PETAWAWA",
        "streetNameDisplayText": "LAURENTIAN DR, PETAWAWA"
      }
    ]
  },
  {
    "postal": "K8H2H4",
    "result": [
      {
        "electoralDistricts": [
          {
            "election": null,
            "id": 88,
            "name": "Renfrew—Nipissing—Pembroke"
          }
        ],
        "pollDivisionIds": [
          10141192
        ],
        "postalCode": "K8H2H4",
        "streetName": "NEW",
        "streetDirectionId": null,
        "streetTypeId": "ST",
        "placeName": "PETAWAWA",
        "streetNameDisplayText": "NEW ST, PETAWAWA"
      }
    ]
  },
  {
    "postal": "K8H5C8",
    "result": []
  },
  {
    "postal": "K8H8B0",
    "result": []
  },
  {
    "postal": "K8H1T4",
    "result": [
      {
        "electoralDistricts": [
          {
            "election": null,
            "id": 88,
            "name": "Renfrew—Nipissing—Pembroke"
          }
        ],
        "pollDivisionIds": [
          10141193
        ],
        "postalCode": "K8H1T4",
        "streetName": "PORTAGE",
        "streetDirectionId": null,
        "streetTypeId": "RD",
        "placeName": "PETAWAWA",
        "streetNameDisplayText": "PORTAGE RD, PETAWAWA"
      }
    ]
  },
  {
    "postal": "K8H7N7",
    "result": []
  },
  {
    "postal": "K8H4L3",
    "result": []
  },
  {
    "postal": "K8H2N2",
    "result": [
      {
        "electoralDistricts": [
          {
            "election": null,
            "id": 88,
            "name": "Renfrew—Nipissing—Pembroke"
          }
        ],
        "pollDivisionIds": [
          10141192,
          10141193
        ],
        "postalCode": "K8H2N2",
        "streetName": "LAURENTIAN",
        "streetDirectionId": null,
        "streetTypeId": "DR",
        "placeName": "PETAWAWA",
        "streetNameDisplayText": "LAURENTIAN DR, PETAWAWA"
      }
    ]
  },
  {
    "postal": "K8H4N8",
    "result": []
  },
  {
    "postal": "K8H3M5",
    "result": [
      {
        "electoralDistricts": [
          {
            "election": null,
            "id": 88,
            "name": "Renfrew—Nipissing—Pembroke"
          }
        ],
        "pollDivisionIds": [
          10141192
        ],
        "postalCode": "K8H3M5",
        "streetName": "EARL",
        "streetDirectionId": null,
        "streetTypeId": "ST",
        "placeName": "PETAWAWA",
        "streetNameDisplayText": "EARL ST, PETAWAWA"
      },
      {
        "electoralDistricts": [
          {
            "election": null,
            "id": 88,
            "name": "Renfrew—Nipissing—Pembroke"
          }
        ],
        "pollDivisionIds": [
          10141192
        ],
        "postalCode": "K8H3M5",
        "streetName": "IRMA",
        "streetDirectionId": null,
        "streetTypeId": "ST",
        "placeName": "PETAWAWA",
        "streetNameDisplayText": "IRMA ST, PETAWAWA"
      },
      {
        "electoralDistricts": [
          {
            "election": null,
            "id": 88,
            "name": "Renfrew—Nipissing—Pembroke"
          }
        ],
        "pollDivisionIds": [
          10141192
        ],
        "postalCode": "K8H3M5",
        "streetName": "JAN",
        "streetDirectionId": null,
        "streetTypeId": "DR",
        "placeName": "PETAWAWA",
        "streetNameDisplayText": "JAN DR, PETAWAWA"
      }
    ]
  },
  {
    "postal": "K8H6H7",
    "result": []
  },
  {
    "postal": "K8H8Y8",
    "result": []
  },
  {
    "postal": "K8H5R9",
    "result": []
  },
  {
    "postal": "K8H8G3",
    "result": []
  },
  {
    "postal": "K8H4N7",
    "result": []
  },
  {
    "postal": "K8H0B9",
    "result": []
  },
  {
    "postal": "K8H9K7",
    "result": []
  },
  {
    "postal": "K8H9K9",
    "result": []
  },
  {
    "postal": "K8H3Z2",
    "result": []
  },
  {
    "postal": "K8H6W7",
    "result": []
  },
  {
    "postal": "K8H0P1",
    "result": []
  },
  {
    "postal": "K8H3A0",
    "result": []
  },
  {
    "postal": "K8H8L9",
    "result": []
  },
  {
    "postal": "K8H6X0",
    "result": []
  },
  {
    "postal": "K8H3E9",
    "result": [
      {
        "electoralDistricts": [
          {
            "election": null,
            "id": 88,
            "name": "Renfrew—Nipissing—Pembroke"
          }
        ],
        "pollDivisionIds": [
          10141192
        ],
        "postalCode": "K8H3E9",
        "streetName": "MUELLER",
        "streetDirectionId": null,
        "streetTypeId": "CRES",
        "placeName": "PETAWAWA",
        "streetNameDisplayText": "MUELLER CRES, PETAWAWA"
      }
    ]
  },
  {
    "postal": "K8H0S5",
    "result": []
  },
  {
    "postal": "K8H1A2",
    "result": [
      {
        "electoralDistricts": [
          {
            "election": null,
            "id": 88,
            "name": "Renfrew—Nipissing—Pembroke"
          }
        ],
        "pollDivisionIds": [
          10141191
        ],
        "postalCode": "K8H1A2",
        "streetName": "MOREUIL WOOD",
        "streetDirectionId": null,
        "streetTypeId": "BLVD",
        "placeName": "PETAWAWA",
        "streetNameDisplayText": "MOREUIL WOOD BLVD, PETAWAWA"
      },
      {
        "electoralDistricts": [
          {
            "election": null,
            "id": 88,
            "name": "Renfrew—Nipissing—Pembroke"
          }
        ],
        "pollDivisionIds": [
          10141191
        ],
        "postalCode": "K8H1A2",
        "streetName": "MOREUILWOOD",
        "streetDirectionId": null,
        "streetTypeId": "BLVD",
        "placeName": "PETAWAWA",
        "streetNameDisplayText": "MOREUILWOOD BLVD, PETAWAWA"
      }
    ]
  },
  {
    "postal": "K8H5V8",
    "result": []
  },
  {
    "postal": "K8H8C5",
    "result": []
  },
  {
    "postal": "K8H6N0",
    "result": []
  },
  {
    "postal": "K8H9E6",
    "result": []
  },
  {
    "postal": "K8H5J7",
    "result": []
  },
  {
    "postal": "K8H2R2",
    "result": [
      {
        "electoralDistricts": [
          {
            "election": null,
            "id": 88,
            "name": "Renfrew—Nipissing—Pembroke"
          }
        ],
        "pollDivisionIds": [
          10141192
        ],
        "postalCode": "K8H2R2",
        "streetName": "ALEXANDRA",
        "streetDirectionId": null,
        "streetTypeId": "ST",
        "placeName": "PETAWAWA",
        "streetNameDisplayText": "ALEXANDRA ST, PETAWAWA"
      }
    ]
  },
  {
    "postal": "K8H0P5",
    "result": []
  },
  {
    "postal": "K8H5A7",
    "result": []
  },
  {
    "postal": "K8H1G1",
    "result": [
      {
        "electoralDistricts": [
          {
            "election": null,
            "id": 88,
            "name": "Renfrew—Nipissing—Pembroke"
          }
        ],
        "pollDivisionIds": [
          10141191
        ],
        "postalCode": "K8H1G1",
        "streetName": "GOCH",
        "streetDirectionId": null,
        "streetTypeId": "CRES",
        "placeName": "PETAWAWA",
        "streetNameDisplayText": "GOCH CRES, PETAWAWA"
      }
    ]
  },
  {
    "postal": "K8H9R6",
    "result": []
  },
  {
    "postal": "K8H4Z9",
    "result": []
  },
  {
    "postal": "K8H1V5",
    "result": [
      {
        "electoralDistricts": [
          {
            "election": null,
            "id": 88,
            "name": "Renfrew—Nipissing—Pembroke"
          }
        ],
        "pollDivisionIds": [
          10141193
        ],
        "postalCode": "K8H1V5",
        "streetName": "NORMAN",
        "streetDirectionId": null,
        "streetTypeId": "ST",
        "placeName": "PETAWAWA",
        "streetNameDisplayText": "NORMAN ST, PETAWAWA"
      }
    ]
  },
  {
    "postal": "K8H9Y5",
    "result": []
  },
  {
    "postal": "K8H1P2",
    "result": [
      {
        "electoralDistricts": [
          {
            "election": null,
            "id": 88,
            "name": "Renfrew—Nipissing—Pembroke"
          }
        ],
        "pollDivisionIds": [
          10141193
        ],
        "postalCode": "K8H1P2",
        "streetName": "SELKIRK",
        "streetDirectionId": null,
        "streetTypeId": "ST",
        "placeName": "PETAWAWA",
        "streetNameDisplayText": "SELKIRK ST, PETAWAWA"
      }
    ]
  },
  {
    "postal": "K8H5X0",
    "result": []
  },
  {
    "postal": "K8H7B8",
    "result": []
  },
  {
    "postal": "K8H0C6",
    "result": []
  },
  {
    "postal": "K8H6G1",
    "result": []
  },
  {
    "postal": "K8H3K3",
    "result": [
      {
        "electoralDistricts": [
          {
            "election": null,
            "id": 88,
            "name": "Renfrew—Nipissing—Pembroke"
          }
        ],
        "pollDivisionIds": [
          10141192
        ],
        "postalCode": "K8H3K3",
        "streetName": "JANET",
        "streetDirectionId": null,
        "streetTypeId": "ST",
        "placeName": "PETAWAWA",
        "streetNameDisplayText": "JANET ST, PETAWAWA"
      }
    ]
  },
  {
    "postal": "K8H9R0",
    "result": []
  },
  {
    "postal": "K8H4R8",
    "result": []
  },
  {
    "postal": "K8H5P9",
    "result": []
  },
  {
    "postal": "K8H8N4",
    "result": []
  },
  {
    "postal": "K8H8H4",
    "result": []
  },
  {
    "postal": "K8H4V1",
    "result": []
  },
  {
    "postal": "K8H1K5",
    "result": [
      {
        "electoralDistricts": [
          {
            "election": null,
            "id": 88,
            "name": "Renfrew—Nipissing—Pembroke"
          }
        ],
        "pollDivisionIds": [
          10141191
        ],
        "postalCode": "K8H1K5",
        "streetName": "DIEPPE",
        "streetDirectionId": null,
        "streetTypeId": "ST",
        "placeName": "PETAWAWA",
        "streetNameDisplayText": "DIEPPE ST, PETAWAWA"
      }
    ]
  },
  {
    "postal": "K8H1Z5",
    "result": [
      {
        "electoralDistricts": [
          {
            "election": null,
            "id": 88,
            "name": "Renfrew—Nipissing—Pembroke"
          }
        ],
        "pollDivisionIds": [
          10141192
        ],
        "postalCode": "K8H1Z5",
        "streetName": "WHITE",
        "streetDirectionId": null,
        "streetTypeId": "ST",
        "placeName": "PETAWAWA",
        "streetNameDisplayText": "WHITE ST, PETAWAWA"
      }
    ]
  },
  {
    "postal": "K8H9L9",
    "result": []
  },
  {
    "postal": "K8H5L2",
    "result": []
  },
  {
    "postal": "K8H0M2",
    "result": []
  },
  {
    "postal": "K8H1K8",
    "result": [
      {
        "electoralDistricts": [
          {
            "election": null,
            "id": 88,
            "name": "Renfrew—Nipissing—Pembroke"
          }
        ],
        "pollDivisionIds": [
          10141191
        ],
        "postalCode": "K8H1K8",
        "streetName": "CAEN",
        "streetDirectionId": null,
        "streetTypeId": "ST",
        "placeName": "PETAWAWA",
        "streetNameDisplayText": "CAEN ST, PETAWAWA"
      }
    ]
  },
  {
    "postal": "K8H3M7",
    "result": []
  },
  {
    "postal": "K8H1B2",
    "result": [
      {
        "electoralDistricts": [
          {
            "election": null,
            "id": 88,
            "name": "Renfrew—Nipissing—Pembroke"
          }
        ],
        "pollDivisionIds": [
          10141191
        ],
        "postalCode": "K8H1B2",
        "streetName": "ORTONA",
        "streetDirectionId": null,
        "streetTypeId": "AVE",
        "placeName": "PETAWAWA",
        "streetNameDisplayText": "ORTONA AVE, PETAWAWA"
      }
    ]
  },
  {
    "postal": "K8H0H9",
    "result": []
  },
  {
    "postal": "K8H8M4",
    "result": []
  },
  {
    "postal": "K8H2M5",
    "result": [
      {
        "electoralDistricts": [
          {
            "election": null,
            "id": 88,
            "name": "Renfrew—Nipissing—Pembroke"
          }
        ],
        "pollDivisionIds": [
          10141192
        ],
        "postalCode": "K8H2M5",
        "streetName": "LAURENTIAN",
        "streetDirectionId": null,
        "streetTypeId": "DR",
        "placeName": "PETAWAWA",
        "streetNameDisplayText": "LAURENTIAN DR, PETAWAWA"
      }
    ]
  },
  {
    "postal": "K8H0T9",
    "result": []
  },
  {
    "postal": "K8H3P1",
    "result": [
      {
        "electoralDistricts": [
          {
            "election": null,
            "id": 88,
            "name": "Renfrew—Nipissing—Pembroke"
          }
        ],
        "pollDivisionIds": [
          10141192
        ],
        "postalCode": "K8H3P1",
        "streetName": "BLUE JAY",
        "streetDirectionId": null,
        "streetTypeId": "WAY",
        "placeName": "PETAWAWA",
        "streetNameDisplayText": "BLUE JAY WAY, PETAWAWA"
      },
      {
        "electoralDistricts": [
          {
            "election": null,
            "id": 88,
            "name": "Renfrew—Nipissing—Pembroke"
          }
        ],
        "pollDivisionIds": [
          10141192
        ],
        "postalCode": "K8H3P1",
        "streetName": "BLUEJAY",
        "streetDirectionId": null,
        "streetTypeId": "WAY",
        "placeName": "PETAWAWA",
        "streetNameDisplayText": "BLUEJAY WAY, PETAWAWA"
      },
      {
        "electoralDistricts": [
          {
            "election": null,
            "id": 88,
            "name": "Renfrew—Nipissing—Pembroke"
          }
        ],
        "pollDivisionIds": [
          10141192
        ],
        "postalCode": "K8H3P1",
        "streetName": "CARDINAL",
        "streetDirectionId": null,
        "streetTypeId": "CRES",
        "placeName": "PETAWAWA",
        "streetNameDisplayText": "CARDINAL CRES, PETAWAWA"
      },
      {
        "electoralDistricts": [
          {
            "election": null,
            "id": 88,
            "name": "Renfrew—Nipissing—Pembroke"
          }
        ],
        "pollDivisionIds": [
          10141192
        ],
        "postalCode": "K8H3P1",
        "streetName": "CARLA",
        "streetDirectionId": null,
        "streetTypeId": "ST",
        "placeName": "PETAWAWA",
        "streetNameDisplayText": "CARLA ST, PETAWAWA"
      },
      {
        "electoralDistricts": [
          {
            "election": null,
            "id": 88,
            "name": "Renfrew—Nipissing—Pembroke"
          }
        ],
        "pollDivisionIds": [
          10141192
        ],
        "postalCode": "K8H3P1",
        "streetName": "CHICKADEE",
        "streetDirectionId": null,
        "streetTypeId": "TRAIL",
        "placeName": "PETAWAWA",
        "streetNameDisplayText": "CHICKADEE TRAIL, PETAWAWA"
      }
    ]
  },
  {
    "postal": "K8H1R6",
    "result": [
      {
        "electoralDistricts": [
          {
            "election": null,
            "id": 88,
            "name": "Renfrew—Nipissing—Pembroke"
          }
        ],
        "pollDivisionIds": [
          10141193
        ],
        "postalCode": "K8H1R6",
        "streetName": "MARY",
        "streetDirectionId": null,
        "streetTypeId": "ST",
        "placeName": "PETAWAWA",
        "streetNameDisplayText": "MARY ST, PETAWAWA"
      }
    ]
  },
  {
    "postal": "K8H9V5",
    "result": []
  },
  {
    "postal": "K8H9T0",
    "result": []
  },
  {
    "postal": "K8H0A9",
    "result": [
      {
        "electoralDistricts": [
          {
            "election": null,
            "id": 88,
            "name": "Renfrew—Nipissing—Pembroke"
          }
        ],
        "pollDivisionIds": [
          10141192
        ],
        "postalCode": "K8H0A9",
        "streetName": "NUTHATCH",
        "streetDirectionId": null,
        "streetTypeId": "DR",
        "placeName": "PETAWAWA",
        "streetNameDisplayText": "NUTHATCH DR, PETAWAWA"
      },
      {
        "electoralDistricts": [
          {
            "election": null,
            "id": 88,
            "name": "Renfrew—Nipissing—Pembroke"
          }
        ],
        "pollDivisionIds": [
          10141192
        ],
        "postalCode": "K8H0A9",
        "streetName": "ORIOLE",
        "streetDirectionId": null,
        "streetTypeId": "CRES",
        "placeName": "PETAWAWA",
        "streetNameDisplayText": "ORIOLE CRES, PETAWAWA"
      }
    ]
  },
  {
    "postal": "K8H1M3",
    "result": [
      {
        "electoralDistricts": [
          {
            "election": null,
            "id": 88,
            "name": "Renfrew—Nipissing—Pembroke"
          }
        ],
        "pollDivisionIds": [
          10141191,
          10141194
        ],
        "postalCode": "K8H1M3",
        "streetName": "VOLTURNO",
        "streetDirectionId": null,
        "streetTypeId": "ST",
        "placeName": "PETAWAWA",
        "streetNameDisplayText": "VOLTURNO ST, PETAWAWA"
      }
    ]
  },
  {
    "postal": "K8H1W8",
    "result": [
      {
        "electoralDistricts": [
          {
            "election": null,
            "id": 88,
            "name": "Renfrew—Nipissing—Pembroke"
          }
        ],
        "pollDivisionIds": [
          10141193,
          10141192
        ],
        "postalCode": "K8H1W8",
        "streetName": "MURPHY",
        "streetDirectionId": null,
        "streetTypeId": "RD",
        "placeName": "PETAWAWA",
        "streetNameDisplayText": "MURPHY RD, PETAWAWA"
      }
    ]
  },
  {
    "postal": "K8H9J1",
    "result": []
  },
  {
    "postal": "K8H8N5",
    "result": []
  },
  {
    "postal": "K8H5X1",
    "result": []
  },
  {
    "postal": "K8H6S2",
    "result": []
  },
  {
    "postal": "K8H2A2",
    "result": [
      {
        "electoralDistricts": [
          {
            "election": null,
            "id": 88,
            "name": "Renfrew—Nipissing—Pembroke"
          }
        ],
        "pollDivisionIds": [
          10141192
        ],
        "postalCode": "K8H2A2",
        "streetName": "KRAMER",
        "streetDirectionId": null,
        "streetTypeId": "AVE",
        "placeName": "PETAWAWA",
        "streetNameDisplayText": "KRAMER AVE, PETAWAWA"
      }
    ]
  },
  {
    "postal": "K8H6A6",
    "result": []
  },
  {
    "postal": "K8H0S3",
    "result": []
  },
  {
    "postal": "K8H3E7",
    "result": [
      {
        "electoralDistricts": [
          {
            "election": null,
            "id": 88,
            "name": "Renfrew—Nipissing—Pembroke"
          }
        ],
        "pollDivisionIds": [
          10141193
        ],
        "postalCode": "K8H3E7",
        "streetName": "EDITH",
        "streetDirectionId": null,
        "streetTypeId": "ST",
        "placeName": "PETAWAWA",
        "streetNameDisplayText": "EDITH ST, PETAWAWA"
      }
    ]
  },
  {
    "postal": "K8H5R7",
    "result": []
  },
  {
    "postal": "K8H3R6",
    "result": [
      {
        "electoralDistricts": [
          {
            "election": null,
            "id": 88,
            "name": "Renfrew—Nipissing—Pembroke"
          }
        ],
        "pollDivisionIds": [
          10141192
        ],
        "postalCode": "K8H3R6",
        "streetName": "LEOPOLD",
        "streetDirectionId": null,
        "streetTypeId": "ST",
        "placeName": "PETAWAWA",
        "streetNameDisplayText": "LEOPOLD ST, PETAWAWA"
      }
    ]
  },
  {
    "postal": "K8H6K4",
    "result": []
  },
  {
    "postal": "K8H2W5",
    "result": [
      {
        "electoralDistricts": [
          {
            "election": null,
            "id": 88,
            "name": "Renfrew—Nipissing—Pembroke"
          }
        ],
        "pollDivisionIds": [
          10141193
        ],
        "postalCode": "K8H2W5",
        "streetName": "CARTIER",
        "streetDirectionId": null,
        "streetTypeId": "ST",
        "placeName": "PETAWAWA",
        "streetNameDisplayText": "CARTIER ST, PETAWAWA"
      }
    ]
  },
  {
    "postal": "K8H8W4",
    "result": []
  },
  {
    "postal": "K8H9C2",
    "result": []
  },
  {
    "postal": "K8H2C0",
    "result": []
  },
  {
    "postal": "K8H0E1",
    "result": [
      {
        "electoralDistricts": [
          {
            "election": null,
            "id": 88,
            "name": "Renfrew—Nipissing—Pembroke"
          }
        ],
        "pollDivisionIds": [
          10141192
        ],
        "postalCode": "K8H0E1",
        "streetName": "NEWPORT",
        "streetDirectionId": null,
        "streetTypeId": "DR",
        "placeName": "PETAWAWA",
        "streetNameDisplayText": "NEWPORT DR, PETAWAWA"
      }
    ]
  },
  {
    "postal": "K8H1K9",
    "result": [
      {
        "electoralDistricts": [
          {
            "election": null,
            "id": 88,
            "name": "Renfrew—Nipissing—Pembroke"
          }
        ],
        "pollDivisionIds": [
          10141191
        ],
        "postalCode": "K8H1K9",
        "streetName": "CAEN",
        "streetDirectionId": null,
        "streetTypeId": "ST",
        "placeName": "PETAWAWA",
        "streetNameDisplayText": "CAEN ST, PETAWAWA"
      }
    ]
  },
  {
    "postal": "K8H1G7",
    "result": [
      {
        "electoralDistricts": [
          {
            "election": null,
            "id": 88,
            "name": "Renfrew—Nipissing—Pembroke"
          }
        ],
        "pollDivisionIds": [
          10141191
        ],
        "postalCode": "K8H1G7",
        "streetName": "PAARDEBURG",
        "streetDirectionId": null,
        "streetTypeId": "BLVD",
        "placeName": "PETAWAWA",
        "streetNameDisplayText": "PAARDEBURG BLVD, PETAWAWA"
      }
    ]
  },
  {
    "postal": "K8H4E9",
    "result": []
  },
  {
    "postal": "K8H9P0",
    "result": []
  },
  {
    "postal": "K8H5H3",
    "result": []
  },
  {
    "postal": "K8H9X6",
    "result": []
  },
  {
    "postal": "K8H5N7",
    "result": []
  },
  {
    "postal": "K8H5A6",
    "result": []
  },
  {
    "postal": "K8H4M0",
    "result": []
  },
  {
    "postal": "K8H3V6",
    "result": []
  },
  {
    "postal": "K8H1L7",
    "result": [
      {
        "electoralDistricts": [
          {
            "election": null,
            "id": 88,
            "name": "Renfrew—Nipissing—Pembroke"
          }
        ],
        "pollDivisionIds": [
          10141194
        ],
        "postalCode": "K8H1L7",
        "streetName": "NISSORIA",
        "streetDirectionId": null,
        "streetTypeId": "ST",
        "placeName": "PETAWAWA",
        "streetNameDisplayText": "NISSORIA ST, PETAWAWA"
      }
    ]
  },
  {
    "postal": "K8H2P9",
    "result": [
      {
        "electoralDistricts": [
          {
            "election": null,
            "id": 88,
            "name": "Renfrew—Nipissing—Pembroke"
          }
        ],
        "pollDivisionIds": [
          10141192
        ],
        "postalCode": "K8H2P9",
        "streetName": "NORTH",
        "streetDirectionId": null,
        "streetTypeId": "ST",
        "placeName": "PETAWAWA",
        "streetNameDisplayText": "NORTH ST, PETAWAWA"
      }
    ]
  },
  {
    "postal": "K8H5T4",
    "result": []
  },
  {
    "postal": "K8H5Z1",
    "result": []
  },
  {
    "postal": "K8H2X0",
    "result": []
  },
  {
    "postal": "K8H6Z2",
    "result": []
  },
  {
    "postal": "K8H0E0",
    "result": []
  },
  {
    "postal": "K8H3Z5",
    "result": []
  },
  {
    "postal": "K8H8H3",
    "result": []
  },
  {
    "postal": "K8H7S6",
    "result": []
  },
  {
    "postal": "K8H4C1",
    "result": []
  },
  {
    "postal": "K8H3K2",
    "result": [
      {
        "electoralDistricts": [
          {
            "election": null,
            "id": 88,
            "name": "Renfrew—Nipissing—Pembroke"
          }
        ],
        "pollDivisionIds": [
          10141192
        ],
        "postalCode": "K8H3K2",
        "streetName": "GUTZMAN",
        "streetDirectionId": null,
        "streetTypeId": "RD",
        "placeName": "PETAWAWA",
        "streetNameDisplayText": "GUTZMAN RD, PETAWAWA"
      }
    ]
  },
  {
    "postal": "K8H1Y5",
    "result": [
      {
        "electoralDistricts": [
          {
            "election": null,
            "id": 88,
            "name": "Renfrew—Nipissing—Pembroke"
          }
        ],
        "pollDivisionIds": [
          10141192
        ],
        "postalCode": "K8H1Y5",
        "streetName": "SCHWANZ",
        "streetDirectionId": null,
        "streetTypeId": "RD",
        "placeName": "PETAWAWA",
        "streetNameDisplayText": "SCHWANZ RD, PETAWAWA"
      }
    ]
  },
  {
    "postal": "K8H6P6",
    "result": []
  },
  {
    "postal": "K8H3N9",
    "result": [
      {
        "electoralDistricts": [
          {
            "election": null,
            "id": 88,
            "name": "Renfrew—Nipissing—Pembroke"
          }
        ],
        "pollDivisionIds": [
          10141192
        ],
        "postalCode": "K8H3N9",
        "streetName": "BLUE JAY",
        "streetDirectionId": null,
        "streetTypeId": "WAY",
        "placeName": "PETAWAWA",
        "streetNameDisplayText": "BLUE JAY WAY, PETAWAWA"
      },
      {
        "electoralDistricts": [
          {
            "election": null,
            "id": 88,
            "name": "Renfrew—Nipissing—Pembroke"
          }
        ],
        "pollDivisionIds": [
          10141192
        ],
        "postalCode": "K8H3N9",
        "streetName": "CARDINAL",
        "streetDirectionId": null,
        "streetTypeId": "CRES",
        "placeName": "PETAWAWA",
        "streetNameDisplayText": "CARDINAL CRES, PETAWAWA"
      }
    ]
  },
  {
    "postal": "K8H3W2",
    "result": []
  },
  {
    "postal": "K8H6H8",
    "result": []
  },
  {
    "postal": "K8H9T3",
    "result": []
  },
  {
    "postal": "K8H5L9",
    "result": []
  },
  {
    "postal": "K8H7X7",
    "result": []
  },
  {
    "postal": "K8H3J5",
    "result": [
      {
        "electoralDistricts": [
          {
            "election": null,
            "id": 88,
            "name": "Renfrew—Nipissing—Pembroke"
          }
        ],
        "pollDivisionIds": [
          10141192
        ],
        "postalCode": "K8H3J5",
        "streetName": "HERITAGE",
        "streetDirectionId": null,
        "streetTypeId": "DR",
        "placeName": "PETAWAWA",
        "streetNameDisplayText": "HERITAGE DR, PETAWAWA"
      }
    ]
  },
  {
    "postal": "K8H4J5",
    "result": []
  },
  {
    "postal": "K8H6J2",
    "result": []
  },
  {
    "postal": "K8H5V6",
    "result": []
  },
  {
    "postal": "K8H3N2",
    "result": [
      {
        "electoralDistricts": [
          {
            "election": null,
            "id": 88,
            "name": "Renfrew—Nipissing—Pembroke"
          }
        ],
        "pollDivisionIds": [
          10141192
        ],
        "postalCode": "K8H3N2",
        "streetName": "CARLA",
        "streetDirectionId": null,
        "streetTypeId": "ST",
        "placeName": "PETAWAWA",
        "streetNameDisplayText": "CARLA ST, PETAWAWA"
      },
      {
        "electoralDistricts": [
          {
            "election": null,
            "id": 88,
            "name": "Renfrew—Nipissing—Pembroke"
          }
        ],
        "pollDivisionIds": [
          10141192
        ],
        "postalCode": "K8H3N2",
        "streetName": "JAMIE",
        "streetDirectionId": null,
        "streetTypeId": "CRES",
        "placeName": "PETAWAWA",
        "streetNameDisplayText": "JAMIE CRES, PETAWAWA"
      },
      {
        "electoralDistricts": [
          {
            "election": null,
            "id": 88,
            "name": "Renfrew—Nipissing—Pembroke"
          }
        ],
        "pollDivisionIds": [
          10141192
        ],
        "postalCode": "K8H3N2",
        "streetName": "JASON",
        "streetDirectionId": null,
        "streetTypeId": "ST",
        "placeName": "PETAWAWA",
        "streetNameDisplayText": "JASON ST, PETAWAWA"
      }
    ]
  },
  {
    "postal": "K8H3B1",
    "result": [
      {
        "electoralDistricts": [
          {
            "election": null,
            "id": 88,
            "name": "Renfrew—Nipissing—Pembroke"
          }
        ],
        "pollDivisionIds": [
          10141192
        ],
        "postalCode": "K8H3B1",
        "streetName": "VICTORIA",
        "streetDirectionId": null,
        "streetTypeId": "ST",
        "placeName": "PETAWAWA",
        "streetNameDisplayText": "VICTORIA ST, PETAWAWA"
      }
    ]
  },
  {
    "postal": "K8H8B5",
    "result": []
  },
  {
    "postal": "K8H0K1",
    "result": []
  },
  {
    "postal": "K8H7M7",
    "result": []
  },
  {
    "postal": "K8H2M2",
    "result": [
      {
        "electoralDistricts": [
          {
            "election": null,
            "id": 88,
            "name": "Renfrew—Nipissing—Pembroke"
          }
        ],
        "pollDivisionIds": [
          10141192
        ],
        "postalCode": "K8H2M2",
        "streetName": "ELMER",
        "streetDirectionId": null,
        "streetTypeId": "AVE",
        "placeName": "PETAWAWA",
        "streetNameDisplayText": "ELMER AVE, PETAWAWA"
      }
    ]
  },
  {
    "postal": "K8H9N3",
    "result": []
  },
  {
    "postal": "K8H4Y8",
    "result": []
  },
  {
    "postal": "K8H3V7",
    "result": []
  },
  {
    "postal": "K8H8Z1",
    "result": []
  },
  {
    "postal": "K8H7B3",
    "result": []
  },
  {
    "postal": "K8H3A8",
    "result": []
  },
  {
    "postal": "K8H7V5",
    "result": []
  },
  {
    "postal": "K8H2T2",
    "result": [
      {
        "electoralDistricts": [
          {
            "election": null,
            "id": 88,
            "name": "Renfrew—Nipissing—Pembroke"
          }
        ],
        "pollDivisionIds": [
          10141193
        ],
        "postalCode": "K8H2T2",
        "streetName": "BORDEN",
        "streetDirectionId": null,
        "streetTypeId": "AVE",
        "placeName": "PETAWAWA",
        "streetNameDisplayText": "BORDEN AVE, PETAWAWA"
      }
    ]
  },
  {
    "postal": "K8H6L3",
    "result": []
  },
  {
    "postal": "K8H0L2",
    "result": []
  },
  {
    "postal": "K8H5Y8",
    "result": []
  },
  {
    "postal": "K8H0B8",
    "result": []
  },
  {
    "postal": "K8H6R5",
    "result": []
  },
  {
    "postal": "K8H8W6",
    "result": []
  },
  {
    "postal": "K8H8G6",
    "result": []
  },
  {
    "postal": "K8H6X3",
    "result": []
  },
  {
    "postal": "K8H7R7",
    "result": []
  },
  {
    "postal": "K8H4B6",
    "result": []
  },
  {
    "postal": "K8H3P9",
    "result": [
      {
        "electoralDistricts": [
          {
            "election": null,
            "id": 88,
            "name": "Renfrew—Nipissing—Pembroke"
          }
        ],
        "pollDivisionIds": [
          10141192
        ],
        "postalCode": "K8H3P9",
        "streetName": "ABBIE",
        "streetDirectionId": null,
        "streetTypeId": "LANE",
        "placeName": "PETAWAWA",
        "streetNameDisplayText": "ABBIE LANE, PETAWAWA"
      }
    ]
  },
  {
    "postal": "K8H2T3",
    "result": [
      {
        "electoralDistricts": [
          {
            "election": null,
            "id": 88,
            "name": "Renfrew—Nipissing—Pembroke"
          }
        ],
        "pollDivisionIds": [
          10141193
        ],
        "postalCode": "K8H2T3",
        "streetName": "BORDEN",
        "streetDirectionId": null,
        "streetTypeId": "AVE",
        "placeName": "PETAWAWA",
        "streetNameDisplayText": "BORDEN AVE, PETAWAWA"
      }
    ]
  },
  {
    "postal": "K8H1M4",
    "result": [
      {
        "electoralDistricts": [
          {
            "election": null,
            "id": 88,
            "name": "Renfrew—Nipissing—Pembroke"
          }
        ],
        "pollDivisionIds": [
          10141194
        ],
        "postalCode": "K8H1M4",
        "streetName": "ARNHEM",
        "streetDirectionId": null,
        "streetTypeId": "ST",
        "placeName": "PETAWAWA",
        "streetNameDisplayText": "ARNHEM ST, PETAWAWA"
      }
    ]
  },
  {
    "postal": "K8H0H1",
    "result": []
  },
  {
    "postal": "K8H9W3",
    "result": []
  },
  {
    "postal": "K8H6P1",
    "result": []
  },
  {
    "postal": "K8H7G2",
    "result": []
  },
  {
    "postal": "K8H4J9",
    "result": []
  },
  {
    "postal": "K8H9E4",
    "result": []
  },
  {
    "postal": "K8H8H0",
    "result": []
  },
  {
    "postal": "K8H4M7",
    "result": []
  },
  {
    "postal": "K8H2G9",
    "result": [
      {
        "electoralDistricts": [
          {
            "election": null,
            "id": 88,
            "name": "Renfrew—Nipissing—Pembroke"
          }
        ],
        "pollDivisionIds": [
          10141193
        ],
        "postalCode": "K8H2G9",
        "streetName": "MOHNS",
        "streetDirectionId": null,
        "streetTypeId": "AVE",
        "placeName": "PETAWAWA",
        "streetNameDisplayText": "MOHNS AVE, PETAWAWA"
      }
    ]
  },
  {
    "postal": "K8H8T2",
    "result": []
  },
  {
    "postal": "K8H7G7",
    "result": []
  },
  {
    "postal": "K8H4Z3",
    "result": []
  },
  {
    "postal": "K8H5B3",
    "result": []
  },
  {
    "postal": "K8H1S7",
    "result": [
      {
        "electoralDistricts": [
          {
            "election": null,
            "id": 88,
            "name": "Renfrew—Nipissing—Pembroke"
          }
        ],
        "pollDivisionIds": [
          10141193
        ],
        "postalCode": "K8H1S7",
        "streetName": "JOHN",
        "streetDirectionId": null,
        "streetTypeId": "ST",
        "placeName": "PETAWAWA",
        "streetNameDisplayText": "JOHN ST, PETAWAWA"
      }
    ]
  },
  {
    "postal": "K8H2N7",
    "result": [
      {
        "electoralDistricts": [
          {
            "election": null,
            "id": 88,
            "name": "Renfrew—Nipissing—Pembroke"
          }
        ],
        "pollDivisionIds": [
          10141192
        ],
        "postalCode": "K8H2N7",
        "streetName": "EAST",
        "streetDirectionId": null,
        "streetTypeId": "ST",
        "placeName": "PETAWAWA",
        "streetNameDisplayText": "EAST ST, PETAWAWA"
      },
      {
        "electoralDistricts": [
          {
            "election": null,
            "id": 88,
            "name": "Renfrew—Nipissing—Pembroke"
          }
        ],
        "pollDivisionIds": [
          10141197
        ],
        "postalCode": "K8H2N7",
        "streetName": "RIVER",
        "streetDirectionId": null,
        "streetTypeId": "RD",
        "placeName": "PETAWAWA",
        "streetNameDisplayText": "RIVER RD, PETAWAWA"
      }
    ]
  },
  {
    "postal": "K8H0H8",
    "result": []
  },
  {
    "postal": "K8H7Z4",
    "result": []
  },
  {
    "postal": "K8H7B1",
    "result": []
  },
  {
    "postal": "K8H7P8",
    "result": []
  },
  {
    "postal": "K8H7N0",
    "result": []
  },
  {
    "postal": "K8H3Y5",
    "result": []
  },
  {
    "postal": "K8H6K1",
    "result": []
  },
  {
    "postal": "K8H9X5",
    "result": []
  },
  {
    "postal": "K8H7S5",
    "result": []
  },
  {
    "postal": "K8H0A4",
    "result": [
      {
        "electoralDistricts": [
          {
            "election": null,
            "id": 88,
            "name": "Renfrew—Nipissing—Pembroke"
          }
        ],
        "pollDivisionIds": [
          10141193
        ],
        "postalCode": "K8H0A4",
        "streetName": "FRED",
        "streetDirectionId": null,
        "streetTypeId": "ST",
        "placeName": "PETAWAWA",
        "streetNameDisplayText": "FRED ST, PETAWAWA"
      }
    ]
  },
  {
    "postal": "K8H4T5",
    "result": []
  },
  {
    "postal": "K8H5K1",
    "result": []
  },
  {
    "postal": "K8H0Z9",
    "result": []
  },
  {
    "postal": "K8H7T2",
    "result": []
  },
  {
    "postal": "K8H1L5",
    "result": [
      {
        "electoralDistricts": [
          {
            "election": null,
            "id": 88,
            "name": "Renfrew—Nipissing—Pembroke"
          }
        ],
        "pollDivisionIds": [
          10141194
        ],
        "postalCode": "K8H1L5",
        "streetName": "REGALBUTO",
        "streetDirectionId": null,
        "streetTypeId": "AVE",
        "placeName": "PETAWAWA",
        "streetNameDisplayText": "REGALBUTO AVE, PETAWAWA"
      }
    ]
  },
  {
    "postal": "K8H3N5",
    "result": [
      {
        "electoralDistricts": [
          {
            "election": null,
            "id": 88,
            "name": "Renfrew—Nipissing—Pembroke"
          }
        ],
        "pollDivisionIds": [
          10141192
        ],
        "postalCode": "K8H3N5",
        "streetName": "NORTHBROOK",
        "streetDirectionId": null,
        "streetTypeId": "RD",
        "placeName": "PETAWAWA",
        "streetNameDisplayText": "NORTHBROOK RD, PETAWAWA"
      },
      {
        "electoralDistricts": [
          {
            "election": null,
            "id": 88,
            "name": "Renfrew—Nipissing—Pembroke"
          }
        ],
        "pollDivisionIds": [
          10141192
        ],
        "postalCode": "K8H3N5",
        "streetName": "SUMMIT",
        "streetDirectionId": null,
        "streetTypeId": "TRAIL",
        "placeName": "PETAWAWA",
        "streetNameDisplayText": "SUMMIT TRAIL, PETAWAWA"
      }
    ]
  },
  {
    "postal": "K8H6H4",
    "result": []
  },
  {
    "postal": "K8H5A5",
    "result": []
  },
  {
    "postal": "K8H3R9",
    "result": [
      {
        "electoralDistricts": [
          {
            "election": null,
            "id": 88,
            "name": "Renfrew—Nipissing—Pembroke"
          }
        ],
        "pollDivisionIds": [
          10141192
        ],
        "postalCode": "K8H3R9",
        "streetName": "ABBIE",
        "streetDirectionId": null,
        "streetTypeId": "LANE",
        "placeName": "PETAWAWA",
        "streetNameDisplayText": "ABBIE LANE, PETAWAWA"
      }
    ]
  },
  {
    "postal": "K8H7L8",
    "result": []
  },
  {
    "postal": "K8H6T6",
    "result": []
  },
  {
    "postal": "K8H7Y7",
    "result": []
  },
  {
    "postal": "K8H3M8",
    "result": [
      {
        "electoralDistricts": [
          {
            "election": null,
            "id": 88,
            "name": "Renfrew—Nipissing—Pembroke"
          }
        ],
        "pollDivisionIds": [
          10141193
        ],
        "postalCode": "K8H3M8",
        "streetName": "PORTAGE",
        "streetDirectionId": null,
        "streetTypeId": "RD",
        "placeName": "PETAWAWA",
        "streetNameDisplayText": "PORTAGE RD, PETAWAWA"
      }
    ]
  },
  {
    "postal": "K8H2E0",
    "result": []
  },
  {
    "postal": "K8H4B5",
    "result": []
  },
  {
    "postal": "K8H1J3",
    "result": [
      {
        "electoralDistricts": [
          {
            "election": null,
            "id": 88,
            "name": "Renfrew—Nipissing—Pembroke"
          }
        ],
        "pollDivisionIds": [
          10141194
        ],
        "postalCode": "K8H1J3",
        "streetName": "NORMANDY",
        "streetDirectionId": null,
        "streetTypeId": "ST",
        "placeName": "PETAWAWA",
        "streetNameDisplayText": "NORMANDY ST, PETAWAWA"
      }
    ]
  },
  {
    "postal": "K8H5S6",
    "result": []
  },
  {
    "postal": "K8H8P7",
    "result": []
  },
  {
    "postal": "K8H7S7",
    "result": []
  },
  {
    "postal": "K8H4C2",
    "result": []
  },
  {
    "postal": "K8H5Y0",
    "result": []
  },
  {
    "postal": "K8H2V7",
    "result": [
      {
        "electoralDistricts": [
          {
            "election": null,
            "id": 88,
            "name": "Renfrew—Nipissing—Pembroke"
          }
        ],
        "pollDivisionIds": [
          10141193
        ],
        "postalCode": "K8H2V7",
        "streetName": "DUNDONALD",
        "streetDirectionId": null,
        "streetTypeId": "DR",
        "placeName": "PETAWAWA",
        "streetNameDisplayText": "DUNDONALD DR, PETAWAWA"
      }
    ]
  },
  {
    "postal": "K8H8P5",
    "result": []
  },
  {
    "postal": "K8H5P5",
    "result": []
  },
  {
    "postal": "K8H5Z0",
    "result": []
  },
  {
    "postal": "K8H9B0",
    "result": []
  },
  {
    "postal": "K8H1L0",
    "result": []
  },
  {
    "postal": "K8H0B5",
    "result": [
      {
        "electoralDistricts": [
          {
            "election": null,
            "id": 88,
            "name": "Renfrew—Nipissing—Pembroke"
          }
        ],
        "pollDivisionIds": [
          10141193
        ],
        "postalCode": "K8H0B5",
        "streetName": "EDITH",
        "streetDirectionId": null,
        "streetTypeId": "ST",
        "placeName": "PETAWAWA",
        "streetNameDisplayText": "EDITH ST, PETAWAWA"
      },
      {
        "electoralDistricts": [
          {
            "election": null,
            "id": 88,
            "name": "Renfrew—Nipissing—Pembroke"
          }
        ],
        "pollDivisionIds": [
          10141193
        ],
        "postalCode": "K8H0B5",
        "streetName": "OAK",
        "streetDirectionId": null,
        "streetTypeId": "AVE",
        "placeName": "PETAWAWA",
        "streetNameDisplayText": "OAK AVE, PETAWAWA"
      }
    ]
  },
  {
    "postal": "K8H3L2",
    "result": []
  },
  {
    "postal": "K8H3B7",
    "result": []
  },
  {
    "postal": "K8H8L1",
    "result": []
  },
  {
    "postal": "K8H5M4",
    "result": []
  },
  {
    "postal": "K8H4G9",
    "result": []
  },
  {
    "postal": "K8H0P0",
    "result": []
  },
  {
    "postal": "K8H8G2",
    "result": []
  },
  {
    "postal": "K8H1V9",
    "result": [
      {
        "electoralDistricts": [
          {
            "election": null,
            "id": 88,
            "name": "Renfrew—Nipissing—Pembroke"
          }
        ],
        "pollDivisionIds": [
          10141193
        ],
        "postalCode": "K8H1V9",
        "streetName": "HERMAN",
        "streetDirectionId": null,
        "streetTypeId": "ST",
        "placeName": "PETAWAWA",
        "streetNameDisplayText": "HERMAN ST, PETAWAWA"
      }
    ]
  },
  {
    "postal": "K8H8N8",
    "result": []
  },
  {
    "postal": "K8H6S8",
    "result": []
  },
  {
    "postal": "K8H8H2",
    "result": []
  },
  {
    "postal": "K8H5R8",
    "result": []
  },
  {
    "postal": "K8H5L4",
    "result": []
  },
  {
    "postal": "K8H9E1",
    "result": []
  },
  {
    "postal": "K8H1C4",
    "result": [
      {
        "electoralDistricts": [
          {
            "election": null,
            "id": 88,
            "name": "Renfrew—Nipissing—Pembroke"
          }
        ],
        "pollDivisionIds": [
          10141194
        ],
        "postalCode": "K8H1C4",
        "streetName": "MORO",
        "streetDirectionId": null,
        "streetTypeId": "CRES",
        "placeName": "PETAWAWA",
        "streetNameDisplayText": "MORO CRES, PETAWAWA"
      }
    ]
  },
  {
    "postal": "K8H8W5",
    "result": []
  },
  {
    "postal": "K8H1Y4",
    "result": [
      {
        "electoralDistricts": [
          {
            "election": null,
            "id": 88,
            "name": "Renfrew—Nipissing—Pembroke"
          }
        ],
        "pollDivisionIds": [
          10141192
        ],
        "postalCode": "K8H1Y4",
        "streetName": "PETAWAWA",
        "streetDirectionId": null,
        "streetTypeId": "BLVD",
        "placeName": "PETAWAWA",
        "streetNameDisplayText": "PETAWAWA BLVD, PETAWAWA"
      }
    ]
  },
  {
    "postal": "K8H1C0",
    "result": []
  },
  {
    "postal": "K8H2J2",
    "result": [
      {
        "electoralDistricts": [
          {
            "election": null,
            "id": 88,
            "name": "Renfrew—Nipissing—Pembroke"
          }
        ],
        "pollDivisionIds": [
          10141192
        ],
        "postalCode": "K8H2J2",
        "streetName": "LABINE",
        "streetDirectionId": null,
        "streetTypeId": "CRES",
        "placeName": "PETAWAWA",
        "streetNameDisplayText": "LABINE CRES, PETAWAWA"
      }
    ]
  },
  {
    "postal": "K8H2J0",
    "result": []
  },
  {
    "postal": "K8H7A3",
    "result": []
  },
  {
    "postal": "K8H8M1",
    "result": []
  },
  {
    "postal": "K8H7T9",
    "result": []
  },
  {
    "postal": "K8H6C0",
    "result": []
  },
  {
    "postal": "K8H7X1",
    "result": []
  },
  {
    "postal": "K8H0G1",
    "result": [
      {
        "electoralDistricts": [
          {
            "election": null,
            "id": 88,
            "name": "Renfrew—Nipissing—Pembroke"
          }
        ],
        "pollDivisionIds": [
          10141192
        ],
        "postalCode": "K8H0G1",
        "streetName": "NOBLE",
        "streetDirectionId": null,
        "streetTypeId": "CRES",
        "placeName": "PETAWAWA",
        "streetNameDisplayText": "NOBLE CRES, PETAWAWA"
      }
    ]
  },
  {
    "postal": "K8H4X2",
    "result": []
  },
  {
    "postal": "K8H0N6",
    "result": []
  },
  {
    "postal": "K8H8E3",
    "result": []
  },
  {
    "postal": "K8H5S8",
    "result": []
  },
  {
    "postal": "K8H0R0",
    "result": []
  },
  {
    "postal": "K8H6J6",
    "result": []
  },
  {
    "postal": "K8H4B4",
    "result": []
  },
  {
    "postal": "K8H7E3",
    "result": []
  },
  {
    "postal": "K8H3N6",
    "result": [
      {
        "electoralDistricts": [
          {
            "election": null,
            "id": 88,
            "name": "Renfrew—Nipissing—Pembroke"
          }
        ],
        "pollDivisionIds": [
          10141193
        ],
        "postalCode": "K8H3N6",
        "streetName": "SPRUCE",
        "streetDirectionId": null,
        "streetTypeId": "ST",
        "placeName": "PETAWAWA",
        "streetNameDisplayText": "SPRUCE ST, PETAWAWA"
      },
      {
        "electoralDistricts": [
          {
            "election": null,
            "id": 88,
            "name": "Renfrew—Nipissing—Pembroke"
          }
        ],
        "pollDivisionIds": [
          10141193
        ],
        "postalCode": "K8H3N6",
        "streetName": "WOODLAND",
        "streetDirectionId": null,
        "streetTypeId": "CRES",
        "placeName": "PETAWAWA",
        "streetNameDisplayText": "WOODLAND CRES, PETAWAWA"
      }
    ]
  },
  {
    "postal": "K8H3X6",
    "result": []
  },
  {
    "postal": "K8H8L0",
    "result": []
  },
  {
    "postal": "K8H8N1",
    "result": []
  },
  {
    "postal": "K8H4J0",
    "result": []
  },
  {
    "postal": "K8H0X7",
    "result": []
  },
  {
    "postal": "K8H6S4",
    "result": []
  },
  {
    "postal": "K8H0Z0",
    "result": []
  },
  {
    "postal": "K8H9X8",
    "result": []
  },
  {
    "postal": "K8H3H3",
    "result": [
      {
        "electoralDistricts": [
          {
            "election": null,
            "id": 88,
            "name": "Renfrew—Nipissing—Pembroke"
          }
        ],
        "pollDivisionIds": [
          10141192
        ],
        "postalCode": "K8H3H3",
        "streetName": "GUTZMAN",
        "streetDirectionId": null,
        "streetTypeId": "RD",
        "placeName": "PETAWAWA",
        "streetNameDisplayText": "GUTZMAN RD, PETAWAWA"
      }
    ]
  },
  {
    "postal": "K8H7S2",
    "result": []
  },
  {
    "postal": "K8H3T3",
    "result": []
  },
  {
    "postal": "K8H9P3",
    "result": []
  },
  {
    "postal": "K8H4H8",
    "result": []
  },
  {
    "postal": "K8H6R1",
    "result": []
  },
  {
    "postal": "K8H1S0",
    "result": []
  },
  {
    "postal": "K8H3W8",
    "result": []
  },
  {
    "postal": "K8H4S3",
    "result": []
  },
  {
    "postal": "K8H1B6",
    "result": []
  },
  {
    "postal": "K8H8R3",
    "result": []
  },
  {
    "postal": "K8H4V9",
    "result": []
  },
  {
    "postal": "K8H9W4",
    "result": []
  },
  {
    "postal": "K8H3T4",
    "result": []
  },
  {
    "postal": "K8H5C7",
    "result": []
  },
  {
    "postal": "K8H3Y1",
    "result": []
  },
  {
    "postal": "K8H5V0",
    "result": []
  },
  {
    "postal": "K8H8G8",
    "result": []
  },
  {
    "postal": "K8H8B1",
    "result": []
  },
  {
    "postal": "K8H4P5",
    "result": []
  },
  {
    "postal": "K8H7B2",
    "result": []
  },
  {
    "postal": "K8H0R2",
    "result": []
  },
  {
    "postal": "K8H4M4",
    "result": []
  },
  {
    "postal": "K8H7M4",
    "result": []
  },
  {
    "postal": "K8H9S7",
    "result": []
  },
  {
    "postal": "K8H5Z7",
    "result": []
  },
  {
    "postal": "K8H7J7",
    "result": []
  },
  {
    "postal": "K8H8R8",
    "result": []
  },
  {
    "postal": "K8H9X1",
    "result": []
  },
  {
    "postal": "K8H5M9",
    "result": []
  },
  {
    "postal": "K8H9B4",
    "result": []
  },
  {
    "postal": "K8H0L9",
    "result": []
  },
  {
    "postal": "K8H9G4",
    "result": []
  },
  {
    "postal": "K8H1J4",
    "result": [
      {
        "electoralDistricts": [
          {
            "election": null,
            "id": 88,
            "name": "Renfrew—Nipissing—Pembroke"
          }
        ],
        "pollDivisionIds": [
          10141191
        ],
        "postalCode": "K8H1J4",
        "streetName": "REICHWALD",
        "streetDirectionId": null,
        "streetTypeId": "CRES",
        "placeName": "PETAWAWA",
        "streetNameDisplayText": "REICHWALD CRES, PETAWAWA"
      }
    ]
  },
  {
    "postal": "K8H0W6",
    "result": []
  },
  {
    "postal": "K8H4C5",
    "result": []
  },
  {
    "postal": "K8H7E4",
    "result": []
  },
  {
    "postal": "K8H1R9",
    "result": [
      {
        "electoralDistricts": [
          {
            "election": null,
            "id": 88,
            "name": "Renfrew—Nipissing—Pembroke"
          }
        ],
        "pollDivisionIds": [
          10141193
        ],
        "postalCode": "K8H1R9",
        "streetName": "MARY",
        "streetDirectionId": null,
        "streetTypeId": "ST",
        "placeName": "PETAWAWA",
        "streetNameDisplayText": "MARY ST, PETAWAWA"
      }
    ]
  },
  {
    "postal": "K8H2P0",
    "result": []
  },
  {
    "postal": "K8H5S4",
    "result": []
  },
  {
    "postal": "K8H5K8",
    "result": []
  },
  {
    "postal": "K8H8K4",
    "result": []
  },
  {
    "postal": "K8H7C1",
    "result": []
  },
  {
    "postal": "K8H7K9",
    "result": []
  },
  {
    "postal": "K8H5J1",
    "result": []
  },
  {
    "postal": "K8H4P9",
    "result": []
  },
  {
    "postal": "K8H0N2",
    "result": []
  },
  {
    "postal": "K8H2G6",
    "result": [
      {
        "electoralDistricts": [
          {
            "election": null,
            "id": 88,
            "name": "Renfrew—Nipissing—Pembroke"
          }
        ],
        "pollDivisionIds": [
          10141193
        ],
        "postalCode": "K8H2G6",
        "streetName": "MOHNS",
        "streetDirectionId": null,
        "streetTypeId": "AVE",
        "placeName": "PETAWAWA",
        "streetNameDisplayText": "MOHNS AVE, PETAWAWA"
      }
    ]
  },
  {
    "postal": "K8H6P4",
    "result": []
  },
  {
    "postal": "K8H3J0",
    "result": []
  },
  {
    "postal": "K8H8X4",
    "result": []
  },
  {
    "postal": "K8H1Y3",
    "result": [
      {
        "electoralDistricts": [
          {
            "election": null,
            "id": 88,
            "name": "Renfrew—Nipissing—Pembroke"
          }
        ],
        "pollDivisionIds": [
          10141192
        ],
        "postalCode": "K8H1Y3",
        "streetName": "PETAWAWA",
        "streetDirectionId": null,
        "streetTypeId": "BLVD",
        "placeName": "PETAWAWA",
        "streetNameDisplayText": "PETAWAWA BLVD, PETAWAWA"
      }
    ]
  },
  {
    "postal": "K8H1A8",
    "result": [
      {
        "electoralDistricts": [
          {
            "election": null,
            "id": 88,
            "name": "Renfrew—Nipissing—Pembroke"
          }
        ],
        "pollDivisionIds": [
          10141194
        ],
        "postalCode": "K8H1A8",
        "streetName": "MOREUIL WOOD",
        "streetDirectionId": null,
        "streetTypeId": "BLVD",
        "placeName": "PETAWAWA",
        "streetNameDisplayText": "MOREUIL WOOD BLVD, PETAWAWA"
      }
    ]
  },
  {
    "postal": "K8H6Y5",
    "result": []
  },
  {
    "postal": "K8H0J6",
    "result": []
  },
  {
    "postal": "K8H2C9",
    "result": [
      {
        "electoralDistricts": [
          {
            "election": null,
            "id": 88,
            "name": "Renfrew—Nipissing—Pembroke"
          }
        ],
        "pollDivisionIds": [
          10141193
        ],
        "postalCode": "K8H2C9",
        "streetName": "PARK",
        "streetDirectionId": null,
        "streetTypeId": "DR",
        "placeName": "PETAWAWA",
        "streetNameDisplayText": "PARK DR, PETAWAWA"
      }
    ]
  },
  {
    "postal": "K8H8J6",
    "result": []
  },
  {
    "postal": "K8H8T4",
    "result": []
  },
  {
    "postal": "K8H1P7",
    "result": [
      {
        "electoralDistricts": [
          {
            "election": null,
            "id": 88,
            "name": "Renfrew—Nipissing—Pembroke"
          }
        ],
        "pollDivisionIds": [
          10141193
        ],
        "postalCode": "K8H1P7",
        "streetName": "DORAN",
        "streetDirectionId": null,
        "streetTypeId": "RD",
        "placeName": "PETAWAWA",
        "streetNameDisplayText": "DORAN RD, PETAWAWA"
      },
      {
        "electoralDistricts": [
          {
            "election": null,
            "id": 88,
            "name": "Renfrew—Nipissing—Pembroke"
          }
        ],
        "pollDivisionIds": [
          10141193
        ],
        "postalCode": "K8H1P7",
        "streetName": "DORAN",
        "streetDirectionId": null,
        "streetTypeId": "ST",
        "placeName": "PETAWAWA",
        "streetNameDisplayText": "DORAN ST, PETAWAWA"
      }
    ]
  },
  {
    "postal": "K8H9V9",
    "result": []
  },
  {
    "postal": "K8H0M1",
    "result": []
  },
  {
    "postal": "K8H6K5",
    "result": []
  },
  {
    "postal": "K8H2T5",
    "result": [
      {
        "electoralDistricts": [
          {
            "election": null,
            "id": 88,
            "name": "Renfrew—Nipissing—Pembroke"
          }
        ],
        "pollDivisionIds": [
          10141193
        ],
        "postalCode": "K8H2T5",
        "streetName": "BORDEN",
        "streetDirectionId": null,
        "streetTypeId": "AVE",
        "placeName": "PETAWAWA",
        "streetNameDisplayText": "BORDEN AVE, PETAWAWA"
      }
    ]
  },
  {
    "postal": "K8H7E9",
    "result": []
  },
  {
    "postal": "K8H5K5",
    "result": []
  },
  {
    "postal": "K8H3R5",
    "result": [
      {
        "electoralDistricts": [
          {
            "election": null,
            "id": 88,
            "name": "Renfrew—Nipissing—Pembroke"
          }
        ],
        "pollDivisionIds": [
          10141192
        ],
        "postalCode": "K8H3R5",
        "streetName": "LEOPOLD",
        "streetDirectionId": null,
        "streetTypeId": "ST",
        "placeName": "PETAWAWA",
        "streetNameDisplayText": "LEOPOLD ST, PETAWAWA"
      }
    ]
  },
  {
    "postal": "K8H5B1",
    "result": []
  },
  {
    "postal": "K8H2P1",
    "result": []
  },
  {
    "postal": "K8H7L0",
    "result": []
  },
  {
    "postal": "K8H3L6",
    "result": [
      {
        "electoralDistricts": [
          {
            "election": null,
            "id": 88,
            "name": "Renfrew—Nipissing—Pembroke"
          }
        ],
        "pollDivisionIds": [
          10141192
        ],
        "postalCode": "K8H3L6",
        "streetName": "COUNTRY",
        "streetDirectionId": null,
        "streetTypeId": "LANE",
        "placeName": "PETAWAWA",
        "streetNameDisplayText": "COUNTRY LANE, PETAWAWA"
      }
    ]
  },
  {
    "postal": "K8H2A4",
    "result": [
      {
        "electoralDistricts": [
          {
            "election": null,
            "id": 88,
            "name": "Renfrew—Nipissing—Pembroke"
          }
        ],
        "pollDivisionIds": [
          10141193
        ],
        "postalCode": "K8H2A4",
        "streetName": "HARRY",
        "streetDirectionId": null,
        "streetTypeId": "ST",
        "placeName": "PETAWAWA",
        "streetNameDisplayText": "HARRY ST, PETAWAWA"
      }
    ]
  },
  {
    "postal": "K8H8S0",
    "result": []
  },
  {
    "postal": "K8H3L5",
    "result": [
      {
        "electoralDistricts": [
          {
            "election": null,
            "id": 88,
            "name": "Renfrew—Nipissing—Pembroke"
          }
        ],
        "pollDivisionIds": [
          10141192
        ],
        "postalCode": "K8H3L5",
        "streetName": "COUNTRY",
        "streetDirectionId": null,
        "streetTypeId": "LANE",
        "placeName": "PETAWAWA",
        "streetNameDisplayText": "COUNTRY LANE, PETAWAWA"
      }
    ]
  },
  {
    "postal": "K8H2R5",
    "result": []
  },
  {
    "postal": "K8H9T6",
    "result": []
  },
  {
    "postal": "K8H8Z2",
    "result": []
  },
  {
    "postal": "K8H0E9",
    "result": [
      {
        "electoralDistricts": [
          {
            "election": null,
            "id": 88,
            "name": "Renfrew—Nipissing—Pembroke"
          }
        ],
        "pollDivisionIds": [
          10141191
        ],
        "postalCode": "K8H0E9",
        "streetName": "N0BLE",
        "streetDirectionId": null,
        "streetTypeId": "CRES",
        "placeName": "PETAWAWA",
        "streetNameDisplayText": "N0BLE CRES, PETAWAWA"
      },
      {
        "electoralDistricts": [
          {
            "election": null,
            "id": 88,
            "name": "Renfrew—Nipissing—Pembroke"
          }
        ],
        "pollDivisionIds": [
          10141192
        ],
        "postalCode": "K8H0E9",
        "streetName": "NOBLE",
        "streetDirectionId": null,
        "streetTypeId": "CRES",
        "placeName": "PETAWAWA",
        "streetNameDisplayText": "NOBLE CRES, PETAWAWA"
      }
    ]
  },
  {
    "postal": "K8H8C0",
    "result": []
  },
  {
    "postal": "K8H3K7",
    "result": [
      {
        "electoralDistricts": [
          {
            "election": null,
            "id": 88,
            "name": "Renfrew—Nipissing—Pembroke"
          }
        ],
        "pollDivisionIds": [
          10141192
        ],
        "postalCode": "K8H3K7",
        "streetName": "VIKING",
        "streetDirectionId": null,
        "streetTypeId": "RD",
        "placeName": "PETAWAWA",
        "streetNameDisplayText": "VIKING RD, PETAWAWA"
      }
    ]
  },
  {
    "postal": "K8H2H3",
    "result": [
      {
        "electoralDistricts": [
          {
            "election": null,
            "id": 88,
            "name": "Renfrew—Nipissing—Pembroke"
          }
        ],
        "pollDivisionIds": [
          10141192
        ],
        "postalCode": "K8H2H3",
        "streetName": "RENFREW",
        "streetDirectionId": null,
        "streetTypeId": "ST",
        "placeName": "PETAWAWA",
        "streetNameDisplayText": "RENFREW ST, PETAWAWA"
      }
    ]
  },
  {
    "postal": "K8H2Y6",
    "result": [
      {
        "electoralDistricts": [
          {
            "election": null,
            "id": 88,
            "name": "Renfrew—Nipissing—Pembroke"
          }
        ],
        "pollDivisionIds": [
          10141193
        ],
        "postalCode": "K8H2Y6",
        "streetName": "PINE",
        "streetDirectionId": null,
        "streetTypeId": "PL",
        "placeName": "PETAWAWA",
        "streetNameDisplayText": "PINE PL, PETAWAWA"
      }
    ]
  },
  {
    "postal": "K8H7M2",
    "result": []
  },
  {
    "postal": "K8H6E2",
    "result": []
  },
  {
    "postal": "K8H3R0",
    "result": []
  },
  {
    "postal": "K8H4J7",
    "result": []
  },
  {
    "postal": "K8H6N8",
    "result": []
  },
  {
    "postal": "K8H0J7",
    "result": []
  },
  {
    "postal": "K8H7P2",
    "result": []
  },
  {
    "postal": "K8H3T8",
    "result": []
  },
  {
    "postal": "K8H3S7",
    "result": []
  },
  {
    "postal": "K8H2S7",
    "result": [
      {
        "electoralDistricts": [
          {
            "election": null,
            "id": 88,
            "name": "Renfrew—Nipissing—Pembroke"
          }
        ],
        "pollDivisionIds": [
          10141193
        ],
        "postalCode": "K8H2S7",
        "streetName": "WOLFE",
        "streetDirectionId": null,
        "streetTypeId": "AVE",
        "placeName": "PETAWAWA",
        "streetNameDisplayText": "WOLFE AVE, PETAWAWA"
      }
    ]
  },
  {
    "postal": "K8H1S4",
    "result": [
      {
        "electoralDistricts": [
          {
            "election": null,
            "id": 88,
            "name": "Renfrew—Nipissing—Pembroke"
          }
        ],
        "pollDivisionIds": [
          10141193
        ],
        "postalCode": "K8H1S4",
        "streetName": "JOHN",
        "streetDirectionId": null,
        "streetTypeId": "ST",
        "placeName": "PETAWAWA",
        "streetNameDisplayText": "JOHN ST, PETAWAWA"
      }
    ]
  },
  {
    "postal": "K8H1L8",
    "result": [
      {
        "electoralDistricts": [
          {
            "election": null,
            "id": 88,
            "name": "Renfrew—Nipissing—Pembroke"
          }
        ],
        "pollDivisionIds": [
          10141194
        ],
        "postalCode": "K8H1L8",
        "streetName": "NISSORIA",
        "streetDirectionId": null,
        "streetTypeId": "ST",
        "placeName": "PETAWAWA",
        "streetNameDisplayText": "NISSORIA ST, PETAWAWA"
      }
    ]
  },
  {
    "postal": "K8H8E9",
    "result": []
  },
  {
    "postal": "K8H0T0",
    "result": []
  },
  {
    "postal": "K8H3G4",
    "result": [
      {
        "electoralDistricts": [
          {
            "election": null,
            "id": 88,
            "name": "Renfrew—Nipissing—Pembroke"
          }
        ],
        "pollDivisionIds": [
          10141193
        ],
        "postalCode": "K8H3G4",
        "streetName": "PORTAGE",
        "streetDirectionId": null,
        "streetTypeId": "RD",
        "placeName": "PETAWAWA",
        "streetNameDisplayText": "PORTAGE RD, PETAWAWA"
      }
    ]
  },
  {
    "postal": "K8H0V6",
    "result": []
  },
  {
    "postal": "K8H4W1",
    "result": []
  },
  {
    "postal": "K8H9G9",
    "result": []
  },
  {
    "postal": "K8H5W4",
    "result": []
  },
  {
    "postal": "K8H7M8",
    "result": []
  },
  {
    "postal": "K8H2C2",
    "result": [
      {
        "electoralDistricts": [
          {
            "election": null,
            "id": 88,
            "name": "Renfrew—Nipissing—Pembroke"
          }
        ],
        "pollDivisionIds": [
          10141193
        ],
        "postalCode": "K8H2C2",
        "streetName": "VIOLET",
        "streetDirectionId": null,
        "streetTypeId": "ST",
        "placeName": "PETAWAWA",
        "streetNameDisplayText": "VIOLET ST, PETAWAWA"
      }
    ]
  },
  {
    "postal": "K8H4Y2",
    "result": []
  },
  {
    "postal": "K8H9X9",
    "result": []
  },
  {
    "postal": "K8H3T0",
    "result": []
  },
  {
    "postal": "K8H4T8",
    "result": []
  },
  {
    "postal": "K8H9C4",
    "result": []
  },
  {
    "postal": "K8H8P2",
    "result": []
  },
  {
    "postal": "K8H0Y8",
    "result": []
  },
  {
    "postal": "K8H1G8",
    "result": [
      {
        "electoralDistricts": [
          {
            "election": null,
            "id": 88,
            "name": "Renfrew—Nipissing—Pembroke"
          }
        ],
        "pollDivisionIds": [
          10141191
        ],
        "postalCode": "K8H1G8",
        "streetName": "PAARDEBURG",
        "streetDirectionId": null,
        "streetTypeId": "BLVD",
        "placeName": "PETAWAWA",
        "streetNameDisplayText": "PAARDEBURG BLVD, PETAWAWA"
      }
    ]
  },
  {
    "postal": "K8H2T6",
    "result": [
      {
        "electoralDistricts": [
          {
            "election": null,
            "id": 88,
            "name": "Renfrew—Nipissing—Pembroke"
          }
        ],
        "pollDivisionIds": [
          10141193
        ],
        "postalCode": "K8H2T6",
        "streetName": "BORDEN",
        "streetDirectionId": null,
        "streetTypeId": "AVE",
        "placeName": "PETAWAWA",
        "streetNameDisplayText": "BORDEN AVE, PETAWAWA"
      },
      {
        "electoralDistricts": [
          {
            "election": null,
            "id": 88,
            "name": "Renfrew—Nipissing—Pembroke"
          }
        ],
        "pollDivisionIds": [
          10141193
        ],
        "postalCode": "K8H2T6",
        "streetName": "WOLFE",
        "streetDirectionId": null,
        "streetTypeId": "AVE",
        "placeName": "PETAWAWA",
        "streetNameDisplayText": "WOLFE AVE, PETAWAWA"
      }
    ]
  },
  {
    "postal": "K8H1N7",
    "result": [
      {
        "electoralDistricts": [
          {
            "election": null,
            "id": 88,
            "name": "Renfrew—Nipissing—Pembroke"
          }
        ],
        "pollDivisionIds": [
          10141193
        ],
        "postalCode": "K8H1N7",
        "streetName": "FLORENCE",
        "streetDirectionId": null,
        "streetTypeId": "ST",
        "placeName": "PETAWAWA",
        "streetNameDisplayText": "FLORENCE ST, PETAWAWA"
      }
    ]
  },
  {
    "postal": "K8H0L6",
    "result": []
  },
  {
    "postal": "K8H9V4",
    "result": []
  },
  {
    "postal": "K8H2V1",
    "result": [
      {
        "electoralDistricts": [
          {
            "election": null,
            "id": 88,
            "name": "Renfrew—Nipissing—Pembroke"
          }
        ],
        "pollDivisionIds": [
          10141193
        ],
        "postalCode": "K8H2V1",
        "streetName": "DUNDONALD",
        "streetDirectionId": null,
        "streetTypeId": "DR",
        "placeName": "PETAWAWA",
        "streetNameDisplayText": "DUNDONALD DR, PETAWAWA"
      }
    ]
  },
  {
    "postal": "K8H3L8",
    "result": [
      {
        "electoralDistricts": [
          {
            "election": null,
            "id": 88,
            "name": "Renfrew—Nipissing—Pembroke"
          }
        ],
        "pollDivisionIds": [
          10141192
        ],
        "postalCode": "K8H3L8",
        "streetName": "CARLA",
        "streetDirectionId": null,
        "streetTypeId": "ST",
        "placeName": "PETAWAWA",
        "streetNameDisplayText": "CARLA ST, PETAWAWA"
      },
      {
        "electoralDistricts": [
          {
            "election": null,
            "id": 88,
            "name": "Renfrew—Nipissing—Pembroke"
          }
        ],
        "pollDivisionIds": [
          10141192
        ],
        "postalCode": "K8H3L8",
        "streetName": "DEREK",
        "streetDirectionId": null,
        "streetTypeId": "DR",
        "placeName": "PETAWAWA",
        "streetNameDisplayText": "DEREK DR, PETAWAWA"
      },
      {
        "electoralDistricts": [
          {
            "election": null,
            "id": 88,
            "name": "Renfrew—Nipissing—Pembroke"
          }
        ],
        "pollDivisionIds": [
          10141192
        ],
        "postalCode": "K8H3L8",
        "streetName": "STEFFEN",
        "streetDirectionId": null,
        "streetTypeId": "ST",
        "placeName": "PETAWAWA",
        "streetNameDisplayText": "STEFFEN ST, PETAWAWA"
      }
    ]
  },
  {
    "postal": "K8H2R8",
    "result": [
      {
        "electoralDistricts": [
          {
            "election": null,
            "id": 88,
            "name": "Renfrew—Nipissing—Pembroke"
          }
        ],
        "pollDivisionIds": [
          10141192
        ],
        "postalCode": "K8H2R8",
        "streetName": "WEST",
        "streetDirectionId": null,
        "streetTypeId": "ST",
        "placeName": "PETAWAWA",
        "streetNameDisplayText": "WEST ST, PETAWAWA"
      }
    ]
  },
  {
    "postal": "K8H5C1",
    "result": []
  },
  {
    "postal": "K8H4W3",
    "result": []
  },
  {
    "postal": "K8H5X5",
    "result": []
  },
  {
    "postal": "K8H9W5",
    "result": []
  },
  {
    "postal": "K8H3C4",
    "result": [
      {
        "electoralDistricts": [
          {
            "election": null,
            "id": 88,
            "name": "Renfrew—Nipissing—Pembroke"
          }
        ],
        "pollDivisionIds": [
          10141193
        ],
        "postalCode": "K8H3C4",
        "streetName": "HEMLOCK",
        "streetDirectionId": null,
        "streetTypeId": "ST",
        "placeName": "PETAWAWA",
        "streetNameDisplayText": "HEMLOCK ST, PETAWAWA"
      }
    ]
  },
  {
    "postal": "K8H1N6",
    "result": [
      {
        "electoralDistricts": [
          {
            "election": null,
            "id": 88,
            "name": "Renfrew—Nipissing—Pembroke"
          }
        ],
        "pollDivisionIds": [
          10141193
        ],
        "postalCode": "K8H1N6",
        "streetName": "AUDREY",
        "streetDirectionId": null,
        "streetTypeId": "ST",
        "placeName": "PETAWAWA",
        "streetNameDisplayText": "AUDREY ST, PETAWAWA"
      }
    ]
  },
  {
    "postal": "K8H9S9",
    "result": []
  },
  {
    "postal": "K8H9M2",
    "result": []
  },
  {
    "postal": "K8H8Y4",
    "result": []
  },
  {
    "postal": "K8H7S4",
    "result": []
  },
  {
    "postal": "K8H0K6",
    "result": []
  },
  {
    "postal": "K8H1W3",
    "result": [
      {
        "electoralDistricts": [
          {
            "election": null,
            "id": 88,
            "name": "Renfrew—Nipissing—Pembroke"
          }
        ],
        "pollDivisionIds": [
          10141193
        ],
        "postalCode": "K8H1W3",
        "streetName": "ROY",
        "streetDirectionId": null,
        "streetTypeId": "ST",
        "placeName": "PETAWAWA",
        "streetNameDisplayText": "ROY ST, PETAWAWA"
      }
    ]
  },
  {
    "postal": "K8H7R2",
    "result": []
  },
  {
    "postal": "K8H2Y9",
    "result": [
      {
        "electoralDistricts": [
          {
            "election": null,
            "id": 88,
            "name": "Renfrew—Nipissing—Pembroke"
          }
        ],
        "pollDivisionIds": [
          10141197
        ],
        "postalCode": "K8H2Y9",
        "streetName": "BIESENTHAL",
        "streetDirectionId": null,
        "streetTypeId": "RD",
        "placeName": "PETAWAWA",
        "streetNameDisplayText": "BIESENTHAL RD, PETAWAWA"
      }
    ]
  },
  {
    "postal": "K8H7G4",
    "result": []
  },
  {
    "postal": "K8H7E5",
    "result": []
  },
  {
    "postal": "K8H9G2",
    "result": []
  },
  {
    "postal": "K8H7Y8",
    "result": []
  },
  {
    "postal": "K8H9V2",
    "result": []
  },
  {
    "postal": "K8H3T7",
    "result": []
  },
  {
    "postal": "K8H1H0",
    "result": []
  },
  {
    "postal": "K8H1M7",
    "result": [
      {
        "electoralDistricts": [
          {
            "election": null,
            "id": 88,
            "name": "Renfrew—Nipissing—Pembroke"
          }
        ],
        "pollDivisionIds": [
          10141191,
          10141194
        ],
        "postalCode": "K8H1M7",
        "streetName": "HOCHWALD",
        "streetDirectionId": null,
        "streetTypeId": "ST",
        "placeName": "PETAWAWA",
        "streetNameDisplayText": "HOCHWALD ST, PETAWAWA"
      }
    ]
  },
  {
    "postal": "K8H8V4",
    "result": []
  },
  {
    "postal": "K8H4M2",
    "result": []
  },
  {
    "postal": "K8H0X2",
    "result": []
  },
  {
    "postal": "K8H5Z4",
    "result": []
  },
  {
    "postal": "K8H6V4",
    "result": []
  },
  {
    "postal": "K8H8J3",
    "result": []
  },
  {
    "postal": "K8H8E5",
    "result": []
  },
  {
    "postal": "K8H2V5",
    "result": [
      {
        "electoralDistricts": [
          {
            "election": null,
            "id": 88,
            "name": "Renfrew—Nipissing—Pembroke"
          }
        ],
        "pollDivisionIds": [
          10141193
        ],
        "postalCode": "K8H2V5",
        "streetName": "DUNDONALD",
        "streetDirectionId": null,
        "streetTypeId": "DR",
        "placeName": "PETAWAWA",
        "streetNameDisplayText": "DUNDONALD DR, PETAWAWA"
      }
    ]
  },
  {
    "postal": "K8H7S1",
    "result": []
  },
  {
    "postal": "K8H6V3",
    "result": []
  },
  {
    "postal": "K8H2L8",
    "result": [
      {
        "electoralDistricts": [
          {
            "election": null,
            "id": 88,
            "name": "Renfrew—Nipissing—Pembroke"
          }
        ],
        "pollDivisionIds": [
          10141192
        ],
        "postalCode": "K8H2L8",
        "streetName": "SUNSET",
        "streetDirectionId": null,
        "streetTypeId": "CRES",
        "placeName": "PETAWAWA",
        "streetNameDisplayText": "SUNSET CRES, PETAWAWA"
      },
      {
        "electoralDistricts": [
          {
            "election": null,
            "id": 88,
            "name": "Renfrew—Nipissing—Pembroke"
          }
        ],
        "pollDivisionIds": [
          10141192
        ],
        "postalCode": "K8H2L8",
        "streetName": "SUNSET CRES.",
        "streetDirectionId": null,
        "streetTypeId": "CRES",
        "placeName": "PETAWAWA",
        "streetNameDisplayText": "SUNSET CRES. CRES, PETAWAWA"
      }
    ]
  },
  {
    "postal": "K8H9V0",
    "result": []
  },
  {
    "postal": "K8H3M4",
    "result": [
      {
        "electoralDistricts": [
          {
            "election": null,
            "id": 88,
            "name": "Renfrew—Nipissing—Pembroke"
          }
        ],
        "pollDivisionIds": [
          10141192
        ],
        "postalCode": "K8H3M4",
        "streetName": "EARL",
        "streetDirectionId": null,
        "streetTypeId": "ST",
        "placeName": "PETAWAWA",
        "streetNameDisplayText": "EARL ST, PETAWAWA"
      },
      {
        "electoralDistricts": [
          {
            "election": null,
            "id": 88,
            "name": "Renfrew—Nipissing—Pembroke"
          }
        ],
        "pollDivisionIds": [
          10141192
        ],
        "postalCode": "K8H3M4",
        "streetName": "EDWARD",
        "streetDirectionId": null,
        "streetTypeId": "ST",
        "placeName": "PETAWAWA",
        "streetNameDisplayText": "EDWARD ST, PETAWAWA"
      }
    ]
  },
  {
    "postal": "K8H5B2",
    "result": []
  },
  {
    "postal": "K8H3X5",
    "result": []
  },
  {
    "postal": "K8H9R7",
    "result": []
  },
  {
    "postal": "K8H2X2",
    "result": []
  },
  {
    "postal": "K8H8Z6",
    "result": []
  },
  {
    "postal": "K8H4R4",
    "result": []
  },
  {
    "postal": "K8H2R1",
    "result": [
      {
        "electoralDistricts": [
          {
            "election": null,
            "id": 88,
            "name": "Renfrew—Nipissing—Pembroke"
          }
        ],
        "pollDivisionIds": [
          10141192
        ],
        "postalCode": "K8H2R1",
        "streetName": "NORTH",
        "streetDirectionId": null,
        "streetTypeId": "ST",
        "placeName": "PETAWAWA",
        "streetNameDisplayText": "NORTH ST, PETAWAWA"
      }
    ]
  },
  {
    "postal": "K8H3R8",
    "result": []
  },
  {
    "postal": "K8H9A1",
    "result": []
  },
  {
    "postal": "K8H8L3",
    "result": []
  },
  {
    "postal": "K8H9K4",
    "result": []
  },
  {
    "postal": "K8H9S3",
    "result": []
  },
  {
    "postal": "K8H8N7",
    "result": []
  },
  {
    "postal": "K8H1C6",
    "result": [
      {
        "electoralDistricts": [
          {
            "election": null,
            "id": 88,
            "name": "Renfrew—Nipissing—Pembroke"
          }
        ],
        "pollDivisionIds": [
          10141191
        ],
        "postalCode": "K8H1C6",
        "streetName": "YPRES",
        "streetDirectionId": null,
        "streetTypeId": "BLVD",
        "placeName": "PETAWAWA",
        "streetNameDisplayText": "YPRES BLVD, PETAWAWA"
      }
    ]
  },
  {
    "postal": "K8H3Z8",
    "result": []
  },
  {
    "postal": "K8H8G5",
    "result": []
  },
  {
    "postal": "K8H5R6",
    "result": []
  },
  {
    "postal": "K8H2W3",
    "result": [
      {
        "electoralDistricts": [
          {
            "election": null,
            "id": 88,
            "name": "Renfrew—Nipissing—Pembroke"
          }
        ],
        "pollDivisionIds": [
          10141193
        ],
        "postalCode": "K8H2W3",
        "streetName": "DUNDONALD",
        "streetDirectionId": null,
        "streetTypeId": "DR",
        "placeName": "PETAWAWA",
        "streetNameDisplayText": "DUNDONALD DR, PETAWAWA"
      },
      {
        "electoralDistricts": [
          {
            "election": null,
            "id": 88,
            "name": "Renfrew—Nipissing—Pembroke"
          }
        ],
        "pollDivisionIds": [
          10141191
        ],
        "postalCode": "K8H2W3",
        "streetName": "MENIN",
        "streetDirectionId": null,
        "streetTypeId": "RD",
        "placeName": "PETAWAWA",
        "streetNameDisplayText": "MENIN RD, PETAWAWA"
      }
    ]
  },
  {
    "postal": "K8H0A0",
    "result": []
  },
  {
    "postal": "K8H6P8",
    "result": []
  },
  {
    "postal": "K8H8N9",
    "result": []
  },
  {
    "postal": "K8H0S9",
    "result": []
  },
  {
    "postal": "K8H8G0",
    "result": []
  },
  {
    "postal": "K8H8C7",
    "result": []
  },
  {
    "postal": "K8H5X8",
    "result": []
  },
  {
    "postal": "K8H7E8",
    "result": []
  },
  {
    "postal": "K8H6X2",
    "result": []
  },
  {
    "postal": "K8H4C6",
    "result": []
  },
  {
    "postal": "K8H7H2",
    "result": []
  },
  {
    "postal": "K8H4R0",
    "result": []
  },
  {
    "postal": "K8H6J3",
    "result": []
  },
  {
    "postal": "K8H4B8",
    "result": []
  },
  {
    "postal": "K8H6H6",
    "result": []
  },
  {
    "postal": "K8H0S1",
    "result": []
  },
  {
    "postal": "K8H4E3",
    "result": []
  },
  {
    "postal": "K8H7K2",
    "result": []
  },
  {
    "postal": "K8H7T8",
    "result": []
  },
  {
    "postal": "K8H0J9",
    "result": []
  },
  {
    "postal": "K8H5J9",
    "result": []
  },
  {
    "postal": "K8H5S7",
    "result": []
  },
  {
    "postal": "K8H0G9",
    "result": [
      {
        "electoralDistricts": [
          {
            "election": null,
            "id": 88,
            "name": "Renfrew—Nipissing—Pembroke"
          }
        ],
        "pollDivisionIds": [
          10141192
        ],
        "postalCode": "K8H0G9",
        "streetName": "CHAD",
        "streetDirectionId": null,
        "streetTypeId": "ST",
        "placeName": "PETAWAWA",
        "streetNameDisplayText": "CHAD ST, PETAWAWA"
      }
    ]
  },
  {
    "postal": "K8H3J9",
    "result": [
      {
        "electoralDistricts": [
          {
            "election": null,
            "id": 88,
            "name": "Renfrew—Nipissing—Pembroke"
          }
        ],
        "pollDivisionIds": [
          10141192
        ],
        "postalCode": "K8H3J9",
        "streetName": "COUNTRY",
        "streetDirectionId": null,
        "streetTypeId": "LANE",
        "placeName": "PETAWAWA",
        "streetNameDisplayText": "COUNTRY LANE, PETAWAWA"
      }
    ]
  },
  {
    "postal": "K8H2Y0",
    "result": []
  },
  {
    "postal": "K8H8X5",
    "result": []
  },
  {
    "postal": "K8H2M7",
    "result": [
      {
        "electoralDistricts": [
          {
            "election": null,
            "id": 88,
            "name": "Renfrew—Nipissing—Pembroke"
          }
        ],
        "pollDivisionIds": [
          10141192
        ],
        "postalCode": "K8H2M7",
        "streetName": "LAURENTIAN",
        "streetDirectionId": null,
        "streetTypeId": "DR",
        "placeName": "PETAWAWA",
        "streetNameDisplayText": "LAURENTIAN DR, PETAWAWA"
      }
    ]
  },
  {
    "postal": "K8H9Z3",
    "result": []
  },
  {
    "postal": "K8H7W2",
    "result": []
  },
  {
    "postal": "K8H3W0",
    "result": []
  },
  {
    "postal": "K8H3M1",
    "result": [
      {
        "electoralDistricts": [
          {
            "election": null,
            "id": 88,
            "name": "Renfrew—Nipissing—Pembroke"
          }
        ],
        "pollDivisionIds": [
          10141193
        ],
        "postalCode": "K8H3M1",
        "streetName": "OAK",
        "streetDirectionId": null,
        "streetTypeId": "AVE",
        "placeName": "PETAWAWA",
        "streetNameDisplayText": "OAK AVE, PETAWAWA"
      },
      {
        "electoralDistricts": [
          {
            "election": null,
            "id": 88,
            "name": "Renfrew—Nipissing—Pembroke"
          }
        ],
        "pollDivisionIds": [
          10141193
        ],
        "postalCode": "K8H3M1",
        "streetName": "WOODLAND",
        "streetDirectionId": null,
        "streetTypeId": "CRES",
        "placeName": "PETAWAWA",
        "streetNameDisplayText": "WOODLAND CRES, PETAWAWA"
      }
    ]
  },
  {
    "postal": "K8H6A5",
    "result": []
  },
  {
    "postal": "K8H2M9",
    "result": [
      {
        "electoralDistricts": [
          {
            "election": null,
            "id": 88,
            "name": "Renfrew—Nipissing—Pembroke"
          }
        ],
        "pollDivisionIds": [
          10141192
        ],
        "postalCode": "K8H2M9",
        "streetName": "LAURENTIAN",
        "streetDirectionId": null,
        "streetTypeId": "DR",
        "placeName": "PETAWAWA",
        "streetNameDisplayText": "LAURENTIAN DR, PETAWAWA"
      }
    ]
  },
  {
    "postal": "K8H5C3",
    "result": []
  },
  {
    "postal": "K8H0Y6",
    "result": []
  },
  {
    "postal": "K8H9H7",
    "result": []
  },
  {
    "postal": "K8H3L0",
    "result": []
  },
  {
    "postal": "K8H5N9",
    "result": []
  },
  {
    "postal": "K8H5E3",
    "result": []
  },
  {
    "postal": "K8H7M9",
    "result": []
  },
  {
    "postal": "K8H8N2",
    "result": []
  },
  {
    "postal": "K8H9H3",
    "result": []
  },
  {
    "postal": "K8H2K8",
    "result": [
      {
        "electoralDistricts": [
          {
            "election": null,
            "id": 88,
            "name": "Renfrew—Nipissing—Pembroke"
          }
        ],
        "pollDivisionIds": [
          10141192
        ],
        "postalCode": "K8H2K8",
        "streetName": "SILKE",
        "streetDirectionId": null,
        "streetTypeId": "DR",
        "placeName": "PETAWAWA",
        "streetNameDisplayText": "SILKE DR, PETAWAWA"
      }
    ]
  },
  {
    "postal": "K8H9L0",
    "result": []
  },
  {
    "postal": "K8H6L9",
    "result": []
  },
  {
    "postal": "K8H6A8",
    "result": []
  },
  {
    "postal": "K8H2K6",
    "result": [
      {
        "electoralDistricts": [
          {
            "election": null,
            "id": 88,
            "name": "Renfrew—Nipissing—Pembroke"
          }
        ],
        "pollDivisionIds": [
          10141192
        ],
        "postalCode": "K8H2K6",
        "streetName": "PETER",
        "streetDirectionId": null,
        "streetTypeId": "ST",
        "placeName": "PETAWAWA",
        "streetNameDisplayText": "PETER ST, PETAWAWA"
      }
    ]
  },
  {
    "postal": "K8H2M0",
    "result": []
  },
  {
    "postal": "K8H5X7",
    "result": []
  },
  {
    "postal": "K8H0M7",
    "result": []
  },
  {
    "postal": "K8H7A6",
    "result": []
  },
  {
    "postal": "K8H3C5",
    "result": []
  },
  {
    "postal": "K8H2P2",
    "result": [
      {
        "electoralDistricts": [
          {
            "election": null,
            "id": 88,
            "name": "Renfrew—Nipissing—Pembroke"
          }
        ],
        "pollDivisionIds": [
          10141192
        ],
        "postalCode": "K8H2P2",
        "streetName": "EDWARD",
        "streetDirectionId": null,
        "streetTypeId": "ST",
        "placeName": "PETAWAWA",
        "streetNameDisplayText": "EDWARD ST, PETAWAWA"
      }
    ]
  },
  {
    "postal": "K8H9N4",
    "result": []
  },
  {
    "postal": "K8H3M9",
    "result": [
      {
        "electoralDistricts": [
          {
            "election": null,
            "id": 88,
            "name": "Renfrew—Nipissing—Pembroke"
          }
        ],
        "pollDivisionIds": [
          10141192
        ],
        "postalCode": "K8H3M9",
        "streetName": "PEPPERTREE",
        "streetDirectionId": null,
        "streetTypeId": "DR",
        "placeName": "PETAWAWA",
        "streetNameDisplayText": "PEPPERTREE DR, PETAWAWA"
      },
      {
        "electoralDistricts": [
          {
            "election": null,
            "id": 88,
            "name": "Renfrew—Nipissing—Pembroke"
          }
        ],
        "pollDivisionIds": [
          10141192
        ],
        "postalCode": "K8H3M9",
        "streetName": "RAVENWOOD",
        "streetDirectionId": null,
        "streetTypeId": "CRES",
        "placeName": "PETAWAWA",
        "streetNameDisplayText": "RAVENWOOD CRES, PETAWAWA"
      }
    ]
  },
  {
    "postal": "K8H8K6",
    "result": []
  },
  {
    "postal": "K8H1L2",
    "result": [
      {
        "electoralDistricts": [
          {
            "election": null,
            "id": 88,
            "name": "Renfrew—Nipissing—Pembroke"
          }
        ],
        "pollDivisionIds": [
          10141194
        ],
        "postalCode": "K8H1L2",
        "streetName": "MELFA",
        "streetDirectionId": null,
        "streetTypeId": "ST",
        "placeName": "PETAWAWA",
        "streetNameDisplayText": "MELFA ST, PETAWAWA"
      }
    ]
  },
  {
    "postal": "K8H2Z9",
    "result": [
      {
        "electoralDistricts": [
          {
            "election": null,
            "id": 88,
            "name": "Renfrew—Nipissing—Pembroke"
          }
        ],
        "pollDivisionIds": [
          10141193
        ],
        "postalCode": "K8H2Z9",
        "streetName": "LISA",
        "streetDirectionId": null,
        "streetTypeId": "CRES",
        "placeName": "PETAWAWA",
        "streetNameDisplayText": "LISA CRES, PETAWAWA"
      }
    ]
  },
  {
    "postal": "K8H2S2",
    "result": [
      {
        "electoralDistricts": [
          {
            "election": null,
            "id": 88,
            "name": "Renfrew—Nipissing—Pembroke"
          }
        ],
        "pollDivisionIds": [
          10141192
        ],
        "postalCode": "K8H2S2",
        "streetName": "ARMSTRONG",
        "streetDirectionId": null,
        "streetTypeId": "RD",
        "placeName": "PETAWAWA",
        "streetNameDisplayText": "ARMSTRONG RD, PETAWAWA"
      }
    ]
  },
  {
    "postal": "K8H2W2",
    "result": [
      {
        "electoralDistricts": [
          {
            "election": null,
            "id": 88,
            "name": "Renfrew—Nipissing—Pembroke"
          }
        ],
        "pollDivisionIds": [
          10141193
        ],
        "postalCode": "K8H2W2",
        "streetName": "DUNDONALD",
        "streetDirectionId": null,
        "streetTypeId": "DR",
        "placeName": "PETAWAWA",
        "streetNameDisplayText": "DUNDONALD DR, PETAWAWA"
      }
    ]
  },
  {
    "postal": "K8H2C3",
    "result": [
      {
        "electoralDistricts": [
          {
            "election": null,
            "id": 88,
            "name": "Renfrew—Nipissing—Pembroke"
          }
        ],
        "pollDivisionIds": [
          10141193
        ],
        "postalCode": "K8H2C3",
        "streetName": "VIOLET",
        "streetDirectionId": null,
        "streetTypeId": "ST",
        "placeName": "PETAWAWA",
        "streetNameDisplayText": "VIOLET ST, PETAWAWA"
      }
    ]
  },
  {
    "postal": "K8H6L7",
    "result": []
  },
  {
    "postal": "K8H3K0",
    "result": []
  },
  {
    "postal": "K8H3C1",
    "result": [
      {
        "electoralDistricts": [
          {
            "election": null,
            "id": 88,
            "name": "Renfrew—Nipissing—Pembroke"
          }
        ],
        "pollDivisionIds": [
          10141193
        ],
        "postalCode": "K8H3C1",
        "streetName": "SELKIRK",
        "streetDirectionId": null,
        "streetTypeId": "ST",
        "placeName": "PETAWAWA",
        "streetNameDisplayText": "SELKIRK ST, PETAWAWA"
      }
    ]
  },
  {
    "postal": "K8H6M9",
    "result": []
  },
  {
    "postal": "K8H4N9",
    "result": []
  },
  {
    "postal": "K8H3Y7",
    "result": []
  },
  {
    "postal": "K8H2A9",
    "result": [
      {
        "electoralDistricts": [
          {
            "election": null,
            "id": 88,
            "name": "Renfrew—Nipissing—Pembroke"
          }
        ],
        "pollDivisionIds": [
          10141193
        ],
        "postalCode": "K8H2A9",
        "streetName": "ALGONQUIN",
        "streetDirectionId": null,
        "streetTypeId": "ST",
        "placeName": "PETAWAWA",
        "streetNameDisplayText": "ALGONQUIN ST, PETAWAWA"
      }
    ]
  },
  {
    "postal": "K8H6H5",
    "result": []
  },
  {
    "postal": "K8H8B4",
    "result": []
  },
  {
    "postal": "K8H4Z2",
    "result": []
  },
  {
    "postal": "K8H9J0",
    "result": []
  },
  {
    "postal": "K8H7V7",
    "result": []
  },
  {
    "postal": "K8H5T5",
    "result": []
  },
  {
    "postal": "K8H4W5",
    "result": []
  },
  {
    "postal": "K8H1T8",
    "result": [
      {
        "electoralDistricts": [
          {
            "election": null,
            "id": 88,
            "name": "Renfrew—Nipissing—Pembroke"
          }
        ],
        "pollDivisionIds": [
          10141193
        ],
        "postalCode": "K8H1T8",
        "streetName": "RUSSELL",
        "streetDirectionId": null,
        "streetTypeId": "ST",
        "placeName": "PETAWAWA",
        "streetNameDisplayText": "RUSSELL ST, PETAWAWA"
      }
    ]
  },
  {
    "postal": "K8H9G6",
    "result": []
  },
  {
    "postal": "K8H1H3",
    "result": [
      {
        "electoralDistricts": [
          {
            "election": null,
            "id": 88,
            "name": "Renfrew—Nipissing—Pembroke"
          }
        ],
        "pollDivisionIds": [
          10141194
        ],
        "postalCode": "K8H1H3",
        "streetName": "PAARDEBURG",
        "streetDirectionId": null,
        "streetTypeId": "BLVD",
        "placeName": "PETAWAWA",
        "streetNameDisplayText": "PAARDEBURG BLVD, PETAWAWA"
      }
    ]
  },
  {
    "postal": "K8H5R5",
    "result": []
  },
  {
    "postal": "K8H8A4",
    "result": []
  },
  {
    "postal": "K8H3T6",
    "result": []
  },
  {
    "postal": "K8H9W8",
    "result": []
  },
  {
    "postal": "K8H0N3",
    "result": []
  },
  {
    "postal": "K8H7V0",
    "result": []
  },
  {
    "postal": "K8H8T5",
    "result": []
  },
  {
    "postal": "K8H5N3",
    "result": []
  },
  {
    "postal": "K8H5G9",
    "result": []
  },
  {
    "postal": "K8H3X8",
    "result": []
  },
  {
    "postal": "K8H9R3",
    "result": []
  },
  {
    "postal": "K8H2S1",
    "result": [
      {
        "electoralDistricts": [
          {
            "election": null,
            "id": 88,
            "name": "Renfrew—Nipissing—Pembroke"
          }
        ],
        "pollDivisionIds": [
          10141192
        ],
        "postalCode": "K8H2S1",
        "streetName": "SUMMIT",
        "streetDirectionId": null,
        "streetTypeId": "TRAIL",
        "placeName": "PETAWAWA",
        "streetNameDisplayText": "SUMMIT TRAIL, PETAWAWA"
      }
    ]
  },
  {
    "postal": "K8H9J7",
    "result": []
  },
  {
    "postal": "K8H2J3",
    "result": [
      {
        "electoralDistricts": [
          {
            "election": null,
            "id": 88,
            "name": "Renfrew—Nipissing—Pembroke"
          }
        ],
        "pollDivisionIds": [
          10141192
        ],
        "postalCode": "K8H2J3",
        "streetName": "HOFFMAN",
        "streetDirectionId": null,
        "streetTypeId": "ST",
        "placeName": "PETAWAWA",
        "streetNameDisplayText": "HOFFMAN ST, PETAWAWA"
      }
    ]
  },
  {
    "postal": "K8H3B6",
    "result": [
      {
        "electoralDistricts": [
          {
            "election": null,
            "id": 88,
            "name": "Renfrew—Nipissing—Pembroke"
          }
        ],
        "pollDivisionIds": [
          10141193
        ],
        "postalCode": "K8H3B6",
        "streetName": "LAROCHE",
        "streetDirectionId": null,
        "streetTypeId": "CRES",
        "placeName": "PETAWAWA",
        "streetNameDisplayText": "LAROCHE CRES, PETAWAWA"
      }
    ]
  },
  {
    "postal": "K8H8J0",
    "result": []
  },
  {
    "postal": "K8H7R4",
    "result": []
  },
  {
    "postal": "K8H8K8",
    "result": []
  },
  {
    "postal": "K8H4P3",
    "result": []
  },
  {
    "postal": "K8H0A2",
    "result": [
      {
        "electoralDistricts": [
          {
            "election": null,
            "id": 88,
            "name": "Renfrew—Nipissing—Pembroke"
          }
        ],
        "pollDivisionIds": [
          10141192
        ],
        "postalCode": "K8H0A2",
        "streetName": "WINFIELD",
        "streetDirectionId": null,
        "streetTypeId": "ST",
        "placeName": "PETAWAWA",
        "streetNameDisplayText": "WINFIELD ST, PETAWAWA"
      }
    ]
  },
  {
    "postal": "K8H2G2",
    "result": [
      {
        "electoralDistricts": [
          {
            "election": null,
            "id": 88,
            "name": "Renfrew—Nipissing—Pembroke"
          }
        ],
        "pollDivisionIds": [
          10141192
        ],
        "postalCode": "K8H2G2",
        "streetName": "VICTORIA",
        "streetDirectionId": null,
        "streetTypeId": "ST",
        "placeName": "PETAWAWA",
        "streetNameDisplayText": "VICTORIA ST, PETAWAWA"
      }
    ]
  },
  {
    "postal": "K8H5Y9",
    "result": []
  },
  {
    "postal": "K8H7X0",
    "result": []
  },
  {
    "postal": "K8H7W3",
    "result": []
  },
  {
    "postal": "K8H7X5",
    "result": []
  },
  {
    "postal": "K8H5K6",
    "result": []
  },
  {
    "postal": "K8H5B6",
    "result": []
  },
  {
    "postal": "K8H7Z0",
    "result": []
  },
  {
    "postal": "K8H9H6",
    "result": []
  },
  {
    "postal": "K8H1B4",
    "result": [
      {
        "electoralDistricts": [
          {
            "election": null,
            "id": 88,
            "name": "Renfrew—Nipissing—Pembroke"
          }
        ],
        "pollDivisionIds": [
          10141194
        ],
        "postalCode": "K8H1B4",
        "streetName": "ORTONA",
        "streetDirectionId": null,
        "streetTypeId": "AVE",
        "placeName": "PETAWAWA",
        "streetNameDisplayText": "ORTONA AVE, PETAWAWA"
      }
    ]
  },
  {
    "postal": "K8H1A0",
    "result": []
  },
  {
    "postal": "K8H9A0",
    "result": []
  },
  {
    "postal": "K8H1M6",
    "result": [
      {
        "electoralDistricts": [
          {
            "election": null,
            "id": 88,
            "name": "Renfrew—Nipissing—Pembroke"
          }
        ],
        "pollDivisionIds": [
          10141191,
          10141194
        ],
        "postalCode": "K8H1M6",
        "streetName": "HOCHWALD",
        "streetDirectionId": null,
        "streetTypeId": "ST",
        "placeName": "PETAWAWA",
        "streetNameDisplayText": "HOCHWALD ST, PETAWAWA"
      }
    ]
  },
  {
    "postal": "K8H5H0",
    "result": []
  },
  {
    "postal": "K8H1K6",
    "result": [
      {
        "electoralDistricts": [
          {
            "election": null,
            "id": 88,
            "name": "Renfrew—Nipissing—Pembroke"
          }
        ],
        "pollDivisionIds": [
          10141191
        ],
        "postalCode": "K8H1K6",
        "streetName": "DIEPPE",
        "streetDirectionId": null,
        "streetTypeId": "ST",
        "placeName": "PETAWAWA",
        "streetNameDisplayText": "DIEPPE ST, PETAWAWA"
      }
    ]
  },
  {
    "postal": "K8H5E1",
    "result": []
  },
  {
    "postal": "K8H3T9",
    "result": []
  },
  {
    "postal": "K8H2M6",
    "result": [
      {
        "electoralDistricts": [
          {
            "election": null,
            "id": 88,
            "name": "Renfrew—Nipissing—Pembroke"
          }
        ],
        "pollDivisionIds": [
          10141192
        ],
        "postalCode": "K8H2M6",
        "streetName": "LAURENTIAN",
        "streetDirectionId": null,
        "streetTypeId": "DR",
        "placeName": "PETAWAWA",
        "streetNameDisplayText": "LAURENTIAN DR, PETAWAWA"
      }
    ]
  },
  {
    "postal": "K8H0G5",
    "result": []
  },
  {
    "postal": "K8H0Y2",
    "result": []
  },
  {
    "postal": "K8H2Y7",
    "result": [
      {
        "electoralDistricts": [
          {
            "election": null,
            "id": 88,
            "name": "Renfrew—Nipissing—Pembroke"
          }
        ],
        "pollDivisionIds": [
          10141193
        ],
        "postalCode": "K8H2Y7",
        "streetName": "PINE",
        "streetDirectionId": null,
        "streetTypeId": "PL",
        "placeName": "PETAWAWA",
        "streetNameDisplayText": "PINE PL, PETAWAWA"
      },
      {
        "electoralDistricts": [
          {
            "election": null,
            "id": 88,
            "name": "Renfrew—Nipissing—Pembroke"
          }
        ],
        "pollDivisionIds": [
          10141193
        ],
        "postalCode": "K8H2Y7",
        "streetName": "PINE PLACE",
        "streetDirectionId": null,
        "streetTypeId": "PL",
        "placeName": "PETAWAWA",
        "streetNameDisplayText": "PINE PLACE PL, PETAWAWA"
      }
    ]
  },
  {
    "postal": "K8H2J7",
    "result": [
      {
        "electoralDistricts": [
          {
            "election": null,
            "id": 88,
            "name": "Renfrew—Nipissing—Pembroke"
          }
        ],
        "pollDivisionIds": [
          10141192
        ],
        "postalCode": "K8H2J7",
        "streetName": "POPLAR",
        "streetDirectionId": null,
        "streetTypeId": "ST",
        "placeName": "PETAWAWA",
        "streetNameDisplayText": "POPLAR ST, PETAWAWA"
      }
    ]
  },
  {
    "postal": "K8H4K7",
    "result": []
  },
  {
    "postal": "K8H7P9",
    "result": []
  },
  {
    "postal": "K8H8X0",
    "result": []
  },
  {
    "postal": "K8H3X1",
    "result": []
  },
  {
    "postal": "K8H1R5",
    "result": [
      {
        "electoralDistricts": [
          {
            "election": null,
            "id": 88,
            "name": "Renfrew—Nipissing—Pembroke"
          }
        ],
        "pollDivisionIds": [
          10141193
        ],
        "postalCode": "K8H1R5",
        "streetName": "MARY",
        "streetDirectionId": null,
        "streetTypeId": "ST",
        "placeName": "PETAWAWA",
        "streetNameDisplayText": "MARY ST, PETAWAWA"
      }
    ]
  },
  {
    "postal": "K8H6X6",
    "result": []
  },
  {
    "postal": "K8H0Y1",
    "result": []
  },
  {
    "postal": "K8H8G1",
    "result": []
  },
  {
    "postal": "K8H3J3",
    "result": [
      {
        "electoralDistricts": [
          {
            "election": null,
            "id": 88,
            "name": "Renfrew—Nipissing—Pembroke"
          }
        ],
        "pollDivisionIds": [
          10141192
        ],
        "postalCode": "K8H3J3",
        "streetName": "HERITAGE",
        "streetDirectionId": null,
        "streetTypeId": "DR",
        "placeName": "PETAWAWA",
        "streetNameDisplayText": "HERITAGE DR, PETAWAWA"
      }
    ]
  },
  {
    "postal": "K8H8C2",
    "result": []
  },
  {
    "postal": "K8H4X9",
    "result": []
  },
  {
    "postal": "K8H6G9",
    "result": []
  },
  {
    "postal": "K8H4M3",
    "result": []
  },
  {
    "postal": "K8H9P7",
    "result": []
  },
  {
    "postal": "K8H4E5",
    "result": []
  },
  {
    "postal": "K8H5K9",
    "result": []
  },
  {
    "postal": "K8H2V2",
    "result": [
      {
        "electoralDistricts": [
          {
            "election": null,
            "id": 88,
            "name": "Renfrew—Nipissing—Pembroke"
          }
        ],
        "pollDivisionIds": [
          10141193
        ],
        "postalCode": "K8H2V2",
        "streetName": "DUNDONALD",
        "streetDirectionId": null,
        "streetTypeId": "DR",
        "placeName": "PETAWAWA",
        "streetNameDisplayText": "DUNDONALD DR, PETAWAWA"
      }
    ]
  },
  {
    "postal": "K8H2N9",
    "result": [
      {
        "electoralDistricts": [
          {
            "election": null,
            "id": 88,
            "name": "Renfrew—Nipissing—Pembroke"
          }
        ],
        "pollDivisionIds": [
          10141192
        ],
        "postalCode": "K8H2N9",
        "streetName": "EAST",
        "streetDirectionId": null,
        "streetTypeId": "ST",
        "placeName": "PETAWAWA",
        "streetNameDisplayText": "EAST ST, PETAWAWA"
      }
    ]
  },
  {
    "postal": "K8H6L4",
    "result": []
  },
  {
    "postal": "K8H8E0",
    "result": []
  },
  {
    "postal": "K8H0N0",
    "result": []
  },
  {
    "postal": "K8H6R0",
    "result": []
  },
  {
    "postal": "K8H9C1",
    "result": []
  },
  {
    "postal": "K8H4H4",
    "result": []
  },
  {
    "postal": "K8H5W3",
    "result": []
  },
  {
    "postal": "K8H9N9",
    "result": []
  },
  {
    "postal": "K8H1V7",
    "result": []
  },
  {
    "postal": "K8H8J1",
    "result": []
  },
  {
    "postal": "K8H5V9",
    "result": []
  },
  {
    "postal": "K8H2S8",
    "result": [
      {
        "electoralDistricts": [
          {
            "election": null,
            "id": 88,
            "name": "Renfrew—Nipissing—Pembroke"
          }
        ],
        "pollDivisionIds": [
          10141193
        ],
        "postalCode": "K8H2S8",
        "streetName": "WOLFE",
        "streetDirectionId": null,
        "streetTypeId": "AVE",
        "placeName": "PETAWAWA",
        "streetNameDisplayText": "WOLFE AVE, PETAWAWA"
      }
    ]
  },
  {
    "postal": "K8H6P0",
    "result": []
  },
  {
    "postal": "K8H4J8",
    "result": []
  },
  {
    "postal": "K8H0N1",
    "result": []
  },
  {
    "postal": "K8H1Y7",
    "result": [
      {
        "electoralDistricts": [
          {
            "election": null,
            "id": 88,
            "name": "Renfrew—Nipissing—Pembroke"
          }
        ],
        "pollDivisionIds": [
          10141192
        ],
        "postalCode": "K8H1Y7",
        "streetName": "SCHWANZ",
        "streetDirectionId": null,
        "streetTypeId": "RD",
        "placeName": "PETAWAWA",
        "streetNameDisplayText": "SCHWANZ RD, PETAWAWA"
      }
    ]
  },
  {
    "postal": "K8H7W5",
    "result": []
  },
  {
    "postal": "K8H3Z1",
    "result": []
  },
  {
    "postal": "K8H7M6",
    "result": []
  },
  {
    "postal": "K8H1W7",
    "result": [
      {
        "electoralDistricts": [
          {
            "election": null,
            "id": 88,
            "name": "Renfrew—Nipissing—Pembroke"
          }
        ],
        "pollDivisionIds": [
          10141192,
          10141193
        ],
        "postalCode": "K8H1W7",
        "streetName": "MURPHY",
        "streetDirectionId": null,
        "streetTypeId": "RD",
        "placeName": "PETAWAWA",
        "streetNameDisplayText": "MURPHY RD, PETAWAWA"
      }
    ]
  },
  {
    "postal": "K8H1X1",
    "result": [
      {
        "electoralDistricts": [
          {
            "election": null,
            "id": 88,
            "name": "Renfrew—Nipissing—Pembroke"
          }
        ],
        "pollDivisionIds": [
          10141193
        ],
        "postalCode": "K8H1X1",
        "streetName": "PETAWAWA",
        "streetDirectionId": null,
        "streetTypeId": "BLVD",
        "placeName": "PETAWAWA",
        "streetNameDisplayText": "PETAWAWA BLVD, PETAWAWA"
      }
    ]
  },
  {
    "postal": "K8H0C1",
    "result": [
      {
        "electoralDistricts": [
          {
            "election": null,
            "id": 88,
            "name": "Renfrew—Nipissing—Pembroke"
          }
        ],
        "pollDivisionIds": [
          10141192
        ],
        "postalCode": "K8H0C1",
        "streetName": "WINSTON",
        "streetDirectionId": null,
        "streetTypeId": "AVE",
        "placeName": "PETAWAWA",
        "streetNameDisplayText": "WINSTON AVE, PETAWAWA"
      }
    ]
  },
  {
    "postal": "K8H4N3",
    "result": []
  },
  {
    "postal": "K8H4S8",
    "result": []
  },
  {
    "postal": "K8H1H6",
    "result": [
      {
        "electoralDistricts": [
          {
            "election": null,
            "id": 88,
            "name": "Renfrew—Nipissing—Pembroke"
          }
        ],
        "pollDivisionIds": [
          10141191
        ],
        "postalCode": "K8H1H6",
        "streetName": "CLEVE",
        "streetDirectionId": null,
        "streetTypeId": "AVE",
        "placeName": "PETAWAWA",
        "streetNameDisplayText": "CLEVE AVE, PETAWAWA"
      }
    ]
  },
  {
    "postal": "K8H2Z4",
    "result": [
      {
        "electoralDistricts": [
          {
            "election": null,
            "id": 88,
            "name": "Renfrew—Nipissing—Pembroke"
          }
        ],
        "pollDivisionIds": [
          10141192
        ],
        "postalCode": "K8H2Z4",
        "streetName": "PETAWAWA",
        "streetDirectionId": null,
        "streetTypeId": "BLVD",
        "placeName": "PETAWAWA",
        "streetNameDisplayText": "PETAWAWA BLVD, PETAWAWA"
      }
    ]
  },
  {
    "postal": "K8H7K3",
    "result": []
  },
  {
    "postal": "K8H8A2",
    "result": []
  },
  {
    "postal": "K8H6J1",
    "result": []
  },
  {
    "postal": "K8H5Z6",
    "result": []
  },
  {
    "postal": "K8H3Z0",
    "result": []
  },
  {
    "postal": "K8H8M0",
    "result": []
  },
  {
    "postal": "K8H1Z6",
    "result": [
      {
        "electoralDistricts": [
          {
            "election": null,
            "id": 88,
            "name": "Renfrew—Nipissing—Pembroke"
          }
        ],
        "pollDivisionIds": [
          10141192
        ],
        "postalCode": "K8H1Z6",
        "streetName": "WHITE",
        "streetDirectionId": null,
        "streetTypeId": "ST",
        "placeName": "PETAWAWA",
        "streetNameDisplayText": "WHITE ST, PETAWAWA"
      }
    ]
  },
  {
    "postal": "K8H8K7",
    "result": []
  },
  {
    "postal": "K8H1N3",
    "result": [
      {
        "electoralDistricts": [
          {
            "election": null,
            "id": 88,
            "name": "Renfrew—Nipissing—Pembroke"
          }
        ],
        "pollDivisionIds": [
          10141191
        ],
        "postalCode": "K8H1N3",
        "streetName": "FESTUBERT",
        "streetDirectionId": null,
        "streetTypeId": "BLVD",
        "placeName": "PETAWAWA",
        "streetNameDisplayText": "FESTUBERT BLVD, PETAWAWA"
      }
    ]
  },
  {
    "postal": "K8H9S2",
    "result": []
  },
  {
    "postal": "K8H2K1",
    "result": [
      {
        "electoralDistricts": [
          {
            "election": null,
            "id": 88,
            "name": "Renfrew—Nipissing—Pembroke"
          }
        ],
        "pollDivisionIds": [
          10141192
        ],
        "postalCode": "K8H2K1",
        "streetName": "CHARLES",
        "streetDirectionId": null,
        "streetTypeId": "ST",
        "placeName": "PETAWAWA",
        "streetNameDisplayText": "CHARLES ST, PETAWAWA"
      }
    ]
  },
  {
    "postal": "K8H1E8",
    "result": [
      {
        "electoralDistricts": [
          {
            "election": null,
            "id": 88,
            "name": "Renfrew—Nipissing—Pembroke"
          }
        ],
        "pollDivisionIds": [
          10141194
        ],
        "postalCode": "K8H1E8",
        "streetName": "YPRES",
        "streetDirectionId": null,
        "streetTypeId": "BLVD",
        "placeName": "PETAWAWA",
        "streetNameDisplayText": "YPRES BLVD, PETAWAWA"
      }
    ]
  },
  {
    "postal": "K8H9B8",
    "result": []
  },
  {
    "postal": "K8H7X4",
    "result": []
  },
  {
    "postal": "K8H1Z4",
    "result": [
      {
        "electoralDistricts": [
          {
            "election": null,
            "id": 88,
            "name": "Renfrew—Nipissing—Pembroke"
          }
        ],
        "pollDivisionIds": [
          10141192
        ],
        "postalCode": "K8H1Z4",
        "streetName": "SACK",
        "streetDirectionId": null,
        "streetTypeId": "RD",
        "placeName": "PETAWAWA",
        "streetNameDisplayText": "SACK RD, PETAWAWA"
      }
    ]
  },
  {
    "postal": "K8H2C7",
    "result": [
      {
        "electoralDistricts": [
          {
            "election": null,
            "id": 88,
            "name": "Renfrew—Nipissing—Pembroke"
          }
        ],
        "pollDivisionIds": [
          10141193
        ],
        "postalCode": "K8H2C7",
        "streetName": "BERT",
        "streetDirectionId": null,
        "streetTypeId": "ST",
        "placeName": "PETAWAWA",
        "streetNameDisplayText": "BERT ST, PETAWAWA"
      }
    ]
  },
  {
    "postal": "K8H2E7",
    "result": [
      {
        "electoralDistricts": [
          {
            "election": null,
            "id": 88,
            "name": "Renfrew—Nipissing—Pembroke"
          }
        ],
        "pollDivisionIds": [
          10141193
        ],
        "postalCode": "K8H2E7",
        "streetName": "VICTORIA",
        "streetDirectionId": null,
        "streetTypeId": "ST",
        "placeName": "PETAWAWA",
        "streetNameDisplayText": "VICTORIA ST, PETAWAWA"
      }
    ]
  },
  {
    "postal": "K8H3R1",
    "result": [
      {
        "electoralDistricts": [
          {
            "election": null,
            "id": 88,
            "name": "Renfrew—Nipissing—Pembroke"
          }
        ],
        "pollDivisionIds": [
          10141192
        ],
        "postalCode": "K8H3R1",
        "streetName": "ISLAND VIEW",
        "streetDirectionId": null,
        "streetTypeId": "DR",
        "placeName": "PETAWAWA",
        "streetNameDisplayText": "ISLAND VIEW DR, PETAWAWA"
      }
    ]
  },
  {
    "postal": "K8H4K4",
    "result": []
  },
  {
    "postal": "K8H9G3",
    "result": []
  },
  {
    "postal": "K8H6C9",
    "result": []
  },
  {
    "postal": "K8H9H5",
    "result": []
  },
  {
    "postal": "K8H1P5",
    "result": [
      {
        "electoralDistricts": [
          {
            "election": null,
            "id": 88,
            "name": "Renfrew—Nipissing—Pembroke"
          }
        ],
        "pollDivisionIds": [
          10141192,
          10141193
        ],
        "postalCode": "K8H1P5",
        "streetName": "DORAN",
        "streetDirectionId": null,
        "streetTypeId": "ST",
        "placeName": "PETAWAWA",
        "streetNameDisplayText": "DORAN ST, PETAWAWA"
      }
    ]
  },
  {
    "postal": "K8H2J5",
    "result": [
      {
        "electoralDistricts": [
          {
            "election": null,
            "id": 88,
            "name": "Renfrew—Nipissing—Pembroke"
          }
        ],
        "pollDivisionIds": [
          10141192
        ],
        "postalCode": "K8H2J5",
        "streetName": "HOFFMAN",
        "streetDirectionId": null,
        "streetTypeId": "ST",
        "placeName": "PETAWAWA",
        "streetNameDisplayText": "HOFFMAN ST, PETAWAWA"
      }
    ]
  },
  {
    "postal": "K8H4W6",
    "result": []
  },
  {
    "postal": "K8H8M8",
    "result": []
  },
  {
    "postal": "K8H6C5",
    "result": []
  },
  {
    "postal": "K8H9H0",
    "result": []
  },
  {
    "postal": "K8H1X8",
    "result": [
      {
        "electoralDistricts": [
          {
            "election": null,
            "id": 88,
            "name": "Renfrew—Nipissing—Pembroke"
          }
        ],
        "pollDivisionIds": [
          10141192,
          10141193
        ],
        "postalCode": "K8H1X8",
        "streetName": "PETAWAWA",
        "streetDirectionId": null,
        "streetTypeId": "BLVD",
        "placeName": "PETAWAWA",
        "streetNameDisplayText": "PETAWAWA BLVD, PETAWAWA"
      }
    ]
  },
  {
    "postal": "K8H3H4",
    "result": [
      {
        "electoralDistricts": [
          {
            "election": null,
            "id": 88,
            "name": "Renfrew—Nipissing—Pembroke"
          }
        ],
        "pollDivisionIds": [
          10141193
        ],
        "postalCode": "K8H3H4",
        "streetName": "LAROCHE",
        "streetDirectionId": null,
        "streetTypeId": "CRES",
        "placeName": "PETAWAWA",
        "streetNameDisplayText": "LAROCHE CRES, PETAWAWA"
      }
    ]
  },
  {
    "postal": "K8H4E7",
    "result": []
  },
  {
    "postal": "K8H8A0",
    "result": []
  },
  {
    "postal": "K8H1Z7",
    "result": [
      {
        "electoralDistricts": [
          {
            "election": null,
            "id": 88,
            "name": "Renfrew—Nipissing—Pembroke"
          }
        ],
        "pollDivisionIds": [
          10141192
        ],
        "postalCode": "K8H1Z7",
        "streetName": "OELKE",
        "streetDirectionId": null,
        "streetTypeId": "ST",
        "placeName": "PETAWAWA",
        "streetNameDisplayText": "OELKE ST, PETAWAWA"
      }
    ]
  },
  {
    "postal": "K8H7Z3",
    "result": []
  },
  {
    "postal": "K8H0L7",
    "result": []
  },
  {
    "postal": "K8H2C6",
    "result": [
      {
        "electoralDistricts": [
          {
            "election": null,
            "id": 88,
            "name": "Renfrew—Nipissing—Pembroke"
          }
        ],
        "pollDivisionIds": [
          10141192
        ],
        "postalCode": "K8H2C6",
        "streetName": "WILBERT",
        "streetDirectionId": null,
        "streetTypeId": "ST",
        "placeName": "PETAWAWA",
        "streetNameDisplayText": "WILBERT ST, PETAWAWA"
      }
    ]
  },
  {
    "postal": "K8H6M3",
    "result": []
  },
  {
    "postal": "K8H2J1",
    "result": [
      {
        "electoralDistricts": [
          {
            "election": null,
            "id": 88,
            "name": "Renfrew—Nipissing—Pembroke"
          }
        ],
        "pollDivisionIds": [
          10141192
        ],
        "postalCode": "K8H2J1",
        "streetName": "LABINE",
        "streetDirectionId": null,
        "streetTypeId": "CRES",
        "placeName": "PETAWAWA",
        "streetNameDisplayText": "LABINE CRES, PETAWAWA"
      }
    ]
  },
  {
    "postal": "K8H3E3",
    "result": [
      {
        "electoralDistricts": [
          {
            "election": null,
            "id": 88,
            "name": "Renfrew—Nipissing—Pembroke"
          }
        ],
        "pollDivisionIds": [
          10141192
        ],
        "postalCode": "K8H3E3",
        "streetName": "COUNTRY",
        "streetDirectionId": null,
        "streetTypeId": "LANE",
        "placeName": "PETAWAWA",
        "streetNameDisplayText": "COUNTRY LANE, PETAWAWA"
      }
    ]
  },
  {
    "postal": "K8H6Z9",
    "result": []
  },
  {
    "postal": "K8H3M3",
    "result": [
      {
        "electoralDistricts": [
          {
            "election": null,
            "id": 88,
            "name": "Renfrew—Nipissing—Pembroke"
          }
        ],
        "pollDivisionIds": [
          10141192
        ],
        "postalCode": "K8H3M3",
        "streetName": "VEREYKEN",
        "streetDirectionId": null,
        "streetTypeId": "CRES",
        "placeName": "PETAWAWA",
        "streetNameDisplayText": "VEREYKEN CRES, PETAWAWA"
      }
    ]
  },
  {
    "postal": "K8H9B1",
    "result": []
  },
  {
    "postal": "K8H9J5",
    "result": []
  },
  {
    "postal": "K8H4V8",
    "result": []
  },
  {
    "postal": "K8H6W2",
    "result": []
  },
  {
    "postal": "K8H0V5",
    "result": []
  },
  {
    "postal": "K8H0Z8",
    "result": []
  },
  {
    "postal": "K8H5G2",
    "result": []
  },
  {
    "postal": "K8H4N4",
    "result": []
  },
  {
    "postal": "K8H8G7",
    "result": []
  },
  {
    "postal": "K8H8W1",
    "result": []
  },
  {
    "postal": "K8H1S6",
    "result": [
      {
        "electoralDistricts": [
          {
            "election": null,
            "id": 88,
            "name": "Renfrew—Nipissing—Pembroke"
          }
        ],
        "pollDivisionIds": [
          10141193
        ],
        "postalCode": "K8H1S6",
        "streetName": "JOHN",
        "streetDirectionId": null,
        "streetTypeId": "ST",
        "placeName": "PETAWAWA",
        "streetNameDisplayText": "JOHN ST, PETAWAWA"
      }
    ]
  },
  {
    "postal": "K8H4E0",
    "result": []
  },
  {
    "postal": "K8H4L9",
    "result": []
  },
  {
    "postal": "K8H5Z9",
    "result": []
  },
  {
    "postal": "K8H5V3",
    "result": []
  },
  {
    "postal": "K8H4V2",
    "result": []
  },
  {
    "postal": "K8H7C0",
    "result": []
  },
  {
    "postal": "K8H6L0",
    "result": []
  },
  {
    "postal": "K8H1S9",
    "result": [
      {
        "electoralDistricts": [
          {
            "election": null,
            "id": 88,
            "name": "Renfrew—Nipissing—Pembroke"
          }
        ],
        "pollDivisionIds": [
          10141193
        ],
        "postalCode": "K8H1S9",
        "streetName": "JOHN",
        "streetDirectionId": null,
        "streetTypeId": "ST",
        "placeName": "PETAWAWA",
        "streetNameDisplayText": "JOHN ST, PETAWAWA"
      }
    ]
  },
  {
    "postal": "K8H7R6",
    "result": []
  },
  {
    "postal": "K8H7J0",
    "result": []
  },
  {
    "postal": "K8H5M0",
    "result": []
  },
  {
    "postal": "K8H2E5",
    "result": [
      {
        "electoralDistricts": [
          {
            "election": null,
            "id": 88,
            "name": "Renfrew—Nipissing—Pembroke"
          }
        ],
        "pollDivisionIds": [
          10141193
        ],
        "postalCode": "K8H2E5",
        "streetName": "VICTORIA",
        "streetDirectionId": null,
        "streetTypeId": "ST",
        "placeName": "PETAWAWA",
        "streetNameDisplayText": "VICTORIA ST, PETAWAWA"
      }
    ]
  },
  {
    "postal": "K8H7C7",
    "result": []
  },
  {
    "postal": "K8H5C0",
    "result": []
  },
  {
    "postal": "K8H8V9",
    "result": []
  },
  {
    "postal": "K8H7E0",
    "result": []
  },
  {
    "postal": "K8H6R4",
    "result": []
  },
  {
    "postal": "K8H3Z7",
    "result": []
  },
  {
    "postal": "K8H1J9",
    "result": [
      {
        "electoralDistricts": [
          {
            "election": null,
            "id": 88,
            "name": "Renfrew—Nipissing—Pembroke"
          }
        ],
        "pollDivisionIds": [
          10141191
        ],
        "postalCode": "K8H1J9",
        "streetName": "FALAISE",
        "streetDirectionId": null,
        "streetTypeId": "ST",
        "placeName": "PETAWAWA",
        "streetNameDisplayText": "FALAISE ST, PETAWAWA"
      }
    ]
  },
  {
    "postal": "K8H7K6",
    "result": []
  },
  {
    "postal": "K8H7Y5",
    "result": []
  },
  {
    "postal": "K8H1B7",
    "result": [
      {
        "electoralDistricts": [
          {
            "election": null,
            "id": 88,
            "name": "Renfrew—Nipissing—Pembroke"
          }
        ],
        "pollDivisionIds": [
          10141191
        ],
        "postalCode": "K8H1B7",
        "streetName": "CASSINO",
        "streetDirectionId": null,
        "streetTypeId": "ST",
        "placeName": "PETAWAWA",
        "streetNameDisplayText": "CASSINO ST, PETAWAWA"
      }
    ]
  },
  {
    "postal": "K8H4S9",
    "result": []
  },
  {
    "postal": "K8H9R9",
    "result": []
  },
  {
    "postal": "K8H5K7",
    "result": []
  },
  {
    "postal": "K8H6P2",
    "result": []
  },
  {
    "postal": "K8H2C5",
    "result": [
      {
        "electoralDistricts": [
          {
            "election": null,
            "id": 88,
            "name": "Renfrew—Nipissing—Pembroke"
          }
        ],
        "pollDivisionIds": [
          10141192
        ],
        "postalCode": "K8H2C5",
        "streetName": "VEREYKEN",
        "streetDirectionId": null,
        "streetTypeId": "CRES",
        "placeName": "PETAWAWA",
        "streetNameDisplayText": "VEREYKEN CRES, PETAWAWA"
      }
    ]
  },
  {
    "postal": "K8H2N0",
    "result": []
  },
  {
    "postal": "K8H1G0",
    "result": []
  },
  {
    "postal": "K8H4K5",
    "result": []
  },
  {
    "postal": "K8H9B5",
    "result": []
  },
  {
    "postal": "K8H6T5",
    "result": []
  },
  {
    "postal": "K8H1N8",
    "result": [
      {
        "electoralDistricts": [
          {
            "election": null,
            "id": 88,
            "name": "Renfrew—Nipissing—Pembroke"
          }
        ],
        "pollDivisionIds": [
          10141193
        ],
        "postalCode": "K8H1N8",
        "streetName": "SELKIRK",
        "streetDirectionId": null,
        "streetTypeId": "ST",
        "placeName": "PETAWAWA",
        "streetNameDisplayText": "SELKIRK ST, PETAWAWA"
      }
    ]
  },
  {
    "postal": "K8H0C0",
    "result": []
  },
  {
    "postal": "K8H0R9",
    "result": []
  },
  {
    "postal": "K8H7L1",
    "result": []
  },
  {
    "postal": "K8H3Y8",
    "result": []
  },
  {
    "postal": "K8H7X9",
    "result": []
  },
  {
    "postal": "K8H1A7",
    "result": [
      {
        "electoralDistricts": [
          {
            "election": null,
            "id": 88,
            "name": "Renfrew—Nipissing—Pembroke"
          }
        ],
        "pollDivisionIds": [
          10141194
        ],
        "postalCode": "K8H1A7",
        "streetName": "MOREUIL WOOD",
        "streetDirectionId": null,
        "streetTypeId": "BLVD",
        "placeName": "PETAWAWA",
        "streetNameDisplayText": "MOREUIL WOOD BLVD, PETAWAWA"
      }
    ]
  },
  {
    "postal": "K8H2T9",
    "result": [
      {
        "electoralDistricts": [
          {
            "election": null,
            "id": 88,
            "name": "Renfrew—Nipissing—Pembroke"
          }
        ],
        "pollDivisionIds": [
          10141193
        ],
        "postalCode": "K8H2T9",
        "streetName": "BORDEN",
        "streetDirectionId": null,
        "streetTypeId": "AVE",
        "placeName": "PETAWAWA",
        "streetNameDisplayText": "BORDEN AVE, PETAWAWA"
      }
    ]
  },
  {
    "postal": "K8H2E6",
    "result": [
      {
        "electoralDistricts": [
          {
            "election": null,
            "id": 88,
            "name": "Renfrew—Nipissing—Pembroke"
          }
        ],
        "pollDivisionIds": [
          10141193,
          10141192
        ],
        "postalCode": "K8H2E6",
        "streetName": "VICTORIA",
        "streetDirectionId": null,
        "streetTypeId": "ST",
        "placeName": "PETAWAWA",
        "streetNameDisplayText": "VICTORIA ST, PETAWAWA"
      }
    ]
  },
  {
    "postal": "K8H8Y1",
    "result": []
  },
  {
    "postal": "K8H0J5",
    "result": []
  },
  {
    "postal": "K8H4J1",
    "result": []
  },
  {
    "postal": "K8H1A5",
    "result": [
      {
        "electoralDistricts": [
          {
            "election": null,
            "id": 88,
            "name": "Renfrew—Nipissing—Pembroke"
          }
        ],
        "pollDivisionIds": [
          10141194
        ],
        "postalCode": "K8H1A5",
        "streetName": "MOREUIL WOOD",
        "streetDirectionId": null,
        "streetTypeId": "BLVD",
        "placeName": "PETAWAWA",
        "streetNameDisplayText": "MOREUIL WOOD BLVD, PETAWAWA"
      },
      {
        "electoralDistricts": [
          {
            "election": null,
            "id": 88,
            "name": "Renfrew—Nipissing—Pembroke"
          }
        ],
        "pollDivisionIds": [
          10141194
        ],
        "postalCode": "K8H1A5",
        "streetName": "MOREUILWOOD",
        "streetDirectionId": null,
        "streetTypeId": "BLVD",
        "placeName": "PETAWAWA",
        "streetNameDisplayText": "MOREUILWOOD BLVD, PETAWAWA"
      }
    ]
  },
  {
    "postal": "K8H6Z6",
    "result": []
  },
  {
    "postal": "K8H5K4",
    "result": []
  },
  {
    "postal": "K8H7R9",
    "result": []
  },
  {
    "postal": "K8H6G4",
    "result": []
  }
]
