[
  {
    "postal": "K2E9J6",
    "result": []
  },
  {
    "postal": "K2E9Z5",
    "result": []
  },
  {
    "postal": "K2E7H8",
    "result": [
      {
        "electoralDistricts": [
          {
            "election": null,
            "id": 66,
            "name": "Nepean"
          }
        ],
        "pollDivisionIds": [
          10126663
        ],
        "postalCode": "K2E7H8",
        "streetName": "AMBERWOOD",
        "streetDirectionId": null,
        "streetTypeId": "CRES",
        "placeName": "NEPEAN",
        "streetNameDisplayText": "AMBERWOOD CRES, NEPEAN"
      }
    ]
  },
  {
    "postal": "K2E0P6",
    "result": []
  },
  {
    "postal": "K2E0S7",
    "result": []
  },
  {
    "postal": "K2E8B9",
    "result": [
      {
        "electoralDistricts": [
          {
            "election": null,
            "id": 66,
            "name": "Nepean"
          }
        ],
        "pollDivisionIds": [
          10126663
        ],
        "postalCode": "K2E8B9",
        "streetName": "TRISTAN",
        "streetDirectionId": null,
        "streetTypeId": "CRT",
        "placeName": "NEPEAN",
        "streetNameDisplayText": "TRISTAN CRT, NEPEAN"
      }
    ]
  },
  {
    "postal": "K2E2A6",
    "result": []
  },
  {
    "postal": "K2E7V2",
    "result": [
      {
        "electoralDistricts": [
          {
            "election": null,
            "id": 66,
            "name": "Nepean"
          }
        ],
        "pollDivisionIds": [
          10126663
        ],
        "postalCode": "K2E7V2",
        "streetName": "ANTARES",
        "streetDirectionId": null,
        "streetTypeId": "DR",
        "placeName": "NEPEAN",
        "streetNameDisplayText": "ANTARES DR, NEPEAN"
      }
    ]
  },
  {
    "postal": "K2E9P4",
    "result": []
  },
  {
    "postal": "K2E6G0",
    "result": []
  },
  {
    "postal": "K2E2K0",
    "result": []
  },
  {
    "postal": "K2E7N6",
    "result": [
      {
        "electoralDistricts": [
          {
            "election": null,
            "id": 81,
            "name": "Ottawa West—Nepean"
          }
        ],
        "pollDivisionIds": [
          10140852
        ],
        "postalCode": "K2E7N6",
        "streetName": "HOMESTEAD",
        "streetDirectionId": null,
        "streetTypeId": "ST",
        "placeName": "NEPEAN",
        "streetNameDisplayText": "HOMESTEAD ST, NEPEAN"
      }
    ]
  },
  {
    "postal": "K2E5R3",
    "result": [
      {
        "electoralDistricts": [
          {
            "election": null,
            "id": 81,
            "name": "Ottawa West—Nepean"
          }
        ],
        "pollDivisionIds": [
          10140848
        ],
        "postalCode": "K2E5R3",
        "streetName": "SOUTHVIEW",
        "streetDirectionId": null,
        "streetTypeId": "CRES",
        "placeName": "NEPEAN",
        "streetNameDisplayText": "SOUTHVIEW CRES, NEPEAN"
      }
    ]
  },
  {
    "postal": "K2E7K0",
    "result": []
  },
  {
    "postal": "K2E3R2",
    "result": []
  },
  {
    "postal": "K2E0J1",
    "result": []
  },
  {
    "postal": "K2E0B0",
    "result": []
  },
  {
    "postal": "K2E5Z2",
    "result": [
      {
        "electoralDistricts": [
          {
            "election": null,
            "id": 81,
            "name": "Ottawa West—Nepean"
          }
        ],
        "pollDivisionIds": [
          10140850
        ],
        "postalCode": "K2E5Z2",
        "streetName": "LIPSTAN",
        "streetDirectionId": null,
        "streetTypeId": "AVE",
        "placeName": "NEPEAN",
        "streetNameDisplayText": "LIPSTAN AVE, NEPEAN"
      }
    ]
  },
  {
    "postal": "K2E7P3",
    "result": [
      {
        "electoralDistricts": [
          {
            "election": null,
            "id": 81,
            "name": "Ottawa West—Nepean"
          }
        ],
        "pollDivisionIds": [
          10140852
        ],
        "postalCode": "K2E7P3",
        "streetName": "VIEWMOUNT",
        "streetDirectionId": null,
        "streetTypeId": "DR",
        "placeName": "NEPEAN",
        "streetNameDisplayText": "VIEWMOUNT DR, NEPEAN"
      }
    ]
  },
  {
    "postal": "K2E2K3",
    "result": []
  },
  {
    "postal": "K2E7Y6",
    "result": [
      {
        "electoralDistricts": [
          {
            "election": null,
            "id": 66,
            "name": "Nepean"
          }
        ],
        "pollDivisionIds": [
          10126663
        ],
        "postalCode": "K2E7Y6",
        "streetName": "JAMIE",
        "streetDirectionId": null,
        "streetTypeId": "AVE",
        "placeName": "NEPEAN",
        "streetNameDisplayText": "JAMIE AVE, NEPEAN"
      }
    ]
  },
  {
    "postal": "K2E1L9",
    "result": []
  },
  {
    "postal": "K2E8T0",
    "result": []
  },
  {
    "postal": "K2E3K8",
    "result": []
  },
  {
    "postal": "K2E5W9",
    "result": [
      {
        "electoralDistricts": [
          {
            "election": null,
            "id": 66,
            "name": "Nepean"
          }
        ],
        "pollDivisionIds": [
          10126663
        ],
        "postalCode": "K2E5W9",
        "streetName": "BRISBANE",
        "streetDirectionId": null,
        "streetTypeId": "RD",
        "placeName": "NEPEAN",
        "streetNameDisplayText": "BRISBANE RD, NEPEAN"
      }
    ]
  },
  {
    "postal": "K2E6T9",
    "result": [
      {
        "electoralDistricts": [
          {
            "election": null,
            "id": 66,
            "name": "Nepean"
          }
        ],
        "pollDivisionIds": [
          10126663
        ],
        "postalCode": "K2E6T9",
        "streetName": "BENTLEY",
        "streetDirectionId": null,
        "streetTypeId": "AVE",
        "placeName": "NEPEAN",
        "streetNameDisplayText": "BENTLEY AVE, NEPEAN"
      }
    ]
  },
  {
    "postal": "K2E4H1",
    "result": []
  },
  {
    "postal": "K2E7A2",
    "result": []
  },
  {
    "postal": "K2E5G0",
    "result": []
  },
  {
    "postal": "K2E8V5",
    "result": []
  },
  {
    "postal": "K2E2Y8",
    "result": []
  },
  {
    "postal": "K2E2B6",
    "result": []
  },
  {
    "postal": "K2E4W8",
    "result": []
  },
  {
    "postal": "K2E8H7",
    "result": []
  },
  {
    "postal": "K2E5P1",
    "result": [
      {
        "electoralDistricts": [
          {
            "election": null,
            "id": 81,
            "name": "Ottawa West—Nepean"
          }
        ],
        "pollDivisionIds": [
          10140847
        ],
        "postalCode": "K2E5P1",
        "streetName": "MERIVALE",
        "streetDirectionId": null,
        "streetTypeId": "RD",
        "placeName": "NEPEAN",
        "streetNameDisplayText": "MERIVALE RD, NEPEAN"
      },
      {
        "electoralDistricts": [
          {
            "election": null,
            "id": 81,
            "name": "Ottawa West—Nepean"
          }
        ],
        "pollDivisionIds": [
          10140847
        ],
        "postalCode": "K2E5P1",
        "streetName": "MERIVALE",
        "streetDirectionId": null,
        "streetTypeId": "RD",
        "placeName": "OTTAWA",
        "streetNameDisplayText": "MERIVALE RD, OTTAWA"
      }
    ]
  },
  {
    "postal": "K2E2B8",
    "result": []
  },
  {
    "postal": "K2E0P2",
    "result": []
  },
  {
    "postal": "K2E9M1",
    "result": []
  },
  {
    "postal": "K2E3G0",
    "result": []
  },
  {
    "postal": "K2E9Z2",
    "result": []
  },
  {
    "postal": "K2E2A0",
    "result": []
  },
  {
    "postal": "K2E6Y0",
    "result": []
  },
  {
    "postal": "K2E2Z8",
    "result": []
  },
  {
    "postal": "K2E7Y3",
    "result": [
      {
        "electoralDistricts": [
          {
            "election": null,
            "id": 66,
            "name": "Nepean"
          }
        ],
        "pollDivisionIds": [
          10126663
        ],
        "postalCode": "K2E7Y3",
        "streetName": "AURIGA",
        "streetDirectionId": null,
        "streetTypeId": "DR",
        "placeName": "NEPEAN",
        "streetNameDisplayText": "AURIGA DR, NEPEAN"
      }
    ]
  },
  {
    "postal": "K2E6Z5",
    "result": [
      {
        "electoralDistricts": [
          {
            "election": null,
            "id": 81,
            "name": "Ottawa West—Nepean"
          }
        ],
        "pollDivisionIds": [
          10140847
        ],
        "postalCode": "K2E6Z5",
        "streetName": "MERIVALE",
        "streetDirectionId": null,
        "streetTypeId": "RD",
        "placeName": "NEPEAN",
        "streetNameDisplayText": "MERIVALE RD, NEPEAN"
      }
    ]
  },
  {
    "postal": "K2E6E0",
    "result": []
  },
  {
    "postal": "K2E9B7",
    "result": []
  },
  {
    "postal": "K2E9S5",
    "result": []
  },
  {
    "postal": "K2E3X3",
    "result": []
  },
  {
    "postal": "K2E7R5",
    "result": [
      {
        "electoralDistricts": [
          {
            "election": null,
            "id": 81,
            "name": "Ottawa West—Nepean"
          }
        ],
        "pollDivisionIds": [
          10140849
        ],
        "postalCode": "K2E7R5",
        "streetName": "EUROPA",
        "streetDirectionId": null,
        "streetTypeId": "PVT",
        "placeName": "NEPEAN",
        "streetNameDisplayText": "EUROPA PVT, NEPEAN"
      }
    ]
  },
  {
    "postal": "K2E2X3",
    "result": []
  },
  {
    "postal": "K2E8Z9",
    "result": []
  },
  {
    "postal": "K2E0N4",
    "result": []
  },
  {
    "postal": "K2E1K1",
    "result": []
  },
  {
    "postal": "K2E1S3",
    "result": []
  },
  {
    "postal": "K2E6M4",
    "result": [
      {
        "electoralDistricts": [
          {
            "election": null,
            "id": 81,
            "name": "Ottawa West—Nepean"
          }
        ],
        "pollDivisionIds": [
          10140848
        ],
        "postalCode": "K2E6M4",
        "streetName": "BOWMOOR",
        "streetDirectionId": null,
        "streetTypeId": "AVE",
        "placeName": "NEPEAN",
        "streetNameDisplayText": "BOWMOOR AVE, NEPEAN"
      },
      {
        "electoralDistricts": [
          {
            "election": null,
            "id": 81,
            "name": "Ottawa West—Nepean"
          }
        ],
        "pollDivisionIds": [
          10140848
        ],
        "postalCode": "K2E6M4",
        "streetName": "BOWMOOR",
        "streetDirectionId": null,
        "streetTypeId": "AVE",
        "placeName": "OTTAWA",
        "streetNameDisplayText": "BOWMOOR AVE, OTTAWA"
      }
    ]
  },
  {
    "postal": "K2E9A9",
    "result": []
  },
  {
    "postal": "K2E9Z9",
    "result": []
  },
  {
    "postal": "K2E6T4",
    "result": [
      {
        "electoralDistricts": [
          {
            "election": null,
            "id": 81,
            "name": "Ottawa West—Nepean"
          }
        ],
        "pollDivisionIds": [
          10140849
        ],
        "postalCode": "K2E6T4",
        "streetName": "VIEWMOUNT",
        "streetDirectionId": null,
        "streetTypeId": "DR",
        "placeName": "NEPEAN",
        "streetNameDisplayText": "VIEWMOUNT DR, NEPEAN"
      }
    ]
  },
  {
    "postal": "K2E0B2",
    "result": [
      {
        "electoralDistricts": [
          {
            "election": null,
            "id": 66,
            "name": "Nepean"
          }
        ],
        "pollDivisionIds": [
          10126663
        ],
        "postalCode": "K2E0B2",
        "streetName": "PRINCE OF WALES",
        "streetDirectionId": null,
        "streetTypeId": "DR",
        "placeName": "NEPEAN",
        "streetNameDisplayText": "PRINCE OF WALES DR, NEPEAN"
      }
    ]
  },
  {
    "postal": "K2E2L9",
    "result": []
  },
  {
    "postal": "K2E8K9",
    "result": []
  },
  {
    "postal": "K2E2H9",
    "result": []
  },
  {
    "postal": "K2E3Z6",
    "result": []
  },
  {
    "postal": "K2E3B0",
    "result": []
  },
  {
    "postal": "K2E2H8",
    "result": []
  },
  {
    "postal": "K2E3X2",
    "result": []
  },
  {
    "postal": "K2E2E9",
    "result": []
  },
  {
    "postal": "K2E9P6",
    "result": []
  },
  {
    "postal": "K2E9E2",
    "result": []
  },
  {
    "postal": "K2E9H2",
    "result": []
  },
  {
    "postal": "K2E1S8",
    "result": []
  },
  {
    "postal": "K2E3M6",
    "result": []
  },
  {
    "postal": "K2E6Z8",
    "result": [
      {
        "electoralDistricts": [
          {
            "election": null,
            "id": 66,
            "name": "Nepean"
          }
        ],
        "pollDivisionIds": [
          10126663
        ],
        "postalCode": "K2E6Z8",
        "streetName": "PRINCE OF WALES",
        "streetDirectionId": null,
        "streetTypeId": "DR",
        "placeName": "NEPEAN",
        "streetNameDisplayText": "PRINCE OF WALES DR, NEPEAN"
      }
    ]
  },
  {
    "postal": "K2E4J2",
    "result": []
  },
  {
    "postal": "K2E9Y1",
    "result": []
  },
  {
    "postal": "K2E8V6",
    "result": []
  },
  {
    "postal": "K2E6B2",
    "result": [
      {
        "electoralDistricts": [
          {
            "election": null,
            "id": 81,
            "name": "Ottawa West—Nepean"
          }
        ],
        "pollDivisionIds": [
          10140850
        ],
        "postalCode": "K2E6B2",
        "streetName": "WALLFORD",
        "streetDirectionId": null,
        "streetTypeId": "WAY",
        "placeName": "NEPEAN",
        "streetNameDisplayText": "WALLFORD WAY, NEPEAN"
      }
    ]
  },
  {
    "postal": "K2E1P8",
    "result": []
  },
  {
    "postal": "K2E0V8",
    "result": []
  },
  {
    "postal": "K2E4Y0",
    "result": []
  },
  {
    "postal": "K2E2T4",
    "result": []
  },
  {
    "postal": "K2E2S3",
    "result": []
  },
  {
    "postal": "K2E0K0",
    "result": []
  },
  {
    "postal": "K2E5N1",
    "result": [
      {
        "electoralDistricts": [
          {
            "election": null,
            "id": 81,
            "name": "Ottawa West—Nepean"
          }
        ],
        "pollDivisionIds": [
          10140847
        ],
        "postalCode": "K2E5N1",
        "streetName": "TRILLIUM",
        "streetDirectionId": null,
        "streetTypeId": "AVE",
        "placeName": "NEPEAN",
        "streetNameDisplayText": "TRILLIUM AVE, NEPEAN"
      }
    ]
  },
  {
    "postal": "K2E7T0",
    "result": []
  },
  {
    "postal": "K2E9N2",
    "result": []
  },
  {
    "postal": "K2E5L1",
    "result": [
      {
        "electoralDistricts": [
          {
            "election": null,
            "id": 81,
            "name": "Ottawa West—Nepean"
          }
        ],
        "pollDivisionIds": [
          10140847
        ],
        "postalCode": "K2E5L1",
        "streetName": "HIGWOOD",
        "streetDirectionId": null,
        "streetTypeId": "DR",
        "placeName": "NEPEAN",
        "streetNameDisplayText": "HIGWOOD DR, NEPEAN"
      }
    ]
  },
  {
    "postal": "K2E7G5",
    "result": [
      {
        "electoralDistricts": [
          {
            "election": null,
            "id": 66,
            "name": "Nepean"
          }
        ],
        "pollDivisionIds": [
          10126663
        ],
        "postalCode": "K2E7G5",
        "streetName": "DENEWOOD",
        "streetDirectionId": null,
        "streetTypeId": "CRES",
        "placeName": "NEPEAN",
        "streetNameDisplayText": "DENEWOOD CRES, NEPEAN"
      }
    ]
  },
  {
    "postal": "K2E6K2",
    "result": [
      {
        "electoralDistricts": [
          {
            "election": null,
            "id": 81,
            "name": "Ottawa West—Nepean"
          }
        ],
        "pollDivisionIds": [
          10140850,
          10140847
        ],
        "postalCode": "K2E6K2",
        "streetName": "MEADOWLANDS",
        "streetDirectionId": "E",
        "streetTypeId": "DR",
        "placeName": "NEPEAN",
        "streetNameDisplayText": "MEADOWLANDS DR E, NEPEAN"
      }
    ]
  },
  {
    "postal": "K2E6P9",
    "result": [
      {
        "electoralDistricts": [
          {
            "election": null,
            "id": 81,
            "name": "Ottawa West—Nepean"
          }
        ],
        "pollDivisionIds": [
          10140851
        ],
        "postalCode": "K2E6P9",
        "streetName": "FALAISE",
        "streetDirectionId": null,
        "streetTypeId": "RD",
        "placeName": "NEPEAN",
        "streetNameDisplayText": "FALAISE RD, NEPEAN"
      }
    ]
  },
  {
    "postal": "K2E0E6",
    "result": []
  },
  {
    "postal": "K2E8R9",
    "result": []
  },
  {
    "postal": "K2E3G9",
    "result": []
  },
  {
    "postal": "K2E0V7",
    "result": []
  },
  {
    "postal": "K2E2Z1",
    "result": []
  },
  {
    "postal": "K2E7N1",
    "result": [
      {
        "electoralDistricts": [
          {
            "election": null,
            "id": 81,
            "name": "Ottawa West—Nepean"
          }
        ],
        "pollDivisionIds": [
          10140852
        ],
        "postalCode": "K2E7N1",
        "streetName": "COACH HOUSE",
        "streetDirectionId": null,
        "streetTypeId": "GATE",
        "placeName": "NEPEAN",
        "streetNameDisplayText": "COACH HOUSE GATE, NEPEAN"
      }
    ]
  },
  {
    "postal": "K2E3C6",
    "result": []
  },
  {
    "postal": "K2E4M1",
    "result": []
  },
  {
    "postal": "K2E9K2",
    "result": []
  },
  {
    "postal": "K2E9S6",
    "result": []
  },
  {
    "postal": "K2E4X1",
    "result": []
  },
  {
    "postal": "K2E8W2",
    "result": []
  },
  {
    "postal": "K2E7N2",
    "result": [
      {
        "electoralDistricts": [
          {
            "election": null,
            "id": 81,
            "name": "Ottawa West—Nepean"
          }
        ],
        "pollDivisionIds": [
          10140849
        ],
        "postalCode": "K2E7N2",
        "streetName": "COACH HOUSE",
        "streetDirectionId": null,
        "streetTypeId": "GATE",
        "placeName": "NEPEAN",
        "streetNameDisplayText": "COACH HOUSE GATE, NEPEAN"
      }
    ]
  },
  {
    "postal": "K2E8S3",
    "result": []
  },
  {
    "postal": "K2E4V0",
    "result": []
  },
  {
    "postal": "K2E6W4",
    "result": [
      {
        "electoralDistricts": [
          {
            "election": null,
            "id": 66,
            "name": "Nepean"
          }
        ],
        "pollDivisionIds": [
          10126663
        ],
        "postalCode": "K2E6W4",
        "streetName": "BRIGGS",
        "streetDirectionId": null,
        "streetTypeId": "AVE",
        "placeName": "NEPEAN",
        "streetNameDisplayText": "BRIGGS AVE, NEPEAN"
      }
    ]
  },
  {
    "postal": "K2E5M1",
    "result": [
      {
        "electoralDistricts": [
          {
            "election": null,
            "id": 81,
            "name": "Ottawa West—Nepean"
          }
        ],
        "pollDivisionIds": [
          10140847
        ],
        "postalCode": "K2E5M1",
        "streetName": "WARBONNET",
        "streetDirectionId": null,
        "streetTypeId": "DR",
        "placeName": "NEPEAN",
        "streetNameDisplayText": "WARBONNET DR, NEPEAN"
      }
    ]
  },
  {
    "postal": "K2E0S4",
    "result": []
  },
  {
    "postal": "K2E5X6",
    "result": [
      {
        "electoralDistricts": [
          {
            "election": null,
            "id": 66,
            "name": "Nepean"
          }
        ],
        "pollDivisionIds": [
          10126663
        ],
        "postalCode": "K2E5X6",
        "streetName": "PROMENADE",
        "streetDirectionId": null,
        "streetTypeId": "AVE",
        "placeName": "NEPEAN",
        "streetNameDisplayText": "PROMENADE AVE, NEPEAN"
      }
    ]
  },
  {
    "postal": "K2E8L5",
    "result": []
  },
  {
    "postal": "K2E5M8",
    "result": [
      {
        "electoralDistricts": [
          {
            "election": null,
            "id": 81,
            "name": "Ottawa West—Nepean"
          }
        ],
        "pollDivisionIds": [
          10140847
        ],
        "postalCode": "K2E5M8",
        "streetName": "TRILLIUM",
        "streetDirectionId": null,
        "streetTypeId": "AVE",
        "placeName": "NEPEAN",
        "streetNameDisplayText": "TRILLIUM AVE, NEPEAN"
      }
    ]
  },
  {
    "postal": "K2E2G3",
    "result": []
  },
  {
    "postal": "K2E8E4",
    "result": []
  },
  {
    "postal": "K2E7S9",
    "result": []
  },
  {
    "postal": "K2E1K3",
    "result": []
  },
  {
    "postal": "K2E4E1",
    "result": []
  },
  {
    "postal": "K2E4R2",
    "result": []
  },
  {
    "postal": "K2E6T0",
    "result": []
  },
  {
    "postal": "K2E3K5",
    "result": []
  },
  {
    "postal": "K2E3S3",
    "result": []
  },
  {
    "postal": "K2E3L4",
    "result": []
  },
  {
    "postal": "K2E9Y2",
    "result": []
  },
  {
    "postal": "K2E1E0",
    "result": []
  },
  {
    "postal": "K2E9A4",
    "result": []
  },
  {
    "postal": "K2E1L3",
    "result": []
  },
  {
    "postal": "K2E6N1",
    "result": [
      {
        "electoralDistricts": [
          {
            "election": null,
            "id": 81,
            "name": "Ottawa West—Nepean"
          }
        ],
        "pollDivisionIds": [
          10140848
        ],
        "postalCode": "K2E6N1",
        "streetName": "KILMORY",
        "streetDirectionId": null,
        "streetTypeId": "CRES",
        "placeName": "NEPEAN",
        "streetNameDisplayText": "KILMORY CRES, NEPEAN"
      }
    ]
  },
  {
    "postal": "K2E6G7",
    "result": [
      {
        "electoralDistricts": [
          {
            "election": null,
            "id": 81,
            "name": "Ottawa West—Nepean"
          }
        ],
        "pollDivisionIds": [
          10140850
        ],
        "postalCode": "K2E6G7",
        "streetName": "DEER PARK",
        "streetDirectionId": null,
        "streetTypeId": "RD",
        "placeName": "NEPEAN",
        "streetNameDisplayText": "DEER PARK RD, NEPEAN"
      }
    ]
  },
  {
    "postal": "K2E7W1",
    "result": [
      {
        "electoralDistricts": [
          {
            "election": null,
            "id": 81,
            "name": "Ottawa West—Nepean"
          }
        ],
        "pollDivisionIds": [
          10140852
        ],
        "postalCode": "K2E7W1",
        "streetName": "VALLEY RIDGE",
        "streetDirectionId": null,
        "streetTypeId": "ST",
        "placeName": "NEPEAN",
        "streetNameDisplayText": "VALLEY RIDGE ST, NEPEAN"
      }
    ]
  },
  {
    "postal": "K2E4M6",
    "result": []
  },
  {
    "postal": "K2E1K0",
    "result": []
  },
  {
    "postal": "K2E3E2",
    "result": []
  },
  {
    "postal": "K2E5H4",
    "result": [
      {
        "electoralDistricts": [
          {
            "election": null,
            "id": 81,
            "name": "Ottawa West—Nepean"
          }
        ],
        "pollDivisionIds": [
          10140847,
          10140850
        ],
        "postalCode": "K2E5H4",
        "streetName": "FARLANE",
        "streetDirectionId": null,
        "streetTypeId": "BLVD",
        "placeName": "NEPEAN",
        "streetNameDisplayText": "FARLANE BLVD, NEPEAN"
      }
    ]
  },
  {
    "postal": "K2E1K7",
    "result": []
  },
  {
    "postal": "K2E0H0",
    "result": []
  },
  {
    "postal": "K2E0J3",
    "result": []
  },
  {
    "postal": "K2E1X6",
    "result": []
  },
  {
    "postal": "K2E2Z6",
    "result": []
  },
  {
    "postal": "K2E4R9",
    "result": []
  },
  {
    "postal": "K2E0W8",
    "result": []
  },
  {
    "postal": "K2E1L4",
    "result": []
  },
  {
    "postal": "K2E0C8",
    "result": []
  },
  {
    "postal": "K2E9X7",
    "result": []
  },
  {
    "postal": "K2E4T1",
    "result": []
  },
  {
    "postal": "K2E0M0",
    "result": []
  },
  {
    "postal": "K2E6A2",
    "result": [
      {
        "electoralDistricts": [
          {
            "election": null,
            "id": 81,
            "name": "Ottawa West—Nepean"
          }
        ],
        "pollDivisionIds": [
          10140850
        ],
        "postalCode": "K2E6A2",
        "streetName": "ELEANOR",
        "streetDirectionId": null,
        "streetTypeId": "DR",
        "placeName": "NEPEAN",
        "streetNameDisplayText": "ELEANOR DR, NEPEAN"
      }
    ]
  },
  {
    "postal": "K2E9S8",
    "result": []
  },
  {
    "postal": "K2E9T4",
    "result": []
  },
  {
    "postal": "K2E9Y4",
    "result": []
  },
  {
    "postal": "K2E6G5",
    "result": [
      {
        "electoralDistricts": [
          {
            "election": null,
            "id": 81,
            "name": "Ottawa West—Nepean"
          }
        ],
        "pollDivisionIds": [
          10140848
        ],
        "postalCode": "K2E6G5",
        "streetName": "CAPILANO",
        "streetDirectionId": null,
        "streetTypeId": "DR",
        "placeName": "NEPEAN",
        "streetNameDisplayText": "CAPILANO DR, NEPEAN"
      }
    ]
  },
  {
    "postal": "K2E6H9",
    "result": [
      {
        "electoralDistricts": [
          {
            "election": null,
            "id": 81,
            "name": "Ottawa West—Nepean"
          }
        ],
        "pollDivisionIds": [
          10140851
        ],
        "postalCode": "K2E6H9",
        "streetName": "MEADOWLANDS",
        "streetDirectionId": "E",
        "streetTypeId": "DR",
        "placeName": "NEPEAN",
        "streetNameDisplayText": "MEADOWLANDS DR E, NEPEAN"
      }
    ]
  },
  {
    "postal": "K2E2P3",
    "result": []
  },
  {
    "postal": "K2E1T6",
    "result": []
  },
  {
    "postal": "K2E4P6",
    "result": []
  },
  {
    "postal": "K2E3K1",
    "result": []
  },
  {
    "postal": "K2E6X4",
    "result": [
      {
        "electoralDistricts": [
          {
            "election": null,
            "id": 66,
            "name": "Nepean"
          }
        ],
        "pollDivisionIds": [
          10126663
        ],
        "postalCode": "K2E6X4",
        "streetName": "MAYO",
        "streetDirectionId": null,
        "streetTypeId": "AVE",
        "placeName": "NEPEAN",
        "streetNameDisplayText": "MAYO AVE, NEPEAN"
      }
    ]
  },
  {
    "postal": "K2E4M8",
    "result": []
  },
  {
    "postal": "K2E2Y1",
    "result": []
  },
  {
    "postal": "K2E6M1",
    "result": [
      {
        "electoralDistricts": [
          {
            "election": null,
            "id": 81,
            "name": "Ottawa West—Nepean"
          }
        ],
        "pollDivisionIds": [
          10140848
        ],
        "postalCode": "K2E6M1",
        "streetName": "WALGATE",
        "streetDirectionId": null,
        "streetTypeId": "AVE",
        "placeName": "NEPEAN",
        "streetNameDisplayText": "WALGATE AVE, NEPEAN"
      }
    ]
  },
  {
    "postal": "K2E5L8",
    "result": [
      {
        "electoralDistricts": [
          {
            "election": null,
            "id": 81,
            "name": "Ottawa West—Nepean"
          }
        ],
        "pollDivisionIds": [
          10140852
        ],
        "postalCode": "K2E5L8",
        "streetName": "ROCKFIELD",
        "streetDirectionId": null,
        "streetTypeId": "CRES",
        "placeName": "NEPEAN",
        "streetNameDisplayText": "ROCKFIELD CRES, NEPEAN"
      }
    ]
  },
  {
    "postal": "K2E3P6",
    "result": []
  },
  {
    "postal": "K2E9A5",
    "result": []
  },
  {
    "postal": "K2E7K1",
    "result": [
      {
        "electoralDistricts": [
          {
            "election": null,
            "id": 81,
            "name": "Ottawa West—Nepean"
          }
        ],
        "pollDivisionIds": [
          10140853
        ],
        "postalCode": "K2E7K1",
        "streetName": "COLONNADE",
        "streetDirectionId": "S",
        "streetTypeId": "RD",
        "placeName": "NEPEAN",
        "streetNameDisplayText": "COLONNADE RD S, NEPEAN"
      }
    ]
  },
  {
    "postal": "K2E3J4",
    "result": []
  },
  {
    "postal": "K2E5E7",
    "result": [
      {
        "electoralDistricts": [
          {
            "election": null,
            "id": 81,
            "name": "Ottawa West—Nepean"
          }
        ],
        "pollDivisionIds": [
          10140850
        ],
        "postalCode": "K2E5E7",
        "streetName": "GREENWICH",
        "streetDirectionId": null,
        "streetTypeId": "AVE",
        "placeName": "NEPEAN",
        "streetNameDisplayText": "GREENWICH AVE, NEPEAN"
      }
    ]
  },
  {
    "postal": "K2E3A7",
    "result": []
  },
  {
    "postal": "K2E1B9",
    "result": []
  },
  {
    "postal": "K2E9E8",
    "result": []
  },
  {
    "postal": "K2E1C9",
    "result": []
  },
  {
    "postal": "K2E3B5",
    "result": []
  },
  {
    "postal": "K2E8R0",
    "result": []
  },
  {
    "postal": "K2E3P2",
    "result": []
  },
  {
    "postal": "K2E5V4",
    "result": [
      {
        "electoralDistricts": [
          {
            "election": null,
            "id": 81,
            "name": "Ottawa West—Nepean"
          }
        ],
        "pollDivisionIds": [
          10140849
        ],
        "postalCode": "K2E5V4",
        "streetName": "OVERLAKE",
        "streetDirectionId": null,
        "streetTypeId": "DR",
        "placeName": "NEPEAN",
        "streetNameDisplayText": "OVERLAKE DR, NEPEAN"
      }
    ]
  },
  {
    "postal": "K2E4H0",
    "result": []
  },
  {
    "postal": "K2E4S7",
    "result": []
  },
  {
    "postal": "K2E6C2",
    "result": [
      {
        "electoralDistricts": [
          {
            "election": null,
            "id": 81,
            "name": "Ottawa West—Nepean"
          }
        ],
        "pollDivisionIds": [
          10140850
        ],
        "postalCode": "K2E6C2",
        "streetName": "HILLIARD",
        "streetDirectionId": null,
        "streetTypeId": "AVE",
        "placeName": "NEPEAN",
        "streetNameDisplayText": "HILLIARD AVE, NEPEAN"
      }
    ]
  },
  {
    "postal": "K2E8W3",
    "result": []
  },
  {
    "postal": "K2E4M5",
    "result": []
  },
  {
    "postal": "K2E5T1",
    "result": [
      {
        "electoralDistricts": [
          {
            "election": null,
            "id": 81,
            "name": "Ottawa West—Nepean"
          }
        ],
        "pollDivisionIds": [
          10140848
        ],
        "postalCode": "K2E5T1",
        "streetName": "CHESTERTON",
        "streetDirectionId": null,
        "streetTypeId": "DR",
        "placeName": "NEPEAN",
        "streetNameDisplayText": "CHESTERTON DR, NEPEAN"
      }
    ]
  },
  {
    "postal": "K2E3B3",
    "result": []
  },
  {
    "postal": "K2E6C6",
    "result": [
      {
        "electoralDistricts": [
          {
            "election": null,
            "id": 81,
            "name": "Ottawa West—Nepean"
          }
        ],
        "pollDivisionIds": [
          10140847
        ],
        "postalCode": "K2E6C6",
        "streetName": "BEAVER",
        "streetDirectionId": null,
        "streetTypeId": "RIDGE",
        "placeName": "NEPEAN",
        "streetNameDisplayText": "BEAVER RIDGE, NEPEAN"
      }
    ]
  },
  {
    "postal": "K2E7N8",
    "result": [
      {
        "electoralDistricts": [
          {
            "election": null,
            "id": 81,
            "name": "Ottawa West—Nepean"
          }
        ],
        "pollDivisionIds": [
          10140852
        ],
        "postalCode": "K2E7N8",
        "streetName": "HOMESTEAD",
        "streetDirectionId": null,
        "streetTypeId": "ST",
        "placeName": "NEPEAN",
        "streetNameDisplayText": "HOMESTEAD ST, NEPEAN"
      }
    ]
  },
  {
    "postal": "K2E2Y3",
    "result": []
  },
  {
    "postal": "K2E2R6",
    "result": []
  },
  {
    "postal": "K2E7N3",
    "result": [
      {
        "electoralDistricts": [
          {
            "election": null,
            "id": 81,
            "name": "Ottawa West—Nepean"
          }
        ],
        "pollDivisionIds": [
          10140852
        ],
        "postalCode": "K2E7N3",
        "streetName": "FARM GATE",
        "streetDirectionId": null,
        "streetTypeId": "CRES",
        "placeName": "NEPEAN",
        "streetNameDisplayText": "FARM GATE CRES, NEPEAN"
      }
    ]
  },
  {
    "postal": "K2E8J2",
    "result": []
  },
  {
    "postal": "K2E6A9",
    "result": [
      {
        "electoralDistricts": [
          {
            "election": null,
            "id": 81,
            "name": "Ottawa West—Nepean"
          }
        ],
        "pollDivisionIds": [
          10140850
        ],
        "postalCode": "K2E6A9",
        "streetName": "VANSON",
        "streetDirectionId": null,
        "streetTypeId": "AVE",
        "placeName": "NEPEAN",
        "streetNameDisplayText": "VANSON AVE, NEPEAN"
      }
    ]
  },
  {
    "postal": "K2E3V2",
    "result": []
  },
  {
    "postal": "K2E2N3",
    "result": []
  },
  {
    "postal": "K2E1S5",
    "result": []
  },
  {
    "postal": "K2E4T7",
    "result": []
  },
  {
    "postal": "K2E6Y7",
    "result": [
      {
        "electoralDistricts": [
          {
            "election": null,
            "id": 81,
            "name": "Ottawa West—Nepean"
          }
        ],
        "pollDivisionIds": [
          10140849
        ],
        "postalCode": "K2E6Y7",
        "streetName": "SAGINAW",
        "streetDirectionId": null,
        "streetTypeId": "CRES",
        "placeName": "NEPEAN",
        "streetNameDisplayText": "SAGINAW CRES, NEPEAN"
      }
    ]
  },
  {
    "postal": "K2E0W7",
    "result": []
  },
  {
    "postal": "K2E2W9",
    "result": []
  },
  {
    "postal": "K2E8V0",
    "result": []
  },
  {
    "postal": "K2E0H4",
    "result": []
  },
  {
    "postal": "K2E2T1",
    "result": []
  },
  {
    "postal": "K2E1B1",
    "result": []
  },
  {
    "postal": "K2E8B6",
    "result": [
      {
        "electoralDistricts": [
          {
            "election": null,
            "id": 81,
            "name": "Ottawa West—Nepean"
          }
        ],
        "pollDivisionIds": [
          10140849
        ],
        "postalCode": "K2E8B6",
        "streetName": "VIEWMOUNT",
        "streetDirectionId": null,
        "streetTypeId": "DR",
        "placeName": "NEPEAN",
        "streetNameDisplayText": "VIEWMOUNT DR, NEPEAN"
      }
    ]
  },
  {
    "postal": "K2E6H1",
    "result": [
      {
        "electoralDistricts": [
          {
            "election": null,
            "id": 81,
            "name": "Ottawa West—Nepean"
          }
        ],
        "pollDivisionIds": [
          10140850
        ],
        "postalCode": "K2E6H1",
        "streetName": "DEER PARK",
        "streetDirectionId": null,
        "streetTypeId": "RD",
        "placeName": "NEPEAN",
        "streetNameDisplayText": "DEER PARK RD, NEPEAN"
      }
    ]
  },
  {
    "postal": "K2E8T8",
    "result": []
  },
  {
    "postal": "K2E0T4",
    "result": []
  },
  {
    "postal": "K2E2C4",
    "result": []
  },
  {
    "postal": "K2E8N3",
    "result": []
  },
  {
    "postal": "K2E4L8",
    "result": []
  },
  {
    "postal": "K2E2B5",
    "result": []
  },
  {
    "postal": "K2E3H1",
    "result": []
  },
  {
    "postal": "K2E4Y1",
    "result": []
  },
  {
    "postal": "K2E7E2",
    "result": [
      {
        "electoralDistricts": [
          {
            "election": null,
            "id": 66,
            "name": "Nepean"
          }
        ],
        "pollDivisionIds": [
          10126663
        ],
        "postalCode": "K2E7E2",
        "streetName": "LACEWOOD",
        "streetDirectionId": null,
        "streetTypeId": "CRT",
        "placeName": "NEPEAN",
        "streetNameDisplayText": "LACEWOOD CRT, NEPEAN"
      }
    ]
  },
  {
    "postal": "K2E2P5",
    "result": []
  },
  {
    "postal": "K2E8R7",
    "result": []
  },
  {
    "postal": "K2E9P1",
    "result": []
  },
  {
    "postal": "K2E3B8",
    "result": []
  },
  {
    "postal": "K2E3P7",
    "result": []
  },
  {
    "postal": "K2E9B2",
    "result": []
  },
  {
    "postal": "K2E6Z3",
    "result": [
      {
        "electoralDistricts": [
          {
            "election": null,
            "id": 81,
            "name": "Ottawa West—Nepean"
          }
        ],
        "pollDivisionIds": [
          10140847
        ],
        "postalCode": "K2E6Z3",
        "streetName": "FARLANE",
        "streetDirectionId": null,
        "streetTypeId": "BLVD",
        "placeName": "OTTAWA",
        "streetNameDisplayText": "FARLANE BLVD, OTTAWA"
      }
    ]
  },
  {
    "postal": "K2E4N5",
    "result": []
  },
  {
    "postal": "K2E8T3",
    "result": []
  },
  {
    "postal": "K2E1V2",
    "result": []
  },
  {
    "postal": "K2E1Y0",
    "result": []
  },
  {
    "postal": "K2E3G6",
    "result": []
  },
  {
    "postal": "K2E3H7",
    "result": []
  },
  {
    "postal": "K2E7X8",
    "result": [
      {
        "electoralDistricts": [
          {
            "election": null,
            "id": 66,
            "name": "Nepean"
          }
        ],
        "pollDivisionIds": [
          10126663
        ],
        "postalCode": "K2E7X8",
        "streetName": "CAMPFIELD",
        "streetDirectionId": null,
        "streetTypeId": "CRT",
        "placeName": "NEPEAN",
        "streetNameDisplayText": "CAMPFIELD CRT, NEPEAN"
      }
    ]
  },
  {
    "postal": "K2E0C7",
    "result": []
  },
  {
    "postal": "K2E0W9",
    "result": []
  },
  {
    "postal": "K2E8E6",
    "result": []
  },
  {
    "postal": "K2E9Z8",
    "result": []
  },
  {
    "postal": "K2E3P4",
    "result": []
  },
  {
    "postal": "K2E6L8",
    "result": [
      {
        "electoralDistricts": [
          {
            "election": null,
            "id": 81,
            "name": "Ottawa West—Nepean"
          }
        ],
        "pollDivisionIds": [
          10140848
        ],
        "postalCode": "K2E6L8",
        "streetName": "TIVERTON",
        "streetDirectionId": null,
        "streetTypeId": "DR",
        "placeName": "NEPEAN",
        "streetNameDisplayText": "TIVERTON DR, NEPEAN"
      }
    ]
  },
  {
    "postal": "K2E2R4",
    "result": []
  },
  {
    "postal": "K2E2W1",
    "result": []
  },
  {
    "postal": "K2E9H8",
    "result": []
  },
  {
    "postal": "K2E8X9",
    "result": []
  },
  {
    "postal": "K2E7H4",
    "result": [
      {
        "electoralDistricts": [
          {
            "election": null,
            "id": 66,
            "name": "Nepean"
          }
        ],
        "pollDivisionIds": [
          10126663
        ],
        "postalCode": "K2E7H4",
        "streetName": "EDENBROOK",
        "streetDirectionId": null,
        "streetTypeId": "CRT",
        "placeName": "NEPEAN",
        "streetNameDisplayText": "EDENBROOK CRT, NEPEAN"
      }
    ]
  },
  {
    "postal": "K2E3J1",
    "result": []
  },
  {
    "postal": "K2E1P4",
    "result": []
  },
  {
    "postal": "K2E2A3",
    "result": []
  },
  {
    "postal": "K2E0Z1",
    "result": []
  },
  {
    "postal": "K2E1C1",
    "result": []
  },
  {
    "postal": "K2E0H3",
    "result": []
  },
  {
    "postal": "K2E7B0",
    "result": []
  },
  {
    "postal": "K2E5K2",
    "result": [
      {
        "electoralDistricts": [
          {
            "election": null,
            "id": 81,
            "name": "Ottawa West—Nepean"
          }
        ],
        "pollDivisionIds": [
          10140852
        ],
        "postalCode": "K2E5K2",
        "streetName": "LYNHAVEN",
        "streetDirectionId": null,
        "streetTypeId": "CRES",
        "placeName": "NEPEAN",
        "streetNameDisplayText": "LYNHAVEN CRES, NEPEAN"
      }
    ]
  },
  {
    "postal": "K2E1E9",
    "result": []
  },
  {
    "postal": "K2E9W7",
    "result": []
  },
  {
    "postal": "K2E5W6",
    "result": [
      {
        "electoralDistricts": [
          {
            "election": null,
            "id": 66,
            "name": "Nepean"
          }
        ],
        "pollDivisionIds": [
          10126663
        ],
        "postalCode": "K2E5W6",
        "streetName": "TENNYSON",
        "streetDirectionId": null,
        "streetTypeId": "ST",
        "placeName": "NEPEAN",
        "streetNameDisplayText": "TENNYSON ST, NEPEAN"
      }
    ]
  },
  {
    "postal": "K2E6S6",
    "result": [
      {
        "electoralDistricts": [
          {
            "election": null,
            "id": 81,
            "name": "Ottawa West—Nepean"
          }
        ],
        "pollDivisionIds": [
          10140849
        ],
        "postalCode": "K2E6S6",
        "streetName": "BOWHILL",
        "streetDirectionId": null,
        "streetTypeId": "AVE",
        "placeName": "NEPEAN",
        "streetNameDisplayText": "BOWHILL AVE, NEPEAN"
      }
    ]
  },
  {
    "postal": "K2E2P8",
    "result": []
  },
  {
    "postal": "K2E4P8",
    "result": []
  },
  {
    "postal": "K2E0V9",
    "result": []
  },
  {
    "postal": "K2E5Y2",
    "result": [
      {
        "electoralDistricts": [
          {
            "election": null,
            "id": 81,
            "name": "Ottawa West—Nepean"
          }
        ],
        "pollDivisionIds": [
          10140850
        ],
        "postalCode": "K2E5Y2",
        "streetName": "SUNNYCREST",
        "streetDirectionId": null,
        "streetTypeId": "DR",
        "placeName": "NEPEAN",
        "streetNameDisplayText": "SUNNYCREST DR, NEPEAN"
      }
    ]
  },
  {
    "postal": "K2E7Z7",
    "result": [
      {
        "electoralDistricts": [
          {
            "election": null,
            "id": 66,
            "name": "Nepean"
          }
        ],
        "pollDivisionIds": [
          10126663
        ],
        "postalCode": "K2E7Z7",
        "streetName": "AURIGA",
        "streetDirectionId": null,
        "streetTypeId": "DR",
        "placeName": "NEPEAN",
        "streetNameDisplayText": "AURIGA DR, NEPEAN"
      }
    ]
  },
  {
    "postal": "K2E6Y8",
    "result": [
      {
        "electoralDistricts": [
          {
            "election": null,
            "id": 81,
            "name": "Ottawa West—Nepean"
          }
        ],
        "pollDivisionIds": [
          10140849
        ],
        "postalCode": "K2E6Y8",
        "streetName": "SAGINAW",
        "streetDirectionId": null,
        "streetTypeId": "CRES",
        "placeName": "NEPEAN",
        "streetNameDisplayText": "SAGINAW CRES, NEPEAN"
      }
    ]
  },
  {
    "postal": "K2E2G7",
    "result": []
  },
  {
    "postal": "K2E8C1",
    "result": [
      {
        "electoralDistricts": [
          {
            "election": null,
            "id": 66,
            "name": "Nepean"
          }
        ],
        "pollDivisionIds": [
          10126663
        ],
        "postalCode": "K2E8C1",
        "streetName": "JAMIE",
        "streetDirectionId": null,
        "streetTypeId": "AVE",
        "placeName": "NEPEAN",
        "streetNameDisplayText": "JAMIE AVE, NEPEAN"
      }
    ]
  },
  {
    "postal": "K2E5C5",
    "result": [
      {
        "electoralDistricts": [
          {
            "election": null,
            "id": 81,
            "name": "Ottawa West—Nepean"
          }
        ],
        "pollDivisionIds": [
          10140851
        ],
        "postalCode": "K2E5C5",
        "streetName": "GOODWIN",
        "streetDirectionId": null,
        "streetTypeId": "AVE",
        "placeName": "NEPEAN",
        "streetNameDisplayText": "GOODWIN AVE, NEPEAN"
      }
    ]
  },
  {
    "postal": "K2E2X8",
    "result": []
  },
  {
    "postal": "K2E1W5",
    "result": []
  },
  {
    "postal": "K2E7G0",
    "result": []
  },
  {
    "postal": "K2E8J8",
    "result": []
  },
  {
    "postal": "K2E3Y0",
    "result": []
  },
  {
    "postal": "K2E9T7",
    "result": []
  },
  {
    "postal": "K2E5P4",
    "result": []
  },
  {
    "postal": "K2E4B0",
    "result": []
  },
  {
    "postal": "K2E9N8",
    "result": []
  },
  {
    "postal": "K2E4A7",
    "result": []
  },
  {
    "postal": "K2E4H9",
    "result": []
  },
  {
    "postal": "K2E6X1",
    "result": [
      {
        "electoralDistricts": [
          {
            "election": null,
            "id": 66,
            "name": "Nepean"
          }
        ],
        "pollDivisionIds": [
          10126663
        ],
        "postalCode": "K2E6X1",
        "streetName": "BROOKDALE",
        "streetDirectionId": null,
        "streetTypeId": "AVE",
        "placeName": "NEPEAN",
        "streetNameDisplayText": "BROOKDALE AVE, NEPEAN"
      }
    ]
  },
  {
    "postal": "K2E9Y7",
    "result": []
  },
  {
    "postal": "K2E2Y5",
    "result": []
  },
  {
    "postal": "K2E8L7",
    "result": []
  },
  {
    "postal": "K2E2A8",
    "result": []
  },
  {
    "postal": "K2E2K9",
    "result": []
  },
  {
    "postal": "K2E3E5",
    "result": []
  },
  {
    "postal": "K2E8N6",
    "result": []
  },
  {
    "postal": "K2E8J4",
    "result": []
  },
  {
    "postal": "K2E4R7",
    "result": []
  },
  {
    "postal": "K2E9K1",
    "result": []
  },
  {
    "postal": "K2E8E1",
    "result": []
  },
  {
    "postal": "K2E0R1",
    "result": []
  },
  {
    "postal": "K2E4J3",
    "result": []
  },
  {
    "postal": "K2E7E7",
    "result": [
      {
        "electoralDistricts": [
          {
            "election": null,
            "id": 81,
            "name": "Ottawa West—Nepean"
          }
        ],
        "pollDivisionIds": [
          10140849
        ],
        "postalCode": "K2E7E7",
        "streetName": "VIEWMOUNT",
        "streetDirectionId": null,
        "streetTypeId": "DR",
        "placeName": "NEPEAN",
        "streetNameDisplayText": "VIEWMOUNT DR, NEPEAN"
      }
    ]
  },
  {
    "postal": "K2E0J0",
    "result": []
  },
  {
    "postal": "K2E7R8",
    "result": [
      {
        "electoralDistricts": [
          {
            "election": null,
            "id": 81,
            "name": "Ottawa West—Nepean"
          }
        ],
        "pollDivisionIds": [
          10140849
        ],
        "postalCode": "K2E7R8",
        "streetName": "TROPICANA",
        "streetDirectionId": null,
        "streetTypeId": "PVT",
        "placeName": "NEPEAN",
        "streetNameDisplayText": "TROPICANA PVT, NEPEAN"
      }
    ]
  },
  {
    "postal": "K2E9X0",
    "result": []
  },
  {
    "postal": "K2E7P6",
    "result": [
      {
        "electoralDistricts": [
          {
            "election": null,
            "id": 81,
            "name": "Ottawa West—Nepean"
          }
        ],
        "pollDivisionIds": [
          10140852
        ],
        "postalCode": "K2E7P6",
        "streetName": "VIEWMOUNT",
        "streetDirectionId": null,
        "streetTypeId": "DR",
        "placeName": "NEPEAN",
        "streetNameDisplayText": "VIEWMOUNT DR, NEPEAN"
      }
    ]
  },
  {
    "postal": "K2E0R7",
    "result": []
  },
  {
    "postal": "K2E5W1",
    "result": []
  },
  {
    "postal": "K2E0K4",
    "result": []
  },
  {
    "postal": "K2E7N9",
    "result": [
      {
        "electoralDistricts": [
          {
            "election": null,
            "id": 81,
            "name": "Ottawa West—Nepean"
          }
        ],
        "pollDivisionIds": [
          10140852
        ],
        "postalCode": "K2E7N9",
        "streetName": "HOMESTEAD",
        "streetDirectionId": null,
        "streetTypeId": "ST",
        "placeName": "NEPEAN",
        "streetNameDisplayText": "HOMESTEAD ST, NEPEAN"
      }
    ]
  },
  {
    "postal": "K2E1N0",
    "result": []
  },
  {
    "postal": "K2E6P3",
    "result": [
      {
        "electoralDistricts": [
          {
            "election": null,
            "id": 81,
            "name": "Ottawa West—Nepean"
          }
        ],
        "pollDivisionIds": [
          10140852
        ],
        "postalCode": "K2E6P3",
        "streetName": "SEYMOUR",
        "streetDirectionId": null,
        "streetTypeId": "AVE",
        "placeName": "NEPEAN",
        "streetNameDisplayText": "SEYMOUR AVE, NEPEAN"
      }
    ]
  },
  {
    "postal": "K2E5A1",
    "result": [
      {
        "electoralDistricts": [
          {
            "election": null,
            "id": 81,
            "name": "Ottawa West—Nepean"
          }
        ],
        "pollDivisionIds": [
          10140851
        ],
        "postalCode": "K2E5A1",
        "streetName": "FOREST PARK",
        "streetDirectionId": null,
        "streetTypeId": "AVE",
        "placeName": "NEPEAN",
        "streetNameDisplayText": "FOREST PARK AVE, NEPEAN"
      },
      {
        "electoralDistricts": [
          {
            "election": null,
            "id": 81,
            "name": "Ottawa West—Nepean"
          }
        ],
        "pollDivisionIds": [
          10140851
        ],
        "postalCode": "K2E5A1",
        "streetName": "FOREST PARK",
        "streetDirectionId": null,
        "streetTypeId": "AVE",
        "placeName": "OTTAWA",
        "streetNameDisplayText": "FOREST PARK AVE, OTTAWA"
      }
    ]
  },
  {
    "postal": "K2E9M9",
    "result": []
  },
  {
    "postal": "K2E7T6",
    "result": [
      {
        "electoralDistricts": [
          {
            "election": null,
            "id": 66,
            "name": "Nepean"
          }
        ],
        "pollDivisionIds": [
          10126663
        ],
        "postalCode": "K2E7T6",
        "streetName": "SUNDERLAND",
        "streetDirectionId": null,
        "streetTypeId": "ST",
        "placeName": "NEPEAN",
        "streetNameDisplayText": "SUNDERLAND ST, NEPEAN"
      }
    ]
  },
  {
    "postal": "K2E3X0",
    "result": []
  },
  {
    "postal": "K2E2T0",
    "result": []
  },
  {
    "postal": "K2E5X9",
    "result": [
      {
        "electoralDistricts": [
          {
            "election": null,
            "id": 66,
            "name": "Nepean"
          }
        ],
        "pollDivisionIds": [
          10126663
        ],
        "postalCode": "K2E5X9",
        "streetName": "PROMENADE",
        "streetDirectionId": null,
        "streetTypeId": "AVE",
        "placeName": "NEPEAN",
        "streetNameDisplayText": "PROMENADE AVE, NEPEAN"
      }
    ]
  },
  {
    "postal": "K2E2R3",
    "result": []
  },
  {
    "postal": "K2E5N2",
    "result": [
      {
        "electoralDistricts": [
          {
            "election": null,
            "id": 81,
            "name": "Ottawa West—Nepean"
          }
        ],
        "pollDivisionIds": [
          10140848
        ],
        "postalCode": "K2E5N2",
        "streetName": "CHARKAY",
        "streetDirectionId": null,
        "streetTypeId": "ST",
        "placeName": "NEPEAN",
        "streetNameDisplayText": "CHARKAY ST, NEPEAN"
      }
    ]
  },
  {
    "postal": "K2E4Y7",
    "result": []
  },
  {
    "postal": "K2E7M0",
    "result": []
  },
  {
    "postal": "K2E8P3",
    "result": []
  },
  {
    "postal": "K2E3N3",
    "result": []
  },
  {
    "postal": "K2E7S3",
    "result": [
      {
        "electoralDistricts": [
          {
            "election": null,
            "id": 66,
            "name": "Nepean"
          }
        ],
        "pollDivisionIds": [
          10126663
        ],
        "postalCode": "K2E7S3",
        "streetName": "GIFFORD",
        "streetDirectionId": null,
        "streetTypeId": "ST",
        "placeName": "NEPEAN",
        "streetNameDisplayText": "GIFFORD ST, NEPEAN"
      }
    ]
  },
  {
    "postal": "K2E3V9",
    "result": []
  },
  {
    "postal": "K2E9N7",
    "result": []
  },
  {
    "postal": "K2E0G4",
    "result": []
  },
  {
    "postal": "K2E2E2",
    "result": []
  },
  {
    "postal": "K2E7W8",
    "result": []
  },
  {
    "postal": "K2E7M5",
    "result": [
      {
        "electoralDistricts": [
          {
            "election": null,
            "id": 81,
            "name": "Ottawa West—Nepean"
          }
        ],
        "pollDivisionIds": [
          10140886
        ],
        "postalCode": "K2E7M5",
        "streetName": "VIEWMOUNT",
        "streetDirectionId": null,
        "streetTypeId": "DR",
        "placeName": "NEPEAN",
        "streetNameDisplayText": "VIEWMOUNT DR, NEPEAN"
      }
    ]
  },
  {
    "postal": "K2E5W8",
    "result": [
      {
        "electoralDistricts": [
          {
            "election": null,
            "id": 66,
            "name": "Nepean"
          }
        ],
        "pollDivisionIds": [
          10126663
        ],
        "postalCode": "K2E5W8",
        "streetName": "BRISBANE",
        "streetDirectionId": null,
        "streetTypeId": "RD",
        "placeName": "NEPEAN",
        "streetNameDisplayText": "BRISBANE RD, NEPEAN"
      }
    ]
  },
  {
    "postal": "K2E5E5",
    "result": [
      {
        "electoralDistricts": [
          {
            "election": null,
            "id": 81,
            "name": "Ottawa West—Nepean"
          }
        ],
        "pollDivisionIds": [
          10140850
        ],
        "postalCode": "K2E5E5",
        "streetName": "TWIN",
        "streetDirectionId": null,
        "streetTypeId": "TERR",
        "placeName": "NEPEAN",
        "streetNameDisplayText": "TWIN TERR, NEPEAN"
      }
    ]
  },
  {
    "postal": "K2E1P9",
    "result": []
  },
  {
    "postal": "K2E8V8",
    "result": []
  },
  {
    "postal": "K2E9G8",
    "result": []
  },
  {
    "postal": "K2E8H9",
    "result": []
  },
  {
    "postal": "K2E1Z1",
    "result": []
  },
  {
    "postal": "K2E8M3",
    "result": []
  },
  {
    "postal": "K2E5H6",
    "result": [
      {
        "electoralDistricts": [
          {
            "election": null,
            "id": 81,
            "name": "Ottawa West—Nepean"
          }
        ],
        "pollDivisionIds": [
          10140850
        ],
        "postalCode": "K2E5H6",
        "streetName": "FARLANE",
        "streetDirectionId": null,
        "streetTypeId": "BLVD",
        "placeName": "NEPEAN",
        "streetNameDisplayText": "FARLANE BLVD, NEPEAN"
      }
    ]
  },
  {
    "postal": "K2E7W7",
    "result": []
  },
  {
    "postal": "K2E4L0",
    "result": []
  },
  {
    "postal": "K2E2N1",
    "result": []
  },
  {
    "postal": "K2E2H4",
    "result": []
  },
  {
    "postal": "K2E5C8",
    "result": [
      {
        "electoralDistricts": [
          {
            "election": null,
            "id": 81,
            "name": "Ottawa West—Nepean"
          }
        ],
        "pollDivisionIds": [
          10140851
        ],
        "postalCode": "K2E5C8",
        "streetName": "GOODWIN",
        "streetDirectionId": null,
        "streetTypeId": "AVE",
        "placeName": "NEPEAN",
        "streetNameDisplayText": "GOODWIN AVE, NEPEAN"
      }
    ]
  },
  {
    "postal": "K2E8B0",
    "result": []
  },
  {
    "postal": "K2E1T4",
    "result": []
  },
  {
    "postal": "K2E7N7",
    "result": [
      {
        "electoralDistricts": [
          {
            "election": null,
            "id": 81,
            "name": "Ottawa West—Nepean"
          }
        ],
        "pollDivisionIds": [
          10140852
        ],
        "postalCode": "K2E7N7",
        "streetName": "FARM GATE",
        "streetDirectionId": null,
        "streetTypeId": "CRES",
        "placeName": "NEPEAN",
        "streetNameDisplayText": "FARM GATE CRES, NEPEAN"
      }
    ]
  },
  {
    "postal": "K2E4L3",
    "result": []
  },
  {
    "postal": "K2E2N2",
    "result": []
  },
  {
    "postal": "K2E4N8",
    "result": []
  },
  {
    "postal": "K2E3M5",
    "result": []
  },
  {
    "postal": "K2E6H7",
    "result": [
      {
        "electoralDistricts": [
          {
            "election": null,
            "id": 81,
            "name": "Ottawa West—Nepean"
          }
        ],
        "pollDivisionIds": [
          10140847
        ],
        "postalCode": "K2E6H7",
        "streetName": "APACHE",
        "streetDirectionId": null,
        "streetTypeId": "CRES",
        "placeName": "NEPEAN",
        "streetNameDisplayText": "APACHE CRES, NEPEAN"
      }
    ]
  },
  {
    "postal": "K2E8Y8",
    "result": []
  },
  {
    "postal": "K2E5R9",
    "result": [
      {
        "electoralDistricts": [
          {
            "election": null,
            "id": 81,
            "name": "Ottawa West—Nepean"
          }
        ],
        "pollDivisionIds": [
          10140849
        ],
        "postalCode": "K2E5R9",
        "streetName": "BISCAYNE",
        "streetDirectionId": null,
        "streetTypeId": "CRES",
        "placeName": "NEPEAN",
        "streetNameDisplayText": "BISCAYNE CRES, NEPEAN"
      }
    ]
  },
  {
    "postal": "K2E8G3",
    "result": []
  },
  {
    "postal": "K2E4N7",
    "result": []
  },
  {
    "postal": "K2E0B9",
    "result": [
      {
        "electoralDistricts": [
          {
            "election": null,
            "id": 81,
            "name": "Ottawa West—Nepean"
          }
        ],
        "pollDivisionIds": [
          10140847
        ],
        "postalCode": "K2E0B9",
        "streetName": "MERIVALE",
        "streetDirectionId": null,
        "streetTypeId": "RD",
        "placeName": "NEPEAN",
        "streetNameDisplayText": "MERIVALE RD, NEPEAN"
      }
    ]
  },
  {
    "postal": "K2E9K7",
    "result": []
  },
  {
    "postal": "K2E9K9",
    "result": []
  },
  {
    "postal": "K2E3Z2",
    "result": []
  },
  {
    "postal": "K2E6W7",
    "result": [
      {
        "electoralDistricts": [
          {
            "election": null,
            "id": 66,
            "name": "Nepean"
          }
        ],
        "pollDivisionIds": [
          10126663
        ],
        "postalCode": "K2E6W7",
        "streetName": "DEERLANE",
        "streetDirectionId": null,
        "streetTypeId": "AVE",
        "placeName": "NEPEAN",
        "streetNameDisplayText": "DEERLANE AVE, NEPEAN"
      }
    ]
  },
  {
    "postal": "K2E0P1",
    "result": []
  },
  {
    "postal": "K2E3A0",
    "result": []
  },
  {
    "postal": "K2E8L9",
    "result": []
  },
  {
    "postal": "K2E6X0",
    "result": []
  },
  {
    "postal": "K2E3E9",
    "result": []
  },
  {
    "postal": "K2E0S5",
    "result": []
  },
  {
    "postal": "K2E1A2",
    "result": [
      {
        "electoralDistricts": [
          {
            "election": null,
            "id": 81,
            "name": "Ottawa West—Nepean"
          }
        ],
        "pollDivisionIds": [
          10140853
        ],
        "postalCode": "K2E1A2",
        "streetName": "GURDWARA",
        "streetDirectionId": null,
        "streetTypeId": "RD",
        "placeName": "NEPEAN",
        "streetNameDisplayText": "GURDWARA RD, NEPEAN"
      }
    ]
  },
  {
    "postal": "K2E5V8",
    "result": [
      {
        "electoralDistricts": [
          {
            "election": null,
            "id": 81,
            "name": "Ottawa West—Nepean"
          }
        ],
        "pollDivisionIds": [
          10140849
        ],
        "postalCode": "K2E5V8",
        "streetName": "MCMURDO",
        "streetDirectionId": null,
        "streetTypeId": "CRT",
        "placeName": "NEPEAN",
        "streetNameDisplayText": "MCMURDO CRT, NEPEAN"
      }
    ]
  },
  {
    "postal": "K2E8C5",
    "result": []
  },
  {
    "postal": "K2E6N0",
    "result": []
  },
  {
    "postal": "K2E9E6",
    "result": []
  },
  {
    "postal": "K2E5J7",
    "result": [
      {
        "electoralDistricts": [
          {
            "election": null,
            "id": 81,
            "name": "Ottawa West—Nepean"
          }
        ],
        "pollDivisionIds": [
          10140847
        ],
        "postalCode": "K2E5J7",
        "streetName": "BUFFALO",
        "streetDirectionId": null,
        "streetTypeId": "CIR",
        "placeName": "NEPEAN",
        "streetNameDisplayText": "BUFFALO CIR, NEPEAN"
      }
    ]
  },
  {
    "postal": "K2E2R2",
    "result": []
  },
  {
    "postal": "K2E0P5",
    "result": []
  },
  {
    "postal": "K2E5A7",
    "result": [
      {
        "electoralDistricts": [
          {
            "election": null,
            "id": 81,
            "name": "Ottawa West—Nepean"
          }
        ],
        "pollDivisionIds": [
          10140851
        ],
        "postalCode": "K2E5A7",
        "streetName": "NORMANDY",
        "streetDirectionId": null,
        "streetTypeId": "CRES",
        "placeName": "NEPEAN",
        "streetNameDisplayText": "NORMANDY CRES, NEPEAN"
      }
    ]
  },
  {
    "postal": "K2E1G1",
    "result": []
  },
  {
    "postal": "K2E9R6",
    "result": []
  },
  {
    "postal": "K2E4Z9",
    "result": []
  },
  {
    "postal": "K2E1V5",
    "result": []
  },
  {
    "postal": "K2E9Y5",
    "result": []
  },
  {
    "postal": "K2E1P2",
    "result": []
  },
  {
    "postal": "K2E5X0",
    "result": []
  },
  {
    "postal": "K2E7B8",
    "result": [
      {
        "electoralDistricts": [
          {
            "election": null,
            "id": 66,
            "name": "Nepean"
          }
        ],
        "pollDivisionIds": [
          10126663
        ],
        "postalCode": "K2E7B8",
        "streetName": "AMBERWOOD",
        "streetDirectionId": null,
        "streetTypeId": "CRES",
        "placeName": "NEPEAN",
        "streetNameDisplayText": "AMBERWOOD CRES, NEPEAN"
      }
    ]
  },
  {
    "postal": "K2E0C6",
    "result": []
  },
  {
    "postal": "K2E6G1",
    "result": [
      {
        "electoralDistricts": [
          {
            "election": null,
            "id": 81,
            "name": "Ottawa West—Nepean"
          }
        ],
        "pollDivisionIds": [
          10140847
        ],
        "postalCode": "K2E6G1",
        "streetName": "COMMANCHE",
        "streetDirectionId": null,
        "streetTypeId": "DR",
        "placeName": "NEPEAN",
        "streetNameDisplayText": "COMMANCHE DR, NEPEAN"
      }
    ]
  },
  {
    "postal": "K2E3K3",
    "result": []
  },
  {
    "postal": "K2E9R0",
    "result": []
  },
  {
    "postal": "K2E4R8",
    "result": []
  },
  {
    "postal": "K2E5P9",
    "result": [
      {
        "electoralDistricts": [
          {
            "election": null,
            "id": 81,
            "name": "Ottawa West—Nepean"
          }
        ],
        "pollDivisionIds": [
          10140848
        ],
        "postalCode": "K2E5P9",
        "streetName": "WOODMOUNT",
        "streetDirectionId": null,
        "streetTypeId": "CRES",
        "placeName": "NEPEAN",
        "streetNameDisplayText": "WOODMOUNT CRES, NEPEAN"
      }
    ]
  },
  {
    "postal": "K2E8N4",
    "result": []
  },
  {
    "postal": "K2E8H4",
    "result": []
  },
  {
    "postal": "K2E4V1",
    "result": []
  },
  {
    "postal": "K2E1K5",
    "result": []
  },
  {
    "postal": "K2E1Z5",
    "result": []
  },
  {
    "postal": "K2E9L9",
    "result": []
  },
  {
    "postal": "K2E5L2",
    "result": [
      {
        "electoralDistricts": [
          {
            "election": null,
            "id": 81,
            "name": "Ottawa West—Nepean"
          }
        ],
        "pollDivisionIds": [
          10140848
        ],
        "postalCode": "K2E5L2",
        "streetName": "BELIVEAU",
        "streetDirectionId": null,
        "streetTypeId": "ST",
        "placeName": "NEPEAN",
        "streetNameDisplayText": "BELIVEAU ST, NEPEAN"
      }
    ]
  },
  {
    "postal": "K2E0M2",
    "result": []
  },
  {
    "postal": "K2E1K8",
    "result": []
  },
  {
    "postal": "K2E3M7",
    "result": []
  },
  {
    "postal": "K2E1B2",
    "result": [
      {
        "electoralDistricts": [
          {
            "election": null,
            "id": 66,
            "name": "Nepean"
          }
        ],
        "pollDivisionIds": [
          10126663
        ],
        "postalCode": "K2E1B2",
        "streetName": "WEST HUNT CLUB",
        "streetDirectionId": null,
        "streetTypeId": "RD",
        "placeName": "NEPEAN",
        "streetNameDisplayText": "WEST HUNT CLUB RD, NEPEAN"
      }
    ]
  },
  {
    "postal": "K2E0H9",
    "result": []
  },
  {
    "postal": "K2E8M4",
    "result": []
  },
  {
    "postal": "K2E2M5",
    "result": []
  },
  {
    "postal": "K2E0T9",
    "result": []
  },
  {
    "postal": "K2E3P1",
    "result": []
  },
  {
    "postal": "K2E1R6",
    "result": []
  },
  {
    "postal": "K2E9V5",
    "result": []
  },
  {
    "postal": "K2E9T0",
    "result": []
  },
  {
    "postal": "K2E0A9",
    "result": [
      {
        "electoralDistricts": [
          {
            "election": null,
            "id": 81,
            "name": "Ottawa West—Nepean"
          }
        ],
        "pollDivisionIds": [
          10140853
        ],
        "postalCode": "K2E0A9",
        "streetName": "CITIPLACE",
        "streetDirectionId": null,
        "streetTypeId": "DR",
        "placeName": "NEPEAN",
        "streetNameDisplayText": "CITIPLACE DR, NEPEAN"
      },
      {
        "electoralDistricts": [
          {
            "election": null,
            "id": 81,
            "name": "Ottawa West—Nepean"
          }
        ],
        "pollDivisionIds": [
          10140853
        ],
        "postalCode": "K2E0A9",
        "streetName": "QUITO",
        "streetDirectionId": null,
        "streetTypeId": "PVT",
        "placeName": "NEPEAN",
        "streetNameDisplayText": "QUITO PVT, NEPEAN"
      },
      {
        "electoralDistricts": [
          {
            "election": null,
            "id": 81,
            "name": "Ottawa West—Nepean"
          }
        ],
        "pollDivisionIds": [
          10140853
        ],
        "postalCode": "K2E0A9",
        "streetName": "STROGET",
        "streetDirectionId": null,
        "streetTypeId": "PVT",
        "placeName": "NEPEAN",
        "streetNameDisplayText": "STROGET PVT, NEPEAN"
      }
    ]
  },
  {
    "postal": "K2E1M3",
    "result": []
  },
  {
    "postal": "K2E1W8",
    "result": []
  },
  {
    "postal": "K2E9J1",
    "result": []
  },
  {
    "postal": "K2E8N5",
    "result": []
  },
  {
    "postal": "K2E5X1",
    "result": [
      {
        "electoralDistricts": [
          {
            "election": null,
            "id": 66,
            "name": "Nepean"
          }
        ],
        "pollDivisionIds": [
          10126663
        ],
        "postalCode": "K2E5X1",
        "streetName": "BRISBANE",
        "streetDirectionId": null,
        "streetTypeId": "RD",
        "placeName": "NEPEAN",
        "streetNameDisplayText": "BRISBANE RD, NEPEAN"
      }
    ]
  },
  {
    "postal": "K2E6S2",
    "result": [
      {
        "electoralDistricts": [
          {
            "election": null,
            "id": 81,
            "name": "Ottawa West—Nepean"
          }
        ],
        "pollDivisionIds": [
          10140851
        ],
        "postalCode": "K2E6S2",
        "streetName": "ARGUE",
        "streetDirectionId": null,
        "streetTypeId": "DR",
        "placeName": "NEPEAN",
        "streetNameDisplayText": "ARGUE DR, NEPEAN"
      }
    ]
  },
  {
    "postal": "K2E2A2",
    "result": []
  },
  {
    "postal": "K2E6A6",
    "result": [
      {
        "electoralDistricts": [
          {
            "election": null,
            "id": 81,
            "name": "Ottawa West—Nepean"
          }
        ],
        "pollDivisionIds": [
          10140847
        ],
        "postalCode": "K2E6A6",
        "streetName": "NORTHVIEW",
        "streetDirectionId": null,
        "streetTypeId": "RD",
        "placeName": "NEPEAN",
        "streetNameDisplayText": "NORTHVIEW RD, NEPEAN"
      }
    ]
  },
  {
    "postal": "K2E0S3",
    "result": []
  },
  {
    "postal": "K2E3E7",
    "result": []
  },
  {
    "postal": "K2E5R7",
    "result": [
      {
        "electoralDistricts": [
          {
            "election": null,
            "id": 81,
            "name": "Ottawa West—Nepean"
          }
        ],
        "pollDivisionIds": [
          10140849
        ],
        "postalCode": "K2E5R7",
        "streetName": "ASSINIBOINE",
        "streetDirectionId": null,
        "streetTypeId": "DR",
        "placeName": "NEPEAN",
        "streetNameDisplayText": "ASSINIBOINE DR, NEPEAN"
      }
    ]
  },
  {
    "postal": "K2E3R6",
    "result": []
  },
  {
    "postal": "K2E6K4",
    "result": [
      {
        "electoralDistricts": [
          {
            "election": null,
            "id": 81,
            "name": "Ottawa West—Nepean"
          }
        ],
        "pollDivisionIds": [
          10140847
        ],
        "postalCode": "K2E6K4",
        "streetName": "MEADOWLANDS",
        "streetDirectionId": "E",
        "streetTypeId": "DR",
        "placeName": "NEPEAN",
        "streetNameDisplayText": "MEADOWLANDS DR E, NEPEAN"
      }
    ]
  },
  {
    "postal": "K2E2W5",
    "result": []
  },
  {
    "postal": "K2E8W4",
    "result": []
  },
  {
    "postal": "K2E9C2",
    "result": []
  },
  {
    "postal": "K2E2C0",
    "result": []
  },
  {
    "postal": "K2E0E1",
    "result": []
  },
  {
    "postal": "K2E1K9",
    "result": []
  },
  {
    "postal": "K2E1G7",
    "result": []
  },
  {
    "postal": "K2E4E9",
    "result": []
  },
  {
    "postal": "K2E9P0",
    "result": []
  },
  {
    "postal": "K2E5H3",
    "result": [
      {
        "electoralDistricts": [
          {
            "election": null,
            "id": 81,
            "name": "Ottawa West—Nepean"
          }
        ],
        "pollDivisionIds": [
          10140850
        ],
        "postalCode": "K2E5H3",
        "streetName": "FARLANE",
        "streetDirectionId": null,
        "streetTypeId": "BLVD",
        "placeName": "NEPEAN",
        "streetNameDisplayText": "FARLANE BLVD, NEPEAN"
      }
    ]
  },
  {
    "postal": "K2E9X6",
    "result": []
  },
  {
    "postal": "K2E5N7",
    "result": [
      {
        "electoralDistricts": [
          {
            "election": null,
            "id": 81,
            "name": "Ottawa West—Nepean"
          }
        ],
        "pollDivisionIds": [
          10140849
        ],
        "postalCode": "K2E5N7",
        "streetName": "SAGINAW",
        "streetDirectionId": null,
        "streetTypeId": "CRES",
        "placeName": "NEPEAN",
        "streetNameDisplayText": "SAGINAW CRES, NEPEAN"
      }
    ]
  },
  {
    "postal": "K2E5A6",
    "result": [
      {
        "electoralDistricts": [
          {
            "election": null,
            "id": 81,
            "name": "Ottawa West—Nepean"
          }
        ],
        "pollDivisionIds": [
          10140851
        ],
        "postalCode": "K2E5A6",
        "streetName": "NORMANDY",
        "streetDirectionId": null,
        "streetTypeId": "CRES",
        "placeName": "NEPEAN",
        "streetNameDisplayText": "NORMANDY CRES, NEPEAN"
      }
    ]
  },
  {
    "postal": "K2E4M0",
    "result": []
  },
  {
    "postal": "K2E3V6",
    "result": []
  },
  {
    "postal": "K2E1L7",
    "result": []
  },
  {
    "postal": "K2E2P9",
    "result": []
  },
  {
    "postal": "K2E5T4",
    "result": [
      {
        "electoralDistricts": [
          {
            "election": null,
            "id": 81,
            "name": "Ottawa West—Nepean"
          }
        ],
        "pollDivisionIds": [
          10140848
        ],
        "postalCode": "K2E5T4",
        "streetName": "CHESTERTON",
        "streetDirectionId": null,
        "streetTypeId": "DR",
        "placeName": "NEPEAN",
        "streetNameDisplayText": "CHESTERTON DR, NEPEAN"
      }
    ]
  },
  {
    "postal": "K2E5Z1",
    "result": [
      {
        "electoralDistricts": [
          {
            "election": null,
            "id": 81,
            "name": "Ottawa West—Nepean"
          }
        ],
        "pollDivisionIds": [
          10140850
        ],
        "postalCode": "K2E5Z1",
        "streetName": "KESLER",
        "streetDirectionId": null,
        "streetTypeId": "AVE",
        "placeName": "NEPEAN",
        "streetNameDisplayText": "KESLER AVE, NEPEAN"
      }
    ]
  },
  {
    "postal": "K2E2X0",
    "result": []
  },
  {
    "postal": "K2E6Z2",
    "result": [
      {
        "electoralDistricts": [
          {
            "election": null,
            "id": 66,
            "name": "Nepean"
          }
        ],
        "pollDivisionIds": [
          10126663
        ],
        "postalCode": "K2E6Z2",
        "streetName": "GREENSIDE",
        "streetDirectionId": null,
        "streetTypeId": "AVE",
        "placeName": "NEPEAN",
        "streetNameDisplayText": "GREENSIDE AVE, NEPEAN"
      }
    ]
  },
  {
    "postal": "K2E0E0",
    "result": []
  },
  {
    "postal": "K2E3Z5",
    "result": []
  },
  {
    "postal": "K2E8H3",
    "result": []
  },
  {
    "postal": "K2E7S6",
    "result": [
      {
        "electoralDistricts": [
          {
            "election": null,
            "id": 81,
            "name": "Ottawa West—Nepean"
          }
        ],
        "pollDivisionIds": [
          10140853
        ],
        "postalCode": "K2E7S6",
        "streetName": "CONCOURSE",
        "streetDirectionId": null,
        "streetTypeId": "GATE",
        "placeName": "NEPEAN",
        "streetNameDisplayText": "CONCOURSE GATE, NEPEAN"
      }
    ]
  },
  {
    "postal": "K2E4C1",
    "result": []
  },
  {
    "postal": "K2E3K2",
    "result": []
  },
  {
    "postal": "K2E1Y5",
    "result": []
  },
  {
    "postal": "K2E6P6",
    "result": [
      {
        "electoralDistricts": [
          {
            "election": null,
            "id": 81,
            "name": "Ottawa West—Nepean"
          }
        ],
        "pollDivisionIds": [
          10140852
        ],
        "postalCode": "K2E6P6",
        "streetName": "SEYMOUR",
        "streetDirectionId": null,
        "streetTypeId": "AVE",
        "placeName": "NEPEAN",
        "streetNameDisplayText": "SEYMOUR AVE, NEPEAN"
      }
    ]
  },
  {
    "postal": "K2E3N9",
    "result": []
  },
  {
    "postal": "K2E3W2",
    "result": []
  },
  {
    "postal": "K2E6H8",
    "result": [
      {
        "electoralDistricts": [
          {
            "election": null,
            "id": 81,
            "name": "Ottawa West—Nepean"
          }
        ],
        "pollDivisionIds": [
          10140847
        ],
        "postalCode": "K2E6H8",
        "streetName": "APACHE",
        "streetDirectionId": null,
        "streetTypeId": "CRES",
        "placeName": "NEPEAN",
        "streetNameDisplayText": "APACHE CRES, NEPEAN"
      }
    ]
  },
  {
    "postal": "K2E9T3",
    "result": []
  },
  {
    "postal": "K2E5L9",
    "result": [
      {
        "electoralDistricts": [
          {
            "election": null,
            "id": 81,
            "name": "Ottawa West—Nepean"
          }
        ],
        "pollDivisionIds": [
          10140847
        ],
        "postalCode": "K2E5L9",
        "streetName": "WARBONNET",
        "streetDirectionId": null,
        "streetTypeId": "DR",
        "placeName": "NEPEAN",
        "streetNameDisplayText": "WARBONNET DR, NEPEAN"
      }
    ]
  },
  {
    "postal": "K2E7X7",
    "result": [
      {
        "electoralDistricts": [
          {
            "election": null,
            "id": 66,
            "name": "Nepean"
          }
        ],
        "pollDivisionIds": [
          10126663
        ],
        "postalCode": "K2E7X7",
        "streetName": "AURIGA",
        "streetDirectionId": null,
        "streetTypeId": "DR",
        "placeName": "NEPEAN",
        "streetNameDisplayText": "AURIGA DR, NEPEAN"
      }
    ]
  },
  {
    "postal": "K2E3J5",
    "result": []
  },
  {
    "postal": "K2E4J5",
    "result": []
  },
  {
    "postal": "K2E6J2",
    "result": [
      {
        "electoralDistricts": [
          {
            "election": null,
            "id": 81,
            "name": "Ottawa West—Nepean"
          }
        ],
        "pollDivisionIds": [
          10140851
        ],
        "postalCode": "K2E6J2",
        "streetName": "MEADOWLANDS",
        "streetDirectionId": "E",
        "streetTypeId": "DR",
        "placeName": "NEPEAN",
        "streetNameDisplayText": "MEADOWLANDS DR E, NEPEAN"
      }
    ]
  },
  {
    "postal": "K2E5V6",
    "result": [
      {
        "electoralDistricts": [
          {
            "election": null,
            "id": 81,
            "name": "Ottawa West—Nepean"
          }
        ],
        "pollDivisionIds": [
          10140848
        ],
        "postalCode": "K2E5V6",
        "streetName": "KERRY",
        "streetDirectionId": null,
        "streetTypeId": "CRES",
        "placeName": "NEPEAN",
        "streetNameDisplayText": "KERRY CRES, NEPEAN"
      }
    ]
  },
  {
    "postal": "K2E3N2",
    "result": []
  },
  {
    "postal": "K2E3B1",
    "result": []
  },
  {
    "postal": "K2E8B5",
    "result": [
      {
        "electoralDistricts": [
          {
            "election": null,
            "id": 81,
            "name": "Ottawa West—Nepean"
          }
        ],
        "pollDivisionIds": [
          10140853
        ],
        "postalCode": "K2E8B5",
        "streetName": "GURDWARA",
        "streetDirectionId": null,
        "streetTypeId": "RD",
        "placeName": "NEPEAN",
        "streetNameDisplayText": "GURDWARA RD, NEPEAN"
      }
    ]
  },
  {
    "postal": "K2E0K1",
    "result": []
  },
  {
    "postal": "K2E7M7",
    "result": [
      {
        "electoralDistricts": [
          {
            "election": null,
            "id": 81,
            "name": "Ottawa West—Nepean"
          }
        ],
        "pollDivisionIds": [
          10140849
        ],
        "postalCode": "K2E7M7",
        "streetName": "COOLSPRING",
        "streetDirectionId": null,
        "streetTypeId": "CRES",
        "placeName": "NEPEAN",
        "streetNameDisplayText": "COOLSPRING CRES, NEPEAN"
      }
    ]
  },
  {
    "postal": "K2E2M2",
    "result": []
  },
  {
    "postal": "K2E9N3",
    "result": []
  },
  {
    "postal": "K2E4Y8",
    "result": []
  },
  {
    "postal": "K2E3V7",
    "result": []
  },
  {
    "postal": "K2E8Z1",
    "result": []
  },
  {
    "postal": "K2E7B3",
    "result": [
      {
        "electoralDistricts": [
          {
            "election": null,
            "id": 81,
            "name": "Ottawa West—Nepean"
          }
        ],
        "pollDivisionIds": [
          10140848
        ],
        "postalCode": "K2E7B3",
        "streetName": "CHESTERTON",
        "streetDirectionId": null,
        "streetTypeId": "DR",
        "placeName": "OTTAWA",
        "streetNameDisplayText": "CHESTERTON DR, OTTAWA"
      },
      {
        "electoralDistricts": [
          {
            "election": null,
            "id": 81,
            "name": "Ottawa West—Nepean"
          }
        ],
        "pollDivisionIds": [
          10140848
        ],
        "postalCode": "K2E7B3",
        "streetName": "MEADOWLANDS",
        "streetDirectionId": "E",
        "streetTypeId": "DR",
        "placeName": "NEPEAN",
        "streetNameDisplayText": "MEADOWLANDS DR E, NEPEAN"
      },
      {
        "electoralDistricts": [
          {
            "election": null,
            "id": 81,
            "name": "Ottawa West—Nepean"
          }
        ],
        "pollDivisionIds": [
          10140848
        ],
        "postalCode": "K2E7B3",
        "streetName": "MEADOWLANDS",
        "streetDirectionId": "E",
        "streetTypeId": "DR",
        "placeName": "OTTAWA",
        "streetNameDisplayText": "MEADOWLANDS DR E, OTTAWA"
      }
    ]
  },
  {
    "postal": "K2E3A8",
    "result": []
  },
  {
    "postal": "K2E7V5",
    "result": [
      {
        "electoralDistricts": [
          {
            "election": null,
            "id": 66,
            "name": "Nepean"
          }
        ],
        "pollDivisionIds": [
          10126663
        ],
        "postalCode": "K2E7V5",
        "streetName": "ANTARES",
        "streetDirectionId": null,
        "streetTypeId": "DR",
        "placeName": "NEPEAN",
        "streetNameDisplayText": "ANTARES DR, NEPEAN"
      }
    ]
  },
  {
    "postal": "K2E2T2",
    "result": []
  },
  {
    "postal": "K2E6L3",
    "result": [
      {
        "electoralDistricts": [
          {
            "election": null,
            "id": 81,
            "name": "Ottawa West—Nepean"
          }
        ],
        "pollDivisionIds": [
          10140851
        ],
        "postalCode": "K2E6L3",
        "streetName": "WIGAN",
        "streetDirectionId": null,
        "streetTypeId": "DR",
        "placeName": "NEPEAN",
        "streetNameDisplayText": "WIGAN DR, NEPEAN"
      }
    ]
  },
  {
    "postal": "K2E0L2",
    "result": []
  },
  {
    "postal": "K2E5Y8",
    "result": [
      {
        "electoralDistricts": [
          {
            "election": null,
            "id": 81,
            "name": "Ottawa West—Nepean"
          }
        ],
        "pollDivisionIds": [
          10140850
        ],
        "postalCode": "K2E5Y8",
        "streetName": "SUNNYCREST",
        "streetDirectionId": null,
        "streetTypeId": "DR",
        "placeName": "NEPEAN",
        "streetNameDisplayText": "SUNNYCREST DR, NEPEAN"
      }
    ]
  },
  {
    "postal": "K2E0B8",
    "result": [
      {
        "electoralDistricts": [
          {
            "election": null,
            "id": 66,
            "name": "Nepean"
          }
        ],
        "pollDivisionIds": [
          10126663
        ],
        "postalCode": "K2E0B8",
        "streetName": "WEST HUNT CLUB",
        "streetDirectionId": null,
        "streetTypeId": "RD",
        "placeName": "NEPEAN",
        "streetNameDisplayText": "WEST HUNT CLUB RD, NEPEAN"
      }
    ]
  },
  {
    "postal": "K2E6R5",
    "result": [
      {
        "electoralDistricts": [
          {
            "election": null,
            "id": 81,
            "name": "Ottawa West—Nepean"
          }
        ],
        "pollDivisionIds": [
          10140852
        ],
        "postalCode": "K2E6R5",
        "streetName": "FALAISE",
        "streetDirectionId": null,
        "streetTypeId": "RD",
        "placeName": "NEPEAN",
        "streetNameDisplayText": "FALAISE RD, NEPEAN"
      }
    ]
  },
  {
    "postal": "K2E8W6",
    "result": []
  },
  {
    "postal": "K2E8G6",
    "result": []
  },
  {
    "postal": "K2E6X3",
    "result": [
      {
        "electoralDistricts": [
          {
            "election": null,
            "id": 66,
            "name": "Nepean"
          }
        ],
        "pollDivisionIds": [
          10126663
        ],
        "postalCode": "K2E6X3",
        "streetName": "MAYO",
        "streetDirectionId": null,
        "streetTypeId": "AVE",
        "placeName": "NEPEAN",
        "streetNameDisplayText": "MAYO AVE, NEPEAN"
      }
    ]
  },
  {
    "postal": "K2E7R7",
    "result": [
      {
        "electoralDistricts": [
          {
            "election": null,
            "id": 81,
            "name": "Ottawa West—Nepean"
          }
        ],
        "pollDivisionIds": [
          10140849
        ],
        "postalCode": "K2E7R7",
        "streetName": "TROPICANA",
        "streetDirectionId": null,
        "streetTypeId": "PVT",
        "placeName": "NEPEAN",
        "streetNameDisplayText": "TROPICANA PVT, NEPEAN"
      }
    ]
  },
  {
    "postal": "K2E4B6",
    "result": []
  },
  {
    "postal": "K2E3P9",
    "result": []
  },
  {
    "postal": "K2E2T3",
    "result": []
  },
  {
    "postal": "K2E1M4",
    "result": []
  },
  {
    "postal": "K2E0H1",
    "result": []
  },
  {
    "postal": "K2E9W3",
    "result": []
  },
  {
    "postal": "K2E6P1",
    "result": [
      {
        "electoralDistricts": [
          {
            "election": null,
            "id": 81,
            "name": "Ottawa West—Nepean"
          }
        ],
        "pollDivisionIds": [
          10140851
        ],
        "postalCode": "K2E6P1",
        "streetName": "INVERNESS",
        "streetDirectionId": null,
        "streetTypeId": "AVE",
        "placeName": "NEPEAN",
        "streetNameDisplayText": "INVERNESS AVE, NEPEAN"
      }
    ]
  },
  {
    "postal": "K2E7G2",
    "result": [
      {
        "electoralDistricts": [
          {
            "election": null,
            "id": 66,
            "name": "Nepean"
          }
        ],
        "pollDivisionIds": [
          10126663
        ],
        "postalCode": "K2E7G2",
        "streetName": "AMBERWOOD",
        "streetDirectionId": null,
        "streetTypeId": "CRES",
        "placeName": "NEPEAN",
        "streetNameDisplayText": "AMBERWOOD CRES, NEPEAN"
      }
    ]
  },
  {
    "postal": "K2E4J9",
    "result": []
  },
  {
    "postal": "K2E9E4",
    "result": []
  },
  {
    "postal": "K2E8H0",
    "result": []
  },
  {
    "postal": "K2E4M7",
    "result": []
  },
  {
    "postal": "K2E2G9",
    "result": []
  },
  {
    "postal": "K2E8T2",
    "result": []
  },
  {
    "postal": "K2E7G7",
    "result": [
      {
        "electoralDistricts": [
          {
            "election": null,
            "id": 66,
            "name": "Nepean"
          }
        ],
        "pollDivisionIds": [
          10126663
        ],
        "postalCode": "K2E7G7",
        "streetName": "FIFESHIRE",
        "streetDirectionId": null,
        "streetTypeId": "CRES",
        "placeName": "NEPEAN",
        "streetNameDisplayText": "FIFESHIRE CRES, NEPEAN"
      }
    ]
  },
  {
    "postal": "K2E4Z3",
    "result": []
  },
  {
    "postal": "K2E5B3",
    "result": [
      {
        "electoralDistricts": [
          {
            "election": null,
            "id": 81,
            "name": "Ottawa West—Nepean"
          }
        ],
        "pollDivisionIds": [
          10140851
        ],
        "postalCode": "K2E5B3",
        "streetName": "NESS",
        "streetDirectionId": null,
        "streetTypeId": "ST",
        "placeName": "NEPEAN",
        "streetNameDisplayText": "NESS ST, NEPEAN"
      }
    ]
  },
  {
    "postal": "K2E1S7",
    "result": []
  },
  {
    "postal": "K2E2N7",
    "result": []
  },
  {
    "postal": "K2E0H8",
    "result": []
  },
  {
    "postal": "K2E7Z4",
    "result": [
      {
        "electoralDistricts": [
          {
            "election": null,
            "id": 66,
            "name": "Nepean"
          }
        ],
        "pollDivisionIds": [
          10126663
        ],
        "postalCode": "K2E7Z4",
        "streetName": "CORVUS",
        "streetDirectionId": null,
        "streetTypeId": "CRT",
        "placeName": "NEPEAN",
        "streetNameDisplayText": "CORVUS CRT, NEPEAN"
      }
    ]
  },
  {
    "postal": "K2E7B1",
    "result": [
      {
        "electoralDistricts": [
          {
            "election": null,
            "id": 66,
            "name": "Nepean"
          }
        ],
        "pollDivisionIds": [
          10126663
        ],
        "postalCode": "K2E7B1",
        "streetName": "WATERBEND",
        "streetDirectionId": null,
        "streetTypeId": "LANE",
        "placeName": "NEPEAN",
        "streetNameDisplayText": "WATERBEND LANE, NEPEAN"
      }
    ]
  },
  {
    "postal": "K2E7P8",
    "result": [
      {
        "electoralDistricts": [
          {
            "election": null,
            "id": 81,
            "name": "Ottawa West—Nepean"
          }
        ],
        "pollDivisionIds": [
          10140852
        ],
        "postalCode": "K2E7P8",
        "streetName": "FOUR SEASONS",
        "streetDirectionId": null,
        "streetTypeId": "DR",
        "placeName": "NEPEAN",
        "streetNameDisplayText": "FOUR SEASONS DR, NEPEAN"
      }
    ]
  },
  {
    "postal": "K2E7N0",
    "result": []
  },
  {
    "postal": "K2E3Y5",
    "result": []
  },
  {
    "postal": "K2E6K1",
    "result": [
      {
        "electoralDistricts": [
          {
            "election": null,
            "id": 81,
            "name": "Ottawa West—Nepean"
          }
        ],
        "pollDivisionIds": [
          10140851
        ],
        "postalCode": "K2E6K1",
        "streetName": "MEADOWLANDS",
        "streetDirectionId": "E",
        "streetTypeId": "DR",
        "placeName": "NEPEAN",
        "streetNameDisplayText": "MEADOWLANDS DR E, NEPEAN"
      }
    ]
  },
  {
    "postal": "K2E9X5",
    "result": []
  },
  {
    "postal": "K2E7S5",
    "result": [
      {
        "electoralDistricts": [
          {
            "election": null,
            "id": 81,
            "name": "Ottawa West—Nepean"
          }
        ],
        "pollDivisionIds": [
          10140851
        ],
        "postalCode": "K2E7S5",
        "streetName": "BENSON",
        "streetDirectionId": null,
        "streetTypeId": "ST",
        "placeName": "NEPEAN",
        "streetNameDisplayText": "BENSON ST, NEPEAN"
      }
    ]
  },
  {
    "postal": "K2E0A4",
    "result": [
      {
        "electoralDistricts": [
          {
            "election": null,
            "id": 81,
            "name": "Ottawa West—Nepean"
          }
        ],
        "pollDivisionIds": [
          10140847
        ],
        "postalCode": "K2E0A4",
        "streetName": "ENCORE",
        "streetDirectionId": null,
        "streetTypeId": "PVT",
        "placeName": "NEPEAN",
        "streetNameDisplayText": "ENCORE PVT, NEPEAN"
      }
    ]
  },
  {
    "postal": "K2E4T5",
    "result": []
  },
  {
    "postal": "K2E5K1",
    "result": [
      {
        "electoralDistricts": [
          {
            "election": null,
            "id": 81,
            "name": "Ottawa West—Nepean"
          }
        ],
        "pollDivisionIds": [
          10140850
        ],
        "postalCode": "K2E5K1",
        "streetName": "PARTHIA",
        "streetDirectionId": null,
        "streetTypeId": "AVE",
        "placeName": "NEPEAN",
        "streetNameDisplayText": "PARTHIA AVE, NEPEAN"
      }
    ]
  },
  {
    "postal": "K2E0Z9",
    "result": []
  },
  {
    "postal": "K2E7T2",
    "result": []
  },
  {
    "postal": "K2E1L5",
    "result": []
  },
  {
    "postal": "K2E3N5",
    "result": []
  },
  {
    "postal": "K2E6H4",
    "result": [
      {
        "electoralDistricts": [
          {
            "election": null,
            "id": 81,
            "name": "Ottawa West—Nepean"
          }
        ],
        "pollDivisionIds": [
          10140850
        ],
        "postalCode": "K2E6H4",
        "streetName": "DEER PARK",
        "streetDirectionId": null,
        "streetTypeId": "RD",
        "placeName": "NEPEAN",
        "streetNameDisplayText": "DEER PARK RD, NEPEAN"
      }
    ]
  },
  {
    "postal": "K2E5A5",
    "result": [
      {
        "electoralDistricts": [
          {
            "election": null,
            "id": 81,
            "name": "Ottawa West—Nepean"
          }
        ],
        "pollDivisionIds": [
          10140851
        ],
        "postalCode": "K2E5A5",
        "streetName": "NORMANDY",
        "streetDirectionId": null,
        "streetTypeId": "CRES",
        "placeName": "NEPEAN",
        "streetNameDisplayText": "NORMANDY CRES, NEPEAN"
      }
    ]
  },
  {
    "postal": "K2E3R9",
    "result": []
  },
  {
    "postal": "K2E7L8",
    "result": [
      {
        "electoralDistricts": [
          {
            "election": null,
            "id": 66,
            "name": "Nepean"
          }
        ],
        "pollDivisionIds": [
          10126663
        ],
        "postalCode": "K2E7L8",
        "streetName": "AMBERWOOD",
        "streetDirectionId": null,
        "streetTypeId": "CRES",
        "placeName": "NEPEAN",
        "streetNameDisplayText": "AMBERWOOD CRES, NEPEAN"
      }
    ]
  },
  {
    "postal": "K2E6T6",
    "result": [
      {
        "electoralDistricts": [
          {
            "election": null,
            "id": 66,
            "name": "Nepean"
          }
        ],
        "pollDivisionIds": [
          10126663
        ],
        "postalCode": "K2E6T6",
        "streetName": "JAMIE",
        "streetDirectionId": null,
        "streetTypeId": "AVE",
        "placeName": "NEPEAN",
        "streetNameDisplayText": "JAMIE AVE, NEPEAN"
      }
    ]
  },
  {
    "postal": "K2E7Y7",
    "result": [
      {
        "electoralDistricts": [
          {
            "election": null,
            "id": 66,
            "name": "Nepean"
          }
        ],
        "pollDivisionIds": [
          10126663
        ],
        "postalCode": "K2E7Y7",
        "streetName": "ANTARES",
        "streetDirectionId": null,
        "streetTypeId": "DR",
        "placeName": "NEPEAN",
        "streetNameDisplayText": "ANTARES DR, NEPEAN"
      }
    ]
  },
  {
    "postal": "K2E3M8",
    "result": []
  },
  {
    "postal": "K2E2E0",
    "result": []
  },
  {
    "postal": "K2E4B5",
    "result": []
  },
  {
    "postal": "K2E1J3",
    "result": []
  },
  {
    "postal": "K2E5S6",
    "result": [
      {
        "electoralDistricts": [
          {
            "election": null,
            "id": 81,
            "name": "Ottawa West—Nepean"
          }
        ],
        "pollDivisionIds": [
          10140848
        ],
        "postalCode": "K2E5S6",
        "streetName": "GILBEY",
        "streetDirectionId": null,
        "streetTypeId": "DR",
        "placeName": "NEPEAN",
        "streetNameDisplayText": "GILBEY DR, NEPEAN"
      }
    ]
  },
  {
    "postal": "K2E8P7",
    "result": []
  },
  {
    "postal": "K2E7S7",
    "result": [
      {
        "electoralDistricts": [
          {
            "election": null,
            "id": 81,
            "name": "Ottawa West—Nepean"
          }
        ],
        "pollDivisionIds": [
          10140849
        ],
        "postalCode": "K2E7S7",
        "streetName": "EUROPA",
        "streetDirectionId": null,
        "streetTypeId": "PVT",
        "placeName": "NEPEAN",
        "streetNameDisplayText": "EUROPA PVT, NEPEAN"
      }
    ]
  },
  {
    "postal": "K2E4C2",
    "result": []
  },
  {
    "postal": "K2E5Y0",
    "result": []
  },
  {
    "postal": "K2E2V7",
    "result": []
  },
  {
    "postal": "K2E8P5",
    "result": []
  },
  {
    "postal": "K2E5P5",
    "result": [
      {
        "electoralDistricts": [
          {
            "election": null,
            "id": 81,
            "name": "Ottawa West—Nepean"
          }
        ],
        "pollDivisionIds": [
          10140847
        ],
        "postalCode": "K2E5P5",
        "streetName": "LEAVER",
        "streetDirectionId": null,
        "streetTypeId": "AVE",
        "placeName": "NEPEAN",
        "streetNameDisplayText": "LEAVER AVE, NEPEAN"
      }
    ]
  },
  {
    "postal": "K2E5Z0",
    "result": []
  },
  {
    "postal": "K2E9B0",
    "result": []
  },
  {
    "postal": "K2E1L0",
    "result": []
  },
  {
    "postal": "K2E0B5",
    "result": []
  },
  {
    "postal": "K2E3L2",
    "result": []
  },
  {
    "postal": "K2E3B7",
    "result": []
  },
  {
    "postal": "K2E8L1",
    "result": []
  },
  {
    "postal": "K2E5M4",
    "result": [
      {
        "electoralDistricts": [
          {
            "election": null,
            "id": 81,
            "name": "Ottawa West—Nepean"
          }
        ],
        "pollDivisionIds": [
          10140852
        ],
        "postalCode": "K2E5M4",
        "streetName": "WELKIN",
        "streetDirectionId": null,
        "streetTypeId": "CRES",
        "placeName": "NEPEAN",
        "streetNameDisplayText": "WELKIN CRES, NEPEAN"
      }
    ]
  },
  {
    "postal": "K2E4G9",
    "result": []
  },
  {
    "postal": "K2E0P0",
    "result": []
  },
  {
    "postal": "K2E8G2",
    "result": []
  },
  {
    "postal": "K2E1V9",
    "result": []
  },
  {
    "postal": "K2E8N8",
    "result": []
  },
  {
    "postal": "K2E6S8",
    "result": [
      {
        "electoralDistricts": [
          {
            "election": null,
            "id": 81,
            "name": "Ottawa West—Nepean"
          }
        ],
        "pollDivisionIds": [
          10140849,
          10140848
        ],
        "postalCode": "K2E6S8",
        "streetName": "BOWHILL",
        "streetDirectionId": null,
        "streetTypeId": "AVE",
        "placeName": "NEPEAN",
        "streetNameDisplayText": "BOWHILL AVE, NEPEAN"
      },
      {
        "electoralDistricts": [
          {
            "election": null,
            "id": 81,
            "name": "Ottawa West—Nepean"
          }
        ],
        "pollDivisionIds": [
          10140848
        ],
        "postalCode": "K2E6S8",
        "streetName": "BOWHILL",
        "streetDirectionId": null,
        "streetTypeId": "AVE",
        "placeName": "OTTAWA",
        "streetNameDisplayText": "BOWHILL AVE, OTTAWA"
      }
    ]
  },
  {
    "postal": "K2E8H2",
    "result": []
  },
  {
    "postal": "K2E5R8",
    "result": [
      {
        "electoralDistricts": [
          {
            "election": null,
            "id": 81,
            "name": "Ottawa West—Nepean"
          }
        ],
        "pollDivisionIds": [
          10140849
        ],
        "postalCode": "K2E5R8",
        "streetName": "ASSINIBOINE",
        "streetDirectionId": null,
        "streetTypeId": "DR",
        "placeName": "NEPEAN",
        "streetNameDisplayText": "ASSINIBOINE DR, NEPEAN"
      }
    ]
  },
  {
    "postal": "K2E5L4",
    "result": [
      {
        "electoralDistricts": [
          {
            "election": null,
            "id": 81,
            "name": "Ottawa West—Nepean"
          }
        ],
        "pollDivisionIds": [
          10140848
        ],
        "postalCode": "K2E5L4",
        "streetName": "BELIVEAU",
        "streetDirectionId": null,
        "streetTypeId": "ST",
        "placeName": "NEPEAN",
        "streetNameDisplayText": "BELIVEAU ST, NEPEAN"
      }
    ]
  },
  {
    "postal": "K2E9E1",
    "result": []
  },
  {
    "postal": "K2E1C4",
    "result": [
      {
        "electoralDistricts": [
          {
            "election": null,
            "id": 66,
            "name": "Nepean"
          }
        ],
        "pollDivisionIds": [
          10126663
        ],
        "postalCode": "K2E1C4",
        "streetName": "AURIGA",
        "streetDirectionId": null,
        "streetTypeId": "DR",
        "placeName": "NEPEAN",
        "streetNameDisplayText": "AURIGA DR, NEPEAN"
      }
    ]
  },
  {
    "postal": "K2E8W5",
    "result": []
  },
  {
    "postal": "K2E1Y4",
    "result": []
  },
  {
    "postal": "K2E1C0",
    "result": []
  },
  {
    "postal": "K2E2J2",
    "result": []
  },
  {
    "postal": "K2E2J0",
    "result": []
  },
  {
    "postal": "K2E7A3",
    "result": []
  },
  {
    "postal": "K2E8M1",
    "result": []
  },
  {
    "postal": "K2E7T9",
    "result": [
      {
        "electoralDistricts": [
          {
            "election": null,
            "id": 66,
            "name": "Nepean"
          }
        ],
        "pollDivisionIds": [
          10126663
        ],
        "postalCode": "K2E7T9",
        "streetName": "AURIGA",
        "streetDirectionId": null,
        "streetTypeId": "DR",
        "placeName": "NEPEAN",
        "streetNameDisplayText": "AURIGA DR, NEPEAN"
      }
    ]
  },
  {
    "postal": "K2E6C0",
    "result": []
  },
  {
    "postal": "K2E7X1",
    "result": [
      {
        "electoralDistricts": [
          {
            "election": null,
            "id": 66,
            "name": "Nepean"
          }
        ],
        "pollDivisionIds": [
          10126663
        ],
        "postalCode": "K2E7X1",
        "streetName": "CAPELLA",
        "streetDirectionId": null,
        "streetTypeId": "CRT",
        "placeName": "NEPEAN",
        "streetNameDisplayText": "CAPELLA CRT, NEPEAN"
      }
    ]
  },
  {
    "postal": "K2E0G1",
    "result": []
  },
  {
    "postal": "K2E4X2",
    "result": []
  },
  {
    "postal": "K2E0N6",
    "result": []
  },
  {
    "postal": "K2E8E3",
    "result": []
  },
  {
    "postal": "K2E5S8",
    "result": [
      {
        "electoralDistricts": [
          {
            "election": null,
            "id": 81,
            "name": "Ottawa West—Nepean"
          }
        ],
        "pollDivisionIds": [
          10140848
        ],
        "postalCode": "K2E5S8",
        "streetName": "BIRCHWOOD",
        "streetDirectionId": null,
        "streetTypeId": "DR",
        "placeName": "NEPEAN",
        "streetNameDisplayText": "BIRCHWOOD DR, NEPEAN"
      }
    ]
  },
  {
    "postal": "K2E0R0",
    "result": []
  },
  {
    "postal": "K2E6J6",
    "result": [
      {
        "electoralDistricts": [
          {
            "election": null,
            "id": 81,
            "name": "Ottawa West—Nepean"
          }
        ],
        "pollDivisionIds": [
          10140851
        ],
        "postalCode": "K2E6J6",
        "streetName": "MEADOWLANDS",
        "streetDirectionId": "E",
        "streetTypeId": "DR",
        "placeName": "NEPEAN",
        "streetNameDisplayText": "MEADOWLANDS DR E, NEPEAN"
      }
    ]
  },
  {
    "postal": "K2E4B4",
    "result": []
  },
  {
    "postal": "K2E7E3",
    "result": [
      {
        "electoralDistricts": [
          {
            "election": null,
            "id": 66,
            "name": "Nepean"
          }
        ],
        "pollDivisionIds": [
          10126663
        ],
        "postalCode": "K2E7E3",
        "streetName": "CHESSWOOD",
        "streetDirectionId": null,
        "streetTypeId": "CRT",
        "placeName": "NEPEAN",
        "streetNameDisplayText": "CHESSWOOD CRT, NEPEAN"
      }
    ]
  },
  {
    "postal": "K2E3N6",
    "result": []
  },
  {
    "postal": "K2E3X6",
    "result": []
  },
  {
    "postal": "K2E8L0",
    "result": []
  },
  {
    "postal": "K2E8N1",
    "result": []
  },
  {
    "postal": "K2E4J0",
    "result": []
  },
  {
    "postal": "K2E0X7",
    "result": []
  },
  {
    "postal": "K2E6S4",
    "result": [
      {
        "electoralDistricts": [
          {
            "election": null,
            "id": 81,
            "name": "Ottawa West—Nepean"
          }
        ],
        "pollDivisionIds": [
          10140852
        ],
        "postalCode": "K2E6S4",
        "streetName": "ARGUE",
        "streetDirectionId": null,
        "streetTypeId": "DR",
        "placeName": "NEPEAN",
        "streetNameDisplayText": "ARGUE DR, NEPEAN"
      }
    ]
  },
  {
    "postal": "K2E0Z0",
    "result": []
  },
  {
    "postal": "K2E9X8",
    "result": []
  },
  {
    "postal": "K2E3H3",
    "result": []
  },
  {
    "postal": "K2E7S2",
    "result": [
      {
        "electoralDistricts": [
          {
            "election": null,
            "id": 81,
            "name": "Ottawa West—Nepean"
          }
        ],
        "pollDivisionIds": [
          10140852
        ],
        "postalCode": "K2E7S2",
        "streetName": "SCHOLARS",
        "streetDirectionId": null,
        "streetTypeId": "CRT",
        "placeName": "NEPEAN",
        "streetNameDisplayText": "SCHOLARS CRT, NEPEAN"
      }
    ]
  },
  {
    "postal": "K2E3T3",
    "result": []
  },
  {
    "postal": "K2E9P3",
    "result": []
  },
  {
    "postal": "K2E4H8",
    "result": []
  },
  {
    "postal": "K2E6R1",
    "result": [
      {
        "electoralDistricts": [
          {
            "election": null,
            "id": 81,
            "name": "Ottawa West—Nepean"
          }
        ],
        "pollDivisionIds": [
          10140851
        ],
        "postalCode": "K2E6R1",
        "streetName": "FALAISE",
        "streetDirectionId": null,
        "streetTypeId": "RD",
        "placeName": "NEPEAN",
        "streetNameDisplayText": "FALAISE RD, NEPEAN"
      }
    ]
  },
  {
    "postal": "K2E1S0",
    "result": []
  },
  {
    "postal": "K2E3W8",
    "result": []
  },
  {
    "postal": "K2E4S3",
    "result": []
  },
  {
    "postal": "K2E1B6",
    "result": [
      {
        "electoralDistricts": [
          {
            "election": null,
            "id": 81,
            "name": "Ottawa West—Nepean"
          }
        ],
        "pollDivisionIds": [
          10140853
        ],
        "postalCode": "K2E1B6",
        "streetName": "COLONNADE",
        "streetDirectionId": "S",
        "streetTypeId": "RD",
        "placeName": "NEPEAN",
        "streetNameDisplayText": "COLONNADE RD S, NEPEAN"
      }
    ]
  },
  {
    "postal": "K2E8R3",
    "result": []
  },
  {
    "postal": "K2E4V9",
    "result": []
  },
  {
    "postal": "K2E9W4",
    "result": []
  },
  {
    "postal": "K2E3T4",
    "result": []
  },
  {
    "postal": "K2E5C7",
    "result": [
      {
        "electoralDistricts": [
          {
            "election": null,
            "id": 81,
            "name": "Ottawa West—Nepean"
          }
        ],
        "pollDivisionIds": [
          10140851
        ],
        "postalCode": "K2E5C7",
        "streetName": "GOODWIN",
        "streetDirectionId": null,
        "streetTypeId": "AVE",
        "placeName": "NEPEAN",
        "streetNameDisplayText": "GOODWIN AVE, NEPEAN"
      }
    ]
  },
  {
    "postal": "K2E3Y1",
    "result": []
  },
  {
    "postal": "K2E5V0",
    "result": []
  },
  {
    "postal": "K2E8G8",
    "result": []
  },
  {
    "postal": "K2E8B1",
    "result": [
      {
        "electoralDistricts": [
          {
            "election": null,
            "id": 66,
            "name": "Nepean"
          }
        ],
        "pollDivisionIds": [
          10126663
        ],
        "postalCode": "K2E8B1",
        "streetName": "ANTARES",
        "streetDirectionId": null,
        "streetTypeId": "DR",
        "placeName": "NEPEAN",
        "streetNameDisplayText": "ANTARES DR, NEPEAN"
      }
    ]
  },
  {
    "postal": "K2E4P5",
    "result": []
  },
  {
    "postal": "K2E7B2",
    "result": [
      {
        "electoralDistricts": [
          {
            "election": null,
            "id": 81,
            "name": "Ottawa West—Nepean"
          }
        ],
        "pollDivisionIds": [
          10140851
        ],
        "postalCode": "K2E7B2",
        "streetName": "MEADOWLANDS",
        "streetDirectionId": "E",
        "streetTypeId": "DR",
        "placeName": "OTTAWA",
        "streetNameDisplayText": "MEADOWLANDS DR E, OTTAWA"
      }
    ]
  },
  {
    "postal": "K2E0R2",
    "result": []
  },
  {
    "postal": "K2E4M4",
    "result": []
  },
  {
    "postal": "K2E7M4",
    "result": []
  },
  {
    "postal": "K2E9S7",
    "result": []
  },
  {
    "postal": "K2E5Z7",
    "result": [
      {
        "electoralDistricts": [
          {
            "election": null,
            "id": 81,
            "name": "Ottawa West—Nepean"
          }
        ],
        "pollDivisionIds": [
          10140847,
          10140842
        ],
        "postalCode": "K2E5Z7",
        "streetName": "ELEANOR",
        "streetDirectionId": null,
        "streetTypeId": "DR",
        "placeName": "NEPEAN",
        "streetNameDisplayText": "ELEANOR DR, NEPEAN"
      }
    ]
  },
  {
    "postal": "K2E7J7",
    "result": [
      {
        "electoralDistricts": [
          {
            "election": null,
            "id": 66,
            "name": "Nepean"
          }
        ],
        "pollDivisionIds": [
          10126663
        ],
        "postalCode": "K2E7J7",
        "streetName": "FIFESHIRE",
        "streetDirectionId": null,
        "streetTypeId": "CRES",
        "placeName": "NEPEAN",
        "streetNameDisplayText": "FIFESHIRE CRES, NEPEAN"
      }
    ]
  },
  {
    "postal": "K2E8R8",
    "result": []
  },
  {
    "postal": "K2E9X1",
    "result": []
  },
  {
    "postal": "K2E5M9",
    "result": [
      {
        "electoralDistricts": [
          {
            "election": null,
            "id": 81,
            "name": "Ottawa West—Nepean"
          }
        ],
        "pollDivisionIds": [
          10140847
        ],
        "postalCode": "K2E5M9",
        "streetName": "TRILLIUM",
        "streetDirectionId": null,
        "streetTypeId": "AVE",
        "placeName": "NEPEAN",
        "streetNameDisplayText": "TRILLIUM AVE, NEPEAN"
      }
    ]
  },
  {
    "postal": "K2E9B4",
    "result": []
  },
  {
    "postal": "K2E0L9",
    "result": []
  },
  {
    "postal": "K2E9G4",
    "result": []
  },
  {
    "postal": "K2E1J4",
    "result": []
  },
  {
    "postal": "K2E0W6",
    "result": []
  },
  {
    "postal": "K2E4C5",
    "result": []
  },
  {
    "postal": "K2E7E4",
    "result": [
      {
        "electoralDistricts": [
          {
            "election": null,
            "id": 81,
            "name": "Ottawa West—Nepean"
          }
        ],
        "pollDivisionIds": [
          10140847
        ],
        "postalCode": "K2E7E4",
        "streetName": "NORTHVIEW",
        "streetDirectionId": null,
        "streetTypeId": "RD",
        "placeName": "NEPEAN",
        "streetNameDisplayText": "NORTHVIEW RD, NEPEAN"
      }
    ]
  },
  {
    "postal": "K2E1R9",
    "result": []
  },
  {
    "postal": "K2E2P0",
    "result": []
  },
  {
    "postal": "K2E5S4",
    "result": [
      {
        "electoralDistricts": [
          {
            "election": null,
            "id": 81,
            "name": "Ottawa West—Nepean"
          }
        ],
        "pollDivisionIds": [
          10140847
        ],
        "postalCode": "K2E5S4",
        "streetName": "GILBEY",
        "streetDirectionId": null,
        "streetTypeId": "DR",
        "placeName": "NEPEAN",
        "streetNameDisplayText": "GILBEY DR, NEPEAN"
      }
    ]
  },
  {
    "postal": "K2E5K8",
    "result": [
      {
        "electoralDistricts": [
          {
            "election": null,
            "id": 81,
            "name": "Ottawa West—Nepean"
          }
        ],
        "pollDivisionIds": [
          10140850
        ],
        "postalCode": "K2E5K8",
        "streetName": "HIGWOOD",
        "streetDirectionId": null,
        "streetTypeId": "DR",
        "placeName": "NEPEAN",
        "streetNameDisplayText": "HIGWOOD DR, NEPEAN"
      }
    ]
  },
  {
    "postal": "K2E8K4",
    "result": []
  },
  {
    "postal": "K2E7C1",
    "result": [
      {
        "electoralDistricts": [
          {
            "election": null,
            "id": 66,
            "name": "Nepean"
          }
        ],
        "pollDivisionIds": [
          10126663
        ],
        "postalCode": "K2E7C1",
        "streetName": "AMBERWOOD",
        "streetDirectionId": null,
        "streetTypeId": "CRES",
        "placeName": "NEPEAN",
        "streetNameDisplayText": "AMBERWOOD CRES, NEPEAN"
      }
    ]
  },
  {
    "postal": "K2E7K9",
    "result": [
      {
        "electoralDistricts": [
          {
            "election": null,
            "id": 66,
            "name": "Nepean"
          }
        ],
        "pollDivisionIds": [
          10126663
        ],
        "postalCode": "K2E7K9",
        "streetName": "AMBERWOOD",
        "streetDirectionId": null,
        "streetTypeId": "CRES",
        "placeName": "NEPEAN",
        "streetNameDisplayText": "AMBERWOOD CRES, NEPEAN"
      }
    ]
  },
  {
    "postal": "K2E5J1",
    "result": [
      {
        "electoralDistricts": [
          {
            "election": null,
            "id": 81,
            "name": "Ottawa West—Nepean"
          }
        ],
        "pollDivisionIds": [
          10140850
        ],
        "postalCode": "K2E5J1",
        "streetName": "KINGSMILL",
        "streetDirectionId": null,
        "streetTypeId": "ST",
        "placeName": "NEPEAN",
        "streetNameDisplayText": "KINGSMILL ST, NEPEAN"
      }
    ]
  },
  {
    "postal": "K2E4P9",
    "result": []
  },
  {
    "postal": "K2E0N2",
    "result": []
  },
  {
    "postal": "K2E2G6",
    "result": []
  },
  {
    "postal": "K2E6P4",
    "result": [
      {
        "electoralDistricts": [
          {
            "election": null,
            "id": 81,
            "name": "Ottawa West—Nepean"
          }
        ],
        "pollDivisionIds": [
          10140852
        ],
        "postalCode": "K2E6P4",
        "streetName": "SEYMOUR",
        "streetDirectionId": null,
        "streetTypeId": "AVE",
        "placeName": "NEPEAN",
        "streetNameDisplayText": "SEYMOUR AVE, NEPEAN"
      }
    ]
  },
  {
    "postal": "K2E3J0",
    "result": []
  },
  {
    "postal": "K2E8X4",
    "result": []
  },
  {
    "postal": "K2E1Y3",
    "result": []
  },
  {
    "postal": "K2E1A8",
    "result": []
  },
  {
    "postal": "K2E6Y5",
    "result": [
      {
        "electoralDistricts": [
          {
            "election": null,
            "id": 66,
            "name": "Nepean"
          }
        ],
        "pollDivisionIds": [
          10126663
        ],
        "postalCode": "K2E6Y5",
        "streetName": "SILVERWOOD",
        "streetDirectionId": null,
        "streetTypeId": "RD",
        "placeName": "NEPEAN",
        "streetNameDisplayText": "SILVERWOOD RD, NEPEAN"
      }
    ]
  },
  {
    "postal": "K2E0J6",
    "result": []
  },
  {
    "postal": "K2E2C9",
    "result": []
  },
  {
    "postal": "K2E8J6",
    "result": []
  },
  {
    "postal": "K2E8T4",
    "result": []
  },
  {
    "postal": "K2E1P7",
    "result": []
  },
  {
    "postal": "K2E9V9",
    "result": []
  },
  {
    "postal": "K2E0M1",
    "result": []
  },
  {
    "postal": "K2E6K5",
    "result": [
      {
        "electoralDistricts": [
          {
            "election": null,
            "id": 81,
            "name": "Ottawa West—Nepean"
          }
        ],
        "pollDivisionIds": [
          10140847
        ],
        "postalCode": "K2E6K5",
        "streetName": "MEADOWLANDS",
        "streetDirectionId": "E",
        "streetTypeId": "DR",
        "placeName": "NEPEAN",
        "streetNameDisplayText": "MEADOWLANDS DR E, NEPEAN"
      }
    ]
  },
  {
    "postal": "K2E2T5",
    "result": []
  },
  {
    "postal": "K2E7E9",
    "result": [
      {
        "electoralDistricts": [
          {
            "election": null,
            "id": 81,
            "name": "Ottawa West—Nepean"
          }
        ],
        "pollDivisionIds": [
          10140847
        ],
        "postalCode": "K2E7E9",
        "streetName": "GREENCREST",
        "streetDirectionId": null,
        "streetTypeId": "PL",
        "placeName": "NEPEAN",
        "streetNameDisplayText": "GREENCREST PL, NEPEAN"
      }
    ]
  },
  {
    "postal": "K2E5K5",
    "result": [
      {
        "electoralDistricts": [
          {
            "election": null,
            "id": 81,
            "name": "Ottawa West—Nepean"
          }
        ],
        "pollDivisionIds": [
          10140847
        ],
        "postalCode": "K2E5K5",
        "streetName": "BEAVERTON",
        "streetDirectionId": null,
        "streetTypeId": "AVE",
        "placeName": "NEPEAN",
        "streetNameDisplayText": "BEAVERTON AVE, NEPEAN"
      }
    ]
  },
  {
    "postal": "K2E3R5",
    "result": []
  },
  {
    "postal": "K2E5B1",
    "result": [
      {
        "electoralDistricts": [
          {
            "election": null,
            "id": 81,
            "name": "Ottawa West—Nepean"
          }
        ],
        "pollDivisionIds": [
          10140850,
          10140851
        ],
        "postalCode": "K2E5B1",
        "streetName": "ATTWOOD",
        "streetDirectionId": null,
        "streetTypeId": "CRES",
        "placeName": "NEPEAN",
        "streetNameDisplayText": "ATTWOOD CRES, NEPEAN"
      }
    ]
  },
  {
    "postal": "K2E2P1",
    "result": []
  },
  {
    "postal": "K2E7L0",
    "result": []
  },
  {
    "postal": "K2E3L6",
    "result": []
  },
  {
    "postal": "K2E2A4",
    "result": []
  },
  {
    "postal": "K2E8S0",
    "result": []
  },
  {
    "postal": "K2E3L5",
    "result": []
  },
  {
    "postal": "K2E2R5",
    "result": []
  },
  {
    "postal": "K2E9T6",
    "result": []
  },
  {
    "postal": "K2E8Z2",
    "result": []
  },
  {
    "postal": "K2E0E9",
    "result": []
  },
  {
    "postal": "K2E8C0",
    "result": []
  },
  {
    "postal": "K2E3K7",
    "result": []
  },
  {
    "postal": "K2E2H3",
    "result": []
  },
  {
    "postal": "K2E2Y6",
    "result": []
  },
  {
    "postal": "K2E7M2",
    "result": [
      {
        "electoralDistricts": [
          {
            "election": null,
            "id": 81,
            "name": "Ottawa West—Nepean"
          }
        ],
        "pollDivisionIds": [
          10140853
        ],
        "postalCode": "K2E7M2",
        "streetName": "PRINCE OF WALES",
        "streetDirectionId": null,
        "streetTypeId": "DR",
        "placeName": "NEPEAN",
        "streetNameDisplayText": "PRINCE OF WALES DR, NEPEAN"
      }
    ]
  },
  {
    "postal": "K2E6E2",
    "result": [
      {
        "electoralDistricts": [
          {
            "election": null,
            "id": 66,
            "name": "Nepean"
          },
          {
            "election": null,
            "id": 81,
            "name": "Ottawa West—Nepean"
          }
        ],
        "pollDivisionIds": [
          10126653,
          10140848,
          10140847
        ],
        "postalCode": "K2E6E2",
        "streetName": "BEAVER",
        "streetDirectionId": null,
        "streetTypeId": "RIDGE",
        "placeName": "NEPEAN",
        "streetNameDisplayText": "BEAVER RIDGE, NEPEAN"
      }
    ]
  },
  {
    "postal": "K2E3R0",
    "result": []
  },
  {
    "postal": "K2E4J7",
    "result": []
  },
  {
    "postal": "K2E6N8",
    "result": [
      {
        "electoralDistricts": [
          {
            "election": null,
            "id": 81,
            "name": "Ottawa West—Nepean"
          }
        ],
        "pollDivisionIds": [
          10140848
        ],
        "postalCode": "K2E6N8",
        "streetName": "INVERNESS",
        "streetDirectionId": null,
        "streetTypeId": "AVE",
        "placeName": "NEPEAN",
        "streetNameDisplayText": "INVERNESS AVE, NEPEAN"
      }
    ]
  },
  {
    "postal": "K2E0J7",
    "result": []
  },
  {
    "postal": "K2E7P2",
    "result": [
      {
        "electoralDistricts": [
          {
            "election": null,
            "id": 81,
            "name": "Ottawa West—Nepean"
          }
        ],
        "pollDivisionIds": [
          10140852
        ],
        "postalCode": "K2E7P2",
        "streetName": "VIEWMOUNT",
        "streetDirectionId": null,
        "streetTypeId": "DR",
        "placeName": "NEPEAN",
        "streetNameDisplayText": "VIEWMOUNT DR, NEPEAN"
      }
    ]
  },
  {
    "postal": "K2E3T8",
    "result": []
  },
  {
    "postal": "K2E3S7",
    "result": []
  },
  {
    "postal": "K2E2S7",
    "result": []
  },
  {
    "postal": "K2E1S4",
    "result": []
  },
  {
    "postal": "K2E1L8",
    "result": []
  },
  {
    "postal": "K2E8E9",
    "result": []
  },
  {
    "postal": "K2E0T0",
    "result": []
  },
  {
    "postal": "K2E3G4",
    "result": []
  },
  {
    "postal": "K2E0V6",
    "result": []
  },
  {
    "postal": "K2E4W1",
    "result": []
  },
  {
    "postal": "K2E9G9",
    "result": []
  },
  {
    "postal": "K2E5W4",
    "result": [
      {
        "electoralDistricts": [
          {
            "election": null,
            "id": 66,
            "name": "Nepean"
          }
        ],
        "pollDivisionIds": [
          10126663
        ],
        "postalCode": "K2E5W4",
        "streetName": "LEEWARD",
        "streetDirectionId": null,
        "streetTypeId": "ST",
        "placeName": "NEPEAN",
        "streetNameDisplayText": "LEEWARD ST, NEPEAN"
      }
    ]
  },
  {
    "postal": "K2E7M8",
    "result": [
      {
        "electoralDistricts": [
          {
            "election": null,
            "id": 81,
            "name": "Ottawa West—Nepean"
          }
        ],
        "pollDivisionIds": [
          10140852,
          10140849
        ],
        "postalCode": "K2E7M8",
        "streetName": "COOLSPRING",
        "streetDirectionId": null,
        "streetTypeId": "CRES",
        "placeName": "NEPEAN",
        "streetNameDisplayText": "COOLSPRING CRES, NEPEAN"
      }
    ]
  },
  {
    "postal": "K2E2C2",
    "result": []
  },
  {
    "postal": "K2E4Y2",
    "result": []
  },
  {
    "postal": "K2E9X9",
    "result": []
  },
  {
    "postal": "K2E3T0",
    "result": []
  },
  {
    "postal": "K2E4T8",
    "result": []
  },
  {
    "postal": "K2E9C4",
    "result": []
  },
  {
    "postal": "K2E8P2",
    "result": []
  },
  {
    "postal": "K2E0Y8",
    "result": []
  },
  {
    "postal": "K2E1G8",
    "result": []
  },
  {
    "postal": "K2E2T6",
    "result": []
  },
  {
    "postal": "K2E1N7",
    "result": []
  },
  {
    "postal": "K2E0L6",
    "result": []
  },
  {
    "postal": "K2E9V4",
    "result": []
  },
  {
    "postal": "K2E2V1",
    "result": []
  },
  {
    "postal": "K2E3L8",
    "result": []
  },
  {
    "postal": "K2E2R8",
    "result": []
  },
  {
    "postal": "K2E5C1",
    "result": [
      {
        "electoralDistricts": [
          {
            "election": null,
            "id": 81,
            "name": "Ottawa West—Nepean"
          }
        ],
        "pollDivisionIds": [
          10140850
        ],
        "postalCode": "K2E5C1",
        "streetName": "WILLETH",
        "streetDirectionId": null,
        "streetTypeId": "AVE",
        "placeName": "NEPEAN",
        "streetNameDisplayText": "WILLETH AVE, NEPEAN"
      }
    ]
  },
  {
    "postal": "K2E4W3",
    "result": []
  },
  {
    "postal": "K2E5X5",
    "result": [
      {
        "electoralDistricts": [
          {
            "election": null,
            "id": 66,
            "name": "Nepean"
          }
        ],
        "pollDivisionIds": [
          10126663
        ],
        "postalCode": "K2E5X5",
        "streetName": "PROMENADE",
        "streetDirectionId": null,
        "streetTypeId": "AVE",
        "placeName": "NEPEAN",
        "streetNameDisplayText": "PROMENADE AVE, NEPEAN"
      }
    ]
  },
  {
    "postal": "K2E9W5",
    "result": []
  },
  {
    "postal": "K2E3C4",
    "result": []
  },
  {
    "postal": "K2E1N6",
    "result": []
  },
  {
    "postal": "K2E9S9",
    "result": []
  },
  {
    "postal": "K2E9M2",
    "result": []
  },
  {
    "postal": "K2E8Y4",
    "result": []
  },
  {
    "postal": "K2E7S4",
    "result": [
      {
        "electoralDistricts": [
          {
            "election": null,
            "id": 81,
            "name": "Ottawa West—Nepean"
          }
        ],
        "pollDivisionIds": [
          10140853
        ],
        "postalCode": "K2E7S4",
        "streetName": "CONCOURSE",
        "streetDirectionId": null,
        "streetTypeId": "GATE",
        "placeName": "NEPEAN",
        "streetNameDisplayText": "CONCOURSE GATE, NEPEAN"
      }
    ]
  },
  {
    "postal": "K2E0K6",
    "result": []
  },
  {
    "postal": "K2E1W3",
    "result": []
  },
  {
    "postal": "K2E7R2",
    "result": [
      {
        "electoralDistricts": [
          {
            "election": null,
            "id": 81,
            "name": "Ottawa West—Nepean"
          }
        ],
        "pollDivisionIds": [
          10140852
        ],
        "postalCode": "K2E7R2",
        "streetName": "SHADETREE",
        "streetDirectionId": null,
        "streetTypeId": "CRES",
        "placeName": "NEPEAN",
        "streetNameDisplayText": "SHADETREE CRES, NEPEAN"
      }
    ]
  },
  {
    "postal": "K2E2Y9",
    "result": []
  },
  {
    "postal": "K2E7G4",
    "result": [
      {
        "electoralDistricts": [
          {
            "election": null,
            "id": 66,
            "name": "Nepean"
          }
        ],
        "pollDivisionIds": [
          10126663
        ],
        "postalCode": "K2E7G4",
        "streetName": "DENEWOOD",
        "streetDirectionId": null,
        "streetTypeId": "CRES",
        "placeName": "NEPEAN",
        "streetNameDisplayText": "DENEWOOD CRES, NEPEAN"
      }
    ]
  },
  {
    "postal": "K2E7E5",
    "result": [
      {
        "electoralDistricts": [
          {
            "election": null,
            "id": 81,
            "name": "Ottawa West—Nepean"
          }
        ],
        "pollDivisionIds": [
          10140847
        ],
        "postalCode": "K2E7E5",
        "streetName": "ELEANOR",
        "streetDirectionId": null,
        "streetTypeId": "DR",
        "placeName": "NEPEAN",
        "streetNameDisplayText": "ELEANOR DR, NEPEAN"
      }
    ]
  },
  {
    "postal": "K2E9G2",
    "result": []
  },
  {
    "postal": "K2E7Y8",
    "result": [
      {
        "electoralDistricts": [
          {
            "election": null,
            "id": 66,
            "name": "Nepean"
          }
        ],
        "pollDivisionIds": [
          10126663
        ],
        "postalCode": "K2E7Y8",
        "streetName": "AURIGA",
        "streetDirectionId": null,
        "streetTypeId": "DR",
        "placeName": "NEPEAN",
        "streetNameDisplayText": "AURIGA DR, NEPEAN"
      }
    ]
  },
  {
    "postal": "K2E9V2",
    "result": []
  },
  {
    "postal": "K2E3T7",
    "result": []
  },
  {
    "postal": "K2E1H0",
    "result": []
  },
  {
    "postal": "K2E1M7",
    "result": []
  },
  {
    "postal": "K2E8V4",
    "result": []
  },
  {
    "postal": "K2E4M2",
    "result": []
  },
  {
    "postal": "K2E0X2",
    "result": []
  },
  {
    "postal": "K2E5Z4",
    "result": [
      {
        "electoralDistricts": [
          {
            "election": null,
            "id": 81,
            "name": "Ottawa West—Nepean"
          }
        ],
        "pollDivisionIds": [
          10140850
        ],
        "postalCode": "K2E5Z4",
        "streetName": "MALIBU",
        "streetDirectionId": null,
        "streetTypeId": "TERR",
        "placeName": "NEPEAN",
        "streetNameDisplayText": "MALIBU TERR, NEPEAN"
      },
      {
        "electoralDistricts": [
          {
            "election": null,
            "id": 81,
            "name": "Ottawa West—Nepean"
          }
        ],
        "pollDivisionIds": [
          10140850
        ],
        "postalCode": "K2E5Z4",
        "streetName": "MALIBU",
        "streetDirectionId": null,
        "streetTypeId": "TERR",
        "placeName": "OTTAWA",
        "streetNameDisplayText": "MALIBU TERR, OTTAWA"
      }
    ]
  },
  {
    "postal": "K2E6V4",
    "result": [
      {
        "electoralDistricts": [
          {
            "election": null,
            "id": 66,
            "name": "Nepean"
          }
        ],
        "pollDivisionIds": [
          10126663
        ],
        "postalCode": "K2E6V4",
        "streetName": "MACFARLANE",
        "streetDirectionId": null,
        "streetTypeId": "RD",
        "placeName": "NEPEAN",
        "streetNameDisplayText": "MACFARLANE RD, NEPEAN"
      }
    ]
  },
  {
    "postal": "K2E8J3",
    "result": []
  },
  {
    "postal": "K2E8E5",
    "result": []
  },
  {
    "postal": "K2E2V5",
    "result": []
  },
  {
    "postal": "K2E7S1",
    "result": [
      {
        "electoralDistricts": [
          {
            "election": null,
            "id": 81,
            "name": "Ottawa West—Nepean"
          }
        ],
        "pollDivisionIds": [
          10140852
        ],
        "postalCode": "K2E7S1",
        "streetName": "FOUR SEASONS",
        "streetDirectionId": null,
        "streetTypeId": "DR",
        "placeName": "NEPEAN",
        "streetNameDisplayText": "FOUR SEASONS DR, NEPEAN"
      }
    ]
  },
  {
    "postal": "K2E6V3",
    "result": []
  },
  {
    "postal": "K2E2L8",
    "result": []
  },
  {
    "postal": "K2E9V0",
    "result": []
  },
  {
    "postal": "K2E3M4",
    "result": []
  },
  {
    "postal": "K2E5B2",
    "result": [
      {
        "electoralDistricts": [
          {
            "election": null,
            "id": 81,
            "name": "Ottawa West—Nepean"
          }
        ],
        "pollDivisionIds": [
          10140851
        ],
        "postalCode": "K2E5B2",
        "streetName": "NESS",
        "streetDirectionId": null,
        "streetTypeId": "ST",
        "placeName": "NEPEAN",
        "streetNameDisplayText": "NESS ST, NEPEAN"
      }
    ]
  },
  {
    "postal": "K2E3X5",
    "result": []
  },
  {
    "postal": "K2E9R7",
    "result": []
  },
  {
    "postal": "K2E2X2",
    "result": []
  },
  {
    "postal": "K2E8Z6",
    "result": []
  },
  {
    "postal": "K2E4R4",
    "result": []
  },
  {
    "postal": "K2E2R1",
    "result": []
  },
  {
    "postal": "K2E3R8",
    "result": []
  },
  {
    "postal": "K2E9A1",
    "result": []
  },
  {
    "postal": "K2E8L3",
    "result": []
  },
  {
    "postal": "K2E9K4",
    "result": []
  },
  {
    "postal": "K2E9S3",
    "result": []
  },
  {
    "postal": "K2E8N7",
    "result": []
  },
  {
    "postal": "K2E1C6",
    "result": []
  },
  {
    "postal": "K2E3Z8",
    "result": []
  },
  {
    "postal": "K2E8G5",
    "result": []
  },
  {
    "postal": "K2E5R6",
    "result": [
      {
        "electoralDistricts": [
          {
            "election": null,
            "id": 81,
            "name": "Ottawa West—Nepean"
          }
        ],
        "pollDivisionIds": [
          10140849
        ],
        "postalCode": "K2E5R6",
        "streetName": "HILLHURST",
        "streetDirectionId": null,
        "streetTypeId": "PL",
        "placeName": "NEPEAN",
        "streetNameDisplayText": "HILLHURST PL, NEPEAN"
      }
    ]
  },
  {
    "postal": "K2E2W3",
    "result": []
  },
  {
    "postal": "K2E0A0",
    "result": []
  },
  {
    "postal": "K2E6P8",
    "result": [
      {
        "electoralDistricts": [
          {
            "election": null,
            "id": 81,
            "name": "Ottawa West—Nepean"
          }
        ],
        "pollDivisionIds": [
          10140851
        ],
        "postalCode": "K2E6P8",
        "streetName": "FALAISE",
        "streetDirectionId": null,
        "streetTypeId": "RD",
        "placeName": "NEPEAN",
        "streetNameDisplayText": "FALAISE RD, NEPEAN"
      },
      {
        "electoralDistricts": [
          {
            "election": null,
            "id": 81,
            "name": "Ottawa West—Nepean"
          }
        ],
        "pollDivisionIds": [
          10140851
        ],
        "postalCode": "K2E6P8",
        "streetName": "FALAISE",
        "streetDirectionId": null,
        "streetTypeId": "RD",
        "placeName": "OTTAWA",
        "streetNameDisplayText": "FALAISE RD, OTTAWA"
      }
    ]
  },
  {
    "postal": "K2E8N9",
    "result": []
  },
  {
    "postal": "K2E0S9",
    "result": []
  },
  {
    "postal": "K2E8G0",
    "result": []
  },
  {
    "postal": "K2E8C7",
    "result": []
  },
  {
    "postal": "K2E5X8",
    "result": [
      {
        "electoralDistricts": [
          {
            "election": null,
            "id": 66,
            "name": "Nepean"
          }
        ],
        "pollDivisionIds": [
          10126663
        ],
        "postalCode": "K2E5X8",
        "streetName": "PROMENADE",
        "streetDirectionId": null,
        "streetTypeId": "AVE",
        "placeName": "NEPEAN",
        "streetNameDisplayText": "PROMENADE AVE, NEPEAN"
      }
    ]
  },
  {
    "postal": "K2E7E8",
    "result": [
      {
        "electoralDistricts": [
          {
            "election": null,
            "id": 81,
            "name": "Ottawa West—Nepean"
          },
          {
            "election": null,
            "id": 78,
            "name": "Ottawa Centre"
          }
        ],
        "pollDivisionIds": [
          10140832,
          10140850,
          10140557,
          10140848
        ],
        "postalCode": "K2E7E8",
        "streetName": "MEADOWLANDS",
        "streetDirectionId": "E",
        "streetTypeId": "DR",
        "placeName": "NEPEAN",
        "streetNameDisplayText": "MEADOWLANDS DR E, NEPEAN"
      },
      {
        "electoralDistricts": [
          {
            "election": null,
            "id": 81,
            "name": "Ottawa West—Nepean"
          }
        ],
        "pollDivisionIds": [
          10140852
        ],
        "postalCode": "K2E7E8",
        "streetName": "MEADOWLANDS DR.",
        "streetDirectionId": "E",
        "streetTypeId": "DR",
        "placeName": "NEPEAN",
        "streetNameDisplayText": "MEADOWLANDS DR. DR E, NEPEAN"
      }
    ]
  },
  {
    "postal": "K2E6X2",
    "result": [
      {
        "electoralDistricts": [
          {
            "election": null,
            "id": 66,
            "name": "Nepean"
          }
        ],
        "pollDivisionIds": [
          10126663
        ],
        "postalCode": "K2E6X2",
        "streetName": "BROOKDALE",
        "streetDirectionId": null,
        "streetTypeId": "AVE",
        "placeName": "NEPEAN",
        "streetNameDisplayText": "BROOKDALE AVE, NEPEAN"
      }
    ]
  },
  {
    "postal": "K2E4C6",
    "result": []
  },
  {
    "postal": "K2E7H2",
    "result": [
      {
        "electoralDistricts": [
          {
            "election": null,
            "id": 66,
            "name": "Nepean"
          }
        ],
        "pollDivisionIds": [
          10126663
        ],
        "postalCode": "K2E7H2",
        "streetName": "TENNYSON",
        "streetDirectionId": null,
        "streetTypeId": "ST",
        "placeName": "NEPEAN",
        "streetNameDisplayText": "TENNYSON ST, NEPEAN"
      }
    ]
  },
  {
    "postal": "K2E4R0",
    "result": []
  },
  {
    "postal": "K2E6J3",
    "result": [
      {
        "electoralDistricts": [
          {
            "election": null,
            "id": 81,
            "name": "Ottawa West—Nepean"
          }
        ],
        "pollDivisionIds": [
          10140851
        ],
        "postalCode": "K2E6J3",
        "streetName": "MEADOWLANDS",
        "streetDirectionId": "E",
        "streetTypeId": "DR",
        "placeName": "NEPEAN",
        "streetNameDisplayText": "MEADOWLANDS DR E, NEPEAN"
      }
    ]
  },
  {
    "postal": "K2E4B8",
    "result": []
  },
  {
    "postal": "K2E6H6",
    "result": [
      {
        "electoralDistricts": [
          {
            "election": null,
            "id": 81,
            "name": "Ottawa West—Nepean"
          }
        ],
        "pollDivisionIds": [
          10140847
        ],
        "postalCode": "K2E6H6",
        "streetName": "APACHE",
        "streetDirectionId": null,
        "streetTypeId": "CRES",
        "placeName": "NEPEAN",
        "streetNameDisplayText": "APACHE CRES, NEPEAN"
      }
    ]
  },
  {
    "postal": "K2E0S1",
    "result": []
  },
  {
    "postal": "K2E4E3",
    "result": []
  },
  {
    "postal": "K2E7K2",
    "result": [
      {
        "electoralDistricts": [
          {
            "election": null,
            "id": 81,
            "name": "Ottawa West—Nepean"
          }
        ],
        "pollDivisionIds": [
          10140849
        ],
        "postalCode": "K2E7K2",
        "streetName": "MCMURDO",
        "streetDirectionId": null,
        "streetTypeId": "CRT",
        "placeName": "NEPEAN",
        "streetNameDisplayText": "MCMURDO CRT, NEPEAN"
      }
    ]
  },
  {
    "postal": "K2E7T8",
    "result": [
      {
        "electoralDistricts": [
          {
            "election": null,
            "id": 66,
            "name": "Nepean"
          }
        ],
        "pollDivisionIds": [
          10126663
        ],
        "postalCode": "K2E7T8",
        "streetName": "ANTARES",
        "streetDirectionId": null,
        "streetTypeId": "DR",
        "placeName": "NEPEAN",
        "streetNameDisplayText": "ANTARES DR, NEPEAN"
      }
    ]
  },
  {
    "postal": "K2E0J9",
    "result": []
  },
  {
    "postal": "K2E5J9",
    "result": [
      {
        "electoralDistricts": [
          {
            "election": null,
            "id": 81,
            "name": "Ottawa West—Nepean"
          }
        ],
        "pollDivisionIds": [
          10140847
        ],
        "postalCode": "K2E5J9",
        "streetName": "PARTHIA",
        "streetDirectionId": null,
        "streetTypeId": "AVE",
        "placeName": "NEPEAN",
        "streetNameDisplayText": "PARTHIA AVE, NEPEAN"
      }
    ]
  },
  {
    "postal": "K2E5S7",
    "result": [
      {
        "electoralDistricts": [
          {
            "election": null,
            "id": 81,
            "name": "Ottawa West—Nepean"
          }
        ],
        "pollDivisionIds": [
          10140848
        ],
        "postalCode": "K2E5S7",
        "streetName": "BIRCHWOOD",
        "streetDirectionId": null,
        "streetTypeId": "DR",
        "placeName": "NEPEAN",
        "streetNameDisplayText": "BIRCHWOOD DR, NEPEAN"
      }
    ]
  },
  {
    "postal": "K2E0G9",
    "result": []
  },
  {
    "postal": "K2E3J9",
    "result": []
  },
  {
    "postal": "K2E2Y0",
    "result": []
  },
  {
    "postal": "K2E8X5",
    "result": []
  },
  {
    "postal": "K2E2M7",
    "result": []
  },
  {
    "postal": "K2E9Z3",
    "result": []
  },
  {
    "postal": "K2E7W2",
    "result": [
      {
        "electoralDistricts": [
          {
            "election": null,
            "id": 81,
            "name": "Ottawa West—Nepean"
          }
        ],
        "pollDivisionIds": [
          10140852
        ],
        "postalCode": "K2E7W2",
        "streetName": "VALLEY RIDGE",
        "streetDirectionId": null,
        "streetTypeId": "ST",
        "placeName": "NEPEAN",
        "streetNameDisplayText": "VALLEY RIDGE ST, NEPEAN"
      }
    ]
  },
  {
    "postal": "K2E3W0",
    "result": []
  },
  {
    "postal": "K2E3M1",
    "result": []
  },
  {
    "postal": "K2E6A5",
    "result": [
      {
        "electoralDistricts": [
          {
            "election": null,
            "id": 81,
            "name": "Ottawa West—Nepean"
          }
        ],
        "pollDivisionIds": [
          10140850
        ],
        "postalCode": "K2E6A5",
        "streetName": "OAKWOOD",
        "streetDirectionId": null,
        "streetTypeId": "AVE",
        "placeName": "NEPEAN",
        "streetNameDisplayText": "OAKWOOD AVE, NEPEAN"
      }
    ]
  },
  {
    "postal": "K2E2M9",
    "result": []
  },
  {
    "postal": "K2E5C3",
    "result": [
      {
        "electoralDistricts": [
          {
            "election": null,
            "id": 81,
            "name": "Ottawa West—Nepean"
          }
        ],
        "pollDivisionIds": [
          10140850
        ],
        "postalCode": "K2E5C3",
        "streetName": "WILLETH",
        "streetDirectionId": null,
        "streetTypeId": "AVE",
        "placeName": "NEPEAN",
        "streetNameDisplayText": "WILLETH AVE, NEPEAN"
      }
    ]
  },
  {
    "postal": "K2E0Y6",
    "result": []
  },
  {
    "postal": "K2E9H7",
    "result": []
  },
  {
    "postal": "K2E3L0",
    "result": []
  },
  {
    "postal": "K2E5N9",
    "result": [
      {
        "electoralDistricts": [
          {
            "election": null,
            "id": 81,
            "name": "Ottawa West—Nepean"
          }
        ],
        "pollDivisionIds": [
          10140847
        ],
        "postalCode": "K2E5N9",
        "streetName": "MERIVALE",
        "streetDirectionId": null,
        "streetTypeId": "RD",
        "placeName": "NEPEAN",
        "streetNameDisplayText": "MERIVALE RD, NEPEAN"
      },
      {
        "electoralDistricts": [
          {
            "election": null,
            "id": 81,
            "name": "Ottawa West—Nepean"
          }
        ],
        "pollDivisionIds": [
          10140847
        ],
        "postalCode": "K2E5N9",
        "streetName": "MERIVALE",
        "streetDirectionId": null,
        "streetTypeId": "RD",
        "placeName": "OTTAWA",
        "streetNameDisplayText": "MERIVALE RD, OTTAWA"
      }
    ]
  },
  {
    "postal": "K2E5E3",
    "result": [
      {
        "electoralDistricts": [
          {
            "election": null,
            "id": 81,
            "name": "Ottawa West—Nepean"
          }
        ],
        "pollDivisionIds": [
          10140850
        ],
        "postalCode": "K2E5E3",
        "streetName": "BARLYN",
        "streetDirectionId": null,
        "streetTypeId": "AVE",
        "placeName": "NEPEAN",
        "streetNameDisplayText": "BARLYN AVE, NEPEAN"
      }
    ]
  },
  {
    "postal": "K2E7M9",
    "result": [
      {
        "electoralDistricts": [
          {
            "election": null,
            "id": 81,
            "name": "Ottawa West—Nepean"
          }
        ],
        "pollDivisionIds": [
          10140852
        ],
        "postalCode": "K2E7M9",
        "streetName": "COOLSPRING",
        "streetDirectionId": null,
        "streetTypeId": "CRES",
        "placeName": "NEPEAN",
        "streetNameDisplayText": "COOLSPRING CRES, NEPEAN"
      }
    ]
  },
  {
    "postal": "K2E8N2",
    "result": []
  },
  {
    "postal": "K2E9H3",
    "result": []
  },
  {
    "postal": "K2E2K8",
    "result": []
  },
  {
    "postal": "K2E9L0",
    "result": []
  },
  {
    "postal": "K2E6L9",
    "result": [
      {
        "electoralDistricts": [
          {
            "election": null,
            "id": 81,
            "name": "Ottawa West—Nepean"
          }
        ],
        "pollDivisionIds": [
          10140847
        ],
        "postalCode": "K2E6L9",
        "streetName": "TIVERTON",
        "streetDirectionId": null,
        "streetTypeId": "DR",
        "placeName": "NEPEAN",
        "streetNameDisplayText": "TIVERTON DR, NEPEAN"
      }
    ]
  },
  {
    "postal": "K2E6A8",
    "result": [
      {
        "electoralDistricts": [
          {
            "election": null,
            "id": 81,
            "name": "Ottawa West—Nepean"
          }
        ],
        "pollDivisionIds": [
          10140850
        ],
        "postalCode": "K2E6A8",
        "streetName": "VANSON",
        "streetDirectionId": null,
        "streetTypeId": "AVE",
        "placeName": "NEPEAN",
        "streetNameDisplayText": "VANSON AVE, NEPEAN"
      }
    ]
  },
  {
    "postal": "K2E2K6",
    "result": []
  },
  {
    "postal": "K2E2M0",
    "result": []
  },
  {
    "postal": "K2E5X7",
    "result": [
      {
        "electoralDistricts": [
          {
            "election": null,
            "id": 66,
            "name": "Nepean"
          }
        ],
        "pollDivisionIds": [
          10126663
        ],
        "postalCode": "K2E5X7",
        "streetName": "PROMENADE",
        "streetDirectionId": null,
        "streetTypeId": "AVE",
        "placeName": "NEPEAN",
        "streetNameDisplayText": "PROMENADE AVE, NEPEAN"
      }
    ]
  },
  {
    "postal": "K2E0M7",
    "result": []
  },
  {
    "postal": "K2E7A6",
    "result": [
      {
        "electoralDistricts": [
          {
            "election": null,
            "id": 81,
            "name": "Ottawa West—Nepean"
          }
        ],
        "pollDivisionIds": [
          10140853
        ],
        "postalCode": "K2E7A6",
        "streetName": "RIDEAU HEIGHTS",
        "streetDirectionId": null,
        "streetTypeId": "DR",
        "placeName": "NEPEAN",
        "streetNameDisplayText": "RIDEAU HEIGHTS DR, NEPEAN"
      }
    ]
  },
  {
    "postal": "K2E3C5",
    "result": []
  },
  {
    "postal": "K2E2P2",
    "result": []
  },
  {
    "postal": "K2E9N4",
    "result": []
  },
  {
    "postal": "K2E3M9",
    "result": []
  },
  {
    "postal": "K2E8K6",
    "result": []
  },
  {
    "postal": "K2E1L2",
    "result": []
  },
  {
    "postal": "K2E2Z9",
    "result": []
  },
  {
    "postal": "K2E2S2",
    "result": []
  },
  {
    "postal": "K2E2W2",
    "result": []
  },
  {
    "postal": "K2E2C3",
    "result": []
  },
  {
    "postal": "K2E6L7",
    "result": [
      {
        "electoralDistricts": [
          {
            "election": null,
            "id": 81,
            "name": "Ottawa West—Nepean"
          }
        ],
        "pollDivisionIds": [
          10140848
        ],
        "postalCode": "K2E6L7",
        "streetName": "TIVERTON",
        "streetDirectionId": null,
        "streetTypeId": "DR",
        "placeName": "NEPEAN",
        "streetNameDisplayText": "TIVERTON DR, NEPEAN"
      }
    ]
  },
  {
    "postal": "K2E3K0",
    "result": []
  },
  {
    "postal": "K2E3C1",
    "result": []
  },
  {
    "postal": "K2E6M9",
    "result": [
      {
        "electoralDistricts": [
          {
            "election": null,
            "id": 81,
            "name": "Ottawa West—Nepean"
          }
        ],
        "pollDivisionIds": [
          10140848
        ],
        "postalCode": "K2E6M9",
        "streetName": "KILMORY",
        "streetDirectionId": null,
        "streetTypeId": "CRES",
        "placeName": "NEPEAN",
        "streetNameDisplayText": "KILMORY CRES, NEPEAN"
      }
    ]
  },
  {
    "postal": "K2E4N9",
    "result": []
  },
  {
    "postal": "K2E3Y7",
    "result": []
  },
  {
    "postal": "K2E2A9",
    "result": []
  },
  {
    "postal": "K2E6H5",
    "result": [
      {
        "electoralDistricts": [
          {
            "election": null,
            "id": 81,
            "name": "Ottawa West—Nepean"
          }
        ],
        "pollDivisionIds": [
          10140850
        ],
        "postalCode": "K2E6H5",
        "streetName": "DEER PARK",
        "streetDirectionId": null,
        "streetTypeId": "RD",
        "placeName": "NEPEAN",
        "streetNameDisplayText": "DEER PARK RD, NEPEAN"
      }
    ]
  },
  {
    "postal": "K2E8B4",
    "result": [
      {
        "electoralDistricts": [
          {
            "election": null,
            "id": 66,
            "name": "Nepean"
          }
        ],
        "pollDivisionIds": [
          10126663
        ],
        "postalCode": "K2E8B4",
        "streetName": "BENTLEY",
        "streetDirectionId": null,
        "streetTypeId": "AVE",
        "placeName": "NEPEAN",
        "streetNameDisplayText": "BENTLEY AVE, NEPEAN"
      }
    ]
  },
  {
    "postal": "K2E4Z2",
    "result": []
  },
  {
    "postal": "K2E9J0",
    "result": []
  },
  {
    "postal": "K2E7V7",
    "result": [
      {
        "electoralDistricts": [
          {
            "election": null,
            "id": 81,
            "name": "Ottawa West—Nepean"
          }
        ],
        "pollDivisionIds": [
          10140853
        ],
        "postalCode": "K2E7V7",
        "streetName": "CONCOURSE",
        "streetDirectionId": null,
        "streetTypeId": "GATE",
        "placeName": "NEPEAN",
        "streetNameDisplayText": "CONCOURSE GATE, NEPEAN"
      }
    ]
  },
  {
    "postal": "K2E5T5",
    "result": [
      {
        "electoralDistricts": [
          {
            "election": null,
            "id": 81,
            "name": "Ottawa West—Nepean"
          }
        ],
        "pollDivisionIds": [
          10140848
        ],
        "postalCode": "K2E5T5",
        "streetName": "CHESTERTON",
        "streetDirectionId": null,
        "streetTypeId": "DR",
        "placeName": "NEPEAN",
        "streetNameDisplayText": "CHESTERTON DR, NEPEAN"
      }
    ]
  },
  {
    "postal": "K2E4W5",
    "result": []
  },
  {
    "postal": "K2E1T8",
    "result": []
  },
  {
    "postal": "K2E9G6",
    "result": []
  },
  {
    "postal": "K2E1H3",
    "result": []
  },
  {
    "postal": "K2E5R5",
    "result": [
      {
        "electoralDistricts": [
          {
            "election": null,
            "id": 81,
            "name": "Ottawa West—Nepean"
          }
        ],
        "pollDivisionIds": [
          10140849
        ],
        "postalCode": "K2E5R5",
        "streetName": "HILLHURST",
        "streetDirectionId": null,
        "streetTypeId": "PL",
        "placeName": "NEPEAN",
        "streetNameDisplayText": "HILLHURST PL, NEPEAN"
      }
    ]
  },
  {
    "postal": "K2E8A4",
    "result": [
      {
        "electoralDistricts": [
          {
            "election": null,
            "id": 66,
            "name": "Nepean"
          }
        ],
        "pollDivisionIds": [
          10126663
        ],
        "postalCode": "K2E8A4",
        "streetName": "TRISTAN",
        "streetDirectionId": null,
        "streetTypeId": "CRT",
        "placeName": "NEPEAN",
        "streetNameDisplayText": "TRISTAN CRT, NEPEAN"
      }
    ]
  },
  {
    "postal": "K2E3T6",
    "result": []
  },
  {
    "postal": "K2E9W8",
    "result": []
  },
  {
    "postal": "K2E0N3",
    "result": []
  },
  {
    "postal": "K2E7V0",
    "result": []
  },
  {
    "postal": "K2E8T5",
    "result": []
  },
  {
    "postal": "K2E5N3",
    "result": [
      {
        "electoralDistricts": [
          {
            "election": null,
            "id": 81,
            "name": "Ottawa West—Nepean"
          }
        ],
        "pollDivisionIds": [
          10140848
        ],
        "postalCode": "K2E5N3",
        "streetName": "CHARKAY",
        "streetDirectionId": null,
        "streetTypeId": "ST",
        "placeName": "NEPEAN",
        "streetNameDisplayText": "CHARKAY ST, NEPEAN"
      }
    ]
  },
  {
    "postal": "K2E5G9",
    "result": [
      {
        "electoralDistricts": [
          {
            "election": null,
            "id": 81,
            "name": "Ottawa West—Nepean"
          }
        ],
        "pollDivisionIds": [
          10140850
        ],
        "postalCode": "K2E5G9",
        "streetName": "LYALL",
        "streetDirectionId": null,
        "streetTypeId": "ST",
        "placeName": "NEPEAN",
        "streetNameDisplayText": "LYALL ST, NEPEAN"
      }
    ]
  },
  {
    "postal": "K2E3X8",
    "result": []
  },
  {
    "postal": "K2E9R3",
    "result": []
  },
  {
    "postal": "K2E2S1",
    "result": []
  },
  {
    "postal": "K2E9J7",
    "result": []
  },
  {
    "postal": "K2E2J3",
    "result": []
  },
  {
    "postal": "K2E3B6",
    "result": []
  },
  {
    "postal": "K2E8J0",
    "result": []
  },
  {
    "postal": "K2E7R4",
    "result": []
  },
  {
    "postal": "K2E8K8",
    "result": []
  },
  {
    "postal": "K2E4P3",
    "result": []
  },
  {
    "postal": "K2E0A2",
    "result": [
      {
        "electoralDistricts": [
          {
            "election": null,
            "id": 81,
            "name": "Ottawa West—Nepean"
          }
        ],
        "pollDivisionIds": [
          10140847
        ],
        "postalCode": "K2E0A2",
        "streetName": "ENCORE",
        "streetDirectionId": null,
        "streetTypeId": "PVT",
        "placeName": "NEPEAN",
        "streetNameDisplayText": "ENCORE PVT, NEPEAN"
      }
    ]
  },
  {
    "postal": "K2E2G2",
    "result": []
  },
  {
    "postal": "K2E5Y9",
    "result": [
      {
        "electoralDistricts": [
          {
            "election": null,
            "id": 81,
            "name": "Ottawa West—Nepean"
          }
        ],
        "pollDivisionIds": [
          10140850
        ],
        "postalCode": "K2E5Y9",
        "streetName": "KESLER",
        "streetDirectionId": null,
        "streetTypeId": "AVE",
        "placeName": "NEPEAN",
        "streetNameDisplayText": "KESLER AVE, NEPEAN"
      }
    ]
  },
  {
    "postal": "K2E7X0",
    "result": []
  },
  {
    "postal": "K2E7W3",
    "result": [
      {
        "electoralDistricts": [
          {
            "election": null,
            "id": 81,
            "name": "Ottawa West—Nepean"
          }
        ],
        "pollDivisionIds": [
          10140852
        ],
        "postalCode": "K2E7W3",
        "streetName": "VALLEY RIDGE",
        "streetDirectionId": null,
        "streetTypeId": "ST",
        "placeName": "NEPEAN",
        "streetNameDisplayText": "VALLEY RIDGE ST, NEPEAN"
      }
    ]
  },
  {
    "postal": "K2E7X5",
    "result": [
      {
        "electoralDistricts": [
          {
            "election": null,
            "id": 81,
            "name": "Ottawa West—Nepean"
          }
        ],
        "pollDivisionIds": [
          10140849
        ],
        "postalCode": "K2E7X5",
        "streetName": "VIEWMOUNT",
        "streetDirectionId": null,
        "streetTypeId": "DR",
        "placeName": "NEPEAN",
        "streetNameDisplayText": "VIEWMOUNT DR, NEPEAN"
      }
    ]
  },
  {
    "postal": "K2E5K6",
    "result": [
      {
        "electoralDistricts": [
          {
            "election": null,
            "id": 81,
            "name": "Ottawa West—Nepean"
          }
        ],
        "pollDivisionIds": [
          10140850
        ],
        "postalCode": "K2E5K6",
        "streetName": "HIGWOOD",
        "streetDirectionId": null,
        "streetTypeId": "DR",
        "placeName": "NEPEAN",
        "streetNameDisplayText": "HIGWOOD DR, NEPEAN"
      }
    ]
  },
  {
    "postal": "K2E5B6",
    "result": [
      {
        "electoralDistricts": [
          {
            "election": null,
            "id": 81,
            "name": "Ottawa West—Nepean"
          }
        ],
        "pollDivisionIds": [
          10140850,
          10140851
        ],
        "postalCode": "K2E5B6",
        "streetName": "MILLBROOK",
        "streetDirectionId": null,
        "streetTypeId": "CRES",
        "placeName": "NEPEAN",
        "streetNameDisplayText": "MILLBROOK CRES, NEPEAN"
      }
    ]
  },
  {
    "postal": "K2E7Z0",
    "result": []
  },
  {
    "postal": "K2E9H6",
    "result": []
  },
  {
    "postal": "K2E1B4",
    "result": [
      {
        "electoralDistricts": [
          {
            "election": null,
            "id": 66,
            "name": "Nepean"
          }
        ],
        "pollDivisionIds": [
          10126663
        ],
        "postalCode": "K2E1B4",
        "streetName": "O'DONNELL",
        "streetDirectionId": null,
        "streetTypeId": "CRT",
        "placeName": "NEPEAN",
        "streetNameDisplayText": "O'DONNELL CRT, NEPEAN"
      }
    ]
  },
  {
    "postal": "K2E1A0",
    "result": []
  },
  {
    "postal": "K2E9A0",
    "result": []
  },
  {
    "postal": "K2E1M6",
    "result": []
  },
  {
    "postal": "K2E5H0",
    "result": []
  },
  {
    "postal": "K2E1K6",
    "result": []
  },
  {
    "postal": "K2E5E1",
    "result": [
      {
        "electoralDistricts": [
          {
            "election": null,
            "id": 81,
            "name": "Ottawa West—Nepean"
          }
        ],
        "pollDivisionIds": [
          10140850
        ],
        "postalCode": "K2E5E1",
        "streetName": "BARLYN",
        "streetDirectionId": null,
        "streetTypeId": "AVE",
        "placeName": "NEPEAN",
        "streetNameDisplayText": "BARLYN AVE, NEPEAN"
      }
    ]
  },
  {
    "postal": "K2E3T9",
    "result": []
  },
  {
    "postal": "K2E2M6",
    "result": []
  },
  {
    "postal": "K2E0G5",
    "result": []
  },
  {
    "postal": "K2E0Y2",
    "result": []
  },
  {
    "postal": "K2E2Y7",
    "result": []
  },
  {
    "postal": "K2E2J7",
    "result": []
  },
  {
    "postal": "K2E4K7",
    "result": []
  },
  {
    "postal": "K2E7P9",
    "result": [
      {
        "electoralDistricts": [
          {
            "election": null,
            "id": 81,
            "name": "Ottawa West—Nepean"
          }
        ],
        "pollDivisionIds": [
          10140852
        ],
        "postalCode": "K2E7P9",
        "streetName": "FOUR SEASONS",
        "streetDirectionId": null,
        "streetTypeId": "DR",
        "placeName": "NEPEAN",
        "streetNameDisplayText": "FOUR SEASONS DR, NEPEAN"
      }
    ]
  },
  {
    "postal": "K2E8X0",
    "result": []
  },
  {
    "postal": "K2E3X1",
    "result": []
  },
  {
    "postal": "K2E1R5",
    "result": []
  },
  {
    "postal": "K2E6X6",
    "result": [
      {
        "electoralDistricts": [
          {
            "election": null,
            "id": 66,
            "name": "Nepean"
          }
        ],
        "pollDivisionIds": [
          10126663
        ],
        "postalCode": "K2E6X6",
        "streetName": "PINEGLEN",
        "streetDirectionId": null,
        "streetTypeId": "CRES",
        "placeName": "NEPEAN",
        "streetNameDisplayText": "PINEGLEN CRES, NEPEAN"
      }
    ]
  },
  {
    "postal": "K2E0Y1",
    "result": []
  },
  {
    "postal": "K2E8G1",
    "result": []
  },
  {
    "postal": "K2E3J3",
    "result": []
  },
  {
    "postal": "K2E8C2",
    "result": [
      {
        "electoralDistricts": [
          {
            "election": null,
            "id": 81,
            "name": "Ottawa West—Nepean"
          }
        ],
        "pollDivisionIds": [
          10140853
        ],
        "postalCode": "K2E8C2",
        "streetName": "WELLSMERE",
        "streetDirectionId": null,
        "streetTypeId": "CRT",
        "placeName": "NEPEAN",
        "streetNameDisplayText": "WELLSMERE CRT, NEPEAN"
      }
    ]
  },
  {
    "postal": "K2E4X9",
    "result": []
  },
  {
    "postal": "K2E6G9",
    "result": [
      {
        "electoralDistricts": [
          {
            "election": null,
            "id": 81,
            "name": "Ottawa West—Nepean"
          }
        ],
        "pollDivisionIds": [
          10140850
        ],
        "postalCode": "K2E6G9",
        "streetName": "DEER PARK",
        "streetDirectionId": null,
        "streetTypeId": "RD",
        "placeName": "NEPEAN",
        "streetNameDisplayText": "DEER PARK RD, NEPEAN"
      }
    ]
  },
  {
    "postal": "K2E4M3",
    "result": []
  },
  {
    "postal": "K2E9P7",
    "result": []
  },
  {
    "postal": "K2E4E5",
    "result": []
  },
  {
    "postal": "K2E5K9",
    "result": [
      {
        "electoralDistricts": [
          {
            "election": null,
            "id": 81,
            "name": "Ottawa West—Nepean"
          }
        ],
        "pollDivisionIds": [
          10140847
        ],
        "postalCode": "K2E5K9",
        "streetName": "HIGWOOD",
        "streetDirectionId": null,
        "streetTypeId": "DR",
        "placeName": "NEPEAN",
        "streetNameDisplayText": "HIGWOOD DR, NEPEAN"
      }
    ]
  },
  {
    "postal": "K2E2V2",
    "result": []
  },
  {
    "postal": "K2E2N9",
    "result": []
  },
  {
    "postal": "K2E6L4",
    "result": [
      {
        "electoralDistricts": [
          {
            "election": null,
            "id": 81,
            "name": "Ottawa West—Nepean"
          }
        ],
        "pollDivisionIds": [
          10140848
        ],
        "postalCode": "K2E6L4",
        "streetName": "TIVERTON",
        "streetDirectionId": null,
        "streetTypeId": "DR",
        "placeName": "NEPEAN",
        "streetNameDisplayText": "TIVERTON DR, NEPEAN"
      }
    ]
  },
  {
    "postal": "K2E8E0",
    "result": []
  },
  {
    "postal": "K2E0N0",
    "result": []
  },
  {
    "postal": "K2E6R0",
    "result": []
  },
  {
    "postal": "K2E9C1",
    "result": []
  },
  {
    "postal": "K2E4H4",
    "result": []
  },
  {
    "postal": "K2E5W3",
    "result": [
      {
        "electoralDistricts": [
          {
            "election": null,
            "id": 66,
            "name": "Nepean"
          }
        ],
        "pollDivisionIds": [
          10126663
        ],
        "postalCode": "K2E5W3",
        "streetName": "BELLEDUNE",
        "streetDirectionId": null,
        "streetTypeId": "RD",
        "placeName": "NEPEAN",
        "streetNameDisplayText": "BELLEDUNE RD, NEPEAN"
      }
    ]
  },
  {
    "postal": "K2E9N9",
    "result": []
  },
  {
    "postal": "K2E1V7",
    "result": []
  },
  {
    "postal": "K2E8J1",
    "result": []
  },
  {
    "postal": "K2E5V9",
    "result": [
      {
        "electoralDistricts": [
          {
            "election": null,
            "id": 66,
            "name": "Nepean"
          }
        ],
        "pollDivisionIds": [
          10126663
        ],
        "postalCode": "K2E5V9",
        "streetName": "BELLEDUNE",
        "streetDirectionId": null,
        "streetTypeId": "RD",
        "placeName": "NEPEAN",
        "streetNameDisplayText": "BELLEDUNE RD, NEPEAN"
      }
    ]
  },
  {
    "postal": "K2E2S8",
    "result": []
  },
  {
    "postal": "K2E6P0",
    "result": []
  },
  {
    "postal": "K2E4J8",
    "result": []
  },
  {
    "postal": "K2E0N1",
    "result": []
  },
  {
    "postal": "K2E1Y7",
    "result": []
  },
  {
    "postal": "K2E7W5",
    "result": [
      {
        "electoralDistricts": [
          {
            "election": null,
            "id": 66,
            "name": "Nepean"
          }
        ],
        "pollDivisionIds": [
          10126663
        ],
        "postalCode": "K2E7W5",
        "streetName": "ANTARES",
        "streetDirectionId": null,
        "streetTypeId": "DR",
        "placeName": "NEPEAN",
        "streetNameDisplayText": "ANTARES DR, NEPEAN"
      }
    ]
  },
  {
    "postal": "K2E3Z1",
    "result": []
  },
  {
    "postal": "K2E7M6",
    "result": [
      {
        "electoralDistricts": [
          {
            "election": null,
            "id": 81,
            "name": "Ottawa West—Nepean"
          }
        ],
        "pollDivisionIds": [
          10140853
        ],
        "postalCode": "K2E7M6",
        "streetName": "COLONNADE",
        "streetDirectionId": "N",
        "streetTypeId": "RD",
        "placeName": "NEPEAN",
        "streetNameDisplayText": "COLONNADE RD N, NEPEAN"
      }
    ]
  },
  {
    "postal": "K2E1W7",
    "result": []
  },
  {
    "postal": "K2E1X1",
    "result": []
  },
  {
    "postal": "K2E0C1",
    "result": []
  },
  {
    "postal": "K2E4N3",
    "result": []
  },
  {
    "postal": "K2E4S8",
    "result": []
  },
  {
    "postal": "K2E1H6",
    "result": []
  },
  {
    "postal": "K2E2Z4",
    "result": []
  },
  {
    "postal": "K2E7K3",
    "result": [
      {
        "electoralDistricts": [
          {
            "election": null,
            "id": 81,
            "name": "Ottawa West—Nepean"
          }
        ],
        "pollDivisionIds": [
          10140853
        ],
        "postalCode": "K2E7K3",
        "streetName": "COLONNADE",
        "streetDirectionId": "S",
        "streetTypeId": "RD",
        "placeName": "NEPEAN",
        "streetNameDisplayText": "COLONNADE RD S, NEPEAN"
      }
    ]
  },
  {
    "postal": "K2E8A2",
    "result": [
      {
        "electoralDistricts": [
          {
            "election": null,
            "id": 81,
            "name": "Ottawa West—Nepean"
          }
        ],
        "pollDivisionIds": [
          10140853
        ],
        "postalCode": "K2E8A2",
        "streetName": "GURDWARA",
        "streetDirectionId": null,
        "streetTypeId": "RD",
        "placeName": "NEPEAN",
        "streetNameDisplayText": "GURDWARA RD, NEPEAN"
      }
    ]
  },
  {
    "postal": "K2E6J1",
    "result": [
      {
        "electoralDistricts": [
          {
            "election": null,
            "id": 81,
            "name": "Ottawa West—Nepean"
          }
        ],
        "pollDivisionIds": [
          10140851
        ],
        "postalCode": "K2E6J1",
        "streetName": "MEADOWLANDS",
        "streetDirectionId": "E",
        "streetTypeId": "DR",
        "placeName": "NEPEAN",
        "streetNameDisplayText": "MEADOWLANDS DR E, NEPEAN"
      }
    ]
  },
  {
    "postal": "K2E5Z6",
    "result": [
      {
        "electoralDistricts": [
          {
            "election": null,
            "id": 81,
            "name": "Ottawa West—Nepean"
          }
        ],
        "pollDivisionIds": [
          10140850
        ],
        "postalCode": "K2E5Z6",
        "streetName": "CORAL",
        "streetDirectionId": null,
        "streetTypeId": "AVE",
        "placeName": "NEPEAN",
        "streetNameDisplayText": "CORAL AVE, NEPEAN"
      }
    ]
  },
  {
    "postal": "K2E3Z0",
    "result": []
  },
  {
    "postal": "K2E8M0",
    "result": []
  },
  {
    "postal": "K2E1Z6",
    "result": []
  },
  {
    "postal": "K2E8K7",
    "result": []
  },
  {
    "postal": "K2E1N3",
    "result": []
  },
  {
    "postal": "K2E9S2",
    "result": []
  },
  {
    "postal": "K2E2K1",
    "result": []
  },
  {
    "postal": "K2E1E8",
    "result": []
  },
  {
    "postal": "K2E9B8",
    "result": []
  },
  {
    "postal": "K2E7X4",
    "result": [
      {
        "electoralDistricts": [
          {
            "election": null,
            "id": 81,
            "name": "Ottawa West—Nepean"
          }
        ],
        "pollDivisionIds": [
          10140849
        ],
        "postalCode": "K2E7X4",
        "streetName": "VIEWMOUNT",
        "streetDirectionId": null,
        "streetTypeId": "DR",
        "placeName": "NEPEAN",
        "streetNameDisplayText": "VIEWMOUNT DR, NEPEAN"
      }
    ]
  },
  {
    "postal": "K2E1Z4",
    "result": []
  },
  {
    "postal": "K2E2C7",
    "result": []
  },
  {
    "postal": "K2E2E7",
    "result": []
  },
  {
    "postal": "K2E3R1",
    "result": []
  },
  {
    "postal": "K2E4K4",
    "result": []
  },
  {
    "postal": "K2E9G3",
    "result": []
  },
  {
    "postal": "K2E6C9",
    "result": [
      {
        "electoralDistricts": [
          {
            "election": null,
            "id": 81,
            "name": "Ottawa West—Nepean"
          }
        ],
        "pollDivisionIds": [
          10140847
        ],
        "postalCode": "K2E6C9",
        "streetName": "BEAVER",
        "streetDirectionId": null,
        "streetTypeId": "RIDGE",
        "placeName": "NEPEAN",
        "streetNameDisplayText": "BEAVER RIDGE, NEPEAN"
      }
    ]
  },
  {
    "postal": "K2E9H5",
    "result": []
  },
  {
    "postal": "K2E1P5",
    "result": []
  },
  {
    "postal": "K2E2J5",
    "result": []
  },
  {
    "postal": "K2E4W6",
    "result": []
  },
  {
    "postal": "K2E8M8",
    "result": []
  },
  {
    "postal": "K2E6C5",
    "result": [
      {
        "electoralDistricts": [
          {
            "election": null,
            "id": 81,
            "name": "Ottawa West—Nepean"
          }
        ],
        "pollDivisionIds": [
          10140850
        ],
        "postalCode": "K2E6C5",
        "streetName": "HILLIARD",
        "streetDirectionId": null,
        "streetTypeId": "AVE",
        "placeName": "NEPEAN",
        "streetNameDisplayText": "HILLIARD AVE, NEPEAN"
      }
    ]
  },
  {
    "postal": "K2E9H0",
    "result": []
  },
  {
    "postal": "K2E1X8",
    "result": []
  },
  {
    "postal": "K2E3H4",
    "result": []
  },
  {
    "postal": "K2E4E7",
    "result": []
  },
  {
    "postal": "K2E8A0",
    "result": []
  },
  {
    "postal": "K2E1Z7",
    "result": []
  },
  {
    "postal": "K2E7Z3",
    "result": []
  },
  {
    "postal": "K2E0L7",
    "result": []
  },
  {
    "postal": "K2E2C6",
    "result": []
  },
  {
    "postal": "K2E6M3",
    "result": [
      {
        "electoralDistricts": [
          {
            "election": null,
            "id": 81,
            "name": "Ottawa West—Nepean"
          }
        ],
        "pollDivisionIds": [
          10140848
        ],
        "postalCode": "K2E6M3",
        "streetName": "BOWMOOR",
        "streetDirectionId": null,
        "streetTypeId": "AVE",
        "placeName": "NEPEAN",
        "streetNameDisplayText": "BOWMOOR AVE, NEPEAN"
      }
    ]
  },
  {
    "postal": "K2E2J1",
    "result": []
  },
  {
    "postal": "K2E3E3",
    "result": []
  },
  {
    "postal": "K2E6Z9",
    "result": [
      {
        "electoralDistricts": [
          {
            "election": null,
            "id": 66,
            "name": "Nepean"
          }
        ],
        "pollDivisionIds": [
          10126663
        ],
        "postalCode": "K2E6Z9",
        "streetName": "PRINCE OF WALES",
        "streetDirectionId": null,
        "streetTypeId": "DR",
        "placeName": "NEPEAN",
        "streetNameDisplayText": "PRINCE OF WALES DR, NEPEAN"
      }
    ]
  },
  {
    "postal": "K2E3M3",
    "result": []
  },
  {
    "postal": "K2E9B1",
    "result": []
  },
  {
    "postal": "K2E9J5",
    "result": []
  },
  {
    "postal": "K2E4V8",
    "result": []
  },
  {
    "postal": "K2E6W2",
    "result": [
      {
        "electoralDistricts": [
          {
            "election": null,
            "id": 66,
            "name": "Nepean"
          }
        ],
        "pollDivisionIds": [
          10126663
        ],
        "postalCode": "K2E6W2",
        "streetName": "BRIGGS",
        "streetDirectionId": null,
        "streetTypeId": "AVE",
        "placeName": "NEPEAN",
        "streetNameDisplayText": "BRIGGS AVE, NEPEAN"
      }
    ]
  },
  {
    "postal": "K2E0V5",
    "result": []
  },
  {
    "postal": "K2E0Z8",
    "result": []
  },
  {
    "postal": "K2E5G2",
    "result": [
      {
        "electoralDistricts": [
          {
            "election": null,
            "id": 81,
            "name": "Ottawa West—Nepean"
          }
        ],
        "pollDivisionIds": [
          10140850
        ],
        "postalCode": "K2E5G2",
        "streetName": "SUTTON",
        "streetDirectionId": null,
        "streetTypeId": "PL",
        "placeName": "NEPEAN",
        "streetNameDisplayText": "SUTTON PL, NEPEAN"
      }
    ]
  },
  {
    "postal": "K2E4N4",
    "result": []
  },
  {
    "postal": "K2E8G7",
    "result": []
  },
  {
    "postal": "K2E8W1",
    "result": []
  },
  {
    "postal": "K2E1S6",
    "result": []
  },
  {
    "postal": "K2E4E0",
    "result": []
  },
  {
    "postal": "K2E4L9",
    "result": []
  },
  {
    "postal": "K2E5Z9",
    "result": [
      {
        "electoralDistricts": [
          {
            "election": null,
            "id": 81,
            "name": "Ottawa West—Nepean"
          }
        ],
        "pollDivisionIds": [
          10140847
        ],
        "postalCode": "K2E5Z9",
        "streetName": "ELEANOR",
        "streetDirectionId": null,
        "streetTypeId": "DR",
        "placeName": "NEPEAN",
        "streetNameDisplayText": "ELEANOR DR, NEPEAN"
      }
    ]
  },
  {
    "postal": "K2E5V3",
    "result": [
      {
        "electoralDistricts": [
          {
            "election": null,
            "id": 81,
            "name": "Ottawa West—Nepean"
          }
        ],
        "pollDivisionIds": [
          10140849
        ],
        "postalCode": "K2E5V3",
        "streetName": "OVERLAKE",
        "streetDirectionId": null,
        "streetTypeId": "DR",
        "placeName": "NEPEAN",
        "streetNameDisplayText": "OVERLAKE DR, NEPEAN"
      }
    ]
  },
  {
    "postal": "K2E4V2",
    "result": []
  },
  {
    "postal": "K2E7C0",
    "result": []
  },
  {
    "postal": "K2E6L0",
    "result": []
  },
  {
    "postal": "K2E1S9",
    "result": []
  },
  {
    "postal": "K2E7R6",
    "result": [
      {
        "electoralDistricts": [
          {
            "election": null,
            "id": 81,
            "name": "Ottawa West—Nepean"
          }
        ],
        "pollDivisionIds": [
          10140849
        ],
        "postalCode": "K2E7R6",
        "streetName": "EUROPA",
        "streetDirectionId": null,
        "streetTypeId": "PVT",
        "placeName": "NEPEAN",
        "streetNameDisplayText": "EUROPA PVT, NEPEAN"
      }
    ]
  },
  {
    "postal": "K2E7J0",
    "result": []
  },
  {
    "postal": "K2E5M0",
    "result": []
  },
  {
    "postal": "K2E2E5",
    "result": []
  },
  {
    "postal": "K2E7C7",
    "result": [
      {
        "electoralDistricts": [
          {
            "election": null,
            "id": 66,
            "name": "Nepean"
          }
        ],
        "pollDivisionIds": [
          10126663
        ],
        "postalCode": "K2E7C7",
        "streetName": "BROAD OAKS",
        "streetDirectionId": null,
        "streetTypeId": "CRT",
        "placeName": "NEPEAN",
        "streetNameDisplayText": "BROAD OAKS CRT, NEPEAN"
      }
    ]
  },
  {
    "postal": "K2E5C0",
    "result": []
  },
  {
    "postal": "K2E8V9",
    "result": []
  },
  {
    "postal": "K2E7E0",
    "result": []
  },
  {
    "postal": "K2E6R4",
    "result": [
      {
        "electoralDistricts": [
          {
            "election": null,
            "id": 81,
            "name": "Ottawa West—Nepean"
          }
        ],
        "pollDivisionIds": [
          10140851
        ],
        "postalCode": "K2E6R4",
        "streetName": "FALAISE",
        "streetDirectionId": null,
        "streetTypeId": "RD",
        "placeName": "NEPEAN",
        "streetNameDisplayText": "FALAISE RD, NEPEAN"
      }
    ]
  },
  {
    "postal": "K2E3Z7",
    "result": []
  },
  {
    "postal": "K2E1J9",
    "result": []
  },
  {
    "postal": "K2E7K6",
    "result": [
      {
        "electoralDistricts": [
          {
            "election": null,
            "id": 81,
            "name": "Ottawa West—Nepean"
          }
        ],
        "pollDivisionIds": [
          10140849
        ],
        "postalCode": "K2E7K6",
        "streetName": "GIMLI",
        "streetDirectionId": null,
        "streetTypeId": "CRT",
        "placeName": "NEPEAN",
        "streetNameDisplayText": "GIMLI CRT, NEPEAN"
      }
    ]
  },
  {
    "postal": "K2E7Y5",
    "result": [
      {
        "electoralDistricts": [
          {
            "election": null,
            "id": 66,
            "name": "Nepean"
          }
        ],
        "pollDivisionIds": [
          10126663
        ],
        "postalCode": "K2E7Y5",
        "streetName": "AURIGA",
        "streetDirectionId": null,
        "streetTypeId": "DR",
        "placeName": "NEPEAN",
        "streetNameDisplayText": "AURIGA DR, NEPEAN"
      }
    ]
  },
  {
    "postal": "K2E1B7",
    "result": [
      {
        "electoralDistricts": [
          {
            "election": null,
            "id": 66,
            "name": "Nepean"
          }
        ],
        "pollDivisionIds": [
          10126663
        ],
        "postalCode": "K2E1B7",
        "streetName": "AURIGA",
        "streetDirectionId": null,
        "streetTypeId": "DR",
        "placeName": "NEPEAN",
        "streetNameDisplayText": "AURIGA DR, NEPEAN"
      }
    ]
  },
  {
    "postal": "K2E4S9",
    "result": []
  },
  {
    "postal": "K2E9R9",
    "result": []
  },
  {
    "postal": "K2E5K7",
    "result": [
      {
        "electoralDistricts": [
          {
            "election": null,
            "id": 81,
            "name": "Ottawa West—Nepean"
          }
        ],
        "pollDivisionIds": [
          10140847,
          10140850
        ],
        "postalCode": "K2E5K7",
        "streetName": "HIGWOOD",
        "streetDirectionId": null,
        "streetTypeId": "DR",
        "placeName": "NEPEAN",
        "streetNameDisplayText": "HIGWOOD DR, NEPEAN"
      }
    ]
  },
  {
    "postal": "K2E6P2",
    "result": [
      {
        "electoralDistricts": [
          {
            "election": null,
            "id": 81,
            "name": "Ottawa West—Nepean"
          }
        ],
        "pollDivisionIds": [
          10140852
        ],
        "postalCode": "K2E6P2",
        "streetName": "SEYMOUR",
        "streetDirectionId": null,
        "streetTypeId": "AVE",
        "placeName": "NEPEAN",
        "streetNameDisplayText": "SEYMOUR AVE, NEPEAN"
      }
    ]
  },
  {
    "postal": "K2E2C5",
    "result": []
  },
  {
    "postal": "K2E2N0",
    "result": []
  },
  {
    "postal": "K2E1G0",
    "result": []
  },
  {
    "postal": "K2E4K5",
    "result": []
  },
  {
    "postal": "K2E9B5",
    "result": []
  },
  {
    "postal": "K2E6T5",
    "result": [
      {
        "electoralDistricts": [
          {
            "election": null,
            "id": 81,
            "name": "Ottawa West—Nepean"
          }
        ],
        "pollDivisionIds": [
          10140849
        ],
        "postalCode": "K2E6T5",
        "streetName": "VIEWMOUNT",
        "streetDirectionId": null,
        "streetTypeId": "DR",
        "placeName": "NEPEAN",
        "streetNameDisplayText": "VIEWMOUNT DR, NEPEAN"
      }
    ]
  },
  {
    "postal": "K2E1N8",
    "result": []
  },
  {
    "postal": "K2E0C0",
    "result": []
  },
  {
    "postal": "K2E0R9",
    "result": []
  },
  {
    "postal": "K2E7L1",
    "result": []
  },
  {
    "postal": "K2E3Y8",
    "result": []
  },
  {
    "postal": "K2E7X9",
    "result": [
      {
        "electoralDistricts": [
          {
            "election": null,
            "id": 66,
            "name": "Nepean"
          }
        ],
        "pollDivisionIds": [
          10126663
        ],
        "postalCode": "K2E7X9",
        "streetName": "CAMPFIELD",
        "streetDirectionId": null,
        "streetTypeId": "CRT",
        "placeName": "NEPEAN",
        "streetNameDisplayText": "CAMPFIELD CRT, NEPEAN"
      }
    ]
  },
  {
    "postal": "K2E1A7",
    "result": []
  },
  {
    "postal": "K2E2T9",
    "result": []
  },
  {
    "postal": "K2E2E6",
    "result": []
  },
  {
    "postal": "K2E8Y1",
    "result": []
  },
  {
    "postal": "K2E0J5",
    "result": []
  },
  {
    "postal": "K2E4J1",
    "result": []
  },
  {
    "postal": "K2E1A5",
    "result": [
      {
        "electoralDistricts": [
          {
            "election": null,
            "id": 66,
            "name": "Nepean"
          }
        ],
        "pollDivisionIds": [
          10126663
        ],
        "postalCode": "K2E1A5",
        "streetName": "WEST HUNT CLUB",
        "streetDirectionId": null,
        "streetTypeId": "RD",
        "placeName": "NEPEAN",
        "streetNameDisplayText": "WEST HUNT CLUB RD, NEPEAN"
      }
    ]
  },
  {
    "postal": "K2E6Z6",
    "result": [
      {
        "electoralDistricts": [
          {
            "election": null,
            "id": 81,
            "name": "Ottawa West—Nepean"
          }
        ],
        "pollDivisionIds": [
          10140847
        ],
        "postalCode": "K2E6Z6",
        "streetName": "KIMWAY",
        "streetDirectionId": null,
        "streetTypeId": "CRES",
        "placeName": "NEPEAN",
        "streetNameDisplayText": "KIMWAY CRES, NEPEAN"
      }
    ]
  },
  {
    "postal": "K2E5K4",
    "result": [
      {
        "electoralDistricts": [
          {
            "election": null,
            "id": 81,
            "name": "Ottawa West—Nepean"
          }
        ],
        "pollDivisionIds": [
          10140847
        ],
        "postalCode": "K2E5K4",
        "streetName": "BEAVERTON",
        "streetDirectionId": null,
        "streetTypeId": "AVE",
        "placeName": "NEPEAN",
        "streetNameDisplayText": "BEAVERTON AVE, NEPEAN"
      }
    ]
  },
  {
    "postal": "K2E7R9",
    "result": [
      {
        "electoralDistricts": [
          {
            "election": null,
            "id": 81,
            "name": "Ottawa West—Nepean"
          }
        ],
        "pollDivisionIds": [
          10140852
        ],
        "postalCode": "K2E7R9",
        "streetName": "VIEWMOUNT",
        "streetDirectionId": null,
        "streetTypeId": "DR",
        "placeName": "NEPEAN",
        "streetNameDisplayText": "VIEWMOUNT DR, NEPEAN"
      },
      {
        "electoralDistricts": [
          {
            "election": null,
            "id": 81,
            "name": "Ottawa West—Nepean"
          }
        ],
        "pollDivisionIds": [
          10140852
        ],
        "postalCode": "K2E7R9",
        "streetName": "VIEWMOUNT DR.",
        "streetDirectionId": null,
        "streetTypeId": "DR",
        "placeName": "NEPEAN",
        "streetNameDisplayText": "VIEWMOUNT DR. DR, NEPEAN"
      }
    ]
  },
  {
    "postal": "K2E6G4",
    "result": [
      {
        "electoralDistricts": [
          {
            "election": null,
            "id": 81,
            "name": "Ottawa West—Nepean"
          }
        ],
        "pollDivisionIds": [
          10140848
        ],
        "postalCode": "K2E6G4",
        "streetName": "CAPILANO",
        "streetDirectionId": null,
        "streetTypeId": "DR",
        "placeName": "NEPEAN",
        "streetNameDisplayText": "CAPILANO DR, NEPEAN"
      }
    ]
  }
]
