[
  {
    "postal": "L4R9J6",
    "result": []
  },
  {
    "postal": "L4R9Z5",
    "result": []
  },
  {
    "postal": "L4R7H8",
    "result": []
  },
  {
    "postal": "L4R0P6",
    "result": []
  },
  {
    "postal": "L4R0S7",
    "result": []
  },
  {
    "postal": "L4R8B9",
    "result": []
  },
  {
    "postal": "L4R2A6",
    "result": [
      {
        "electoralDistricts": [
          {
            "election": null,
            "id": 100,
            "name": "Simcoe North"
          }
        ],
        "pollDivisionIds": [
          10141885
        ],
        "postalCode": "L4R2A6",
        "streetName": "HORRELL",
        "streetDirectionId": null,
        "streetTypeId": "AVE",
        "placeName": "MIDLAND",
        "streetNameDisplayText": "HORRELL AVE, MIDLAND"
      }
    ]
  },
  {
    "postal": "L4R7V2",
    "result": []
  },
  {
    "postal": "L4R9P4",
    "result": []
  },
  {
    "postal": "L4R6G0",
    "result": []
  },
  {
    "postal": "L4R2K0",
    "result": []
  },
  {
    "postal": "L4R7N6",
    "result": []
  },
  {
    "postal": "L4R5R3",
    "result": []
  },
  {
    "postal": "L4R7K0",
    "result": []
  },
  {
    "postal": "L4R3R2",
    "result": [
      {
        "electoralDistricts": [
          {
            "election": null,
            "id": 100,
            "name": "Simcoe North"
          }
        ],
        "pollDivisionIds": [
          10141885
        ],
        "postalCode": "L4R3R2",
        "streetName": "SECOND",
        "streetDirectionId": null,
        "streetTypeId": "ST",
        "placeName": "MIDLAND",
        "streetNameDisplayText": "SECOND ST, MIDLAND"
      }
    ]
  },
  {
    "postal": "L4R0J1",
    "result": []
  },
  {
    "postal": "L4R0B0",
    "result": []
  },
  {
    "postal": "L4R5Z2",
    "result": []
  },
  {
    "postal": "L4R7P3",
    "result": []
  },
  {
    "postal": "L4R2K3",
    "result": [
      {
        "electoralDistricts": [
          {
            "election": null,
            "id": 100,
            "name": "Simcoe North"
          }
        ],
        "pollDivisionIds": [
          10141885
        ],
        "postalCode": "L4R2K3",
        "streetName": "COLBORNE",
        "streetDirectionId": null,
        "streetTypeId": "ST",
        "placeName": "MIDLAND",
        "streetNameDisplayText": "COLBORNE ST, MIDLAND"
      }
    ]
  },
  {
    "postal": "L4R7Y6",
    "result": []
  },
  {
    "postal": "L4R1L9",
    "result": [
      {
        "electoralDistricts": [
          {
            "election": null,
            "id": 100,
            "name": "Simcoe North"
          }
        ],
        "pollDivisionIds": [
          10141884
        ],
        "postalCode": "L4R1L9",
        "streetName": "BAY",
        "streetDirectionId": null,
        "streetTypeId": "ST",
        "placeName": "MIDLAND",
        "streetNameDisplayText": "BAY ST, MIDLAND"
      }
    ]
  },
  {
    "postal": "L4R8T0",
    "result": []
  },
  {
    "postal": "L4R3K8",
    "result": [
      {
        "electoralDistricts": [
          {
            "election": null,
            "id": 100,
            "name": "Simcoe North"
          }
        ],
        "pollDivisionIds": [
          10141885
        ],
        "postalCode": "L4R3K8",
        "streetName": "MIDLAND",
        "streetDirectionId": null,
        "streetTypeId": "AVE",
        "placeName": "MIDLAND",
        "streetNameDisplayText": "MIDLAND AVE, MIDLAND"
      }
    ]
  },
  {
    "postal": "L4R5W9",
    "result": []
  },
  {
    "postal": "L4R6T9",
    "result": []
  },
  {
    "postal": "L4R4H1",
    "result": []
  },
  {
    "postal": "L4R7A2",
    "result": []
  },
  {
    "postal": "L4R5G0",
    "result": []
  },
  {
    "postal": "L4R8V5",
    "result": []
  },
  {
    "postal": "L4R2Y8",
    "result": [
      {
        "electoralDistricts": [
          {
            "election": null,
            "id": 100,
            "name": "Simcoe North"
          }
        ],
        "pollDivisionIds": [
          10141885
        ],
        "postalCode": "L4R2Y8",
        "streetName": "JOHNSON",
        "streetDirectionId": null,
        "streetTypeId": "ST",
        "placeName": "MIDLAND",
        "streetNameDisplayText": "JOHNSON ST, MIDLAND"
      }
    ]
  },
  {
    "postal": "L4R2B6",
    "result": [
      {
        "electoralDistricts": [
          {
            "election": null,
            "id": 100,
            "name": "Simcoe North"
          }
        ],
        "pollDivisionIds": [
          10141885
        ],
        "postalCode": "L4R2B6",
        "streetName": "YONGE",
        "streetDirectionId": null,
        "streetTypeId": "ST",
        "placeName": "MIDLAND",
        "streetNameDisplayText": "YONGE ST, MIDLAND"
      }
    ]
  },
  {
    "postal": "L4R4W8",
    "result": [
      {
        "electoralDistricts": [
          {
            "election": null,
            "id": 100,
            "name": "Simcoe North"
          }
        ],
        "pollDivisionIds": [
          10141886
        ],
        "postalCode": "L4R4W8",
        "streetName": "WILLOWBROOK",
        "streetDirectionId": null,
        "streetTypeId": "CRT",
        "placeName": "MIDLAND",
        "streetNameDisplayText": "WILLOWBROOK CRT, MIDLAND"
      }
    ]
  },
  {
    "postal": "L4R8H7",
    "result": []
  },
  {
    "postal": "L4R5P1",
    "result": [
      {
        "electoralDistricts": [
          {
            "election": null,
            "id": 100,
            "name": "Simcoe North"
          }
        ],
        "pollDivisionIds": [
          10141886
        ],
        "postalCode": "L4R5P1",
        "streetName": "ABERDEEN",
        "streetDirectionId": null,
        "streetTypeId": "BLVD",
        "placeName": "MIDLAND",
        "streetNameDisplayText": "ABERDEEN BLVD, MIDLAND"
      }
    ]
  },
  {
    "postal": "L4R2B8",
    "result": [
      {
        "electoralDistricts": [
          {
            "election": null,
            "id": 100,
            "name": "Simcoe North"
          }
        ],
        "pollDivisionIds": [
          10141885
        ],
        "postalCode": "L4R2B8",
        "streetName": "YONGE",
        "streetDirectionId": null,
        "streetTypeId": "ST",
        "placeName": "MIDLAND",
        "streetNameDisplayText": "YONGE ST, MIDLAND"
      }
    ]
  },
  {
    "postal": "L4R0P2",
    "result": []
  },
  {
    "postal": "L4R9M1",
    "result": []
  },
  {
    "postal": "L4R3G0",
    "result": []
  },
  {
    "postal": "L4R9Z2",
    "result": []
  },
  {
    "postal": "L4R2A0",
    "result": []
  },
  {
    "postal": "L4R6Y0",
    "result": []
  },
  {
    "postal": "L4R2Z8",
    "result": [
      {
        "electoralDistricts": [
          {
            "election": null,
            "id": 100,
            "name": "Simcoe North"
          }
        ],
        "pollDivisionIds": [
          10141885
        ],
        "postalCode": "L4R2Z8",
        "streetName": "RUSSELL",
        "streetDirectionId": null,
        "streetTypeId": "ST",
        "placeName": "MIDLAND",
        "streetNameDisplayText": "RUSSELL ST, MIDLAND"
      }
    ]
  },
  {
    "postal": "L4R7Y3",
    "result": []
  },
  {
    "postal": "L4R6Z5",
    "result": []
  },
  {
    "postal": "L4R6E0",
    "result": []
  },
  {
    "postal": "L4R9B7",
    "result": []
  },
  {
    "postal": "L4R9S5",
    "result": []
  },
  {
    "postal": "L4R3X3",
    "result": [
      {
        "electoralDistricts": [
          {
            "election": null,
            "id": 100,
            "name": "Simcoe North"
          }
        ],
        "pollDivisionIds": [
          10141884
        ],
        "postalCode": "L4R3X3",
        "streetName": "6TH",
        "streetDirectionId": null,
        "streetTypeId": "ST",
        "placeName": "MIDLAND",
        "streetNameDisplayText": "6TH ST, MIDLAND"
      },
      {
        "electoralDistricts": [
          {
            "election": null,
            "id": 100,
            "name": "Simcoe North"
          }
        ],
        "pollDivisionIds": [
          10141884
        ],
        "postalCode": "L4R3X3",
        "streetName": "SIXTH",
        "streetDirectionId": null,
        "streetTypeId": "ST",
        "placeName": "MIDLAND",
        "streetNameDisplayText": "SIXTH ST, MIDLAND"
      }
    ]
  },
  {
    "postal": "L4R7R5",
    "result": []
  },
  {
    "postal": "L4R2X3",
    "result": [
      {
        "electoralDistricts": [
          {
            "election": null,
            "id": 100,
            "name": "Simcoe North"
          }
        ],
        "pollDivisionIds": [
          10141885
        ],
        "postalCode": "L4R2X3",
        "streetName": "BORDEN",
        "streetDirectionId": null,
        "streetTypeId": "ST",
        "placeName": "MIDLAND",
        "streetNameDisplayText": "BORDEN ST, MIDLAND"
      }
    ]
  },
  {
    "postal": "L4R8Z9",
    "result": []
  },
  {
    "postal": "L4R0N4",
    "result": []
  },
  {
    "postal": "L4R1K1",
    "result": [
      {
        "electoralDistricts": [
          {
            "election": null,
            "id": 100,
            "name": "Simcoe North"
          }
        ],
        "pollDivisionIds": [
          10141885
        ],
        "postalCode": "L4R1K1",
        "streetName": "BAY",
        "streetDirectionId": null,
        "streetTypeId": "ST",
        "placeName": "MIDLAND",
        "streetNameDisplayText": "BAY ST, MIDLAND"
      }
    ]
  },
  {
    "postal": "L4R1S3",
    "result": [
      {
        "electoralDistricts": [
          {
            "election": null,
            "id": 100,
            "name": "Simcoe North"
          }
        ],
        "pollDivisionIds": [
          10141885
        ],
        "postalCode": "L4R1S3",
        "streetName": "COUNTY RD 93",
        "streetDirectionId": null,
        "streetTypeId": null,
        "placeName": "MIDLAND",
        "streetNameDisplayText": "COUNTY RD 93, MIDLAND"
      },
      {
        "electoralDistricts": [
          {
            "election": null,
            "id": 100,
            "name": "Simcoe North"
          }
        ],
        "pollDivisionIds": [
          10141884
        ],
        "postalCode": "L4R1S3",
        "streetName": "DOMINION",
        "streetDirectionId": null,
        "streetTypeId": "AVE",
        "placeName": "MIDLAND",
        "streetNameDisplayText": "DOMINION AVE, MIDLAND"
      }
    ]
  },
  {
    "postal": "L4R6M4",
    "result": []
  },
  {
    "postal": "L4R9A9",
    "result": []
  },
  {
    "postal": "L4R9Z9",
    "result": []
  },
  {
    "postal": "L4R6T4",
    "result": []
  },
  {
    "postal": "L4R0B2",
    "result": [
      {
        "electoralDistricts": [
          {
            "election": null,
            "id": 100,
            "name": "Simcoe North"
          }
        ],
        "pollDivisionIds": [
          10141885
        ],
        "postalCode": "L4R0B2",
        "streetName": "EASY",
        "streetDirectionId": null,
        "streetTypeId": "ST",
        "placeName": "MIDLAND",
        "streetNameDisplayText": "EASY ST, MIDLAND"
      }
    ]
  },
  {
    "postal": "L4R2L9",
    "result": [
      {
        "electoralDistricts": [
          {
            "election": null,
            "id": 100,
            "name": "Simcoe North"
          }
        ],
        "pollDivisionIds": [
          10141885
        ],
        "postalCode": "L4R2L9",
        "streetName": "ROBERT",
        "streetDirectionId": null,
        "streetTypeId": "ST",
        "placeName": "MIDLAND",
        "streetNameDisplayText": "ROBERT ST, MIDLAND"
      }
    ]
  },
  {
    "postal": "L4R8K9",
    "result": []
  },
  {
    "postal": "L4R2H9",
    "result": [
      {
        "electoralDistricts": [
          {
            "election": null,
            "id": 100,
            "name": "Simcoe North"
          }
        ],
        "pollDivisionIds": [
          10141885
        ],
        "postalCode": "L4R2H9",
        "streetName": "ELLEN",
        "streetDirectionId": null,
        "streetTypeId": "ST",
        "placeName": "MIDLAND",
        "streetNameDisplayText": "ELLEN ST, MIDLAND"
      }
    ]
  },
  {
    "postal": "L4R3Z6",
    "result": [
      {
        "electoralDistricts": [
          {
            "election": null,
            "id": 100,
            "name": "Simcoe North"
          }
        ],
        "pollDivisionIds": [
          10141884
        ],
        "postalCode": "L4R3Z6",
        "streetName": "SEVENTH",
        "streetDirectionId": null,
        "streetTypeId": "ST",
        "placeName": "MIDLAND",
        "streetNameDisplayText": "SEVENTH ST, MIDLAND"
      }
    ]
  },
  {
    "postal": "L4R3B0",
    "result": []
  },
  {
    "postal": "L4R2H8",
    "result": [
      {
        "electoralDistricts": [
          {
            "election": null,
            "id": 100,
            "name": "Simcoe North"
          }
        ],
        "pollDivisionIds": [
          10141885
        ],
        "postalCode": "L4R2H8",
        "streetName": "ELLEN",
        "streetDirectionId": null,
        "streetTypeId": "ST",
        "placeName": "MIDLAND",
        "streetNameDisplayText": "ELLEN ST, MIDLAND"
      }
    ]
  },
  {
    "postal": "L4R3X2",
    "result": [
      {
        "electoralDistricts": [
          {
            "election": null,
            "id": 100,
            "name": "Simcoe North"
          }
        ],
        "pollDivisionIds": [
          10141884
        ],
        "postalCode": "L4R3X2",
        "streetName": "SIXTH",
        "streetDirectionId": null,
        "streetTypeId": "ST",
        "placeName": "MIDLAND",
        "streetNameDisplayText": "SIXTH ST, MIDLAND"
      }
    ]
  },
  {
    "postal": "L4R2E9",
    "result": [
      {
        "electoralDistricts": [
          {
            "election": null,
            "id": 100,
            "name": "Simcoe North"
          }
        ],
        "pollDivisionIds": [
          10141885
        ],
        "postalCode": "L4R2E9",
        "streetName": "YONGE",
        "streetDirectionId": null,
        "streetTypeId": "ST",
        "placeName": "MIDLAND",
        "streetNameDisplayText": "YONGE ST, MIDLAND"
      }
    ]
  },
  {
    "postal": "L4R9P6",
    "result": []
  },
  {
    "postal": "L4R9E2",
    "result": []
  },
  {
    "postal": "L4R9H2",
    "result": []
  },
  {
    "postal": "L4R1S8",
    "result": [
      {
        "electoralDistricts": [
          {
            "election": null,
            "id": 100,
            "name": "Simcoe North"
          }
        ],
        "pollDivisionIds": [
          10141883
        ],
        "postalCode": "L4R1S8",
        "streetName": "DOMINION",
        "streetDirectionId": null,
        "streetTypeId": "AVE",
        "placeName": "MIDLAND",
        "streetNameDisplayText": "DOMINION AVE, MIDLAND"
      }
    ]
  },
  {
    "postal": "L4R3M6",
    "result": [
      {
        "electoralDistricts": [
          {
            "election": null,
            "id": 100,
            "name": "Simcoe North"
          }
        ],
        "pollDivisionIds": [
          10141885
        ],
        "postalCode": "L4R3M6",
        "streetName": "COUNTY RD 93",
        "streetDirectionId": null,
        "streetTypeId": null,
        "placeName": "MIDLAND",
        "streetNameDisplayText": "COUNTY RD 93, MIDLAND"
      },
      {
        "electoralDistricts": [
          {
            "election": null,
            "id": 100,
            "name": "Simcoe North"
          }
        ],
        "pollDivisionIds": [
          10141885
        ],
        "postalCode": "L4R3M6",
        "streetName": "KING",
        "streetDirectionId": null,
        "streetTypeId": "ST",
        "placeName": "MIDLAND",
        "streetNameDisplayText": "KING ST, MIDLAND"
      }
    ]
  },
  {
    "postal": "L4R6Z8",
    "result": []
  },
  {
    "postal": "L4R4J2",
    "result": []
  },
  {
    "postal": "L4R9Y1",
    "result": []
  },
  {
    "postal": "L4R8V6",
    "result": []
  },
  {
    "postal": "L4R6B2",
    "result": []
  },
  {
    "postal": "L4R1P8",
    "result": [
      {
        "electoralDistricts": [
          {
            "election": null,
            "id": 100,
            "name": "Simcoe North"
          }
        ],
        "pollDivisionIds": [
          10141885
        ],
        "postalCode": "L4R1P8",
        "streetName": "DOMINION",
        "streetDirectionId": null,
        "streetTypeId": "AVE",
        "placeName": "MIDLAND",
        "streetNameDisplayText": "DOMINION AVE, MIDLAND"
      }
    ]
  },
  {
    "postal": "L4R0V8",
    "result": []
  },
  {
    "postal": "L4R4Y0",
    "result": []
  },
  {
    "postal": "L4R2T4",
    "result": [
      {
        "electoralDistricts": [
          {
            "election": null,
            "id": 100,
            "name": "Simcoe North"
          }
        ],
        "pollDivisionIds": [
          10141885
        ],
        "postalCode": "L4R2T4",
        "streetName": "FITTON",
        "streetDirectionId": null,
        "streetTypeId": "ST",
        "placeName": "MIDLAND",
        "streetNameDisplayText": "FITTON ST, MIDLAND"
      }
    ]
  },
  {
    "postal": "L4R2S3",
    "result": [
      {
        "electoralDistricts": [
          {
            "election": null,
            "id": 100,
            "name": "Simcoe North"
          }
        ],
        "pollDivisionIds": [
          10141885
        ],
        "postalCode": "L4R2S3",
        "streetName": "WILLIAM",
        "streetDirectionId": null,
        "streetTypeId": "ST",
        "placeName": "MIDLAND",
        "streetNameDisplayText": "WILLIAM ST, MIDLAND"
      }
    ]
  },
  {
    "postal": "L4R0K0",
    "result": []
  },
  {
    "postal": "L4R5N1",
    "result": [
      {
        "electoralDistricts": [
          {
            "election": null,
            "id": 100,
            "name": "Simcoe North"
          }
        ],
        "pollDivisionIds": [
          10141885
        ],
        "postalCode": "L4R5N1",
        "streetName": "WILLIAM",
        "streetDirectionId": null,
        "streetTypeId": "ST",
        "placeName": "MIDLAND",
        "streetNameDisplayText": "WILLIAM ST, MIDLAND"
      },
      {
        "electoralDistricts": [
          {
            "election": null,
            "id": 100,
            "name": "Simcoe North"
          }
        ],
        "pollDivisionIds": [
          10141885
        ],
        "postalCode": "L4R5N1",
        "streetName": "WILLIAM ST.",
        "streetDirectionId": null,
        "streetTypeId": "ST",
        "placeName": "MIDLAND",
        "streetNameDisplayText": "WILLIAM ST. ST, MIDLAND"
      }
    ]
  },
  {
    "postal": "L4R7T0",
    "result": []
  },
  {
    "postal": "L4R9N2",
    "result": []
  },
  {
    "postal": "L4R5L1",
    "result": []
  },
  {
    "postal": "L4R7G5",
    "result": []
  },
  {
    "postal": "L4R6K2",
    "result": []
  },
  {
    "postal": "L4R6P9",
    "result": []
  },
  {
    "postal": "L4R0E6",
    "result": []
  },
  {
    "postal": "L4R8R9",
    "result": []
  },
  {
    "postal": "L4R3G9",
    "result": [
      {
        "electoralDistricts": [
          {
            "election": null,
            "id": 100,
            "name": "Simcoe North"
          }
        ],
        "pollDivisionIds": [
          10141885
        ],
        "postalCode": "L4R3G9",
        "streetName": "QUEEN",
        "streetDirectionId": null,
        "streetTypeId": "ST",
        "placeName": "MIDLAND",
        "streetNameDisplayText": "QUEEN ST, MIDLAND"
      }
    ]
  },
  {
    "postal": "L4R0V7",
    "result": []
  },
  {
    "postal": "L4R2Z1",
    "result": [
      {
        "electoralDistricts": [
          {
            "election": null,
            "id": 100,
            "name": "Simcoe North"
          }
        ],
        "pollDivisionIds": [
          10141885
        ],
        "postalCode": "L4R2Z1",
        "streetName": "JOHNSON",
        "streetDirectionId": null,
        "streetTypeId": "ST",
        "placeName": "MIDLAND",
        "streetNameDisplayText": "JOHNSON ST, MIDLAND"
      }
    ]
  },
  {
    "postal": "L4R7N1",
    "result": []
  },
  {
    "postal": "L4R3C6",
    "result": [
      {
        "electoralDistricts": [
          {
            "election": null,
            "id": 100,
            "name": "Simcoe North"
          }
        ],
        "pollDivisionIds": [
          10141885
        ],
        "postalCode": "L4R3C6",
        "streetName": "MANLY",
        "streetDirectionId": null,
        "streetTypeId": "ST",
        "placeName": "MIDLAND",
        "streetNameDisplayText": "MANLY ST, MIDLAND"
      }
    ]
  },
  {
    "postal": "L4R4M1",
    "result": [
      {
        "electoralDistricts": [
          {
            "election": null,
            "id": 100,
            "name": "Simcoe North"
          }
        ],
        "pollDivisionIds": [
          10141886,
          10141885
        ],
        "postalCode": "L4R4M1",
        "streetName": "LESCAUT",
        "streetDirectionId": null,
        "streetTypeId": "RD",
        "placeName": "MIDLAND",
        "streetNameDisplayText": "LESCAUT RD, MIDLAND"
      }
    ]
  },
  {
    "postal": "L4R9K2",
    "result": []
  },
  {
    "postal": "L4R9S6",
    "result": []
  },
  {
    "postal": "L4R4X1",
    "result": [
      {
        "electoralDistricts": [
          {
            "election": null,
            "id": 100,
            "name": "Simcoe North"
          }
        ],
        "pollDivisionIds": [
          10141886
        ],
        "postalCode": "L4R4X1",
        "streetName": "MASSEY",
        "streetDirectionId": null,
        "streetTypeId": "RD",
        "placeName": "MIDLAND",
        "streetNameDisplayText": "MASSEY RD, MIDLAND"
      }
    ]
  },
  {
    "postal": "L4R8W2",
    "result": []
  },
  {
    "postal": "L4R7N2",
    "result": []
  },
  {
    "postal": "L4R8S3",
    "result": []
  },
  {
    "postal": "L4R4V0",
    "result": []
  },
  {
    "postal": "L4R6W4",
    "result": []
  },
  {
    "postal": "L4R5M1",
    "result": [
      {
        "electoralDistricts": [
          {
            "election": null,
            "id": 100,
            "name": "Simcoe North"
          }
        ],
        "pollDivisionIds": [
          10141885
        ],
        "postalCode": "L4R5M1",
        "streetName": "SARAH",
        "streetDirectionId": null,
        "streetTypeId": "BLVD",
        "placeName": "MIDLAND",
        "streetNameDisplayText": "SARAH BLVD, MIDLAND"
      }
    ]
  },
  {
    "postal": "L4R0S4",
    "result": []
  },
  {
    "postal": "L4R5X6",
    "result": []
  },
  {
    "postal": "L4R8L5",
    "result": []
  },
  {
    "postal": "L4R5M8",
    "result": [
      {
        "electoralDistricts": [
          {
            "election": null,
            "id": 100,
            "name": "Simcoe North"
          }
        ],
        "pollDivisionIds": [
          10141885
        ],
        "postalCode": "L4R5M8",
        "streetName": "IRWIN",
        "streetDirectionId": null,
        "streetTypeId": "ST",
        "placeName": "MIDLAND",
        "streetNameDisplayText": "IRWIN ST, MIDLAND"
      }
    ]
  },
  {
    "postal": "L4R2G3",
    "result": [
      {
        "electoralDistricts": [
          {
            "election": null,
            "id": 100,
            "name": "Simcoe North"
          }
        ],
        "pollDivisionIds": [
          10141885
        ],
        "postalCode": "L4R2G3",
        "streetName": "HANNAH",
        "streetDirectionId": null,
        "streetTypeId": "ST",
        "placeName": "MIDLAND",
        "streetNameDisplayText": "HANNAH ST, MIDLAND"
      }
    ]
  },
  {
    "postal": "L4R8E4",
    "result": []
  },
  {
    "postal": "L4R7S9",
    "result": []
  },
  {
    "postal": "L4R1K3",
    "result": [
      {
        "electoralDistricts": [
          {
            "election": null,
            "id": 100,
            "name": "Simcoe North"
          }
        ],
        "pollDivisionIds": [
          10141885
        ],
        "postalCode": "L4R1K3",
        "streetName": "BAY",
        "streetDirectionId": null,
        "streetTypeId": "ST",
        "placeName": "MIDLAND",
        "streetNameDisplayText": "BAY ST, MIDLAND"
      }
    ]
  },
  {
    "postal": "L4R4E1",
    "result": [
      {
        "electoralDistricts": [
          {
            "election": null,
            "id": 100,
            "name": "Simcoe North"
          }
        ],
        "pollDivisionIds": [
          10141883
        ],
        "postalCode": "L4R4E1",
        "streetName": "WOODLAND",
        "streetDirectionId": null,
        "streetTypeId": "DR",
        "placeName": "MIDLAND",
        "streetNameDisplayText": "WOODLAND DR, MIDLAND"
      }
    ]
  },
  {
    "postal": "L4R4R2",
    "result": [
      {
        "electoralDistricts": [
          {
            "election": null,
            "id": 100,
            "name": "Simcoe North"
          }
        ],
        "pollDivisionIds": [
          10141884
        ],
        "postalCode": "L4R4R2",
        "streetName": "FIFTH",
        "streetDirectionId": null,
        "streetTypeId": "ST",
        "placeName": "MIDLAND",
        "streetNameDisplayText": "FIFTH ST, MIDLAND"
      }
    ]
  },
  {
    "postal": "L4R6T0",
    "result": []
  },
  {
    "postal": "L4R3K5",
    "result": [
      {
        "electoralDistricts": [
          {
            "election": null,
            "id": 100,
            "name": "Simcoe North"
          }
        ],
        "pollDivisionIds": [
          10141885
        ],
        "postalCode": "L4R3K5",
        "streetName": "MIDLAND",
        "streetDirectionId": null,
        "streetTypeId": "AVE",
        "placeName": "MIDLAND",
        "streetNameDisplayText": "MIDLAND AVE, MIDLAND"
      }
    ]
  },
  {
    "postal": "L4R3S3",
    "result": [
      {
        "electoralDistricts": [
          {
            "election": null,
            "id": 100,
            "name": "Simcoe North"
          }
        ],
        "pollDivisionIds": [
          10141885
        ],
        "postalCode": "L4R3S3",
        "streetName": "THIRD",
        "streetDirectionId": null,
        "streetTypeId": "ST",
        "placeName": "MIDLAND",
        "streetNameDisplayText": "THIRD ST, MIDLAND"
      }
    ]
  },
  {
    "postal": "L4R3L4",
    "result": [
      {
        "electoralDistricts": [
          {
            "election": null,
            "id": 100,
            "name": "Simcoe North"
          }
        ],
        "pollDivisionIds": [
          10141885
        ],
        "postalCode": "L4R3L4",
        "streetName": "MIDLAND",
        "streetDirectionId": null,
        "streetTypeId": "AVE",
        "placeName": "MIDLAND",
        "streetNameDisplayText": "MIDLAND AVE, MIDLAND"
      }
    ]
  },
  {
    "postal": "L4R9Y2",
    "result": []
  },
  {
    "postal": "L4R1E0",
    "result": []
  },
  {
    "postal": "L4R9A4",
    "result": []
  },
  {
    "postal": "L4R1L3",
    "result": [
      {
        "electoralDistricts": [
          {
            "election": null,
            "id": 100,
            "name": "Simcoe North"
          }
        ],
        "pollDivisionIds": [
          10141885
        ],
        "postalCode": "L4R1L3",
        "streetName": "BAY",
        "streetDirectionId": null,
        "streetTypeId": "ST",
        "placeName": "MIDLAND",
        "streetNameDisplayText": "BAY ST, MIDLAND"
      }
    ]
  },
  {
    "postal": "L4R6N1",
    "result": []
  },
  {
    "postal": "L4R6G7",
    "result": []
  },
  {
    "postal": "L4R7W1",
    "result": []
  },
  {
    "postal": "L4R4M6",
    "result": [
      {
        "electoralDistricts": [
          {
            "election": null,
            "id": 100,
            "name": "Simcoe North"
          }
        ],
        "pollDivisionIds": [
          10141885
        ],
        "postalCode": "L4R4M6",
        "streetName": "EASY",
        "streetDirectionId": null,
        "streetTypeId": "ST",
        "placeName": "MIDLAND",
        "streetNameDisplayText": "EASY ST, MIDLAND"
      }
    ]
  },
  {
    "postal": "L4R1K0",
    "result": []
  },
  {
    "postal": "L4R3E2",
    "result": [
      {
        "electoralDistricts": [
          {
            "election": null,
            "id": 100,
            "name": "Simcoe North"
          }
        ],
        "pollDivisionIds": [
          10141885
        ],
        "postalCode": "L4R3E2",
        "streetName": "MANLY",
        "streetDirectionId": null,
        "streetTypeId": "ST",
        "placeName": "MIDLAND",
        "streetNameDisplayText": "MANLY ST, MIDLAND"
      }
    ]
  },
  {
    "postal": "L4R5H4",
    "result": [
      {
        "electoralDistricts": [
          {
            "election": null,
            "id": 100,
            "name": "Simcoe North"
          }
        ],
        "pollDivisionIds": [
          10141882
        ],
        "postalCode": "L4R5H4",
        "streetName": "ISLAND VIEW",
        "streetDirectionId": null,
        "streetTypeId": "LANE",
        "placeName": "MIDLAND",
        "streetNameDisplayText": "ISLAND VIEW LANE, MIDLAND"
      },
      {
        "electoralDistricts": [
          {
            "election": null,
            "id": 100,
            "name": "Simcoe North"
          }
        ],
        "pollDivisionIds": [
          10141882
        ],
        "postalCode": "L4R5H4",
        "streetName": "ISLANDVIEW",
        "streetDirectionId": null,
        "streetTypeId": "LANE",
        "placeName": "MIDLAND",
        "streetNameDisplayText": "ISLANDVIEW LANE, MIDLAND"
      },
      {
        "electoralDistricts": [
          {
            "election": null,
            "id": 100,
            "name": "Simcoe North"
          }
        ],
        "pollDivisionIds": [
          10141882
        ],
        "postalCode": "L4R5H4",
        "streetName": "LAKEWOOD",
        "streetDirectionId": null,
        "streetTypeId": "DR",
        "placeName": "MIDLAND",
        "streetNameDisplayText": "LAKEWOOD DR, MIDLAND"
      }
    ]
  },
  {
    "postal": "L4R1K7",
    "result": [
      {
        "electoralDistricts": [
          {
            "election": null,
            "id": 100,
            "name": "Simcoe North"
          }
        ],
        "pollDivisionIds": [
          10141885
        ],
        "postalCode": "L4R1K7",
        "streetName": "BAY",
        "streetDirectionId": null,
        "streetTypeId": "ST",
        "placeName": "MIDLAND",
        "streetNameDisplayText": "BAY ST, MIDLAND"
      }
    ]
  },
  {
    "postal": "L4R0H0",
    "result": []
  },
  {
    "postal": "L4R0J3",
    "result": []
  },
  {
    "postal": "L4R1X6",
    "result": [
      {
        "electoralDistricts": [
          {
            "election": null,
            "id": 100,
            "name": "Simcoe North"
          }
        ],
        "pollDivisionIds": [
          10141884,
          10141883
        ],
        "postalCode": "L4R1X6",
        "streetName": "HUGEL",
        "streetDirectionId": null,
        "streetTypeId": "AVE",
        "placeName": "MIDLAND",
        "streetNameDisplayText": "HUGEL AVE, MIDLAND"
      }
    ]
  },
  {
    "postal": "L4R2Z6",
    "result": [
      {
        "electoralDistricts": [
          {
            "election": null,
            "id": 100,
            "name": "Simcoe North"
          }
        ],
        "pollDivisionIds": [
          10141885
        ],
        "postalCode": "L4R2Z6",
        "streetName": "RUSSELL",
        "streetDirectionId": null,
        "streetTypeId": "ST",
        "placeName": "MIDLAND",
        "streetNameDisplayText": "RUSSELL ST, MIDLAND"
      }
    ]
  },
  {
    "postal": "L4R4R9",
    "result": []
  },
  {
    "postal": "L4R0W8",
    "result": []
  },
  {
    "postal": "L4R1L4",
    "result": [
      {
        "electoralDistricts": [
          {
            "election": null,
            "id": 100,
            "name": "Simcoe North"
          }
        ],
        "pollDivisionIds": [
          10141885
        ],
        "postalCode": "L4R1L4",
        "streetName": "BAY",
        "streetDirectionId": null,
        "streetTypeId": "ST",
        "placeName": "MIDLAND",
        "streetNameDisplayText": "BAY ST, MIDLAND"
      }
    ]
  },
  {
    "postal": "L4R0C8",
    "result": [
      {
        "electoralDistricts": [
          {
            "election": null,
            "id": 100,
            "name": "Simcoe North"
          }
        ],
        "pollDivisionIds": [
          10141885
        ],
        "postalCode": "L4R0C8",
        "streetName": "QUEEN",
        "streetDirectionId": null,
        "streetTypeId": "ST",
        "placeName": "MIDLAND",
        "streetNameDisplayText": "QUEEN ST, MIDLAND"
      }
    ]
  },
  {
    "postal": "L4R9X7",
    "result": []
  },
  {
    "postal": "L4R4T1",
    "result": [
      {
        "electoralDistricts": [
          {
            "election": null,
            "id": 100,
            "name": "Simcoe North"
          }
        ],
        "pollDivisionIds": [
          10141884
        ],
        "postalCode": "L4R4T1",
        "streetName": "SEVENTH",
        "streetDirectionId": null,
        "streetTypeId": "ST",
        "placeName": "MIDLAND",
        "streetNameDisplayText": "SEVENTH ST, MIDLAND"
      }
    ]
  },
  {
    "postal": "L4R0M0",
    "result": []
  },
  {
    "postal": "L4R6A2",
    "result": []
  },
  {
    "postal": "L4R9S8",
    "result": []
  },
  {
    "postal": "L4R9T4",
    "result": []
  },
  {
    "postal": "L4R9Y4",
    "result": []
  },
  {
    "postal": "L4R6G5",
    "result": []
  },
  {
    "postal": "L4R6H9",
    "result": []
  },
  {
    "postal": "L4R2P3",
    "result": [
      {
        "electoralDistricts": [
          {
            "election": null,
            "id": 100,
            "name": "Simcoe North"
          }
        ],
        "pollDivisionIds": [
          10141886
        ],
        "postalCode": "L4R2P3",
        "streetName": "BAYVIEW",
        "streetDirectionId": null,
        "streetTypeId": "DR",
        "placeName": "MIDLAND",
        "streetNameDisplayText": "BAYVIEW DR, MIDLAND"
      }
    ]
  },
  {
    "postal": "L4R1T6",
    "result": [
      {
        "electoralDistricts": [
          {
            "election": null,
            "id": 100,
            "name": "Simcoe North"
          }
        ],
        "pollDivisionIds": [
          10141885,
          10141884
        ],
        "postalCode": "L4R1T6",
        "streetName": "HUGEL",
        "streetDirectionId": null,
        "streetTypeId": "AVE",
        "placeName": "MIDLAND",
        "streetNameDisplayText": "HUGEL AVE, MIDLAND"
      }
    ]
  },
  {
    "postal": "L4R4P6",
    "result": [
      {
        "electoralDistricts": [
          {
            "election": null,
            "id": 100,
            "name": "Simcoe North"
          }
        ],
        "pollDivisionIds": [
          10141883
        ],
        "postalCode": "L4R4P6",
        "streetName": "GLEN MHOR",
        "streetDirectionId": null,
        "streetTypeId": "CRES",
        "placeName": "MIDLAND",
        "streetNameDisplayText": "GLEN MHOR CRES, MIDLAND"
      }
    ]
  },
  {
    "postal": "L4R3K1",
    "result": [
      {
        "electoralDistricts": [
          {
            "election": null,
            "id": 100,
            "name": "Simcoe North"
          }
        ],
        "pollDivisionIds": [
          10141885
        ],
        "postalCode": "L4R3K1",
        "streetName": "MIDLAND",
        "streetDirectionId": null,
        "streetTypeId": "AVE",
        "placeName": "MIDLAND",
        "streetNameDisplayText": "MIDLAND AVE, MIDLAND"
      }
    ]
  },
  {
    "postal": "L4R6X4",
    "result": []
  },
  {
    "postal": "L4R4M8",
    "result": [
      {
        "electoralDistricts": [
          {
            "election": null,
            "id": 100,
            "name": "Simcoe North"
          }
        ],
        "pollDivisionIds": [
          10141885
        ],
        "postalCode": "L4R4M8",
        "streetName": "GLOUCESTER",
        "streetDirectionId": null,
        "streetTypeId": "ST",
        "placeName": "MIDLAND",
        "streetNameDisplayText": "GLOUCESTER ST, MIDLAND"
      }
    ]
  },
  {
    "postal": "L4R2Y1",
    "result": [
      {
        "electoralDistricts": [
          {
            "election": null,
            "id": 100,
            "name": "Simcoe North"
          }
        ],
        "pollDivisionIds": [
          10141885
        ],
        "postalCode": "L4R2Y1",
        "streetName": "CHARLES",
        "streetDirectionId": null,
        "streetTypeId": "ST",
        "placeName": "MIDLAND",
        "streetNameDisplayText": "CHARLES ST, MIDLAND"
      }
    ]
  },
  {
    "postal": "L4R6M1",
    "result": []
  },
  {
    "postal": "L4R5L8",
    "result": [
      {
        "electoralDistricts": [
          {
            "election": null,
            "id": 100,
            "name": "Simcoe North"
          }
        ],
        "pollDivisionIds": [
          10141886
        ],
        "postalCode": "L4R5L8",
        "streetName": "ABERDEEN",
        "streetDirectionId": null,
        "streetTypeId": "BLVD",
        "placeName": "MIDLAND",
        "streetNameDisplayText": "ABERDEEN BLVD, MIDLAND"
      },
      {
        "electoralDistricts": [
          {
            "election": null,
            "id": 100,
            "name": "Simcoe North"
          }
        ],
        "pollDivisionIds": [
          10141886
        ],
        "postalCode": "L4R5L8",
        "streetName": "WYE VALLEY",
        "streetDirectionId": null,
        "streetTypeId": "RD",
        "placeName": "MIDLAND",
        "streetNameDisplayText": "WYE VALLEY RD, MIDLAND"
      }
    ]
  },
  {
    "postal": "L4R3P6",
    "result": [
      {
        "electoralDistricts": [
          {
            "election": null,
            "id": 100,
            "name": "Simcoe North"
          }
        ],
        "pollDivisionIds": [
          10141885
        ],
        "postalCode": "L4R3P6",
        "streetName": "SECOND",
        "streetDirectionId": null,
        "streetTypeId": "ST",
        "placeName": "MIDLAND",
        "streetNameDisplayText": "SECOND ST, MIDLAND"
      }
    ]
  },
  {
    "postal": "L4R9A5",
    "result": []
  },
  {
    "postal": "L4R7K1",
    "result": []
  },
  {
    "postal": "L4R3J4",
    "result": [
      {
        "electoralDistricts": [
          {
            "election": null,
            "id": 100,
            "name": "Simcoe North"
          }
        ],
        "pollDivisionIds": [
          10141885
        ],
        "postalCode": "L4R3J4",
        "streetName": "QUEEN",
        "streetDirectionId": null,
        "streetTypeId": "ST",
        "placeName": "MIDLAND",
        "streetNameDisplayText": "QUEEN ST, MIDLAND"
      }
    ]
  },
  {
    "postal": "L4R5E7",
    "result": [
      {
        "electoralDistricts": [
          {
            "election": null,
            "id": 100,
            "name": "Simcoe North"
          }
        ],
        "pollDivisionIds": [
          10141885
        ],
        "postalCode": "L4R5E7",
        "streetName": "BAYSHORE",
        "streetDirectionId": null,
        "streetTypeId": "DR",
        "placeName": "MIDLAND",
        "streetNameDisplayText": "BAYSHORE DR, MIDLAND"
      }
    ]
  },
  {
    "postal": "L4R3A7",
    "result": [
      {
        "electoralDistricts": [
          {
            "election": null,
            "id": 100,
            "name": "Simcoe North"
          }
        ],
        "pollDivisionIds": [
          10141885
        ],
        "postalCode": "L4R3A7",
        "streetName": "RUSSELL",
        "streetDirectionId": null,
        "streetTypeId": "ST",
        "placeName": "MIDLAND",
        "streetNameDisplayText": "RUSSELL ST, MIDLAND"
      }
    ]
  },
  {
    "postal": "L4R1B9",
    "result": [
      {
        "electoralDistricts": [
          {
            "election": null,
            "id": 100,
            "name": "Simcoe North"
          }
        ],
        "pollDivisionIds": [
          10141884
        ],
        "postalCode": "L4R1B9",
        "streetName": "OTTAWA",
        "streetDirectionId": null,
        "streetTypeId": "ST",
        "placeName": "MIDLAND",
        "streetNameDisplayText": "OTTAWA ST, MIDLAND"
      }
    ]
  },
  {
    "postal": "L4R9E8",
    "result": []
  },
  {
    "postal": "L4R1C9",
    "result": [
      {
        "electoralDistricts": [
          {
            "election": null,
            "id": 100,
            "name": "Simcoe North"
          }
        ],
        "pollDivisionIds": [
          10141883
        ],
        "postalCode": "L4R1C9",
        "streetName": "OTTAWA",
        "streetDirectionId": null,
        "streetTypeId": "ST",
        "placeName": "MIDLAND",
        "streetNameDisplayText": "OTTAWA ST, MIDLAND"
      }
    ]
  },
  {
    "postal": "L4R3B5",
    "result": [
      {
        "electoralDistricts": [
          {
            "election": null,
            "id": 100,
            "name": "Simcoe North"
          }
        ],
        "pollDivisionIds": [
          10141885
        ],
        "postalCode": "L4R3B5",
        "streetName": "RUSSELL",
        "streetDirectionId": null,
        "streetTypeId": "ST",
        "placeName": "MIDLAND",
        "streetNameDisplayText": "RUSSELL ST, MIDLAND"
      }
    ]
  },
  {
    "postal": "L4R8R0",
    "result": []
  },
  {
    "postal": "L4R3P2",
    "result": [
      {
        "electoralDistricts": [
          {
            "election": null,
            "id": 100,
            "name": "Simcoe North"
          }
        ],
        "pollDivisionIds": [
          10141885
        ],
        "postalCode": "L4R3P2",
        "streetName": "FIRST",
        "streetDirectionId": null,
        "streetTypeId": "ST",
        "placeName": "MIDLAND",
        "streetNameDisplayText": "FIRST ST, MIDLAND"
      }
    ]
  },
  {
    "postal": "L4R5V4",
    "result": []
  },
  {
    "postal": "L4R4H0",
    "result": []
  },
  {
    "postal": "L4R4S7",
    "result": [
      {
        "electoralDistricts": [
          {
            "election": null,
            "id": 100,
            "name": "Simcoe North"
          }
        ],
        "pollDivisionIds": [
          10141883
        ],
        "postalCode": "L4R4S7",
        "streetName": "GLEN BOGIE",
        "streetDirectionId": null,
        "streetTypeId": "CRES",
        "placeName": "MIDLAND",
        "streetNameDisplayText": "GLEN BOGIE CRES, MIDLAND"
      }
    ]
  },
  {
    "postal": "L4R6C2",
    "result": []
  },
  {
    "postal": "L4R8W3",
    "result": []
  },
  {
    "postal": "L4R4M5",
    "result": [
      {
        "electoralDistricts": [
          {
            "election": null,
            "id": 100,
            "name": "Simcoe North"
          }
        ],
        "pollDivisionIds": [
          10141883
        ],
        "postalCode": "L4R4M5",
        "streetName": "LUDLOW",
        "streetDirectionId": null,
        "streetTypeId": "ST",
        "placeName": "MIDLAND",
        "streetNameDisplayText": "LUDLOW ST, MIDLAND"
      }
    ]
  },
  {
    "postal": "L4R5T1",
    "result": []
  },
  {
    "postal": "L4R3B3",
    "result": [
      {
        "electoralDistricts": [
          {
            "election": null,
            "id": 100,
            "name": "Simcoe North"
          }
        ],
        "pollDivisionIds": [
          10141885
        ],
        "postalCode": "L4R3B3",
        "streetName": "RUSSELL",
        "streetDirectionId": null,
        "streetTypeId": "ST",
        "placeName": "MIDLAND",
        "streetNameDisplayText": "RUSSELL ST, MIDLAND"
      }
    ]
  },
  {
    "postal": "L4R6C6",
    "result": []
  },
  {
    "postal": "L4R7N8",
    "result": []
  },
  {
    "postal": "L4R2Y3",
    "result": [
      {
        "electoralDistricts": [
          {
            "election": null,
            "id": 100,
            "name": "Simcoe North"
          }
        ],
        "pollDivisionIds": [
          10141885
        ],
        "postalCode": "L4R2Y3",
        "streetName": "PRINCESS",
        "streetDirectionId": null,
        "streetTypeId": "ST",
        "placeName": "MIDLAND",
        "streetNameDisplayText": "PRINCESS ST, MIDLAND"
      }
    ]
  },
  {
    "postal": "L4R2R6",
    "result": [
      {
        "electoralDistricts": [
          {
            "election": null,
            "id": 100,
            "name": "Simcoe North"
          }
        ],
        "pollDivisionIds": [
          10141885
        ],
        "postalCode": "L4R2R6",
        "streetName": "WILLIAM",
        "streetDirectionId": null,
        "streetTypeId": "ST",
        "placeName": "MIDLAND",
        "streetNameDisplayText": "WILLIAM ST, MIDLAND"
      }
    ]
  },
  {
    "postal": "L4R7N3",
    "result": []
  },
  {
    "postal": "L4R8J2",
    "result": []
  },
  {
    "postal": "L4R6A9",
    "result": []
  },
  {
    "postal": "L4R3V2",
    "result": [
      {
        "electoralDistricts": [
          {
            "election": null,
            "id": 100,
            "name": "Simcoe North"
          }
        ],
        "pollDivisionIds": [
          10141884
        ],
        "postalCode": "L4R3V2",
        "streetName": "FIFTH",
        "streetDirectionId": null,
        "streetTypeId": "ST",
        "placeName": "MIDLAND",
        "streetNameDisplayText": "FIFTH ST, MIDLAND"
      }
    ]
  },
  {
    "postal": "L4R2N3",
    "result": [
      {
        "electoralDistricts": [
          {
            "election": null,
            "id": 100,
            "name": "Simcoe North"
          }
        ],
        "pollDivisionIds": [
          10141886
        ],
        "postalCode": "L4R2N3",
        "streetName": "DONALDA",
        "streetDirectionId": null,
        "streetTypeId": "ST",
        "placeName": "MIDLAND",
        "streetNameDisplayText": "DONALDA ST, MIDLAND"
      }
    ]
  },
  {
    "postal": "L4R1S5",
    "result": [
      {
        "electoralDistricts": [
          {
            "election": null,
            "id": 100,
            "name": "Simcoe North"
          }
        ],
        "pollDivisionIds": [
          10141884
        ],
        "postalCode": "L4R1S5",
        "streetName": "DOMINION",
        "streetDirectionId": null,
        "streetTypeId": "AVE",
        "placeName": "MIDLAND",
        "streetNameDisplayText": "DOMINION AVE, MIDLAND"
      }
    ]
  },
  {
    "postal": "L4R4T7",
    "result": [
      {
        "electoralDistricts": [
          {
            "election": null,
            "id": 100,
            "name": "Simcoe North"
          }
        ],
        "pollDivisionIds": [
          10141886
        ],
        "postalCode": "L4R4T7",
        "streetName": "CHAIN GATE",
        "streetDirectionId": null,
        "streetTypeId": "DR",
        "placeName": "MIDLAND",
        "streetNameDisplayText": "CHAIN GATE DR, MIDLAND"
      }
    ]
  },
  {
    "postal": "L4R6Y7",
    "result": []
  },
  {
    "postal": "L4R0W7",
    "result": []
  },
  {
    "postal": "L4R2W9",
    "result": [
      {
        "electoralDistricts": [
          {
            "election": null,
            "id": 100,
            "name": "Simcoe North"
          }
        ],
        "pollDivisionIds": [
          10141885
        ],
        "postalCode": "L4R2W9",
        "streetName": "GEORGE",
        "streetDirectionId": null,
        "streetTypeId": "ST",
        "placeName": "MIDLAND",
        "streetNameDisplayText": "GEORGE ST, MIDLAND"
      }
    ]
  },
  {
    "postal": "L4R8V0",
    "result": []
  },
  {
    "postal": "L4R0H4",
    "result": []
  },
  {
    "postal": "L4R2T1",
    "result": [
      {
        "electoralDistricts": [
          {
            "election": null,
            "id": 100,
            "name": "Simcoe North"
          }
        ],
        "pollDivisionIds": [
          10141885
        ],
        "postalCode": "L4R2T1",
        "streetName": "WILLIAM",
        "streetDirectionId": null,
        "streetTypeId": "ST",
        "placeName": "MIDLAND",
        "streetNameDisplayText": "WILLIAM ST, MIDLAND"
      }
    ]
  },
  {
    "postal": "L4R1B1",
    "result": [
      {
        "electoralDistricts": [
          {
            "election": null,
            "id": 100,
            "name": "Simcoe North"
          }
        ],
        "pollDivisionIds": [
          10141884
        ],
        "postalCode": "L4R1B1",
        "streetName": "VICTORIA",
        "streetDirectionId": null,
        "streetTypeId": "ST",
        "placeName": "MIDLAND",
        "streetNameDisplayText": "VICTORIA ST, MIDLAND"
      }
    ]
  },
  {
    "postal": "L4R8B6",
    "result": []
  },
  {
    "postal": "L4R6H1",
    "result": []
  },
  {
    "postal": "L4R8T8",
    "result": []
  },
  {
    "postal": "L4R0T4",
    "result": []
  },
  {
    "postal": "L4R2C4",
    "result": [
      {
        "electoralDistricts": [
          {
            "election": null,
            "id": 100,
            "name": "Simcoe North"
          }
        ],
        "pollDivisionIds": [
          10141885
        ],
        "postalCode": "L4R2C4",
        "streetName": "YONGE",
        "streetDirectionId": null,
        "streetTypeId": "ST",
        "placeName": "MIDLAND",
        "streetNameDisplayText": "YONGE ST, MIDLAND"
      }
    ]
  },
  {
    "postal": "L4R8N3",
    "result": []
  },
  {
    "postal": "L4R4L8",
    "result": []
  },
  {
    "postal": "L4R2B5",
    "result": [
      {
        "electoralDistricts": [
          {
            "election": null,
            "id": 100,
            "name": "Simcoe North"
          }
        ],
        "pollDivisionIds": [
          10141885
        ],
        "postalCode": "L4R2B5",
        "streetName": "YONGE",
        "streetDirectionId": null,
        "streetTypeId": "ST",
        "placeName": "MIDLAND",
        "streetNameDisplayText": "YONGE ST, MIDLAND"
      }
    ]
  },
  {
    "postal": "L4R3H1",
    "result": [
      {
        "electoralDistricts": [
          {
            "election": null,
            "id": 100,
            "name": "Simcoe North"
          }
        ],
        "pollDivisionIds": [
          10141885
        ],
        "postalCode": "L4R3H1",
        "streetName": "QUEEN",
        "streetDirectionId": null,
        "streetTypeId": "ST",
        "placeName": "MIDLAND",
        "streetNameDisplayText": "QUEEN ST, MIDLAND"
      }
    ]
  },
  {
    "postal": "L4R4Y1",
    "result": [
      {
        "electoralDistricts": [
          {
            "election": null,
            "id": 100,
            "name": "Simcoe North"
          }
        ],
        "pollDivisionIds": [
          10141883
        ],
        "postalCode": "L4R4Y1",
        "streetName": "LUCKPORT",
        "streetDirectionId": null,
        "streetTypeId": "CRES",
        "placeName": "MIDLAND",
        "streetNameDisplayText": "LUCKPORT CRES, MIDLAND"
      },
      {
        "electoralDistricts": [
          {
            "election": null,
            "id": 100,
            "name": "Simcoe North"
          }
        ],
        "pollDivisionIds": [
          10141884,
          10141883
        ],
        "postalCode": "L4R4Y1",
        "streetName": "MARGARET",
        "streetDirectionId": null,
        "streetTypeId": "ST",
        "placeName": "MIDLAND",
        "streetNameDisplayText": "MARGARET ST, MIDLAND"
      },
      {
        "electoralDistricts": [
          {
            "election": null,
            "id": 100,
            "name": "Simcoe North"
          }
        ],
        "pollDivisionIds": [
          10141884,
          10141883
        ],
        "postalCode": "L4R4Y1",
        "streetName": "MONTREAL",
        "streetDirectionId": null,
        "streetTypeId": "ST",
        "placeName": "MIDLAND",
        "streetNameDisplayText": "MONTREAL ST, MIDLAND"
      }
    ]
  },
  {
    "postal": "L4R7E2",
    "result": []
  },
  {
    "postal": "L4R2P5",
    "result": [
      {
        "electoralDistricts": [
          {
            "election": null,
            "id": 100,
            "name": "Simcoe North"
          }
        ],
        "pollDivisionIds": [
          10141886
        ],
        "postalCode": "L4R2P5",
        "streetName": "BAYVIEW",
        "streetDirectionId": null,
        "streetTypeId": "DR",
        "placeName": "MIDLAND",
        "streetNameDisplayText": "BAYVIEW DR, MIDLAND"
      }
    ]
  },
  {
    "postal": "L4R8R7",
    "result": []
  },
  {
    "postal": "L4R9P1",
    "result": []
  },
  {
    "postal": "L4R3B8",
    "result": [
      {
        "electoralDistricts": [
          {
            "election": null,
            "id": 100,
            "name": "Simcoe North"
          }
        ],
        "pollDivisionIds": [
          10141885
        ],
        "postalCode": "L4R3B8",
        "streetName": "MANLY",
        "streetDirectionId": null,
        "streetTypeId": "ST",
        "placeName": "MIDLAND",
        "streetNameDisplayText": "MANLY ST, MIDLAND"
      }
    ]
  },
  {
    "postal": "L4R3P7",
    "result": [
      {
        "electoralDistricts": [
          {
            "election": null,
            "id": 100,
            "name": "Simcoe North"
          }
        ],
        "pollDivisionIds": [
          10141885
        ],
        "postalCode": "L4R3P7",
        "streetName": "SECOND",
        "streetDirectionId": null,
        "streetTypeId": "ST",
        "placeName": "MIDLAND",
        "streetNameDisplayText": "SECOND ST, MIDLAND"
      }
    ]
  },
  {
    "postal": "L4R9B2",
    "result": []
  },
  {
    "postal": "L4R6Z3",
    "result": []
  },
  {
    "postal": "L4R4N5",
    "result": [
      {
        "electoralDistricts": [
          {
            "election": null,
            "id": 100,
            "name": "Simcoe North"
          }
        ],
        "pollDivisionIds": [
          10141886
        ],
        "postalCode": "L4R4N5",
        "streetName": "NORMAN",
        "streetDirectionId": null,
        "streetTypeId": "CRES",
        "placeName": "MIDLAND",
        "streetNameDisplayText": "NORMAN CRES, MIDLAND"
      }
    ]
  },
  {
    "postal": "L4R8T3",
    "result": []
  },
  {
    "postal": "L4R1V2",
    "result": [
      {
        "electoralDistricts": [
          {
            "election": null,
            "id": 100,
            "name": "Simcoe North"
          }
        ],
        "pollDivisionIds": [
          10141885
        ],
        "postalCode": "L4R1V2",
        "streetName": "HUGEL",
        "streetDirectionId": null,
        "streetTypeId": "AVE",
        "placeName": "MIDLAND",
        "streetNameDisplayText": "HUGEL AVE, MIDLAND"
      }
    ]
  },
  {
    "postal": "L4R1Y0",
    "result": []
  },
  {
    "postal": "L4R3G6",
    "result": [
      {
        "electoralDistricts": [
          {
            "election": null,
            "id": 100,
            "name": "Simcoe North"
          }
        ],
        "pollDivisionIds": [
          10141886
        ],
        "postalCode": "L4R3G6",
        "streetName": "MANLY",
        "streetDirectionId": null,
        "streetTypeId": "ST",
        "placeName": "MIDLAND",
        "streetNameDisplayText": "MANLY ST, MIDLAND"
      }
    ]
  },
  {
    "postal": "L4R3H7",
    "result": [
      {
        "electoralDistricts": [
          {
            "election": null,
            "id": 100,
            "name": "Simcoe North"
          }
        ],
        "pollDivisionIds": [
          10141885
        ],
        "postalCode": "L4R3H7",
        "streetName": "QUEEN",
        "streetDirectionId": null,
        "streetTypeId": "ST",
        "placeName": "MIDLAND",
        "streetNameDisplayText": "QUEEN ST, MIDLAND"
      }
    ]
  },
  {
    "postal": "L4R7X8",
    "result": []
  },
  {
    "postal": "L4R0C7",
    "result": [
      {
        "electoralDistricts": [
          {
            "election": null,
            "id": 100,
            "name": "Simcoe North"
          }
        ],
        "pollDivisionIds": [
          10141882
        ],
        "postalCode": "L4R0C7",
        "streetName": "BAYPOINT",
        "streetDirectionId": null,
        "streetTypeId": "BLVD",
        "placeName": "MIDLAND",
        "streetNameDisplayText": "BAYPOINT BLVD, MIDLAND"
      },
      {
        "electoralDistricts": [
          {
            "election": null,
            "id": 100,
            "name": "Simcoe North"
          }
        ],
        "pollDivisionIds": [
          10141882
        ],
        "postalCode": "L4R0C7",
        "streetName": "BAYPORT",
        "streetDirectionId": null,
        "streetTypeId": "BLVD",
        "placeName": "MIDLAND",
        "streetNameDisplayText": "BAYPORT BLVD, MIDLAND"
      }
    ]
  },
  {
    "postal": "L4R0W9",
    "result": []
  },
  {
    "postal": "L4R8E6",
    "result": []
  },
  {
    "postal": "L4R9Z8",
    "result": []
  },
  {
    "postal": "L4R3P4",
    "result": [
      {
        "electoralDistricts": [
          {
            "election": null,
            "id": 100,
            "name": "Simcoe North"
          }
        ],
        "pollDivisionIds": [
          10141885
        ],
        "postalCode": "L4R3P4",
        "streetName": "FREDERICK",
        "streetDirectionId": null,
        "streetTypeId": "ST",
        "placeName": "MIDLAND",
        "streetNameDisplayText": "FREDERICK ST, MIDLAND"
      }
    ]
  },
  {
    "postal": "L4R6L8",
    "result": []
  },
  {
    "postal": "L4R2R4",
    "result": [
      {
        "electoralDistricts": [
          {
            "election": null,
            "id": 100,
            "name": "Simcoe North"
          }
        ],
        "pollDivisionIds": [
          10141885
        ],
        "postalCode": "L4R2R4",
        "streetName": "OLIVE",
        "streetDirectionId": null,
        "streetTypeId": "ST",
        "placeName": "MIDLAND",
        "streetNameDisplayText": "OLIVE ST, MIDLAND"
      }
    ]
  },
  {
    "postal": "L4R2W1",
    "result": [
      {
        "electoralDistricts": [
          {
            "election": null,
            "id": 100,
            "name": "Simcoe North"
          }
        ],
        "pollDivisionIds": [
          10141885
        ],
        "postalCode": "L4R2W1",
        "streetName": "GEORGE",
        "streetDirectionId": null,
        "streetTypeId": "ST",
        "placeName": "MIDLAND",
        "streetNameDisplayText": "GEORGE ST, MIDLAND"
      }
    ]
  },
  {
    "postal": "L4R9H8",
    "result": []
  },
  {
    "postal": "L4R8X9",
    "result": []
  },
  {
    "postal": "L4R7H4",
    "result": []
  },
  {
    "postal": "L4R3J1",
    "result": [
      {
        "electoralDistricts": [
          {
            "election": null,
            "id": 100,
            "name": "Simcoe North"
          }
        ],
        "pollDivisionIds": [
          10141885
        ],
        "postalCode": "L4R3J1",
        "streetName": "QUEEN",
        "streetDirectionId": null,
        "streetTypeId": "ST",
        "placeName": "MIDLAND",
        "streetNameDisplayText": "QUEEN ST, MIDLAND"
      }
    ]
  },
  {
    "postal": "L4R1P4",
    "result": [
      {
        "electoralDistricts": [
          {
            "election": null,
            "id": 100,
            "name": "Simcoe North"
          }
        ],
        "pollDivisionIds": [
          10141885
        ],
        "postalCode": "L4R1P4",
        "streetName": "DOMINION",
        "streetDirectionId": null,
        "streetTypeId": "AVE",
        "placeName": "MIDLAND",
        "streetNameDisplayText": "DOMINION AVE, MIDLAND"
      }
    ]
  },
  {
    "postal": "L4R2A3",
    "result": [
      {
        "electoralDistricts": [
          {
            "election": null,
            "id": 100,
            "name": "Simcoe North"
          }
        ],
        "pollDivisionIds": [
          10141885
        ],
        "postalCode": "L4R2A3",
        "streetName": "ELIZABETH",
        "streetDirectionId": null,
        "streetTypeId": "ST",
        "placeName": "MIDLAND",
        "streetNameDisplayText": "ELIZABETH ST, MIDLAND"
      },
      {
        "electoralDistricts": [
          {
            "election": null,
            "id": 100,
            "name": "Simcoe North"
          }
        ],
        "pollDivisionIds": [
          10141885
        ],
        "postalCode": "L4R2A3",
        "streetName": "ELIZABETH ST.",
        "streetDirectionId": null,
        "streetTypeId": "ST",
        "placeName": "MIDLAND",
        "streetNameDisplayText": "ELIZABETH ST. ST, MIDLAND"
      }
    ]
  },
  {
    "postal": "L4R0Z1",
    "result": []
  },
  {
    "postal": "L4R1C1",
    "result": [
      {
        "electoralDistricts": [
          {
            "election": null,
            "id": 100,
            "name": "Simcoe North"
          }
        ],
        "pollDivisionIds": [
          10141884
        ],
        "postalCode": "L4R1C1",
        "streetName": "OTTAWA",
        "streetDirectionId": null,
        "streetTypeId": "ST",
        "placeName": "MIDLAND",
        "streetNameDisplayText": "OTTAWA ST, MIDLAND"
      }
    ]
  },
  {
    "postal": "L4R0H3",
    "result": []
  },
  {
    "postal": "L4R7B0",
    "result": []
  },
  {
    "postal": "L4R5K2",
    "result": [
      {
        "electoralDistricts": [
          {
            "election": null,
            "id": 100,
            "name": "Simcoe North"
          }
        ],
        "pollDivisionIds": [
          10141882
        ],
        "postalCode": "L4R5K2",
        "streetName": "GOLF LINK",
        "streetDirectionId": null,
        "streetTypeId": "RD",
        "placeName": "MIDLAND",
        "streetNameDisplayText": "GOLF LINK RD, MIDLAND"
      }
    ]
  },
  {
    "postal": "L4R1E9",
    "result": [
      {
        "electoralDistricts": [
          {
            "election": null,
            "id": 100,
            "name": "Simcoe North"
          }
        ],
        "pollDivisionIds": [
          10141883
        ],
        "postalCode": "L4R1E9",
        "streetName": "QUEBEC",
        "streetDirectionId": null,
        "streetTypeId": "ST",
        "placeName": "MIDLAND",
        "streetNameDisplayText": "QUEBEC ST, MIDLAND"
      }
    ]
  },
  {
    "postal": "L4R9W7",
    "result": []
  },
  {
    "postal": "L4R5W6",
    "result": []
  },
  {
    "postal": "L4R6S6",
    "result": []
  },
  {
    "postal": "L4R2P8",
    "result": [
      {
        "electoralDistricts": [
          {
            "election": null,
            "id": 100,
            "name": "Simcoe North"
          }
        ],
        "pollDivisionIds": [
          10141886
        ],
        "postalCode": "L4R2P8",
        "streetName": "BIRCHWOOD",
        "streetDirectionId": null,
        "streetTypeId": "DR",
        "placeName": "MIDLAND",
        "streetNameDisplayText": "BIRCHWOOD DR, MIDLAND"
      }
    ]
  },
  {
    "postal": "L4R4P8",
    "result": [
      {
        "electoralDistricts": [
          {
            "election": null,
            "id": 100,
            "name": "Simcoe North"
          }
        ],
        "pollDivisionIds": [
          10141883
        ],
        "postalCode": "L4R4P8",
        "streetName": "HOWARD",
        "streetDirectionId": null,
        "streetTypeId": "ST",
        "placeName": "MIDLAND",
        "streetNameDisplayText": "HOWARD ST, MIDLAND"
      }
    ]
  },
  {
    "postal": "L4R0V9",
    "result": []
  },
  {
    "postal": "L4R5Y2",
    "result": []
  },
  {
    "postal": "L4R7Z7",
    "result": []
  },
  {
    "postal": "L4R6Y8",
    "result": []
  },
  {
    "postal": "L4R2G7",
    "result": [
      {
        "electoralDistricts": [
          {
            "election": null,
            "id": 100,
            "name": "Simcoe North"
          }
        ],
        "pollDivisionIds": [
          10141885
        ],
        "postalCode": "L4R2G7",
        "streetName": "HANNAH",
        "streetDirectionId": null,
        "streetTypeId": "ST",
        "placeName": "MIDLAND",
        "streetNameDisplayText": "HANNAH ST, MIDLAND"
      }
    ]
  },
  {
    "postal": "L4R8C1",
    "result": []
  },
  {
    "postal": "L4R5C5",
    "result": [
      {
        "electoralDistricts": [
          {
            "election": null,
            "id": 100,
            "name": "Simcoe North"
          }
        ],
        "pollDivisionIds": [
          10141883
        ],
        "postalCode": "L4R5C5",
        "streetName": "DINA",
        "streetDirectionId": null,
        "streetTypeId": "CRES",
        "placeName": "MIDLAND",
        "streetNameDisplayText": "DINA CRES, MIDLAND"
      },
      {
        "electoralDistricts": [
          {
            "election": null,
            "id": 100,
            "name": "Simcoe North"
          }
        ],
        "pollDivisionIds": [
          10141883
        ],
        "postalCode": "L4R5C5",
        "streetName": "VICTORIA",
        "streetDirectionId": null,
        "streetTypeId": "ST",
        "placeName": "MIDLAND",
        "streetNameDisplayText": "VICTORIA ST, MIDLAND"
      }
    ]
  },
  {
    "postal": "L4R2X8",
    "result": [
      {
        "electoralDistricts": [
          {
            "election": null,
            "id": 100,
            "name": "Simcoe North"
          }
        ],
        "pollDivisionIds": [
          10141885
        ],
        "postalCode": "L4R2X8",
        "streetName": "CHARLES",
        "streetDirectionId": null,
        "streetTypeId": "ST",
        "placeName": "MIDLAND",
        "streetNameDisplayText": "CHARLES ST, MIDLAND"
      }
    ]
  },
  {
    "postal": "L4R1W5",
    "result": [
      {
        "electoralDistricts": [
          {
            "election": null,
            "id": 100,
            "name": "Simcoe North"
          }
        ],
        "pollDivisionIds": [
          10141885
        ],
        "postalCode": "L4R1W5",
        "streetName": "HUGEL",
        "streetDirectionId": null,
        "streetTypeId": "AVE",
        "placeName": "MIDLAND",
        "streetNameDisplayText": "HUGEL AVE, MIDLAND"
      }
    ]
  },
  {
    "postal": "L4R7G0",
    "result": []
  },
  {
    "postal": "L4R8J8",
    "result": []
  },
  {
    "postal": "L4R3Y0",
    "result": []
  },
  {
    "postal": "L4R9T7",
    "result": []
  },
  {
    "postal": "L4R5P4",
    "result": []
  },
  {
    "postal": "L4R4B0",
    "result": []
  },
  {
    "postal": "L4R9N8",
    "result": []
  },
  {
    "postal": "L4R4A7",
    "result": [
      {
        "electoralDistricts": [
          {
            "election": null,
            "id": 100,
            "name": "Simcoe North"
          }
        ],
        "pollDivisionIds": [
          10141884
        ],
        "postalCode": "L4R4A7",
        "streetName": "EIGHTH",
        "streetDirectionId": null,
        "streetTypeId": "ST",
        "placeName": "MIDLAND",
        "streetNameDisplayText": "EIGHTH ST, MIDLAND"
      }
    ]
  },
  {
    "postal": "L4R4H9",
    "result": []
  },
  {
    "postal": "L4R6X1",
    "result": []
  },
  {
    "postal": "L4R9Y7",
    "result": []
  },
  {
    "postal": "L4R2Y5",
    "result": [
      {
        "electoralDistricts": [
          {
            "election": null,
            "id": 100,
            "name": "Simcoe North"
          }
        ],
        "pollDivisionIds": [
          10141885
        ],
        "postalCode": "L4R2Y5",
        "streetName": "COLLEGE",
        "streetDirectionId": null,
        "streetTypeId": "ST",
        "placeName": "MIDLAND",
        "streetNameDisplayText": "COLLEGE ST, MIDLAND"
      }
    ]
  },
  {
    "postal": "L4R8L7",
    "result": []
  },
  {
    "postal": "L4R2A8",
    "result": [
      {
        "electoralDistricts": [
          {
            "election": null,
            "id": 100,
            "name": "Simcoe North"
          }
        ],
        "pollDivisionIds": [
          10141885
        ],
        "postalCode": "L4R2A8",
        "streetName": "YONGE",
        "streetDirectionId": null,
        "streetTypeId": "ST",
        "placeName": "MIDLAND",
        "streetNameDisplayText": "YONGE ST, MIDLAND"
      }
    ]
  },
  {
    "postal": "L4R2K9",
    "result": [
      {
        "electoralDistricts": [
          {
            "election": null,
            "id": 100,
            "name": "Simcoe North"
          }
        ],
        "pollDivisionIds": [
          10141885
        ],
        "postalCode": "L4R2K9",
        "streetName": "COLBORNE",
        "streetDirectionId": null,
        "streetTypeId": "ST",
        "placeName": "MIDLAND",
        "streetNameDisplayText": "COLBORNE ST, MIDLAND"
      }
    ]
  },
  {
    "postal": "L4R3E5",
    "result": [
      {
        "electoralDistricts": [
          {
            "election": null,
            "id": 100,
            "name": "Simcoe North"
          }
        ],
        "pollDivisionIds": [
          10141885
        ],
        "postalCode": "L4R3E5",
        "streetName": "MANLY",
        "streetDirectionId": null,
        "streetTypeId": "ST",
        "placeName": "MIDLAND",
        "streetNameDisplayText": "MANLY ST, MIDLAND"
      }
    ]
  },
  {
    "postal": "L4R8N6",
    "result": []
  },
  {
    "postal": "L4R8J4",
    "result": []
  },
  {
    "postal": "L4R4R7",
    "result": [
      {
        "electoralDistricts": [
          {
            "election": null,
            "id": 100,
            "name": "Simcoe North"
          }
        ],
        "pollDivisionIds": [
          10141886
        ],
        "postalCode": "L4R4R7",
        "streetName": "LESCAUT",
        "streetDirectionId": null,
        "streetTypeId": "RD",
        "placeName": "MIDLAND",
        "streetNameDisplayText": "LESCAUT RD, MIDLAND"
      }
    ]
  },
  {
    "postal": "L4R9K1",
    "result": []
  },
  {
    "postal": "L4R8E1",
    "result": []
  },
  {
    "postal": "L4R0R1",
    "result": []
  },
  {
    "postal": "L4R4J3",
    "result": []
  },
  {
    "postal": "L4R7E7",
    "result": []
  },
  {
    "postal": "L4R0J0",
    "result": []
  },
  {
    "postal": "L4R7R8",
    "result": []
  },
  {
    "postal": "L4R9X0",
    "result": []
  },
  {
    "postal": "L4R7P6",
    "result": []
  },
  {
    "postal": "L4R0R7",
    "result": []
  },
  {
    "postal": "L4R5W1",
    "result": []
  },
  {
    "postal": "L4R0K4",
    "result": []
  },
  {
    "postal": "L4R7N9",
    "result": []
  },
  {
    "postal": "L4R1N0",
    "result": []
  },
  {
    "postal": "L4R6P3",
    "result": []
  },
  {
    "postal": "L4R5A1",
    "result": [
      {
        "electoralDistricts": [
          {
            "election": null,
            "id": 100,
            "name": "Simcoe North"
          }
        ],
        "pollDivisionIds": [
          10141883
        ],
        "postalCode": "L4R5A1",
        "streetName": "ROSLYN",
        "streetDirectionId": null,
        "streetTypeId": "CRT",
        "placeName": "MIDLAND",
        "streetNameDisplayText": "ROSLYN CRT, MIDLAND"
      }
    ]
  },
  {
    "postal": "L4R9M9",
    "result": []
  },
  {
    "postal": "L4R7T6",
    "result": []
  },
  {
    "postal": "L4R3X0",
    "result": []
  },
  {
    "postal": "L4R2T0",
    "result": []
  },
  {
    "postal": "L4R5X9",
    "result": []
  },
  {
    "postal": "L4R2R3",
    "result": []
  },
  {
    "postal": "L4R5N2",
    "result": [
      {
        "electoralDistricts": [
          {
            "election": null,
            "id": 100,
            "name": "Simcoe North"
          }
        ],
        "pollDivisionIds": [
          10141883
        ],
        "postalCode": "L4R5N2",
        "streetName": "WHITNEY",
        "streetDirectionId": null,
        "streetTypeId": "CRES",
        "placeName": "MIDLAND",
        "streetNameDisplayText": "WHITNEY CRES, MIDLAND"
      }
    ]
  },
  {
    "postal": "L4R4Y7",
    "result": [
      {
        "electoralDistricts": [
          {
            "election": null,
            "id": 100,
            "name": "Simcoe North"
          }
        ],
        "pollDivisionIds": [
          10141886
        ],
        "postalCode": "L4R4Y7",
        "streetName": "BAYVIEW",
        "streetDirectionId": null,
        "streetTypeId": "DR",
        "placeName": "MIDLAND",
        "streetNameDisplayText": "BAYVIEW DR, MIDLAND"
      }
    ]
  },
  {
    "postal": "L4R7M0",
    "result": []
  },
  {
    "postal": "L4R8P3",
    "result": []
  },
  {
    "postal": "L4R3N3",
    "result": [
      {
        "electoralDistricts": [
          {
            "election": null,
            "id": 100,
            "name": "Simcoe North"
          }
        ],
        "pollDivisionIds": [
          10141885
        ],
        "postalCode": "L4R3N3",
        "streetName": "KING",
        "streetDirectionId": null,
        "streetTypeId": "ST",
        "placeName": "MIDLAND",
        "streetNameDisplayText": "KING ST, MIDLAND"
      }
    ]
  },
  {
    "postal": "L4R7S3",
    "result": []
  },
  {
    "postal": "L4R3V9",
    "result": [
      {
        "electoralDistricts": [
          {
            "election": null,
            "id": 100,
            "name": "Simcoe North"
          }
        ],
        "pollDivisionIds": [
          10141884
        ],
        "postalCode": "L4R3V9",
        "streetName": "FIFTH",
        "streetDirectionId": null,
        "streetTypeId": "ST",
        "placeName": "MIDLAND",
        "streetNameDisplayText": "FIFTH ST, MIDLAND"
      }
    ]
  },
  {
    "postal": "L4R9N7",
    "result": []
  },
  {
    "postal": "L4R0G4",
    "result": [
      {
        "electoralDistricts": [
          {
            "election": null,
            "id": 100,
            "name": "Simcoe North"
          }
        ],
        "pollDivisionIds": [
          10141882
        ],
        "postalCode": "L4R0G4",
        "streetName": "BAYPORT",
        "streetDirectionId": null,
        "streetTypeId": "BLVD",
        "placeName": "MIDLAND",
        "streetNameDisplayText": "BAYPORT BLVD, MIDLAND"
      }
    ]
  },
  {
    "postal": "L4R2E2",
    "result": [
      {
        "electoralDistricts": [
          {
            "election": null,
            "id": 100,
            "name": "Simcoe North"
          }
        ],
        "pollDivisionIds": [
          10141885
        ],
        "postalCode": "L4R2E2",
        "streetName": "YONGE",
        "streetDirectionId": null,
        "streetTypeId": "ST",
        "placeName": "MIDLAND",
        "streetNameDisplayText": "YONGE ST, MIDLAND"
      }
    ]
  },
  {
    "postal": "L4R7W8",
    "result": []
  },
  {
    "postal": "L4R7M5",
    "result": []
  },
  {
    "postal": "L4R5W8",
    "result": []
  },
  {
    "postal": "L4R5E5",
    "result": [
      {
        "electoralDistricts": [
          {
            "election": null,
            "id": 100,
            "name": "Simcoe North"
          }
        ],
        "pollDivisionIds": [
          10141883
        ],
        "postalCode": "L4R5E5",
        "streetName": "CYNTHIA",
        "streetDirectionId": null,
        "streetTypeId": "CRT",
        "placeName": "MIDLAND",
        "streetNameDisplayText": "CYNTHIA CRT, MIDLAND"
      },
      {
        "electoralDistricts": [
          {
            "election": null,
            "id": 100,
            "name": "Simcoe North"
          }
        ],
        "pollDivisionIds": [
          10141883
        ],
        "postalCode": "L4R5E5",
        "streetName": "OTTAWA",
        "streetDirectionId": null,
        "streetTypeId": "ST",
        "placeName": "MIDLAND",
        "streetNameDisplayText": "OTTAWA ST, MIDLAND"
      }
    ]
  },
  {
    "postal": "L4R1P9",
    "result": [
      {
        "electoralDistricts": [
          {
            "election": null,
            "id": 100,
            "name": "Simcoe North"
          }
        ],
        "pollDivisionIds": [
          10141885
        ],
        "postalCode": "L4R1P9",
        "streetName": "DOMINION",
        "streetDirectionId": null,
        "streetTypeId": "AVE",
        "placeName": "MIDLAND",
        "streetNameDisplayText": "DOMINION AVE, MIDLAND"
      }
    ]
  },
  {
    "postal": "L4R8V8",
    "result": []
  },
  {
    "postal": "L4R9G8",
    "result": []
  },
  {
    "postal": "L4R8H9",
    "result": []
  },
  {
    "postal": "L4R1Z1",
    "result": [
      {
        "electoralDistricts": [
          {
            "election": null,
            "id": 100,
            "name": "Simcoe North"
          }
        ],
        "pollDivisionIds": [
          10141885
        ],
        "postalCode": "L4R1Z1",
        "streetName": "ELIZABETH",
        "streetDirectionId": null,
        "streetTypeId": "ST",
        "placeName": "MIDLAND",
        "streetNameDisplayText": "ELIZABETH ST, MIDLAND"
      }
    ]
  },
  {
    "postal": "L4R8M3",
    "result": []
  },
  {
    "postal": "L4R5H6",
    "result": [
      {
        "electoralDistricts": [
          {
            "election": null,
            "id": 100,
            "name": "Simcoe North"
          }
        ],
        "pollDivisionIds": [
          10141882
        ],
        "postalCode": "L4R5H6",
        "streetName": "BAYPOINT",
        "streetDirectionId": null,
        "streetTypeId": "BLVD",
        "placeName": "MIDLAND",
        "streetNameDisplayText": "BAYPOINT BLVD, MIDLAND"
      },
      {
        "electoralDistricts": [
          {
            "election": null,
            "id": 100,
            "name": "Simcoe North"
          }
        ],
        "pollDivisionIds": [
          10141882
        ],
        "postalCode": "L4R5H6",
        "streetName": "FULLER",
        "streetDirectionId": null,
        "streetTypeId": "AVE",
        "placeName": "MIDLAND",
        "streetNameDisplayText": "FULLER AVE, MIDLAND"
      },
      {
        "electoralDistricts": [
          {
            "election": null,
            "id": 100,
            "name": "Simcoe North"
          }
        ],
        "pollDivisionIds": [
          10141882
        ],
        "postalCode": "L4R5H6",
        "streetName": "HARBOURVIEW",
        "streetDirectionId": null,
        "streetTypeId": "DR",
        "placeName": "MIDLAND",
        "streetNameDisplayText": "HARBOURVIEW DR, MIDLAND"
      }
    ]
  },
  {
    "postal": "L4R7W7",
    "result": []
  },
  {
    "postal": "L4R4L0",
    "result": []
  },
  {
    "postal": "L4R2N1",
    "result": [
      {
        "electoralDistricts": [
          {
            "election": null,
            "id": 100,
            "name": "Simcoe North"
          }
        ],
        "pollDivisionIds": [
          10141885
        ],
        "postalCode": "L4R2N1",
        "streetName": "SCOTT",
        "streetDirectionId": null,
        "streetTypeId": "ST",
        "placeName": "MIDLAND",
        "streetNameDisplayText": "SCOTT ST, MIDLAND"
      }
    ]
  },
  {
    "postal": "L4R2H4",
    "result": [
      {
        "electoralDistricts": [
          {
            "election": null,
            "id": 100,
            "name": "Simcoe North"
          }
        ],
        "pollDivisionIds": [
          10141885
        ],
        "postalCode": "L4R2H4",
        "streetName": "ELLEN",
        "streetDirectionId": null,
        "streetTypeId": "ST",
        "placeName": "MIDLAND",
        "streetNameDisplayText": "ELLEN ST, MIDLAND"
      }
    ]
  },
  {
    "postal": "L4R5C8",
    "result": [
      {
        "electoralDistricts": [
          {
            "election": null,
            "id": 100,
            "name": "Simcoe North"
          }
        ],
        "pollDivisionIds": [
          10141884
        ],
        "postalCode": "L4R5C8",
        "streetName": "HARTMAN",
        "streetDirectionId": null,
        "streetTypeId": "DR",
        "placeName": "MIDLAND",
        "streetNameDisplayText": "HARTMAN DR, MIDLAND"
      }
    ]
  },
  {
    "postal": "L4R8B0",
    "result": []
  },
  {
    "postal": "L4R1T4",
    "result": [
      {
        "electoralDistricts": [
          {
            "election": null,
            "id": 100,
            "name": "Simcoe North"
          }
        ],
        "pollDivisionIds": [
          10141885
        ],
        "postalCode": "L4R1T4",
        "streetName": "HUGEL",
        "streetDirectionId": null,
        "streetTypeId": "AVE",
        "placeName": "MIDLAND",
        "streetNameDisplayText": "HUGEL AVE, MIDLAND"
      }
    ]
  },
  {
    "postal": "L4R7N7",
    "result": []
  },
  {
    "postal": "L4R4L3",
    "result": [
      {
        "electoralDistricts": [
          {
            "election": null,
            "id": 100,
            "name": "Simcoe North"
          }
        ],
        "pollDivisionIds": [
          10141886
        ],
        "postalCode": "L4R4L3",
        "streetName": "ALBERT",
        "streetDirectionId": null,
        "streetTypeId": "ST",
        "placeName": "MIDLAND",
        "streetNameDisplayText": "ALBERT ST, MIDLAND"
      }
    ]
  },
  {
    "postal": "L4R2N2",
    "result": [
      {
        "electoralDistricts": [
          {
            "election": null,
            "id": 100,
            "name": "Simcoe North"
          }
        ],
        "pollDivisionIds": [
          10141885
        ],
        "postalCode": "L4R2N2",
        "streetName": "SCOTT",
        "streetDirectionId": null,
        "streetTypeId": "ST",
        "placeName": "MIDLAND",
        "streetNameDisplayText": "SCOTT ST, MIDLAND"
      }
    ]
  },
  {
    "postal": "L4R4N8",
    "result": [
      {
        "electoralDistricts": [
          {
            "election": null,
            "id": 100,
            "name": "Simcoe North"
          }
        ],
        "pollDivisionIds": [
          10141884
        ],
        "postalCode": "L4R4N8",
        "streetName": "CAVANA",
        "streetDirectionId": null,
        "streetTypeId": "ST",
        "placeName": "MIDLAND",
        "streetNameDisplayText": "CAVANA ST, MIDLAND"
      }
    ]
  },
  {
    "postal": "L4R3M5",
    "result": [
      {
        "electoralDistricts": [
          {
            "election": null,
            "id": 100,
            "name": "Simcoe North"
          }
        ],
        "pollDivisionIds": [
          10141885
        ],
        "postalCode": "L4R3M5",
        "streetName": "KING",
        "streetDirectionId": null,
        "streetTypeId": "ST",
        "placeName": "MIDLAND",
        "streetNameDisplayText": "KING ST, MIDLAND"
      },
      {
        "electoralDistricts": [
          {
            "election": null,
            "id": 100,
            "name": "Simcoe North"
          }
        ],
        "pollDivisionIds": [
          10141885
        ],
        "postalCode": "L4R3M5",
        "streetName": "KING ST.",
        "streetDirectionId": null,
        "streetTypeId": "ST",
        "placeName": "MIDLAND",
        "streetNameDisplayText": "KING ST. ST, MIDLAND"
      }
    ]
  },
  {
    "postal": "L4R6H7",
    "result": []
  },
  {
    "postal": "L4R8Y8",
    "result": []
  },
  {
    "postal": "L4R5R9",
    "result": []
  },
  {
    "postal": "L4R8G3",
    "result": []
  },
  {
    "postal": "L4R4N7",
    "result": [
      {
        "electoralDistricts": [
          {
            "election": null,
            "id": 100,
            "name": "Simcoe North"
          }
        ],
        "pollDivisionIds": [
          10141885
        ],
        "postalCode": "L4R4N7",
        "streetName": "BORDEN",
        "streetDirectionId": null,
        "streetTypeId": "ST",
        "placeName": "MIDLAND",
        "streetNameDisplayText": "BORDEN ST, MIDLAND"
      }
    ]
  },
  {
    "postal": "L4R0B9",
    "result": [
      {
        "electoralDistricts": [
          {
            "election": null,
            "id": 100,
            "name": "Simcoe North"
          }
        ],
        "pollDivisionIds": [
          10141885,
          10141882
        ],
        "postalCode": "L4R0B9",
        "streetName": "BERTS",
        "streetDirectionId": null,
        "streetTypeId": "RD",
        "placeName": "MIDLAND",
        "streetNameDisplayText": "BERTS RD, MIDLAND"
      },
      {
        "electoralDistricts": [
          {
            "election": null,
            "id": 100,
            "name": "Simcoe North"
          }
        ],
        "pollDivisionIds": [
          10141886
        ],
        "postalCode": "L4R0B9",
        "streetName": "LAKESHORE",
        "streetDirectionId": null,
        "streetTypeId": "DR",
        "placeName": "MIDLAND",
        "streetNameDisplayText": "LAKESHORE DR, MIDLAND"
      },
      {
        "electoralDistricts": [
          {
            "election": null,
            "id": 100,
            "name": "Simcoe North"
          }
        ],
        "pollDivisionIds": [
          10141885
        ],
        "postalCode": "L4R0B9",
        "streetName": "LAKESHORE",
        "streetDirectionId": null,
        "streetTypeId": "RD",
        "placeName": "MIDLAND",
        "streetNameDisplayText": "LAKESHORE RD, MIDLAND"
      },
      {
        "electoralDistricts": [
          {
            "election": null,
            "id": 100,
            "name": "Simcoe North"
          }
        ],
        "pollDivisionIds": [
          10141885
        ],
        "postalCode": "L4R0B9",
        "streetName": "MAPLE",
        "streetDirectionId": null,
        "streetTypeId": "LANE",
        "placeName": "MIDLAND",
        "streetNameDisplayText": "MAPLE LANE, MIDLAND"
      },
      {
        "electoralDistricts": [
          {
            "election": null,
            "id": 100,
            "name": "Simcoe North"
          }
        ],
        "pollDivisionIds": [
          10141885
        ],
        "postalCode": "L4R0B9",
        "streetName": "MCMURTRY",
        "streetDirectionId": null,
        "streetTypeId": "RD",
        "placeName": "MIDLAND",
        "streetNameDisplayText": "MCMURTRY RD, MIDLAND"
      },
      {
        "electoralDistricts": [
          {
            "election": null,
            "id": 100,
            "name": "Simcoe North"
          }
        ],
        "pollDivisionIds": [
          10141885
        ],
        "postalCode": "L4R0B9",
        "streetName": "NORTHLAND",
        "streetDirectionId": null,
        "streetTypeId": "DR",
        "placeName": "MIDLAND",
        "streetNameDisplayText": "NORTHLAND DR, MIDLAND"
      },
      {
        "electoralDistricts": [
          {
            "election": null,
            "id": 100,
            "name": "Simcoe North"
          }
        ],
        "pollDivisionIds": [
          10141885
        ],
        "postalCode": "L4R0B9",
        "streetName": "NORTHLAND",
        "streetDirectionId": null,
        "streetTypeId": "RD",
        "placeName": "MIDLAND",
        "streetNameDisplayText": "NORTHLAND RD, MIDLAND"
      },
      {
        "electoralDistricts": [
          {
            "election": null,
            "id": 100,
            "name": "Simcoe North"
          }
        ],
        "pollDivisionIds": [
          10141885
        ],
        "postalCode": "L4R0B9",
        "streetName": "RYAN'S",
        "streetDirectionId": null,
        "streetTypeId": "RD",
        "placeName": "MIDLAND",
        "streetNameDisplayText": "RYAN'S RD, MIDLAND"
      },
      {
        "electoralDistricts": [
          {
            "election": null,
            "id": 100,
            "name": "Simcoe North"
          }
        ],
        "pollDivisionIds": [
          10141885,
          10141886
        ],
        "postalCode": "L4R0B9",
        "streetName": "STAN'S",
        "streetDirectionId": null,
        "streetTypeId": "CIR",
        "placeName": "MIDLAND",
        "streetNameDisplayText": "STAN'S CIR, MIDLAND"
      },
      {
        "electoralDistricts": [
          {
            "election": null,
            "id": 100,
            "name": "Simcoe North"
          }
        ],
        "pollDivisionIds": [
          10141885
        ],
        "postalCode": "L4R0B9",
        "streetName": "VIC'S",
        "streetDirectionId": null,
        "streetTypeId": "RD",
        "placeName": "MIDLAND",
        "streetNameDisplayText": "VIC'S RD, MIDLAND"
      }
    ]
  },
  {
    "postal": "L4R9K7",
    "result": []
  },
  {
    "postal": "L4R9K9",
    "result": []
  },
  {
    "postal": "L4R3Z2",
    "result": [
      {
        "electoralDistricts": [
          {
            "election": null,
            "id": 100,
            "name": "Simcoe North"
          }
        ],
        "pollDivisionIds": [
          10141884
        ],
        "postalCode": "L4R3Z2",
        "streetName": "SEVENTH",
        "streetDirectionId": null,
        "streetTypeId": "ST",
        "placeName": "MIDLAND",
        "streetNameDisplayText": "SEVENTH ST, MIDLAND"
      }
    ]
  },
  {
    "postal": "L4R6W7",
    "result": []
  },
  {
    "postal": "L4R0P1",
    "result": []
  },
  {
    "postal": "L4R3A0",
    "result": []
  },
  {
    "postal": "L4R8L9",
    "result": []
  },
  {
    "postal": "L4R6X0",
    "result": []
  },
  {
    "postal": "L4R3E9",
    "result": [
      {
        "electoralDistricts": [
          {
            "election": null,
            "id": 100,
            "name": "Simcoe North"
          }
        ],
        "pollDivisionIds": [
          10141885
        ],
        "postalCode": "L4R3E9",
        "streetName": "MANLY",
        "streetDirectionId": null,
        "streetTypeId": "ST",
        "placeName": "MIDLAND",
        "streetNameDisplayText": "MANLY ST, MIDLAND"
      }
    ]
  },
  {
    "postal": "L4R0S5",
    "result": []
  },
  {
    "postal": "L4R1A2",
    "result": [
      {
        "electoralDistricts": [
          {
            "election": null,
            "id": 100,
            "name": "Simcoe North"
          }
        ],
        "pollDivisionIds": [
          10141884
        ],
        "postalCode": "L4R1A2",
        "streetName": "ONTARIO",
        "streetDirectionId": null,
        "streetTypeId": "ST",
        "placeName": "MIDLAND",
        "streetNameDisplayText": "ONTARIO ST, MIDLAND"
      }
    ]
  },
  {
    "postal": "L4R5V8",
    "result": []
  },
  {
    "postal": "L4R8C5",
    "result": []
  },
  {
    "postal": "L4R6N0",
    "result": []
  },
  {
    "postal": "L4R9E6",
    "result": []
  },
  {
    "postal": "L4R5J7",
    "result": [
      {
        "electoralDistricts": [
          {
            "election": null,
            "id": 100,
            "name": "Simcoe North"
          }
        ],
        "pollDivisionIds": [
          10141882
        ],
        "postalCode": "L4R5J7",
        "streetName": "EVERTON",
        "streetDirectionId": null,
        "streetTypeId": "RD",
        "placeName": "MIDLAND",
        "streetNameDisplayText": "EVERTON RD, MIDLAND"
      },
      {
        "electoralDistricts": [
          {
            "election": null,
            "id": 100,
            "name": "Simcoe North"
          }
        ],
        "pollDivisionIds": [
          10141882
        ],
        "postalCode": "L4R5J7",
        "streetName": "FRONTENAC",
        "streetDirectionId": null,
        "streetTypeId": "AVE",
        "placeName": "MIDLAND",
        "streetNameDisplayText": "FRONTENAC AVE, MIDLAND"
      },
      {
        "electoralDistricts": [
          {
            "election": null,
            "id": 100,
            "name": "Simcoe North"
          }
        ],
        "pollDivisionIds": [
          10141882
        ],
        "postalCode": "L4R5J7",
        "streetName": "HALLEN",
        "streetDirectionId": null,
        "streetTypeId": "PL",
        "placeName": "MIDLAND",
        "streetNameDisplayText": "HALLEN PL, MIDLAND"
      }
    ]
  },
  {
    "postal": "L4R2R2",
    "result": [
      {
        "electoralDistricts": [
          {
            "election": null,
            "id": 100,
            "name": "Simcoe North"
          }
        ],
        "pollDivisionIds": [
          10141883
        ],
        "postalCode": "L4R2R2",
        "streetName": "GLEN EAGLES",
        "streetDirectionId": null,
        "streetTypeId": "CRES",
        "placeName": "MIDLAND",
        "streetNameDisplayText": "GLEN EAGLES CRES, MIDLAND"
      }
    ]
  },
  {
    "postal": "L4R0P5",
    "result": []
  },
  {
    "postal": "L4R5A7",
    "result": [
      {
        "electoralDistricts": [
          {
            "election": null,
            "id": 100,
            "name": "Simcoe North"
          }
        ],
        "pollDivisionIds": [
          10141883
        ],
        "postalCode": "L4R5A7",
        "streetName": "GRIFFIN",
        "streetDirectionId": null,
        "streetTypeId": "ST",
        "placeName": "MIDLAND",
        "streetNameDisplayText": "GRIFFIN ST, MIDLAND"
      },
      {
        "electoralDistricts": [
          {
            "election": null,
            "id": 100,
            "name": "Simcoe North"
          }
        ],
        "pollDivisionIds": [
          10141884,
          10141883
        ],
        "postalCode": "L4R5A7",
        "streetName": "MONTREAL",
        "streetDirectionId": null,
        "streetTypeId": "ST",
        "placeName": "MIDLAND",
        "streetNameDisplayText": "MONTREAL ST, MIDLAND"
      }
    ]
  },
  {
    "postal": "L4R1G1",
    "result": [
      {
        "electoralDistricts": [
          {
            "election": null,
            "id": 100,
            "name": "Simcoe North"
          }
        ],
        "pollDivisionIds": [
          10141883
        ],
        "postalCode": "L4R1G1",
        "streetName": "QUEBEC",
        "streetDirectionId": null,
        "streetTypeId": "ST",
        "placeName": "MIDLAND",
        "streetNameDisplayText": "QUEBEC ST, MIDLAND"
      }
    ]
  },
  {
    "postal": "L4R9R6",
    "result": []
  },
  {
    "postal": "L4R4Z9",
    "result": [
      {
        "electoralDistricts": [
          {
            "election": null,
            "id": 100,
            "name": "Simcoe North"
          }
        ],
        "pollDivisionIds": [
          10141886
        ],
        "postalCode": "L4R4Z9",
        "streetName": "ALGONQUIN",
        "streetDirectionId": null,
        "streetTypeId": "DR",
        "placeName": "MIDLAND",
        "streetNameDisplayText": "ALGONQUIN DR, MIDLAND"
      }
    ]
  },
  {
    "postal": "L4R1V5",
    "result": [
      {
        "electoralDistricts": [
          {
            "election": null,
            "id": 100,
            "name": "Simcoe North"
          }
        ],
        "pollDivisionIds": [
          10141885
        ],
        "postalCode": "L4R1V5",
        "streetName": "HUGEL",
        "streetDirectionId": "S",
        "streetTypeId": "AVE",
        "placeName": "MIDLAND",
        "streetNameDisplayText": "HUGEL AVE S, MIDLAND"
      },
      {
        "electoralDistricts": [
          {
            "election": null,
            "id": 100,
            "name": "Simcoe North"
          }
        ],
        "pollDivisionIds": [
          10141885
        ],
        "postalCode": "L4R1V5",
        "streetName": "HUGEL",
        "streetDirectionId": null,
        "streetTypeId": "AVE",
        "placeName": "MIDLAND",
        "streetNameDisplayText": "HUGEL AVE, MIDLAND"
      }
    ]
  },
  {
    "postal": "L4R9Y5",
    "result": []
  },
  {
    "postal": "L4R1P2",
    "result": [
      {
        "electoralDistricts": [
          {
            "election": null,
            "id": 100,
            "name": "Simcoe North"
          }
        ],
        "pollDivisionIds": [
          10141885
        ],
        "postalCode": "L4R1P2",
        "streetName": "DOMINION",
        "streetDirectionId": null,
        "streetTypeId": "AVE",
        "placeName": "MIDLAND",
        "streetNameDisplayText": "DOMINION AVE, MIDLAND"
      }
    ]
  },
  {
    "postal": "L4R5X0",
    "result": []
  },
  {
    "postal": "L4R7B8",
    "result": []
  },
  {
    "postal": "L4R0C6",
    "result": []
  },
  {
    "postal": "L4R6G1",
    "result": []
  },
  {
    "postal": "L4R3K3",
    "result": [
      {
        "electoralDistricts": [
          {
            "election": null,
            "id": 100,
            "name": "Simcoe North"
          }
        ],
        "pollDivisionIds": [
          10141885
        ],
        "postalCode": "L4R3K3",
        "streetName": "MIDLAND",
        "streetDirectionId": null,
        "streetTypeId": "AVE",
        "placeName": "MIDLAND",
        "streetNameDisplayText": "MIDLAND AVE, MIDLAND"
      }
    ]
  },
  {
    "postal": "L4R9R0",
    "result": []
  },
  {
    "postal": "L4R4R8",
    "result": [
      {
        "electoralDistricts": [
          {
            "election": null,
            "id": 100,
            "name": "Simcoe North"
          }
        ],
        "pollDivisionIds": [
          10141886
        ],
        "postalCode": "L4R4R8",
        "streetName": "WILLIAM",
        "streetDirectionId": null,
        "streetTypeId": "ST",
        "placeName": "MIDLAND",
        "streetNameDisplayText": "WILLIAM ST, MIDLAND"
      },
      {
        "electoralDistricts": [
          {
            "election": null,
            "id": 100,
            "name": "Simcoe North"
          }
        ],
        "pollDivisionIds": [
          10141886
        ],
        "postalCode": "L4R4R8",
        "streetName": "WILLIAM ST.",
        "streetDirectionId": null,
        "streetTypeId": "ST",
        "placeName": "MIDLAND",
        "streetNameDisplayText": "WILLIAM ST. ST, MIDLAND"
      }
    ]
  },
  {
    "postal": "L4R5P9",
    "result": []
  },
  {
    "postal": "L4R8N4",
    "result": []
  },
  {
    "postal": "L4R8H4",
    "result": []
  },
  {
    "postal": "L4R4V1",
    "result": [
      {
        "electoralDistricts": [
          {
            "election": null,
            "id": 100,
            "name": "Simcoe North"
          }
        ],
        "pollDivisionIds": [
          10141886
        ],
        "postalCode": "L4R4V1",
        "streetName": "SHERIDAN",
        "streetDirectionId": null,
        "streetTypeId": "ST",
        "placeName": "MIDLAND",
        "streetNameDisplayText": "SHERIDAN ST, MIDLAND"
      }
    ]
  },
  {
    "postal": "L4R1K5",
    "result": [
      {
        "electoralDistricts": [
          {
            "election": null,
            "id": 100,
            "name": "Simcoe North"
          }
        ],
        "pollDivisionIds": [
          10141885
        ],
        "postalCode": "L4R1K5",
        "streetName": "BAY",
        "streetDirectionId": null,
        "streetTypeId": "ST",
        "placeName": "MIDLAND",
        "streetNameDisplayText": "BAY ST, MIDLAND"
      }
    ]
  },
  {
    "postal": "L4R1Z5",
    "result": [
      {
        "electoralDistricts": [
          {
            "election": null,
            "id": 100,
            "name": "Simcoe North"
          }
        ],
        "pollDivisionIds": [
          10141885
        ],
        "postalCode": "L4R1Z5",
        "streetName": "ELIZABETH",
        "streetDirectionId": null,
        "streetTypeId": "ST",
        "placeName": "MIDLAND",
        "streetNameDisplayText": "ELIZABETH ST, MIDLAND"
      }
    ]
  },
  {
    "postal": "L4R9L9",
    "result": []
  },
  {
    "postal": "L4R5L2",
    "result": [
      {
        "electoralDistricts": [
          {
            "election": null,
            "id": 100,
            "name": "Simcoe North"
          }
        ],
        "pollDivisionIds": [
          10141883
        ],
        "postalCode": "L4R5L2",
        "streetName": "MONTREAL",
        "streetDirectionId": null,
        "streetTypeId": "ST",
        "placeName": "MIDLAND",
        "streetNameDisplayText": "MONTREAL ST, MIDLAND"
      }
    ]
  },
  {
    "postal": "L4R0M2",
    "result": []
  },
  {
    "postal": "L4R1K8",
    "result": [
      {
        "electoralDistricts": [
          {
            "election": null,
            "id": 100,
            "name": "Simcoe North"
          }
        ],
        "pollDivisionIds": [
          10141885
        ],
        "postalCode": "L4R1K8",
        "streetName": "BAY",
        "streetDirectionId": null,
        "streetTypeId": "ST",
        "placeName": "MIDLAND",
        "streetNameDisplayText": "BAY ST, MIDLAND"
      }
    ]
  },
  {
    "postal": "L4R3M7",
    "result": [
      {
        "electoralDistricts": [
          {
            "election": null,
            "id": 100,
            "name": "Simcoe North"
          }
        ],
        "pollDivisionIds": [
          10141885
        ],
        "postalCode": "L4R3M7",
        "streetName": "KING",
        "streetDirectionId": null,
        "streetTypeId": "ST",
        "placeName": "MIDLAND",
        "streetNameDisplayText": "KING ST, MIDLAND"
      }
    ]
  },
  {
    "postal": "L4R1B2",
    "result": [
      {
        "electoralDistricts": [
          {
            "election": null,
            "id": 100,
            "name": "Simcoe North"
          }
        ],
        "pollDivisionIds": [
          10141884
        ],
        "postalCode": "L4R1B2",
        "streetName": "VICTORIA",
        "streetDirectionId": null,
        "streetTypeId": "ST",
        "placeName": "MIDLAND",
        "streetNameDisplayText": "VICTORIA ST, MIDLAND"
      }
    ]
  },
  {
    "postal": "L4R0H9",
    "result": []
  },
  {
    "postal": "L4R8M4",
    "result": []
  },
  {
    "postal": "L4R2M5",
    "result": [
      {
        "electoralDistricts": [
          {
            "election": null,
            "id": 100,
            "name": "Simcoe North"
          }
        ],
        "pollDivisionIds": [
          10141885
        ],
        "postalCode": "L4R2M5",
        "streetName": "HILLCREST",
        "streetDirectionId": null,
        "streetTypeId": "LANE",
        "placeName": "MIDLAND",
        "streetNameDisplayText": "HILLCREST LANE, MIDLAND"
      }
    ]
  },
  {
    "postal": "L4R0T9",
    "result": []
  },
  {
    "postal": "L4R3P1",
    "result": []
  },
  {
    "postal": "L4R1R6",
    "result": [
      {
        "electoralDistricts": [
          {
            "election": null,
            "id": 100,
            "name": "Simcoe North"
          }
        ],
        "pollDivisionIds": [
          10141884
        ],
        "postalCode": "L4R1R6",
        "streetName": "DOMINION",
        "streetDirectionId": null,
        "streetTypeId": "AVE",
        "placeName": "MIDLAND",
        "streetNameDisplayText": "DOMINION AVE, MIDLAND"
      }
    ]
  },
  {
    "postal": "L4R9V5",
    "result": []
  },
  {
    "postal": "L4R9T0",
    "result": []
  },
  {
    "postal": "L4R0A9",
    "result": [
      {
        "electoralDistricts": [
          {
            "election": null,
            "id": 100,
            "name": "Simcoe North"
          }
        ],
        "pollDivisionIds": [
          10141886,
          10141885
        ],
        "postalCode": "L4R0A9",
        "streetName": "12",
        "streetDirectionId": null,
        "streetTypeId": "HWY",
        "placeName": "MIDLAND",
        "streetNameDisplayText": "12 HWY, MIDLAND"
      }
    ]
  },
  {
    "postal": "L4R1M3",
    "result": [
      {
        "electoralDistricts": [
          {
            "election": null,
            "id": 100,
            "name": "Simcoe North"
          }
        ],
        "pollDivisionIds": [
          10141884
        ],
        "postalCode": "L4R1M3",
        "streetName": "BAY",
        "streetDirectionId": null,
        "streetTypeId": "ST",
        "placeName": "MIDLAND",
        "streetNameDisplayText": "BAY ST, MIDLAND"
      }
    ]
  },
  {
    "postal": "L4R1W8",
    "result": [
      {
        "electoralDistricts": [
          {
            "election": null,
            "id": 100,
            "name": "Simcoe North"
          }
        ],
        "pollDivisionIds": [
          10141886
        ],
        "postalCode": "L4R1W8",
        "streetName": "BAYVIEW",
        "streetDirectionId": null,
        "streetTypeId": "DR",
        "placeName": "MIDLAND",
        "streetNameDisplayText": "BAYVIEW DR, MIDLAND"
      }
    ]
  },
  {
    "postal": "L4R9J1",
    "result": []
  },
  {
    "postal": "L4R8N5",
    "result": []
  },
  {
    "postal": "L4R5X1",
    "result": []
  },
  {
    "postal": "L4R6S2",
    "result": []
  },
  {
    "postal": "L4R2A2",
    "result": [
      {
        "electoralDistricts": [
          {
            "election": null,
            "id": 100,
            "name": "Simcoe North"
          }
        ],
        "pollDivisionIds": [
          10141885
        ],
        "postalCode": "L4R2A2",
        "streetName": "ELIZABETH",
        "streetDirectionId": null,
        "streetTypeId": "ST",
        "placeName": "MIDLAND",
        "streetNameDisplayText": "ELIZABETH ST, MIDLAND"
      }
    ]
  },
  {
    "postal": "L4R6A6",
    "result": []
  },
  {
    "postal": "L4R0S3",
    "result": []
  },
  {
    "postal": "L4R3E7",
    "result": [
      {
        "electoralDistricts": [
          {
            "election": null,
            "id": 100,
            "name": "Simcoe North"
          }
        ],
        "pollDivisionIds": [
          10141885
        ],
        "postalCode": "L4R3E7",
        "streetName": "MANLY",
        "streetDirectionId": null,
        "streetTypeId": "ST",
        "placeName": "MIDLAND",
        "streetNameDisplayText": "MANLY ST, MIDLAND"
      }
    ]
  },
  {
    "postal": "L4R5R7",
    "result": []
  },
  {
    "postal": "L4R3R6",
    "result": [
      {
        "electoralDistricts": [
          {
            "election": null,
            "id": 100,
            "name": "Simcoe North"
          }
        ],
        "pollDivisionIds": [
          10141885
        ],
        "postalCode": "L4R3R6",
        "streetName": "MILDRED",
        "streetDirectionId": null,
        "streetTypeId": "ST",
        "placeName": "MIDLAND",
        "streetNameDisplayText": "MILDRED ST, MIDLAND"
      }
    ]
  },
  {
    "postal": "L4R6K4",
    "result": []
  },
  {
    "postal": "L4R2W5",
    "result": [
      {
        "electoralDistricts": [
          {
            "election": null,
            "id": 100,
            "name": "Simcoe North"
          }
        ],
        "pollDivisionIds": [
          10141885
        ],
        "postalCode": "L4R2W5",
        "streetName": "GEORGE",
        "streetDirectionId": null,
        "streetTypeId": "ST",
        "placeName": "MIDLAND",
        "streetNameDisplayText": "GEORGE ST, MIDLAND"
      }
    ]
  },
  {
    "postal": "L4R8W4",
    "result": []
  },
  {
    "postal": "L4R9C2",
    "result": []
  },
  {
    "postal": "L4R2C0",
    "result": []
  },
  {
    "postal": "L4R0E1",
    "result": [
      {
        "electoralDistricts": [
          {
            "election": null,
            "id": 100,
            "name": "Simcoe North"
          }
        ],
        "pollDivisionIds": [
          10141885
        ],
        "postalCode": "L4R0E1",
        "streetName": "EASY",
        "streetDirectionId": null,
        "streetTypeId": "ST",
        "placeName": "MIDLAND",
        "streetNameDisplayText": "EASY ST, MIDLAND"
      }
    ]
  },
  {
    "postal": "L4R1K9",
    "result": [
      {
        "electoralDistricts": [
          {
            "election": null,
            "id": 100,
            "name": "Simcoe North"
          }
        ],
        "pollDivisionIds": [
          10141885
        ],
        "postalCode": "L4R1K9",
        "streetName": "BAY",
        "streetDirectionId": null,
        "streetTypeId": "ST",
        "placeName": "MIDLAND",
        "streetNameDisplayText": "BAY ST, MIDLAND"
      }
    ]
  },
  {
    "postal": "L4R1G7",
    "result": [
      {
        "electoralDistricts": [
          {
            "election": null,
            "id": 100,
            "name": "Simcoe North"
          }
        ],
        "pollDivisionIds": [
          10141884
        ],
        "postalCode": "L4R1G7",
        "streetName": "MONTREAL",
        "streetDirectionId": null,
        "streetTypeId": "ST",
        "placeName": "MIDLAND",
        "streetNameDisplayText": "MONTREAL ST, MIDLAND"
      }
    ]
  },
  {
    "postal": "L4R4E9",
    "result": [
      {
        "electoralDistricts": [
          {
            "election": null,
            "id": 100,
            "name": "Simcoe North"
          }
        ],
        "pollDivisionIds": [
          10141883
        ],
        "postalCode": "L4R4E9",
        "streetName": "INGRAM",
        "streetDirectionId": null,
        "streetTypeId": "CRES",
        "placeName": "MIDLAND",
        "streetNameDisplayText": "INGRAM CRES, MIDLAND"
      }
    ]
  },
  {
    "postal": "L4R9P0",
    "result": []
  },
  {
    "postal": "L4R5H3",
    "result": [
      {
        "electoralDistricts": [
          {
            "election": null,
            "id": 100,
            "name": "Simcoe North"
          }
        ],
        "pollDivisionIds": [
          10141882
        ],
        "postalCode": "L4R5H3",
        "streetName": "MIDLAND POINT",
        "streetDirectionId": null,
        "streetTypeId": "RD",
        "placeName": "MIDLAND",
        "streetNameDisplayText": "MIDLAND POINT RD, MIDLAND"
      },
      {
        "electoralDistricts": [
          {
            "election": null,
            "id": 100,
            "name": "Simcoe North"
          }
        ],
        "pollDivisionIds": [
          10141882
        ],
        "postalCode": "L4R5H3",
        "streetName": "PHEASANT",
        "streetDirectionId": null,
        "streetTypeId": "LANE",
        "placeName": "MIDLAND",
        "streetNameDisplayText": "PHEASANT LANE, MIDLAND"
      },
      {
        "electoralDistricts": [
          {
            "election": null,
            "id": 100,
            "name": "Simcoe North"
          }
        ],
        "pollDivisionIds": [
          10141882
        ],
        "postalCode": "L4R5H3",
        "streetName": "SIMPRESCA",
        "streetDirectionId": null,
        "streetTypeId": "RD",
        "placeName": "MIDLAND",
        "streetNameDisplayText": "SIMPRESCA RD, MIDLAND"
      }
    ]
  },
  {
    "postal": "L4R9X6",
    "result": []
  },
  {
    "postal": "L4R5N7",
    "result": [
      {
        "electoralDistricts": [
          {
            "election": null,
            "id": 100,
            "name": "Simcoe North"
          }
        ],
        "pollDivisionIds": [
          10141885
        ],
        "postalCode": "L4R5N7",
        "streetName": "VINDIN",
        "streetDirectionId": null,
        "streetTypeId": "ST",
        "placeName": "MIDLAND",
        "streetNameDisplayText": "VINDIN ST, MIDLAND"
      }
    ]
  },
  {
    "postal": "L4R5A6",
    "result": [
      {
        "electoralDistricts": [
          {
            "election": null,
            "id": 100,
            "name": "Simcoe North"
          }
        ],
        "pollDivisionIds": [
          10141883
        ],
        "postalCode": "L4R5A6",
        "streetName": "MONTREAL",
        "streetDirectionId": null,
        "streetTypeId": "ST",
        "placeName": "MIDLAND",
        "streetNameDisplayText": "MONTREAL ST, MIDLAND"
      }
    ]
  },
  {
    "postal": "L4R4M0",
    "result": []
  },
  {
    "postal": "L4R3V6",
    "result": [
      {
        "electoralDistricts": [
          {
            "election": null,
            "id": 100,
            "name": "Simcoe North"
          }
        ],
        "pollDivisionIds": [
          10141884
        ],
        "postalCode": "L4R3V6",
        "streetName": "FIFTH",
        "streetDirectionId": null,
        "streetTypeId": "ST",
        "placeName": "MIDLAND",
        "streetNameDisplayText": "FIFTH ST, MIDLAND"
      }
    ]
  },
  {
    "postal": "L4R1L7",
    "result": [
      {
        "electoralDistricts": [
          {
            "election": null,
            "id": 100,
            "name": "Simcoe North"
          }
        ],
        "pollDivisionIds": [
          10141885
        ],
        "postalCode": "L4R1L7",
        "streetName": "BAY",
        "streetDirectionId": null,
        "streetTypeId": "ST",
        "placeName": "MIDLAND",
        "streetNameDisplayText": "BAY ST, MIDLAND"
      }
    ]
  },
  {
    "postal": "L4R2P9",
    "result": [
      {
        "electoralDistricts": [
          {
            "election": null,
            "id": 100,
            "name": "Simcoe North"
          }
        ],
        "pollDivisionIds": [
          10141886
        ],
        "postalCode": "L4R2P9",
        "streetName": "BIRCHWOOD",
        "streetDirectionId": null,
        "streetTypeId": "DR",
        "placeName": "MIDLAND",
        "streetNameDisplayText": "BIRCHWOOD DR, MIDLAND"
      }
    ]
  },
  {
    "postal": "L4R5T4",
    "result": []
  },
  {
    "postal": "L4R5Z1",
    "result": []
  },
  {
    "postal": "L4R2X0",
    "result": []
  },
  {
    "postal": "L4R6Z2",
    "result": []
  },
  {
    "postal": "L4R0E0",
    "result": []
  },
  {
    "postal": "L4R3Z5",
    "result": [
      {
        "electoralDistricts": [
          {
            "election": null,
            "id": 100,
            "name": "Simcoe North"
          }
        ],
        "pollDivisionIds": [
          10141884
        ],
        "postalCode": "L4R3Z5",
        "streetName": "SEVENTH",
        "streetDirectionId": null,
        "streetTypeId": "ST",
        "placeName": "MIDLAND",
        "streetNameDisplayText": "SEVENTH ST, MIDLAND"
      }
    ]
  },
  {
    "postal": "L4R8H3",
    "result": []
  },
  {
    "postal": "L4R7S6",
    "result": []
  },
  {
    "postal": "L4R4C1",
    "result": [
      {
        "electoralDistricts": [
          {
            "election": null,
            "id": 100,
            "name": "Simcoe North"
          }
        ],
        "pollDivisionIds": [
          10141884
        ],
        "postalCode": "L4R4C1",
        "streetName": "CAVANA",
        "streetDirectionId": null,
        "streetTypeId": "ST",
        "placeName": "MIDLAND",
        "streetNameDisplayText": "CAVANA ST, MIDLAND"
      }
    ]
  },
  {
    "postal": "L4R3K2",
    "result": [
      {
        "electoralDistricts": [
          {
            "election": null,
            "id": 100,
            "name": "Simcoe North"
          }
        ],
        "pollDivisionIds": [
          10141885
        ],
        "postalCode": "L4R3K2",
        "streetName": "MIDLAND",
        "streetDirectionId": null,
        "streetTypeId": "AVE",
        "placeName": "MIDLAND",
        "streetNameDisplayText": "MIDLAND AVE, MIDLAND"
      }
    ]
  },
  {
    "postal": "L4R1Y5",
    "result": [
      {
        "electoralDistricts": [
          {
            "election": null,
            "id": 100,
            "name": "Simcoe North"
          }
        ],
        "pollDivisionIds": [
          10141885
        ],
        "postalCode": "L4R1Y5",
        "streetName": "ELIZABETH",
        "streetDirectionId": null,
        "streetTypeId": "ST",
        "placeName": "MIDLAND",
        "streetNameDisplayText": "ELIZABETH ST, MIDLAND"
      },
      {
        "electoralDistricts": [
          {
            "election": null,
            "id": 100,
            "name": "Simcoe North"
          }
        ],
        "pollDivisionIds": [
          10141885
        ],
        "postalCode": "L4R1Y5",
        "streetName": "ELIZABETH ST.",
        "streetDirectionId": null,
        "streetTypeId": "ST",
        "placeName": "MIDLAND",
        "streetNameDisplayText": "ELIZABETH ST. ST, MIDLAND"
      }
    ]
  },
  {
    "postal": "L4R6P6",
    "result": []
  },
  {
    "postal": "L4R3N9",
    "result": [
      {
        "electoralDistricts": [
          {
            "election": null,
            "id": 100,
            "name": "Simcoe North"
          }
        ],
        "pollDivisionIds": [
          10141885
        ],
        "postalCode": "L4R3N9",
        "streetName": "FIRST",
        "streetDirectionId": null,
        "streetTypeId": "ST",
        "placeName": "MIDLAND",
        "streetNameDisplayText": "FIRST ST, MIDLAND"
      }
    ]
  },
  {
    "postal": "L4R3W2",
    "result": [
      {
        "electoralDistricts": [
          {
            "election": null,
            "id": 100,
            "name": "Simcoe North"
          }
        ],
        "pollDivisionIds": [
          10141884
        ],
        "postalCode": "L4R3W2",
        "streetName": "FIFTH",
        "streetDirectionId": null,
        "streetTypeId": "ST",
        "placeName": "MIDLAND",
        "streetNameDisplayText": "FIFTH ST, MIDLAND"
      }
    ]
  },
  {
    "postal": "L4R6H8",
    "result": []
  },
  {
    "postal": "L4R9T3",
    "result": []
  },
  {
    "postal": "L4R5L9",
    "result": [
      {
        "electoralDistricts": [
          {
            "election": null,
            "id": 100,
            "name": "Simcoe North"
          }
        ],
        "pollDivisionIds": [
          10141886
        ],
        "postalCode": "L4R5L9",
        "streetName": "ABERDEEN",
        "streetDirectionId": null,
        "streetTypeId": "BLVD",
        "placeName": "MIDLAND",
        "streetNameDisplayText": "ABERDEEN BLVD, MIDLAND"
      }
    ]
  },
  {
    "postal": "L4R7X7",
    "result": []
  },
  {
    "postal": "L4R3J5",
    "result": [
      {
        "electoralDistricts": [
          {
            "election": null,
            "id": 100,
            "name": "Simcoe North"
          }
        ],
        "pollDivisionIds": [
          10141885
        ],
        "postalCode": "L4R3J5",
        "streetName": "QUEEN",
        "streetDirectionId": null,
        "streetTypeId": "ST",
        "placeName": "MIDLAND",
        "streetNameDisplayText": "QUEEN ST, MIDLAND"
      }
    ]
  },
  {
    "postal": "L4R4J5",
    "result": []
  },
  {
    "postal": "L4R6J2",
    "result": []
  },
  {
    "postal": "L4R5V6",
    "result": []
  },
  {
    "postal": "L4R3N2",
    "result": [
      {
        "electoralDistricts": [
          {
            "election": null,
            "id": 100,
            "name": "Simcoe North"
          }
        ],
        "pollDivisionIds": [
          10141885
        ],
        "postalCode": "L4R3N2",
        "streetName": "KING",
        "streetDirectionId": null,
        "streetTypeId": "ST",
        "placeName": "MIDLAND",
        "streetNameDisplayText": "KING ST, MIDLAND"
      }
    ]
  },
  {
    "postal": "L4R3B1",
    "result": [
      {
        "electoralDistricts": [
          {
            "election": null,
            "id": 100,
            "name": "Simcoe North"
          }
        ],
        "pollDivisionIds": [
          10141885
        ],
        "postalCode": "L4R3B1",
        "streetName": "RUSSELL",
        "streetDirectionId": null,
        "streetTypeId": "ST",
        "placeName": "MIDLAND",
        "streetNameDisplayText": "RUSSELL ST, MIDLAND"
      }
    ]
  },
  {
    "postal": "L4R8B5",
    "result": []
  },
  {
    "postal": "L4R0K1",
    "result": []
  },
  {
    "postal": "L4R7M7",
    "result": []
  },
  {
    "postal": "L4R2M2",
    "result": [
      {
        "electoralDistricts": [
          {
            "election": null,
            "id": 100,
            "name": "Simcoe North"
          }
        ],
        "pollDivisionIds": [
          10141885
        ],
        "postalCode": "L4R2M2",
        "streetName": "ROBERT",
        "streetDirectionId": null,
        "streetTypeId": "ST",
        "placeName": "MIDLAND",
        "streetNameDisplayText": "ROBERT ST, MIDLAND"
      }
    ]
  },
  {
    "postal": "L4R9N3",
    "result": []
  },
  {
    "postal": "L4R4Y8",
    "result": [
      {
        "electoralDistricts": [
          {
            "election": null,
            "id": 100,
            "name": "Simcoe North"
          }
        ],
        "pollDivisionIds": [
          10141886
        ],
        "postalCode": "L4R4Y8",
        "streetName": "BAYVIEW",
        "streetDirectionId": null,
        "streetTypeId": "DR",
        "placeName": "MIDLAND",
        "streetNameDisplayText": "BAYVIEW DR, MIDLAND"
      }
    ]
  },
  {
    "postal": "L4R3V7",
    "result": [
      {
        "electoralDistricts": [
          {
            "election": null,
            "id": 100,
            "name": "Simcoe North"
          }
        ],
        "pollDivisionIds": [
          10141884
        ],
        "postalCode": "L4R3V7",
        "streetName": "FIFTH",
        "streetDirectionId": null,
        "streetTypeId": "ST",
        "placeName": "MIDLAND",
        "streetNameDisplayText": "FIFTH ST, MIDLAND"
      }
    ]
  },
  {
    "postal": "L4R8Z1",
    "result": []
  },
  {
    "postal": "L4R7B3",
    "result": []
  },
  {
    "postal": "L4R3A8",
    "result": [
      {
        "electoralDistricts": [
          {
            "election": null,
            "id": 100,
            "name": "Simcoe North"
          }
        ],
        "pollDivisionIds": [
          10141885
        ],
        "postalCode": "L4R3A8",
        "streetName": "RUSSELL",
        "streetDirectionId": null,
        "streetTypeId": "ST",
        "placeName": "MIDLAND",
        "streetNameDisplayText": "RUSSELL ST, MIDLAND"
      }
    ]
  },
  {
    "postal": "L4R7V5",
    "result": []
  },
  {
    "postal": "L4R2T2",
    "result": [
      {
        "electoralDistricts": [
          {
            "election": null,
            "id": 100,
            "name": "Simcoe North"
          }
        ],
        "pollDivisionIds": [
          10141886
        ],
        "postalCode": "L4R2T2",
        "streetName": "WILLIAM",
        "streetDirectionId": null,
        "streetTypeId": "ST",
        "placeName": "MIDLAND",
        "streetNameDisplayText": "WILLIAM ST, MIDLAND"
      }
    ]
  },
  {
    "postal": "L4R6L3",
    "result": []
  },
  {
    "postal": "L4R0L2",
    "result": []
  },
  {
    "postal": "L4R5Y8",
    "result": []
  },
  {
    "postal": "L4R0B8",
    "result": [
      {
        "electoralDistricts": [
          {
            "election": null,
            "id": 100,
            "name": "Simcoe North"
          }
        ],
        "pollDivisionIds": [
          10141886
        ],
        "postalCode": "L4R0B8",
        "streetName": "CRANSTON",
        "streetDirectionId": null,
        "streetTypeId": "CRES",
        "placeName": "MIDLAND",
        "streetNameDisplayText": "CRANSTON CRES, MIDLAND"
      },
      {
        "electoralDistricts": [
          {
            "election": null,
            "id": 100,
            "name": "Simcoe North"
          }
        ],
        "pollDivisionIds": [
          10141886,
          10141885,
          10141930
        ],
        "postalCode": "L4R0B8",
        "streetName": "KING",
        "streetDirectionId": null,
        "streetTypeId": "ST",
        "placeName": "MIDLAND",
        "streetNameDisplayText": "KING ST, MIDLAND"
      },
      {
        "electoralDistricts": [
          {
            "election": null,
            "id": 100,
            "name": "Simcoe North"
          }
        ],
        "pollDivisionIds": [
          10141885
        ],
        "postalCode": "L4R0B8",
        "streetName": "KING ST.",
        "streetDirectionId": null,
        "streetTypeId": "ST",
        "placeName": "MIDLAND",
        "streetNameDisplayText": "KING ST. ST, MIDLAND"
      }
    ]
  },
  {
    "postal": "L4R6R5",
    "result": []
  },
  {
    "postal": "L4R8W6",
    "result": []
  },
  {
    "postal": "L4R8G6",
    "result": []
  },
  {
    "postal": "L4R6X3",
    "result": []
  },
  {
    "postal": "L4R7R7",
    "result": []
  },
  {
    "postal": "L4R4B6",
    "result": [
      {
        "electoralDistricts": [
          {
            "election": null,
            "id": 100,
            "name": "Simcoe North"
          }
        ],
        "pollDivisionIds": [
          10141884
        ],
        "postalCode": "L4R4B6",
        "streetName": "EIGHTH",
        "streetDirectionId": null,
        "streetTypeId": "ST",
        "placeName": "MIDLAND",
        "streetNameDisplayText": "EIGHTH ST, MIDLAND"
      }
    ]
  },
  {
    "postal": "L4R3P9",
    "result": [
      {
        "electoralDistricts": [
          {
            "election": null,
            "id": 100,
            "name": "Simcoe North"
          }
        ],
        "pollDivisionIds": [
          10141885
        ],
        "postalCode": "L4R3P9",
        "streetName": "SECOND",
        "streetDirectionId": null,
        "streetTypeId": "ST",
        "placeName": "MIDLAND",
        "streetNameDisplayText": "SECOND ST, MIDLAND"
      }
    ]
  },
  {
    "postal": "L4R2T3",
    "result": [
      {
        "electoralDistricts": [
          {
            "election": null,
            "id": 100,
            "name": "Simcoe North"
          }
        ],
        "pollDivisionIds": [
          10141886
        ],
        "postalCode": "L4R2T3",
        "streetName": "WILLIAM",
        "streetDirectionId": null,
        "streetTypeId": "ST",
        "placeName": "MIDLAND",
        "streetNameDisplayText": "WILLIAM ST, MIDLAND"
      }
    ]
  },
  {
    "postal": "L4R1M4",
    "result": [
      {
        "electoralDistricts": [
          {
            "election": null,
            "id": 100,
            "name": "Simcoe North"
          }
        ],
        "pollDivisionIds": [
          10141884
        ],
        "postalCode": "L4R1M4",
        "streetName": "BAY",
        "streetDirectionId": null,
        "streetTypeId": "ST",
        "placeName": "MIDLAND",
        "streetNameDisplayText": "BAY ST, MIDLAND"
      }
    ]
  },
  {
    "postal": "L4R0H1",
    "result": [
      {
        "electoralDistricts": [
          {
            "election": null,
            "id": 100,
            "name": "Simcoe North"
          }
        ],
        "pollDivisionIds": [
          10141885
        ],
        "postalCode": "L4R0H1",
        "streetName": "BAYSHORE",
        "streetDirectionId": null,
        "streetTypeId": "DR",
        "placeName": "MIDLAND",
        "streetNameDisplayText": "BAYSHORE DR, MIDLAND"
      }
    ]
  },
  {
    "postal": "L4R9W3",
    "result": []
  },
  {
    "postal": "L4R6P1",
    "result": []
  },
  {
    "postal": "L4R7G2",
    "result": []
  },
  {
    "postal": "L4R4J9",
    "result": []
  },
  {
    "postal": "L4R9E4",
    "result": []
  },
  {
    "postal": "L4R8H0",
    "result": []
  },
  {
    "postal": "L4R4M7",
    "result": [
      {
        "electoralDistricts": [
          {
            "election": null,
            "id": 100,
            "name": "Simcoe North"
          }
        ],
        "pollDivisionIds": [
          10141886
        ],
        "postalCode": "L4R4M7",
        "streetName": "NORMAN",
        "streetDirectionId": null,
        "streetTypeId": "CRES",
        "placeName": "MIDLAND",
        "streetNameDisplayText": "NORMAN CRES, MIDLAND"
      }
    ]
  },
  {
    "postal": "L4R2G9",
    "result": [
      {
        "electoralDistricts": [
          {
            "election": null,
            "id": 100,
            "name": "Simcoe North"
          }
        ],
        "pollDivisionIds": [
          10141885
        ],
        "postalCode": "L4R2G9",
        "streetName": "HANNAH",
        "streetDirectionId": null,
        "streetTypeId": "ST",
        "placeName": "MIDLAND",
        "streetNameDisplayText": "HANNAH ST, MIDLAND"
      }
    ]
  },
  {
    "postal": "L4R8T2",
    "result": []
  },
  {
    "postal": "L4R7G7",
    "result": []
  },
  {
    "postal": "L4R4Z3",
    "result": [
      {
        "electoralDistricts": [
          {
            "election": null,
            "id": 100,
            "name": "Simcoe North"
          }
        ],
        "pollDivisionIds": [
          10141886
        ],
        "postalCode": "L4R4Z3",
        "streetName": "KING",
        "streetDirectionId": null,
        "streetTypeId": "ST",
        "placeName": "MIDLAND",
        "streetNameDisplayText": "KING ST, MIDLAND"
      }
    ]
  },
  {
    "postal": "L4R5B3",
    "result": [
      {
        "electoralDistricts": [
          {
            "election": null,
            "id": 100,
            "name": "Simcoe North"
          }
        ],
        "pollDivisionIds": [
          10141886
        ],
        "postalCode": "L4R5B3",
        "streetName": "TIFFIN BAY",
        "streetDirectionId": null,
        "streetTypeId": "CRT",
        "placeName": "MIDLAND",
        "streetNameDisplayText": "TIFFIN BAY CRT, MIDLAND"
      }
    ]
  },
  {
    "postal": "L4R1S7",
    "result": [
      {
        "electoralDistricts": [
          {
            "election": null,
            "id": 100,
            "name": "Simcoe North"
          }
        ],
        "pollDivisionIds": [
          10141884
        ],
        "postalCode": "L4R1S7",
        "streetName": "DOMINION",
        "streetDirectionId": null,
        "streetTypeId": "AVE",
        "placeName": "MIDLAND",
        "streetNameDisplayText": "DOMINION AVE, MIDLAND"
      }
    ]
  },
  {
    "postal": "L4R2N7",
    "result": [
      {
        "electoralDistricts": [
          {
            "election": null,
            "id": 100,
            "name": "Simcoe North"
          }
        ],
        "pollDivisionIds": [
          10141886
        ],
        "postalCode": "L4R2N7",
        "streetName": "HANLY",
        "streetDirectionId": null,
        "streetTypeId": "ST",
        "placeName": "MIDLAND",
        "streetNameDisplayText": "HANLY ST, MIDLAND"
      }
    ]
  },
  {
    "postal": "L4R0H8",
    "result": []
  },
  {
    "postal": "L4R7Z4",
    "result": []
  },
  {
    "postal": "L4R7B1",
    "result": []
  },
  {
    "postal": "L4R7P8",
    "result": []
  },
  {
    "postal": "L4R7N0",
    "result": []
  },
  {
    "postal": "L4R3Y5",
    "result": [
      {
        "electoralDistricts": [
          {
            "election": null,
            "id": 100,
            "name": "Simcoe North"
          }
        ],
        "pollDivisionIds": [
          10141884
        ],
        "postalCode": "L4R3Y5",
        "streetName": "SIXTH",
        "streetDirectionId": null,
        "streetTypeId": "ST",
        "placeName": "MIDLAND",
        "streetNameDisplayText": "SIXTH ST, MIDLAND"
      }
    ]
  },
  {
    "postal": "L4R6K1",
    "result": []
  },
  {
    "postal": "L4R9X5",
    "result": []
  },
  {
    "postal": "L4R7S5",
    "result": []
  },
  {
    "postal": "L4R0A4",
    "result": [
      {
        "electoralDistricts": [
          {
            "election": null,
            "id": 100,
            "name": "Simcoe North"
          }
        ],
        "pollDivisionIds": [
          10141885
        ],
        "postalCode": "L4R0A4",
        "streetName": "GLOUCESTER",
        "streetDirectionId": null,
        "streetTypeId": "ST",
        "placeName": "MIDLAND",
        "streetNameDisplayText": "GLOUCESTER ST, MIDLAND"
      }
    ]
  },
  {
    "postal": "L4R4T5",
    "result": [
      {
        "electoralDistricts": [
          {
            "election": null,
            "id": 100,
            "name": "Simcoe North"
          }
        ],
        "pollDivisionIds": [
          10141886
        ],
        "postalCode": "L4R4T5",
        "streetName": "LESCAUT",
        "streetDirectionId": null,
        "streetTypeId": "RD",
        "placeName": "MIDLAND",
        "streetNameDisplayText": "LESCAUT RD, MIDLAND"
      }
    ]
  },
  {
    "postal": "L4R5K1",
    "result": []
  },
  {
    "postal": "L4R0Z9",
    "result": []
  },
  {
    "postal": "L4R7T2",
    "result": []
  },
  {
    "postal": "L4R1L5",
    "result": [
      {
        "electoralDistricts": [
          {
            "election": null,
            "id": 100,
            "name": "Simcoe North"
          }
        ],
        "pollDivisionIds": [
          10141885
        ],
        "postalCode": "L4R1L5",
        "streetName": "BAY",
        "streetDirectionId": null,
        "streetTypeId": "ST",
        "placeName": "MIDLAND",
        "streetNameDisplayText": "BAY ST, MIDLAND"
      },
      {
        "electoralDistricts": [
          {
            "election": null,
            "id": 100,
            "name": "Simcoe North"
          }
        ],
        "pollDivisionIds": [
          10141885
        ],
        "postalCode": "L4R1L5",
        "streetName": "BAY ST.",
        "streetDirectionId": null,
        "streetTypeId": "ST",
        "placeName": "MIDLAND",
        "streetNameDisplayText": "BAY ST. ST, MIDLAND"
      }
    ]
  },
  {
    "postal": "L4R3N5",
    "result": [
      {
        "electoralDistricts": [
          {
            "election": null,
            "id": 100,
            "name": "Simcoe North"
          }
        ],
        "pollDivisionIds": [
          10141885
        ],
        "postalCode": "L4R3N5",
        "streetName": "KING",
        "streetDirectionId": null,
        "streetTypeId": "ST",
        "placeName": "MIDLAND",
        "streetNameDisplayText": "KING ST, MIDLAND"
      }
    ]
  },
  {
    "postal": "L4R6H4",
    "result": []
  },
  {
    "postal": "L4R5A5",
    "result": [
      {
        "electoralDistricts": [
          {
            "election": null,
            "id": 100,
            "name": "Simcoe North"
          }
        ],
        "pollDivisionIds": [
          10141885
        ],
        "postalCode": "L4R5A5",
        "streetName": "EASY",
        "streetDirectionId": null,
        "streetTypeId": "ST",
        "placeName": "MIDLAND",
        "streetNameDisplayText": "EASY ST, MIDLAND"
      }
    ]
  },
  {
    "postal": "L4R3R9",
    "result": [
      {
        "electoralDistricts": [
          {
            "election": null,
            "id": 100,
            "name": "Simcoe North"
          }
        ],
        "pollDivisionIds": [
          10141885
        ],
        "postalCode": "L4R3R9",
        "streetName": "THIRD",
        "streetDirectionId": null,
        "streetTypeId": "ST",
        "placeName": "MIDLAND",
        "streetNameDisplayText": "THIRD ST, MIDLAND"
      }
    ]
  },
  {
    "postal": "L4R7L8",
    "result": []
  },
  {
    "postal": "L4R6T6",
    "result": []
  },
  {
    "postal": "L4R7Y7",
    "result": []
  },
  {
    "postal": "L4R3M8",
    "result": [
      {
        "electoralDistricts": [
          {
            "election": null,
            "id": 100,
            "name": "Simcoe North"
          }
        ],
        "pollDivisionIds": [
          10141885
        ],
        "postalCode": "L4R3M8",
        "streetName": "KING",
        "streetDirectionId": null,
        "streetTypeId": "ST",
        "placeName": "MIDLAND",
        "streetNameDisplayText": "KING ST, MIDLAND"
      }
    ]
  },
  {
    "postal": "L4R2E0",
    "result": []
  },
  {
    "postal": "L4R4B5",
    "result": [
      {
        "electoralDistricts": [
          {
            "election": null,
            "id": 100,
            "name": "Simcoe North"
          }
        ],
        "pollDivisionIds": [
          10141884
        ],
        "postalCode": "L4R4B5",
        "streetName": "EIGHTH",
        "streetDirectionId": null,
        "streetTypeId": "ST",
        "placeName": "MIDLAND",
        "streetNameDisplayText": "EIGHTH ST, MIDLAND"
      }
    ]
  },
  {
    "postal": "L4R1J3",
    "result": [
      {
        "electoralDistricts": [
          {
            "election": null,
            "id": 100,
            "name": "Simcoe North"
          }
        ],
        "pollDivisionIds": [
          10141885
        ],
        "postalCode": "L4R1J3",
        "streetName": "GLOUCESTER",
        "streetDirectionId": null,
        "streetTypeId": "ST",
        "placeName": "MIDLAND",
        "streetNameDisplayText": "GLOUCESTER ST, MIDLAND"
      }
    ]
  },
  {
    "postal": "L4R5S6",
    "result": []
  },
  {
    "postal": "L4R8P7",
    "result": []
  },
  {
    "postal": "L4R7S7",
    "result": []
  },
  {
    "postal": "L4R4C2",
    "result": [
      {
        "electoralDistricts": [
          {
            "election": null,
            "id": 100,
            "name": "Simcoe North"
          }
        ],
        "pollDivisionIds": [
          10141884
        ],
        "postalCode": "L4R4C2",
        "streetName": "NORENE",
        "streetDirectionId": null,
        "streetTypeId": "ST",
        "placeName": "MIDLAND",
        "streetNameDisplayText": "NORENE ST, MIDLAND"
      }
    ]
  },
  {
    "postal": "L4R5Y0",
    "result": []
  },
  {
    "postal": "L4R2V7",
    "result": [
      {
        "electoralDistricts": [
          {
            "election": null,
            "id": 100,
            "name": "Simcoe North"
          }
        ],
        "pollDivisionIds": [
          10141885
        ],
        "postalCode": "L4R2V7",
        "streetName": "IRWIN",
        "streetDirectionId": null,
        "streetTypeId": "ST",
        "placeName": "MIDLAND",
        "streetNameDisplayText": "IRWIN ST, MIDLAND"
      }
    ]
  },
  {
    "postal": "L4R8P5",
    "result": []
  },
  {
    "postal": "L4R5P5",
    "result": []
  },
  {
    "postal": "L4R5Z0",
    "result": []
  },
  {
    "postal": "L4R9B0",
    "result": []
  },
  {
    "postal": "L4R1L0",
    "result": []
  },
  {
    "postal": "L4R0B5",
    "result": [
      {
        "electoralDistricts": [
          {
            "election": null,
            "id": 100,
            "name": "Simcoe North"
          }
        ],
        "pollDivisionIds": [
          10141886
        ],
        "postalCode": "L4R0B5",
        "streetName": "RIVERWALK",
        "streetDirectionId": null,
        "streetTypeId": "PL",
        "placeName": "MIDLAND",
        "streetNameDisplayText": "RIVERWALK PL, MIDLAND"
      }
    ]
  },
  {
    "postal": "L4R3L2",
    "result": [
      {
        "electoralDistricts": [
          {
            "election": null,
            "id": 100,
            "name": "Simcoe North"
          }
        ],
        "pollDivisionIds": [
          10141885
        ],
        "postalCode": "L4R3L2",
        "streetName": "MIDLAND",
        "streetDirectionId": null,
        "streetTypeId": "AVE",
        "placeName": "MIDLAND",
        "streetNameDisplayText": "MIDLAND AVE, MIDLAND"
      }
    ]
  },
  {
    "postal": "L4R3B7",
    "result": [
      {
        "electoralDistricts": [
          {
            "election": null,
            "id": 100,
            "name": "Simcoe North"
          }
        ],
        "pollDivisionIds": [
          10141886
        ],
        "postalCode": "L4R3B7",
        "streetName": "RUSSELL",
        "streetDirectionId": null,
        "streetTypeId": "ST",
        "placeName": "MIDLAND",
        "streetNameDisplayText": "RUSSELL ST, MIDLAND"
      }
    ]
  },
  {
    "postal": "L4R8L1",
    "result": []
  },
  {
    "postal": "L4R5M4",
    "result": [
      {
        "electoralDistricts": [
          {
            "election": null,
            "id": 100,
            "name": "Simcoe North"
          }
        ],
        "pollDivisionIds": [
          10141885
        ],
        "postalCode": "L4R5M4",
        "streetName": "JANE",
        "streetDirectionId": null,
        "streetTypeId": "BLVD",
        "placeName": "MIDLAND",
        "streetNameDisplayText": "JANE BLVD, MIDLAND"
      }
    ]
  },
  {
    "postal": "L4R4G9",
    "result": []
  },
  {
    "postal": "L4R0P0",
    "result": []
  },
  {
    "postal": "L4R8G2",
    "result": []
  },
  {
    "postal": "L4R1V9",
    "result": [
      {
        "electoralDistricts": [
          {
            "election": null,
            "id": 100,
            "name": "Simcoe North"
          }
        ],
        "pollDivisionIds": [
          10141885
        ],
        "postalCode": "L4R1V9",
        "streetName": "HUGEL",
        "streetDirectionId": null,
        "streetTypeId": "AVE",
        "placeName": "MIDLAND",
        "streetNameDisplayText": "HUGEL AVE, MIDLAND"
      }
    ]
  },
  {
    "postal": "L4R8N8",
    "result": []
  },
  {
    "postal": "L4R6S8",
    "result": []
  },
  {
    "postal": "L4R8H2",
    "result": []
  },
  {
    "postal": "L4R5R8",
    "result": []
  },
  {
    "postal": "L4R5L4",
    "result": [
      {
        "electoralDistricts": [
          {
            "election": null,
            "id": 100,
            "name": "Simcoe North"
          }
        ],
        "pollDivisionIds": [
          10141882
        ],
        "postalCode": "L4R5L4",
        "streetName": "GOLF LINK",
        "streetDirectionId": null,
        "streetTypeId": "RD",
        "placeName": "MIDLAND",
        "streetNameDisplayText": "GOLF LINK RD, MIDLAND"
      }
    ]
  },
  {
    "postal": "L4R9E1",
    "result": []
  },
  {
    "postal": "L4R1C4",
    "result": [
      {
        "electoralDistricts": [
          {
            "election": null,
            "id": 100,
            "name": "Simcoe North"
          }
        ],
        "pollDivisionIds": [
          10141884
        ],
        "postalCode": "L4R1C4",
        "streetName": "OTTAWA",
        "streetDirectionId": null,
        "streetTypeId": "ST",
        "placeName": "MIDLAND",
        "streetNameDisplayText": "OTTAWA ST, MIDLAND"
      }
    ]
  },
  {
    "postal": "L4R8W5",
    "result": []
  },
  {
    "postal": "L4R1Y4",
    "result": [
      {
        "electoralDistricts": [
          {
            "election": null,
            "id": 100,
            "name": "Simcoe North"
          }
        ],
        "pollDivisionIds": [
          10141885
        ],
        "postalCode": "L4R1Y4",
        "streetName": "ELIZABETH",
        "streetDirectionId": null,
        "streetTypeId": "ST",
        "placeName": "MIDLAND",
        "streetNameDisplayText": "ELIZABETH ST, MIDLAND"
      }
    ]
  },
  {
    "postal": "L4R1C0",
    "result": []
  },
  {
    "postal": "L4R2J2",
    "result": [
      {
        "electoralDistricts": [
          {
            "election": null,
            "id": 100,
            "name": "Simcoe North"
          }
        ],
        "pollDivisionIds": [
          10141885
        ],
        "postalCode": "L4R2J2",
        "streetName": "ELLEN",
        "streetDirectionId": null,
        "streetTypeId": "ST",
        "placeName": "MIDLAND",
        "streetNameDisplayText": "ELLEN ST, MIDLAND"
      }
    ]
  },
  {
    "postal": "L4R2J0",
    "result": []
  },
  {
    "postal": "L4R7A3",
    "result": []
  },
  {
    "postal": "L4R8M1",
    "result": []
  },
  {
    "postal": "L4R7T9",
    "result": []
  },
  {
    "postal": "L4R6C0",
    "result": []
  },
  {
    "postal": "L4R7X1",
    "result": []
  },
  {
    "postal": "L4R0G1",
    "result": []
  },
  {
    "postal": "L4R4X2",
    "result": [
      {
        "electoralDistricts": [
          {
            "election": null,
            "id": 100,
            "name": "Simcoe North"
          }
        ],
        "pollDivisionIds": [
          10141886
        ],
        "postalCode": "L4R4X2",
        "streetName": "OTTER",
        "streetDirectionId": null,
        "streetTypeId": "CRES",
        "placeName": "MIDLAND",
        "streetNameDisplayText": "OTTER CRES, MIDLAND"
      }
    ]
  },
  {
    "postal": "L4R0N6",
    "result": []
  },
  {
    "postal": "L4R8E3",
    "result": []
  },
  {
    "postal": "L4R5S8",
    "result": []
  },
  {
    "postal": "L4R0R0",
    "result": []
  },
  {
    "postal": "L4R6J6",
    "result": []
  },
  {
    "postal": "L4R4B4",
    "result": [
      {
        "electoralDistricts": [
          {
            "election": null,
            "id": 100,
            "name": "Simcoe North"
          }
        ],
        "pollDivisionIds": [
          10141884
        ],
        "postalCode": "L4R4B4",
        "streetName": "EIGHTH",
        "streetDirectionId": null,
        "streetTypeId": "ST",
        "placeName": "MIDLAND",
        "streetNameDisplayText": "EIGHTH ST, MIDLAND"
      }
    ]
  },
  {
    "postal": "L4R7E3",
    "result": []
  },
  {
    "postal": "L4R3N6",
    "result": [
      {
        "electoralDistricts": [
          {
            "election": null,
            "id": 100,
            "name": "Simcoe North"
          }
        ],
        "pollDivisionIds": [
          10141885
        ],
        "postalCode": "L4R3N6",
        "streetName": "KING",
        "streetDirectionId": null,
        "streetTypeId": "ST",
        "placeName": "MIDLAND",
        "streetNameDisplayText": "KING ST, MIDLAND"
      }
    ]
  },
  {
    "postal": "L4R3X6",
    "result": [
      {
        "electoralDistricts": [
          {
            "election": null,
            "id": 100,
            "name": "Simcoe North"
          }
        ],
        "pollDivisionIds": [
          10141884
        ],
        "postalCode": "L4R3X6",
        "streetName": "SIXTH",
        "streetDirectionId": null,
        "streetTypeId": "ST",
        "placeName": "MIDLAND",
        "streetNameDisplayText": "SIXTH ST, MIDLAND"
      }
    ]
  },
  {
    "postal": "L4R8L0",
    "result": []
  },
  {
    "postal": "L4R8N1",
    "result": []
  },
  {
    "postal": "L4R4J0",
    "result": []
  },
  {
    "postal": "L4R0X7",
    "result": []
  },
  {
    "postal": "L4R6S4",
    "result": []
  },
  {
    "postal": "L4R0Z0",
    "result": []
  },
  {
    "postal": "L4R9X8",
    "result": []
  },
  {
    "postal": "L4R3H3",
    "result": [
      {
        "electoralDistricts": [
          {
            "election": null,
            "id": 100,
            "name": "Simcoe North"
          }
        ],
        "pollDivisionIds": [
          10141885
        ],
        "postalCode": "L4R3H3",
        "streetName": "QUEEN",
        "streetDirectionId": null,
        "streetTypeId": "ST",
        "placeName": "MIDLAND",
        "streetNameDisplayText": "QUEEN ST, MIDLAND"
      }
    ]
  },
  {
    "postal": "L4R7S2",
    "result": []
  },
  {
    "postal": "L4R3T3",
    "result": [
      {
        "electoralDistricts": [
          {
            "election": null,
            "id": 100,
            "name": "Simcoe North"
          }
        ],
        "pollDivisionIds": [
          10141884
        ],
        "postalCode": "L4R3T3",
        "streetName": "FOURTH",
        "streetDirectionId": null,
        "streetTypeId": "ST",
        "placeName": "MIDLAND",
        "streetNameDisplayText": "FOURTH ST, MIDLAND"
      }
    ]
  },
  {
    "postal": "L4R9P3",
    "result": []
  },
  {
    "postal": "L4R4H8",
    "result": []
  },
  {
    "postal": "L4R6R1",
    "result": []
  },
  {
    "postal": "L4R1S0",
    "result": []
  },
  {
    "postal": "L4R3W8",
    "result": [
      {
        "electoralDistricts": [
          {
            "election": null,
            "id": 100,
            "name": "Simcoe North"
          }
        ],
        "pollDivisionIds": [
          10141884
        ],
        "postalCode": "L4R3W8",
        "streetName": "SIXTH",
        "streetDirectionId": null,
        "streetTypeId": "ST",
        "placeName": "MIDLAND",
        "streetNameDisplayText": "SIXTH ST, MIDLAND"
      }
    ]
  },
  {
    "postal": "L4R4S3",
    "result": [
      {
        "electoralDistricts": [
          {
            "election": null,
            "id": 100,
            "name": "Simcoe North"
          }
        ],
        "pollDivisionIds": [
          10141886
        ],
        "postalCode": "L4R4S3",
        "streetName": "LESCAUT",
        "streetDirectionId": null,
        "streetTypeId": "RD",
        "placeName": "MIDLAND",
        "streetNameDisplayText": "LESCAUT RD, MIDLAND"
      }
    ]
  },
  {
    "postal": "L4R1B6",
    "result": [
      {
        "electoralDistricts": [
          {
            "election": null,
            "id": 100,
            "name": "Simcoe North"
          }
        ],
        "pollDivisionIds": [
          10141884,
          10141883
        ],
        "postalCode": "L4R1B6",
        "streetName": "VICTORIA",
        "streetDirectionId": null,
        "streetTypeId": "ST",
        "placeName": "MIDLAND",
        "streetNameDisplayText": "VICTORIA ST, MIDLAND"
      }
    ]
  },
  {
    "postal": "L4R8R3",
    "result": []
  },
  {
    "postal": "L4R4V9",
    "result": [
      {
        "electoralDistricts": [
          {
            "election": null,
            "id": 100,
            "name": "Simcoe North"
          }
        ],
        "pollDivisionIds": [
          10141886
        ],
        "postalCode": "L4R4V9",
        "streetName": "CRANSTON",
        "streetDirectionId": null,
        "streetTypeId": "CRES",
        "placeName": "MIDLAND",
        "streetNameDisplayText": "CRANSTON CRES, MIDLAND"
      }
    ]
  },
  {
    "postal": "L4R9W4",
    "result": []
  },
  {
    "postal": "L4R3T4",
    "result": [
      {
        "electoralDistricts": [
          {
            "election": null,
            "id": 100,
            "name": "Simcoe North"
          }
        ],
        "pollDivisionIds": [
          10141884
        ],
        "postalCode": "L4R3T4",
        "streetName": "FOURTH",
        "streetDirectionId": null,
        "streetTypeId": "ST",
        "placeName": "MIDLAND",
        "streetNameDisplayText": "FOURTH ST, MIDLAND"
      }
    ]
  },
  {
    "postal": "L4R5C7",
    "result": [
      {
        "electoralDistricts": [
          {
            "election": null,
            "id": 100,
            "name": "Simcoe North"
          }
        ],
        "pollDivisionIds": [
          10141886
        ],
        "postalCode": "L4R5C7",
        "streetName": "FRAZER",
        "streetDirectionId": null,
        "streetTypeId": "DR",
        "placeName": "MIDLAND",
        "streetNameDisplayText": "FRAZER DR, MIDLAND"
      },
      {
        "electoralDistricts": [
          {
            "election": null,
            "id": 100,
            "name": "Simcoe North"
          }
        ],
        "pollDivisionIds": [
          10141886
        ],
        "postalCode": "L4R5C7",
        "streetName": "PARK",
        "streetDirectionId": null,
        "streetTypeId": "AVE",
        "placeName": "MIDLAND",
        "streetNameDisplayText": "PARK AVE, MIDLAND"
      }
    ]
  },
  {
    "postal": "L4R3Y1",
    "result": [
      {
        "electoralDistricts": [
          {
            "election": null,
            "id": 100,
            "name": "Simcoe North"
          }
        ],
        "pollDivisionIds": [
          10141884
        ],
        "postalCode": "L4R3Y1",
        "streetName": "SIXTH",
        "streetDirectionId": null,
        "streetTypeId": "ST",
        "placeName": "MIDLAND",
        "streetNameDisplayText": "SIXTH ST, MIDLAND"
      }
    ]
  },
  {
    "postal": "L4R5V0",
    "result": []
  },
  {
    "postal": "L4R8G8",
    "result": []
  },
  {
    "postal": "L4R8B1",
    "result": []
  },
  {
    "postal": "L4R4P5",
    "result": [
      {
        "electoralDistricts": [
          {
            "election": null,
            "id": 100,
            "name": "Simcoe North"
          }
        ],
        "pollDivisionIds": [
          10141883
        ],
        "postalCode": "L4R4P5",
        "streetName": "GLEN MHOR",
        "streetDirectionId": null,
        "streetTypeId": "CRES",
        "placeName": "MIDLAND",
        "streetNameDisplayText": "GLEN MHOR CRES, MIDLAND"
      }
    ]
  },
  {
    "postal": "L4R7B2",
    "result": []
  },
  {
    "postal": "L4R0R2",
    "result": []
  },
  {
    "postal": "L4R4M4",
    "result": [
      {
        "electoralDistricts": [
          {
            "election": null,
            "id": 100,
            "name": "Simcoe North"
          }
        ],
        "pollDivisionIds": [
          10141885
        ],
        "postalCode": "L4R4M4",
        "streetName": "BAY",
        "streetDirectionId": null,
        "streetTypeId": "ST",
        "placeName": "MIDLAND",
        "streetNameDisplayText": "BAY ST, MIDLAND"
      }
    ]
  },
  {
    "postal": "L4R7M4",
    "result": []
  },
  {
    "postal": "L4R9S7",
    "result": []
  },
  {
    "postal": "L4R5Z7",
    "result": []
  },
  {
    "postal": "L4R7J7",
    "result": []
  },
  {
    "postal": "L4R8R8",
    "result": []
  },
  {
    "postal": "L4R9X1",
    "result": []
  },
  {
    "postal": "L4R5M9",
    "result": [
      {
        "electoralDistricts": [
          {
            "election": null,
            "id": 100,
            "name": "Simcoe North"
          }
        ],
        "pollDivisionIds": [
          10141885
        ],
        "postalCode": "L4R5M9",
        "streetName": "ABERDEEN",
        "streetDirectionId": null,
        "streetTypeId": "BLVD",
        "placeName": "MIDLAND",
        "streetNameDisplayText": "ABERDEEN BLVD, MIDLAND"
      }
    ]
  },
  {
    "postal": "L4R9B4",
    "result": []
  },
  {
    "postal": "L4R0L9",
    "result": []
  },
  {
    "postal": "L4R9G4",
    "result": []
  },
  {
    "postal": "L4R1J4",
    "result": [
      {
        "electoralDistricts": [
          {
            "election": null,
            "id": 100,
            "name": "Simcoe North"
          }
        ],
        "pollDivisionIds": [
          10141885
        ],
        "postalCode": "L4R1J4",
        "streetName": "GLOUCESTER",
        "streetDirectionId": null,
        "streetTypeId": "ST",
        "placeName": "MIDLAND",
        "streetNameDisplayText": "GLOUCESTER ST, MIDLAND"
      }
    ]
  },
  {
    "postal": "L4R0W6",
    "result": []
  }
]
