[
  {
    "postal": "N8M9J6",
    "result": []
  },
  {
    "postal": "N8M9Z5",
    "result": []
  },
  {
    "postal": "N8M7H8",
    "result": []
  },
  {
    "postal": "N8M0P6",
    "result": []
  },
  {
    "postal": "N8M0S7",
    "result": []
  },
  {
    "postal": "N8M8B9",
    "result": []
  },
  {
    "postal": "N8M2A6",
    "result": [
      {
        "electoralDistricts": [
          {
            "election": null,
            "id": 27,
            "name": "Essex"
          }
        ],
        "pollDivisionIds": [
          10138035
        ],
        "postalCode": "N8M2A6",
        "streetName": "NEIL",
        "streetDirectionId": null,
        "streetTypeId": "CRT",
        "placeName": "ESSEX",
        "streetNameDisplayText": "NEIL CRT, ESSEX"
      }
    ]
  },
  {
    "postal": "N8M7V2",
    "result": []
  },
  {
    "postal": "N8M9P4",
    "result": []
  },
  {
    "postal": "N8M6G0",
    "result": []
  },
  {
    "postal": "N8M2K0",
    "result": []
  },
  {
    "postal": "N8M7N6",
    "result": []
  },
  {
    "postal": "N8M5R3",
    "result": []
  },
  {
    "postal": "N8M7K0",
    "result": []
  },
  {
    "postal": "N8M3R2",
    "result": []
  },
  {
    "postal": "N8M0J1",
    "result": []
  },
  {
    "postal": "N8M0B0",
    "result": []
  },
  {
    "postal": "N8M5Z2",
    "result": []
  },
  {
    "postal": "N8M7P3",
    "result": []
  },
  {
    "postal": "N8M2K3",
    "result": [
      {
        "electoralDistricts": [
          {
            "election": null,
            "id": 27,
            "name": "Essex"
          }
        ],
        "pollDivisionIds": [
          10138037
        ],
        "postalCode": "N8M2K3",
        "streetName": "MAIDSTONE",
        "streetDirectionId": "E",
        "streetTypeId": "AVE",
        "placeName": "ESSEX",
        "streetNameDisplayText": "MAIDSTONE AVE E, ESSEX"
      }
    ]
  },
  {
    "postal": "N8M7Y6",
    "result": []
  },
  {
    "postal": "N8M1L9",
    "result": [
      {
        "electoralDistricts": [
          {
            "election": null,
            "id": 27,
            "name": "Essex"
          }
        ],
        "pollDivisionIds": [
          10138037
        ],
        "postalCode": "N8M1L9",
        "streetName": "SOUTH TALBOT",
        "streetDirectionId": "N",
        "streetTypeId": "RD",
        "placeName": "ESSEX",
        "streetNameDisplayText": "SOUTH TALBOT RD N, ESSEX"
      },
      {
        "electoralDistricts": [
          {
            "election": null,
            "id": 27,
            "name": "Essex"
          }
        ],
        "pollDivisionIds": [
          10138037
        ],
        "postalCode": "N8M1L9",
        "streetName": "SOUTH TALBOT",
        "streetDirectionId": "S",
        "streetTypeId": "RD",
        "placeName": "ESSEX",
        "streetNameDisplayText": "SOUTH TALBOT RD S, ESSEX"
      },
      {
        "electoralDistricts": [
          {
            "election": null,
            "id": 27,
            "name": "Essex"
          }
        ],
        "pollDivisionIds": [
          10138013
        ],
        "postalCode": "N8M1L9",
        "streetName": "SOUTH TALBOT RD SOUTH",
        "streetDirectionId": "S",
        "streetTypeId": "RD",
        "placeName": "ESSEX",
        "streetNameDisplayText": "SOUTH TALBOT RD SOUTH RD S, ESSEX"
      },
      {
        "electoralDistricts": [
          {
            "election": null,
            "id": 27,
            "name": "Essex"
          }
        ],
        "pollDivisionIds": [
          10138013
        ],
        "postalCode": "N8M1L9",
        "streetName": "SOUTH TALBOT ROAD",
        "streetDirectionId": "S",
        "streetTypeId": "RD",
        "placeName": "ESSEX",
        "streetNameDisplayText": "SOUTH TALBOT ROAD RD S, ESSEX"
      }
    ]
  },
  {
    "postal": "N8M8T0",
    "result": []
  },
  {
    "postal": "N8M3K8",
    "result": []
  },
  {
    "postal": "N8M5W9",
    "result": []
  },
  {
    "postal": "N8M6T9",
    "result": []
  },
  {
    "postal": "N8M4H1",
    "result": []
  },
  {
    "postal": "N8M7A2",
    "result": []
  },
  {
    "postal": "N8M5G0",
    "result": []
  },
  {
    "postal": "N8M8V5",
    "result": []
  },
  {
    "postal": "N8M2Y8",
    "result": [
      {
        "electoralDistricts": [
          {
            "election": null,
            "id": 27,
            "name": "Essex"
          }
        ],
        "pollDivisionIds": [
          10138035
        ],
        "postalCode": "N8M2Y8",
        "streetName": "CLEARVIEW",
        "streetDirectionId": null,
        "streetTypeId": "CRES",
        "placeName": "ESSEX",
        "streetNameDisplayText": "CLEARVIEW CRES, ESSEX"
      },
      {
        "electoralDistricts": [
          {
            "election": null,
            "id": 27,
            "name": "Essex"
          }
        ],
        "pollDivisionIds": [
          10138035
        ],
        "postalCode": "N8M2Y8",
        "streetName": "CLEARVIEW",
        "streetDirectionId": null,
        "streetTypeId": "DR",
        "placeName": "ESSEX",
        "streetNameDisplayText": "CLEARVIEW DR, ESSEX"
      }
    ]
  },
  {
    "postal": "N8M2B6",
    "result": [
      {
        "electoralDistricts": [
          {
            "election": null,
            "id": 27,
            "name": "Essex"
          }
        ],
        "pollDivisionIds": [
          10138035
        ],
        "postalCode": "N8M2B6",
        "streetName": "BEVERLY",
        "streetDirectionId": null,
        "streetTypeId": "DR",
        "placeName": "ESSEX",
        "streetNameDisplayText": "BEVERLY DR, ESSEX"
      }
    ]
  },
  {
    "postal": "N8M4W8",
    "result": []
  },
  {
    "postal": "N8M8H7",
    "result": []
  },
  {
    "postal": "N8M5P1",
    "result": []
  },
  {
    "postal": "N8M2B8",
    "result": [
      {
        "electoralDistricts": [
          {
            "election": null,
            "id": 27,
            "name": "Essex"
          }
        ],
        "pollDivisionIds": [
          10138035
        ],
        "postalCode": "N8M2B8",
        "streetName": "FOREST",
        "streetDirectionId": null,
        "streetTypeId": "PL",
        "placeName": "ESSEX",
        "streetNameDisplayText": "FOREST PL, ESSEX"
      }
    ]
  },
  {
    "postal": "N8M0P2",
    "result": []
  },
  {
    "postal": "N8M9M1",
    "result": []
  },
  {
    "postal": "N8M3G0",
    "result": []
  },
  {
    "postal": "N8M9Z2",
    "result": []
  },
  {
    "postal": "N8M2A0",
    "result": []
  },
  {
    "postal": "N8M6Y0",
    "result": []
  },
  {
    "postal": "N8M2Z8",
    "result": [
      {
        "electoralDistricts": [
          {
            "election": null,
            "id": 27,
            "name": "Essex"
          }
        ],
        "pollDivisionIds": [
          10138037
        ],
        "postalCode": "N8M2Z8",
        "streetName": "KIM",
        "streetDirectionId": null,
        "streetTypeId": "CRT",
        "placeName": "ESSEX",
        "streetNameDisplayText": "KIM CRT, ESSEX"
      }
    ]
  },
  {
    "postal": "N8M7Y3",
    "result": []
  },
  {
    "postal": "N8M6Z5",
    "result": []
  },
  {
    "postal": "N8M6E0",
    "result": []
  },
  {
    "postal": "N8M9B7",
    "result": []
  },
  {
    "postal": "N8M9S5",
    "result": []
  },
  {
    "postal": "N8M3X3",
    "result": []
  },
  {
    "postal": "N8M7R5",
    "result": []
  },
  {
    "postal": "N8M2X3",
    "result": [
      {
        "electoralDistricts": [
          {
            "election": null,
            "id": 27,
            "name": "Essex"
          }
        ],
        "pollDivisionIds": [
          10138034
        ],
        "postalCode": "N8M2X3",
        "streetName": "LAPOINTE",
        "streetDirectionId": null,
        "streetTypeId": "ST",
        "placeName": "ESSEX",
        "streetNameDisplayText": "LAPOINTE ST, ESSEX"
      }
    ]
  },
  {
    "postal": "N8M8Z9",
    "result": []
  },
  {
    "postal": "N8M0N4",
    "result": []
  },
  {
    "postal": "N8M1K1",
    "result": [
      {
        "electoralDistricts": [
          {
            "election": null,
            "id": 27,
            "name": "Essex"
          }
        ],
        "pollDivisionIds": [
          10138036
        ],
        "postalCode": "N8M1K1",
        "streetName": "HANLAN",
        "streetDirectionId": "N",
        "streetTypeId": "ST",
        "placeName": "ESSEX",
        "streetNameDisplayText": "HANLAN ST N, ESSEX"
      }
    ]
  },
  {
    "postal": "N8M1S3",
    "result": [
      {
        "electoralDistricts": [
          {
            "election": null,
            "id": 27,
            "name": "Essex"
          }
        ],
        "pollDivisionIds": [
          10138015
        ],
        "postalCode": "N8M1S3",
        "streetName": "LAIRD",
        "streetDirectionId": "S",
        "streetTypeId": "AVE",
        "placeName": "ESSEX",
        "streetNameDisplayText": "LAIRD AVE S, ESSEX"
      },
      {
        "electoralDistricts": [
          {
            "election": null,
            "id": 27,
            "name": "Essex"
          }
        ],
        "pollDivisionIds": [
          10138036
        ],
        "postalCode": "N8M1S3",
        "streetName": "LAIRD",
        "streetDirectionId": null,
        "streetTypeId": "AVE",
        "placeName": "ESSEX",
        "streetNameDisplayText": "LAIRD AVE, ESSEX"
      }
    ]
  },
  {
    "postal": "N8M6M4",
    "result": []
  },
  {
    "postal": "N8M9A9",
    "result": []
  },
  {
    "postal": "N8M9Z9",
    "result": []
  },
  {
    "postal": "N8M6T4",
    "result": []
  },
  {
    "postal": "N8M0B2",
    "result": []
  },
  {
    "postal": "N8M2L9",
    "result": [
      {
        "electoralDistricts": [
          {
            "election": null,
            "id": 27,
            "name": "Essex"
          }
        ],
        "pollDivisionIds": [
          10138037
        ],
        "postalCode": "N8M2L9",
        "streetName": "WILSON",
        "streetDirectionId": null,
        "streetTypeId": "AVE",
        "placeName": "ESSEX",
        "streetNameDisplayText": "WILSON AVE, ESSEX"
      }
    ]
  },
  {
    "postal": "N8M8K9",
    "result": []
  },
  {
    "postal": "N8M2H9",
    "result": [
      {
        "electoralDistricts": [
          {
            "election": null,
            "id": 27,
            "name": "Essex"
          }
        ],
        "pollDivisionIds": [
          10138036
        ],
        "postalCode": "N8M2H9",
        "streetName": "MEDORA",
        "streetDirectionId": "W",
        "streetTypeId": "AVE",
        "placeName": "ESSEX",
        "streetNameDisplayText": "MEDORA AVE W, ESSEX"
      }
    ]
  },
  {
    "postal": "N8M3Z6",
    "result": []
  },
  {
    "postal": "N8M3B0",
    "result": []
  },
  {
    "postal": "N8M2H8",
    "result": []
  },
  {
    "postal": "N8M3X2",
    "result": []
  },
  {
    "postal": "N8M2E9",
    "result": [
      {
        "electoralDistricts": [
          {
            "election": null,
            "id": 27,
            "name": "Essex"
          }
        ],
        "pollDivisionIds": [
          10138036
        ],
        "postalCode": "N8M2E9",
        "streetName": "THOMAS",
        "streetDirectionId": null,
        "streetTypeId": "ST",
        "placeName": "ESSEX",
        "streetNameDisplayText": "THOMAS ST, ESSEX"
      }
    ]
  },
  {
    "postal": "N8M9P6",
    "result": []
  },
  {
    "postal": "N8M9E2",
    "result": []
  },
  {
    "postal": "N8M9H2",
    "result": []
  },
  {
    "postal": "N8M1S8",
    "result": [
      {
        "electoralDistricts": [
          {
            "election": null,
            "id": 27,
            "name": "Essex"
          }
        ],
        "pollDivisionIds": [
          10138037
        ],
        "postalCode": "N8M1S8",
        "streetName": "LAIRD",
        "streetDirectionId": null,
        "streetTypeId": "AVE",
        "placeName": "ESSEX",
        "streetNameDisplayText": "LAIRD AVE, ESSEX"
      }
    ]
  },
  {
    "postal": "N8M3M6",
    "result": []
  },
  {
    "postal": "N8M6Z8",
    "result": []
  },
  {
    "postal": "N8M4J2",
    "result": []
  },
  {
    "postal": "N8M9Y1",
    "result": []
  },
  {
    "postal": "N8M8V6",
    "result": []
  },
  {
    "postal": "N8M6B2",
    "result": []
  },
  {
    "postal": "N8M1P8",
    "result": [
      {
        "electoralDistricts": [
          {
            "election": null,
            "id": 27,
            "name": "Essex"
          }
        ],
        "pollDivisionIds": [
          10138036
        ],
        "postalCode": "N8M1P8",
        "streetName": "TURNHOUT",
        "streetDirectionId": null,
        "streetTypeId": "CRES",
        "placeName": "ESSEX",
        "streetNameDisplayText": "TURNHOUT CRES, ESSEX"
      }
    ]
  },
  {
    "postal": "N8M0V8",
    "result": []
  },
  {
    "postal": "N8M4Y0",
    "result": []
  },
  {
    "postal": "N8M2T4",
    "result": []
  },
  {
    "postal": "N8M2S3",
    "result": [
      {
        "electoralDistricts": [
          {
            "election": null,
            "id": 27,
            "name": "Essex"
          }
        ],
        "pollDivisionIds": [
          10138036
        ],
        "postalCode": "N8M2S3",
        "streetName": "FOX",
        "streetDirectionId": null,
        "streetTypeId": "ST",
        "placeName": "ESSEX",
        "streetNameDisplayText": "FOX ST, ESSEX"
      }
    ]
  },
  {
    "postal": "N8M0K0",
    "result": []
  },
  {
    "postal": "N8M5N1",
    "result": []
  },
  {
    "postal": "N8M7T0",
    "result": []
  },
  {
    "postal": "N8M9N2",
    "result": []
  },
  {
    "postal": "N8M5L1",
    "result": []
  },
  {
    "postal": "N8M7G5",
    "result": []
  },
  {
    "postal": "N8M6K2",
    "result": []
  },
  {
    "postal": "N8M6P9",
    "result": []
  },
  {
    "postal": "N8M0E6",
    "result": []
  },
  {
    "postal": "N8M8R9",
    "result": []
  },
  {
    "postal": "N8M3G9",
    "result": [
      {
        "electoralDistricts": [
          {
            "election": null,
            "id": 27,
            "name": "Essex"
          }
        ],
        "pollDivisionIds": [
          10138037
        ],
        "postalCode": "N8M3G9",
        "streetName": "LESTER",
        "streetDirectionId": null,
        "streetTypeId": "DR",
        "placeName": "ESSEX",
        "streetNameDisplayText": "LESTER DR, ESSEX"
      },
      {
        "electoralDistricts": [
          {
            "election": null,
            "id": 27,
            "name": "Essex"
          }
        ],
        "pollDivisionIds": [
          10138037
        ],
        "postalCode": "N8M3G9",
        "streetName": "LESTER",
        "streetDirectionId": null,
        "streetTypeId": "ST",
        "placeName": "ESSEX",
        "streetNameDisplayText": "LESTER ST, ESSEX"
      }
    ]
  },
  {
    "postal": "N8M0V7",
    "result": []
  },
  {
    "postal": "N8M2Z1",
    "result": [
      {
        "electoralDistricts": [
          {
            "election": null,
            "id": 27,
            "name": "Essex"
          }
        ],
        "pollDivisionIds": [
          10138035
        ],
        "postalCode": "N8M2Z1",
        "streetName": "NORTH MALDEN",
        "streetDirectionId": null,
        "streetTypeId": "DR",
        "placeName": "ESSEX",
        "streetNameDisplayText": "NORTH MALDEN DR, ESSEX"
      },
      {
        "electoralDistricts": [
          {
            "election": null,
            "id": 27,
            "name": "Essex"
          }
        ],
        "pollDivisionIds": [
          10138035
        ],
        "postalCode": "N8M2Z1",
        "streetName": "PRINCESS",
        "streetDirectionId": null,
        "streetTypeId": "SQ",
        "placeName": "ESSEX",
        "streetNameDisplayText": "PRINCESS SQ, ESSEX"
      }
    ]
  },
  {
    "postal": "N8M7N1",
    "result": []
  },
  {
    "postal": "N8M3C6",
    "result": [
      {
        "electoralDistricts": [
          {
            "election": null,
            "id": 27,
            "name": "Essex"
          }
        ],
        "pollDivisionIds": [
          10138037
        ],
        "postalCode": "N8M3C6",
        "streetName": "OAK",
        "streetDirectionId": null,
        "streetTypeId": "DR",
        "placeName": "ESSEX",
        "streetNameDisplayText": "OAK DR, ESSEX"
      },
      {
        "electoralDistricts": [
          {
            "election": null,
            "id": 27,
            "name": "Essex"
          }
        ],
        "pollDivisionIds": [
          10138037
        ],
        "postalCode": "N8M3C6",
        "streetName": "PARK",
        "streetDirectionId": null,
        "streetTypeId": "LANE",
        "placeName": "ESSEX",
        "streetNameDisplayText": "PARK LANE, ESSEX"
      }
    ]
  },
  {
    "postal": "N8M4M1",
    "result": []
  },
  {
    "postal": "N8M9K2",
    "result": []
  },
  {
    "postal": "N8M9S6",
    "result": []
  },
  {
    "postal": "N8M4X1",
    "result": []
  },
  {
    "postal": "N8M8W2",
    "result": []
  },
  {
    "postal": "N8M7N2",
    "result": []
  },
  {
    "postal": "N8M8S3",
    "result": []
  },
  {
    "postal": "N8M4V0",
    "result": []
  },
  {
    "postal": "N8M6W4",
    "result": []
  },
  {
    "postal": "N8M5M1",
    "result": []
  },
  {
    "postal": "N8M0S4",
    "result": []
  },
  {
    "postal": "N8M5X6",
    "result": []
  },
  {
    "postal": "N8M8L5",
    "result": []
  },
  {
    "postal": "N8M5M8",
    "result": []
  },
  {
    "postal": "N8M2G3",
    "result": [
      {
        "electoralDistricts": [
          {
            "election": null,
            "id": 27,
            "name": "Essex"
          }
        ],
        "pollDivisionIds": [
          10138036
        ],
        "postalCode": "N8M2G3",
        "streetName": "BROCK",
        "streetDirectionId": null,
        "streetTypeId": "ST",
        "placeName": "ESSEX",
        "streetNameDisplayText": "BROCK ST, ESSEX"
      }
    ]
  },
  {
    "postal": "N8M8E4",
    "result": []
  },
  {
    "postal": "N8M7S9",
    "result": []
  },
  {
    "postal": "N8M1K3",
    "result": [
      {
        "electoralDistricts": [
          {
            "election": null,
            "id": 27,
            "name": "Essex"
          }
        ],
        "pollDivisionIds": [
          10138037
        ],
        "postalCode": "N8M1K3",
        "streetName": "HANLAN",
        "streetDirectionId": "S",
        "streetTypeId": "ST",
        "placeName": "ESSEX",
        "streetNameDisplayText": "HANLAN ST S, ESSEX"
      }
    ]
  },
  {
    "postal": "N8M4E1",
    "result": []
  },
  {
    "postal": "N8M4R2",
    "result": []
  },
  {
    "postal": "N8M6T0",
    "result": []
  },
  {
    "postal": "N8M3K5",
    "result": []
  },
  {
    "postal": "N8M3S3",
    "result": []
  },
  {
    "postal": "N8M3L4",
    "result": []
  },
  {
    "postal": "N8M9Y2",
    "result": []
  },
  {
    "postal": "N8M1E0",
    "result": []
  },
  {
    "postal": "N8M9A4",
    "result": []
  },
  {
    "postal": "N8M1L3",
    "result": [
      {
        "electoralDistricts": [
          {
            "election": null,
            "id": 27,
            "name": "Essex"
          }
        ],
        "pollDivisionIds": [
          10138037
        ],
        "postalCode": "N8M1L3",
        "streetName": "MICHAEL",
        "streetDirectionId": null,
        "streetTypeId": "DR",
        "placeName": "ESSEX",
        "streetNameDisplayText": "MICHAEL DR, ESSEX"
      }
    ]
  },
  {
    "postal": "N8M6N1",
    "result": []
  },
  {
    "postal": "N8M6G7",
    "result": []
  },
  {
    "postal": "N8M7W1",
    "result": []
  },
  {
    "postal": "N8M4M6",
    "result": []
  },
  {
    "postal": "N8M1K0",
    "result": []
  },
  {
    "postal": "N8M3E2",
    "result": [
      {
        "electoralDistricts": [
          {
            "election": null,
            "id": 27,
            "name": "Essex"
          }
        ],
        "pollDivisionIds": [
          10138037
        ],
        "postalCode": "N8M3E2",
        "streetName": "FLORIAN",
        "streetDirectionId": null,
        "streetTypeId": "ST",
        "placeName": "ESSEX",
        "streetNameDisplayText": "FLORIAN ST, ESSEX"
      }
    ]
  },
  {
    "postal": "N8M5H4",
    "result": []
  },
  {
    "postal": "N8M1K7",
    "result": [
      {
        "electoralDistricts": [
          {
            "election": null,
            "id": 27,
            "name": "Essex"
          }
        ],
        "pollDivisionIds": [
          10138037
        ],
        "postalCode": "N8M1K7",
        "streetName": "MILNE",
        "streetDirectionId": "N",
        "streetTypeId": "ST",
        "placeName": "ESSEX",
        "streetNameDisplayText": "MILNE ST N, ESSEX"
      }
    ]
  },
  {
    "postal": "N8M0H0",
    "result": []
  },
  {
    "postal": "N8M0J3",
    "result": []
  },
  {
    "postal": "N8M1X6",
    "result": [
      {
        "electoralDistricts": [
          {
            "election": null,
            "id": 27,
            "name": "Essex"
          }
        ],
        "pollDivisionIds": [
          10138037
        ],
        "postalCode": "N8M1X6",
        "streetName": "FAIRVIEW",
        "streetDirectionId": "W",
        "streetTypeId": "AVE",
        "placeName": "ESSEX",
        "streetNameDisplayText": "FAIRVIEW AVE W, ESSEX"
      }
    ]
  },
  {
    "postal": "N8M2Z6",
    "result": [
      {
        "electoralDistricts": [
          {
            "election": null,
            "id": 27,
            "name": "Essex"
          }
        ],
        "pollDivisionIds": [
          10138037
        ],
        "postalCode": "N8M2Z6",
        "streetName": "BRIEN",
        "streetDirectionId": "W",
        "streetTypeId": "AVE",
        "placeName": "ESSEX",
        "streetNameDisplayText": "BRIEN AVE W, ESSEX"
      }
    ]
  },
  {
    "postal": "N8M4R9",
    "result": []
  },
  {
    "postal": "N8M0W8",
    "result": []
  },
  {
    "postal": "N8M1L4",
    "result": [
      {
        "electoralDistricts": [
          {
            "election": null,
            "id": 27,
            "name": "Essex"
          }
        ],
        "pollDivisionIds": [
          10138037
        ],
        "postalCode": "N8M1L4",
        "streetName": "MICHAEL",
        "streetDirectionId": null,
        "streetTypeId": "DR",
        "placeName": "ESSEX",
        "streetNameDisplayText": "MICHAEL DR, ESSEX"
      }
    ]
  },
  {
    "postal": "N8M0C8",
    "result": []
  },
  {
    "postal": "N8M9X7",
    "result": []
  },
  {
    "postal": "N8M4T1",
    "result": []
  },
  {
    "postal": "N8M0M0",
    "result": []
  },
  {
    "postal": "N8M6A2",
    "result": []
  },
  {
    "postal": "N8M9S8",
    "result": []
  },
  {
    "postal": "N8M9T4",
    "result": []
  },
  {
    "postal": "N8M9Y4",
    "result": []
  },
  {
    "postal": "N8M6G5",
    "result": []
  },
  {
    "postal": "N8M6H9",
    "result": []
  },
  {
    "postal": "N8M2P3",
    "result": [
      {
        "electoralDistricts": [
          {
            "election": null,
            "id": 27,
            "name": "Essex"
          }
        ],
        "pollDivisionIds": [
          10138037
        ],
        "postalCode": "N8M2P3",
        "streetName": "BRIEN",
        "streetDirectionId": "E",
        "streetTypeId": "AVE",
        "placeName": "ESSEX",
        "streetNameDisplayText": "BRIEN AVE E, ESSEX"
      }
    ]
  },
  {
    "postal": "N8M1T6",
    "result": [
      {
        "electoralDistricts": [
          {
            "election": null,
            "id": 27,
            "name": "Essex"
          }
        ],
        "pollDivisionIds": [
          10138055
        ],
        "postalCode": "N8M1T6",
        "streetName": "ILER",
        "streetDirectionId": null,
        "streetTypeId": "AVE",
        "placeName": "ESSEX",
        "streetNameDisplayText": "ILER AVE, ESSEX"
      }
    ]
  },
  {
    "postal": "N8M4P6",
    "result": []
  },
  {
    "postal": "N8M3K1",
    "result": []
  },
  {
    "postal": "N8M6X4",
    "result": []
  },
  {
    "postal": "N8M4M8",
    "result": []
  },
  {
    "postal": "N8M2Y1",
    "result": [
      {
        "electoralDistricts": [
          {
            "election": null,
            "id": 27,
            "name": "Essex"
          }
        ],
        "pollDivisionIds": [
          10138037
        ],
        "postalCode": "N8M2Y1",
        "streetName": "COUNTY 34",
        "streetDirectionId": "W",
        "streetTypeId": "RD",
        "placeName": "ESSEX",
        "streetNameDisplayText": "COUNTY 34 RD W, ESSEX"
      }
    ]
  },
  {
    "postal": "N8M6M1",
    "result": []
  },
  {
    "postal": "N8M5L8",
    "result": []
  },
  {
    "postal": "N8M3P6",
    "result": []
  },
  {
    "postal": "N8M9A5",
    "result": []
  },
  {
    "postal": "N8M7K1",
    "result": []
  },
  {
    "postal": "N8M3J4",
    "result": []
  },
  {
    "postal": "N8M5E7",
    "result": []
  },
  {
    "postal": "N8M3A7",
    "result": [
      {
        "electoralDistricts": [
          {
            "election": null,
            "id": 27,
            "name": "Essex"
          }
        ],
        "pollDivisionIds": [
          10138035
        ],
        "postalCode": "N8M3A7",
        "streetName": "DREW",
        "streetDirectionId": null,
        "streetTypeId": "DR",
        "placeName": "ESSEX",
        "streetNameDisplayText": "DREW DR, ESSEX"
      }
    ]
  },
  {
    "postal": "N8M1B9",
    "result": [
      {
        "electoralDistricts": [
          {
            "election": null,
            "id": 27,
            "name": "Essex"
          }
        ],
        "pollDivisionIds": [
          10138037
        ],
        "postalCode": "N8M1B9",
        "streetName": "TALBOT",
        "streetDirectionId": "S",
        "streetTypeId": "RD",
        "placeName": "ESSEX",
        "streetNameDisplayText": "TALBOT RD S, ESSEX"
      },
      {
        "electoralDistricts": [
          {
            "election": null,
            "id": 18,
            "name": "Chatham-Kentâ€”Leamington"
          }
        ],
        "pollDivisionIds": [
          10137515
        ],
        "postalCode": "N8M1B9",
        "streetName": "TALBOT",
        "streetDirectionId": "E",
        "streetTypeId": "ST",
        "placeName": "LEAMINGTON",
        "streetNameDisplayText": "TALBOT ST E, LEAMINGTON"
      },
      {
        "electoralDistricts": [
          {
            "election": null,
            "id": 27,
            "name": "Essex"
          }
        ],
        "pollDivisionIds": [
          10138037
        ],
        "postalCode": "N8M1B9",
        "streetName": "TALBOT",
        "streetDirectionId": "S",
        "streetTypeId": "ST",
        "placeName": "ESSEX",
        "streetNameDisplayText": "TALBOT ST S, ESSEX"
      }
    ]
  },
  {
    "postal": "N8M9E8",
    "result": []
  },
  {
    "postal": "N8M1C9",
    "result": [
      {
        "electoralDistricts": [
          {
            "election": null,
            "id": 27,
            "name": "Essex"
          }
        ],
        "pollDivisionIds": [
          10138036
        ],
        "postalCode": "N8M1C9",
        "streetName": "ALICE",
        "streetDirectionId": "N",
        "streetTypeId": "ST",
        "placeName": "ESSEX",
        "streetNameDisplayText": "ALICE ST N, ESSEX"
      }
    ]
  },
  {
    "postal": "N8M3B5",
    "result": [
      {
        "electoralDistricts": [
          {
            "election": null,
            "id": 27,
            "name": "Essex"
          }
        ],
        "pollDivisionIds": [
          10138037
        ],
        "postalCode": "N8M3B5",
        "streetName": "DOWSWELL",
        "streetDirectionId": null,
        "streetTypeId": "ST",
        "placeName": "ESSEX",
        "streetNameDisplayText": "DOWSWELL ST, ESSEX"
      }
    ]
  },
  {
    "postal": "N8M8R0",
    "result": []
  },
  {
    "postal": "N8M3P2",
    "result": []
  },
  {
    "postal": "N8M5V4",
    "result": []
  },
  {
    "postal": "N8M4H0",
    "result": []
  },
  {
    "postal": "N8M4S7",
    "result": []
  },
  {
    "postal": "N8M6C2",
    "result": []
  },
  {
    "postal": "N8M8W3",
    "result": []
  },
  {
    "postal": "N8M4M5",
    "result": []
  },
  {
    "postal": "N8M5T1",
    "result": []
  },
  {
    "postal": "N8M3B3",
    "result": [
      {
        "electoralDistricts": [
          {
            "election": null,
            "id": 27,
            "name": "Essex"
          }
        ],
        "pollDivisionIds": [
          10138036
        ],
        "postalCode": "N8M3B3",
        "streetName": "MAIDSTONE",
        "streetDirectionId": "E",
        "streetTypeId": "AVE",
        "placeName": "ESSEX",
        "streetNameDisplayText": "MAIDSTONE AVE E, ESSEX"
      }
    ]
  },
  {
    "postal": "N8M6C6",
    "result": []
  },
  {
    "postal": "N8M7N8",
    "result": []
  },
  {
    "postal": "N8M2Y3",
    "result": []
  },
  {
    "postal": "N8M2R6",
    "result": [
      {
        "electoralDistricts": [
          {
            "election": null,
            "id": 27,
            "name": "Essex"
          }
        ],
        "pollDivisionIds": [
          10138037
        ],
        "postalCode": "N8M2R6",
        "streetName": "GOSFIELD",
        "streetDirectionId": "E",
        "streetTypeId": "TLINE",
        "placeName": "ESSEX",
        "streetNameDisplayText": "GOSFIELD TLINE E, ESSEX"
      },
      {
        "electoralDistricts": [
          {
            "election": null,
            "id": 27,
            "name": "Essex"
          }
        ],
        "pollDivisionIds": [
          10138037
        ],
        "postalCode": "N8M2R6",
        "streetName": "GOSFIELD",
        "streetDirectionId": "W",
        "streetTypeId": "TLINE",
        "placeName": "ESSEX",
        "streetNameDisplayText": "GOSFIELD TLINE W, ESSEX"
      }
    ]
  },
  {
    "postal": "N8M7N3",
    "result": []
  },
  {
    "postal": "N8M8J2",
    "result": []
  },
  {
    "postal": "N8M6A9",
    "result": []
  },
  {
    "postal": "N8M3V2",
    "result": []
  },
  {
    "postal": "N8M2N3",
    "result": [
      {
        "electoralDistricts": [
          {
            "election": null,
            "id": 27,
            "name": "Essex"
          }
        ],
        "pollDivisionIds": [
          10138037
        ],
        "postalCode": "N8M2N3",
        "streetName": "ARTHUR",
        "streetDirectionId": null,
        "streetTypeId": "AVE",
        "placeName": "ESSEX",
        "streetNameDisplayText": "ARTHUR AVE, ESSEX"
      }
    ]
  },
  {
    "postal": "N8M1S5",
    "result": [
      {
        "electoralDistricts": [
          {
            "election": null,
            "id": 27,
            "name": "Essex"
          }
        ],
        "pollDivisionIds": [
          10138036
        ],
        "postalCode": "N8M1S5",
        "streetName": "LAIRD",
        "streetDirectionId": null,
        "streetTypeId": "AVE",
        "placeName": "ESSEX",
        "streetNameDisplayText": "LAIRD AVE, ESSEX"
      }
    ]
  },
  {
    "postal": "N8M4T7",
    "result": []
  },
  {
    "postal": "N8M6Y7",
    "result": []
  },
  {
    "postal": "N8M0W7",
    "result": []
  },
  {
    "postal": "N8M2W9",
    "result": [
      {
        "electoralDistricts": [
          {
            "election": null,
            "id": 27,
            "name": "Essex"
          }
        ],
        "pollDivisionIds": [
          10138037
        ],
        "postalCode": "N8M2W9",
        "streetName": "GOSFIELD",
        "streetDirectionId": "E",
        "streetTypeId": "TLINE",
        "placeName": "ESSEX",
        "streetNameDisplayText": "GOSFIELD TLINE E, ESSEX"
      }
    ]
  },
  {
    "postal": "N8M8V0",
    "result": []
  },
  {
    "postal": "N8M0H4",
    "result": []
  },
  {
    "postal": "N8M2T1",
    "result": [
      {
        "electoralDistricts": [
          {
            "election": null,
            "id": 27,
            "name": "Essex"
          }
        ],
        "pollDivisionIds": [
          10138037
        ],
        "postalCode": "N8M2T1",
        "streetName": "IRWIN",
        "streetDirectionId": null,
        "streetTypeId": "AVE",
        "placeName": "ESSEX",
        "streetNameDisplayText": "IRWIN AVE, ESSEX"
      }
    ]
  },
  {
    "postal": "N8M1B1",
    "result": [
      {
        "electoralDistricts": [
          {
            "election": null,
            "id": 27,
            "name": "Essex"
          }
        ],
        "pollDivisionIds": [
          10138037
        ],
        "postalCode": "N8M1B1",
        "streetName": "SOUTH TALBOT",
        "streetDirectionId": "S",
        "streetTypeId": "RD",
        "placeName": "ESSEX",
        "streetNameDisplayText": "SOUTH TALBOT RD S, ESSEX"
      },
      {
        "electoralDistricts": [
          {
            "election": null,
            "id": 27,
            "name": "Essex"
          }
        ],
        "pollDivisionIds": [
          10138037
        ],
        "postalCode": "N8M1B1",
        "streetName": "TALBOT",
        "streetDirectionId": "N",
        "streetTypeId": "RD",
        "placeName": "ESSEX",
        "streetNameDisplayText": "TALBOT RD N, ESSEX"
      },
      {
        "electoralDistricts": [
          {
            "election": null,
            "id": 27,
            "name": "Essex"
          }
        ],
        "pollDivisionIds": [
          10138037,
          10138036
        ],
        "postalCode": "N8M1B1",
        "streetName": "TALBOT",
        "streetDirectionId": "S",
        "streetTypeId": "ST",
        "placeName": "ESSEX",
        "streetNameDisplayText": "TALBOT ST S, ESSEX"
      }
    ]
  },
  {
    "postal": "N8M8B6",
    "result": []
  },
  {
    "postal": "N8M6H1",
    "result": []
  },
  {
    "postal": "N8M8T8",
    "result": []
  },
  {
    "postal": "N8M0T4",
    "result": []
  },
  {
    "postal": "N8M2C4",
    "result": [
      {
        "electoralDistricts": [
          {
            "election": null,
            "id": 27,
            "name": "Essex"
          }
        ],
        "pollDivisionIds": [
          10138036
        ],
        "postalCode": "N8M2C4",
        "streetName": "TALBOT",
        "streetDirectionId": "N",
        "streetTypeId": "RD",
        "placeName": "ESSEX",
        "streetNameDisplayText": "TALBOT RD N, ESSEX"
      },
      {
        "electoralDistricts": [
          {
            "election": null,
            "id": 27,
            "name": "Essex"
          }
        ],
        "pollDivisionIds": [
          10138030,
          10138036
        ],
        "postalCode": "N8M2C4",
        "streetName": "TALBOT",
        "streetDirectionId": "N",
        "streetTypeId": "ST",
        "placeName": "ESSEX",
        "streetNameDisplayText": "TALBOT ST N, ESSEX"
      }
    ]
  },
  {
    "postal": "N8M8N3",
    "result": []
  },
  {
    "postal": "N8M4L8",
    "result": []
  },
  {
    "postal": "N8M2B5",
    "result": [
      {
        "electoralDistricts": [
          {
            "election": null,
            "id": 27,
            "name": "Essex"
          }
        ],
        "pollDivisionIds": [
          10138035
        ],
        "postalCode": "N8M2B5",
        "streetName": "BEVERLY",
        "streetDirectionId": null,
        "streetTypeId": "DR",
        "placeName": "ESSEX",
        "streetNameDisplayText": "BEVERLY DR, ESSEX"
      }
    ]
  },
  {
    "postal": "N8M3H1",
    "result": [
      {
        "electoralDistricts": [
          {
            "election": null,
            "id": 27,
            "name": "Essex"
          }
        ],
        "pollDivisionIds": [
          10138037
        ],
        "postalCode": "N8M3H1",
        "streetName": "HANLAN",
        "streetDirectionId": "S",
        "streetTypeId": "ST",
        "placeName": "ESSEX",
        "streetNameDisplayText": "HANLAN ST S, ESSEX"
      }
    ]
  },
  {
    "postal": "N8M4Y1",
    "result": []
  },
  {
    "postal": "N8M7E2",
    "result": []
  },
  {
    "postal": "N8M2P5",
    "result": [
      {
        "electoralDistricts": [
          {
            "election": null,
            "id": 27,
            "name": "Essex"
          }
        ],
        "pollDivisionIds": [
          10138037
        ],
        "postalCode": "N8M2P5",
        "streetName": "BRIEN",
        "streetDirectionId": "E",
        "streetTypeId": "AVE",
        "placeName": "ESSEX",
        "streetNameDisplayText": "BRIEN AVE E, ESSEX"
      }
    ]
  },
  {
    "postal": "N8M8R7",
    "result": []
  },
  {
    "postal": "N8M9P1",
    "result": []
  },
  {
    "postal": "N8M3B8",
    "result": [
      {
        "electoralDistricts": [
          {
            "election": null,
            "id": 27,
            "name": "Essex"
          }
        ],
        "pollDivisionIds": [
          10138037
        ],
        "postalCode": "N8M3B8",
        "streetName": "STANTON",
        "streetDirectionId": null,
        "streetTypeId": "CRT",
        "placeName": "ESSEX",
        "streetNameDisplayText": "STANTON CRT, ESSEX"
      }
    ]
  },
  {
    "postal": "N8M3P7",
    "result": []
  },
  {
    "postal": "N8M9B2",
    "result": []
  },
  {
    "postal": "N8M6Z3",
    "result": []
  },
  {
    "postal": "N8M4N5",
    "result": []
  },
  {
    "postal": "N8M8T3",
    "result": []
  },
  {
    "postal": "N8M1V2",
    "result": [
      {
        "electoralDistricts": [
          {
            "election": null,
            "id": 27,
            "name": "Essex"
          }
        ],
        "pollDivisionIds": [
          10138037
        ],
        "postalCode": "N8M1V2",
        "streetName": "KELLY",
        "streetDirectionId": null,
        "streetTypeId": "ST",
        "placeName": "ESSEX",
        "streetNameDisplayText": "KELLY ST, ESSEX"
      }
    ]
  },
  {
    "postal": "N8M1Y0",
    "result": []
  },
  {
    "postal": "N8M3G6",
    "result": [
      {
        "electoralDistricts": [
          {
            "election": null,
            "id": 27,
            "name": "Essex"
          }
        ],
        "pollDivisionIds": [
          10138036
        ],
        "postalCode": "N8M3G6",
        "streetName": "ALLEN",
        "streetDirectionId": null,
        "streetTypeId": "AVE",
        "placeName": "ESSEX",
        "streetNameDisplayText": "ALLEN AVE, ESSEX"
      }
    ]
  },
  {
    "postal": "N8M3H7",
    "result": []
  },
  {
    "postal": "N8M7X8",
    "result": []
  },
  {
    "postal": "N8M0C7",
    "result": []
  },
  {
    "postal": "N8M0W9",
    "result": []
  },
  {
    "postal": "N8M8E6",
    "result": []
  },
  {
    "postal": "N8M9Z8",
    "result": []
  },
  {
    "postal": "N8M3P4",
    "result": []
  },
  {
    "postal": "N8M6L8",
    "result": []
  },
  {
    "postal": "N8M2R4",
    "result": [
      {
        "electoralDistricts": [
          {
            "election": null,
            "id": 27,
            "name": "Essex"
          }
        ],
        "pollDivisionIds": [
          10138037
        ],
        "postalCode": "N8M2R4",
        "streetName": "FAIRVIEW",
        "streetDirectionId": "E",
        "streetTypeId": "AVE",
        "placeName": "ESSEX",
        "streetNameDisplayText": "FAIRVIEW AVE E, ESSEX"
      }
    ]
  },
  {
    "postal": "N8M2W1",
    "result": [
      {
        "electoralDistricts": [
          {
            "election": null,
            "id": 27,
            "name": "Essex"
          }
        ],
        "pollDivisionIds": [
          10138037
        ],
        "postalCode": "N8M2W1",
        "streetName": "SOUTH TALBOT",
        "streetDirectionId": "N",
        "streetTypeId": "RD",
        "placeName": "ESSEX",
        "streetNameDisplayText": "SOUTH TALBOT RD N, ESSEX"
      }
    ]
  },
  {
    "postal": "N8M9H8",
    "result": []
  },
  {
    "postal": "N8M8X9",
    "result": []
  },
  {
    "postal": "N8M7H4",
    "result": []
  },
  {
    "postal": "N8M3J1",
    "result": []
  },
  {
    "postal": "N8M1P4",
    "result": [
      {
        "electoralDistricts": [
          {
            "election": null,
            "id": 27,
            "name": "Essex"
          }
        ],
        "pollDivisionIds": [
          10138036
        ],
        "postalCode": "N8M1P4",
        "streetName": "CENTRE",
        "streetDirectionId": "E",
        "streetTypeId": "ST",
        "placeName": "ESSEX",
        "streetNameDisplayText": "CENTRE ST E, ESSEX"
      }
    ]
  },
  {
    "postal": "N8M2A3",
    "result": [
      {
        "electoralDistricts": [
          {
            "election": null,
            "id": 27,
            "name": "Essex"
          }
        ],
        "pollDivisionIds": [
          10138035
        ],
        "postalCode": "N8M2A3",
        "streetName": "DANA",
        "streetDirectionId": null,
        "streetTypeId": "DR",
        "placeName": "ESSEX",
        "streetNameDisplayText": "DANA DR, ESSEX"
      }
    ]
  },
  {
    "postal": "N8M0Z1",
    "result": []
  },
  {
    "postal": "N8M1C1",
    "result": [
      {
        "electoralDistricts": [
          {
            "election": null,
            "id": 27,
            "name": "Essex"
          }
        ],
        "pollDivisionIds": [
          10138037
        ],
        "postalCode": "N8M1C1",
        "streetName": "TALBOT",
        "streetDirectionId": "S",
        "streetTypeId": "RD",
        "placeName": "ESSEX",
        "streetNameDisplayText": "TALBOT RD S, ESSEX"
      },
      {
        "electoralDistricts": [
          {
            "election": null,
            "id": 27,
            "name": "Essex"
          }
        ],
        "pollDivisionIds": [
          10138036
        ],
        "postalCode": "N8M1C1",
        "streetName": "TALBOT",
        "streetDirectionId": "N",
        "streetTypeId": "ST",
        "placeName": "ESSEX",
        "streetNameDisplayText": "TALBOT ST N, ESSEX"
      },
      {
        "electoralDistricts": [
          {
            "election": null,
            "id": 27,
            "name": "Essex"
          }
        ],
        "pollDivisionIds": [
          10138037
        ],
        "postalCode": "N8M1C1",
        "streetName": "TALBOT",
        "streetDirectionId": "S",
        "streetTypeId": "ST",
        "placeName": "ESSEX",
        "streetNameDisplayText": "TALBOT ST S, ESSEX"
      }
    ]
  },
  {
    "postal": "N8M0H3",
    "result": []
  },
  {
    "postal": "N8M7B0",
    "result": []
  },
  {
    "postal": "N8M5K2",
    "result": []
  },
  {
    "postal": "N8M1E9",
    "result": [
      {
        "electoralDistricts": [
          {
            "election": null,
            "id": 27,
            "name": "Essex"
          }
        ],
        "pollDivisionIds": [
          10138036
        ],
        "postalCode": "N8M1E9",
        "streetName": "RUSSELL",
        "streetDirectionId": null,
        "streetTypeId": "ST",
        "placeName": "ESSEX",
        "streetNameDisplayText": "RUSSELL ST, ESSEX"
      }
    ]
  },
  {
    "postal": "N8M9W7",
    "result": []
  },
  {
    "postal": "N8M5W6",
    "result": []
  },
  {
    "postal": "N8M6S6",
    "result": []
  },
  {
    "postal": "N8M2P8",
    "result": [
      {
        "electoralDistricts": [
          {
            "election": null,
            "id": 27,
            "name": "Essex"
          }
        ],
        "pollDivisionIds": [
          10138037
        ],
        "postalCode": "N8M2P8",
        "streetName": "BRIEN",
        "streetDirectionId": "E",
        "streetTypeId": "AVE",
        "placeName": "ESSEX",
        "streetNameDisplayText": "BRIEN AVE E, ESSEX"
      }
    ]
  },
  {
    "postal": "N8M4P8",
    "result": []
  },
  {
    "postal": "N8M0V9",
    "result": []
  },
  {
    "postal": "N8M5Y2",
    "result": []
  },
  {
    "postal": "N8M7Z7",
    "result": []
  },
  {
    "postal": "N8M6Y8",
    "result": []
  },
  {
    "postal": "N8M2G7",
    "result": [
      {
        "electoralDistricts": [
          {
            "election": null,
            "id": 27,
            "name": "Essex"
          }
        ],
        "pollDivisionIds": [
          10138035
        ],
        "postalCode": "N8M2G7",
        "streetName": "PAUL",
        "streetDirectionId": null,
        "streetTypeId": "CRES",
        "placeName": "ESSEX",
        "streetNameDisplayText": "PAUL CRES, ESSEX"
      }
    ]
  },
  {
    "postal": "N8M8C1",
    "result": []
  },
  {
    "postal": "N8M5C5",
    "result": []
  },
  {
    "postal": "N8M2X8",
    "result": []
  },
  {
    "postal": "N8M1W5",
    "result": [
      {
        "electoralDistricts": [
          {
            "election": null,
            "id": 27,
            "name": "Essex"
          }
        ],
        "pollDivisionIds": [
          10138037
        ],
        "postalCode": "N8M1W5",
        "streetName": "BRIEN",
        "streetDirectionId": "W",
        "streetTypeId": "AVE",
        "placeName": "ESSEX",
        "streetNameDisplayText": "BRIEN AVE W, ESSEX"
      }
    ]
  },
  {
    "postal": "N8M7G0",
    "result": []
  },
  {
    "postal": "N8M8J8",
    "result": []
  },
  {
    "postal": "N8M3Y0",
    "result": []
  },
  {
    "postal": "N8M9T7",
    "result": []
  },
  {
    "postal": "N8M5P4",
    "result": []
  },
  {
    "postal": "N8M4B0",
    "result": []
  },
  {
    "postal": "N8M9N8",
    "result": []
  },
  {
    "postal": "N8M4A7",
    "result": []
  },
  {
    "postal": "N8M4H9",
    "result": []
  },
  {
    "postal": "N8M6X1",
    "result": []
  },
  {
    "postal": "N8M9Y7",
    "result": []
  },
  {
    "postal": "N8M2Y5",
    "result": [
      {
        "electoralDistricts": [
          {
            "election": null,
            "id": 27,
            "name": "Essex"
          }
        ],
        "pollDivisionIds": [
          10138037
        ],
        "postalCode": "N8M2Y5",
        "streetName": "10TH CONCESSION",
        "streetDirectionId": null,
        "streetTypeId": "RD",
        "placeName": "ESSEX",
        "streetNameDisplayText": "10TH CONCESSION RD, ESSEX"
      },
      {
        "electoralDistricts": [
          {
            "election": null,
            "id": 27,
            "name": "Essex"
          }
        ],
        "pollDivisionIds": [
          10138035
        ],
        "postalCode": "N8M2Y5",
        "streetName": "BEVERLY",
        "streetDirectionId": null,
        "streetTypeId": "DR",
        "placeName": "ESSEX",
        "streetNameDisplayText": "BEVERLY DR, ESSEX"
      }
    ]
  },
  {
    "postal": "N8M8L7",
    "result": []
  },
  {
    "postal": "N8M2A8",
    "result": [
      {
        "electoralDistricts": [
          {
            "election": null,
            "id": 27,
            "name": "Essex"
          }
        ],
        "pollDivisionIds": [
          10138035
        ],
        "postalCode": "N8M2A8",
        "streetName": "STEVEN",
        "streetDirectionId": null,
        "streetTypeId": "CRT",
        "placeName": "ESSEX",
        "streetNameDisplayText": "STEVEN CRT, ESSEX"
      }
    ]
  },
  {
    "postal": "N8M2K9",
    "result": [
      {
        "electoralDistricts": [
          {
            "election": null,
            "id": 27,
            "name": "Essex"
          }
        ],
        "pollDivisionIds": [
          10138036
        ],
        "postalCode": "N8M2K9",
        "streetName": "CAMERON",
        "streetDirectionId": null,
        "streetTypeId": "AVE",
        "placeName": "ESSEX",
        "streetNameDisplayText": "CAMERON AVE, ESSEX"
      }
    ]
  },
  {
    "postal": "N8M3E5",
    "result": [
      {
        "electoralDistricts": [
          {
            "election": null,
            "id": 27,
            "name": "Essex"
          }
        ],
        "pollDivisionIds": [
          10138036
        ],
        "postalCode": "N8M3E5",
        "streetName": "ILER",
        "streetDirectionId": null,
        "streetTypeId": "AVE",
        "placeName": "ESSEX",
        "streetNameDisplayText": "ILER AVE, ESSEX"
      }
    ]
  },
  {
    "postal": "N8M8N6",
    "result": []
  },
  {
    "postal": "N8M8J4",
    "result": []
  },
  {
    "postal": "N8M4R7",
    "result": []
  },
  {
    "postal": "N8M9K1",
    "result": []
  },
  {
    "postal": "N8M8E1",
    "result": []
  },
  {
    "postal": "N8M0R1",
    "result": []
  },
  {
    "postal": "N8M4J3",
    "result": []
  },
  {
    "postal": "N8M7E7",
    "result": []
  },
  {
    "postal": "N8M0J0",
    "result": []
  },
  {
    "postal": "N8M7R8",
    "result": []
  },
  {
    "postal": "N8M9X0",
    "result": []
  },
  {
    "postal": "N8M7P6",
    "result": []
  },
  {
    "postal": "N8M0R7",
    "result": []
  },
  {
    "postal": "N8M5W1",
    "result": []
  },
  {
    "postal": "N8M0K4",
    "result": []
  },
  {
    "postal": "N8M7N9",
    "result": []
  },
  {
    "postal": "N8M1N0",
    "result": []
  },
  {
    "postal": "N8M6P3",
    "result": []
  },
  {
    "postal": "N8M5A1",
    "result": []
  },
  {
    "postal": "N8M9M9",
    "result": []
  },
  {
    "postal": "N8M7T6",
    "result": []
  },
  {
    "postal": "N8M3X0",
    "result": []
  },
  {
    "postal": "N8M2T0",
    "result": []
  },
  {
    "postal": "N8M5X9",
    "result": []
  },
  {
    "postal": "N8M2R3",
    "result": [
      {
        "electoralDistricts": [
          {
            "election": null,
            "id": 27,
            "name": "Essex"
          }
        ],
        "pollDivisionIds": [
          10138037
        ],
        "postalCode": "N8M2R3",
        "streetName": "FAIRVIEW",
        "streetDirectionId": "E",
        "streetTypeId": "AVE",
        "placeName": "ESSEX",
        "streetNameDisplayText": "FAIRVIEW AVE E, ESSEX"
      }
    ]
  },
  {
    "postal": "N8M5N2",
    "result": []
  },
  {
    "postal": "N8M4Y7",
    "result": []
  },
  {
    "postal": "N8M7M0",
    "result": []
  },
  {
    "postal": "N8M8P3",
    "result": []
  },
  {
    "postal": "N8M3N3",
    "result": []
  },
  {
    "postal": "N8M7S3",
    "result": []
  },
  {
    "postal": "N8M3V9",
    "result": []
  },
  {
    "postal": "N8M9N7",
    "result": []
  },
  {
    "postal": "N8M0G4",
    "result": []
  },
  {
    "postal": "N8M2E2",
    "result": [
      {
        "electoralDistricts": [
          {
            "election": null,
            "id": 27,
            "name": "Essex"
          }
        ],
        "pollDivisionIds": [
          10138034,
          10138036,
          10138047
        ],
        "postalCode": "N8M2E2",
        "streetName": "TALBOT",
        "streetDirectionId": "N",
        "streetTypeId": "RD",
        "placeName": "ESSEX",
        "streetNameDisplayText": "TALBOT RD N, ESSEX"
      },
      {
        "electoralDistricts": [
          {
            "election": null,
            "id": 27,
            "name": "Essex"
          }
        ],
        "pollDivisionIds": [
          10138036
        ],
        "postalCode": "N8M2E2",
        "streetName": "TALBOT",
        "streetDirectionId": "N",
        "streetTypeId": "ST",
        "placeName": "ESSEX",
        "streetNameDisplayText": "TALBOT ST N, ESSEX"
      }
    ]
  },
  {
    "postal": "N8M7W8",
    "result": []
  },
  {
    "postal": "N8M7M5",
    "result": []
  },
  {
    "postal": "N8M5W8",
    "result": []
  },
  {
    "postal": "N8M5E5",
    "result": []
  },
  {
    "postal": "N8M1P9",
    "result": [
      {
        "electoralDistricts": [
          {
            "election": null,
            "id": 27,
            "name": "Essex"
          }
        ],
        "pollDivisionIds": [
          10138031
        ],
        "postalCode": "N8M1P9",
        "streetName": "CENTRE",
        "streetDirectionId": "E",
        "streetTypeId": "ST",
        "placeName": "ESSEX",
        "streetNameDisplayText": "CENTRE ST E, ESSEX"
      },
      {
        "electoralDistricts": [
          {
            "election": null,
            "id": 27,
            "name": "Essex"
          }
        ],
        "pollDivisionIds": [
          10138031
        ],
        "postalCode": "N8M1P9",
        "streetName": "CENTRE",
        "streetDirectionId": "W",
        "streetTypeId": "ST",
        "placeName": "ESSEX",
        "streetNameDisplayText": "CENTRE ST W, ESSEX"
      },
      {
        "electoralDistricts": [
          {
            "election": null,
            "id": 27,
            "name": "Essex"
          }
        ],
        "pollDivisionIds": [
          10138036
        ],
        "postalCode": "N8M1P9",
        "streetName": "CENTRE",
        "streetDirectionId": null,
        "streetTypeId": "ST",
        "placeName": "ESSEX",
        "streetNameDisplayText": "CENTRE ST, ESSEX"
      }
    ]
  },
  {
    "postal": "N8M8V8",
    "result": []
  },
  {
    "postal": "N8M9G8",
    "result": []
  },
  {
    "postal": "N8M8H9",
    "result": []
  },
  {
    "postal": "N8M1Z1",
    "result": [
      {
        "electoralDistricts": [
          {
            "election": null,
            "id": 27,
            "name": "Essex"
          }
        ],
        "pollDivisionIds": [
          10138035
        ],
        "postalCode": "N8M1Z1",
        "streetName": "DANA",
        "streetDirectionId": null,
        "streetTypeId": "DR",
        "placeName": "ESSEX",
        "streetNameDisplayText": "DANA DR, ESSEX"
      }
    ]
  },
  {
    "postal": "N8M8M3",
    "result": []
  },
  {
    "postal": "N8M5H6",
    "result": []
  },
  {
    "postal": "N8M7W7",
    "result": []
  },
  {
    "postal": "N8M4L0",
    "result": []
  },
  {
    "postal": "N8M2N1",
    "result": [
      {
        "electoralDistricts": [
          {
            "election": null,
            "id": 27,
            "name": "Essex"
          }
        ],
        "pollDivisionIds": [
          10138037
        ],
        "postalCode": "N8M2N1",
        "streetName": "ARTHUR",
        "streetDirectionId": null,
        "streetTypeId": "AVE",
        "placeName": "ESSEX",
        "streetNameDisplayText": "ARTHUR AVE, ESSEX"
      },
      {
        "electoralDistricts": [
          {
            "election": null,
            "id": 27,
            "name": "Essex"
          }
        ],
        "pollDivisionIds": [
          10138031
        ],
        "postalCode": "N8M2N1",
        "streetName": "ARTHUR",
        "streetDirectionId": "N",
        "streetTypeId": "ST",
        "placeName": "ESSEX",
        "streetNameDisplayText": "ARTHUR ST N, ESSEX"
      },
      {
        "electoralDistricts": [
          {
            "election": null,
            "id": 27,
            "name": "Essex"
          }
        ],
        "pollDivisionIds": [
          10138030
        ],
        "postalCode": "N8M2N1",
        "streetName": "ARTHUR",
        "streetDirectionId": "S",
        "streetTypeId": "ST",
        "placeName": "ESSEX",
        "streetNameDisplayText": "ARTHUR ST S, ESSEX"
      }
    ]
  },
  {
    "postal": "N8M2H4",
    "result": [
      {
        "electoralDistricts": [
          {
            "election": null,
            "id": 27,
            "name": "Essex"
          }
        ],
        "pollDivisionIds": [
          10138036
        ],
        "postalCode": "N8M2H4",
        "streetName": "BELL",
        "streetDirectionId": null,
        "streetTypeId": "AVE",
        "placeName": "ESSEX",
        "streetNameDisplayText": "BELL AVE, ESSEX"
      }
    ]
  },
  {
    "postal": "N8M5C8",
    "result": []
  },
  {
    "postal": "N8M8B0",
    "result": []
  },
  {
    "postal": "N8M1T4",
    "result": [
      {
        "electoralDistricts": [
          {
            "election": null,
            "id": 27,
            "name": "Essex"
          }
        ],
        "pollDivisionIds": [
          10138036
        ],
        "postalCode": "N8M1T4",
        "streetName": "ILER",
        "streetDirectionId": null,
        "streetTypeId": "AVE",
        "placeName": "ESSEX",
        "streetNameDisplayText": "ILER AVE, ESSEX"
      }
    ]
  },
  {
    "postal": "N8M7N7",
    "result": []
  },
  {
    "postal": "N8M4L3",
    "result": []
  },
  {
    "postal": "N8M2N2",
    "result": [
      {
        "electoralDistricts": [
          {
            "election": null,
            "id": 27,
            "name": "Essex"
          }
        ],
        "pollDivisionIds": [
          10138037
        ],
        "postalCode": "N8M2N2",
        "streetName": "ARTHUR",
        "streetDirectionId": null,
        "streetTypeId": "AVE",
        "placeName": "ESSEX",
        "streetNameDisplayText": "ARTHUR AVE, ESSEX"
      }
    ]
  },
  {
    "postal": "N8M4N8",
    "result": []
  },
  {
    "postal": "N8M3M5",
    "result": []
  },
  {
    "postal": "N8M6H7",
    "result": []
  },
  {
    "postal": "N8M8Y8",
    "result": []
  },
  {
    "postal": "N8M5R9",
    "result": []
  },
  {
    "postal": "N8M8G3",
    "result": []
  },
  {
    "postal": "N8M4N7",
    "result": []
  },
  {
    "postal": "N8M0B9",
    "result": []
  },
  {
    "postal": "N8M9K7",
    "result": []
  },
  {
    "postal": "N8M9K9",
    "result": []
  },
  {
    "postal": "N8M3Z2",
    "result": []
  },
  {
    "postal": "N8M6W7",
    "result": []
  },
  {
    "postal": "N8M0P1",
    "result": []
  },
  {
    "postal": "N8M3A0",
    "result": []
  },
  {
    "postal": "N8M8L9",
    "result": []
  },
  {
    "postal": "N8M6X0",
    "result": []
  },
  {
    "postal": "N8M3E9",
    "result": [
      {
        "electoralDistricts": [
          {
            "election": null,
            "id": 27,
            "name": "Essex"
          }
        ],
        "pollDivisionIds": [
          10138037
        ],
        "postalCode": "N8M3E9",
        "streetName": "JOAN FLOOD",
        "streetDirectionId": null,
        "streetTypeId": "DR",
        "placeName": "ESSEX",
        "streetNameDisplayText": "JOAN FLOOD DR, ESSEX"
      },
      {
        "electoralDistricts": [
          {
            "election": null,
            "id": 27,
            "name": "Essex"
          }
        ],
        "pollDivisionIds": [
          10138037
        ],
        "postalCode": "N8M3E9",
        "streetName": "WOODVIEW",
        "streetDirectionId": null,
        "streetTypeId": "DR",
        "placeName": "ESSEX",
        "streetNameDisplayText": "WOODVIEW DR, ESSEX"
      }
    ]
  },
  {
    "postal": "N8M0S5",
    "result": []
  },
  {
    "postal": "N8M1A2",
    "result": [
      {
        "electoralDistricts": [
          {
            "election": null,
            "id": 27,
            "name": "Essex"
          }
        ],
        "pollDivisionIds": [
          10138048
        ],
        "postalCode": "N8M1A2",
        "streetName": "46 COUNTY",
        "streetDirectionId": "N",
        "streetTypeId": "RD",
        "placeName": "SOUTH WOODSLEE",
        "streetNameDisplayText": "46 COUNTY RD N, SOUTH WOODSLEE"
      },
      {
        "electoralDistricts": [
          {
            "election": null,
            "id": 27,
            "name": "Essex"
          }
        ],
        "pollDivisionIds": [
          10138048
        ],
        "postalCode": "N8M1A2",
        "streetName": "46 COUNTY",
        "streetDirectionId": null,
        "streetTypeId": "RD",
        "placeName": "ESSEX",
        "streetNameDisplayText": "46 COUNTY RD, ESSEX"
      },
      {
        "electoralDistricts": [
          {
            "election": null,
            "id": 27,
            "name": "Essex"
          }
        ],
        "pollDivisionIds": [
          10138036
        ],
        "postalCode": "N8M1A2",
        "streetName": "TALBOT",
        "streetDirectionId": "N",
        "streetTypeId": "RD",
        "placeName": "ESSEX",
        "streetNameDisplayText": "TALBOT RD N, ESSEX"
      },
      {
        "electoralDistricts": [
          {
            "election": null,
            "id": 27,
            "name": "Essex"
          }
        ],
        "pollDivisionIds": [
          10138036,
          10138037
        ],
        "postalCode": "N8M1A2",
        "streetName": "TALBOT",
        "streetDirectionId": "N",
        "streetTypeId": "ST",
        "placeName": "ESSEX",
        "streetNameDisplayText": "TALBOT ST N, ESSEX"
      }
    ]
  },
  {
    "postal": "N8M5V8",
    "result": []
  },
  {
    "postal": "N8M8C5",
    "result": []
  },
  {
    "postal": "N8M6N0",
    "result": []
  },
  {
    "postal": "N8M9E6",
    "result": []
  },
  {
    "postal": "N8M5J7",
    "result": []
  },
  {
    "postal": "N8M2R2",
    "result": [
      {
        "electoralDistricts": [
          {
            "election": null,
            "id": 27,
            "name": "Essex"
          }
        ],
        "pollDivisionIds": [
          10138037
        ],
        "postalCode": "N8M2R2",
        "streetName": "FAIRVIEW",
        "streetDirectionId": "E",
        "streetTypeId": "AVE",
        "placeName": "ESSEX",
        "streetNameDisplayText": "FAIRVIEW AVE E, ESSEX"
      }
    ]
  },
  {
    "postal": "N8M0P5",
    "result": []
  },
  {
    "postal": "N8M5A7",
    "result": []
  },
  {
    "postal": "N8M1G1",
    "result": [
      {
        "electoralDistricts": [
          {
            "election": null,
            "id": 27,
            "name": "Essex"
          }
        ],
        "pollDivisionIds": [
          10138036
        ],
        "postalCode": "N8M1G1",
        "streetName": "RUSSELL",
        "streetDirectionId": null,
        "streetTypeId": "ST",
        "placeName": "ESSEX",
        "streetNameDisplayText": "RUSSELL ST, ESSEX"
      },
      {
        "electoralDistricts": [
          {
            "election": null,
            "id": 18,
            "name": "Chatham-Kentâ€”Leamington"
          }
        ],
        "pollDivisionIds": [
          10137515
        ],
        "postalCode": "N8M1G1",
        "streetName": "RUSSELL",
        "streetDirectionId": null,
        "streetTypeId": "ST",
        "placeName": "LEAMINGTON",
        "streetNameDisplayText": "RUSSELL ST, LEAMINGTON"
      }
    ]
  },
  {
    "postal": "N8M9R6",
    "result": []
  },
  {
    "postal": "N8M4Z9",
    "result": []
  },
  {
    "postal": "N8M1V5",
    "result": [
      {
        "electoralDistricts": [
          {
            "election": null,
            "id": 27,
            "name": "Essex"
          }
        ],
        "pollDivisionIds": [
          10138037
        ],
        "postalCode": "N8M1V5",
        "streetName": "BRIEN",
        "streetDirectionId": "W",
        "streetTypeId": "AVE",
        "placeName": "ESSEX",
        "streetNameDisplayText": "BRIEN AVE W, ESSEX"
      }
    ]
  },
  {
    "postal": "N8M9Y5",
    "result": []
  },
  {
    "postal": "N8M1P2",
    "result": [
      {
        "electoralDistricts": [
          {
            "election": null,
            "id": 27,
            "name": "Essex"
          }
        ],
        "pollDivisionIds": [
          10138036,
          10138031
        ],
        "postalCode": "N8M1P2",
        "streetName": "CENTRE",
        "streetDirectionId": "E",
        "streetTypeId": "ST",
        "placeName": "ESSEX",
        "streetNameDisplayText": "CENTRE ST E, ESSEX"
      },
      {
        "electoralDistricts": [
          {
            "election": null,
            "id": 27,
            "name": "Essex"
          }
        ],
        "pollDivisionIds": [
          10138031
        ],
        "postalCode": "N8M1P2",
        "streetName": "CENTRE",
        "streetDirectionId": "W",
        "streetTypeId": "ST",
        "placeName": "ESSEX",
        "streetNameDisplayText": "CENTRE ST W, ESSEX"
      },
      {
        "electoralDistricts": [
          {
            "election": null,
            "id": 27,
            "name": "Essex"
          }
        ],
        "pollDivisionIds": [
          10138036
        ],
        "postalCode": "N8M1P2",
        "streetName": "CENTRE",
        "streetDirectionId": null,
        "streetTypeId": "ST",
        "placeName": "ESSEX",
        "streetNameDisplayText": "CENTRE ST, ESSEX"
      }
    ]
  },
  {
    "postal": "N8M5X0",
    "result": []
  },
  {
    "postal": "N8M7B8",
    "result": []
  },
  {
    "postal": "N8M0C6",
    "result": []
  },
  {
    "postal": "N8M6G1",
    "result": []
  },
  {
    "postal": "N8M3K3",
    "result": []
  },
  {
    "postal": "N8M9R0",
    "result": []
  },
  {
    "postal": "N8M4R8",
    "result": []
  },
  {
    "postal": "N8M5P9",
    "result": []
  },
  {
    "postal": "N8M8N4",
    "result": []
  },
  {
    "postal": "N8M8H4",
    "result": []
  },
  {
    "postal": "N8M4V1",
    "result": []
  },
  {
    "postal": "N8M1K5",
    "result": [
      {
        "electoralDistricts": [
          {
            "election": null,
            "id": 27,
            "name": "Essex"
          }
        ],
        "pollDivisionIds": [
          10138036
        ],
        "postalCode": "N8M1K5",
        "streetName": "MILNE",
        "streetDirectionId": "N",
        "streetTypeId": "ST",
        "placeName": "ESSEX",
        "streetNameDisplayText": "MILNE ST N, ESSEX"
      }
    ]
  },
  {
    "postal": "N8M1Z5",
    "result": [
      {
        "electoralDistricts": [
          {
            "election": null,
            "id": 27,
            "name": "Essex"
          }
        ],
        "pollDivisionIds": [
          10138035
        ],
        "postalCode": "N8M1Z5",
        "streetName": "TRACY",
        "streetDirectionId": null,
        "streetTypeId": "CRES",
        "placeName": "ESSEX",
        "streetNameDisplayText": "TRACY CRES, ESSEX"
      }
    ]
  },
  {
    "postal": "N8M9L9",
    "result": []
  },
  {
    "postal": "N8M5L2",
    "result": []
  },
  {
    "postal": "N8M0M2",
    "result": []
  },
  {
    "postal": "N8M1K8",
    "result": [
      {
        "electoralDistricts": [
          {
            "election": null,
            "id": 27,
            "name": "Essex"
          }
        ],
        "pollDivisionIds": [
          10138036
        ],
        "postalCode": "N8M1K8",
        "streetName": "MILNE",
        "streetDirectionId": "S",
        "streetTypeId": "ST",
        "placeName": "ESSEX",
        "streetNameDisplayText": "MILNE ST S, ESSEX"
      }
    ]
  },
  {
    "postal": "N8M3M7",
    "result": []
  },
  {
    "postal": "N8M1B2",
    "result": [
      {
        "electoralDistricts": [
          {
            "election": null,
            "id": 27,
            "name": "Essex"
          }
        ],
        "pollDivisionIds": [
          10138037,
          10138036
        ],
        "postalCode": "N8M1B2",
        "streetName": "TALBOT",
        "streetDirectionId": "S",
        "streetTypeId": "ST",
        "placeName": "ESSEX",
        "streetNameDisplayText": "TALBOT ST S, ESSEX"
      }
    ]
  },
  {
    "postal": "N8M0H9",
    "result": []
  },
  {
    "postal": "N8M8M4",
    "result": []
  },
  {
    "postal": "N8M2M5",
    "result": [
      {
        "electoralDistricts": [
          {
            "election": null,
            "id": 27,
            "name": "Essex"
          }
        ],
        "pollDivisionIds": [
          10138037
        ],
        "postalCode": "N8M2M5",
        "streetName": "GORDON",
        "streetDirectionId": null,
        "streetTypeId": "AVE",
        "placeName": "ESSEX",
        "streetNameDisplayText": "GORDON AVE, ESSEX"
      }
    ]
  },
  {
    "postal": "N8M0T9",
    "result": []
  },
  {
    "postal": "N8M3P1",
    "result": []
  },
  {
    "postal": "N8M1R6",
    "result": [
      {
        "electoralDistricts": [
          {
            "election": null,
            "id": 27,
            "name": "Essex"
          }
        ],
        "pollDivisionIds": [
          10138036
        ],
        "postalCode": "N8M1R6",
        "streetName": "LAIRD",
        "streetDirectionId": null,
        "streetTypeId": "AVE",
        "placeName": "ESSEX",
        "streetNameDisplayText": "LAIRD AVE, ESSEX"
      }
    ]
  },
  {
    "postal": "N8M9V5",
    "result": []
  },
  {
    "postal": "N8M9T0",
    "result": []
  },
  {
    "postal": "N8M0A9",
    "result": []
  },
  {
    "postal": "N8M1M3",
    "result": [
      {
        "electoralDistricts": [
          {
            "election": null,
            "id": 27,
            "name": "Essex"
          }
        ],
        "pollDivisionIds": [
          10138036
        ],
        "postalCode": "N8M1M3",
        "streetName": "VICTORIA",
        "streetDirectionId": null,
        "streetTypeId": "AVE",
        "placeName": "ESSEX",
        "streetNameDisplayText": "VICTORIA AVE, ESSEX"
      }
    ]
  },
  {
    "postal": "N8M1W8",
    "result": [
      {
        "electoralDistricts": [
          {
            "election": null,
            "id": 27,
            "name": "Essex"
          }
        ],
        "pollDivisionIds": [
          10138037
        ],
        "postalCode": "N8M1W8",
        "streetName": "WELLINGTON",
        "streetDirectionId": "W",
        "streetTypeId": "AVE",
        "placeName": "ESSEX",
        "streetNameDisplayText": "WELLINGTON AVE W, ESSEX"
      }
    ]
  },
  {
    "postal": "N8M9J1",
    "result": []
  },
  {
    "postal": "N8M8N5",
    "result": []
  },
  {
    "postal": "N8M5X1",
    "result": []
  },
  {
    "postal": "N8M6S2",
    "result": []
  },
  {
    "postal": "N8M2A2",
    "result": [
      {
        "electoralDistricts": [
          {
            "election": null,
            "id": 27,
            "name": "Essex"
          }
        ],
        "pollDivisionIds": [
          10138035
        ],
        "postalCode": "N8M2A2",
        "streetName": "STEVEN",
        "streetDirectionId": null,
        "streetTypeId": "CRT",
        "placeName": "ESSEX",
        "streetNameDisplayText": "STEVEN CRT, ESSEX"
      }
    ]
  },
  {
    "postal": "N8M6A6",
    "result": []
  },
  {
    "postal": "N8M0S3",
    "result": []
  },
  {
    "postal": "N8M3E7",
    "result": [
      {
        "electoralDistricts": [
          {
            "election": null,
            "id": 27,
            "name": "Essex"
          }
        ],
        "pollDivisionIds": [
          10138036
        ],
        "postalCode": "N8M3E7",
        "streetName": "HANLAN",
        "streetDirectionId": "S",
        "streetTypeId": "ST",
        "placeName": "ESSEX",
        "streetNameDisplayText": "HANLAN ST S, ESSEX"
      }
    ]
  },
  {
    "postal": "N8M5R7",
    "result": []
  },
  {
    "postal": "N8M3R6",
    "result": []
  },
  {
    "postal": "N8M6K4",
    "result": []
  },
  {
    "postal": "N8M2W5",
    "result": [
      {
        "electoralDistricts": [
          {
            "election": null,
            "id": 27,
            "name": "Essex"
          }
        ],
        "pollDivisionIds": [
          10138034,
          10138047
        ],
        "postalCode": "N8M2W5",
        "streetName": "TALBOT",
        "streetDirectionId": "N",
        "streetTypeId": "RD",
        "placeName": "ESSEX",
        "streetNameDisplayText": "TALBOT RD N, ESSEX"
      },
      {
        "electoralDistricts": [
          {
            "election": null,
            "id": 27,
            "name": "Essex"
          }
        ],
        "pollDivisionIds": [
          10138034
        ],
        "postalCode": "N8M2W5",
        "streetName": "TALBOT",
        "streetDirectionId": "N",
        "streetTypeId": "ST",
        "placeName": "ESSEX",
        "streetNameDisplayText": "TALBOT ST N, ESSEX"
      }
    ]
  },
  {
    "postal": "N8M8W4",
    "result": []
  },
  {
    "postal": "N8M9C2",
    "result": []
  },
  {
    "postal": "N8M2C0",
    "result": []
  },
  {
    "postal": "N8M0E1",
    "result": []
  },
  {
    "postal": "N8M1K9",
    "result": [
      {
        "electoralDistricts": [
          {
            "election": null,
            "id": 27,
            "name": "Essex"
          }
        ],
        "pollDivisionIds": [
          10138037
        ],
        "postalCode": "N8M1K9",
        "streetName": "MILNE",
        "streetDirectionId": "S",
        "streetTypeId": "ST",
        "placeName": "ESSEX",
        "streetNameDisplayText": "MILNE ST S, ESSEX"
      }
    ]
  },
  {
    "postal": "N8M1G7",
    "result": [
      {
        "electoralDistricts": [
          {
            "election": null,
            "id": 27,
            "name": "Essex"
          }
        ],
        "pollDivisionIds": [
          10138037
        ],
        "postalCode": "N8M1G7",
        "streetName": "JENNER",
        "streetDirectionId": null,
        "streetTypeId": "ST",
        "placeName": "ESSEX",
        "streetNameDisplayText": "JENNER ST, ESSEX"
      }
    ]
  },
  {
    "postal": "N8M4E9",
    "result": []
  },
  {
    "postal": "N8M9P0",
    "result": []
  },
  {
    "postal": "N8M5H3",
    "result": []
  },
  {
    "postal": "N8M9X6",
    "result": []
  },
  {
    "postal": "N8M5N7",
    "result": []
  },
  {
    "postal": "N8M5A6",
    "result": []
  },
  {
    "postal": "N8M4M0",
    "result": []
  },
  {
    "postal": "N8M3V6",
    "result": []
  },
  {
    "postal": "N8M1L7",
    "result": [
      {
        "electoralDistricts": [
          {
            "election": null,
            "id": 27,
            "name": "Essex"
          }
        ],
        "pollDivisionIds": [
          10138037
        ],
        "postalCode": "N8M1L7",
        "streetName": "EDWARD",
        "streetDirectionId": null,
        "streetTypeId": "ST",
        "placeName": "ESSEX",
        "streetNameDisplayText": "EDWARD ST, ESSEX"
      }
    ]
  },
  {
    "postal": "N8M2P9",
    "result": [
      {
        "electoralDistricts": [
          {
            "election": null,
            "id": 27,
            "name": "Essex"
          }
        ],
        "pollDivisionIds": [
          10138037
        ],
        "postalCode": "N8M2P9",
        "streetName": "WELLINGTON",
        "streetDirectionId": "E",
        "streetTypeId": "AVE",
        "placeName": "ESSEX",
        "streetNameDisplayText": "WELLINGTON AVE E, ESSEX"
      }
    ]
  },
  {
    "postal": "N8M5T4",
    "result": []
  },
  {
    "postal": "N8M5Z1",
    "result": []
  },
  {
    "postal": "N8M2X0",
    "result": []
  },
  {
    "postal": "N8M6Z2",
    "result": []
  },
  {
    "postal": "N8M0E0",
    "result": []
  },
  {
    "postal": "N8M3Z5",
    "result": []
  },
  {
    "postal": "N8M8H3",
    "result": []
  },
  {
    "postal": "N8M7S6",
    "result": []
  },
  {
    "postal": "N8M4C1",
    "result": []
  },
  {
    "postal": "N8M3K2",
    "result": []
  },
  {
    "postal": "N8M1Y5",
    "result": []
  },
  {
    "postal": "N8M6P6",
    "result": []
  },
  {
    "postal": "N8M3N9",
    "result": []
  },
  {
    "postal": "N8M3W2",
    "result": []
  },
  {
    "postal": "N8M6H8",
    "result": []
  },
  {
    "postal": "N8M9T3",
    "result": []
  },
  {
    "postal": "N8M5L9",
    "result": []
  },
  {
    "postal": "N8M7X7",
    "result": []
  },
  {
    "postal": "N8M3J5",
    "result": []
  },
  {
    "postal": "N8M4J5",
    "result": []
  },
  {
    "postal": "N8M6J2",
    "result": []
  },
  {
    "postal": "N8M5V6",
    "result": []
  },
  {
    "postal": "N8M3N2",
    "result": []
  },
  {
    "postal": "N8M3B1",
    "result": [
      {
        "electoralDistricts": [
          {
            "election": null,
            "id": 27,
            "name": "Essex"
          }
        ],
        "pollDivisionIds": [
          10138036
        ],
        "postalCode": "N8M3B1",
        "streetName": "BELL",
        "streetDirectionId": null,
        "streetTypeId": "AVE",
        "placeName": "ESSEX",
        "streetNameDisplayText": "BELL AVE, ESSEX"
      }
    ]
  },
  {
    "postal": "N8M8B5",
    "result": []
  },
  {
    "postal": "N8M0K1",
    "result": []
  },
  {
    "postal": "N8M7M7",
    "result": []
  },
  {
    "postal": "N8M2M2",
    "result": [
      {
        "electoralDistricts": [
          {
            "election": null,
            "id": 27,
            "name": "Essex"
          }
        ],
        "pollDivisionIds": [
          10138037
        ],
        "postalCode": "N8M2M2",
        "streetName": "WILSON",
        "streetDirectionId": null,
        "streetTypeId": "AVE",
        "placeName": "ESSEX",
        "streetNameDisplayText": "WILSON AVE, ESSEX"
      }
    ]
  },
  {
    "postal": "N8M9N3",
    "result": []
  },
  {
    "postal": "N8M4Y8",
    "result": []
  },
  {
    "postal": "N8M3V7",
    "result": []
  },
  {
    "postal": "N8M8Z1",
    "result": []
  },
  {
    "postal": "N8M7B3",
    "result": []
  },
  {
    "postal": "N8M3A8",
    "result": [
      {
        "electoralDistricts": [
          {
            "election": null,
            "id": 27,
            "name": "Essex"
          }
        ],
        "pollDivisionIds": [
          10138035
        ],
        "postalCode": "N8M3A8",
        "streetName": "BEAU",
        "streetDirectionId": null,
        "streetTypeId": "CRT",
        "placeName": "ESSEX",
        "streetNameDisplayText": "BEAU CRT, ESSEX"
      }
    ]
  },
  {
    "postal": "N8M7V5",
    "result": []
  },
  {
    "postal": "N8M2T2",
    "result": []
  },
  {
    "postal": "N8M6L3",
    "result": []
  },
  {
    "postal": "N8M0L2",
    "result": []
  },
  {
    "postal": "N8M5Y8",
    "result": []
  },
  {
    "postal": "N8M0B8",
    "result": [
      {
        "electoralDistricts": [
          {
            "election": null,
            "id": 27,
            "name": "Essex"
          }
        ],
        "pollDivisionIds": [
          10138013,
          10138037
        ],
        "postalCode": "N8M0B8",
        "streetName": "KIMBALL",
        "streetDirectionId": null,
        "streetTypeId": "DR",
        "placeName": "ESSEX",
        "streetNameDisplayText": "KIMBALL DR, ESSEX"
      }
    ]
  },
  {
    "postal": "N8M6R5",
    "result": []
  },
  {
    "postal": "N8M8W6",
    "result": []
  },
  {
    "postal": "N8M8G6",
    "result": []
  },
  {
    "postal": "N8M6X3",
    "result": []
  },
  {
    "postal": "N8M7R7",
    "result": []
  },
  {
    "postal": "N8M4B6",
    "result": []
  },
  {
    "postal": "N8M3P9",
    "result": []
  },
  {
    "postal": "N8M2T3",
    "result": [
      {
        "electoralDistricts": [
          {
            "election": null,
            "id": 27,
            "name": "Essex"
          }
        ],
        "pollDivisionIds": [
          10138037
        ],
        "postalCode": "N8M2T3",
        "streetName": "IRWIN",
        "streetDirectionId": null,
        "streetTypeId": "AVE",
        "placeName": "ESSEX",
        "streetNameDisplayText": "IRWIN AVE, ESSEX"
      }
    ]
  },
  {
    "postal": "N8M1M4",
    "result": [
      {
        "electoralDistricts": [
          {
            "election": null,
            "id": 27,
            "name": "Essex"
          }
        ],
        "pollDivisionIds": [
          10138036
        ],
        "postalCode": "N8M1M4",
        "streetName": "VICTORIA",
        "streetDirectionId": null,
        "streetTypeId": "AVE",
        "placeName": "ESSEX",
        "streetNameDisplayText": "VICTORIA AVE, ESSEX"
      }
    ]
  },
  {
    "postal": "N8M0H1",
    "result": []
  },
  {
    "postal": "N8M9W3",
    "result": []
  },
  {
    "postal": "N8M6P1",
    "result": []
  },
  {
    "postal": "N8M7G2",
    "result": []
  },
  {
    "postal": "N8M4J9",
    "result": []
  },
  {
    "postal": "N8M9E4",
    "result": []
  },
  {
    "postal": "N8M8H0",
    "result": []
  },
  {
    "postal": "N8M4M7",
    "result": []
  },
  {
    "postal": "N8M2G9",
    "result": [
      {
        "electoralDistricts": [
          {
            "election": null,
            "id": 27,
            "name": "Essex"
          }
        ],
        "pollDivisionIds": [
          10138036
        ],
        "postalCode": "N8M2G9",
        "streetName": "MAIDSTONE",
        "streetDirectionId": "W",
        "streetTypeId": "AVE",
        "placeName": "ESSEX",
        "streetNameDisplayText": "MAIDSTONE AVE W, ESSEX"
      }
    ]
  },
  {
    "postal": "N8M8T2",
    "result": []
  },
  {
    "postal": "N8M7G7",
    "result": []
  },
  {
    "postal": "N8M4Z3",
    "result": []
  },
  {
    "postal": "N8M5B3",
    "result": []
  },
  {
    "postal": "N8M1S7",
    "result": [
      {
        "electoralDistricts": [
          {
            "election": null,
            "id": 27,
            "name": "Essex"
          }
        ],
        "pollDivisionIds": [
          10138037
        ],
        "postalCode": "N8M1S7",
        "streetName": "LAIRD",
        "streetDirectionId": null,
        "streetTypeId": "AVE",
        "placeName": "ESSEX",
        "streetNameDisplayText": "LAIRD AVE, ESSEX"
      }
    ]
  },
  {
    "postal": "N8M2N7",
    "result": [
      {
        "electoralDistricts": [
          {
            "election": null,
            "id": 27,
            "name": "Essex"
          }
        ],
        "pollDivisionIds": [
          10138037
        ],
        "postalCode": "N8M2N7",
        "streetName": "ARTHUR",
        "streetDirectionId": null,
        "streetTypeId": "AVE",
        "placeName": "ESSEX",
        "streetNameDisplayText": "ARTHUR AVE, ESSEX"
      },
      {
        "electoralDistricts": [
          {
            "election": null,
            "id": 27,
            "name": "Essex"
          }
        ],
        "pollDivisionIds": [
          10138030
        ],
        "postalCode": "N8M2N7",
        "streetName": "ARTHUR",
        "streetDirectionId": "S",
        "streetTypeId": "ST",
        "placeName": "ESSEX",
        "streetNameDisplayText": "ARTHUR ST S, ESSEX"
      }
    ]
  },
  {
    "postal": "N8M0H8",
    "result": []
  },
  {
    "postal": "N8M7Z4",
    "result": []
  },
  {
    "postal": "N8M7B1",
    "result": []
  },
  {
    "postal": "N8M7P8",
    "result": []
  },
  {
    "postal": "N8M7N0",
    "result": []
  },
  {
    "postal": "N8M3Y5",
    "result": []
  },
  {
    "postal": "N8M6K1",
    "result": []
  },
  {
    "postal": "N8M9X5",
    "result": []
  },
  {
    "postal": "N8M7S5",
    "result": []
  },
  {
    "postal": "N8M0A4",
    "result": [
      {
        "electoralDistricts": [
          {
            "election": null,
            "id": 27,
            "name": "Essex"
          }
        ],
        "pollDivisionIds": [
          10138036
        ],
        "postalCode": "N8M0A4",
        "streetName": "MORRIS",
        "streetDirectionId": null,
        "streetTypeId": "DR",
        "placeName": "ESSEX",
        "streetNameDisplayText": "MORRIS DR, ESSEX"
      },
      {
        "electoralDistricts": [
          {
            "election": null,
            "id": 27,
            "name": "Essex"
          }
        ],
        "pollDivisionIds": [
          10138036
        ],
        "postalCode": "N8M0A4",
        "streetName": "TOWNSVIEW",
        "streetDirectionId": null,
        "streetTypeId": "ST",
        "placeName": "ESSEX",
        "streetNameDisplayText": "TOWNSVIEW ST, ESSEX"
      }
    ]
  },
  {
    "postal": "N8M4T5",
    "result": []
  },
  {
    "postal": "N8M5K1",
    "result": []
  },
  {
    "postal": "N8M0Z9",
    "result": []
  },
  {
    "postal": "N8M7T2",
    "result": []
  },
  {
    "postal": "N8M1L5",
    "result": [
      {
        "electoralDistricts": [
          {
            "election": null,
            "id": 27,
            "name": "Essex"
          }
        ],
        "pollDivisionIds": [
          10138037
        ],
        "postalCode": "N8M1L5",
        "streetName": "MICHAEL",
        "streetDirectionId": null,
        "streetTypeId": "DR",
        "placeName": "ESSEX",
        "streetNameDisplayText": "MICHAEL DR, ESSEX"
      }
    ]
  },
  {
    "postal": "N8M3N5",
    "result": []
  },
  {
    "postal": "N8M6H4",
    "result": []
  },
  {
    "postal": "N8M5A5",
    "result": []
  },
  {
    "postal": "N8M3R9",
    "result": []
  },
  {
    "postal": "N8M7L8",
    "result": []
  },
  {
    "postal": "N8M6T6",
    "result": []
  },
  {
    "postal": "N8M7Y7",
    "result": []
  },
  {
    "postal": "N8M3M8",
    "result": []
  },
  {
    "postal": "N8M2E0",
    "result": []
  },
  {
    "postal": "N8M4B5",
    "result": []
  },
  {
    "postal": "N8M1J3",
    "result": [
      {
        "electoralDistricts": [
          {
            "election": null,
            "id": 27,
            "name": "Essex"
          }
        ],
        "pollDivisionIds": [
          10138036
        ],
        "postalCode": "N8M1J3",
        "streetName": "KEOWN",
        "streetDirectionId": null,
        "streetTypeId": "ST",
        "placeName": "ESSEX",
        "streetNameDisplayText": "KEOWN ST, ESSEX"
      }
    ]
  },
  {
    "postal": "N8M5S6",
    "result": []
  },
  {
    "postal": "N8M8P7",
    "result": []
  },
  {
    "postal": "N8M7S7",
    "result": []
  },
  {
    "postal": "N8M4C2",
    "result": []
  },
  {
    "postal": "N8M5Y0",
    "result": []
  },
  {
    "postal": "N8M2V7",
    "result": [
      {
        "electoralDistricts": [
          {
            "election": null,
            "id": 27,
            "name": "Essex"
          }
        ],
        "pollDivisionIds": [
          10138037
        ],
        "postalCode": "N8M2V7",
        "streetName": "PINE",
        "streetDirectionId": null,
        "streetTypeId": "ST",
        "placeName": "ESSEX",
        "streetNameDisplayText": "PINE ST, ESSEX"
      }
    ]
  },
  {
    "postal": "N8M8P5",
    "result": []
  },
  {
    "postal": "N8M5P5",
    "result": []
  },
  {
    "postal": "N8M5Z0",
    "result": []
  },
  {
    "postal": "N8M9B0",
    "result": []
  },
  {
    "postal": "N8M1L0",
    "result": []
  },
  {
    "postal": "N8M0B5",
    "result": []
  },
  {
    "postal": "N8M3L2",
    "result": []
  },
  {
    "postal": "N8M3B7",
    "result": [
      {
        "electoralDistricts": [
          {
            "election": null,
            "id": 27,
            "name": "Essex"
          }
        ],
        "pollDivisionIds": [
          10138036
        ],
        "postalCode": "N8M3B7",
        "streetName": "MAIDSTONE",
        "streetDirectionId": "E",
        "streetTypeId": "AVE",
        "placeName": "ESSEX",
        "streetNameDisplayText": "MAIDSTONE AVE E, ESSEX"
      }
    ]
  },
  {
    "postal": "N8M8L1",
    "result": []
  },
  {
    "postal": "N8M5M4",
    "result": []
  },
  {
    "postal": "N8M4G9",
    "result": []
  },
  {
    "postal": "N8M0P0",
    "result": []
  },
  {
    "postal": "N8M8G2",
    "result": []
  },
  {
    "postal": "N8M1V9",
    "result": [
      {
        "electoralDistricts": [
          {
            "election": null,
            "id": 27,
            "name": "Essex"
          }
        ],
        "pollDivisionIds": [
          10138037
        ],
        "postalCode": "N8M1V9",
        "streetName": "BRIEN",
        "streetDirectionId": "W",
        "streetTypeId": "AVE",
        "placeName": "ESSEX",
        "streetNameDisplayText": "BRIEN AVE W, ESSEX"
      }
    ]
  },
  {
    "postal": "N8M8N8",
    "result": []
  },
  {
    "postal": "N8M6S8",
    "result": []
  },
  {
    "postal": "N8M8H2",
    "result": []
  },
  {
    "postal": "N8M5R8",
    "result": []
  },
  {
    "postal": "N8M5L4",
    "result": []
  },
  {
    "postal": "N8M9E1",
    "result": []
  },
  {
    "postal": "N8M1C4",
    "result": [
      {
        "electoralDistricts": [
          {
            "election": null,
            "id": 27,
            "name": "Essex"
          }
        ],
        "pollDivisionIds": [
          10138037
        ],
        "postalCode": "N8M1C4",
        "streetName": "ST PAUL",
        "streetDirectionId": null,
        "streetTypeId": "ST",
        "placeName": "ESSEX",
        "streetNameDisplayText": "ST PAUL ST, ESSEX"
      },
      {
        "electoralDistricts": [
          {
            "election": null,
            "id": 27,
            "name": "Essex"
          }
        ],
        "pollDivisionIds": [
          10138037
        ],
        "postalCode": "N8M1C4",
        "streetName": "ST. PAUL",
        "streetDirectionId": null,
        "streetTypeId": "ST",
        "placeName": "ESSEX",
        "streetNameDisplayText": "ST. PAUL ST, ESSEX"
      }
    ]
  },
  {
    "postal": "N8M8W5",
    "result": []
  },
  {
    "postal": "N8M1Y4",
    "result": []
  },
  {
    "postal": "N8M1C0",
    "result": []
  },
  {
    "postal": "N8M2J2",
    "result": [
      {
        "electoralDistricts": [
          {
            "election": null,
            "id": 27,
            "name": "Essex"
          }
        ],
        "pollDivisionIds": [
          10138036
        ],
        "postalCode": "N8M2J2",
        "streetName": "MEDORA",
        "streetDirectionId": "W",
        "streetTypeId": "AVE",
        "placeName": "ESSEX",
        "streetNameDisplayText": "MEDORA AVE W, ESSEX"
      }
    ]
  },
  {
    "postal": "N8M2J0",
    "result": []
  },
  {
    "postal": "N8M7A3",
    "result": []
  },
  {
    "postal": "N8M8M1",
    "result": []
  },
  {
    "postal": "N8M7T9",
    "result": []
  },
  {
    "postal": "N8M6C0",
    "result": []
  },
  {
    "postal": "N8M7X1",
    "result": []
  },
  {
    "postal": "N8M0G1",
    "result": []
  },
  {
    "postal": "N8M4X2",
    "result": []
  },
  {
    "postal": "N8M0N6",
    "result": []
  },
  {
    "postal": "N8M8E3",
    "result": []
  },
  {
    "postal": "N8M5S8",
    "result": []
  },
  {
    "postal": "N8M0R0",
    "result": []
  },
  {
    "postal": "N8M6J6",
    "result": []
  },
  {
    "postal": "N8M4B4",
    "result": []
  },
  {
    "postal": "N8M7E3",
    "result": []
  },
  {
    "postal": "N8M3N6",
    "result": []
  },
  {
    "postal": "N8M3X6",
    "result": []
  },
  {
    "postal": "N8M8L0",
    "result": []
  },
  {
    "postal": "N8M8N1",
    "result": []
  },
  {
    "postal": "N8M4J0",
    "result": []
  },
  {
    "postal": "N8M0X7",
    "result": []
  },
  {
    "postal": "N8M6S4",
    "result": []
  },
  {
    "postal": "N8M0Z0",
    "result": []
  },
  {
    "postal": "N8M9X8",
    "result": []
  },
  {
    "postal": "N8M3H3",
    "result": []
  },
  {
    "postal": "N8M7S2",
    "result": []
  },
  {
    "postal": "N8M3T3",
    "result": []
  },
  {
    "postal": "N8M9P3",
    "result": []
  },
  {
    "postal": "N8M4H8",
    "result": []
  },
  {
    "postal": "N8M6R1",
    "result": []
  },
  {
    "postal": "N8M1S0",
    "result": []
  },
  {
    "postal": "N8M3W8",
    "result": []
  },
  {
    "postal": "N8M4S3",
    "result": []
  },
  {
    "postal": "N8M1B6",
    "result": [
      {
        "electoralDistricts": [
          {
            "election": null,
            "id": 27,
            "name": "Essex"
          }
        ],
        "pollDivisionIds": [
          10138037
        ],
        "postalCode": "N8M1B6",
        "streetName": "TALBOT",
        "streetDirectionId": "S",
        "streetTypeId": "ST",
        "placeName": "ESSEX",
        "streetNameDisplayText": "TALBOT ST S, ESSEX"
      }
    ]
  },
  {
    "postal": "N8M8R3",
    "result": []
  },
  {
    "postal": "N8M4V9",
    "result": []
  },
  {
    "postal": "N8M9W4",
    "result": []
  },
  {
    "postal": "N8M3T4",
    "result": []
  },
  {
    "postal": "N8M5C7",
    "result": []
  },
  {
    "postal": "N8M3Y1",
    "result": []
  },
  {
    "postal": "N8M5V0",
    "result": []
  },
  {
    "postal": "N8M8G8",
    "result": []
  },
  {
    "postal": "N8M8B1",
    "result": []
  },
  {
    "postal": "N8M4P5",
    "result": []
  },
  {
    "postal": "N8M7B2",
    "result": []
  },
  {
    "postal": "N8M0R2",
    "result": []
  },
  {
    "postal": "N8M4M4",
    "result": []
  },
  {
    "postal": "N8M7M4",
    "result": []
  },
  {
    "postal": "N8M9S7",
    "result": []
  },
  {
    "postal": "N8M5Z7",
    "result": []
  },
  {
    "postal": "N8M7J7",
    "result": []
  },
  {
    "postal": "N8M8R8",
    "result": []
  },
  {
    "postal": "N8M9X1",
    "result": []
  },
  {
    "postal": "N8M5M9",
    "result": []
  },
  {
    "postal": "N8M9B4",
    "result": []
  },
  {
    "postal": "N8M0L9",
    "result": []
  },
  {
    "postal": "N8M9G4",
    "result": []
  },
  {
    "postal": "N8M1J4",
    "result": [
      {
        "electoralDistricts": [
          {
            "election": null,
            "id": 27,
            "name": "Essex"
          }
        ],
        "pollDivisionIds": [
          10138036
        ],
        "postalCode": "N8M1J4",
        "streetName": "VICTOR",
        "streetDirectionId": null,
        "streetTypeId": "ST",
        "placeName": "ESSEX",
        "streetNameDisplayText": "VICTOR ST, ESSEX"
      }
    ]
  },
  {
    "postal": "N8M0W6",
    "result": []
  },
  {
    "postal": "N8M4C5",
    "result": []
  },
  {
    "postal": "N8M7E4",
    "result": []
  },
  {
    "postal": "N8M1R9",
    "result": [
      {
        "electoralDistricts": [
          {
            "election": null,
            "id": 27,
            "setId": 0,
            "name": "Essex"
          }
        ],
        "pollDivisionIds": [
          10138036
        ],
        "postalCode": "N8M1R9",
        "streetName": "LAIRD",
        "streetDirectionId": null,
        "streetTypeId": "AVE",
        "placeName": "ESSEX",
        "streetNameDisplayText": "LAIRD AVE, ESSEX"
      }
    ]
  },
  {
    "postal": "N8M2P0",
    "result": []
  },
  {
    "postal": "N8M5S4",
    "result": []
  },
  {
    "postal": "N8M5K8",
    "result": []
  },
  {
    "postal": "N8M8K4",
    "result": []
  },
  {
    "postal": "N8M7C1",
    "result": []
  },
  {
    "postal": "N8M7K9",
    "result": []
  },
  {
    "postal": "N8M5J1",
    "result": []
  },
  {
    "postal": "N8M4P9",
    "result": []
  },
  {
    "postal": "N8M0N2",
    "result": []
  },
  {
    "postal": "N8M2G6",
    "result": [
      {
        "electoralDistricts": [
          {
            "election": null,
            "id": 27,
            "setId": 0,
            "name": "Essex"
          }
        ],
        "pollDivisionIds": [
          10138036
        ],
        "postalCode": "N8M2G6",
        "streetName": "FOREST",
        "streetDirectionId": null,
        "streetTypeId": "AVE",
        "placeName": "ESSEX",
        "streetNameDisplayText": "FOREST AVE, ESSEX"
      }
    ]
  },
  {
    "postal": "N8M6P4",
    "result": []
  },
  {
    "postal": "N8M3J0",
    "result": []
  },
  {
    "postal": "N8M8X4",
    "result": []
  },
  {
    "postal": "N8M1Y3",
    "result": [
      {
        "electoralDistricts": [
          {
            "election": null,
            "id": 27,
            "setId": 0,
            "name": "Essex"
          }
        ],
        "pollDivisionIds": [
          10138037
        ],
        "postalCode": "N8M1Y3",
        "streetName": "FAIRVIEW",
        "streetDirectionId": "W",
        "streetTypeId": "AVE",
        "placeName": "ESSEX",
        "streetNameDisplayText": "FAIRVIEW AVE W, ESSEX"
      }
    ]
  },
  {
    "postal": "N8M1A8",
    "result": [
      {
        "electoralDistricts": [
          {
            "election": null,
            "id": 27,
            "setId": 0,
            "name": "Essex"
          }
        ],
        "pollDivisionIds": [
          10138047
        ],
        "postalCode": "N8M1A8",
        "streetName": "SOUTH TALBOT",
        "streetDirectionId": "S",
        "streetTypeId": "RD",
        "placeName": "ESSEX",
        "streetNameDisplayText": "SOUTH TALBOT RD S, ESSEX"
      },
      {
        "electoralDistricts": [
          {
            "election": null,
            "id": 27,
            "setId": 0,
            "name": "Essex"
          }
        ],
        "pollDivisionIds": [
          10138037
        ],
        "postalCode": "N8M1A8",
        "streetName": "TALBOT",
        "streetDirectionId": "S",
        "streetTypeId": "ST",
        "placeName": "ESSEX",
        "streetNameDisplayText": "TALBOT ST S, ESSEX"
      }
    ]
  },
  {
    "postal": "N8M6Y5",
    "result": []
  },
  {
    "postal": "N8M0J6",
    "result": []
  },
  {
    "postal": "N8M2C9",
    "result": [
      {
        "electoralDistricts": [
          {
            "election": null,
            "id": 27,
            "setId": 0,
            "name": "Essex"
          }
        ],
        "pollDivisionIds": [
          10138036
        ],
        "postalCode": "N8M2C9",
        "streetName": "TALBOT",
        "streetDirectionId": "N",
        "streetTypeId": "ST",
        "placeName": "ESSEX",
        "streetNameDisplayText": "TALBOT ST N, ESSEX"
      }
    ]
  },
  {
    "postal": "N8M8J6",
    "result": []
  },
  {
    "postal": "N8M8T4",
    "result": []
  },
  {
    "postal": "N8M1P7",
    "result": [
      {
        "electoralDistricts": [
          {
            "election": null,
            "id": 27,
            "setId": 0,
            "name": "Essex"
          }
        ],
        "pollDivisionIds": [
          10138036
        ],
        "postalCode": "N8M1P7",
        "streetName": "TURNHOUT",
        "streetDirectionId": null,
        "streetTypeId": "CRES",
        "placeName": "ESSEX",
        "streetNameDisplayText": "TURNHOUT CRES, ESSEX"
      }
    ]
  },
  {
    "postal": "N8M9V9",
    "result": []
  },
  {
    "postal": "N8M0M1",
    "result": []
  },
  {
    "postal": "N8M6K5",
    "result": []
  },
  {
    "postal": "N8M2T5",
    "result": [
      {
        "electoralDistricts": [
          {
            "election": null,
            "id": 27,
            "setId": 0,
            "name": "Essex"
          }
        ],
        "pollDivisionIds": [
          10138037
        ],
        "postalCode": "N8M2T5",
        "streetName": "IRWIN",
        "streetDirectionId": null,
        "streetTypeId": "AVE",
        "placeName": "ESSEX",
        "streetNameDisplayText": "IRWIN AVE, ESSEX"
      }
    ]
  },
  {
    "postal": "N8M7E9",
    "result": []
  },
  {
    "postal": "N8M5K5",
    "result": []
  },
  {
    "postal": "N8M3R5",
    "result": []
  },
  {
    "postal": "N8M5B1",
    "result": []
  },
  {
    "postal": "N8M2P1",
    "result": [
      {
        "electoralDistricts": [
          {
            "election": null,
            "id": 27,
            "setId": 0,
            "name": "Essex"
          }
        ],
        "pollDivisionIds": [
          10138037
        ],
        "postalCode": "N8M2P1",
        "streetName": "BRIEN",
        "streetDirectionId": "E",
        "streetTypeId": "AVE",
        "placeName": "ESSEX",
        "streetNameDisplayText": "BRIEN AVE E, ESSEX"
      }
    ]
  },
  {
    "postal": "N8M7L0",
    "result": []
  },
  {
    "postal": "N8M3L6",
    "result": []
  },
  {
    "postal": "N8M2A4",
    "result": [
      {
        "electoralDistricts": [
          {
            "election": null,
            "id": 27,
            "setId": 0,
            "name": "Essex"
          }
        ],
        "pollDivisionIds": [
          10138035
        ],
        "postalCode": "N8M2A4",
        "streetName": "DANA",
        "streetDirectionId": null,
        "streetTypeId": "DR",
        "placeName": "ESSEX",
        "streetNameDisplayText": "DANA DR, ESSEX"
      }
    ]
  },
  {
    "postal": "N8M8S0",
    "result": []
  },
  {
    "postal": "N8M3L5",
    "result": []
  },
  {
    "postal": "N8M2R5",
    "result": [
      {
        "electoralDistricts": [
          {
            "election": null,
            "id": 27,
            "setId": 0,
            "name": "Essex"
          }
        ],
        "pollDivisionIds": [
          10138037
        ],
        "postalCode": "N8M2R5",
        "streetName": "GOSFIELD",
        "streetDirectionId": "E",
        "streetTypeId": "TLINE",
        "placeName": "ESSEX",
        "streetNameDisplayText": "GOSFIELD TLINE E, ESSEX"
      }
    ]
  },
  {
    "postal": "N8M9T6",
    "result": []
  },
  {
    "postal": "N8M8Z2",
    "result": []
  },
  {
    "postal": "N8M0E9",
    "result": []
  },
  {
    "postal": "N8M8C0",
    "result": []
  },
  {
    "postal": "N8M3K7",
    "result": []
  },
  {
    "postal": "N8M2H3",
    "result": [
      {
        "electoralDistricts": [
          {
            "election": null,
            "id": 27,
            "setId": 0,
            "name": "Essex"
          }
        ],
        "pollDivisionIds": [
          10138036
        ],
        "postalCode": "N8M2H3",
        "streetName": "BELL",
        "streetDirectionId": null,
        "streetTypeId": "AVE",
        "placeName": "ESSEX",
        "streetNameDisplayText": "BELL AVE, ESSEX"
      }
    ]
  },
  {
    "postal": "N8M2Y6",
    "result": [
      {
        "electoralDistricts": [
          {
            "election": null,
            "id": 27,
            "setId": 0,
            "name": "Essex"
          }
        ],
        "pollDivisionIds": [
          10138035
        ],
        "postalCode": "N8M2Y6",
        "streetName": "DANA",
        "streetDirectionId": null,
        "streetTypeId": "DR",
        "placeName": "ESSEX",
        "streetNameDisplayText": "DANA DR, ESSEX"
      }
    ]
  },
  {
    "postal": "N8M7M2",
    "result": []
  },
  {
    "postal": "N8M6E2",
    "result": []
  },
  {
    "postal": "N8M3R0",
    "result": []
  },
  {
    "postal": "N8M4J7",
    "result": []
  },
  {
    "postal": "N8M6N8",
    "result": []
  },
  {
    "postal": "N8M0J7",
    "result": []
  },
  {
    "postal": "N8M7P2",
    "result": []
  },
  {
    "postal": "N8M3T8",
    "result": []
  },
  {
    "postal": "N8M3S7",
    "result": []
  },
  {
    "postal": "N8M2S7",
    "result": [
      {
        "electoralDistricts": [
          {
            "election": null,
            "id": 27,
            "setId": 0,
            "name": "Essex"
          }
        ],
        "pollDivisionIds": [
          10138037
        ],
        "postalCode": "N8M2S7",
        "streetName": "IRWIN",
        "streetDirectionId": null,
        "streetTypeId": "AVE",
        "placeName": "ESSEX",
        "streetNameDisplayText": "IRWIN AVE, ESSEX"
      }
    ]
  },
  {
    "postal": "N8M1S4",
    "result": [
      {
        "electoralDistricts": [
          {
            "election": null,
            "id": 27,
            "setId": 0,
            "name": "Essex"
          }
        ],
        "pollDivisionIds": [
          10138036
        ],
        "postalCode": "N8M1S4",
        "streetName": "LAIRD",
        "streetDirectionId": null,
        "streetTypeId": "AVE",
        "placeName": "ESSEX",
        "streetNameDisplayText": "LAIRD AVE, ESSEX"
      }
    ]
  },
  {
    "postal": "N8M1L8",
    "result": [
      {
        "electoralDistricts": [
          {
            "election": null,
            "id": 27,
            "setId": 0,
            "name": "Essex"
          }
        ],
        "pollDivisionIds": [
          10138037
        ],
        "postalCode": "N8M1L8",
        "streetName": "EDWARD",
        "streetDirectionId": null,
        "streetTypeId": "ST",
        "placeName": "ESSEX",
        "streetNameDisplayText": "EDWARD ST, ESSEX"
      }
    ]
  },
  {
    "postal": "N8M8E9",
    "result": []
  },
  {
    "postal": "N8M0T0",
    "result": []
  },
  {
    "postal": "N8M3G4",
    "result": [
      {
        "electoralDistricts": [
          {
            "election": null,
            "id": 27,
            "setId": 0,
            "name": "Essex"
          }
        ],
        "pollDivisionIds": [
          10138037
        ],
        "postalCode": "N8M3G4",
        "streetName": "FAIRVIEW",
        "streetDirectionId": "W",
        "streetTypeId": "AVE",
        "placeName": "ESSEX",
        "streetNameDisplayText": "FAIRVIEW AVE W, ESSEX"
      }
    ]
  },
  {
    "postal": "N8M0V6",
    "result": []
  },
  {
    "postal": "N8M4W1",
    "result": []
  },
  {
    "postal": "N8M9G9",
    "result": []
  },
  {
    "postal": "N8M5W4",
    "result": []
  },
  {
    "postal": "N8M7M8",
    "result": []
  },
  {
    "postal": "N8M2C2",
    "result": [
      {
        "electoralDistricts": [
          {
            "election": null,
            "id": 27,
            "setId": 0,
            "name": "Essex"
          }
        ],
        "pollDivisionIds": [
          10138035
        ],
        "postalCode": "N8M2C2",
        "streetName": "VISCOUNT",
        "streetDirectionId": null,
        "streetTypeId": "PKY",
        "placeName": "ESSEX",
        "streetNameDisplayText": "VISCOUNT PKY, ESSEX"
      }
    ]
  },
  {
    "postal": "N8M4Y2",
    "result": []
  },
  {
    "postal": "N8M9X9",
    "result": []
  },
  {
    "postal": "N8M3T0",
    "result": []
  },
  {
    "postal": "N8M4T8",
    "result": []
  },
  {
    "postal": "N8M9C4",
    "result": []
  },
  {
    "postal": "N8M8P2",
    "result": []
  },
  {
    "postal": "N8M0Y8",
    "result": []
  },
  {
    "postal": "N8M1G8",
    "result": [
      {
        "electoralDistricts": [
          {
            "election": null,
            "id": 27,
            "setId": 0,
            "name": "Essex"
          }
        ],
        "pollDivisionIds": [
          10138037
        ],
        "postalCode": "N8M1G8",
        "streetName": "LANGTRY",
        "streetDirectionId": null,
        "streetTypeId": "ST",
        "placeName": "ESSEX",
        "streetNameDisplayText": "LANGTRY ST, ESSEX"
      }
    ]
  },
  {
    "postal": "N8M2T6",
    "result": [
      {
        "electoralDistricts": [
          {
            "election": null,
            "id": 27,
            "setId": 0,
            "name": "Essex"
          }
        ],
        "pollDivisionIds": [
          10138037
        ],
        "postalCode": "N8M2T6",
        "streetName": "IRWIN",
        "streetDirectionId": null,
        "streetTypeId": "AVE",
        "placeName": "ESSEX",
        "streetNameDisplayText": "IRWIN AVE, ESSEX"
      }
    ]
  },
  {
    "postal": "N8M1N7",
    "result": [
      {
        "electoralDistricts": [
          {
            "election": null,
            "id": 27,
            "setId": 0,
            "name": "Essex"
          }
        ],
        "pollDivisionIds": [
          10138037
        ],
        "postalCode": "N8M1N7",
        "streetName": "VICTORIA",
        "streetDirectionId": null,
        "streetTypeId": "AVE",
        "placeName": "ESSEX",
        "streetNameDisplayText": "VICTORIA AVE, ESSEX"
      }
    ]
  },
  {
    "postal": "N8M0L6",
    "result": []
  },
  {
    "postal": "N8M9V4",
    "result": []
  },
  {
    "postal": "N8M2V1",
    "result": [
      {
        "electoralDistricts": [
          {
            "election": null,
            "id": 27,
            "setId": 0,
            "name": "Essex"
          }
        ],
        "pollDivisionIds": [
          10138036
        ],
        "postalCode": "N8M2V1",
        "streetName": "SCRATCH",
        "streetDirectionId": null,
        "streetTypeId": "ST",
        "placeName": "ESSEX",
        "streetNameDisplayText": "SCRATCH ST, ESSEX"
      }
    ]
  },
  {
    "postal": "N8M3L8",
    "result": []
  },
  {
    "postal": "N8M2R8",
    "result": [
      {
        "electoralDistricts": [
          {
            "election": null,
            "id": 27,
            "setId": 0,
            "name": "Essex"
          }
        ],
        "pollDivisionIds": [
          10138037
        ],
        "postalCode": "N8M2R8",
        "streetName": "GOSFIELD",
        "streetDirectionId": "E",
        "streetTypeId": "TLINE",
        "placeName": "ESSEX",
        "streetNameDisplayText": "GOSFIELD TLINE E, ESSEX"
      }
    ]
  },
  {
    "postal": "N8M5C1",
    "result": []
  },
  {
    "postal": "N8M4W3",
    "result": []
  },
  {
    "postal": "N8M5X5",
    "result": []
  },
  {
    "postal": "N8M9W5",
    "result": []
  },
  {
    "postal": "N8M3C4",
    "result": [
      {
        "electoralDistricts": [
          {
            "election": null,
            "id": 27,
            "setId": 0,
            "name": "Essex"
          }
        ],
        "pollDivisionIds": [
          10138037
        ],
        "postalCode": "N8M3C4",
        "streetName": "OAK",
        "streetDirectionId": null,
        "streetTypeId": "DR",
        "placeName": "ESSEX",
        "streetNameDisplayText": "OAK DR, ESSEX"
      },
      {
        "electoralDistricts": [
          {
            "election": null,
            "id": 18,
            "setId": 0,
            "name": "Chatham-Kentâ€”Leamington"
          }
        ],
        "pollDivisionIds": [
          10137514
        ],
        "postalCode": "N8M3C4",
        "streetName": "OAK",
        "streetDirectionId": null,
        "streetTypeId": "LANE",
        "placeName": "ESSEX",
        "streetNameDisplayText": "OAK LANE, ESSEX"
      },
      {
        "electoralDistricts": [
          {
            "election": null,
            "id": 18,
            "setId": 0,
            "name": "Chatham-Kentâ€”Leamington"
          }
        ],
        "pollDivisionIds": [
          10137514
        ],
        "postalCode": "N8M3C4",
        "streetName": "OAK",
        "streetDirectionId": null,
        "streetTypeId": "LANE",
        "placeName": "LEAMINGTON",
        "streetNameDisplayText": "OAK LANE, LEAMINGTON"
      },
      {
        "electoralDistricts": [
          {
            "election": null,
            "id": 27,
            "setId": 0,
            "name": "Essex"
          }
        ],
        "pollDivisionIds": [
          10138037,
          10138044
        ],
        "postalCode": "N8M3C4",
        "streetName": "PARK",
        "streetDirectionId": null,
        "streetTypeId": "LANE",
        "placeName": "ESSEX",
        "streetNameDisplayText": "PARK LANE, ESSEX"
      },
      {
        "electoralDistricts": [
          {
            "election": null,
            "id": 27,
            "setId": 0,
            "name": "Essex"
          }
        ],
        "pollDivisionIds": [
          10138037
        ],
        "postalCode": "N8M3C4",
        "streetName": "WILLOW",
        "streetDirectionId": null,
        "streetTypeId": "CRES",
        "placeName": "ESSEX",
        "streetNameDisplayText": "WILLOW CRES, ESSEX"
      },
      {
        "electoralDistricts": [
          {
            "election": null,
            "id": 18,
            "setId": 0,
            "name": "Chatham-Kentâ€”Leamington"
          }
        ],
        "pollDivisionIds": [
          10137514
        ],
        "postalCode": "N8M3C4",
        "streetName": "WILLOW",
        "streetDirectionId": null,
        "streetTypeId": "LANE",
        "placeName": "LEAMINGTON",
        "streetNameDisplayText": "WILLOW LANE, LEAMINGTON"
      }
    ]
  },
  {
    "postal": "N8M1N6",
    "result": [
      {
        "electoralDistricts": [
          {
            "election": null,
            "id": 27,
            "setId": 0,
            "name": "Essex"
          }
        ],
        "pollDivisionIds": [
          10138037
        ],
        "postalCode": "N8M1N6",
        "streetName": "VICTORIA",
        "streetDirectionId": null,
        "streetTypeId": "AVE",
        "placeName": "ESSEX",
        "streetNameDisplayText": "VICTORIA AVE, ESSEX"
      },
      {
        "electoralDistricts": [
          {
            "election": null,
            "id": 27,
            "setId": 0,
            "name": "Essex"
          }
        ],
        "pollDivisionIds": [
          10138037
        ],
        "postalCode": "N8M1N6",
        "streetName": "VICTORIA",
        "streetDirectionId": null,
        "streetTypeId": "ST",
        "placeName": "ESSEX",
        "streetNameDisplayText": "VICTORIA ST, ESSEX"
      }
    ]
  },
  {
    "postal": "N8M9S9",
    "result": []
  },
  {
    "postal": "N8M9M2",
    "result": []
  },
  {
    "postal": "N8M8Y4",
    "result": []
  },
  {
    "postal": "N8M7S4",
    "result": []
  },
  {
    "postal": "N8M0K6",
    "result": []
  },
  {
    "postal": "N8M1W3",
    "result": [
      {
        "electoralDistricts": [
          {
            "election": null,
            "id": 27,
            "setId": 0,
            "name": "Essex"
          }
        ],
        "pollDivisionIds": [
          10138037
        ],
        "postalCode": "N8M1W3",
        "streetName": "BRIEN",
        "streetDirectionId": "W",
        "streetTypeId": "AVE",
        "placeName": "ESSEX",
        "streetNameDisplayText": "BRIEN AVE W, ESSEX"
      }
    ]
  },
  {
    "postal": "N8M7R2",
    "result": []
  },
  {
    "postal": "N8M2Y9",
    "result": [
      {
        "electoralDistricts": [
          {
            "election": null,
            "id": 27,
            "setId": 0,
            "name": "Essex"
          }
        ],
        "pollDivisionIds": [
          10138035
        ],
        "postalCode": "N8M2Y9",
        "streetName": "NORTH MALDEN",
        "streetDirectionId": null,
        "streetTypeId": "DR",
        "placeName": "ESSEX",
        "streetNameDisplayText": "NORTH MALDEN DR, ESSEX"
      }
    ]
  },
  {
    "postal": "N8M7G4",
    "result": []
  },
  {
    "postal": "N8M7E5",
    "result": []
  },
  {
    "postal": "N8M9G2",
    "result": []
  },
  {
    "postal": "N8M7Y8",
    "result": []
  },
  {
    "postal": "N8M9V2",
    "result": []
  },
  {
    "postal": "N8M3T7",
    "result": []
  },
  {
    "postal": "N8M1H0",
    "result": []
  },
  {
    "postal": "N8M1M7",
    "result": [
      {
        "electoralDistricts": [
          {
            "election": null,
            "id": 27,
            "setId": 0,
            "name": "Essex"
          }
        ],
        "pollDivisionIds": [
          10138036
        ],
        "postalCode": "N8M1M7",
        "streetName": "VICTORIA",
        "streetDirectionId": null,
        "streetTypeId": "AVE",
        "placeName": "ESSEX",
        "streetNameDisplayText": "VICTORIA AVE, ESSEX"
      },
      {
        "electoralDistricts": [
          {
            "election": null,
            "id": 27,
            "setId": 0,
            "name": "Essex"
          }
        ],
        "pollDivisionIds": [
          10138043
        ],
        "postalCode": "N8M1M7",
        "streetName": "VICTORIA",
        "streetDirectionId": null,
        "streetTypeId": "AVE",
        "placeName": "KINGSVILLE",
        "streetNameDisplayText": "VICTORIA AVE, KINGSVILLE"
      }
    ]
  },
  {
    "postal": "N8M8V4",
    "result": []
  },
  {
    "postal": "N8M4M2",
    "result": []
  },
  {
    "postal": "N8M0X2",
    "result": []
  },
  {
    "postal": "N8M5Z4",
    "result": []
  },
  {
    "postal": "N8M6V4",
    "result": []
  },
  {
    "postal": "N8M8J3",
    "result": []
  },
  {
    "postal": "N8M8E5",
    "result": []
  },
  {
    "postal": "N8M2V5",
    "result": [
      {
        "electoralDistricts": [
          {
            "election": null,
            "id": 27,
            "setId": 0,
            "name": "Essex"
          }
        ],
        "pollDivisionIds": [
          10138037
        ],
        "postalCode": "N8M2V5",
        "streetName": "FRANCES",
        "streetDirectionId": null,
        "streetTypeId": "CRT",
        "placeName": "ESSEX",
        "streetNameDisplayText": "FRANCES CRT, ESSEX"
      }
    ]
  },
  {
    "postal": "N8M7S1",
    "result": []
  },
  {
    "postal": "N8M6V3",
    "result": []
  },
  {
    "postal": "N8M2L8",
    "result": [
      {
        "electoralDistricts": [
          {
            "election": null,
            "id": 27,
            "setId": 0,
            "name": "Essex"
          }
        ],
        "pollDivisionIds": [
          10138037
        ],
        "postalCode": "N8M2L8",
        "streetName": "WILSON",
        "streetDirectionId": null,
        "streetTypeId": "AVE",
        "placeName": "ESSEX",
        "streetNameDisplayText": "WILSON AVE, ESSEX"
      }
    ]
  },
  {
    "postal": "N8M9V0",
    "result": []
  },
  {
    "postal": "N8M3M4",
    "result": []
  },
  {
    "postal": "N8M5B2",
    "result": []
  },
  {
    "postal": "N8M3X5",
    "result": []
  },
  {
    "postal": "N8M9R7",
    "result": []
  },
  {
    "postal": "N8M2X2",
    "result": [
      {
        "electoralDistricts": [
          {
            "election": null,
            "id": 27,
            "setId": 0,
            "name": "Essex"
          }
        ],
        "pollDivisionIds": [
          10138034
        ],
        "postalCode": "N8M2X2",
        "streetName": "LAPOINTE",
        "streetDirectionId": null,
        "streetTypeId": "ST",
        "placeName": "ESSEX",
        "streetNameDisplayText": "LAPOINTE ST, ESSEX"
      }
    ]
  },
  {
    "postal": "N8M8Z6",
    "result": []
  },
  {
    "postal": "N8M4R4",
    "result": []
  },
  {
    "postal": "N8M2R1",
    "result": [
      {
        "electoralDistricts": [
          {
            "election": null,
            "id": 27,
            "setId": 0,
            "name": "Essex"
          }
        ],
        "pollDivisionIds": [
          10138037
        ],
        "postalCode": "N8M2R1",
        "streetName": "FAIRVIEW",
        "streetDirectionId": "E",
        "streetTypeId": "AVE",
        "placeName": "ESSEX",
        "streetNameDisplayText": "FAIRVIEW AVE E, ESSEX"
      }
    ]
  },
  {
    "postal": "N8M3R8",
    "result": []
  },
  {
    "postal": "N8M9A1",
    "result": []
  },
  {
    "postal": "N8M8L3",
    "result": []
  },
  {
    "postal": "N8M9K4",
    "result": []
  },
  {
    "postal": "N8M9S3",
    "result": []
  },
  {
    "postal": "N8M8N7",
    "result": []
  },
  {
    "postal": "N8M1C6",
    "result": [
      {
        "electoralDistricts": [
          {
            "election": null,
            "id": 27,
            "setId": 0,
            "name": "Essex"
          }
        ],
        "pollDivisionIds": [
          10138036
        ],
        "postalCode": "N8M1C6",
        "streetName": "ALICE",
        "streetDirectionId": "N",
        "streetTypeId": "ST",
        "placeName": "ESSEX",
        "streetNameDisplayText": "ALICE ST N, ESSEX"
      }
    ]
  },
  {
    "postal": "N8M3Z8",
    "result": []
  },
  {
    "postal": "N8M8G5",
    "result": []
  },
  {
    "postal": "N8M5R6",
    "result": []
  },
  {
    "postal": "N8M2W3",
    "result": [
      {
        "electoralDistricts": [
          {
            "election": null,
            "id": 27,
            "setId": 0,
            "name": "Essex"
          }
        ],
        "pollDivisionIds": [
          10138036,
          10138047,
          10138034
        ],
        "postalCode": "N8M2W3",
        "streetName": "TALBOT",
        "streetDirectionId": "N",
        "streetTypeId": "RD",
        "placeName": "ESSEX",
        "streetNameDisplayText": "TALBOT RD N, ESSEX"
      },
      {
        "electoralDistricts": [
          {
            "election": null,
            "id": 27,
            "setId": 0,
            "name": "Essex"
          }
        ],
        "pollDivisionIds": [
          10138037
        ],
        "postalCode": "N8M2W3",
        "streetName": "TALBOT",
        "streetDirectionId": "S",
        "streetTypeId": "RD",
        "placeName": "ESSEX",
        "streetNameDisplayText": "TALBOT RD S, ESSEX"
      },
      {
        "electoralDistricts": [
          {
            "election": null,
            "id": 27,
            "setId": 0,
            "name": "Essex"
          }
        ],
        "pollDivisionIds": [
          10138034
        ],
        "postalCode": "N8M2W3",
        "streetName": "TALBOT",
        "streetDirectionId": "N",
        "streetTypeId": "ST",
        "placeName": "ESSEX",
        "streetNameDisplayText": "TALBOT ST N, ESSEX"
      },
      {
        "electoralDistricts": [
          {
            "election": null,
            "id": 27,
            "setId": 0,
            "name": "Essex"
          }
        ],
        "pollDivisionIds": [
          10138037
        ],
        "postalCode": "N8M2W3",
        "streetName": "TALBOT",
        "streetDirectionId": "S",
        "streetTypeId": "ST",
        "placeName": "ESSEX",
        "streetNameDisplayText": "TALBOT ST S, ESSEX"
      }
    ]
  },
  {
    "postal": "N8M0A0",
    "result": []
  },
  {
    "postal": "N8M6P8",
    "result": []
  },
  {
    "postal": "N8M8N9",
    "result": []
  },
  {
    "postal": "N8M0S9",
    "result": []
  },
  {
    "postal": "N8M8G0",
    "result": []
  },
  {
    "postal": "N8M8C7",
    "result": []
  },
  {
    "postal": "N8M5X8",
    "result": []
  },
  {
    "postal": "N8M7E8",
    "result": []
  },
  {
    "postal": "N8M6X2",
    "result": []
  },
  {
    "postal": "N8M4C6",
    "result": []
  },
  {
    "postal": "N8M7H2",
    "result": []
  },
  {
    "postal": "N8M4R0",
    "result": []
  },
  {
    "postal": "N8M6J3",
    "result": []
  },
  {
    "postal": "N8M4B8",
    "result": []
  },
  {
    "postal": "N8M6H6",
    "result": []
  },
  {
    "postal": "N8M0S1",
    "result": []
  },
  {
    "postal": "N8M4E3",
    "result": []
  },
  {
    "postal": "N8M7K2",
    "result": []
  },
  {
    "postal": "N8M7T8",
    "result": []
  },
  {
    "postal": "N8M0J9",
    "result": []
  },
  {
    "postal": "N8M5J9",
    "result": []
  },
  {
    "postal": "N8M5S7",
    "result": []
  },
  {
    "postal": "N8M0G9",
    "result": []
  },
  {
    "postal": "N8M3J9",
    "result": []
  },
  {
    "postal": "N8M2Y0",
    "result": []
  },
  {
    "postal": "N8M8X5",
    "result": []
  },
  {
    "postal": "N8M2M7",
    "result": [
      {
        "electoralDistricts": [
          {
            "election": null,
            "id": 27,
            "setId": 0,
            "name": "Essex"
          }
        ],
        "pollDivisionIds": [
          10138037
        ],
        "postalCode": "N8M2M7",
        "streetName": "GORDON",
        "streetDirectionId": null,
        "streetTypeId": "AVE",
        "placeName": "ESSEX",
        "streetNameDisplayText": "GORDON AVE, ESSEX"
      }
    ]
  },
  {
    "postal": "N8M9Z3",
    "result": []
  },
  {
    "postal": "N8M7W2",
    "result": []
  },
  {
    "postal": "N8M3W0",
    "result": []
  },
  {
    "postal": "N8M3M1",
    "result": []
  },
  {
    "postal": "N8M6A5",
    "result": []
  },
  {
    "postal": "N8M2M9",
    "result": [
      {
        "electoralDistricts": [
          {
            "election": null,
            "id": 27,
            "setId": 0,
            "name": "Essex"
          }
        ],
        "pollDivisionIds": [
          10138037
        ],
        "postalCode": "N8M2M9",
        "streetName": "ARTHUR",
        "streetDirectionId": null,
        "streetTypeId": "AVE",
        "placeName": "ESSEX",
        "streetNameDisplayText": "ARTHUR AVE, ESSEX"
      }
    ]
  },
  {
    "postal": "N8M5C3",
    "result": []
  },
  {
    "postal": "N8M0Y6",
    "result": []
  },
  {
    "postal": "N8M9H7",
    "result": []
  },
  {
    "postal": "N8M3L0",
    "result": []
  },
  {
    "postal": "N8M5N9",
    "result": []
  },
  {
    "postal": "N8M5E3",
    "result": []
  },
  {
    "postal": "N8M7M9",
    "result": []
  },
  {
    "postal": "N8M8N2",
    "result": []
  },
  {
    "postal": "N8M9H3",
    "result": []
  },
  {
    "postal": "N8M2K8",
    "result": [
      {
        "electoralDistricts": [
          {
            "election": null,
            "id": 27,
            "setId": 0,
            "name": "Essex"
          }
        ],
        "pollDivisionIds": [
          10138036
        ],
        "postalCode": "N8M2K8",
        "streetName": "CAMERON",
        "streetDirectionId": null,
        "streetTypeId": "AVE",
        "placeName": "ESSEX",
        "streetNameDisplayText": "CAMERON AVE, ESSEX"
      }
    ]
  },
  {
    "postal": "N8M9L0",
    "result": []
  },
  {
    "postal": "N8M6L9",
    "result": []
  },
  {
    "postal": "N8M6A8",
    "result": []
  },
  {
    "postal": "N8M2K6",
    "result": [
      {
        "electoralDistricts": [
          {
            "election": null,
            "id": 27,
            "setId": 0,
            "name": "Essex"
          }
        ],
        "pollDivisionIds": [
          10138036
        ],
        "postalCode": "N8M2K6",
        "streetName": "MEDORA",
        "streetDirectionId": "E",
        "streetTypeId": "AVE",
        "placeName": "ESSEX",
        "streetNameDisplayText": "MEDORA AVE E, ESSEX"
      }
    ]
  },
  {
    "postal": "N8M2M0",
    "result": []
  },
  {
    "postal": "N8M5X7",
    "result": []
  },
  {
    "postal": "N8M0M7",
    "result": []
  },
  {
    "postal": "N8M7A6",
    "result": []
  },
  {
    "postal": "N8M3C5",
    "result": [
      {
        "electoralDistricts": [
          {
            "election": null,
            "id": 27,
            "setId": 0,
            "name": "Essex"
          }
        ],
        "pollDivisionIds": [
          10138037
        ],
        "postalCode": "N8M3C5",
        "streetName": "MEADOW",
        "streetDirectionId": null,
        "streetTypeId": "LANE",
        "placeName": "ESSEX",
        "streetNameDisplayText": "MEADOW LANE, ESSEX"
      },
      {
        "electoralDistricts": [
          {
            "election": null,
            "id": 27,
            "setId": 0,
            "name": "Essex"
          }
        ],
        "pollDivisionIds": [
          10138037
        ],
        "postalCode": "N8M3C5",
        "streetName": "OAK",
        "streetDirectionId": null,
        "streetTypeId": "DR",
        "placeName": "ESSEX",
        "streetNameDisplayText": "OAK DR, ESSEX"
      }
    ]
  },
  {
    "postal": "N8M2P2",
    "result": [
      {
        "electoralDistricts": [
          {
            "election": null,
            "id": 27,
            "setId": 0,
            "name": "Essex"
          }
        ],
        "pollDivisionIds": [
          10138037
        ],
        "postalCode": "N8M2P2",
        "streetName": "BRIEN",
        "streetDirectionId": "E",
        "streetTypeId": "AVE",
        "placeName": "ESSEX",
        "streetNameDisplayText": "BRIEN AVE E, ESSEX"
      }
    ]
  },
  {
    "postal": "N8M9N4",
    "result": []
  },
  {
    "postal": "N8M3M9",
    "result": []
  },
  {
    "postal": "N8M8K6",
    "result": []
  },
  {
    "postal": "N8M1L2",
    "result": [
      {
        "electoralDistricts": [
          {
            "election": null,
            "id": 27,
            "setId": 0,
            "name": "Essex"
          }
        ],
        "pollDivisionIds": [
          10138037
        ],
        "postalCode": "N8M1L2",
        "streetName": "MICHAEL",
        "streetDirectionId": null,
        "streetTypeId": "DR",
        "placeName": "ESSEX",
        "streetNameDisplayText": "MICHAEL DR, ESSEX"
      }
    ]
  },
  {
    "postal": "N8M2Z9",
    "result": [
      {
        "electoralDistricts": [
          {
            "election": null,
            "id": 27,
            "setId": 0,
            "name": "Essex"
          }
        ],
        "pollDivisionIds": [
          10138035
        ],
        "postalCode": "N8M2Z9",
        "streetName": "DREW",
        "streetDirectionId": null,
        "streetTypeId": "DR",
        "placeName": "ESSEX",
        "streetNameDisplayText": "DREW DR, ESSEX"
      }
    ]
  },
  {
    "postal": "N8M2S2",
    "result": [
      {
        "electoralDistricts": [
          {
            "election": null,
            "id": 18,
            "setId": 0,
            "name": "Chatham-Kentâ€”Leamington"
          }
        ],
        "pollDivisionIds": [
          10137517
        ],
        "postalCode": "N8M2S2",
        "streetName": "FOX",
        "streetDirectionId": null,
        "streetTypeId": "ST",
        "placeName": "LEAMINGTON",
        "streetNameDisplayText": "FOX ST, LEAMINGTON"
      }
    ]
  },
  {
    "postal": "N8M2W2",
    "result": []
  },
  {
    "postal": "N8M2C3",
    "result": [
      {
        "electoralDistricts": [
          {
            "election": null,
            "id": 27,
            "setId": 0,
            "name": "Essex"
          }
        ],
        "pollDivisionIds": [
          10138036
        ],
        "postalCode": "N8M2C3",
        "streetName": "TALBOT",
        "streetDirectionId": "N",
        "streetTypeId": "ST",
        "placeName": "ESSEX",
        "streetNameDisplayText": "TALBOT ST N, ESSEX"
      }
    ]
  },
  {
    "postal": "N8M6L7",
    "result": []
  },
  {
    "postal": "N8M3K0",
    "result": []
  },
  {
    "postal": "N8M3C1",
    "result": [
      {
        "electoralDistricts": [
          {
            "election": null,
            "id": 27,
            "setId": 0,
            "name": "Essex"
          }
        ],
        "pollDivisionIds": [
          10138036
        ],
        "postalCode": "N8M3C1",
        "streetName": "BELL",
        "streetDirectionId": null,
        "streetTypeId": "AVE",
        "placeName": "ESSEX",
        "streetNameDisplayText": "BELL AVE, ESSEX"
      }
    ]
  },
  {
    "postal": "N8M6M9",
    "result": []
  },
  {
    "postal": "N8M4N9",
    "result": []
  },
  {
    "postal": "N8M3Y7",
    "result": []
  },
  {
    "postal": "N8M2A9",
    "result": [
      {
        "electoralDistricts": [
          {
            "election": null,
            "id": 27,
            "setId": 0,
            "name": "Essex"
          }
        ],
        "pollDivisionIds": [
          10138035
        ],
        "postalCode": "N8M2A9",
        "streetName": "DANA",
        "streetDirectionId": null,
        "streetTypeId": "DR",
        "placeName": "ESSEX",
        "streetNameDisplayText": "DANA DR, ESSEX"
      }
    ]
  },
  {
    "postal": "N8M6H5",
    "result": []
  },
  {
    "postal": "N8M8B4",
    "result": []
  },
  {
    "postal": "N8M4Z2",
    "result": []
  },
  {
    "postal": "N8M9J0",
    "result": []
  },
  {
    "postal": "N8M7V7",
    "result": []
  },
  {
    "postal": "N8M5T5",
    "result": []
  },
  {
    "postal": "N8M4W5",
    "result": []
  },
  {
    "postal": "N8M1T8",
    "result": [
      {
        "electoralDistricts": [
          {
            "election": null,
            "id": 27,
            "setId": 0,
            "name": "Essex"
          }
        ],
        "pollDivisionIds": [
          10138037
        ],
        "postalCode": "N8M1T8",
        "streetName": "ILER",
        "streetDirectionId": null,
        "streetTypeId": "AVE",
        "placeName": "ESSEX",
        "streetNameDisplayText": "ILER AVE, ESSEX"
      }
    ]
  },
  {
    "postal": "N8M9G6",
    "result": []
  },
  {
    "postal": "N8M1H3",
    "result": [
      {
        "electoralDistricts": [
          {
            "election": null,
            "id": 27,
            "setId": 0,
            "name": "Essex"
          }
        ],
        "pollDivisionIds": [
          10138036
        ],
        "postalCode": "N8M1H3",
        "streetName": "THOMAS",
        "streetDirectionId": null,
        "streetTypeId": "ST",
        "placeName": "ESSEX",
        "streetNameDisplayText": "THOMAS ST, ESSEX"
      }
    ]
  },
  {
    "postal": "N8M5R5",
    "result": []
  },
  {
    "postal": "N8M8A4",
    "result": []
  },
  {
    "postal": "N8M3T6",
    "result": []
  },
  {
    "postal": "N8M9W8",
    "result": []
  },
  {
    "postal": "N8M0N3",
    "result": []
  },
  {
    "postal": "N8M7V0",
    "result": []
  },
  {
    "postal": "N8M8T5",
    "result": []
  },
  {
    "postal": "N8M5N3",
    "result": []
  },
  {
    "postal": "N8M5G9",
    "result": []
  },
  {
    "postal": "N8M3X8",
    "result": []
  },
  {
    "postal": "N8M9R3",
    "result": []
  },
  {
    "postal": "N8M2S1",
    "result": [
      {
        "electoralDistricts": [
          {
            "election": null,
            "id": 27,
            "setId": 0,
            "name": "Essex"
          }
        ],
        "pollDivisionIds": [
          10138037
        ],
        "postalCode": "N8M2S1",
        "streetName": "FOX",
        "streetDirectionId": null,
        "streetTypeId": "ST",
        "placeName": "ESSEX",
        "streetNameDisplayText": "FOX ST, ESSEX"
      }
    ]
  },
  {
    "postal": "N8M9J7",
    "result": []
  },
  {
    "postal": "N8M2J3",
    "result": [
      {
        "electoralDistricts": [
          {
            "election": null,
            "id": 27,
            "setId": 0,
            "name": "Essex"
          }
        ],
        "pollDivisionIds": [
          10138036
        ],
        "postalCode": "N8M2J3",
        "streetName": "MAIDSTONE",
        "streetDirectionId": "E",
        "streetTypeId": "AVE",
        "placeName": "ESSEX",
        "streetNameDisplayText": "MAIDSTONE AVE E, ESSEX"
      }
    ]
  },
  {
    "postal": "N8M3B6",
    "result": [
      {
        "electoralDistricts": [
          {
            "election": null,
            "id": 27,
            "setId": 0,
            "name": "Essex"
          }
        ],
        "pollDivisionIds": [
          10138037
        ],
        "postalCode": "N8M3B6",
        "streetName": "DOWSWELL",
        "streetDirectionId": null,
        "streetTypeId": "ST",
        "placeName": "ESSEX",
        "streetNameDisplayText": "DOWSWELL ST, ESSEX"
      },
      {
        "electoralDistricts": [
          {
            "election": null,
            "id": 27,
            "setId": 0,
            "name": "Essex"
          }
        ],
        "pollDivisionIds": [
          10138037
        ],
        "postalCode": "N8M3B6",
        "streetName": "GAIL",
        "streetDirectionId": null,
        "streetTypeId": "ST",
        "placeName": "ESSEX",
        "streetNameDisplayText": "GAIL ST, ESSEX"
      }
    ]
  },
  {
    "postal": "N8M8J0",
    "result": []
  },
  {
    "postal": "N8M7R4",
    "result": []
  },
  {
    "postal": "N8M8K8",
    "result": []
  },
  {
    "postal": "N8M4P3",
    "result": []
  },
  {
    "postal": "N8M0A2",
    "result": [
      {
        "electoralDistricts": [
          {
            "election": null,
            "id": 27,
            "setId": 0,
            "name": "Essex"
          }
        ],
        "pollDivisionIds": [
          10138037
        ],
        "postalCode": "N8M0A2",
        "streetName": "CHARLES",
        "streetDirectionId": null,
        "streetTypeId": "AVE",
        "placeName": "ESSEX",
        "streetNameDisplayText": "CHARLES AVE, ESSEX"
      },
      {
        "electoralDistricts": [
          {
            "election": null,
            "id": 27,
            "setId": 0,
            "name": "Essex"
          }
        ],
        "pollDivisionIds": [
          10138037
        ],
        "postalCode": "N8M0A2",
        "streetName": "JOAN FLOOD",
        "streetDirectionId": null,
        "streetTypeId": "DR",
        "placeName": "ESSEX",
        "streetNameDisplayText": "JOAN FLOOD DR, ESSEX"
      },
      {
        "electoralDistricts": [
          {
            "election": null,
            "id": 27,
            "setId": 0,
            "name": "Essex"
          }
        ],
        "pollDivisionIds": [
          10138037
        ],
        "postalCode": "N8M0A2",
        "streetName": "MORTON",
        "streetDirectionId": null,
        "streetTypeId": "AVE",
        "placeName": "ESSEX",
        "streetNameDisplayText": "MORTON AVE, ESSEX"
      }
    ]
  },
  {
    "postal": "N8M2G2",
    "result": [
      {
        "electoralDistricts": [
          {
            "election": null,
            "id": 27,
            "setId": 0,
            "name": "Essex"
          }
        ],
        "pollDivisionIds": [
          10138036
        ],
        "postalCode": "N8M2G2",
        "streetName": "THOMAS",
        "streetDirectionId": null,
        "streetTypeId": "ST",
        "placeName": "ESSEX",
        "streetNameDisplayText": "THOMAS ST, ESSEX"
      }
    ]
  },
  {
    "postal": "N8M5Y9",
    "result": []
  },
  {
    "postal": "N8M7X0",
    "result": []
  },
  {
    "postal": "N8M7W3",
    "result": []
  },
  {
    "postal": "N8M7X5",
    "result": []
  },
  {
    "postal": "N8M5K6",
    "result": []
  },
  {
    "postal": "N8M5B6",
    "result": []
  },
  {
    "postal": "N8M7Z0",
    "result": []
  },
  {
    "postal": "N8M9H6",
    "result": []
  },
  {
    "postal": "N8M1B4",
    "result": [
      {
        "electoralDistricts": [
          {
            "election": null,
            "id": 27,
            "setId": 0,
            "name": "Essex"
          }
        ],
        "pollDivisionIds": [
          10138037
        ],
        "postalCode": "N8M1B4",
        "streetName": "TALBOT",
        "streetDirectionId": "N",
        "streetTypeId": "ST",
        "placeName": "ESSEX",
        "streetNameDisplayText": "TALBOT ST N, ESSEX"
      },
      {
        "electoralDistricts": [
          {
            "election": null,
            "id": 27,
            "setId": 0,
            "name": "Essex"
          }
        ],
        "pollDivisionIds": [
          10138036,
          10138037
        ],
        "postalCode": "N8M1B4",
        "streetName": "TALBOT",
        "streetDirectionId": "S",
        "streetTypeId": "ST",
        "placeName": "ESSEX",
        "streetNameDisplayText": "TALBOT ST S, ESSEX"
      }
    ]
  },
  {
    "postal": "N8M1A0",
    "result": []
  },
  {
    "postal": "N8M9A0",
    "result": []
  },
  {
    "postal": "N8M1M6",
    "result": [
      {
        "electoralDistricts": [
          {
            "election": null,
            "id": 27,
            "setId": 0,
            "name": "Essex"
          }
        ],
        "pollDivisionIds": [
          10138036
        ],
        "postalCode": "N8M1M6",
        "streetName": "VICTORIA",
        "streetDirectionId": null,
        "streetTypeId": "AVE",
        "placeName": "ESSEX",
        "streetNameDisplayText": "VICTORIA AVE, ESSEX"
      }
    ]
  },
  {
    "postal": "N8M5H0",
    "result": []
  },
  {
    "postal": "N8M1K6",
    "result": [
      {
        "electoralDistricts": [
          {
            "election": null,
            "id": 27,
            "setId": 0,
            "name": "Essex"
          }
        ],
        "pollDivisionIds": [
          10138037
        ],
        "postalCode": "N8M1K6",
        "streetName": "MILNE",
        "streetDirectionId": "N",
        "streetTypeId": "ST",
        "placeName": "ESSEX",
        "streetNameDisplayText": "MILNE ST N, ESSEX"
      }
    ]
  },
  {
    "postal": "N8M5E1",
    "result": []
  },
  {
    "postal": "N8M3T9",
    "result": []
  },
  {
    "postal": "N8M2M6",
    "result": []
  },
  {
    "postal": "N8M0G5",
    "result": []
  },
  {
    "postal": "N8M0Y2",
    "result": []
  },
  {
    "postal": "N8M2Y7",
    "result": [
      {
        "electoralDistricts": [
          {
            "election": null,
            "id": 27,
            "setId": 0,
            "name": "Essex"
          }
        ],
        "pollDivisionIds": [
          10138035
        ],
        "postalCode": "N8M2Y7",
        "streetName": "DREW",
        "streetDirectionId": null,
        "streetTypeId": "DR",
        "placeName": "ESSEX",
        "streetNameDisplayText": "DREW DR, ESSEX"
      }
    ]
  },
  {
    "postal": "N8M2J7",
    "result": [
      {
        "electoralDistricts": [
          {
            "election": null,
            "id": 27,
            "setId": 0,
            "name": "Essex"
          }
        ],
        "pollDivisionIds": [
          10138036
        ],
        "postalCode": "N8M2J7",
        "streetName": "MAIDSTONE",
        "streetDirectionId": "E",
        "streetTypeId": "AVE",
        "placeName": "ESSEX",
        "streetNameDisplayText": "MAIDSTONE AVE E, ESSEX"
      }
    ]
  },
  {
    "postal": "N8M4K7",
    "result": []
  },
  {
    "postal": "N8M7P9",
    "result": []
  },
  {
    "postal": "N8M8X0",
    "result": []
  },
  {
    "postal": "N8M3X1",
    "result": []
  },
  {
    "postal": "N8M1R5",
    "result": [
      {
        "electoralDistricts": [
          {
            "election": null,
            "id": 27,
            "setId": 0,
            "name": "Essex"
          }
        ],
        "pollDivisionIds": [
          10138036
        ],
        "postalCode": "N8M1R5",
        "streetName": "LAIRD",
        "streetDirectionId": null,
        "streetTypeId": "AVE",
        "placeName": "ESSEX",
        "streetNameDisplayText": "LAIRD AVE, ESSEX"
      }
    ]
  },
  {
    "postal": "N8M6X6",
    "result": []
  },
  {
    "postal": "N8M0Y1",
    "result": []
  },
  {
    "postal": "N8M8G1",
    "result": []
  },
  {
    "postal": "N8M3J3",
    "result": []
  },
  {
    "postal": "N8M8C2",
    "result": []
  },
  {
    "postal": "N8M4X9",
    "result": []
  },
  {
    "postal": "N8M6G9",
    "result": []
  },
  {
    "postal": "N8M4M3",
    "result": []
  },
  {
    "postal": "N8M9P7",
    "result": []
  },
  {
    "postal": "N8M4E5",
    "result": []
  },
  {
    "postal": "N8M5K9",
    "result": []
  },
  {
    "postal": "N8M2V2",
    "result": [
      {
        "electoralDistricts": [
          {
            "election": null,
            "id": 27,
            "setId": 0,
            "name": "Essex"
          }
        ],
        "pollDivisionIds": [
          10138037
        ],
        "postalCode": "N8M2V2",
        "streetName": "CRANBROOK",
        "streetDirectionId": null,
        "streetTypeId": "CRT",
        "placeName": "ESSEX",
        "streetNameDisplayText": "CRANBROOK CRT, ESSEX"
      }
    ]
  },
  {
    "postal": "N8M2N9",
    "result": [
      {
        "electoralDistricts": [
          {
            "election": null,
            "id": 27,
            "setId": 0,
            "name": "Essex"
          }
        ],
        "pollDivisionIds": [
          10138037
        ],
        "postalCode": "N8M2N9",
        "streetName": "BRIEN",
        "streetDirectionId": "E",
        "streetTypeId": "AVE",
        "placeName": "ESSEX",
        "streetNameDisplayText": "BRIEN AVE E, ESSEX"
      }
    ]
  },
  {
    "postal": "N8M6L4",
    "result": []
  },
  {
    "postal": "N8M8E0",
    "result": []
  },
  {
    "postal": "N8M0N0",
    "result": []
  },
  {
    "postal": "N8M6R0",
    "result": []
  },
  {
    "postal": "N8M9C1",
    "result": []
  },
  {
    "postal": "N8M4H4",
    "result": []
  },
  {
    "postal": "N8M5W3",
    "result": []
  },
  {
    "postal": "N8M9N9",
    "result": []
  },
  {
    "postal": "N8M1V7",
    "result": [
      {
        "electoralDistricts": [
          {
            "election": null,
            "id": 27,
            "setId": 0,
            "name": "Essex"
          }
        ],
        "pollDivisionIds": [
          10138037
        ],
        "postalCode": "N8M1V7",
        "streetName": "BRIEN",
        "streetDirectionId": "W",
        "streetTypeId": "AVE",
        "placeName": "ESSEX",
        "streetNameDisplayText": "BRIEN AVE W, ESSEX"
      }
    ]
  },
  {
    "postal": "N8M8J1",
    "result": []
  },
  {
    "postal": "N8M5V9",
    "result": []
  },
  {
    "postal": "N8M2S8",
    "result": [
      {
        "electoralDistricts": [
          {
            "election": null,
            "id": 27,
            "setId": 0,
            "name": "Essex"
          }
        ],
        "pollDivisionIds": [
          10138037
        ],
        "postalCode": "N8M2S8",
        "streetName": "IRWIN",
        "streetDirectionId": null,
        "streetTypeId": "AVE",
        "placeName": "ESSEX",
        "streetNameDisplayText": "IRWIN AVE, ESSEX"
      }
    ]
  },
  {
    "postal": "N8M6P0",
    "result": []
  },
  {
    "postal": "N8M4J8",
    "result": []
  },
  {
    "postal": "N8M0N1",
    "result": []
  },
  {
    "postal": "N8M1Y7",
    "result": [
      {
        "electoralDistricts": [
          {
            "election": null,
            "id": 27,
            "setId": 0,
            "name": "Essex"
          }
        ],
        "pollDivisionIds": [
          10138037
        ],
        "postalCode": "N8M1Y7",
        "streetName": "GOSFIELD",
        "streetDirectionId": "W",
        "streetTypeId": "TLINE",
        "placeName": "ESSEX",
        "streetNameDisplayText": "GOSFIELD TLINE W, ESSEX"
      }
    ]
  },
  {
    "postal": "N8M7W5",
    "result": []
  },
  {
    "postal": "N8M3Z1",
    "result": []
  },
  {
    "postal": "N8M7M6",
    "result": []
  },
  {
    "postal": "N8M1W7",
    "result": [
      {
        "electoralDistricts": [
          {
            "election": null,
            "id": 27,
            "setId": 0,
            "name": "Essex"
          }
        ],
        "pollDivisionIds": [
          10138037
        ],
        "postalCode": "N8M1W7",
        "streetName": "BRIEN",
        "streetDirectionId": "W",
        "streetTypeId": "AVE",
        "placeName": "ESSEX",
        "streetNameDisplayText": "BRIEN AVE W, ESSEX"
      }
    ]
  },
  {
    "postal": "N8M1X1",
    "result": [
      {
        "electoralDistricts": [
          {
            "election": null,
            "id": 27,
            "setId": 0,
            "name": "Essex"
          }
        ],
        "pollDivisionIds": [
          10138037
        ],
        "postalCode": "N8M1X1",
        "streetName": "WELLINGTON",
        "streetDirectionId": "W",
        "streetTypeId": "AVE",
        "placeName": "ESSEX",
        "streetNameDisplayText": "WELLINGTON AVE W, ESSEX"
      }
    ]
  },
  {
    "postal": "N8M0C1",
    "result": [
      {
        "electoralDistricts": [
          {
            "election": null,
            "id": 27,
            "setId": 0,
            "name": "Essex"
          }
        ],
        "pollDivisionIds": [
          10138037
        ],
        "postalCode": "N8M0C1",
        "streetName": "HOUGHTON",
        "streetDirectionId": null,
        "streetTypeId": "ST",
        "placeName": "ESSEX",
        "streetNameDisplayText": "HOUGHTON ST, ESSEX"
      }
    ]
  },
  {
    "postal": "N8M4N3",
    "result": []
  },
  {
    "postal": "N8M4S8",
    "result": []
  },
  {
    "postal": "N8M1H6",
    "result": [
      {
        "electoralDistricts": [
          {
            "election": null,
            "id": 27,
            "setId": 0,
            "name": "Essex"
          }
        ],
        "pollDivisionIds": [
          10138036
        ],
        "postalCode": "N8M1H6",
        "streetName": "DAY",
        "streetDirectionId": null,
        "streetTypeId": "ST",
        "placeName": "ESSEX",
        "streetNameDisplayText": "DAY ST, ESSEX"
      }
    ]
  },
  {
    "postal": "N8M2Z4",
    "result": [
      {
        "electoralDistricts": [
          {
            "election": null,
            "id": 27,
            "setId": 0,
            "name": "Essex"
          }
        ],
        "pollDivisionIds": [
          10138037
        ],
        "postalCode": "N8M2Z4",
        "streetName": "BRIEN",
        "streetDirectionId": "W",
        "streetTypeId": "AVE",
        "placeName": "ESSEX",
        "streetNameDisplayText": "BRIEN AVE W, ESSEX"
      }
    ]
  },
  {
    "postal": "N8M7K3",
    "result": []
  },
  {
    "postal": "N8M8A2",
    "result": []
  },
  {
    "postal": "N8M6J1",
    "result": []
  },
  {
    "postal": "N8M5Z6",
    "result": []
  },
  {
    "postal": "N8M3Z0",
    "result": []
  },
  {
    "postal": "N8M8M0",
    "result": []
  },
  {
    "postal": "N8M1Z6",
    "result": [
      {
        "electoralDistricts": [
          {
            "election": null,
            "id": 27,
            "setId": 0,
            "name": "Essex"
          }
        ],
        "pollDivisionIds": [
          10138035
        ],
        "postalCode": "N8M1Z6",
        "streetName": "MIRIAM",
        "streetDirectionId": null,
        "streetTypeId": "CRT",
        "placeName": "ESSEX",
        "streetNameDisplayText": "MIRIAM CRT, ESSEX"
      }
    ]
  },
  {
    "postal": "N8M8K7",
    "result": []
  },
  {
    "postal": "N8M1N3",
    "result": [
      {
        "electoralDistricts": [
          {
            "election": null,
            "id": 27,
            "setId": 0,
            "name": "Essex"
          }
        ],
        "pollDivisionIds": [
          10138036
        ],
        "postalCode": "N8M1N3",
        "streetName": "VICTORIA",
        "streetDirectionId": null,
        "streetTypeId": "AVE",
        "placeName": "ESSEX",
        "streetNameDisplayText": "VICTORIA AVE, ESSEX"
      }
    ]
  },
  {
    "postal": "N8M9S2",
    "result": []
  },
  {
    "postal": "N8M2K1",
    "result": [
      {
        "electoralDistricts": [
          {
            "election": null,
            "id": 27,
            "setId": 0,
            "name": "Essex"
          }
        ],
        "pollDivisionIds": [
          10138037,
          10138036,
          10138034
        ],
        "postalCode": "N8M2K1",
        "streetName": "MAIDSTONE",
        "streetDirectionId": "E",
        "streetTypeId": "AVE",
        "placeName": "ESSEX",
        "streetNameDisplayText": "MAIDSTONE AVE E, ESSEX"
      }
    ]
  },
  {
    "postal": "N8M1E8",
    "result": [
      {
        "electoralDistricts": [
          {
            "election": null,
            "id": 27,
            "setId": 0,
            "name": "Essex"
          }
        ],
        "pollDivisionIds": [
          10138037
        ],
        "postalCode": "N8M1E8",
        "streetName": "ST JAMES",
        "streetDirectionId": null,
        "streetTypeId": "ST",
        "placeName": "ESSEX",
        "streetNameDisplayText": "ST JAMES ST, ESSEX"
      }
    ]
  },
  {
    "postal": "N8M9B8",
    "result": []
  },
  {
    "postal": "N8M7X4",
    "result": []
  },
  {
    "postal": "N8M1Z4",
    "result": [
      {
        "electoralDistricts": [
          {
            "election": null,
            "id": 27,
            "setId": 0,
            "name": "Essex"
          }
        ],
        "pollDivisionIds": [
          10138035
        ],
        "postalCode": "N8M1Z4",
        "streetName": "MIRIAM",
        "streetDirectionId": null,
        "streetTypeId": "CRT",
        "placeName": "ESSEX",
        "streetNameDisplayText": "MIRIAM CRT, ESSEX"
      }
    ]
  },
  {
    "postal": "N8M2C7",
    "result": [
      {
        "electoralDistricts": [
          {
            "election": null,
            "id": 27,
            "setId": 0,
            "name": "Essex"
          }
        ],
        "pollDivisionIds": [
          10138036
        ],
        "postalCode": "N8M2C7",
        "streetName": "TALBOT",
        "streetDirectionId": "N",
        "streetTypeId": "ST",
        "placeName": "ESSEX",
        "streetNameDisplayText": "TALBOT ST N, ESSEX"
      }
    ]
  },
  {
    "postal": "N8M2E7",
    "result": [
      {
        "electoralDistricts": [
          {
            "election": null,
            "id": 27,
            "setId": 0,
            "name": "Essex"
          }
        ],
        "pollDivisionIds": [
          10138036
        ],
        "postalCode": "N8M2E7",
        "streetName": "HARVEY",
        "streetDirectionId": null,
        "streetTypeId": "ST",
        "placeName": "ESSEX",
        "streetNameDisplayText": "HARVEY ST, ESSEX"
      }
    ]
  },
  {
    "postal": "N8M3R1",
    "result": []
  },
  {
    "postal": "N8M4K4",
    "result": []
  },
  {
    "postal": "N8M9G3",
    "result": []
  },
  {
    "postal": "N8M6C9",
    "result": []
  },
  {
    "postal": "N8M9H5",
    "result": []
  },
  {
    "postal": "N8M1P5",
    "result": [
      {
        "electoralDistricts": [
          {
            "election": null,
            "id": 27,
            "setId": 0,
            "name": "Essex"
          }
        ],
        "pollDivisionIds": [
          10138036
        ],
        "postalCode": "N8M1P5",
        "streetName": "CENTRE",
        "streetDirectionId": "E",
        "streetTypeId": "ST",
        "placeName": "ESSEX",
        "streetNameDisplayText": "CENTRE ST E, ESSEX"
      },
      {
        "electoralDistricts": [
          {
            "election": null,
            "id": 27,
            "setId": 0,
            "name": "Essex"
          }
        ],
        "pollDivisionIds": [
          10138031
        ],
        "postalCode": "N8M1P5",
        "streetName": "CENTRE",
        "streetDirectionId": "W",
        "streetTypeId": "ST",
        "placeName": "ESSEX",
        "streetNameDisplayText": "CENTRE ST W, ESSEX"
      }
    ]
  },
  {
    "postal": "N8M2J5",
    "result": [
      {
        "electoralDistricts": [
          {
            "election": null,
            "id": 27,
            "setId": 0,
            "name": "Essex"
          }
        ],
        "pollDivisionIds": [
          10138036
        ],
        "postalCode": "N8M2J5",
        "streetName": "MAIDSTONE",
        "streetDirectionId": "E",
        "streetTypeId": "AVE",
        "placeName": "ESSEX",
        "streetNameDisplayText": "MAIDSTONE AVE E, ESSEX"
      }
    ]
  },
  {
    "postal": "N8M4W6",
    "result": []
  },
  {
    "postal": "N8M8M8",
    "result": []
  },
  {
    "postal": "N8M6C5",
    "result": []
  },
  {
    "postal": "N8M9H0",
    "result": []
  },
  {
    "postal": "N8M1X8",
    "result": []
  },
  {
    "postal": "N8M3H4",
    "result": []
  },
  {
    "postal": "N8M4E7",
    "result": []
  },
  {
    "postal": "N8M8A0",
    "result": []
  },
  {
    "postal": "N8M1Z7",
    "result": [
      {
        "electoralDistricts": [
          {
            "election": null,
            "id": 27,
            "setId": 0,
            "name": "Essex"
          }
        ],
        "pollDivisionIds": [
          10138035
        ],
        "postalCode": "N8M1Z7",
        "streetName": "DANA",
        "streetDirectionId": null,
        "streetTypeId": "DR",
        "placeName": "ESSEX",
        "streetNameDisplayText": "DANA DR, ESSEX"
      }
    ]
  },
  {
    "postal": "N8M7Z3",
    "result": []
  },
  {
    "postal": "N8M0L7",
    "result": []
  },
  {
    "postal": "N8M2C6",
    "result": [
      {
        "electoralDistricts": [
          {
            "election": null,
            "id": 27,
            "setId": 0,
            "name": "Essex"
          }
        ],
        "pollDivisionIds": [
          10138036
        ],
        "postalCode": "N8M2C6",
        "streetName": "TALBOT",
        "streetDirectionId": "N",
        "streetTypeId": "ST",
        "placeName": "ESSEX",
        "streetNameDisplayText": "TALBOT ST N, ESSEX"
      }
    ]
  },
  {
    "postal": "N8M6M3",
    "result": []
  },
  {
    "postal": "N8M2J1",
    "result": [
      {
        "electoralDistricts": [
          {
            "election": null,
            "id": 27,
            "setId": 0,
            "name": "Essex"
          }
        ],
        "pollDivisionIds": [
          10138036
        ],
        "postalCode": "N8M2J1",
        "streetName": "MEDORA",
        "streetDirectionId": "W",
        "streetTypeId": "AVE",
        "placeName": "ESSEX",
        "streetNameDisplayText": "MEDORA AVE W, ESSEX"
      }
    ]
  },
  {
    "postal": "N8M3E3",
    "result": [
      {
        "electoralDistricts": [
          {
            "election": null,
            "id": 27,
            "setId": 0,
            "name": "Essex"
          }
        ],
        "pollDivisionIds": [
          10138036
        ],
        "postalCode": "N8M3E3",
        "streetName": "GOLFWAY",
        "streetDirectionId": null,
        "streetTypeId": "DR",
        "placeName": "ESSEX",
        "streetNameDisplayText": "GOLFWAY DR, ESSEX"
      },
      {
        "electoralDistricts": [
          {
            "election": null,
            "id": 27,
            "setId": 0,
            "name": "Essex"
          }
        ],
        "pollDivisionIds": [
          10138036
        ],
        "postalCode": "N8M3E3",
        "streetName": "TOWNSVIEW",
        "streetDirectionId": null,
        "streetTypeId": "CRT",
        "placeName": "ESSEX",
        "streetNameDisplayText": "TOWNSVIEW CRT, ESSEX"
      }
    ]
  },
  {
    "postal": "N8M6Z9",
    "result": []
  },
  {
    "postal": "N8M3M3",
    "result": []
  },
  {
    "postal": "N8M9B1",
    "result": []
  },
  {
    "postal": "N8M9J5",
    "result": []
  },
  {
    "postal": "N8M4V8",
    "result": []
  },
  {
    "postal": "N8M6W2",
    "result": []
  },
  {
    "postal": "N8M0V5",
    "result": []
  },
  {
    "postal": "N8M0Z8",
    "result": []
  },
  {
    "postal": "N8M5G2",
    "result": []
  },
  {
    "postal": "N8M4N4",
    "result": []
  },
  {
    "postal": "N8M8G7",
    "result": []
  },
  {
    "postal": "N8M8W1",
    "result": []
  },
  {
    "postal": "N8M1S6",
    "result": [
      {
        "electoralDistricts": [
          {
            "election": null,
            "id": 27,
            "setId": 0,
            "name": "Essex"
          }
        ],
        "pollDivisionIds": [
          10138036
        ],
        "postalCode": "N8M1S6",
        "streetName": "LAIRD",
        "streetDirectionId": null,
        "streetTypeId": "AVE",
        "placeName": "ESSEX",
        "streetNameDisplayText": "LAIRD AVE, ESSEX"
      }
    ]
  },
  {
    "postal": "N8M4E0",
    "result": []
  },
  {
    "postal": "N8M4L9",
    "result": []
  },
  {
    "postal": "N8M5Z9",
    "result": []
  },
  {
    "postal": "N8M5V3",
    "result": []
  },
  {
    "postal": "N8M4V2",
    "result": []
  },
  {
    "postal": "N8M7C0",
    "result": []
  },
  {
    "postal": "N8M6L0",
    "result": []
  },
  {
    "postal": "N8M1S9",
    "result": [
      {
        "electoralDistricts": [
          {
            "election": null,
            "id": 27,
            "setId": 0,
            "name": "Essex"
          }
        ],
        "pollDivisionIds": [
          10138036
        ],
        "postalCode": "N8M1S9",
        "streetName": "ILER",
        "streetDirectionId": null,
        "streetTypeId": "AVE",
        "placeName": "ESSEX",
        "streetNameDisplayText": "ILER AVE, ESSEX"
      }
    ]
  },
  {
    "postal": "N8M7R6",
    "result": []
  },
  {
    "postal": "N8M7J0",
    "result": []
  },
  {
    "postal": "N8M5M0",
    "result": []
  },
  {
    "postal": "N8M2E5",
    "result": [
      {
        "electoralDistricts": [
          {
            "election": null,
            "id": 27,
            "setId": 0,
            "name": "Essex"
          }
        ],
        "pollDivisionIds": [
          10138036
        ],
        "postalCode": "N8M2E5",
        "streetName": "ALBERT",
        "streetDirectionId": null,
        "streetTypeId": "ST",
        "placeName": "ESSEX",
        "streetNameDisplayText": "ALBERT ST, ESSEX"
      }
    ]
  },
  {
    "postal": "N8M7C7",
    "result": []
  },
  {
    "postal": "N8M5C0",
    "result": []
  },
  {
    "postal": "N8M8V9",
    "result": []
  },
  {
    "postal": "N8M7E0",
    "result": []
  },
  {
    "postal": "N8M6R4",
    "result": []
  },
  {
    "postal": "N8M3Z7",
    "result": []
  },
  {
    "postal": "N8M1J9",
    "result": [
      {
        "electoralDistricts": [
          {
            "election": null,
            "id": 27,
            "setId": 0,
            "name": "Essex"
          }
        ],
        "pollDivisionIds": [
          10138036
        ],
        "postalCode": "N8M1J9",
        "streetName": "HANLAN",
        "streetDirectionId": "N",
        "streetTypeId": "ST",
        "placeName": "ESSEX",
        "streetNameDisplayText": "HANLAN ST N, ESSEX"
      }
    ]
  },
  {
    "postal": "N8M7K6",
    "result": []
  },
  {
    "postal": "N8M7Y5",
    "result": []
  },
  {
    "postal": "N8M1B7",
    "result": [
      {
        "electoralDistricts": [
          {
            "election": null,
            "id": 27,
            "setId": 0,
            "name": "Essex"
          }
        ],
        "pollDivisionIds": [
          10138047
        ],
        "postalCode": "N8M1B7",
        "streetName": "TALBOT",
        "streetDirectionId": "S",
        "streetTypeId": "RD",
        "placeName": "ESSEX",
        "streetNameDisplayText": "TALBOT RD S, ESSEX"
      },
      {
        "electoralDistricts": [
          {
            "election": null,
            "id": 27,
            "setId": 0,
            "name": "Essex"
          }
        ],
        "pollDivisionIds": [
          10138037
        ],
        "postalCode": "N8M1B7",
        "streetName": "TALBOT",
        "streetDirectionId": "S",
        "streetTypeId": "ST",
        "placeName": "ESSEX",
        "streetNameDisplayText": "TALBOT ST S, ESSEX"
      }
    ]
  },
  {
    "postal": "N8M4S9",
    "result": []
  },
  {
    "postal": "N8M9R9",
    "result": []
  },
  {
    "postal": "N8M5K7",
    "result": []
  },
  {
    "postal": "N8M6P2",
    "result": []
  },
  {
    "postal": "N8M2C5",
    "result": [
      {
        "electoralDistricts": [
          {
            "election": null,
            "id": 27,
            "setId": 0,
            "name": "Essex"
          }
        ],
        "pollDivisionIds": [
          10138036
        ],
        "postalCode": "N8M2C5",
        "streetName": "TALBOT",
        "streetDirectionId": "N",
        "streetTypeId": "ST",
        "placeName": "ESSEX",
        "streetNameDisplayText": "TALBOT ST N, ESSEX"
      }
    ]
  },
  {
    "postal": "N8M2N0",
    "result": []
  },
  {
    "postal": "N8M1G0",
    "result": []
  },
  {
    "postal": "N8M4K5",
    "result": []
  },
  {
    "postal": "N8M9B5",
    "result": []
  },
  {
    "postal": "N8M6T5",
    "result": []
  },
  {
    "postal": "N8M1N8",
    "result": [
      {
        "electoralDistricts": [
          {
            "election": null,
            "id": 27,
            "setId": 0,
            "name": "Essex"
          }
        ],
        "pollDivisionIds": [
          10138036
        ],
        "postalCode": "N8M1N8",
        "streetName": "CENTRE",
        "streetDirectionId": null,
        "streetTypeId": "ST",
        "placeName": "ESSEX",
        "streetNameDisplayText": "CENTRE ST, ESSEX"
      }
    ]
  },
  {
    "postal": "N8M0C0",
    "result": []
  },
  {
    "postal": "N8M0R9",
    "result": []
  },
  {
    "postal": "N8M7L1",
    "result": []
  },
  {
    "postal": "N8M3Y8",
    "result": []
  },
  {
    "postal": "N8M7X9",
    "result": []
  },
  {
    "postal": "N8M1A7",
    "result": [
      {
        "electoralDistricts": [
          {
            "election": null,
            "id": 27,
            "setId": 0,
            "name": "Essex"
          }
        ],
        "pollDivisionIds": [
          10138036
        ],
        "postalCode": "N8M1A7",
        "streetName": "TALBOT",
        "streetDirectionId": "N",
        "streetTypeId": "ST",
        "placeName": "ESSEX",
        "streetNameDisplayText": "TALBOT ST N, ESSEX"
      },
      {
        "electoralDistricts": [
          {
            "election": null,
            "id": 27,
            "setId": 0,
            "name": "Essex"
          }
        ],
        "pollDivisionIds": [
          10138036
        ],
        "postalCode": "N8M1A7",
        "streetName": "TALBOT",
        "streetDirectionId": "S",
        "streetTypeId": "ST",
        "placeName": "ESSEX",
        "streetNameDisplayText": "TALBOT ST S, ESSEX"
      }
    ]
  },
  {
    "postal": "N8M2T9",
    "result": [
      {
        "electoralDistricts": [
          {
            "election": null,
            "id": 27,
            "setId": 0,
            "name": "Essex"
          }
        ],
        "pollDivisionIds": [
          10138030
        ],
        "postalCode": "N8M2T9",
        "streetName": "MAPLE",
        "streetDirectionId": null,
        "streetTypeId": "AVE",
        "placeName": "ESSEX",
        "streetNameDisplayText": "MAPLE AVE, ESSEX"
      },
      {
        "electoralDistricts": [
          {
            "election": null,
            "id": 27,
            "setId": 0,
            "name": "Essex"
          }
        ],
        "pollDivisionIds": [
          10138025
        ],
        "postalCode": "N8M2T9",
        "streetName": "MAPLE",
        "streetDirectionId": null,
        "streetTypeId": "DR",
        "placeName": "ESSEX",
        "streetNameDisplayText": "MAPLE DR, ESSEX"
      },
      {
        "electoralDistricts": [
          {
            "election": null,
            "id": 27,
            "setId": 0,
            "name": "Essex"
          }
        ],
        "pollDivisionIds": [
          10138037
        ],
        "postalCode": "N8M2T9",
        "streetName": "MAPLE",
        "streetDirectionId": null,
        "streetTypeId": "ROW",
        "placeName": "ESSEX",
        "streetNameDisplayText": "MAPLE ROW, ESSEX"
      },
      {
        "electoralDistricts": [
          {
            "election": null,
            "id": 18,
            "setId": 0,
            "name": "Chatham-Kentâ€”Leamington"
          }
        ],
        "pollDivisionIds": [
          10137514
        ],
        "postalCode": "N8M2T9",
        "streetName": "MAPLE",
        "streetDirectionId": null,
        "streetTypeId": "ST",
        "placeName": "ESSEX",
        "streetNameDisplayText": "MAPLE ST, ESSEX"
      }
    ]
  },
  {
    "postal": "N8M2E6",
    "result": [
      {
        "electoralDistricts": [
          {
            "election": null,
            "id": 27,
            "setId": 0,
            "name": "Essex"
          }
        ],
        "pollDivisionIds": [
          10138036
        ],
        "postalCode": "N8M2E6",
        "streetName": "HARVEY",
        "streetDirectionId": null,
        "streetTypeId": "ST",
        "placeName": "ESSEX",
        "streetNameDisplayText": "HARVEY ST, ESSEX"
      }
    ]
  },
  {
    "postal": "N8M8Y1",
    "result": []
  },
  {
    "postal": "N8M0J5",
    "result": []
  },
  {
    "postal": "N8M4J1",
    "result": []
  },
  {
    "postal": "N8M1A5",
    "result": [
      {
        "electoralDistricts": [
          {
            "election": null,
            "id": 27,
            "setId": 0,
            "name": "Essex"
          }
        ],
        "pollDivisionIds": [
          10138037
        ],
        "postalCode": "N8M1A5",
        "streetName": "TALBOT",
        "streetDirectionId": "N",
        "streetTypeId": "RD",
        "placeName": "ESSEX",
        "streetNameDisplayText": "TALBOT RD N, ESSEX"
      },
      {
        "electoralDistricts": [
          {
            "election": null,
            "id": 27,
            "setId": 0,
            "name": "Essex"
          }
        ],
        "pollDivisionIds": [
          10138037
        ],
        "postalCode": "N8M1A5",
        "streetName": "TALBOT",
        "streetDirectionId": "N",
        "streetTypeId": "ST",
        "placeName": "ESSEX",
        "streetNameDisplayText": "TALBOT ST N, ESSEX"
      }
    ]
  },
  {
    "postal": "N8M6Z6",
    "result": []
  },
  {
    "postal": "N8M5K4",
    "result": []
  },
  {
    "postal": "N8M7R9",
    "result": []
  },
  {
    "postal": "N8M6G4",
    "result": []
  }
]
