[
  {
    "postal": "K2A9J6",
    "result": []
  },
  {
    "postal": "K2A9Z5",
    "result": []
  },
  {
    "postal": "K2A7H8",
    "result": []
  },
  {
    "postal": "K2A0P6",
    "result": [
      {
        "electoralDistricts": [
          {
            "election": null,
            "id": 78,
            "name": "Ottawa Centre"
          }
        ],
        "pollDivisionIds": [
          10143718
        ],
        "postalCode": "K2A0P6",
        "streetName": "KEENAN",
        "streetDirectionId": null,
        "streetTypeId": "AVE",
        "placeName": "OTTAWA",
        "streetNameDisplayText": "KEENAN AVE, OTTAWA"
      }
    ]
  },
  {
    "postal": "K2A0S7",
    "result": [
      {
        "electoralDistricts": [
          {
            "election": null,
            "id": 78,
            "name": "Ottawa Centre"
          }
        ],
        "pollDivisionIds": [
          10140538
        ],
        "postalCode": "K2A0S7",
        "streetName": "DOVERCOURT",
        "streetDirectionId": null,
        "streetTypeId": "AVE",
        "placeName": "OTTAWA",
        "streetNameDisplayText": "DOVERCOURT AVE, OTTAWA"
      }
    ]
  },
  {
    "postal": "K2A8B9",
    "result": []
  },
  {
    "postal": "K2A2A6",
    "result": [
      {
        "electoralDistricts": [
          {
            "election": null,
            "id": 78,
            "name": "Ottawa Centre"
          }
        ],
        "pollDivisionIds": [
          10140533
        ],
        "postalCode": "K2A2A6",
        "streetName": "ROOSEVELT",
        "streetDirectionId": null,
        "streetTypeId": "AVE",
        "placeName": "OTTAWA",
        "streetNameDisplayText": "ROOSEVELT AVE, OTTAWA"
      }
    ]
  },
  {
    "postal": "K2A7V2",
    "result": []
  },
  {
    "postal": "K2A9P4",
    "result": []
  },
  {
    "postal": "K2A6G0",
    "result": []
  },
  {
    "postal": "K2A2K0",
    "result": []
  },
  {
    "postal": "K2A7N6",
    "result": []
  },
  {
    "postal": "K2A5R3",
    "result": []
  },
  {
    "postal": "K2A7K0",
    "result": []
  },
  {
    "postal": "K2A3R2",
    "result": [
      {
        "electoralDistricts": [
          {
            "election": null,
            "id": 81,
            "name": "Ottawa West—Nepean"
          }
        ],
        "pollDivisionIds": [
          10140830
        ],
        "postalCode": "K2A3R2",
        "streetName": "LOCKHART",
        "streetDirectionId": "N",
        "streetTypeId": "AVE",
        "placeName": "OTTAWA",
        "streetNameDisplayText": "LOCKHART AVE N, OTTAWA"
      }
    ]
  },
  {
    "postal": "K2A0J1",
    "result": [
      {
        "electoralDistricts": [
          {
            "election": null,
            "id": 78,
            "name": "Ottawa Centre"
          }
        ],
        "pollDivisionIds": [
          10143718
        ],
        "postalCode": "K2A0J1",
        "streetName": "BYRON",
        "streetDirectionId": null,
        "streetTypeId": "AVE",
        "placeName": "OTTAWA",
        "streetNameDisplayText": "BYRON AVE, OTTAWA"
      }
    ]
  },
  {
    "postal": "K2A0B0",
    "result": []
  },
  {
    "postal": "K2A5Z2",
    "result": []
  },
  {
    "postal": "K2A7P3",
    "result": []
  },
  {
    "postal": "K2A2K3",
    "result": [
      {
        "electoralDistricts": [
          {
            "election": null,
            "id": 78,
            "name": "Ottawa Centre"
          }
        ],
        "pollDivisionIds": [
          10140538
        ],
        "postalCode": "K2A2K3",
        "streetName": "HIGHLAND",
        "streetDirectionId": null,
        "streetTypeId": "AVE",
        "placeName": "OTTAWA",
        "streetNameDisplayText": "HIGHLAND AVE, OTTAWA"
      }
    ]
  },
  {
    "postal": "K2A7Y6",
    "result": []
  },
  {
    "postal": "K2A1L9",
    "result": [
      {
        "electoralDistricts": [
          {
            "election": null,
            "id": 78,
            "name": "Ottawa Centre"
          }
        ],
        "pollDivisionIds": [
          10140537
        ],
        "postalCode": "K2A1L9",
        "streetName": "ERNEST",
        "streetDirectionId": null,
        "streetTypeId": "AVE",
        "placeName": "OTTAWA",
        "streetNameDisplayText": "ERNEST AVE, OTTAWA"
      }
    ]
  },
  {
    "postal": "K2A8T0",
    "result": []
  },
  {
    "postal": "K2A3K8",
    "result": [
      {
        "electoralDistricts": [
          {
            "election": null,
            "id": 81,
            "name": "Ottawa West—Nepean"
          }
        ],
        "pollDivisionIds": [
          10140830
        ],
        "postalCode": "K2A3K8",
        "streetName": "BLACK FRIARS",
        "streetDirectionId": null,
        "streetTypeId": "RD",
        "placeName": "OTTAWA",
        "streetNameDisplayText": "BLACK FRIARS RD, OTTAWA"
      }
    ]
  },
  {
    "postal": "K2A5W9",
    "result": []
  },
  {
    "postal": "K2A6T9",
    "result": []
  },
  {
    "postal": "K2A4H1",
    "result": [
      {
        "electoralDistricts": [
          {
            "election": null,
            "id": 78,
            "name": "Ottawa Centre"
          }
        ],
        "pollDivisionIds": [
          10140532
        ],
        "postalCode": "K2A4H1",
        "streetName": "RICHMOND",
        "streetDirectionId": null,
        "streetTypeId": "RD",
        "placeName": "OTTAWA",
        "streetNameDisplayText": "RICHMOND RD, OTTAWA"
      }
    ]
  },
  {
    "postal": "K2A7A2",
    "result": []
  },
  {
    "postal": "K2A5G0",
    "result": []
  },
  {
    "postal": "K2A8V5",
    "result": []
  },
  {
    "postal": "K2A2Y8",
    "result": [
      {
        "electoralDistricts": [
          {
            "election": null,
            "id": 78,
            "name": "Ottawa Centre"
          }
        ],
        "pollDivisionIds": [
          10143718
        ],
        "postalCode": "K2A2Y8",
        "streetName": "GAINSBOROUGH",
        "streetDirectionId": null,
        "streetTypeId": "AVE",
        "placeName": "OTTAWA",
        "streetNameDisplayText": "GAINSBOROUGH AVE, OTTAWA"
      }
    ]
  },
  {
    "postal": "K2A2B6",
    "result": [
      {
        "electoralDistricts": [
          {
            "election": null,
            "id": 78,
            "name": "Ottawa Centre"
          }
        ],
        "pollDivisionIds": [
          10140533
        ],
        "postalCode": "K2A2B6",
        "streetName": "COLE",
        "streetDirectionId": "S",
        "streetTypeId": "AVE",
        "placeName": "OTTAWA",
        "streetNameDisplayText": "COLE AVE S, OTTAWA"
      }
    ]
  },
  {
    "postal": "K2A4W8",
    "result": []
  },
  {
    "postal": "K2A8H7",
    "result": []
  },
  {
    "postal": "K2A5P1",
    "result": []
  },
  {
    "postal": "K2A2B8",
    "result": [
      {
        "electoralDistricts": [
          {
            "election": null,
            "id": 78,
            "name": "Ottawa Centre"
          }
        ],
        "pollDivisionIds": [
          10140533
        ],
        "postalCode": "K2A2B8",
        "streetName": "COLE",
        "streetDirectionId": "S",
        "streetTypeId": "AVE",
        "placeName": "OTTAWA",
        "streetNameDisplayText": "COLE AVE S, OTTAWA"
      }
    ]
  },
  {
    "postal": "K2A0P2",
    "result": [
      {
        "electoralDistricts": [
          {
            "election": null,
            "id": 78,
            "name": "Ottawa Centre"
          }
        ],
        "pollDivisionIds": [
          10143718
        ],
        "postalCode": "K2A0P2",
        "streetName": "KEENAN",
        "streetDirectionId": null,
        "streetTypeId": "AVE",
        "placeName": "OTTAWA",
        "streetNameDisplayText": "KEENAN AVE, OTTAWA"
      }
    ]
  },
  {
    "postal": "K2A9M1",
    "result": []
  },
  {
    "postal": "K2A3G0",
    "result": []
  },
  {
    "postal": "K2A9Z2",
    "result": []
  },
  {
    "postal": "K2A2A0",
    "result": []
  },
  {
    "postal": "K2A6Y0",
    "result": []
  },
  {
    "postal": "K2A2Z8",
    "result": [
      {
        "electoralDistricts": [
          {
            "election": null,
            "id": 81,
            "name": "Ottawa West—Nepean"
          }
        ],
        "pollDivisionIds": [
          10140836
        ],
        "postalCode": "K2A2Z8",
        "streetName": "MAPLECREST",
        "streetDirectionId": null,
        "streetTypeId": "AVE",
        "placeName": "OTTAWA",
        "streetNameDisplayText": "MAPLECREST AVE, OTTAWA"
      }
    ]
  },
  {
    "postal": "K2A7Y3",
    "result": []
  },
  {
    "postal": "K2A6Z5",
    "result": []
  },
  {
    "postal": "K2A6E0",
    "result": []
  },
  {
    "postal": "K2A9B7",
    "result": []
  },
  {
    "postal": "K2A9S5",
    "result": []
  },
  {
    "postal": "K2A3X3",
    "result": [
      {
        "electoralDistricts": [
          {
            "election": null,
            "id": 78,
            "name": "Ottawa Centre"
          }
        ],
        "pollDivisionIds": [
          10140533
        ],
        "postalCode": "K2A3X3",
        "streetName": "BROADVIEW",
        "streetDirectionId": null,
        "streetTypeId": "AVE",
        "placeName": "OTTAWA",
        "streetNameDisplayText": "BROADVIEW AVE, OTTAWA"
      }
    ]
  },
  {
    "postal": "K2A7R5",
    "result": []
  },
  {
    "postal": "K2A2X3",
    "result": [
      {
        "electoralDistricts": [
          {
            "election": null,
            "id": 81,
            "name": "Ottawa West—Nepean"
          }
        ],
        "pollDivisionIds": [
          10140836
        ],
        "postalCode": "K2A2X3",
        "streetName": "WINDERMERE",
        "streetDirectionId": null,
        "streetTypeId": "AVE",
        "placeName": "OTTAWA",
        "streetNameDisplayText": "WINDERMERE AVE, OTTAWA"
      }
    ]
  },
  {
    "postal": "K2A8Z9",
    "result": []
  },
  {
    "postal": "K2A0N4",
    "result": [
      {
        "electoralDistricts": [
          {
            "election": null,
            "id": 78,
            "name": "Ottawa Centre"
          }
        ],
        "pollDivisionIds": [
          10143718
        ],
        "postalCode": "K2A0N4",
        "streetName": "PRINCETON",
        "streetDirectionId": null,
        "streetTypeId": "AVE",
        "placeName": "OTTAWA",
        "streetNameDisplayText": "PRINCETON AVE, OTTAWA"
      }
    ]
  },
  {
    "postal": "K2A1K1",
    "result": [
      {
        "electoralDistricts": [
          {
            "election": null,
            "id": 81,
            "name": "Ottawa West—Nepean"
          }
        ],
        "pollDivisionIds": [
          10140836
        ],
        "postalCode": "K2A1K1",
        "streetName": "LENESTER",
        "streetDirectionId": null,
        "streetTypeId": "AVE",
        "placeName": "OTTAWA",
        "streetNameDisplayText": "LENESTER AVE, OTTAWA"
      }
    ]
  },
  {
    "postal": "K2A1S3",
    "result": [
      {
        "electoralDistricts": [
          {
            "election": null,
            "id": 81,
            "name": "Ottawa West—Nepean"
          }
        ],
        "pollDivisionIds": [
          10140836
        ],
        "postalCode": "K2A1S3",
        "streetName": "CARLING",
        "streetDirectionId": null,
        "streetTypeId": "AVE",
        "placeName": "OTTAWA",
        "streetNameDisplayText": "CARLING AVE, OTTAWA"
      }
    ]
  },
  {
    "postal": "K2A6M4",
    "result": []
  },
  {
    "postal": "K2A9A9",
    "result": []
  },
  {
    "postal": "K2A9Z9",
    "result": []
  },
  {
    "postal": "K2A6T4",
    "result": []
  },
  {
    "postal": "K2A0B2",
    "result": [
      {
        "electoralDistricts": [
          {
            "election": null,
            "id": 78,
            "name": "Ottawa Centre"
          }
        ],
        "pollDivisionIds": [
          10140532
        ],
        "postalCode": "K2A0B2",
        "streetName": "WILMONT",
        "streetDirectionId": null,
        "streetTypeId": "AVE",
        "placeName": "OTTAWA",
        "streetNameDisplayText": "WILMONT AVE, OTTAWA"
      }
    ]
  },
  {
    "postal": "K2A2L9",
    "result": [
      {
        "electoralDistricts": [
          {
            "election": null,
            "id": 78,
            "name": "Ottawa Centre"
          }
        ],
        "pollDivisionIds": [
          10140533
        ],
        "postalCode": "K2A2L9",
        "streetName": "BROADVIEW",
        "streetDirectionId": null,
        "streetTypeId": "AVE",
        "placeName": "OTTAWA",
        "streetNameDisplayText": "BROADVIEW AVE, OTTAWA"
      }
    ]
  },
  {
    "postal": "K2A8K9",
    "result": []
  },
  {
    "postal": "K2A2H9",
    "result": [
      {
        "electoralDistricts": [
          {
            "election": null,
            "id": 78,
            "name": "Ottawa Centre"
          }
        ],
        "pollDivisionIds": [
          10140538
        ],
        "postalCode": "K2A2H9",
        "streetName": "BRIERWOOD",
        "streetDirectionId": null,
        "streetTypeId": "AVE",
        "placeName": "OTTAWA",
        "streetNameDisplayText": "BRIERWOOD AVE, OTTAWA"
      }
    ]
  },
  {
    "postal": "K2A3Z6",
    "result": []
  },
  {
    "postal": "K2A3B0",
    "result": []
  },
  {
    "postal": "K2A2H8",
    "result": [
      {
        "electoralDistricts": [
          {
            "election": null,
            "id": 78,
            "name": "Ottawa Centre"
          }
        ],
        "pollDivisionIds": [
          10140538
        ],
        "postalCode": "K2A2H8",
        "streetName": "BRIERWOOD",
        "streetDirectionId": null,
        "streetTypeId": "AVE",
        "placeName": "OTTAWA",
        "streetNameDisplayText": "BRIERWOOD AVE, OTTAWA"
      }
    ]
  },
  {
    "postal": "K2A3X2",
    "result": [
      {
        "electoralDistricts": [
          {
            "election": null,
            "id": 81,
            "name": "Ottawa West—Nepean"
          }
        ],
        "pollDivisionIds": [
          10140830
        ],
        "postalCode": "K2A3X2",
        "streetName": "RICHMOND",
        "streetDirectionId": null,
        "streetTypeId": "RD",
        "placeName": "OTTAWA",
        "streetNameDisplayText": "RICHMOND RD, OTTAWA"
      }
    ]
  },
  {
    "postal": "K2A2E9",
    "result": [
      {
        "electoralDistricts": [
          {
            "election": null,
            "id": 78,
            "name": "Ottawa Centre"
          }
        ],
        "pollDivisionIds": [
          10140538
        ],
        "postalCode": "K2A2E9",
        "streetName": "GOLDEN",
        "streetDirectionId": null,
        "streetTypeId": "AVE",
        "placeName": "OTTAWA",
        "streetNameDisplayText": "GOLDEN AVE, OTTAWA"
      }
    ]
  },
  {
    "postal": "K2A9P6",
    "result": []
  },
  {
    "postal": "K2A9E2",
    "result": []
  },
  {
    "postal": "K2A9H2",
    "result": []
  },
  {
    "postal": "K2A1S8",
    "result": []
  },
  {
    "postal": "K2A3M6",
    "result": [
      {
        "electoralDistricts": [
          {
            "election": null,
            "id": 81,
            "name": "Ottawa West—Nepean"
          }
        ],
        "pollDivisionIds": [
          10140836
        ],
        "postalCode": "K2A3M6",
        "streetName": "IROQUOIS",
        "streetDirectionId": null,
        "streetTypeId": "RD",
        "placeName": "OTTAWA",
        "streetNameDisplayText": "IROQUOIS RD, OTTAWA"
      }
    ]
  },
  {
    "postal": "K2A6Z8",
    "result": []
  },
  {
    "postal": "K2A4J2",
    "result": []
  },
  {
    "postal": "K2A9Y1",
    "result": []
  },
  {
    "postal": "K2A8V6",
    "result": []
  },
  {
    "postal": "K2A6B2",
    "result": []
  },
  {
    "postal": "K2A1P8",
    "result": [
      {
        "electoralDistricts": [
          {
            "election": null,
            "id": 81,
            "name": "Ottawa West—Nepean"
          }
        ],
        "pollDivisionIds": [
          10140835
        ],
        "postalCode": "K2A1P8",
        "streetName": "QUEENSGROVE",
        "streetDirectionId": null,
        "streetTypeId": "RD",
        "placeName": "OTTAWA",
        "streetNameDisplayText": "QUEENSGROVE RD, OTTAWA"
      }
    ]
  },
  {
    "postal": "K2A0V8",
    "result": [
      {
        "electoralDistricts": [
          {
            "election": null,
            "id": 78,
            "name": "Ottawa Centre"
          }
        ],
        "pollDivisionIds": [
          10140533
        ],
        "postalCode": "K2A0V8",
        "streetName": "DOVERCOURT",
        "streetDirectionId": null,
        "streetTypeId": "AVE",
        "placeName": "OTTAWA",
        "streetNameDisplayText": "DOVERCOURT AVE, OTTAWA"
      }
    ]
  },
  {
    "postal": "K2A4Y0",
    "result": []
  },
  {
    "postal": "K2A2T4",
    "result": [
      {
        "electoralDistricts": [
          {
            "election": null,
            "id": 78,
            "name": "Ottawa Centre"
          }
        ],
        "pollDivisionIds": [
          10143718
        ],
        "postalCode": "K2A2T4",
        "streetName": "MANSFIELD",
        "streetDirectionId": null,
        "streetTypeId": "AVE",
        "placeName": "OTTAWA",
        "streetNameDisplayText": "MANSFIELD AVE, OTTAWA"
      }
    ]
  },
  {
    "postal": "K2A2S3",
    "result": [
      {
        "electoralDistricts": [
          {
            "election": null,
            "id": 81,
            "name": "Ottawa West—Nepean"
          }
        ],
        "pollDivisionIds": [
          10140836
        ],
        "postalCode": "K2A2S3",
        "streetName": "MAITLAND",
        "streetDirectionId": null,
        "streetTypeId": "AVE",
        "placeName": "OTTAWA",
        "streetNameDisplayText": "MAITLAND AVE, OTTAWA"
      }
    ]
  },
  {
    "postal": "K2A0K0",
    "result": []
  },
  {
    "postal": "K2A5N1",
    "result": []
  },
  {
    "postal": "K2A7T0",
    "result": []
  },
  {
    "postal": "K2A9N2",
    "result": []
  },
  {
    "postal": "K2A5L1",
    "result": []
  },
  {
    "postal": "K2A7G5",
    "result": []
  },
  {
    "postal": "K2A6K2",
    "result": []
  },
  {
    "postal": "K2A6P9",
    "result": []
  },
  {
    "postal": "K2A0E6",
    "result": [
      {
        "electoralDistricts": [
          {
            "election": null,
            "id": 78,
            "name": "Ottawa Centre"
          }
        ],
        "pollDivisionIds": [
          10140534
        ],
        "postalCode": "K2A0E6",
        "streetName": "BYRON",
        "streetDirectionId": null,
        "streetTypeId": "AVE",
        "placeName": "OTTAWA",
        "streetNameDisplayText": "BYRON AVE, OTTAWA"
      }
    ]
  },
  {
    "postal": "K2A8R9",
    "result": []
  },
  {
    "postal": "K2A3G9",
    "result": [
      {
        "electoralDistricts": [
          {
            "election": null,
            "id": 81,
            "name": "Ottawa West—Nepean"
          }
        ],
        "pollDivisionIds": [
          10140835
        ],
        "postalCode": "K2A3G9",
        "streetName": "WOODROFFE",
        "streetDirectionId": null,
        "streetTypeId": "AVE",
        "placeName": "OTTAWA",
        "streetNameDisplayText": "WOODROFFE AVE, OTTAWA"
      }
    ]
  },
  {
    "postal": "K2A0V7",
    "result": [
      {
        "electoralDistricts": [
          {
            "election": null,
            "id": 78,
            "name": "Ottawa Centre"
          }
        ],
        "pollDivisionIds": [
          10143718
        ],
        "postalCode": "K2A0V7",
        "streetName": "DOVERCOURT",
        "streetDirectionId": null,
        "streetTypeId": "AVE",
        "placeName": "OTTAWA",
        "streetNameDisplayText": "DOVERCOURT AVE, OTTAWA"
      }
    ]
  },
  {
    "postal": "K2A2Z1",
    "result": [
      {
        "electoralDistricts": [
          {
            "election": null,
            "id": 78,
            "name": "Ottawa Centre"
          }
        ],
        "pollDivisionIds": [
          10140533
        ],
        "postalCode": "K2A2Z1",
        "streetName": "GAINSBOROUGH",
        "streetDirectionId": null,
        "streetTypeId": "AVE",
        "placeName": "OTTAWA",
        "streetNameDisplayText": "GAINSBOROUGH AVE, OTTAWA"
      }
    ]
  },
  {
    "postal": "K2A7N1",
    "result": []
  },
  {
    "postal": "K2A3C6",
    "result": [
      {
        "electoralDistricts": [
          {
            "election": null,
            "id": 81,
            "name": "Ottawa West—Nepean"
          }
        ],
        "pollDivisionIds": [
          10140830
        ],
        "postalCode": "K2A3C6",
        "streetName": "MANITOU",
        "streetDirectionId": null,
        "streetTypeId": "DR",
        "placeName": "OTTAWA",
        "streetNameDisplayText": "MANITOU DR, OTTAWA"
      }
    ]
  },
  {
    "postal": "K2A4M1",
    "result": []
  },
  {
    "postal": "K2A9K2",
    "result": []
  },
  {
    "postal": "K2A9S6",
    "result": []
  },
  {
    "postal": "K2A4X1",
    "result": []
  },
  {
    "postal": "K2A8W2",
    "result": []
  },
  {
    "postal": "K2A7N2",
    "result": []
  },
  {
    "postal": "K2A8S3",
    "result": []
  },
  {
    "postal": "K2A4V0",
    "result": []
  },
  {
    "postal": "K2A6W4",
    "result": []
  },
  {
    "postal": "K2A5M1",
    "result": []
  },
  {
    "postal": "K2A0S4",
    "result": [
      {
        "electoralDistricts": [
          {
            "election": null,
            "id": 78,
            "name": "Ottawa Centre"
          }
        ],
        "pollDivisionIds": [
          10140538
        ],
        "postalCode": "K2A0S4",
        "streetName": "AVONDALE",
        "streetDirectionId": null,
        "streetTypeId": "AVE",
        "placeName": "OTTAWA",
        "streetNameDisplayText": "AVONDALE AVE, OTTAWA"
      }
    ]
  },
  {
    "postal": "K2A5X6",
    "result": []
  },
  {
    "postal": "K2A8L5",
    "result": []
  },
  {
    "postal": "K2A5M8",
    "result": []
  },
  {
    "postal": "K2A2G3",
    "result": [
      {
        "electoralDistricts": [
          {
            "election": null,
            "id": 78,
            "name": "Ottawa Centre"
          }
        ],
        "pollDivisionIds": [
          10140533
        ],
        "postalCode": "K2A2G3",
        "streetName": "GOLDEN",
        "streetDirectionId": null,
        "streetTypeId": "AVE",
        "placeName": "OTTAWA",
        "streetNameDisplayText": "GOLDEN AVE, OTTAWA"
      }
    ]
  },
  {
    "postal": "K2A8E4",
    "result": []
  },
  {
    "postal": "K2A7S9",
    "result": []
  },
  {
    "postal": "K2A1K3",
    "result": [
      {
        "electoralDistricts": [
          {
            "election": null,
            "id": 81,
            "name": "Ottawa West—Nepean"
          }
        ],
        "pollDivisionIds": [
          10140835
        ],
        "postalCode": "K2A1K3",
        "streetName": "LENESTER",
        "streetDirectionId": null,
        "streetTypeId": "AVE",
        "placeName": "OTTAWA",
        "streetNameDisplayText": "LENESTER AVE, OTTAWA"
      }
    ]
  },
  {
    "postal": "K2A4E1",
    "result": [
      {
        "electoralDistricts": [
          {
            "election": null,
            "id": 78,
            "name": "Ottawa Centre"
          }
        ],
        "pollDivisionIds": [
          10140534
        ],
        "postalCode": "K2A4E1",
        "streetName": "PRINCETON",
        "streetDirectionId": null,
        "streetTypeId": "AVE",
        "placeName": "OTTAWA",
        "streetNameDisplayText": "PRINCETON AVE, OTTAWA"
      }
    ]
  },
  {
    "postal": "K2A4R2",
    "result": []
  },
  {
    "postal": "K2A6T0",
    "result": []
  },
  {
    "postal": "K2A3K5",
    "result": [
      {
        "electoralDistricts": [
          {
            "election": null,
            "id": 81,
            "name": "Ottawa West—Nepean"
          }
        ],
        "pollDivisionIds": [
          10140830
        ],
        "postalCode": "K2A3K5",
        "streetName": "BLACK FRIARS",
        "streetDirectionId": null,
        "streetTypeId": "RD",
        "placeName": "OTTAWA",
        "streetNameDisplayText": "BLACK FRIARS RD, OTTAWA"
      }
    ]
  },
  {
    "postal": "K2A3S3",
    "result": [
      {
        "electoralDistricts": [
          {
            "election": null,
            "id": 81,
            "name": "Ottawa West—Nepean"
          }
        ],
        "pollDivisionIds": [
          10140830
        ],
        "postalCode": "K2A3S3",
        "streetName": "COLE PORTER",
        "streetDirectionId": null,
        "streetTypeId": "ST",
        "placeName": "OTTAWA",
        "streetNameDisplayText": "COLE PORTER ST, OTTAWA"
      }
    ]
  },
  {
    "postal": "K2A3L4",
    "result": [
      {
        "electoralDistricts": [
          {
            "election": null,
            "id": 81,
            "name": "Ottawa West—Nepean"
          }
        ],
        "pollDivisionIds": [
          10140836
        ],
        "postalCode": "K2A3L4",
        "streetName": "NEEPAWA",
        "streetDirectionId": null,
        "streetTypeId": "AVE",
        "placeName": "OTTAWA",
        "streetNameDisplayText": "NEEPAWA AVE, OTTAWA"
      }
    ]
  },
  {
    "postal": "K2A9Y2",
    "result": []
  },
  {
    "postal": "K2A1E0",
    "result": []
  },
  {
    "postal": "K2A9A4",
    "result": []
  },
  {
    "postal": "K2A1L3",
    "result": [
      {
        "electoralDistricts": [
          {
            "election": null,
            "id": 81,
            "name": "Ottawa West—Nepean"
          }
        ],
        "pollDivisionIds": [
          10140835
        ],
        "postalCode": "K2A1L3",
        "streetName": "LENESTER",
        "streetDirectionId": null,
        "streetTypeId": "AVE",
        "placeName": "OTTAWA",
        "streetNameDisplayText": "LENESTER AVE, OTTAWA"
      }
    ]
  },
  {
    "postal": "K2A6N1",
    "result": []
  },
  {
    "postal": "K2A6G7",
    "result": []
  },
  {
    "postal": "K2A7W1",
    "result": []
  },
  {
    "postal": "K2A4M6",
    "result": []
  },
  {
    "postal": "K2A1K0",
    "result": []
  },
  {
    "postal": "K2A3E2",
    "result": [
      {
        "electoralDistricts": [
          {
            "election": null,
            "id": 78,
            "name": "Ottawa Centre"
          }
        ],
        "pollDivisionIds": [
          10143718
        ],
        "postalCode": "K2A3E2",
        "streetName": "ROWANWOOD",
        "streetDirectionId": null,
        "streetTypeId": "AVE",
        "placeName": "OTTAWA",
        "streetNameDisplayText": "ROWANWOOD AVE, OTTAWA"
      }
    ]
  },
  {
    "postal": "K2A5H4",
    "result": []
  },
  {
    "postal": "K2A1K7",
    "result": [
      {
        "electoralDistricts": [
          {
            "election": null,
            "id": 81,
            "name": "Ottawa West—Nepean"
          }
        ],
        "pollDivisionIds": [
          10140835
        ],
        "postalCode": "K2A1K7",
        "streetName": "LENESTER",
        "streetDirectionId": null,
        "streetTypeId": "AVE",
        "placeName": "OTTAWA",
        "streetNameDisplayText": "LENESTER AVE, OTTAWA"
      }
    ]
  },
  {
    "postal": "K2A0H0",
    "result": []
  },
  {
    "postal": "K2A0J3",
    "result": [
      {
        "electoralDistricts": [
          {
            "election": null,
            "id": 81,
            "name": "Ottawa West—Nepean"
          }
        ],
        "pollDivisionIds": [
          10140830
        ],
        "postalCode": "K2A0J3",
        "streetName": "BYRON",
        "streetDirectionId": null,
        "streetTypeId": "AVE",
        "placeName": "OTTAWA",
        "streetNameDisplayText": "BYRON AVE, OTTAWA"
      }
    ]
  },
  {
    "postal": "K2A1X6",
    "result": [
      {
        "electoralDistricts": [
          {
            "election": null,
            "id": 78,
            "name": "Ottawa Centre"
          }
        ],
        "pollDivisionIds": [
          10140531
        ],
        "postalCode": "K2A1X6",
        "streetName": "ATLANTIS",
        "streetDirectionId": null,
        "streetTypeId": "AVE",
        "placeName": "OTTAWA",
        "streetNameDisplayText": "ATLANTIS AVE, OTTAWA"
      }
    ]
  },
  {
    "postal": "K2A2Z6",
    "result": [
      {
        "electoralDistricts": [
          {
            "election": null,
            "id": 81,
            "name": "Ottawa West—Nepean"
          }
        ],
        "pollDivisionIds": [
          10140836
        ],
        "postalCode": "K2A2Z6",
        "streetName": "CASTLEWOOD",
        "streetDirectionId": null,
        "streetTypeId": "AVE",
        "placeName": "OTTAWA",
        "streetNameDisplayText": "CASTLEWOOD AVE, OTTAWA"
      }
    ]
  },
  {
    "postal": "K2A4R9",
    "result": []
  },
  {
    "postal": "K2A0W8",
    "result": [
      {
        "electoralDistricts": [
          {
            "election": null,
            "id": 78,
            "name": "Ottawa Centre"
          }
        ],
        "pollDivisionIds": [
          10140533
        ],
        "postalCode": "K2A0W8",
        "streetName": "DOVERCOURT",
        "streetDirectionId": null,
        "streetTypeId": "AVE",
        "placeName": "OTTAWA",
        "streetNameDisplayText": "DOVERCOURT AVE, OTTAWA"
      }
    ]
  },
  {
    "postal": "K2A1L4",
    "result": [
      {
        "electoralDistricts": [
          {
            "election": null,
            "id": 81,
            "name": "Ottawa West—Nepean"
          }
        ],
        "pollDivisionIds": [
          10140835
        ],
        "postalCode": "K2A1L4",
        "streetName": "LENESTER",
        "streetDirectionId": null,
        "streetTypeId": "AVE",
        "placeName": "OTTAWA",
        "streetNameDisplayText": "LENESTER AVE, OTTAWA"
      }
    ]
  },
  {
    "postal": "K2A0C8",
    "result": [
      {
        "electoralDistricts": [
          {
            "election": null,
            "id": 81,
            "name": "Ottawa West—Nepean"
          }
        ],
        "pollDivisionIds": [
          10140830
        ],
        "postalCode": "K2A0C8",
        "streetName": "SAUNDERS",
        "streetDirectionId": null,
        "streetTypeId": "AVE",
        "placeName": "OTTAWA",
        "streetNameDisplayText": "SAUNDERS AVE, OTTAWA"
      }
    ]
  },
  {
    "postal": "K2A9X7",
    "result": []
  },
  {
    "postal": "K2A4T1",
    "result": []
  },
  {
    "postal": "K2A0M0",
    "result": []
  },
  {
    "postal": "K2A6A2",
    "result": []
  },
  {
    "postal": "K2A9S8",
    "result": []
  },
  {
    "postal": "K2A9T4",
    "result": []
  },
  {
    "postal": "K2A9Y4",
    "result": []
  },
  {
    "postal": "K2A6G5",
    "result": []
  },
  {
    "postal": "K2A6H9",
    "result": []
  },
  {
    "postal": "K2A2P3",
    "result": [
      {
        "electoralDistricts": [
          {
            "election": null,
            "id": 78,
            "name": "Ottawa Centre"
          }
        ],
        "pollDivisionIds": [
          10140533
        ],
        "postalCode": "K2A2P3",
        "streetName": "DENBURY",
        "streetDirectionId": null,
        "streetTypeId": "AVE",
        "placeName": "OTTAWA",
        "streetNameDisplayText": "DENBURY AVE, OTTAWA"
      }
    ]
  },
  {
    "postal": "K2A1T6",
    "result": [
      {
        "electoralDistricts": [
          {
            "election": null,
            "id": 78,
            "name": "Ottawa Centre"
          }
        ],
        "pollDivisionIds": [
          10140531
        ],
        "postalCode": "K2A1T6",
        "streetName": "ROYAL",
        "streetDirectionId": null,
        "streetTypeId": "AVE",
        "placeName": "OTTAWA",
        "streetNameDisplayText": "ROYAL AVE, OTTAWA"
      }
    ]
  },
  {
    "postal": "K2A4P6",
    "result": []
  },
  {
    "postal": "K2A3K1",
    "result": [
      {
        "electoralDistricts": [
          {
            "election": null,
            "id": 81,
            "name": "Ottawa West—Nepean"
          }
        ],
        "pollDivisionIds": [
          10140835
        ],
        "postalCode": "K2A3K1",
        "streetName": "KINGSMERE",
        "streetDirectionId": null,
        "streetTypeId": "AVE",
        "placeName": "OTTAWA",
        "streetNameDisplayText": "KINGSMERE AVE, OTTAWA"
      }
    ]
  },
  {
    "postal": "K2A6X4",
    "result": []
  },
  {
    "postal": "K2A4M8",
    "result": []
  },
  {
    "postal": "K2A2Y1",
    "result": [
      {
        "electoralDistricts": [
          {
            "election": null,
            "id": 81,
            "name": "Ottawa West—Nepean"
          }
        ],
        "pollDivisionIds": [
          10140836
        ],
        "postalCode": "K2A2Y1",
        "streetName": "KILLEEN",
        "streetDirectionId": null,
        "streetTypeId": "AVE",
        "placeName": "OTTAWA",
        "streetNameDisplayText": "KILLEEN AVE, OTTAWA"
      }
    ]
  },
  {
    "postal": "K2A6M1",
    "result": []
  },
  {
    "postal": "K2A5L8",
    "result": []
  },
  {
    "postal": "K2A3P6",
    "result": [
      {
        "electoralDistricts": [
          {
            "election": null,
            "id": 81,
            "name": "Ottawa West—Nepean"
          }
        ],
        "pollDivisionIds": [
          10140830
        ],
        "postalCode": "K2A3P6",
        "streetName": "AYLEN",
        "streetDirectionId": null,
        "streetTypeId": "AVE",
        "placeName": "OTTAWA",
        "streetNameDisplayText": "AYLEN AVE, OTTAWA"
      }
    ]
  },
  {
    "postal": "K2A9A5",
    "result": []
  },
  {
    "postal": "K2A7K1",
    "result": []
  },
  {
    "postal": "K2A3J4",
    "result": [
      {
        "electoralDistricts": [
          {
            "election": null,
            "id": 81,
            "name": "Ottawa West—Nepean"
          }
        ],
        "pollDivisionIds": [
          10140835
        ],
        "postalCode": "K2A3J4",
        "streetName": "HARE",
        "streetDirectionId": null,
        "streetTypeId": "AVE",
        "placeName": "OTTAWA",
        "streetNameDisplayText": "HARE AVE, OTTAWA"
      }
    ]
  },
  {
    "postal": "K2A5E7",
    "result": []
  },
  {
    "postal": "K2A3A7",
    "result": [
      {
        "electoralDistricts": [
          {
            "election": null,
            "id": 78,
            "name": "Ottawa Centre"
          }
        ],
        "pollDivisionIds": [
          10143718
        ],
        "postalCode": "K2A3A7",
        "streetName": "WAVELL",
        "streetDirectionId": null,
        "streetTypeId": "AVE",
        "placeName": "OTTAWA",
        "streetNameDisplayText": "WAVELL AVE, OTTAWA"
      }
    ]
  },
  {
    "postal": "K2A1B9",
    "result": [
      {
        "electoralDistricts": [
          {
            "election": null,
            "id": 81,
            "name": "Ottawa West—Nepean"
          }
        ],
        "pollDivisionIds": [
          10140836
        ],
        "postalCode": "K2A1B9",
        "streetName": "BROMLEY",
        "streetDirectionId": null,
        "streetTypeId": "RD",
        "placeName": "OTTAWA",
        "streetNameDisplayText": "BROMLEY RD, OTTAWA"
      }
    ]
  },
  {
    "postal": "K2A9E8",
    "result": []
  },
  {
    "postal": "K2A1C9",
    "result": [
      {
        "electoralDistricts": [
          {
            "election": null,
            "id": 78,
            "name": "Ottawa Centre"
          }
        ],
        "pollDivisionIds": [
          10140533
        ],
        "postalCode": "K2A1C9",
        "streetName": "CARLING",
        "streetDirectionId": null,
        "streetTypeId": "AVE",
        "placeName": "OTTAWA",
        "streetNameDisplayText": "CARLING AVE, OTTAWA"
      }
    ]
  },
  {
    "postal": "K2A3B5",
    "result": [
      {
        "electoralDistricts": [
          {
            "election": null,
            "id": 78,
            "name": "Ottawa Centre"
          }
        ],
        "pollDivisionIds": [
          10143718
        ],
        "postalCode": "K2A3B5",
        "streetName": "COURTENAY",
        "streetDirectionId": null,
        "streetTypeId": "AVE",
        "placeName": "OTTAWA",
        "streetNameDisplayText": "COURTENAY AVE, OTTAWA"
      }
    ]
  },
  {
    "postal": "K2A8R0",
    "result": []
  },
  {
    "postal": "K2A3P2",
    "result": [
      {
        "electoralDistricts": [
          {
            "election": null,
            "id": 81,
            "name": "Ottawa West—Nepean"
          }
        ],
        "pollDivisionIds": [
          10140835
        ],
        "postalCode": "K2A3P2",
        "streetName": "AARON",
        "streetDirectionId": null,
        "streetTypeId": "AVE",
        "placeName": "OTTAWA",
        "streetNameDisplayText": "AARON AVE, OTTAWA"
      }
    ]
  },
  {
    "postal": "K2A5V4",
    "result": []
  },
  {
    "postal": "K2A4H0",
    "result": []
  },
  {
    "postal": "K2A4S7",
    "result": []
  },
  {
    "postal": "K2A6C2",
    "result": []
  },
  {
    "postal": "K2A8W3",
    "result": []
  },
  {
    "postal": "K2A4M5",
    "result": []
  },
  {
    "postal": "K2A5T1",
    "result": []
  },
  {
    "postal": "K2A3B3",
    "result": [
      {
        "electoralDistricts": [
          {
            "election": null,
            "id": 78,
            "name": "Ottawa Centre"
          }
        ],
        "pollDivisionIds": [
          10143718
        ],
        "postalCode": "K2A3B3",
        "streetName": "COURTENAY",
        "streetDirectionId": null,
        "streetTypeId": "AVE",
        "placeName": "OTTAWA",
        "streetNameDisplayText": "COURTENAY AVE, OTTAWA"
      }
    ]
  },
  {
    "postal": "K2A6C6",
    "result": []
  },
  {
    "postal": "K2A7N8",
    "result": []
  },
  {
    "postal": "K2A2Y3",
    "result": [
      {
        "electoralDistricts": [
          {
            "election": null,
            "id": 78,
            "name": "Ottawa Centre"
          }
        ],
        "pollDivisionIds": [
          10143718
        ],
        "postalCode": "K2A2Y3",
        "streetName": "GAINSBOROUGH",
        "streetDirectionId": "N",
        "streetTypeId": "AVE",
        "placeName": "OTTAWA",
        "streetNameDisplayText": "GAINSBOROUGH AVE N, OTTAWA"
      }
    ]
  },
  {
    "postal": "K2A2R6",
    "result": [
      {
        "electoralDistricts": [
          {
            "election": null,
            "id": 78,
            "name": "Ottawa Centre"
          }
        ],
        "pollDivisionIds": [
          10143718
        ],
        "postalCode": "K2A2R6",
        "streetName": "FRASER",
        "streetDirectionId": null,
        "streetTypeId": "AVE",
        "placeName": "OTTAWA",
        "streetNameDisplayText": "FRASER AVE, OTTAWA"
      }
    ]
  },
  {
    "postal": "K2A7N3",
    "result": []
  },
  {
    "postal": "K2A8J2",
    "result": []
  },
  {
    "postal": "K2A6A9",
    "result": []
  },
  {
    "postal": "K2A3V2",
    "result": [
      {
        "electoralDistricts": [
          {
            "election": null,
            "id": 81,
            "name": "Ottawa West—Nepean"
          }
        ],
        "pollDivisionIds": [
          10140830
        ],
        "postalCode": "K2A3V2",
        "streetName": "WOODROFFE",
        "streetDirectionId": null,
        "streetTypeId": "AVE",
        "placeName": "OTTAWA",
        "streetNameDisplayText": "WOODROFFE AVE, OTTAWA"
      }
    ]
  },
  {
    "postal": "K2A2N3",
    "result": [
      {
        "electoralDistricts": [
          {
            "election": null,
            "id": 78,
            "name": "Ottawa Centre"
          }
        ],
        "pollDivisionIds": [
          10140533
        ],
        "postalCode": "K2A2N3",
        "streetName": "HILLCREST",
        "streetDirectionId": "S",
        "streetTypeId": "AVE",
        "placeName": "OTTAWA",
        "streetNameDisplayText": "HILLCREST AVE S, OTTAWA"
      }
    ]
  },
  {
    "postal": "K2A1S5",
    "result": [
      {
        "electoralDistricts": [
          {
            "election": null,
            "id": 78,
            "name": "Ottawa Centre"
          }
        ],
        "pollDivisionIds": [
          10140534
        ],
        "postalCode": "K2A1S5",
        "streetName": "EDISON",
        "streetDirectionId": null,
        "streetTypeId": "AVE",
        "placeName": "OTTAWA",
        "streetNameDisplayText": "EDISON AVE, OTTAWA"
      },
      {
        "electoralDistricts": [
          {
            "election": null,
            "id": 78,
            "name": "Ottawa Centre"
          }
        ],
        "pollDivisionIds": [
          10140534
        ],
        "postalCode": "K2A1S5",
        "streetName": "RAVENHILL",
        "streetDirectionId": "E",
        "streetTypeId": "AVE",
        "placeName": "OTTAWA",
        "streetNameDisplayText": "RAVENHILL AVE E, OTTAWA"
      }
    ]
  },
  {
    "postal": "K2A4T7",
    "result": []
  },
  {
    "postal": "K2A6Y7",
    "result": []
  },
  {
    "postal": "K2A0W7",
    "result": [
      {
        "electoralDistricts": [
          {
            "election": null,
            "id": 78,
            "name": "Ottawa Centre"
          }
        ],
        "pollDivisionIds": [
          10140533
        ],
        "postalCode": "K2A0W7",
        "streetName": "DOVERCOURT",
        "streetDirectionId": null,
        "streetTypeId": "AVE",
        "placeName": "OTTAWA",
        "streetNameDisplayText": "DOVERCOURT AVE, OTTAWA"
      }
    ]
  },
  {
    "postal": "K2A2W9",
    "result": [
      {
        "electoralDistricts": [
          {
            "election": null,
            "id": 78,
            "name": "Ottawa Centre"
          }
        ],
        "pollDivisionIds": [
          10140533
        ],
        "postalCode": "K2A2W9",
        "streetName": "WINDERMERE",
        "streetDirectionId": null,
        "streetTypeId": "AVE",
        "placeName": "OTTAWA",
        "streetNameDisplayText": "WINDERMERE AVE, OTTAWA"
      }
    ]
  },
  {
    "postal": "K2A8V0",
    "result": []
  },
  {
    "postal": "K2A0H4",
    "result": [
      {
        "electoralDistricts": [
          {
            "election": null,
            "id": 78,
            "name": "Ottawa Centre"
          }
        ],
        "pollDivisionIds": [
          10143718
        ],
        "postalCode": "K2A0H4",
        "streetName": "BYRON",
        "streetDirectionId": null,
        "streetTypeId": "AVE",
        "placeName": "OTTAWA",
        "streetNameDisplayText": "BYRON AVE, OTTAWA"
      }
    ]
  },
  {
    "postal": "K2A2T1",
    "result": [
      {
        "electoralDistricts": [
          {
            "election": null,
            "id": 78,
            "name": "Ottawa Centre"
          }
        ],
        "pollDivisionIds": [
          10143718
        ],
        "postalCode": "K2A2T1",
        "streetName": "MANSFIELD",
        "streetDirectionId": null,
        "streetTypeId": "AVE",
        "placeName": "OTTAWA",
        "streetNameDisplayText": "MANSFIELD AVE, OTTAWA"
      }
    ]
  },
  {
    "postal": "K2A1B1",
    "result": [
      {
        "electoralDistricts": [
          {
            "election": null,
            "id": 81,
            "name": "Ottawa West—Nepean"
          }
        ],
        "pollDivisionIds": [
          10140836
        ],
        "postalCode": "K2A1B1",
        "streetName": "LAUDER",
        "streetDirectionId": null,
        "streetTypeId": "DR",
        "placeName": "OTTAWA",
        "streetNameDisplayText": "LAUDER DR, OTTAWA"
      }
    ]
  },
  {
    "postal": "K2A8B6",
    "result": []
  },
  {
    "postal": "K2A6H1",
    "result": []
  },
  {
    "postal": "K2A8T8",
    "result": []
  },
  {
    "postal": "K2A0T4",
    "result": [
      {
        "electoralDistricts": [
          {
            "election": null,
            "id": 78,
            "name": "Ottawa Centre"
          }
        ],
        "pollDivisionIds": [
          10140533
        ],
        "postalCode": "K2A0T4",
        "streetName": "DOVERCOURT",
        "streetDirectionId": null,
        "streetTypeId": "AVE",
        "placeName": "OTTAWA",
        "streetNameDisplayText": "DOVERCOURT AVE, OTTAWA"
      }
    ]
  },
  {
    "postal": "K2A2C4",
    "result": [
      {
        "electoralDistricts": [
          {
            "election": null,
            "id": 78,
            "name": "Ottawa Centre"
          }
        ],
        "pollDivisionIds": [
          10140537
        ],
        "postalCode": "K2A2C4",
        "streetName": "CAMPBELL",
        "streetDirectionId": null,
        "streetTypeId": "AVE",
        "placeName": "OTTAWA",
        "streetNameDisplayText": "CAMPBELL AVE, OTTAWA"
      }
    ]
  },
  {
    "postal": "K2A8N3",
    "result": []
  },
  {
    "postal": "K2A4L8",
    "result": []
  },
  {
    "postal": "K2A2B5",
    "result": [
      {
        "electoralDistricts": [
          {
            "election": null,
            "id": 78,
            "name": "Ottawa Centre"
          }
        ],
        "pollDivisionIds": [
          10140538
        ],
        "postalCode": "K2A2B5",
        "streetName": "COLE",
        "streetDirectionId": null,
        "streetTypeId": "AVE",
        "placeName": "OTTAWA",
        "streetNameDisplayText": "COLE AVE, OTTAWA"
      }
    ]
  },
  {
    "postal": "K2A3H1",
    "result": [
      {
        "electoralDistricts": [
          {
            "election": null,
            "id": 81,
            "name": "Ottawa West—Nepean"
          }
        ],
        "pollDivisionIds": [
          10140836
        ],
        "postalCode": "K2A3H1",
        "streetName": "SHERBOURNE",
        "streetDirectionId": null,
        "streetTypeId": "RD",
        "placeName": "OTTAWA",
        "streetNameDisplayText": "SHERBOURNE RD, OTTAWA"
      }
    ]
  },
  {
    "postal": "K2A4Y1",
    "result": []
  },
  {
    "postal": "K2A7E2",
    "result": []
  },
  {
    "postal": "K2A2P5",
    "result": [
      {
        "electoralDistricts": [
          {
            "election": null,
            "id": 78,
            "name": "Ottawa Centre"
          }
        ],
        "pollDivisionIds": [
          10140537
        ],
        "postalCode": "K2A2P5",
        "streetName": "REX",
        "streetDirectionId": null,
        "streetTypeId": "AVE",
        "placeName": "OTTAWA",
        "streetNameDisplayText": "REX AVE, OTTAWA"
      }
    ]
  },
  {
    "postal": "K2A8R7",
    "result": []
  },
  {
    "postal": "K2A9P1",
    "result": []
  },
  {
    "postal": "K2A3B8",
    "result": [
      {
        "electoralDistricts": [
          {
            "election": null,
            "id": 78,
            "name": "Ottawa Centre"
          }
        ],
        "pollDivisionIds": [
          10140533
        ],
        "postalCode": "K2A3B8",
        "streetName": "COURTENAY",
        "streetDirectionId": null,
        "streetTypeId": "AVE",
        "placeName": "OTTAWA",
        "streetNameDisplayText": "COURTENAY AVE, OTTAWA"
      }
    ]
  },
  {
    "postal": "K2A3P7",
    "result": [
      {
        "electoralDistricts": [
          {
            "election": null,
            "id": 81,
            "name": "Ottawa West—Nepean"
          }
        ],
        "pollDivisionIds": [
          10140830
        ],
        "postalCode": "K2A3P7",
        "streetName": "AYLEN",
        "streetDirectionId": null,
        "streetTypeId": "AVE",
        "placeName": "OTTAWA",
        "streetNameDisplayText": "AYLEN AVE, OTTAWA"
      }
    ]
  },
  {
    "postal": "K2A9B2",
    "result": []
  },
  {
    "postal": "K2A6Z3",
    "result": []
  },
  {
    "postal": "K2A4N5",
    "result": []
  },
  {
    "postal": "K2A8T3",
    "result": []
  },
  {
    "postal": "K2A1V2",
    "result": [
      {
        "electoralDistricts": [
          {
            "election": null,
            "id": 78,
            "name": "Ottawa Centre"
          }
        ],
        "pollDivisionIds": [
          10140534
        ],
        "postalCode": "K2A1V2",
        "streetName": "EDISON",
        "streetDirectionId": null,
        "streetTypeId": "AVE",
        "placeName": "OTTAWA",
        "streetNameDisplayText": "EDISON AVE, OTTAWA"
      }
    ]
  },
  {
    "postal": "K2A1Y0",
    "result": []
  },
  {
    "postal": "K2A3G6",
    "result": [
      {
        "electoralDistricts": [
          {
            "election": null,
            "id": 78,
            "name": "Ottawa Centre"
          }
        ],
        "pollDivisionIds": [
          10140533
        ],
        "postalCode": "K2A3G6",
        "streetName": "SHERBOURNE",
        "streetDirectionId": null,
        "streetTypeId": "RD",
        "placeName": "OTTAWA",
        "streetNameDisplayText": "SHERBOURNE RD, OTTAWA"
      }
    ]
  },
  {
    "postal": "K2A3H7",
    "result": [
      {
        "electoralDistricts": [
          {
            "election": null,
            "id": 78,
            "name": "Ottawa Centre"
          }
        ],
        "pollDivisionIds": [
          10140533
        ],
        "postalCode": "K2A3H7",
        "streetName": "SHERBOURNE",
        "streetDirectionId": null,
        "streetTypeId": "RD",
        "placeName": "OTTAWA",
        "streetNameDisplayText": "SHERBOURNE RD, OTTAWA"
      }
    ]
  },
  {
    "postal": "K2A7X8",
    "result": []
  },
  {
    "postal": "K2A0C7",
    "result": [
      {
        "electoralDistricts": [
          {
            "election": null,
            "id": 81,
            "name": "Ottawa West—Nepean"
          }
        ],
        "pollDivisionIds": [
          10140830
        ],
        "postalCode": "K2A0C7",
        "streetName": "SAUNDERS",
        "streetDirectionId": null,
        "streetTypeId": "AVE",
        "placeName": "OTTAWA",
        "streetNameDisplayText": "SAUNDERS AVE, OTTAWA"
      }
    ]
  },
  {
    "postal": "K2A0W9",
    "result": [
      {
        "electoralDistricts": [
          {
            "election": null,
            "id": 78,
            "name": "Ottawa Centre"
          }
        ],
        "pollDivisionIds": [
          10143718
        ],
        "postalCode": "K2A0W9",
        "streetName": "DOVERCOURT",
        "streetDirectionId": null,
        "streetTypeId": "AVE",
        "placeName": "OTTAWA",
        "streetNameDisplayText": "DOVERCOURT AVE, OTTAWA"
      }
    ]
  },
  {
    "postal": "K2A8E6",
    "result": []
  },
  {
    "postal": "K2A9Z8",
    "result": []
  },
  {
    "postal": "K2A3P4",
    "result": [
      {
        "electoralDistricts": [
          {
            "election": null,
            "id": 81,
            "name": "Ottawa West—Nepean"
          }
        ],
        "pollDivisionIds": [
          10140835
        ],
        "postalCode": "K2A3P4",
        "streetName": "RIDLEY",
        "streetDirectionId": null,
        "streetTypeId": "BLVD",
        "placeName": "OTTAWA",
        "streetNameDisplayText": "RIDLEY BLVD, OTTAWA"
      }
    ]
  },
  {
    "postal": "K2A6L8",
    "result": []
  },
  {
    "postal": "K2A2R4",
    "result": [
      {
        "electoralDistricts": [
          {
            "election": null,
            "id": 78,
            "name": "Ottawa Centre"
          }
        ],
        "pollDivisionIds": [
          10143718
        ],
        "postalCode": "K2A2R4",
        "streetName": "FRASER",
        "streetDirectionId": null,
        "streetTypeId": "AVE",
        "placeName": "OTTAWA",
        "streetNameDisplayText": "FRASER AVE, OTTAWA"
      }
    ]
  },
  {
    "postal": "K2A2W1",
    "result": [
      {
        "electoralDistricts": [
          {
            "election": null,
            "id": 81,
            "name": "Ottawa West—Nepean"
          }
        ],
        "pollDivisionIds": [
          10140836
        ],
        "postalCode": "K2A2W1",
        "streetName": "RIDDELL",
        "streetDirectionId": "N",
        "streetTypeId": "AVE",
        "placeName": "OTTAWA",
        "streetNameDisplayText": "RIDDELL AVE N, OTTAWA"
      }
    ]
  },
  {
    "postal": "K2A9H8",
    "result": []
  },
  {
    "postal": "K2A8X9",
    "result": []
  },
  {
    "postal": "K2A7H4",
    "result": []
  },
  {
    "postal": "K2A3J1",
    "result": [
      {
        "electoralDistricts": [
          {
            "election": null,
            "id": 81,
            "name": "Ottawa West—Nepean"
          }
        ],
        "pollDivisionIds": [
          10140835
        ],
        "postalCode": "K2A3J1",
        "streetName": "MUSKOKA",
        "streetDirectionId": null,
        "streetTypeId": "AVE",
        "placeName": "OTTAWA",
        "streetNameDisplayText": "MUSKOKA AVE, OTTAWA"
      }
    ]
  },
  {
    "postal": "K2A1P4",
    "result": [
      {
        "electoralDistricts": [
          {
            "election": null,
            "id": 81,
            "name": "Ottawa West—Nepean"
          }
        ],
        "pollDivisionIds": [
          10140835
        ],
        "postalCode": "K2A1P4",
        "streetName": "BENJAMIN",
        "streetDirectionId": null,
        "streetTypeId": "AVE",
        "placeName": "OTTAWA",
        "streetNameDisplayText": "BENJAMIN AVE, OTTAWA"
      }
    ]
  },
  {
    "postal": "K2A2A3",
    "result": [
      {
        "electoralDistricts": [
          {
            "election": null,
            "id": 78,
            "name": "Ottawa Centre"
          }
        ],
        "pollDivisionIds": [
          10140538
        ],
        "postalCode": "K2A2A3",
        "streetName": "ROOSEVELT",
        "streetDirectionId": null,
        "streetTypeId": "AVE",
        "placeName": "OTTAWA",
        "streetNameDisplayText": "ROOSEVELT AVE, OTTAWA"
      }
    ]
  },
  {
    "postal": "K2A0Z1",
    "result": [
      {
        "electoralDistricts": [
          {
            "election": null,
            "id": 78,
            "name": "Ottawa Centre"
          }
        ],
        "pollDivisionIds": [
          10140533
        ],
        "postalCode": "K2A0Z1",
        "streetName": "TILLBURY",
        "streetDirectionId": "W",
        "streetTypeId": "AVE",
        "placeName": "OTTAWA",
        "streetNameDisplayText": "TILLBURY AVE W, OTTAWA"
      }
    ]
  },
  {
    "postal": "K2A1C1",
    "result": [
      {
        "electoralDistricts": [
          {
            "election": null,
            "id": 81,
            "name": "Ottawa West—Nepean"
          }
        ],
        "pollDivisionIds": [
          10140836
        ],
        "postalCode": "K2A1C1",
        "streetName": "BROMLEY",
        "streetDirectionId": null,
        "streetTypeId": "RD",
        "placeName": "OTTAWA",
        "streetNameDisplayText": "BROMLEY RD, OTTAWA"
      }
    ]
  },
  {
    "postal": "K2A0H3",
    "result": [
      {
        "electoralDistricts": [
          {
            "election": null,
            "id": 78,
            "name": "Ottawa Centre"
          }
        ],
        "pollDivisionIds": [
          10143718
        ],
        "postalCode": "K2A0H3",
        "streetName": "BYRON",
        "streetDirectionId": null,
        "streetTypeId": "AVE",
        "placeName": "OTTAWA",
        "streetNameDisplayText": "BYRON AVE, OTTAWA"
      }
    ]
  },
  {
    "postal": "K2A7B0",
    "result": []
  },
  {
    "postal": "K2A5K2",
    "result": []
  },
  {
    "postal": "K2A1E9",
    "result": [
      {
        "electoralDistricts": [
          {
            "election": null,
            "id": 81,
            "name": "Ottawa West—Nepean"
          }
        ],
        "pollDivisionIds": [
          10140836
        ],
        "postalCode": "K2A1E9",
        "streetName": "CARLING",
        "streetDirectionId": null,
        "streetTypeId": "AVE",
        "placeName": "OTTAWA",
        "streetNameDisplayText": "CARLING AVE, OTTAWA"
      }
    ]
  },
  {
    "postal": "K2A9W7",
    "result": []
  },
  {
    "postal": "K2A5W6",
    "result": []
  },
  {
    "postal": "K2A6S6",
    "result": []
  },
  {
    "postal": "K2A2P8",
    "result": [
      {
        "electoralDistricts": [
          {
            "election": null,
            "id": 78,
            "name": "Ottawa Centre"
          }
        ],
        "pollDivisionIds": [
          10143718
        ],
        "postalCode": "K2A2P8",
        "streetName": "FRASER",
        "streetDirectionId": null,
        "streetTypeId": "AVE",
        "placeName": "OTTAWA",
        "streetNameDisplayText": "FRASER AVE, OTTAWA"
      }
    ]
  },
  {
    "postal": "K2A4P8",
    "result": []
  },
  {
    "postal": "K2A0V9",
    "result": [
      {
        "electoralDistricts": [
          {
            "election": null,
            "id": 78,
            "name": "Ottawa Centre"
          }
        ],
        "pollDivisionIds": [
          10143718
        ],
        "postalCode": "K2A0V9",
        "streetName": "DOVERCOURT",
        "streetDirectionId": null,
        "streetTypeId": "AVE",
        "placeName": "OTTAWA",
        "streetNameDisplayText": "DOVERCOURT AVE, OTTAWA"
      }
    ]
  },
  {
    "postal": "K2A5Y2",
    "result": []
  },
  {
    "postal": "K2A7Z7",
    "result": []
  },
  {
    "postal": "K2A6Y8",
    "result": []
  },
  {
    "postal": "K2A2G7",
    "result": [
      {
        "electoralDistricts": [
          {
            "election": null,
            "id": 78,
            "name": "Ottawa Centre"
          }
        ],
        "pollDivisionIds": [
          10140532
        ],
        "postalCode": "K2A2G7",
        "streetName": "BERKLEY",
        "streetDirectionId": null,
        "streetTypeId": "AVE",
        "placeName": "OTTAWA",
        "streetNameDisplayText": "BERKLEY AVE, OTTAWA"
      }
    ]
  },
  {
    "postal": "K2A8C1",
    "result": []
  },
  {
    "postal": "K2A5C5",
    "result": []
  },
  {
    "postal": "K2A2X8",
    "result": [
      {
        "electoralDistricts": [
          {
            "election": null,
            "id": 81,
            "name": "Ottawa West—Nepean"
          }
        ],
        "pollDivisionIds": [
          10140836
        ],
        "postalCode": "K2A2X8",
        "streetName": "KILLEEN",
        "streetDirectionId": null,
        "streetTypeId": "AVE",
        "placeName": "OTTAWA",
        "streetNameDisplayText": "KILLEEN AVE, OTTAWA"
      }
    ]
  },
  {
    "postal": "K2A1W5",
    "result": [
      {
        "electoralDistricts": [
          {
            "election": null,
            "id": 78,
            "name": "Ottawa Centre"
          }
        ],
        "pollDivisionIds": [
          10140534
        ],
        "postalCode": "K2A1W5",
        "streetName": "MELBOURNE",
        "streetDirectionId": null,
        "streetTypeId": "AVE",
        "placeName": "OTTAWA",
        "streetNameDisplayText": "MELBOURNE AVE, OTTAWA"
      }
    ]
  },
  {
    "postal": "K2A7G0",
    "result": []
  },
  {
    "postal": "K2A8J8",
    "result": []
  },
  {
    "postal": "K2A3Y0",
    "result": []
  },
  {
    "postal": "K2A9T7",
    "result": []
  },
  {
    "postal": "K2A5P4",
    "result": []
  },
  {
    "postal": "K2A4B0",
    "result": []
  },
  {
    "postal": "K2A9N8",
    "result": []
  },
  {
    "postal": "K2A4A7",
    "result": []
  },
  {
    "postal": "K2A4H9",
    "result": []
  },
  {
    "postal": "K2A6X1",
    "result": []
  },
  {
    "postal": "K2A9Y7",
    "result": []
  },
  {
    "postal": "K2A2Y5",
    "result": [
      {
        "electoralDistricts": [
          {
            "election": null,
            "id": 78,
            "name": "Ottawa Centre"
          }
        ],
        "pollDivisionIds": [
          10143718
        ],
        "postalCode": "K2A2Y5",
        "streetName": "GAINSBOROUGH",
        "streetDirectionId": null,
        "streetTypeId": "AVE",
        "placeName": "OTTAWA",
        "streetNameDisplayText": "GAINSBOROUGH AVE, OTTAWA"
      }
    ]
  },
  {
    "postal": "K2A8L7",
    "result": []
  },
  {
    "postal": "K2A2A8",
    "result": [
      {
        "electoralDistricts": [
          {
            "election": null,
            "id": 78,
            "name": "Ottawa Centre"
          }
        ],
        "pollDivisionIds": [
          10140533
        ],
        "postalCode": "K2A2A8",
        "streetName": "ROOSEVELT",
        "streetDirectionId": null,
        "streetTypeId": "AVE",
        "placeName": "OTTAWA",
        "streetNameDisplayText": "ROOSEVELT AVE, OTTAWA"
      }
    ]
  },
  {
    "postal": "K2A2K9",
    "result": [
      {
        "electoralDistricts": [
          {
            "election": null,
            "id": 78,
            "name": "Ottawa Centre"
          }
        ],
        "pollDivisionIds": [
          10140533
        ],
        "postalCode": "K2A2K9",
        "streetName": "HIGHLAND",
        "streetDirectionId": null,
        "streetTypeId": "AVE",
        "placeName": "OTTAWA",
        "streetNameDisplayText": "HIGHLAND AVE, OTTAWA"
      }
    ]
  },
  {
    "postal": "K2A3E5",
    "result": [
      {
        "electoralDistricts": [
          {
            "election": null,
            "id": 78,
            "name": "Ottawa Centre"
          }
        ],
        "pollDivisionIds": [
          10140533
        ],
        "postalCode": "K2A3E5",
        "streetName": "ROWANWOOD",
        "streetDirectionId": null,
        "streetTypeId": "AVE",
        "placeName": "OTTAWA",
        "streetNameDisplayText": "ROWANWOOD AVE, OTTAWA"
      }
    ]
  },
  {
    "postal": "K2A8N6",
    "result": []
  },
  {
    "postal": "K2A8J4",
    "result": []
  },
  {
    "postal": "K2A4R7",
    "result": []
  },
  {
    "postal": "K2A9K1",
    "result": []
  },
  {
    "postal": "K2A8E1",
    "result": []
  },
  {
    "postal": "K2A0R1",
    "result": [
      {
        "electoralDistricts": [
          {
            "election": null,
            "id": 81,
            "name": "Ottawa West—Nepean"
          }
        ],
        "pollDivisionIds": [
          10140830
        ],
        "postalCode": "K2A0R1",
        "streetName": "KNIGHTSBRIDGE",
        "streetDirectionId": null,
        "streetTypeId": "RD",
        "placeName": "OTTAWA",
        "streetNameDisplayText": "KNIGHTSBRIDGE RD, OTTAWA"
      }
    ]
  },
  {
    "postal": "K2A4J3",
    "result": []
  },
  {
    "postal": "K2A7E7",
    "result": []
  },
  {
    "postal": "K2A0J0",
    "result": []
  },
  {
    "postal": "K2A7R8",
    "result": []
  },
  {
    "postal": "K2A9X0",
    "result": []
  },
  {
    "postal": "K2A7P6",
    "result": []
  },
  {
    "postal": "K2A0R7",
    "result": [
      {
        "electoralDistricts": [
          {
            "election": null,
            "id": 78,
            "name": "Ottawa Centre"
          }
        ],
        "pollDivisionIds": [
          10140538
        ],
        "postalCode": "K2A0R7",
        "streetName": "AVONDALE",
        "streetDirectionId": null,
        "streetTypeId": "AVE",
        "placeName": "OTTAWA",
        "streetNameDisplayText": "AVONDALE AVE, OTTAWA"
      }
    ]
  },
  {
    "postal": "K2A5W1",
    "result": []
  },
  {
    "postal": "K2A0K4",
    "result": [
      {
        "electoralDistricts": [
          {
            "election": null,
            "id": 78,
            "name": "Ottawa Centre"
          }
        ],
        "pollDivisionIds": [
          10140534
        ],
        "postalCode": "K2A0K4",
        "streetName": "KENWOOD",
        "streetDirectionId": null,
        "streetTypeId": "AVE",
        "placeName": "OTTAWA",
        "streetNameDisplayText": "KENWOOD AVE, OTTAWA"
      }
    ]
  },
  {
    "postal": "K2A7N9",
    "result": []
  },
  {
    "postal": "K2A1N0",
    "result": []
  },
  {
    "postal": "K2A6P3",
    "result": []
  },
  {
    "postal": "K2A5A1",
    "result": []
  },
  {
    "postal": "K2A9M9",
    "result": []
  },
  {
    "postal": "K2A7T6",
    "result": []
  },
  {
    "postal": "K2A3X0",
    "result": []
  },
  {
    "postal": "K2A2T0",
    "result": []
  },
  {
    "postal": "K2A5X9",
    "result": []
  },
  {
    "postal": "K2A2R3",
    "result": [
      {
        "electoralDistricts": [
          {
            "election": null,
            "id": 78,
            "name": "Ottawa Centre"
          }
        ],
        "pollDivisionIds": [
          10143718
        ],
        "postalCode": "K2A2R3",
        "streetName": "FRASER",
        "streetDirectionId": null,
        "streetTypeId": "AVE",
        "placeName": "OTTAWA",
        "streetNameDisplayText": "FRASER AVE, OTTAWA"
      }
    ]
  },
  {
    "postal": "K2A5N2",
    "result": []
  },
  {
    "postal": "K2A4Y7",
    "result": []
  },
  {
    "postal": "K2A7M0",
    "result": []
  },
  {
    "postal": "K2A8P3",
    "result": []
  },
  {
    "postal": "K2A3N3",
    "result": [
      {
        "electoralDistricts": [
          {
            "election": null,
            "id": 81,
            "name": "Ottawa West—Nepean"
          }
        ],
        "pollDivisionIds": [
          10140835
        ],
        "postalCode": "K2A3N3",
        "streetName": "IROQUOIS",
        "streetDirectionId": null,
        "streetTypeId": "RD",
        "placeName": "OTTAWA",
        "streetNameDisplayText": "IROQUOIS RD, OTTAWA"
      }
    ]
  },
  {
    "postal": "K2A7S3",
    "result": []
  },
  {
    "postal": "K2A3V9",
    "result": [
      {
        "electoralDistricts": [
          {
            "election": null,
            "id": 81,
            "name": "Ottawa West—Nepean"
          }
        ],
        "pollDivisionIds": [
          10140830
        ],
        "postalCode": "K2A3V9",
        "streetName": "BLACK FRIARS",
        "streetDirectionId": null,
        "streetTypeId": "RD",
        "placeName": "OTTAWA",
        "streetNameDisplayText": "BLACK FRIARS RD, OTTAWA"
      }
    ]
  },
  {
    "postal": "K2A9N7",
    "result": []
  },
  {
    "postal": "K2A0G4",
    "result": [
      {
        "electoralDistricts": [
          {
            "election": null,
            "id": 78,
            "name": "Ottawa Centre"
          }
        ],
        "pollDivisionIds": [
          10143718
        ],
        "postalCode": "K2A0G4",
        "streetName": "RICHMOND",
        "streetDirectionId": null,
        "streetTypeId": "RD",
        "placeName": "OTTAWA",
        "streetNameDisplayText": "RICHMOND RD, OTTAWA"
      }
    ]
  },
  {
    "postal": "K2A2E2",
    "result": [
      {
        "electoralDistricts": [
          {
            "election": null,
            "id": 78,
            "name": "Ottawa Centre"
          }
        ],
        "pollDivisionIds": [
          10140537
        ],
        "postalCode": "K2A2E2",
        "streetName": "BOYD",
        "streetDirectionId": null,
        "streetTypeId": "AVE",
        "placeName": "OTTAWA",
        "streetNameDisplayText": "BOYD AVE, OTTAWA"
      }
    ]
  },
  {
    "postal": "K2A7W8",
    "result": []
  },
  {
    "postal": "K2A7M5",
    "result": []
  },
  {
    "postal": "K2A5W8",
    "result": []
  },
  {
    "postal": "K2A5E5",
    "result": []
  },
  {
    "postal": "K2A1P9",
    "result": [
      {
        "electoralDistricts": [
          {
            "election": null,
            "id": 81,
            "name": "Ottawa West—Nepean"
          }
        ],
        "pollDivisionIds": [
          10140835
        ],
        "postalCode": "K2A1P9",
        "streetName": "KILLARNEY",
        "streetDirectionId": null,
        "streetTypeId": "DR",
        "placeName": "OTTAWA",
        "streetNameDisplayText": "KILLARNEY DR, OTTAWA"
      }
    ]
  },
  {
    "postal": "K2A8V8",
    "result": []
  },
  {
    "postal": "K2A9G8",
    "result": []
  },
  {
    "postal": "K2A8H9",
    "result": []
  },
  {
    "postal": "K2A1Z1",
    "result": [
      {
        "electoralDistricts": [
          {
            "election": null,
            "id": 78,
            "name": "Ottawa Centre"
          },
          {
            "election": null,
            "id": 101,
            "name": "Spadina—Fort York"
          }
        ],
        "pollDivisionIds": [
          10140576,
          10141951
        ],
        "postalCode": "K2A1Z1",
        "streetName": "RICHMOND",
        "streetDirectionId": null,
        "streetTypeId": "RD",
        "placeName": "OTTAWA",
        "streetNameDisplayText": "RICHMOND RD, OTTAWA"
      }
    ]
  },
  {
    "postal": "K2A8M3",
    "result": []
  },
  {
    "postal": "K2A5H6",
    "result": []
  },
  {
    "postal": "K2A7W7",
    "result": []
  },
  {
    "postal": "K2A4L0",
    "result": []
  },
  {
    "postal": "K2A2N1",
    "result": [
      {
        "electoralDistricts": [
          {
            "election": null,
            "id": 78,
            "name": "Ottawa Centre"
          }
        ],
        "pollDivisionIds": [
          10143718
        ],
        "postalCode": "K2A2N1",
        "streetName": "HILLCREST",
        "streetDirectionId": null,
        "streetTypeId": "AVE",
        "placeName": "OTTAWA",
        "streetNameDisplayText": "HILLCREST AVE, OTTAWA"
      }
    ]
  },
  {
    "postal": "K2A2H4",
    "result": [
      {
        "electoralDistricts": [
          {
            "election": null,
            "id": 78,
            "name": "Ottawa Centre"
          }
        ],
        "pollDivisionIds": [
          10140534
        ],
        "postalCode": "K2A2H4",
        "streetName": "BRIERWOOD",
        "streetDirectionId": null,
        "streetTypeId": "AVE",
        "placeName": "OTTAWA",
        "streetNameDisplayText": "BRIERWOOD AVE, OTTAWA"
      }
    ]
  },
  {
    "postal": "K2A5C8",
    "result": []
  },
  {
    "postal": "K2A8B0",
    "result": []
  },
  {
    "postal": "K2A1T4",
    "result": []
  },
  {
    "postal": "K2A7N7",
    "result": []
  },
  {
    "postal": "K2A4L3",
    "result": []
  },
  {
    "postal": "K2A2N2",
    "result": [
      {
        "electoralDistricts": [
          {
            "election": null,
            "id": 78,
            "name": "Ottawa Centre"
          }
        ],
        "pollDivisionIds": [
          10140533
        ],
        "postalCode": "K2A2N2",
        "streetName": "HILLCREST",
        "streetDirectionId": "S",
        "streetTypeId": "AVE",
        "placeName": "OTTAWA",
        "streetNameDisplayText": "HILLCREST AVE S, OTTAWA"
      }
    ]
  },
  {
    "postal": "K2A4N8",
    "result": []
  },
  {
    "postal": "K2A3M5",
    "result": [
      {
        "electoralDistricts": [
          {
            "election": null,
            "id": 81,
            "name": "Ottawa West—Nepean"
          }
        ],
        "pollDivisionIds": [
          10140836
        ],
        "postalCode": "K2A3M5",
        "streetName": "IROQUOIS",
        "streetDirectionId": null,
        "streetTypeId": "RD",
        "placeName": "OTTAWA",
        "streetNameDisplayText": "IROQUOIS RD, OTTAWA"
      }
    ]
  },
  {
    "postal": "K2A6H7",
    "result": []
  },
  {
    "postal": "K2A8Y8",
    "result": []
  },
  {
    "postal": "K2A5R9",
    "result": []
  },
  {
    "postal": "K2A8G3",
    "result": []
  },
  {
    "postal": "K2A4N7",
    "result": []
  },
  {
    "postal": "K2A0B9",
    "result": [
      {
        "electoralDistricts": [
          {
            "election": null,
            "id": 81,
            "name": "Ottawa West—Nepean"
          }
        ],
        "pollDivisionIds": [
          10140830
        ],
        "postalCode": "K2A0B9",
        "streetName": "ALGONQUIN",
        "streetDirectionId": null,
        "streetTypeId": "AVE",
        "placeName": "OTTAWA",
        "streetNameDisplayText": "ALGONQUIN AVE, OTTAWA"
      }
    ]
  },
  {
    "postal": "K2A9K7",
    "result": []
  },
  {
    "postal": "K2A9K9",
    "result": []
  },
  {
    "postal": "K2A3Z2",
    "result": []
  },
  {
    "postal": "K2A6W7",
    "result": []
  },
  {
    "postal": "K2A0P1",
    "result": [
      {
        "electoralDistricts": [
          {
            "election": null,
            "id": 78,
            "name": "Ottawa Centre"
          }
        ],
        "pollDivisionIds": [
          10143718
        ],
        "postalCode": "K2A0P1",
        "streetName": "KEENAN",
        "streetDirectionId": null,
        "streetTypeId": "AVE",
        "placeName": "OTTAWA",
        "streetNameDisplayText": "KEENAN AVE, OTTAWA"
      }
    ]
  },
  {
    "postal": "K2A3A0",
    "result": []
  },
  {
    "postal": "K2A8L9",
    "result": []
  },
  {
    "postal": "K2A6X0",
    "result": []
  },
  {
    "postal": "K2A3E9",
    "result": [
      {
        "electoralDistricts": [
          {
            "election": null,
            "id": 81,
            "name": "Ottawa West—Nepean"
          }
        ],
        "pollDivisionIds": [
          10140830
        ],
        "postalCode": "K2A3E9",
        "streetName": "SHERBOURNE",
        "streetDirectionId": null,
        "streetTypeId": "RD",
        "placeName": "OTTAWA",
        "streetNameDisplayText": "SHERBOURNE RD, OTTAWA"
      }
    ]
  },
  {
    "postal": "K2A0S5",
    "result": [
      {
        "electoralDistricts": [
          {
            "election": null,
            "id": 78,
            "name": "Ottawa Centre"
          }
        ],
        "pollDivisionIds": [
          10140538
        ],
        "postalCode": "K2A0S5",
        "streetName": "AVONDALE",
        "streetDirectionId": null,
        "streetTypeId": "AVE",
        "placeName": "OTTAWA",
        "streetNameDisplayText": "AVONDALE AVE, OTTAWA"
      }
    ]
  },
  {
    "postal": "K2A1A2",
    "result": [
      {
        "electoralDistricts": [
          {
            "election": null,
            "id": 78,
            "name": "Ottawa Centre"
          }
        ],
        "pollDivisionIds": [
          10140533
        ],
        "postalCode": "K2A1A2",
        "streetName": "TILLBURY",
        "streetDirectionId": "W",
        "streetTypeId": "AVE",
        "placeName": "OTTAWA",
        "streetNameDisplayText": "TILLBURY AVE W, OTTAWA"
      }
    ]
  },
  {
    "postal": "K2A5V8",
    "result": []
  },
  {
    "postal": "K2A8C5",
    "result": []
  },
  {
    "postal": "K2A6N0",
    "result": []
  },
  {
    "postal": "K2A9E6",
    "result": []
  },
  {
    "postal": "K2A5J7",
    "result": []
  },
  {
    "postal": "K2A2R2",
    "result": [
      {
        "electoralDistricts": [
          {
            "election": null,
            "id": 78,
            "name": "Ottawa Centre"
          }
        ],
        "pollDivisionIds": [
          10143718
        ],
        "postalCode": "K2A2R2",
        "streetName": "FRASER",
        "streetDirectionId": null,
        "streetTypeId": "AVE",
        "placeName": "OTTAWA",
        "streetNameDisplayText": "FRASER AVE, OTTAWA"
      }
    ]
  },
  {
    "postal": "K2A0P5",
    "result": [
      {
        "electoralDistricts": [
          {
            "election": null,
            "id": 78,
            "name": "Ottawa Centre"
          }
        ],
        "pollDivisionIds": [
          10143718
        ],
        "postalCode": "K2A0P5",
        "streetName": "KEENAN",
        "streetDirectionId": null,
        "streetTypeId": "AVE",
        "placeName": "OTTAWA",
        "streetNameDisplayText": "KEENAN AVE, OTTAWA"
      }
    ]
  },
  {
    "postal": "K2A5A7",
    "result": []
  },
  {
    "postal": "K2A1G1",
    "result": [
      {
        "electoralDistricts": [
          {
            "election": null,
            "id": 81,
            "name": "Ottawa West—Nepean"
          }
        ],
        "pollDivisionIds": [
          10140836
        ],
        "postalCode": "K2A1G1",
        "streetName": "CARLING",
        "streetDirectionId": null,
        "streetTypeId": "AVE",
        "placeName": "OTTAWA",
        "streetNameDisplayText": "CARLING AVE, OTTAWA"
      }
    ]
  },
  {
    "postal": "K2A9R6",
    "result": []
  },
  {
    "postal": "K2A4Z9",
    "result": []
  },
  {
    "postal": "K2A1V5",
    "result": [
      {
        "electoralDistricts": [
          {
            "election": null,
            "id": 78,
            "name": "Ottawa Centre"
          }
        ],
        "pollDivisionIds": [
          10140538
        ],
        "postalCode": "K2A1V5",
        "streetName": "EDISON",
        "streetDirectionId": null,
        "streetTypeId": "AVE",
        "placeName": "OTTAWA",
        "streetNameDisplayText": "EDISON AVE, OTTAWA"
      }
    ]
  },
  {
    "postal": "K2A9Y5",
    "result": []
  },
  {
    "postal": "K2A1P2",
    "result": [
      {
        "electoralDistricts": [
          {
            "election": null,
            "id": 81,
            "name": "Ottawa West—Nepean"
          }
        ],
        "pollDivisionIds": [
          10140835
        ],
        "postalCode": "K2A1P2",
        "streetName": "BENJAMIN",
        "streetDirectionId": null,
        "streetTypeId": "AVE",
        "placeName": "OTTAWA",
        "streetNameDisplayText": "BENJAMIN AVE, OTTAWA"
      }
    ]
  },
  {
    "postal": "K2A5X0",
    "result": []
  },
  {
    "postal": "K2A7B8",
    "result": []
  },
  {
    "postal": "K2A0C6",
    "result": [
      {
        "electoralDistricts": [
          {
            "election": null,
            "id": 81,
            "name": "Ottawa West—Nepean"
          }
        ],
        "pollDivisionIds": [
          10140830
        ],
        "postalCode": "K2A0C6",
        "streetName": "SAUNDERS",
        "streetDirectionId": null,
        "streetTypeId": "AVE",
        "placeName": "OTTAWA",
        "streetNameDisplayText": "SAUNDERS AVE, OTTAWA"
      }
    ]
  },
  {
    "postal": "K2A6G1",
    "result": []
  },
  {
    "postal": "K2A3K3",
    "result": [
      {
        "electoralDistricts": [
          {
            "election": null,
            "id": 81,
            "name": "Ottawa West—Nepean"
          }
        ],
        "pollDivisionIds": [
          10140835
        ],
        "postalCode": "K2A3K3",
        "streetName": "KINGSMERE",
        "streetDirectionId": null,
        "streetTypeId": "AVE",
        "placeName": "OTTAWA",
        "streetNameDisplayText": "KINGSMERE AVE, OTTAWA"
      }
    ]
  },
  {
    "postal": "K2A9R0",
    "result": []
  },
  {
    "postal": "K2A4R8",
    "result": []
  },
  {
    "postal": "K2A5P9",
    "result": []
  },
  {
    "postal": "K2A8N4",
    "result": []
  },
  {
    "postal": "K2A8H4",
    "result": []
  },
  {
    "postal": "K2A4V1",
    "result": []
  },
  {
    "postal": "K2A1K5",
    "result": [
      {
        "electoralDistricts": [
          {
            "election": null,
            "id": 81,
            "name": "Ottawa West—Nepean"
          }
        ],
        "pollDivisionIds": [
          10140835
        ],
        "postalCode": "K2A1K5",
        "streetName": "LENESTER",
        "streetDirectionId": null,
        "streetTypeId": "AVE",
        "placeName": "OTTAWA",
        "streetNameDisplayText": "LENESTER AVE, OTTAWA"
      }
    ]
  },
  {
    "postal": "K2A1Z5",
    "result": [
      {
        "electoralDistricts": [
          {
            "election": null,
            "id": 78,
            "name": "Ottawa Centre"
          }
        ],
        "pollDivisionIds": [
          10140532,
          10140534
        ],
        "postalCode": "K2A1Z5",
        "streetName": "ROOSEVELT",
        "streetDirectionId": null,
        "streetTypeId": "AVE",
        "placeName": "OTTAWA",
        "streetNameDisplayText": "ROOSEVELT AVE, OTTAWA"
      }
    ]
  },
  {
    "postal": "K2A9L9",
    "result": []
  },
  {
    "postal": "K2A5L2",
    "result": []
  },
  {
    "postal": "K2A0M2",
    "result": [
      {
        "electoralDistricts": [
          {
            "election": null,
            "id": 78,
            "name": "Ottawa Centre"
          }
        ],
        "pollDivisionIds": [
          10143718
        ],
        "postalCode": "K2A0M2",
        "streetName": "CROSSFIELD",
        "streetDirectionId": null,
        "streetTypeId": "AVE",
        "placeName": "OTTAWA",
        "streetNameDisplayText": "CROSSFIELD AVE, OTTAWA"
      }
    ]
  },
  {
    "postal": "K2A1K8",
    "result": [
      {
        "electoralDistricts": [
          {
            "election": null,
            "id": 81,
            "name": "Ottawa West—Nepean"
          }
        ],
        "pollDivisionIds": [
          10140835
        ],
        "postalCode": "K2A1K8",
        "streetName": "LENESTER",
        "streetDirectionId": null,
        "streetTypeId": "AVE",
        "placeName": "OTTAWA",
        "streetNameDisplayText": "LENESTER AVE, OTTAWA"
      }
    ]
  },
  {
    "postal": "K2A3M7",
    "result": [
      {
        "electoralDistricts": [
          {
            "election": null,
            "id": 81,
            "name": "Ottawa West—Nepean"
          }
        ],
        "pollDivisionIds": [
          10140836
        ],
        "postalCode": "K2A3M7",
        "streetName": "HAYMARKET",
        "streetDirectionId": null,
        "streetTypeId": "ST",
        "placeName": "OTTAWA",
        "streetNameDisplayText": "HAYMARKET ST, OTTAWA"
      }
    ]
  },
  {
    "postal": "K2A1B2",
    "result": [
      {
        "electoralDistricts": [
          {
            "election": null,
            "id": 81,
            "name": "Ottawa West—Nepean"
          }
        ],
        "pollDivisionIds": [
          10140836
        ],
        "postalCode": "K2A1B2",
        "streetName": "LAUDER",
        "streetDirectionId": null,
        "streetTypeId": "DR",
        "placeName": "OTTAWA",
        "streetNameDisplayText": "LAUDER DR, OTTAWA"
      }
    ]
  },
  {
    "postal": "K2A0H9",
    "result": [
      {
        "electoralDistricts": [
          {
            "election": null,
            "id": 78,
            "name": "Ottawa Centre"
          }
        ],
        "pollDivisionIds": [
          10143718
        ],
        "postalCode": "K2A0H9",
        "streetName": "BYRON",
        "streetDirectionId": null,
        "streetTypeId": "AVE",
        "placeName": "OTTAWA",
        "streetNameDisplayText": "BYRON AVE, OTTAWA"
      }
    ]
  },
  {
    "postal": "K2A8M4",
    "result": []
  },
  {
    "postal": "K2A2M5",
    "result": [
      {
        "electoralDistricts": [
          {
            "election": null,
            "id": 78,
            "name": "Ottawa Centre"
          }
        ],
        "pollDivisionIds": [
          10140537
        ],
        "postalCode": "K2A2M5",
        "streetName": "BROADVIEW",
        "streetDirectionId": null,
        "streetTypeId": "AVE",
        "placeName": "OTTAWA",
        "streetNameDisplayText": "BROADVIEW AVE, OTTAWA"
      }
    ]
  },
  {
    "postal": "K2A0T9",
    "result": [
      {
        "electoralDistricts": [
          {
            "election": null,
            "id": 78,
            "name": "Ottawa Centre"
          }
        ],
        "pollDivisionIds": [
          10140533
        ],
        "postalCode": "K2A0T9",
        "streetName": "DOVERCOURT",
        "streetDirectionId": null,
        "streetTypeId": "AVE",
        "placeName": "OTTAWA",
        "streetNameDisplayText": "DOVERCOURT AVE, OTTAWA"
      }
    ]
  },
  {
    "postal": "K2A3P1",
    "result": [
      {
        "electoralDistricts": [
          {
            "election": null,
            "id": 81,
            "name": "Ottawa West—Nepean"
          }
        ],
        "pollDivisionIds": [
          10140835
        ],
        "postalCode": "K2A3P1",
        "streetName": "AARON",
        "streetDirectionId": null,
        "streetTypeId": "AVE",
        "placeName": "OTTAWA",
        "streetNameDisplayText": "AARON AVE, OTTAWA"
      }
    ]
  },
  {
    "postal": "K2A1R6",
    "result": []
  },
  {
    "postal": "K2A9V5",
    "result": []
  },
  {
    "postal": "K2A9T0",
    "result": []
  },
  {
    "postal": "K2A0A9",
    "result": [
      {
        "electoralDistricts": [
          {
            "election": null,
            "id": 78,
            "name": "Ottawa Centre"
          }
        ],
        "pollDivisionIds": [
          10140531
        ],
        "postalCode": "K2A0A9",
        "streetName": "WORKMAN",
        "streetDirectionId": null,
        "streetTypeId": "AVE",
        "placeName": "OTTAWA",
        "streetNameDisplayText": "WORKMAN AVE, OTTAWA"
      }
    ]
  },
  {
    "postal": "K2A1M3",
    "result": [
      {
        "electoralDistricts": [
          {
            "election": null,
            "id": 81,
            "name": "Ottawa West—Nepean"
          }
        ],
        "pollDivisionIds": [
          10140835
        ],
        "postalCode": "K2A1M3",
        "streetName": "STRATHMORE",
        "streetDirectionId": null,
        "streetTypeId": "BLVD",
        "placeName": "OTTAWA",
        "streetNameDisplayText": "STRATHMORE BLVD, OTTAWA"
      }
    ]
  },
  {
    "postal": "K2A1W8",
    "result": [
      {
        "electoralDistricts": [
          {
            "election": null,
            "id": 78,
            "name": "Ottawa Centre"
          }
        ],
        "pollDivisionIds": [
          10140538
        ],
        "postalCode": "K2A1W8",
        "streetName": "MELBOURNE",
        "streetDirectionId": null,
        "streetTypeId": "AVE",
        "placeName": "OTTAWA",
        "streetNameDisplayText": "MELBOURNE AVE, OTTAWA"
      }
    ]
  },
  {
    "postal": "K2A9J1",
    "result": []
  },
  {
    "postal": "K2A8N5",
    "result": []
  },
  {
    "postal": "K2A5X1",
    "result": []
  },
  {
    "postal": "K2A6S2",
    "result": []
  },
  {
    "postal": "K2A2A2",
    "result": [
      {
        "electoralDistricts": [
          {
            "election": null,
            "id": 78,
            "name": "Ottawa Centre"
          }
        ],
        "pollDivisionIds": [
          10140538
        ],
        "postalCode": "K2A2A2",
        "streetName": "ROOSEVELT",
        "streetDirectionId": null,
        "streetTypeId": "AVE",
        "placeName": "OTTAWA",
        "streetNameDisplayText": "ROOSEVELT AVE, OTTAWA"
      }
    ]
  },
  {
    "postal": "K2A6A6",
    "result": []
  },
  {
    "postal": "K2A0S3",
    "result": [
      {
        "electoralDistricts": [
          {
            "election": null,
            "id": 78,
            "name": "Ottawa Centre"
          }
        ],
        "pollDivisionIds": [
          10140538
        ],
        "postalCode": "K2A0S3",
        "streetName": "AVONDALE",
        "streetDirectionId": null,
        "streetTypeId": "AVE",
        "placeName": "OTTAWA",
        "streetNameDisplayText": "AVONDALE AVE, OTTAWA"
      }
    ]
  },
  {
    "postal": "K2A3E7",
    "result": [
      {
        "electoralDistricts": [
          {
            "election": null,
            "id": 78,
            "name": "Ottawa Centre"
          }
        ],
        "pollDivisionIds": [
          10143718
        ],
        "postalCode": "K2A3E7",
        "streetName": "REDWOOD",
        "streetDirectionId": null,
        "streetTypeId": "AVE",
        "placeName": "OTTAWA",
        "streetNameDisplayText": "REDWOOD AVE, OTTAWA"
      }
    ]
  },
  {
    "postal": "K2A5R7",
    "result": []
  },
  {
    "postal": "K2A3R6",
    "result": [
      {
        "electoralDistricts": [
          {
            "election": null,
            "id": 81,
            "name": "Ottawa West—Nepean"
          }
        ],
        "pollDivisionIds": [
          10140830
        ],
        "postalCode": "K2A3R6",
        "streetName": "LOCKHART",
        "streetDirectionId": null,
        "streetTypeId": "AVE",
        "placeName": "OTTAWA",
        "streetNameDisplayText": "LOCKHART AVE, OTTAWA"
      }
    ]
  },
  {
    "postal": "K2A6K4",
    "result": []
  },
  {
    "postal": "K2A2W5",
    "result": [
      {
        "electoralDistricts": [
          {
            "election": null,
            "id": 78,
            "name": "Ottawa Centre"
          }
        ],
        "pollDivisionIds": [
          10143718
        ],
        "postalCode": "K2A2W5",
        "streetName": "WINDERMERE",
        "streetDirectionId": null,
        "streetTypeId": "AVE",
        "placeName": "OTTAWA",
        "streetNameDisplayText": "WINDERMERE AVE, OTTAWA"
      }
    ]
  },
  {
    "postal": "K2A8W4",
    "result": []
  },
  {
    "postal": "K2A9C2",
    "result": []
  },
  {
    "postal": "K2A2C0",
    "result": []
  },
  {
    "postal": "K2A0E1",
    "result": [
      {
        "electoralDistricts": [
          {
            "election": null,
            "id": 78,
            "name": "Ottawa Centre"
          }
        ],
        "pollDivisionIds": [
          10140532
        ],
        "postalCode": "K2A0E1",
        "streetName": "DANFORTH",
        "streetDirectionId": null,
        "streetTypeId": "AVE",
        "placeName": "OTTAWA",
        "streetNameDisplayText": "DANFORTH AVE, OTTAWA"
      }
    ]
  },
  {
    "postal": "K2A1K9",
    "result": [
      {
        "electoralDistricts": [
          {
            "election": null,
            "id": 81,
            "name": "Ottawa West—Nepean"
          }
        ],
        "pollDivisionIds": [
          10140835
        ],
        "postalCode": "K2A1K9",
        "streetName": "LENESTER",
        "streetDirectionId": null,
        "streetTypeId": "AVE",
        "placeName": "OTTAWA",
        "streetNameDisplayText": "LENESTER AVE, OTTAWA"
      }
    ]
  },
  {
    "postal": "K2A1G7",
    "result": [
      {
        "electoralDistricts": [
          {
            "election": null,
            "id": 81,
            "name": "Ottawa West—Nepean"
          }
        ],
        "pollDivisionIds": [
          10140835
        ],
        "postalCode": "K2A1G7",
        "streetName": "CARLING",
        "streetDirectionId": null,
        "streetTypeId": "AVE",
        "placeName": "OTTAWA",
        "streetNameDisplayText": "CARLING AVE, OTTAWA"
      }
    ]
  },
  {
    "postal": "K2A4E9",
    "result": []
  },
  {
    "postal": "K2A9P0",
    "result": []
  },
  {
    "postal": "K2A5H3",
    "result": []
  },
  {
    "postal": "K2A9X6",
    "result": []
  },
  {
    "postal": "K2A5N7",
    "result": []
  },
  {
    "postal": "K2A5A6",
    "result": []
  },
  {
    "postal": "K2A4M0",
    "result": []
  },
  {
    "postal": "K2A3V6",
    "result": [
      {
        "electoralDistricts": [
          {
            "election": null,
            "id": 81,
            "name": "Ottawa West—Nepean"
          }
        ],
        "pollDivisionIds": [
          10140831
        ],
        "postalCode": "K2A3V6",
        "streetName": "WOODROFFE",
        "streetDirectionId": null,
        "streetTypeId": "AVE",
        "placeName": "OTTAWA",
        "streetNameDisplayText": "WOODROFFE AVE, OTTAWA"
      }
    ]
  },
  {
    "postal": "K2A1L7",
    "result": [
      {
        "electoralDistricts": [
          {
            "election": null,
            "id": 81,
            "name": "Ottawa West—Nepean"
          }
        ],
        "pollDivisionIds": [
          10140836
        ],
        "postalCode": "K2A1L7",
        "streetName": "SHARON",
        "streetDirectionId": null,
        "streetTypeId": "AVE",
        "placeName": "OTTAWA",
        "streetNameDisplayText": "SHARON AVE, OTTAWA"
      }
    ]
  },
  {
    "postal": "K2A2P9",
    "result": [
      {
        "electoralDistricts": [
          {
            "election": null,
            "id": 78,
            "name": "Ottawa Centre"
          }
        ],
        "pollDivisionIds": [
          10143718
        ],
        "postalCode": "K2A2P9",
        "streetName": "FRASER",
        "streetDirectionId": null,
        "streetTypeId": "AVE",
        "placeName": "OTTAWA",
        "streetNameDisplayText": "FRASER AVE, OTTAWA"
      }
    ]
  },
  {
    "postal": "K2A5T4",
    "result": []
  },
  {
    "postal": "K2A5Z1",
    "result": []
  },
  {
    "postal": "K2A2X0",
    "result": []
  },
  {
    "postal": "K2A6Z2",
    "result": []
  },
  {
    "postal": "K2A0E0",
    "result": []
  },
  {
    "postal": "K2A3Z5",
    "result": []
  },
  {
    "postal": "K2A8H3",
    "result": []
  },
  {
    "postal": "K2A7S6",
    "result": []
  },
  {
    "postal": "K2A4C1",
    "result": [
      {
        "electoralDistricts": [
          {
            "election": null,
            "id": 81,
            "name": "Ottawa West—Nepean"
          }
        ],
        "pollDivisionIds": [
          10140835
        ],
        "postalCode": "K2A4C1",
        "streetName": "ESTERLAWN",
        "streetDirectionId": null,
        "streetTypeId": "PVT",
        "placeName": "OTTAWA",
        "streetNameDisplayText": "ESTERLAWN PVT, OTTAWA"
      }
    ]
  },
  {
    "postal": "K2A3K2",
    "result": [
      {
        "electoralDistricts": [
          {
            "election": null,
            "id": 81,
            "name": "Ottawa West—Nepean"
          }
        ],
        "pollDivisionIds": [
          10140835
        ],
        "postalCode": "K2A3K2",
        "streetName": "KINGSMERE",
        "streetDirectionId": null,
        "streetTypeId": "AVE",
        "placeName": "OTTAWA",
        "streetNameDisplayText": "KINGSMERE AVE, OTTAWA"
      }
    ]
  },
  {
    "postal": "K2A1Y5",
    "result": [
      {
        "electoralDistricts": [
          {
            "election": null,
            "id": 78,
            "name": "Ottawa Centre"
          }
        ],
        "pollDivisionIds": [
          10140532
        ],
        "postalCode": "K2A1Y5",
        "streetName": "WINSTON",
        "streetDirectionId": null,
        "streetTypeId": "AVE",
        "placeName": "OTTAWA",
        "streetNameDisplayText": "WINSTON AVE, OTTAWA"
      }
    ]
  },
  {
    "postal": "K2A6P6",
    "result": []
  },
  {
    "postal": "K2A3N9",
    "result": [
      {
        "electoralDistricts": [
          {
            "election": null,
            "id": 81,
            "name": "Ottawa West—Nepean"
          }
        ],
        "pollDivisionIds": [
          10140835
        ],
        "postalCode": "K2A3N9",
        "streetName": "BLYTHDALE",
        "streetDirectionId": null,
        "streetTypeId": "RD",
        "placeName": "OTTAWA",
        "streetNameDisplayText": "BLYTHDALE RD, OTTAWA"
      }
    ]
  },
  {
    "postal": "K2A3W2",
    "result": []
  },
  {
    "postal": "K2A6H8",
    "result": []
  },
  {
    "postal": "K2A9T3",
    "result": []
  },
  {
    "postal": "K2A5L9",
    "result": []
  },
  {
    "postal": "K2A7X7",
    "result": []
  },
  {
    "postal": "K2A3J5",
    "result": [
      {
        "electoralDistricts": [
          {
            "election": null,
            "id": 81,
            "name": "Ottawa West—Nepean"
          }
        ],
        "pollDivisionIds": [
          10140835
        ],
        "postalCode": "K2A3J5",
        "streetName": "HARE",
        "streetDirectionId": null,
        "streetTypeId": "AVE",
        "placeName": "OTTAWA",
        "streetNameDisplayText": "HARE AVE, OTTAWA"
      }
    ]
  },
  {
    "postal": "K2A4J5",
    "result": []
  },
  {
    "postal": "K2A6J2",
    "result": []
  },
  {
    "postal": "K2A5V6",
    "result": []
  },
  {
    "postal": "K2A3N2",
    "result": [
      {
        "electoralDistricts": [
          {
            "election": null,
            "id": 81,
            "name": "Ottawa West—Nepean"
          }
        ],
        "pollDivisionIds": [
          10140835
        ],
        "postalCode": "K2A3N2",
        "streetName": "IROQUOIS",
        "streetDirectionId": null,
        "streetTypeId": "RD",
        "placeName": "OTTAWA",
        "streetNameDisplayText": "IROQUOIS RD, OTTAWA"
      }
    ]
  },
  {
    "postal": "K2A3B1",
    "result": [
      {
        "electoralDistricts": [
          {
            "election": null,
            "id": 78,
            "name": "Ottawa Centre"
          }
        ],
        "pollDivisionIds": [
          10140533
        ],
        "postalCode": "K2A3B1",
        "streetName": "WAVELL",
        "streetDirectionId": null,
        "streetTypeId": "AVE",
        "placeName": "OTTAWA",
        "streetNameDisplayText": "WAVELL AVE, OTTAWA"
      }
    ]
  },
  {
    "postal": "K2A8B5",
    "result": []
  },
  {
    "postal": "K2A0K1",
    "result": [
      {
        "electoralDistricts": [
          {
            "election": null,
            "id": 78,
            "name": "Ottawa Centre"
          }
        ],
        "pollDivisionIds": [
          10140534
        ],
        "postalCode": "K2A0K1",
        "streetName": "KENWOOD",
        "streetDirectionId": null,
        "streetTypeId": "AVE",
        "placeName": "OTTAWA",
        "streetNameDisplayText": "KENWOOD AVE, OTTAWA"
      }
    ]
  },
  {
    "postal": "K2A7M7",
    "result": []
  },
  {
    "postal": "K2A2M2",
    "result": [
      {
        "electoralDistricts": [
          {
            "election": null,
            "id": 78,
            "name": "Ottawa Centre"
          }
        ],
        "pollDivisionIds": [
          10140533
        ],
        "postalCode": "K2A2M2",
        "streetName": "BROADVIEW",
        "streetDirectionId": null,
        "streetTypeId": "AVE",
        "placeName": "OTTAWA",
        "streetNameDisplayText": "BROADVIEW AVE, OTTAWA"
      }
    ]
  },
  {
    "postal": "K2A9N3",
    "result": []
  },
  {
    "postal": "K2A4Y8",
    "result": []
  },
  {
    "postal": "K2A3V7",
    "result": [
      {
        "electoralDistricts": [
          {
            "election": null,
            "id": 81,
            "name": "Ottawa West—Nepean"
          }
        ],
        "pollDivisionIds": [
          10140835
        ],
        "postalCode": "K2A3V7",
        "streetName": "WOODROFFE",
        "streetDirectionId": null,
        "streetTypeId": "AVE",
        "placeName": "OTTAWA",
        "streetNameDisplayText": "WOODROFFE AVE, OTTAWA"
      }
    ]
  },
  {
    "postal": "K2A8Z1",
    "result": []
  },
  {
    "postal": "K2A7B3",
    "result": []
  },
  {
    "postal": "K2A3A8",
    "result": [
      {
        "electoralDistricts": [
          {
            "election": null,
            "id": 78,
            "name": "Ottawa Centre"
          }
        ],
        "pollDivisionIds": [
          10143718
        ],
        "postalCode": "K2A3A8",
        "streetName": "WAVELL",
        "streetDirectionId": null,
        "streetTypeId": "AVE",
        "placeName": "OTTAWA",
        "streetNameDisplayText": "WAVELL AVE, OTTAWA"
      }
    ]
  },
  {
    "postal": "K2A7V5",
    "result": []
  },
  {
    "postal": "K2A2T2",
    "result": [
      {
        "electoralDistricts": [
          {
            "election": null,
            "id": 78,
            "name": "Ottawa Centre"
          }
        ],
        "pollDivisionIds": [
          10143718
        ],
        "postalCode": "K2A2T2",
        "streetName": "MANSFIELD",
        "streetDirectionId": null,
        "streetTypeId": "AVE",
        "placeName": "OTTAWA",
        "streetNameDisplayText": "MANSFIELD AVE, OTTAWA"
      }
    ]
  },
  {
    "postal": "K2A6L3",
    "result": []
  },
  {
    "postal": "K2A0L2",
    "result": [
      {
        "electoralDistricts": [
          {
            "election": null,
            "id": 78,
            "name": "Ottawa Centre"
          }
        ],
        "pollDivisionIds": [
          10140534
        ],
        "postalCode": "K2A0L2",
        "streetName": "KENWOOD",
        "streetDirectionId": null,
        "streetTypeId": "AVE",
        "placeName": "OTTAWA",
        "streetNameDisplayText": "KENWOOD AVE, OTTAWA"
      }
    ]
  },
  {
    "postal": "K2A5Y8",
    "result": []
  },
  {
    "postal": "K2A0B8",
    "result": [
      {
        "electoralDistricts": [
          {
            "election": null,
            "id": 81,
            "name": "Ottawa West—Nepean"
          }
        ],
        "pollDivisionIds": [
          10140830
        ],
        "postalCode": "K2A0B8",
        "streetName": "WAYNE",
        "streetDirectionId": null,
        "streetTypeId": "AVE",
        "placeName": "OTTAWA",
        "streetNameDisplayText": "WAYNE AVE, OTTAWA"
      }
    ]
  },
  {
    "postal": "K2A6R5",
    "result": []
  },
  {
    "postal": "K2A8W6",
    "result": []
  },
  {
    "postal": "K2A8G6",
    "result": []
  },
  {
    "postal": "K2A6X3",
    "result": []
  },
  {
    "postal": "K2A7R7",
    "result": []
  },
  {
    "postal": "K2A4B6",
    "result": [
      {
        "electoralDistricts": [
          {
            "election": null,
            "id": 81,
            "name": "Ottawa West—Nepean"
          }
        ],
        "pollDivisionIds": [
          10140835
        ],
        "postalCode": "K2A4B6",
        "streetName": "ESTERLAWN",
        "streetDirectionId": null,
        "streetTypeId": "PVT",
        "placeName": "OTTAWA",
        "streetNameDisplayText": "ESTERLAWN PVT, OTTAWA"
      }
    ]
  },
  {
    "postal": "K2A3P9",
    "result": [
      {
        "electoralDistricts": [
          {
            "election": null,
            "id": 81,
            "name": "Ottawa West—Nepean"
          }
        ],
        "pollDivisionIds": [
          10140830
        ],
        "postalCode": "K2A3P9",
        "streetName": "AYLEN",
        "streetDirectionId": null,
        "streetTypeId": "AVE",
        "placeName": "OTTAWA",
        "streetNameDisplayText": "AYLEN AVE, OTTAWA"
      }
    ]
  },
  {
    "postal": "K2A2T3",
    "result": [
      {
        "electoralDistricts": [
          {
            "election": null,
            "id": 78,
            "name": "Ottawa Centre"
          }
        ],
        "pollDivisionIds": [
          10143718
        ],
        "postalCode": "K2A2T3",
        "streetName": "MANSFIELD",
        "streetDirectionId": null,
        "streetTypeId": "AVE",
        "placeName": "OTTAWA",
        "streetNameDisplayText": "MANSFIELD AVE, OTTAWA"
      }
    ]
  },
  {
    "postal": "K2A1M4",
    "result": [
      {
        "electoralDistricts": [
          {
            "election": null,
            "id": 81,
            "name": "Ottawa West—Nepean"
          }
        ],
        "pollDivisionIds": [
          10140835
        ],
        "postalCode": "K2A1M4",
        "streetName": "STRATHMORE",
        "streetDirectionId": null,
        "streetTypeId": "BLVD",
        "placeName": "OTTAWA",
        "streetNameDisplayText": "STRATHMORE BLVD, OTTAWA"
      }
    ]
  },
  {
    "postal": "K2A0H1",
    "result": [
      {
        "electoralDistricts": [
          {
            "election": null,
            "id": 78,
            "name": "Ottawa Centre"
          }
        ],
        "pollDivisionIds": [
          10143718
        ],
        "postalCode": "K2A0H1",
        "streetName": "BYRON",
        "streetDirectionId": null,
        "streetTypeId": "AVE",
        "placeName": "OTTAWA",
        "streetNameDisplayText": "BYRON AVE, OTTAWA"
      }
    ]
  },
  {
    "postal": "K2A9W3",
    "result": []
  },
  {
    "postal": "K2A6P1",
    "result": []
  },
  {
    "postal": "K2A7G2",
    "result": []
  },
  {
    "postal": "K2A4J9",
    "result": []
  },
  {
    "postal": "K2A9E4",
    "result": []
  },
  {
    "postal": "K2A8H0",
    "result": []
  },
  {
    "postal": "K2A4M7",
    "result": []
  },
  {
    "postal": "K2A2G9",
    "result": [
      {
        "electoralDistricts": [
          {
            "election": null,
            "id": 78,
            "name": "Ottawa Centre"
          }
        ],
        "pollDivisionIds": [
          10140532
        ],
        "postalCode": "K2A2G9",
        "streetName": "BERKLEY",
        "streetDirectionId": null,
        "streetTypeId": "AVE",
        "placeName": "OTTAWA",
        "streetNameDisplayText": "BERKLEY AVE, OTTAWA"
      }
    ]
  },
  {
    "postal": "K2A8T2",
    "result": []
  },
  {
    "postal": "K2A7G7",
    "result": []
  },
  {
    "postal": "K2A4Z3",
    "result": []
  },
  {
    "postal": "K2A5B3",
    "result": []
  },
  {
    "postal": "K2A1S7",
    "result": []
  },
  {
    "postal": "K2A2N7",
    "result": [
      {
        "electoralDistricts": [
          {
            "election": null,
            "id": 78,
            "name": "Ottawa Centre"
          }
        ],
        "pollDivisionIds": [
          10143718
        ],
        "postalCode": "K2A2N7",
        "streetName": "DENBURY",
        "streetDirectionId": null,
        "streetTypeId": "AVE",
        "placeName": "OTTAWA",
        "streetNameDisplayText": "DENBURY AVE, OTTAWA"
      }
    ]
  },
  {
    "postal": "K2A0H8",
    "result": [
      {
        "electoralDistricts": [
          {
            "election": null,
            "id": 78,
            "name": "Ottawa Centre"
          }
        ],
        "pollDivisionIds": [
          10143718
        ],
        "postalCode": "K2A0H8",
        "streetName": "BYRON",
        "streetDirectionId": null,
        "streetTypeId": "AVE",
        "placeName": "OTTAWA",
        "streetNameDisplayText": "BYRON AVE, OTTAWA"
      }
    ]
  },
  {
    "postal": "K2A7Z4",
    "result": []
  },
  {
    "postal": "K2A7B1",
    "result": []
  },
  {
    "postal": "K2A7P8",
    "result": []
  },
  {
    "postal": "K2A7N0",
    "result": []
  },
  {
    "postal": "K2A3Y5",
    "result": []
  },
  {
    "postal": "K2A6K1",
    "result": []
  },
  {
    "postal": "K2A9X5",
    "result": []
  },
  {
    "postal": "K2A7S5",
    "result": []
  },
  {
    "postal": "K2A0A4",
    "result": [
      {
        "electoralDistricts": [
          {
            "election": null,
            "id": 78,
            "name": "Ottawa Centre"
          }
        ],
        "pollDivisionIds": [
          10140531
        ],
        "postalCode": "K2A0A4",
        "streetName": "LANARK",
        "streetDirectionId": null,
        "streetTypeId": "AVE",
        "placeName": "OTTAWA",
        "streetNameDisplayText": "LANARK AVE, OTTAWA"
      }
    ]
  },
  {
    "postal": "K2A4T5",
    "result": []
  },
  {
    "postal": "K2A5K1",
    "result": []
  },
  {
    "postal": "K2A0Z9",
    "result": [
      {
        "electoralDistricts": [
          {
            "election": null,
            "id": 78,
            "name": "Ottawa Centre"
          }
        ],
        "pollDivisionIds": [
          10140533
        ],
        "postalCode": "K2A0Z9",
        "streetName": "TILLBURY",
        "streetDirectionId": "W",
        "streetTypeId": "AVE",
        "placeName": "OTTAWA",
        "streetNameDisplayText": "TILLBURY AVE W, OTTAWA"
      }
    ]
  },
  {
    "postal": "K2A7T2",
    "result": []
  },
  {
    "postal": "K2A1L5",
    "result": [
      {
        "electoralDistricts": [
          {
            "election": null,
            "id": 81,
            "name": "Ottawa West—Nepean"
          }
        ],
        "pollDivisionIds": [
          10140835
        ],
        "postalCode": "K2A1L5",
        "streetName": "LENESTER",
        "streetDirectionId": null,
        "streetTypeId": "AVE",
        "placeName": "OTTAWA",
        "streetNameDisplayText": "LENESTER AVE, OTTAWA"
      }
    ]
  },
  {
    "postal": "K2A3N5",
    "result": [
      {
        "electoralDistricts": [
          {
            "election": null,
            "id": 81,
            "name": "Ottawa West—Nepean"
          }
        ],
        "pollDivisionIds": [
          10140835
        ],
        "postalCode": "K2A3N5",
        "streetName": "IROQUOIS",
        "streetDirectionId": null,
        "streetTypeId": "RD",
        "placeName": "OTTAWA",
        "streetNameDisplayText": "IROQUOIS RD, OTTAWA"
      }
    ]
  },
  {
    "postal": "K2A6H4",
    "result": []
  },
  {
    "postal": "K2A5A5",
    "result": []
  },
  {
    "postal": "K2A3R9",
    "result": [
      {
        "electoralDistricts": [
          {
            "election": null,
            "id": 81,
            "name": "Ottawa West—Nepean"
          }
        ],
        "pollDivisionIds": [
          10140835
        ],
        "postalCode": "K2A3R9",
        "streetName": "INNSWOOD",
        "streetDirectionId": null,
        "streetTypeId": "DR",
        "placeName": "OTTAWA",
        "streetNameDisplayText": "INNSWOOD DR, OTTAWA"
      }
    ]
  },
  {
    "postal": "K2A7L8",
    "result": []
  },
  {
    "postal": "K2A6T6",
    "result": []
  },
  {
    "postal": "K2A7Y7",
    "result": []
  },
  {
    "postal": "K2A3M8",
    "result": [
      {
        "electoralDistricts": [
          {
            "election": null,
            "id": 81,
            "name": "Ottawa West—Nepean"
          }
        ],
        "pollDivisionIds": [
          10140835
        ],
        "postalCode": "K2A3M8",
        "streetName": "PARKHURST",
        "streetDirectionId": null,
        "streetTypeId": "BLVD",
        "placeName": "OTTAWA",
        "streetNameDisplayText": "PARKHURST BLVD, OTTAWA"
      }
    ]
  },
  {
    "postal": "K2A2E0",
    "result": []
  },
  {
    "postal": "K2A4B5",
    "result": [
      {
        "electoralDistricts": [
          {
            "election": null,
            "id": 81,
            "name": "Ottawa West—Nepean"
          }
        ],
        "pollDivisionIds": [
          10140835
        ],
        "postalCode": "K2A4B5",
        "streetName": "ESTERLAWN",
        "streetDirectionId": null,
        "streetTypeId": "PVT",
        "placeName": "OTTAWA",
        "streetNameDisplayText": "ESTERLAWN PVT, OTTAWA"
      }
    ]
  },
  {
    "postal": "K2A1J3",
    "result": [
      {
        "electoralDistricts": [
          {
            "election": null,
            "id": 78,
            "name": "Ottawa Centre"
          }
        ],
        "pollDivisionIds": [
          10140537
        ],
        "postalCode": "K2A1J3",
        "streetName": "KERR",
        "streetDirectionId": null,
        "streetTypeId": "AVE",
        "placeName": "OTTAWA",
        "streetNameDisplayText": "KERR AVE, OTTAWA"
      }
    ]
  },
  {
    "postal": "K2A5S6",
    "result": []
  },
  {
    "postal": "K2A8P7",
    "result": []
  },
  {
    "postal": "K2A7S7",
    "result": []
  },
  {
    "postal": "K2A4C2",
    "result": [
      {
        "electoralDistricts": [
          {
            "election": null,
            "id": 81,
            "name": "Ottawa West—Nepean"
          }
        ],
        "pollDivisionIds": [
          10140835
        ],
        "postalCode": "K2A4C2",
        "streetName": "FAIRLAWN",
        "streetDirectionId": null,
        "streetTypeId": "AVE",
        "placeName": "OTTAWA",
        "streetNameDisplayText": "FAIRLAWN AVE, OTTAWA"
      }
    ]
  },
  {
    "postal": "K2A5Y0",
    "result": []
  },
  {
    "postal": "K2A2V7",
    "result": [
      {
        "electoralDistricts": [
          {
            "election": null,
            "id": 78,
            "name": "Ottawa Centre"
          }
        ],
        "pollDivisionIds": [
          10140533
        ],
        "postalCode": "K2A2V7",
        "streetName": "WESTMINSTER",
        "streetDirectionId": null,
        "streetTypeId": "AVE",
        "placeName": "OTTAWA",
        "streetNameDisplayText": "WESTMINSTER AVE, OTTAWA"
      }
    ]
  },
  {
    "postal": "K2A8P5",
    "result": []
  },
  {
    "postal": "K2A5P5",
    "result": []
  },
  {
    "postal": "K2A5Z0",
    "result": []
  },
  {
    "postal": "K2A9B0",
    "result": []
  },
  {
    "postal": "K2A1L0",
    "result": []
  },
  {
    "postal": "K2A0B5",
    "result": [
      {
        "electoralDistricts": [
          {
            "election": null,
            "id": 78,
            "name": "Ottawa Centre"
          }
        ],
        "pollDivisionIds": [
          10140532
        ],
        "postalCode": "K2A0B5",
        "streetName": "WHITBY",
        "streetDirectionId": null,
        "streetTypeId": "AVE",
        "placeName": "OTTAWA",
        "streetNameDisplayText": "WHITBY AVE, OTTAWA"
      }
    ]
  },
  {
    "postal": "K2A3L2",
    "result": [
      {
        "electoralDistricts": [
          {
            "election": null,
            "id": 81,
            "name": "Ottawa West—Nepean"
          }
        ],
        "pollDivisionIds": [
          10140830
        ],
        "postalCode": "K2A3L2",
        "streetName": "PRINCE CHARLES",
        "streetDirectionId": null,
        "streetTypeId": "RD",
        "placeName": "OTTAWA",
        "streetNameDisplayText": "PRINCE CHARLES RD, OTTAWA"
      }
    ]
  },
  {
    "postal": "K2A3B7",
    "result": [
      {
        "electoralDistricts": [
          {
            "election": null,
            "id": 78,
            "name": "Ottawa Centre"
          }
        ],
        "pollDivisionIds": [
          10140533
        ],
        "postalCode": "K2A3B7",
        "streetName": "COURTENAY",
        "streetDirectionId": null,
        "streetTypeId": "AVE",
        "placeName": "OTTAWA",
        "streetNameDisplayText": "COURTENAY AVE, OTTAWA"
      }
    ]
  },
  {
    "postal": "K2A8L1",
    "result": []
  },
  {
    "postal": "K2A5M4",
    "result": []
  },
  {
    "postal": "K2A4G9",
    "result": [
      {
        "electoralDistricts": [
          {
            "election": null,
            "id": 81,
            "name": "Ottawa West—Nepean"
          }
        ],
        "pollDivisionIds": [
          10140830
        ],
        "postalCode": "K2A4G9",
        "streetName": "LOCKHART",
        "streetDirectionId": "N",
        "streetTypeId": "AVE",
        "placeName": "OTTAWA",
        "streetNameDisplayText": "LOCKHART AVE N, OTTAWA"
      }
    ]
  },
  {
    "postal": "K2A0P0",
    "result": []
  },
  {
    "postal": "K2A8G2",
    "result": []
  },
  {
    "postal": "K2A1V9",
    "result": [
      {
        "electoralDistricts": [
          {
            "election": null,
            "id": 78,
            "name": "Ottawa Centre"
          }
        ],
        "pollDivisionIds": [
          10140533
        ],
        "postalCode": "K2A1V9",
        "streetName": "EDISON",
        "streetDirectionId": null,
        "streetTypeId": "AVE",
        "placeName": "OTTAWA",
        "streetNameDisplayText": "EDISON AVE, OTTAWA"
      }
    ]
  },
  {
    "postal": "K2A8N8",
    "result": []
  },
  {
    "postal": "K2A6S8",
    "result": []
  },
  {
    "postal": "K2A8H2",
    "result": []
  },
  {
    "postal": "K2A5R8",
    "result": []
  },
  {
    "postal": "K2A5L4",
    "result": []
  },
  {
    "postal": "K2A9E1",
    "result": []
  },
  {
    "postal": "K2A1C4",
    "result": [
      {
        "electoralDistricts": [
          {
            "election": null,
            "id": 78,
            "name": "Ottawa Centre"
          }
        ],
        "pollDivisionIds": [
          10140533
        ],
        "postalCode": "K2A1C4",
        "streetName": "CARLING",
        "streetDirectionId": null,
        "streetTypeId": "AVE",
        "placeName": "OTTAWA",
        "streetNameDisplayText": "CARLING AVE, OTTAWA"
      }
    ]
  },
  {
    "postal": "K2A8W5",
    "result": []
  },
  {
    "postal": "K2A1Y4",
    "result": [
      {
        "electoralDistricts": [
          {
            "election": null,
            "id": 78,
            "name": "Ottawa Centre"
          }
        ],
        "pollDivisionIds": [
          10140531
        ],
        "postalCode": "K2A1Y4",
        "streetName": "DUCHESS",
        "streetDirectionId": null,
        "streetTypeId": "AVE",
        "placeName": "OTTAWA",
        "streetNameDisplayText": "DUCHESS AVE, OTTAWA"
      }
    ]
  },
  {
    "postal": "K2A1C0",
    "result": []
  },
  {
    "postal": "K2A2J2",
    "result": [
      {
        "electoralDistricts": [
          {
            "election": null,
            "id": 78,
            "name": "Ottawa Centre"
          }
        ],
        "pollDivisionIds": [
          10140533
        ],
        "postalCode": "K2A2J2",
        "streetName": "BRIERWOOD",
        "streetDirectionId": null,
        "streetTypeId": "AVE",
        "placeName": "OTTAWA",
        "streetNameDisplayText": "BRIERWOOD AVE, OTTAWA"
      }
    ]
  },
  {
    "postal": "K2A2J0",
    "result": []
  },
  {
    "postal": "K2A7A3",
    "result": []
  },
  {
    "postal": "K2A8M1",
    "result": []
  },
  {
    "postal": "K2A7T9",
    "result": []
  },
  {
    "postal": "K2A6C0",
    "result": []
  },
  {
    "postal": "K2A7X1",
    "result": []
  },
  {
    "postal": "K2A0G1",
    "result": []
  },
  {
    "postal": "K2A4X2",
    "result": []
  },
  {
    "postal": "K2A0N6",
    "result": [
      {
        "electoralDistricts": [
          {
            "election": null,
            "id": 78,
            "name": "Ottawa Centre"
          }
        ],
        "pollDivisionIds": [
          10143718
        ],
        "postalCode": "K2A0N6",
        "streetName": "KEENAN",
        "streetDirectionId": null,
        "streetTypeId": "AVE",
        "placeName": "OTTAWA",
        "streetNameDisplayText": "KEENAN AVE, OTTAWA"
      }
    ]
  },
  {
    "postal": "K2A8E3",
    "result": []
  },
  {
    "postal": "K2A5S8",
    "result": []
  },
  {
    "postal": "K2A0R0",
    "result": []
  },
  {
    "postal": "K2A6J6",
    "result": []
  },
  {
    "postal": "K2A4B4",
    "result": [
      {
        "electoralDistricts": [
          {
            "election": null,
            "id": 81,
            "name": "Ottawa West—Nepean"
          }
        ],
        "pollDivisionIds": [
          10140835
        ],
        "postalCode": "K2A4B4",
        "streetName": "ESTERLAWN",
        "streetDirectionId": null,
        "streetTypeId": "PVT",
        "placeName": "OTTAWA",
        "streetNameDisplayText": "ESTERLAWN PVT, OTTAWA"
      }
    ]
  },
  {
    "postal": "K2A7E3",
    "result": []
  },
  {
    "postal": "K2A3N6",
    "result": [
      {
        "electoralDistricts": [
          {
            "election": null,
            "id": 81,
            "name": "Ottawa West—Nepean"
          }
        ],
        "pollDivisionIds": [
          10140835
        ],
        "postalCode": "K2A3N6",
        "streetName": "BLYTHDALE",
        "streetDirectionId": null,
        "streetTypeId": "RD",
        "placeName": "OTTAWA",
        "streetNameDisplayText": "BLYTHDALE RD, OTTAWA"
      }
    ]
  },
  {
    "postal": "K2A3X6",
    "result": [
      {
        "electoralDistricts": [
          {
            "election": null,
            "id": 78,
            "name": "Ottawa Centre"
          }
        ],
        "pollDivisionIds": [
          10140531
        ],
        "postalCode": "K2A3X6",
        "streetName": "SELBY",
        "streetDirectionId": null,
        "streetTypeId": "AVE",
        "placeName": "OTTAWA",
        "streetNameDisplayText": "SELBY AVE, OTTAWA"
      }
    ]
  },
  {
    "postal": "K2A8L0",
    "result": []
  },
  {
    "postal": "K2A8N1",
    "result": []
  },
  {
    "postal": "K2A4J0",
    "result": []
  },
  {
    "postal": "K2A0X7",
    "result": [
      {
        "electoralDistricts": [
          {
            "election": null,
            "id": 78,
            "name": "Ottawa Centre"
          }
        ],
        "pollDivisionIds": [
          10140533
        ],
        "postalCode": "K2A0X7",
        "streetName": "PARR",
        "streetDirectionId": null,
        "streetTypeId": "AVE",
        "placeName": "OTTAWA",
        "streetNameDisplayText": "PARR AVE, OTTAWA"
      }
    ]
  },
  {
    "postal": "K2A6S4",
    "result": []
  },
  {
    "postal": "K2A0Z0",
    "result": []
  },
  {
    "postal": "K2A9X8",
    "result": []
  },
  {
    "postal": "K2A3H3",
    "result": [
      {
        "electoralDistricts": [
          {
            "election": null,
            "id": 81,
            "name": "Ottawa West—Nepean"
          }
        ],
        "pollDivisionIds": [
          10140836
        ],
        "postalCode": "K2A3H3",
        "streetName": "SHERBOURNE",
        "streetDirectionId": null,
        "streetTypeId": "RD",
        "placeName": "OTTAWA",
        "streetNameDisplayText": "SHERBOURNE RD, OTTAWA"
      }
    ]
  },
  {
    "postal": "K2A7S2",
    "result": []
  },
  {
    "postal": "K2A3T3",
    "result": [
      {
        "electoralDistricts": [
          {
            "election": null,
            "id": 81,
            "name": "Ottawa West—Nepean"
          }
        ],
        "pollDivisionIds": [
          10140835
        ],
        "postalCode": "K2A3T3",
        "streetName": "DUBERRY",
        "streetDirectionId": null,
        "streetTypeId": "ST",
        "placeName": "OTTAWA",
        "streetNameDisplayText": "DUBERRY ST, OTTAWA"
      }
    ]
  },
  {
    "postal": "K2A9P3",
    "result": []
  },
  {
    "postal": "K2A4H8",
    "result": []
  },
  {
    "postal": "K2A6R1",
    "result": []
  },
  {
    "postal": "K2A1S0",
    "result": []
  },
  {
    "postal": "K2A3W8",
    "result": [
      {
        "electoralDistricts": [
          {
            "election": null,
            "id": 81,
            "name": "Ottawa West—Nepean"
          }
        ],
        "pollDivisionIds": [
          10140836
        ],
        "postalCode": "K2A3W8",
        "streetName": "LENESTER",
        "streetDirectionId": null,
        "streetTypeId": "AVE",
        "placeName": "OTTAWA",
        "streetNameDisplayText": "LENESTER AVE, OTTAWA"
      }
    ]
  },
  {
    "postal": "K2A4S3",
    "result": []
  },
  {
    "postal": "K2A1B6",
    "result": [
      {
        "electoralDistricts": [
          {
            "election": null,
            "id": 78,
            "name": "Ottawa Centre"
          }
        ],
        "pollDivisionIds": [
          10140533
        ],
        "postalCode": "K2A1B6",
        "streetName": "WELLESLEY",
        "streetDirectionId": null,
        "streetTypeId": "AVE",
        "placeName": "OTTAWA",
        "streetNameDisplayText": "WELLESLEY AVE, OTTAWA"
      }
    ]
  },
  {
    "postal": "K2A8R3",
    "result": []
  },
  {
    "postal": "K2A4V9",
    "result": []
  },
  {
    "postal": "K2A9W4",
    "result": []
  },
  {
    "postal": "K2A3T4",
    "result": [
      {
        "electoralDistricts": [
          {
            "election": null,
            "id": 81,
            "name": "Ottawa West—Nepean"
          }
        ],
        "pollDivisionIds": [
          10140830
        ],
        "postalCode": "K2A3T4",
        "streetName": "WOODROFFE",
        "streetDirectionId": null,
        "streetTypeId": "AVE",
        "placeName": "OTTAWA",
        "streetNameDisplayText": "WOODROFFE AVE, OTTAWA"
      }
    ]
  },
  {
    "postal": "K2A5C7",
    "result": []
  },
  {
    "postal": "K2A3Y1",
    "result": []
  },
  {
    "postal": "K2A5V0",
    "result": []
  },
  {
    "postal": "K2A8G8",
    "result": []
  },
  {
    "postal": "K2A8B1",
    "result": []
  },
  {
    "postal": "K2A4P5",
    "result": []
  },
  {
    "postal": "K2A7B2",
    "result": []
  },
  {
    "postal": "K2A0R2",
    "result": [
      {
        "electoralDistricts": [
          {
            "election": null,
            "id": 81,
            "name": "Ottawa West—Nepean"
          }
        ],
        "pollDivisionIds": [
          10140830
        ],
        "postalCode": "K2A0R2",
        "streetName": "KNIGHTSBRIDGE",
        "streetDirectionId": null,
        "streetTypeId": "RD",
        "placeName": "OTTAWA",
        "streetNameDisplayText": "KNIGHTSBRIDGE RD, OTTAWA"
      }
    ]
  },
  {
    "postal": "K2A4M4",
    "result": []
  },
  {
    "postal": "K2A7M4",
    "result": []
  },
  {
    "postal": "K2A9S7",
    "result": []
  },
  {
    "postal": "K2A5Z7",
    "result": []
  },
  {
    "postal": "K2A7J7",
    "result": []
  },
  {
    "postal": "K2A8R8",
    "result": []
  },
  {
    "postal": "K2A9X1",
    "result": []
  },
  {
    "postal": "K2A5M9",
    "result": []
  },
  {
    "postal": "K2A9B4",
    "result": []
  },
  {
    "postal": "K2A0L9",
    "result": [
      {
        "electoralDistricts": [
          {
            "election": null,
            "id": 78,
            "name": "Ottawa Centre"
          }
        ],
        "pollDivisionIds": [
          10143718
        ],
        "postalCode": "K2A0L9",
        "streetName": "CROSSFIELD",
        "streetDirectionId": null,
        "streetTypeId": "AVE",
        "placeName": "OTTAWA",
        "streetNameDisplayText": "CROSSFIELD AVE, OTTAWA"
      }
    ]
  },
  {
    "postal": "K2A9G4",
    "result": []
  },
  {
    "postal": "K2A1J4",
    "result": [
      {
        "electoralDistricts": [
          {
            "election": null,
            "id": 78,
            "name": "Ottawa Centre"
          }
        ],
        "pollDivisionIds": [
          10140537
        ],
        "postalCode": "K2A1J4",
        "streetName": "DOHENY",
        "streetDirectionId": null,
        "streetTypeId": "ST",
        "placeName": "OTTAWA",
        "streetNameDisplayText": "DOHENY ST, OTTAWA"
      }
    ]
  },
  {
    "postal": "K2A0W6",
    "result": [
      {
        "electoralDistricts": [
          {
            "election": null,
            "id": 78,
            "name": "Ottawa Centre"
          }
        ],
        "pollDivisionIds": [
          10143718
        ],
        "postalCode": "K2A0W6",
        "streetName": "DOVERCOURT",
        "streetDirectionId": null,
        "streetTypeId": "AVE",
        "placeName": "OTTAWA",
        "streetNameDisplayText": "DOVERCOURT AVE, OTTAWA"
      }
    ]
  }
]
