[
  {
    "postal": "L2J9J6",
    "result": []
  },
  {
    "postal": "L2J9Z5",
    "result": []
  },
  {
    "postal": "L2J7H8",
    "result": []
  },
  {
    "postal": "L2J0P6",
    "result": []
  },
  {
    "postal": "L2J0S7",
    "result": []
  },
  {
    "postal": "L2J8B9",
    "result": []
  },
  {
    "postal": "L2J2A6",
    "result": [
      {
        "electoralDistricts": [
          {
            "election": null,
            "id": 69,
            "name": "Niagara Falls"
          }
        ],
        "pollDivisionIds": [
          10139979
        ],
        "postalCode": "L2J2A6",
        "streetName": "HILLCREST",
        "streetDirectionId": null,
        "streetTypeId": "CRES",
        "placeName": "NIAGARA FALLS",
        "streetNameDisplayText": "HILLCREST CRES, NIAGARA FALLS"
      }
    ]
  },
  {
    "postal": "L2J7V2",
    "result": []
  },
  {
    "postal": "L2J9P4",
    "result": []
  },
  {
    "postal": "L2J6G0",
    "result": []
  },
  {
    "postal": "L2J2K0",
    "result": []
  },
  {
    "postal": "L2J7N6",
    "result": []
  },
  {
    "postal": "L2J5R3",
    "result": []
  },
  {
    "postal": "L2J7K0",
    "result": []
  },
  {
    "postal": "L2J3R2",
    "result": [
      {
        "electoralDistricts": [
          {
            "election": null,
            "id": 69,
            "name": "Niagara Falls"
          }
        ],
        "pollDivisionIds": [
          10139975
        ],
        "postalCode": "L2J3R2",
        "streetName": "CASEY",
        "streetDirectionId": null,
        "streetTypeId": "ST",
        "placeName": "NIAGARA FALLS",
        "streetNameDisplayText": "CASEY ST, NIAGARA FALLS"
      }
    ]
  },
  {
    "postal": "L2J0J1",
    "result": []
  },
  {
    "postal": "L2J0B0",
    "result": []
  },
  {
    "postal": "L2J5Z2",
    "result": []
  },
  {
    "postal": "L2J7P3",
    "result": []
  },
  {
    "postal": "L2J2K3",
    "result": [
      {
        "electoralDistricts": [
          {
            "election": null,
            "id": 69,
            "name": "Niagara Falls"
          }
        ],
        "pollDivisionIds": [
          10139979
        ],
        "postalCode": "L2J2K3",
        "streetName": "PORTAGE",
        "streetDirectionId": null,
        "streetTypeId": "RD",
        "placeName": "NIAGARA FALLS",
        "streetNameDisplayText": "PORTAGE RD, NIAGARA FALLS"
      }
    ]
  },
  {
    "postal": "L2J7Y6",
    "result": []
  },
  {
    "postal": "L2J1L9",
    "result": [
      {
        "electoralDistricts": [
          {
            "election": null,
            "id": 69,
            "name": "Niagara Falls"
          }
        ],
        "pollDivisionIds": [
          10139976
        ],
        "postalCode": "L2J1L9",
        "streetName": "MCGILL",
        "streetDirectionId": null,
        "streetTypeId": "ST",
        "placeName": "NIAGARA FALLS",
        "streetNameDisplayText": "MCGILL ST, NIAGARA FALLS"
      }
    ]
  },
  {
    "postal": "L2J8T0",
    "result": []
  },
  {
    "postal": "L2J3K8",
    "result": [
      {
        "electoralDistricts": [
          {
            "election": null,
            "id": 69,
            "name": "Niagara Falls"
          }
        ],
        "pollDivisionIds": [
          10139979
        ],
        "postalCode": "L2J3K8",
        "streetName": "LOYALIST",
        "streetDirectionId": null,
        "streetTypeId": "AVE",
        "placeName": "NIAGARA FALLS",
        "streetNameDisplayText": "LOYALIST AVE, NIAGARA FALLS"
      }
    ]
  },
  {
    "postal": "L2J5W9",
    "result": []
  },
  {
    "postal": "L2J6T9",
    "result": []
  },
  {
    "postal": "L2J4H1",
    "result": [
      {
        "electoralDistricts": [
          {
            "election": null,
            "id": 69,
            "name": "Niagara Falls"
          }
        ],
        "pollDivisionIds": [
          10139971
        ],
        "postalCode": "L2J4H1",
        "streetName": "EMMA",
        "streetDirectionId": null,
        "streetTypeId": "ST",
        "placeName": "NIAGARA FALLS",
        "streetNameDisplayText": "EMMA ST, NIAGARA FALLS"
      },
      {
        "electoralDistricts": [
          {
            "election": null,
            "id": 69,
            "name": "Niagara Falls"
          }
        ],
        "pollDivisionIds": [
          10139971
        ],
        "postalCode": "L2J4H1",
        "streetName": "GIOVINA",
        "streetDirectionId": null,
        "streetTypeId": "DR",
        "placeName": "NIAGARA FALLS",
        "streetNameDisplayText": "GIOVINA DR, NIAGARA FALLS"
      }
    ]
  },
  {
    "postal": "L2J7A2",
    "result": []
  },
  {
    "postal": "L2J5G0",
    "result": []
  },
  {
    "postal": "L2J8V5",
    "result": []
  },
  {
    "postal": "L2J2Y8",
    "result": [
      {
        "electoralDistricts": [
          {
            "election": null,
            "id": 69,
            "name": "Niagara Falls"
          }
        ],
        "pollDivisionIds": [
          10139971
        ],
        "postalCode": "L2J2Y8",
        "streetName": "DORCHESTER",
        "streetDirectionId": null,
        "streetTypeId": "RD",
        "placeName": "NIAGARA FALLS",
        "streetNameDisplayText": "DORCHESTER RD, NIAGARA FALLS"
      }
    ]
  },
  {
    "postal": "L2J2B6",
    "result": [
      {
        "electoralDistricts": [
          {
            "election": null,
            "id": 69,
            "name": "Niagara Falls"
          }
        ],
        "pollDivisionIds": [
          10139971
        ],
        "postalCode": "L2J2B6",
        "streetName": "WEDGEWOOD",
        "streetDirectionId": null,
        "streetTypeId": "CRES",
        "placeName": "NIAGARA FALLS",
        "streetNameDisplayText": "WEDGEWOOD CRES, NIAGARA FALLS"
      }
    ]
  },
  {
    "postal": "L2J4W8",
    "result": []
  },
  {
    "postal": "L2J8H7",
    "result": []
  },
  {
    "postal": "L2J5P1",
    "result": []
  },
  {
    "postal": "L2J2B8",
    "result": [
      {
        "electoralDistricts": [
          {
            "election": null,
            "id": 69,
            "name": "Niagara Falls"
          }
        ],
        "pollDivisionIds": [
          10139971
        ],
        "postalCode": "L2J2B8",
        "streetName": "DELLPARK",
        "streetDirectionId": null,
        "streetTypeId": "DR",
        "placeName": "NIAGARA FALLS",
        "streetNameDisplayText": "DELLPARK DR, NIAGARA FALLS"
      }
    ]
  },
  {
    "postal": "L2J0P2",
    "result": []
  },
  {
    "postal": "L2J9M1",
    "result": []
  },
  {
    "postal": "L2J3G0",
    "result": []
  },
  {
    "postal": "L2J9Z2",
    "result": []
  },
  {
    "postal": "L2J2A0",
    "result": []
  },
  {
    "postal": "L2J6Y0",
    "result": []
  },
  {
    "postal": "L2J2Z8",
    "result": [
      {
        "electoralDistricts": [
          {
            "election": null,
            "id": 69,
            "name": "Niagara Falls"
          }
        ],
        "pollDivisionIds": [
          10139977
        ],
        "postalCode": "L2J2Z8",
        "streetName": "DORCHESTER",
        "streetDirectionId": null,
        "streetTypeId": "RD",
        "placeName": "NIAGARA FALLS",
        "streetNameDisplayText": "DORCHESTER RD, NIAGARA FALLS"
      }
    ]
  },
  {
    "postal": "L2J7Y3",
    "result": []
  },
  {
    "postal": "L2J6Z5",
    "result": []
  },
  {
    "postal": "L2J6E0",
    "result": []
  },
  {
    "postal": "L2J9B7",
    "result": []
  },
  {
    "postal": "L2J9S5",
    "result": []
  },
  {
    "postal": "L2J3X3",
    "result": [
      {
        "electoralDistricts": [
          {
            "election": null,
            "id": 69,
            "name": "Niagara Falls"
          }
        ],
        "pollDivisionIds": [
          10139971
        ],
        "postalCode": "L2J3X3",
        "streetName": "JUPITER",
        "streetDirectionId": null,
        "streetTypeId": "BLVD",
        "placeName": "NIAGARA FALLS",
        "streetNameDisplayText": "JUPITER BLVD, NIAGARA FALLS"
      }
    ]
  },
  {
    "postal": "L2J7R5",
    "result": []
  },
  {
    "postal": "L2J2X3",
    "result": [
      {
        "electoralDistricts": [
          {
            "election": null,
            "id": 69,
            "name": "Niagara Falls"
          }
        ],
        "pollDivisionIds": [
          10139977
        ],
        "postalCode": "L2J2X3",
        "streetName": "PIVA",
        "streetDirectionId": null,
        "streetTypeId": "AVE",
        "placeName": "NIAGARA FALLS",
        "streetNameDisplayText": "PIVA AVE, NIAGARA FALLS"
      }
    ]
  },
  {
    "postal": "L2J8Z9",
    "result": []
  },
  {
    "postal": "L2J0N4",
    "result": []
  },
  {
    "postal": "L2J1K1",
    "result": [
      {
        "electoralDistricts": [
          {
            "election": null,
            "id": 69,
            "name": "Niagara Falls"
          }
        ],
        "pollDivisionIds": [
          10139980
        ],
        "postalCode": "L2J1K1",
        "streetName": "KEITH",
        "streetDirectionId": null,
        "streetTypeId": "ST",
        "placeName": "NIAGARA FALLS",
        "streetNameDisplayText": "KEITH ST, NIAGARA FALLS"
      }
    ]
  },
  {
    "postal": "L2J1S3",
    "result": [
      {
        "electoralDistricts": [
          {
            "election": null,
            "id": 69,
            "name": "Niagara Falls"
          }
        ],
        "pollDivisionIds": [
          10139979
        ],
        "postalCode": "L2J1S3",
        "streetName": "CARMAN",
        "streetDirectionId": null,
        "streetTypeId": "ST",
        "placeName": "NIAGARA FALLS",
        "streetNameDisplayText": "CARMAN ST, NIAGARA FALLS"
      }
    ]
  },
  {
    "postal": "L2J6M4",
    "result": []
  },
  {
    "postal": "L2J9A9",
    "result": []
  },
  {
    "postal": "L2J9Z9",
    "result": []
  },
  {
    "postal": "L2J6T4",
    "result": []
  },
  {
    "postal": "L2J0B2",
    "result": [
      {
        "electoralDistricts": [
          {
            "election": null,
            "id": 69,
            "name": "Niagara Falls"
          }
        ],
        "pollDivisionIds": [
          10139972
        ],
        "postalCode": "L2J0B2",
        "streetName": "MEWBURN",
        "streetDirectionId": null,
        "streetTypeId": "RD",
        "placeName": "NIAGARA FALLS",
        "streetNameDisplayText": "MEWBURN RD, NIAGARA FALLS"
      }
    ]
  },
  {
    "postal": "L2J2L9",
    "result": [
      {
        "electoralDistricts": [
          {
            "election": null,
            "id": 69,
            "name": "Niagara Falls"
          }
        ],
        "pollDivisionIds": [
          10139979,
          10139977
        ],
        "postalCode": "L2J2L9",
        "streetName": "ST PAUL",
        "streetDirectionId": null,
        "streetTypeId": "AVE",
        "placeName": "NIAGARA FALLS",
        "streetNameDisplayText": "ST PAUL AVE, NIAGARA FALLS"
      }
    ]
  },
  {
    "postal": "L2J8K9",
    "result": []
  },
  {
    "postal": "L2J2H9",
    "result": [
      {
        "electoralDistricts": [
          {
            "election": null,
            "id": 69,
            "name": "Niagara Falls"
          }
        ],
        "pollDivisionIds": [
          10139979
        ],
        "postalCode": "L2J2H9",
        "streetName": "FRANCES",
        "streetDirectionId": null,
        "streetTypeId": "AVE",
        "placeName": "NIAGARA FALLS",
        "streetNameDisplayText": "FRANCES AVE, NIAGARA FALLS"
      }
    ]
  },
  {
    "postal": "L2J3Z6",
    "result": [
      {
        "electoralDistricts": [
          {
            "election": null,
            "id": 69,
            "name": "Niagara Falls"
          }
        ],
        "pollDivisionIds": [
          10139972
        ],
        "postalCode": "L2J3Z6",
        "streetName": "WOODGATE",
        "streetDirectionId": null,
        "streetTypeId": "ST",
        "placeName": "NIAGARA FALLS",
        "streetNameDisplayText": "WOODGATE ST, NIAGARA FALLS"
      }
    ]
  },
  {
    "postal": "L2J3B0",
    "result": []
  },
  {
    "postal": "L2J2H8",
    "result": [
      {
        "electoralDistricts": [
          {
            "election": null,
            "id": 69,
            "name": "Niagara Falls"
          }
        ],
        "pollDivisionIds": [
          10139979
        ],
        "postalCode": "L2J2H8",
        "streetName": "FRANCES",
        "streetDirectionId": null,
        "streetTypeId": "AVE",
        "placeName": "NIAGARA FALLS",
        "streetNameDisplayText": "FRANCES AVE, NIAGARA FALLS"
      }
    ]
  },
  {
    "postal": "L2J3X2",
    "result": [
      {
        "electoralDistricts": [
          {
            "election": null,
            "id": 69,
            "name": "Niagara Falls"
          }
        ],
        "pollDivisionIds": [
          10139975
        ],
        "postalCode": "L2J3X2",
        "streetName": "CASEY",
        "streetDirectionId": null,
        "streetTypeId": "ST",
        "placeName": "NIAGARA FALLS",
        "streetNameDisplayText": "CASEY ST, NIAGARA FALLS"
      }
    ]
  },
  {
    "postal": "L2J2E9",
    "result": [
      {
        "electoralDistricts": [
          {
            "election": null,
            "id": 69,
            "name": "Niagara Falls"
          }
        ],
        "pollDivisionIds": [
          10139979
        ],
        "postalCode": "L2J2E9",
        "streetName": "SINNICKS",
        "streetDirectionId": null,
        "streetTypeId": "AVE",
        "placeName": "NIAGARA FALLS",
        "streetNameDisplayText": "SINNICKS AVE, NIAGARA FALLS"
      }
    ]
  },
  {
    "postal": "L2J9P6",
    "result": []
  },
  {
    "postal": "L2J9E2",
    "result": []
  },
  {
    "postal": "L2J9H2",
    "result": []
  },
  {
    "postal": "L2J1S8",
    "result": [
      {
        "electoralDistricts": [
          {
            "election": null,
            "id": 69,
            "name": "Niagara Falls"
          }
        ],
        "pollDivisionIds": [
          10139979
        ],
        "postalCode": "L2J1S8",
        "streetName": "ATLAS",
        "streetDirectionId": null,
        "streetTypeId": "ST",
        "placeName": "NIAGARA FALLS",
        "streetNameDisplayText": "ATLAS ST, NIAGARA FALLS"
      }
    ]
  },
  {
    "postal": "L2J3M6",
    "result": [
      {
        "electoralDistricts": [
          {
            "election": null,
            "id": 69,
            "name": "Niagara Falls"
          }
        ],
        "pollDivisionIds": [
          10139979
        ],
        "postalCode": "L2J3M6",
        "streetName": "LEVINE",
        "streetDirectionId": null,
        "streetTypeId": "ST",
        "placeName": "NIAGARA FALLS",
        "streetNameDisplayText": "LEVINE ST, NIAGARA FALLS"
      }
    ]
  },
  {
    "postal": "L2J6Z8",
    "result": []
  },
  {
    "postal": "L2J4J2",
    "result": [
      {
        "electoralDistricts": [
          {
            "election": null,
            "id": 69,
            "name": "Niagara Falls"
          }
        ],
        "pollDivisionIds": [
          10139986
        ],
        "postalCode": "L2J4J2",
        "streetName": "ISAAC",
        "streetDirectionId": null,
        "streetTypeId": "ST",
        "placeName": "NIAGARA FALLS",
        "streetNameDisplayText": "ISAAC ST, NIAGARA FALLS"
      }
    ]
  },
  {
    "postal": "L2J9Y1",
    "result": []
  },
  {
    "postal": "L2J8V6",
    "result": []
  },
  {
    "postal": "L2J6B2",
    "result": []
  },
  {
    "postal": "L2J1P8",
    "result": [
      {
        "electoralDistricts": [
          {
            "election": null,
            "id": 69,
            "name": "Niagara Falls"
          }
        ],
        "pollDivisionIds": [
          10139977
        ],
        "postalCode": "L2J1P8",
        "streetName": "RUSSELL",
        "streetDirectionId": null,
        "streetTypeId": "ST",
        "placeName": "NIAGARA FALLS",
        "streetNameDisplayText": "RUSSELL ST, NIAGARA FALLS"
      }
    ]
  },
  {
    "postal": "L2J0V8",
    "result": []
  },
  {
    "postal": "L2J4Y0",
    "result": []
  },
  {
    "postal": "L2J2T4",
    "result": [
      {
        "electoralDistricts": [
          {
            "election": null,
            "id": 69,
            "name": "Niagara Falls"
          }
        ],
        "pollDivisionIds": [
          10139977
        ],
        "postalCode": "L2J2T4",
        "streetName": "WALLACE",
        "streetDirectionId": null,
        "streetTypeId": "CRES",
        "placeName": "NIAGARA FALLS",
        "streetNameDisplayText": "WALLACE CRES, NIAGARA FALLS"
      }
    ]
  },
  {
    "postal": "L2J2S3",
    "result": [
      {
        "electoralDistricts": [
          {
            "election": null,
            "id": 69,
            "name": "Niagara Falls"
          }
        ],
        "pollDivisionIds": [
          10139978
        ],
        "postalCode": "L2J2S3",
        "streetName": "MARLBOROUGH",
        "streetDirectionId": null,
        "streetTypeId": "PL",
        "placeName": "NIAGARA FALLS",
        "streetNameDisplayText": "MARLBOROUGH PL, NIAGARA FALLS"
      }
    ]
  },
  {
    "postal": "L2J0K0",
    "result": []
  },
  {
    "postal": "L2J5N1",
    "result": []
  },
  {
    "postal": "L2J7T0",
    "result": []
  },
  {
    "postal": "L2J9N2",
    "result": []
  },
  {
    "postal": "L2J5L1",
    "result": []
  },
  {
    "postal": "L2J7G5",
    "result": []
  },
  {
    "postal": "L2J6K2",
    "result": []
  },
  {
    "postal": "L2J6P9",
    "result": []
  },
  {
    "postal": "L2J0E6",
    "result": [
      {
        "electoralDistricts": [
          {
            "election": null,
            "id": 69,
            "name": "Niagara Falls"
          }
        ],
        "pollDivisionIds": [
          10139979
        ],
        "postalCode": "L2J0E6",
        "streetName": "SWAYZE",
        "streetDirectionId": null,
        "streetTypeId": "DR",
        "placeName": "NIAGARA FALLS",
        "streetNameDisplayText": "SWAYZE DR, NIAGARA FALLS"
      }
    ]
  },
  {
    "postal": "L2J8R9",
    "result": []
  },
  {
    "postal": "L2J3G9",
    "result": [
      {
        "electoralDistricts": [
          {
            "election": null,
            "id": 69,
            "name": "Niagara Falls"
          }
        ],
        "pollDivisionIds": [
          10139972
        ],
        "postalCode": "L2J3G9",
        "streetName": "NOELLA",
        "streetDirectionId": null,
        "streetTypeId": "CRES",
        "placeName": "NIAGARA FALLS",
        "streetNameDisplayText": "NOELLA CRES, NIAGARA FALLS"
      }
    ]
  },
  {
    "postal": "L2J0V7",
    "result": []
  },
  {
    "postal": "L2J2Z1",
    "result": []
  },
  {
    "postal": "L2J7N1",
    "result": []
  },
  {
    "postal": "L2J3C6",
    "result": [
      {
        "electoralDistricts": [
          {
            "election": null,
            "id": 69,
            "name": "Niagara Falls"
          }
        ],
        "pollDivisionIds": [
          10139976
        ],
        "postalCode": "L2J3C6",
        "streetName": "HARVARD",
        "streetDirectionId": null,
        "streetTypeId": "AVE",
        "placeName": "NIAGARA FALLS",
        "streetNameDisplayText": "HARVARD AVE, NIAGARA FALLS"
      }
    ]
  },
  {
    "postal": "L2J4M1",
    "result": []
  },
  {
    "postal": "L2J9K2",
    "result": []
  },
  {
    "postal": "L2J9S6",
    "result": []
  },
  {
    "postal": "L2J4X1",
    "result": []
  },
  {
    "postal": "L2J8W2",
    "result": []
  },
  {
    "postal": "L2J7N2",
    "result": []
  },
  {
    "postal": "L2J8S3",
    "result": []
  },
  {
    "postal": "L2J4V0",
    "result": []
  },
  {
    "postal": "L2J6W4",
    "result": []
  },
  {
    "postal": "L2J5M1",
    "result": []
  },
  {
    "postal": "L2J0S4",
    "result": []
  },
  {
    "postal": "L2J5X6",
    "result": []
  },
  {
    "postal": "L2J8L5",
    "result": []
  },
  {
    "postal": "L2J5M8",
    "result": []
  },
  {
    "postal": "L2J2G3",
    "result": [
      {
        "electoralDistricts": [
          {
            "election": null,
            "id": 69,
            "name": "Niagara Falls"
          }
        ],
        "pollDivisionIds": [
          10139979
        ],
        "postalCode": "L2J2G3",
        "streetName": "SINNICKS",
        "streetDirectionId": null,
        "streetTypeId": "AVE",
        "placeName": "NIAGARA FALLS",
        "streetNameDisplayText": "SINNICKS AVE, NIAGARA FALLS"
      }
    ]
  },
  {
    "postal": "L2J8E4",
    "result": []
  },
  {
    "postal": "L2J7S9",
    "result": []
  },
  {
    "postal": "L2J1K3",
    "result": [
      {
        "electoralDistricts": [
          {
            "election": null,
            "id": 69,
            "name": "Niagara Falls"
          }
        ],
        "pollDivisionIds": [
          10139979
        ],
        "postalCode": "L2J1K3",
        "streetName": "COHOLAN",
        "streetDirectionId": null,
        "streetTypeId": "ST",
        "placeName": "NIAGARA FALLS",
        "streetNameDisplayText": "COHOLAN ST, NIAGARA FALLS"
      }
    ]
  },
  {
    "postal": "L2J4E1",
    "result": [
      {
        "electoralDistricts": [
          {
            "election": null,
            "id": 69,
            "name": "Niagara Falls"
          }
        ],
        "pollDivisionIds": [
          10139971
        ],
        "postalCode": "L2J4E1",
        "streetName": "GALAXY",
        "streetDirectionId": null,
        "streetTypeId": "DR",
        "placeName": "NIAGARA FALLS",
        "streetNameDisplayText": "GALAXY DR, NIAGARA FALLS"
      }
    ]
  },
  {
    "postal": "L2J4R2",
    "result": []
  },
  {
    "postal": "L2J6T0",
    "result": []
  },
  {
    "postal": "L2J3K5",
    "result": [
      {
        "electoralDistricts": [
          {
            "election": null,
            "id": 69,
            "name": "Niagara Falls"
          }
        ],
        "pollDivisionIds": [
          10139979
        ],
        "postalCode": "L2J3K5",
        "streetName": "SECORD",
        "streetDirectionId": null,
        "streetTypeId": "PL",
        "placeName": "NIAGARA FALLS",
        "streetNameDisplayText": "SECORD PL, NIAGARA FALLS"
      }
    ]
  },
  {
    "postal": "L2J3S3",
    "result": [
      {
        "electoralDistricts": [
          {
            "election": null,
            "id": 69,
            "name": "Niagara Falls"
          }
        ],
        "pollDivisionIds": [
          10139975
        ],
        "postalCode": "L2J3S3",
        "streetName": "HARRIMAN",
        "streetDirectionId": null,
        "streetTypeId": "ST",
        "placeName": "NIAGARA FALLS",
        "streetNameDisplayText": "HARRIMAN ST, NIAGARA FALLS"
      }
    ]
  },
  {
    "postal": "L2J3L4",
    "result": [
      {
        "electoralDistricts": [
          {
            "election": null,
            "id": 69,
            "name": "Niagara Falls"
          }
        ],
        "pollDivisionIds": [
          10139979
        ],
        "postalCode": "L2J3L4",
        "streetName": "SECORD",
        "streetDirectionId": null,
        "streetTypeId": "PL",
        "placeName": "NIAGARA FALLS",
        "streetNameDisplayText": "SECORD PL, NIAGARA FALLS"
      }
    ]
  },
  {
    "postal": "L2J9Y2",
    "result": []
  },
  {
    "postal": "L2J1E0",
    "result": []
  },
  {
    "postal": "L2J9A4",
    "result": []
  },
  {
    "postal": "L2J1L3",
    "result": [
      {
        "electoralDistricts": [
          {
            "election": null,
            "id": 69,
            "name": "Niagara Falls"
          }
        ],
        "pollDivisionIds": [
          10139979
        ],
        "postalCode": "L2J1L3",
        "streetName": "VINE",
        "streetDirectionId": null,
        "streetTypeId": "ST",
        "placeName": "NIAGARA FALLS",
        "streetNameDisplayText": "VINE ST, NIAGARA FALLS"
      }
    ]
  },
  {
    "postal": "L2J6N1",
    "result": []
  },
  {
    "postal": "L2J6G7",
    "result": []
  },
  {
    "postal": "L2J7W1",
    "result": []
  },
  {
    "postal": "L2J4M6",
    "result": []
  },
  {
    "postal": "L2J1K0",
    "result": []
  },
  {
    "postal": "L2J3E2",
    "result": [
      {
        "electoralDistricts": [
          {
            "election": null,
            "id": 69,
            "name": "Niagara Falls"
          }
        ],
        "pollDivisionIds": [
          10139976
        ],
        "postalCode": "L2J3E2",
        "streetName": "VALOUR",
        "streetDirectionId": null,
        "streetTypeId": "CRES",
        "placeName": "NIAGARA FALLS",
        "streetNameDisplayText": "VALOUR CRES, NIAGARA FALLS"
      }
    ]
  },
  {
    "postal": "L2J5H4",
    "result": []
  },
  {
    "postal": "L2J1K7",
    "result": [
      {
        "electoralDistricts": [
          {
            "election": null,
            "id": 69,
            "name": "Niagara Falls"
          }
        ],
        "pollDivisionIds": [
          10139979
        ],
        "postalCode": "L2J1K7",
        "streetName": "COHOLAN",
        "streetDirectionId": null,
        "streetTypeId": "ST",
        "placeName": "NIAGARA FALLS",
        "streetNameDisplayText": "COHOLAN ST, NIAGARA FALLS"
      }
    ]
  },
  {
    "postal": "L2J0H0",
    "result": []
  },
  {
    "postal": "L2J0J3",
    "result": []
  },
  {
    "postal": "L2J1X6",
    "result": [
      {
        "electoralDistricts": [
          {
            "election": null,
            "id": 69,
            "name": "Niagara Falls"
          }
        ],
        "pollDivisionIds": [
          10139977
        ],
        "postalCode": "L2J1X6",
        "streetName": "MCMICKING",
        "streetDirectionId": null,
        "streetTypeId": "ST",
        "placeName": "NIAGARA FALLS",
        "streetNameDisplayText": "MCMICKING ST, NIAGARA FALLS"
      }
    ]
  },
  {
    "postal": "L2J2Z6",
    "result": [
      {
        "electoralDistricts": [
          {
            "election": null,
            "id": 69,
            "name": "Niagara Falls"
          }
        ],
        "pollDivisionIds": [
          10139977
        ],
        "postalCode": "L2J2Z6",
        "streetName": "DORCHESTER",
        "streetDirectionId": null,
        "streetTypeId": "RD",
        "placeName": "NIAGARA FALLS",
        "streetNameDisplayText": "DORCHESTER RD, NIAGARA FALLS"
      }
    ]
  },
  {
    "postal": "L2J4R9",
    "result": []
  },
  {
    "postal": "L2J0W8",
    "result": []
  },
  {
    "postal": "L2J1L4",
    "result": [
      {
        "electoralDistricts": [
          {
            "election": null,
            "id": 69,
            "name": "Niagara Falls"
          }
        ],
        "pollDivisionIds": [
          10139979
        ],
        "postalCode": "L2J1L4",
        "streetName": "VINE",
        "streetDirectionId": null,
        "streetTypeId": "ST",
        "placeName": "NIAGARA FALLS",
        "streetNameDisplayText": "VINE ST, NIAGARA FALLS"
      }
    ]
  },
  {
    "postal": "L2J0C8",
    "result": [
      {
        "electoralDistricts": [
          {
            "election": null,
            "id": 69,
            "name": "Niagara Falls"
          }
        ],
        "pollDivisionIds": [
          10139980
        ],
        "postalCode": "L2J0C8",
        "streetName": "STANLEY",
        "streetDirectionId": null,
        "streetTypeId": "AVE",
        "placeName": "NIAGARA FALLS",
        "streetNameDisplayText": "STANLEY AVE, NIAGARA FALLS"
      }
    ]
  },
  {
    "postal": "L2J9X7",
    "result": []
  },
  {
    "postal": "L2J4T1",
    "result": []
  },
  {
    "postal": "L2J0M0",
    "result": []
  },
  {
    "postal": "L2J6A2",
    "result": []
  },
  {
    "postal": "L2J9S8",
    "result": []
  },
  {
    "postal": "L2J9T4",
    "result": []
  },
  {
    "postal": "L2J9Y4",
    "result": []
  },
  {
    "postal": "L2J6G5",
    "result": []
  },
  {
    "postal": "L2J6H9",
    "result": []
  },
  {
    "postal": "L2J2P3",
    "result": [
      {
        "electoralDistricts": [
          {
            "election": null,
            "id": 69,
            "name": "Niagara Falls"
          }
        ],
        "pollDivisionIds": [
          10139977
        ],
        "postalCode": "L2J2P3",
        "streetName": "ST GEORGE",
        "streetDirectionId": null,
        "streetTypeId": "AVE",
        "placeName": "NIAGARA FALLS",
        "streetNameDisplayText": "ST GEORGE AVE, NIAGARA FALLS"
      }
    ]
  },
  {
    "postal": "L2J1T6",
    "result": [
      {
        "electoralDistricts": [
          {
            "election": null,
            "id": 69,
            "name": "Niagara Falls"
          }
        ],
        "pollDivisionIds": [
          10139977
        ],
        "postalCode": "L2J1T6",
        "streetName": "STAMFORD GREEN",
        "streetDirectionId": null,
        "streetTypeId": "DR",
        "placeName": "NIAGARA FALLS",
        "streetNameDisplayText": "STAMFORD GREEN DR, NIAGARA FALLS"
      }
    ]
  },
  {
    "postal": "L2J4P6",
    "result": []
  },
  {
    "postal": "L2J3K1",
    "result": [
      {
        "electoralDistricts": [
          {
            "election": null,
            "id": 69,
            "name": "Niagara Falls"
          }
        ],
        "pollDivisionIds": [
          10139979
        ],
        "postalCode": "L2J3K1",
        "streetName": "SWAYZE",
        "streetDirectionId": null,
        "streetTypeId": "DR",
        "placeName": "NIAGARA FALLS",
        "streetNameDisplayText": "SWAYZE DR, NIAGARA FALLS"
      }
    ]
  },
  {
    "postal": "L2J6X4",
    "result": []
  },
  {
    "postal": "L2J4M8",
    "result": []
  },
  {
    "postal": "L2J2Y1",
    "result": [
      {
        "electoralDistricts": [
          {
            "election": null,
            "id": 69,
            "name": "Niagara Falls"
          }
        ],
        "pollDivisionIds": [
          10139978
        ],
        "postalCode": "L2J2Y1",
        "streetName": "SHEPPARD",
        "streetDirectionId": null,
        "streetTypeId": "CRES",
        "placeName": "NIAGARA FALLS",
        "streetNameDisplayText": "SHEPPARD CRES, NIAGARA FALLS"
      }
    ]
  },
  {
    "postal": "L2J6M1",
    "result": []
  },
  {
    "postal": "L2J5L8",
    "result": []
  },
  {
    "postal": "L2J3P6",
    "result": [
      {
        "electoralDistricts": [
          {
            "election": null,
            "id": 69,
            "name": "Niagara Falls"
          }
        ],
        "pollDivisionIds": [
          10139975
        ],
        "postalCode": "L2J3P6",
        "streetName": "BRIAN",
        "streetDirectionId": null,
        "streetTypeId": "CRES",
        "placeName": "NIAGARA FALLS",
        "streetNameDisplayText": "BRIAN CRES, NIAGARA FALLS"
      }
    ]
  },
  {
    "postal": "L2J9A5",
    "result": []
  },
  {
    "postal": "L2J7K1",
    "result": []
  },
  {
    "postal": "L2J3J4",
    "result": [
      {
        "electoralDistricts": [
          {
            "election": null,
            "id": 69,
            "name": "Niagara Falls"
          }
        ],
        "pollDivisionIds": [
          10139979
        ],
        "postalCode": "L2J3J4",
        "streetName": "STROHAN",
        "streetDirectionId": null,
        "streetTypeId": "ST",
        "placeName": "NIAGARA FALLS",
        "streetNameDisplayText": "STROHAN ST, NIAGARA FALLS"
      }
    ]
  },
  {
    "postal": "L2J5E7",
    "result": []
  },
  {
    "postal": "L2J3A7",
    "result": [
      {
        "electoralDistricts": [
          {
            "election": null,
            "id": 69,
            "name": "Niagara Falls"
          }
        ],
        "pollDivisionIds": [
          10139986
        ],
        "postalCode": "L2J3A7",
        "streetName": "DORCHESTER",
        "streetDirectionId": null,
        "streetTypeId": "RD",
        "placeName": "NIAGARA FALLS",
        "streetNameDisplayText": "DORCHESTER RD, NIAGARA FALLS"
      }
    ]
  },
  {
    "postal": "L2J1B9",
    "result": [
      {
        "electoralDistricts": [
          {
            "election": null,
            "id": 69,
            "name": "Niagara Falls"
          }
        ],
        "pollDivisionIds": [
          10139986
        ],
        "postalCode": "L2J1B9",
        "streetName": "CASWELL",
        "streetDirectionId": null,
        "streetTypeId": "ST",
        "placeName": "NIAGARA FALLS",
        "streetNameDisplayText": "CASWELL ST, NIAGARA FALLS"
      }
    ]
  },
  {
    "postal": "L2J9E8",
    "result": []
  },
  {
    "postal": "L2J1C9",
    "result": [
      {
        "electoralDistricts": [
          {
            "election": null,
            "id": 69,
            "name": "Niagara Falls"
          }
        ],
        "pollDivisionIds": [
          10139986
        ],
        "postalCode": "L2J1C9",
        "streetName": "ST JOHN",
        "streetDirectionId": null,
        "streetTypeId": "ST",
        "placeName": "NIAGARA FALLS",
        "streetNameDisplayText": "ST JOHN ST, NIAGARA FALLS"
      }
    ]
  },
  {
    "postal": "L2J3B5",
    "result": [
      {
        "electoralDistricts": [
          {
            "election": null,
            "id": 69,
            "name": "Niagara Falls"
          }
        ],
        "pollDivisionIds": [
          10139976
        ],
        "postalCode": "L2J3B5",
        "streetName": "ETON",
        "streetDirectionId": null,
        "streetTypeId": "CRES",
        "placeName": "NIAGARA FALLS",
        "streetNameDisplayText": "ETON CRES, NIAGARA FALLS"
      }
    ]
  },
  {
    "postal": "L2J8R0",
    "result": []
  },
  {
    "postal": "L2J3P2",
    "result": [
      {
        "electoralDistricts": [
          {
            "election": null,
            "id": 69,
            "name": "Niagara Falls"
          }
        ],
        "pollDivisionIds": [
          10139975
        ],
        "postalCode": "L2J3P2",
        "streetName": "BRADY",
        "streetDirectionId": null,
        "streetTypeId": "ST",
        "placeName": "NIAGARA FALLS",
        "streetNameDisplayText": "BRADY ST, NIAGARA FALLS"
      }
    ]
  },
  {
    "postal": "L2J5V4",
    "result": []
  },
  {
    "postal": "L2J4H0",
    "result": []
  },
  {
    "postal": "L2J4S7",
    "result": []
  },
  {
    "postal": "L2J6C2",
    "result": []
  },
  {
    "postal": "L2J8W3",
    "result": []
  },
  {
    "postal": "L2J4M5",
    "result": []
  },
  {
    "postal": "L2J5T1",
    "result": []
  },
  {
    "postal": "L2J3B3",
    "result": [
      {
        "electoralDistricts": [
          {
            "election": null,
            "id": 69,
            "name": "Niagara Falls"
          }
        ],
        "pollDivisionIds": [
          10139975
        ],
        "postalCode": "L2J3B3",
        "streetName": "PRIOR",
        "streetDirectionId": null,
        "streetTypeId": "CRES",
        "placeName": "NIAGARA FALLS",
        "streetNameDisplayText": "PRIOR CRES, NIAGARA FALLS"
      }
    ]
  },
  {
    "postal": "L2J6C6",
    "result": []
  },
  {
    "postal": "L2J7N8",
    "result": []
  },
  {
    "postal": "L2J2Y3",
    "result": [
      {
        "electoralDistricts": [
          {
            "election": null,
            "id": 69,
            "name": "Niagara Falls"
          }
        ],
        "pollDivisionIds": [
          10139978
        ],
        "postalCode": "L2J2Y3",
        "streetName": "WINDERMERE",
        "streetDirectionId": null,
        "streetTypeId": "RD",
        "placeName": "NIAGARA FALLS",
        "streetNameDisplayText": "WINDERMERE RD, NIAGARA FALLS"
      }
    ]
  },
  {
    "postal": "L2J2R6",
    "result": [
      {
        "electoralDistricts": [
          {
            "election": null,
            "id": 69,
            "name": "Niagara Falls"
          }
        ],
        "pollDivisionIds": [
          10139977
        ],
        "postalCode": "L2J2R6",
        "streetName": "ST ANDREW",
        "streetDirectionId": null,
        "streetTypeId": "AVE",
        "placeName": "NIAGARA FALLS",
        "streetNameDisplayText": "ST ANDREW AVE, NIAGARA FALLS"
      }
    ]
  },
  {
    "postal": "L2J7N3",
    "result": []
  },
  {
    "postal": "L2J8J2",
    "result": []
  },
  {
    "postal": "L2J6A9",
    "result": []
  },
  {
    "postal": "L2J3V2",
    "result": [
      {
        "electoralDistricts": [
          {
            "election": null,
            "id": 69,
            "name": "Niagara Falls"
          }
        ],
        "pollDivisionIds": [
          10139975
        ],
        "postalCode": "L2J3V2",
        "streetName": "ROSSEAU",
        "streetDirectionId": null,
        "streetTypeId": "PL",
        "placeName": "NIAGARA FALLS",
        "streetNameDisplayText": "ROSSEAU PL, NIAGARA FALLS"
      }
    ]
  },
  {
    "postal": "L2J2N3",
    "result": [
      {
        "electoralDistricts": [
          {
            "election": null,
            "id": 69,
            "name": "Niagara Falls"
          }
        ],
        "pollDivisionIds": [
          10139977
        ],
        "postalCode": "L2J2N3",
        "streetName": "ST PATRICK",
        "streetDirectionId": null,
        "streetTypeId": "AVE",
        "placeName": "NIAGARA FALLS",
        "streetNameDisplayText": "ST PATRICK AVE, NIAGARA FALLS"
      }
    ]
  },
  {
    "postal": "L2J1S5",
    "result": [
      {
        "electoralDistricts": [
          {
            "election": null,
            "id": 69,
            "name": "Niagara Falls"
          }
        ],
        "pollDivisionIds": [
          10139979
        ],
        "postalCode": "L2J1S5",
        "streetName": "CARMAN",
        "streetDirectionId": null,
        "streetTypeId": "ST",
        "placeName": "NIAGARA FALLS",
        "streetNameDisplayText": "CARMAN ST, NIAGARA FALLS"
      }
    ]
  },
  {
    "postal": "L2J4T7",
    "result": []
  },
  {
    "postal": "L2J6Y7",
    "result": []
  },
  {
    "postal": "L2J0W7",
    "result": []
  },
  {
    "postal": "L2J2W9",
    "result": [
      {
        "electoralDistricts": [
          {
            "election": null,
            "id": 69,
            "name": "Niagara Falls"
          }
        ],
        "pollDivisionIds": [
          10139978
        ],
        "postalCode": "L2J2W9",
        "streetName": "ARLINGTON",
        "streetDirectionId": null,
        "streetTypeId": "AVE",
        "placeName": "NIAGARA FALLS",
        "streetNameDisplayText": "ARLINGTON AVE, NIAGARA FALLS"
      }
    ]
  },
  {
    "postal": "L2J8V0",
    "result": []
  },
  {
    "postal": "L2J0H4",
    "result": []
  },
  {
    "postal": "L2J2T1",
    "result": [
      {
        "electoralDistricts": [
          {
            "election": null,
            "id": 69,
            "name": "Niagara Falls"
          }
        ],
        "pollDivisionIds": [
          10139977
        ],
        "postalCode": "L2J2T1",
        "streetName": "CULLIMORE",
        "streetDirectionId": null,
        "streetTypeId": "AVE",
        "placeName": "NIAGARA FALLS",
        "streetNameDisplayText": "CULLIMORE AVE, NIAGARA FALLS"
      }
    ]
  },
  {
    "postal": "L2J1B1",
    "result": [
      {
        "electoralDistricts": [
          {
            "election": null,
            "id": 69,
            "name": "Niagara Falls"
          }
        ],
        "pollDivisionIds": [
          10139986
        ],
        "postalCode": "L2J1B1",
        "streetName": "THOROLD STONE",
        "streetDirectionId": null,
        "streetTypeId": "RD",
        "placeName": "NIAGARA FALLS",
        "streetNameDisplayText": "THOROLD STONE RD, NIAGARA FALLS"
      }
    ]
  },
  {
    "postal": "L2J8B6",
    "result": []
  },
  {
    "postal": "L2J6H1",
    "result": []
  },
  {
    "postal": "L2J8T8",
    "result": []
  },
  {
    "postal": "L2J0T4",
    "result": []
  },
  {
    "postal": "L2J2C4",
    "result": [
      {
        "electoralDistricts": [
          {
            "election": null,
            "id": 69,
            "name": "Niagara Falls"
          }
        ],
        "pollDivisionIds": [
          10139972
        ],
        "postalCode": "L2J2C4",
        "streetName": "WOODINGTON",
        "streetDirectionId": null,
        "streetTypeId": "RD",
        "placeName": "NIAGARA FALLS",
        "streetNameDisplayText": "WOODINGTON RD, NIAGARA FALLS"
      }
    ]
  },
  {
    "postal": "L2J8N3",
    "result": []
  },
  {
    "postal": "L2J4L8",
    "result": [
      {
        "electoralDistricts": [
          {
            "election": null,
            "id": 69,
            "name": "Niagara Falls"
          }
        ],
        "pollDivisionIds": [
          10140029
        ],
        "postalCode": "L2J4L8",
        "streetName": "PORTAGE",
        "streetDirectionId": null,
        "streetTypeId": "RD",
        "placeName": "NIAGARA FALLS",
        "streetNameDisplayText": "PORTAGE RD, NIAGARA FALLS"
      }
    ]
  },
  {
    "postal": "L2J2B5",
    "result": [
      {
        "electoralDistricts": [
          {
            "election": null,
            "id": 69,
            "name": "Niagara Falls"
          }
        ],
        "pollDivisionIds": [
          10139971
        ],
        "postalCode": "L2J2B5",
        "streetName": "WILINGER",
        "streetDirectionId": null,
        "streetTypeId": "ST",
        "placeName": "NIAGARA FALLS",
        "streetNameDisplayText": "WILINGER ST, NIAGARA FALLS"
      }
    ]
  },
  {
    "postal": "L2J3H1",
    "result": [
      {
        "electoralDistricts": [
          {
            "election": null,
            "id": 69,
            "name": "Niagara Falls"
          }
        ],
        "pollDivisionIds": [
          10139972
        ],
        "postalCode": "L2J3H1",
        "streetName": "RIDGEWOOD",
        "streetDirectionId": null,
        "streetTypeId": "CRES",
        "placeName": "NIAGARA FALLS",
        "streetNameDisplayText": "RIDGEWOOD CRES, NIAGARA FALLS"
      }
    ]
  },
  {
    "postal": "L2J4Y1",
    "result": []
  },
  {
    "postal": "L2J7E2",
    "result": []
  },
  {
    "postal": "L2J2P5",
    "result": [
      {
        "electoralDistricts": [
          {
            "election": null,
            "id": 69,
            "name": "Niagara Falls"
          }
        ],
        "pollDivisionIds": [
          10139977
        ],
        "postalCode": "L2J2P5",
        "streetName": "ST GEORGE",
        "streetDirectionId": null,
        "streetTypeId": "AVE",
        "placeName": "NIAGARA FALLS",
        "streetNameDisplayText": "ST GEORGE AVE, NIAGARA FALLS"
      }
    ]
  },
  {
    "postal": "L2J8R7",
    "result": []
  },
  {
    "postal": "L2J9P1",
    "result": []
  },
  {
    "postal": "L2J3B8",
    "result": [
      {
        "electoralDistricts": [
          {
            "election": null,
            "id": 69,
            "name": "Niagara Falls"
          }
        ],
        "pollDivisionIds": [
          10139976
        ],
        "postalCode": "L2J3B8",
        "streetName": "ROLLING ACRES",
        "streetDirectionId": null,
        "streetTypeId": "DR",
        "placeName": "NIAGARA FALLS",
        "streetNameDisplayText": "ROLLING ACRES DR, NIAGARA FALLS"
      }
    ]
  },
  {
    "postal": "L2J3P7",
    "result": [
      {
        "electoralDistricts": [
          {
            "election": null,
            "id": 69,
            "name": "Niagara Falls"
          }
        ],
        "pollDivisionIds": [
          10139975
        ],
        "postalCode": "L2J3P7",
        "streetName": "CASEY",
        "streetDirectionId": null,
        "streetTypeId": "ST",
        "placeName": "NIAGARA FALLS",
        "streetNameDisplayText": "CASEY ST, NIAGARA FALLS"
      }
    ]
  },
  {
    "postal": "L2J9B2",
    "result": []
  },
  {
    "postal": "L2J6Z3",
    "result": []
  },
  {
    "postal": "L2J4N5",
    "result": []
  },
  {
    "postal": "L2J8T3",
    "result": []
  },
  {
    "postal": "L2J1V2",
    "result": [
      {
        "electoralDistricts": [
          {
            "election": null,
            "id": 69,
            "name": "Niagara Falls"
          }
        ],
        "pollDivisionIds": [
          10139979
        ],
        "postalCode": "L2J1V2",
        "streetName": "SILVERWOOD",
        "streetDirectionId": null,
        "streetTypeId": "CRES",
        "placeName": "NIAGARA FALLS",
        "streetNameDisplayText": "SILVERWOOD CRES, NIAGARA FALLS"
      }
    ]
  },
  {
    "postal": "L2J1Y0",
    "result": []
  },
  {
    "postal": "L2J3G6",
    "result": [
      {
        "electoralDistricts": [
          {
            "election": null,
            "id": 69,
            "name": "Niagara Falls"
          }
        ],
        "pollDivisionIds": [
          10139975
        ],
        "postalCode": "L2J3G6",
        "streetName": "CASEY",
        "streetDirectionId": null,
        "streetTypeId": "ST",
        "placeName": "NIAGARA FALLS",
        "streetNameDisplayText": "CASEY ST, NIAGARA FALLS"
      },
      {
        "electoralDistricts": [
          {
            "election": null,
            "id": 69,
            "name": "Niagara Falls"
          }
        ],
        "pollDivisionIds": [
          10139975
        ],
        "postalCode": "L2J3G6",
        "streetName": "DORCHESTER",
        "streetDirectionId": null,
        "streetTypeId": "RD",
        "placeName": "NIAGARA FALLS",
        "streetNameDisplayText": "DORCHESTER RD, NIAGARA FALLS"
      }
    ]
  },
  {
    "postal": "L2J3H7",
    "result": [
      {
        "electoralDistricts": [
          {
            "election": null,
            "id": 69,
            "name": "Niagara Falls"
          }
        ],
        "pollDivisionIds": [
          10139972
        ],
        "postalCode": "L2J3H7",
        "streetName": "NOELLA",
        "streetDirectionId": null,
        "streetTypeId": "CRES",
        "placeName": "NIAGARA FALLS",
        "streetNameDisplayText": "NOELLA CRES, NIAGARA FALLS"
      }
    ]
  },
  {
    "postal": "L2J7X8",
    "result": []
  },
  {
    "postal": "L2J0C7",
    "result": [
      {
        "electoralDistricts": [
          {
            "election": null,
            "id": 69,
            "name": "Niagara Falls"
          }
        ],
        "pollDivisionIds": [
          10139971
        ],
        "postalCode": "L2J0C7",
        "streetName": "ST PAUL",
        "streetDirectionId": null,
        "streetTypeId": "AVE",
        "placeName": "NIAGARA FALLS",
        "streetNameDisplayText": "ST PAUL AVE, NIAGARA FALLS"
      }
    ]
  },
  {
    "postal": "L2J0W9",
    "result": []
  },
  {
    "postal": "L2J8E6",
    "result": []
  },
  {
    "postal": "L2J9Z8",
    "result": []
  },
  {
    "postal": "L2J3P4",
    "result": [
      {
        "electoralDistricts": [
          {
            "election": null,
            "id": 69,
            "name": "Niagara Falls"
          }
        ],
        "pollDivisionIds": [
          10139975
        ],
        "postalCode": "L2J3P4",
        "streetName": "BRIAN",
        "streetDirectionId": null,
        "streetTypeId": "CRES",
        "placeName": "NIAGARA FALLS",
        "streetNameDisplayText": "BRIAN CRES, NIAGARA FALLS"
      }
    ]
  },
  {
    "postal": "L2J6L8",
    "result": []
  },
  {
    "postal": "L2J2R4",
    "result": [
      {
        "electoralDistricts": [
          {
            "election": null,
            "id": 69,
            "name": "Niagara Falls"
          }
        ],
        "pollDivisionIds": [
          10139986
        ],
        "postalCode": "L2J2R4",
        "streetName": "ST JAMES",
        "streetDirectionId": null,
        "streetTypeId": "AVE",
        "placeName": "NIAGARA FALLS",
        "streetNameDisplayText": "ST JAMES AVE, NIAGARA FALLS"
      },
      {
        "electoralDistricts": [
          {
            "election": null,
            "id": 69,
            "name": "Niagara Falls"
          }
        ],
        "pollDivisionIds": [
          10139986
        ],
        "postalCode": "L2J2R4",
        "streetName": "ST. JAMES",
        "streetDirectionId": null,
        "streetTypeId": "AVE",
        "placeName": "NIAGARA FALLS",
        "streetNameDisplayText": "ST. JAMES AVE, NIAGARA FALLS"
      }
    ]
  },
  {
    "postal": "L2J2W1",
    "result": [
      {
        "electoralDistricts": [
          {
            "election": null,
            "id": 69,
            "name": "Niagara Falls"
          }
        ],
        "pollDivisionIds": [
          10139978
        ],
        "postalCode": "L2J2W1",
        "streetName": "GLENDALE",
        "streetDirectionId": null,
        "streetTypeId": "PL",
        "placeName": "NIAGARA FALLS",
        "streetNameDisplayText": "GLENDALE PL, NIAGARA FALLS"
      }
    ]
  },
  {
    "postal": "L2J9H8",
    "result": []
  },
  {
    "postal": "L2J8X9",
    "result": []
  },
  {
    "postal": "L2J7H4",
    "result": []
  },
  {
    "postal": "L2J3J1",
    "result": [
      {
        "electoralDistricts": [
          {
            "election": null,
            "id": 69,
            "name": "Niagara Falls"
          }
        ],
        "pollDivisionIds": [
          10139971
        ],
        "postalCode": "L2J3J1",
        "streetName": "DELLPARK",
        "streetDirectionId": null,
        "streetTypeId": "DR",
        "placeName": "NIAGARA FALLS",
        "streetNameDisplayText": "DELLPARK DR, NIAGARA FALLS"
      }
    ]
  },
  {
    "postal": "L2J1P4",
    "result": [
      {
        "electoralDistricts": [
          {
            "election": null,
            "id": 69,
            "name": "Niagara Falls"
          }
        ],
        "pollDivisionIds": [
          10139977
        ],
        "postalCode": "L2J1P4",
        "streetName": "RUSSELL",
        "streetDirectionId": null,
        "streetTypeId": "ST",
        "placeName": "NIAGARA FALLS",
        "streetNameDisplayText": "RUSSELL ST, NIAGARA FALLS"
      }
    ]
  },
  {
    "postal": "L2J2A3",
    "result": [
      {
        "electoralDistricts": [
          {
            "election": null,
            "id": 69,
            "name": "Niagara Falls"
          }
        ],
        "pollDivisionIds": [
          10139976,
          10139979
        ],
        "postalCode": "L2J2A3",
        "streetName": "THERESA",
        "streetDirectionId": null,
        "streetTypeId": "ST",
        "placeName": "NIAGARA FALLS",
        "streetNameDisplayText": "THERESA ST, NIAGARA FALLS"
      }
    ]
  },
  {
    "postal": "L2J0Z1",
    "result": []
  },
  {
    "postal": "L2J1C1",
    "result": [
      {
        "electoralDistricts": [
          {
            "election": null,
            "id": 69,
            "name": "Niagara Falls"
          }
        ],
        "pollDivisionIds": [
          10139986
        ],
        "postalCode": "L2J1C1",
        "streetName": "CASWELL",
        "streetDirectionId": null,
        "streetTypeId": "ST",
        "placeName": "NIAGARA FALLS",
        "streetNameDisplayText": "CASWELL ST, NIAGARA FALLS"
      }
    ]
  },
  {
    "postal": "L2J0H3",
    "result": []
  },
  {
    "postal": "L2J7B0",
    "result": []
  },
  {
    "postal": "L2J5K2",
    "result": []
  },
  {
    "postal": "L2J1E9",
    "result": [
      {
        "electoralDistricts": [
          {
            "election": null,
            "id": 69,
            "name": "Niagara Falls"
          }
        ],
        "pollDivisionIds": [
          10139978
        ],
        "postalCode": "L2J1E9",
        "streetName": "GLENDOONE",
        "streetDirectionId": null,
        "streetTypeId": "ST",
        "placeName": "NIAGARA FALLS",
        "streetNameDisplayText": "GLENDOONE ST, NIAGARA FALLS"
      }
    ]
  },
  {
    "postal": "L2J9W7",
    "result": []
  },
  {
    "postal": "L2J5W6",
    "result": []
  },
  {
    "postal": "L2J6S6",
    "result": []
  },
  {
    "postal": "L2J2P8",
    "result": [
      {
        "electoralDistricts": [
          {
            "election": null,
            "id": 69,
            "name": "Niagara Falls"
          }
        ],
        "pollDivisionIds": [
          10139978
        ],
        "postalCode": "L2J2P8",
        "streetName": "ST GEORGE",
        "streetDirectionId": null,
        "streetTypeId": "AVE",
        "placeName": "NIAGARA FALLS",
        "streetNameDisplayText": "ST GEORGE AVE, NIAGARA FALLS"
      }
    ]
  },
  {
    "postal": "L2J4P8",
    "result": []
  },
  {
    "postal": "L2J0V9",
    "result": []
  },
  {
    "postal": "L2J5Y2",
    "result": []
  },
  {
    "postal": "L2J7Z7",
    "result": []
  },
  {
    "postal": "L2J6Y8",
    "result": []
  },
  {
    "postal": "L2J2G7",
    "result": [
      {
        "electoralDistricts": [
          {
            "election": null,
            "id": 69,
            "name": "Niagara Falls"
          }
        ],
        "pollDivisionIds": [
          10139980
        ],
        "postalCode": "L2J2G7",
        "streetName": "SINNICKS",
        "streetDirectionId": null,
        "streetTypeId": "AVE",
        "placeName": "NIAGARA FALLS",
        "streetNameDisplayText": "SINNICKS AVE, NIAGARA FALLS"
      }
    ]
  },
  {
    "postal": "L2J8C1",
    "result": []
  },
  {
    "postal": "L2J5C5",
    "result": []
  },
  {
    "postal": "L2J2X8",
    "result": [
      {
        "electoralDistricts": [
          {
            "election": null,
            "id": 69,
            "name": "Niagara Falls"
          }
        ],
        "pollDivisionIds": [
          10139977
        ],
        "postalCode": "L2J2X8",
        "streetName": "KENWOOD",
        "streetDirectionId": null,
        "streetTypeId": "CRT",
        "placeName": "NIAGARA FALLS",
        "streetNameDisplayText": "KENWOOD CRT, NIAGARA FALLS"
      }
    ]
  },
  {
    "postal": "L2J1W5",
    "result": [
      {
        "electoralDistricts": [
          {
            "election": null,
            "id": 69,
            "name": "Niagara Falls"
          }
        ],
        "pollDivisionIds": [
          10139979
        ],
        "postalCode": "L2J1W5",
        "streetName": "DENNIS",
        "streetDirectionId": null,
        "streetTypeId": "LANE",
        "placeName": "NIAGARA FALLS",
        "streetNameDisplayText": "DENNIS LANE, NIAGARA FALLS"
      }
    ]
  },
  {
    "postal": "L2J7G0",
    "result": []
  },
  {
    "postal": "L2J8J8",
    "result": []
  },
  {
    "postal": "L2J3Y0",
    "result": []
  },
  {
    "postal": "L2J9T7",
    "result": []
  },
  {
    "postal": "L2J5P4",
    "result": []
  },
  {
    "postal": "L2J4B0",
    "result": []
  },
  {
    "postal": "L2J9N8",
    "result": []
  },
  {
    "postal": "L2J4A7",
    "result": [
      {
        "electoralDistricts": [
          {
            "election": null,
            "id": 69,
            "name": "Niagara Falls"
          }
        ],
        "pollDivisionIds": [
          10139972
        ],
        "postalCode": "L2J4A7",
        "streetName": "WOODGATE",
        "streetDirectionId": null,
        "streetTypeId": "ST",
        "placeName": "NIAGARA FALLS",
        "streetNameDisplayText": "WOODGATE ST, NIAGARA FALLS"
      }
    ]
  },
  {
    "postal": "L2J4H9",
    "result": [
      {
        "electoralDistricts": [
          {
            "election": null,
            "id": 69,
            "name": "Niagara Falls"
          }
        ],
        "pollDivisionIds": [
          10139979
        ],
        "postalCode": "L2J4H9",
        "streetName": "MOUNTAINGATE",
        "streetDirectionId": null,
        "streetTypeId": "DR",
        "placeName": "NIAGARA FALLS",
        "streetNameDisplayText": "MOUNTAINGATE DR, NIAGARA FALLS"
      },
      {
        "electoralDistricts": [
          {
            "election": null,
            "id": 69,
            "name": "Niagara Falls"
          }
        ],
        "pollDivisionIds": [
          10139979
        ],
        "postalCode": "L2J4H9",
        "streetName": "MOUNTAINSIDE",
        "streetDirectionId": null,
        "streetTypeId": "ST",
        "placeName": "NIAGARA FALLS",
        "streetNameDisplayText": "MOUNTAINSIDE ST, NIAGARA FALLS"
      }
    ]
  },
  {
    "postal": "L2J6X1",
    "result": []
  },
  {
    "postal": "L2J9Y7",
    "result": []
  },
  {
    "postal": "L2J2Y5",
    "result": [
      {
        "electoralDistricts": [
          {
            "election": null,
            "id": 69,
            "name": "Niagara Falls"
          }
        ],
        "pollDivisionIds": [
          10139978
        ],
        "postalCode": "L2J2Y5",
        "streetName": "WINDEMERE",
        "streetDirectionId": null,
        "streetTypeId": "RD",
        "placeName": "NIAGARA FALLS",
        "streetNameDisplayText": "WINDEMERE RD, NIAGARA FALLS"
      },
      {
        "electoralDistricts": [
          {
            "election": null,
            "id": 69,
            "name": "Niagara Falls"
          }
        ],
        "pollDivisionIds": [
          10139978
        ],
        "postalCode": "L2J2Y5",
        "streetName": "WINDERMERE",
        "streetDirectionId": null,
        "streetTypeId": "RD",
        "placeName": "NIAGARA FALLS",
        "streetNameDisplayText": "WINDERMERE RD, NIAGARA FALLS"
      }
    ]
  },
  {
    "postal": "L2J8L7",
    "result": []
  },
  {
    "postal": "L2J2A8",
    "result": [
      {
        "electoralDistricts": [
          {
            "election": null,
            "id": 69,
            "name": "Niagara Falls"
          }
        ],
        "pollDivisionIds": [
          10139979
        ],
        "postalCode": "L2J2A8",
        "streetName": "HILLCREST",
        "streetDirectionId": null,
        "streetTypeId": "CRES",
        "placeName": "NIAGARA FALLS",
        "streetNameDisplayText": "HILLCREST CRES, NIAGARA FALLS"
      }
    ]
  },
  {
    "postal": "L2J2K9",
    "result": [
      {
        "electoralDistricts": [
          {
            "election": null,
            "id": 69,
            "name": "Niagara Falls"
          }
        ],
        "pollDivisionIds": [
          10139980
        ],
        "postalCode": "L2J2K9",
        "streetName": "PORTAGE",
        "streetDirectionId": null,
        "streetTypeId": "RD",
        "placeName": "NIAGARA FALLS",
        "streetNameDisplayText": "PORTAGE RD, NIAGARA FALLS"
      }
    ]
  },
  {
    "postal": "L2J3E5",
    "result": [
      {
        "electoralDistricts": [
          {
            "election": null,
            "id": 69,
            "name": "Niagara Falls"
          }
        ],
        "pollDivisionIds": [
          10139976
        ],
        "postalCode": "L2J3E5",
        "streetName": "WILTSHIRE",
        "streetDirectionId": null,
        "streetTypeId": "BLVD",
        "placeName": "NIAGARA FALLS",
        "streetNameDisplayText": "WILTSHIRE BLVD, NIAGARA FALLS"
      }
    ]
  },
  {
    "postal": "L2J8N6",
    "result": []
  },
  {
    "postal": "L2J8J4",
    "result": []
  },
  {
    "postal": "L2J4R7",
    "result": []
  },
  {
    "postal": "L2J9K1",
    "result": []
  },
  {
    "postal": "L2J8E1",
    "result": []
  },
  {
    "postal": "L2J0R1",
    "result": []
  },
  {
    "postal": "L2J4J3",
    "result": []
  },
  {
    "postal": "L2J7E7",
    "result": []
  },
  {
    "postal": "L2J0J0",
    "result": []
  },
  {
    "postal": "L2J7R8",
    "result": []
  },
  {
    "postal": "L2J9X0",
    "result": []
  },
  {
    "postal": "L2J7P6",
    "result": []
  },
  {
    "postal": "L2J0R7",
    "result": []
  },
  {
    "postal": "L2J5W1",
    "result": []
  },
  {
    "postal": "L2J0K4",
    "result": []
  },
  {
    "postal": "L2J7N9",
    "result": []
  },
  {
    "postal": "L2J1N0",
    "result": []
  },
  {
    "postal": "L2J6P3",
    "result": []
  },
  {
    "postal": "L2J5A1",
    "result": []
  },
  {
    "postal": "L2J9M9",
    "result": []
  },
  {
    "postal": "L2J7T6",
    "result": []
  },
  {
    "postal": "L2J3X0",
    "result": []
  },
  {
    "postal": "L2J2T0",
    "result": []
  },
  {
    "postal": "L2J5X9",
    "result": []
  },
  {
    "postal": "L2J2R3",
    "result": [
      {
        "electoralDistricts": [
          {
            "election": null,
            "id": 69,
            "name": "Niagara Falls"
          }
        ],
        "pollDivisionIds": [
          10139980
        ],
        "postalCode": "L2J2R3",
        "streetName": "ST JAMES",
        "streetDirectionId": null,
        "streetTypeId": "AVE",
        "placeName": "NIAGARA FALLS",
        "streetNameDisplayText": "ST JAMES AVE, NIAGARA FALLS"
      }
    ]
  },
  {
    "postal": "L2J5N2",
    "result": []
  },
  {
    "postal": "L2J4Y7",
    "result": []
  },
  {
    "postal": "L2J7M0",
    "result": []
  },
  {
    "postal": "L2J8P3",
    "result": []
  },
  {
    "postal": "L2J3N3",
    "result": [
      {
        "electoralDistricts": [
          {
            "election": null,
            "id": 69,
            "name": "Niagara Falls"
          }
        ],
        "pollDivisionIds": [
          10139975
        ],
        "postalCode": "L2J3N3",
        "streetName": "ABBEY",
        "streetDirectionId": null,
        "streetTypeId": "CIR",
        "placeName": "NIAGARA FALLS",
        "streetNameDisplayText": "ABBEY CIR, NIAGARA FALLS"
      }
    ]
  },
  {
    "postal": "L2J7S3",
    "result": []
  },
  {
    "postal": "L2J3V9",
    "result": [
      {
        "electoralDistricts": [
          {
            "election": null,
            "id": 69,
            "name": "Niagara Falls"
          }
        ],
        "pollDivisionIds": [
          10139979
        ],
        "postalCode": "L2J3V9",
        "streetName": "SWAYZE",
        "streetDirectionId": null,
        "streetTypeId": "DR",
        "placeName": "NIAGARA FALLS",
        "streetNameDisplayText": "SWAYZE DR, NIAGARA FALLS"
      }
    ]
  },
  {
    "postal": "L2J9N7",
    "result": []
  },
  {
    "postal": "L2J0G4",
    "result": []
  },
  {
    "postal": "L2J2E2",
    "result": [
      {
        "electoralDistricts": [
          {
            "election": null,
            "id": 69,
            "name": "Niagara Falls"
          }
        ],
        "pollDivisionIds": [
          10139979
        ],
        "postalCode": "L2J2E2",
        "streetName": "GAIL",
        "streetDirectionId": null,
        "streetTypeId": "AVE",
        "placeName": "NIAGARA FALLS",
        "streetNameDisplayText": "GAIL AVE, NIAGARA FALLS"
      }
    ]
  },
  {
    "postal": "L2J7W8",
    "result": []
  },
  {
    "postal": "L2J7M5",
    "result": []
  },
  {
    "postal": "L2J5W8",
    "result": []
  },
  {
    "postal": "L2J5E5",
    "result": []
  },
  {
    "postal": "L2J1P9",
    "result": [
      {
        "electoralDistricts": [
          {
            "election": null,
            "id": 69,
            "name": "Niagara Falls"
          }
        ],
        "pollDivisionIds": [
          10139977
        ],
        "postalCode": "L2J1P9",
        "streetName": "RUSSELL",
        "streetDirectionId": null,
        "streetTypeId": "ST",
        "placeName": "NIAGARA FALLS",
        "streetNameDisplayText": "RUSSELL ST, NIAGARA FALLS"
      }
    ]
  },
  {
    "postal": "L2J8V8",
    "result": []
  },
  {
    "postal": "L2J9G8",
    "result": []
  },
  {
    "postal": "L2J8H9",
    "result": []
  },
  {
    "postal": "L2J1Z1",
    "result": [
      {
        "electoralDistricts": [
          {
            "election": null,
            "id": 69,
            "name": "Niagara Falls"
          }
        ],
        "pollDivisionIds": [
          10139979
        ],
        "postalCode": "L2J1Z1",
        "streetName": "CHURCH'S",
        "streetDirectionId": null,
        "streetTypeId": "LANE",
        "placeName": "NIAGARA FALLS",
        "streetNameDisplayText": "CHURCH'S LANE, NIAGARA FALLS"
      }
    ]
  },
  {
    "postal": "L2J8M3",
    "result": []
  },
  {
    "postal": "L2J5H6",
    "result": []
  },
  {
    "postal": "L2J7W7",
    "result": []
  },
  {
    "postal": "L2J4L0",
    "result": []
  },
  {
    "postal": "L2J2N1",
    "result": [
      {
        "electoralDistricts": [
          {
            "election": null,
            "id": 69,
            "name": "Niagara Falls"
          }
        ],
        "pollDivisionIds": [
          10139977
        ],
        "postalCode": "L2J2N1",
        "streetName": "ST PATRICK",
        "streetDirectionId": null,
        "streetTypeId": "AVE",
        "placeName": "NIAGARA FALLS",
        "streetNameDisplayText": "ST PATRICK AVE, NIAGARA FALLS"
      }
    ]
  },
  {
    "postal": "L2J2H4",
    "result": [
      {
        "electoralDistricts": [
          {
            "election": null,
            "id": 69,
            "name": "Niagara Falls"
          }
        ],
        "pollDivisionIds": [
          10139979
        ],
        "postalCode": "L2J2H4",
        "streetName": "KINGSWOOD",
        "streetDirectionId": null,
        "streetTypeId": "CRES",
        "placeName": "NIAGARA FALLS",
        "streetNameDisplayText": "KINGSWOOD CRES, NIAGARA FALLS"
      }
    ]
  },
  {
    "postal": "L2J5C8",
    "result": []
  },
  {
    "postal": "L2J8B0",
    "result": []
  },
  {
    "postal": "L2J1T4",
    "result": [
      {
        "electoralDistricts": [
          {
            "election": null,
            "id": 69,
            "name": "Niagara Falls"
          }
        ],
        "pollDivisionIds": [
          10139977
        ],
        "postalCode": "L2J1T4",
        "streetName": "STAMFORD GREEN",
        "streetDirectionId": null,
        "streetTypeId": "DR",
        "placeName": "NIAGARA FALLS",
        "streetNameDisplayText": "STAMFORD GREEN DR, NIAGARA FALLS"
      }
    ]
  },
  {
    "postal": "L2J7N7",
    "result": []
  },
  {
    "postal": "L2J4L3",
    "result": [
      {
        "electoralDistricts": [
          {
            "election": null,
            "id": 69,
            "name": "Niagara Falls"
          }
        ],
        "pollDivisionIds": [
          10139977
        ],
        "postalCode": "L2J4L3",
        "streetName": "MCMICKING",
        "streetDirectionId": null,
        "streetTypeId": "ST",
        "placeName": "NIAGARA FALLS",
        "streetNameDisplayText": "MCMICKING ST, NIAGARA FALLS"
      }
    ]
  },
  {
    "postal": "L2J2N2",
    "result": [
      {
        "electoralDistricts": [
          {
            "election": null,
            "id": 69,
            "name": "Niagara Falls"
          }
        ],
        "pollDivisionIds": [
          10139977
        ],
        "postalCode": "L2J2N2",
        "streetName": "ST PATRICK",
        "streetDirectionId": null,
        "streetTypeId": "AVE",
        "placeName": "NIAGARA FALLS",
        "streetNameDisplayText": "ST PATRICK AVE, NIAGARA FALLS"
      }
    ]
  },
  {
    "postal": "L2J4N8",
    "result": []
  },
  {
    "postal": "L2J3M5",
    "result": [
      {
        "electoralDistricts": [
          {
            "election": null,
            "id": 69,
            "name": "Niagara Falls"
          }
        ],
        "pollDivisionIds": [
          10139979
        ],
        "postalCode": "L2J3M5",
        "streetName": "HENLEY",
        "streetDirectionId": null,
        "streetTypeId": "AVE",
        "placeName": "NIAGARA FALLS",
        "streetNameDisplayText": "HENLEY AVE, NIAGARA FALLS"
      }
    ]
  },
  {
    "postal": "L2J6H7",
    "result": []
  },
  {
    "postal": "L2J8Y8",
    "result": []
  },
  {
    "postal": "L2J5R9",
    "result": []
  },
  {
    "postal": "L2J8G3",
    "result": []
  },
  {
    "postal": "L2J4N7",
    "result": []
  },
  {
    "postal": "L2J0B9",
    "result": []
  },
  {
    "postal": "L2J9K7",
    "result": []
  },
  {
    "postal": "L2J9K9",
    "result": []
  },
  {
    "postal": "L2J3Z2",
    "result": [
      {
        "electoralDistricts": [
          {
            "election": null,
            "id": 69,
            "name": "Niagara Falls"
          }
        ],
        "pollDivisionIds": [
          10139972
        ],
        "postalCode": "L2J3Z2",
        "streetName": "WILLOW",
        "streetDirectionId": null,
        "streetTypeId": "CRES",
        "placeName": "NIAGARA FALLS",
        "streetNameDisplayText": "WILLOW CRES, NIAGARA FALLS"
      }
    ]
  },
  {
    "postal": "L2J6W7",
    "result": []
  },
  {
    "postal": "L2J0P1",
    "result": []
  },
  {
    "postal": "L2J3A0",
    "result": []
  },
  {
    "postal": "L2J8L9",
    "result": []
  },
  {
    "postal": "L2J6X0",
    "result": []
  },
  {
    "postal": "L2J3E9",
    "result": [
      {
        "electoralDistricts": [
          {
            "election": null,
            "id": 69,
            "name": "Niagara Falls"
          }
        ],
        "pollDivisionIds": [
          10139976
        ],
        "postalCode": "L2J3E9",
        "streetName": "WILTSHIRE",
        "streetDirectionId": null,
        "streetTypeId": "BLVD",
        "placeName": "NIAGARA FALLS",
        "streetNameDisplayText": "WILTSHIRE BLVD, NIAGARA FALLS"
      }
    ]
  },
  {
    "postal": "L2J0S5",
    "result": []
  },
  {
    "postal": "L2J1A2",
    "result": [
      {
        "electoralDistricts": [
          {
            "election": null,
            "id": 69,
            "name": "Niagara Falls"
          }
        ],
        "pollDivisionIds": [
          10139980
        ],
        "postalCode": "L2J1A2",
        "streetName": "THOROLD STONE",
        "streetDirectionId": null,
        "streetTypeId": "RD",
        "placeName": "NIAGARA FALLS",
        "streetNameDisplayText": "THOROLD STONE RD, NIAGARA FALLS"
      }
    ]
  },
  {
    "postal": "L2J5V8",
    "result": []
  },
  {
    "postal": "L2J8C5",
    "result": []
  },
  {
    "postal": "L2J6N0",
    "result": []
  },
  {
    "postal": "L2J9E6",
    "result": []
  },
  {
    "postal": "L2J5J7",
    "result": []
  },
  {
    "postal": "L2J2R2",
    "result": [
      {
        "electoralDistricts": [
          {
            "election": null,
            "id": 69,
            "name": "Niagara Falls"
          }
        ],
        "pollDivisionIds": [
          10139986
        ],
        "postalCode": "L2J2R2",
        "streetName": "ST JAMES",
        "streetDirectionId": null,
        "streetTypeId": "AVE",
        "placeName": "NIAGARA FALLS",
        "streetNameDisplayText": "ST JAMES AVE, NIAGARA FALLS"
      }
    ]
  },
  {
    "postal": "L2J0P5",
    "result": []
  },
  {
    "postal": "L2J5A7",
    "result": []
  },
  {
    "postal": "L2J1G1",
    "result": [
      {
        "electoralDistricts": [
          {
            "election": null,
            "id": 69,
            "name": "Niagara Falls"
          }
        ],
        "pollDivisionIds": [
          10139978
        ],
        "postalCode": "L2J1G1",
        "streetName": "GLENDOONE",
        "streetDirectionId": null,
        "streetTypeId": "ST",
        "placeName": "NIAGARA FALLS",
        "streetNameDisplayText": "GLENDOONE ST, NIAGARA FALLS"
      }
    ]
  },
  {
    "postal": "L2J9R6",
    "result": []
  },
  {
    "postal": "L2J4Z9",
    "result": []
  },
  {
    "postal": "L2J1V5",
    "result": [
      {
        "electoralDistricts": [
          {
            "election": null,
            "id": 69,
            "name": "Niagara Falls"
          }
        ],
        "pollDivisionIds": [
          10139979
        ],
        "postalCode": "L2J1V5",
        "streetName": "MAYFAIR",
        "streetDirectionId": null,
        "streetTypeId": "DR",
        "placeName": "NIAGARA FALLS",
        "streetNameDisplayText": "MAYFAIR DR, NIAGARA FALLS"
      }
    ]
  },
  {
    "postal": "L2J9Y5",
    "result": []
  },
  {
    "postal": "L2J1P2",
    "result": [
      {
        "electoralDistricts": [
          {
            "election": null,
            "id": 69,
            "name": "Niagara Falls"
          }
        ],
        "pollDivisionIds": [
          10139977
        ],
        "postalCode": "L2J1P2",
        "streetName": "RUSSELL",
        "streetDirectionId": null,
        "streetTypeId": "ST",
        "placeName": "NIAGARA FALLS",
        "streetNameDisplayText": "RUSSELL ST, NIAGARA FALLS"
      }
    ]
  },
  {
    "postal": "L2J5X0",
    "result": []
  },
  {
    "postal": "L2J7B8",
    "result": []
  },
  {
    "postal": "L2J0C6",
    "result": [
      {
        "electoralDistricts": [
          {
            "election": null,
            "id": 69,
            "name": "Niagara Falls"
          }
        ],
        "pollDivisionIds": [
          10139971
        ],
        "postalCode": "L2J0C6",
        "streetName": "RAVINE",
        "streetDirectionId": null,
        "streetTypeId": "RD",
        "placeName": "NIAGARA FALLS",
        "streetNameDisplayText": "RAVINE RD, NIAGARA FALLS"
      },
      {
        "electoralDistricts": [
          {
            "election": null,
            "id": 69,
            "name": "Niagara Falls"
          }
        ],
        "pollDivisionIds": [
          10139971
        ],
        "postalCode": "L2J0C6",
        "streetName": "ST PAUL",
        "streetDirectionId": null,
        "streetTypeId": "AVE",
        "placeName": "NIAGARA FALLS",
        "streetNameDisplayText": "ST PAUL AVE, NIAGARA FALLS"
      }
    ]
  },
  {
    "postal": "L2J6G1",
    "result": []
  },
  {
    "postal": "L2J3K3",
    "result": [
      {
        "electoralDistricts": [
          {
            "election": null,
            "id": 69,
            "name": "Niagara Falls"
          }
        ],
        "pollDivisionIds": [
          10139979
        ],
        "postalCode": "L2J3K3",
        "streetName": "BUTLER",
        "streetDirectionId": null,
        "streetTypeId": "PL",
        "placeName": "NIAGARA FALLS",
        "streetNameDisplayText": "BUTLER PL, NIAGARA FALLS"
      }
    ]
  },
  {
    "postal": "L2J9R0",
    "result": []
  },
  {
    "postal": "L2J4R8",
    "result": []
  },
  {
    "postal": "L2J5P9",
    "result": []
  },
  {
    "postal": "L2J8N4",
    "result": []
  },
  {
    "postal": "L2J8H4",
    "result": []
  },
  {
    "postal": "L2J4V1",
    "result": []
  },
  {
    "postal": "L2J1K5",
    "result": [
      {
        "electoralDistricts": [
          {
            "election": null,
            "id": 69,
            "name": "Niagara Falls"
          }
        ],
        "pollDivisionIds": [
          10139979
        ],
        "postalCode": "L2J1K5",
        "streetName": "COHOLAN",
        "streetDirectionId": null,
        "streetTypeId": "ST",
        "placeName": "NIAGARA FALLS",
        "streetNameDisplayText": "COHOLAN ST, NIAGARA FALLS"
      }
    ]
  },
  {
    "postal": "L2J1Z5",
    "result": [
      {
        "electoralDistricts": [
          {
            "election": null,
            "id": 69,
            "name": "Niagara Falls"
          }
        ],
        "pollDivisionIds": [
          10139977
        ],
        "postalCode": "L2J1Z5",
        "streetName": "RIALL",
        "streetDirectionId": null,
        "streetTypeId": "ST",
        "placeName": "NIAGARA FALLS",
        "streetNameDisplayText": "RIALL ST, NIAGARA FALLS"
      }
    ]
  },
  {
    "postal": "L2J9L9",
    "result": []
  },
  {
    "postal": "L2J5L2",
    "result": []
  },
  {
    "postal": "L2J0M2",
    "result": []
  },
  {
    "postal": "L2J1K8",
    "result": [
      {
        "electoralDistricts": [
          {
            "election": null,
            "id": 69,
            "name": "Niagara Falls"
          }
        ],
        "pollDivisionIds": [
          10139979
        ],
        "postalCode": "L2J1K8",
        "streetName": "VINE",
        "streetDirectionId": null,
        "streetTypeId": "ST",
        "placeName": "NIAGARA FALLS",
        "streetNameDisplayText": "VINE ST, NIAGARA FALLS"
      }
    ]
  },
  {
    "postal": "L2J3M7",
    "result": [
      {
        "electoralDistricts": [
          {
            "election": null,
            "id": 69,
            "name": "Niagara Falls"
          }
        ],
        "pollDivisionIds": [
          10139979
        ],
        "postalCode": "L2J3M7",
        "streetName": "LEVINE",
        "streetDirectionId": null,
        "streetTypeId": "ST",
        "placeName": "NIAGARA FALLS",
        "streetNameDisplayText": "LEVINE ST, NIAGARA FALLS"
      }
    ]
  },
  {
    "postal": "L2J1B2",
    "result": [
      {
        "electoralDistricts": [
          {
            "election": null,
            "id": 69,
            "name": "Niagara Falls"
          }
        ],
        "pollDivisionIds": [
          10139986
        ],
        "postalCode": "L2J1B2",
        "streetName": "THOROLD STONE",
        "streetDirectionId": null,
        "streetTypeId": "RD",
        "placeName": "NIAGARA FALLS",
        "streetNameDisplayText": "THOROLD STONE RD, NIAGARA FALLS"
      },
      {
        "electoralDistricts": [
          {
            "election": null,
            "id": 69,
            "name": "Niagara Falls"
          }
        ],
        "pollDivisionIds": [
          10140005
        ],
        "postalCode": "L2J1B2",
        "streetName": "THOROLDSTONE",
        "streetDirectionId": null,
        "streetTypeId": "RD",
        "placeName": "NIAGARA FALLS",
        "streetNameDisplayText": "THOROLDSTONE RD, NIAGARA FALLS"
      }
    ]
  },
  {
    "postal": "L2J0H9",
    "result": []
  },
  {
    "postal": "L2J8M4",
    "result": []
  },
  {
    "postal": "L2J2M5",
    "result": [
      {
        "electoralDistricts": [
          {
            "election": null,
            "id": 69,
            "name": "Niagara Falls"
          }
        ],
        "pollDivisionIds": [
          10139977
        ],
        "postalCode": "L2J2M5",
        "streetName": "ST PATRICK",
        "streetDirectionId": null,
        "streetTypeId": "AVE",
        "placeName": "NIAGARA FALLS",
        "streetNameDisplayText": "ST PATRICK AVE, NIAGARA FALLS"
      }
    ]
  },
  {
    "postal": "L2J0T9",
    "result": []
  },
  {
    "postal": "L2J3P1",
    "result": [
      {
        "electoralDistricts": [
          {
            "election": null,
            "id": 69,
            "name": "Niagara Falls"
          }
        ],
        "pollDivisionIds": [
          10139975
        ],
        "postalCode": "L2J3P1",
        "streetName": "BRADY",
        "streetDirectionId": null,
        "streetTypeId": "ST",
        "placeName": "NIAGARA FALLS",
        "streetNameDisplayText": "BRADY ST, NIAGARA FALLS"
      }
    ]
  },
  {
    "postal": "L2J1R6",
    "result": [
      {
        "electoralDistricts": [
          {
            "election": null,
            "id": 69,
            "name": "Niagara Falls"
          }
        ],
        "pollDivisionIds": [
          10139975
        ],
        "postalCode": "L2J1R6",
        "streetName": "HARRIMAN",
        "streetDirectionId": null,
        "streetTypeId": "ST",
        "placeName": "NIAGARA FALLS",
        "streetNameDisplayText": "HARRIMAN ST, NIAGARA FALLS"
      }
    ]
  },
  {
    "postal": "L2J9V5",
    "result": []
  },
  {
    "postal": "L2J9T0",
    "result": []
  },
  {
    "postal": "L2J0A9",
    "result": [
      {
        "electoralDistricts": [
          {
            "election": null,
            "id": 69,
            "name": "Niagara Falls"
          }
        ],
        "pollDivisionIds": [
          10139972
        ],
        "postalCode": "L2J0A9",
        "streetName": "MEWBURN",
        "streetDirectionId": null,
        "streetTypeId": "RD",
        "placeName": "NIAGARA FALLS",
        "streetNameDisplayText": "MEWBURN RD, NIAGARA FALLS"
      }
    ]
  },
  {
    "postal": "L2J1M3",
    "result": [
      {
        "electoralDistricts": [
          {
            "election": null,
            "id": 69,
            "name": "Niagara Falls"
          }
        ],
        "pollDivisionIds": [
          10139976
        ],
        "postalCode": "L2J1M3",
        "streetName": "MCGILL",
        "streetDirectionId": null,
        "streetTypeId": "ST",
        "placeName": "NIAGARA FALLS",
        "streetNameDisplayText": "MCGILL ST, NIAGARA FALLS"
      }
    ]
  },
  {
    "postal": "L2J1W8",
    "result": [
      {
        "electoralDistricts": [
          {
            "election": null,
            "id": 69,
            "name": "Niagara Falls"
          }
        ],
        "pollDivisionIds": [
          10139977
        ],
        "postalCode": "L2J1W8",
        "streetName": "MCMICKING",
        "streetDirectionId": null,
        "streetTypeId": "ST",
        "placeName": "NIAGARA FALLS",
        "streetNameDisplayText": "MCMICKING ST, NIAGARA FALLS"
      }
    ]
  },
  {
    "postal": "L2J9J1",
    "result": []
  },
  {
    "postal": "L2J8N5",
    "result": []
  },
  {
    "postal": "L2J5X1",
    "result": []
  },
  {
    "postal": "L2J6S2",
    "result": []
  },
  {
    "postal": "L2J2A2",
    "result": [
      {
        "electoralDistricts": [
          {
            "election": null,
            "id": 69,
            "name": "Niagara Falls"
          }
        ],
        "pollDivisionIds": [
          10139979
        ],
        "postalCode": "L2J2A2",
        "streetName": "THERESA",
        "streetDirectionId": null,
        "streetTypeId": "ST",
        "placeName": "NIAGARA FALLS",
        "streetNameDisplayText": "THERESA ST, NIAGARA FALLS"
      }
    ]
  },
  {
    "postal": "L2J6A6",
    "result": []
  },
  {
    "postal": "L2J0S3",
    "result": []
  },
  {
    "postal": "L2J3E7",
    "result": [
      {
        "electoralDistricts": [
          {
            "election": null,
            "id": 69,
            "name": "Niagara Falls"
          }
        ],
        "pollDivisionIds": [
          10139976
        ],
        "postalCode": "L2J3E7",
        "streetName": "WILTSHIRE",
        "streetDirectionId": null,
        "streetTypeId": "BLVD",
        "placeName": "NIAGARA FALLS",
        "streetNameDisplayText": "WILTSHIRE BLVD, NIAGARA FALLS"
      }
    ]
  },
  {
    "postal": "L2J5R7",
    "result": []
  },
  {
    "postal": "L2J3R6",
    "result": [
      {
        "electoralDistricts": [
          {
            "election": null,
            "id": 69,
            "name": "Niagara Falls"
          }
        ],
        "pollDivisionIds": [
          10139975
        ],
        "postalCode": "L2J3R6",
        "streetName": "FAIRWAY",
        "streetDirectionId": null,
        "streetTypeId": "RD",
        "placeName": "NIAGARA FALLS",
        "streetNameDisplayText": "FAIRWAY RD, NIAGARA FALLS"
      }
    ]
  },
  {
    "postal": "L2J6K4",
    "result": []
  },
  {
    "postal": "L2J2W5",
    "result": [
      {
        "electoralDistricts": [
          {
            "election": null,
            "id": 69,
            "name": "Niagara Falls"
          }
        ],
        "pollDivisionIds": [
          10139978
        ],
        "postalCode": "L2J2W5",
        "streetName": "SPRINGDALE",
        "streetDirectionId": null,
        "streetTypeId": "AVE",
        "placeName": "NIAGARA FALLS",
        "streetNameDisplayText": "SPRINGDALE AVE, NIAGARA FALLS"
      }
    ]
  },
  {
    "postal": "L2J8W4",
    "result": []
  },
  {
    "postal": "L2J9C2",
    "result": []
  },
  {
    "postal": "L2J2C0",
    "result": []
  },
  {
    "postal": "L2J0E1",
    "result": [
      {
        "electoralDistricts": [
          {
            "election": null,
            "id": 69,
            "name": "Niagara Falls"
          }
        ],
        "pollDivisionIds": [
          10140005,
          10139980
        ],
        "postalCode": "L2J0E1",
        "streetName": "STANLEY",
        "streetDirectionId": null,
        "streetTypeId": "AVE",
        "placeName": "NIAGARA FALLS",
        "streetNameDisplayText": "STANLEY AVE, NIAGARA FALLS"
      }
    ]
  },
  {
    "postal": "L2J1K9",
    "result": [
      {
        "electoralDistricts": [
          {
            "election": null,
            "id": 69,
            "name": "Niagara Falls"
          }
        ],
        "pollDivisionIds": [
          10139979
        ],
        "postalCode": "L2J1K9",
        "streetName": "VINE",
        "streetDirectionId": null,
        "streetTypeId": "ST",
        "placeName": "NIAGARA FALLS",
        "streetNameDisplayText": "VINE ST, NIAGARA FALLS"
      }
    ]
  },
  {
    "postal": "L2J1G7",
    "result": [
      {
        "electoralDistricts": [
          {
            "election": null,
            "id": 69,
            "name": "Niagara Falls"
          }
        ],
        "pollDivisionIds": [
          10139976
        ],
        "postalCode": "L2J1G7",
        "streetName": "MCCOLL",
        "streetDirectionId": null,
        "streetTypeId": "DR",
        "placeName": "NIAGARA FALLS",
        "streetNameDisplayText": "MCCOLL DR, NIAGARA FALLS"
      }
    ]
  },
  {
    "postal": "L2J4E9",
    "result": [
      {
        "electoralDistricts": [
          {
            "election": null,
            "id": 69,
            "name": "Niagara Falls"
          }
        ],
        "pollDivisionIds": [
          10139972
        ],
        "postalCode": "L2J4E9",
        "streetName": "THOLE",
        "streetDirectionId": null,
        "streetTypeId": "PL",
        "placeName": "NIAGARA FALLS",
        "streetNameDisplayText": "THOLE PL, NIAGARA FALLS"
      }
    ]
  },
  {
    "postal": "L2J9P0",
    "result": []
  },
  {
    "postal": "L2J5H3",
    "result": []
  },
  {
    "postal": "L2J9X6",
    "result": []
  },
  {
    "postal": "L2J5N7",
    "result": []
  },
  {
    "postal": "L2J5A6",
    "result": []
  },
  {
    "postal": "L2J4M0",
    "result": []
  },
  {
    "postal": "L2J3V6",
    "result": [
      {
        "electoralDistricts": [
          {
            "election": null,
            "id": 69,
            "name": "Niagara Falls"
          }
        ],
        "pollDivisionIds": [
          10139975
        ],
        "postalCode": "L2J3V6",
        "streetName": "WESTFIELD",
        "streetDirectionId": null,
        "streetTypeId": "DR",
        "placeName": "NIAGARA FALLS",
        "streetNameDisplayText": "WESTFIELD DR, NIAGARA FALLS"
      }
    ]
  },
  {
    "postal": "L2J1L7",
    "result": [
      {
        "electoralDistricts": [
          {
            "election": null,
            "id": 69,
            "name": "Niagara Falls"
          }
        ],
        "pollDivisionIds": [
          10139978
        ],
        "postalCode": "L2J1L7",
        "streetName": "GLENGARY",
        "streetDirectionId": null,
        "streetTypeId": "ST",
        "placeName": "NIAGARA FALLS",
        "streetNameDisplayText": "GLENGARY ST, NIAGARA FALLS"
      }
    ]
  },
  {
    "postal": "L2J2P9",
    "result": [
      {
        "electoralDistricts": [
          {
            "election": null,
            "id": 69,
            "name": "Niagara Falls"
          }
        ],
        "pollDivisionIds": [
          10139986
        ],
        "postalCode": "L2J2P9",
        "streetName": "ST JAMES",
        "streetDirectionId": null,
        "streetTypeId": "AVE",
        "placeName": "NIAGARA FALLS",
        "streetNameDisplayText": "ST JAMES AVE, NIAGARA FALLS"
      },
      {
        "electoralDistricts": [
          {
            "election": null,
            "id": 69,
            "name": "Niagara Falls"
          }
        ],
        "pollDivisionIds": [
          10139986
        ],
        "postalCode": "L2J2P9",
        "streetName": "ST. JAMES",
        "streetDirectionId": null,
        "streetTypeId": "AVE",
        "placeName": "NIAGARA FALLS",
        "streetNameDisplayText": "ST. JAMES AVE, NIAGARA FALLS"
      }
    ]
  },
  {
    "postal": "L2J5T4",
    "result": []
  },
  {
    "postal": "L2J5Z1",
    "result": []
  },
  {
    "postal": "L2J2X0",
    "result": []
  },
  {
    "postal": "L2J6Z2",
    "result": []
  },
  {
    "postal": "L2J0E0",
    "result": []
  },
  {
    "postal": "L2J3Z5",
    "result": [
      {
        "electoralDistricts": [
          {
            "election": null,
            "id": 69,
            "name": "Niagara Falls"
          }
        ],
        "pollDivisionIds": [
          10139972
        ],
        "postalCode": "L2J3Z5",
        "streetName": "WOODGATE",
        "streetDirectionId": null,
        "streetTypeId": "ST",
        "placeName": "NIAGARA FALLS",
        "streetNameDisplayText": "WOODGATE ST, NIAGARA FALLS"
      }
    ]
  },
  {
    "postal": "L2J8H3",
    "result": []
  },
  {
    "postal": "L2J7S6",
    "result": []
  },
  {
    "postal": "L2J4C1",
    "result": [
      {
        "electoralDistricts": [
          {
            "election": null,
            "id": 69,
            "name": "Niagara Falls"
          }
        ],
        "pollDivisionIds": [
          10139972
        ],
        "postalCode": "L2J4C1",
        "streetName": "WOODFIELD",
        "streetDirectionId": null,
        "streetTypeId": "AVE",
        "placeName": "NIAGARA FALLS",
        "streetNameDisplayText": "WOODFIELD AVE, NIAGARA FALLS"
      }
    ]
  },
  {
    "postal": "L2J3K2",
    "result": [
      {
        "electoralDistricts": [
          {
            "election": null,
            "id": 69,
            "name": "Niagara Falls"
          }
        ],
        "pollDivisionIds": [
          10139979
        ],
        "postalCode": "L2J3K2",
        "streetName": "SWAYZE",
        "streetDirectionId": null,
        "streetTypeId": "DR",
        "placeName": "NIAGARA FALLS",
        "streetNameDisplayText": "SWAYZE DR, NIAGARA FALLS"
      }
    ]
  },
  {
    "postal": "L2J1Y5",
    "result": [
      {
        "electoralDistricts": [
          {
            "election": null,
            "id": 69,
            "name": "Niagara Falls"
          }
        ],
        "pollDivisionIds": [
          10139977
        ],
        "postalCode": "L2J1Y5",
        "streetName": "WILLS",
        "streetDirectionId": null,
        "streetTypeId": "ST",
        "placeName": "NIAGARA FALLS",
        "streetNameDisplayText": "WILLS ST, NIAGARA FALLS"
      }
    ]
  },
  {
    "postal": "L2J6P6",
    "result": []
  },
  {
    "postal": "L2J3N9",
    "result": [
      {
        "electoralDistricts": [
          {
            "election": null,
            "id": 69,
            "name": "Niagara Falls"
          }
        ],
        "pollDivisionIds": [
          10139975
        ],
        "postalCode": "L2J3N9",
        "streetName": "APPLEFORD",
        "streetDirectionId": null,
        "streetTypeId": "AVE",
        "placeName": "NIAGARA FALLS",
        "streetNameDisplayText": "APPLEFORD AVE, NIAGARA FALLS"
      }
    ]
  },
  {
    "postal": "L2J3W2",
    "result": [
      {
        "electoralDistricts": [
          {
            "election": null,
            "id": 69,
            "name": "Niagara Falls"
          }
        ],
        "pollDivisionIds": [
          10139980,
          10139967
        ],
        "postalCode": "L2J3W2",
        "streetName": "PORTAGE",
        "streetDirectionId": null,
        "streetTypeId": "RD",
        "placeName": "NIAGARA FALLS",
        "streetNameDisplayText": "PORTAGE RD, NIAGARA FALLS"
      }
    ]
  },
  {
    "postal": "L2J6H8",
    "result": []
  },
  {
    "postal": "L2J9T3",
    "result": []
  },
  {
    "postal": "L2J5L9",
    "result": []
  },
  {
    "postal": "L2J7X7",
    "result": []
  },
  {
    "postal": "L2J3J5",
    "result": [
      {
        "electoralDistricts": [
          {
            "election": null,
            "id": 69,
            "name": "Niagara Falls"
          }
        ],
        "pollDivisionIds": [
          10139979
        ],
        "postalCode": "L2J3J5",
        "streetName": "JOHNSON",
        "streetDirectionId": null,
        "streetTypeId": "DR",
        "placeName": "NIAGARA FALLS",
        "streetNameDisplayText": "JOHNSON DR, NIAGARA FALLS"
      }
    ]
  },
  {
    "postal": "L2J4J5",
    "result": [
      {
        "electoralDistricts": [
          {
            "election": null,
            "id": 69,
            "name": "Niagara Falls"
          }
        ],
        "pollDivisionIds": [
          10139972
        ],
        "postalCode": "L2J4J5",
        "streetName": "MEWBURN",
        "streetDirectionId": null,
        "streetTypeId": "RD",
        "placeName": "NIAGARA FALLS",
        "streetNameDisplayText": "MEWBURN RD, NIAGARA FALLS"
      }
    ]
  },
  {
    "postal": "L2J6J2",
    "result": []
  },
  {
    "postal": "L2J5V6",
    "result": []
  },
  {
    "postal": "L2J3N2",
    "result": [
      {
        "electoralDistricts": [
          {
            "election": null,
            "id": 69,
            "name": "Niagara Falls"
          }
        ],
        "pollDivisionIds": [
          10139979
        ],
        "postalCode": "L2J3N2",
        "streetName": "FREDONIA",
        "streetDirectionId": null,
        "streetTypeId": "DR",
        "placeName": "NIAGARA FALLS",
        "streetNameDisplayText": "FREDONIA DR, NIAGARA FALLS"
      }
    ]
  },
  {
    "postal": "L2J3B1",
    "result": [
      {
        "electoralDistricts": [
          {
            "election": null,
            "id": 69,
            "name": "Niagara Falls"
          }
        ],
        "pollDivisionIds": [
          10139972
        ],
        "postalCode": "L2J3B1",
        "streetName": "WOODFIELD",
        "streetDirectionId": null,
        "streetTypeId": "AVE",
        "placeName": "NIAGARA FALLS",
        "streetNameDisplayText": "WOODFIELD AVE, NIAGARA FALLS"
      }
    ]
  },
  {
    "postal": "L2J8B5",
    "result": []
  },
  {
    "postal": "L2J0K1",
    "result": []
  },
  {
    "postal": "L2J7M7",
    "result": []
  },
  {
    "postal": "L2J2M2",
    "result": [
      {
        "electoralDistricts": [
          {
            "election": null,
            "id": 69,
            "name": "Niagara Falls"
          }
        ],
        "pollDivisionIds": [
          10139977
        ],
        "postalCode": "L2J2M2",
        "streetName": "ST PAUL",
        "streetDirectionId": null,
        "streetTypeId": "AVE",
        "placeName": "NIAGARA FALLS",
        "streetNameDisplayText": "ST PAUL AVE, NIAGARA FALLS"
      }
    ]
  },
  {
    "postal": "L2J9N3",
    "result": []
  },
  {
    "postal": "L2J4Y8",
    "result": []
  },
  {
    "postal": "L2J3V7",
    "result": [
      {
        "electoralDistricts": [
          {
            "election": null,
            "id": 69,
            "name": "Niagara Falls"
          }
        ],
        "pollDivisionIds": [
          10139975
        ],
        "postalCode": "L2J3V7",
        "streetName": "WESTFIELD",
        "streetDirectionId": null,
        "streetTypeId": "DR",
        "placeName": "NIAGARA FALLS",
        "streetNameDisplayText": "WESTFIELD DR, NIAGARA FALLS"
      }
    ]
  },
  {
    "postal": "L2J8Z1",
    "result": []
  },
  {
    "postal": "L2J7B3",
    "result": []
  },
  {
    "postal": "L2J3A8",
    "result": [
      {
        "electoralDistricts": [
          {
            "election": null,
            "id": 69,
            "name": "Niagara Falls"
          }
        ],
        "pollDivisionIds": [
          10139976
        ],
        "postalCode": "L2J3A8",
        "streetName": "DORCHESTER",
        "streetDirectionId": null,
        "streetTypeId": "RD",
        "placeName": "NIAGARA FALLS",
        "streetNameDisplayText": "DORCHESTER RD, NIAGARA FALLS"
      }
    ]
  },
  {
    "postal": "L2J7V5",
    "result": []
  },
  {
    "postal": "L2J2T2",
    "result": [
      {
        "electoralDistricts": [
          {
            "election": null,
            "id": 69,
            "name": "Niagara Falls"
          }
        ],
        "pollDivisionIds": [
          10139977
        ],
        "postalCode": "L2J2T2",
        "streetName": "COWAN",
        "streetDirectionId": null,
        "streetTypeId": "CRES",
        "placeName": "NIAGARA FALLS",
        "streetNameDisplayText": "COWAN CRES, NIAGARA FALLS"
      }
    ]
  },
  {
    "postal": "L2J6L3",
    "result": []
  },
  {
    "postal": "L2J0L2",
    "result": []
  },
  {
    "postal": "L2J5Y8",
    "result": []
  },
  {
    "postal": "L2J0B8",
    "result": [
      {
        "electoralDistricts": [
          {
            "election": null,
            "id": 69,
            "name": "Niagara Falls"
          }
        ],
        "pollDivisionIds": [
          10139972
        ],
        "postalCode": "L2J0B8",
        "streetName": "MOUNTAIN",
        "streetDirectionId": null,
        "streetTypeId": "RD",
        "placeName": "NIAGARA FALLS",
        "streetNameDisplayText": "MOUNTAIN RD, NIAGARA FALLS"
      }
    ]
  },
  {
    "postal": "L2J6R5",
    "result": []
  },
  {
    "postal": "L2J8W6",
    "result": []
  },
  {
    "postal": "L2J8G6",
    "result": []
  },
  {
    "postal": "L2J6X3",
    "result": []
  },
  {
    "postal": "L2J7R7",
    "result": []
  },
  {
    "postal": "L2J4B6",
    "result": [
      {
        "electoralDistricts": [
          {
            "election": null,
            "id": 69,
            "name": "Niagara Falls"
          }
        ],
        "pollDivisionIds": [
          10139980
        ],
        "postalCode": "L2J4B6",
        "streetName": "ORLANDO",
        "streetDirectionId": null,
        "streetTypeId": "DR",
        "placeName": "NIAGARA FALLS",
        "streetNameDisplayText": "ORLANDO DR, NIAGARA FALLS"
      }
    ]
  },
  {
    "postal": "L2J3P9",
    "result": [
      {
        "electoralDistricts": [
          {
            "election": null,
            "id": 69,
            "name": "Niagara Falls"
          }
        ],
        "pollDivisionIds": [
          10139975
        ],
        "postalCode": "L2J3P9",
        "streetName": "CASEY",
        "streetDirectionId": null,
        "streetTypeId": "ST",
        "placeName": "NIAGARA FALLS",
        "streetNameDisplayText": "CASEY ST, NIAGARA FALLS"
      }
    ]
  },
  {
    "postal": "L2J2T3",
    "result": [
      {
        "electoralDistricts": [
          {
            "election": null,
            "id": 69,
            "name": "Niagara Falls"
          }
        ],
        "pollDivisionIds": [
          10139977
        ],
        "postalCode": "L2J2T3",
        "streetName": "COWAN",
        "streetDirectionId": null,
        "streetTypeId": "CRES",
        "placeName": "NIAGARA FALLS",
        "streetNameDisplayText": "COWAN CRES, NIAGARA FALLS"
      }
    ]
  },
  {
    "postal": "L2J1M4",
    "result": [
      {
        "electoralDistricts": [
          {
            "election": null,
            "id": 69,
            "name": "Niagara Falls"
          }
        ],
        "pollDivisionIds": [
          10139979
        ],
        "postalCode": "L2J1M4",
        "streetName": "HAROLD",
        "streetDirectionId": null,
        "streetTypeId": "ST",
        "placeName": "NIAGARA FALLS",
        "streetNameDisplayText": "HAROLD ST, NIAGARA FALLS"
      }
    ]
  },
  {
    "postal": "L2J0H1",
    "result": []
  },
  {
    "postal": "L2J9W3",
    "result": []
  },
  {
    "postal": "L2J6P1",
    "result": []
  },
  {
    "postal": "L2J7G2",
    "result": []
  },
  {
    "postal": "L2J4J9",
    "result": [
      {
        "electoralDistricts": [
          {
            "election": null,
            "id": 69,
            "name": "Niagara Falls"
          }
        ],
        "pollDivisionIds": [
          10139971
        ],
        "postalCode": "L2J4J9",
        "streetName": "PORTAGE",
        "streetDirectionId": null,
        "streetTypeId": "RD",
        "placeName": "NIAGARA FALLS",
        "streetNameDisplayText": "PORTAGE RD, NIAGARA FALLS"
      }
    ]
  },
  {
    "postal": "L2J9E4",
    "result": []
  },
  {
    "postal": "L2J8H0",
    "result": []
  },
  {
    "postal": "L2J4M7",
    "result": []
  },
  {
    "postal": "L2J2G9",
    "result": [
      {
        "electoralDistricts": [
          {
            "election": null,
            "id": 69,
            "name": "Niagara Falls"
          }
        ],
        "pollDivisionIds": [
          10139979
        ],
        "postalCode": "L2J2G9",
        "streetName": "BASSWOOD",
        "streetDirectionId": null,
        "streetTypeId": "CRES",
        "placeName": "NIAGARA FALLS",
        "streetNameDisplayText": "BASSWOOD CRES, NIAGARA FALLS"
      }
    ]
  },
  {
    "postal": "L2J8T2",
    "result": []
  },
  {
    "postal": "L2J7G7",
    "result": []
  },
  {
    "postal": "L2J4Z3",
    "result": []
  },
  {
    "postal": "L2J5B3",
    "result": []
  },
  {
    "postal": "L2J1S7",
    "result": [
      {
        "electoralDistricts": [
          {
            "election": null,
            "id": 69,
            "name": "Niagara Falls"
          }
        ],
        "pollDivisionIds": [
          10139979
        ],
        "postalCode": "L2J1S7",
        "streetName": "ATLAS",
        "streetDirectionId": null,
        "streetTypeId": "ST",
        "placeName": "NIAGARA FALLS",
        "streetNameDisplayText": "ATLAS ST, NIAGARA FALLS"
      }
    ]
  },
  {
    "postal": "L2J2N7",
    "result": [
      {
        "electoralDistricts": [
          {
            "election": null,
            "id": 69,
            "name": "Niagara Falls"
          }
        ],
        "pollDivisionIds": [
          10139980
        ],
        "postalCode": "L2J2N7",
        "streetName": "ST PETER",
        "streetDirectionId": null,
        "streetTypeId": "AVE",
        "placeName": "NIAGARA FALLS",
        "streetNameDisplayText": "ST PETER AVE, NIAGARA FALLS"
      },
      {
        "electoralDistricts": [
          {
            "election": null,
            "id": 69,
            "name": "Niagara Falls"
          }
        ],
        "pollDivisionIds": [
          10139980
        ],
        "postalCode": "L2J2N7",
        "streetName": "ST. PETER",
        "streetDirectionId": null,
        "streetTypeId": "AVE",
        "placeName": "NIAGARA FALLS",
        "streetNameDisplayText": "ST. PETER AVE, NIAGARA FALLS"
      }
    ]
  },
  {
    "postal": "L2J0H8",
    "result": []
  },
  {
    "postal": "L2J7Z4",
    "result": []
  },
  {
    "postal": "L2J7B1",
    "result": []
  },
  {
    "postal": "L2J7P8",
    "result": []
  },
  {
    "postal": "L2J7N0",
    "result": []
  },
  {
    "postal": "L2J3Y5",
    "result": [
      {
        "electoralDistricts": [
          {
            "election": null,
            "id": 69,
            "name": "Niagara Falls"
          }
        ],
        "pollDivisionIds": [
          10139971
        ],
        "postalCode": "L2J3Y5",
        "streetName": "MARS",
        "streetDirectionId": null,
        "streetTypeId": "CRES",
        "placeName": "NIAGARA FALLS",
        "streetNameDisplayText": "MARS CRES, NIAGARA FALLS"
      }
    ]
  },
  {
    "postal": "L2J6K1",
    "result": []
  },
  {
    "postal": "L2J9X5",
    "result": []
  },
  {
    "postal": "L2J7S5",
    "result": []
  },
  {
    "postal": "L2J0A4",
    "result": []
  },
  {
    "postal": "L2J4T5",
    "result": []
  },
  {
    "postal": "L2J5K1",
    "result": []
  },
  {
    "postal": "L2J0Z9",
    "result": []
  },
  {
    "postal": "L2J7T2",
    "result": []
  },
  {
    "postal": "L2J1L5",
    "result": [
      {
        "electoralDistricts": [
          {
            "election": null,
            "id": 69,
            "name": "Niagara Falls"
          }
        ],
        "pollDivisionIds": [
          10139978
        ],
        "postalCode": "L2J1L5",
        "streetName": "GLENGARY",
        "streetDirectionId": null,
        "streetTypeId": "ST",
        "placeName": "NIAGARA FALLS",
        "streetNameDisplayText": "GLENGARY ST, NIAGARA FALLS"
      }
    ]
  },
  {
    "postal": "L2J3N5",
    "result": [
      {
        "electoralDistricts": [
          {
            "election": null,
            "id": 69,
            "name": "Niagara Falls"
          }
        ],
        "pollDivisionIds": [
          10139975
        ],
        "postalCode": "L2J3N5",
        "streetName": "APPLEFORD",
        "streetDirectionId": null,
        "streetTypeId": "AVE",
        "placeName": "NIAGARA FALLS",
        "streetNameDisplayText": "APPLEFORD AVE, NIAGARA FALLS"
      }
    ]
  },
  {
    "postal": "L2J6H4",
    "result": []
  },
  {
    "postal": "L2J5A5",
    "result": []
  },
  {
    "postal": "L2J3R9",
    "result": [
      {
        "electoralDistricts": [
          {
            "election": null,
            "id": 69,
            "name": "Niagara Falls"
          }
        ],
        "pollDivisionIds": [
          10139975
        ],
        "postalCode": "L2J3R9",
        "streetName": "HARRIMAN",
        "streetDirectionId": null,
        "streetTypeId": "ST",
        "placeName": "NIAGARA FALLS",
        "streetNameDisplayText": "HARRIMAN ST, NIAGARA FALLS"
      }
    ]
  },
  {
    "postal": "L2J7L8",
    "result": []
  },
  {
    "postal": "L2J6T6",
    "result": []
  },
  {
    "postal": "L2J7Y7",
    "result": []
  },
  {
    "postal": "L2J3M8",
    "result": [
      {
        "electoralDistricts": [
          {
            "election": null,
            "id": 69,
            "name": "Niagara Falls"
          }
        ],
        "pollDivisionIds": [
          10139979
        ],
        "postalCode": "L2J3M8",
        "streetName": "FREDONIA",
        "streetDirectionId": null,
        "streetTypeId": "DR",
        "placeName": "NIAGARA FALLS",
        "streetNameDisplayText": "FREDONIA DR, NIAGARA FALLS"
      }
    ]
  },
  {
    "postal": "L2J2E0",
    "result": []
  },
  {
    "postal": "L2J4B5",
    "result": [
      {
        "electoralDistricts": [
          {
            "election": null,
            "id": 69,
            "name": "Niagara Falls"
          }
        ],
        "pollDivisionIds": [
          10139980
        ],
        "postalCode": "L2J4B5",
        "streetName": "ORLANDO",
        "streetDirectionId": null,
        "streetTypeId": "DR",
        "placeName": "NIAGARA FALLS",
        "streetNameDisplayText": "ORLANDO DR, NIAGARA FALLS"
      }
    ]
  },
  {
    "postal": "L2J1J3",
    "result": [
      {
        "electoralDistricts": [
          {
            "election": null,
            "id": 69,
            "name": "Niagara Falls"
          }
        ],
        "pollDivisionIds": [
          10139976
        ],
        "postalCode": "L2J1J3",
        "streetName": "OXFORD",
        "streetDirectionId": null,
        "streetTypeId": "ST",
        "placeName": "NIAGARA FALLS",
        "streetNameDisplayText": "OXFORD ST, NIAGARA FALLS"
      }
    ]
  },
  {
    "postal": "L2J5S6",
    "result": []
  },
  {
    "postal": "L2J8P7",
    "result": []
  },
  {
    "postal": "L2J7S7",
    "result": []
  },
  {
    "postal": "L2J4C2",
    "result": [
      {
        "electoralDistricts": [
          {
            "election": null,
            "id": 69,
            "name": "Niagara Falls"
          }
        ],
        "pollDivisionIds": [
          10139972
        ],
        "postalCode": "L2J4C2",
        "streetName": "GREEN BOUGHS",
        "streetDirectionId": null,
        "streetTypeId": "RD",
        "placeName": "NIAGARA FALLS",
        "streetNameDisplayText": "GREEN BOUGHS RD, NIAGARA FALLS"
      }
    ]
  },
  {
    "postal": "L2J5Y0",
    "result": []
  },
  {
    "postal": "L2J2V7",
    "result": [
      {
        "electoralDistricts": [
          {
            "election": null,
            "id": 69,
            "name": "Niagara Falls"
          }
        ],
        "pollDivisionIds": [
          10139978
        ],
        "postalCode": "L2J2V7",
        "streetName": "MARION",
        "streetDirectionId": null,
        "streetTypeId": "AVE",
        "placeName": "NIAGARA FALLS",
        "streetNameDisplayText": "MARION AVE, NIAGARA FALLS"
      }
    ]
  },
  {
    "postal": "L2J8P5",
    "result": []
  },
  {
    "postal": "L2J5P5",
    "result": []
  },
  {
    "postal": "L2J5Z0",
    "result": []
  },
  {
    "postal": "L2J9B0",
    "result": []
  },
  {
    "postal": "L2J1L0",
    "result": []
  },
  {
    "postal": "L2J0B5",
    "result": [
      {
        "electoralDistricts": [
          {
            "election": null,
            "id": 69,
            "name": "Niagara Falls"
          }
        ],
        "pollDivisionIds": [
          10139971
        ],
        "postalCode": "L2J0B5",
        "streetName": "MOUNTAIN",
        "streetDirectionId": null,
        "streetTypeId": "RD",
        "placeName": "NIAGARA FALLS",
        "streetNameDisplayText": "MOUNTAIN RD, NIAGARA FALLS"
      }
    ]
  },
  {
    "postal": "L2J3L2",
    "result": [
      {
        "electoralDistricts": [
          {
            "election": null,
            "id": 69,
            "name": "Niagara Falls"
          }
        ],
        "pollDivisionIds": [
          10139979
        ],
        "postalCode": "L2J3L2",
        "streetName": "HERITAGE",
        "streetDirectionId": null,
        "streetTypeId": "DR",
        "placeName": "NIAGARA FALLS",
        "streetNameDisplayText": "HERITAGE DR, NIAGARA FALLS"
      }
    ]
  },
  {
    "postal": "L2J3B7",
    "result": [
      {
        "electoralDistricts": [
          {
            "election": null,
            "id": 69,
            "name": "Niagara Falls"
          }
        ],
        "pollDivisionIds": [
          10139976
        ],
        "postalCode": "L2J3B7",
        "streetName": "VARSITY",
        "streetDirectionId": null,
        "streetTypeId": "AVE",
        "placeName": "NIAGARA FALLS",
        "streetNameDisplayText": "VARSITY AVE, NIAGARA FALLS"
      }
    ]
  },
  {
    "postal": "L2J8L1",
    "result": []
  },
  {
    "postal": "L2J5M4",
    "result": []
  },
  {
    "postal": "L2J4G9",
    "result": [
      {
        "electoralDistricts": [
          {
            "election": null,
            "id": 69,
            "name": "Niagara Falls"
          }
        ],
        "pollDivisionIds": [
          10139979
        ],
        "postalCode": "L2J4G9",
        "streetName": "SWAYZE",
        "streetDirectionId": null,
        "streetTypeId": "DR",
        "placeName": "NIAGARA FALLS",
        "streetNameDisplayText": "SWAYZE DR, NIAGARA FALLS"
      }
    ]
  },
  {
    "postal": "L2J0P0",
    "result": []
  },
  {
    "postal": "L2J8G2",
    "result": []
  },
  {
    "postal": "L2J1V9",
    "result": [
      {
        "electoralDistricts": [
          {
            "election": null,
            "id": 69,
            "name": "Niagara Falls"
          }
        ],
        "pollDivisionIds": [
          10139979
        ],
        "postalCode": "L2J1V9",
        "streetName": "MAYFAIR",
        "streetDirectionId": null,
        "streetTypeId": "DR",
        "placeName": "NIAGARA FALLS",
        "streetNameDisplayText": "MAYFAIR DR, NIAGARA FALLS"
      }
    ]
  },
  {
    "postal": "L2J8N8",
    "result": []
  },
  {
    "postal": "L2J6S8",
    "result": []
  },
  {
    "postal": "L2J8H2",
    "result": []
  },
  {
    "postal": "L2J5R8",
    "result": []
  },
  {
    "postal": "L2J5L4",
    "result": []
  },
  {
    "postal": "L2J9E1",
    "result": []
  },
  {
    "postal": "L2J1C4",
    "result": [
      {
        "electoralDistricts": [
          {
            "election": null,
            "id": 69,
            "name": "Niagara Falls"
          }
        ],
        "pollDivisionIds": [
          10139980
        ],
        "postalCode": "L2J1C4",
        "streetName": "ORLANDO",
        "streetDirectionId": null,
        "streetTypeId": "DR",
        "placeName": "NIAGARA FALLS",
        "streetNameDisplayText": "ORLANDO DR, NIAGARA FALLS"
      }
    ]
  },
  {
    "postal": "L2J8W5",
    "result": []
  },
  {
    "postal": "L2J1Y4",
    "result": [
      {
        "electoralDistricts": [
          {
            "election": null,
            "id": 69,
            "name": "Niagara Falls"
          }
        ],
        "pollDivisionIds": [
          10139977
        ],
        "postalCode": "L2J1Y4",
        "streetName": "WILLS",
        "streetDirectionId": null,
        "streetTypeId": "ST",
        "placeName": "NIAGARA FALLS",
        "streetNameDisplayText": "WILLS ST, NIAGARA FALLS"
      }
    ]
  },
  {
    "postal": "L2J1C0",
    "result": []
  },
  {
    "postal": "L2J2J2",
    "result": [
      {
        "electoralDistricts": [
          {
            "election": null,
            "id": 69,
            "name": "Niagara Falls"
          }
        ],
        "pollDivisionIds": [
          10139979
        ],
        "postalCode": "L2J2J2",
        "streetName": "FRANCES",
        "streetDirectionId": null,
        "streetTypeId": "AVE",
        "placeName": "NIAGARA FALLS",
        "streetNameDisplayText": "FRANCES AVE, NIAGARA FALLS"
      }
    ]
  },
  {
    "postal": "L2J2J0",
    "result": []
  },
  {
    "postal": "L2J7A3",
    "result": []
  },
  {
    "postal": "L2J8M1",
    "result": []
  },
  {
    "postal": "L2J7T9",
    "result": []
  },
  {
    "postal": "L2J6C0",
    "result": []
  },
  {
    "postal": "L2J7X1",
    "result": []
  },
  {
    "postal": "L2J0G1",
    "result": []
  },
  {
    "postal": "L2J4X2",
    "result": []
  },
  {
    "postal": "L2J0N6",
    "result": []
  },
  {
    "postal": "L2J8E3",
    "result": []
  },
  {
    "postal": "L2J5S8",
    "result": []
  },
  {
    "postal": "L2J0R0",
    "result": []
  },
  {
    "postal": "L2J6J6",
    "result": []
  },
  {
    "postal": "L2J4B4",
    "result": [
      {
        "electoralDistricts": [
          {
            "election": null,
            "id": 69,
            "name": "Niagara Falls"
          }
        ],
        "pollDivisionIds": [
          10139980
        ],
        "postalCode": "L2J4B4",
        "streetName": "ORLANDO",
        "streetDirectionId": null,
        "streetTypeId": "DR",
        "placeName": "NIAGARA FALLS",
        "streetNameDisplayText": "ORLANDO DR, NIAGARA FALLS"
      }
    ]
  },
  {
    "postal": "L2J7E3",
    "result": []
  },
  {
    "postal": "L2J3N6",
    "result": [
      {
        "electoralDistricts": [
          {
            "election": null,
            "id": 69,
            "name": "Niagara Falls"
          }
        ],
        "pollDivisionIds": [
          10139975
        ],
        "postalCode": "L2J3N6",
        "streetName": "APPLEFORD",
        "streetDirectionId": null,
        "streetTypeId": "AVE",
        "placeName": "NIAGARA FALLS",
        "streetNameDisplayText": "APPLEFORD AVE, NIAGARA FALLS"
      }
    ]
  },
  {
    "postal": "L2J3X6",
    "result": [
      {
        "electoralDistricts": [
          {
            "election": null,
            "id": 69,
            "name": "Niagara Falls"
          }
        ],
        "pollDivisionIds": [
          10139971
        ],
        "postalCode": "L2J3X6",
        "streetName": "WILINGER",
        "streetDirectionId": null,
        "streetTypeId": "ST",
        "placeName": "NIAGARA FALLS",
        "streetNameDisplayText": "WILINGER ST, NIAGARA FALLS"
      }
    ]
  },
  {
    "postal": "L2J8L0",
    "result": []
  },
  {
    "postal": "L2J8N1",
    "result": []
  },
  {
    "postal": "L2J4J0",
    "result": []
  },
  {
    "postal": "L2J0X7",
    "result": []
  },
  {
    "postal": "L2J6S4",
    "result": []
  },
  {
    "postal": "L2J0Z0",
    "result": []
  },
  {
    "postal": "L2J9X8",
    "result": []
  },
  {
    "postal": "L2J3H3",
    "result": [
      {
        "electoralDistricts": [
          {
            "election": null,
            "id": 69,
            "name": "Niagara Falls"
          }
        ],
        "pollDivisionIds": [
          10139971
        ],
        "postalCode": "L2J3H3",
        "streetName": "TOPAZ",
        "streetDirectionId": null,
        "streetTypeId": "CRES",
        "placeName": "NIAGARA FALLS",
        "streetNameDisplayText": "TOPAZ CRES, NIAGARA FALLS"
      }
    ]
  },
  {
    "postal": "L2J7S2",
    "result": []
  },
  {
    "postal": "L2J3T3",
    "result": [
      {
        "electoralDistricts": [
          {
            "election": null,
            "id": 69,
            "name": "Niagara Falls"
          }
        ],
        "pollDivisionIds": [
          10139975
        ],
        "postalCode": "L2J3T3",
        "streetName": "NORTH DORSET",
        "streetDirectionId": null,
        "streetTypeId": "PL",
        "placeName": "NIAGARA FALLS",
        "streetNameDisplayText": "NORTH DORSET PL, NIAGARA FALLS"
      },
      {
        "electoralDistricts": [
          {
            "election": null,
            "id": 69,
            "name": "Niagara Falls"
          }
        ],
        "pollDivisionIds": [
          10139975
        ],
        "postalCode": "L2J3T3",
        "streetName": "NORTH DORSET PLACE",
        "streetDirectionId": null,
        "streetTypeId": "ST",
        "placeName": "NIAGARA FALLS",
        "streetNameDisplayText": "NORTH DORSET PLACE ST, NIAGARA FALLS"
      }
    ]
  },
  {
    "postal": "L2J9P3",
    "result": []
  },
  {
    "postal": "L2J4H8",
    "result": [
      {
        "electoralDistricts": [
          {
            "election": null,
            "id": 69,
            "name": "Niagara Falls"
          }
        ],
        "pollDivisionIds": [
          10139979
        ],
        "postalCode": "L2J4H8",
        "streetName": "MOUNTAINCREST",
        "streetDirectionId": null,
        "streetTypeId": "AVE",
        "placeName": "NIAGARA FALLS",
        "streetNameDisplayText": "MOUNTAINCREST AVE, NIAGARA FALLS"
      },
      {
        "electoralDistricts": [
          {
            "election": null,
            "id": 69,
            "name": "Niagara Falls"
          }
        ],
        "pollDivisionIds": [
          10139979
        ],
        "postalCode": "L2J4H8",
        "streetName": "MOUNTAINGATE",
        "streetDirectionId": null,
        "streetTypeId": "DR",
        "placeName": "NIAGARA FALLS",
        "streetNameDisplayText": "MOUNTAINGATE DR, NIAGARA FALLS"
      },
      {
        "electoralDistricts": [
          {
            "election": null,
            "id": 69,
            "name": "Niagara Falls"
          }
        ],
        "pollDivisionIds": [
          10139979
        ],
        "postalCode": "L2J4H8",
        "streetName": "MOUNTAINSIDE",
        "streetDirectionId": null,
        "streetTypeId": "ST",
        "placeName": "NIAGARA FALLS",
        "streetNameDisplayText": "MOUNTAINSIDE ST, NIAGARA FALLS"
      }
    ]
  },
  {
    "postal": "L2J6R1",
    "result": []
  },
  {
    "postal": "L2J1S0",
    "result": []
  },
  {
    "postal": "L2J3W8",
    "result": []
  },
  {
    "postal": "L2J4S3",
    "result": []
  },
  {
    "postal": "L2J1B6",
    "result": [
      {
        "electoralDistricts": [
          {
            "election": null,
            "id": 69,
            "name": "Niagara Falls"
          }
        ],
        "pollDivisionIds": [
          10139976
        ],
        "postalCode": "L2J1B6",
        "streetName": "THOROLD STONE",
        "streetDirectionId": null,
        "streetTypeId": "RD",
        "placeName": "NIAGARA FALLS",
        "streetNameDisplayText": "THOROLD STONE RD, NIAGARA FALLS"
      }
    ]
  },
  {
    "postal": "L2J8R3",
    "result": []
  },
  {
    "postal": "L2J4V9",
    "result": []
  },
  {
    "postal": "L2J9W4",
    "result": []
  },
  {
    "postal": "L2J3T4",
    "result": [
      {
        "electoralDistricts": [
          {
            "election": null,
            "id": 69,
            "name": "Niagara Falls"
          }
        ],
        "pollDivisionIds": [
          10139975
        ],
        "postalCode": "L2J3T4",
        "streetName": "NORTH DORSET",
        "streetDirectionId": null,
        "streetTypeId": "PL",
        "placeName": "NIAGARA FALLS",
        "streetNameDisplayText": "NORTH DORSET PL, NIAGARA FALLS"
      }
    ]
  },
  {
    "postal": "L2J5C7",
    "result": []
  },
  {
    "postal": "L2J3Y1",
    "result": [
      {
        "electoralDistricts": [
          {
            "election": null,
            "id": 69,
            "name": "Niagara Falls"
          }
        ],
        "pollDivisionIds": [
          10139971
        ],
        "postalCode": "L2J3Y1",
        "streetName": "PLUTO",
        "streetDirectionId": null,
        "streetTypeId": "CRES",
        "placeName": "NIAGARA FALLS",
        "streetNameDisplayText": "PLUTO CRES, NIAGARA FALLS"
      }
    ]
  },
  {
    "postal": "L2J5V0",
    "result": []
  },
  {
    "postal": "L2J8G8",
    "result": []
  },
  {
    "postal": "L2J8B1",
    "result": []
  },
  {
    "postal": "L2J4P5",
    "result": []
  },
  {
    "postal": "L2J7B2",
    "result": []
  },
  {
    "postal": "L2J0R2",
    "result": []
  },
  {
    "postal": "L2J4M4",
    "result": []
  },
  {
    "postal": "L2J7M4",
    "result": []
  },
  {
    "postal": "L2J9S7",
    "result": []
  },
  {
    "postal": "L2J5Z7",
    "result": []
  },
  {
    "postal": "L2J7J7",
    "result": []
  },
  {
    "postal": "L2J8R8",
    "result": []
  },
  {
    "postal": "L2J9X1",
    "result": []
  },
  {
    "postal": "L2J5M9",
    "result": []
  },
  {
    "postal": "L2J9B4",
    "result": []
  },
  {
    "postal": "L2J0L9",
    "result": []
  },
  {
    "postal": "L2J9G4",
    "result": []
  },
  {
    "postal": "L2J1J4",
    "result": [
      {
        "electoralDistricts": [
          {
            "election": null,
            "id": 69,
            "name": "Niagara Falls"
          }
        ],
        "pollDivisionIds": [
          10139976
        ],
        "postalCode": "L2J1J4",
        "streetName": "OXFORD",
        "streetDirectionId": null,
        "streetTypeId": "ST",
        "placeName": "NIAGARA FALLS",
        "streetNameDisplayText": "OXFORD ST, NIAGARA FALLS"
      }
    ]
  },
  {
    "postal": "L2J0W6",
    "result": []
  }
]
