[
  {
    "postal": "K1G9J6",
    "result": []
  },
  {
    "postal": "K1G9Z5",
    "result": []
  },
  {
    "postal": "K1G7H8",
    "result": []
  },
  {
    "postal": "K1G0P6",
    "result": [
      {
        "electoralDistricts": [
          {
            "election": null,
            "id": 79,
            "name": "Ottawa South"
          }
        ],
        "pollDivisionIds": [
          10140645
        ],
        "postalCode": "K1G0P6",
        "streetName": "DIGBY",
        "streetDirectionId": null,
        "streetTypeId": "ST",
        "placeName": "OTTAWA",
        "streetNameDisplayText": "DIGBY ST, OTTAWA"
      }
    ]
  },
  {
    "postal": "K1G0S7",
    "result": [
      {
        "electoralDistricts": [
          {
            "election": null,
            "id": 79,
            "name": "Ottawa South"
          }
        ],
        "pollDivisionIds": [
          10140645
        ],
        "postalCode": "K1G0S7",
        "streetName": "DEVON",
        "streetDirectionId": null,
        "streetTypeId": "ST",
        "placeName": "OTTAWA",
        "streetNameDisplayText": "DEVON ST, OTTAWA"
      }
    ]
  },
  {
    "postal": "K1G8B9",
    "result": []
  },
  {
    "postal": "K1G2A6",
    "result": [
      {
        "electoralDistricts": [
          {
            "election": null,
            "id": 79,
            "name": "Ottawa South"
          }
        ],
        "pollDivisionIds": [
          10140649
        ],
        "postalCode": "K1G2A6",
        "streetName": "OTHELLO",
        "streetDirectionId": null,
        "streetTypeId": "AVE",
        "placeName": "OTTAWA",
        "streetNameDisplayText": "OTHELLO AVE, OTTAWA"
      }
    ]
  },
  {
    "postal": "K1G7V2",
    "result": []
  },
  {
    "postal": "K1G9P4",
    "result": []
  },
  {
    "postal": "K1G6G0",
    "result": []
  },
  {
    "postal": "K1G2K0",
    "result": []
  },
  {
    "postal": "K1G7N6",
    "result": []
  },
  {
    "postal": "K1G5R3",
    "result": [
      {
        "electoralDistricts": [
          {
            "election": null,
            "id": 79,
            "name": "Ottawa South"
          }
        ],
        "pollDivisionIds": [
          10140668
        ],
        "postalCode": "K1G5R3",
        "streetName": "BRISTON",
        "streetDirectionId": null,
        "streetTypeId": "PVT",
        "placeName": "OTTAWA",
        "streetNameDisplayText": "BRISTON PVT, OTTAWA"
      }
    ]
  },
  {
    "postal": "K1G7K0",
    "result": []
  },
  {
    "postal": "K1G3R2",
    "result": []
  },
  {
    "postal": "K1G0J1",
    "result": [
      {
        "electoralDistricts": [
          {
            "election": null,
            "id": 79,
            "name": "Ottawa South"
          }
        ],
        "pollDivisionIds": [
          10140644
        ],
        "postalCode": "K1G0J1",
        "streetName": "DORION",
        "streetDirectionId": null,
        "streetTypeId": "AVE",
        "placeName": "OTTAWA",
        "streetNameDisplayText": "DORION AVE, OTTAWA"
      }
    ]
  },
  {
    "postal": "K1G0B0",
    "result": []
  },
  {
    "postal": "K1G5Z2",
    "result": []
  },
  {
    "postal": "K1G7P3",
    "result": []
  },
  {
    "postal": "K1G2K3",
    "result": [
      {
        "electoralDistricts": [
          {
            "election": null,
            "id": 79,
            "name": "Ottawa South"
          }
        ],
        "pollDivisionIds": [
          10140648
        ],
        "postalCode": "K1G2K3",
        "streetName": "HAIG",
        "streetDirectionId": null,
        "streetTypeId": "DR",
        "placeName": "OTTAWA",
        "streetNameDisplayText": "HAIG DR, OTTAWA"
      }
    ]
  },
  {
    "postal": "K1G7Y6",
    "result": []
  },
  {
    "postal": "K1G1L9",
    "result": [
      {
        "electoralDistricts": [
          {
            "election": null,
            "id": 79,
            "name": "Ottawa South"
          }
        ],
        "pollDivisionIds": [
          10140645
        ],
        "postalCode": "K1G1L9",
        "streetName": "CUBA",
        "streetDirectionId": null,
        "streetTypeId": "AVE",
        "placeName": "OTTAWA",
        "streetNameDisplayText": "CUBA AVE, OTTAWA"
      }
    ]
  },
  {
    "postal": "K1G8T0",
    "result": []
  },
  {
    "postal": "K1G3K8",
    "result": []
  },
  {
    "postal": "K1G5W9",
    "result": []
  },
  {
    "postal": "K1G6T9",
    "result": []
  },
  {
    "postal": "K1G4H1",
    "result": []
  },
  {
    "postal": "K1G7A2",
    "result": []
  },
  {
    "postal": "K1G5G0",
    "result": []
  },
  {
    "postal": "K1G8V5",
    "result": []
  },
  {
    "postal": "K1G2Y8",
    "result": [
      {
        "electoralDistricts": [
          {
            "election": null,
            "id": 79,
            "name": "Ottawa South"
          }
        ],
        "pollDivisionIds": [
          10140653
        ],
        "postalCode": "K1G2Y8",
        "streetName": "FLEMING",
        "streetDirectionId": null,
        "streetTypeId": "AVE",
        "placeName": "OTTAWA",
        "streetNameDisplayText": "FLEMING AVE, OTTAWA"
      }
    ]
  },
  {
    "postal": "K1G2B6",
    "result": [
      {
        "electoralDistricts": [
          {
            "election": null,
            "id": 79,
            "name": "Ottawa South"
          }
        ],
        "pollDivisionIds": [
          10140649
        ],
        "postalCode": "K1G2B6",
        "streetName": "NAPLES",
        "streetDirectionId": null,
        "streetTypeId": "AVE",
        "placeName": "OTTAWA",
        "streetNameDisplayText": "NAPLES AVE, OTTAWA"
      }
    ]
  },
  {
    "postal": "K1G4W8",
    "result": [
      {
        "electoralDistricts": [
          {
            "election": null,
            "id": 79,
            "name": "Ottawa South"
          }
        ],
        "pollDivisionIds": [
          10140668
        ],
        "postalCode": "K1G4W8",
        "streetName": "BRADLEY COLE",
        "streetDirectionId": null,
        "streetTypeId": "PVT",
        "placeName": "OTTAWA",
        "streetNameDisplayText": "BRADLEY COLE PVT, OTTAWA"
      },
      {
        "electoralDistricts": [
          {
            "election": null,
            "id": 79,
            "name": "Ottawa South"
          }
        ],
        "pollDivisionIds": [
          10140668
        ],
        "postalCode": "K1G4W8",
        "streetName": "MOXLEY",
        "streetDirectionId": null,
        "streetTypeId": "PVT",
        "placeName": "OTTAWA",
        "streetNameDisplayText": "MOXLEY PVT, OTTAWA"
      }
    ]
  },
  {
    "postal": "K1G8H7",
    "result": []
  },
  {
    "postal": "K1G5P1",
    "result": [
      {
        "electoralDistricts": [
          {
            "election": null,
            "id": 79,
            "name": "Ottawa South"
          }
        ],
        "pollDivisionIds": [
          10140655
        ],
        "postalCode": "K1G5P1",
        "streetName": "SAI",
        "streetDirectionId": null,
        "streetTypeId": "CRES",
        "placeName": "OTTAWA",
        "streetNameDisplayText": "SAI CRES, OTTAWA"
      }
    ]
  },
  {
    "postal": "K1G2B8",
    "result": [
      {
        "electoralDistricts": [
          {
            "election": null,
            "id": 79,
            "name": "Ottawa South"
          }
        ],
        "pollDivisionIds": [
          10140645
        ],
        "postalCode": "K1G2B8",
        "streetName": "SAUNDERSON",
        "streetDirectionId": null,
        "streetTypeId": "DR",
        "placeName": "OTTAWA",
        "streetNameDisplayText": "SAUNDERSON DR, OTTAWA"
      }
    ]
  },
  {
    "postal": "K1G0P2",
    "result": [
      {
        "electoralDistricts": [
          {
            "election": null,
            "id": 79,
            "name": "Ottawa South"
          }
        ],
        "pollDivisionIds": [
          10140645
        ],
        "postalCode": "K1G0P2",
        "streetName": "DIXIE",
        "streetDirectionId": null,
        "streetTypeId": "ST",
        "placeName": "OTTAWA",
        "streetNameDisplayText": "DIXIE ST, OTTAWA"
      }
    ]
  },
  {
    "postal": "K1G9M1",
    "result": []
  },
  {
    "postal": "K1G3G0",
    "result": []
  },
  {
    "postal": "K1G9Z2",
    "result": []
  },
  {
    "postal": "K1G2A0",
    "result": []
  },
  {
    "postal": "K1G6Y0",
    "result": []
  },
  {
    "postal": "K1G2Z8",
    "result": [
      {
        "electoralDistricts": [
          {
            "election": null,
            "id": 79,
            "name": "Ottawa South"
          }
        ],
        "pollDivisionIds": [
          10140653
        ],
        "postalCode": "K1G2Z8",
        "streetName": "SANDRA",
        "streetDirectionId": null,
        "streetTypeId": "AVE",
        "placeName": "OTTAWA",
        "streetNameDisplayText": "SANDRA AVE, OTTAWA"
      }
    ]
  },
  {
    "postal": "K1G7Y3",
    "result": []
  },
  {
    "postal": "K1G6Z5",
    "result": []
  },
  {
    "postal": "K1G6E0",
    "result": []
  },
  {
    "postal": "K1G9B7",
    "result": []
  },
  {
    "postal": "K1G9S5",
    "result": []
  },
  {
    "postal": "K1G3X3",
    "result": []
  },
  {
    "postal": "K1G7R5",
    "result": []
  },
  {
    "postal": "K1G2X3",
    "result": [
      {
        "electoralDistricts": [
          {
            "election": null,
            "id": 79,
            "name": "Ottawa South"
          }
        ],
        "pollDivisionIds": [
          10140653
        ],
        "postalCode": "K1G2X3",
        "streetName": "PLESSER",
        "streetDirectionId": null,
        "streetTypeId": "ST",
        "placeName": "OTTAWA",
        "streetNameDisplayText": "PLESSER ST, OTTAWA"
      }
    ]
  },
  {
    "postal": "K1G8Z9",
    "result": []
  },
  {
    "postal": "K1G0N4",
    "result": [
      {
        "electoralDistricts": [
          {
            "election": null,
            "id": 79,
            "name": "Ottawa South"
          }
        ],
        "pollDivisionIds": [
          10140645
        ],
        "postalCode": "K1G0N4",
        "streetName": "THIRSK",
        "streetDirectionId": null,
        "streetTypeId": "ST",
        "placeName": "OTTAWA",
        "streetNameDisplayText": "THIRSK ST, OTTAWA"
      }
    ]
  },
  {
    "postal": "K1G1K1",
    "result": [
      {
        "electoralDistricts": [
          {
            "election": null,
            "id": 79,
            "name": "Ottawa South"
          }
        ],
        "pollDivisionIds": [
          10140650
        ],
        "postalCode": "K1G1K1",
        "streetName": "SUSAN",
        "streetDirectionId": null,
        "streetTypeId": "ST",
        "placeName": "OTTAWA",
        "streetNameDisplayText": "SUSAN ST, OTTAWA"
      }
    ]
  },
  {
    "postal": "K1G1S3",
    "result": [
      {
        "electoralDistricts": [
          {
            "election": null,
            "id": 79,
            "name": "Ottawa South"
          }
        ],
        "pollDivisionIds": [
          10140648
        ],
        "postalCode": "K1G1S3",
        "streetName": "WINGATE",
        "streetDirectionId": null,
        "streetTypeId": "DR",
        "placeName": "OTTAWA",
        "streetNameDisplayText": "WINGATE DR, OTTAWA"
      }
    ]
  },
  {
    "postal": "K1G6M4",
    "result": [
      {
        "electoralDistricts": [
          {
            "election": null,
            "id": 79,
            "name": "Ottawa South"
          }
        ],
        "pollDivisionIds": [
          10140644
        ],
        "postalCode": "K1G6M4",
        "streetName": "SANTA CRUZ",
        "streetDirectionId": null,
        "streetTypeId": "PVT",
        "placeName": "OTTAWA",
        "streetNameDisplayText": "SANTA CRUZ PVT, OTTAWA"
      }
    ]
  },
  {
    "postal": "K1G9A9",
    "result": []
  },
  {
    "postal": "K1G9Z9",
    "result": []
  },
  {
    "postal": "K1G6T4",
    "result": []
  },
  {
    "postal": "K1G0B2",
    "result": [
      {
        "electoralDistricts": [
          {
            "election": null,
            "id": 79,
            "name": "Ottawa South"
          }
        ],
        "pollDivisionIds": [
          10140644
        ],
        "postalCode": "K1G0B2",
        "streetName": "TREMBLAY",
        "streetDirectionId": null,
        "streetTypeId": "RD",
        "placeName": "OTTAWA",
        "streetNameDisplayText": "TREMBLAY RD, OTTAWA"
      }
    ]
  },
  {
    "postal": "K1G2L9",
    "result": [
      {
        "electoralDistricts": [
          {
            "election": null,
            "id": 79,
            "name": "Ottawa South"
          }
        ],
        "pollDivisionIds": [
          10140648
        ],
        "postalCode": "K1G2L9",
        "streetName": "TWEED",
        "streetDirectionId": null,
        "streetTypeId": "AVE",
        "placeName": "OTTAWA",
        "streetNameDisplayText": "TWEED AVE, OTTAWA"
      }
    ]
  },
  {
    "postal": "K1G8K9",
    "result": []
  },
  {
    "postal": "K1G2H9",
    "result": [
      {
        "electoralDistricts": [
          {
            "election": null,
            "id": 79,
            "name": "Ottawa South"
          }
        ],
        "pollDivisionIds": [
          10140645
        ],
        "postalCode": "K1G2H9",
        "streetName": "HAIG",
        "streetDirectionId": null,
        "streetTypeId": "DR",
        "placeName": "OTTAWA",
        "streetNameDisplayText": "HAIG DR, OTTAWA"
      }
    ]
  },
  {
    "postal": "K1G3Z6",
    "result": [
      {
        "electoralDistricts": [
          {
            "election": null,
            "id": 79,
            "name": "Ottawa South"
          }
        ],
        "pollDivisionIds": [
          10140695
        ],
        "postalCode": "K1G3Z6",
        "streetName": "INDUSTRIAL",
        "streetDirectionId": null,
        "streetTypeId": "AVE",
        "placeName": "OTTAWA",
        "streetNameDisplayText": "INDUSTRIAL AVE, OTTAWA"
      }
    ]
  },
  {
    "postal": "K1G3B0",
    "result": []
  },
  {
    "postal": "K1G2H8",
    "result": [
      {
        "electoralDistricts": [
          {
            "election": null,
            "id": 79,
            "name": "Ottawa South"
          }
        ],
        "pollDivisionIds": [
          10140645
        ],
        "postalCode": "K1G2H8",
        "streetName": "HAIG",
        "streetDirectionId": null,
        "streetTypeId": "DR",
        "placeName": "OTTAWA",
        "streetNameDisplayText": "HAIG DR, OTTAWA"
      }
    ]
  },
  {
    "postal": "K1G3X2",
    "result": []
  },
  {
    "postal": "K1G2E9",
    "result": [
      {
        "electoralDistricts": [
          {
            "election": null,
            "id": 79,
            "name": "Ottawa South"
          }
        ],
        "pollDivisionIds": [
          10140653
        ],
        "postalCode": "K1G2E9",
        "streetName": "SAUNDERSON",
        "streetDirectionId": null,
        "streetTypeId": "DR",
        "placeName": "OTTAWA",
        "streetNameDisplayText": "SAUNDERSON DR, OTTAWA"
      }
    ]
  },
  {
    "postal": "K1G9P6",
    "result": []
  },
  {
    "postal": "K1G9E2",
    "result": []
  },
  {
    "postal": "K1G9H2",
    "result": []
  },
  {
    "postal": "K1G1S8",
    "result": [
      {
        "electoralDistricts": [
          {
            "election": null,
            "id": 79,
            "name": "Ottawa South"
          }
        ],
        "pollDivisionIds": [
          10140649
        ],
        "postalCode": "K1G1S8",
        "streetName": "WINGATE",
        "streetDirectionId": null,
        "streetTypeId": "DR",
        "placeName": "OTTAWA",
        "streetNameDisplayText": "WINGATE DR, OTTAWA"
      }
    ]
  },
  {
    "postal": "K1G3M6",
    "result": []
  },
  {
    "postal": "K1G6Z8",
    "result": []
  },
  {
    "postal": "K1G4J2",
    "result": []
  },
  {
    "postal": "K1G9Y1",
    "result": []
  },
  {
    "postal": "K1G8V6",
    "result": []
  },
  {
    "postal": "K1G6B2",
    "result": []
  },
  {
    "postal": "K1G1P8",
    "result": [
      {
        "electoralDistricts": [
          {
            "election": null,
            "id": 79,
            "name": "Ottawa South"
          }
        ],
        "pollDivisionIds": [
          10140648
        ],
        "postalCode": "K1G1P8",
        "streetName": "HAMLET",
        "streetDirectionId": null,
        "streetTypeId": "RD",
        "placeName": "OTTAWA",
        "streetNameDisplayText": "HAMLET RD, OTTAWA"
      }
    ]
  },
  {
    "postal": "K1G0V8",
    "result": [
      {
        "electoralDistricts": [
          {
            "election": null,
            "id": 79,
            "name": "Ottawa South"
          }
        ],
        "pollDivisionIds": [
          10140644
        ],
        "postalCode": "K1G0V8",
        "streetName": "CHOMLEY",
        "streetDirectionId": null,
        "streetTypeId": "CRES",
        "placeName": "OTTAWA",
        "streetNameDisplayText": "CHOMLEY CRES, OTTAWA"
      }
    ]
  },
  {
    "postal": "K1G4Y0",
    "result": []
  },
  {
    "postal": "K1G2T4",
    "result": [
      {
        "electoralDistricts": [
          {
            "election": null,
            "id": 79,
            "name": "Ottawa South"
          }
        ],
        "pollDivisionIds": [
          10140653
        ],
        "postalCode": "K1G2T4",
        "streetName": "GOREN",
        "streetDirectionId": null,
        "streetTypeId": "AVE",
        "placeName": "OTTAWA",
        "streetNameDisplayText": "GOREN AVE, OTTAWA"
      }
    ]
  },
  {
    "postal": "K1G2S3",
    "result": [
      {
        "electoralDistricts": [
          {
            "election": null,
            "id": 79,
            "name": "Ottawa South"
          }
        ],
        "pollDivisionIds": [
          10140654
        ],
        "postalCode": "K1G2S3",
        "streetName": "DUNELM",
        "streetDirectionId": null,
        "streetTypeId": "ST",
        "placeName": "OTTAWA",
        "streetNameDisplayText": "DUNELM ST, OTTAWA"
      }
    ]
  },
  {
    "postal": "K1G0K0",
    "result": []
  },
  {
    "postal": "K1G5N1",
    "result": []
  },
  {
    "postal": "K1G7T0",
    "result": []
  },
  {
    "postal": "K1G9N2",
    "result": []
  },
  {
    "postal": "K1G5L1",
    "result": [
      {
        "electoralDistricts": [
          {
            "election": null,
            "id": 79,
            "name": "Ottawa South"
          }
        ],
        "pollDivisionIds": [
          10140645
        ],
        "postalCode": "K1G5L1",
        "streetName": "ST LAURENT",
        "streetDirectionId": null,
        "streetTypeId": "BLVD",
        "placeName": "OTTAWA",
        "streetNameDisplayText": "ST LAURENT BLVD, OTTAWA"
      },
      {
        "electoralDistricts": [
          {
            "election": null,
            "id": 79,
            "name": "Ottawa South"
          }
        ],
        "pollDivisionIds": [
          10140645
        ],
        "postalCode": "K1G5L1",
        "streetName": "ST. LAURENT",
        "streetDirectionId": null,
        "streetTypeId": "BLVD",
        "placeName": "OTTAWA",
        "streetNameDisplayText": "ST. LAURENT BLVD, OTTAWA"
      }
    ]
  },
  {
    "postal": "K1G7G5",
    "result": []
  },
  {
    "postal": "K1G6K2",
    "result": []
  },
  {
    "postal": "K1G6P9",
    "result": []
  },
  {
    "postal": "K1G0E6",
    "result": [
      {
        "electoralDistricts": [
          {
            "election": null,
            "id": 81,
            "name": "Ottawa Westâ€”Nepean"
          }
        ],
        "pollDivisionIds": [
          10140837
        ],
        "postalCode": "K1G0E6",
        "streetName": "CHECKERS",
        "streetDirectionId": null,
        "streetTypeId": "RD",
        "placeName": "OTTAWA",
        "streetNameDisplayText": "CHECKERS RD, OTTAWA"
      },
      {
        "electoralDistricts": [
          {
            "election": null,
            "id": 79,
            "name": "Ottawa South"
          }
        ],
        "pollDivisionIds": [
          10140680
        ],
        "postalCode": "K1G0E6",
        "streetName": "FROBISHER",
        "streetDirectionId": null,
        "streetTypeId": "LANE",
        "placeName": "OTTAWA",
        "streetNameDisplayText": "FROBISHER LANE, OTTAWA"
      }
    ]
  },
  {
    "postal": "K1G8R9",
    "result": []
  },
  {
    "postal": "K1G3G9",
    "result": [
      {
        "electoralDistricts": [
          {
            "election": null,
            "id": 79,
            "name": "Ottawa South"
          }
        ],
        "pollDivisionIds": [
          10140650
        ],
        "postalCode": "K1G3G9",
        "streetName": "WALKELY",
        "streetDirectionId": null,
        "streetTypeId": "RD",
        "placeName": "OTTAWA",
        "streetNameDisplayText": "WALKELY RD, OTTAWA"
      },
      {
        "electoralDistricts": [
          {
            "election": null,
            "id": 79,
            "name": "Ottawa South"
          }
        ],
        "pollDivisionIds": [
          10140650
        ],
        "postalCode": "K1G3G9",
        "streetName": "WALKLEY",
        "streetDirectionId": null,
        "streetTypeId": "RD",
        "placeName": "OTTAWA",
        "streetNameDisplayText": "WALKLEY RD, OTTAWA"
      }
    ]
  },
  {
    "postal": "K1G0V7",
    "result": [
      {
        "electoralDistricts": [
          {
            "election": null,
            "id": 79,
            "name": "Ottawa South"
          }
        ],
        "pollDivisionIds": [
          10140644
        ],
        "postalCode": "K1G0V7",
        "streetName": "CHOMLEY",
        "streetDirectionId": null,
        "streetTypeId": "CRES",
        "placeName": "OTTAWA",
        "streetNameDisplayText": "CHOMLEY CRES, OTTAWA"
      }
    ]
  },
  {
    "postal": "K1G2Z1",
    "result": [
      {
        "electoralDistricts": [
          {
            "election": null,
            "id": 79,
            "name": "Ottawa South"
          }
        ],
        "pollDivisionIds": [
          10140653
        ],
        "postalCode": "K1G2Z1",
        "streetName": "FLEMING",
        "streetDirectionId": null,
        "streetTypeId": "AVE",
        "placeName": "OTTAWA",
        "streetNameDisplayText": "FLEMING AVE, OTTAWA"
      }
    ]
  },
  {
    "postal": "K1G7N1",
    "result": []
  },
  {
    "postal": "K1G3C6",
    "result": [
      {
        "electoralDistricts": [
          {
            "election": null,
            "id": 79,
            "name": "Ottawa South"
          }
        ],
        "pollDivisionIds": [
          10140653
        ],
        "postalCode": "K1G3C6",
        "streetName": "CRANE",
        "streetDirectionId": null,
        "streetTypeId": "ST",
        "placeName": "OTTAWA",
        "streetNameDisplayText": "CRANE ST, OTTAWA"
      }
    ]
  },
  {
    "postal": "K1G4M1",
    "result": [
      {
        "electoralDistricts": [
          {
            "election": null,
            "id": 79,
            "name": "Ottawa South"
          }
        ],
        "pollDivisionIds": [
          10140668
        ],
        "postalCode": "K1G4M1",
        "streetName": "TOPLEY",
        "streetDirectionId": null,
        "streetTypeId": "CRES",
        "placeName": "OTTAWA",
        "streetNameDisplayText": "TOPLEY CRES, OTTAWA"
      }
    ]
  },
  {
    "postal": "K1G9K2",
    "result": []
  },
  {
    "postal": "K1G9S6",
    "result": []
  },
  {
    "postal": "K1G4X1",
    "result": [
      {
        "electoralDistricts": [
          {
            "election": null,
            "id": 79,
            "name": "Ottawa South"
          }
        ],
        "pollDivisionIds": [
          10140668
        ],
        "postalCode": "K1G4X1",
        "streetName": "MOXLEY",
        "streetDirectionId": null,
        "streetTypeId": "PVT",
        "placeName": "OTTAWA",
        "streetNameDisplayText": "MOXLEY PVT, OTTAWA"
      }
    ]
  },
  {
    "postal": "K1G8W2",
    "result": []
  },
  {
    "postal": "K1G7N2",
    "result": []
  },
  {
    "postal": "K1G8S3",
    "result": []
  },
  {
    "postal": "K1G4V0",
    "result": []
  },
  {
    "postal": "K1G6W4",
    "result": [
      {
        "electoralDistricts": [
          {
            "election": null,
            "id": 79,
            "name": "Ottawa South"
          }
        ],
        "pollDivisionIds": [
          10140647
        ],
        "postalCode": "K1G6W4",
        "streetName": "FREEDOM",
        "streetDirectionId": null,
        "streetTypeId": "PVT",
        "placeName": "OTTAWA",
        "streetNameDisplayText": "FREEDOM PVT, OTTAWA"
      }
    ]
  },
  {
    "postal": "K1G5M1",
    "result": []
  },
  {
    "postal": "K1G0S4",
    "result": [
      {
        "electoralDistricts": [
          {
            "election": null,
            "id": 79,
            "name": "Ottawa South"
          }
        ],
        "pollDivisionIds": [
          10140645
        ],
        "postalCode": "K1G0S4",
        "streetName": "ORCHID",
        "streetDirectionId": null,
        "streetTypeId": "DR",
        "placeName": "OTTAWA",
        "streetNameDisplayText": "ORCHID DR, OTTAWA"
      }
    ]
  },
  {
    "postal": "K1G5X6",
    "result": []
  },
  {
    "postal": "K1G8L5",
    "result": []
  },
  {
    "postal": "K1G5M8",
    "result": []
  },
  {
    "postal": "K1G2G3",
    "result": [
      {
        "electoralDistricts": [
          {
            "election": null,
            "id": 79,
            "name": "Ottawa South"
          }
        ],
        "pollDivisionIds": [
          10140653
        ],
        "postalCode": "K1G2G3",
        "streetName": "SAUNDERSON",
        "streetDirectionId": null,
        "streetTypeId": "DR",
        "placeName": "OTTAWA",
        "streetNameDisplayText": "SAUNDERSON DR, OTTAWA"
      }
    ]
  },
  {
    "postal": "K1G8E4",
    "result": []
  },
  {
    "postal": "K1G7S9",
    "result": []
  },
  {
    "postal": "K1G1K3",
    "result": [
      {
        "electoralDistricts": [
          {
            "election": null,
            "id": 79,
            "name": "Ottawa South"
          }
        ],
        "pollDivisionIds": [
          10140650
        ],
        "postalCode": "K1G1K3",
        "streetName": "SUSAN",
        "streetDirectionId": null,
        "streetTypeId": "ST",
        "placeName": "OTTAWA",
        "streetNameDisplayText": "SUSAN ST, OTTAWA"
      }
    ]
  },
  {
    "postal": "K1G4E1",
    "result": [
      {
        "electoralDistricts": [
          {
            "election": null,
            "id": 79,
            "name": "Ottawa South"
          }
        ],
        "pollDivisionIds": [
          10140644
        ],
        "postalCode": "K1G4E1",
        "streetName": "PENHILL",
        "streetDirectionId": null,
        "streetTypeId": "AVE",
        "placeName": "OTTAWA",
        "streetNameDisplayText": "PENHILL AVE, OTTAWA"
      }
    ]
  },
  {
    "postal": "K1G4R2",
    "result": [
      {
        "electoralDistricts": [
          {
            "election": null,
            "id": 79,
            "name": "Ottawa South"
          }
        ],
        "pollDivisionIds": [
          10140668
        ],
        "postalCode": "K1G4R2",
        "streetName": "CLAUDET",
        "streetDirectionId": null,
        "streetTypeId": "CRES",
        "placeName": "OTTAWA",
        "streetNameDisplayText": "CLAUDET CRES, OTTAWA"
      },
      {
        "electoralDistricts": [
          {
            "election": null,
            "id": 79,
            "name": "Ottawa South"
          }
        ],
        "pollDivisionIds": [
          10140668
        ],
        "postalCode": "K1G4R2",
        "streetName": "KARSH",
        "streetDirectionId": null,
        "streetTypeId": "DR",
        "placeName": "OTTAWA",
        "streetNameDisplayText": "KARSH DR, OTTAWA"
      }
    ]
  },
  {
    "postal": "K1G6T0",
    "result": []
  },
  {
    "postal": "K1G3K5",
    "result": []
  },
  {
    "postal": "K1G3S3",
    "result": []
  },
  {
    "postal": "K1G3L4",
    "result": []
  },
  {
    "postal": "K1G9Y2",
    "result": []
  },
  {
    "postal": "K1G1E0",
    "result": []
  },
  {
    "postal": "K1G9A4",
    "result": []
  },
  {
    "postal": "K1G1L3",
    "result": [
      {
        "electoralDistricts": [
          {
            "election": null,
            "id": 79,
            "name": "Ottawa South"
          }
        ],
        "pollDivisionIds": [
          10140650
        ],
        "postalCode": "K1G1L3",
        "streetName": "AUDREY",
        "streetDirectionId": null,
        "streetTypeId": "AVE",
        "placeName": "OTTAWA",
        "streetNameDisplayText": "AUDREY AVE, OTTAWA"
      }
    ]
  },
  {
    "postal": "K1G6N1",
    "result": [
      {
        "electoralDistricts": [
          {
            "election": null,
            "id": 79,
            "name": "Ottawa South"
          }
        ],
        "pollDivisionIds": [
          10140668
        ],
        "postalCode": "K1G6N1",
        "streetName": "AGES",
        "streetDirectionId": null,
        "streetTypeId": "DR",
        "placeName": "OTTAWA",
        "streetNameDisplayText": "AGES DR, OTTAWA"
      }
    ]
  },
  {
    "postal": "K1G6G7",
    "result": [
      {
        "electoralDistricts": [
          {
            "election": null,
            "id": 79,
            "name": "Ottawa South"
          }
        ],
        "pollDivisionIds": [
          10140644
        ],
        "postalCode": "K1G6G7",
        "streetName": "AVENUE P",
        "streetDirectionId": null,
        "streetTypeId": null,
        "placeName": "OTTAWA",
        "streetNameDisplayText": "AVENUE P, OTTAWA"
      }
    ]
  },
  {
    "postal": "K1G7W1",
    "result": []
  },
  {
    "postal": "K1G4M6",
    "result": [
      {
        "electoralDistricts": [
          {
            "election": null,
            "id": 79,
            "name": "Ottawa South"
          }
        ],
        "pollDivisionIds": [
          10140668
        ],
        "postalCode": "K1G4M6",
        "streetName": "TOPLEY",
        "streetDirectionId": null,
        "streetTypeId": "CRES",
        "placeName": "OTTAWA",
        "streetNameDisplayText": "TOPLEY CRES, OTTAWA"
      }
    ]
  },
  {
    "postal": "K1G1K0",
    "result": []
  },
  {
    "postal": "K1G3E2",
    "result": [
      {
        "electoralDistricts": [
          {
            "election": null,
            "id": 79,
            "name": "Ottawa South"
          }
        ],
        "pollDivisionIds": [
          10140653
        ],
        "postalCode": "K1G3E2",
        "streetName": "CIRCLE",
        "streetDirectionId": null,
        "streetTypeId": "PL",
        "placeName": "OTTAWA",
        "streetNameDisplayText": "CIRCLE PL, OTTAWA"
      }
    ]
  },
  {
    "postal": "K1G5H4",
    "result": []
  },
  {
    "postal": "K1G1K7",
    "result": [
      {
        "electoralDistricts": [
          {
            "election": null,
            "id": 79,
            "name": "Ottawa South"
          }
        ],
        "pollDivisionIds": [
          10140650
        ],
        "postalCode": "K1G1K7",
        "streetName": "MARTHA",
        "streetDirectionId": null,
        "streetTypeId": "AVE",
        "placeName": "OTTAWA",
        "streetNameDisplayText": "MARTHA AVE, OTTAWA"
      }
    ]
  },
  {
    "postal": "K1G0H0",
    "result": []
  },
  {
    "postal": "K1G0J3",
    "result": [
      {
        "electoralDistricts": [
          {
            "election": null,
            "id": 79,
            "name": "Ottawa South"
          }
        ],
        "pollDivisionIds": [
          10140644
        ],
        "postalCode": "K1G0J3",
        "streetName": "NEIGHBOURHOOD",
        "streetDirectionId": null,
        "streetTypeId": "WAY",
        "placeName": "OTTAWA",
        "streetNameDisplayText": "NEIGHBOURHOOD WAY, OTTAWA"
      }
    ]
  },
  {
    "postal": "K1G1X6",
    "result": [
      {
        "electoralDistricts": [
          {
            "election": null,
            "id": 79,
            "name": "Ottawa South"
          }
        ],
        "pollDivisionIds": [
          10140648
        ],
        "postalCode": "K1G1X6",
        "streetName": "FAIRDALE",
        "streetDirectionId": null,
        "streetTypeId": "AVE",
        "placeName": "OTTAWA",
        "streetNameDisplayText": "FAIRDALE AVE, OTTAWA"
      }
    ]
  },
  {
    "postal": "K1G2Z6",
    "result": [
      {
        "electoralDistricts": [
          {
            "election": null,
            "id": 79,
            "name": "Ottawa South"
          }
        ],
        "pollDivisionIds": [
          10140653
        ],
        "postalCode": "K1G2Z6",
        "streetName": "ELLEN",
        "streetDirectionId": null,
        "streetTypeId": "AVE",
        "placeName": "OTTAWA",
        "streetNameDisplayText": "ELLEN AVE, OTTAWA"
      }
    ]
  },
  {
    "postal": "K1G4R9",
    "result": [
      {
        "electoralDistricts": [
          {
            "election": null,
            "id": 79,
            "name": "Ottawa South"
          }
        ],
        "pollDivisionIds": [
          10140655
        ],
        "postalCode": "K1G4R9",
        "streetName": "HIME",
        "streetDirectionId": null,
        "streetTypeId": "CRES",
        "placeName": "OTTAWA",
        "streetNameDisplayText": "HIME CRES, OTTAWA"
      }
    ]
  },
  {
    "postal": "K1G0W8",
    "result": [
      {
        "electoralDistricts": [
          {
            "election": null,
            "id": 79,
            "name": "Ottawa South"
          }
        ],
        "pollDivisionIds": [
          10140644
        ],
        "postalCode": "K1G0W8",
        "streetName": "BRAYDON",
        "streetDirectionId": null,
        "streetTypeId": "AVE",
        "placeName": "OTTAWA",
        "streetNameDisplayText": "BRAYDON AVE, OTTAWA"
      }
    ]
  },
  {
    "postal": "K1G1L4",
    "result": [
      {
        "electoralDistricts": [
          {
            "election": null,
            "id": 79,
            "name": "Ottawa South"
          }
        ],
        "pollDivisionIds": [
          10140650
        ],
        "postalCode": "K1G1L4",
        "streetName": "AUDREY",
        "streetDirectionId": null,
        "streetTypeId": "AVE",
        "placeName": "OTTAWA",
        "streetNameDisplayText": "AUDREY AVE, OTTAWA"
      }
    ]
  },
  {
    "postal": "K1G0C8",
    "result": []
  },
  {
    "postal": "K1G9X7",
    "result": []
  },
  {
    "postal": "K1G4T1",
    "result": [
      {
        "electoralDistricts": [
          {
            "election": null,
            "id": 79,
            "name": "Ottawa South"
          }
        ],
        "pollDivisionIds": [
          10140668
        ],
        "postalCode": "K1G4T1",
        "streetName": "DOSSETTER",
        "streetDirectionId": null,
        "streetTypeId": "WAY",
        "placeName": "OTTAWA",
        "streetNameDisplayText": "DOSSETTER WAY, OTTAWA"
      },
      {
        "electoralDistricts": [
          {
            "election": null,
            "id": 79,
            "name": "Ottawa South"
          }
        ],
        "pollDivisionIds": [
          10140668
        ],
        "postalCode": "K1G4T1",
        "streetName": "SWAIN",
        "streetDirectionId": null,
        "streetTypeId": "AVE",
        "placeName": "OTTAWA",
        "streetNameDisplayText": "SWAIN AVE, OTTAWA"
      }
    ]
  },
  {
    "postal": "K1G0M0",
    "result": []
  },
  {
    "postal": "K1G6A2",
    "result": []
  },
  {
    "postal": "K1G9S8",
    "result": []
  },
  {
    "postal": "K1G9T4",
    "result": []
  },
  {
    "postal": "K1G9Y4",
    "result": []
  },
  {
    "postal": "K1G6G5",
    "result": []
  },
  {
    "postal": "K1G6H9",
    "result": []
  },
  {
    "postal": "K1G2P3",
    "result": [
      {
        "electoralDistricts": [
          {
            "election": null,
            "id": 79,
            "name": "Ottawa South"
          }
        ],
        "pollDivisionIds": [
          10140654
        ],
        "postalCode": "K1G2P3",
        "streetName": "VALLEY",
        "streetDirectionId": null,
        "streetTypeId": "DR",
        "placeName": "OTTAWA",
        "streetNameDisplayText": "VALLEY DR, OTTAWA"
      }
    ]
  },
  {
    "postal": "K1G1T6",
    "result": [
      {
        "electoralDistricts": [
          {
            "election": null,
            "id": 79,
            "name": "Ottawa South"
          }
        ],
        "pollDivisionIds": [
          10140648
        ],
        "postalCode": "K1G1T6",
        "streetName": "CHAPMAN",
        "streetDirectionId": null,
        "streetTypeId": "BLVD",
        "placeName": "OTTAWA",
        "streetNameDisplayText": "CHAPMAN BLVD, OTTAWA"
      }
    ]
  },
  {
    "postal": "K1G4P6",
    "result": [
      {
        "electoralDistricts": [
          {
            "election": null,
            "id": 79,
            "name": "Ottawa South"
          }
        ],
        "pollDivisionIds": [
          10140668
        ],
        "postalCode": "K1G4P6",
        "streetName": "ELLISSON",
        "streetDirectionId": null,
        "streetTypeId": "WAY",
        "placeName": "OTTAWA",
        "streetNameDisplayText": "ELLISSON WAY, OTTAWA"
      },
      {
        "electoralDistricts": [
          {
            "election": null,
            "id": 79,
            "name": "Ottawa South"
          }
        ],
        "pollDivisionIds": [
          10140668
        ],
        "postalCode": "K1G4P6",
        "streetName": "NOTMAN",
        "streetDirectionId": null,
        "streetTypeId": "WAY",
        "placeName": "OTTAWA",
        "streetNameDisplayText": "NOTMAN WAY, OTTAWA"
      }
    ]
  },
  {
    "postal": "K1G3K1",
    "result": []
  },
  {
    "postal": "K1G6X4",
    "result": []
  },
  {
    "postal": "K1G4M8",
    "result": [
      {
        "electoralDistricts": [
          {
            "election": null,
            "id": 79,
            "name": "Ottawa South"
          }
        ],
        "pollDivisionIds": [
          10140668
        ],
        "postalCode": "K1G4M8",
        "streetName": "KEYS",
        "streetDirectionId": null,
        "streetTypeId": "WAY",
        "placeName": "OTTAWA",
        "streetNameDisplayText": "KEYS WAY, OTTAWA"
      },
      {
        "electoralDistricts": [
          {
            "election": null,
            "id": 79,
            "name": "Ottawa South"
          }
        ],
        "pollDivisionIds": [
          10140668
        ],
        "postalCode": "K1G4M8",
        "streetName": "TOPLEY",
        "streetDirectionId": null,
        "streetTypeId": "CRES",
        "placeName": "OTTAWA",
        "streetNameDisplayText": "TOPLEY CRES, OTTAWA"
      }
    ]
  },
  {
    "postal": "K1G2Y1",
    "result": [
      {
        "electoralDistricts": [
          {
            "election": null,
            "id": 79,
            "name": "Ottawa South"
          }
        ],
        "pollDivisionIds": [
          10140653
        ],
        "postalCode": "K1G2Y1",
        "streetName": "ADAMS",
        "streetDirectionId": null,
        "streetTypeId": "AVE",
        "placeName": "OTTAWA",
        "streetNameDisplayText": "ADAMS AVE, OTTAWA"
      }
    ]
  },
  {
    "postal": "K1G6M1",
    "result": [
      {
        "electoralDistricts": [
          {
            "election": null,
            "id": 79,
            "name": "Ottawa South"
          }
        ],
        "pollDivisionIds": [
          10140644
        ],
        "postalCode": "K1G6M1",
        "streetName": "SIENNA",
        "streetDirectionId": null,
        "streetTypeId": "PVT",
        "placeName": "OTTAWA",
        "streetNameDisplayText": "SIENNA PVT, OTTAWA"
      }
    ]
  },
  {
    "postal": "K1G5L8",
    "result": []
  },
  {
    "postal": "K1G3P6",
    "result": [
      {
        "electoralDistricts": [
          {
            "election": null,
            "id": 79,
            "name": "Ottawa South"
          }
        ],
        "pollDivisionIds": [
          10140646,
          10140649
        ],
        "postalCode": "K1G3P6",
        "streetName": "OTHELLO",
        "streetDirectionId": null,
        "streetTypeId": "AVE",
        "placeName": "OTTAWA",
        "streetNameDisplayText": "OTHELLO AVE, OTTAWA"
      }
    ]
  },
  {
    "postal": "K1G9A5",
    "result": []
  },
  {
    "postal": "K1G7K1",
    "result": []
  },
  {
    "postal": "K1G3J4",
    "result": []
  },
  {
    "postal": "K1G5E7",
    "result": [
      {
        "electoralDistricts": [
          {
            "election": null,
            "id": 79,
            "name": "Ottawa South"
          }
        ],
        "pollDivisionIds": [
          10140655
        ],
        "postalCode": "K1G5E7",
        "streetName": "CHRIS LUND",
        "streetDirectionId": null,
        "streetTypeId": "PVT",
        "placeName": "OTTAWA",
        "streetNameDisplayText": "CHRIS LUND PVT, OTTAWA"
      }
    ]
  },
  {
    "postal": "K1G3A7",
    "result": [
      {
        "electoralDistricts": [
          {
            "election": null,
            "id": 79,
            "name": "Ottawa South"
          }
        ],
        "pollDivisionIds": [
          10140654
        ],
        "postalCode": "K1G3A7",
        "streetName": "CANTERBURY",
        "streetDirectionId": null,
        "streetTypeId": "AVE",
        "placeName": "OTTAWA",
        "streetNameDisplayText": "CANTERBURY AVE, OTTAWA"
      }
    ]
  },
  {
    "postal": "K1G1B9",
    "result": [
      {
        "electoralDistricts": [
          {
            "election": null,
            "id": 79,
            "name": "Ottawa South"
          }
        ],
        "pollDivisionIds": [
          10140650
        ],
        "postalCode": "K1G1B9",
        "streetName": "TAWNEY",
        "streetDirectionId": null,
        "streetTypeId": "RD",
        "placeName": "OTTAWA",
        "streetNameDisplayText": "TAWNEY RD, OTTAWA"
      }
    ]
  },
  {
    "postal": "K1G9E8",
    "result": []
  },
  {
    "postal": "K1G1C9",
    "result": [
      {
        "electoralDistricts": [
          {
            "election": null,
            "id": 79,
            "name": "Ottawa South"
          }
        ],
        "pollDivisionIds": [
          10140650
        ],
        "postalCode": "K1G1C9",
        "streetName": "DWIGHT",
        "streetDirectionId": null,
        "streetTypeId": "PL",
        "placeName": "OTTAWA",
        "streetNameDisplayText": "DWIGHT PL, OTTAWA"
      }
    ]
  },
  {
    "postal": "K1G3B5",
    "result": [
      {
        "electoralDistricts": [
          {
            "election": null,
            "id": 79,
            "name": "Ottawa South"
          }
        ],
        "pollDivisionIds": [
          10140653
        ],
        "postalCode": "K1G3B5",
        "streetName": "HARDING",
        "streetDirectionId": null,
        "streetTypeId": "RD",
        "placeName": "OTTAWA",
        "streetNameDisplayText": "HARDING RD, OTTAWA"
      }
    ]
  },
  {
    "postal": "K1G8R0",
    "result": []
  },
  {
    "postal": "K1G3P2",
    "result": [
      {
        "electoralDistricts": [
          {
            "election": null,
            "id": 79,
            "name": "Ottawa South"
          }
        ],
        "pollDivisionIds": [
          10140645
        ],
        "postalCode": "K1G3P2",
        "streetName": "RUSSELL",
        "streetDirectionId": null,
        "streetTypeId": "RD",
        "placeName": "OTTAWA",
        "streetNameDisplayText": "RUSSELL RD, OTTAWA"
      }
    ]
  },
  {
    "postal": "K1G5V4",
    "result": []
  },
  {
    "postal": "K1G4H0",
    "result": []
  },
  {
    "postal": "K1G4S7",
    "result": [
      {
        "electoralDistricts": [
          {
            "election": null,
            "id": 79,
            "name": "Ottawa South"
          }
        ],
        "pollDivisionIds": [
          10140668,
          10140655
        ],
        "postalCode": "K1G4S7",
        "streetName": "DOSSETTER",
        "streetDirectionId": null,
        "streetTypeId": "WAY",
        "placeName": "OTTAWA",
        "streetNameDisplayText": "DOSSETTER WAY, OTTAWA"
      }
    ]
  },
  {
    "postal": "K1G6C2",
    "result": [
      {
        "electoralDistricts": [
          {
            "election": null,
            "id": 79,
            "name": "Ottawa South"
          }
        ],
        "pollDivisionIds": [
          10140662
        ],
        "postalCode": "K1G6C2",
        "streetName": "CONROY",
        "streetDirectionId": null,
        "streetTypeId": "RD",
        "placeName": "OTTAWA",
        "streetNameDisplayText": "CONROY RD, OTTAWA"
      }
    ]
  },
  {
    "postal": "K1G8W3",
    "result": []
  },
  {
    "postal": "K1G4M5",
    "result": [
      {
        "electoralDistricts": [
          {
            "election": null,
            "id": 79,
            "name": "Ottawa South"
          }
        ],
        "pollDivisionIds": [
          10140668
        ],
        "postalCode": "K1G4M5",
        "streetName": "KEYS",
        "streetDirectionId": null,
        "streetTypeId": "WAY",
        "placeName": "OTTAWA",
        "streetNameDisplayText": "KEYS WAY, OTTAWA"
      }
    ]
  },
  {
    "postal": "K1G5T1",
    "result": [
      {
        "electoralDistricts": [
          {
            "election": null,
            "id": 79,
            "name": "Ottawa South"
          }
        ],
        "pollDivisionIds": [
          10140649
        ],
        "postalCode": "K1G5T1",
        "streetName": "DWELLINGHAM",
        "streetDirectionId": null,
        "streetTypeId": "PVT",
        "placeName": "OTTAWA",
        "streetNameDisplayText": "DWELLINGHAM PVT, OTTAWA"
      }
    ]
  },
  {
    "postal": "K1G3B3",
    "result": [
      {
        "electoralDistricts": [
          {
            "election": null,
            "id": 79,
            "name": "Ottawa South"
          }
        ],
        "pollDivisionIds": [
          10140653
        ],
        "postalCode": "K1G3B3",
        "streetName": "HARDING",
        "streetDirectionId": null,
        "streetTypeId": "RD",
        "placeName": "OTTAWA",
        "streetNameDisplayText": "HARDING RD, OTTAWA"
      }
    ]
  },
  {
    "postal": "K1G6C6",
    "result": []
  },
  {
    "postal": "K1G7N8",
    "result": []
  },
  {
    "postal": "K1G2Y3",
    "result": [
      {
        "electoralDistricts": [
          {
            "election": null,
            "id": 79,
            "name": "Ottawa South"
          }
        ],
        "pollDivisionIds": [
          10140653
        ],
        "postalCode": "K1G2Y3",
        "streetName": "HOLT",
        "streetDirectionId": null,
        "streetTypeId": "CRES",
        "placeName": "OTTAWA",
        "streetNameDisplayText": "HOLT CRES, OTTAWA"
      }
    ]
  },
  {
    "postal": "K1G2R6",
    "result": [
      {
        "electoralDistricts": [
          {
            "election": null,
            "id": 79,
            "name": "Ottawa South"
          }
        ],
        "pollDivisionIds": [
          10140653
        ],
        "postalCode": "K1G2R6",
        "streetName": "CORNISH",
        "streetDirectionId": null,
        "streetTypeId": "ST",
        "placeName": "OTTAWA",
        "streetNameDisplayText": "CORNISH ST, OTTAWA"
      }
    ]
  },
  {
    "postal": "K1G7N3",
    "result": []
  },
  {
    "postal": "K1G8J2",
    "result": []
  },
  {
    "postal": "K1G6A9",
    "result": [
      {
        "electoralDistricts": [
          {
            "election": null,
            "id": 79,
            "name": "Ottawa South"
          }
        ],
        "pollDivisionIds": [
          10140668
        ],
        "postalCode": "K1G6A9",
        "streetName": "WALKLEY",
        "streetDirectionId": null,
        "streetTypeId": "RD",
        "placeName": "OTTAWA",
        "streetNameDisplayText": "WALKLEY RD, OTTAWA"
      }
    ]
  },
  {
    "postal": "K1G3V2",
    "result": []
  },
  {
    "postal": "K1G2N3",
    "result": [
      {
        "electoralDistricts": [
          {
            "election": null,
            "id": 79,
            "name": "Ottawa South"
          }
        ],
        "pollDivisionIds": [
          10140648
        ],
        "postalCode": "K1G2N3",
        "streetName": "CAMROSE",
        "streetDirectionId": null,
        "streetTypeId": "ST",
        "placeName": "OTTAWA",
        "streetNameDisplayText": "CAMROSE ST, OTTAWA"
      }
    ]
  },
  {
    "postal": "K1G1S5",
    "result": [
      {
        "electoralDistricts": [
          {
            "election": null,
            "id": 79,
            "name": "Ottawa South"
          }
        ],
        "pollDivisionIds": [
          10140649
        ],
        "postalCode": "K1G1S5",
        "streetName": "WINGATE",
        "streetDirectionId": null,
        "streetTypeId": "DR",
        "placeName": "OTTAWA",
        "streetNameDisplayText": "WINGATE DR, OTTAWA"
      }
    ]
  },
  {
    "postal": "K1G4T7",
    "result": [
      {
        "electoralDistricts": [
          {
            "election": null,
            "id": 79,
            "name": "Ottawa South"
          }
        ],
        "pollDivisionIds": [
          10140668
        ],
        "postalCode": "K1G4T7",
        "streetName": "MANJU",
        "streetDirectionId": null,
        "streetTypeId": "ST",
        "placeName": "OTTAWA",
        "streetNameDisplayText": "MANJU ST, OTTAWA"
      },
      {
        "electoralDistricts": [
          {
            "election": null,
            "id": 79,
            "name": "Ottawa South"
          }
        ],
        "pollDivisionIds": [
          10140668
        ],
        "postalCode": "K1G4T7",
        "streetName": "RAJ",
        "streetDirectionId": null,
        "streetTypeId": "TERR",
        "placeName": "OTTAWA",
        "streetNameDisplayText": "RAJ TERR, OTTAWA"
      }
    ]
  },
  {
    "postal": "K1G6Y7",
    "result": []
  },
  {
    "postal": "K1G0W7",
    "result": [
      {
        "electoralDistricts": [
          {
            "election": null,
            "id": 79,
            "name": "Ottawa South"
          }
        ],
        "pollDivisionIds": [
          10140644
        ],
        "postalCode": "K1G0W7",
        "streetName": "BRAYDON",
        "streetDirectionId": null,
        "streetTypeId": "AVE",
        "placeName": "OTTAWA",
        "streetNameDisplayText": "BRAYDON AVE, OTTAWA"
      }
    ]
  },
  {
    "postal": "K1G2W9",
    "result": [
      {
        "electoralDistricts": [
          {
            "election": null,
            "id": 79,
            "name": "Ottawa South"
          }
        ],
        "pollDivisionIds": [
          10140653
        ],
        "postalCode": "K1G2W9",
        "streetName": "PLESSER",
        "streetDirectionId": null,
        "streetTypeId": "ST",
        "placeName": "OTTAWA",
        "streetNameDisplayText": "PLESSER ST, OTTAWA"
      }
    ]
  },
  {
    "postal": "K1G8V0",
    "result": []
  },
  {
    "postal": "K1G0H4",
    "result": [
      {
        "electoralDistricts": [
          {
            "election": null,
            "id": 79,
            "name": "Ottawa South"
          }
        ],
        "pollDivisionIds": [
          10140644
        ],
        "postalCode": "K1G0H4",
        "streetName": "ABBEY",
        "streetDirectionId": null,
        "streetTypeId": "RD",
        "placeName": "OTTAWA",
        "streetNameDisplayText": "ABBEY RD, OTTAWA"
      }
    ]
  },
  {
    "postal": "K1G2T1",
    "result": [
      {
        "electoralDistricts": [
          {
            "election": null,
            "id": 79,
            "name": "Ottawa South"
          }
        ],
        "pollDivisionIds": [
          10140653
        ],
        "postalCode": "K1G2T1",
        "streetName": "SHAMIR",
        "streetDirectionId": null,
        "streetTypeId": "AVE",
        "placeName": "OTTAWA",
        "streetNameDisplayText": "SHAMIR AVE, OTTAWA"
      }
    ]
  },
  {
    "postal": "K1G1B1",
    "result": [
      {
        "electoralDistricts": [
          {
            "election": null,
            "id": 79,
            "name": "Ottawa South"
          }
        ],
        "pollDivisionIds": [
          10140650,
          10140668
        ],
        "postalCode": "K1G1B1",
        "streetName": "ST LAURENT",
        "streetDirectionId": null,
        "streetTypeId": "BLVD",
        "placeName": "OTTAWA",
        "streetNameDisplayText": "ST LAURENT BLVD, OTTAWA"
      },
      {
        "electoralDistricts": [
          {
            "election": null,
            "id": 79,
            "name": "Ottawa South"
          }
        ],
        "pollDivisionIds": [
          10140650
        ],
        "postalCode": "K1G1B1",
        "streetName": "ST-LAURENT",
        "streetDirectionId": null,
        "streetTypeId": "BLVD",
        "placeName": "OTTAWA",
        "streetNameDisplayText": "ST-LAURENT BLVD, OTTAWA"
      }
    ]
  },
  {
    "postal": "K1G8B6",
    "result": []
  },
  {
    "postal": "K1G6H1",
    "result": []
  },
  {
    "postal": "K1G8T8",
    "result": []
  },
  {
    "postal": "K1G0T4",
    "result": [
      {
        "electoralDistricts": [
          {
            "election": null,
            "id": 79,
            "name": "Ottawa South"
          }
        ],
        "pollDivisionIds": [
          10140645
        ],
        "postalCode": "K1G0T4",
        "streetName": "BROWNING",
        "streetDirectionId": null,
        "streetTypeId": "AVE",
        "placeName": "OTTAWA",
        "streetNameDisplayText": "BROWNING AVE, OTTAWA"
      }
    ]
  },
  {
    "postal": "K1G2C4",
    "result": [
      {
        "electoralDistricts": [
          {
            "election": null,
            "id": 79,
            "name": "Ottawa South"
          }
        ],
        "pollDivisionIds": [
          10140649
        ],
        "postalCode": "K1G2C4",
        "streetName": "SAUNDERSON",
        "streetDirectionId": null,
        "streetTypeId": "DR",
        "placeName": "OTTAWA",
        "streetNameDisplayText": "SAUNDERSON DR, OTTAWA"
      }
    ]
  },
  {
    "postal": "K1G8N3",
    "result": []
  },
  {
    "postal": "K1G4L8",
    "result": [
      {
        "electoralDistricts": [
          {
            "election": null,
            "id": 79,
            "name": "Ottawa South"
          }
        ],
        "pollDivisionIds": [
          10140668
        ],
        "postalCode": "K1G4L8",
        "streetName": "KARSH",
        "streetDirectionId": null,
        "streetTypeId": "DR",
        "placeName": "OTTAWA",
        "streetNameDisplayText": "KARSH DR, OTTAWA"
      },
      {
        "electoralDistricts": [
          {
            "election": null,
            "id": 79,
            "name": "Ottawa South"
          }
        ],
        "pollDivisionIds": [
          10140668
        ],
        "postalCode": "K1G4L8",
        "streetName": "TOPLEY",
        "streetDirectionId": null,
        "streetTypeId": "CRES",
        "placeName": "OTTAWA",
        "streetNameDisplayText": "TOPLEY CRES, OTTAWA"
      }
    ]
  },
  {
    "postal": "K1G2B5",
    "result": [
      {
        "electoralDistricts": [
          {
            "election": null,
            "id": 79,
            "name": "Ottawa South"
          }
        ],
        "pollDivisionIds": [
          10140649
        ],
        "postalCode": "K1G2B5",
        "streetName": "NAPLES",
        "streetDirectionId": null,
        "streetTypeId": "AVE",
        "placeName": "OTTAWA",
        "streetNameDisplayText": "NAPLES AVE, OTTAWA"
      }
    ]
  },
  {
    "postal": "K1G3H1",
    "result": [
      {
        "electoralDistricts": [
          {
            "election": null,
            "id": 79,
            "name": "Ottawa South"
          }
        ],
        "pollDivisionIds": [
          10140650
        ],
        "postalCode": "K1G3H1",
        "streetName": "WALKLEY",
        "streetDirectionId": null,
        "streetTypeId": "RD",
        "placeName": "OTTAWA",
        "streetNameDisplayText": "WALKLEY RD, OTTAWA"
      }
    ]
  },
  {
    "postal": "K1G4Y1",
    "result": [
      {
        "electoralDistricts": [
          {
            "election": null,
            "id": 79,
            "name": "Ottawa South"
          }
        ],
        "pollDivisionIds": [
          10140668
        ],
        "postalCode": "K1G4Y1",
        "streetName": "CLIFFORD",
        "streetDirectionId": null,
        "streetTypeId": "PVT",
        "placeName": "OTTAWA",
        "streetNameDisplayText": "CLIFFORD PVT, OTTAWA"
      },
      {
        "electoralDistricts": [
          {
            "election": null,
            "id": 79,
            "name": "Ottawa South"
          }
        ],
        "pollDivisionIds": [
          10140668
        ],
        "postalCode": "K1G4Y1",
        "streetName": "WELSH",
        "streetDirectionId": null,
        "streetTypeId": "PVT",
        "placeName": "OTTAWA",
        "streetNameDisplayText": "WELSH PVT, OTTAWA"
      }
    ]
  },
  {
    "postal": "K1G7E2",
    "result": []
  },
  {
    "postal": "K1G2P5",
    "result": [
      {
        "electoralDistricts": [
          {
            "election": null,
            "id": 79,
            "name": "Ottawa South"
          }
        ],
        "pollDivisionIds": [
          10140654
        ],
        "postalCode": "K1G2P5",
        "streetName": "VALLEY",
        "streetDirectionId": null,
        "streetTypeId": "DR",
        "placeName": "OTTAWA",
        "streetNameDisplayText": "VALLEY DR, OTTAWA"
      }
    ]
  },
  {
    "postal": "K1G8R7",
    "result": []
  },
  {
    "postal": "K1G9P1",
    "result": []
  },
  {
    "postal": "K1G3B8",
    "result": [
      {
        "electoralDistricts": [
          {
            "election": null,
            "id": 79,
            "name": "Ottawa South"
          }
        ],
        "pollDivisionIds": [
          10140653
        ],
        "postalCode": "K1G3B8",
        "streetName": "HARDING",
        "streetDirectionId": null,
        "streetTypeId": "RD",
        "placeName": "OTTAWA",
        "streetNameDisplayText": "HARDING RD, OTTAWA"
      }
    ]
  },
  {
    "postal": "K1G3P7",
    "result": [
      {
        "electoralDistricts": [
          {
            "election": null,
            "id": 79,
            "name": "Ottawa South"
          }
        ],
        "pollDivisionIds": [
          10140680
        ],
        "postalCode": "K1G3P7",
        "streetName": "FROBISHER",
        "streetDirectionId": null,
        "streetTypeId": "LANE",
        "placeName": "OTTAWA",
        "streetNameDisplayText": "FROBISHER LANE, OTTAWA"
      }
    ]
  },
  {
    "postal": "K1G9B2",
    "result": []
  },
  {
    "postal": "K1G6Z3",
    "result": []
  },
  {
    "postal": "K1G4N5",
    "result": [
      {
        "electoralDistricts": [
          {
            "election": null,
            "id": 79,
            "name": "Ottawa South"
          }
        ],
        "pollDivisionIds": [
          10140668
        ],
        "postalCode": "K1G4N5",
        "streetName": "FARDON",
        "streetDirectionId": null,
        "streetTypeId": "WAY",
        "placeName": "OTTAWA",
        "streetNameDisplayText": "FARDON WAY, OTTAWA"
      }
    ]
  },
  {
    "postal": "K1G8T3",
    "result": []
  },
  {
    "postal": "K1G1V2",
    "result": [
      {
        "electoralDistricts": [
          {
            "election": null,
            "id": 79,
            "name": "Ottawa South"
          }
        ],
        "pollDivisionIds": [
          10140649
        ],
        "postalCode": "K1G1V2",
        "streetName": "CHAPMAN",
        "streetDirectionId": null,
        "streetTypeId": "BLVD",
        "placeName": "OTTAWA",
        "streetNameDisplayText": "CHAPMAN BLVD, OTTAWA"
      }
    ]
  },
  {
    "postal": "K1G1Y0",
    "result": []
  },
  {
    "postal": "K1G3G6",
    "result": [
      {
        "electoralDistricts": [
          {
            "election": null,
            "id": 79,
            "name": "Ottawa South"
          }
        ],
        "pollDivisionIds": [
          10140653
        ],
        "postalCode": "K1G3G6",
        "streetName": "URBANDALE",
        "streetDirectionId": null,
        "streetTypeId": "DR",
        "placeName": "OTTAWA",
        "streetNameDisplayText": "URBANDALE DR, OTTAWA"
      }
    ]
  },
  {
    "postal": "K1G3H7",
    "result": []
  },
  {
    "postal": "K1G7X8",
    "result": []
  },
  {
    "postal": "K1G0C7",
    "result": [
      {
        "electoralDistricts": [
          {
            "election": null,
            "id": 79,
            "name": "Ottawa South"
          }
        ],
        "pollDivisionIds": [
          10140644
        ],
        "postalCode": "K1G0C7",
        "streetName": "AVENUE T",
        "streetDirectionId": null,
        "streetTypeId": null,
        "placeName": "OTTAWA",
        "streetNameDisplayText": "AVENUE T, OTTAWA"
      }
    ]
  },
  {
    "postal": "K1G0W9",
    "result": [
      {
        "electoralDistricts": [
          {
            "election": null,
            "id": 79,
            "name": "Ottawa South"
          }
        ],
        "pollDivisionIds": [
          10140644
        ],
        "postalCode": "K1G0W9",
        "streetName": "BALENA",
        "streetDirectionId": null,
        "streetTypeId": "AVE",
        "placeName": "OTTAWA",
        "streetNameDisplayText": "BALENA AVE, OTTAWA"
      }
    ]
  },
  {
    "postal": "K1G8E6",
    "result": []
  },
  {
    "postal": "K1G9Z8",
    "result": []
  },
  {
    "postal": "K1G3P4",
    "result": [
      {
        "electoralDistricts": [
          {
            "election": null,
            "id": 79,
            "name": "Ottawa South"
          }
        ],
        "pollDivisionIds": [
          10140644
        ],
        "postalCode": "K1G3P4",
        "streetName": "ALTA VISTA",
        "streetDirectionId": null,
        "streetTypeId": "DR",
        "placeName": "OTTAWA",
        "streetNameDisplayText": "ALTA VISTA DR, OTTAWA"
      }
    ]
  },
  {
    "postal": "K1G6L8",
    "result": [
      {
        "electoralDistricts": [
          {
            "election": null,
            "id": 79,
            "name": "Ottawa South"
          }
        ],
        "pollDivisionIds": [
          10140644
        ],
        "postalCode": "K1G6L8",
        "streetName": "STATION",
        "streetDirectionId": null,
        "streetTypeId": "BLVD",
        "placeName": "OTTAWA",
        "streetNameDisplayText": "STATION BLVD, OTTAWA"
      }
    ]
  },
  {
    "postal": "K1G2R4",
    "result": [
      {
        "electoralDistricts": [
          {
            "election": null,
            "id": 79,
            "name": "Ottawa South"
          }
        ],
        "pollDivisionIds": [
          10140654
        ],
        "postalCode": "K1G2R4",
        "streetName": "FOLEY",
        "streetDirectionId": null,
        "streetTypeId": "AVE",
        "placeName": "OTTAWA",
        "streetNameDisplayText": "FOLEY AVE, OTTAWA"
      }
    ]
  },
  {
    "postal": "K1G2W1",
    "result": [
      {
        "electoralDistricts": [
          {
            "election": null,
            "id": 79,
            "name": "Ottawa South"
          }
        ],
        "pollDivisionIds": [
          10140654
        ],
        "postalCode": "K1G2W1",
        "streetName": "DAKOTA",
        "streetDirectionId": null,
        "streetTypeId": "AVE",
        "placeName": "OTTAWA",
        "streetNameDisplayText": "DAKOTA AVE, OTTAWA"
      }
    ]
  },
  {
    "postal": "K1G9H8",
    "result": []
  },
  {
    "postal": "K1G8X9",
    "result": []
  },
  {
    "postal": "K1G7H4",
    "result": []
  },
  {
    "postal": "K1G3J1",
    "result": []
  },
  {
    "postal": "K1G1P4",
    "result": [
      {
        "electoralDistricts": [
          {
            "election": null,
            "id": 79,
            "name": "Ottawa South"
          }
        ],
        "pollDivisionIds": [
          10140645
        ],
        "postalCode": "K1G1P4",
        "streetName": "SMYTH",
        "streetDirectionId": null,
        "streetTypeId": "RD",
        "placeName": "OTTAWA",
        "streetNameDisplayText": "SMYTH RD, OTTAWA"
      }
    ]
  },
  {
    "postal": "K1G2A3",
    "result": [
      {
        "electoralDistricts": [
          {
            "election": null,
            "id": 79,
            "name": "Ottawa South"
          }
        ],
        "pollDivisionIds": [
          10140649
        ],
        "postalCode": "K1G2A3",
        "streetName": "OTHELLO",
        "streetDirectionId": null,
        "streetTypeId": "AVE",
        "placeName": "OTTAWA",
        "streetNameDisplayText": "OTHELLO AVE, OTTAWA"
      }
    ]
  },
  {
    "postal": "K1G0Z1",
    "result": [
      {
        "electoralDistricts": [
          {
            "election": null,
            "id": 79,
            "name": "Ottawa South"
          }
        ],
        "pollDivisionIds": [
          10140644,
          10140645
        ],
        "postalCode": "K1G0Z1",
        "streetName": "INDUSTRIAL",
        "streetDirectionId": null,
        "streetTypeId": "AVE",
        "placeName": "OTTAWA",
        "streetNameDisplayText": "INDUSTRIAL AVE, OTTAWA"
      }
    ]
  },
  {
    "postal": "K1G1C1",
    "result": [
      {
        "electoralDistricts": [
          {
            "election": null,
            "id": 79,
            "name": "Ottawa South"
          }
        ],
        "pollDivisionIds": [
          10140650
        ],
        "postalCode": "K1G1C1",
        "streetName": "TAWNEY",
        "streetDirectionId": null,
        "streetTypeId": "RD",
        "placeName": "OTTAWA",
        "streetNameDisplayText": "TAWNEY RD, OTTAWA"
      }
    ]
  },
  {
    "postal": "K1G0H3",
    "result": [
      {
        "electoralDistricts": [
          {
            "election": null,
            "id": 79,
            "name": "Ottawa South"
          }
        ],
        "pollDivisionIds": [
          10140644
        ],
        "postalCode": "K1G0H3",
        "streetName": "ABBEY",
        "streetDirectionId": null,
        "streetTypeId": "RD",
        "placeName": "OTTAWA",
        "streetNameDisplayText": "ABBEY RD, OTTAWA"
      }
    ]
  },
  {
    "postal": "K1G7B0",
    "result": []
  },
  {
    "postal": "K1G5K2",
    "result": [
      {
        "electoralDistricts": [
          {
            "election": null,
            "id": 79,
            "name": "Ottawa South"
          }
        ],
        "pollDivisionIds": [
          10140655
        ],
        "postalCode": "K1G5K2",
        "streetName": "CELLINI",
        "streetDirectionId": null,
        "streetTypeId": "CRT",
        "placeName": "OTTAWA",
        "streetNameDisplayText": "CELLINI CRT, OTTAWA"
      },
      {
        "electoralDistricts": [
          {
            "election": null,
            "id": 79,
            "name": "Ottawa South"
          }
        ],
        "pollDivisionIds": [
          10140655,
          10140668
        ],
        "postalCode": "K1G5K2",
        "streetName": "JOHNSTON",
        "streetDirectionId": null,
        "streetTypeId": "RD",
        "placeName": "OTTAWA",
        "streetNameDisplayText": "JOHNSTON RD, OTTAWA"
      }
    ]
  },
  {
    "postal": "K1G1E9",
    "result": [
      {
        "electoralDistricts": [
          {
            "election": null,
            "id": 79,
            "name": "Ottawa South"
          }
        ],
        "pollDivisionIds": [
          10140650
        ],
        "postalCode": "K1G1E9",
        "streetName": "MAYWOOD",
        "streetDirectionId": null,
        "streetTypeId": "ST",
        "placeName": "OTTAWA",
        "streetNameDisplayText": "MAYWOOD ST, OTTAWA"
      }
    ]
  },
  {
    "postal": "K1G9W7",
    "result": []
  },
  {
    "postal": "K1G5W6",
    "result": []
  },
  {
    "postal": "K1G6S6",
    "result": [
      {
        "electoralDistricts": [
          {
            "election": null,
            "id": 79,
            "name": "Ottawa South"
          }
        ],
        "pollDivisionIds": [
          10140668
        ],
        "postalCode": "K1G6S6",
        "streetName": "WALKLEY",
        "streetDirectionId": null,
        "streetTypeId": "RD",
        "placeName": "OTTAWA",
        "streetNameDisplayText": "WALKLEY RD, OTTAWA"
      }
    ]
  },
  {
    "postal": "K1G2P8",
    "result": [
      {
        "electoralDistricts": [
          {
            "election": null,
            "id": 79,
            "name": "Ottawa South"
          }
        ],
        "pollDivisionIds": [
          10140654
        ],
        "postalCode": "K1G2P8",
        "streetName": "VALLEY",
        "streetDirectionId": null,
        "streetTypeId": "DR",
        "placeName": "OTTAWA",
        "streetNameDisplayText": "VALLEY DR, OTTAWA"
      }
    ]
  },
  {
    "postal": "K1G4P8",
    "result": [
      {
        "electoralDistricts": [
          {
            "election": null,
            "id": 79,
            "name": "Ottawa South"
          }
        ],
        "pollDivisionIds": [
          10140668
        ],
        "postalCode": "K1G4P8",
        "streetName": "BLOHM",
        "streetDirectionId": null,
        "streetTypeId": "DR",
        "placeName": "OTTAWA",
        "streetNameDisplayText": "BLOHM DR, OTTAWA"
      },
      {
        "electoralDistricts": [
          {
            "election": null,
            "id": 79,
            "name": "Ottawa South"
          }
        ],
        "pollDivisionIds": [
          10140668
        ],
        "postalCode": "K1G4P8",
        "streetName": "PITTAWAY",
        "streetDirectionId": null,
        "streetTypeId": "AVE",
        "placeName": "OTTAWA",
        "streetNameDisplayText": "PITTAWAY AVE, OTTAWA"
      }
    ]
  },
  {
    "postal": "K1G0V9",
    "result": [
      {
        "electoralDistricts": [
          {
            "election": null,
            "id": 79,
            "name": "Ottawa South"
          }
        ],
        "pollDivisionIds": [
          10140644
        ],
        "postalCode": "K1G0V9",
        "streetName": "CHOMLEY",
        "streetDirectionId": null,
        "streetTypeId": "CRES",
        "placeName": "OTTAWA",
        "streetNameDisplayText": "CHOMLEY CRES, OTTAWA"
      }
    ]
  },
  {
    "postal": "K1G5Y2",
    "result": [
      {
        "electoralDistricts": [
          {
            "election": null,
            "id": 79,
            "name": "Ottawa South"
          }
        ],
        "pollDivisionIds": [
          10140644
        ],
        "postalCode": "K1G5Y2",
        "streetName": "CORSICA",
        "streetDirectionId": null,
        "streetTypeId": "PVT",
        "placeName": "OTTAWA",
        "streetNameDisplayText": "CORSICA PVT, OTTAWA"
      },
      {
        "electoralDistricts": [
          {
            "election": null,
            "id": 79,
            "name": "Ottawa South"
          }
        ],
        "pollDivisionIds": [
          10140644
        ],
        "postalCode": "K1G5Y2",
        "streetName": "SAN REMO",
        "streetDirectionId": null,
        "streetTypeId": "PVT",
        "placeName": "OTTAWA",
        "streetNameDisplayText": "SAN REMO PVT, OTTAWA"
      }
    ]
  },
  {
    "postal": "K1G7Z7",
    "result": []
  },
  {
    "postal": "K1G6Y8",
    "result": []
  },
  {
    "postal": "K1G2G7",
    "result": [
      {
        "electoralDistricts": [
          {
            "election": null,
            "id": 79,
            "name": "Ottawa South"
          }
        ],
        "pollDivisionIds": [
          10140649
        ],
        "postalCode": "K1G2G7",
        "streetName": "ARCH",
        "streetDirectionId": null,
        "streetTypeId": "ST",
        "placeName": "OTTAWA",
        "streetNameDisplayText": "ARCH ST, OTTAWA"
      }
    ]
  },
  {
    "postal": "K1G8C1",
    "result": []
  },
  {
    "postal": "K1G5C5",
    "result": [
      {
        "electoralDistricts": [
          {
            "election": null,
            "id": 79,
            "name": "Ottawa South"
          }
        ],
        "pollDivisionIds": [
          10140668
        ],
        "postalCode": "K1G5C5",
        "streetName": "WOODBURY",
        "streetDirectionId": null,
        "streetTypeId": "CRES",
        "placeName": "OTTAWA",
        "streetNameDisplayText": "WOODBURY CRES, OTTAWA"
      }
    ]
  },
  {
    "postal": "K1G2X8",
    "result": [
      {
        "electoralDistricts": [
          {
            "election": null,
            "id": 79,
            "name": "Ottawa South"
          }
        ],
        "pollDivisionIds": [
          10140653
        ],
        "postalCode": "K1G2X8",
        "streetName": "DICKENS",
        "streetDirectionId": null,
        "streetTypeId": "AVE",
        "placeName": "OTTAWA",
        "streetNameDisplayText": "DICKENS AVE, OTTAWA"
      }
    ]
  },
  {
    "postal": "K1G1W5",
    "result": [
      {
        "electoralDistricts": [
          {
            "election": null,
            "id": 79,
            "name": "Ottawa South"
          }
        ],
        "pollDivisionIds": [
          10140649
        ],
        "postalCode": "K1G1W5",
        "streetName": "WESTON",
        "streetDirectionId": null,
        "streetTypeId": "DR",
        "placeName": "OTTAWA",
        "streetNameDisplayText": "WESTON DR, OTTAWA"
      }
    ]
  },
  {
    "postal": "K1G7G0",
    "result": []
  },
  {
    "postal": "K1G8J8",
    "result": []
  },
  {
    "postal": "K1G3Y0",
    "result": []
  },
  {
    "postal": "K1G9T7",
    "result": []
  },
  {
    "postal": "K1G5P4",
    "result": [
      {
        "electoralDistricts": [
          {
            "election": null,
            "id": 79,
            "name": "Ottawa South"
          }
        ],
        "pollDivisionIds": [
          10140644
        ],
        "postalCode": "K1G5P4",
        "streetName": "PICKERING",
        "streetDirectionId": null,
        "streetTypeId": "PL",
        "placeName": "OTTAWA",
        "streetNameDisplayText": "PICKERING PL, OTTAWA"
      }
    ]
  },
  {
    "postal": "K1G4B0",
    "result": []
  },
  {
    "postal": "K1G9N8",
    "result": []
  },
  {
    "postal": "K1G4A7",
    "result": [
      {
        "electoralDistricts": [
          {
            "election": null,
            "id": 79,
            "name": "Ottawa South"
          }
        ],
        "pollDivisionIds": [
          10140682
        ],
        "postalCode": "K1G4A7",
        "streetName": "LYCÃ‰E",
        "streetDirectionId": null,
        "streetTypeId": "PLACE",
        "placeName": "OTTAWA",
        "streetNameDisplayText": "LYCÃ‰E PLACE, OTTAWA"
      }
    ]
  },
  {
    "postal": "K1G4H9",
    "result": []
  },
  {
    "postal": "K1G6X1",
    "result": []
  },
  {
    "postal": "K1G9Y7",
    "result": []
  },
  {
    "postal": "K1G2Y5",
    "result": [
      {
        "electoralDistricts": [
          {
            "election": null,
            "id": 79,
            "name": "Ottawa South"
          }
        ],
        "pollDivisionIds": [
          10140653
        ],
        "postalCode": "K1G2Y5",
        "streetName": "HOLT",
        "streetDirectionId": null,
        "streetTypeId": "CRES",
        "placeName": "OTTAWA",
        "streetNameDisplayText": "HOLT CRES, OTTAWA"
      }
    ]
  },
  {
    "postal": "K1G8L7",
    "result": []
  },
  {
    "postal": "K1G2A8",
    "result": [
      {
        "electoralDistricts": [
          {
            "election": null,
            "id": 79,
            "name": "Ottawa South"
          }
        ],
        "pollDivisionIds": [
          10140649
        ],
        "postalCode": "K1G2A8",
        "streetName": "HALL",
        "streetDirectionId": null,
        "streetTypeId": "ST",
        "placeName": "OTTAWA",
        "streetNameDisplayText": "HALL ST, OTTAWA"
      }
    ]
  },
  {
    "postal": "K1G2K9",
    "result": [
      {
        "electoralDistricts": [
          {
            "election": null,
            "id": 79,
            "name": "Ottawa South"
          }
        ],
        "pollDivisionIds": [
          10140653
        ],
        "postalCode": "K1G2K9",
        "streetName": "HAIG",
        "streetDirectionId": null,
        "streetTypeId": "DR",
        "placeName": "OTTAWA",
        "streetNameDisplayText": "HAIG DR, OTTAWA"
      }
    ]
  },
  {
    "postal": "K1G3E5",
    "result": [
      {
        "electoralDistricts": [
          {
            "election": null,
            "id": 79,
            "name": "Ottawa South"
          }
        ],
        "pollDivisionIds": [
          10140653
        ],
        "postalCode": "K1G3E5",
        "streetName": "DUNROBIN",
        "streetDirectionId": null,
        "streetTypeId": "AVE",
        "placeName": "OTTAWA",
        "streetNameDisplayText": "DUNROBIN AVE, OTTAWA"
      }
    ]
  },
  {
    "postal": "K1G8N6",
    "result": []
  },
  {
    "postal": "K1G8J4",
    "result": []
  },
  {
    "postal": "K1G4R7",
    "result": [
      {
        "electoralDistricts": [
          {
            "election": null,
            "id": 79,
            "name": "Ottawa South"
          }
        ],
        "pollDivisionIds": [
          10140655,
          10140668
        ],
        "postalCode": "K1G4R7",
        "streetName": "BLOHM",
        "streetDirectionId": null,
        "streetTypeId": "DR",
        "placeName": "OTTAWA",
        "streetNameDisplayText": "BLOHM DR, OTTAWA"
      },
      {
        "electoralDistricts": [
          {
            "election": null,
            "id": 79,
            "name": "Ottawa South"
          }
        ],
        "pollDivisionIds": [
          10140655
        ],
        "postalCode": "K1G4R7",
        "streetName": "DOSSETTER",
        "streetDirectionId": null,
        "streetTypeId": "WAY",
        "placeName": "OTTAWA",
        "streetNameDisplayText": "DOSSETTER WAY, OTTAWA"
      }
    ]
  },
  {
    "postal": "K1G9K1",
    "result": []
  },
  {
    "postal": "K1G8E1",
    "result": []
  },
  {
    "postal": "K1G0R1",
    "result": [
      {
        "electoralDistricts": [
          {
            "election": null,
            "id": 79,
            "name": "Ottawa South"
          }
        ],
        "pollDivisionIds": [
          10140645
        ],
        "postalCode": "K1G0R1",
        "streetName": "BOTSFORD",
        "streetDirectionId": null,
        "streetTypeId": "ST",
        "placeName": "OTTAWA",
        "streetNameDisplayText": "BOTSFORD ST, OTTAWA"
      }
    ]
  },
  {
    "postal": "K1G4J3",
    "result": []
  },
  {
    "postal": "K1G7E7",
    "result": []
  },
  {
    "postal": "K1G0J0",
    "result": []
  },
  {
    "postal": "K1G7R8",
    "result": []
  },
  {
    "postal": "K1G9X0",
    "result": []
  },
  {
    "postal": "K1G7P6",
    "result": []
  },
  {
    "postal": "K1G0R7",
    "result": [
      {
        "electoralDistricts": [
          {
            "election": null,
            "id": 79,
            "name": "Ottawa South"
          }
        ],
        "pollDivisionIds": [
          10140645
        ],
        "postalCode": "K1G0R7",
        "streetName": "CHAUCER",
        "streetDirectionId": null,
        "streetTypeId": "AVE",
        "placeName": "OTTAWA",
        "streetNameDisplayText": "CHAUCER AVE, OTTAWA"
      }
    ]
  },
  {
    "postal": "K1G5W1",
    "result": [
      {
        "electoralDistricts": [
          {
            "election": null,
            "id": 79,
            "name": "Ottawa South"
          }
        ],
        "pollDivisionIds": [
          10140655
        ],
        "postalCode": "K1G5W1",
        "streetName": "HUNTERSWOOD",
        "streetDirectionId": null,
        "streetTypeId": "CRES",
        "placeName": "OTTAWA",
        "streetNameDisplayText": "HUNTERSWOOD CRES, OTTAWA"
      }
    ]
  },
  {
    "postal": "K1G0K4",
    "result": [
      {
        "electoralDistricts": [
          {
            "election": null,
            "id": 79,
            "name": "Ottawa South"
          }
        ],
        "pollDivisionIds": [
          10140644
        ],
        "postalCode": "K1G0K4",
        "streetName": "LENNOX PARK",
        "streetDirectionId": null,
        "streetTypeId": "AVE",
        "placeName": "OTTAWA",
        "streetNameDisplayText": "LENNOX PARK AVE, OTTAWA"
      }
    ]
  },
  {
    "postal": "K1G7N9",
    "result": []
  },
  {
    "postal": "K1G1N0",
    "result": []
  },
  {
    "postal": "K1G6P3",
    "result": [
      {
        "electoralDistricts": [
          {
            "election": null,
            "id": 79,
            "name": "Ottawa South"
          }
        ],
        "pollDivisionIds": [
          10140644
        ],
        "postalCode": "K1G6P3",
        "streetName": "STATION",
        "streetDirectionId": null,
        "streetTypeId": "BLVD",
        "placeName": "OTTAWA",
        "streetNameDisplayText": "STATION BLVD, OTTAWA"
      }
    ]
  },
  {
    "postal": "K1G5A1",
    "result": []
  },
  {
    "postal": "K1G9M9",
    "result": []
  },
  {
    "postal": "K1G7T6",
    "result": []
  },
  {
    "postal": "K1G3X0",
    "result": []
  },
  {
    "postal": "K1G2T0",
    "result": []
  },
  {
    "postal": "K1G5X9",
    "result": [
      {
        "electoralDistricts": [
          {
            "election": null,
            "id": 79,
            "name": "Ottawa South"
          }
        ],
        "pollDivisionIds": [
          10140644
        ],
        "postalCode": "K1G5X9",
        "streetName": "CORSICA",
        "streetDirectionId": null,
        "streetTypeId": "PVT",
        "placeName": "OTTAWA",
        "streetNameDisplayText": "CORSICA PVT, OTTAWA"
      },
      {
        "electoralDistricts": [
          {
            "election": null,
            "id": 79,
            "name": "Ottawa South"
          }
        ],
        "pollDivisionIds": [
          10140644
        ],
        "postalCode": "K1G5X9",
        "streetName": "SAN REMO",
        "streetDirectionId": null,
        "streetTypeId": "PVT",
        "placeName": "OTTAWA",
        "streetNameDisplayText": "SAN REMO PVT, OTTAWA"
      }
    ]
  },
  {
    "postal": "K1G2R3",
    "result": [
      {
        "electoralDistricts": [
          {
            "election": null,
            "id": 79,
            "name": "Ottawa South"
          }
        ],
        "pollDivisionIds": [
          10140654
        ],
        "postalCode": "K1G2R3",
        "streetName": "GILL",
        "streetDirectionId": null,
        "streetTypeId": "AVE",
        "placeName": "OTTAWA",
        "streetNameDisplayText": "GILL AVE, OTTAWA"
      }
    ]
  },
  {
    "postal": "K1G5N2",
    "result": []
  },
  {
    "postal": "K1G4Y7",
    "result": [
      {
        "electoralDistricts": [
          {
            "election": null,
            "id": 79,
            "name": "Ottawa South"
          }
        ],
        "pollDivisionIds": [
          10140668
        ],
        "postalCode": "K1G4Y7",
        "streetName": "CLIFFORD",
        "streetDirectionId": null,
        "streetTypeId": "PVT",
        "placeName": "OTTAWA",
        "streetNameDisplayText": "CLIFFORD PVT, OTTAWA"
      },
      {
        "electoralDistricts": [
          {
            "election": null,
            "id": 79,
            "name": "Ottawa South"
          }
        ],
        "pollDivisionIds": [
          10140668
        ],
        "postalCode": "K1G4Y7",
        "streetName": "EWING",
        "streetDirectionId": null,
        "streetTypeId": "ST",
        "placeName": "OTTAWA",
        "streetNameDisplayText": "EWING ST, OTTAWA"
      }
    ]
  },
  {
    "postal": "K1G7M0",
    "result": []
  },
  {
    "postal": "K1G8P3",
    "result": []
  },
  {
    "postal": "K1G3N3",
    "result": []
  },
  {
    "postal": "K1G7S3",
    "result": []
  },
  {
    "postal": "K1G3V9",
    "result": [
      {
        "electoralDistricts": [
          {
            "election": null,
            "id": 79,
            "name": "Ottawa South"
          }
        ],
        "pollDivisionIds": [
          10140668
        ],
        "postalCode": "K1G3V9",
        "streetName": "HAWTHORNE",
        "streetDirectionId": null,
        "streetTypeId": "RD",
        "placeName": "OTTAWA",
        "streetNameDisplayText": "HAWTHORNE RD, OTTAWA"
      }
    ]
  },
  {
    "postal": "K1G9N7",
    "result": []
  },
  {
    "postal": "K1G0G4",
    "result": [
      {
        "electoralDistricts": [
          {
            "election": null,
            "id": 79,
            "name": "Ottawa South"
          }
        ],
        "pollDivisionIds": [
          10140644
        ],
        "postalCode": "K1G0G4",
        "streetName": "ALTA VISTA",
        "streetDirectionId": null,
        "streetTypeId": "DR",
        "placeName": "OTTAWA",
        "streetNameDisplayText": "ALTA VISTA DR, OTTAWA"
      }
    ]
  },
  {
    "postal": "K1G2E2",
    "result": [
      {
        "electoralDistricts": [
          {
            "election": null,
            "id": 79,
            "name": "Ottawa South"
          }
        ],
        "pollDivisionIds": [
          10140649
        ],
        "postalCode": "K1G2E2",
        "streetName": "SAUNDERSON",
        "streetDirectionId": null,
        "streetTypeId": "DR",
        "placeName": "OTTAWA",
        "streetNameDisplayText": "SAUNDERSON DR, OTTAWA"
      }
    ]
  },
  {
    "postal": "K1G7W8",
    "result": []
  },
  {
    "postal": "K1G7M5",
    "result": []
  },
  {
    "postal": "K1G5W8",
    "result": [
      {
        "electoralDistricts": [
          {
            "election": null,
            "id": 79,
            "name": "Ottawa South"
          }
        ],
        "pollDivisionIds": [
          10140647
        ],
        "postalCode": "K1G5W8",
        "streetName": "ALTA VISTA",
        "streetDirectionId": null,
        "streetTypeId": "DR",
        "placeName": "OTTAWA",
        "streetNameDisplayText": "ALTA VISTA DR, OTTAWA"
      }
    ]
  },
  {
    "postal": "K1G5E5",
    "result": [
      {
        "electoralDistricts": [
          {
            "election": null,
            "id": 79,
            "name": "Ottawa South"
          }
        ],
        "pollDivisionIds": [
          10140668
        ],
        "postalCode": "K1G5E5",
        "streetName": "SOUTHLAND",
        "streetDirectionId": null,
        "streetTypeId": "CRES",
        "placeName": "OTTAWA",
        "streetNameDisplayText": "SOUTHLAND CRES, OTTAWA"
      }
    ]
  },
  {
    "postal": "K1G1P9",
    "result": [
      {
        "electoralDistricts": [
          {
            "election": null,
            "id": 79,
            "name": "Ottawa South"
          }
        ],
        "pollDivisionIds": [
          10140648
        ],
        "postalCode": "K1G1P9",
        "streetName": "HAMLET",
        "streetDirectionId": null,
        "streetTypeId": "RD",
        "placeName": "OTTAWA",
        "streetNameDisplayText": "HAMLET RD, OTTAWA"
      }
    ]
  },
  {
    "postal": "K1G8V8",
    "result": []
  },
  {
    "postal": "K1G9G8",
    "result": []
  },
  {
    "postal": "K1G8H9",
    "result": []
  },
  {
    "postal": "K1G1Z1",
    "result": [
      {
        "electoralDistricts": [
          {
            "election": null,
            "id": 79,
            "name": "Ottawa South"
          }
        ],
        "pollDivisionIds": [
          10140649
        ],
        "postalCode": "K1G1Z1",
        "streetName": "PLEASANT PARK",
        "streetDirectionId": null,
        "streetTypeId": "RD",
        "placeName": "OTTAWA",
        "streetNameDisplayText": "PLEASANT PARK RD, OTTAWA"
      }
    ]
  },
  {
    "postal": "K1G8M3",
    "result": []
  },
  {
    "postal": "K1G5H6",
    "result": []
  },
  {
    "postal": "K1G7W7",
    "result": []
  },
  {
    "postal": "K1G4L0",
    "result": []
  },
  {
    "postal": "K1G2N1",
    "result": [
      {
        "electoralDistricts": [
          {
            "election": null,
            "id": 79,
            "name": "Ottawa South"
          }
        ],
        "pollDivisionIds": [
          10140648
        ],
        "postalCode": "K1G2N1",
        "streetName": "CAMROSE",
        "streetDirectionId": null,
        "streetTypeId": "ST",
        "placeName": "OTTAWA",
        "streetNameDisplayText": "CAMROSE ST, OTTAWA"
      }
    ]
  },
  {
    "postal": "K1G2H4",
    "result": [
      {
        "electoralDistricts": [
          {
            "election": null,
            "id": 79,
            "name": "Ottawa South"
          }
        ],
        "pollDivisionIds": [
          10140653
        ],
        "postalCode": "K1G2H4",
        "streetName": "ARCH",
        "streetDirectionId": null,
        "streetTypeId": "ST",
        "placeName": "OTTAWA",
        "streetNameDisplayText": "ARCH ST, OTTAWA"
      }
    ]
  },
  {
    "postal": "K1G5C8",
    "result": [
      {
        "electoralDistricts": [
          {
            "election": null,
            "id": 79,
            "name": "Ottawa South"
          }
        ],
        "pollDivisionIds": [
          10140668
        ],
        "postalCode": "K1G5C8",
        "streetName": "WOODBURY",
        "streetDirectionId": null,
        "streetTypeId": "CRES",
        "placeName": "OTTAWA",
        "streetNameDisplayText": "WOODBURY CRES, OTTAWA"
      }
    ]
  },
  {
    "postal": "K1G8B0",
    "result": []
  },
  {
    "postal": "K1G1T4",
    "result": [
      {
        "electoralDistricts": [
          {
            "election": null,
            "id": 79,
            "name": "Ottawa South"
          }
        ],
        "pollDivisionIds": [
          10140648
        ],
        "postalCode": "K1G1T4",
        "streetName": "PORTAGE",
        "streetDirectionId": null,
        "streetTypeId": "AVE",
        "placeName": "OTTAWA",
        "streetNameDisplayText": "PORTAGE AVE, OTTAWA"
      }
    ]
  },
  {
    "postal": "K1G7N7",
    "result": []
  },
  {
    "postal": "K1G4L3",
    "result": [
      {
        "electoralDistricts": [
          {
            "election": null,
            "id": 79,
            "name": "Ottawa South"
          }
        ],
        "pollDivisionIds": [
          10140645
        ],
        "postalCode": "K1G4L3",
        "streetName": "INDUSTRIAL",
        "streetDirectionId": null,
        "streetTypeId": "AVE",
        "placeName": "OTTAWA",
        "streetNameDisplayText": "INDUSTRIAL AVE, OTTAWA"
      }
    ]
  },
  {
    "postal": "K1G2N2",
    "result": [
      {
        "electoralDistricts": [
          {
            "election": null,
            "id": 79,
            "name": "Ottawa South"
          }
        ],
        "pollDivisionIds": [
          10140648
        ],
        "postalCode": "K1G2N2",
        "streetName": "CAMROSE",
        "streetDirectionId": null,
        "streetTypeId": "ST",
        "placeName": "OTTAWA",
        "streetNameDisplayText": "CAMROSE ST, OTTAWA"
      }
    ]
  },
  {
    "postal": "K1G4N8",
    "result": [
      {
        "electoralDistricts": [
          {
            "election": null,
            "id": 79,
            "name": "Ottawa South"
          }
        ],
        "pollDivisionIds": [
          10140668
        ],
        "postalCode": "K1G4N8",
        "streetName": "ELLISSON",
        "streetDirectionId": null,
        "streetTypeId": "WAY",
        "placeName": "OTTAWA",
        "streetNameDisplayText": "ELLISSON WAY, OTTAWA"
      }
    ]
  },
  {
    "postal": "K1G3M5",
    "result": []
  },
  {
    "postal": "K1G6H7",
    "result": []
  },
  {
    "postal": "K1G8Y8",
    "result": []
  },
  {
    "postal": "K1G5R9",
    "result": []
  },
  {
    "postal": "K1G8G3",
    "result": []
  },
  {
    "postal": "K1G4N7",
    "result": [
      {
        "electoralDistricts": [
          {
            "election": null,
            "id": 79,
            "name": "Ottawa South"
          }
        ],
        "pollDivisionIds": [
          10140668
        ],
        "postalCode": "K1G4N7",
        "streetName": "FARDON",
        "streetDirectionId": null,
        "streetTypeId": "WAY",
        "placeName": "OTTAWA",
        "streetNameDisplayText": "FARDON WAY, OTTAWA"
      }
    ]
  },
  {
    "postal": "K1G0B9",
    "result": [
      {
        "electoralDistricts": [
          {
            "election": null,
            "id": 79,
            "name": "Ottawa South"
          }
        ],
        "pollDivisionIds": [
          10140644
        ],
        "postalCode": "K1G0B9",
        "streetName": "AVENUE R",
        "streetDirectionId": null,
        "streetTypeId": null,
        "placeName": "OTTAWA",
        "streetNameDisplayText": "AVENUE R, OTTAWA"
      }
    ]
  },
  {
    "postal": "K1G9K7",
    "result": []
  },
  {
    "postal": "K1G9K9",
    "result": []
  },
  {
    "postal": "K1G3Z2",
    "result": []
  },
  {
    "postal": "K1G6W7",
    "result": []
  },
  {
    "postal": "K1G0P1",
    "result": [
      {
        "electoralDistricts": [
          {
            "election": null,
            "id": 79,
            "name": "Ottawa South"
          }
        ],
        "pollDivisionIds": [
          10140645
        ],
        "postalCode": "K1G0P1",
        "streetName": "SHELLEY",
        "streetDirectionId": null,
        "streetTypeId": "AVE",
        "placeName": "OTTAWA",
        "streetNameDisplayText": "SHELLEY AVE, OTTAWA"
      }
    ]
  },
  {
    "postal": "K1G3A0",
    "result": []
  },
  {
    "postal": "K1G8L9",
    "result": []
  },
  {
    "postal": "K1G6X0",
    "result": []
  },
  {
    "postal": "K1G3E9",
    "result": [
      {
        "electoralDistricts": [
          {
            "election": null,
            "id": 79,
            "name": "Ottawa South"
          }
        ],
        "pollDivisionIds": [
          10140653
        ],
        "postalCode": "K1G3E9",
        "streetName": "EMSLIE",
        "streetDirectionId": null,
        "streetTypeId": "AVE",
        "placeName": "OTTAWA",
        "streetNameDisplayText": "EMSLIE AVE, OTTAWA"
      }
    ]
  },
  {
    "postal": "K1G0S5",
    "result": [
      {
        "electoralDistricts": [
          {
            "election": null,
            "id": 79,
            "name": "Ottawa South"
          }
        ],
        "pollDivisionIds": [
          10140645
        ],
        "postalCode": "K1G0S5",
        "streetName": "SHELLEY",
        "streetDirectionId": null,
        "streetTypeId": "AVE",
        "placeName": "OTTAWA",
        "streetNameDisplayText": "SHELLEY AVE, OTTAWA"
      }
    ]
  },
  {
    "postal": "K1G1A2",
    "result": [
      {
        "electoralDistricts": [
          {
            "election": null,
            "id": 79,
            "name": "Ottawa South"
          }
        ],
        "pollDivisionIds": [
          10140645
        ],
        "postalCode": "K1G1A2",
        "streetName": "ST LAURENT",
        "streetDirectionId": null,
        "streetTypeId": "BLVD",
        "placeName": "OTTAWA",
        "streetNameDisplayText": "ST LAURENT BLVD, OTTAWA"
      },
      {
        "electoralDistricts": [
          {
            "election": null,
            "id": 79,
            "name": "Ottawa South"
          }
        ],
        "pollDivisionIds": [
          10140645
        ],
        "postalCode": "K1G1A2",
        "streetName": "ST-LAURENT",
        "streetDirectionId": null,
        "streetTypeId": "BLVD",
        "placeName": "OTTAWA",
        "streetNameDisplayText": "ST-LAURENT BLVD, OTTAWA"
      }
    ]
  },
  {
    "postal": "K1G5V8",
    "result": [
      {
        "electoralDistricts": [
          {
            "election": null,
            "id": 79,
            "name": "Ottawa South"
          }
        ],
        "pollDivisionIds": [
          10140655
        ],
        "postalCode": "K1G5V8",
        "streetName": "FORESTGLADE",
        "streetDirectionId": null,
        "streetTypeId": "CRES",
        "placeName": "OTTAWA",
        "streetNameDisplayText": "FORESTGLADE CRES, OTTAWA"
      },
      {
        "electoralDistricts": [
          {
            "election": null,
            "id": 79,
            "name": "Ottawa South"
          }
        ],
        "pollDivisionIds": [
          10140655
        ],
        "postalCode": "K1G5V8",
        "streetName": "HUNTERSWOOD",
        "streetDirectionId": null,
        "streetTypeId": "CRES",
        "placeName": "OTTAWA",
        "streetNameDisplayText": "HUNTERSWOOD CRES, OTTAWA"
      }
    ]
  },
  {
    "postal": "K1G8C5",
    "result": []
  },
  {
    "postal": "K1G6N0",
    "result": []
  },
  {
    "postal": "K1G9E6",
    "result": []
  },
  {
    "postal": "K1G5J7",
    "result": [
      {
        "electoralDistricts": [
          {
            "election": null,
            "id": 79,
            "name": "Ottawa South"
          }
        ],
        "pollDivisionIds": [
          10140655
        ],
        "postalCode": "K1G5J7",
        "streetName": "CELLINI",
        "streetDirectionId": null,
        "streetTypeId": "CRT",
        "placeName": "OTTAWA",
        "streetNameDisplayText": "CELLINI CRT, OTTAWA"
      },
      {
        "electoralDistricts": [
          {
            "election": null,
            "id": 79,
            "name": "Ottawa South"
          }
        ],
        "pollDivisionIds": [
          10140668
        ],
        "postalCode": "K1G5J7",
        "streetName": "JOHNSTON",
        "streetDirectionId": null,
        "streetTypeId": "RD",
        "placeName": "OTTAWA",
        "streetNameDisplayText": "JOHNSTON RD, OTTAWA"
      }
    ]
  },
  {
    "postal": "K1G2R2",
    "result": [
      {
        "electoralDistricts": [
          {
            "election": null,
            "id": 79,
            "name": "Ottawa South"
          }
        ],
        "pollDivisionIds": [
          10140654
        ],
        "postalCode": "K1G2R2",
        "streetName": "GILL",
        "streetDirectionId": null,
        "streetTypeId": "AVE",
        "placeName": "OTTAWA",
        "streetNameDisplayText": "GILL AVE, OTTAWA"
      }
    ]
  },
  {
    "postal": "K1G0P5",
    "result": [
      {
        "electoralDistricts": [
          {
            "election": null,
            "id": 79,
            "name": "Ottawa South"
          }
        ],
        "pollDivisionIds": [
          10140645
        ],
        "postalCode": "K1G0P5",
        "streetName": "DIGBY",
        "streetDirectionId": null,
        "streetTypeId": "ST",
        "placeName": "OTTAWA",
        "streetNameDisplayText": "DIGBY ST, OTTAWA"
      }
    ]
  },
  {
    "postal": "K1G5A7",
    "result": [
      {
        "electoralDistricts": [
          {
            "election": null,
            "id": 79,
            "name": "Ottawa South"
          }
        ],
        "pollDivisionIds": [
          10140668
        ],
        "postalCode": "K1G5A7",
        "streetName": "THURSTON",
        "streetDirectionId": null,
        "streetTypeId": "DR",
        "placeName": "OTTAWA",
        "streetNameDisplayText": "THURSTON DR, OTTAWA"
      }
    ]
  },
  {
    "postal": "K1G1G1",
    "result": [
      {
        "electoralDistricts": [
          {
            "election": null,
            "id": 79,
            "name": "Ottawa South"
          }
        ],
        "pollDivisionIds": [
          10140650
        ],
        "postalCode": "K1G1G1",
        "streetName": "MAYWOOD",
        "streetDirectionId": null,
        "streetTypeId": "ST",
        "placeName": "OTTAWA",
        "streetNameDisplayText": "MAYWOOD ST, OTTAWA"
      }
    ]
  },
  {
    "postal": "K1G9R6",
    "result": []
  },
  {
    "postal": "K1G4Z9",
    "result": []
  },
  {
    "postal": "K1G1V5",
    "result": [
      {
        "electoralDistricts": [
          {
            "election": null,
            "id": 79,
            "name": "Ottawa South"
          }
        ],
        "pollDivisionIds": [
          10140649
        ],
        "postalCode": "K1G1V5",
        "streetName": "CHAPMAN",
        "streetDirectionId": null,
        "streetTypeId": "BLVD",
        "placeName": "OTTAWA",
        "streetNameDisplayText": "CHAPMAN BLVD, OTTAWA"
      }
    ]
  },
  {
    "postal": "K1G9Y5",
    "result": []
  },
  {
    "postal": "K1G1P2",
    "result": [
      {
        "electoralDistricts": [
          {
            "election": null,
            "id": 79,
            "name": "Ottawa South"
          }
        ],
        "pollDivisionIds": [
          10140645
        ],
        "postalCode": "K1G1P2",
        "streetName": "SMYTH",
        "streetDirectionId": null,
        "streetTypeId": "RD",
        "placeName": "OTTAWA",
        "streetNameDisplayText": "SMYTH RD, OTTAWA"
      }
    ]
  },
  {
    "postal": "K1G5X0",
    "result": []
  },
  {
    "postal": "K1G7B8",
    "result": []
  },
  {
    "postal": "K1G0C6",
    "result": [
      {
        "electoralDistricts": [
          {
            "election": null,
            "id": 79,
            "name": "Ottawa South"
          }
        ],
        "pollDivisionIds": [
          10140644
        ],
        "postalCode": "K1G0C6",
        "streetName": "AVENUE T",
        "streetDirectionId": null,
        "streetTypeId": null,
        "placeName": "OTTAWA",
        "streetNameDisplayText": "AVENUE T, OTTAWA"
      }
    ]
  },
  {
    "postal": "K1G6G1",
    "result": []
  },
  {
    "postal": "K1G3K3",
    "result": []
  },
  {
    "postal": "K1G9R0",
    "result": []
  },
  {
    "postal": "K1G4R8",
    "result": [
      {
        "electoralDistricts": [
          {
            "election": null,
            "id": 79,
            "name": "Ottawa South"
          }
        ],
        "pollDivisionIds": [
          10140655
        ],
        "postalCode": "K1G4R8",
        "streetName": "DOSSETTER",
        "streetDirectionId": null,
        "streetTypeId": "WAY",
        "placeName": "OTTAWA",
        "streetNameDisplayText": "DOSSETTER WAY, OTTAWA"
      },
      {
        "electoralDistricts": [
          {
            "election": null,
            "id": 79,
            "name": "Ottawa South"
          }
        ],
        "pollDivisionIds": [
          10140655
        ],
        "postalCode": "K1G4R8",
        "streetName": "ESSON",
        "streetDirectionId": null,
        "streetTypeId": "ST",
        "placeName": "OTTAWA",
        "streetNameDisplayText": "ESSON ST, OTTAWA"
      },
      {
        "electoralDistricts": [
          {
            "election": null,
            "id": 79,
            "name": "Ottawa South"
          }
        ],
        "pollDivisionIds": [
          10140655
        ],
        "postalCode": "K1G4R8",
        "streetName": "HIME",
        "streetDirectionId": null,
        "streetTypeId": "CRES",
        "placeName": "OTTAWA",
        "streetNameDisplayText": "HIME CRES, OTTAWA"
      }
    ]
  },
  {
    "postal": "K1G5P9",
    "result": [
      {
        "electoralDistricts": [
          {
            "election": null,
            "id": 79,
            "name": "Ottawa South"
          }
        ],
        "pollDivisionIds": [
          10140668
        ],
        "postalCode": "K1G5P9",
        "streetName": "BRISTON",
        "streetDirectionId": null,
        "streetTypeId": "PVT",
        "placeName": "OTTAWA",
        "streetNameDisplayText": "BRISTON PVT, OTTAWA"
      }
    ]
  },
  {
    "postal": "K1G8N4",
    "result": []
  },
  {
    "postal": "K1G8H4",
    "result": []
  },
  {
    "postal": "K1G4V1",
    "result": []
  },
  {
    "postal": "K1G1K5",
    "result": [
      {
        "electoralDistricts": [
          {
            "election": null,
            "id": 79,
            "name": "Ottawa South"
          }
        ],
        "pollDivisionIds": [
          10140650
        ],
        "postalCode": "K1G1K5",
        "streetName": "SUSAN",
        "streetDirectionId": null,
        "streetTypeId": "ST",
        "placeName": "OTTAWA",
        "streetNameDisplayText": "SUSAN ST, OTTAWA"
      }
    ]
  },
  {
    "postal": "K1G1Z5",
    "result": [
      {
        "electoralDistricts": [
          {
            "election": null,
            "id": 79,
            "name": "Ottawa South"
          }
        ],
        "pollDivisionIds": [
          10140653
        ],
        "postalCode": "K1G1Z5",
        "streetName": "PLEASANT PARK",
        "streetDirectionId": null,
        "streetTypeId": "RD",
        "placeName": "OTTAWA",
        "streetNameDisplayText": "PLEASANT PARK RD, OTTAWA"
      }
    ]
  },
  {
    "postal": "K1G9L9",
    "result": []
  },
  {
    "postal": "K1G5L2",
    "result": [
      {
        "electoralDistricts": [
          {
            "election": null,
            "id": 79,
            "name": "Ottawa South"
          }
        ],
        "pollDivisionIds": [
          10140668
        ],
        "postalCode": "K1G5L2",
        "streetName": "WALKLEY",
        "streetDirectionId": null,
        "streetTypeId": "RD",
        "placeName": "OTTAWA",
        "streetNameDisplayText": "WALKLEY RD, OTTAWA"
      }
    ]
  },
  {
    "postal": "K1G0M2",
    "result": [
      {
        "electoralDistricts": [
          {
            "election": null,
            "id": 79,
            "name": "Ottawa South"
          }
        ],
        "pollDivisionIds": [
          10140644
        ],
        "postalCode": "K1G0M2",
        "streetName": "STATION",
        "streetDirectionId": null,
        "streetTypeId": "BLVD",
        "placeName": "OTTAWA",
        "streetNameDisplayText": "STATION BLVD, OTTAWA"
      }
    ]
  },
  {
    "postal": "K1G1K8",
    "result": [
      {
        "electoralDistricts": [
          {
            "election": null,
            "id": 79,
            "name": "Ottawa South"
          }
        ],
        "pollDivisionIds": [
          10140650
        ],
        "postalCode": "K1G1K8",
        "streetName": "MARTHA",
        "streetDirectionId": null,
        "streetTypeId": "AVE",
        "placeName": "OTTAWA",
        "streetNameDisplayText": "MARTHA AVE, OTTAWA"
      }
    ]
  },
  {
    "postal": "K1G3M7",
    "result": []
  },
  {
    "postal": "K1G1B2",
    "result": [
      {
        "electoralDistricts": [
          {
            "election": null,
            "id": 79,
            "name": "Ottawa South"
          }
        ],
        "pollDivisionIds": [
          10140654
        ],
        "postalCode": "K1G1B2",
        "streetName": "ST LAURENT",
        "streetDirectionId": null,
        "streetTypeId": "BLVD",
        "placeName": "OTTAWA",
        "streetNameDisplayText": "ST LAURENT BLVD, OTTAWA"
      },
      {
        "electoralDistricts": [
          {
            "election": null,
            "id": 79,
            "name": "Ottawa South"
          }
        ],
        "pollDivisionIds": [
          10140654
        ],
        "postalCode": "K1G1B2",
        "streetName": "ST-LAURENT",
        "streetDirectionId": null,
        "streetTypeId": "BLVD",
        "placeName": "OTTAWA",
        "streetNameDisplayText": "ST-LAURENT BLVD, OTTAWA"
      }
    ]
  },
  {
    "postal": "K1G0H9",
    "result": [
      {
        "electoralDistricts": [
          {
            "election": null,
            "id": 79,
            "name": "Ottawa South"
          }
        ],
        "pollDivisionIds": [
          10140644
        ],
        "postalCode": "K1G0H9",
        "streetName": "CALEDON",
        "streetDirectionId": null,
        "streetTypeId": "ST",
        "placeName": "OTTAWA",
        "streetNameDisplayText": "CALEDON ST, OTTAWA"
      }
    ]
  },
  {
    "postal": "K1G8M4",
    "result": []
  },
  {
    "postal": "K1G2M5",
    "result": [
      {
        "electoralDistricts": [
          {
            "election": null,
            "id": 79,
            "name": "Ottawa South"
          }
        ],
        "pollDivisionIds": [
          10140649
        ],
        "postalCode": "K1G2M5",
        "streetName": "CORRY",
        "streetDirectionId": null,
        "streetTypeId": "ST",
        "placeName": "OTTAWA",
        "streetNameDisplayText": "CORRY ST, OTTAWA"
      }
    ]
  },
  {
    "postal": "K1G0T9",
    "result": [
      {
        "electoralDistricts": [
          {
            "election": null,
            "id": 79,
            "name": "Ottawa South"
          }
        ],
        "pollDivisionIds": [
          10140645
        ],
        "postalCode": "K1G0T9",
        "streetName": "BROWNING",
        "streetDirectionId": null,
        "streetTypeId": "AVE",
        "placeName": "OTTAWA",
        "streetNameDisplayText": "BROWNING AVE, OTTAWA"
      }
    ]
  },
  {
    "postal": "K1G3P1",
    "result": []
  },
  {
    "postal": "K1G1R6",
    "result": [
      {
        "electoralDistricts": [
          {
            "election": null,
            "id": 79,
            "name": "Ottawa South"
          }
        ],
        "pollDivisionIds": [
          10140649
        ],
        "postalCode": "K1G1R6",
        "streetName": "COLSON",
        "streetDirectionId": null,
        "streetTypeId": "AVE",
        "placeName": "OTTAWA",
        "streetNameDisplayText": "COLSON AVE, OTTAWA"
      }
    ]
  },
  {
    "postal": "K1G9V5",
    "result": []
  },
  {
    "postal": "K1G9T0",
    "result": []
  },
  {
    "postal": "K1G0A9",
    "result": [
      {
        "electoralDistricts": [
          {
            "election": null,
            "id": 79,
            "name": "Ottawa South"
          }
        ],
        "pollDivisionIds": [
          10140644
        ],
        "postalCode": "K1G0A9",
        "streetName": "AVENUE O",
        "streetDirectionId": null,
        "streetTypeId": null,
        "placeName": "OTTAWA",
        "streetNameDisplayText": "AVENUE O, OTTAWA"
      }
    ]
  },
  {
    "postal": "K1G1M3",
    "result": [
      {
        "electoralDistricts": [
          {
            "election": null,
            "id": 79,
            "name": "Ottawa South"
          }
        ],
        "pollDivisionIds": [
          10140645
        ],
        "postalCode": "K1G1M3",
        "streetName": "RAGLAN",
        "streetDirectionId": null,
        "streetTypeId": "AVE",
        "placeName": "OTTAWA",
        "streetNameDisplayText": "RAGLAN AVE, OTTAWA"
      }
    ]
  },
  {
    "postal": "K1G1W8",
    "result": [
      {
        "electoralDistricts": [
          {
            "election": null,
            "id": 79,
            "name": "Ottawa South"
          }
        ],
        "pollDivisionIds": [
          10140649
        ],
        "postalCode": "K1G1W8",
        "streetName": "WESTON",
        "streetDirectionId": null,
        "streetTypeId": "DR",
        "placeName": "OTTAWA",
        "streetNameDisplayText": "WESTON DR, OTTAWA"
      }
    ]
  },
  {
    "postal": "K1G9J1",
    "result": []
  },
  {
    "postal": "K1G8N5",
    "result": []
  },
  {
    "postal": "K1G5X1",
    "result": []
  },
  {
    "postal": "K1G6S2",
    "result": []
  },
  {
    "postal": "K1G2A2",
    "result": [
      {
        "electoralDistricts": [
          {
            "election": null,
            "id": 79,
            "name": "Ottawa South"
          }
        ],
        "pollDivisionIds": [
          10140649
        ],
        "postalCode": "K1G2A2",
        "streetName": "OTHELLO",
        "streetDirectionId": null,
        "streetTypeId": "AVE",
        "placeName": "OTTAWA",
        "streetNameDisplayText": "OTHELLO AVE, OTTAWA"
      }
    ]
  },
  {
    "postal": "K1G6A6",
    "result": [
      {
        "electoralDistricts": [
          {
            "election": null,
            "id": 79,
            "name": "Ottawa South"
          }
        ],
        "pollDivisionIds": [
          10140655
        ],
        "postalCode": "K1G6A6",
        "streetName": "FORESTGLADE",
        "streetDirectionId": null,
        "streetTypeId": "CRES",
        "placeName": "OTTAWA",
        "streetNameDisplayText": "FORESTGLADE CRES, OTTAWA"
      },
      {
        "electoralDistricts": [
          {
            "election": null,
            "id": 79,
            "name": "Ottawa South"
          }
        ],
        "pollDivisionIds": [
          10140655
        ],
        "postalCode": "K1G6A6",
        "streetName": "NOBLETON",
        "streetDirectionId": null,
        "streetTypeId": "AVE",
        "placeName": "OTTAWA",
        "streetNameDisplayText": "NOBLETON AVE, OTTAWA"
      }
    ]
  },
  {
    "postal": "K1G0S3",
    "result": [
      {
        "electoralDistricts": [
          {
            "election": null,
            "id": 79,
            "name": "Ottawa South"
          }
        ],
        "pollDivisionIds": [
          10140645
        ],
        "postalCode": "K1G0S3",
        "streetName": "ORCHID",
        "streetDirectionId": null,
        "streetTypeId": "DR",
        "placeName": "OTTAWA",
        "streetNameDisplayText": "ORCHID DR, OTTAWA"
      }
    ]
  },
  {
    "postal": "K1G3E7",
    "result": [
      {
        "electoralDistricts": [
          {
            "election": null,
            "id": 79,
            "name": "Ottawa South"
          }
        ],
        "pollDivisionIds": [
          10140653
        ],
        "postalCode": "K1G3E7",
        "streetName": "HORTON",
        "streetDirectionId": null,
        "streetTypeId": "ST",
        "placeName": "OTTAWA",
        "streetNameDisplayText": "HORTON ST, OTTAWA"
      }
    ]
  },
  {
    "postal": "K1G5R7",
    "result": []
  },
  {
    "postal": "K1G3R6",
    "result": []
  },
  {
    "postal": "K1G6K4",
    "result": []
  },
  {
    "postal": "K1G2W5",
    "result": [
      {
        "electoralDistricts": [
          {
            "election": null,
            "id": 79,
            "name": "Ottawa South"
          }
        ],
        "pollDivisionIds": [
          10140654
        ],
        "postalCode": "K1G2W5",
        "streetName": "HALIFAX",
        "streetDirectionId": null,
        "streetTypeId": "DR",
        "placeName": "OTTAWA",
        "streetNameDisplayText": "HALIFAX DR, OTTAWA"
      }
    ]
  },
  {
    "postal": "K1G8W4",
    "result": []
  },
  {
    "postal": "K1G9C2",
    "result": []
  },
  {
    "postal": "K1G2C0",
    "result": []
  },
  {
    "postal": "K1G0E1",
    "result": [
      {
        "electoralDistricts": [
          {
            "election": null,
            "id": 79,
            "name": "Ottawa South"
          }
        ],
        "pollDivisionIds": [
          10140644
        ],
        "postalCode": "K1G0E1",
        "streetName": "AVENUE U",
        "streetDirectionId": null,
        "streetTypeId": null,
        "placeName": "OTTAWA",
        "streetNameDisplayText": "AVENUE U, OTTAWA"
      }
    ]
  },
  {
    "postal": "K1G1K9",
    "result": [
      {
        "electoralDistricts": [
          {
            "election": null,
            "id": 79,
            "name": "Ottawa South"
          }
        ],
        "pollDivisionIds": [
          10140650
        ],
        "postalCode": "K1G1K9",
        "streetName": "MARTHA",
        "streetDirectionId": null,
        "streetTypeId": "AVE",
        "placeName": "OTTAWA",
        "streetNameDisplayText": "MARTHA AVE, OTTAWA"
      }
    ]
  },
  {
    "postal": "K1G1G7",
    "result": [
      {
        "electoralDistricts": [
          {
            "election": null,
            "id": 79,
            "name": "Ottawa South"
          }
        ],
        "pollDivisionIds": [
          10140650
        ],
        "postalCode": "K1G1G7",
        "streetName": "TUPPER",
        "streetDirectionId": null,
        "streetTypeId": "AVE",
        "placeName": "OTTAWA",
        "streetNameDisplayText": "TUPPER AVE, OTTAWA"
      }
    ]
  },
  {
    "postal": "K1G4E9",
    "result": []
  },
  {
    "postal": "K1G9P0",
    "result": []
  },
  {
    "postal": "K1G5H3",
    "result": []
  },
  {
    "postal": "K1G9X6",
    "result": []
  },
  {
    "postal": "K1G5N7",
    "result": [
      {
        "electoralDistricts": [
          {
            "election": null,
            "id": 79,
            "name": "Ottawa South"
          }
        ],
        "pollDivisionIds": [
          10140655
        ],
        "postalCode": "K1G5N7",
        "streetName": "SAI",
        "streetDirectionId": null,
        "streetTypeId": "CRES",
        "placeName": "OTTAWA",
        "streetNameDisplayText": "SAI CRES, OTTAWA"
      }
    ]
  },
  {
    "postal": "K1G5A6",
    "result": []
  },
  {
    "postal": "K1G4M0",
    "result": []
  },
  {
    "postal": "K1G3V6",
    "result": []
  },
  {
    "postal": "K1G1L7",
    "result": [
      {
        "electoralDistricts": [
          {
            "election": null,
            "id": 79,
            "name": "Ottawa South"
          }
        ],
        "pollDivisionIds": [
          10140645
        ],
        "postalCode": "K1G1L7",
        "streetName": "CUBA",
        "streetDirectionId": null,
        "streetTypeId": "AVE",
        "placeName": "OTTAWA",
        "streetNameDisplayText": "CUBA AVE, OTTAWA"
      }
    ]
  },
  {
    "postal": "K1G2P9",
    "result": [
      {
        "electoralDistricts": [
          {
            "election": null,
            "id": 79,
            "name": "Ottawa South"
          }
        ],
        "pollDivisionIds": [
          10140654
        ],
        "postalCode": "K1G2P9",
        "streetName": "EDMOND",
        "streetDirectionId": null,
        "streetTypeId": "AVE",
        "placeName": "OTTAWA",
        "streetNameDisplayText": "EDMOND AVE, OTTAWA"
      }
    ]
  },
  {
    "postal": "K1G5T4",
    "result": [
      {
        "electoralDistricts": [
          {
            "election": null,
            "id": 79,
            "name": "Ottawa South"
          }
        ],
        "pollDivisionIds": [
          10140668
        ],
        "postalCode": "K1G5T4",
        "streetName": "AGES",
        "streetDirectionId": null,
        "streetTypeId": "DR",
        "placeName": "OTTAWA",
        "streetNameDisplayText": "AGES DR, OTTAWA"
      }
    ]
  },
  {
    "postal": "K1G5Z1",
    "result": []
  },
  {
    "postal": "K1G2X0",
    "result": []
  },
  {
    "postal": "K1G6Z2",
    "result": []
  },
  {
    "postal": "K1G0E0",
    "result": []
  },
  {
    "postal": "K1G3Z5",
    "result": []
  },
  {
    "postal": "K1G8H3",
    "result": []
  },
  {
    "postal": "K1G7S6",
    "result": []
  },
  {
    "postal": "K1G4C1",
    "result": []
  },
  {
    "postal": "K1G3K2",
    "result": []
  },
  {
    "postal": "K1G1Y5",
    "result": [
      {
        "electoralDistricts": [
          {
            "election": null,
            "id": 79,
            "name": "Ottawa South"
          }
        ],
        "pollDivisionIds": [
          10140648
        ],
        "postalCode": "K1G1Y5",
        "streetName": "PLEASANT PARK",
        "streetDirectionId": null,
        "streetTypeId": "RD",
        "placeName": "OTTAWA",
        "streetNameDisplayText": "PLEASANT PARK RD, OTTAWA"
      }
    ]
  },
  {
    "postal": "K1G6P6",
    "result": [
      {
        "electoralDistricts": [
          {
            "election": null,
            "id": 79,
            "name": "Ottawa South"
          }
        ],
        "pollDivisionIds": [
          10140647
        ],
        "postalCode": "K1G6P6",
        "streetName": "REMEMBRANCE",
        "streetDirectionId": null,
        "streetTypeId": "CRES",
        "placeName": "OTTAWA",
        "streetNameDisplayText": "REMEMBRANCE CRES, OTTAWA"
      }
    ]
  },
  {
    "postal": "K1G3N9",
    "result": [
      {
        "electoralDistricts": [
          {
            "election": null,
            "id": 79,
            "name": "Ottawa South"
          }
        ],
        "pollDivisionIds": [
          10140644
        ],
        "postalCode": "K1G3N9",
        "streetName": "ALTA VISTA",
        "streetDirectionId": null,
        "streetTypeId": "DR",
        "placeName": "OTTAWA",
        "streetNameDisplayText": "ALTA VISTA DR, OTTAWA"
      }
    ]
  },
  {
    "postal": "K1G3W2",
    "result": [
      {
        "electoralDistricts": [
          {
            "election": null,
            "id": 79,
            "name": "Ottawa South"
          }
        ],
        "pollDivisionIds": [
          10140668
        ],
        "postalCode": "K1G3W2",
        "streetName": "STEVENAGE",
        "streetDirectionId": null,
        "streetTypeId": "DR",
        "placeName": "OTTAWA",
        "streetNameDisplayText": "STEVENAGE DR, OTTAWA"
      }
    ]
  },
  {
    "postal": "K1G6H8",
    "result": []
  },
  {
    "postal": "K1G9T3",
    "result": []
  },
  {
    "postal": "K1G5L9",
    "result": []
  },
  {
    "postal": "K1G7X7",
    "result": []
  },
  {
    "postal": "K1G3J5",
    "result": []
  },
  {
    "postal": "K1G4J5",
    "result": [
      {
        "electoralDistricts": [
          {
            "election": null,
            "id": 79,
            "name": "Ottawa South"
          }
        ],
        "pollDivisionIds": [
          10140647
        ],
        "postalCode": "K1G4J5",
        "streetName": "ALTA VISTA",
        "streetDirectionId": null,
        "streetTypeId": "DR",
        "placeName": "OTTAWA",
        "streetNameDisplayText": "ALTA VISTA DR, OTTAWA"
      }
    ]
  },
  {
    "postal": "K1G6J2",
    "result": []
  },
  {
    "postal": "K1G5V6",
    "result": []
  },
  {
    "postal": "K1G3N2",
    "result": [
      {
        "electoralDistricts": [
          {
            "election": null,
            "id": 79,
            "name": "Ottawa South"
          }
        ],
        "pollDivisionIds": [
          10140668
        ],
        "postalCode": "K1G3N2",
        "streetName": "BELGREEN",
        "streetDirectionId": null,
        "streetTypeId": "DR",
        "placeName": "GLOUCESTER",
        "streetNameDisplayText": "BELGREEN DR, GLOUCESTER"
      },
      {
        "electoralDistricts": [
          {
            "election": null,
            "id": 79,
            "name": "Ottawa South"
          }
        ],
        "pollDivisionIds": [
          10140668
        ],
        "postalCode": "K1G3N2",
        "streetName": "BELGREEN",
        "streetDirectionId": null,
        "streetTypeId": "DR",
        "placeName": "OTTAWA",
        "streetNameDisplayText": "BELGREEN DR, OTTAWA"
      },
      {
        "electoralDistricts": [
          {
            "election": null,
            "id": 79,
            "name": "Ottawa South"
          }
        ],
        "pollDivisionIds": [
          10140668
        ],
        "postalCode": "K1G3N2",
        "streetName": "BLAKE",
        "streetDirectionId": null,
        "streetTypeId": "RD",
        "placeName": "OTTAWA",
        "streetNameDisplayText": "BLAKE RD, OTTAWA"
      },
      {
        "electoralDistricts": [
          {
            "election": null,
            "id": 76,
            "name": "OrlÃ©ans"
          },
          {
            "election": null,
            "id": 17,
            "name": "Carleton"
          }
        ],
        "pollDivisionIds": [
          10140472,
          10137495
        ],
        "postalCode": "K1G3N2",
        "streetName": "RAMSAYVILLE",
        "streetDirectionId": null,
        "streetTypeId": "RD",
        "placeName": "GLOUCESTER",
        "streetNameDisplayText": "RAMSAYVILLE RD, GLOUCESTER"
      },
      {
        "electoralDistricts": [
          {
            "election": null,
            "id": 76,
            "name": "OrlÃ©ans"
          }
        ],
        "pollDivisionIds": [
          10140471,
          10140472
        ],
        "postalCode": "K1G3N2",
        "streetName": "RAMSAYVILLE",
        "streetDirectionId": null,
        "streetTypeId": "RD",
        "placeName": "OTTAWA",
        "streetNameDisplayText": "RAMSAYVILLE RD, OTTAWA"
      },
      {
        "electoralDistricts": [
          {
            "election": null,
            "id": 79,
            "name": "Ottawa South"
          },
          {
            "election": null,
            "id": 17,
            "name": "Carleton"
          }
        ],
        "pollDivisionIds": [
          10140668,
          10137495,
          10140676
        ],
        "postalCode": "K1G3N2",
        "streetName": "RUSSELL",
        "streetDirectionId": null,
        "streetTypeId": "RD",
        "placeName": "GLOUCESTER",
        "streetNameDisplayText": "RUSSELL RD, GLOUCESTER"
      },
      {
        "electoralDistricts": [
          {
            "election": null,
            "id": 79,
            "name": "Ottawa South"
          },
          {
            "election": null,
            "id": 76,
            "name": "OrlÃ©ans"
          }
        ],
        "pollDivisionIds": [
          10140668,
          10140472
        ],
        "postalCode": "K1G3N2",
        "streetName": "RUSSELL",
        "streetDirectionId": null,
        "streetTypeId": "RD",
        "placeName": "OTTAWA",
        "streetNameDisplayText": "RUSSELL RD, OTTAWA"
      },
      {
        "electoralDistricts": [
          {
            "election": null,
            "id": 79,
            "name": "Ottawa South"
          }
        ],
        "pollDivisionIds": [
          10140668
        ],
        "postalCode": "K1G3N2",
        "streetName": "STEVENAGE",
        "streetDirectionId": null,
        "streetTypeId": "DR",
        "placeName": "GLOUCESTER",
        "streetNameDisplayText": "STEVENAGE DR, GLOUCESTER"
      },
      {
        "electoralDistricts": [
          {
            "election": null,
            "id": 79,
            "name": "Ottawa South"
          }
        ],
        "pollDivisionIds": [
          10140668
        ],
        "postalCode": "K1G3N2",
        "streetName": "STEVENAGE",
        "streetDirectionId": null,
        "streetTypeId": "DR",
        "placeName": "OTTAWA",
        "streetNameDisplayText": "STEVENAGE DR, OTTAWA"
      }
    ]
  },
  {
    "postal": "K1G3B1",
    "result": [
      {
        "electoralDistricts": [
          {
            "election": null,
            "id": 79,
            "name": "Ottawa South"
          }
        ],
        "pollDivisionIds": [
          10140653
        ],
        "postalCode": "K1G3B1",
        "streetName": "CANTERBURY",
        "streetDirectionId": null,
        "streetTypeId": "AVE",
        "placeName": "OTTAWA",
        "streetNameDisplayText": "CANTERBURY AVE, OTTAWA"
      }
    ]
  },
  {
    "postal": "K1G8B5",
    "result": []
  },
  {
    "postal": "K1G0K1",
    "result": [
      {
        "electoralDistricts": [
          {
            "election": null,
            "id": 79,
            "name": "Ottawa South"
          }
        ],
        "pollDivisionIds": [
          10140644
        ],
        "postalCode": "K1G0K1",
        "streetName": "CLUNY",
        "streetDirectionId": null,
        "streetTypeId": "ST",
        "placeName": "OTTAWA",
        "streetNameDisplayText": "CLUNY ST, OTTAWA"
      }
    ]
  },
  {
    "postal": "K1G7M7",
    "result": []
  },
  {
    "postal": "K1G2M2",
    "result": [
      {
        "electoralDistricts": [
          {
            "election": null,
            "id": 79,
            "name": "Ottawa South"
          }
        ],
        "pollDivisionIds": [
          10140648
        ],
        "postalCode": "K1G2M2",
        "streetName": "RUTH",
        "streetDirectionId": null,
        "streetTypeId": "ST",
        "placeName": "OTTAWA",
        "streetNameDisplayText": "RUTH ST, OTTAWA"
      }
    ]
  },
  {
    "postal": "K1G9N3",
    "result": []
  },
  {
    "postal": "K1G4Y8",
    "result": [
      {
        "electoralDistricts": [
          {
            "election": null,
            "id": 79,
            "name": "Ottawa South"
          }
        ],
        "pollDivisionIds": [
          10140668
        ],
        "postalCode": "K1G4Y8",
        "streetName": "CLIFFORD",
        "streetDirectionId": null,
        "streetTypeId": "PVT",
        "placeName": "OTTAWA",
        "streetNameDisplayText": "CLIFFORD PVT, OTTAWA"
      }
    ]
  },
  {
    "postal": "K1G3V7",
    "result": []
  },
  {
    "postal": "K1G8Z1",
    "result": []
  },
  {
    "postal": "K1G7B3",
    "result": []
  },
  {
    "postal": "K1G3A8",
    "result": [
      {
        "electoralDistricts": [
          {
            "election": null,
            "id": 79,
            "name": "Ottawa South"
          }
        ],
        "pollDivisionIds": [
          10140653
        ],
        "postalCode": "K1G3A8",
        "streetName": "CANTERBURY",
        "streetDirectionId": null,
        "streetTypeId": "AVE",
        "placeName": "OTTAWA",
        "streetNameDisplayText": "CANTERBURY AVE, OTTAWA"
      }
    ]
  },
  {
    "postal": "K1G7V5",
    "result": []
  },
  {
    "postal": "K1G2T2",
    "result": [
      {
        "electoralDistricts": [
          {
            "election": null,
            "id": 79,
            "name": "Ottawa South"
          }
        ],
        "pollDivisionIds": [
          10140653
        ],
        "postalCode": "K1G2T2",
        "streetName": "SHAMIR",
        "streetDirectionId": null,
        "streetTypeId": "AVE",
        "placeName": "OTTAWA",
        "streetNameDisplayText": "SHAMIR AVE, OTTAWA"
      }
    ]
  },
  {
    "postal": "K1G6L3",
    "result": [
      {
        "electoralDistricts": [
          {
            "election": null,
            "id": 79,
            "name": "Ottawa South"
          }
        ],
        "pollDivisionIds": [
          10140668
        ],
        "postalCode": "K1G6L3",
        "streetName": "AGES",
        "streetDirectionId": null,
        "streetTypeId": "DR",
        "placeName": "OTTAWA",
        "streetNameDisplayText": "AGES DR, OTTAWA"
      }
    ]
  },
  {
    "postal": "K1G0L2",
    "result": [
      {
        "electoralDistricts": [
          {
            "election": null,
            "id": 79,
            "name": "Ottawa South"
          }
        ],
        "pollDivisionIds": [
          10140644
        ],
        "postalCode": "K1G0L2",
        "streetName": "ACTON",
        "streetDirectionId": null,
        "streetTypeId": "ST",
        "placeName": "OTTAWA",
        "streetNameDisplayText": "ACTON ST, OTTAWA"
      }
    ]
  },
  {
    "postal": "K1G5Y8",
    "result": []
  },
  {
    "postal": "K1G0B8",
    "result": [
      {
        "electoralDistricts": [
          {
            "election": null,
            "id": 79,
            "name": "Ottawa South"
          }
        ],
        "pollDivisionIds": [
          10140644
        ],
        "postalCode": "K1G0B8",
        "streetName": "TREMBLAY",
        "streetDirectionId": null,
        "streetTypeId": "RD",
        "placeName": "OTTAWA",
        "streetNameDisplayText": "TREMBLAY RD, OTTAWA"
      }
    ]
  },
  {
    "postal": "K1G6R5",
    "result": [
      {
        "electoralDistricts": [
          {
            "election": null,
            "id": 79,
            "name": "Ottawa South"
          }
        ],
        "pollDivisionIds": [
          10140668
        ],
        "postalCode": "K1G6R5",
        "streetName": "GRANDPARK",
        "streetDirectionId": null,
        "streetTypeId": "CIR",
        "placeName": "OTTAWA",
        "streetNameDisplayText": "GRANDPARK CIR, OTTAWA"
      }
    ]
  },
  {
    "postal": "K1G8W6",
    "result": []
  },
  {
    "postal": "K1G8G6",
    "result": []
  },
  {
    "postal": "K1G6X3",
    "result": []
  },
  {
    "postal": "K1G7R7",
    "result": []
  },
  {
    "postal": "K1G4B6",
    "result": []
  },
  {
    "postal": "K1G3P9",
    "result": []
  },
  {
    "postal": "K1G2T3",
    "result": [
      {
        "electoralDistricts": [
          {
            "election": null,
            "id": 79,
            "name": "Ottawa South"
          }
        ],
        "pollDivisionIds": [
          10140653
        ],
        "postalCode": "K1G2T3",
        "streetName": "GOREN",
        "streetDirectionId": null,
        "streetTypeId": "AVE",
        "placeName": "OTTAWA",
        "streetNameDisplayText": "GOREN AVE, OTTAWA"
      }
    ]
  },
  {
    "postal": "K1G1M4",
    "result": [
      {
        "electoralDistricts": [
          {
            "election": null,
            "id": 79,
            "name": "Ottawa South"
          }
        ],
        "pollDivisionIds": [
          10140645
        ],
        "postalCode": "K1G1M4",
        "streetName": "RAGLAN",
        "streetDirectionId": null,
        "streetTypeId": "AVE",
        "placeName": "OTTAWA",
        "streetNameDisplayText": "RAGLAN AVE, OTTAWA"
      }
    ]
  },
  {
    "postal": "K1G0H1",
    "result": [
      {
        "electoralDistricts": [
          {
            "election": null,
            "id": 79,
            "name": "Ottawa South"
          }
        ],
        "pollDivisionIds": [
          10140644
        ],
        "postalCode": "K1G0H1",
        "streetName": "BALFOUR",
        "streetDirectionId": null,
        "streetTypeId": "AVE",
        "placeName": "OTTAWA",
        "streetNameDisplayText": "BALFOUR AVE, OTTAWA"
      }
    ]
  },
  {
    "postal": "K1G9W3",
    "result": []
  },
  {
    "postal": "K1G6P1",
    "result": [
      {
        "electoralDistricts": [
          {
            "election": null,
            "id": 79,
            "name": "Ottawa South"
          }
        ],
        "pollDivisionIds": [
          10140644
        ],
        "postalCode": "K1G6P1",
        "streetName": "STATION",
        "streetDirectionId": null,
        "streetTypeId": "BLVD",
        "placeName": "OTTAWA",
        "streetNameDisplayText": "STATION BLVD, OTTAWA"
      }
    ]
  },
  {
    "postal": "K1G7G2",
    "result": []
  },
  {
    "postal": "K1G4J9",
    "result": [
      {
        "electoralDistricts": [
          {
            "election": null,
            "id": 79,
            "name": "Ottawa South"
          }
        ],
        "pollDivisionIds": [
          10140681
        ],
        "postalCode": "K1G4J9",
        "streetName": "RIVERSIDE",
        "streetDirectionId": null,
        "streetTypeId": "DR",
        "placeName": "OTTAWA",
        "streetNameDisplayText": "RIVERSIDE DR, OTTAWA"
      }
    ]
  },
  {
    "postal": "K1G9E4",
    "result": []
  },
  {
    "postal": "K1G8H0",
    "result": []
  },
  {
    "postal": "K1G4M7",
    "result": [
      {
        "electoralDistricts": [
          {
            "election": null,
            "id": 79,
            "name": "Ottawa South"
          }
        ],
        "pollDivisionIds": [
          10140668
        ],
        "postalCode": "K1G4M7",
        "streetName": "TOPLEY",
        "streetDirectionId": null,
        "streetTypeId": "CRES",
        "placeName": "OTTAWA",
        "streetNameDisplayText": "TOPLEY CRES, OTTAWA"
      }
    ]
  },
  {
    "postal": "K1G2G9",
    "result": [
      {
        "electoralDistricts": [
          {
            "election": null,
            "id": 79,
            "name": "Ottawa South"
          }
        ],
        "pollDivisionIds": [
          10140649
        ],
        "postalCode": "K1G2G9",
        "streetName": "ARCH",
        "streetDirectionId": null,
        "streetTypeId": "ST",
        "placeName": "OTTAWA",
        "streetNameDisplayText": "ARCH ST, OTTAWA"
      }
    ]
  },
  {
    "postal": "K1G8T2",
    "result": []
  },
  {
    "postal": "K1G7G7",
    "result": []
  },
  {
    "postal": "K1G4Z3",
    "result": []
  },
  {
    "postal": "K1G5B3",
    "result": []
  },
  {
    "postal": "K1G1S7",
    "result": [
      {
        "electoralDistricts": [
          {
            "election": null,
            "id": 79,
            "name": "Ottawa South"
          }
        ],
        "pollDivisionIds": [
          10140649
        ],
        "postalCode": "K1G1S7",
        "streetName": "WINGATE",
        "streetDirectionId": null,
        "streetTypeId": "DR",
        "placeName": "OTTAWA",
        "streetNameDisplayText": "WINGATE DR, OTTAWA"
      }
    ]
  },
  {
    "postal": "K1G2N7",
    "result": [
      {
        "electoralDistricts": [
          {
            "election": null,
            "id": 79,
            "name": "Ottawa South"
          }
        ],
        "pollDivisionIds": [
          10140648
        ],
        "postalCode": "K1G2N7",
        "streetName": "DORVAL",
        "streetDirectionId": null,
        "streetTypeId": "AVE",
        "placeName": "OTTAWA",
        "streetNameDisplayText": "DORVAL AVE, OTTAWA"
      }
    ]
  },
  {
    "postal": "K1G0H8",
    "result": [
      {
        "electoralDistricts": [
          {
            "election": null,
            "id": 79,
            "name": "Ottawa South"
          }
        ],
        "pollDivisionIds": [
          10140644
        ],
        "postalCode": "K1G0H8",
        "streetName": "CALEDON",
        "streetDirectionId": null,
        "streetTypeId": "ST",
        "placeName": "OTTAWA",
        "streetNameDisplayText": "CALEDON ST, OTTAWA"
      }
    ]
  },
  {
    "postal": "K1G7Z4",
    "result": []
  },
  {
    "postal": "K1G7B1",
    "result": []
  },
  {
    "postal": "K1G7P8",
    "result": []
  },
  {
    "postal": "K1G7N0",
    "result": []
  },
  {
    "postal": "K1G3Y5",
    "result": []
  },
  {
    "postal": "K1G6K1",
    "result": []
  },
  {
    "postal": "K1G9X5",
    "result": []
  },
  {
    "postal": "K1G7S5",
    "result": []
  },
  {
    "postal": "K1G0A4",
    "result": [
      {
        "electoralDistricts": [
          {
            "election": null,
            "id": 79,
            "name": "Ottawa South"
          }
        ],
        "pollDivisionIds": [
          10140644
        ],
        "postalCode": "K1G0A4",
        "streetName": "TREMBLAY",
        "streetDirectionId": null,
        "streetTypeId": "RD",
        "placeName": "OTTAWA",
        "streetNameDisplayText": "TREMBLAY RD, OTTAWA"
      }
    ]
  },
  {
    "postal": "K1G4T5",
    "result": [
      {
        "electoralDistricts": [
          {
            "election": null,
            "id": 79,
            "name": "Ottawa South"
          }
        ],
        "pollDivisionIds": [
          10140668
        ],
        "postalCode": "K1G4T5",
        "streetName": "RAJ",
        "streetDirectionId": null,
        "streetTypeId": "TERR",
        "placeName": "OTTAWA",
        "streetNameDisplayText": "RAJ TERR, OTTAWA"
      }
    ]
  },
  {
    "postal": "K1G5K1",
    "result": [
      {
        "electoralDistricts": [
          {
            "election": null,
            "id": 79,
            "name": "Ottawa South"
          }
        ],
        "pollDivisionIds": [
          10140668
        ],
        "postalCode": "K1G5K1",
        "streetName": "BASLAW",
        "streetDirectionId": null,
        "streetTypeId": "DR",
        "placeName": "OTTAWA",
        "streetNameDisplayText": "BASLAW DR, OTTAWA"
      },
      {
        "electoralDistricts": [
          {
            "election": null,
            "id": 79,
            "name": "Ottawa South"
          }
        ],
        "pollDivisionIds": [
          10140655,
          10140668
        ],
        "postalCode": "K1G5K1",
        "streetName": "JOHNSTON",
        "streetDirectionId": null,
        "streetTypeId": "RD",
        "placeName": "OTTAWA",
        "streetNameDisplayText": "JOHNSTON RD, OTTAWA"
      }
    ]
  },
  {
    "postal": "K1G0Z9",
    "result": [
      {
        "electoralDistricts": [
          {
            "election": null,
            "id": 79,
            "name": "Ottawa South"
          }
        ],
        "pollDivisionIds": [
          10140645
        ],
        "postalCode": "K1G0Z9",
        "streetName": "ST-LAURENT",
        "streetDirectionId": null,
        "streetTypeId": "BLVD",
        "placeName": "OTTAWA",
        "streetNameDisplayText": "ST-LAURENT BLVD, OTTAWA"
      }
    ]
  },
  {
    "postal": "K1G7T2",
    "result": []
  },
  {
    "postal": "K1G1L5",
    "result": [
      {
        "electoralDistricts": [
          {
            "election": null,
            "id": 79,
            "name": "Ottawa South"
          }
        ],
        "pollDivisionIds": [
          10140645
        ],
        "postalCode": "K1G1L5",
        "streetName": "RUSSELL",
        "streetDirectionId": null,
        "streetTypeId": "RD",
        "placeName": "OTTAWA",
        "streetNameDisplayText": "RUSSELL RD, OTTAWA"
      }
    ]
  },
  {
    "postal": "K1G3N5",
    "result": []
  },
  {
    "postal": "K1G6H4",
    "result": []
  },
  {
    "postal": "K1G5A5",
    "result": []
  },
  {
    "postal": "K1G3R9",
    "result": [
      {
        "electoralDistricts": [
          {
            "election": null,
            "id": 79,
            "name": "Ottawa South"
          }
        ],
        "pollDivisionIds": [
          10140649
        ],
        "postalCode": "K1G3R9",
        "streetName": "ST LAURENT",
        "streetDirectionId": null,
        "streetTypeId": "BLVD",
        "placeName": "OTTAWA",
        "streetNameDisplayText": "ST LAURENT BLVD, OTTAWA"
      }
    ]
  },
  {
    "postal": "K1G7L8",
    "result": []
  },
  {
    "postal": "K1G6T6",
    "result": [
      {
        "electoralDistricts": [
          {
            "election": null,
            "id": 79,
            "name": "Ottawa South"
          }
        ],
        "pollDivisionIds": [
          10140647
        ],
        "postalCode": "K1G6T6",
        "streetName": "TALL OAK",
        "streetDirectionId": null,
        "streetTypeId": "PVT",
        "placeName": "OTTAWA",
        "streetNameDisplayText": "TALL OAK PVT, OTTAWA"
      }
    ]
  },
  {
    "postal": "K1G7Y7",
    "result": []
  },
  {
    "postal": "K1G3M8",
    "result": []
  },
  {
    "postal": "K1G2E0",
    "result": []
  },
  {
    "postal": "K1G4B5",
    "result": [
      {
        "electoralDistricts": [
          {
            "election": null,
            "id": 79,
            "name": "Ottawa South"
          }
        ],
        "pollDivisionIds": [
          10140682
        ],
        "postalCode": "K1G4B5",
        "streetName": "LYCÃ‰E",
        "streetDirectionId": null,
        "streetTypeId": "PLACE",
        "placeName": "OTTAWA",
        "streetNameDisplayText": "LYCÃ‰E PLACE, OTTAWA"
      }
    ]
  },
  {
    "postal": "K1G1J3",
    "result": [
      {
        "electoralDistricts": [
          {
            "election": null,
            "id": 79,
            "name": "Ottawa South"
          }
        ],
        "pollDivisionIds": [
          10140650
        ],
        "postalCode": "K1G1J3",
        "streetName": "HOWLAND",
        "streetDirectionId": null,
        "streetTypeId": "AVE",
        "placeName": "OTTAWA",
        "streetNameDisplayText": "HOWLAND AVE, OTTAWA"
      }
    ]
  },
  {
    "postal": "K1G5S6",
    "result": [
      {
        "electoralDistricts": [
          {
            "election": null,
            "id": 79,
            "name": "Ottawa South"
          }
        ],
        "pollDivisionIds": [
          10140655
        ],
        "postalCode": "K1G5S6",
        "streetName": "PICASSO",
        "streetDirectionId": null,
        "streetTypeId": "DR",
        "placeName": "OTTAWA",
        "streetNameDisplayText": "PICASSO DR, OTTAWA"
      }
    ]
  },
  {
    "postal": "K1G8P7",
    "result": []
  },
  {
    "postal": "K1G7S7",
    "result": []
  },
  {
    "postal": "K1G4C2",
    "result": [
      {
        "electoralDistricts": [
          {
            "election": null,
            "id": 79,
            "name": "Ottawa South"
          }
        ],
        "pollDivisionIds": [
          10140645
        ],
        "postalCode": "K1G4C2",
        "streetName": "EVEREST",
        "streetDirectionId": null,
        "streetTypeId": "PVT",
        "placeName": "OTTAWA",
        "streetNameDisplayText": "EVEREST PVT, OTTAWA"
      }
    ]
  },
  {
    "postal": "K1G5Y0",
    "result": []
  },
  {
    "postal": "K1G2V7",
    "result": [
      {
        "electoralDistricts": [
          {
            "election": null,
            "id": 79,
            "name": "Ottawa South"
          }
        ],
        "pollDivisionIds": [
          10140654
        ],
        "postalCode": "K1G2V7",
        "streetName": "BINGHAM",
        "streetDirectionId": null,
        "streetTypeId": "ST",
        "placeName": "OTTAWA",
        "streetNameDisplayText": "BINGHAM ST, OTTAWA"
      }
    ]
  },
  {
    "postal": "K1G8P5",
    "result": []
  },
  {
    "postal": "K1G5P5",
    "result": [
      {
        "electoralDistricts": [
          {
            "election": null,
            "id": 79,
            "name": "Ottawa South"
          }
        ],
        "pollDivisionIds": [
          10140668
        ],
        "postalCode": "K1G5P5",
        "streetName": "BRISTON",
        "streetDirectionId": null,
        "streetTypeId": "PVT",
        "placeName": "OTTAWA",
        "streetNameDisplayText": "BRISTON PVT, OTTAWA"
      }
    ]
  },
  {
    "postal": "K1G5Z0",
    "result": []
  },
  {
    "postal": "K1G9B0",
    "result": []
  },
  {
    "postal": "K1G1L0",
    "result": []
  },
  {
    "postal": "K1G0B5",
    "result": [
      {
        "electoralDistricts": [
          {
            "election": null,
            "id": 79,
            "name": "Ottawa South"
          }
        ],
        "pollDivisionIds": [
          10140644
        ],
        "postalCode": "K1G0B5",
        "streetName": "TREMBLAY",
        "streetDirectionId": null,
        "streetTypeId": "RD",
        "placeName": "OTTAWA",
        "streetNameDisplayText": "TREMBLAY RD, OTTAWA"
      }
    ]
  },
  {
    "postal": "K1G3L2",
    "result": []
  },
  {
    "postal": "K1G3B7",
    "result": [
      {
        "electoralDistricts": [
          {
            "election": null,
            "id": 79,
            "name": "Ottawa South"
          }
        ],
        "pollDivisionIds": [
          10140653
        ],
        "postalCode": "K1G3B7",
        "streetName": "HARDING",
        "streetDirectionId": null,
        "streetTypeId": "RD",
        "placeName": "OTTAWA",
        "streetNameDisplayText": "HARDING RD, OTTAWA"
      }
    ]
  },
  {
    "postal": "K1G8L1",
    "result": []
  },
  {
    "postal": "K1G5M4",
    "result": []
  },
  {
    "postal": "K1G4G9",
    "result": [
      {
        "electoralDistricts": [
          {
            "election": null,
            "id": 79,
            "name": "Ottawa South"
          }
        ],
        "pollDivisionIds": [
          10140683,
          10140684
        ],
        "postalCode": "K1G4G9",
        "streetName": "FROBISHER",
        "streetDirectionId": null,
        "streetTypeId": "LANE",
        "placeName": "OTTAWA",
        "streetNameDisplayText": "FROBISHER LANE, OTTAWA"
      }
    ]
  },
  {
    "postal": "K1G0P0",
    "result": []
  },
  {
    "postal": "K1G8G2",
    "result": []
  },
  {
    "postal": "K1G1V9",
    "result": [
      {
        "electoralDistricts": [
          {
            "election": null,
            "id": 79,
            "name": "Ottawa South"
          }
        ],
        "pollDivisionIds": [
          10140648
        ],
        "postalCode": "K1G1V9",
        "streetName": "WESTON",
        "streetDirectionId": null,
        "streetTypeId": "DR",
        "placeName": "OTTAWA",
        "streetNameDisplayText": "WESTON DR, OTTAWA"
      }
    ]
  },
  {
    "postal": "K1G8N8",
    "result": []
  },
  {
    "postal": "K1G6S8",
    "result": []
  },
  {
    "postal": "K1G8H2",
    "result": []
  },
  {
    "postal": "K1G5R8",
    "result": [
      {
        "electoralDistricts": [
          {
            "election": null,
            "id": 79,
            "name": "Ottawa South"
          }
        ],
        "pollDivisionIds": [
          10140668
        ],
        "postalCode": "K1G5R8",
        "streetName": "BLOHM",
        "streetDirectionId": null,
        "streetTypeId": "DR",
        "placeName": "OTTAWA",
        "streetNameDisplayText": "BLOHM DR, OTTAWA"
      }
    ]
  },
  {
    "postal": "K1G5L4",
    "result": [
      {
        "electoralDistricts": [
          {
            "election": null,
            "id": 79,
            "name": "Ottawa South"
          }
        ],
        "pollDivisionIds": [
          10140655
        ],
        "postalCode": "K1G5L4",
        "streetName": "SADDLE",
        "streetDirectionId": null,
        "streetTypeId": "CRES",
        "placeName": "OTTAWA",
        "streetNameDisplayText": "SADDLE CRES, OTTAWA"
      }
    ]
  },
  {
    "postal": "K1G9E1",
    "result": []
  },
  {
    "postal": "K1G1C4",
    "result": [
      {
        "electoralDistricts": [
          {
            "election": null,
            "id": 79,
            "name": "Ottawa South"
          }
        ],
        "pollDivisionIds": [
          10140650
        ],
        "postalCode": "K1G1C4",
        "streetName": "TAWNEY",
        "streetDirectionId": null,
        "streetTypeId": "RD",
        "placeName": "OTTAWA",
        "streetNameDisplayText": "TAWNEY RD, OTTAWA"
      }
    ]
  },
  {
    "postal": "K1G8W5",
    "result": []
  },
  {
    "postal": "K1G1Y4",
    "result": [
      {
        "electoralDistricts": [
          {
            "election": null,
            "id": 79,
            "name": "Ottawa South"
          }
        ],
        "pollDivisionIds": [
          10140653
        ],
        "postalCode": "K1G1Y4",
        "streetName": "PLEASANT PARK",
        "streetDirectionId": null,
        "streetTypeId": "RD",
        "placeName": "OTTAWA",
        "streetNameDisplayText": "PLEASANT PARK RD, OTTAWA"
      }
    ]
  },
  {
    "postal": "K1G1C0",
    "result": []
  },
  {
    "postal": "K1G2J2",
    "result": [
      {
        "electoralDistricts": [
          {
            "election": null,
            "id": 79,
            "name": "Ottawa South"
          }
        ],
        "pollDivisionIds": [
          10140645
        ],
        "postalCode": "K1G2J2",
        "streetName": "HAIG",
        "streetDirectionId": null,
        "streetTypeId": "DR",
        "placeName": "OTTAWA",
        "streetNameDisplayText": "HAIG DR, OTTAWA"
      }
    ]
  },
  {
    "postal": "K1G2J0",
    "result": []
  },
  {
    "postal": "K1G7A3",
    "result": []
  },
  {
    "postal": "K1G8M1",
    "result": []
  },
  {
    "postal": "K1G7T9",
    "result": []
  },
  {
    "postal": "K1G6C0",
    "result": []
  },
  {
    "postal": "K1G7X1",
    "result": []
  },
  {
    "postal": "K1G0G1",
    "result": [
      {
        "electoralDistricts": [
          {
            "election": null,
            "id": 79,
            "name": "Ottawa South"
          }
        ],
        "pollDivisionIds": [
          10140644
        ],
        "postalCode": "K1G0G1",
        "streetName": "ALTA VISTA",
        "streetDirectionId": null,
        "streetTypeId": "DR",
        "placeName": "OTTAWA",
        "streetNameDisplayText": "ALTA VISTA DR, OTTAWA"
      }
    ]
  },
  {
    "postal": "K1G4X2",
    "result": [
      {
        "electoralDistricts": [
          {
            "election": null,
            "id": 79,
            "name": "Ottawa South"
          }
        ],
        "pollDivisionIds": [
          10140668
        ],
        "postalCode": "K1G4X2",
        "streetName": "BRADLEY COLE",
        "streetDirectionId": null,
        "streetTypeId": "PVT",
        "placeName": "OTTAWA",
        "streetNameDisplayText": "BRADLEY COLE PVT, OTTAWA"
      }
    ]
  },
  {
    "postal": "K1G0N6",
    "result": [
      {
        "electoralDistricts": [
          {
            "election": null,
            "id": 79,
            "name": "Ottawa South"
          }
        ],
        "pollDivisionIds": [
          10140645
        ],
        "postalCode": "K1G0N6",
        "streetName": "PULLEN",
        "streetDirectionId": null,
        "streetTypeId": "AVE",
        "placeName": "OTTAWA",
        "streetNameDisplayText": "PULLEN AVE, OTTAWA"
      }
    ]
  },
  {
    "postal": "K1G8E3",
    "result": []
  },
  {
    "postal": "K1G5S8",
    "result": [
      {
        "electoralDistricts": [
          {
            "election": null,
            "id": 79,
            "name": "Ottawa South"
          }
        ],
        "pollDivisionIds": [
          10140655
        ],
        "postalCode": "K1G5S8",
        "streetName": "DEGAS",
        "streetDirectionId": null,
        "streetTypeId": "CRT",
        "placeName": "OTTAWA",
        "streetNameDisplayText": "DEGAS CRT, OTTAWA"
      },
      {
        "electoralDistricts": [
          {
            "election": null,
            "id": 79,
            "name": "Ottawa South"
          }
        ],
        "pollDivisionIds": [
          10140655
        ],
        "postalCode": "K1G5S8",
        "streetName": "PICASSO",
        "streetDirectionId": null,
        "streetTypeId": "DR",
        "placeName": "OTTAWA",
        "streetNameDisplayText": "PICASSO DR, OTTAWA"
      }
    ]
  },
  {
    "postal": "K1G0R0",
    "result": []
  },
  {
    "postal": "K1G6J6",
    "result": []
  },
  {
    "postal": "K1G4B4",
    "result": []
  },
  {
    "postal": "K1G7E3",
    "result": []
  },
  {
    "postal": "K1G3N6",
    "result": []
  },
  {
    "postal": "K1G3X6",
    "result": []
  },
  {
    "postal": "K1G8L0",
    "result": []
  },
  {
    "postal": "K1G8N1",
    "result": []
  },
  {
    "postal": "K1G4J0",
    "result": []
  },
  {
    "postal": "K1G0X7",
    "result": [
      {
        "electoralDistricts": [
          {
            "election": null,
            "id": 79,
            "name": "Ottawa South"
          }
        ],
        "pollDivisionIds": [
          10140645
        ],
        "postalCode": "K1G0X7",
        "streetName": "BATHURST",
        "streetDirectionId": null,
        "streetTypeId": "AVE",
        "placeName": "OTTAWA",
        "streetNameDisplayText": "BATHURST AVE, OTTAWA"
      }
    ]
  },
  {
    "postal": "K1G6S4",
    "result": [
      {
        "electoralDistricts": [
          {
            "election": null,
            "id": 79,
            "name": "Ottawa South"
          }
        ],
        "pollDivisionIds": [
          10140645
        ],
        "postalCode": "K1G6S4",
        "streetName": "PETER MORAND",
        "streetDirectionId": null,
        "streetTypeId": "CRES",
        "placeName": "OTTAWA",
        "streetNameDisplayText": "PETER MORAND CRES, OTTAWA"
      }
    ]
  },
  {
    "postal": "K1G0Z0",
    "result": []
  },
  {
    "postal": "K1G9X8",
    "result": []
  },
  {
    "postal": "K1G3H3",
    "result": [
      {
        "electoralDistricts": [
          {
            "election": null,
            "id": 79,
            "name": "Ottawa South"
          }
        ],
        "pollDivisionIds": [
          10140644
        ],
        "postalCode": "K1G3H3",
        "streetName": "SANDFORD FLEMING",
        "streetDirectionId": null,
        "streetTypeId": "AVE",
        "placeName": "OTTAWA",
        "streetNameDisplayText": "SANDFORD FLEMING AVE, OTTAWA"
      }
    ]
  },
  {
    "postal": "K1G7S2",
    "result": []
  },
  {
    "postal": "K1G3T3",
    "result": []
  },
  {
    "postal": "K1G9P3",
    "result": []
  },
  {
    "postal": "K1G4H8",
    "result": []
  },
  {
    "postal": "K1G6R1",
    "result": []
  },
  {
    "postal": "K1G1S0",
    "result": []
  },
  {
    "postal": "K1G3W8",
    "result": []
  },
  {
    "postal": "K1G4S3",
    "result": [
      {
        "electoralDistricts": [
          {
            "election": null,
            "id": 79,
            "name": "Ottawa South"
          }
        ],
        "pollDivisionIds": [
          10140655
        ],
        "postalCode": "K1G4S3",
        "streetName": "DOSSETTER",
        "streetDirectionId": null,
        "streetTypeId": "WAY",
        "placeName": "OTTAWA",
        "streetNameDisplayText": "DOSSETTER WAY, OTTAWA"
      }
    ]
  },
  {
    "postal": "K1G1B6",
    "result": [
      {
        "electoralDistricts": [
          {
            "election": null,
            "id": 79,
            "name": "Ottawa South"
          }
        ],
        "pollDivisionIds": [
          10140650
        ],
        "postalCode": "K1G1B6",
        "streetName": "TAWNEY",
        "streetDirectionId": null,
        "streetTypeId": "RD",
        "placeName": "OTTAWA",
        "streetNameDisplayText": "TAWNEY RD, OTTAWA"
      }
    ]
  },
  {
    "postal": "K1G8R3",
    "result": []
  },
  {
    "postal": "K1G4V9",
    "result": [
      {
        "electoralDistricts": [
          {
            "election": null,
            "id": 79,
            "name": "Ottawa South"
          }
        ],
        "pollDivisionIds": [
          10140668
        ],
        "postalCode": "K1G4V9",
        "streetName": "WALLACK",
        "streetDirectionId": null,
        "streetTypeId": "PVT",
        "placeName": "OTTAWA",
        "streetNameDisplayText": "WALLACK PVT, OTTAWA"
      }
    ]
  },
  {
    "postal": "K1G9W4",
    "result": []
  },
  {
    "postal": "K1G3T4",
    "result": [
      {
        "electoralDistricts": [
          {
            "election": null,
            "id": 79,
            "name": "Ottawa South"
          }
        ],
        "pollDivisionIds": [
          10140645
        ],
        "postalCode": "K1G3T4",
        "streetName": "RUSSELL",
        "streetDirectionId": null,
        "streetTypeId": "RD",
        "placeName": "OTTAWA",
        "streetNameDisplayText": "RUSSELL RD, OTTAWA"
      }
    ]
  },
  {
    "postal": "K1G5C7",
    "result": [
      {
        "electoralDistricts": [
          {
            "election": null,
            "id": 79,
            "name": "Ottawa South"
          }
        ],
        "pollDivisionIds": [
          10140668
        ],
        "postalCode": "K1G5C7",
        "streetName": "WOODBURY",
        "streetDirectionId": null,
        "streetTypeId": "CRES",
        "placeName": "OTTAWA",
        "streetNameDisplayText": "WOODBURY CRES, OTTAWA"
      }
    ]
  },
  {
    "postal": "K1G3Y1",
    "result": []
  },
  {
    "postal": "K1G5V0",
    "result": []
  },
  {
    "postal": "K1G8G8",
    "result": []
  },
  {
    "postal": "K1G8B1",
    "result": []
  },
  {
    "postal": "K1G4P5",
    "result": [
      {
        "electoralDistricts": [
          {
            "election": null,
            "id": 79,
            "name": "Ottawa South"
          }
        ],
        "pollDivisionIds": [
          10140668
        ],
        "postalCode": "K1G4P5",
        "streetName": "BLOHM",
        "streetDirectionId": null,
        "streetTypeId": "DR",
        "placeName": "OTTAWA",
        "streetNameDisplayText": "BLOHM DR, OTTAWA"
      },
      {
        "electoralDistricts": [
          {
            "election": null,
            "id": 79,
            "name": "Ottawa South"
          }
        ],
        "pollDivisionIds": [
          10140668
        ],
        "postalCode": "K1G4P5",
        "streetName": "NOTMAN",
        "streetDirectionId": null,
        "streetTypeId": "WAY",
        "placeName": "OTTAWA",
        "streetNameDisplayText": "NOTMAN WAY, OTTAWA"
      }
    ]
  },
  {
    "postal": "K1G7B2",
    "result": []
  },
  {
    "postal": "K1G0R2",
    "result": [
      {
        "electoralDistricts": [
          {
            "election": null,
            "id": 79,
            "name": "Ottawa South"
          }
        ],
        "pollDivisionIds": [
          10140645
        ],
        "postalCode": "K1G0R2",
        "streetName": "BOTSFORD",
        "streetDirectionId": null,
        "streetTypeId": "ST",
        "placeName": "OTTAWA",
        "streetNameDisplayText": "BOTSFORD ST, OTTAWA"
      }
    ]
  },
  {
    "postal": "K1G4M4",
    "result": [
      {
        "electoralDistricts": [
          {
            "election": null,
            "id": 79,
            "name": "Ottawa South"
          }
        ],
        "pollDivisionIds": [
          10140668
        ],
        "postalCode": "K1G4M4",
        "streetName": "KEYS",
        "streetDirectionId": null,
        "streetTypeId": "WAY",
        "placeName": "OTTAWA",
        "streetNameDisplayText": "KEYS WAY, OTTAWA"
      }
    ]
  },
  {
    "postal": "K1G7M4",
    "result": []
  },
  {
    "postal": "K1G9S7",
    "result": []
  },
  {
    "postal": "K1G5Z7",
    "result": []
  },
  {
    "postal": "K1G7J7",
    "result": []
  },
  {
    "postal": "K1G8R8",
    "result": []
  },
  {
    "postal": "K1G9X1",
    "result": []
  },
  {
    "postal": "K1G5M9",
    "result": []
  },
  {
    "postal": "K1G9B4",
    "result": []
  },
  {
    "postal": "K1G0L9",
    "result": [
      {
        "electoralDistricts": [
          {
            "election": null,
            "id": 79,
            "name": "Ottawa South"
          }
        ],
        "pollDivisionIds": [
          10140644
        ],
        "postalCode": "K1G0L9",
        "streetName": "DRAKE",
        "streetDirectionId": null,
        "streetTypeId": "AVE",
        "placeName": "OTTAWA",
        "streetNameDisplayText": "DRAKE AVE, OTTAWA"
      }
    ]
  },
  {
    "postal": "K1G9G4",
    "result": []
  },
  {
    "postal": "K1G1J4",
    "result": [
      {
        "electoralDistricts": [
          {
            "election": null,
            "id": 79,
            "name": "Ottawa South"
          }
        ],
        "pollDivisionIds": [
          10140650
        ],
        "postalCode": "K1G1J4",
        "streetName": "HOWLAND",
        "streetDirectionId": null,
        "streetTypeId": "AVE",
        "placeName": "OTTAWA",
        "streetNameDisplayText": "HOWLAND AVE, OTTAWA"
      }
    ]
  },
  {
    "postal": "K1G0W6",
    "result": [
      {
        "electoralDistricts": [
          {
            "election": null,
            "id": 79,
            "name": "Ottawa South"
          }
        ],
        "pollDivisionIds": [
          10140644
        ],
        "postalCode": "K1G0W6",
        "streetName": "AVALON",
        "streetDirectionId": null,
        "streetTypeId": "PL",
        "placeName": "OTTAWA",
        "streetNameDisplayText": "AVALON PL, OTTAWA"
      }
    ]
  }
]
