[
  {
    "postal": "K1Z9J6",
    "result": []
  },
  {
    "postal": "K1Z9Z5",
    "result": []
  },
  {
    "postal": "K1Z7H8",
    "result": [
      {
        "electoralDistricts": [
          {
            "election": null,
            "id": 78,
            "name": "Ottawa Centre"
          }
        ],
        "pollDivisionIds": [
          10140539
        ],
        "postalCode": "K1Z7H8",
        "streetName": "SWITZER",
        "streetDirectionId": null,
        "streetTypeId": "AVE",
        "placeName": "OTTAWA",
        "streetNameDisplayText": "SWITZER AVE, OTTAWA"
      }
    ]
  },
  {
    "postal": "K1Z0P6",
    "result": []
  },
  {
    "postal": "K1Z0S7",
    "result": []
  },
  {
    "postal": "K1Z8B9",
    "result": [
      {
        "electoralDistricts": [
          {
            "election": null,
            "id": 78,
            "name": "Ottawa Centre"
          }
        ],
        "pollDivisionIds": [
          10140547
        ],
        "postalCode": "K1Z8B9",
        "streetName": "EMPEROR",
        "streetDirectionId": null,
        "streetTypeId": "AVE",
        "placeName": "OTTAWA",
        "streetNameDisplayText": "EMPEROR AVE, OTTAWA"
      }
    ]
  },
  {
    "postal": "K1Z2A6",
    "result": []
  },
  {
    "postal": "K1Z7V2",
    "result": [
      {
        "electoralDistricts": [
          {
            "election": null,
            "id": 78,
            "name": "Ottawa Centre"
          }
        ],
        "pollDivisionIds": [
          10140545
        ],
        "postalCode": "K1Z7V2",
        "streetName": "ANNA",
        "streetDirectionId": null,
        "streetTypeId": "AVE",
        "placeName": "OTTAWA",
        "streetNameDisplayText": "ANNA AVE, OTTAWA"
      }
    ]
  },
  {
    "postal": "K1Z9P4",
    "result": []
  },
  {
    "postal": "K1Z6G0",
    "result": []
  },
  {
    "postal": "K1Z2K0",
    "result": []
  },
  {
    "postal": "K1Z7N6",
    "result": [
      {
        "electoralDistricts": [
          {
            "election": null,
            "id": 78,
            "name": "Ottawa Centre"
          }
        ],
        "pollDivisionIds": [
          10140545
        ],
        "postalCode": "K1Z7N6",
        "streetName": "HARROLD",
        "streetDirectionId": null,
        "streetTypeId": "PL",
        "placeName": "OTTAWA",
        "streetNameDisplayText": "HARROLD PL, OTTAWA"
      }
    ]
  },
  {
    "postal": "K1Z5R3",
    "result": [
      {
        "electoralDistricts": [
          {
            "election": null,
            "id": 81,
            "name": "Ottawa West—Nepean"
          }
        ],
        "pollDivisionIds": [
          10140843
        ],
        "postalCode": "K1Z5R3",
        "streetName": "LARKIN",
        "streetDirectionId": null,
        "streetTypeId": "ST",
        "placeName": "OTTAWA",
        "streetNameDisplayText": "LARKIN ST, OTTAWA"
      }
    ]
  },
  {
    "postal": "K1Z7K0",
    "result": []
  },
  {
    "postal": "K1Z3R2",
    "result": []
  },
  {
    "postal": "K1Z0J1",
    "result": []
  },
  {
    "postal": "K1Z0B0",
    "result": []
  },
  {
    "postal": "K1Z5Z2",
    "result": [
      {
        "electoralDistricts": [
          {
            "election": null,
            "id": 81,
            "name": "Ottawa West—Nepean"
          }
        ],
        "pollDivisionIds": [
          10140843
        ],
        "postalCode": "K1Z5Z2",
        "streetName": "KIRKWOOD",
        "streetDirectionId": null,
        "streetTypeId": "AVE",
        "placeName": "OTTAWA",
        "streetNameDisplayText": "KIRKWOOD AVE, OTTAWA"
      }
    ]
  },
  {
    "postal": "K1Z7P3",
    "result": [
      {
        "electoralDistricts": [
          {
            "election": null,
            "id": 78,
            "name": "Ottawa Centre"
          }
        ],
        "pollDivisionIds": [
          10140545
        ],
        "postalCode": "K1Z7P3",
        "streetName": "CRERAR",
        "streetDirectionId": null,
        "streetTypeId": "AVE",
        "placeName": "OTTAWA",
        "streetNameDisplayText": "CRERAR AVE, OTTAWA"
      }
    ]
  },
  {
    "postal": "K1Z2K3",
    "result": []
  },
  {
    "postal": "K1Z7Y6",
    "result": [
      {
        "electoralDistricts": [
          {
            "election": null,
            "id": 81,
            "name": "Ottawa West—Nepean"
          }
        ],
        "pollDivisionIds": [
          10140843
        ],
        "postalCode": "K1Z7Y6",
        "streetName": "RAVEN",
        "streetDirectionId": null,
        "streetTypeId": "AVE",
        "placeName": "OTTAWA",
        "streetNameDisplayText": "RAVEN AVE, OTTAWA"
      }
    ]
  },
  {
    "postal": "K1Z1L9",
    "result": []
  },
  {
    "postal": "K1Z8T0",
    "result": []
  },
  {
    "postal": "K1Z3K8",
    "result": []
  },
  {
    "postal": "K1Z5W9",
    "result": [
      {
        "electoralDistricts": [
          {
            "election": null,
            "id": 78,
            "name": "Ottawa Centre"
          }
        ],
        "pollDivisionIds": [
          10140539
        ],
        "postalCode": "K1Z5W9",
        "streetName": "KIRKWOOD",
        "streetDirectionId": null,
        "streetTypeId": "AVE",
        "placeName": "OTTAWA",
        "streetNameDisplayText": "KIRKWOOD AVE, OTTAWA"
      }
    ]
  },
  {
    "postal": "K1Z6T9",
    "result": [
      {
        "electoralDistricts": [
          {
            "election": null,
            "id": 78,
            "name": "Ottawa Centre"
          }
        ],
        "pollDivisionIds": [
          10140539
        ],
        "postalCode": "K1Z6T9",
        "streetName": "WILBER",
        "streetDirectionId": null,
        "streetTypeId": "AVE",
        "placeName": "OTTAWA",
        "streetNameDisplayText": "WILBER AVE, OTTAWA"
      }
    ]
  },
  {
    "postal": "K1Z4H1",
    "result": []
  },
  {
    "postal": "K1Z7A2",
    "result": [
      {
        "electoralDistricts": [
          {
            "election": null,
            "id": 78,
            "name": "Ottawa Centre"
          }
        ],
        "pollDivisionIds": [
          10140539,
          10140534
        ],
        "postalCode": "K1Z7A2",
        "streetName": "WESLEY",
        "streetDirectionId": null,
        "streetTypeId": "AVE",
        "placeName": "OTTAWA",
        "streetNameDisplayText": "WESLEY AVE, OTTAWA"
      }
    ]
  },
  {
    "postal": "K1Z5G0",
    "result": []
  },
  {
    "postal": "K1Z8V5",
    "result": []
  },
  {
    "postal": "K1Z2Y8",
    "result": []
  },
  {
    "postal": "K1Z2B6",
    "result": []
  },
  {
    "postal": "K1Z4W8",
    "result": []
  },
  {
    "postal": "K1Z8H7",
    "result": [
      {
        "electoralDistricts": [
          {
            "election": null,
            "id": 81,
            "name": "Ottawa West—Nepean"
          }
        ],
        "pollDivisionIds": [
          10140844
        ],
        "postalCode": "K1Z8H7",
        "streetName": "MAYVIEW",
        "streetDirectionId": null,
        "streetTypeId": "AVE",
        "placeName": "OTTAWA",
        "streetNameDisplayText": "MAYVIEW AVE, OTTAWA"
      }
    ]
  },
  {
    "postal": "K1Z5P1",
    "result": [
      {
        "electoralDistricts": [
          {
            "election": null,
            "id": 78,
            "name": "Ottawa Centre"
          }
        ],
        "pollDivisionIds": [
          10140534
        ],
        "postalCode": "K1Z5P1",
        "streetName": "TWEEDSMUIR",
        "streetDirectionId": null,
        "streetTypeId": "AVE",
        "placeName": "OTTAWA",
        "streetNameDisplayText": "TWEEDSMUIR AVE, OTTAWA"
      }
    ]
  },
  {
    "postal": "K1Z2B8",
    "result": []
  },
  {
    "postal": "K1Z0P2",
    "result": []
  },
  {
    "postal": "K1Z9M1",
    "result": []
  },
  {
    "postal": "K1Z3G0",
    "result": []
  },
  {
    "postal": "K1Z9Z2",
    "result": []
  },
  {
    "postal": "K1Z2A0",
    "result": []
  },
  {
    "postal": "K1Z6Y0",
    "result": []
  },
  {
    "postal": "K1Z2Z8",
    "result": []
  },
  {
    "postal": "K1Z7Y3",
    "result": [
      {
        "electoralDistricts": [
          {
            "election": null,
            "id": 81,
            "name": "Ottawa West—Nepean"
          }
        ],
        "pollDivisionIds": [
          10140843
        ],
        "postalCode": "K1Z7Y3",
        "streetName": "RAVEN",
        "streetDirectionId": null,
        "streetTypeId": "AVE",
        "placeName": "OTTAWA",
        "streetNameDisplayText": "RAVEN AVE, OTTAWA"
      }
    ]
  },
  {
    "postal": "K1Z6Z5",
    "result": [
      {
        "electoralDistricts": [
          {
            "election": null,
            "id": 78,
            "name": "Ottawa Centre"
          }
        ],
        "pollDivisionIds": [
          10140534
        ],
        "postalCode": "K1Z6Z5",
        "streetName": "BYRON",
        "streetDirectionId": null,
        "streetTypeId": "AVE",
        "placeName": "OTTAWA",
        "streetNameDisplayText": "BYRON AVE, OTTAWA"
      }
    ]
  },
  {
    "postal": "K1Z6E0",
    "result": []
  },
  {
    "postal": "K1Z9B7",
    "result": []
  },
  {
    "postal": "K1Z9S5",
    "result": []
  },
  {
    "postal": "K1Z3X3",
    "result": []
  },
  {
    "postal": "K1Z7R5",
    "result": [
      {
        "electoralDistricts": [
          {
            "election": null,
            "id": 78,
            "name": "Ottawa Centre"
          }
        ],
        "pollDivisionIds": [
          10140545
        ],
        "postalCode": "K1Z7R5",
        "streetName": "TUNIS",
        "streetDirectionId": null,
        "streetTypeId": "AVE",
        "placeName": "OTTAWA",
        "streetNameDisplayText": "TUNIS AVE, OTTAWA"
      }
    ]
  },
  {
    "postal": "K1Z2X3",
    "result": []
  },
  {
    "postal": "K1Z8Z9",
    "result": []
  },
  {
    "postal": "K1Z0N4",
    "result": []
  },
  {
    "postal": "K1Z1K1",
    "result": []
  },
  {
    "postal": "K1Z1S3",
    "result": []
  },
  {
    "postal": "K1Z6M4",
    "result": [
      {
        "electoralDistricts": [
          {
            "election": null,
            "id": 78,
            "name": "Ottawa Centre"
          }
        ],
        "pollDivisionIds": [
          10140545
        ],
        "postalCode": "K1Z6M4",
        "streetName": "SHERIDAN",
        "streetDirectionId": null,
        "streetTypeId": "AVE",
        "placeName": "OTTAWA",
        "streetNameDisplayText": "SHERIDAN AVE, OTTAWA"
      }
    ]
  },
  {
    "postal": "K1Z9A9",
    "result": []
  },
  {
    "postal": "K1Z9Z9",
    "result": []
  },
  {
    "postal": "K1Z6T4",
    "result": [
      {
        "electoralDistricts": [
          {
            "election": null,
            "id": 78,
            "name": "Ottawa Centre"
          }
        ],
        "pollDivisionIds": [
          10140531
        ],
        "postalCode": "K1Z6T4",
        "streetName": "PREMIER",
        "streetDirectionId": "E",
        "streetTypeId": "AVE",
        "placeName": "OTTAWA",
        "streetNameDisplayText": "PREMIER AVE E, OTTAWA"
      }
    ]
  },
  {
    "postal": "K1Z0B2",
    "result": [
      {
        "electoralDistricts": [
          {
            "election": null,
            "id": 78,
            "name": "Ottawa Centre"
          }
        ],
        "pollDivisionIds": [
          10140582
        ],
        "postalCode": "K1Z0B2",
        "streetName": "RICHMOND",
        "streetDirectionId": null,
        "streetTypeId": "RD",
        "placeName": "OTTAWA",
        "streetNameDisplayText": "RICHMOND RD, OTTAWA"
      }
    ]
  },
  {
    "postal": "K1Z2L9",
    "result": []
  },
  {
    "postal": "K1Z8K9",
    "result": [
      {
        "electoralDistricts": [
          {
            "election": null,
            "id": 78,
            "name": "Ottawa Centre"
          }
        ],
        "pollDivisionIds": [
          10140547
        ],
        "postalCode": "K1Z8K9",
        "streetName": "KINGSTON",
        "streetDirectionId": null,
        "streetTypeId": "AVE",
        "placeName": "OTTAWA",
        "streetNameDisplayText": "KINGSTON AVE, OTTAWA"
      }
    ]
  },
  {
    "postal": "K1Z2H9",
    "result": []
  },
  {
    "postal": "K1Z3Z6",
    "result": []
  },
  {
    "postal": "K1Z3B0",
    "result": []
  },
  {
    "postal": "K1Z2H8",
    "result": []
  },
  {
    "postal": "K1Z3X2",
    "result": []
  },
  {
    "postal": "K1Z2E9",
    "result": []
  },
  {
    "postal": "K1Z9P6",
    "result": []
  },
  {
    "postal": "K1Z9E2",
    "result": []
  },
  {
    "postal": "K1Z9H2",
    "result": []
  },
  {
    "postal": "K1Z1S8",
    "result": []
  },
  {
    "postal": "K1Z3M6",
    "result": []
  },
  {
    "postal": "K1Z6Z8",
    "result": [
      {
        "electoralDistricts": [
          {
            "election": null,
            "id": 78,
            "name": "Ottawa Centre"
          }
        ],
        "pollDivisionIds": [
          10140539
        ],
        "postalCode": "K1Z6Z8",
        "streetName": "WESLEY",
        "streetDirectionId": null,
        "streetTypeId": "AVE",
        "placeName": "OTTAWA",
        "streetNameDisplayText": "WESLEY AVE, OTTAWA"
      }
    ]
  },
  {
    "postal": "K1Z4J2",
    "result": []
  },
  {
    "postal": "K1Z9Y1",
    "result": []
  },
  {
    "postal": "K1Z8V6",
    "result": []
  },
  {
    "postal": "K1Z6B2",
    "result": [
      {
        "electoralDistricts": [
          {
            "election": null,
            "id": 81,
            "name": "Ottawa West—Nepean"
          }
        ],
        "pollDivisionIds": [
          10140844
        ],
        "postalCode": "K1Z6B2",
        "streetName": "MERIVALE",
        "streetDirectionId": null,
        "streetTypeId": "RD",
        "placeName": "OTTAWA",
        "streetNameDisplayText": "MERIVALE RD, OTTAWA"
      }
    ]
  },
  {
    "postal": "K1Z1P8",
    "result": []
  },
  {
    "postal": "K1Z0V8",
    "result": []
  },
  {
    "postal": "K1Z4Y0",
    "result": []
  },
  {
    "postal": "K1Z2T4",
    "result": []
  },
  {
    "postal": "K1Z2S3",
    "result": []
  },
  {
    "postal": "K1Z0K0",
    "result": []
  },
  {
    "postal": "K1Z5N1",
    "result": [
      {
        "electoralDistricts": [
          {
            "election": null,
            "id": 78,
            "name": "Ottawa Centre"
          }
        ],
        "pollDivisionIds": [
          10140538
        ],
        "postalCode": "K1Z5N1",
        "streetName": "ATHLONE",
        "streetDirectionId": "S",
        "streetTypeId": "AVE",
        "placeName": "OTTAWA",
        "streetNameDisplayText": "ATHLONE AVE S, OTTAWA"
      }
    ]
  },
  {
    "postal": "K1Z7T0",
    "result": []
  },
  {
    "postal": "K1Z9N2",
    "result": []
  },
  {
    "postal": "K1Z5L1",
    "result": [
      {
        "electoralDistricts": [
          {
            "election": null,
            "id": 78,
            "name": "Ottawa Centre"
          }
        ],
        "pollDivisionIds": [
          10140538
        ],
        "postalCode": "K1Z5L1",
        "streetName": "EVERED",
        "streetDirectionId": null,
        "streetTypeId": "AVE",
        "placeName": "OTTAWA",
        "streetNameDisplayText": "EVERED AVE, OTTAWA"
      }
    ]
  },
  {
    "postal": "K1Z7G5",
    "result": [
      {
        "electoralDistricts": [
          {
            "election": null,
            "id": 78,
            "name": "Ottawa Centre"
          }
        ],
        "pollDivisionIds": [
          10140539
        ],
        "postalCode": "K1Z7G5",
        "streetName": "DEVONSHIRE",
        "streetDirectionId": null,
        "streetTypeId": "PL",
        "placeName": "OTTAWA",
        "streetNameDisplayText": "DEVONSHIRE PL, OTTAWA"
      }
    ]
  },
  {
    "postal": "K1Z6K2",
    "result": [
      {
        "electoralDistricts": [
          {
            "election": null,
            "id": 78,
            "name": "Ottawa Centre"
          }
        ],
        "pollDivisionIds": [
          10140547
        ],
        "postalCode": "K1Z6K2",
        "streetName": "HOOPER",
        "streetDirectionId": null,
        "streetTypeId": "ST",
        "placeName": "OTTAWA",
        "streetNameDisplayText": "HOOPER ST, OTTAWA"
      }
    ]
  },
  {
    "postal": "K1Z6P9",
    "result": [
      {
        "electoralDistricts": [
          {
            "election": null,
            "id": 78,
            "name": "Ottawa Centre"
          }
        ],
        "pollDivisionIds": [
          10140531
        ],
        "postalCode": "K1Z6P9",
        "streetName": "FERNDALE",
        "streetDirectionId": null,
        "streetTypeId": "AVE",
        "placeName": "OTTAWA",
        "streetNameDisplayText": "FERNDALE AVE, OTTAWA"
      }
    ]
  },
  {
    "postal": "K1Z0E6",
    "result": []
  },
  {
    "postal": "K1Z8R9",
    "result": [
      {
        "electoralDistricts": [
          {
            "election": null,
            "id": 78,
            "name": "Ottawa Centre"
          }
        ],
        "pollDivisionIds": [
          10140538
        ],
        "postalCode": "K1Z8R9",
        "streetName": "CARLING",
        "streetDirectionId": null,
        "streetTypeId": "AVE",
        "placeName": "OTTAWA",
        "streetNameDisplayText": "CARLING AVE, OTTAWA"
      }
    ]
  },
  {
    "postal": "K1Z3G9",
    "result": []
  },
  {
    "postal": "K1Z0V7",
    "result": []
  },
  {
    "postal": "K1Z2Z1",
    "result": []
  },
  {
    "postal": "K1Z7N1",
    "result": [
      {
        "electoralDistricts": [
          {
            "election": null,
            "id": 81,
            "name": "Ottawa West—Nepean"
          }
        ],
        "pollDivisionIds": [
          10140843
        ],
        "postalCode": "K1Z7N1",
        "streetName": "THAMES",
        "streetDirectionId": null,
        "streetTypeId": "ST",
        "placeName": "OTTAWA",
        "streetNameDisplayText": "THAMES ST, OTTAWA"
      }
    ]
  },
  {
    "postal": "K1Z3C6",
    "result": []
  },
  {
    "postal": "K1Z4M1",
    "result": []
  },
  {
    "postal": "K1Z9K2",
    "result": []
  },
  {
    "postal": "K1Z9S6",
    "result": []
  },
  {
    "postal": "K1Z4X1",
    "result": []
  },
  {
    "postal": "K1Z8W2",
    "result": []
  },
  {
    "postal": "K1Z7N2",
    "result": [
      {
        "electoralDistricts": [
          {
            "election": null,
            "id": 81,
            "name": "Ottawa West—Nepean"
          }
        ],
        "pollDivisionIds": [
          10140843
        ],
        "postalCode": "K1Z7N2",
        "streetName": "THAMES",
        "streetDirectionId": null,
        "streetTypeId": "ST",
        "placeName": "OTTAWA",
        "streetNameDisplayText": "THAMES ST, OTTAWA"
      }
    ]
  },
  {
    "postal": "K1Z8S3",
    "result": [
      {
        "electoralDistricts": [
          {
            "election": null,
            "id": 78,
            "name": "Ottawa Centre"
          }
        ],
        "pollDivisionIds": [
          10140538
        ],
        "postalCode": "K1Z8S3",
        "streetName": "MOLENAAR",
        "streetDirectionId": null,
        "streetTypeId": "PVT",
        "placeName": "OTTAWA",
        "streetNameDisplayText": "MOLENAAR PVT, OTTAWA"
      }
    ]
  },
  {
    "postal": "K1Z4V0",
    "result": []
  },
  {
    "postal": "K1Z6W4",
    "result": [
      {
        "electoralDistricts": [
          {
            "election": null,
            "id": 78,
            "name": "Ottawa Centre"
          }
        ],
        "pollDivisionIds": [
          10140539
        ],
        "postalCode": "K1Z6W4",
        "streetName": "RICHMOND",
        "streetDirectionId": null,
        "streetTypeId": "RD",
        "placeName": "OTTAWA",
        "streetNameDisplayText": "RICHMOND RD, OTTAWA"
      }
    ]
  },
  {
    "postal": "K1Z5M1",
    "result": []
  },
  {
    "postal": "K1Z0S4",
    "result": []
  },
  {
    "postal": "K1Z5X6",
    "result": [
      {
        "electoralDistricts": [
          {
            "election": null,
            "id": 78,
            "name": "Ottawa Centre"
          }
        ],
        "pollDivisionIds": [
          10140539
        ],
        "postalCode": "K1Z5X6",
        "streetName": "KIRKWOOD",
        "streetDirectionId": null,
        "streetTypeId": "AVE",
        "placeName": "OTTAWA",
        "streetNameDisplayText": "KIRKWOOD AVE, OTTAWA"
      }
    ]
  },
  {
    "postal": "K1Z8L5",
    "result": [
      {
        "electoralDistricts": [
          {
            "election": null,
            "id": 81,
            "name": "Ottawa West—Nepean"
          }
        ],
        "pollDivisionIds": [
          10140844
        ],
        "postalCode": "K1Z8L5",
        "streetName": "MEDFORD",
        "streetDirectionId": null,
        "streetTypeId": "ST",
        "placeName": "OTTAWA",
        "streetNameDisplayText": "MEDFORD ST, OTTAWA"
      },
      {
        "electoralDistricts": [
          {
            "election": null,
            "id": 81,
            "name": "Ottawa West—Nepean"
          }
        ],
        "pollDivisionIds": [
          10140844
        ],
        "postalCode": "K1Z8L5",
        "streetName": "MEDFORD",
        "streetDirectionId": null,
        "streetTypeId": null,
        "placeName": "OTTAWA WEST NEPEAN",
        "streetNameDisplayText": "MEDFORD, OTTAWA WEST NEPEAN"
      }
    ]
  },
  {
    "postal": "K1Z5M8",
    "result": [
      {
        "electoralDistricts": [
          {
            "election": null,
            "id": 78,
            "name": "Ottawa Centre"
          }
        ],
        "pollDivisionIds": [
          10140534
        ],
        "postalCode": "K1Z5M8",
        "streetName": "ATHLONE",
        "streetDirectionId": null,
        "streetTypeId": "AVE",
        "placeName": "OTTAWA",
        "streetNameDisplayText": "ATHLONE AVE, OTTAWA"
      }
    ]
  },
  {
    "postal": "K1Z2G3",
    "result": []
  },
  {
    "postal": "K1Z8E4",
    "result": [
      {
        "electoralDistricts": [
          {
            "election": null,
            "id": 78,
            "name": "Ottawa Centre"
          }
        ],
        "pollDivisionIds": [
          10140547
        ],
        "postalCode": "K1Z8E4",
        "streetName": "DORCHESTER",
        "streetDirectionId": null,
        "streetTypeId": "AVE",
        "placeName": "OTTAWA",
        "streetNameDisplayText": "DORCHESTER AVE, OTTAWA"
      }
    ]
  },
  {
    "postal": "K1Z7S9",
    "result": [
      {
        "electoralDistricts": [
          {
            "election": null,
            "id": 81,
            "name": "Ottawa West—Nepean"
          }
        ],
        "pollDivisionIds": [
          10140843
        ],
        "postalCode": "K1Z7S9",
        "streetName": "LAPERRIERE",
        "streetDirectionId": null,
        "streetTypeId": "AVE",
        "placeName": "OTTAWA",
        "streetNameDisplayText": "LAPERRIERE AVE, OTTAWA"
      }
    ]
  },
  {
    "postal": "K1Z1K3",
    "result": []
  },
  {
    "postal": "K1Z4E1",
    "result": []
  },
  {
    "postal": "K1Z4R2",
    "result": []
  },
  {
    "postal": "K1Z6T0",
    "result": []
  },
  {
    "postal": "K1Z3K5",
    "result": []
  },
  {
    "postal": "K1Z3S3",
    "result": []
  },
  {
    "postal": "K1Z3L4",
    "result": []
  },
  {
    "postal": "K1Z9Y2",
    "result": []
  },
  {
    "postal": "K1Z1E0",
    "result": []
  },
  {
    "postal": "K1Z9A4",
    "result": []
  },
  {
    "postal": "K1Z1L3",
    "result": []
  },
  {
    "postal": "K1Z6N1",
    "result": [
      {
        "electoralDistricts": [
          {
            "election": null,
            "id": 78,
            "name": "Ottawa Centre"
          }
        ],
        "pollDivisionIds": [
          10140545
        ],
        "postalCode": "K1Z6N1",
        "streetName": "STEVENSON",
        "streetDirectionId": null,
        "streetTypeId": "AVE",
        "placeName": "OTTAWA",
        "streetNameDisplayText": "STEVENSON AVE, OTTAWA"
      }
    ]
  },
  {
    "postal": "K1Z6G7",
    "result": [
      {
        "electoralDistricts": [
          {
            "election": null,
            "id": 78,
            "name": "Ottawa Centre"
          }
        ],
        "pollDivisionIds": [
          10140539
        ],
        "postalCode": "K1Z6G7",
        "streetName": "PATRICIA",
        "streetDirectionId": null,
        "streetTypeId": "AVE",
        "placeName": "OTTAWA",
        "streetNameDisplayText": "PATRICIA AVE, OTTAWA"
      }
    ]
  },
  {
    "postal": "K1Z7W1",
    "result": [
      {
        "electoralDistricts": [
          {
            "election": null,
            "id": 81,
            "name": "Ottawa West—Nepean"
          }
        ],
        "pollDivisionIds": [
          10140842,
          10140843
        ],
        "postalCode": "K1Z7W1",
        "streetName": "WOODWARD",
        "streetDirectionId": null,
        "streetTypeId": "AVE",
        "placeName": "OTTAWA",
        "streetNameDisplayText": "WOODWARD AVE, OTTAWA"
      }
    ]
  },
  {
    "postal": "K1Z4M6",
    "result": []
  },
  {
    "postal": "K1Z1K0",
    "result": []
  },
  {
    "postal": "K1Z3E2",
    "result": []
  },
  {
    "postal": "K1Z5H4",
    "result": [
      {
        "electoralDistricts": [
          {
            "election": null,
            "id": 78,
            "name": "Ottawa Centre"
          }
        ],
        "pollDivisionIds": [
          10140532
        ],
        "postalCode": "K1Z5H4",
        "streetName": "WINONA",
        "streetDirectionId": null,
        "streetTypeId": "AVE",
        "placeName": "OTTAWA",
        "streetNameDisplayText": "WINONA AVE, OTTAWA"
      }
    ]
  },
  {
    "postal": "K1Z1K7",
    "result": []
  },
  {
    "postal": "K1Z0H0",
    "result": []
  },
  {
    "postal": "K1Z0J3",
    "result": []
  },
  {
    "postal": "K1Z1X6",
    "result": []
  },
  {
    "postal": "K1Z2Z6",
    "result": []
  },
  {
    "postal": "K1Z4R9",
    "result": []
  },
  {
    "postal": "K1Z0W8",
    "result": []
  },
  {
    "postal": "K1Z1L4",
    "result": []
  },
  {
    "postal": "K1Z0C8",
    "result": []
  },
  {
    "postal": "K1Z9X7",
    "result": []
  },
  {
    "postal": "K1Z4T1",
    "result": []
  },
  {
    "postal": "K1Z0M0",
    "result": []
  },
  {
    "postal": "K1Z6A2",
    "result": [
      {
        "electoralDistricts": [
          {
            "election": null,
            "id": 81,
            "name": "Ottawa West—Nepean"
          }
        ],
        "pollDivisionIds": [
          10140843
        ],
        "postalCode": "K1Z6A2",
        "streetName": "MERIVALE",
        "streetDirectionId": null,
        "streetTypeId": "RD",
        "placeName": "OTTAWA",
        "streetNameDisplayText": "MERIVALE RD, OTTAWA"
      }
    ]
  },
  {
    "postal": "K1Z9S8",
    "result": []
  },
  {
    "postal": "K1Z9T4",
    "result": []
  },
  {
    "postal": "K1Z9Y4",
    "result": []
  },
  {
    "postal": "K1Z6G5",
    "result": [
      {
        "electoralDistricts": [
          {
            "election": null,
            "id": 78,
            "name": "Ottawa Centre"
          }
        ],
        "pollDivisionIds": [
          10140547
        ],
        "postalCode": "K1Z6G5",
        "streetName": "PRINCE",
        "streetDirectionId": null,
        "streetTypeId": "ST",
        "placeName": "OTTAWA",
        "streetNameDisplayText": "PRINCE ST, OTTAWA"
      }
    ]
  },
  {
    "postal": "K1Z6H9",
    "result": [
      {
        "electoralDistricts": [
          {
            "election": null,
            "id": 78,
            "name": "Ottawa Centre"
          }
        ],
        "pollDivisionIds": [
          10140547
        ],
        "postalCode": "K1Z6H9",
        "streetName": "SILVER",
        "streetDirectionId": null,
        "streetTypeId": "ST",
        "placeName": "OTTAWA",
        "streetNameDisplayText": "SILVER ST, OTTAWA"
      }
    ]
  },
  {
    "postal": "K1Z2P3",
    "result": []
  },
  {
    "postal": "K1Z1T6",
    "result": []
  },
  {
    "postal": "K1Z4P6",
    "result": []
  },
  {
    "postal": "K1Z3K1",
    "result": []
  },
  {
    "postal": "K1Z6X4",
    "result": []
  },
  {
    "postal": "K1Z4M8",
    "result": []
  },
  {
    "postal": "K1Z2Y1",
    "result": []
  },
  {
    "postal": "K1Z6M1",
    "result": [
      {
        "electoralDistricts": [
          {
            "election": null,
            "id": 78,
            "name": "Ottawa Centre"
          }
        ],
        "pollDivisionIds": [
          10140547
        ],
        "postalCode": "K1Z6M1",
        "streetName": "VALE",
        "streetDirectionId": null,
        "streetTypeId": "ST",
        "placeName": "OTTAWA",
        "streetNameDisplayText": "VALE ST, OTTAWA"
      }
    ]
  },
  {
    "postal": "K1Z5L8",
    "result": []
  },
  {
    "postal": "K1Z3P6",
    "result": []
  },
  {
    "postal": "K1Z9A5",
    "result": []
  },
  {
    "postal": "K1Z7K1",
    "result": [
      {
        "electoralDistricts": [
          {
            "election": null,
            "id": 78,
            "name": "Ottawa Centre"
          }
        ],
        "pollDivisionIds": [
          10140539
        ],
        "postalCode": "K1Z7K1",
        "streetName": "MACY",
        "streetDirectionId": null,
        "streetTypeId": "BLVD",
        "placeName": "OTTAWA",
        "streetNameDisplayText": "MACY BLVD, OTTAWA"
      }
    ]
  },
  {
    "postal": "K1Z3J4",
    "result": []
  },
  {
    "postal": "K1Z5E7",
    "result": [
      {
        "electoralDistricts": [
          {
            "election": null,
            "id": 78,
            "name": "Ottawa Centre"
          }
        ],
        "pollDivisionIds": [
          10140538
        ],
        "postalCode": "K1Z5E7",
        "streetName": "CHURCHILL",
        "streetDirectionId": "N",
        "streetTypeId": "AVE",
        "placeName": "OTTAWA",
        "streetNameDisplayText": "CHURCHILL AVE N, OTTAWA"
      }
    ]
  },
  {
    "postal": "K1Z3A7",
    "result": []
  },
  {
    "postal": "K1Z1B9",
    "result": [
      {
        "electoralDistricts": [
          {
            "election": null,
            "id": 78,
            "name": "Ottawa Centre"
          }
        ],
        "pollDivisionIds": [
          10140531
        ],
        "postalCode": "K1Z1B9",
        "streetName": "LATCHFORD",
        "streetDirectionId": null,
        "streetTypeId": "RD",
        "placeName": "OTTAWA",
        "streetNameDisplayText": "LATCHFORD RD, OTTAWA"
      }
    ]
  },
  {
    "postal": "K1Z9E8",
    "result": []
  },
  {
    "postal": "K1Z1C9",
    "result": [
      {
        "electoralDistricts": [
          {
            "election": null,
            "id": 78,
            "name": "Ottawa Centre"
          }
        ],
        "pollDivisionIds": [
          10140539
        ],
        "postalCode": "K1Z1C9",
        "streetName": "WEST VILLAGE",
        "streetDirectionId": null,
        "streetTypeId": "PVT",
        "placeName": "OTTAWA",
        "streetNameDisplayText": "WEST VILLAGE PVT, OTTAWA"
      }
    ]
  },
  {
    "postal": "K1Z3B5",
    "result": []
  },
  {
    "postal": "K1Z8R0",
    "result": []
  },
  {
    "postal": "K1Z3P2",
    "result": []
  },
  {
    "postal": "K1Z5V4",
    "result": [
      {
        "electoralDistricts": [
          {
            "election": null,
            "id": 78,
            "name": "Ottawa Centre"
          }
        ],
        "pollDivisionIds": [
          10140539
        ],
        "postalCode": "K1Z5V4",
        "streetName": "BYRON",
        "streetDirectionId": null,
        "streetTypeId": "AVE",
        "placeName": "OTTAWA",
        "streetNameDisplayText": "BYRON AVE, OTTAWA"
      },
      {
        "electoralDistricts": [
          {
            "election": null,
            "id": 78,
            "name": "Ottawa Centre"
          }
        ],
        "pollDivisionIds": [
          10140539
        ],
        "postalCode": "K1Z5V4",
        "streetName": "DAWSON",
        "streetDirectionId": null,
        "streetTypeId": "AVE",
        "placeName": "OTTAWA",
        "streetNameDisplayText": "DAWSON AVE, OTTAWA"
      }
    ]
  },
  {
    "postal": "K1Z4H0",
    "result": []
  },
  {
    "postal": "K1Z4S7",
    "result": []
  },
  {
    "postal": "K1Z6C2",
    "result": [
      {
        "electoralDistricts": [
          {
            "election": null,
            "id": 78,
            "name": "Ottawa Centre"
          }
        ],
        "pollDivisionIds": [
          10140539
        ],
        "postalCode": "K1Z6C2",
        "streetName": "HILSON",
        "streetDirectionId": null,
        "streetTypeId": "AVE",
        "placeName": "OTTAWA",
        "streetNameDisplayText": "HILSON AVE, OTTAWA"
      }
    ]
  },
  {
    "postal": "K1Z8W3",
    "result": []
  },
  {
    "postal": "K1Z4M5",
    "result": []
  },
  {
    "postal": "K1Z5T1",
    "result": [
      {
        "electoralDistricts": [
          {
            "election": null,
            "id": 81,
            "name": "Ottawa West—Nepean"
          }
        ],
        "pollDivisionIds": [
          10140843
        ],
        "postalCode": "K1Z5T1",
        "streetName": "CAVAN",
        "streetDirectionId": null,
        "streetTypeId": "ST",
        "placeName": "OTTAWA",
        "streetNameDisplayText": "CAVAN ST, OTTAWA"
      }
    ]
  },
  {
    "postal": "K1Z3B3",
    "result": []
  },
  {
    "postal": "K1Z6C6",
    "result": [
      {
        "electoralDistricts": [
          {
            "election": null,
            "id": 78,
            "name": "Ottawa Centre"
          }
        ],
        "pollDivisionIds": [
          10140539
        ],
        "postalCode": "K1Z6C6",
        "streetName": "HILSON",
        "streetDirectionId": null,
        "streetTypeId": "AVE",
        "placeName": "OTTAWA",
        "streetNameDisplayText": "HILSON AVE, OTTAWA"
      }
    ]
  },
  {
    "postal": "K1Z7N8",
    "result": [
      {
        "electoralDistricts": [
          {
            "election": null,
            "id": 78,
            "name": "Ottawa Centre"
          }
        ],
        "pollDivisionIds": [
          10140545
        ],
        "postalCode": "K1Z7N8",
        "streetName": "HARROLD",
        "streetDirectionId": null,
        "streetTypeId": "PL",
        "placeName": "OTTAWA",
        "streetNameDisplayText": "HARROLD PL, OTTAWA"
      }
    ]
  },
  {
    "postal": "K1Z2Y3",
    "result": []
  },
  {
    "postal": "K1Z2R6",
    "result": []
  },
  {
    "postal": "K1Z7N3",
    "result": [
      {
        "electoralDistricts": [
          {
            "election": null,
            "id": 81,
            "name": "Ottawa West—Nepean"
          }
        ],
        "pollDivisionIds": [
          10140843
        ],
        "postalCode": "K1Z7N3",
        "streetName": "THAMES",
        "streetDirectionId": null,
        "streetTypeId": "ST",
        "placeName": "OTTAWA",
        "streetNameDisplayText": "THAMES ST, OTTAWA"
      }
    ]
  },
  {
    "postal": "K1Z8J2",
    "result": [
      {
        "electoralDistricts": [
          {
            "election": null,
            "id": 81,
            "name": "Ottawa West—Nepean"
          }
        ],
        "pollDivisionIds": [
          10140844
        ],
        "postalCode": "K1Z8J2",
        "streetName": "ROSENTHAL",
        "streetDirectionId": null,
        "streetTypeId": "AVE",
        "placeName": "OTTAWA",
        "streetNameDisplayText": "ROSENTHAL AVE, OTTAWA"
      }
    ]
  },
  {
    "postal": "K1Z6A9",
    "result": [
      {
        "electoralDistricts": [
          {
            "election": null,
            "id": 78,
            "name": "Ottawa Centre"
          }
        ],
        "pollDivisionIds": [
          10140547,
          76469
        ],
        "postalCode": "K1Z6A9",
        "streetName": "MERIVALE",
        "streetDirectionId": null,
        "streetTypeId": "RD",
        "placeName": "OTTAWA",
        "streetNameDisplayText": "MERIVALE RD, OTTAWA"
      }
    ]
  },
  {
    "postal": "K1Z3V2",
    "result": []
  },
  {
    "postal": "K1Z2N3",
    "result": []
  },
  {
    "postal": "K1Z1S5",
    "result": []
  },
  {
    "postal": "K1Z4T7",
    "result": []
  },
  {
    "postal": "K1Z6Y7",
    "result": [
      {
        "electoralDistricts": [
          {
            "election": null,
            "id": 78,
            "name": "Ottawa Centre"
          }
        ],
        "pollDivisionIds": [
          10140539
        ],
        "postalCode": "K1Z6Y7",
        "streetName": "BYRON",
        "streetDirectionId": null,
        "streetTypeId": "AVE",
        "placeName": "OTTAWA",
        "streetNameDisplayText": "BYRON AVE, OTTAWA"
      }
    ]
  },
  {
    "postal": "K1Z0W7",
    "result": []
  },
  {
    "postal": "K1Z2W9",
    "result": []
  },
  {
    "postal": "K1Z8V0",
    "result": []
  },
  {
    "postal": "K1Z0H4",
    "result": []
  },
  {
    "postal": "K1Z2T1",
    "result": []
  },
  {
    "postal": "K1Z1B1",
    "result": []
  },
  {
    "postal": "K1Z8B6",
    "result": [
      {
        "electoralDistricts": [
          {
            "election": null,
            "id": 81,
            "name": "Ottawa West—Nepean"
          }
        ],
        "pollDivisionIds": [
          10140843
        ],
        "postalCode": "K1Z8B6",
        "streetName": "CHATELAIN",
        "streetDirectionId": null,
        "streetTypeId": "AVE",
        "placeName": "OTTAWA",
        "streetNameDisplayText": "CHATELAIN AVE, OTTAWA"
      }
    ]
  },
  {
    "postal": "K1Z6H1",
    "result": [
      {
        "electoralDistricts": [
          {
            "election": null,
            "id": 78,
            "name": "Ottawa Centre"
          }
        ],
        "pollDivisionIds": [
          10140539
        ],
        "postalCode": "K1Z6H1",
        "streetName": "KENSINGTON",
        "streetDirectionId": null,
        "streetTypeId": "AVE",
        "placeName": "OTTAWA",
        "streetNameDisplayText": "KENSINGTON AVE, OTTAWA"
      }
    ]
  },
  {
    "postal": "K1Z8T8",
    "result": []
  },
  {
    "postal": "K1Z0T4",
    "result": []
  },
  {
    "postal": "K1Z2C4",
    "result": []
  },
  {
    "postal": "K1Z8N3",
    "result": [
      {
        "electoralDistricts": [
          {
            "election": null,
            "id": 78,
            "name": "Ottawa Centre"
          }
        ],
        "pollDivisionIds": [
          10140543
        ],
        "postalCode": "K1Z8N3",
        "streetName": "CARLING",
        "streetDirectionId": null,
        "streetTypeId": "AVE",
        "placeName": "OTTAWA",
        "streetNameDisplayText": "CARLING AVE, OTTAWA"
      }
    ]
  },
  {
    "postal": "K1Z4L8",
    "result": []
  },
  {
    "postal": "K1Z2B5",
    "result": []
  },
  {
    "postal": "K1Z3H1",
    "result": []
  },
  {
    "postal": "K1Z4Y1",
    "result": []
  },
  {
    "postal": "K1Z7E2",
    "result": [
      {
        "electoralDistricts": [
          {
            "election": null,
            "id": 78,
            "name": "Ottawa Centre"
          }
        ],
        "pollDivisionIds": [
          10140538
        ],
        "postalCode": "K1Z7E2",
        "streetName": "CLARE",
        "streetDirectionId": null,
        "streetTypeId": "ST",
        "placeName": "OTTAWA",
        "streetNameDisplayText": "CLARE ST, OTTAWA"
      }
    ]
  },
  {
    "postal": "K1Z2P5",
    "result": []
  },
  {
    "postal": "K1Z8R7",
    "result": [
      {
        "electoralDistricts": [
          {
            "election": null,
            "id": 78,
            "name": "Ottawa Centre"
          }
        ],
        "pollDivisionIds": [
          10140537
        ],
        "postalCode": "K1Z8R7",
        "streetName": "CARLING",
        "streetDirectionId": null,
        "streetTypeId": "AVE",
        "placeName": "OTTAWA",
        "streetNameDisplayText": "CARLING AVE, OTTAWA"
      }
    ]
  },
  {
    "postal": "K1Z9P1",
    "result": []
  },
  {
    "postal": "K1Z3B8",
    "result": []
  },
  {
    "postal": "K1Z3P7",
    "result": []
  },
  {
    "postal": "K1Z9B2",
    "result": []
  },
  {
    "postal": "K1Z6Z3",
    "result": [
      {
        "electoralDistricts": [
          {
            "election": null,
            "id": 78,
            "name": "Ottawa Centre"
          }
        ],
        "pollDivisionIds": [
          10140534
        ],
        "postalCode": "K1Z6Z3",
        "streetName": "BYRON",
        "streetDirectionId": null,
        "streetTypeId": "AVE",
        "placeName": "OTTAWA",
        "streetNameDisplayText": "BYRON AVE, OTTAWA"
      }
    ]
  },
  {
    "postal": "K1Z4N5",
    "result": []
  },
  {
    "postal": "K1Z8T3",
    "result": []
  },
  {
    "postal": "K1Z1V2",
    "result": []
  },
  {
    "postal": "K1Z1Y0",
    "result": []
  },
  {
    "postal": "K1Z3G6",
    "result": []
  },
  {
    "postal": "K1Z3H7",
    "result": []
  },
  {
    "postal": "K1Z7X8",
    "result": [
      {
        "electoralDistricts": [
          {
            "election": null,
            "id": 81,
            "name": "Ottawa West—Nepean"
          }
        ],
        "pollDivisionIds": [
          10140843
        ],
        "postalCode": "K1Z7X8",
        "streetName": "LAROSE",
        "streetDirectionId": null,
        "streetTypeId": "AVE",
        "placeName": "OTTAWA",
        "streetNameDisplayText": "LAROSE AVE, OTTAWA"
      }
    ]
  },
  {
    "postal": "K1Z0C7",
    "result": []
  },
  {
    "postal": "K1Z0W9",
    "result": []
  },
  {
    "postal": "K1Z8E6",
    "result": [
      {
        "electoralDistricts": [
          {
            "election": null,
            "id": 78,
            "name": "Ottawa Centre"
          }
        ],
        "pollDivisionIds": [
          10140547
        ],
        "postalCode": "K1Z8E6",
        "streetName": "DORCHESTER",
        "streetDirectionId": null,
        "streetTypeId": "AVE",
        "placeName": "OTTAWA",
        "streetNameDisplayText": "DORCHESTER AVE, OTTAWA"
      }
    ]
  },
  {
    "postal": "K1Z9Z8",
    "result": []
  },
  {
    "postal": "K1Z3P4",
    "result": []
  },
  {
    "postal": "K1Z6L8",
    "result": [
      {
        "electoralDistricts": [
          {
            "election": null,
            "id": 78,
            "name": "Ottawa Centre"
          }
        ],
        "pollDivisionIds": [
          10140545
        ],
        "postalCode": "K1Z6L8",
        "streetName": "ADMIRAL",
        "streetDirectionId": null,
        "streetTypeId": "AVE",
        "placeName": "OTTAWA",
        "streetNameDisplayText": "ADMIRAL AVE, OTTAWA"
      }
    ]
  },
  {
    "postal": "K1Z2R4",
    "result": []
  },
  {
    "postal": "K1Z2W1",
    "result": []
  },
  {
    "postal": "K1Z9H8",
    "result": []
  },
  {
    "postal": "K1Z8X9",
    "result": []
  },
  {
    "postal": "K1Z7H4",
    "result": [
      {
        "electoralDistricts": [
          {
            "election": null,
            "id": 78,
            "name": "Ottawa Centre"
          }
        ],
        "pollDivisionIds": [
          10140538
        ],
        "postalCode": "K1Z7H4",
        "streetName": "DOVERCOURT",
        "streetDirectionId": null,
        "streetTypeId": "AVE",
        "placeName": "OTTAWA",
        "streetNameDisplayText": "DOVERCOURT AVE, OTTAWA"
      }
    ]
  },
  {
    "postal": "K1Z3J1",
    "result": []
  },
  {
    "postal": "K1Z1P4",
    "result": []
  },
  {
    "postal": "K1Z2A3",
    "result": []
  },
  {
    "postal": "K1Z0Z1",
    "result": []
  },
  {
    "postal": "K1Z1C1",
    "result": [
      {
        "electoralDistricts": [
          {
            "election": null,
            "id": 78,
            "name": "Ottawa Centre"
          }
        ],
        "pollDivisionIds": [
          10140531
        ],
        "postalCode": "K1Z1C1",
        "streetName": "LANARK",
        "streetDirectionId": null,
        "streetTypeId": "AVE",
        "placeName": "OTTAWA",
        "streetNameDisplayText": "LANARK AVE, OTTAWA"
      }
    ]
  },
  {
    "postal": "K1Z0H3",
    "result": []
  },
  {
    "postal": "K1Z7B0",
    "result": []
  },
  {
    "postal": "K1Z5K2",
    "result": [
      {
        "electoralDistricts": [
          {
            "election": null,
            "id": 81,
            "name": "Ottawa West—Nepean"
          }
        ],
        "pollDivisionIds": [
          10140843
        ],
        "postalCode": "K1Z5K2",
        "streetName": "MCBRIDE",
        "streetDirectionId": null,
        "streetTypeId": "ST",
        "placeName": "OTTAWA",
        "streetNameDisplayText": "MCBRIDE ST, OTTAWA"
      }
    ]
  },
  {
    "postal": "K1Z1E9",
    "result": [
      {
        "electoralDistricts": [
          {
            "election": null,
            "id": 78,
            "name": "Ottawa Centre"
          }
        ],
        "pollDivisionIds": [
          10140581
        ],
        "postalCode": "K1Z1E9",
        "streetName": "METROPOLE PRIVATE",
        "streetDirectionId": null,
        "streetTypeId": "BLVD",
        "placeName": "OTTAWA",
        "streetNameDisplayText": "METROPOLE PRIVATE BLVD, OTTAWA"
      },
      {
        "electoralDistricts": [
          {
            "election": null,
            "id": 78,
            "name": "Ottawa Centre"
          }
        ],
        "pollDivisionIds": [
          10140581
        ],
        "postalCode": "K1Z1E9",
        "streetName": "METROPOLE",
        "streetDirectionId": null,
        "streetTypeId": "PVT",
        "placeName": "OTTAWA",
        "streetNameDisplayText": "METROPOLE PVT, OTTAWA"
      }
    ]
  },
  {
    "postal": "K1Z9W7",
    "result": []
  },
  {
    "postal": "K1Z5W6",
    "result": [
      {
        "electoralDistricts": [
          {
            "election": null,
            "id": 78,
            "name": "Ottawa Centre"
          }
        ],
        "pollDivisionIds": [
          10140531
        ],
        "postalCode": "K1Z5W6",
        "streetName": "REMIC",
        "streetDirectionId": null,
        "streetTypeId": "AVE",
        "placeName": "OTTAWA",
        "streetNameDisplayText": "REMIC AVE, OTTAWA"
      }
    ]
  },
  {
    "postal": "K1Z6S6",
    "result": [
      {
        "electoralDistricts": [
          {
            "election": null,
            "id": 78,
            "name": "Ottawa Centre"
          }
        ],
        "pollDivisionIds": [
          10140531
        ],
        "postalCode": "K1Z6S6",
        "streetName": "BLOOMFIELD",
        "streetDirectionId": null,
        "streetTypeId": "AVE",
        "placeName": "OTTAWA",
        "streetNameDisplayText": "BLOOMFIELD AVE, OTTAWA"
      }
    ]
  },
  {
    "postal": "K1Z2P8",
    "result": []
  },
  {
    "postal": "K1Z4P8",
    "result": []
  },
  {
    "postal": "K1Z0V9",
    "result": []
  },
  {
    "postal": "K1Z5Y2",
    "result": [
      {
        "electoralDistricts": [
          {
            "election": null,
            "id": 81,
            "name": "Ottawa West—Nepean"
          }
        ],
        "pollDivisionIds": [
          10140843
        ],
        "postalCode": "K1Z5Y2",
        "streetName": "KIRKWOOD",
        "streetDirectionId": null,
        "streetTypeId": "AVE",
        "placeName": "OTTAWA",
        "streetNameDisplayText": "KIRKWOOD AVE, OTTAWA"
      }
    ]
  },
  {
    "postal": "K1Z7Z7",
    "result": [
      {
        "electoralDistricts": [
          {
            "election": null,
            "id": 78,
            "name": "Ottawa Centre"
          }
        ],
        "pollDivisionIds": [
          10140547
        ],
        "postalCode": "K1Z7Z7",
        "streetName": "SHILLINGTON",
        "streetDirectionId": null,
        "streetTypeId": "AVE",
        "placeName": "OTTAWA",
        "streetNameDisplayText": "SHILLINGTON AVE, OTTAWA"
      }
    ]
  },
  {
    "postal": "K1Z6Y8",
    "result": [
      {
        "electoralDistricts": [
          {
            "election": null,
            "id": 78,
            "name": "Ottawa Centre"
          }
        ],
        "pollDivisionIds": [
          10140539
        ],
        "postalCode": "K1Z6Y8",
        "streetName": "BYRON",
        "streetDirectionId": null,
        "streetTypeId": "AVE",
        "placeName": "OTTAWA",
        "streetNameDisplayText": "BYRON AVE, OTTAWA"
      }
    ]
  },
  {
    "postal": "K1Z2G7",
    "result": []
  },
  {
    "postal": "K1Z8C1",
    "result": [
      {
        "electoralDistricts": [
          {
            "election": null,
            "id": 78,
            "name": "Ottawa Centre"
          }
        ],
        "pollDivisionIds": [
          10140547
        ],
        "postalCode": "K1Z8C1",
        "streetName": "EMPEROR",
        "streetDirectionId": null,
        "streetTypeId": "AVE",
        "placeName": "OTTAWA",
        "streetNameDisplayText": "EMPEROR AVE, OTTAWA"
      }
    ]
  },
  {
    "postal": "K1Z5C5",
    "result": []
  },
  {
    "postal": "K1Z2X8",
    "result": []
  },
  {
    "postal": "K1Z1W5",
    "result": []
  },
  {
    "postal": "K1Z7G0",
    "result": []
  },
  {
    "postal": "K1Z8J8",
    "result": [
      {
        "electoralDistricts": [
          {
            "election": null,
            "id": 78,
            "name": "Ottawa Centre"
          }
        ],
        "pollDivisionIds": [
          10140547
        ],
        "postalCode": "K1Z8J8",
        "streetName": "TRENTON",
        "streetDirectionId": null,
        "streetTypeId": "AVE",
        "placeName": "OTTAWA",
        "streetNameDisplayText": "TRENTON AVE, OTTAWA"
      }
    ]
  },
  {
    "postal": "K1Z3Y0",
    "result": []
  },
  {
    "postal": "K1Z9T7",
    "result": []
  },
  {
    "postal": "K1Z5P4",
    "result": [
      {
        "electoralDistricts": [
          {
            "election": null,
            "id": 78,
            "name": "Ottawa Centre"
          }
        ],
        "pollDivisionIds": [
          10140538
        ],
        "postalCode": "K1Z5P4",
        "streetName": "TWEEDSMUIR",
        "streetDirectionId": null,
        "streetTypeId": "AVE",
        "placeName": "OTTAWA",
        "streetNameDisplayText": "TWEEDSMUIR AVE, OTTAWA"
      }
    ]
  },
  {
    "postal": "K1Z4B0",
    "result": []
  },
  {
    "postal": "K1Z9N8",
    "result": []
  },
  {
    "postal": "K1Z4A7",
    "result": []
  },
  {
    "postal": "K1Z4H9",
    "result": []
  },
  {
    "postal": "K1Z6X1",
    "result": [
      {
        "electoralDistricts": [
          {
            "election": null,
            "id": 78,
            "name": "Ottawa Centre"
          }
        ],
        "pollDivisionIds": [
          10140532
        ],
        "postalCode": "K1Z6X1",
        "streetName": "RICHMOND",
        "streetDirectionId": null,
        "streetTypeId": "RD",
        "placeName": "OTTAWA",
        "streetNameDisplayText": "RICHMOND RD, OTTAWA"
      }
    ]
  },
  {
    "postal": "K1Z9Y7",
    "result": []
  },
  {
    "postal": "K1Z2Y5",
    "result": []
  },
  {
    "postal": "K1Z8L7",
    "result": [
      {
        "electoralDistricts": [
          {
            "election": null,
            "id": 78,
            "name": "Ottawa Centre"
          }
        ],
        "pollDivisionIds": [
          10140539
        ],
        "postalCode": "K1Z8L7",
        "streetName": "IONA",
        "streetDirectionId": null,
        "streetTypeId": "ST",
        "placeName": "OTTAWA",
        "streetNameDisplayText": "IONA ST, OTTAWA"
      }
    ]
  },
  {
    "postal": "K1Z2A8",
    "result": []
  },
  {
    "postal": "K1Z2K9",
    "result": []
  },
  {
    "postal": "K1Z3E5",
    "result": []
  },
  {
    "postal": "K1Z8N6",
    "result": [
      {
        "electoralDistricts": [
          {
            "election": null,
            "id": 78,
            "name": "Ottawa Centre"
          }
        ],
        "pollDivisionIds": [
          10140531
        ],
        "postalCode": "K1Z8N6",
        "streetName": "CHURCHILL",
        "streetDirectionId": "N",
        "streetTypeId": "AVE",
        "placeName": "OTTAWA",
        "streetNameDisplayText": "CHURCHILL AVE N, OTTAWA"
      }
    ]
  },
  {
    "postal": "K1Z8J4",
    "result": [
      {
        "electoralDistricts": [
          {
            "election": null,
            "id": 78,
            "name": "Ottawa Centre"
          }
        ],
        "pollDivisionIds": [
          10140547
        ],
        "postalCode": "K1Z8J4",
        "streetName": "TRENT",
        "streetDirectionId": null,
        "streetTypeId": "ST",
        "placeName": "OTTAWA",
        "streetNameDisplayText": "TRENT ST, OTTAWA"
      }
    ]
  },
  {
    "postal": "K1Z4R7",
    "result": []
  },
  {
    "postal": "K1Z9K1",
    "result": []
  },
  {
    "postal": "K1Z8E1",
    "result": [
      {
        "electoralDistricts": [
          {
            "election": null,
            "id": 81,
            "name": "Ottawa West—Nepean"
          }
        ],
        "pollDivisionIds": [
          10140844
        ],
        "postalCode": "K1Z8E1",
        "streetName": "LEPAGE",
        "streetDirectionId": null,
        "streetTypeId": "AVE",
        "placeName": "OTTAWA",
        "streetNameDisplayText": "LEPAGE AVE, OTTAWA"
      }
    ]
  },
  {
    "postal": "K1Z0R1",
    "result": []
  },
  {
    "postal": "K1Z4J3",
    "result": []
  },
  {
    "postal": "K1Z7E7",
    "result": [
      {
        "electoralDistricts": [
          {
            "election": null,
            "id": 78,
            "name": "Ottawa Centre"
          }
        ],
        "pollDivisionIds": [
          10140539
        ],
        "postalCode": "K1Z7E7",
        "streetName": "BUELL",
        "streetDirectionId": null,
        "streetTypeId": "ST",
        "placeName": "OTTAWA",
        "streetNameDisplayText": "BUELL ST, OTTAWA"
      }
    ]
  },
  {
    "postal": "K1Z0J0",
    "result": []
  },
  {
    "postal": "K1Z7R8",
    "result": [
      {
        "electoralDistricts": [
          {
            "election": null,
            "id": 78,
            "name": "Ottawa Centre"
          }
        ],
        "pollDivisionIds": [
          10140545
        ],
        "postalCode": "K1Z7R8",
        "streetName": "CROWN",
        "streetDirectionId": null,
        "streetTypeId": "CRES",
        "placeName": "OTTAWA",
        "streetNameDisplayText": "CROWN CRES, OTTAWA"
      }
    ]
  },
  {
    "postal": "K1Z9X0",
    "result": []
  },
  {
    "postal": "K1Z7P6",
    "result": [
      {
        "electoralDistricts": [
          {
            "election": null,
            "id": 81,
            "name": "Ottawa West—Nepean"
          }
        ],
        "pollDivisionIds": [
          10140843
        ],
        "postalCode": "K1Z7P6",
        "streetName": "COLDREY",
        "streetDirectionId": null,
        "streetTypeId": "AVE",
        "placeName": "OTTAWA",
        "streetNameDisplayText": "COLDREY AVE, OTTAWA"
      }
    ]
  },
  {
    "postal": "K1Z0R7",
    "result": []
  },
  {
    "postal": "K1Z5W1",
    "result": [
      {
        "electoralDistricts": [
          {
            "election": null,
            "id": 78,
            "name": "Ottawa Centre"
          }
        ],
        "pollDivisionIds": [
          10140531
        ],
        "postalCode": "K1Z5W1",
        "streetName": "LATCHFORD",
        "streetDirectionId": null,
        "streetTypeId": "RD",
        "placeName": "OTTAWA",
        "streetNameDisplayText": "LATCHFORD RD, OTTAWA"
      }
    ]
  },
  {
    "postal": "K1Z0K4",
    "result": []
  },
  {
    "postal": "K1Z7N9",
    "result": [
      {
        "electoralDistricts": [
          {
            "election": null,
            "id": 78,
            "name": "Ottawa Centre"
          }
        ],
        "pollDivisionIds": [
          10140545
        ],
        "postalCode": "K1Z7N9",
        "streetName": "CRERAR",
        "streetDirectionId": null,
        "streetTypeId": "AVE",
        "placeName": "OTTAWA",
        "streetNameDisplayText": "CRERAR AVE, OTTAWA"
      }
    ]
  },
  {
    "postal": "K1Z1N0",
    "result": []
  },
  {
    "postal": "K1Z6P3",
    "result": [
      {
        "electoralDistricts": [
          {
            "election": null,
            "id": 78,
            "name": "Ottawa Centre"
          }
        ],
        "pollDivisionIds": [
          10140545
        ],
        "postalCode": "K1Z6P3",
        "streetName": "FISHER",
        "streetDirectionId": null,
        "streetTypeId": "AVE",
        "placeName": "OTTAWA",
        "streetNameDisplayText": "FISHER AVE, OTTAWA"
      }
    ]
  },
  {
    "postal": "K1Z5A1",
    "result": [
      {
        "electoralDistricts": [
          {
            "election": null,
            "id": 78,
            "name": "Ottawa Centre"
          }
        ],
        "pollDivisionIds": [
          10140537
        ],
        "postalCode": "K1Z5A1",
        "streetName": "CLYDE",
        "streetDirectionId": "N",
        "streetTypeId": "AVE",
        "placeName": "OTTAWA",
        "streetNameDisplayText": "CLYDE AVE N, OTTAWA"
      }
    ]
  },
  {
    "postal": "K1Z9M9",
    "result": []
  },
  {
    "postal": "K1Z7T6",
    "result": [
      {
        "electoralDistricts": [
          {
            "election": null,
            "id": 78,
            "name": "Ottawa Centre"
          }
        ],
        "pollDivisionIds": [
          10140545
        ],
        "postalCode": "K1Z7T6",
        "streetName": "ANNA",
        "streetDirectionId": null,
        "streetTypeId": "AVE",
        "placeName": "OTTAWA",
        "streetNameDisplayText": "ANNA AVE, OTTAWA"
      }
    ]
  },
  {
    "postal": "K1Z3X0",
    "result": []
  },
  {
    "postal": "K1Z2T0",
    "result": []
  },
  {
    "postal": "K1Z5X9",
    "result": [
      {
        "electoralDistricts": [
          {
            "election": null,
            "id": 78,
            "name": "Ottawa Centre"
          }
        ],
        "pollDivisionIds": [
          10140539
        ],
        "postalCode": "K1Z5X9",
        "streetName": "KIRKWOOD",
        "streetDirectionId": null,
        "streetTypeId": "AVE",
        "placeName": "OTTAWA",
        "streetNameDisplayText": "KIRKWOOD AVE, OTTAWA"
      }
    ]
  },
  {
    "postal": "K1Z2R3",
    "result": []
  },
  {
    "postal": "K1Z5N2",
    "result": [
      {
        "electoralDistricts": [
          {
            "election": null,
            "id": 78,
            "name": "Ottawa Centre"
          }
        ],
        "pollDivisionIds": [
          10140538
        ],
        "postalCode": "K1Z5N2",
        "streetName": "ATHLONE",
        "streetDirectionId": "S",
        "streetTypeId": "AVE",
        "placeName": "OTTAWA",
        "streetNameDisplayText": "ATHLONE AVE S, OTTAWA"
      }
    ]
  },
  {
    "postal": "K1Z4Y7",
    "result": []
  },
  {
    "postal": "K1Z7M0",
    "result": []
  },
  {
    "postal": "K1Z8P3",
    "result": [
      {
        "electoralDistricts": [
          {
            "election": null,
            "id": 81,
            "name": "Ottawa West—Nepean"
          }
        ],
        "pollDivisionIds": [
          10140843
        ],
        "postalCode": "K1Z8P3",
        "streetName": "CAVAN",
        "streetDirectionId": null,
        "streetTypeId": "ST",
        "placeName": "OTTAWA",
        "streetNameDisplayText": "CAVAN ST, OTTAWA"
      }
    ]
  },
  {
    "postal": "K1Z3N3",
    "result": []
  },
  {
    "postal": "K1Z7S3",
    "result": [
      {
        "electoralDistricts": [
          {
            "election": null,
            "id": 81,
            "name": "Ottawa West—Nepean"
          }
        ],
        "pollDivisionIds": [
          10140843
        ],
        "postalCode": "K1Z7S3",
        "streetName": "LAPERRIERE",
        "streetDirectionId": null,
        "streetTypeId": "AVE",
        "placeName": "OTTAWA",
        "streetNameDisplayText": "LAPERRIERE AVE, OTTAWA"
      }
    ]
  },
  {
    "postal": "K1Z3V9",
    "result": []
  },
  {
    "postal": "K1Z9N7",
    "result": []
  },
  {
    "postal": "K1Z0G4",
    "result": []
  },
  {
    "postal": "K1Z2E2",
    "result": []
  },
  {
    "postal": "K1Z7W8",
    "result": [
      {
        "electoralDistricts": [
          {
            "election": null,
            "id": 78,
            "name": "Ottawa Centre"
          }
        ],
        "pollDivisionIds": [
          10140545
        ],
        "postalCode": "K1Z7W8",
        "streetName": "GENERAL",
        "streetDirectionId": null,
        "streetTypeId": "AVE",
        "placeName": "OTTAWA",
        "streetNameDisplayText": "GENERAL AVE, OTTAWA"
      }
    ]
  },
  {
    "postal": "K1Z7M5",
    "result": []
  },
  {
    "postal": "K1Z5W8",
    "result": [
      {
        "electoralDistricts": [
          {
            "election": null,
            "id": 78,
            "name": "Ottawa Centre"
          }
        ],
        "pollDivisionIds": [
          10140539
        ],
        "postalCode": "K1Z5W8",
        "streetName": "KIRKWOOD",
        "streetDirectionId": null,
        "streetTypeId": "AVE",
        "placeName": "OTTAWA",
        "streetNameDisplayText": "KIRKWOOD AVE, OTTAWA"
      }
    ]
  },
  {
    "postal": "K1Z5E5",
    "result": [
      {
        "electoralDistricts": [
          {
            "election": null,
            "id": 78,
            "name": "Ottawa Centre"
          }
        ],
        "pollDivisionIds": [
          10140538
        ],
        "postalCode": "K1Z5E5",
        "streetName": "CHURCHILL",
        "streetDirectionId": "N",
        "streetTypeId": "AVE",
        "placeName": "OTTAWA",
        "streetNameDisplayText": "CHURCHILL AVE N, OTTAWA"
      }
    ]
  },
  {
    "postal": "K1Z1P9",
    "result": []
  },
  {
    "postal": "K1Z8V8",
    "result": []
  },
  {
    "postal": "K1Z9G8",
    "result": []
  },
  {
    "postal": "K1Z8H9",
    "result": [
      {
        "electoralDistricts": [
          {
            "election": null,
            "id": 81,
            "name": "Ottawa West—Nepean"
          }
        ],
        "pollDivisionIds": [
          10140844
        ],
        "postalCode": "K1Z8H9",
        "streetName": "ROSENTHAL",
        "streetDirectionId": null,
        "streetTypeId": "AVE",
        "placeName": "OTTAWA",
        "streetNameDisplayText": "ROSENTHAL AVE, OTTAWA"
      }
    ]
  },
  {
    "postal": "K1Z1Z1",
    "result": []
  },
  {
    "postal": "K1Z8M3",
    "result": [
      {
        "electoralDistricts": [
          {
            "election": null,
            "id": 81,
            "name": "Ottawa West—Nepean"
          },
          {
            "election": null,
            "id": 78,
            "name": "Ottawa Centre"
          }
        ],
        "pollDivisionIds": [
          10140843,
          10140583,
          10140539
        ],
        "postalCode": "K1Z8M3",
        "streetName": "KIRKWOOD",
        "streetDirectionId": null,
        "streetTypeId": "AVE",
        "placeName": "OTTAWA",
        "streetNameDisplayText": "KIRKWOOD AVE, OTTAWA"
      }
    ]
  },
  {
    "postal": "K1Z5H6",
    "result": [
      {
        "electoralDistricts": [
          {
            "election": null,
            "id": 78,
            "name": "Ottawa Centre"
          }
        ],
        "pollDivisionIds": [
          10140532
        ],
        "postalCode": "K1Z5H6",
        "streetName": "WINONA",
        "streetDirectionId": null,
        "streetTypeId": "AVE",
        "placeName": "OTTAWA",
        "streetNameDisplayText": "WINONA AVE, OTTAWA"
      }
    ]
  },
  {
    "postal": "K1Z7W7",
    "result": [
      {
        "electoralDistricts": [
          {
            "election": null,
            "id": 81,
            "name": "Ottawa West—Nepean"
          }
        ],
        "pollDivisionIds": [
          10140844
        ],
        "postalCode": "K1Z7W7",
        "streetName": "WOODWARD",
        "streetDirectionId": null,
        "streetTypeId": "AVE",
        "placeName": "OTTAWA",
        "streetNameDisplayText": "WOODWARD AVE, OTTAWA"
      }
    ]
  },
  {
    "postal": "K1Z4L0",
    "result": []
  },
  {
    "postal": "K1Z2N1",
    "result": []
  },
  {
    "postal": "K1Z2H4",
    "result": []
  },
  {
    "postal": "K1Z5C8",
    "result": [
      {
        "electoralDistricts": [
          {
            "election": null,
            "id": 78,
            "name": "Ottawa Centre"
          }
        ],
        "pollDivisionIds": [
          10140532
        ],
        "postalCode": "K1Z5C8",
        "streetName": "CHURCHILL",
        "streetDirectionId": "N",
        "streetTypeId": "AVE",
        "placeName": "OTTAWA",
        "streetNameDisplayText": "CHURCHILL AVE N, OTTAWA"
      }
    ]
  },
  {
    "postal": "K1Z8B0",
    "result": []
  },
  {
    "postal": "K1Z1T4",
    "result": []
  },
  {
    "postal": "K1Z7N7",
    "result": [
      {
        "electoralDistricts": [
          {
            "election": null,
            "id": 78,
            "name": "Ottawa Centre"
          }
        ],
        "pollDivisionIds": [
          10140545
        ],
        "postalCode": "K1Z7N7",
        "streetName": "HARROLD",
        "streetDirectionId": null,
        "streetTypeId": "PL",
        "placeName": "OTTAWA",
        "streetNameDisplayText": "HARROLD PL, OTTAWA"
      }
    ]
  },
  {
    "postal": "K1Z4L3",
    "result": []
  },
  {
    "postal": "K1Z2N2",
    "result": []
  },
  {
    "postal": "K1Z4N8",
    "result": []
  },
  {
    "postal": "K1Z3M5",
    "result": []
  },
  {
    "postal": "K1Z6H7",
    "result": [
      {
        "electoralDistricts": [
          {
            "election": null,
            "id": 78,
            "name": "Ottawa Centre"
          }
        ],
        "pollDivisionIds": [
          10140547
        ],
        "postalCode": "K1Z6H7",
        "streetName": "SILVER",
        "streetDirectionId": null,
        "streetTypeId": "ST",
        "placeName": "OTTAWA",
        "streetNameDisplayText": "SILVER ST, OTTAWA"
      }
    ]
  },
  {
    "postal": "K1Z8Y8",
    "result": []
  },
  {
    "postal": "K1Z5R9",
    "result": [
      {
        "electoralDistricts": [
          {
            "election": null,
            "id": 78,
            "name": "Ottawa Centre"
          }
        ],
        "pollDivisionIds": [
          10140539
        ],
        "postalCode": "K1Z5R9",
        "streetName": "BROADHEAD",
        "streetDirectionId": null,
        "streetTypeId": "AVE",
        "placeName": "OTTAWA",
        "streetNameDisplayText": "BROADHEAD AVE, OTTAWA"
      }
    ]
  },
  {
    "postal": "K1Z8G3",
    "result": [
      {
        "electoralDistricts": [
          {
            "election": null,
            "id": 78,
            "name": "Ottawa Centre"
          }
        ],
        "pollDivisionIds": [
          10140547
        ],
        "postalCode": "K1Z8G3",
        "streetName": "SUMMERVILLE",
        "streetDirectionId": null,
        "streetTypeId": "AVE",
        "placeName": "OTTAWA",
        "streetNameDisplayText": "SUMMERVILLE AVE, OTTAWA"
      }
    ]
  },
  {
    "postal": "K1Z4N7",
    "result": []
  },
  {
    "postal": "K1Z0B9",
    "result": []
  },
  {
    "postal": "K1Z9K7",
    "result": []
  },
  {
    "postal": "K1Z9K9",
    "result": []
  },
  {
    "postal": "K1Z3Z2",
    "result": []
  },
  {
    "postal": "K1Z6W7",
    "result": [
      {
        "electoralDistricts": [
          {
            "election": null,
            "id": 78,
            "name": "Ottawa Centre"
          }
        ],
        "pollDivisionIds": [
          10140532
        ],
        "postalCode": "K1Z6W7",
        "streetName": "RICHMOND",
        "streetDirectionId": null,
        "streetTypeId": "RD",
        "placeName": "OTTAWA",
        "streetNameDisplayText": "RICHMOND RD, OTTAWA"
      }
    ]
  },
  {
    "postal": "K1Z0P1",
    "result": []
  },
  {
    "postal": "K1Z3A0",
    "result": []
  },
  {
    "postal": "K1Z8L9",
    "result": [
      {
        "electoralDistricts": [
          {
            "election": null,
            "id": 81,
            "name": "Ottawa West—Nepean"
          }
        ],
        "pollDivisionIds": [
          10140844
        ],
        "postalCode": "K1Z8L9",
        "streetName": "CALDWELL",
        "streetDirectionId": null,
        "streetTypeId": "AVE",
        "placeName": "OTTAWA",
        "streetNameDisplayText": "CALDWELL AVE, OTTAWA"
      }
    ]
  },
  {
    "postal": "K1Z6X0",
    "result": []
  },
  {
    "postal": "K1Z3E9",
    "result": []
  },
  {
    "postal": "K1Z0S5",
    "result": []
  },
  {
    "postal": "K1Z1A2",
    "result": []
  },
  {
    "postal": "K1Z5V8",
    "result": [
      {
        "electoralDistricts": [
          {
            "election": null,
            "id": 78,
            "name": "Ottawa Centre"
          }
        ],
        "pollDivisionIds": [
          10140539
        ],
        "postalCode": "K1Z5V8",
        "streetName": "LADEROUTE",
        "streetDirectionId": null,
        "streetTypeId": "AVE",
        "placeName": "OTTAWA",
        "streetNameDisplayText": "LADEROUTE AVE, OTTAWA"
      }
    ]
  },
  {
    "postal": "K1Z8C5",
    "result": [
      {
        "electoralDistricts": [
          {
            "election": null,
            "id": 78,
            "name": "Ottawa Centre"
          }
        ],
        "pollDivisionIds": [
          10140547
        ],
        "postalCode": "K1Z8C5",
        "streetName": "EMPEROR",
        "streetDirectionId": null,
        "streetTypeId": "AVE",
        "placeName": "OTTAWA",
        "streetNameDisplayText": "EMPEROR AVE, OTTAWA"
      }
    ]
  },
  {
    "postal": "K1Z6N0",
    "result": []
  },
  {
    "postal": "K1Z9E6",
    "result": []
  },
  {
    "postal": "K1Z5J7",
    "result": [
      {
        "electoralDistricts": [
          {
            "election": null,
            "id": 78,
            "name": "Ottawa Centre"
          }
        ],
        "pollDivisionIds": [
          10140538
        ],
        "postalCode": "K1Z5J7",
        "streetName": "PARNELL",
        "streetDirectionId": null,
        "streetTypeId": "AVE",
        "placeName": "OTTAWA",
        "streetNameDisplayText": "PARNELL AVE, OTTAWA"
      }
    ]
  },
  {
    "postal": "K1Z2R2",
    "result": []
  },
  {
    "postal": "K1Z0P5",
    "result": []
  },
  {
    "postal": "K1Z5A7",
    "result": [
      {
        "electoralDistricts": [
          {
            "election": null,
            "id": 81,
            "name": "Ottawa West—Nepean"
          }
        ],
        "pollDivisionIds": [
          10140844
        ],
        "postalCode": "K1Z5A7",
        "streetName": "CALDWELL",
        "streetDirectionId": null,
        "streetTypeId": "AVE",
        "placeName": "OTTAWA",
        "streetNameDisplayText": "CALDWELL AVE, OTTAWA"
      },
      {
        "electoralDistricts": [
          {
            "election": null,
            "id": 81,
            "name": "Ottawa West—Nepean"
          }
        ],
        "pollDivisionIds": [
          10140844
        ],
        "postalCode": "K1Z5A7",
        "streetName": "CALDWELL",
        "streetDirectionId": null,
        "streetTypeId": "AVE",
        "placeName": "OTTAWA WEST NEPEAN",
        "streetNameDisplayText": "CALDWELL AVE, OTTAWA WEST NEPEAN"
      }
    ]
  },
  {
    "postal": "K1Z1G1",
    "result": [
      {
        "electoralDistricts": [
          {
            "election": null,
            "id": 78,
            "name": "Ottawa Centre"
          }
        ],
        "pollDivisionIds": [
          10140531
        ],
        "postalCode": "K1Z1G1",
        "streetName": "METROPOLE PRIVATE",
        "streetDirectionId": null,
        "streetTypeId": "BLVD",
        "placeName": "OTTAWA",
        "streetNameDisplayText": "METROPOLE PRIVATE BLVD, OTTAWA"
      },
      {
        "electoralDistricts": [
          {
            "election": null,
            "id": 78,
            "name": "Ottawa Centre"
          }
        ],
        "pollDivisionIds": [
          10140531
        ],
        "postalCode": "K1Z1G1",
        "streetName": "METROPOLE",
        "streetDirectionId": null,
        "streetTypeId": "PVT",
        "placeName": "OTTAWA",
        "streetNameDisplayText": "METROPOLE PVT, OTTAWA"
      }
    ]
  },
  {
    "postal": "K1Z9R6",
    "result": []
  },
  {
    "postal": "K1Z4Z9",
    "result": []
  },
  {
    "postal": "K1Z1V5",
    "result": []
  },
  {
    "postal": "K1Z9Y5",
    "result": []
  },
  {
    "postal": "K1Z1P2",
    "result": []
  },
  {
    "postal": "K1Z5X0",
    "result": []
  },
  {
    "postal": "K1Z7B8",
    "result": [
      {
        "electoralDistricts": [
          {
            "election": null,
            "id": 78,
            "name": "Ottawa Centre"
          }
        ],
        "pollDivisionIds": [
          10140539
        ],
        "postalCode": "K1Z7B8",
        "streetName": "IONA",
        "streetDirectionId": null,
        "streetTypeId": "ST",
        "placeName": "OTTAWA",
        "streetNameDisplayText": "IONA ST, OTTAWA"
      }
    ]
  },
  {
    "postal": "K1Z0C6",
    "result": []
  },
  {
    "postal": "K1Z6G1",
    "result": [
      {
        "electoralDistricts": [
          {
            "election": null,
            "id": 78,
            "name": "Ottawa Centre"
          }
        ],
        "pollDivisionIds": [
          10140547
        ],
        "postalCode": "K1Z6G1",
        "streetName": "PRINCE",
        "streetDirectionId": null,
        "streetTypeId": "ST",
        "placeName": "OTTAWA",
        "streetNameDisplayText": "PRINCE ST, OTTAWA"
      }
    ]
  },
  {
    "postal": "K1Z3K3",
    "result": []
  },
  {
    "postal": "K1Z9R0",
    "result": []
  },
  {
    "postal": "K1Z4R8",
    "result": []
  },
  {
    "postal": "K1Z5P9",
    "result": [
      {
        "electoralDistricts": [
          {
            "election": null,
            "id": 78,
            "name": "Ottawa Centre"
          }
        ],
        "pollDivisionIds": [
          10140538
        ],
        "postalCode": "K1Z5P9",
        "streetName": "TWEEDSMUIR",
        "streetDirectionId": null,
        "streetTypeId": "AVE",
        "placeName": "OTTAWA",
        "streetNameDisplayText": "TWEEDSMUIR AVE, OTTAWA"
      }
    ]
  },
  {
    "postal": "K1Z8N4",
    "result": [
      {
        "electoralDistricts": [
          {
            "election": null,
            "id": 81,
            "name": "Ottawa West—Nepean"
          }
        ],
        "pollDivisionIds": [
          10140843,
          10140844
        ],
        "postalCode": "K1Z8N4",
        "streetName": "LEPAGE",
        "streetDirectionId": null,
        "streetTypeId": "AVE",
        "placeName": "OTTAWA",
        "streetNameDisplayText": "LEPAGE AVE, OTTAWA"
      }
    ]
  },
  {
    "postal": "K1Z8H4",
    "result": [
      {
        "electoralDistricts": [
          {
            "election": null,
            "id": 81,
            "name": "Ottawa West—Nepean"
          }
        ],
        "pollDivisionIds": [
          10140844
        ],
        "postalCode": "K1Z8H4",
        "streetName": "MORISSET",
        "streetDirectionId": null,
        "streetTypeId": "AVE",
        "placeName": "OTTAWA",
        "streetNameDisplayText": "MORISSET AVE, OTTAWA"
      }
    ]
  },
  {
    "postal": "K1Z4V1",
    "result": []
  },
  {
    "postal": "K1Z1K5",
    "result": []
  },
  {
    "postal": "K1Z1Z5",
    "result": []
  },
  {
    "postal": "K1Z9L9",
    "result": []
  },
  {
    "postal": "K1Z5L2",
    "result": [
      {
        "electoralDistricts": [
          {
            "election": null,
            "id": 78,
            "name": "Ottawa Centre"
          }
        ],
        "pollDivisionIds": [
          10140538
        ],
        "postalCode": "K1Z5L2",
        "streetName": "EVERED",
        "streetDirectionId": null,
        "streetTypeId": "AVE",
        "placeName": "OTTAWA",
        "streetNameDisplayText": "EVERED AVE, OTTAWA"
      }
    ]
  },
  {
    "postal": "K1Z0M2",
    "result": []
  },
  {
    "postal": "K1Z1K8",
    "result": []
  },
  {
    "postal": "K1Z3M7",
    "result": []
  },
  {
    "postal": "K1Z1B2",
    "result": []
  },
  {
    "postal": "K1Z0H9",
    "result": []
  },
  {
    "postal": "K1Z8M4",
    "result": [
      {
        "electoralDistricts": [
          {
            "election": null,
            "id": 81,
            "name": "Ottawa West—Nepean"
          }
        ],
        "pollDivisionIds": [
          10140843
        ],
        "postalCode": "K1Z8M4",
        "streetName": "ADDISON",
        "streetDirectionId": null,
        "streetTypeId": "ST",
        "placeName": "OTTAWA",
        "streetNameDisplayText": "ADDISON ST, OTTAWA"
      }
    ]
  },
  {
    "postal": "K1Z2M5",
    "result": []
  },
  {
    "postal": "K1Z0T9",
    "result": []
  },
  {
    "postal": "K1Z3P1",
    "result": []
  },
  {
    "postal": "K1Z1R6",
    "result": []
  },
  {
    "postal": "K1Z9V5",
    "result": []
  },
  {
    "postal": "K1Z9T0",
    "result": []
  },
  {
    "postal": "K1Z0A9",
    "result": []
  },
  {
    "postal": "K1Z1M3",
    "result": []
  },
  {
    "postal": "K1Z1W8",
    "result": []
  },
  {
    "postal": "K1Z9J1",
    "result": []
  },
  {
    "postal": "K1Z8N5",
    "result": [
      {
        "electoralDistricts": [
          {
            "election": null,
            "id": 81,
            "name": "Ottawa West—Nepean"
          }
        ],
        "pollDivisionIds": [
          10140843
        ],
        "postalCode": "K1Z8N5",
        "streetName": "LEPAGE",
        "streetDirectionId": null,
        "streetTypeId": "AVE",
        "placeName": "OTTAWA",
        "streetNameDisplayText": "LEPAGE AVE, OTTAWA"
      }
    ]
  },
  {
    "postal": "K1Z5X1",
    "result": [
      {
        "electoralDistricts": [
          {
            "election": null,
            "id": 78,
            "name": "Ottawa Centre"
          }
        ],
        "pollDivisionIds": [
          10140539
        ],
        "postalCode": "K1Z5X1",
        "streetName": "KIRKWOOD",
        "streetDirectionId": null,
        "streetTypeId": "AVE",
        "placeName": "OTTAWA",
        "streetNameDisplayText": "KIRKWOOD AVE, OTTAWA"
      }
    ]
  },
  {
    "postal": "K1Z6S2",
    "result": [
      {
        "electoralDistricts": [
          {
            "election": null,
            "id": 78,
            "name": "Ottawa Centre"
          }
        ],
        "pollDivisionIds": [
          10140531
        ],
        "postalCode": "K1Z6S2",
        "streetName": "CLEARVIEW",
        "streetDirectionId": null,
        "streetTypeId": "AVE",
        "placeName": "OTTAWA",
        "streetNameDisplayText": "CLEARVIEW AVE, OTTAWA"
      }
    ]
  },
  {
    "postal": "K1Z2A2",
    "result": []
  },
  {
    "postal": "K1Z6A6",
    "result": [
      {
        "electoralDistricts": [
          {
            "election": null,
            "id": 78,
            "name": "Ottawa Centre"
          }
        ],
        "pollDivisionIds": [
          10140547
        ],
        "postalCode": "K1Z6A6",
        "streetName": "MERIVALE",
        "streetDirectionId": null,
        "streetTypeId": "RD",
        "placeName": "OTTAWA",
        "streetNameDisplayText": "MERIVALE RD, OTTAWA"
      }
    ]
  },
  {
    "postal": "K1Z0S3",
    "result": []
  },
  {
    "postal": "K1Z3E7",
    "result": []
  },
  {
    "postal": "K1Z5R7",
    "result": [
      {
        "electoralDistricts": [
          {
            "election": null,
            "id": 78,
            "name": "Ottawa Centre"
          }
        ],
        "pollDivisionIds": [
          10140589
        ],
        "postalCode": "K1Z5R7",
        "streetName": "FISHER",
        "streetDirectionId": null,
        "streetTypeId": "AVE",
        "placeName": "OTTAWA",
        "streetNameDisplayText": "FISHER AVE, OTTAWA"
      }
    ]
  },
  {
    "postal": "K1Z3R6",
    "result": []
  },
  {
    "postal": "K1Z6K4",
    "result": [
      {
        "electoralDistricts": [
          {
            "election": null,
            "id": 78,
            "name": "Ottawa Centre"
          }
        ],
        "pollDivisionIds": [
          10140547
        ],
        "postalCode": "K1Z6K4",
        "streetName": "HOOPER",
        "streetDirectionId": null,
        "streetTypeId": "ST",
        "placeName": "OTTAWA",
        "streetNameDisplayText": "HOOPER ST, OTTAWA"
      }
    ]
  },
  {
    "postal": "K1Z2W5",
    "result": []
  },
  {
    "postal": "K1Z8W4",
    "result": []
  },
  {
    "postal": "K1Z9C2",
    "result": []
  },
  {
    "postal": "K1Z2C0",
    "result": []
  },
  {
    "postal": "K1Z0E1",
    "result": []
  },
  {
    "postal": "K1Z1K9",
    "result": []
  },
  {
    "postal": "K1Z1G7",
    "result": []
  },
  {
    "postal": "K1Z4E9",
    "result": []
  },
  {
    "postal": "K1Z9P0",
    "result": []
  },
  {
    "postal": "K1Z5H3",
    "result": [
      {
        "electoralDistricts": [
          {
            "election": null,
            "id": 78,
            "name": "Ottawa Centre"
          }
        ],
        "pollDivisionIds": [
          10140532
        ],
        "postalCode": "K1Z5H3",
        "streetName": "WINONA",
        "streetDirectionId": null,
        "streetTypeId": "AVE",
        "placeName": "OTTAWA",
        "streetNameDisplayText": "WINONA AVE, OTTAWA"
      }
    ]
  },
  {
    "postal": "K1Z9X6",
    "result": []
  },
  {
    "postal": "K1Z5N7",
    "result": [
      {
        "electoralDistricts": [
          {
            "election": null,
            "id": 78,
            "name": "Ottawa Centre"
          }
        ],
        "pollDivisionIds": [
          10140534
        ],
        "postalCode": "K1Z5N7",
        "streetName": "TWEEDSMUIR",
        "streetDirectionId": null,
        "streetTypeId": "AVE",
        "placeName": "OTTAWA",
        "streetNameDisplayText": "TWEEDSMUIR AVE, OTTAWA"
      }
    ]
  },
  {
    "postal": "K1Z5A6",
    "result": [
      {
        "electoralDistricts": [
          {
            "election": null,
            "id": 81,
            "name": "Ottawa West—Nepean"
          }
        ],
        "pollDivisionIds": [
          10140843,
          10140844
        ],
        "postalCode": "K1Z5A6",
        "streetName": "CLYDE",
        "streetDirectionId": "N",
        "streetTypeId": "AVE",
        "placeName": "OTTAWA",
        "streetNameDisplayText": "CLYDE AVE N, OTTAWA"
      }
    ]
  },
  {
    "postal": "K1Z4M0",
    "result": []
  },
  {
    "postal": "K1Z3V6",
    "result": []
  },
  {
    "postal": "K1Z1L7",
    "result": []
  },
  {
    "postal": "K1Z2P9",
    "result": []
  },
  {
    "postal": "K1Z5T4",
    "result": [
      {
        "electoralDistricts": [
          {
            "election": null,
            "id": 81,
            "name": "Ottawa West—Nepean"
          }
        ],
        "pollDivisionIds": [
          10140843
        ],
        "postalCode": "K1Z5T4",
        "streetName": "CAVAN",
        "streetDirectionId": null,
        "streetTypeId": "ST",
        "placeName": "OTTAWA",
        "streetNameDisplayText": "CAVAN ST, OTTAWA"
      }
    ]
  },
  {
    "postal": "K1Z5Z1",
    "result": [
      {
        "electoralDistricts": [
          {
            "election": null,
            "id": 81,
            "name": "Ottawa West—Nepean"
          }
        ],
        "pollDivisionIds": [
          10140843
        ],
        "postalCode": "K1Z5Z1",
        "streetName": "KIRKWOOD",
        "streetDirectionId": null,
        "streetTypeId": "AVE",
        "placeName": "OTTAWA",
        "streetNameDisplayText": "KIRKWOOD AVE, OTTAWA"
      }
    ]
  },
  {
    "postal": "K1Z2X0",
    "result": []
  },
  {
    "postal": "K1Z6Z2",
    "result": [
      {
        "electoralDistricts": [
          {
            "election": null,
            "id": 78,
            "name": "Ottawa Centre"
          }
        ],
        "pollDivisionIds": [
          10140539,
          10140534
        ],
        "postalCode": "K1Z6Z2",
        "streetName": "BYRON",
        "streetDirectionId": null,
        "streetTypeId": "AVE",
        "placeName": "OTTAWA",
        "streetNameDisplayText": "BYRON AVE, OTTAWA"
      }
    ]
  },
  {
    "postal": "K1Z0E0",
    "result": []
  },
  {
    "postal": "K1Z3Z5",
    "result": []
  },
  {
    "postal": "K1Z8H3",
    "result": [
      {
        "electoralDistricts": [
          {
            "election": null,
            "id": 81,
            "name": "Ottawa West—Nepean"
          }
        ],
        "pollDivisionIds": [
          10140844
        ],
        "postalCode": "K1Z8H3",
        "streetName": "MORISSET",
        "streetDirectionId": null,
        "streetTypeId": "AVE",
        "placeName": "OTTAWA",
        "streetNameDisplayText": "MORISSET AVE, OTTAWA"
      }
    ]
  },
  {
    "postal": "K1Z7S6",
    "result": [
      {
        "electoralDistricts": [
          {
            "election": null,
            "id": 81,
            "name": "Ottawa West—Nepean"
          }
        ],
        "pollDivisionIds": [
          10140843
        ],
        "postalCode": "K1Z7S6",
        "streetName": "LAPERRIERE",
        "streetDirectionId": null,
        "streetTypeId": "AVE",
        "placeName": "OTTAWA",
        "streetNameDisplayText": "LAPERRIERE AVE, OTTAWA"
      }
    ]
  },
  {
    "postal": "K1Z4C1",
    "result": []
  },
  {
    "postal": "K1Z3K2",
    "result": []
  },
  {
    "postal": "K1Z1Y5",
    "result": []
  },
  {
    "postal": "K1Z6P6",
    "result": [
      {
        "electoralDistricts": [
          {
            "election": null,
            "id": 78,
            "name": "Ottawa Centre"
          }
        ],
        "pollDivisionIds": [
          10140547
        ],
        "postalCode": "K1Z6P6",
        "streetName": "FISHER",
        "streetDirectionId": null,
        "streetTypeId": "AVE",
        "placeName": "OTTAWA",
        "streetNameDisplayText": "FISHER AVE, OTTAWA"
      }
    ]
  },
  {
    "postal": "K1Z3N9",
    "result": []
  },
  {
    "postal": "K1Z3W2",
    "result": []
  },
  {
    "postal": "K1Z6H8",
    "result": [
      {
        "electoralDistricts": [
          {
            "election": null,
            "id": 78,
            "name": "Ottawa Centre"
          }
        ],
        "pollDivisionIds": [
          10140547
        ],
        "postalCode": "K1Z6H8",
        "streetName": "SILVER",
        "streetDirectionId": null,
        "streetTypeId": "ST",
        "placeName": "OTTAWA",
        "streetNameDisplayText": "SILVER ST, OTTAWA"
      }
    ]
  },
  {
    "postal": "K1Z9T3",
    "result": []
  },
  {
    "postal": "K1Z5L9",
    "result": [
      {
        "electoralDistricts": [
          {
            "election": null,
            "id": 81,
            "name": "Ottawa West—Nepean"
          }
        ],
        "pollDivisionIds": [
          10140843
        ],
        "postalCode": "K1Z5L9",
        "streetName": "LADY ELLEN",
        "streetDirectionId": null,
        "streetTypeId": "PL",
        "placeName": "OTTAWA",
        "streetNameDisplayText": "LADY ELLEN PL, OTTAWA"
      }
    ]
  },
  {
    "postal": "K1Z7X7",
    "result": [
      {
        "electoralDistricts": [
          {
            "election": null,
            "id": 81,
            "name": "Ottawa West—Nepean"
          }
        ],
        "pollDivisionIds": [
          10140843
        ],
        "postalCode": "K1Z7X7",
        "streetName": "LAROSE",
        "streetDirectionId": null,
        "streetTypeId": "AVE",
        "placeName": "OTTAWA",
        "streetNameDisplayText": "LAROSE AVE, OTTAWA"
      }
    ]
  },
  {
    "postal": "K1Z3J5",
    "result": []
  },
  {
    "postal": "K1Z4J5",
    "result": []
  },
  {
    "postal": "K1Z6J2",
    "result": [
      {
        "electoralDistricts": [
          {
            "election": null,
            "id": 78,
            "name": "Ottawa Centre"
          }
        ],
        "pollDivisionIds": [
          10140547
        ],
        "postalCode": "K1Z6J2",
        "streetName": "SILVER",
        "streetDirectionId": null,
        "streetTypeId": "ST",
        "placeName": "OTTAWA",
        "streetNameDisplayText": "SILVER ST, OTTAWA"
      }
    ]
  },
  {
    "postal": "K1Z5V6",
    "result": [
      {
        "electoralDistricts": [
          {
            "election": null,
            "id": 78,
            "name": "Ottawa Centre"
          }
        ],
        "pollDivisionIds": [
          10140539
        ],
        "postalCode": "K1Z5V6",
        "streetName": "DAWSON",
        "streetDirectionId": null,
        "streetTypeId": "AVE",
        "placeName": "OTTAWA",
        "streetNameDisplayText": "DAWSON AVE, OTTAWA"
      }
    ]
  },
  {
    "postal": "K1Z3N2",
    "result": []
  },
  {
    "postal": "K1Z3B1",
    "result": []
  },
  {
    "postal": "K1Z8B5",
    "result": [
      {
        "electoralDistricts": [
          {
            "election": null,
            "id": 81,
            "name": "Ottawa West—Nepean"
          }
        ],
        "pollDivisionIds": [
          10140844
        ],
        "postalCode": "K1Z8B5",
        "streetName": "CHATELAIN",
        "streetDirectionId": null,
        "streetTypeId": "AVE",
        "placeName": "OTTAWA",
        "streetNameDisplayText": "CHATELAIN AVE, OTTAWA"
      }
    ]
  },
  {
    "postal": "K1Z0K1",
    "result": []
  },
  {
    "postal": "K1Z7M7",
    "result": [
      {
        "electoralDistricts": [
          {
            "election": null,
            "id": 78,
            "name": "Ottawa Centre"
          }
        ],
        "pollDivisionIds": [
          10140545
        ],
        "postalCode": "K1Z7M7",
        "streetName": "VISCOUNT",
        "streetDirectionId": null,
        "streetTypeId": "AVE",
        "placeName": "OTTAWA",
        "streetNameDisplayText": "VISCOUNT AVE, OTTAWA"
      }
    ]
  },
  {
    "postal": "K1Z2M2",
    "result": []
  },
  {
    "postal": "K1Z9N3",
    "result": []
  },
  {
    "postal": "K1Z4Y8",
    "result": []
  },
  {
    "postal": "K1Z3V7",
    "result": []
  },
  {
    "postal": "K1Z8Z1",
    "result": []
  },
  {
    "postal": "K1Z7B3",
    "result": [
      {
        "electoralDistricts": [
          {
            "election": null,
            "id": 78,
            "name": "Ottawa Centre"
          }
        ],
        "pollDivisionIds": [
          10140539
        ],
        "postalCode": "K1Z7B3",
        "streetName": "NORA",
        "streetDirectionId": null,
        "streetTypeId": "ST",
        "placeName": "OTTAWA",
        "streetNameDisplayText": "NORA ST, OTTAWA"
      }
    ]
  },
  {
    "postal": "K1Z3A8",
    "result": []
  },
  {
    "postal": "K1Z7V5",
    "result": [
      {
        "electoralDistricts": [
          {
            "election": null,
            "id": 78,
            "name": "Ottawa Centre"
          }
        ],
        "pollDivisionIds": [
          10140547
        ],
        "postalCode": "K1Z7V5",
        "streetName": "ANNA",
        "streetDirectionId": null,
        "streetTypeId": "AVE",
        "placeName": "OTTAWA",
        "streetNameDisplayText": "ANNA AVE, OTTAWA"
      }
    ]
  },
  {
    "postal": "K1Z2T2",
    "result": []
  },
  {
    "postal": "K1Z6L3",
    "result": [
      {
        "electoralDistricts": [
          {
            "election": null,
            "id": 78,
            "name": "Ottawa Centre"
          }
        ],
        "pollDivisionIds": [
          10140547
        ],
        "postalCode": "K1Z6L3",
        "streetName": "HOLLINGTON",
        "streetDirectionId": null,
        "streetTypeId": "ST",
        "placeName": "OTTAWA",
        "streetNameDisplayText": "HOLLINGTON ST, OTTAWA"
      }
    ]
  },
  {
    "postal": "K1Z0L2",
    "result": []
  },
  {
    "postal": "K1Z5Y8",
    "result": [
      {
        "electoralDistricts": [
          {
            "election": null,
            "id": 81,
            "name": "Ottawa West—Nepean"
          }
        ],
        "pollDivisionIds": [
          10140843
        ],
        "postalCode": "K1Z5Y8",
        "streetName": "KIRKWOOD",
        "streetDirectionId": null,
        "streetTypeId": "AVE",
        "placeName": "OTTAWA",
        "streetNameDisplayText": "KIRKWOOD AVE, OTTAWA"
      }
    ]
  },
  {
    "postal": "K1Z0B8",
    "result": [
      {
        "electoralDistricts": [
          {
            "election": null,
            "id": 78,
            "name": "Ottawa Centre"
          }
        ],
        "pollDivisionIds": [
          10140539
        ],
        "postalCode": "K1Z0B8",
        "streetName": "BYRON",
        "streetDirectionId": null,
        "streetTypeId": "AVE",
        "placeName": "OTTAWA",
        "streetNameDisplayText": "BYRON AVE, OTTAWA"
      }
    ]
  },
  {
    "postal": "K1Z6R5",
    "result": [
      {
        "electoralDistricts": [
          {
            "election": null,
            "id": 78,
            "name": "Ottawa Centre"
          }
        ],
        "pollDivisionIds": [
          10140531
        ],
        "postalCode": "K1Z6R5",
        "streetName": "LANARK",
        "streetDirectionId": null,
        "streetTypeId": "AVE",
        "placeName": "OTTAWA",
        "streetNameDisplayText": "LANARK AVE, OTTAWA"
      }
    ]
  },
  {
    "postal": "K1Z8W6",
    "result": []
  },
  {
    "postal": "K1Z8G6",
    "result": [
      {
        "electoralDistricts": [
          {
            "election": null,
            "id": 78,
            "name": "Ottawa Centre"
          }
        ],
        "pollDivisionIds": [
          10140547
        ],
        "postalCode": "K1Z8G6",
        "streetName": "SUMMERVILLE",
        "streetDirectionId": null,
        "streetTypeId": "AVE",
        "placeName": "OTTAWA",
        "streetNameDisplayText": "SUMMERVILLE AVE, OTTAWA"
      }
    ]
  },
  {
    "postal": "K1Z6X3",
    "result": [
      {
        "electoralDistricts": [
          {
            "election": null,
            "id": 78,
            "name": "Ottawa Centre"
          }
        ],
        "pollDivisionIds": [
          10140532
        ],
        "postalCode": "K1Z6X3",
        "streetName": "RICHMOND",
        "streetDirectionId": null,
        "streetTypeId": "RD",
        "placeName": "OTTAWA",
        "streetNameDisplayText": "RICHMOND RD, OTTAWA"
      }
    ]
  },
  {
    "postal": "K1Z7R7",
    "result": [
      {
        "electoralDistricts": [
          {
            "election": null,
            "id": 78,
            "name": "Ottawa Centre"
          }
        ],
        "pollDivisionIds": [
          10140545
        ],
        "postalCode": "K1Z7R7",
        "streetName": "CROWN",
        "streetDirectionId": null,
        "streetTypeId": "CRES",
        "placeName": "OTTAWA",
        "streetNameDisplayText": "CROWN CRES, OTTAWA"
      }
    ]
  },
  {
    "postal": "K1Z4B6",
    "result": []
  },
  {
    "postal": "K1Z3P9",
    "result": []
  },
  {
    "postal": "K1Z2T3",
    "result": []
  },
  {
    "postal": "K1Z1M4",
    "result": []
  },
  {
    "postal": "K1Z0H1",
    "result": []
  },
  {
    "postal": "K1Z9W3",
    "result": []
  },
  {
    "postal": "K1Z6P1",
    "result": [
      {
        "electoralDistricts": [
          {
            "election": null,
            "id": 78,
            "name": "Ottawa Centre"
          }
        ],
        "pollDivisionIds": [
          10140547
        ],
        "postalCode": "K1Z6P1",
        "streetName": "BAKERVALE",
        "streetDirectionId": null,
        "streetTypeId": "DR",
        "placeName": "OTTAWA",
        "streetNameDisplayText": "BAKERVALE DR, OTTAWA"
      }
    ]
  },
  {
    "postal": "K1Z7G2",
    "result": [
      {
        "electoralDistricts": [
          {
            "election": null,
            "id": 78,
            "name": "Ottawa Centre"
          }
        ],
        "pollDivisionIds": [
          10140539
        ],
        "postalCode": "K1Z7G2",
        "streetName": "BUELL",
        "streetDirectionId": null,
        "streetTypeId": "ST",
        "placeName": "OTTAWA",
        "streetNameDisplayText": "BUELL ST, OTTAWA"
      }
    ]
  },
  {
    "postal": "K1Z4J9",
    "result": []
  },
  {
    "postal": "K1Z9E4",
    "result": []
  },
  {
    "postal": "K1Z8H0",
    "result": []
  },
  {
    "postal": "K1Z4M7",
    "result": []
  },
  {
    "postal": "K1Z2G9",
    "result": []
  },
  {
    "postal": "K1Z8T2",
    "result": []
  },
  {
    "postal": "K1Z7G7",
    "result": [
      {
        "electoralDistricts": [
          {
            "election": null,
            "id": 78,
            "name": "Ottawa Centre"
          }
        ],
        "pollDivisionIds": [
          10140538
        ],
        "postalCode": "K1Z7G7",
        "streetName": "AVONDALE",
        "streetDirectionId": null,
        "streetTypeId": "AVE",
        "placeName": "OTTAWA",
        "streetNameDisplayText": "AVONDALE AVE, OTTAWA"
      }
    ]
  },
  {
    "postal": "K1Z4Z3",
    "result": []
  },
  {
    "postal": "K1Z5B3",
    "result": [
      {
        "electoralDistricts": [
          {
            "election": null,
            "id": 78,
            "name": "Ottawa Centre"
          }
        ],
        "pollDivisionIds": [
          10140531
        ],
        "postalCode": "K1Z5B3",
        "streetName": "CHURCHILL",
        "streetDirectionId": "N",
        "streetTypeId": "AVE",
        "placeName": "OTTAWA",
        "streetNameDisplayText": "CHURCHILL AVE N, OTTAWA"
      }
    ]
  },
  {
    "postal": "K1Z1S7",
    "result": []
  },
  {
    "postal": "K1Z2N7",
    "result": []
  },
  {
    "postal": "K1Z0H8",
    "result": []
  },
  {
    "postal": "K1Z7Z4",
    "result": [
      {
        "electoralDistricts": [
          {
            "election": null,
            "id": 81,
            "name": "Ottawa West—Nepean"
          },
          {
            "election": null,
            "id": 78,
            "name": "Ottawa Centre"
          }
        ],
        "pollDivisionIds": [
          10140847,
          10140547
        ],
        "postalCode": "K1Z7Z4",
        "streetName": "SHILLINGTON",
        "streetDirectionId": null,
        "streetTypeId": "AVE",
        "placeName": "OTTAWA",
        "streetNameDisplayText": "SHILLINGTON AVE, OTTAWA"
      }
    ]
  },
  {
    "postal": "K1Z7B1",
    "result": [
      {
        "electoralDistricts": [
          {
            "election": null,
            "id": 78,
            "name": "Ottawa Centre"
          }
        ],
        "pollDivisionIds": [
          10140539
        ],
        "postalCode": "K1Z7B1",
        "streetName": "BELFORD",
        "streetDirectionId": null,
        "streetTypeId": "CRES",
        "placeName": "OTTAWA",
        "streetNameDisplayText": "BELFORD CRES, OTTAWA"
      }
    ]
  },
  {
    "postal": "K1Z7P8",
    "result": [
      {
        "electoralDistricts": [
          {
            "election": null,
            "id": 81,
            "name": "Ottawa West—Nepean"
          }
        ],
        "pollDivisionIds": [
          10140843
        ],
        "postalCode": "K1Z7P8",
        "streetName": "COLDREY",
        "streetDirectionId": null,
        "streetTypeId": "AVE",
        "placeName": "OTTAWA",
        "streetNameDisplayText": "COLDREY AVE, OTTAWA"
      }
    ]
  },
  {
    "postal": "K1Z7N0",
    "result": []
  },
  {
    "postal": "K1Z3Y5",
    "result": []
  },
  {
    "postal": "K1Z6K1",
    "result": [
      {
        "electoralDistricts": [
          {
            "election": null,
            "id": 78,
            "name": "Ottawa Centre"
          }
        ],
        "pollDivisionIds": [
          10140539
        ],
        "postalCode": "K1Z6K1",
        "streetName": "BRENNAN",
        "streetDirectionId": null,
        "streetTypeId": "AVE",
        "placeName": "OTTAWA",
        "streetNameDisplayText": "BRENNAN AVE, OTTAWA"
      }
    ]
  },
  {
    "postal": "K1Z9X5",
    "result": []
  },
  {
    "postal": "K1Z7S5",
    "result": [
      {
        "electoralDistricts": [
          {
            "election": null,
            "id": 81,
            "name": "Ottawa West—Nepean"
          }
        ],
        "pollDivisionIds": [
          10140843
        ],
        "postalCode": "K1Z7S5",
        "streetName": "LAPERRIERE",
        "streetDirectionId": null,
        "streetTypeId": "AVE",
        "placeName": "OTTAWA",
        "streetNameDisplayText": "LAPERRIERE AVE, OTTAWA"
      }
    ]
  },
  {
    "postal": "K1Z0A4",
    "result": [
      {
        "electoralDistricts": [
          {
            "election": null,
            "id": 81,
            "name": "Ottawa West—Nepean"
          }
        ],
        "pollDivisionIds": [
          10140843
        ],
        "postalCode": "K1Z0A4",
        "streetName": "KENZIE",
        "streetDirectionId": null,
        "streetTypeId": "ST",
        "placeName": "OTTAWA",
        "streetNameDisplayText": "KENZIE ST, OTTAWA"
      }
    ]
  },
  {
    "postal": "K1Z4T5",
    "result": []
  },
  {
    "postal": "K1Z5K1",
    "result": [
      {
        "electoralDistricts": [
          {
            "election": null,
            "id": 81,
            "name": "Ottawa West—Nepean"
          }
        ],
        "pollDivisionIds": [
          10140843
        ],
        "postalCode": "K1Z5K1",
        "streetName": "MCBRIDE",
        "streetDirectionId": null,
        "streetTypeId": "ST",
        "placeName": "OTTAWA",
        "streetNameDisplayText": "MCBRIDE ST, OTTAWA"
      }
    ]
  },
  {
    "postal": "K1Z0Z9",
    "result": []
  },
  {
    "postal": "K1Z7T2",
    "result": [
      {
        "electoralDistricts": [
          {
            "election": null,
            "id": 81,
            "name": "Ottawa West—Nepean"
          }
        ],
        "pollDivisionIds": [
          10140843
        ],
        "postalCode": "K1Z7T2",
        "streetName": "LAPERRIERE",
        "streetDirectionId": null,
        "streetTypeId": "AVE",
        "placeName": "OTTAWA",
        "streetNameDisplayText": "LAPERRIERE AVE, OTTAWA"
      }
    ]
  },
  {
    "postal": "K1Z1L5",
    "result": []
  },
  {
    "postal": "K1Z3N5",
    "result": []
  },
  {
    "postal": "K1Z6H4",
    "result": [
      {
        "electoralDistricts": [
          {
            "election": null,
            "id": 78,
            "name": "Ottawa Centre"
          }
        ],
        "pollDivisionIds": [
          10140547
        ],
        "postalCode": "K1Z6H4",
        "streetName": "SILVER",
        "streetDirectionId": null,
        "streetTypeId": "ST",
        "placeName": "OTTAWA",
        "streetNameDisplayText": "SILVER ST, OTTAWA"
      }
    ]
  },
  {
    "postal": "K1Z5A5",
    "result": [
      {
        "electoralDistricts": [
          {
            "election": null,
            "id": 81,
            "name": "Ottawa West—Nepean"
          }
        ],
        "pollDivisionIds": [
          10140841
        ],
        "postalCode": "K1Z5A5",
        "streetName": "CLYDE",
        "streetDirectionId": "N",
        "streetTypeId": "AVE",
        "placeName": "OTTAWA",
        "streetNameDisplayText": "CLYDE AVE N, OTTAWA"
      }
    ]
  },
  {
    "postal": "K1Z3R9",
    "result": []
  },
  {
    "postal": "K1Z7L8",
    "result": [
      {
        "electoralDistricts": [
          {
            "election": null,
            "id": 81,
            "name": "Ottawa West—Nepean"
          }
        ],
        "pollDivisionIds": [
          10140843,
          10140881
        ],
        "postalCode": "K1Z7L8",
        "streetName": "CARLING",
        "streetDirectionId": null,
        "streetTypeId": "AVE",
        "placeName": "OTTAWA",
        "streetNameDisplayText": "CARLING AVE, OTTAWA"
      }
    ]
  },
  {
    "postal": "K1Z6T6",
    "result": [
      {
        "electoralDistricts": [
          {
            "election": null,
            "id": 78,
            "name": "Ottawa Centre"
          }
        ],
        "pollDivisionIds": [
          10140532
        ],
        "postalCode": "K1Z6T6",
        "streetName": "ASHTON",
        "streetDirectionId": null,
        "streetTypeId": "AVE",
        "placeName": "OTTAWA",
        "streetNameDisplayText": "ASHTON AVE, OTTAWA"
      }
    ]
  },
  {
    "postal": "K1Z7Y7",
    "result": [
      {
        "electoralDistricts": [
          {
            "election": null,
            "id": 81,
            "name": "Ottawa West—Nepean"
          }
        ],
        "pollDivisionIds": [
          10140843
        ],
        "postalCode": "K1Z7Y7",
        "streetName": "RAVEN",
        "streetDirectionId": null,
        "streetTypeId": "AVE",
        "placeName": "OTTAWA",
        "streetNameDisplayText": "RAVEN AVE, OTTAWA"
      }
    ]
  },
  {
    "postal": "K1Z3M8",
    "result": []
  },
  {
    "postal": "K1Z2E0",
    "result": []
  },
  {
    "postal": "K1Z4B5",
    "result": []
  },
  {
    "postal": "K1Z1J3",
    "result": []
  },
  {
    "postal": "K1Z5S6",
    "result": [
      {
        "electoralDistricts": [
          {
            "election": null,
            "id": 78,
            "name": "Ottawa Centre"
          }
        ],
        "pollDivisionIds": [
          10140539
        ],
        "postalCode": "K1Z5S6",
        "streetName": "BEVAN",
        "streetDirectionId": null,
        "streetTypeId": "AVE",
        "placeName": "OTTAWA",
        "streetNameDisplayText": "BEVAN AVE, OTTAWA"
      }
    ]
  },
  {
    "postal": "K1Z8P7",
    "result": [
      {
        "electoralDistricts": [
          {
            "election": null,
            "id": 78,
            "name": "Ottawa Centre"
          }
        ],
        "pollDivisionIds": [
          10140531
        ],
        "postalCode": "K1Z8P7",
        "streetName": "PREMIER",
        "streetDirectionId": "W",
        "streetTypeId": "AVE",
        "placeName": "OTTAWA",
        "streetNameDisplayText": "PREMIER AVE W, OTTAWA"
      }
    ]
  },
  {
    "postal": "K1Z7S7",
    "result": [
      {
        "electoralDistricts": [
          {
            "election": null,
            "id": 81,
            "name": "Ottawa West—Nepean"
          }
        ],
        "pollDivisionIds": [
          10140843
        ],
        "postalCode": "K1Z7S7",
        "streetName": "LAPERRIERE",
        "streetDirectionId": null,
        "streetTypeId": "AVE",
        "placeName": "OTTAWA",
        "streetNameDisplayText": "LAPERRIERE AVE, OTTAWA"
      }
    ]
  },
  {
    "postal": "K1Z4C2",
    "result": []
  },
  {
    "postal": "K1Z5Y0",
    "result": []
  },
  {
    "postal": "K1Z2V7",
    "result": []
  },
  {
    "postal": "K1Z8P5",
    "result": [
      {
        "electoralDistricts": [
          {
            "election": null,
            "id": 81,
            "name": "Ottawa West—Nepean"
          }
        ],
        "pollDivisionIds": [
          10140843
        ],
        "postalCode": "K1Z8P5",
        "streetName": "LAPERRIERE",
        "streetDirectionId": null,
        "streetTypeId": "AVE",
        "placeName": "OTTAWA",
        "streetNameDisplayText": "LAPERRIERE AVE, OTTAWA"
      }
    ]
  },
  {
    "postal": "K1Z5P5",
    "result": [
      {
        "electoralDistricts": [
          {
            "election": null,
            "id": 78,
            "name": "Ottawa Centre"
          }
        ],
        "pollDivisionIds": [
          10140538
        ],
        "postalCode": "K1Z5P5",
        "streetName": "TWEEDSMUIR",
        "streetDirectionId": null,
        "streetTypeId": "AVE",
        "placeName": "OTTAWA",
        "streetNameDisplayText": "TWEEDSMUIR AVE, OTTAWA"
      }
    ]
  },
  {
    "postal": "K1Z5Z0",
    "result": []
  },
  {
    "postal": "K1Z9B0",
    "result": []
  },
  {
    "postal": "K1Z1L0",
    "result": []
  },
  {
    "postal": "K1Z0B5",
    "result": []
  },
  {
    "postal": "K1Z3L2",
    "result": []
  },
  {
    "postal": "K1Z3B7",
    "result": []
  },
  {
    "postal": "K1Z8L1",
    "result": [
      {
        "electoralDistricts": [
          {
            "election": null,
            "id": 78,
            "name": "Ottawa Centre"
          }
        ],
        "pollDivisionIds": [
          10140547
        ],
        "postalCode": "K1Z8L1",
        "streetName": "KINGSTON",
        "streetDirectionId": null,
        "streetTypeId": "AVE",
        "placeName": "OTTAWA",
        "streetNameDisplayText": "KINGSTON AVE, OTTAWA"
      }
    ]
  },
  {
    "postal": "K1Z5M4",
    "result": [
      {
        "electoralDistricts": [
          {
            "election": null,
            "id": 78,
            "name": "Ottawa Centre"
          }
        ],
        "pollDivisionIds": [
          10140532
        ],
        "postalCode": "K1Z5M4",
        "streetName": "ATHLONE",
        "streetDirectionId": null,
        "streetTypeId": "AVE",
        "placeName": "OTTAWA",
        "streetNameDisplayText": "ATHLONE AVE, OTTAWA"
      }
    ]
  },
  {
    "postal": "K1Z4G9",
    "result": []
  },
  {
    "postal": "K1Z0P0",
    "result": []
  },
  {
    "postal": "K1Z8G2",
    "result": [
      {
        "electoralDistricts": [
          {
            "election": null,
            "id": 81,
            "name": "Ottawa West—Nepean"
          }
        ],
        "pollDivisionIds": [
          10140844
        ],
        "postalCode": "K1Z8G2",
        "streetName": "EDGECLIFFE",
        "streetDirectionId": null,
        "streetTypeId": "AVE",
        "placeName": "OTTAWA",
        "streetNameDisplayText": "EDGECLIFFE AVE, OTTAWA"
      }
    ]
  },
  {
    "postal": "K1Z1V9",
    "result": []
  },
  {
    "postal": "K1Z8N8",
    "result": [
      {
        "electoralDistricts": [
          {
            "election": null,
            "id": 78,
            "name": "Ottawa Centre"
          }
        ],
        "pollDivisionIds": [
          10140543
        ],
        "postalCode": "K1Z8N8",
        "streetName": "CARLING",
        "streetDirectionId": null,
        "streetTypeId": "AVE",
        "placeName": "OTTAWA",
        "streetNameDisplayText": "CARLING AVE, OTTAWA"
      }
    ]
  },
  {
    "postal": "K1Z6S8",
    "result": []
  },
  {
    "postal": "K1Z8H2",
    "result": [
      {
        "electoralDistricts": [
          {
            "election": null,
            "id": 81,
            "name": "Ottawa West—Nepean"
          }
        ],
        "pollDivisionIds": [
          10140844
        ],
        "postalCode": "K1Z8H2",
        "streetName": "MORISSET",
        "streetDirectionId": null,
        "streetTypeId": "AVE",
        "placeName": "OTTAWA",
        "streetNameDisplayText": "MORISSET AVE, OTTAWA"
      }
    ]
  },
  {
    "postal": "K1Z5R8",
    "result": [
      {
        "electoralDistricts": [
          {
            "election": null,
            "id": 78,
            "name": "Ottawa Centre"
          }
        ],
        "pollDivisionIds": [
          10140532
        ],
        "postalCode": "K1Z5R8",
        "streetName": "MCRAE",
        "streetDirectionId": null,
        "streetTypeId": "AVE",
        "placeName": "OTTAWA",
        "streetNameDisplayText": "MCRAE AVE, OTTAWA"
      }
    ]
  },
  {
    "postal": "K1Z5L4",
    "result": []
  },
  {
    "postal": "K1Z9E1",
    "result": []
  },
  {
    "postal": "K1Z1C4",
    "result": []
  },
  {
    "postal": "K1Z8W5",
    "result": []
  },
  {
    "postal": "K1Z1Y4",
    "result": []
  },
  {
    "postal": "K1Z1C0",
    "result": []
  },
  {
    "postal": "K1Z2J2",
    "result": []
  },
  {
    "postal": "K1Z2J0",
    "result": []
  },
  {
    "postal": "K1Z7A3",
    "result": [
      {
        "electoralDistricts": [
          {
            "election": null,
            "id": 78,
            "name": "Ottawa Centre"
          }
        ],
        "pollDivisionIds": [
          10140534,
          10140539
        ],
        "postalCode": "K1Z7A3",
        "streetName": "WESLEY",
        "streetDirectionId": null,
        "streetTypeId": "AVE",
        "placeName": "OTTAWA",
        "streetNameDisplayText": "WESLEY AVE, OTTAWA"
      }
    ]
  },
  {
    "postal": "K1Z8M1",
    "result": [
      {
        "electoralDistricts": [
          {
            "election": null,
            "id": 81,
            "name": "Ottawa West—Nepean"
          }
        ],
        "pollDivisionIds": [
          10140844
        ],
        "postalCode": "K1Z8M1",
        "streetName": "CALDWELL",
        "streetDirectionId": null,
        "streetTypeId": "AVE",
        "placeName": "OTTAWA",
        "streetNameDisplayText": "CALDWELL AVE, OTTAWA"
      }
    ]
  },
  {
    "postal": "K1Z7T9",
    "result": [
      {
        "electoralDistricts": [
          {
            "election": null,
            "id": 78,
            "name": "Ottawa Centre"
          }
        ],
        "pollDivisionIds": [
          10140545
        ],
        "postalCode": "K1Z7T9",
        "streetName": "ANNA",
        "streetDirectionId": null,
        "streetTypeId": "AVE",
        "placeName": "OTTAWA",
        "streetNameDisplayText": "ANNA AVE, OTTAWA"
      }
    ]
  },
  {
    "postal": "K1Z6C0",
    "result": []
  },
  {
    "postal": "K1Z7X1",
    "result": [
      {
        "electoralDistricts": [
          {
            "election": null,
            "id": 78,
            "name": "Ottawa Centre"
          }
        ],
        "pollDivisionIds": [
          10140547
        ],
        "postalCode": "K1Z7X1",
        "streetName": "MARSHALL",
        "streetDirectionId": null,
        "streetTypeId": "AVE",
        "placeName": "OTTAWA",
        "streetNameDisplayText": "MARSHALL AVE, OTTAWA"
      }
    ]
  },
  {
    "postal": "K1Z0G1",
    "result": []
  },
  {
    "postal": "K1Z4X2",
    "result": []
  },
  {
    "postal": "K1Z0N6",
    "result": []
  },
  {
    "postal": "K1Z8E3",
    "result": [
      {
        "electoralDistricts": [
          {
            "election": null,
            "id": 78,
            "name": "Ottawa Centre"
          }
        ],
        "pollDivisionIds": [
          10140547
        ],
        "postalCode": "K1Z8E3",
        "streetName": "DORCHESTER",
        "streetDirectionId": null,
        "streetTypeId": "AVE",
        "placeName": "OTTAWA",
        "streetNameDisplayText": "DORCHESTER AVE, OTTAWA"
      }
    ]
  },
  {
    "postal": "K1Z5S8",
    "result": [
      {
        "electoralDistricts": [
          {
            "election": null,
            "id": 81,
            "name": "Ottawa West—Nepean"
          }
        ],
        "pollDivisionIds": [
          10140843
        ],
        "postalCode": "K1Z5S8",
        "streetName": "CAVAN",
        "streetDirectionId": null,
        "streetTypeId": "ST",
        "placeName": "OTTAWA",
        "streetNameDisplayText": "CAVAN ST, OTTAWA"
      }
    ]
  },
  {
    "postal": "K1Z0R0",
    "result": []
  },
  {
    "postal": "K1Z6J6",
    "result": [
      {
        "electoralDistricts": [
          {
            "election": null,
            "id": 78,
            "name": "Ottawa Centre"
          }
        ],
        "pollDivisionIds": [
          10140539
        ],
        "postalCode": "K1Z6J6",
        "streetName": "LEIGHTON",
        "streetDirectionId": null,
        "streetTypeId": "TERR",
        "placeName": "OTTAWA",
        "streetNameDisplayText": "LEIGHTON TERR, OTTAWA"
      }
    ]
  },
  {
    "postal": "K1Z4B4",
    "result": []
  },
  {
    "postal": "K1Z7E3",
    "result": [
      {
        "electoralDistricts": [
          {
            "election": null,
            "id": 78,
            "name": "Ottawa Centre"
          }
        ],
        "pollDivisionIds": [
          10140534
        ],
        "postalCode": "K1Z7E3",
        "streetName": "CLARE",
        "streetDirectionId": null,
        "streetTypeId": "ST",
        "placeName": "OTTAWA",
        "streetNameDisplayText": "CLARE ST, OTTAWA"
      }
    ]
  },
  {
    "postal": "K1Z3N6",
    "result": []
  },
  {
    "postal": "K1Z3X6",
    "result": []
  },
  {
    "postal": "K1Z8L0",
    "result": []
  },
  {
    "postal": "K1Z8N1",
    "result": [
      {
        "electoralDistricts": [
          {
            "election": null,
            "id": 81,
            "name": "Ottawa West—Nepean"
          }
        ],
        "pollDivisionIds": [
          10140843
        ],
        "postalCode": "K1Z8N1",
        "streetName": "KIRKWOOD",
        "streetDirectionId": null,
        "streetTypeId": "AVE",
        "placeName": "OTTAWA",
        "streetNameDisplayText": "KIRKWOOD AVE, OTTAWA"
      }
    ]
  },
  {
    "postal": "K1Z4J0",
    "result": []
  },
  {
    "postal": "K1Z0X7",
    "result": []
  },
  {
    "postal": "K1Z6S4",
    "result": [
      {
        "electoralDistricts": [
          {
            "election": null,
            "id": 78,
            "name": "Ottawa Centre"
          }
        ],
        "pollDivisionIds": [
          10140531
        ],
        "postalCode": "K1Z6S4",
        "streetName": "CLEARVIEW",
        "streetDirectionId": null,
        "streetTypeId": "AVE",
        "placeName": "OTTAWA",
        "streetNameDisplayText": "CLEARVIEW AVE, OTTAWA"
      }
    ]
  },
  {
    "postal": "K1Z0Z0",
    "result": []
  },
  {
    "postal": "K1Z9X8",
    "result": []
  },
  {
    "postal": "K1Z3H3",
    "result": []
  },
  {
    "postal": "K1Z7S2",
    "result": [
      {
        "electoralDistricts": [
          {
            "election": null,
            "id": 81,
            "name": "Ottawa West—Nepean"
          }
        ],
        "pollDivisionIds": [
          10140843
        ],
        "postalCode": "K1Z7S2",
        "streetName": "LAPERRIERE",
        "streetDirectionId": null,
        "streetTypeId": "AVE",
        "placeName": "OTTAWA",
        "streetNameDisplayText": "LAPERRIERE AVE, OTTAWA"
      }
    ]
  },
  {
    "postal": "K1Z3T3",
    "result": []
  },
  {
    "postal": "K1Z9P3",
    "result": []
  },
  {
    "postal": "K1Z4H8",
    "result": []
  },
  {
    "postal": "K1Z6R1",
    "result": [
      {
        "electoralDistricts": [
          {
            "election": null,
            "id": 78,
            "name": "Ottawa Centre"
          }
        ],
        "pollDivisionIds": [
          10140531
        ],
        "postalCode": "K1Z6R1",
        "streetName": "SELBY",
        "streetDirectionId": null,
        "streetTypeId": "AVE",
        "placeName": "OTTAWA",
        "streetNameDisplayText": "SELBY AVE, OTTAWA"
      }
    ]
  },
  {
    "postal": "K1Z1S0",
    "result": []
  },
  {
    "postal": "K1Z3W8",
    "result": []
  },
  {
    "postal": "K1Z4S3",
    "result": []
  },
  {
    "postal": "K1Z1B6",
    "result": [
      {
        "electoralDistricts": [
          {
            "election": null,
            "id": 78,
            "name": "Ottawa Centre"
          }
        ],
        "pollDivisionIds": [
          10140531
        ],
        "postalCode": "K1Z1B6",
        "streetName": "OAK PARK",
        "streetDirectionId": null,
        "streetTypeId": "PVT",
        "placeName": "OTTAWA",
        "streetNameDisplayText": "OAK PARK PVT, OTTAWA"
      }
    ]
  },
  {
    "postal": "K1Z8R3",
    "result": []
  },
  {
    "postal": "K1Z4V9",
    "result": []
  },
  {
    "postal": "K1Z9W4",
    "result": []
  },
  {
    "postal": "K1Z3T4",
    "result": []
  },
  {
    "postal": "K1Z5C7",
    "result": [
      {
        "electoralDistricts": [
          {
            "election": null,
            "id": 78,
            "name": "Ottawa Centre"
          }
        ],
        "pollDivisionIds": [
          10140532
        ],
        "postalCode": "K1Z5C7",
        "streetName": "CHURCHILL",
        "streetDirectionId": "N",
        "streetTypeId": "AVE",
        "placeName": "OTTAWA",
        "streetNameDisplayText": "CHURCHILL AVE N, OTTAWA"
      }
    ]
  },
  {
    "postal": "K1Z3Y1",
    "result": []
  },
  {
    "postal": "K1Z5V0",
    "result": []
  },
  {
    "postal": "K1Z8G8",
    "result": [
      {
        "electoralDistricts": [
          {
            "election": null,
            "id": 78,
            "name": "Ottawa Centre"
          }
        ],
        "pollDivisionIds": [
          10140547
        ],
        "postalCode": "K1Z8G8",
        "streetName": "SUMMERVILLE",
        "streetDirectionId": null,
        "streetTypeId": "AVE",
        "placeName": "OTTAWA",
        "streetNameDisplayText": "SUMMERVILLE AVE, OTTAWA"
      }
    ]
  },
  {
    "postal": "K1Z8B1",
    "result": [
      {
        "electoralDistricts": [
          {
            "election": null,
            "id": 81,
            "name": "Ottawa West—Nepean"
          }
        ],
        "pollDivisionIds": [
          10140844
        ],
        "postalCode": "K1Z8B1",
        "streetName": "CHATELAIN",
        "streetDirectionId": null,
        "streetTypeId": "AVE",
        "placeName": "OTTAWA",
        "streetNameDisplayText": "CHATELAIN AVE, OTTAWA"
      }
    ]
  },
  {
    "postal": "K1Z4P5",
    "result": []
  },
  {
    "postal": "K1Z7B2",
    "result": [
      {
        "electoralDistricts": [
          {
            "election": null,
            "id": 78,
            "name": "Ottawa Centre"
          }
        ],
        "pollDivisionIds": [
          10140539
        ],
        "postalCode": "K1Z7B2",
        "streetName": "NORA",
        "streetDirectionId": null,
        "streetTypeId": "ST",
        "placeName": "OTTAWA",
        "streetNameDisplayText": "NORA ST, OTTAWA"
      }
    ]
  },
  {
    "postal": "K1Z0R2",
    "result": []
  },
  {
    "postal": "K1Z4M4",
    "result": []
  },
  {
    "postal": "K1Z7M4",
    "result": [
      {
        "electoralDistricts": [
          {
            "election": null,
            "id": 81,
            "name": "Ottawa West—Nepean"
          },
          {
            "election": null,
            "id": 78,
            "name": "Ottawa Centre"
          }
        ],
        "pollDivisionIds": [
          10140843,
          10140537
        ],
        "postalCode": "K1Z7M4",
        "streetName": "CARLING",
        "streetDirectionId": null,
        "streetTypeId": "AVE",
        "placeName": "OTTAWA",
        "streetNameDisplayText": "CARLING AVE, OTTAWA"
      }
    ]
  },
  {
    "postal": "K1Z9S7",
    "result": []
  },
  {
    "postal": "K1Z5Z7",
    "result": [
      {
        "electoralDistricts": [
          {
            "election": null,
            "id": 78,
            "name": "Ottawa Centre"
          }
        ],
        "pollDivisionIds": [
          10140545
        ],
        "postalCode": "K1Z5Z7",
        "streetName": "MERIVALE",
        "streetDirectionId": null,
        "streetTypeId": "RD",
        "placeName": "OTTAWA",
        "streetNameDisplayText": "MERIVALE RD, OTTAWA"
      }
    ]
  },
  {
    "postal": "K1Z7J7",
    "result": [
      {
        "electoralDistricts": [
          {
            "election": null,
            "id": 78,
            "name": "Ottawa Centre"
          }
        ],
        "pollDivisionIds": [
          10140538
        ],
        "postalCode": "K1Z7J7",
        "streetName": "CURRELL",
        "streetDirectionId": null,
        "streetTypeId": "AVE",
        "placeName": "OTTAWA",
        "streetNameDisplayText": "CURRELL AVE, OTTAWA"
      }
    ]
  },
  {
    "postal": "K1Z8R8",
    "result": []
  },
  {
    "postal": "K1Z9X1",
    "result": []
  },
  {
    "postal": "K1Z5M9",
    "result": [
      {
        "electoralDistricts": [
          {
            "election": null,
            "id": 78,
            "name": "Ottawa Centre"
          }
        ],
        "pollDivisionIds": [
          10140534
        ],
        "postalCode": "K1Z5M9",
        "streetName": "ATHLONE",
        "streetDirectionId": null,
        "streetTypeId": "AVE",
        "placeName": "OTTAWA",
        "streetNameDisplayText": "ATHLONE AVE, OTTAWA"
      }
    ]
  },
  {
    "postal": "K1Z9B4",
    "result": []
  },
  {
    "postal": "K1Z0L9",
    "result": []
  },
  {
    "postal": "K1Z9G4",
    "result": []
  },
  {
    "postal": "K1Z1J4",
    "result": []
  },
  {
    "postal": "K1Z0W6",
    "result": []
  }
]
