[
  {
    "postal": "N9E9J6",
    "result": []
  },
  {
    "postal": "N9E9Z5",
    "result": []
  },
  {
    "postal": "N9E7H8",
    "result": []
  },
  {
    "postal": "N9E0P6",
    "result": []
  },
  {
    "postal": "N9E0S7",
    "result": []
  },
  {
    "postal": "N9E8B9",
    "result": []
  },
  {
    "postal": "N9E2A6",
    "result": [
      {
        "electoralDistricts": [
          {
            "election": null,
            "id": 119,
            "name": "Windsor West"
          }
        ],
        "pollDivisionIds": [
          10142800
        ],
        "postalCode": "N9E2A6",
        "streetName": "ROCKWELL",
        "streetDirectionId": null,
        "streetTypeId": "BLVD",
        "placeName": "WINDSOR",
        "streetNameDisplayText": "ROCKWELL BLVD, WINDSOR"
      }
    ]
  },
  {
    "postal": "N9E7V2",
    "result": []
  },
  {
    "postal": "N9E9P4",
    "result": []
  },
  {
    "postal": "N9E6G0",
    "result": []
  },
  {
    "postal": "N9E2K0",
    "result": []
  },
  {
    "postal": "N9E7N6",
    "result": []
  },
  {
    "postal": "N9E5R3",
    "result": []
  },
  {
    "postal": "N9E7K0",
    "result": []
  },
  {
    "postal": "N9E3R2",
    "result": [
      {
        "electoralDistricts": [
          {
            "election": null,
            "id": 119,
            "name": "Windsor West"
          }
        ],
        "pollDivisionIds": [
          10142777
        ],
        "postalCode": "N9E3R2",
        "streetName": "BETHLEHEM",
        "streetDirectionId": null,
        "streetTypeId": "AVE",
        "placeName": "WINDSOR",
        "streetNameDisplayText": "BETHLEHEM AVE, WINDSOR"
      }
    ]
  },
  {
    "postal": "N9E0J1",
    "result": []
  },
  {
    "postal": "N9E0B0",
    "result": []
  },
  {
    "postal": "N9E5Z2",
    "result": []
  },
  {
    "postal": "N9E7P3",
    "result": []
  },
  {
    "postal": "N9E2K3",
    "result": [
      {
        "electoralDistricts": [
          {
            "election": null,
            "id": 119,
            "name": "Windsor West"
          }
        ],
        "pollDivisionIds": [
          10142800
        ],
        "postalCode": "N9E2K3",
        "streetName": "MORRIS",
        "streetDirectionId": null,
        "streetTypeId": "DR",
        "placeName": "WINDSOR",
        "streetNameDisplayText": "MORRIS DR, WINDSOR"
      }
    ]
  },
  {
    "postal": "N9E7Y6",
    "result": []
  },
  {
    "postal": "N9E1L9",
    "result": [
      {
        "electoralDistricts": [
          {
            "election": null,
            "id": 119,
            "name": "Windsor West"
          }
        ],
        "pollDivisionIds": [
          10142801
        ],
        "postalCode": "N9E1L9",
        "streetName": "FRONTENAC",
        "streetDirectionId": null,
        "streetTypeId": "AVE",
        "placeName": "WINDSOR",
        "streetNameDisplayText": "FRONTENAC AVE, WINDSOR"
      }
    ]
  },
  {
    "postal": "N9E8T0",
    "result": []
  },
  {
    "postal": "N9E3K8",
    "result": [
      {
        "electoralDistricts": [
          {
            "election": null,
            "id": 119,
            "name": "Windsor West"
          }
        ],
        "pollDivisionIds": [
          10142797
        ],
        "postalCode": "N9E3K8",
        "streetName": "ST CLAIR",
        "streetDirectionId": null,
        "streetTypeId": "AVE",
        "placeName": "WINDSOR",
        "streetNameDisplayText": "ST CLAIR AVE, WINDSOR"
      }
    ]
  },
  {
    "postal": "N9E5W9",
    "result": []
  },
  {
    "postal": "N9E6T9",
    "result": []
  },
  {
    "postal": "N9E4H1",
    "result": [
      {
        "electoralDistricts": [
          {
            "election": null,
            "id": 119,
            "name": "Windsor West"
          }
        ],
        "pollDivisionIds": [
          10142786
        ],
        "postalCode": "N9E4H1",
        "streetName": "FAZIO",
        "streetDirectionId": null,
        "streetTypeId": "DR",
        "placeName": "WINDSOR",
        "streetNameDisplayText": "FAZIO DR, WINDSOR"
      }
    ]
  },
  {
    "postal": "N9E7A2",
    "result": []
  },
  {
    "postal": "N9E5G0",
    "result": []
  },
  {
    "postal": "N9E8V5",
    "result": []
  },
  {
    "postal": "N9E2Y8",
    "result": [
      {
        "electoralDistricts": [
          {
            "election": null,
            "id": 119,
            "name": "Windsor West"
          }
        ],
        "pollDivisionIds": [
          10142789
        ],
        "postalCode": "N9E2Y8",
        "streetName": "SIERRA",
        "streetDirectionId": null,
        "streetTypeId": "DR",
        "placeName": "WINDSOR",
        "streetNameDisplayText": "SIERRA DR, WINDSOR"
      }
    ]
  },
  {
    "postal": "N9E2B6",
    "result": [
      {
        "electoralDistricts": [
          {
            "election": null,
            "id": 119,
            "name": "Windsor West"
          }
        ],
        "pollDivisionIds": [
          10142796
        ],
        "postalCode": "N9E2B6",
        "streetName": "VIRGINIA PARK",
        "streetDirectionId": null,
        "streetTypeId": "AVE",
        "placeName": "WINDSOR",
        "streetNameDisplayText": "VIRGINIA PARK AVE, WINDSOR"
      }
    ]
  },
  {
    "postal": "N9E4W8",
    "result": [
      {
        "electoralDistricts": [
          {
            "election": null,
            "id": 119,
            "name": "Windsor West"
          }
        ],
        "pollDivisionIds": [
          10142777
        ],
        "postalCode": "N9E4W8",
        "streetName": "BETHLEHEM",
        "streetDirectionId": null,
        "streetTypeId": "AVE",
        "placeName": "WINDSOR",
        "streetNameDisplayText": "BETHLEHEM AVE, WINDSOR"
      }
    ]
  },
  {
    "postal": "N9E8H7",
    "result": []
  },
  {
    "postal": "N9E5P1",
    "result": []
  },
  {
    "postal": "N9E2B8",
    "result": [
      {
        "electoralDistricts": [
          {
            "election": null,
            "id": 119,
            "name": "Windsor West"
          }
        ],
        "pollDivisionIds": [
          10142796
        ],
        "postalCode": "N9E2B8",
        "streetName": "VIRGINIA PARK",
        "streetDirectionId": null,
        "streetTypeId": "AVE",
        "placeName": "WINDSOR",
        "streetNameDisplayText": "VIRGINIA PARK AVE, WINDSOR"
      }
    ]
  },
  {
    "postal": "N9E0P2",
    "result": []
  },
  {
    "postal": "N9E9M1",
    "result": []
  },
  {
    "postal": "N9E3G0",
    "result": []
  },
  {
    "postal": "N9E9Z2",
    "result": []
  },
  {
    "postal": "N9E2A0",
    "result": []
  },
  {
    "postal": "N9E6Y0",
    "result": []
  },
  {
    "postal": "N9E2Z8",
    "result": [
      {
        "electoralDistricts": [
          {
            "election": null,
            "id": 119,
            "name": "Windsor West"
          }
        ],
        "pollDivisionIds": [
          10142788
        ],
        "postalCode": "N9E2Z8",
        "streetName": "ROXBOROUGH",
        "streetDirectionId": null,
        "streetTypeId": "BLVD",
        "placeName": "WINDSOR",
        "streetNameDisplayText": "ROXBOROUGH BLVD, WINDSOR"
      }
    ]
  },
  {
    "postal": "N9E7Y3",
    "result": []
  },
  {
    "postal": "N9E6Z5",
    "result": []
  },
  {
    "postal": "N9E6E0",
    "result": []
  },
  {
    "postal": "N9E9B7",
    "result": []
  },
  {
    "postal": "N9E9S5",
    "result": []
  },
  {
    "postal": "N9E3X3",
    "result": [
      {
        "electoralDistricts": [
          {
            "election": null,
            "id": 119,
            "name": "Windsor West"
          }
        ],
        "pollDivisionIds": [
          10142788
        ],
        "postalCode": "N9E3X3",
        "streetName": "RANDOLPH",
        "streetDirectionId": null,
        "streetTypeId": "AVE",
        "placeName": "WINDSOR",
        "streetNameDisplayText": "RANDOLPH AVE, WINDSOR"
      }
    ]
  },
  {
    "postal": "N9E7R5",
    "result": []
  },
  {
    "postal": "N9E2X3",
    "result": [
      {
        "electoralDistricts": [
          {
            "election": null,
            "id": 119,
            "name": "Windsor West"
          }
        ],
        "pollDivisionIds": [
          10142793
        ],
        "postalCode": "N9E2X3",
        "streetName": "MARK",
        "streetDirectionId": null,
        "streetTypeId": "AVE",
        "placeName": "WINDSOR",
        "streetNameDisplayText": "MARK AVE, WINDSOR"
      }
    ]
  },
  {
    "postal": "N9E8Z9",
    "result": []
  },
  {
    "postal": "N9E0N4",
    "result": []
  },
  {
    "postal": "N9E1K1",
    "result": [
      {
        "electoralDistricts": [
          {
            "election": null,
            "id": 119,
            "name": "Windsor West"
          }
        ],
        "pollDivisionIds": [
          10142801
        ],
        "postalCode": "N9E1K1",
        "streetName": "ROSELAWN",
        "streetDirectionId": null,
        "streetTypeId": "DR",
        "placeName": "WINDSOR",
        "streetNameDisplayText": "ROSELAWN DR, WINDSOR"
      }
    ]
  },
  {
    "postal": "N9E1S3",
    "result": [
      {
        "electoralDistricts": [
          {
            "election": null,
            "id": 118,
            "name": "Windsorâ€”Tecumseh"
          }
        ],
        "pollDivisionIds": [
          10142713
        ],
        "postalCode": "N9E1S3",
        "streetName": "DOUGALL AVE",
        "streetDirectionId": null,
        "streetTypeId": "AVE",
        "placeName": "WINDSOR",
        "streetNameDisplayText": "DOUGALL AVE AVE, WINDSOR"
      },
      {
        "electoralDistricts": [
          {
            "election": null,
            "id": 119,
            "name": "Windsor West"
          }
        ],
        "pollDivisionIds": [
          10142800
        ],
        "postalCode": "N9E1S3",
        "streetName": "DOUGALL",
        "streetDirectionId": null,
        "streetTypeId": "AVE",
        "placeName": "WINDSOR",
        "streetNameDisplayText": "DOUGALL AVE, WINDSOR"
      }
    ]
  },
  {
    "postal": "N9E6M4",
    "result": []
  },
  {
    "postal": "N9E9A9",
    "result": []
  },
  {
    "postal": "N9E9Z9",
    "result": []
  },
  {
    "postal": "N9E6T4",
    "result": []
  },
  {
    "postal": "N9E0B2",
    "result": []
  },
  {
    "postal": "N9E2L9",
    "result": [
      {
        "electoralDistricts": [
          {
            "election": null,
            "id": 119,
            "name": "Windsor West"
          }
        ],
        "pollDivisionIds": [
          10142801
        ],
        "postalCode": "N9E2L9",
        "streetName": "LONGFELLOW",
        "streetDirectionId": null,
        "streetTypeId": "AVE",
        "placeName": "WINDSOR",
        "streetNameDisplayText": "LONGFELLOW AVE, WINDSOR"
      }
    ]
  },
  {
    "postal": "N9E8K9",
    "result": []
  },
  {
    "postal": "N9E2H9",
    "result": [
      {
        "electoralDistricts": [
          {
            "election": null,
            "id": 119,
            "name": "Windsor West"
          }
        ],
        "pollDivisionIds": [
          10142801
        ],
        "postalCode": "N9E2H9",
        "streetName": "ACADEMY",
        "streetDirectionId": null,
        "streetTypeId": "DR",
        "placeName": "WINDSOR",
        "streetNameDisplayText": "ACADEMY DR, WINDSOR"
      }
    ]
  },
  {
    "postal": "N9E3Z6",
    "result": []
  },
  {
    "postal": "N9E3B0",
    "result": []
  },
  {
    "postal": "N9E2H8",
    "result": [
      {
        "electoralDistricts": [
          {
            "election": null,
            "id": 119,
            "name": "Windsor West"
          }
        ],
        "pollDivisionIds": [
          10142801
        ],
        "postalCode": "N9E2H8",
        "streetName": "ACADEMY",
        "streetDirectionId": null,
        "streetTypeId": "DR",
        "placeName": "WINDSOR",
        "streetNameDisplayText": "ACADEMY DR, WINDSOR"
      }
    ]
  },
  {
    "postal": "N9E3X2",
    "result": []
  },
  {
    "postal": "N9E2E9",
    "result": [
      {
        "electoralDistricts": [
          {
            "election": null,
            "id": 119,
            "name": "Windsor West"
          }
        ],
        "pollDivisionIds": [
          10142800
        ],
        "postalCode": "N9E2E9",
        "streetName": "DANDURAND",
        "streetDirectionId": null,
        "streetTypeId": "AVE",
        "placeName": "WINDSOR",
        "streetNameDisplayText": "DANDURAND AVE, WINDSOR"
      }
    ]
  },
  {
    "postal": "N9E9P6",
    "result": []
  },
  {
    "postal": "N9E9E2",
    "result": []
  },
  {
    "postal": "N9E9H2",
    "result": []
  },
  {
    "postal": "N9E1S8",
    "result": [
      {
        "electoralDistricts": [
          {
            "election": null,
            "id": 119,
            "name": "Windsor West"
          }
        ],
        "pollDivisionIds": [
          10142800
        ],
        "postalCode": "N9E1S8",
        "streetName": "DOUGALL",
        "streetDirectionId": null,
        "streetTypeId": "AVE",
        "placeName": "WINDSOR",
        "streetNameDisplayText": "DOUGALL AVE, WINDSOR"
      }
    ]
  },
  {
    "postal": "N9E3M6",
    "result": [
      {
        "electoralDistricts": [
          {
            "election": null,
            "id": 119,
            "name": "Windsor West"
          }
        ],
        "pollDivisionIds": [
          10142806
        ],
        "postalCode": "N9E3M6",
        "streetName": "OUELLETTE",
        "streetDirectionId": null,
        "streetTypeId": "AVE",
        "placeName": "WINDSOR",
        "streetNameDisplayText": "OUELLETTE AVE, WINDSOR"
      }
    ]
  },
  {
    "postal": "N9E6Z8",
    "result": []
  },
  {
    "postal": "N9E4J2",
    "result": [
      {
        "electoralDistricts": [
          {
            "election": null,
            "id": 119,
            "name": "Windsor West"
          }
        ],
        "pollDivisionIds": [
          10142786
        ],
        "postalCode": "N9E4J2",
        "streetName": "LANSING",
        "streetDirectionId": null,
        "streetTypeId": "ST",
        "placeName": "WINDSOR",
        "streetNameDisplayText": "LANSING ST, WINDSOR"
      }
    ]
  },
  {
    "postal": "N9E9Y1",
    "result": []
  },
  {
    "postal": "N9E8V6",
    "result": []
  },
  {
    "postal": "N9E6B2",
    "result": []
  },
  {
    "postal": "N9E1P8",
    "result": [
      {
        "electoralDistricts": [
          {
            "election": null,
            "id": 119,
            "name": "Windsor West"
          }
        ],
        "pollDivisionIds": [
          10142797
        ],
        "postalCode": "N9E1P8",
        "streetName": "SPRING",
        "streetDirectionId": null,
        "streetTypeId": "CRT",
        "placeName": "WINDSOR",
        "streetNameDisplayText": "SPRING CRT, WINDSOR"
      }
    ]
  },
  {
    "postal": "N9E0V8",
    "result": []
  },
  {
    "postal": "N9E4Y0",
    "result": []
  },
  {
    "postal": "N9E2T4",
    "result": [
      {
        "electoralDistricts": [
          {
            "election": null,
            "id": 119,
            "name": "Windsor West"
          }
        ],
        "pollDivisionIds": [
          10142793
        ],
        "postalCode": "N9E2T4",
        "streetName": "CURRY",
        "streetDirectionId": null,
        "streetTypeId": "AVE",
        "placeName": "WINDSOR",
        "streetNameDisplayText": "CURRY AVE, WINDSOR"
      }
    ]
  },
  {
    "postal": "N9E2S3",
    "result": [
      {
        "electoralDistricts": [
          {
            "election": null,
            "id": 119,
            "name": "Windsor West"
          }
        ],
        "pollDivisionIds": [
          10142801
        ],
        "postalCode": "N9E2S3",
        "streetName": "MCKAY",
        "streetDirectionId": null,
        "streetTypeId": "AVE",
        "placeName": "WINDSOR",
        "streetNameDisplayText": "MCKAY AVE, WINDSOR"
      }
    ]
  },
  {
    "postal": "N9E0K0",
    "result": []
  },
  {
    "postal": "N9E5N1",
    "result": []
  },
  {
    "postal": "N9E7T0",
    "result": []
  },
  {
    "postal": "N9E9N2",
    "result": []
  },
  {
    "postal": "N9E5L1",
    "result": []
  },
  {
    "postal": "N9E7G5",
    "result": []
  },
  {
    "postal": "N9E6K2",
    "result": []
  },
  {
    "postal": "N9E6P9",
    "result": []
  },
  {
    "postal": "N9E0E6",
    "result": []
  },
  {
    "postal": "N9E8R9",
    "result": []
  },
  {
    "postal": "N9E3G9",
    "result": [
      {
        "electoralDistricts": [
          {
            "election": null,
            "id": 119,
            "name": "Windsor West"
          }
        ],
        "pollDivisionIds": [
          10142786
        ],
        "postalCode": "N9E3G9",
        "streetName": "ST PATRICK'S",
        "streetDirectionId": null,
        "streetTypeId": "DR",
        "placeName": "WINDSOR",
        "streetNameDisplayText": "ST PATRICK'S DR, WINDSOR"
      }
    ]
  },
  {
    "postal": "N9E0V7",
    "result": []
  },
  {
    "postal": "N9E2Z1",
    "result": [
      {
        "electoralDistricts": [
          {
            "election": null,
            "id": 119,
            "name": "Windsor West"
          }
        ],
        "pollDivisionIds": [
          10142789
        ],
        "postalCode": "N9E2Z1",
        "streetName": "JAMAICA",
        "streetDirectionId": null,
        "streetTypeId": "CRES",
        "placeName": "WINDSOR",
        "streetNameDisplayText": "JAMAICA CRES, WINDSOR"
      }
    ]
  },
  {
    "postal": "N9E7N1",
    "result": []
  },
  {
    "postal": "N9E3C6",
    "result": [
      {
        "electoralDistricts": [
          {
            "election": null,
            "id": 119,
            "name": "Windsor West"
          }
        ],
        "pollDivisionIds": [
          10142797
        ],
        "postalCode": "N9E3C6",
        "streetName": "RANKIN",
        "streetDirectionId": null,
        "streetTypeId": "AVE",
        "placeName": "WINDSOR",
        "streetNameDisplayText": "RANKIN AVE, WINDSOR"
      }
    ]
  },
  {
    "postal": "N9E4M1",
    "result": [
      {
        "electoralDistricts": [
          {
            "election": null,
            "id": 119,
            "name": "Windsor West"
          }
        ],
        "pollDivisionIds": [
          10142806
        ],
        "postalCode": "N9E4M1",
        "streetName": "EVELEIGH",
        "streetDirectionId": null,
        "streetTypeId": "CRES",
        "placeName": "WINDSOR",
        "streetNameDisplayText": "EVELEIGH CRES, WINDSOR"
      },
      {
        "electoralDistricts": [
          {
            "election": null,
            "id": 119,
            "name": "Windsor West"
          }
        ],
        "pollDivisionIds": [
          10142806
        ],
        "postalCode": "N9E4M1",
        "streetName": "KENILWORTH",
        "streetDirectionId": null,
        "streetTypeId": "DR",
        "placeName": "WINDSOR",
        "streetNameDisplayText": "KENILWORTH DR, WINDSOR"
      }
    ]
  },
  {
    "postal": "N9E9K2",
    "result": []
  },
  {
    "postal": "N9E9S6",
    "result": []
  },
  {
    "postal": "N9E4X1",
    "result": [
      {
        "electoralDistricts": [
          {
            "election": null,
            "id": 119,
            "name": "Windsor West"
          }
        ],
        "pollDivisionIds": [
          10142777
        ],
        "postalCode": "N9E4X1",
        "streetName": "SIXTH",
        "streetDirectionId": null,
        "streetTypeId": "ST",
        "placeName": "WINDSOR",
        "streetNameDisplayText": "SIXTH ST, WINDSOR"
      }
    ]
  },
  {
    "postal": "N9E8W2",
    "result": []
  },
  {
    "postal": "N9E7N2",
    "result": []
  },
  {
    "postal": "N9E8S3",
    "result": []
  },
  {
    "postal": "N9E4V0",
    "result": []
  },
  {
    "postal": "N9E6W4",
    "result": []
  },
  {
    "postal": "N9E5M1",
    "result": []
  },
  {
    "postal": "N9E0S4",
    "result": []
  },
  {
    "postal": "N9E5X6",
    "result": []
  },
  {
    "postal": "N9E8L5",
    "result": []
  },
  {
    "postal": "N9E5M8",
    "result": []
  },
  {
    "postal": "N9E2G3",
    "result": [
      {
        "electoralDistricts": [
          {
            "election": null,
            "id": 119,
            "name": "Windsor West"
          }
        ],
        "pollDivisionIds": [
          10142801
        ],
        "postalCode": "N9E2G3",
        "streetName": "DANDURAND",
        "streetDirectionId": null,
        "streetTypeId": "AVE",
        "placeName": "WINDSOR",
        "streetNameDisplayText": "DANDURAND AVE, WINDSOR"
      }
    ]
  },
  {
    "postal": "N9E8E4",
    "result": []
  },
  {
    "postal": "N9E7S9",
    "result": []
  },
  {
    "postal": "N9E1K3",
    "result": [
      {
        "electoralDistricts": [
          {
            "election": null,
            "id": 119,
            "name": "Windsor West"
          }
        ],
        "pollDivisionIds": [
          10142801
        ],
        "postalCode": "N9E1K3",
        "streetName": "ROSELAWN",
        "streetDirectionId": null,
        "streetTypeId": "DR",
        "placeName": "WINDSOR",
        "streetNameDisplayText": "ROSELAWN DR, WINDSOR"
      }
    ]
  },
  {
    "postal": "N9E4E1",
    "result": [
      {
        "electoralDistricts": [
          {
            "election": null,
            "id": 119,
            "name": "Windsor West"
          }
        ],
        "pollDivisionIds": [
          10142786
        ],
        "postalCode": "N9E4E1",
        "streetName": "KENT",
        "streetDirectionId": null,
        "streetTypeId": "ST",
        "placeName": "WINDSOR",
        "streetNameDisplayText": "KENT ST, WINDSOR"
      }
    ]
  },
  {
    "postal": "N9E4R2",
    "result": [
      {
        "electoralDistricts": [
          {
            "election": null,
            "id": 119,
            "name": "Windsor West"
          }
        ],
        "pollDivisionIds": [
          10142777
        ],
        "postalCode": "N9E4R2",
        "streetName": "REDDOCK",
        "streetDirectionId": null,
        "streetTypeId": "AVE",
        "placeName": "WINDSOR",
        "streetNameDisplayText": "REDDOCK AVE, WINDSOR"
      }
    ]
  },
  {
    "postal": "N9E6T0",
    "result": []
  },
  {
    "postal": "N9E3K5",
    "result": [
      {
        "electoralDistricts": [
          {
            "election": null,
            "id": 119,
            "name": "Windsor West"
          }
        ],
        "pollDivisionIds": [
          10142786
        ],
        "postalCode": "N9E3K5",
        "streetName": "CALIFORNIA",
        "streetDirectionId": null,
        "streetTypeId": "AVE",
        "placeName": "WINDSOR",
        "streetNameDisplayText": "CALIFORNIA AVE, WINDSOR"
      }
    ]
  },
  {
    "postal": "N9E3S3",
    "result": [
      {
        "electoralDistricts": [
          {
            "election": null,
            "id": 119,
            "name": "Windsor West"
          }
        ],
        "pollDivisionIds": [
          10142777
        ],
        "postalCode": "N9E3S3",
        "streetName": "PITTSBURG",
        "streetDirectionId": null,
        "streetTypeId": "ST",
        "placeName": "WINDSOR",
        "streetNameDisplayText": "PITTSBURG ST, WINDSOR"
      }
    ]
  },
  {
    "postal": "N9E3L4",
    "result": [
      {
        "electoralDistricts": [
          {
            "election": null,
            "id": 119,
            "name": "Windsor West"
          }
        ],
        "pollDivisionIds": [
          10142806
        ],
        "postalCode": "N9E3L4",
        "streetName": "VICTORIA",
        "streetDirectionId": null,
        "streetTypeId": "BLVD",
        "placeName": "WINDSOR",
        "streetNameDisplayText": "VICTORIA BLVD, WINDSOR"
      }
    ]
  },
  {
    "postal": "N9E9Y2",
    "result": []
  },
  {
    "postal": "N9E1E0",
    "result": []
  },
  {
    "postal": "N9E9A4",
    "result": []
  },
  {
    "postal": "N9E1L3",
    "result": [
      {
        "electoralDistricts": [
          {
            "election": null,
            "id": 119,
            "name": "Windsor West"
          }
        ],
        "pollDivisionIds": [
          10142801
        ],
        "postalCode": "N9E1L3",
        "streetName": "ROSELAWN",
        "streetDirectionId": null,
        "streetTypeId": "DR",
        "placeName": "WINDSOR",
        "streetNameDisplayText": "ROSELAWN DR, WINDSOR"
      }
    ]
  },
  {
    "postal": "N9E6N1",
    "result": []
  },
  {
    "postal": "N9E6G7",
    "result": []
  },
  {
    "postal": "N9E7W1",
    "result": []
  },
  {
    "postal": "N9E4M6",
    "result": [
      {
        "electoralDistricts": [
          {
            "election": null,
            "id": 119,
            "name": "Windsor West"
          }
        ],
        "pollDivisionIds": [
          10142806
        ],
        "postalCode": "N9E4M6",
        "streetName": "KENILWORTH",
        "streetDirectionId": null,
        "streetTypeId": "DR",
        "placeName": "WINDSOR",
        "streetNameDisplayText": "KENILWORTH DR, WINDSOR"
      },
      {
        "electoralDistricts": [
          {
            "election": null,
            "id": 119,
            "name": "Windsor West"
          }
        ],
        "pollDivisionIds": [
          10142806
        ],
        "postalCode": "N9E4M6",
        "streetName": "KENILWORTH",
        "streetDirectionId": null,
        "streetTypeId": "PL",
        "placeName": "WINDSOR",
        "streetNameDisplayText": "KENILWORTH PL, WINDSOR"
      }
    ]
  },
  {
    "postal": "N9E1K0",
    "result": []
  },
  {
    "postal": "N9E3E2",
    "result": [
      {
        "electoralDistricts": [
          {
            "election": null,
            "id": 119,
            "name": "Windsor West"
          }
        ],
        "pollDivisionIds": [
          10142796
        ],
        "postalCode": "N9E3E2",
        "streetName": "RANDOLPH",
        "streetDirectionId": null,
        "streetTypeId": "AVE",
        "placeName": "WINDSOR",
        "streetNameDisplayText": "RANDOLPH AVE, WINDSOR"
      }
    ]
  },
  {
    "postal": "N9E5H4",
    "result": []
  },
  {
    "postal": "N9E1K7",
    "result": [
      {
        "electoralDistricts": [
          {
            "election": null,
            "id": 119,
            "name": "Windsor West"
          }
        ],
        "pollDivisionIds": [
          10142801
        ],
        "postalCode": "N9E1K7",
        "streetName": "ROSELAWN",
        "streetDirectionId": null,
        "streetTypeId": "DR",
        "placeName": "WINDSOR",
        "streetNameDisplayText": "ROSELAWN DR, WINDSOR"
      }
    ]
  },
  {
    "postal": "N9E0H0",
    "result": []
  },
  {
    "postal": "N9E0J3",
    "result": []
  },
  {
    "postal": "N9E1X6",
    "result": [
      {
        "electoralDistricts": [
          {
            "election": null,
            "id": 119,
            "name": "Windsor West"
          }
        ],
        "pollDivisionIds": [
          10142800
        ],
        "postalCode": "N9E1X6",
        "streetName": "AVONDALE",
        "streetDirectionId": null,
        "streetTypeId": "AVE",
        "placeName": "WINDSOR",
        "streetNameDisplayText": "AVONDALE AVE, WINDSOR"
      },
      {
        "electoralDistricts": [
          {
            "election": null,
            "id": 119,
            "name": "Windsor West"
          }
        ],
        "pollDivisionIds": [
          10142800
        ],
        "postalCode": "N9E1X6",
        "streetName": "AVONDALE",
        "streetDirectionId": null,
        "streetTypeId": "CRT",
        "placeName": "WINDSOR",
        "streetNameDisplayText": "AVONDALE CRT, WINDSOR"
      }
    ]
  },
  {
    "postal": "N9E2Z6",
    "result": [
      {
        "electoralDistricts": [
          {
            "election": null,
            "id": 119,
            "name": "Windsor West"
          }
        ],
        "pollDivisionIds": [
          10142793
        ],
        "postalCode": "N9E2Z6",
        "streetName": "MASSEY",
        "streetDirectionId": null,
        "streetTypeId": "CRT",
        "placeName": "WINDSOR",
        "streetNameDisplayText": "MASSEY CRT, WINDSOR"
      }
    ]
  },
  {
    "postal": "N9E4R9",
    "result": [
      {
        "electoralDistricts": [
          {
            "election": null,
            "id": 119,
            "name": "Windsor West"
          }
        ],
        "pollDivisionIds": [
          10142801
        ],
        "postalCode": "N9E4R9",
        "streetName": "BRUCE",
        "streetDirectionId": null,
        "streetTypeId": "AVE",
        "placeName": "WINDSOR",
        "streetNameDisplayText": "BRUCE AVE, WINDSOR"
      }
    ]
  },
  {
    "postal": "N9E0W8",
    "result": []
  },
  {
    "postal": "N9E1L4",
    "result": [
      {
        "electoralDistricts": [
          {
            "election": null,
            "id": 119,
            "name": "Windsor West"
          }
        ],
        "pollDivisionIds": [
          10142801
        ],
        "postalCode": "N9E1L4",
        "streetName": "ROSELAWN",
        "streetDirectionId": null,
        "streetTypeId": "DR",
        "placeName": "WINDSOR",
        "streetNameDisplayText": "ROSELAWN DR, WINDSOR"
      }
    ]
  },
  {
    "postal": "N9E0C8",
    "result": []
  },
  {
    "postal": "N9E9X7",
    "result": []
  },
  {
    "postal": "N9E4T1",
    "result": [
      {
        "electoralDistricts": [
          {
            "election": null,
            "id": 119,
            "name": "Windsor West"
          }
        ],
        "pollDivisionIds": [
          10142806
        ],
        "postalCode": "N9E4T1",
        "streetName": "MAGUIRE",
        "streetDirectionId": null,
        "streetTypeId": "ST",
        "placeName": "WINDSOR",
        "streetNameDisplayText": "MAGUIRE ST, WINDSOR"
      },
      {
        "electoralDistricts": [
          {
            "election": null,
            "id": 119,
            "name": "Windsor West"
          }
        ],
        "pollDivisionIds": [
          10142806
        ],
        "postalCode": "N9E4T1",
        "streetName": "YELLOWOOD",
        "streetDirectionId": null,
        "streetTypeId": "ST",
        "placeName": "WINDSOR",
        "streetNameDisplayText": "YELLOWOOD ST, WINDSOR"
      }
    ]
  },
  {
    "postal": "N9E0M0",
    "result": []
  },
  {
    "postal": "N9E6A2",
    "result": []
  },
  {
    "postal": "N9E9S8",
    "result": []
  },
  {
    "postal": "N9E9T4",
    "result": []
  },
  {
    "postal": "N9E9Y4",
    "result": []
  },
  {
    "postal": "N9E6G5",
    "result": []
  },
  {
    "postal": "N9E6H9",
    "result": []
  },
  {
    "postal": "N9E2P3",
    "result": [
      {
        "electoralDistricts": [
          {
            "election": null,
            "id": 119,
            "name": "Windsor West"
          }
        ],
        "pollDivisionIds": [
          10142801
        ],
        "postalCode": "N9E2P3",
        "streetName": "DOMINION",
        "streetDirectionId": null,
        "streetTypeId": "BLVD",
        "placeName": "WINDSOR",
        "streetNameDisplayText": "DOMINION BLVD, WINDSOR"
      }
    ]
  },
  {
    "postal": "N9E1T6",
    "result": [
      {
        "electoralDistricts": [
          {
            "election": null,
            "id": 119,
            "name": "Windsor West"
          }
        ],
        "pollDivisionIds": [
          10142801
        ],
        "postalCode": "N9E1T6",
        "streetName": "DOUGALL",
        "streetDirectionId": null,
        "streetTypeId": "AVE",
        "placeName": "WINDSOR",
        "streetNameDisplayText": "DOUGALL AVE, WINDSOR"
      }
    ]
  },
  {
    "postal": "N9E4P6",
    "result": []
  },
  {
    "postal": "N9E3K1",
    "result": [
      {
        "electoralDistricts": [
          {
            "election": null,
            "id": 119,
            "name": "Windsor West"
          }
        ],
        "pollDivisionIds": [
          10142797
        ],
        "postalCode": "N9E3K1",
        "streetName": "ASKIN",
        "streetDirectionId": null,
        "streetTypeId": "AVE",
        "placeName": "WINDSOR",
        "streetNameDisplayText": "ASKIN AVE, WINDSOR"
      }
    ]
  },
  {
    "postal": "N9E6X4",
    "result": []
  },
  {
    "postal": "N9E4M8",
    "result": [
      {
        "electoralDistricts": [
          {
            "election": null,
            "id": 119,
            "name": "Windsor West"
          }
        ],
        "pollDivisionIds": [
          10142806
        ],
        "postalCode": "N9E4M8",
        "streetName": "FLETCHER",
        "streetDirectionId": null,
        "streetTypeId": "CRES",
        "placeName": "WINDSOR",
        "streetNameDisplayText": "FLETCHER CRES, WINDSOR"
      },
      {
        "electoralDistricts": [
          {
            "election": null,
            "id": 119,
            "name": "Windsor West"
          }
        ],
        "pollDivisionIds": [
          10142806
        ],
        "postalCode": "N9E4M8",
        "streetName": "GERALDINE",
        "streetDirectionId": null,
        "streetTypeId": "CRES",
        "placeName": "WINDSOR",
        "streetNameDisplayText": "GERALDINE CRES, WINDSOR"
      }
    ]
  },
  {
    "postal": "N9E2Y1",
    "result": [
      {
        "electoralDistricts": [
          {
            "election": null,
            "id": 119,
            "name": "Windsor West"
          }
        ],
        "pollDivisionIds": [
          10142793
        ],
        "postalCode": "N9E2Y1",
        "streetName": "GLENWOOD",
        "streetDirectionId": null,
        "streetTypeId": "AVE",
        "placeName": "WINDSOR",
        "streetNameDisplayText": "GLENWOOD AVE, WINDSOR"
      }
    ]
  },
  {
    "postal": "N9E6M1",
    "result": []
  },
  {
    "postal": "N9E5L8",
    "result": []
  },
  {
    "postal": "N9E3P6",
    "result": [
      {
        "electoralDistricts": [
          {
            "election": null,
            "id": 119,
            "name": "Windsor West"
          }
        ],
        "pollDivisionIds": [
          10142777
        ],
        "postalCode": "N9E3P6",
        "streetName": "SPRING GARDEN",
        "streetDirectionId": null,
        "streetTypeId": "RD",
        "placeName": "WINDSOR",
        "streetNameDisplayText": "SPRING GARDEN RD, WINDSOR"
      }
    ]
  },
  {
    "postal": "N9E9A5",
    "result": []
  },
  {
    "postal": "N9E7K1",
    "result": []
  },
  {
    "postal": "N9E3J4",
    "result": [
      {
        "electoralDistricts": [
          {
            "election": null,
            "id": 119,
            "name": "Windsor West"
          }
        ],
        "pollDivisionIds": [
          10142786
        ],
        "postalCode": "N9E3J4",
        "streetName": "ASKIN",
        "streetDirectionId": null,
        "streetTypeId": "AVE",
        "placeName": "WINDSOR",
        "streetNameDisplayText": "ASKIN AVE, WINDSOR"
      }
    ]
  },
  {
    "postal": "N9E5E7",
    "result": []
  },
  {
    "postal": "N9E3A7",
    "result": [
      {
        "electoralDistricts": [
          {
            "election": null,
            "id": 119,
            "name": "Windsor West"
          }
        ],
        "pollDivisionIds": [
          10142796
        ],
        "postalCode": "N9E3A7",
        "streetName": "SKYLINE",
        "streetDirectionId": null,
        "streetTypeId": "DR",
        "placeName": "WINDSOR",
        "streetNameDisplayText": "SKYLINE DR, WINDSOR"
      }
    ]
  },
  {
    "postal": "N9E1B9",
    "result": [
      {
        "electoralDistricts": [
          {
            "election": null,
            "id": 119,
            "name": "Windsor West"
          }
        ],
        "pollDivisionIds": [
          10142796
        ],
        "postalCode": "N9E1B9",
        "streetName": "GRAND MARAIS",
        "streetDirectionId": "W",
        "streetTypeId": "RD",
        "placeName": "WINDSOR",
        "streetNameDisplayText": "GRAND MARAIS RD W, WINDSOR"
      }
    ]
  },
  {
    "postal": "N9E9E8",
    "result": []
  },
  {
    "postal": "N9E1C9",
    "result": [
      {
        "electoralDistricts": [
          {
            "election": null,
            "id": 119,
            "name": "Windsor West"
          }
        ],
        "pollDivisionIds": [
          10142796
        ],
        "postalCode": "N9E1C9",
        "streetName": "GRAND MARAIS",
        "streetDirectionId": "W",
        "streetTypeId": "RD",
        "placeName": "WINDSOR",
        "streetNameDisplayText": "GRAND MARAIS RD W, WINDSOR"
      }
    ]
  },
  {
    "postal": "N9E3B5",
    "result": [
      {
        "electoralDistricts": [
          {
            "election": null,
            "id": 119,
            "name": "Windsor West"
          }
        ],
        "pollDivisionIds": [
          10142788
        ],
        "postalCode": "N9E3B5",
        "streetName": "RANKIN",
        "streetDirectionId": null,
        "streetTypeId": "AVE",
        "placeName": "WINDSOR",
        "streetNameDisplayText": "RANKIN AVE, WINDSOR"
      }
    ]
  },
  {
    "postal": "N9E8R0",
    "result": []
  },
  {
    "postal": "N9E3P2",
    "result": [
      {
        "electoralDistricts": [
          {
            "election": null,
            "id": 119,
            "name": "Windsor West"
          }
        ],
        "pollDivisionIds": [
          10142777
        ],
        "postalCode": "N9E3P2",
        "streetName": "CONTINENTAL",
        "streetDirectionId": null,
        "streetTypeId": "AVE",
        "placeName": "WINDSOR",
        "streetNameDisplayText": "CONTINENTAL AVE, WINDSOR"
      }
    ]
  },
  {
    "postal": "N9E5V4",
    "result": []
  },
  {
    "postal": "N9E4H0",
    "result": []
  },
  {
    "postal": "N9E4S7",
    "result": [
      {
        "electoralDistricts": [
          {
            "election": null,
            "id": 119,
            "name": "Windsor West"
          }
        ],
        "pollDivisionIds": [
          10142788
        ],
        "postalCode": "N9E4S7",
        "streetName": "ST CLAIR",
        "streetDirectionId": null,
        "streetTypeId": "AVE",
        "placeName": "WINDSOR",
        "streetNameDisplayText": "ST CLAIR AVE, WINDSOR"
      }
    ]
  },
  {
    "postal": "N9E6C2",
    "result": []
  },
  {
    "postal": "N9E8W3",
    "result": []
  },
  {
    "postal": "N9E4M5",
    "result": [
      {
        "electoralDistricts": [
          {
            "election": null,
            "id": 119,
            "name": "Windsor West"
          }
        ],
        "pollDivisionIds": [
          10142806
        ],
        "postalCode": "N9E4M5",
        "streetName": "HAMPTON",
        "streetDirectionId": null,
        "streetTypeId": "CRES",
        "placeName": "WINDSOR",
        "streetNameDisplayText": "HAMPTON CRES, WINDSOR"
      }
    ]
  },
  {
    "postal": "N9E5T1",
    "result": []
  },
  {
    "postal": "N9E3B3",
    "result": [
      {
        "electoralDistricts": [
          {
            "election": null,
            "id": 119,
            "name": "Windsor West"
          }
        ],
        "pollDivisionIds": [
          10142797
        ],
        "postalCode": "N9E3B3",
        "streetName": "CHARLEVOIX",
        "streetDirectionId": null,
        "streetTypeId": "AVE",
        "placeName": "WINDSOR",
        "streetNameDisplayText": "CHARLEVOIX AVE, WINDSOR"
      }
    ]
  },
  {
    "postal": "N9E6C6",
    "result": []
  },
  {
    "postal": "N9E7N8",
    "result": []
  },
  {
    "postal": "N9E2Y3",
    "result": [
      {
        "electoralDistricts": [
          {
            "election": null,
            "id": 119,
            "name": "Windsor West"
          }
        ],
        "pollDivisionIds": [
          10142793
        ],
        "postalCode": "N9E2Y3",
        "streetName": "GLENWOOD",
        "streetDirectionId": null,
        "streetTypeId": "AVE",
        "placeName": "WINDSOR",
        "streetNameDisplayText": "GLENWOOD AVE, WINDSOR"
      }
    ]
  },
  {
    "postal": "N9E2R6",
    "result": [
      {
        "electoralDistricts": [
          {
            "election": null,
            "id": 119,
            "name": "Windsor West"
          }
        ],
        "pollDivisionIds": [
          10142793
        ],
        "postalCode": "N9E2R6",
        "streetName": "MCKAY",
        "streetDirectionId": null,
        "streetTypeId": "AVE",
        "placeName": "WINDSOR",
        "streetNameDisplayText": "MCKAY AVE, WINDSOR"
      }
    ]
  },
  {
    "postal": "N9E7N3",
    "result": []
  },
  {
    "postal": "N9E8J2",
    "result": []
  },
  {
    "postal": "N9E6A9",
    "result": []
  },
  {
    "postal": "N9E3V2",
    "result": [
      {
        "electoralDistricts": [
          {
            "election": null,
            "id": 119,
            "name": "Windsor West"
          }
        ],
        "pollDivisionIds": [
          10142777
        ],
        "postalCode": "N9E3V2",
        "streetName": "MALDEN",
        "streetDirectionId": null,
        "streetTypeId": "RD",
        "placeName": "WINDSOR",
        "streetNameDisplayText": "MALDEN RD, WINDSOR"
      }
    ]
  },
  {
    "postal": "N9E2N3",
    "result": [
      {
        "electoralDistricts": [
          {
            "election": null,
            "id": 119,
            "name": "Windsor West"
          }
        ],
        "pollDivisionIds": [
          10142793
        ],
        "postalCode": "N9E2N3",
        "streetName": "DOMINION",
        "streetDirectionId": null,
        "streetTypeId": "BLVD",
        "placeName": "WINDSOR",
        "streetNameDisplayText": "DOMINION BLVD, WINDSOR"
      }
    ]
  },
  {
    "postal": "N9E1S5",
    "result": [
      {
        "electoralDistricts": [
          {
            "election": null,
            "id": 119,
            "name": "Windsor West"
          }
        ],
        "pollDivisionIds": [
          10142800
        ],
        "postalCode": "N9E1S5",
        "streetName": "DOUGALL",
        "streetDirectionId": null,
        "streetTypeId": "AVE",
        "placeName": "WINDSOR",
        "streetNameDisplayText": "DOUGALL AVE, WINDSOR"
      }
    ]
  },
  {
    "postal": "N9E4T7",
    "result": [
      {
        "electoralDistricts": [
          {
            "election": null,
            "id": 119,
            "name": "Windsor West"
          }
        ],
        "pollDivisionIds": [
          10142786
        ],
        "postalCode": "N9E4T7",
        "streetName": "NORFOLK",
        "streetDirectionId": null,
        "streetTypeId": "ST",
        "placeName": "WINDSOR",
        "streetNameDisplayText": "NORFOLK ST, WINDSOR"
      },
      {
        "electoralDistricts": [
          {
            "election": null,
            "id": 119,
            "name": "Windsor West"
          }
        ],
        "pollDivisionIds": [
          10142786
        ],
        "postalCode": "N9E4T7",
        "streetName": "NORTHWAY",
        "streetDirectionId": null,
        "streetTypeId": "AVE",
        "placeName": "WINDSOR",
        "streetNameDisplayText": "NORTHWAY AVE, WINDSOR"
      }
    ]
  },
  {
    "postal": "N9E6Y7",
    "result": []
  },
  {
    "postal": "N9E0W7",
    "result": []
  },
  {
    "postal": "N9E2W9",
    "result": [
      {
        "electoralDistricts": [
          {
            "election": null,
            "id": 119,
            "name": "Windsor West"
          }
        ],
        "pollDivisionIds": [
          10142793
        ],
        "postalCode": "N9E2W9",
        "streetName": "MARK",
        "streetDirectionId": null,
        "streetTypeId": "AVE",
        "placeName": "WINDSOR",
        "streetNameDisplayText": "MARK AVE, WINDSOR"
      }
    ]
  },
  {
    "postal": "N9E8V0",
    "result": []
  },
  {
    "postal": "N9E0H4",
    "result": []
  },
  {
    "postal": "N9E2T1",
    "result": [
      {
        "electoralDistricts": [
          {
            "election": null,
            "id": 119,
            "name": "Windsor West"
          }
        ],
        "pollDivisionIds": [
          10142796
        ],
        "postalCode": "N9E2T1",
        "streetName": "CURRY",
        "streetDirectionId": null,
        "streetTypeId": "AVE",
        "placeName": "WINDSOR",
        "streetNameDisplayText": "CURRY AVE, WINDSOR"
      }
    ]
  },
  {
    "postal": "N9E1B1",
    "result": [
      {
        "electoralDistricts": [
          {
            "election": null,
            "id": 119,
            "name": "Windsor West"
          }
        ],
        "pollDivisionIds": [
          10142789
        ],
        "postalCode": "N9E1B1",
        "streetName": "COLUMBIA",
        "streetDirectionId": null,
        "streetTypeId": "CRT",
        "placeName": "WINDSOR",
        "streetNameDisplayText": "COLUMBIA CRT, WINDSOR"
      }
    ]
  },
  {
    "postal": "N9E8B6",
    "result": []
  },
  {
    "postal": "N9E6H1",
    "result": []
  },
  {
    "postal": "N9E8T8",
    "result": []
  },
  {
    "postal": "N9E0T4",
    "result": []
  },
  {
    "postal": "N9E2C4",
    "result": [
      {
        "electoralDistricts": [
          {
            "election": null,
            "id": 119,
            "name": "Windsor West"
          }
        ],
        "pollDivisionIds": [
          10142800
        ],
        "postalCode": "N9E2C4",
        "streetName": "VIRGINIA PARK",
        "streetDirectionId": null,
        "streetTypeId": "AVE",
        "placeName": "WINDSOR",
        "streetNameDisplayText": "VIRGINIA PARK AVE, WINDSOR"
      }
    ]
  },
  {
    "postal": "N9E8N3",
    "result": []
  },
  {
    "postal": "N9E4L8",
    "result": [
      {
        "electoralDistricts": [
          {
            "election": null,
            "id": 119,
            "name": "Windsor West"
          }
        ],
        "pollDivisionIds": [
          10142789
        ],
        "postalCode": "N9E4L8",
        "streetName": "CALIFORNIA",
        "streetDirectionId": null,
        "streetTypeId": "AVE",
        "placeName": "WINDSOR",
        "streetNameDisplayText": "CALIFORNIA AVE, WINDSOR"
      },
      {
        "electoralDistricts": [
          {
            "election": null,
            "id": 119,
            "name": "Windsor West"
          }
        ],
        "pollDivisionIds": [
          10142789
        ],
        "postalCode": "N9E4L8",
        "streetName": "ST CLAIR",
        "streetDirectionId": null,
        "streetTypeId": "AVE",
        "placeName": "WINDSOR",
        "streetNameDisplayText": "ST CLAIR AVE, WINDSOR"
      }
    ]
  },
  {
    "postal": "N9E2B5",
    "result": [
      {
        "electoralDistricts": [
          {
            "election": null,
            "id": 119,
            "name": "Windsor West"
          }
        ],
        "pollDivisionIds": [
          10142792
        ],
        "postalCode": "N9E2B5",
        "streetName": "VIRGINIA PARK",
        "streetDirectionId": null,
        "streetTypeId": "AVE",
        "placeName": "WINDSOR",
        "streetNameDisplayText": "VIRGINIA PARK AVE, WINDSOR"
      }
    ]
  },
  {
    "postal": "N9E3H1",
    "result": [
      {
        "electoralDistricts": [
          {
            "election": null,
            "id": 119,
            "name": "Windsor West"
          }
        ],
        "pollDivisionIds": [
          10142786
        ],
        "postalCode": "N9E3H1",
        "streetName": "ST PATRICK'S",
        "streetDirectionId": null,
        "streetTypeId": "DR",
        "placeName": "WINDSOR",
        "streetNameDisplayText": "ST PATRICK'S DR, WINDSOR"
      }
    ]
  },
  {
    "postal": "N9E4Y1",
    "result": [
      {
        "electoralDistricts": [
          {
            "election": null,
            "id": 119,
            "name": "Windsor West"
          }
        ],
        "pollDivisionIds": [
          10142796
        ],
        "postalCode": "N9E4Y1",
        "streetName": "VIRGINIA PARK",
        "streetDirectionId": null,
        "streetTypeId": "CRT",
        "placeName": "WINDSOR",
        "streetNameDisplayText": "VIRGINIA PARK CRT, WINDSOR"
      }
    ]
  },
  {
    "postal": "N9E7E2",
    "result": []
  },
  {
    "postal": "N9E2P5",
    "result": [
      {
        "electoralDistricts": [
          {
            "election": null,
            "id": 119,
            "name": "Windsor West"
          }
        ],
        "pollDivisionIds": [
          10142788
        ],
        "postalCode": "N9E2P5",
        "streetName": "MCKAY",
        "streetDirectionId": null,
        "streetTypeId": "AVE",
        "placeName": "WINDSOR",
        "streetNameDisplayText": "MCKAY AVE, WINDSOR"
      }
    ]
  },
  {
    "postal": "N9E8R7",
    "result": []
  },
  {
    "postal": "N9E9P1",
    "result": []
  },
  {
    "postal": "N9E3B8",
    "result": [
      {
        "electoralDistricts": [
          {
            "election": null,
            "id": 119,
            "name": "Windsor West"
          }
        ],
        "pollDivisionIds": [
          10142793
        ],
        "postalCode": "N9E3B8",
        "streetName": "RANKIN",
        "streetDirectionId": null,
        "streetTypeId": "AVE",
        "placeName": "WINDSOR",
        "streetNameDisplayText": "RANKIN AVE, WINDSOR"
      }
    ]
  },
  {
    "postal": "N9E3P7",
    "result": [
      {
        "electoralDistricts": [
          {
            "election": null,
            "id": 119,
            "name": "Windsor West"
          }
        ],
        "pollDivisionIds": [
          10142777
        ],
        "postalCode": "N9E3P7",
        "streetName": "SPRING GARDEN",
        "streetDirectionId": null,
        "streetTypeId": "RD",
        "placeName": "WINDSOR",
        "streetNameDisplayText": "SPRING GARDEN RD, WINDSOR"
      }
    ]
  },
  {
    "postal": "N9E9B2",
    "result": []
  },
  {
    "postal": "N9E6Z3",
    "result": []
  },
  {
    "postal": "N9E4N5",
    "result": [
      {
        "electoralDistricts": [
          {
            "election": null,
            "id": 119,
            "name": "Windsor West"
          }
        ],
        "pollDivisionIds": [
          10142796
        ],
        "postalCode": "N9E4N5",
        "streetName": "RADISSON",
        "streetDirectionId": null,
        "streetTypeId": "AVE",
        "placeName": "WINDSOR",
        "streetNameDisplayText": "RADISSON AVE, WINDSOR"
      },
      {
        "electoralDistricts": [
          {
            "election": null,
            "id": 119,
            "name": "Windsor West"
          }
        ],
        "pollDivisionIds": [
          10142796
        ],
        "postalCode": "N9E4N5",
        "streetName": "RADISSON",
        "streetDirectionId": "E",
        "streetTypeId": "CRT",
        "placeName": "WINDSOR",
        "streetNameDisplayText": "RADISSON CRT E, WINDSOR"
      },
      {
        "electoralDistricts": [
          {
            "election": null,
            "id": 119,
            "name": "Windsor West"
          }
        ],
        "pollDivisionIds": [
          10142796
        ],
        "postalCode": "N9E4N5",
        "streetName": "RADISSON",
        "streetDirectionId": "W",
        "streetTypeId": "CRT",
        "placeName": "WINDSOR",
        "streetNameDisplayText": "RADISSON CRT W, WINDSOR"
      }
    ]
  },
  {
    "postal": "N9E8T3",
    "result": []
  },
  {
    "postal": "N9E1V2",
    "result": [
      {
        "electoralDistricts": [
          {
            "election": null,
            "id": 119,
            "name": "Windsor West"
          }
        ],
        "pollDivisionIds": [
          10142800
        ],
        "postalCode": "N9E1V2",
        "streetName": "CHURCH",
        "streetDirectionId": null,
        "streetTypeId": "ST",
        "placeName": "WINDSOR",
        "streetNameDisplayText": "CHURCH ST, WINDSOR"
      }
    ]
  },
  {
    "postal": "N9E1Y0",
    "result": []
  },
  {
    "postal": "N9E3G6",
    "result": [
      {
        "electoralDistricts": [
          {
            "election": null,
            "id": 119,
            "name": "Windsor West"
          }
        ],
        "pollDivisionIds": [
          10142789
        ],
        "postalCode": "N9E3G6",
        "streetName": "ST PATRICK'S",
        "streetDirectionId": null,
        "streetTypeId": "DR",
        "placeName": "WINDSOR",
        "streetNameDisplayText": "ST PATRICK'S DR, WINDSOR"
      }
    ]
  },
  {
    "postal": "N9E3H7",
    "result": [
      {
        "electoralDistricts": [
          {
            "election": null,
            "id": 119,
            "name": "Windsor West"
          }
        ],
        "pollDivisionIds": [
          10142789
        ],
        "postalCode": "N9E3H7",
        "streetName": "ASKIN",
        "streetDirectionId": null,
        "streetTypeId": "AVE",
        "placeName": "WINDSOR",
        "streetNameDisplayText": "ASKIN AVE, WINDSOR"
      }
    ]
  },
  {
    "postal": "N9E7X8",
    "result": []
  },
  {
    "postal": "N9E0C7",
    "result": []
  },
  {
    "postal": "N9E0W9",
    "result": []
  },
  {
    "postal": "N9E8E6",
    "result": []
  },
  {
    "postal": "N9E9Z8",
    "result": []
  },
  {
    "postal": "N9E3P4",
    "result": []
  },
  {
    "postal": "N9E6L8",
    "result": []
  },
  {
    "postal": "N9E2R4",
    "result": [
      {
        "electoralDistricts": [
          {
            "election": null,
            "id": 119,
            "name": "Windsor West"
          }
        ],
        "pollDivisionIds": [
          10142793
        ],
        "postalCode": "N9E2R4",
        "streetName": "MCKAY",
        "streetDirectionId": null,
        "streetTypeId": "AVE",
        "placeName": "WINDSOR",
        "streetNameDisplayText": "MCKAY AVE, WINDSOR"
      }
    ]
  },
  {
    "postal": "N9E2W1",
    "result": [
      {
        "electoralDistricts": [
          {
            "election": null,
            "id": 119,
            "name": "Windsor West"
          }
        ],
        "pollDivisionIds": [
          10142793
        ],
        "postalCode": "N9E2W1",
        "streetName": "EVERTS",
        "streetDirectionId": null,
        "streetTypeId": "AVE",
        "placeName": "WINDSOR",
        "streetNameDisplayText": "EVERTS AVE, WINDSOR"
      }
    ]
  },
  {
    "postal": "N9E9H8",
    "result": []
  },
  {
    "postal": "N9E8X9",
    "result": []
  },
  {
    "postal": "N9E7H4",
    "result": []
  },
  {
    "postal": "N9E3J1",
    "result": [
      {
        "electoralDistricts": [
          {
            "election": null,
            "id": 119,
            "name": "Windsor West"
          }
        ],
        "pollDivisionIds": [
          10142786
        ],
        "postalCode": "N9E3J1",
        "streetName": "ASKIN",
        "streetDirectionId": null,
        "streetTypeId": "AVE",
        "placeName": "WINDSOR",
        "streetNameDisplayText": "ASKIN AVE, WINDSOR"
      }
    ]
  },
  {
    "postal": "N9E1P4",
    "result": [
      {
        "electoralDistricts": [
          {
            "election": null,
            "id": 119,
            "name": "Windsor West"
          }
        ],
        "pollDivisionIds": [
          10142801
        ],
        "postalCode": "N9E1P4",
        "streetName": "CHERRYLAWN",
        "streetDirectionId": null,
        "streetTypeId": "CRES",
        "placeName": "WINDSOR",
        "streetNameDisplayText": "CHERRYLAWN CRES, WINDSOR"
      }
    ]
  },
  {
    "postal": "N9E2A3",
    "result": [
      {
        "electoralDistricts": [
          {
            "election": null,
            "id": 119,
            "name": "Windsor West"
          }
        ],
        "pollDivisionIds": [
          10142796
        ],
        "postalCode": "N9E2A3",
        "streetName": "ROCKWELL",
        "streetDirectionId": null,
        "streetTypeId": "BLVD",
        "placeName": "WINDSOR",
        "streetNameDisplayText": "ROCKWELL BLVD, WINDSOR"
      }
    ]
  },
  {
    "postal": "N9E0Z1",
    "result": []
  },
  {
    "postal": "N9E1C1",
    "result": [
      {
        "electoralDistricts": [
          {
            "election": null,
            "id": 119,
            "name": "Windsor West"
          }
        ],
        "pollDivisionIds": [
          10142796
        ],
        "postalCode": "N9E1C1",
        "streetName": "GRAND MARAIS",
        "streetDirectionId": "W",
        "streetTypeId": "RD",
        "placeName": "WINDSOR",
        "streetNameDisplayText": "GRAND MARAIS RD W, WINDSOR"
      }
    ]
  },
  {
    "postal": "N9E0H3",
    "result": []
  },
  {
    "postal": "N9E7B0",
    "result": []
  },
  {
    "postal": "N9E5K2",
    "result": []
  },
  {
    "postal": "N9E1E9",
    "result": [
      {
        "electoralDistricts": [
          {
            "election": null,
            "id": 119,
            "name": "Windsor West"
          }
        ],
        "pollDivisionIds": [
          10142796
        ],
        "postalCode": "N9E1E9",
        "streetName": "GRAND MARAIS",
        "streetDirectionId": "W",
        "streetTypeId": "RD",
        "placeName": "WINDSOR",
        "streetNameDisplayText": "GRAND MARAIS RD W, WINDSOR"
      }
    ]
  },
  {
    "postal": "N9E9W7",
    "result": []
  },
  {
    "postal": "N9E5W6",
    "result": []
  },
  {
    "postal": "N9E6S6",
    "result": []
  },
  {
    "postal": "N9E2P8",
    "result": [
      {
        "electoralDistricts": [
          {
            "election": null,
            "id": 119,
            "name": "Windsor West"
          }
        ],
        "pollDivisionIds": [
          10142796
        ],
        "postalCode": "N9E2P8",
        "streetName": "MCKAY",
        "streetDirectionId": null,
        "streetTypeId": "AVE",
        "placeName": "WINDSOR",
        "streetNameDisplayText": "MCKAY AVE, WINDSOR"
      }
    ]
  },
  {
    "postal": "N9E4P8",
    "result": [
      {
        "electoralDistricts": [
          {
            "election": null,
            "id": 119,
            "name": "Windsor West"
          }
        ],
        "pollDivisionIds": [
          10142806
        ],
        "postalCode": "N9E4P8",
        "streetName": "HAMNER",
        "streetDirectionId": null,
        "streetTypeId": "CIR",
        "placeName": "WINDSOR",
        "streetNameDisplayText": "HAMNER CIR, WINDSOR"
      }
    ]
  },
  {
    "postal": "N9E0V9",
    "result": []
  },
  {
    "postal": "N9E5Y2",
    "result": []
  },
  {
    "postal": "N9E7Z7",
    "result": []
  },
  {
    "postal": "N9E6Y8",
    "result": []
  },
  {
    "postal": "N9E2G7",
    "result": [
      {
        "electoralDistricts": [
          {
            "election": null,
            "id": 119,
            "name": "Windsor West"
          }
        ],
        "pollDivisionIds": [
          10142796
        ],
        "postalCode": "N9E2G7",
        "streetName": "ACADEMY",
        "streetDirectionId": null,
        "streetTypeId": "DR",
        "placeName": "WINDSOR",
        "streetNameDisplayText": "ACADEMY DR, WINDSOR"
      }
    ]
  },
  {
    "postal": "N9E8C1",
    "result": []
  },
  {
    "postal": "N9E5C5",
    "result": []
  },
  {
    "postal": "N9E2X8",
    "result": [
      {
        "electoralDistricts": [
          {
            "election": null,
            "id": 119,
            "name": "Windsor West"
          }
        ],
        "pollDivisionIds": [
          10142796
        ],
        "postalCode": "N9E2X8",
        "streetName": "GLENWOOD",
        "streetDirectionId": null,
        "streetTypeId": "AVE",
        "placeName": "WINDSOR",
        "streetNameDisplayText": "GLENWOOD AVE, WINDSOR"
      }
    ]
  },
  {
    "postal": "N9E1W5",
    "result": [
      {
        "electoralDistricts": [
          {
            "election": null,
            "id": 119,
            "name": "Windsor West"
          }
        ],
        "pollDivisionIds": [
          10142800
        ],
        "postalCode": "N9E1W5",
        "streetName": "BRUCE",
        "streetDirectionId": null,
        "streetTypeId": "AVE",
        "placeName": "WINDSOR",
        "streetNameDisplayText": "BRUCE AVE, WINDSOR"
      }
    ]
  },
  {
    "postal": "N9E7G0",
    "result": []
  },
  {
    "postal": "N9E8J8",
    "result": []
  },
  {
    "postal": "N9E3Y0",
    "result": []
  },
  {
    "postal": "N9E9T7",
    "result": []
  },
  {
    "postal": "N9E5P4",
    "result": []
  },
  {
    "postal": "N9E4B0",
    "result": []
  },
  {
    "postal": "N9E9N8",
    "result": []
  },
  {
    "postal": "N9E4A7",
    "result": [
      {
        "electoralDistricts": [
          {
            "election": null,
            "id": 119,
            "name": "Windsor West"
          }
        ],
        "pollDivisionIds": [
          10142800
        ],
        "postalCode": "N9E4A7",
        "streetName": "DRIFTWOOD",
        "streetDirectionId": null,
        "streetTypeId": "DR",
        "placeName": "WINDSOR",
        "streetNameDisplayText": "DRIFTWOOD DR, WINDSOR"
      }
    ]
  },
  {
    "postal": "N9E4H9",
    "result": []
  },
  {
    "postal": "N9E6X1",
    "result": []
  },
  {
    "postal": "N9E9Y7",
    "result": []
  },
  {
    "postal": "N9E2Y5",
    "result": [
      {
        "electoralDistricts": [
          {
            "election": null,
            "id": 119,
            "name": "Windsor West"
          }
        ],
        "pollDivisionIds": [
          10142793
        ],
        "postalCode": "N9E2Y5",
        "streetName": "GLENWOOD",
        "streetDirectionId": null,
        "streetTypeId": "AVE",
        "placeName": "WINDSOR",
        "streetNameDisplayText": "GLENWOOD AVE, WINDSOR"
      }
    ]
  },
  {
    "postal": "N9E8L7",
    "result": []
  },
  {
    "postal": "N9E2A8",
    "result": [
      {
        "electoralDistricts": [
          {
            "election": null,
            "id": 119,
            "name": "Windsor West"
          }
        ],
        "pollDivisionIds": [
          10142800
        ],
        "postalCode": "N9E2A8",
        "streetName": "ROCKWELL",
        "streetDirectionId": null,
        "streetTypeId": "BLVD",
        "placeName": "WINDSOR",
        "streetNameDisplayText": "ROCKWELL BLVD, WINDSOR"
      }
    ]
  },
  {
    "postal": "N9E2K9",
    "result": [
      {
        "electoralDistricts": [
          {
            "election": null,
            "id": 119,
            "name": "Windsor West"
          }
        ],
        "pollDivisionIds": [
          10142792
        ],
        "postalCode": "N9E2K9",
        "streetName": "LONGFELLOW",
        "streetDirectionId": null,
        "streetTypeId": "AVE",
        "placeName": "WINDSOR",
        "streetNameDisplayText": "LONGFELLOW AVE, WINDSOR"
      }
    ]
  },
  {
    "postal": "N9E3E5",
    "result": [
      {
        "electoralDistricts": [
          {
            "election": null,
            "id": 119,
            "name": "Windsor West"
          }
        ],
        "pollDivisionIds": [
          10142786
        ],
        "postalCode": "N9E3E5",
        "streetName": "RANDOLPH",
        "streetDirectionId": null,
        "streetTypeId": "AVE",
        "placeName": "WINDSOR",
        "streetNameDisplayText": "RANDOLPH AVE, WINDSOR"
      }
    ]
  },
  {
    "postal": "N9E8N6",
    "result": []
  },
  {
    "postal": "N9E8J4",
    "result": []
  },
  {
    "postal": "N9E4R7",
    "result": [
      {
        "electoralDistricts": [
          {
            "election": null,
            "id": 119,
            "name": "Windsor West"
          }
        ],
        "pollDivisionIds": [
          10142806
        ],
        "postalCode": "N9E4R7",
        "streetName": "GERALDINE",
        "streetDirectionId": null,
        "streetTypeId": "CRES",
        "placeName": "WINDSOR",
        "streetNameDisplayText": "GERALDINE CRES, WINDSOR"
      }
    ]
  },
  {
    "postal": "N9E9K1",
    "result": []
  },
  {
    "postal": "N9E8E1",
    "result": []
  },
  {
    "postal": "N9E0R1",
    "result": []
  },
  {
    "postal": "N9E4J3",
    "result": [
      {
        "electoralDistricts": [
          {
            "election": null,
            "id": 119,
            "name": "Windsor West"
          }
        ],
        "pollDivisionIds": [
          10142786
        ],
        "postalCode": "N9E4J3",
        "streetName": "REDDOCK",
        "streetDirectionId": null,
        "streetTypeId": "AVE",
        "placeName": "WINDSOR",
        "streetNameDisplayText": "REDDOCK AVE, WINDSOR"
      }
    ]
  },
  {
    "postal": "N9E7E7",
    "result": []
  },
  {
    "postal": "N9E0J0",
    "result": []
  },
  {
    "postal": "N9E7R8",
    "result": []
  },
  {
    "postal": "N9E9X0",
    "result": []
  },
  {
    "postal": "N9E7P6",
    "result": []
  },
  {
    "postal": "N9E0R7",
    "result": []
  },
  {
    "postal": "N9E5W1",
    "result": []
  },
  {
    "postal": "N9E0K4",
    "result": []
  },
  {
    "postal": "N9E7N9",
    "result": []
  },
  {
    "postal": "N9E1N0",
    "result": []
  },
  {
    "postal": "N9E6P3",
    "result": []
  },
  {
    "postal": "N9E5A1",
    "result": []
  },
  {
    "postal": "N9E9M9",
    "result": []
  },
  {
    "postal": "N9E7T6",
    "result": []
  },
  {
    "postal": "N9E3X0",
    "result": []
  },
  {
    "postal": "N9E2T0",
    "result": []
  },
  {
    "postal": "N9E5X9",
    "result": []
  },
  {
    "postal": "N9E2R3",
    "result": [
      {
        "electoralDistricts": [
          {
            "election": null,
            "id": 119,
            "name": "Windsor West"
          }
        ],
        "pollDivisionIds": [
          10142793
        ],
        "postalCode": "N9E2R3",
        "streetName": "MCKAY",
        "streetDirectionId": null,
        "streetTypeId": "AVE",
        "placeName": "WINDSOR",
        "streetNameDisplayText": "MCKAY AVE, WINDSOR"
      }
    ]
  },
  {
    "postal": "N9E5N2",
    "result": []
  },
  {
    "postal": "N9E4Y7",
    "result": [
      {
        "electoralDistricts": [
          {
            "election": null,
            "id": 119,
            "name": "Windsor West"
          }
        ],
        "pollDivisionIds": [
          10142792
        ],
        "postalCode": "N9E4Y7",
        "streetName": "PIAZZA",
        "streetDirectionId": null,
        "streetTypeId": "ST",
        "placeName": "WINDSOR",
        "streetNameDisplayText": "PIAZZA ST, WINDSOR"
      }
    ]
  },
  {
    "postal": "N9E7M0",
    "result": []
  },
  {
    "postal": "N9E8P3",
    "result": []
  },
  {
    "postal": "N9E3N3",
    "result": [
      {
        "electoralDistricts": [
          {
            "election": null,
            "id": 119,
            "name": "Windsor West"
          }
        ],
        "pollDivisionIds": [
          10142806
        ],
        "postalCode": "N9E3N3",
        "streetName": "HUNTINGTON",
        "streetDirectionId": null,
        "streetTypeId": "AVE",
        "placeName": "WINDSOR",
        "streetNameDisplayText": "HUNTINGTON AVE, WINDSOR"
      }
    ]
  },
  {
    "postal": "N9E7S3",
    "result": []
  },
  {
    "postal": "N9E3V9",
    "result": [
      {
        "electoralDistricts": [
          {
            "election": null,
            "id": 119,
            "name": "Windsor West"
          }
        ],
        "pollDivisionIds": [
          10142777
        ],
        "postalCode": "N9E3V9",
        "streetName": "MALDEN",
        "streetDirectionId": null,
        "streetTypeId": "RD",
        "placeName": "WINDSOR",
        "streetNameDisplayText": "MALDEN RD, WINDSOR"
      }
    ]
  },
  {
    "postal": "N9E9N7",
    "result": []
  },
  {
    "postal": "N9E0G4",
    "result": []
  },
  {
    "postal": "N9E2E2",
    "result": [
      {
        "electoralDistricts": [
          {
            "election": null,
            "id": 119,
            "name": "Windsor West"
          }
        ],
        "pollDivisionIds": [
          10142796
        ],
        "postalCode": "N9E2E2",
        "streetName": "DANDURAND",
        "streetDirectionId": null,
        "streetTypeId": "AVE",
        "placeName": "WINDSOR",
        "streetNameDisplayText": "DANDURAND AVE, WINDSOR"
      }
    ]
  },
  {
    "postal": "N9E7W8",
    "result": []
  },
  {
    "postal": "N9E7M5",
    "result": []
  },
  {
    "postal": "N9E5W8",
    "result": []
  },
  {
    "postal": "N9E5E5",
    "result": []
  },
  {
    "postal": "N9E1P9",
    "result": [
      {
        "electoralDistricts": [
          {
            "election": null,
            "id": 119,
            "name": "Windsor West"
          }
        ],
        "pollDivisionIds": [
          10142797
        ],
        "postalCode": "N9E1P9",
        "streetName": "SUMMER",
        "streetDirectionId": null,
        "streetTypeId": "CRT",
        "placeName": "WINDSOR",
        "streetNameDisplayText": "SUMMER CRT, WINDSOR"
      }
    ]
  },
  {
    "postal": "N9E8V8",
    "result": []
  },
  {
    "postal": "N9E9G8",
    "result": []
  },
  {
    "postal": "N9E8H9",
    "result": []
  },
  {
    "postal": "N9E1Z1",
    "result": [
      {
        "electoralDistricts": [
          {
            "election": null,
            "id": 119,
            "name": "Windsor West"
          }
        ],
        "pollDivisionIds": [
          10142801
        ],
        "postalCode": "N9E1Z1",
        "streetName": "MAISONNEUVE",
        "streetDirectionId": null,
        "streetTypeId": "AVE",
        "placeName": "WINDSOR",
        "streetNameDisplayText": "MAISONNEUVE AVE, WINDSOR"
      }
    ]
  },
  {
    "postal": "N9E8M3",
    "result": []
  },
  {
    "postal": "N9E5H6",
    "result": []
  },
  {
    "postal": "N9E7W7",
    "result": []
  },
  {
    "postal": "N9E4L0",
    "result": []
  },
  {
    "postal": "N9E2N1",
    "result": [
      {
        "electoralDistricts": [
          {
            "election": null,
            "id": 119,
            "name": "Windsor West"
          }
        ],
        "pollDivisionIds": [
          10142796
        ],
        "postalCode": "N9E2N1",
        "streetName": "DOMINION",
        "streetDirectionId": null,
        "streetTypeId": "BLVD",
        "placeName": "WINDSOR",
        "streetNameDisplayText": "DOMINION BLVD, WINDSOR"
      }
    ]
  },
  {
    "postal": "N9E2H4",
    "result": [
      {
        "electoralDistricts": [
          {
            "election": null,
            "id": 119,
            "name": "Windsor West"
          }
        ],
        "pollDivisionIds": [
          10142800
        ],
        "postalCode": "N9E2H4",
        "streetName": "ACADEMY",
        "streetDirectionId": null,
        "streetTypeId": "DR",
        "placeName": "WINDSOR",
        "streetNameDisplayText": "ACADEMY DR, WINDSOR"
      }
    ]
  },
  {
    "postal": "N9E5C8",
    "result": []
  },
  {
    "postal": "N9E8B0",
    "result": []
  },
  {
    "postal": "N9E1T4",
    "result": [
      {
        "electoralDistricts": [
          {
            "election": null,
            "id": 119,
            "name": "Windsor West"
          }
        ],
        "pollDivisionIds": [
          10142806
        ],
        "postalCode": "N9E1T4",
        "streetName": "DOUGALL",
        "streetDirectionId": null,
        "streetTypeId": "AVE",
        "placeName": "WINDSOR",
        "streetNameDisplayText": "DOUGALL AVE, WINDSOR"
      }
    ]
  },
  {
    "postal": "N9E7N7",
    "result": []
  },
  {
    "postal": "N9E4L3",
    "result": [
      {
        "electoralDistricts": [
          {
            "election": null,
            "id": 119,
            "name": "Windsor West"
          }
        ],
        "pollDivisionIds": [
          10142793
        ],
        "postalCode": "N9E4L3",
        "streetName": "NORFOLK",
        "streetDirectionId": null,
        "streetTypeId": "ST",
        "placeName": "WINDSOR",
        "streetNameDisplayText": "NORFOLK ST, WINDSOR"
      }
    ]
  },
  {
    "postal": "N9E2N2",
    "result": []
  },
  {
    "postal": "N9E4N8",
    "result": [
      {
        "electoralDistricts": [
          {
            "election": null,
            "id": 119,
            "name": "Windsor West"
          }
        ],
        "pollDivisionIds": [
          10142789
        ],
        "postalCode": "N9E4N8",
        "streetName": "NORTHWAY",
        "streetDirectionId": null,
        "streetTypeId": "AVE",
        "placeName": "WINDSOR",
        "streetNameDisplayText": "NORTHWAY AVE, WINDSOR"
      },
      {
        "electoralDistricts": [
          {
            "election": null,
            "id": 119,
            "name": "Windsor West"
          }
        ],
        "pollDivisionIds": [
          10142789
        ],
        "postalCode": "N9E4N8",
        "streetName": "PAUL MARTIN",
        "streetDirectionId": null,
        "streetTypeId": "CRT",
        "placeName": "WINDSOR",
        "streetNameDisplayText": "PAUL MARTIN CRT, WINDSOR"
      },
      {
        "electoralDistricts": [
          {
            "election": null,
            "id": 119,
            "name": "Windsor West"
          }
        ],
        "pollDivisionIds": [
          10142789
        ],
        "postalCode": "N9E4N8",
        "streetName": "PRESTON",
        "streetDirectionId": null,
        "streetTypeId": "CRT",
        "placeName": "WINDSOR",
        "streetNameDisplayText": "PRESTON CRT, WINDSOR"
      }
    ]
  },
  {
    "postal": "N9E3M5",
    "result": [
      {
        "electoralDistricts": [
          {
            "election": null,
            "id": 119,
            "name": "Windsor West"
          }
        ],
        "pollDivisionIds": [
          10142806
        ],
        "postalCode": "N9E3M5",
        "streetName": "OUELLETTE",
        "streetDirectionId": null,
        "streetTypeId": "AVE",
        "placeName": "WINDSOR",
        "streetNameDisplayText": "OUELLETTE AVE, WINDSOR"
      }
    ]
  },
  {
    "postal": "N9E6H7",
    "result": []
  },
  {
    "postal": "N9E8Y8",
    "result": []
  },
  {
    "postal": "N9E5R9",
    "result": []
  },
  {
    "postal": "N9E8G3",
    "result": []
  },
  {
    "postal": "N9E4N7",
    "result": [
      {
        "electoralDistricts": [
          {
            "election": null,
            "id": 119,
            "name": "Windsor West"
          }
        ],
        "pollDivisionIds": [
          10142788
        ],
        "postalCode": "N9E4N7",
        "streetName": "NORTHWOOD",
        "streetDirectionId": null,
        "streetTypeId": "ST",
        "placeName": "WINDSOR",
        "streetNameDisplayText": "NORTHWOOD ST, WINDSOR"
      }
    ]
  },
  {
    "postal": "N9E0B9",
    "result": []
  },
  {
    "postal": "N9E9K7",
    "result": []
  },
  {
    "postal": "N9E9K9",
    "result": []
  },
  {
    "postal": "N9E3Z2",
    "result": [
      {
        "electoralDistricts": [
          {
            "election": null,
            "id": 119,
            "name": "Windsor West"
          }
        ],
        "pollDivisionIds": [
          10142777
        ],
        "postalCode": "N9E3Z2",
        "streetName": "LAMONT",
        "streetDirectionId": null,
        "streetTypeId": "ST",
        "placeName": "WINDSOR",
        "streetNameDisplayText": "LAMONT ST, WINDSOR"
      }
    ]
  },
  {
    "postal": "N9E6W7",
    "result": []
  },
  {
    "postal": "N9E0P1",
    "result": []
  },
  {
    "postal": "N9E3A0",
    "result": []
  },
  {
    "postal": "N9E8L9",
    "result": []
  },
  {
    "postal": "N9E6X0",
    "result": []
  },
  {
    "postal": "N9E3E9",
    "result": [
      {
        "electoralDistricts": [
          {
            "election": null,
            "id": 119,
            "name": "Windsor West"
          }
        ],
        "pollDivisionIds": [
          10142793
        ],
        "postalCode": "N9E3E9",
        "streetName": "RANDOLPH",
        "streetDirectionId": null,
        "streetTypeId": "AVE",
        "placeName": "WINDSOR",
        "streetNameDisplayText": "RANDOLPH AVE, WINDSOR"
      }
    ]
  },
  {
    "postal": "N9E0S5",
    "result": []
  },
  {
    "postal": "N9E1A2",
    "result": [
      {
        "electoralDistricts": [
          {
            "election": null,
            "id": 119,
            "name": "Windsor West"
          }
        ],
        "pollDivisionIds": [
          10142792
        ],
        "postalCode": "N9E1A2",
        "streetName": "NORTHWOOD",
        "streetDirectionId": null,
        "streetTypeId": "ST",
        "placeName": "WINDSOR",
        "streetNameDisplayText": "NORTHWOOD ST, WINDSOR"
      }
    ]
  },
  {
    "postal": "N9E5V8",
    "result": []
  },
  {
    "postal": "N9E8C5",
    "result": []
  },
  {
    "postal": "N9E6N0",
    "result": []
  },
  {
    "postal": "N9E9E6",
    "result": []
  },
  {
    "postal": "N9E5J7",
    "result": []
  },
  {
    "postal": "N9E2R2",
    "result": [
      {
        "electoralDistricts": [
          {
            "election": null,
            "id": 119,
            "name": "Windsor West"
          }
        ],
        "pollDivisionIds": [
          10142796
        ],
        "postalCode": "N9E2R2",
        "streetName": "MCKAY",
        "streetDirectionId": null,
        "streetTypeId": "AVE",
        "placeName": "WINDSOR",
        "streetNameDisplayText": "MCKAY AVE, WINDSOR"
      }
    ]
  },
  {
    "postal": "N9E0P5",
    "result": []
  },
  {
    "postal": "N9E5A7",
    "result": []
  },
  {
    "postal": "N9E1G1",
    "result": [
      {
        "electoralDistricts": [
          {
            "election": null,
            "id": 119,
            "name": "Windsor West"
          }
        ],
        "pollDivisionIds": [
          10142796
        ],
        "postalCode": "N9E1G1",
        "streetName": "GRAND MARAIS",
        "streetDirectionId": "W",
        "streetTypeId": "RD",
        "placeName": "WINDSOR",
        "streetNameDisplayText": "GRAND MARAIS RD W, WINDSOR"
      }
    ]
  },
  {
    "postal": "N9E9R6",
    "result": []
  },
  {
    "postal": "N9E4Z9",
    "result": []
  },
  {
    "postal": "N9E1V5",
    "result": [
      {
        "electoralDistricts": [
          {
            "election": null,
            "id": 119,
            "name": "Windsor West"
          }
        ],
        "pollDivisionIds": [
          10142800
        ],
        "postalCode": "N9E1V5",
        "streetName": "CHURCH",
        "streetDirectionId": null,
        "streetTypeId": "ST",
        "placeName": "WINDSOR",
        "streetNameDisplayText": "CHURCH ST, WINDSOR"
      }
    ]
  },
  {
    "postal": "N9E9Y5",
    "result": []
  },
  {
    "postal": "N9E1P2",
    "result": [
      {
        "electoralDistricts": [
          {
            "election": null,
            "id": 119,
            "name": "Windsor West"
          }
        ],
        "pollDivisionIds": [
          10142801
        ],
        "postalCode": "N9E1P2",
        "streetName": "ST. GABRIEL",
        "streetDirectionId": null,
        "streetTypeId": "CRT",
        "placeName": "WINDSOR",
        "streetNameDisplayText": "ST. GABRIEL CRT, WINDSOR"
      }
    ]
  },
  {
    "postal": "N9E5X0",
    "result": []
  },
  {
    "postal": "N9E7B8",
    "result": []
  },
  {
    "postal": "N9E0C6",
    "result": []
  },
  {
    "postal": "N9E6G1",
    "result": []
  },
  {
    "postal": "N9E3K3",
    "result": [
      {
        "electoralDistricts": [
          {
            "election": null,
            "id": 119,
            "name": "Windsor West"
          }
        ],
        "pollDivisionIds": [
          10142786
        ],
        "postalCode": "N9E3K3",
        "streetName": "CALIFORNIA",
        "streetDirectionId": null,
        "streetTypeId": "AVE",
        "placeName": "WINDSOR",
        "streetNameDisplayText": "CALIFORNIA AVE, WINDSOR"
      }
    ]
  },
  {
    "postal": "N9E9R0",
    "result": []
  },
  {
    "postal": "N9E4R8",
    "result": [
      {
        "electoralDistricts": [
          {
            "election": null,
            "id": 119,
            "name": "Windsor West"
          }
        ],
        "pollDivisionIds": [
          10142800
        ],
        "postalCode": "N9E4R8",
        "streetName": "BRUCE",
        "streetDirectionId": null,
        "streetTypeId": "AVE",
        "placeName": "WINDSOR",
        "streetNameDisplayText": "BRUCE AVE, WINDSOR"
      }
    ]
  },
  {
    "postal": "N9E5P9",
    "result": []
  },
  {
    "postal": "N9E8N4",
    "result": []
  },
  {
    "postal": "N9E8H4",
    "result": []
  },
  {
    "postal": "N9E4V1",
    "result": [
      {
        "electoralDistricts": [
          {
            "election": null,
            "id": 119,
            "name": "Windsor West"
          }
        ],
        "pollDivisionIds": [
          10142796
        ],
        "postalCode": "N9E4V1",
        "streetName": "GRAND MARAIS",
        "streetDirectionId": "W",
        "streetTypeId": "RD",
        "placeName": "WINDSOR",
        "streetNameDisplayText": "GRAND MARAIS RD W, WINDSOR"
      }
    ]
  },
  {
    "postal": "N9E1K5",
    "result": [
      {
        "electoralDistricts": [
          {
            "election": null,
            "id": 119,
            "name": "Windsor West"
          }
        ],
        "pollDivisionIds": [
          10142801
        ],
        "postalCode": "N9E1K5",
        "streetName": "ROSELAWN",
        "streetDirectionId": null,
        "streetTypeId": "DR",
        "placeName": "WINDSOR",
        "streetNameDisplayText": "ROSELAWN DR, WINDSOR"
      }
    ]
  },
  {
    "postal": "N9E1Z5",
    "result": [
      {
        "electoralDistricts": [
          {
            "election": null,
            "id": 119,
            "name": "Windsor West"
          }
        ],
        "pollDivisionIds": [
          10142800
        ],
        "postalCode": "N9E1Z5",
        "streetName": "WOODLAND",
        "streetDirectionId": null,
        "streetTypeId": "AVE",
        "placeName": "WINDSOR",
        "streetNameDisplayText": "WOODLAND AVE, WINDSOR"
      }
    ]
  },
  {
    "postal": "N9E9L9",
    "result": []
  },
  {
    "postal": "N9E5L2",
    "result": []
  },
  {
    "postal": "N9E0M2",
    "result": []
  },
  {
    "postal": "N9E1K8",
    "result": [
      {
        "electoralDistricts": [
          {
            "election": null,
            "id": 119,
            "name": "Windsor West"
          }
        ],
        "pollDivisionIds": [
          10142801
        ],
        "postalCode": "N9E1K8",
        "streetName": "ROSELAWN",
        "streetDirectionId": null,
        "streetTypeId": "DR",
        "placeName": "WINDSOR",
        "streetNameDisplayText": "ROSELAWN DR, WINDSOR"
      }
    ]
  },
  {
    "postal": "N9E3M7",
    "result": [
      {
        "electoralDistricts": [
          {
            "election": null,
            "id": 119,
            "name": "Windsor West"
          }
        ],
        "pollDivisionIds": [
          10142806
        ],
        "postalCode": "N9E3M7",
        "streetName": "OUELLETTE",
        "streetDirectionId": null,
        "streetTypeId": "AVE",
        "placeName": "WINDSOR",
        "streetNameDisplayText": "OUELLETTE AVE, WINDSOR"
      }
    ]
  },
  {
    "postal": "N9E1B2",
    "result": [
      {
        "electoralDistricts": [
          {
            "election": null,
            "id": 119,
            "name": "Windsor West"
          }
        ],
        "pollDivisionIds": [
          10142789
        ],
        "postalCode": "N9E1B2",
        "streetName": "COLUMBIA",
        "streetDirectionId": null,
        "streetTypeId": "CRT",
        "placeName": "WINDSOR",
        "streetNameDisplayText": "COLUMBIA CRT, WINDSOR"
      }
    ]
  },
  {
    "postal": "N9E0H9",
    "result": []
  },
  {
    "postal": "N9E8M4",
    "result": []
  },
  {
    "postal": "N9E2M5",
    "result": [
      {
        "electoralDistricts": [
          {
            "election": null,
            "id": 119,
            "name": "Windsor West"
          }
        ],
        "pollDivisionIds": [
          10142788
        ],
        "postalCode": "N9E2M5",
        "streetName": "DOMINION",
        "streetDirectionId": null,
        "streetTypeId": "BLVD",
        "placeName": "WINDSOR",
        "streetNameDisplayText": "DOMINION BLVD, WINDSOR"
      }
    ]
  },
  {
    "postal": "N9E0T9",
    "result": []
  },
  {
    "postal": "N9E3P1",
    "result": [
      {
        "electoralDistricts": [
          {
            "election": null,
            "id": 119,
            "name": "Windsor West"
          }
        ],
        "pollDivisionIds": [
          10142777
        ],
        "postalCode": "N9E3P1",
        "streetName": "CONTINENTAL",
        "streetDirectionId": null,
        "streetTypeId": "AVE",
        "placeName": "WINDSOR",
        "streetNameDisplayText": "CONTINENTAL AVE, WINDSOR"
      }
    ]
  },
  {
    "postal": "N9E1R6",
    "result": [
      {
        "electoralDistricts": [
          {
            "election": null,
            "id": 119,
            "name": "Windsor West"
          }
        ],
        "pollDivisionIds": [
          10142806
        ],
        "postalCode": "N9E1R6",
        "streetName": "SANDISON",
        "streetDirectionId": null,
        "streetTypeId": "ST",
        "placeName": "WINDSOR",
        "streetNameDisplayText": "SANDISON ST, WINDSOR"
      }
    ]
  },
  {
    "postal": "N9E9V5",
    "result": []
  },
  {
    "postal": "N9E9T0",
    "result": []
  },
  {
    "postal": "N9E0A9",
    "result": []
  },
  {
    "postal": "N9E1M3",
    "result": [
      {
        "electoralDistricts": [
          {
            "election": null,
            "id": 119,
            "name": "Windsor West"
          }
        ],
        "pollDivisionIds": [
          10142801
        ],
        "postalCode": "N9E1M3",
        "streetName": "FRONTENAC",
        "streetDirectionId": null,
        "streetTypeId": "AVE",
        "placeName": "WINDSOR",
        "streetNameDisplayText": "FRONTENAC AVE, WINDSOR"
      }
    ]
  },
  {
    "postal": "N9E1W8",
    "result": [
      {
        "electoralDistricts": [
          {
            "election": null,
            "id": 119,
            "name": "Windsor West"
          }
        ],
        "pollDivisionIds": [
          10142801
        ],
        "postalCode": "N9E1W8",
        "streetName": "BRUCE",
        "streetDirectionId": null,
        "streetTypeId": "AVE",
        "placeName": "WINDSOR",
        "streetNameDisplayText": "BRUCE AVE, WINDSOR"
      }
    ]
  },
  {
    "postal": "N9E9J1",
    "result": []
  },
  {
    "postal": "N9E8N5",
    "result": []
  },
  {
    "postal": "N9E5X1",
    "result": []
  },
  {
    "postal": "N9E6S2",
    "result": []
  },
  {
    "postal": "N9E2A2",
    "result": [
      {
        "electoralDistricts": [
          {
            "election": null,
            "id": 119,
            "name": "Windsor West"
          }
        ],
        "pollDivisionIds": [
          10142796
        ],
        "postalCode": "N9E2A2",
        "streetName": "ROCKWELL",
        "streetDirectionId": null,
        "streetTypeId": "BLVD",
        "placeName": "WINDSOR",
        "streetNameDisplayText": "ROCKWELL BLVD, WINDSOR"
      }
    ]
  },
  {
    "postal": "N9E6A6",
    "result": []
  },
  {
    "postal": "N9E0S3",
    "result": []
  },
  {
    "postal": "N9E3E7",
    "result": [
      {
        "electoralDistricts": [
          {
            "election": null,
            "id": 119,
            "name": "Windsor West"
          }
        ],
        "pollDivisionIds": [
          10142793
        ],
        "postalCode": "N9E3E7",
        "streetName": "RANDOLPH",
        "streetDirectionId": null,
        "streetTypeId": "AVE",
        "placeName": "WINDSOR",
        "streetNameDisplayText": "RANDOLPH AVE, WINDSOR"
      }
    ]
  },
  {
    "postal": "N9E5R7",
    "result": []
  },
  {
    "postal": "N9E3R6",
    "result": [
      {
        "electoralDistricts": [
          {
            "election": null,
            "id": 119,
            "name": "Windsor West"
          }
        ],
        "pollDivisionIds": [
          10142777
        ],
        "postalCode": "N9E3R6",
        "streetName": "LAMBTON",
        "streetDirectionId": null,
        "streetTypeId": "ST",
        "placeName": "WINDSOR",
        "streetNameDisplayText": "LAMBTON ST, WINDSOR"
      }
    ]
  },
  {
    "postal": "N9E6K4",
    "result": []
  },
  {
    "postal": "N9E2W5",
    "result": [
      {
        "electoralDistricts": [
          {
            "election": null,
            "id": 119,
            "name": "Windsor West"
          }
        ],
        "pollDivisionIds": [
          10142789
        ],
        "postalCode": "N9E2W5",
        "streetName": "MARK",
        "streetDirectionId": null,
        "streetTypeId": "AVE",
        "placeName": "WINDSOR",
        "streetNameDisplayText": "MARK AVE, WINDSOR"
      }
    ]
  },
  {
    "postal": "N9E8W4",
    "result": []
  },
  {
    "postal": "N9E9C2",
    "result": []
  },
  {
    "postal": "N9E2C0",
    "result": []
  },
  {
    "postal": "N9E0E1",
    "result": []
  },
  {
    "postal": "N9E1K9",
    "result": [
      {
        "electoralDistricts": [
          {
            "election": null,
            "id": 119,
            "name": "Windsor West"
          }
        ],
        "pollDivisionIds": [
          10142801
        ],
        "postalCode": "N9E1K9",
        "streetName": "ROSELAWN",
        "streetDirectionId": null,
        "streetTypeId": "DR",
        "placeName": "WINDSOR",
        "streetNameDisplayText": "ROSELAWN DR, WINDSOR"
      }
    ]
  },
  {
    "postal": "N9E1G7",
    "result": [
      {
        "electoralDistricts": [
          {
            "election": null,
            "id": 119,
            "name": "Windsor West"
          }
        ],
        "pollDivisionIds": [
          10142793
        ],
        "postalCode": "N9E1G7",
        "streetName": "WEST GRAND",
        "streetDirectionId": null,
        "streetTypeId": "CRT",
        "placeName": "WINDSOR",
        "streetNameDisplayText": "WEST GRAND CRT, WINDSOR"
      }
    ]
  },
  {
    "postal": "N9E4E9",
    "result": [
      {
        "electoralDistricts": [
          {
            "election": null,
            "id": 119,
            "name": "Windsor West"
          }
        ],
        "pollDivisionIds": [
          10142786
        ],
        "postalCode": "N9E4E9",
        "streetName": "NORTHWAY",
        "streetDirectionId": null,
        "streetTypeId": "AVE",
        "placeName": "WINDSOR",
        "streetNameDisplayText": "NORTHWAY AVE, WINDSOR"
      }
    ]
  },
  {
    "postal": "N9E9P0",
    "result": []
  },
  {
    "postal": "N9E5H3",
    "result": []
  },
  {
    "postal": "N9E9X6",
    "result": []
  },
  {
    "postal": "N9E5N7",
    "result": []
  },
  {
    "postal": "N9E5A6",
    "result": []
  },
  {
    "postal": "N9E4M0",
    "result": []
  },
  {
    "postal": "N9E3V6",
    "result": [
      {
        "electoralDistricts": [
          {
            "election": null,
            "id": 119,
            "name": "Windsor West"
          }
        ],
        "pollDivisionIds": [
          10142777
        ],
        "postalCode": "N9E3V6",
        "streetName": "MALDEN",
        "streetDirectionId": null,
        "streetTypeId": "RD",
        "placeName": "WINDSOR",
        "streetNameDisplayText": "MALDEN RD, WINDSOR"
      }
    ]
  },
  {
    "postal": "N9E1L7",
    "result": [
      {
        "electoralDistricts": [
          {
            "election": null,
            "id": 119,
            "name": "Windsor West"
          }
        ],
        "pollDivisionIds": [
          10142801
        ],
        "postalCode": "N9E1L7",
        "streetName": "ROSELAWN",
        "streetDirectionId": null,
        "streetTypeId": "DR",
        "placeName": "WINDSOR",
        "streetNameDisplayText": "ROSELAWN DR, WINDSOR"
      }
    ]
  },
  {
    "postal": "N9E2P9",
    "result": [
      {
        "electoralDistricts": [
          {
            "election": null,
            "id": 119,
            "name": "Windsor West"
          }
        ],
        "pollDivisionIds": [
          10142796
        ],
        "postalCode": "N9E2P9",
        "streetName": "MCKAY",
        "streetDirectionId": null,
        "streetTypeId": "AVE",
        "placeName": "WINDSOR",
        "streetNameDisplayText": "MCKAY AVE, WINDSOR"
      }
    ]
  },
  {
    "postal": "N9E5T4",
    "result": []
  },
  {
    "postal": "N9E5Z1",
    "result": []
  },
  {
    "postal": "N9E2X0",
    "result": []
  },
  {
    "postal": "N9E6Z2",
    "result": []
  },
  {
    "postal": "N9E0E0",
    "result": []
  },
  {
    "postal": "N9E3Z5",
    "result": [
      {
        "electoralDistricts": [
          {
            "election": null,
            "id": 119,
            "name": "Windsor West"
          }
        ],
        "pollDivisionIds": [
          10142786
        ],
        "postalCode": "N9E3Z5",
        "streetName": "VALEBROOK",
        "streetDirectionId": null,
        "streetTypeId": "ST",
        "placeName": "WINDSOR",
        "streetNameDisplayText": "VALEBROOK ST, WINDSOR"
      }
    ]
  },
  {
    "postal": "N9E8H3",
    "result": []
  },
  {
    "postal": "N9E7S6",
    "result": []
  },
  {
    "postal": "N9E4C1",
    "result": [
      {
        "electoralDistricts": [
          {
            "election": null,
            "id": 119,
            "name": "Windsor West"
          }
        ],
        "pollDivisionIds": [
          10142801,
          10142800
        ],
        "postalCode": "N9E4C1",
        "streetName": "LONGFELLOW",
        "streetDirectionId": null,
        "streetTypeId": "AVE",
        "placeName": "WINDSOR",
        "streetNameDisplayText": "LONGFELLOW AVE, WINDSOR"
      }
    ]
  },
  {
    "postal": "N9E3K2",
    "result": [
      {
        "electoralDistricts": [
          {
            "election": null,
            "id": 119,
            "name": "Windsor West"
          }
        ],
        "pollDivisionIds": [
          10142789
        ],
        "postalCode": "N9E3K2",
        "streetName": "CALIFORNIA",
        "streetDirectionId": null,
        "streetTypeId": "AVE",
        "placeName": "WINDSOR",
        "streetNameDisplayText": "CALIFORNIA AVE, WINDSOR"
      }
    ]
  },
  {
    "postal": "N9E1Y5",
    "result": [
      {
        "electoralDistricts": [
          {
            "election": null,
            "id": 119,
            "name": "Windsor West"
          }
        ],
        "pollDivisionIds": [
          10142800
        ],
        "postalCode": "N9E1Y5",
        "streetName": "RADISSON",
        "streetDirectionId": null,
        "streetTypeId": "AVE",
        "placeName": "WINDSOR",
        "streetNameDisplayText": "RADISSON AVE, WINDSOR"
      }
    ]
  },
  {
    "postal": "N9E6P6",
    "result": []
  },
  {
    "postal": "N9E3N9",
    "result": [
      {
        "electoralDistricts": [
          {
            "election": null,
            "id": 119,
            "name": "Windsor West"
          }
        ],
        "pollDivisionIds": [
          10142806
        ],
        "postalCode": "N9E3N9",
        "streetName": "HOWARD",
        "streetDirectionId": null,
        "streetTypeId": "AVE",
        "placeName": "WINDSOR",
        "streetNameDisplayText": "HOWARD AVE, WINDSOR"
      }
    ]
  },
  {
    "postal": "N9E3W2",
    "result": [
      {
        "electoralDistricts": [
          {
            "election": null,
            "id": 119,
            "name": "Windsor West"
          }
        ],
        "pollDivisionIds": [
          10142792
        ],
        "postalCode": "N9E3W2",
        "streetName": "NORTHWOOD",
        "streetDirectionId": null,
        "streetTypeId": "ST",
        "placeName": "WINDSOR",
        "streetNameDisplayText": "NORTHWOOD ST, WINDSOR"
      }
    ]
  },
  {
    "postal": "N9E6H8",
    "result": []
  },
  {
    "postal": "N9E9T3",
    "result": []
  },
  {
    "postal": "N9E5L9",
    "result": []
  },
  {
    "postal": "N9E7X7",
    "result": []
  },
  {
    "postal": "N9E3J5",
    "result": [
      {
        "electoralDistricts": [
          {
            "election": null,
            "id": 119,
            "name": "Windsor West"
          }
        ],
        "pollDivisionIds": [
          10142793
        ],
        "postalCode": "N9E3J5",
        "streetName": "ASKIN",
        "streetDirectionId": null,
        "streetTypeId": "AVE",
        "placeName": "WINDSOR",
        "streetNameDisplayText": "ASKIN AVE, WINDSOR"
      }
    ]
  },
  {
    "postal": "N9E4J5",
    "result": [
      {
        "electoralDistricts": [
          {
            "election": null,
            "id": 119,
            "name": "Windsor West"
          }
        ],
        "pollDivisionIds": [
          10142800
        ],
        "postalCode": "N9E4J5",
        "streetName": "ANCASTER",
        "streetDirectionId": null,
        "streetTypeId": "CRT",
        "placeName": "WINDSOR",
        "streetNameDisplayText": "ANCASTER CRT, WINDSOR"
      }
    ]
  },
  {
    "postal": "N9E6J2",
    "result": []
  },
  {
    "postal": "N9E5V6",
    "result": []
  },
  {
    "postal": "N9E3N2",
    "result": [
      {
        "electoralDistricts": [
          {
            "election": null,
            "id": 119,
            "name": "Windsor West"
          }
        ],
        "pollDivisionIds": [
          10142806
        ],
        "postalCode": "N9E3N2",
        "streetName": "HUNTINGTON",
        "streetDirectionId": null,
        "streetTypeId": "AVE",
        "placeName": "WINDSOR",
        "streetNameDisplayText": "HUNTINGTON AVE, WINDSOR"
      }
    ]
  },
  {
    "postal": "N9E3B1",
    "result": [
      {
        "electoralDistricts": [
          {
            "election": null,
            "id": 119,
            "name": "Windsor West"
          }
        ],
        "pollDivisionIds": [
          10142793
        ],
        "postalCode": "N9E3B1",
        "streetName": "CHARLEVOIX",
        "streetDirectionId": null,
        "streetTypeId": "AVE",
        "placeName": "WINDSOR",
        "streetNameDisplayText": "CHARLEVOIX AVE, WINDSOR"
      }
    ]
  },
  {
    "postal": "N9E8B5",
    "result": []
  },
  {
    "postal": "N9E0K1",
    "result": []
  },
  {
    "postal": "N9E7M7",
    "result": []
  },
  {
    "postal": "N9E2M2",
    "result": [
      {
        "electoralDistricts": [
          {
            "election": null,
            "id": 119,
            "name": "Windsor West"
          }
        ],
        "pollDivisionIds": [
          10142801
        ],
        "postalCode": "N9E2M2",
        "streetName": "LONGFELLOW",
        "streetDirectionId": null,
        "streetTypeId": "AVE",
        "placeName": "WINDSOR",
        "streetNameDisplayText": "LONGFELLOW AVE, WINDSOR"
      }
    ]
  },
  {
    "postal": "N9E9N3",
    "result": []
  },
  {
    "postal": "N9E4Y8",
    "result": [
      {
        "electoralDistricts": [
          {
            "election": null,
            "id": 119,
            "name": "Windsor West"
          }
        ],
        "pollDivisionIds": [
          10142792
        ],
        "postalCode": "N9E4Y8",
        "streetName": "ALEXANDRA",
        "streetDirectionId": null,
        "streetTypeId": "AVE",
        "placeName": "WINDSOR",
        "streetNameDisplayText": "ALEXANDRA AVE, WINDSOR"
      }
    ]
  },
  {
    "postal": "N9E3V7",
    "result": [
      {
        "electoralDistricts": [
          {
            "election": null,
            "id": 119,
            "name": "Windsor West"
          }
        ],
        "pollDivisionIds": [
          10142777
        ],
        "postalCode": "N9E3V7",
        "streetName": "MALDEN",
        "streetDirectionId": null,
        "streetTypeId": "RD",
        "placeName": "WINDSOR",
        "streetNameDisplayText": "MALDEN RD, WINDSOR"
      }
    ]
  },
  {
    "postal": "N9E8Z1",
    "result": []
  },
  {
    "postal": "N9E7B3",
    "result": []
  },
  {
    "postal": "N9E3A8",
    "result": [
      {
        "electoralDistricts": [
          {
            "election": null,
            "id": 119,
            "name": "Windsor West"
          }
        ],
        "pollDivisionIds": [
          10142789
        ],
        "postalCode": "N9E3A8",
        "streetName": "PARTINGTON",
        "streetDirectionId": null,
        "streetTypeId": "AVE",
        "placeName": "WINDSOR",
        "streetNameDisplayText": "PARTINGTON AVE, WINDSOR"
      }
    ]
  },
  {
    "postal": "N9E7V5",
    "result": []
  },
  {
    "postal": "N9E2T2",
    "result": [
      {
        "electoralDistricts": [
          {
            "election": null,
            "id": 119,
            "name": "Windsor West"
          }
        ],
        "pollDivisionIds": [
          10142793
        ],
        "postalCode": "N9E2T2",
        "streetName": "CURRY",
        "streetDirectionId": null,
        "streetTypeId": "AVE",
        "placeName": "WINDSOR",
        "streetNameDisplayText": "CURRY AVE, WINDSOR"
      }
    ]
  },
  {
    "postal": "N9E6L3",
    "result": []
  },
  {
    "postal": "N9E0L2",
    "result": []
  },
  {
    "postal": "N9E5Y8",
    "result": []
  },
  {
    "postal": "N9E0B8",
    "result": []
  },
  {
    "postal": "N9E6R5",
    "result": []
  },
  {
    "postal": "N9E8W6",
    "result": []
  },
  {
    "postal": "N9E8G6",
    "result": []
  },
  {
    "postal": "N9E6X3",
    "result": []
  },
  {
    "postal": "N9E7R7",
    "result": []
  },
  {
    "postal": "N9E4B6",
    "result": [
      {
        "electoralDistricts": [
          {
            "election": null,
            "id": 119,
            "name": "Windsor West"
          }
        ],
        "pollDivisionIds": [
          10142800
        ],
        "postalCode": "N9E4B6",
        "streetName": "BEALS",
        "streetDirectionId": null,
        "streetTypeId": "ST",
        "placeName": "WINDSOR",
        "streetNameDisplayText": "BEALS ST, WINDSOR"
      }
    ]
  },
  {
    "postal": "N9E3P9",
    "result": [
      {
        "electoralDistricts": [
          {
            "election": null,
            "id": 119,
            "name": "Windsor West"
          }
        ],
        "pollDivisionIds": [
          10142777
        ],
        "postalCode": "N9E3P9",
        "streetName": "SPRING GARDEN",
        "streetDirectionId": null,
        "streetTypeId": "RD",
        "placeName": "WINDSOR",
        "streetNameDisplayText": "SPRING GARDEN RD, WINDSOR"
      }
    ]
  },
  {
    "postal": "N9E2T3",
    "result": [
      {
        "electoralDistricts": [
          {
            "election": null,
            "id": 119,
            "name": "Windsor West"
          }
        ],
        "pollDivisionIds": [
          10142793
        ],
        "postalCode": "N9E2T3",
        "streetName": "CURRY",
        "streetDirectionId": null,
        "streetTypeId": "AVE",
        "placeName": "WINDSOR",
        "streetNameDisplayText": "CURRY AVE, WINDSOR"
      }
    ]
  },
  {
    "postal": "N9E1M4",
    "result": [
      {
        "electoralDistricts": [
          {
            "election": null,
            "id": 119,
            "name": "Windsor West"
          }
        ],
        "pollDivisionIds": [
          10142801
        ],
        "postalCode": "N9E1M4",
        "streetName": "FRONTENAC",
        "streetDirectionId": null,
        "streetTypeId": "AVE",
        "placeName": "WINDSOR",
        "streetNameDisplayText": "FRONTENAC AVE, WINDSOR"
      }
    ]
  },
  {
    "postal": "N9E0H1",
    "result": []
  },
  {
    "postal": "N9E9W3",
    "result": []
  },
  {
    "postal": "N9E6P1",
    "result": []
  },
  {
    "postal": "N9E7G2",
    "result": []
  },
  {
    "postal": "N9E4J9",
    "result": [
      {
        "electoralDistricts": [
          {
            "election": null,
            "id": 119,
            "name": "Windsor West"
          }
        ],
        "pollDivisionIds": [
          10142786
        ],
        "postalCode": "N9E4J9",
        "streetName": "NORTHWAY",
        "streetDirectionId": null,
        "streetTypeId": "AVE",
        "placeName": "WINDSOR",
        "streetNameDisplayText": "NORTHWAY AVE, WINDSOR"
      }
    ]
  },
  {
    "postal": "N9E9E4",
    "result": []
  },
  {
    "postal": "N9E8H0",
    "result": []
  },
  {
    "postal": "N9E4M7",
    "result": [
      {
        "electoralDistricts": [
          {
            "election": null,
            "id": 119,
            "name": "Windsor West"
          }
        ],
        "pollDivisionIds": [
          10142806
        ],
        "postalCode": "N9E4M7",
        "streetName": "FLETCHER",
        "streetDirectionId": null,
        "streetTypeId": "CRES",
        "placeName": "WINDSOR",
        "streetNameDisplayText": "FLETCHER CRES, WINDSOR"
      },
      {
        "electoralDistricts": [
          {
            "election": null,
            "id": 119,
            "name": "Windsor West"
          }
        ],
        "pollDivisionIds": [
          10142806
        ],
        "postalCode": "N9E4M7",
        "streetName": "GERALDINE",
        "streetDirectionId": null,
        "streetTypeId": "CRES",
        "placeName": "WINDSOR",
        "streetNameDisplayText": "GERALDINE CRES, WINDSOR"
      }
    ]
  },
  {
    "postal": "N9E2G9",
    "result": [
      {
        "electoralDistricts": [
          {
            "election": null,
            "id": 119,
            "name": "Windsor West"
          }
        ],
        "pollDivisionIds": [
          10142796
        ],
        "postalCode": "N9E2G9",
        "streetName": "ACADEMY",
        "streetDirectionId": null,
        "streetTypeId": "DR",
        "placeName": "WINDSOR",
        "streetNameDisplayText": "ACADEMY DR, WINDSOR"
      }
    ]
  },
  {
    "postal": "N9E8T2",
    "result": []
  },
  {
    "postal": "N9E7G7",
    "result": []
  },
  {
    "postal": "N9E4Z3",
    "result": [
      {
        "electoralDistricts": [
          {
            "election": null,
            "id": 119,
            "name": "Windsor West"
          }
        ],
        "pollDivisionIds": [
          10142792
        ],
        "postalCode": "N9E4Z3",
        "streetName": "VIRGINIA PARK",
        "streetDirectionId": null,
        "streetTypeId": "AVE",
        "placeName": "WINDSOR",
        "streetNameDisplayText": "VIRGINIA PARK AVE, WINDSOR"
      }
    ]
  },
  {
    "postal": "N9E5B3",
    "result": []
  },
  {
    "postal": "N9E1S7",
    "result": [
      {
        "electoralDistricts": [
          {
            "election": null,
            "id": 119,
            "name": "Windsor West"
          }
        ],
        "pollDivisionIds": [
          10142806
        ],
        "postalCode": "N9E1S7",
        "streetName": "DOUGALL",
        "streetDirectionId": null,
        "streetTypeId": "AVE",
        "placeName": "WINDSOR",
        "streetNameDisplayText": "DOUGALL AVE, WINDSOR"
      }
    ]
  },
  {
    "postal": "N9E2N7",
    "result": [
      {
        "electoralDistricts": [
          {
            "election": null,
            "id": 119,
            "name": "Windsor West"
          }
        ],
        "pollDivisionIds": [
          10142800
        ],
        "postalCode": "N9E2N7",
        "streetName": "DOMINION",
        "streetDirectionId": null,
        "streetTypeId": "BLVD",
        "placeName": "WINDSOR",
        "streetNameDisplayText": "DOMINION BLVD, WINDSOR"
      }
    ]
  },
  {
    "postal": "N9E0H8",
    "result": []
  },
  {
    "postal": "N9E7Z4",
    "result": []
  },
  {
    "postal": "N9E7B1",
    "result": []
  },
  {
    "postal": "N9E7P8",
    "result": []
  },
  {
    "postal": "N9E7N0",
    "result": []
  },
  {
    "postal": "N9E3Y5",
    "result": [
      {
        "electoralDistricts": [
          {
            "election": null,
            "id": 119,
            "name": "Windsor West"
          }
        ],
        "pollDivisionIds": [
          10142792
        ],
        "postalCode": "N9E3Y5",
        "streetName": "DANDURAND",
        "streetDirectionId": null,
        "streetTypeId": "AVE",
        "placeName": "WINDSOR",
        "streetNameDisplayText": "DANDURAND AVE, WINDSOR"
      }
    ]
  },
  {
    "postal": "N9E6K1",
    "result": []
  },
  {
    "postal": "N9E9X5",
    "result": []
  },
  {
    "postal": "N9E7S5",
    "result": []
  },
  {
    "postal": "N9E0A4",
    "result": []
  },
  {
    "postal": "N9E4T5",
    "result": [
      {
        "electoralDistricts": [
          {
            "election": null,
            "id": 119,
            "name": "Windsor West"
          }
        ],
        "pollDivisionIds": [
          10142788
        ],
        "postalCode": "N9E4T5",
        "streetName": "ST CLAIR",
        "streetDirectionId": null,
        "streetTypeId": "AVE",
        "placeName": "WINDSOR",
        "streetNameDisplayText": "ST CLAIR AVE, WINDSOR"
      }
    ]
  },
  {
    "postal": "N9E5K1",
    "result": []
  },
  {
    "postal": "N9E0Z9",
    "result": []
  },
  {
    "postal": "N9E7T2",
    "result": []
  },
  {
    "postal": "N9E1L5",
    "result": [
      {
        "electoralDistricts": [
          {
            "election": null,
            "id": 119,
            "name": "Windsor West"
          }
        ],
        "pollDivisionIds": [
          10142801
        ],
        "postalCode": "N9E1L5",
        "streetName": "ROSELAWN",
        "streetDirectionId": null,
        "streetTypeId": "DR",
        "placeName": "WINDSOR",
        "streetNameDisplayText": "ROSELAWN DR, WINDSOR"
      }
    ]
  },
  {
    "postal": "N9E3N5",
    "result": [
      {
        "electoralDistricts": [
          {
            "election": null,
            "id": 119,
            "name": "Windsor West"
          }
        ],
        "pollDivisionIds": [
          10142806,
          10142809
        ],
        "postalCode": "N9E3N5",
        "streetName": "HOWARD",
        "streetDirectionId": null,
        "streetTypeId": "AVE",
        "placeName": "WINDSOR",
        "streetNameDisplayText": "HOWARD AVE, WINDSOR"
      }
    ]
  },
  {
    "postal": "N9E6H4",
    "result": []
  },
  {
    "postal": "N9E5A5",
    "result": []
  },
  {
    "postal": "N9E3R9",
    "result": [
      {
        "electoralDistricts": [
          {
            "election": null,
            "id": 119,
            "name": "Windsor West"
          }
        ],
        "pollDivisionIds": [
          10142777
        ],
        "postalCode": "N9E3R9",
        "streetName": "NICHOLS",
        "streetDirectionId": null,
        "streetTypeId": "ST",
        "placeName": "WINDSOR",
        "streetNameDisplayText": "NICHOLS ST, WINDSOR"
      }
    ]
  },
  {
    "postal": "N9E7L8",
    "result": []
  },
  {
    "postal": "N9E6T6",
    "result": []
  },
  {
    "postal": "N9E7Y7",
    "result": []
  },
  {
    "postal": "N9E3M8",
    "result": [
      {
        "electoralDistricts": [
          {
            "election": null,
            "id": 119,
            "name": "Windsor West"
          }
        ],
        "pollDivisionIds": [
          10142806
        ],
        "postalCode": "N9E3M8",
        "streetName": "HUNTINGTON",
        "streetDirectionId": null,
        "streetTypeId": "AVE",
        "placeName": "WINDSOR",
        "streetNameDisplayText": "HUNTINGTON AVE, WINDSOR"
      }
    ]
  },
  {
    "postal": "N9E2E0",
    "result": []
  },
  {
    "postal": "N9E4B5",
    "result": [
      {
        "electoralDistricts": [
          {
            "election": null,
            "id": 119,
            "name": "Windsor West"
          }
        ],
        "pollDivisionIds": [
          10142801,
          10142800
        ],
        "postalCode": "N9E4B5",
        "streetName": "BEALS",
        "streetDirectionId": null,
        "streetTypeId": "ST",
        "placeName": "WINDSOR",
        "streetNameDisplayText": "BEALS ST, WINDSOR"
      }
    ]
  },
  {
    "postal": "N9E1J3",
    "result": [
      {
        "electoralDistricts": [
          {
            "election": null,
            "id": 119,
            "name": "Windsor West"
          }
        ],
        "pollDivisionIds": [
          10142793
        ],
        "postalCode": "N9E1J3",
        "streetName": "LIBERTY",
        "streetDirectionId": null,
        "streetTypeId": "ST",
        "placeName": "WINDSOR",
        "streetNameDisplayText": "LIBERTY ST, WINDSOR"
      }
    ]
  },
  {
    "postal": "N9E5S6",
    "result": []
  },
  {
    "postal": "N9E8P7",
    "result": []
  },
  {
    "postal": "N9E7S7",
    "result": []
  },
  {
    "postal": "N9E4C2",
    "result": [
      {
        "electoralDistricts": [
          {
            "election": null,
            "id": 119,
            "name": "Windsor West"
          }
        ],
        "pollDivisionIds": [
          10142786
        ],
        "postalCode": "N9E4C2",
        "streetName": "ST PATRICK'S",
        "streetDirectionId": null,
        "streetTypeId": "DR",
        "placeName": "WINDSOR",
        "streetNameDisplayText": "ST PATRICK'S DR, WINDSOR"
      }
    ]
  },
  {
    "postal": "N9E5Y0",
    "result": []
  },
  {
    "postal": "N9E2V7",
    "result": [
      {
        "electoralDistricts": [
          {
            "election": null,
            "id": 119,
            "name": "Windsor West"
          }
        ],
        "pollDivisionIds": [
          10142793
        ],
        "postalCode": "N9E2V7",
        "streetName": "EVERTS",
        "streetDirectionId": null,
        "streetTypeId": "AVE",
        "placeName": "WINDSOR",
        "streetNameDisplayText": "EVERTS AVE, WINDSOR"
      }
    ]
  },
  {
    "postal": "N9E8P5",
    "result": []
  },
  {
    "postal": "N9E5P5",
    "result": []
  },
  {
    "postal": "N9E5Z0",
    "result": []
  },
  {
    "postal": "N9E9B0",
    "result": []
  },
  {
    "postal": "N9E1L0",
    "result": []
  },
  {
    "postal": "N9E0B5",
    "result": []
  },
  {
    "postal": "N9E3L2",
    "result": [
      {
        "electoralDistricts": [
          {
            "election": null,
            "id": 119,
            "name": "Windsor West"
          }
        ],
        "pollDivisionIds": [
          10142806
        ],
        "postalCode": "N9E3L2",
        "streetName": "VICTORIA",
        "streetDirectionId": null,
        "streetTypeId": "BLVD",
        "placeName": "WINDSOR",
        "streetNameDisplayText": "VICTORIA BLVD, WINDSOR"
      }
    ]
  },
  {
    "postal": "N9E3B7",
    "result": [
      {
        "electoralDistricts": [
          {
            "election": null,
            "id": 119,
            "name": "Windsor West"
          }
        ],
        "pollDivisionIds": [
          10142796
        ],
        "postalCode": "N9E3B7",
        "streetName": "RANKIN",
        "streetDirectionId": null,
        "streetTypeId": "AVE",
        "placeName": "WINDSOR",
        "streetNameDisplayText": "RANKIN AVE, WINDSOR"
      }
    ]
  },
  {
    "postal": "N9E8L1",
    "result": []
  },
  {
    "postal": "N9E5M4",
    "result": []
  },
  {
    "postal": "N9E4G9",
    "result": [
      {
        "electoralDistricts": [
          {
            "election": null,
            "id": 119,
            "name": "Windsor West"
          }
        ],
        "pollDivisionIds": [
          10142800
        ],
        "postalCode": "N9E4G9",
        "streetName": "DRIFTWOOD",
        "streetDirectionId": null,
        "streetTypeId": "DR",
        "placeName": "WINDSOR",
        "streetNameDisplayText": "DRIFTWOOD DR, WINDSOR"
      }
    ]
  },
  {
    "postal": "N9E0P0",
    "result": []
  },
  {
    "postal": "N9E8G2",
    "result": []
  },
  {
    "postal": "N9E1V9",
    "result": [
      {
        "electoralDistricts": [
          {
            "election": null,
            "id": 119,
            "name": "Windsor West"
          }
        ],
        "pollDivisionIds": [
          10142801
        ],
        "postalCode": "N9E1V9",
        "streetName": "CHURCH",
        "streetDirectionId": null,
        "streetTypeId": "ST",
        "placeName": "WINDSOR",
        "streetNameDisplayText": "CHURCH ST, WINDSOR"
      }
    ]
  },
  {
    "postal": "N9E8N8",
    "result": []
  },
  {
    "postal": "N9E6S8",
    "result": []
  },
  {
    "postal": "N9E8H2",
    "result": []
  },
  {
    "postal": "N9E5R8",
    "result": []
  },
  {
    "postal": "N9E5L4",
    "result": []
  },
  {
    "postal": "N9E9E1",
    "result": []
  },
  {
    "postal": "N9E1C4",
    "result": [
      {
        "electoralDistricts": [
          {
            "election": null,
            "id": 119,
            "name": "Windsor West"
          }
        ],
        "pollDivisionIds": [
          10142796
        ],
        "postalCode": "N9E1C4",
        "streetName": "GRAND MARAIS",
        "streetDirectionId": "W",
        "streetTypeId": "RD",
        "placeName": "WINDSOR",
        "streetNameDisplayText": "GRAND MARAIS RD W, WINDSOR"
      }
    ]
  },
  {
    "postal": "N9E8W5",
    "result": []
  },
  {
    "postal": "N9E1Y4",
    "result": [
      {
        "electoralDistricts": [
          {
            "election": null,
            "id": 119,
            "name": "Windsor West"
          }
        ],
        "pollDivisionIds": [
          10142800
        ],
        "postalCode": "N9E1Y4",
        "streetName": "RADISSON",
        "streetDirectionId": null,
        "streetTypeId": "AVE",
        "placeName": "WINDSOR",
        "streetNameDisplayText": "RADISSON AVE, WINDSOR"
      }
    ]
  },
  {
    "postal": "N9E1C0",
    "result": []
  },
  {
    "postal": "N9E2J2",
    "result": [
      {
        "electoralDistricts": [
          {
            "election": null,
            "id": 119,
            "name": "Windsor West"
          }
        ],
        "pollDivisionIds": [
          10142801
        ],
        "postalCode": "N9E2J2",
        "streetName": "ACADEMY",
        "streetDirectionId": null,
        "streetTypeId": "DR",
        "placeName": "WINDSOR",
        "streetNameDisplayText": "ACADEMY DR, WINDSOR"
      }
    ]
  },
  {
    "postal": "N9E2J0",
    "result": []
  },
  {
    "postal": "N9E7A3",
    "result": []
  },
  {
    "postal": "N9E8M1",
    "result": []
  },
  {
    "postal": "N9E7T9",
    "result": []
  },
  {
    "postal": "N9E6C0",
    "result": []
  },
  {
    "postal": "N9E7X1",
    "result": []
  },
  {
    "postal": "N9E0G1",
    "result": []
  },
  {
    "postal": "N9E4X2",
    "result": [
      {
        "electoralDistricts": [
          {
            "election": null,
            "id": 119,
            "name": "Windsor West"
          }
        ],
        "pollDivisionIds": [
          10142777
        ],
        "postalCode": "N9E4X2",
        "streetName": "SIXTH",
        "streetDirectionId": null,
        "streetTypeId": "ST",
        "placeName": "WINDSOR",
        "streetNameDisplayText": "SIXTH ST, WINDSOR"
      }
    ]
  },
  {
    "postal": "N9E0N6",
    "result": []
  },
  {
    "postal": "N9E8E3",
    "result": []
  },
  {
    "postal": "N9E5S8",
    "result": []
  },
  {
    "postal": "N9E0R0",
    "result": []
  },
  {
    "postal": "N9E6J6",
    "result": []
  },
  {
    "postal": "N9E4B4",
    "result": [
      {
        "electoralDistricts": [
          {
            "election": null,
            "id": 119,
            "name": "Windsor West"
          }
        ],
        "pollDivisionIds": [
          10142786
        ],
        "postalCode": "N9E4B4",
        "streetName": "ST CLAIR",
        "streetDirectionId": null,
        "streetTypeId": "AVE",
        "placeName": "WINDSOR",
        "streetNameDisplayText": "ST CLAIR AVE, WINDSOR"
      }
    ]
  },
  {
    "postal": "N9E7E3",
    "result": []
  },
  {
    "postal": "N9E3N6",
    "result": [
      {
        "electoralDistricts": [
          {
            "election": null,
            "id": 119,
            "name": "Windsor West"
          }
        ],
        "pollDivisionIds": [
          10142806
        ],
        "postalCode": "N9E3N6",
        "streetName": "HOWARD",
        "streetDirectionId": null,
        "streetTypeId": "AVE",
        "placeName": "WINDSOR",
        "streetNameDisplayText": "HOWARD AVE, WINDSOR"
      }
    ]
  },
  {
    "postal": "N9E3X6",
    "result": [
      {
        "electoralDistricts": [
          {
            "election": null,
            "id": 119,
            "name": "Windsor West"
          }
        ],
        "pollDivisionIds": [
          10142788
        ],
        "postalCode": "N9E3X6",
        "streetName": "RANKIN",
        "streetDirectionId": null,
        "streetTypeId": "AVE",
        "placeName": "WINDSOR",
        "streetNameDisplayText": "RANKIN AVE, WINDSOR"
      }
    ]
  },
  {
    "postal": "N9E8L0",
    "result": []
  },
  {
    "postal": "N9E8N1",
    "result": []
  },
  {
    "postal": "N9E4J0",
    "result": []
  },
  {
    "postal": "N9E0X7",
    "result": []
  },
  {
    "postal": "N9E6S4",
    "result": []
  },
  {
    "postal": "N9E0Z0",
    "result": []
  },
  {
    "postal": "N9E9X8",
    "result": []
  },
  {
    "postal": "N9E3H3",
    "result": [
      {
        "electoralDistricts": [
          {
            "election": null,
            "id": 119,
            "name": "Windsor West"
          }
        ],
        "pollDivisionIds": [
          10142793
        ],
        "postalCode": "N9E3H3",
        "streetName": "ST PATRICK'S",
        "streetDirectionId": null,
        "streetTypeId": "DR",
        "placeName": "WINDSOR",
        "streetNameDisplayText": "ST PATRICK'S DR, WINDSOR"
      }
    ]
  },
  {
    "postal": "N9E7S2",
    "result": []
  },
  {
    "postal": "N9E3T3",
    "result": []
  },
  {
    "postal": "N9E9P3",
    "result": []
  },
  {
    "postal": "N9E4H8",
    "result": [
      {
        "electoralDistricts": [
          {
            "election": null,
            "id": 119,
            "name": "Windsor West"
          }
        ],
        "pollDivisionIds": [
          10142786
        ],
        "postalCode": "N9E4H8",
        "streetName": "HURON CHURCH",
        "streetDirectionId": null,
        "streetTypeId": "RD",
        "placeName": "WINDSOR",
        "streetNameDisplayText": "HURON CHURCH RD, WINDSOR"
      }
    ]
  },
  {
    "postal": "N9E6R1",
    "result": []
  },
  {
    "postal": "N9E1S0",
    "result": []
  },
  {
    "postal": "N9E3W8",
    "result": [
      {
        "electoralDistricts": [
          {
            "election": null,
            "id": 119,
            "name": "Windsor West"
          }
        ],
        "pollDivisionIds": [
          10142806
        ],
        "postalCode": "N9E3W8",
        "streetName": "HUNTINGTON",
        "streetDirectionId": null,
        "streetTypeId": "AVE",
        "placeName": "WINDSOR",
        "streetNameDisplayText": "HUNTINGTON AVE, WINDSOR"
      }
    ]
  },
  {
    "postal": "N9E4S3",
    "result": [
      {
        "electoralDistricts": [
          {
            "election": null,
            "id": 119,
            "name": "Windsor West"
          }
        ],
        "pollDivisionIds": [
          10142786
        ],
        "postalCode": "N9E4S3",
        "streetName": "LAMBTON",
        "streetDirectionId": null,
        "streetTypeId": "ST",
        "placeName": "WINDSOR",
        "streetNameDisplayText": "LAMBTON ST, WINDSOR"
      }
    ]
  },
  {
    "postal": "N9E1B6",
    "result": [
      {
        "electoralDistricts": [
          {
            "election": null,
            "id": 119,
            "name": "Windsor West"
          }
        ],
        "pollDivisionIds": [
          10142789
        ],
        "postalCode": "N9E1B6",
        "streetName": "LABELLE",
        "streetDirectionId": null,
        "streetTypeId": "ST",
        "placeName": "WINDSOR",
        "streetNameDisplayText": "LABELLE ST, WINDSOR"
      }
    ]
  },
  {
    "postal": "N9E8R3",
    "result": []
  },
  {
    "postal": "N9E4V9",
    "result": [
      {
        "electoralDistricts": [
          {
            "election": null,
            "id": 119,
            "name": "Windsor West"
          }
        ],
        "pollDivisionIds": [
          10142788
        ],
        "postalCode": "N9E4V9",
        "streetName": "ST PATRICK'S",
        "streetDirectionId": null,
        "streetTypeId": "AVE",
        "placeName": "WINDSOR",
        "streetNameDisplayText": "ST PATRICK'S AVE, WINDSOR"
      }
    ]
  },
  {
    "postal": "N9E9W4",
    "result": []
  },
  {
    "postal": "N9E3T4",
    "result": [
      {
        "electoralDistricts": [
          {
            "election": null,
            "id": 119,
            "name": "Windsor West"
          }
        ],
        "pollDivisionIds": [
          10142777
        ],
        "postalCode": "N9E3T4",
        "streetName": "MALDEN",
        "streetDirectionId": null,
        "streetTypeId": "RD",
        "placeName": "WINDSOR",
        "streetNameDisplayText": "MALDEN RD, WINDSOR"
      }
    ]
  },
  {
    "postal": "N9E5C7",
    "result": []
  },
  {
    "postal": "N9E3Y1",
    "result": [
      {
        "electoralDistricts": [
          {
            "election": null,
            "id": 119,
            "name": "Windsor West"
          }
        ],
        "pollDivisionIds": [
          10142788
        ],
        "postalCode": "N9E3Y1",
        "streetName": "EVERTS",
        "streetDirectionId": null,
        "streetTypeId": "AVE",
        "placeName": "WINDSOR",
        "streetNameDisplayText": "EVERTS AVE, WINDSOR"
      }
    ]
  },
  {
    "postal": "N9E5V0",
    "result": []
  },
  {
    "postal": "N9E8G8",
    "result": []
  },
  {
    "postal": "N9E8B1",
    "result": []
  },
  {
    "postal": "N9E4P5",
    "result": [
      {
        "electoralDistricts": [
          {
            "election": null,
            "id": 119,
            "name": "Windsor West"
          }
        ],
        "pollDivisionIds": [
          10142806
        ],
        "postalCode": "N9E4P5",
        "streetName": "MEDINA",
        "streetDirectionId": null,
        "streetTypeId": "ST",
        "placeName": "WINDSOR",
        "streetNameDisplayText": "MEDINA ST, WINDSOR"
      },
      {
        "electoralDistricts": [
          {
            "election": null,
            "id": 119,
            "name": "Windsor West"
          }
        ],
        "pollDivisionIds": [
          10142806
        ],
        "postalCode": "N9E4P5",
        "streetName": "WHITESIDE",
        "streetDirectionId": null,
        "streetTypeId": "DR",
        "placeName": "WINDSOR",
        "streetNameDisplayText": "WHITESIDE DR, WINDSOR"
      }
    ]
  },
  {
    "postal": "N9E7B2",
    "result": []
  },
  {
    "postal": "N9E0R2",
    "result": []
  },
  {
    "postal": "N9E4M4",
    "result": [
      {
        "electoralDistricts": [
          {
            "election": null,
            "id": 119,
            "name": "Windsor West"
          }
        ],
        "pollDivisionIds": [
          10142806
        ],
        "postalCode": "N9E4M4",
        "streetName": "HAMPTON",
        "streetDirectionId": null,
        "streetTypeId": "CRES",
        "placeName": "WINDSOR",
        "streetNameDisplayText": "HAMPTON CRES, WINDSOR"
      }
    ]
  },
  {
    "postal": "N9E7M4",
    "result": []
  },
  {
    "postal": "N9E9S7",
    "result": []
  },
  {
    "postal": "N9E5Z7",
    "result": []
  },
  {
    "postal": "N9E7J7",
    "result": []
  },
  {
    "postal": "N9E8R8",
    "result": []
  },
  {
    "postal": "N9E9X1",
    "result": []
  },
  {
    "postal": "N9E5M9",
    "result": []
  },
  {
    "postal": "N9E9B4",
    "result": []
  },
  {
    "postal": "N9E0L9",
    "result": []
  },
  {
    "postal": "N9E9G4",
    "result": []
  },
  {
    "postal": "N9E1J4",
    "result": [
      {
        "electoralDistricts": [
          {
            "election": null,
            "id": 119,
            "name": "Windsor West"
          }
        ],
        "pollDivisionIds": [
          10142801
        ],
        "postalCode": "N9E1J4",
        "streetName": "BEALS",
        "streetDirectionId": null,
        "streetTypeId": "ST",
        "placeName": "WINDSOR",
        "streetNameDisplayText": "BEALS ST, WINDSOR"
      }
    ]
  },
  {
    "postal": "N9E0W6",
    "result": []
  }
]
