[
  {
    "postal": "L8W9J6",
    "result": []
  },
  {
    "postal": "L8W9Z5",
    "result": []
  },
  {
    "postal": "L8W7H8",
    "result": []
  },
  {
    "postal": "L8W0P6",
    "result": []
  },
  {
    "postal": "L8W0S7",
    "result": []
  },
  {
    "postal": "L8W8B9",
    "result": []
  },
  {
    "postal": "L8W2A6",
    "result": [
      {
        "electoralDistricts": [
          {
            "election": null,
            "id": 38,
            "name": "Hamilton Mountain"
          }
        ],
        "pollDivisionIds": [
          10138705
        ],
        "postalCode": "L8W2A6",
        "streetName": "REXFORD",
        "streetDirectionId": null,
        "streetTypeId": "DR",
        "placeName": "HAMILTON",
        "streetNameDisplayText": "REXFORD DR, HAMILTON"
      }
    ]
  },
  {
    "postal": "L8W7V2",
    "result": []
  },
  {
    "postal": "L8W9P4",
    "result": []
  },
  {
    "postal": "L8W6G0",
    "result": []
  },
  {
    "postal": "L8W2K0",
    "result": []
  },
  {
    "postal": "L8W7N6",
    "result": []
  },
  {
    "postal": "L8W5R3",
    "result": []
  },
  {
    "postal": "L8W7K0",
    "result": []
  },
  {
    "postal": "L8W3R2",
    "result": [
      {
        "electoralDistricts": [
          {
            "election": null,
            "id": 38,
            "name": "Hamilton Mountain"
          }
        ],
        "pollDivisionIds": [
          10138706
        ],
        "postalCode": "L8W3R2",
        "streetName": "ANCHOR",
        "streetDirectionId": null,
        "streetTypeId": "RD",
        "placeName": "HAMILTON",
        "streetNameDisplayText": "ANCHOR RD, HAMILTON"
      }
    ]
  },
  {
    "postal": "L8W0J1",
    "result": []
  },
  {
    "postal": "L8W0B0",
    "result": []
  },
  {
    "postal": "L8W5Z2",
    "result": []
  },
  {
    "postal": "L8W7P3",
    "result": []
  },
  {
    "postal": "L8W2K3",
    "result": []
  },
  {
    "postal": "L8W7Y6",
    "result": []
  },
  {
    "postal": "L8W1L9",
    "result": [
      {
        "electoralDistricts": [
          {
            "election": null,
            "id": 38,
            "name": "Hamilton Mountain"
          }
        ],
        "pollDivisionIds": [
          10138705
        ],
        "postalCode": "L8W1L9",
        "streetName": "ARNO",
        "streetDirectionId": null,
        "streetTypeId": "ST",
        "placeName": "HAMILTON",
        "streetNameDisplayText": "ARNO ST, HAMILTON"
      }
    ]
  },
  {
    "postal": "L8W8T0",
    "result": []
  },
  {
    "postal": "L8W3K8",
    "result": [
      {
        "electoralDistricts": [
          {
            "election": null,
            "id": 38,
            "name": "Hamilton Mountain"
          }
        ],
        "pollDivisionIds": [
          10138706
        ],
        "postalCode": "L8W3K8",
        "streetName": "STONE CHURCH",
        "streetDirectionId": "E",
        "streetTypeId": "RD",
        "placeName": "HAMILTON",
        "streetNameDisplayText": "STONE CHURCH RD E, HAMILTON"
      }
    ]
  },
  {
    "postal": "L8W5W9",
    "result": []
  },
  {
    "postal": "L8W6T9",
    "result": []
  },
  {
    "postal": "L8W4H1",
    "result": []
  },
  {
    "postal": "L8W7A2",
    "result": []
  },
  {
    "postal": "L8W5G0",
    "result": []
  },
  {
    "postal": "L8W8V5",
    "result": []
  },
  {
    "postal": "L8W2Y8",
    "result": [
      {
        "electoralDistricts": [
          {
            "election": null,
            "id": 38,
            "name": "Hamilton Mountain"
          }
        ],
        "pollDivisionIds": [
          10138703
        ],
        "postalCode": "L8W2Y8",
        "streetName": "RUPERT",
        "streetDirectionId": null,
        "streetTypeId": "CRT",
        "placeName": "HAMILTON",
        "streetNameDisplayText": "RUPERT CRT, HAMILTON"
      }
    ]
  },
  {
    "postal": "L8W2B6",
    "result": [
      {
        "electoralDistricts": [
          {
            "election": null,
            "id": 38,
            "name": "Hamilton Mountain"
          }
        ],
        "pollDivisionIds": [
          10138705
        ],
        "postalCode": "L8W2B6",
        "streetName": "ELMBANK",
        "streetDirectionId": null,
        "streetTypeId": "ST",
        "placeName": "HAMILTON",
        "streetNameDisplayText": "ELMBANK ST, HAMILTON"
      }
    ]
  },
  {
    "postal": "L8W4W8",
    "result": []
  },
  {
    "postal": "L8W8H7",
    "result": []
  },
  {
    "postal": "L8W5P1",
    "result": []
  },
  {
    "postal": "L8W2B8",
    "result": [
      {
        "electoralDistricts": [
          {
            "election": null,
            "id": 38,
            "name": "Hamilton Mountain"
          }
        ],
        "pollDivisionIds": [
          10138705
        ],
        "postalCode": "L8W2B8",
        "streetName": "ELMBANK",
        "streetDirectionId": null,
        "streetTypeId": "ST",
        "placeName": "HAMILTON",
        "streetNameDisplayText": "ELMBANK ST, HAMILTON"
      }
    ]
  },
  {
    "postal": "L8W0P2",
    "result": []
  },
  {
    "postal": "L8W9M1",
    "result": []
  },
  {
    "postal": "L8W3G0",
    "result": []
  },
  {
    "postal": "L8W9Z2",
    "result": []
  },
  {
    "postal": "L8W2A0",
    "result": []
  },
  {
    "postal": "L8W6Y0",
    "result": []
  },
  {
    "postal": "L8W2Z8",
    "result": [
      {
        "electoralDistricts": [
          {
            "election": null,
            "id": 38,
            "name": "Hamilton Mountain"
          }
        ],
        "pollDivisionIds": [
          10138688
        ],
        "postalCode": "L8W2Z8",
        "streetName": "RANDOLF",
        "streetDirectionId": null,
        "streetTypeId": "CRT",
        "placeName": "HAMILTON",
        "streetNameDisplayText": "RANDOLF CRT, HAMILTON"
      },
      {
        "electoralDistricts": [
          {
            "election": null,
            "id": 38,
            "name": "Hamilton Mountain"
          }
        ],
        "pollDivisionIds": [
          10138688
        ],
        "postalCode": "L8W2Z8",
        "streetName": "SOUTHPARK",
        "streetDirectionId": null,
        "streetTypeId": "AVE",
        "placeName": "HAMILTON",
        "streetNameDisplayText": "SOUTHPARK AVE, HAMILTON"
      }
    ]
  },
  {
    "postal": "L8W7Y3",
    "result": []
  },
  {
    "postal": "L8W6Z5",
    "result": []
  },
  {
    "postal": "L8W6E0",
    "result": []
  },
  {
    "postal": "L8W9B7",
    "result": []
  },
  {
    "postal": "L8W9S5",
    "result": []
  },
  {
    "postal": "L8W3X3",
    "result": [
      {
        "electoralDistricts": [
          {
            "election": null,
            "id": 38,
            "name": "Hamilton Mountain"
          }
        ],
        "pollDivisionIds": [
          10138704
        ],
        "postalCode": "L8W3X3",
        "streetName": "FANO",
        "streetDirectionId": null,
        "streetTypeId": "DR",
        "placeName": "HAMILTON",
        "streetNameDisplayText": "FANO DR, HAMILTON"
      }
    ]
  },
  {
    "postal": "L8W7R5",
    "result": []
  },
  {
    "postal": "L8W2X3",
    "result": [
      {
        "electoralDistricts": [
          {
            "election": null,
            "id": 31,
            "name": "Flamborough—Glanbrook"
          }
        ],
        "pollDivisionIds": [
          10138262
        ],
        "postalCode": "L8W2X3",
        "streetName": "RYMAL",
        "streetDirectionId": "E",
        "streetTypeId": "RD",
        "placeName": "HAMILTON",
        "streetNameDisplayText": "RYMAL RD E, HAMILTON"
      }
    ]
  },
  {
    "postal": "L8W8Z9",
    "result": []
  },
  {
    "postal": "L8W0N4",
    "result": []
  },
  {
    "postal": "L8W1K1",
    "result": [
      {
        "electoralDistricts": [
          {
            "election": null,
            "id": 38,
            "name": "Hamilton Mountain"
          }
        ],
        "pollDivisionIds": [
          10138705
        ],
        "postalCode": "L8W1K1",
        "streetName": "QUINLAN",
        "streetDirectionId": null,
        "streetTypeId": "CRT",
        "placeName": "HAMILTON",
        "streetNameDisplayText": "QUINLAN CRT, HAMILTON"
      }
    ]
  },
  {
    "postal": "L8W1S3",
    "result": [
      {
        "electoralDistricts": [
          {
            "election": null,
            "id": 38,
            "name": "Hamilton Mountain"
          }
        ],
        "pollDivisionIds": [
          10138704
        ],
        "postalCode": "L8W1S3",
        "streetName": "NORMAJEAN",
        "streetDirectionId": null,
        "streetTypeId": "AVE",
        "placeName": "HAMILTON",
        "streetNameDisplayText": "NORMAJEAN AVE, HAMILTON"
      }
    ]
  },
  {
    "postal": "L8W6M4",
    "result": []
  },
  {
    "postal": "L8W9A9",
    "result": []
  },
  {
    "postal": "L8W9Z9",
    "result": []
  },
  {
    "postal": "L8W6T4",
    "result": []
  },
  {
    "postal": "L8W0B2",
    "result": [
      {
        "electoralDistricts": [
          {
            "election": null,
            "id": 38,
            "name": "Hamilton Mountain"
          }
        ],
        "pollDivisionIds": [
          10138704
        ],
        "postalCode": "L8W0B2",
        "streetName": "EAGLEWOOD",
        "streetDirectionId": null,
        "streetTypeId": "DR",
        "placeName": "HAMILTON",
        "streetNameDisplayText": "EAGLEWOOD DR, HAMILTON"
      },
      {
        "electoralDistricts": [
          {
            "election": null,
            "id": 38,
            "name": "Hamilton Mountain"
          }
        ],
        "pollDivisionIds": [
          10138704
        ],
        "postalCode": "L8W0B2",
        "streetName": "PATHFINDER",
        "streetDirectionId": null,
        "streetTypeId": "CRT",
        "placeName": "HAMILTON",
        "streetNameDisplayText": "PATHFINDER CRT, HAMILTON"
      }
    ]
  },
  {
    "postal": "L8W2L9",
    "result": [
      {
        "electoralDistricts": [
          {
            "election": null,
            "id": 38,
            "name": "Hamilton Mountain"
          }
        ],
        "pollDivisionIds": [
          10138703
        ],
        "postalCode": "L8W2L9",
        "streetName": "REXFORD",
        "streetDirectionId": null,
        "streetTypeId": "DR",
        "placeName": "HAMILTON",
        "streetNameDisplayText": "REXFORD DR, HAMILTON"
      }
    ]
  },
  {
    "postal": "L8W8K9",
    "result": []
  },
  {
    "postal": "L8W2H9",
    "result": []
  },
  {
    "postal": "L8W3Z6",
    "result": [
      {
        "electoralDistricts": [
          {
            "election": null,
            "id": 38,
            "name": "Hamilton Mountain"
          }
        ],
        "pollDivisionIds": [
          10138715,
          10138700
        ],
        "postalCode": "L8W3Z6",
        "streetName": "UPPER SHERMAN",
        "streetDirectionId": null,
        "streetTypeId": "AVE",
        "placeName": "HAMILTON",
        "streetNameDisplayText": "UPPER SHERMAN AVE, HAMILTON"
      }
    ]
  },
  {
    "postal": "L8W3B0",
    "result": []
  },
  {
    "postal": "L8W2H8",
    "result": []
  },
  {
    "postal": "L8W3X2",
    "result": [
      {
        "electoralDistricts": [
          {
            "election": null,
            "id": 31,
            "name": "Flamborough—Glanbrook"
          }
        ],
        "pollDivisionIds": [
          10138260
        ],
        "postalCode": "L8W3X2",
        "streetName": "ARROWHEAD",
        "streetDirectionId": null,
        "streetTypeId": "DR",
        "placeName": "HAMILTON",
        "streetNameDisplayText": "ARROWHEAD DR, HAMILTON"
      },
      {
        "electoralDistricts": [
          {
            "election": null,
            "id": 31,
            "name": "Flamborough—Glanbrook"
          }
        ],
        "pollDivisionIds": [
          10138260
        ],
        "postalCode": "L8W3X2",
        "streetName": "ONYX",
        "streetDirectionId": null,
        "streetTypeId": "DR",
        "placeName": "HAMILTON",
        "streetNameDisplayText": "ONYX DR, HAMILTON"
      }
    ]
  },
  {
    "postal": "L8W2E9",
    "result": [
      {
        "electoralDistricts": [
          {
            "election": null,
            "id": 38,
            "name": "Hamilton Mountain"
          }
        ],
        "pollDivisionIds": [
          10138706
        ],
        "postalCode": "L8W2E9",
        "streetName": "UPPER OTTAWA",
        "streetDirectionId": null,
        "streetTypeId": "ST",
        "placeName": "HAMILTON",
        "streetNameDisplayText": "UPPER OTTAWA ST, HAMILTON"
      }
    ]
  },
  {
    "postal": "L8W9P6",
    "result": []
  },
  {
    "postal": "L8W9E2",
    "result": []
  },
  {
    "postal": "L8W9H2",
    "result": []
  },
  {
    "postal": "L8W1S8",
    "result": [
      {
        "electoralDistricts": [
          {
            "election": null,
            "id": 38,
            "name": "Hamilton Mountain"
          }
        ],
        "pollDivisionIds": [
          10138704
        ],
        "postalCode": "L8W1S8",
        "streetName": "EAGLEWOOD",
        "streetDirectionId": null,
        "streetTypeId": "DR",
        "placeName": "HAMILTON",
        "streetNameDisplayText": "EAGLEWOOD DR, HAMILTON"
      }
    ]
  },
  {
    "postal": "L8W3M6",
    "result": [
      {
        "electoralDistricts": [
          {
            "election": null,
            "id": 38,
            "name": "Hamilton Mountain"
          }
        ],
        "pollDivisionIds": [
          10138706
        ],
        "postalCode": "L8W3M6",
        "streetName": "RYMAL",
        "streetDirectionId": "E",
        "streetTypeId": "RD",
        "placeName": "HAMILTON",
        "streetNameDisplayText": "RYMAL RD E, HAMILTON"
      }
    ]
  },
  {
    "postal": "L8W6Z8",
    "result": []
  },
  {
    "postal": "L8W4J2",
    "result": []
  },
  {
    "postal": "L8W9Y1",
    "result": []
  },
  {
    "postal": "L8W8V6",
    "result": []
  },
  {
    "postal": "L8W6B2",
    "result": []
  },
  {
    "postal": "L8W1P8",
    "result": [
      {
        "electoralDistricts": [
          {
            "election": null,
            "id": 38,
            "name": "Hamilton Mountain"
          }
        ],
        "pollDivisionIds": [
          10138706
        ],
        "postalCode": "L8W1P8",
        "streetName": "QUEEN VICTORIA",
        "streetDirectionId": null,
        "streetTypeId": "DR",
        "placeName": "HAMILTON",
        "streetNameDisplayText": "QUEEN VICTORIA DR, HAMILTON"
      }
    ]
  },
  {
    "postal": "L8W0V8",
    "result": []
  },
  {
    "postal": "L8W4Y0",
    "result": []
  },
  {
    "postal": "L8W2T4",
    "result": [
      {
        "electoralDistricts": [
          {
            "election": null,
            "id": 38,
            "name": "Hamilton Mountain"
          }
        ],
        "pollDivisionIds": [
          10138705
        ],
        "postalCode": "L8W2T4",
        "streetName": "QUINCY",
        "streetDirectionId": null,
        "streetTypeId": "CRT",
        "placeName": "HAMILTON",
        "streetNameDisplayText": "QUINCY CRT, HAMILTON"
      }
    ]
  },
  {
    "postal": "L8W2S3",
    "result": [
      {
        "electoralDistricts": [
          {
            "election": null,
            "id": 38,
            "name": "Hamilton Mountain"
          }
        ],
        "pollDivisionIds": [
          10138703
        ],
        "postalCode": "L8W2S3",
        "streetName": "RAMSDEN",
        "streetDirectionId": null,
        "streetTypeId": "DR",
        "placeName": "HAMILTON",
        "streetNameDisplayText": "RAMSDEN DR, HAMILTON"
      }
    ]
  },
  {
    "postal": "L8W0K0",
    "result": []
  },
  {
    "postal": "L8W5N1",
    "result": []
  },
  {
    "postal": "L8W7T0",
    "result": []
  },
  {
    "postal": "L8W9N2",
    "result": []
  },
  {
    "postal": "L8W5L1",
    "result": []
  },
  {
    "postal": "L8W7G5",
    "result": []
  },
  {
    "postal": "L8W6K2",
    "result": []
  },
  {
    "postal": "L8W6P9",
    "result": []
  },
  {
    "postal": "L8W0E6",
    "result": []
  },
  {
    "postal": "L8W8R9",
    "result": []
  },
  {
    "postal": "L8W3G9",
    "result": [
      {
        "electoralDistricts": [
          {
            "election": null,
            "id": 38,
            "name": "Hamilton Mountain"
          }
        ],
        "pollDivisionIds": [
          10138703
        ],
        "postalCode": "L8W3G9",
        "streetName": "ALCONBURY",
        "streetDirectionId": null,
        "streetTypeId": "DR",
        "placeName": "HAMILTON",
        "streetNameDisplayText": "ALCONBURY DR, HAMILTON"
      },
      {
        "electoralDistricts": [
          {
            "election": null,
            "id": 38,
            "name": "Hamilton Mountain"
          }
        ],
        "pollDivisionIds": [
          10138705,
          10138703
        ],
        "postalCode": "L8W3G9",
        "streetName": "REXFORD",
        "streetDirectionId": null,
        "streetTypeId": "DR",
        "placeName": "HAMILTON",
        "streetNameDisplayText": "REXFORD DR, HAMILTON"
      }
    ]
  },
  {
    "postal": "L8W0V7",
    "result": []
  },
  {
    "postal": "L8W2Z1",
    "result": [
      {
        "electoralDistricts": [
          {
            "election": null,
            "id": 38,
            "name": "Hamilton Mountain"
          }
        ],
        "pollDivisionIds": [
          10138703
        ],
        "postalCode": "L8W2Z1",
        "streetName": "RUPERT",
        "streetDirectionId": null,
        "streetTypeId": "CRT",
        "placeName": "HAMILTON",
        "streetNameDisplayText": "RUPERT CRT, HAMILTON"
      },
      {
        "electoralDistricts": [
          {
            "election": null,
            "id": 38,
            "name": "Hamilton Mountain"
          }
        ],
        "pollDivisionIds": [
          10138703
        ],
        "postalCode": "L8W2Z1",
        "streetName": "RUSHDALE",
        "streetDirectionId": null,
        "streetTypeId": "DR",
        "placeName": "HAMILTON",
        "streetNameDisplayText": "RUSHDALE DR, HAMILTON"
      }
    ]
  },
  {
    "postal": "L8W7N1",
    "result": []
  },
  {
    "postal": "L8W3C6",
    "result": [
      {
        "electoralDistricts": [
          {
            "election": null,
            "id": 38,
            "name": "Hamilton Mountain"
          }
        ],
        "pollDivisionIds": [
          10138704
        ],
        "postalCode": "L8W3C6",
        "streetName": "EPSOM",
        "streetDirectionId": null,
        "streetTypeId": "CRT",
        "placeName": "HAMILTON",
        "streetNameDisplayText": "EPSOM CRT, HAMILTON"
      },
      {
        "electoralDistricts": [
          {
            "election": null,
            "id": 38,
            "name": "Hamilton Mountain"
          }
        ],
        "pollDivisionIds": [
          10138704
        ],
        "postalCode": "L8W3C6",
        "streetName": "PRESIDIO",
        "streetDirectionId": null,
        "streetTypeId": "DR",
        "placeName": "HAMILTON",
        "streetNameDisplayText": "PRESIDIO DR, HAMILTON"
      }
    ]
  },
  {
    "postal": "L8W4M1",
    "result": []
  },
  {
    "postal": "L8W9K2",
    "result": []
  },
  {
    "postal": "L8W9S6",
    "result": []
  },
  {
    "postal": "L8W4X1",
    "result": []
  },
  {
    "postal": "L8W8W2",
    "result": []
  },
  {
    "postal": "L8W7N2",
    "result": []
  },
  {
    "postal": "L8W8S3",
    "result": []
  },
  {
    "postal": "L8W4V0",
    "result": []
  },
  {
    "postal": "L8W6W4",
    "result": []
  },
  {
    "postal": "L8W5M1",
    "result": []
  },
  {
    "postal": "L8W0S4",
    "result": []
  },
  {
    "postal": "L8W5X6",
    "result": []
  },
  {
    "postal": "L8W8L5",
    "result": []
  },
  {
    "postal": "L8W5M8",
    "result": []
  },
  {
    "postal": "L8W2G3",
    "result": [
      {
        "electoralDistricts": [
          {
            "election": null,
            "id": 38,
            "name": "Hamilton Mountain"
          }
        ],
        "pollDivisionIds": [
          10138705
        ],
        "postalCode": "L8W2G3",
        "streetName": "EPIC",
        "streetDirectionId": null,
        "streetTypeId": "PL",
        "placeName": "HAMILTON",
        "streetNameDisplayText": "EPIC PL, HAMILTON"
      }
    ]
  },
  {
    "postal": "L8W8E4",
    "result": []
  },
  {
    "postal": "L8W7S9",
    "result": []
  },
  {
    "postal": "L8W1K3",
    "result": [
      {
        "electoralDistricts": [
          {
            "election": null,
            "id": 38,
            "name": "Hamilton Mountain"
          }
        ],
        "pollDivisionIds": [
          10138705
        ],
        "postalCode": "L8W1K3",
        "streetName": "QUESTOR",
        "streetDirectionId": null,
        "streetTypeId": "CRT",
        "placeName": "HAMILTON",
        "streetNameDisplayText": "QUESTOR CRT, HAMILTON"
      }
    ]
  },
  {
    "postal": "L8W4E1",
    "result": []
  },
  {
    "postal": "L8W4R2",
    "result": []
  },
  {
    "postal": "L8W6T0",
    "result": []
  },
  {
    "postal": "L8W3K5",
    "result": [
      {
        "electoralDistricts": [
          {
            "election": null,
            "id": 38,
            "name": "Hamilton Mountain"
          }
        ],
        "pollDivisionIds": [
          10138706
        ],
        "postalCode": "L8W3K5",
        "streetName": "NEBO",
        "streetDirectionId": null,
        "streetTypeId": "RD",
        "placeName": "HAMILTON",
        "streetNameDisplayText": "NEBO RD, HAMILTON"
      }
    ]
  },
  {
    "postal": "L8W3S3",
    "result": [
      {
        "electoralDistricts": [
          {
            "election": null,
            "id": 31,
            "name": "Flamborough—Glanbrook"
          }
        ],
        "pollDivisionIds": [
          10138262
        ],
        "postalCode": "L8W3S3",
        "streetName": "OSSINGTON",
        "streetDirectionId": null,
        "streetTypeId": "DR",
        "placeName": "HAMILTON",
        "streetNameDisplayText": "OSSINGTON DR, HAMILTON"
      }
    ]
  },
  {
    "postal": "L8W3L4",
    "result": [
      {
        "electoralDistricts": [
          {
            "election": null,
            "id": 38,
            "name": "Hamilton Mountain"
          }
        ],
        "pollDivisionIds": [
          10138706
        ],
        "postalCode": "L8W3L4",
        "streetName": "UPPER OTTAWA",
        "streetDirectionId": null,
        "streetTypeId": "ST",
        "placeName": "HAMILTON",
        "streetNameDisplayText": "UPPER OTTAWA ST, HAMILTON"
      }
    ]
  },
  {
    "postal": "L8W9Y2",
    "result": []
  },
  {
    "postal": "L8W1E0",
    "result": []
  },
  {
    "postal": "L8W9A4",
    "result": []
  },
  {
    "postal": "L8W1L3",
    "result": [
      {
        "electoralDistricts": [
          {
            "election": null,
            "id": 38,
            "name": "Hamilton Mountain"
          }
        ],
        "pollDivisionIds": [
          10138706
        ],
        "postalCode": "L8W1L3",
        "streetName": "TUNBRIDGE",
        "streetDirectionId": null,
        "streetTypeId": "CRES",
        "placeName": "HAMILTON",
        "streetNameDisplayText": "TUNBRIDGE CRES, HAMILTON"
      }
    ]
  },
  {
    "postal": "L8W6N1",
    "result": []
  },
  {
    "postal": "L8W6G7",
    "result": []
  },
  {
    "postal": "L8W7W1",
    "result": []
  },
  {
    "postal": "L8W4M6",
    "result": []
  },
  {
    "postal": "L8W1K0",
    "result": []
  },
  {
    "postal": "L8W3E2",
    "result": [
      {
        "electoralDistricts": [
          {
            "election": null,
            "id": 38,
            "name": "Hamilton Mountain"
          }
        ],
        "pollDivisionIds": [
          10138706
        ],
        "postalCode": "L8W3E2",
        "streetName": "UPPER OTTAWA",
        "streetDirectionId": null,
        "streetTypeId": "ST",
        "placeName": "HAMILTON",
        "streetNameDisplayText": "UPPER OTTAWA ST, HAMILTON"
      }
    ]
  },
  {
    "postal": "L8W5H4",
    "result": []
  },
  {
    "postal": "L8W1K7",
    "result": [
      {
        "electoralDistricts": [
          {
            "election": null,
            "id": 38,
            "name": "Hamilton Mountain"
          }
        ],
        "pollDivisionIds": [
          10138706
        ],
        "postalCode": "L8W1K7",
        "streetName": "REDBURY",
        "streetDirectionId": null,
        "streetTypeId": "ST",
        "placeName": "HAMILTON",
        "streetNameDisplayText": "REDBURY ST, HAMILTON"
      }
    ]
  },
  {
    "postal": "L8W0H0",
    "result": []
  },
  {
    "postal": "L8W0J3",
    "result": []
  },
  {
    "postal": "L8W1X6",
    "result": [
      {
        "electoralDistricts": [
          {
            "election": null,
            "id": 38,
            "name": "Hamilton Mountain"
          }
        ],
        "pollDivisionIds": [
          10138705,
          10138703
        ],
        "postalCode": "L8W1X6",
        "streetName": "REXFORD",
        "streetDirectionId": null,
        "streetTypeId": "DR",
        "placeName": "HAMILTON",
        "streetNameDisplayText": "REXFORD DR, HAMILTON"
      }
    ]
  },
  {
    "postal": "L8W2Z6",
    "result": [
      {
        "electoralDistricts": [
          {
            "election": null,
            "id": 38,
            "name": "Hamilton Mountain"
          }
        ],
        "pollDivisionIds": [
          10138688
        ],
        "postalCode": "L8W2Z6",
        "streetName": "RANDOLF",
        "streetDirectionId": null,
        "streetTypeId": "CRT",
        "placeName": "HAMILTON",
        "streetNameDisplayText": "RANDOLF CRT, HAMILTON"
      },
      {
        "electoralDistricts": [
          {
            "election": null,
            "id": 38,
            "name": "Hamilton Mountain"
          }
        ],
        "pollDivisionIds": [
          10138688
        ],
        "postalCode": "L8W2Z6",
        "streetName": "SOUTHPARK",
        "streetDirectionId": null,
        "streetTypeId": "AVE",
        "placeName": "HAMILTON",
        "streetNameDisplayText": "SOUTHPARK AVE, HAMILTON"
      }
    ]
  },
  {
    "postal": "L8W4R9",
    "result": []
  },
  {
    "postal": "L8W0W8",
    "result": []
  },
  {
    "postal": "L8W1L4",
    "result": [
      {
        "electoralDistricts": [
          {
            "election": null,
            "id": 38,
            "name": "Hamilton Mountain"
          }
        ],
        "pollDivisionIds": [
          10138706
        ],
        "postalCode": "L8W1L4",
        "streetName": "TORLAKE",
        "streetDirectionId": null,
        "streetTypeId": "ST",
        "placeName": "HAMILTON",
        "streetNameDisplayText": "TORLAKE ST, HAMILTON"
      }
    ]
  },
  {
    "postal": "L8W0C8",
    "result": []
  },
  {
    "postal": "L8W9X7",
    "result": []
  },
  {
    "postal": "L8W4T1",
    "result": []
  },
  {
    "postal": "L8W0M0",
    "result": []
  },
  {
    "postal": "L8W6A2",
    "result": []
  },
  {
    "postal": "L8W9S8",
    "result": []
  },
  {
    "postal": "L8W9T4",
    "result": []
  },
  {
    "postal": "L8W9Y4",
    "result": []
  },
  {
    "postal": "L8W6G5",
    "result": []
  },
  {
    "postal": "L8W6H9",
    "result": []
  },
  {
    "postal": "L8W2P3",
    "result": [
      {
        "electoralDistricts": [
          {
            "election": null,
            "id": 38,
            "name": "Hamilton Mountain"
          }
        ],
        "pollDivisionIds": [
          10138703
        ],
        "postalCode": "L8W2P3",
        "streetName": "RAWLINGS",
        "streetDirectionId": null,
        "streetTypeId": "AVE",
        "placeName": "HAMILTON",
        "streetNameDisplayText": "RAWLINGS AVE, HAMILTON"
      }
    ]
  },
  {
    "postal": "L8W1T6",
    "result": [
      {
        "electoralDistricts": [
          {
            "election": null,
            "id": 38,
            "name": "Hamilton Mountain"
          }
        ],
        "pollDivisionIds": [
          10138705
        ],
        "postalCode": "L8W1T6",
        "streetName": "ELMORE",
        "streetDirectionId": null,
        "streetTypeId": "DR",
        "placeName": "HAMILTON",
        "streetNameDisplayText": "ELMORE DR, HAMILTON"
      }
    ]
  },
  {
    "postal": "L8W4P6",
    "result": []
  },
  {
    "postal": "L8W3K1",
    "result": [
      {
        "electoralDistricts": [
          {
            "election": null,
            "id": 38,
            "name": "Hamilton Mountain"
          }
        ],
        "pollDivisionIds": [
          10138705
        ],
        "postalCode": "L8W3K1",
        "streetName": "ERMINIA",
        "streetDirectionId": null,
        "streetTypeId": "CRT",
        "placeName": "HAMILTON",
        "streetNameDisplayText": "ERMINIA CRT, HAMILTON"
      }
    ]
  },
  {
    "postal": "L8W6X4",
    "result": []
  },
  {
    "postal": "L8W4M8",
    "result": []
  },
  {
    "postal": "L8W2Y1",
    "result": [
      {
        "electoralDistricts": [
          {
            "election": null,
            "id": 38,
            "name": "Hamilton Mountain"
          }
        ],
        "pollDivisionIds": [
          10138690
        ],
        "postalCode": "L8W2Y1",
        "streetName": "LIMERIDGE",
        "streetDirectionId": "E",
        "streetTypeId": "RD",
        "placeName": "HAMILTON",
        "streetNameDisplayText": "LIMERIDGE RD E, HAMILTON"
      }
    ]
  },
  {
    "postal": "L8W6M1",
    "result": []
  },
  {
    "postal": "L8W5L8",
    "result": []
  },
  {
    "postal": "L8W3P6",
    "result": [
      {
        "electoralDistricts": [
          {
            "election": null,
            "id": 31,
            "name": "Flamborough—Glanbrook"
          }
        ],
        "pollDivisionIds": [
          10138263
        ],
        "postalCode": "L8W3P6",
        "streetName": "HIGHLAND",
        "streetDirectionId": "W",
        "streetTypeId": "RD",
        "placeName": "HAMILTON",
        "streetNameDisplayText": "HIGHLAND RD W, HAMILTON"
      },
      {
        "electoralDistricts": [
          {
            "election": null,
            "id": 31,
            "name": "Flamborough—Glanbrook"
          }
        ],
        "pollDivisionIds": [
          10138263
        ],
        "postalCode": "L8W3P6",
        "streetName": "PRITCHARD",
        "streetDirectionId": null,
        "streetTypeId": "RD",
        "placeName": "HAMILTON",
        "streetNameDisplayText": "PRITCHARD RD, HAMILTON"
      }
    ]
  },
  {
    "postal": "L8W9A5",
    "result": []
  },
  {
    "postal": "L8W7K1",
    "result": []
  },
  {
    "postal": "L8W3J4",
    "result": [
      {
        "electoralDistricts": [
          {
            "election": null,
            "id": 38,
            "name": "Hamilton Mountain"
          }
        ],
        "pollDivisionIds": [
          10138706
        ],
        "postalCode": "L8W3J4",
        "streetName": "UPPER OTTAWA",
        "streetDirectionId": null,
        "streetTypeId": "ST",
        "placeName": "HAMILTON",
        "streetNameDisplayText": "UPPER OTTAWA ST, HAMILTON"
      }
    ]
  },
  {
    "postal": "L8W5E7",
    "result": []
  },
  {
    "postal": "L8W3A7",
    "result": [
      {
        "electoralDistricts": [
          {
            "election": null,
            "id": 38,
            "name": "Hamilton Mountain"
          }
        ],
        "pollDivisionIds": [
          10138704
        ],
        "postalCode": "L8W3A7",
        "streetName": "TWIN",
        "streetDirectionId": null,
        "streetTypeId": "CRES",
        "placeName": "HAMILTON",
        "streetNameDisplayText": "TWIN CRES, HAMILTON"
      }
    ]
  },
  {
    "postal": "L8W1B9",
    "result": [
      {
        "electoralDistricts": [
          {
            "election": null,
            "id": 38,
            "name": "Hamilton Mountain"
          }
        ],
        "pollDivisionIds": [
          10138700
        ],
        "postalCode": "L8W1B9",
        "streetName": "UPPER SHERMAN",
        "streetDirectionId": null,
        "streetTypeId": "AVE",
        "placeName": "HAMILTON",
        "streetNameDisplayText": "UPPER SHERMAN AVE, HAMILTON"
      }
    ]
  },
  {
    "postal": "L8W9E8",
    "result": []
  },
  {
    "postal": "L8W1C9",
    "result": [
      {
        "electoralDistricts": [
          {
            "election": null,
            "id": 31,
            "name": "Flamborough—Glanbrook"
          }
        ],
        "pollDivisionIds": [
          10138262
        ],
        "postalCode": "L8W1C9",
        "streetName": "MILES",
        "streetDirectionId": null,
        "streetTypeId": "RD",
        "placeName": "HAMILTON",
        "streetNameDisplayText": "MILES RD, HAMILTON"
      }
    ]
  },
  {
    "postal": "L8W3B5",
    "result": [
      {
        "electoralDistricts": [
          {
            "election": null,
            "id": 38,
            "name": "Hamilton Mountain"
          }
        ],
        "pollDivisionIds": [
          10138703
        ],
        "postalCode": "L8W3B5",
        "streetName": "STONE CHURCH",
        "streetDirectionId": "E",
        "streetTypeId": "RD",
        "placeName": "HAMILTON",
        "streetNameDisplayText": "STONE CHURCH RD E, HAMILTON"
      }
    ]
  },
  {
    "postal": "L8W8R0",
    "result": []
  },
  {
    "postal": "L8W3P2",
    "result": [
      {
        "electoralDistricts": [
          {
            "election": null,
            "id": 31,
            "name": "Flamborough—Glanbrook"
          }
        ],
        "pollDivisionIds": [
          10138262
        ],
        "postalCode": "L8W3P2",
        "streetName": "UPPER OTTAWA",
        "streetDirectionId": null,
        "streetTypeId": "ST",
        "placeName": "HAMILTON",
        "streetNameDisplayText": "UPPER OTTAWA ST, HAMILTON"
      }
    ]
  },
  {
    "postal": "L8W5V4",
    "result": []
  },
  {
    "postal": "L8W4H0",
    "result": []
  },
  {
    "postal": "L8W4S7",
    "result": []
  },
  {
    "postal": "L8W6C2",
    "result": []
  },
  {
    "postal": "L8W8W3",
    "result": []
  },
  {
    "postal": "L8W4M5",
    "result": []
  },
  {
    "postal": "L8W5T1",
    "result": []
  },
  {
    "postal": "L8W3B3",
    "result": [
      {
        "electoralDistricts": [
          {
            "election": null,
            "id": 38,
            "name": "Hamilton Mountain"
          }
        ],
        "pollDivisionIds": [
          10138688
        ],
        "postalCode": "L8W3B3",
        "streetName": "STONE CHURCH",
        "streetDirectionId": "E",
        "streetTypeId": "RD",
        "placeName": "HAMILTON",
        "streetNameDisplayText": "STONE CHURCH RD E, HAMILTON"
      },
      {
        "electoralDistricts": [
          {
            "election": null,
            "id": 38,
            "name": "Hamilton Mountain"
          }
        ],
        "pollDivisionIds": [
          10138688
        ],
        "postalCode": "L8W3B3",
        "streetName": "STONECHURCH",
        "streetDirectionId": "E",
        "streetTypeId": "RD",
        "placeName": "HAMILTON",
        "streetNameDisplayText": "STONECHURCH RD E, HAMILTON"
      }
    ]
  },
  {
    "postal": "L8W6C6",
    "result": []
  },
  {
    "postal": "L8W7N8",
    "result": []
  },
  {
    "postal": "L8W2Y3",
    "result": [
      {
        "electoralDistricts": [
          {
            "election": null,
            "id": 38,
            "name": "Hamilton Mountain"
          }
        ],
        "pollDivisionIds": [
          10138690
        ],
        "postalCode": "L8W2Y3",
        "streetName": "LIMERIDGE",
        "streetDirectionId": "E",
        "streetTypeId": "RD",
        "placeName": "HAMILTON",
        "streetNameDisplayText": "LIMERIDGE RD E, HAMILTON"
      }
    ]
  },
  {
    "postal": "L8W2R6",
    "result": [
      {
        "electoralDistricts": [
          {
            "election": null,
            "id": 38,
            "name": "Hamilton Mountain"
          }
        ],
        "pollDivisionIds": [
          10138704
        ],
        "postalCode": "L8W2R6",
        "streetName": "ACADIA",
        "streetDirectionId": null,
        "streetTypeId": "DR",
        "placeName": "HAMILTON",
        "streetNameDisplayText": "ACADIA DR, HAMILTON"
      },
      {
        "electoralDistricts": [
          {
            "election": null,
            "id": 38,
            "name": "Hamilton Mountain"
          }
        ],
        "pollDivisionIds": [
          10138704
        ],
        "postalCode": "L8W2R6",
        "streetName": "RIDGEMOUNT",
        "streetDirectionId": null,
        "streetTypeId": "DR",
        "placeName": "HAMILTON",
        "streetNameDisplayText": "RIDGEMOUNT DR, HAMILTON"
      }
    ]
  },
  {
    "postal": "L8W7N3",
    "result": []
  },
  {
    "postal": "L8W8J2",
    "result": []
  },
  {
    "postal": "L8W6A9",
    "result": []
  },
  {
    "postal": "L8W3V2",
    "result": [
      {
        "electoralDistricts": [
          {
            "election": null,
            "id": 38,
            "name": "Hamilton Mountain"
          }
        ],
        "pollDivisionIds": [
          10138704
        ],
        "postalCode": "L8W3V2",
        "streetName": "ACADIA",
        "streetDirectionId": null,
        "streetTypeId": "DR",
        "placeName": "HAMILTON",
        "streetNameDisplayText": "ACADIA DR, HAMILTON"
      }
    ]
  },
  {
    "postal": "L8W2N3",
    "result": [
      {
        "electoralDistricts": [
          {
            "election": null,
            "id": 38,
            "name": "Hamilton Mountain"
          }
        ],
        "pollDivisionIds": [
          10138703
        ],
        "postalCode": "L8W2N3",
        "streetName": "ROSS",
        "streetDirectionId": null,
        "streetTypeId": "AVE",
        "placeName": "HAMILTON",
        "streetNameDisplayText": "ROSS AVE, HAMILTON"
      },
      {
        "electoralDistricts": [
          {
            "election": null,
            "id": 38,
            "name": "Hamilton Mountain"
          }
        ],
        "pollDivisionIds": [
          10138703
        ],
        "postalCode": "L8W2N3",
        "streetName": "ROWNTREE",
        "streetDirectionId": null,
        "streetTypeId": "DR",
        "placeName": "HAMILTON",
        "streetNameDisplayText": "ROWNTREE DR, HAMILTON"
      }
    ]
  },
  {
    "postal": "L8W1S5",
    "result": [
      {
        "electoralDistricts": [
          {
            "election": null,
            "id": 38,
            "name": "Hamilton Mountain"
          }
        ],
        "pollDivisionIds": [
          10138704
        ],
        "postalCode": "L8W1S5",
        "streetName": "LEAWAY",
        "streetDirectionId": null,
        "streetTypeId": "AVE",
        "placeName": "HAMILTON",
        "streetNameDisplayText": "LEAWAY AVE, HAMILTON"
      }
    ]
  },
  {
    "postal": "L8W4T7",
    "result": []
  },
  {
    "postal": "L8W6Y7",
    "result": []
  },
  {
    "postal": "L8W0W7",
    "result": []
  },
  {
    "postal": "L8W2W9",
    "result": [
      {
        "electoralDistricts": [
          {
            "election": null,
            "id": 38,
            "name": "Hamilton Mountain"
          }
        ],
        "pollDivisionIds": [
          10138700
        ],
        "postalCode": "L8W2W9",
        "streetName": "LIMERIDGE",
        "streetDirectionId": "E",
        "streetTypeId": "RD",
        "placeName": "HAMILTON",
        "streetNameDisplayText": "LIMERIDGE RD E, HAMILTON"
      }
    ]
  },
  {
    "postal": "L8W8V0",
    "result": []
  },
  {
    "postal": "L8W0H4",
    "result": []
  },
  {
    "postal": "L8W2T1",
    "result": [
      {
        "electoralDistricts": [
          {
            "election": null,
            "id": 38,
            "name": "Hamilton Mountain"
          }
        ],
        "pollDivisionIds": [
          10138705
        ],
        "postalCode": "L8W2T1",
        "streetName": "EAGLEWOOD",
        "streetDirectionId": null,
        "streetTypeId": "DR",
        "placeName": "HAMILTON",
        "streetNameDisplayText": "EAGLEWOOD DR, HAMILTON"
      }
    ]
  },
  {
    "postal": "L8W1B1",
    "result": [
      {
        "electoralDistricts": [
          {
            "election": null,
            "id": 38,
            "name": "Hamilton Mountain"
          }
        ],
        "pollDivisionIds": [
          10138705
        ],
        "postalCode": "L8W1B1",
        "streetName": "STONE CHURCH",
        "streetDirectionId": "E",
        "streetTypeId": "RD",
        "placeName": "HAMILTON",
        "streetNameDisplayText": "STONE CHURCH RD E, HAMILTON"
      }
    ]
  },
  {
    "postal": "L8W8B6",
    "result": []
  },
  {
    "postal": "L8W6H1",
    "result": []
  },
  {
    "postal": "L8W8T8",
    "result": []
  },
  {
    "postal": "L8W0T4",
    "result": []
  },
  {
    "postal": "L8W2C4",
    "result": [
      {
        "electoralDistricts": [
          {
            "election": null,
            "id": 38,
            "name": "Hamilton Mountain"
          }
        ],
        "pollDivisionIds": [
          10138701
        ],
        "postalCode": "L8W2C4",
        "streetName": "LIMERIDGE",
        "streetDirectionId": "E",
        "streetTypeId": "RD",
        "placeName": "HAMILTON",
        "streetNameDisplayText": "LIMERIDGE RD E, HAMILTON"
      },
      {
        "electoralDistricts": [
          {
            "election": null,
            "id": 38,
            "name": "Hamilton Mountain"
          }
        ],
        "pollDivisionIds": [
          10138701
        ],
        "postalCode": "L8W2C4",
        "streetName": "LIMERIDGE ROAD EAST",
        "streetDirectionId": "E",
        "streetTypeId": "RD",
        "placeName": "HAMILTON",
        "streetNameDisplayText": "LIMERIDGE ROAD EAST RD E, HAMILTON"
      }
    ]
  },
  {
    "postal": "L8W8N3",
    "result": []
  },
  {
    "postal": "L8W4L8",
    "result": []
  },
  {
    "postal": "L8W2B5",
    "result": [
      {
        "electoralDistricts": [
          {
            "election": null,
            "id": 38,
            "name": "Hamilton Mountain"
          }
        ],
        "pollDivisionIds": [
          10138705
        ],
        "postalCode": "L8W2B5",
        "streetName": "RAVENBURY",
        "streetDirectionId": null,
        "streetTypeId": "DR",
        "placeName": "HAMILTON",
        "streetNameDisplayText": "RAVENBURY DR, HAMILTON"
      }
    ]
  },
  {
    "postal": "L8W3H1",
    "result": [
      {
        "electoralDistricts": [
          {
            "election": null,
            "id": 38,
            "name": "Hamilton Mountain"
          }
        ],
        "pollDivisionIds": [
          10138706
        ],
        "postalCode": "L8W3H1",
        "streetName": "MOUNT PLEASANT",
        "streetDirectionId": null,
        "streetTypeId": "DR",
        "placeName": "HAMILTON",
        "streetNameDisplayText": "MOUNT PLEASANT DR, HAMILTON"
      },
      {
        "electoralDistricts": [
          {
            "election": null,
            "id": 38,
            "name": "Hamilton Mountain"
          }
        ],
        "pollDivisionIds": [
          10138706
        ],
        "postalCode": "L8W3H1",
        "streetName": "PEARSON",
        "streetDirectionId": null,
        "streetTypeId": "DR",
        "placeName": "HAMILTON",
        "streetNameDisplayText": "PEARSON DR, HAMILTON"
      }
    ]
  },
  {
    "postal": "L8W4Y1",
    "result": []
  },
  {
    "postal": "L8W7E2",
    "result": []
  },
  {
    "postal": "L8W2P5",
    "result": [
      {
        "electoralDistricts": [
          {
            "election": null,
            "id": 38,
            "name": "Hamilton Mountain"
          }
        ],
        "pollDivisionIds": [
          10138688
        ],
        "postalCode": "L8W2P5",
        "streetName": "CHARING",
        "streetDirectionId": null,
        "streetTypeId": "DR",
        "placeName": "HAMILTON",
        "streetNameDisplayText": "CHARING DR, HAMILTON"
      }
    ]
  },
  {
    "postal": "L8W8R7",
    "result": []
  },
  {
    "postal": "L8W9P1",
    "result": []
  },
  {
    "postal": "L8W3B8",
    "result": [
      {
        "electoralDistricts": [
          {
            "election": null,
            "id": 38,
            "name": "Hamilton Mountain"
          }
        ],
        "pollDivisionIds": [
          10138706
        ],
        "postalCode": "L8W3B8",
        "streetName": "IRONWOOD",
        "streetDirectionId": null,
        "streetTypeId": "CRES",
        "placeName": "HAMILTON",
        "streetNameDisplayText": "IRONWOOD CRES, HAMILTON"
      },
      {
        "electoralDistricts": [
          {
            "election": null,
            "id": 38,
            "name": "Hamilton Mountain"
          }
        ],
        "pollDivisionIds": [
          10138706
        ],
        "postalCode": "L8W3B8",
        "streetName": "NINA",
        "streetDirectionId": null,
        "streetTypeId": "CRT",
        "placeName": "HAMILTON",
        "streetNameDisplayText": "NINA CRT, HAMILTON"
      }
    ]
  },
  {
    "postal": "L8W3P7",
    "result": [
      {
        "electoralDistricts": [
          {
            "election": null,
            "id": 31,
            "name": "Flamborough—Glanbrook"
          }
        ],
        "pollDivisionIds": [
          10138263
        ],
        "postalCode": "L8W3P7",
        "streetName": "PRITCHARD",
        "streetDirectionId": null,
        "streetTypeId": "RD",
        "placeName": "HAMILTON",
        "streetNameDisplayText": "PRITCHARD RD, HAMILTON"
      }
    ]
  },
  {
    "postal": "L8W9B2",
    "result": []
  },
  {
    "postal": "L8W6Z3",
    "result": []
  },
  {
    "postal": "L8W4N5",
    "result": []
  },
  {
    "postal": "L8W8T3",
    "result": []
  },
  {
    "postal": "L8W1V2",
    "result": [
      {
        "electoralDistricts": [
          {
            "election": null,
            "id": 38,
            "name": "Hamilton Mountain"
          }
        ],
        "pollDivisionIds": [
          10138705
        ],
        "postalCode": "L8W1V2",
        "streetName": "RHODES",
        "streetDirectionId": null,
        "streetTypeId": "CRT",
        "placeName": "HAMILTON",
        "streetNameDisplayText": "RHODES CRT, HAMILTON"
      }
    ]
  },
  {
    "postal": "L8W1Y0",
    "result": []
  },
  {
    "postal": "L8W3G6",
    "result": [
      {
        "electoralDistricts": [
          {
            "election": null,
            "id": 38,
            "name": "Hamilton Mountain"
          }
        ],
        "pollDivisionIds": [
          10138706
        ],
        "postalCode": "L8W3G6",
        "streetName": "UPPER OTTAWA",
        "streetDirectionId": null,
        "streetTypeId": "ST",
        "placeName": "HAMILTON",
        "streetNameDisplayText": "UPPER OTTAWA ST, HAMILTON"
      }
    ]
  },
  {
    "postal": "L8W3H7",
    "result": [
      {
        "electoralDistricts": [
          {
            "election": null,
            "id": 38,
            "name": "Hamilton Mountain"
          }
        ],
        "pollDivisionIds": [
          10138706
        ],
        "postalCode": "L8W3H7",
        "streetName": "INDEPENDENCE",
        "streetDirectionId": null,
        "streetTypeId": "DR",
        "placeName": "HAMILTON",
        "streetNameDisplayText": "INDEPENDENCE DR, HAMILTON"
      },
      {
        "electoralDistricts": [
          {
            "election": null,
            "id": 38,
            "name": "Hamilton Mountain"
          }
        ],
        "pollDivisionIds": [
          10138706
        ],
        "postalCode": "L8W3H7",
        "streetName": "RUTLEDGE",
        "streetDirectionId": null,
        "streetTypeId": "CRT",
        "placeName": "HAMILTON",
        "streetNameDisplayText": "RUTLEDGE CRT, HAMILTON"
      }
    ]
  },
  {
    "postal": "L8W7X8",
    "result": []
  },
  {
    "postal": "L8W0C7",
    "result": []
  },
  {
    "postal": "L8W0W9",
    "result": []
  },
  {
    "postal": "L8W8E6",
    "result": []
  },
  {
    "postal": "L8W9Z8",
    "result": []
  },
  {
    "postal": "L8W3P4",
    "result": [
      {
        "electoralDistricts": [
          {
            "election": null,
            "id": 31,
            "name": "Flamborough—Glanbrook"
          }
        ],
        "pollDivisionIds": [
          10138262
        ],
        "postalCode": "L8W3P4",
        "streetName": "NEBO",
        "streetDirectionId": null,
        "streetTypeId": "RD",
        "placeName": "HAMILTON",
        "streetNameDisplayText": "NEBO RD, HAMILTON"
      }
    ]
  },
  {
    "postal": "L8W6L8",
    "result": []
  },
  {
    "postal": "L8W2R4",
    "result": [
      {
        "electoralDistricts": [
          {
            "election": null,
            "id": 38,
            "name": "Hamilton Mountain"
          }
        ],
        "pollDivisionIds": [
          10138704
        ],
        "postalCode": "L8W2R4",
        "streetName": "ACADIA",
        "streetDirectionId": null,
        "streetTypeId": "DR",
        "placeName": "HAMILTON",
        "streetNameDisplayText": "ACADIA DR, HAMILTON"
      }
    ]
  },
  {
    "postal": "L8W2W1",
    "result": [
      {
        "electoralDistricts": [
          {
            "election": null,
            "id": 38,
            "name": "Hamilton Mountain"
          }
        ],
        "pollDivisionIds": [
          10138706
        ],
        "postalCode": "L8W2W1",
        "streetName": "HOMEX",
        "streetDirectionId": null,
        "streetTypeId": "PL",
        "placeName": "HAMILTON",
        "streetNameDisplayText": "HOMEX PL, HAMILTON"
      },
      {
        "electoralDistricts": [
          {
            "election": null,
            "id": 38,
            "name": "Hamilton Mountain"
          }
        ],
        "pollDivisionIds": [
          10138706
        ],
        "postalCode": "L8W2W1",
        "streetName": "INDEPENDENCE",
        "streetDirectionId": null,
        "streetTypeId": "DR",
        "placeName": "HAMILTON",
        "streetNameDisplayText": "INDEPENDENCE DR, HAMILTON"
      },
      {
        "electoralDistricts": [
          {
            "election": null,
            "id": 38,
            "name": "Hamilton Mountain"
          }
        ],
        "pollDivisionIds": [
          10138706
        ],
        "postalCode": "L8W2W1",
        "streetName": "TEMPLEMEAD",
        "streetDirectionId": null,
        "streetTypeId": "DR",
        "placeName": "HAMILTON",
        "streetNameDisplayText": "TEMPLEMEAD DR, HAMILTON"
      }
    ]
  },
  {
    "postal": "L8W9H8",
    "result": []
  },
  {
    "postal": "L8W8X9",
    "result": []
  },
  {
    "postal": "L8W7H4",
    "result": []
  },
  {
    "postal": "L8W3J1",
    "result": [
      {
        "electoralDistricts": [
          {
            "election": null,
            "id": 38,
            "name": "Hamilton Mountain"
          }
        ],
        "pollDivisionIds": [
          10138705,
          10138703
        ],
        "postalCode": "L8W3J1",
        "streetName": "ROBSON",
        "streetDirectionId": null,
        "streetTypeId": "CRES",
        "placeName": "HAMILTON",
        "streetNameDisplayText": "ROBSON CRES, HAMILTON"
      }
    ]
  },
  {
    "postal": "L8W1P4",
    "result": [
      {
        "electoralDistricts": [
          {
            "election": null,
            "id": 38,
            "name": "Hamilton Mountain"
          }
        ],
        "pollDivisionIds": [
          10138706
        ],
        "postalCode": "L8W1P4",
        "streetName": "TAYMALL",
        "streetDirectionId": null,
        "streetTypeId": "ST",
        "placeName": "HAMILTON",
        "streetNameDisplayText": "TAYMALL ST, HAMILTON"
      }
    ]
  },
  {
    "postal": "L8W2A3",
    "result": []
  },
  {
    "postal": "L8W0Z1",
    "result": []
  },
  {
    "postal": "L8W1C1",
    "result": []
  },
  {
    "postal": "L8W0H3",
    "result": []
  },
  {
    "postal": "L8W7B0",
    "result": []
  },
  {
    "postal": "L8W5K2",
    "result": []
  },
  {
    "postal": "L8W1E9",
    "result": [
      {
        "electoralDistricts": [
          {
            "election": null,
            "id": 38,
            "name": "Hamilton Mountain"
          }
        ],
        "pollDivisionIds": [
          10138702,
          10138701
        ],
        "postalCode": "L8W1E9",
        "streetName": "LIMERIDGE",
        "streetDirectionId": "E",
        "streetTypeId": "RD",
        "placeName": "HAMILTON",
        "streetNameDisplayText": "LIMERIDGE RD E, HAMILTON"
      }
    ]
  },
  {
    "postal": "L8W9W7",
    "result": []
  },
  {
    "postal": "L8W5W6",
    "result": []
  },
  {
    "postal": "L8W6S6",
    "result": []
  },
  {
    "postal": "L8W2P8",
    "result": [
      {
        "electoralDistricts": [
          {
            "election": null,
            "id": 38,
            "name": "Hamilton Mountain"
          }
        ],
        "pollDivisionIds": [
          10138688
        ],
        "postalCode": "L8W2P8",
        "streetName": "MARK",
        "streetDirectionId": null,
        "streetTypeId": "PL",
        "placeName": "HAMILTON",
        "streetNameDisplayText": "MARK PL, HAMILTON"
      }
    ]
  },
  {
    "postal": "L8W4P8",
    "result": []
  },
  {
    "postal": "L8W0V9",
    "result": []
  },
  {
    "postal": "L8W5Y2",
    "result": []
  },
  {
    "postal": "L8W7Z7",
    "result": []
  },
  {
    "postal": "L8W6Y8",
    "result": []
  },
  {
    "postal": "L8W2G7",
    "result": [
      {
        "electoralDistricts": [
          {
            "election": null,
            "id": 38,
            "name": "Hamilton Mountain"
          }
        ],
        "pollDivisionIds": [
          10138702
        ],
        "postalCode": "L8W2G7",
        "streetName": "SOLOMON",
        "streetDirectionId": null,
        "streetTypeId": "CRES",
        "placeName": "HAMILTON",
        "streetNameDisplayText": "SOLOMON CRES, HAMILTON"
      }
    ]
  },
  {
    "postal": "L8W8C1",
    "result": []
  },
  {
    "postal": "L8W5C5",
    "result": []
  },
  {
    "postal": "L8W2X8",
    "result": [
      {
        "electoralDistricts": [
          {
            "election": null,
            "id": 31,
            "name": "Flamborough—Glanbrook"
          }
        ],
        "pollDivisionIds": [
          10138262
        ],
        "postalCode": "L8W2X8",
        "streetName": "RYMAL",
        "streetDirectionId": "E",
        "streetTypeId": "RD",
        "placeName": "HAMILTON",
        "streetNameDisplayText": "RYMAL RD E, HAMILTON"
      }
    ]
  },
  {
    "postal": "L8W1W5",
    "result": [
      {
        "electoralDistricts": [
          {
            "election": null,
            "id": 38,
            "name": "Hamilton Mountain"
          }
        ],
        "pollDivisionIds": [
          10138705
        ],
        "postalCode": "L8W1W5",
        "streetName": "RAVENBURY",
        "streetDirectionId": null,
        "streetTypeId": "DR",
        "placeName": "HAMILTON",
        "streetNameDisplayText": "RAVENBURY DR, HAMILTON"
      }
    ]
  },
  {
    "postal": "L8W7G0",
    "result": []
  },
  {
    "postal": "L8W8J8",
    "result": []
  },
  {
    "postal": "L8W3Y0",
    "result": []
  },
  {
    "postal": "L8W9T7",
    "result": []
  },
  {
    "postal": "L8W5P4",
    "result": []
  },
  {
    "postal": "L8W4B0",
    "result": []
  },
  {
    "postal": "L8W9N8",
    "result": []
  },
  {
    "postal": "L8W4A7",
    "result": []
  },
  {
    "postal": "L8W4H9",
    "result": []
  },
  {
    "postal": "L8W6X1",
    "result": []
  },
  {
    "postal": "L8W9Y7",
    "result": []
  },
  {
    "postal": "L8W2Y5",
    "result": [
      {
        "electoralDistricts": [
          {
            "election": null,
            "id": 38,
            "name": "Hamilton Mountain"
          }
        ],
        "pollDivisionIds": [
          10138690
        ],
        "postalCode": "L8W2Y5",
        "streetName": "LIMERIDGE",
        "streetDirectionId": "E",
        "streetTypeId": "RD",
        "placeName": "HAMILTON",
        "streetNameDisplayText": "LIMERIDGE RD E, HAMILTON"
      }
    ]
  },
  {
    "postal": "L8W8L7",
    "result": []
  },
  {
    "postal": "L8W2A8",
    "result": [
      {
        "electoralDistricts": [
          {
            "election": null,
            "id": 38,
            "name": "Hamilton Mountain"
          }
        ],
        "pollDivisionIds": [
          10138704
        ],
        "postalCode": "L8W2A8",
        "streetName": "ENOLA",
        "streetDirectionId": null,
        "streetTypeId": "AVE",
        "placeName": "HAMILTON",
        "streetNameDisplayText": "ENOLA AVE, HAMILTON"
      }
    ]
  },
  {
    "postal": "L8W2K9",
    "result": []
  },
  {
    "postal": "L8W3E5",
    "result": [
      {
        "electoralDistricts": [
          {
            "election": null,
            "id": 38,
            "name": "Hamilton Mountain"
          }
        ],
        "pollDivisionIds": [
          10138705
        ],
        "postalCode": "L8W3E5",
        "streetName": "QUEEN VICTORIA",
        "streetDirectionId": null,
        "streetTypeId": "DR",
        "placeName": "HAMILTON",
        "streetNameDisplayText": "QUEEN VICTORIA DR, HAMILTON"
      }
    ]
  },
  {
    "postal": "L8W8N6",
    "result": []
  },
  {
    "postal": "L8W8J4",
    "result": []
  },
  {
    "postal": "L8W4R7",
    "result": []
  },
  {
    "postal": "L8W9K1",
    "result": []
  },
  {
    "postal": "L8W8E1",
    "result": []
  },
  {
    "postal": "L8W0R1",
    "result": []
  },
  {
    "postal": "L8W4J3",
    "result": []
  },
  {
    "postal": "L8W7E7",
    "result": []
  },
  {
    "postal": "L8W0J0",
    "result": []
  },
  {
    "postal": "L8W7R8",
    "result": []
  },
  {
    "postal": "L8W9X0",
    "result": []
  },
  {
    "postal": "L8W7P6",
    "result": []
  },
  {
    "postal": "L8W0R7",
    "result": []
  },
  {
    "postal": "L8W5W1",
    "result": []
  },
  {
    "postal": "L8W0K4",
    "result": []
  },
  {
    "postal": "L8W7N9",
    "result": []
  },
  {
    "postal": "L8W1N0",
    "result": []
  },
  {
    "postal": "L8W6P3",
    "result": []
  },
  {
    "postal": "L8W5A1",
    "result": []
  },
  {
    "postal": "L8W9M9",
    "result": []
  },
  {
    "postal": "L8W7T6",
    "result": []
  },
  {
    "postal": "L8W3X0",
    "result": []
  },
  {
    "postal": "L8W2T0",
    "result": []
  },
  {
    "postal": "L8W5X9",
    "result": []
  },
  {
    "postal": "L8W2R3",
    "result": [
      {
        "electoralDistricts": [
          {
            "election": null,
            "id": 38,
            "name": "Hamilton Mountain"
          }
        ],
        "pollDivisionIds": [
          10138688
        ],
        "postalCode": "L8W2R3",
        "streetName": "BENEMAR",
        "streetDirectionId": null,
        "streetTypeId": "CRT",
        "placeName": "HAMILTON",
        "streetNameDisplayText": "BENEMAR CRT, HAMILTON"
      },
      {
        "electoralDistricts": [
          {
            "election": null,
            "id": 38,
            "name": "Hamilton Mountain"
          }
        ],
        "pollDivisionIds": [
          10138688
        ],
        "postalCode": "L8W2R3",
        "streetName": "CHARING",
        "streetDirectionId": null,
        "streetTypeId": "DR",
        "placeName": "HAMILTON",
        "streetNameDisplayText": "CHARING DR, HAMILTON"
      }
    ]
  },
  {
    "postal": "L8W5N2",
    "result": []
  },
  {
    "postal": "L8W4Y7",
    "result": []
  },
  {
    "postal": "L8W7M0",
    "result": []
  },
  {
    "postal": "L8W8P3",
    "result": []
  },
  {
    "postal": "L8W3N3",
    "result": [
      {
        "electoralDistricts": [
          {
            "election": null,
            "id": 31,
            "name": "Flamborough—Glanbrook"
          }
        ],
        "pollDivisionIds": [
          10138263
        ],
        "postalCode": "L8W3N3",
        "streetName": "RYMAL",
        "streetDirectionId": "E",
        "streetTypeId": "RD",
        "placeName": "HAMILTON",
        "streetNameDisplayText": "RYMAL RD E, HAMILTON"
      }
    ]
  },
  {
    "postal": "L8W7S3",
    "result": []
  },
  {
    "postal": "L8W3V9",
    "result": [
      {
        "electoralDistricts": [
          {
            "election": null,
            "id": 31,
            "name": "Flamborough—Glanbrook"
          }
        ],
        "pollDivisionIds": [
          10138262
        ],
        "postalCode": "L8W3V9",
        "streetName": "DARTNALL",
        "streetDirectionId": null,
        "streetTypeId": "RD",
        "placeName": "HAMILTON",
        "streetNameDisplayText": "DARTNALL RD, HAMILTON"
      }
    ]
  },
  {
    "postal": "L8W9N7",
    "result": []
  },
  {
    "postal": "L8W0G4",
    "result": []
  },
  {
    "postal": "L8W2E2",
    "result": [
      {
        "electoralDistricts": [
          {
            "election": null,
            "id": 38,
            "name": "Hamilton Mountain"
          }
        ],
        "pollDivisionIds": [
          10138706
        ],
        "postalCode": "L8W2E2",
        "streetName": "NEBO",
        "streetDirectionId": null,
        "streetTypeId": "RD",
        "placeName": "HAMILTON",
        "streetNameDisplayText": "NEBO RD, HAMILTON"
      }
    ]
  },
  {
    "postal": "L8W7W8",
    "result": []
  },
  {
    "postal": "L8W7M5",
    "result": []
  },
  {
    "postal": "L8W5W8",
    "result": []
  },
  {
    "postal": "L8W5E5",
    "result": []
  },
  {
    "postal": "L8W1P9",
    "result": [
      {
        "electoralDistricts": [
          {
            "election": null,
            "id": 38,
            "name": "Hamilton Mountain"
          }
        ],
        "pollDivisionIds": [
          10138706
        ],
        "postalCode": "L8W1P9",
        "streetName": "ROCHELLE",
        "streetDirectionId": null,
        "streetTypeId": "AVE",
        "placeName": "HAMILTON",
        "streetNameDisplayText": "ROCHELLE AVE, HAMILTON"
      }
    ]
  },
  {
    "postal": "L8W8V8",
    "result": []
  },
  {
    "postal": "L8W9G8",
    "result": []
  },
  {
    "postal": "L8W8H9",
    "result": []
  },
  {
    "postal": "L8W1Z1",
    "result": [
      {
        "electoralDistricts": [
          {
            "election": null,
            "id": 38,
            "name": "Hamilton Mountain"
          }
        ],
        "pollDivisionIds": [
          10138702
        ],
        "postalCode": "L8W1Z1",
        "streetName": "SOLOMON",
        "streetDirectionId": null,
        "streetTypeId": "CRES",
        "placeName": "HAMILTON",
        "streetNameDisplayText": "SOLOMON CRES, HAMILTON"
      }
    ]
  },
  {
    "postal": "L8W8M3",
    "result": []
  },
  {
    "postal": "L8W5H6",
    "result": []
  },
  {
    "postal": "L8W7W7",
    "result": []
  },
  {
    "postal": "L8W4L0",
    "result": []
  },
  {
    "postal": "L8W2N1",
    "result": [
      {
        "electoralDistricts": [
          {
            "election": null,
            "id": 38,
            "name": "Hamilton Mountain"
          }
        ],
        "pollDivisionIds": [
          10138703
        ],
        "postalCode": "L8W2N1",
        "streetName": "ROSS",
        "streetDirectionId": null,
        "streetTypeId": "AVE",
        "placeName": "HAMILTON",
        "streetNameDisplayText": "ROSS AVE, HAMILTON"
      },
      {
        "electoralDistricts": [
          {
            "election": null,
            "id": 38,
            "name": "Hamilton Mountain"
          }
        ],
        "pollDivisionIds": [
          10138703
        ],
        "postalCode": "L8W2N1",
        "streetName": "ROWNTREE",
        "streetDirectionId": null,
        "streetTypeId": "DR",
        "placeName": "HAMILTON",
        "streetNameDisplayText": "ROWNTREE DR, HAMILTON"
      }
    ]
  },
  {
    "postal": "L8W2H4",
    "result": []
  },
  {
    "postal": "L8W5C8",
    "result": []
  },
  {
    "postal": "L8W8B0",
    "result": []
  },
  {
    "postal": "L8W1T4",
    "result": [
      {
        "electoralDistricts": [
          {
            "election": null,
            "id": 38,
            "name": "Hamilton Mountain"
          }
        ],
        "pollDivisionIds": [
          10138704
        ],
        "postalCode": "L8W1T4",
        "streetName": "EAGLEWOOD",
        "streetDirectionId": null,
        "streetTypeId": "DR",
        "placeName": "HAMILTON",
        "streetNameDisplayText": "EAGLEWOOD DR, HAMILTON"
      }
    ]
  },
  {
    "postal": "L8W7N7",
    "result": []
  },
  {
    "postal": "L8W4L3",
    "result": []
  },
  {
    "postal": "L8W2N2",
    "result": [
      {
        "electoralDistricts": [
          {
            "election": null,
            "id": 38,
            "name": "Hamilton Mountain"
          }
        ],
        "pollDivisionIds": [
          10138703
        ],
        "postalCode": "L8W2N2",
        "streetName": "ROSS",
        "streetDirectionId": null,
        "streetTypeId": "AVE",
        "placeName": "HAMILTON",
        "streetNameDisplayText": "ROSS AVE, HAMILTON"
      }
    ]
  },
  {
    "postal": "L8W4N8",
    "result": []
  },
  {
    "postal": "L8W3M5",
    "result": [
      {
        "electoralDistricts": [
          {
            "election": null,
            "id": 38,
            "name": "Hamilton Mountain"
          }
        ],
        "pollDivisionIds": [
          10138706
        ],
        "postalCode": "L8W3M5",
        "streetName": "RYMAL",
        "streetDirectionId": "E",
        "streetTypeId": "RD",
        "placeName": "HAMILTON",
        "streetNameDisplayText": "RYMAL RD E, HAMILTON"
      }
    ]
  },
  {
    "postal": "L8W6H7",
    "result": []
  },
  {
    "postal": "L8W8Y8",
    "result": []
  },
  {
    "postal": "L8W5R9",
    "result": []
  },
  {
    "postal": "L8W8G3",
    "result": []
  },
  {
    "postal": "L8W4N7",
    "result": []
  },
  {
    "postal": "L8W0B9",
    "result": [
      {
        "electoralDistricts": [
          {
            "election": null,
            "id": 38,
            "name": "Hamilton Mountain"
          },
          {
            "election": null,
            "id": 36,
            "name": "Hamilton Centre"
          }
        ],
        "pollDivisionIds": [
          10138704,
          10138594
        ],
        "postalCode": "L8W0B9",
        "streetName": "CHAMOMILE",
        "streetDirectionId": null,
        "streetTypeId": "DR",
        "placeName": "HAMILTON",
        "streetNameDisplayText": "CHAMOMILE DR, HAMILTON"
      },
      {
        "electoralDistricts": [
          {
            "election": null,
            "id": 38,
            "name": "Hamilton Mountain"
          }
        ],
        "pollDivisionIds": [
          10138704
        ],
        "postalCode": "L8W0B9",
        "streetName": "DULGAREN",
        "streetDirectionId": null,
        "streetTypeId": "ST",
        "placeName": "HAMILTON",
        "streetNameDisplayText": "DULGAREN ST, HAMILTON"
      },
      {
        "electoralDistricts": [
          {
            "election": null,
            "id": 38,
            "name": "Hamilton Mountain"
          }
        ],
        "pollDivisionIds": [
          10138704
        ],
        "postalCode": "L8W0B9",
        "streetName": "EAGLEWOOD",
        "streetDirectionId": null,
        "streetTypeId": "DR",
        "placeName": "HAMILTON",
        "streetNameDisplayText": "EAGLEWOOD DR, HAMILTON"
      },
      {
        "electoralDistricts": [
          {
            "election": null,
            "id": 38,
            "name": "Hamilton Mountain"
          }
        ],
        "pollDivisionIds": [
          10138704
        ],
        "postalCode": "L8W0B9",
        "streetName": "UPPER SHERMAN",
        "streetDirectionId": null,
        "streetTypeId": "AVE",
        "placeName": "HAMILTON",
        "streetNameDisplayText": "UPPER SHERMAN AVE, HAMILTON"
      }
    ]
  },
  {
    "postal": "L8W9K7",
    "result": []
  },
  {
    "postal": "L8W9K9",
    "result": []
  },
  {
    "postal": "L8W3Z2",
    "result": [
      {
        "electoralDistricts": [
          {
            "election": null,
            "id": 38,
            "name": "Hamilton Mountain"
          }
        ],
        "pollDivisionIds": [
          10138703
        ],
        "postalCode": "L8W3Z2",
        "streetName": "UPPER SHERMAN",
        "streetDirectionId": null,
        "streetTypeId": "AVE",
        "placeName": "HAMILTON",
        "streetNameDisplayText": "UPPER SHERMAN AVE, HAMILTON"
      }
    ]
  },
  {
    "postal": "L8W6W7",
    "result": []
  },
  {
    "postal": "L8W0P1",
    "result": []
  },
  {
    "postal": "L8W3A0",
    "result": []
  },
  {
    "postal": "L8W8L9",
    "result": []
  },
  {
    "postal": "L8W6X0",
    "result": []
  },
  {
    "postal": "L8W3E9",
    "result": [
      {
        "electoralDistricts": [
          {
            "election": null,
            "id": 38,
            "name": "Hamilton Mountain"
          }
        ],
        "pollDivisionIds": [
          10138703
        ],
        "postalCode": "L8W3E9",
        "streetName": "AMBLECOTE",
        "streetDirectionId": null,
        "streetTypeId": "PL",
        "placeName": "HAMILTON",
        "streetNameDisplayText": "AMBLECOTE PL, HAMILTON"
      },
      {
        "electoralDistricts": [
          {
            "election": null,
            "id": 38,
            "name": "Hamilton Mountain"
          }
        ],
        "pollDivisionIds": [
          10138703
        ],
        "postalCode": "L8W3E9",
        "streetName": "ASHCROFT",
        "streetDirectionId": null,
        "streetTypeId": "DR",
        "placeName": "HAMILTON",
        "streetNameDisplayText": "ASHCROFT DR, HAMILTON"
      }
    ]
  },
  {
    "postal": "L8W0S5",
    "result": []
  },
  {
    "postal": "L8W1A2",
    "result": [
      {
        "electoralDistricts": [
          {
            "election": null,
            "id": 38,
            "name": "Hamilton Mountain"
          }
        ],
        "pollDivisionIds": [
          10138690
        ],
        "postalCode": "L8W1A2",
        "streetName": "LIMERIDGE",
        "streetDirectionId": "E",
        "streetTypeId": "RD",
        "placeName": "HAMILTON",
        "streetNameDisplayText": "LIMERIDGE RD E, HAMILTON"
      }
    ]
  },
  {
    "postal": "L8W5V8",
    "result": []
  },
  {
    "postal": "L8W8C5",
    "result": []
  },
  {
    "postal": "L8W6N0",
    "result": []
  },
  {
    "postal": "L8W9E6",
    "result": []
  },
  {
    "postal": "L8W5J7",
    "result": []
  },
  {
    "postal": "L8W2R2",
    "result": [
      {
        "electoralDistricts": [
          {
            "election": null,
            "id": 38,
            "name": "Hamilton Mountain"
          }
        ],
        "pollDivisionIds": [
          10138688
        ],
        "postalCode": "L8W2R2",
        "streetName": "BENEMAR",
        "streetDirectionId": null,
        "streetTypeId": "CRT",
        "placeName": "HAMILTON",
        "streetNameDisplayText": "BENEMAR CRT, HAMILTON"
      },
      {
        "electoralDistricts": [
          {
            "election": null,
            "id": 38,
            "name": "Hamilton Mountain"
          }
        ],
        "pollDivisionIds": [
          10138688
        ],
        "postalCode": "L8W2R2",
        "streetName": "CHARING",
        "streetDirectionId": null,
        "streetTypeId": "DR",
        "placeName": "HAMILTON",
        "streetNameDisplayText": "CHARING DR, HAMILTON"
      }
    ]
  },
  {
    "postal": "L8W0P5",
    "result": []
  },
  {
    "postal": "L8W5A7",
    "result": []
  },
  {
    "postal": "L8W1G1",
    "result": [
      {
        "electoralDistricts": [
          {
            "election": null,
            "id": 38,
            "name": "Hamilton Mountain"
          }
        ],
        "pollDivisionIds": [
          10138706
        ],
        "postalCode": "L8W1G1",
        "streetName": "QUEENSLEA",
        "streetDirectionId": null,
        "streetTypeId": "DR",
        "placeName": "HAMILTON",
        "streetNameDisplayText": "QUEENSLEA DR, HAMILTON"
      }
    ]
  },
  {
    "postal": "L8W9R6",
    "result": []
  },
  {
    "postal": "L8W4Z9",
    "result": []
  },
  {
    "postal": "L8W1V5",
    "result": [
      {
        "electoralDistricts": [
          {
            "election": null,
            "id": 38,
            "name": "Hamilton Mountain"
          }
        ],
        "pollDivisionIds": [
          10138705,
          10138703
        ],
        "postalCode": "L8W1V5",
        "streetName": "ROSEWELL",
        "streetDirectionId": null,
        "streetTypeId": "ST",
        "placeName": "HAMILTON",
        "streetNameDisplayText": "ROSEWELL ST, HAMILTON"
      }
    ]
  },
  {
    "postal": "L8W9Y5",
    "result": []
  },
  {
    "postal": "L8W1P2",
    "result": [
      {
        "electoralDistricts": [
          {
            "election": null,
            "id": 38,
            "name": "Hamilton Mountain"
          }
        ],
        "pollDivisionIds": [
          10138706
        ],
        "postalCode": "L8W1P2",
        "streetName": "STONE CHURCH",
        "streetDirectionId": "E",
        "streetTypeId": "RD",
        "placeName": "HAMILTON",
        "streetNameDisplayText": "STONE CHURCH RD E, HAMILTON"
      }
    ]
  },
  {
    "postal": "L8W5X0",
    "result": []
  },
  {
    "postal": "L8W7B8",
    "result": []
  },
  {
    "postal": "L8W0C6",
    "result": []
  },
  {
    "postal": "L8W6G1",
    "result": []
  },
  {
    "postal": "L8W3K3",
    "result": [
      {
        "electoralDistricts": [
          {
            "election": null,
            "id": 38,
            "name": "Hamilton Mountain"
          }
        ],
        "pollDivisionIds": [
          10138706
        ],
        "postalCode": "L8W3K3",
        "streetName": "CANTELMI",
        "streetDirectionId": null,
        "streetTypeId": "CRT",
        "placeName": "HAMILTON",
        "streetNameDisplayText": "CANTELMI CRT, HAMILTON"
      }
    ]
  },
  {
    "postal": "L8W9R0",
    "result": []
  },
  {
    "postal": "L8W4R8",
    "result": []
  },
  {
    "postal": "L8W5P9",
    "result": []
  },
  {
    "postal": "L8W8N4",
    "result": []
  },
  {
    "postal": "L8W8H4",
    "result": []
  },
  {
    "postal": "L8W4V1",
    "result": []
  },
  {
    "postal": "L8W1K5",
    "result": [
      {
        "electoralDistricts": [
          {
            "election": null,
            "id": 38,
            "name": "Hamilton Mountain"
          }
        ],
        "pollDivisionIds": [
          10138705
        ],
        "postalCode": "L8W1K5",
        "streetName": "QUINN",
        "streetDirectionId": null,
        "streetTypeId": "AVE",
        "placeName": "HAMILTON",
        "streetNameDisplayText": "QUINN AVE, HAMILTON"
      }
    ]
  },
  {
    "postal": "L8W1Z5",
    "result": [
      {
        "electoralDistricts": [
          {
            "election": null,
            "id": 38,
            "name": "Hamilton Mountain"
          }
        ],
        "pollDivisionIds": [
          10138704
        ],
        "postalCode": "L8W1Z5",
        "streetName": "MENTINO",
        "streetDirectionId": null,
        "streetTypeId": "CRES",
        "placeName": "HAMILTON",
        "streetNameDisplayText": "MENTINO CRES, HAMILTON"
      },
      {
        "electoralDistricts": [
          {
            "election": null,
            "id": 38,
            "name": "Hamilton Mountain"
          }
        ],
        "pollDivisionIds": [
          10138704
        ],
        "postalCode": "L8W1Z5",
        "streetName": "MENTINO",
        "streetDirectionId": null,
        "streetTypeId": "CRT",
        "placeName": "HAMILTON",
        "streetNameDisplayText": "MENTINO CRT, HAMILTON"
      }
    ]
  },
  {
    "postal": "L8W9L9",
    "result": []
  },
  {
    "postal": "L8W5L2",
    "result": []
  },
  {
    "postal": "L8W0M2",
    "result": []
  },
  {
    "postal": "L8W1K8",
    "result": [
      {
        "electoralDistricts": [
          {
            "election": null,
            "id": 38,
            "name": "Hamilton Mountain"
          }
        ],
        "pollDivisionIds": [
          10138705
        ],
        "postalCode": "L8W1K8",
        "streetName": "QUAKER",
        "streetDirectionId": null,
        "streetTypeId": "CRES",
        "placeName": "HAMILTON",
        "streetNameDisplayText": "QUAKER CRES, HAMILTON"
      }
    ]
  },
  {
    "postal": "L8W3M7",
    "result": [
      {
        "electoralDistricts": [
          {
            "election": null,
            "id": 38,
            "name": "Hamilton Mountain"
          }
        ],
        "pollDivisionIds": [
          10138706
        ],
        "postalCode": "L8W3M7",
        "streetName": "RYMAL",
        "streetDirectionId": "E",
        "streetTypeId": "RD",
        "placeName": "HAMILTON",
        "streetNameDisplayText": "RYMAL RD E, HAMILTON"
      }
    ]
  },
  {
    "postal": "L8W1B2",
    "result": [
      {
        "electoralDistricts": [
          {
            "election": null,
            "id": 38,
            "name": "Hamilton Mountain"
          }
        ],
        "pollDivisionIds": [
          10138705
        ],
        "postalCode": "L8W1B2",
        "streetName": "STONE CHURCH",
        "streetDirectionId": "E",
        "streetTypeId": "RD",
        "placeName": "HAMILTON",
        "streetNameDisplayText": "STONE CHURCH RD E, HAMILTON"
      }
    ]
  },
  {
    "postal": "L8W0H9",
    "result": []
  },
  {
    "postal": "L8W8M4",
    "result": []
  },
  {
    "postal": "L8W2M5",
    "result": [
      {
        "electoralDistricts": [
          {
            "election": null,
            "id": 38,
            "name": "Hamilton Mountain"
          }
        ],
        "pollDivisionIds": [
          10138705
        ],
        "postalCode": "L8W2M5",
        "streetName": "REXFORD",
        "streetDirectionId": null,
        "streetTypeId": "DR",
        "placeName": "HAMILTON",
        "streetNameDisplayText": "REXFORD DR, HAMILTON"
      }
    ]
  },
  {
    "postal": "L8W0T9",
    "result": []
  },
  {
    "postal": "L8W3P1",
    "result": [
      {
        "electoralDistricts": [
          {
            "election": null,
            "id": 31,
            "name": "Flamborough—Glanbrook"
          }
        ],
        "pollDivisionIds": [
          10138273
        ],
        "postalCode": "L8W3P1",
        "streetName": "RYMAL",
        "streetDirectionId": "E",
        "streetTypeId": "RD",
        "placeName": "HAMILTON",
        "streetNameDisplayText": "RYMAL RD E, HAMILTON"
      }
    ]
  },
  {
    "postal": "L8W1R6",
    "result": [
      {
        "electoralDistricts": [
          {
            "election": null,
            "id": 38,
            "name": "Hamilton Mountain"
          }
        ],
        "pollDivisionIds": [
          10138702
        ],
        "postalCode": "L8W1R6",
        "streetName": "ALBION FALLS",
        "streetDirectionId": null,
        "streetTypeId": "BLVD",
        "placeName": "HAMILTON",
        "streetNameDisplayText": "ALBION FALLS BLVD, HAMILTON"
      }
    ]
  },
  {
    "postal": "L8W9V5",
    "result": []
  },
  {
    "postal": "L8W9T0",
    "result": []
  },
  {
    "postal": "L8W0A9",
    "result": [
      {
        "electoralDistricts": [
          {
            "election": null,
            "id": 38,
            "name": "Hamilton Mountain"
          }
        ],
        "pollDivisionIds": [
          10138706
        ],
        "postalCode": "L8W0A9",
        "streetName": "DITTON",
        "streetDirectionId": null,
        "streetTypeId": "DR",
        "placeName": "HAMILTON",
        "streetNameDisplayText": "DITTON DR, HAMILTON"
      }
    ]
  },
  {
    "postal": "L8W1M3",
    "result": [
      {
        "electoralDistricts": [
          {
            "election": null,
            "id": 38,
            "name": "Hamilton Mountain"
          }
        ],
        "pollDivisionIds": [
          10138705
        ],
        "postalCode": "L8W1M3",
        "streetName": "ANNA CAPRI",
        "streetDirectionId": null,
        "streetTypeId": "DR",
        "placeName": "HAMILTON",
        "streetNameDisplayText": "ANNA CAPRI DR, HAMILTON"
      }
    ]
  },
  {
    "postal": "L8W1W8",
    "result": [
      {
        "electoralDistricts": [
          {
            "election": null,
            "id": 38,
            "name": "Hamilton Mountain"
          }
        ],
        "pollDivisionIds": [
          10138705
        ],
        "postalCode": "L8W1W8",
        "streetName": "QUEEN VICTORIA",
        "streetDirectionId": null,
        "streetTypeId": "DR",
        "placeName": "HAMILTON",
        "streetNameDisplayText": "QUEEN VICTORIA DR, HAMILTON"
      }
    ]
  },
  {
    "postal": "L8W9J1",
    "result": []
  },
  {
    "postal": "L8W8N5",
    "result": []
  },
  {
    "postal": "L8W5X1",
    "result": []
  },
  {
    "postal": "L8W6S2",
    "result": []
  },
  {
    "postal": "L8W2A2",
    "result": [
      {
        "electoralDistricts": [
          {
            "election": null,
            "id": 38,
            "name": "Hamilton Mountain"
          }
        ],
        "pollDivisionIds": [
          10138704
        ],
        "postalCode": "L8W2A2",
        "streetName": "MENTINO",
        "streetDirectionId": null,
        "streetTypeId": "CRES",
        "placeName": "HAMILTON",
        "streetNameDisplayText": "MENTINO CRES, HAMILTON"
      }
    ]
  },
  {
    "postal": "L8W6A6",
    "result": []
  },
  {
    "postal": "L8W0S3",
    "result": []
  },
  {
    "postal": "L8W3E7",
    "result": [
      {
        "electoralDistricts": [
          {
            "election": null,
            "id": 38,
            "name": "Hamilton Mountain"
          }
        ],
        "pollDivisionIds": [
          10138703
        ],
        "postalCode": "L8W3E7",
        "streetName": "ASTONWOOD",
        "streetDirectionId": null,
        "streetTypeId": "DR",
        "placeName": "HAMILTON",
        "streetNameDisplayText": "ASTONWOOD DR, HAMILTON"
      },
      {
        "electoralDistricts": [
          {
            "election": null,
            "id": 38,
            "name": "Hamilton Mountain"
          }
        ],
        "pollDivisionIds": [
          10138703
        ],
        "postalCode": "L8W3E7",
        "streetName": "REXFORD",
        "streetDirectionId": null,
        "streetTypeId": "DR",
        "placeName": "HAMILTON",
        "streetNameDisplayText": "REXFORD DR, HAMILTON"
      },
      {
        "electoralDistricts": [
          {
            "election": null,
            "id": 38,
            "name": "Hamilton Mountain"
          }
        ],
        "pollDivisionIds": [
          10138705
        ],
        "postalCode": "L8W3E7",
        "streetName": "UPPER SHERMAN",
        "streetDirectionId": null,
        "streetTypeId": "AV",
        "placeName": "HAMILTON",
        "streetNameDisplayText": "UPPER SHERMAN AV, HAMILTON"
      },
      {
        "electoralDistricts": [
          {
            "election": null,
            "id": 38,
            "name": "Hamilton Mountain"
          }
        ],
        "pollDivisionIds": [
          10138703
        ],
        "postalCode": "L8W3E7",
        "streetName": "UPPER SHERMAN",
        "streetDirectionId": null,
        "streetTypeId": "AVE",
        "placeName": "HAMILTON",
        "streetNameDisplayText": "UPPER SHERMAN AVE, HAMILTON"
      }
    ]
  },
  {
    "postal": "L8W5R7",
    "result": []
  },
  {
    "postal": "L8W3R6",
    "result": [
      {
        "electoralDistricts": [
          {
            "election": null,
            "id": 31,
            "name": "Flamborough—Glanbrook"
          }
        ],
        "pollDivisionIds": [
          10138263
        ],
        "postalCode": "L8W3R6",
        "streetName": "HARLOWE",
        "streetDirectionId": null,
        "streetTypeId": "RD",
        "placeName": "HAMILTON",
        "streetNameDisplayText": "HARLOWE RD, HAMILTON"
      }
    ]
  },
  {
    "postal": "L8W6K4",
    "result": []
  },
  {
    "postal": "L8W2W5",
    "result": [
      {
        "electoralDistricts": [
          {
            "election": null,
            "id": 38,
            "name": "Hamilton Mountain"
          }
        ],
        "pollDivisionIds": [
          10138706
        ],
        "postalCode": "L8W2W5",
        "streetName": "TEMPLEMEAD",
        "streetDirectionId": null,
        "streetTypeId": "DR",
        "placeName": "HAMILTON",
        "streetNameDisplayText": "TEMPLEMEAD DR, HAMILTON"
      }
    ]
  },
  {
    "postal": "L8W8W4",
    "result": []
  },
  {
    "postal": "L8W9C2",
    "result": []
  },
  {
    "postal": "L8W2C0",
    "result": []
  },
  {
    "postal": "L8W0E1",
    "result": []
  },
  {
    "postal": "L8W1K9",
    "result": [
      {
        "electoralDistricts": [
          {
            "election": null,
            "id": 38,
            "name": "Hamilton Mountain"
          }
        ],
        "pollDivisionIds": [
          10138705
        ],
        "postalCode": "L8W1K9",
        "streetName": "QUAKER",
        "streetDirectionId": null,
        "streetTypeId": "CRES",
        "placeName": "HAMILTON",
        "streetNameDisplayText": "QUAKER CRES, HAMILTON"
      }
    ]
  },
  {
    "postal": "L8W1G7",
    "result": [
      {
        "electoralDistricts": [
          {
            "election": null,
            "id": 38,
            "name": "Hamilton Mountain"
          }
        ],
        "pollDivisionIds": [
          10138706
        ],
        "postalCode": "L8W1G7",
        "streetName": "QUEEN VICTORIA",
        "streetDirectionId": null,
        "streetTypeId": "DR",
        "placeName": "HAMILTON",
        "streetNameDisplayText": "QUEEN VICTORIA DR, HAMILTON"
      }
    ]
  },
  {
    "postal": "L8W4E9",
    "result": []
  },
  {
    "postal": "L8W9P0",
    "result": []
  },
  {
    "postal": "L8W5H3",
    "result": []
  },
  {
    "postal": "L8W9X6",
    "result": []
  },
  {
    "postal": "L8W5N7",
    "result": []
  },
  {
    "postal": "L8W5A6",
    "result": []
  },
  {
    "postal": "L8W4M0",
    "result": []
  },
  {
    "postal": "L8W3V6",
    "result": [
      {
        "electoralDistricts": [
          {
            "election": null,
            "id": 38,
            "name": "Hamilton Mountain"
          }
        ],
        "pollDivisionIds": [
          10138704
        ],
        "postalCode": "L8W3V6",
        "streetName": "RYMAL",
        "streetDirectionId": "E",
        "streetTypeId": "RD",
        "placeName": "HAMILTON",
        "streetNameDisplayText": "RYMAL RD E, HAMILTON"
      }
    ]
  },
  {
    "postal": "L8W1L7",
    "result": [
      {
        "electoralDistricts": [
          {
            "election": null,
            "id": 38,
            "name": "Hamilton Mountain"
          }
        ],
        "pollDivisionIds": [
          10138702
        ],
        "postalCode": "L8W1L7",
        "streetName": "LIMERIDGE",
        "streetDirectionId": "E",
        "streetTypeId": "RD",
        "placeName": "HAMILTON",
        "streetNameDisplayText": "LIMERIDGE RD E, HAMILTON"
      }
    ]
  },
  {
    "postal": "L8W2P9",
    "result": [
      {
        "electoralDistricts": [
          {
            "election": null,
            "id": 38,
            "name": "Hamilton Mountain"
          }
        ],
        "pollDivisionIds": [
          10138688
        ],
        "postalCode": "L8W2P9",
        "streetName": "MARK",
        "streetDirectionId": null,
        "streetTypeId": "PL",
        "placeName": "HAMILTON",
        "streetNameDisplayText": "MARK PL, HAMILTON"
      }
    ]
  },
  {
    "postal": "L8W5T4",
    "result": []
  },
  {
    "postal": "L8W5Z1",
    "result": []
  },
  {
    "postal": "L8W2X0",
    "result": []
  },
  {
    "postal": "L8W6Z2",
    "result": []
  },
  {
    "postal": "L8W0E0",
    "result": []
  },
  {
    "postal": "L8W3Z5",
    "result": [
      {
        "electoralDistricts": [
          {
            "election": null,
            "id": 31,
            "name": "Flamborough—Glanbrook"
          }
        ],
        "pollDivisionIds": [
          10138260
        ],
        "postalCode": "L8W3Z5",
        "streetName": "ARROWHEAD",
        "streetDirectionId": null,
        "streetTypeId": "DR",
        "placeName": "HAMILTON",
        "streetNameDisplayText": "ARROWHEAD DR, HAMILTON"
      },
      {
        "electoralDistricts": [
          {
            "election": null,
            "id": 31,
            "name": "Flamborough—Glanbrook"
          }
        ],
        "pollDivisionIds": [
          10138260
        ],
        "postalCode": "L8W3Z5",
        "streetName": "WAGNER",
        "streetDirectionId": null,
        "streetTypeId": "DR",
        "placeName": "HAMILTON",
        "streetNameDisplayText": "WAGNER DR, HAMILTON"
      }
    ]
  },
  {
    "postal": "L8W8H3",
    "result": []
  },
  {
    "postal": "L8W7S6",
    "result": []
  },
  {
    "postal": "L8W4C1",
    "result": []
  },
  {
    "postal": "L8W3K2",
    "result": [
      {
        "electoralDistricts": [
          {
            "election": null,
            "id": 38,
            "name": "Hamilton Mountain"
          }
        ],
        "pollDivisionIds": [
          10138704
        ],
        "postalCode": "L8W3K2",
        "streetName": "AMHERST",
        "streetDirectionId": null,
        "streetTypeId": "CIR",
        "placeName": "HAMILTON",
        "streetNameDisplayText": "AMHERST CIR, HAMILTON"
      },
      {
        "electoralDistricts": [
          {
            "election": null,
            "id": 38,
            "name": "Hamilton Mountain"
          }
        ],
        "pollDivisionIds": [
          10138704
        ],
        "postalCode": "L8W3K2",
        "streetName": "BUTLER",
        "streetDirectionId": null,
        "streetTypeId": "DR",
        "placeName": "HAMILTON",
        "streetNameDisplayText": "BUTLER DR, HAMILTON"
      }
    ]
  },
  {
    "postal": "L8W1Y5",
    "result": [
      {
        "electoralDistricts": [
          {
            "election": null,
            "id": 38,
            "name": "Hamilton Mountain"
          }
        ],
        "pollDivisionIds": [
          10138702
        ],
        "postalCode": "L8W1Y5",
        "streetName": "JAMIE-ANN",
        "streetDirectionId": null,
        "streetTypeId": "CRT",
        "placeName": "HAMILTON",
        "streetNameDisplayText": "JAMIE-ANN CRT, HAMILTON"
      }
    ]
  },
  {
    "postal": "L8W6P6",
    "result": []
  },
  {
    "postal": "L8W3N9",
    "result": [
      {
        "electoralDistricts": [
          {
            "election": null,
            "id": 31,
            "name": "Flamborough—Glanbrook"
          }
        ],
        "pollDivisionIds": [
          10138262
        ],
        "postalCode": "L8W3N9",
        "streetName": "RYMAL",
        "streetDirectionId": "E",
        "streetTypeId": "RD",
        "placeName": "HAMILTON",
        "streetNameDisplayText": "RYMAL RD E, HAMILTON"
      }
    ]
  },
  {
    "postal": "L8W3W2",
    "result": [
      {
        "electoralDistricts": [
          {
            "election": null,
            "id": 38,
            "name": "Hamilton Mountain"
          }
        ],
        "pollDivisionIds": [
          10138705,
          10138704
        ],
        "postalCode": "L8W3W2",
        "streetName": "BOLZANO",
        "streetDirectionId": null,
        "streetTypeId": "DR",
        "placeName": "HAMILTON",
        "streetNameDisplayText": "BOLZANO DR, HAMILTON"
      },
      {
        "electoralDistricts": [
          {
            "election": null,
            "id": 38,
            "name": "Hamilton Mountain"
          }
        ],
        "pollDivisionIds": [
          10138705
        ],
        "postalCode": "L8W3W2",
        "streetName": "CELLINI",
        "streetDirectionId": null,
        "streetTypeId": "AVE",
        "placeName": "HAMILTON",
        "streetNameDisplayText": "CELLINI AVE, HAMILTON"
      },
      {
        "electoralDistricts": [
          {
            "election": null,
            "id": 38,
            "name": "Hamilton Mountain"
          }
        ],
        "pollDivisionIds": [
          10138705
        ],
        "postalCode": "L8W3W2",
        "streetName": "ERIKA",
        "streetDirectionId": null,
        "streetTypeId": "CRES",
        "placeName": "HAMILTON",
        "streetNameDisplayText": "ERIKA CRES, HAMILTON"
      },
      {
        "electoralDistricts": [
          {
            "election": null,
            "id": 38,
            "name": "Hamilton Mountain"
          }
        ],
        "pollDivisionIds": [
          10138705
        ],
        "postalCode": "L8W3W2",
        "streetName": "GAGLIANO",
        "streetDirectionId": null,
        "streetTypeId": "DR",
        "placeName": "HAMILTON",
        "streetNameDisplayText": "GAGLIANO DR, HAMILTON"
      }
    ]
  },
  {
    "postal": "L8W6H8",
    "result": []
  },
  {
    "postal": "L8W9T3",
    "result": []
  },
  {
    "postal": "L8W5L9",
    "result": []
  },
  {
    "postal": "L8W7X7",
    "result": []
  },
  {
    "postal": "L8W3J5",
    "result": [
      {
        "electoralDistricts": [
          {
            "election": null,
            "id": 38,
            "name": "Hamilton Mountain"
          }
        ],
        "pollDivisionIds": [
          10138704
        ],
        "postalCode": "L8W3J5",
        "streetName": "DULGAREN",
        "streetDirectionId": null,
        "streetTypeId": "ST",
        "placeName": "HAMILTON",
        "streetNameDisplayText": "DULGAREN ST, HAMILTON"
      },
      {
        "electoralDistricts": [
          {
            "election": null,
            "id": 38,
            "name": "Hamilton Mountain"
          }
        ],
        "pollDivisionIds": [
          10138704
        ],
        "postalCode": "L8W3J5",
        "streetName": "MENTINO",
        "streetDirectionId": null,
        "streetTypeId": "CRES",
        "placeName": "HAMILTON",
        "streetNameDisplayText": "MENTINO CRES, HAMILTON"
      },
      {
        "electoralDistricts": [
          {
            "election": null,
            "id": 38,
            "name": "Hamilton Mountain"
          }
        ],
        "pollDivisionIds": [
          10138704
        ],
        "postalCode": "L8W3J5",
        "streetName": "PRESIDIO",
        "streetDirectionId": null,
        "streetTypeId": "DR",
        "placeName": "HAMILTON",
        "streetNameDisplayText": "PRESIDIO DR, HAMILTON"
      }
    ]
  },
  {
    "postal": "L8W4J5",
    "result": []
  },
  {
    "postal": "L8W6J2",
    "result": []
  },
  {
    "postal": "L8W5V6",
    "result": []
  },
  {
    "postal": "L8W3N2",
    "result": [
      {
        "electoralDistricts": [
          {
            "election": null,
            "id": 31,
            "name": "Flamborough—Glanbrook"
          }
        ],
        "pollDivisionIds": [
          10138263
        ],
        "postalCode": "L8W3N2",
        "streetName": "RYMAL",
        "streetDirectionId": "E",
        "streetTypeId": "RD",
        "placeName": "HAMILTON",
        "streetNameDisplayText": "RYMAL RD E, HAMILTON"
      }
    ]
  },
  {
    "postal": "L8W3B1",
    "result": [
      {
        "electoralDistricts": [
          {
            "election": null,
            "id": 38,
            "name": "Hamilton Mountain"
          }
        ],
        "pollDivisionIds": [
          10138688
        ],
        "postalCode": "L8W3B1",
        "streetName": "CHARING",
        "streetDirectionId": null,
        "streetTypeId": "DR",
        "placeName": "HAMILTON",
        "streetNameDisplayText": "CHARING DR, HAMILTON"
      },
      {
        "electoralDistricts": [
          {
            "election": null,
            "id": 38,
            "name": "Hamilton Mountain"
          }
        ],
        "pollDivisionIds": [
          10138688
        ],
        "postalCode": "L8W3B1",
        "streetName": "WOODHAVEN",
        "streetDirectionId": null,
        "streetTypeId": "PL",
        "placeName": "HAMILTON",
        "streetNameDisplayText": "WOODHAVEN PL, HAMILTON"
      }
    ]
  },
  {
    "postal": "L8W8B5",
    "result": []
  },
  {
    "postal": "L8W0K1",
    "result": []
  },
  {
    "postal": "L8W7M7",
    "result": []
  },
  {
    "postal": "L8W2M2",
    "result": [
      {
        "electoralDistricts": [
          {
            "election": null,
            "id": 38,
            "name": "Hamilton Mountain"
          }
        ],
        "pollDivisionIds": [
          10138703
        ],
        "postalCode": "L8W2M2",
        "streetName": "BARBARA",
        "streetDirectionId": null,
        "streetTypeId": "CRT",
        "placeName": "HAMILTON",
        "streetNameDisplayText": "BARBARA CRT, HAMILTON"
      }
    ]
  },
  {
    "postal": "L8W9N3",
    "result": []
  },
  {
    "postal": "L8W4Y8",
    "result": []
  },
  {
    "postal": "L8W3V7",
    "result": [
      {
        "electoralDistricts": [
          {
            "election": null,
            "id": 38,
            "name": "Hamilton Mountain"
          }
        ],
        "pollDivisionIds": [
          10138704
        ],
        "postalCode": "L8W3V7",
        "streetName": "CORINALDO",
        "streetDirectionId": null,
        "streetTypeId": "DR",
        "placeName": "HAMILTON",
        "streetNameDisplayText": "CORINALDO DR, HAMILTON"
      },
      {
        "electoralDistricts": [
          {
            "election": null,
            "id": 38,
            "name": "Hamilton Mountain"
          }
        ],
        "pollDivisionIds": [
          10138704
        ],
        "postalCode": "L8W3V7",
        "streetName": "FANO",
        "streetDirectionId": null,
        "streetTypeId": "DR",
        "placeName": "HAMILTON",
        "streetNameDisplayText": "FANO DR, HAMILTON"
      },
      {
        "electoralDistricts": [
          {
            "election": null,
            "id": 38,
            "name": "Hamilton Mountain"
          }
        ],
        "pollDivisionIds": [
          10138704
        ],
        "postalCode": "L8W3V7",
        "streetName": "SUPREME",
        "streetDirectionId": null,
        "streetTypeId": "DR",
        "placeName": "HAMILTON",
        "streetNameDisplayText": "SUPREME DR, HAMILTON"
      }
    ]
  },
  {
    "postal": "L8W8Z1",
    "result": []
  },
  {
    "postal": "L8W7B3",
    "result": []
  },
  {
    "postal": "L8W3A8",
    "result": [
      {
        "electoralDistricts": [
          {
            "election": null,
            "id": 38,
            "name": "Hamilton Mountain"
          }
        ],
        "pollDivisionIds": [
          10138704
        ],
        "postalCode": "L8W3A8",
        "streetName": "ACADIA",
        "streetDirectionId": null,
        "streetTypeId": "DR",
        "placeName": "HAMILTON",
        "streetNameDisplayText": "ACADIA DR, HAMILTON"
      },
      {
        "electoralDistricts": [
          {
            "election": null,
            "id": 38,
            "name": "Hamilton Mountain"
          }
        ],
        "pollDivisionIds": [
          10138704
        ],
        "postalCode": "L8W3A8",
        "streetName": "BALHARBOUR",
        "streetDirectionId": null,
        "streetTypeId": "DR",
        "placeName": "HAMILTON",
        "streetNameDisplayText": "BALHARBOUR DR, HAMILTON"
      },
      {
        "electoralDistricts": [
          {
            "election": null,
            "id": 38,
            "name": "Hamilton Mountain"
          }
        ],
        "pollDivisionIds": [
          10138704
        ],
        "postalCode": "L8W3A8",
        "streetName": "TWIN",
        "streetDirectionId": null,
        "streetTypeId": "CRES",
        "placeName": "HAMILTON",
        "streetNameDisplayText": "TWIN CRES, HAMILTON"
      }
    ]
  },
  {
    "postal": "L8W7V5",
    "result": []
  },
  {
    "postal": "L8W2T2",
    "result": [
      {
        "electoralDistricts": [
          {
            "election": null,
            "id": 38,
            "name": "Hamilton Mountain"
          }
        ],
        "pollDivisionIds": [
          10138705
        ],
        "postalCode": "L8W2T2",
        "streetName": "EAGLEWOOD",
        "streetDirectionId": null,
        "streetTypeId": "DR",
        "placeName": "HAMILTON",
        "streetNameDisplayText": "EAGLEWOOD DR, HAMILTON"
      },
      {
        "electoralDistricts": [
          {
            "election": null,
            "id": 38,
            "name": "Hamilton Mountain"
          }
        ],
        "pollDivisionIds": [
          10138705
        ],
        "postalCode": "L8W2T2",
        "streetName": "LIVORNO",
        "streetDirectionId": null,
        "streetTypeId": "CRT",
        "placeName": "HAMILTON",
        "streetNameDisplayText": "LIVORNO CRT, HAMILTON"
      }
    ]
  },
  {
    "postal": "L8W6L3",
    "result": []
  },
  {
    "postal": "L8W0L2",
    "result": []
  },
  {
    "postal": "L8W5Y8",
    "result": []
  },
  {
    "postal": "L8W0B8",
    "result": []
  },
  {
    "postal": "L8W6R5",
    "result": []
  },
  {
    "postal": "L8W8W6",
    "result": []
  },
  {
    "postal": "L8W8G6",
    "result": []
  },
  {
    "postal": "L8W6X3",
    "result": []
  },
  {
    "postal": "L8W7R7",
    "result": []
  },
  {
    "postal": "L8W4B6",
    "result": []
  },
  {
    "postal": "L8W3P9",
    "result": [
      {
        "electoralDistricts": [
          {
            "election": null,
            "id": 31,
            "name": "Flamborough—Glanbrook"
          }
        ],
        "pollDivisionIds": [
          10138263
        ],
        "postalCode": "L8W3P9",
        "streetName": "STONE CHURCH",
        "streetDirectionId": "E",
        "streetTypeId": "RD",
        "placeName": "HAMILTON",
        "streetNameDisplayText": "STONE CHURCH RD E, HAMILTON"
      }
    ]
  },
  {
    "postal": "L8W2T3",
    "result": [
      {
        "electoralDistricts": [
          {
            "election": null,
            "id": 38,
            "name": "Hamilton Mountain"
          }
        ],
        "pollDivisionIds": [
          10138700
        ],
        "postalCode": "L8W2T3",
        "streetName": "LEGGETT",
        "streetDirectionId": null,
        "streetTypeId": "CRES",
        "placeName": "HAMILTON",
        "streetNameDisplayText": "LEGGETT CRES, HAMILTON"
      }
    ]
  },
  {
    "postal": "L8W1M4",
    "result": [
      {
        "electoralDistricts": [
          {
            "election": null,
            "id": 38,
            "name": "Hamilton Mountain"
          }
        ],
        "pollDivisionIds": [
          10138705
        ],
        "postalCode": "L8W1M4",
        "streetName": "RITA",
        "streetDirectionId": null,
        "streetTypeId": "AVE",
        "placeName": "HAMILTON",
        "streetNameDisplayText": "RITA AVE, HAMILTON"
      }
    ]
  },
  {
    "postal": "L8W0H1",
    "result": []
  },
  {
    "postal": "L8W9W3",
    "result": []
  },
  {
    "postal": "L8W6P1",
    "result": []
  },
  {
    "postal": "L8W7G2",
    "result": []
  },
  {
    "postal": "L8W4J9",
    "result": []
  },
  {
    "postal": "L8W9E4",
    "result": []
  },
  {
    "postal": "L8W8H0",
    "result": []
  },
  {
    "postal": "L8W4M7",
    "result": []
  },
  {
    "postal": "L8W2G9",
    "result": [
      {
        "electoralDistricts": [
          {
            "election": null,
            "id": 38,
            "name": "Hamilton Mountain"
          }
        ],
        "pollDivisionIds": [
          10138706
        ],
        "postalCode": "L8W2G9",
        "streetName": "EVEREST",
        "streetDirectionId": null,
        "streetTypeId": "ST",
        "placeName": "HAMILTON",
        "streetNameDisplayText": "EVEREST ST, HAMILTON"
      }
    ]
  },
  {
    "postal": "L8W8T2",
    "result": []
  },
  {
    "postal": "L8W7G7",
    "result": []
  },
  {
    "postal": "L8W4Z3",
    "result": []
  },
  {
    "postal": "L8W5B3",
    "result": []
  },
  {
    "postal": "L8W1S7",
    "result": [
      {
        "electoralDistricts": [
          {
            "election": null,
            "id": 38,
            "name": "Hamilton Mountain"
          }
        ],
        "pollDivisionIds": [
          10138705
        ],
        "postalCode": "L8W1S7",
        "streetName": "LEAWAY",
        "streetDirectionId": null,
        "streetTypeId": "AVE",
        "placeName": "HAMILTON",
        "streetNameDisplayText": "LEAWAY AVE, HAMILTON"
      }
    ]
  },
  {
    "postal": "L8W2N7",
    "result": [
      {
        "electoralDistricts": [
          {
            "election": null,
            "id": 38,
            "name": "Hamilton Mountain"
          }
        ],
        "pollDivisionIds": [
          10138703
        ],
        "postalCode": "L8W2N7",
        "streetName": "ROWNTREE",
        "streetDirectionId": null,
        "streetTypeId": "DR",
        "placeName": "HAMILTON",
        "streetNameDisplayText": "ROWNTREE DR, HAMILTON"
      }
    ]
  },
  {
    "postal": "L8W0H8",
    "result": []
  },
  {
    "postal": "L8W7Z4",
    "result": []
  },
  {
    "postal": "L8W7B1",
    "result": []
  },
  {
    "postal": "L8W7P8",
    "result": []
  },
  {
    "postal": "L8W7N0",
    "result": []
  },
  {
    "postal": "L8W3Y5",
    "result": [
      {
        "electoralDistricts": [
          {
            "election": null,
            "id": 31,
            "name": "Flamborough—Glanbrook"
          }
        ],
        "pollDivisionIds": [
          10138263
        ],
        "postalCode": "L8W3Y5",
        "streetName": "STONE CHURCH",
        "streetDirectionId": "E",
        "streetTypeId": "RD",
        "placeName": "HAMILTON",
        "streetNameDisplayText": "STONE CHURCH RD E, HAMILTON"
      }
    ]
  },
  {
    "postal": "L8W6K1",
    "result": []
  },
  {
    "postal": "L8W9X5",
    "result": []
  },
  {
    "postal": "L8W7S5",
    "result": []
  },
  {
    "postal": "L8W0A4",
    "result": [
      {
        "electoralDistricts": [
          {
            "election": null,
            "id": 31,
            "name": "Flamborough—Glanbrook"
          }
        ],
        "pollDivisionIds": [
          10138262
        ],
        "postalCode": "L8W0A4",
        "streetName": "ASSISI",
        "streetDirectionId": null,
        "streetTypeId": "ST",
        "placeName": "HAMILTON",
        "streetNameDisplayText": "ASSISI ST, HAMILTON"
      }
    ]
  },
  {
    "postal": "L8W4T5",
    "result": []
  },
  {
    "postal": "L8W5K1",
    "result": []
  },
  {
    "postal": "L8W0Z9",
    "result": []
  },
  {
    "postal": "L8W7T2",
    "result": []
  },
  {
    "postal": "L8W1L5",
    "result": [
      {
        "electoralDistricts": [
          {
            "election": null,
            "id": 38,
            "name": "Hamilton Mountain"
          }
        ],
        "pollDivisionIds": [
          10138702
        ],
        "postalCode": "L8W1L5",
        "streetName": "LIMERIDGE",
        "streetDirectionId": "E",
        "streetTypeId": "RD",
        "placeName": "HAMILTON",
        "streetNameDisplayText": "LIMERIDGE RD E, HAMILTON"
      }
    ]
  },
  {
    "postal": "L8W3N5",
    "result": [
      {
        "electoralDistricts": [
          {
            "election": null,
            "id": 31,
            "name": "Flamborough—Glanbrook"
          }
        ],
        "pollDivisionIds": [
          10138262
        ],
        "postalCode": "L8W3N5",
        "streetName": "RYMAL",
        "streetDirectionId": "E",
        "streetTypeId": "RD",
        "placeName": "HAMILTON",
        "streetNameDisplayText": "RYMAL RD E, HAMILTON"
      }
    ]
  },
  {
    "postal": "L8W6H4",
    "result": []
  },
  {
    "postal": "L8W5A5",
    "result": []
  },
  {
    "postal": "L8W3R9",
    "result": [
      {
        "electoralDistricts": [
          {
            "election": null,
            "id": 31,
            "name": "Flamborough—Glanbrook"
          },
          {
            "election": null,
            "id": 37,
            "name": "Hamilton East—Stoney Creek"
          }
        ],
        "pollDivisionIds": [
          10138262,
          10138665
        ],
        "postalCode": "L8W3R9",
        "streetName": "GRAYROCKS",
        "streetDirectionId": null,
        "streetTypeId": "AVE",
        "placeName": "HAMILTON",
        "streetNameDisplayText": "GRAYROCKS AVE, HAMILTON"
      }
    ]
  },
  {
    "postal": "L8W7L8",
    "result": []
  },
  {
    "postal": "L8W6T6",
    "result": []
  },
  {
    "postal": "L8W7Y7",
    "result": []
  },
  {
    "postal": "L8W3M8",
    "result": []
  },
  {
    "postal": "L8W2E0",
    "result": []
  },
  {
    "postal": "L8W4B5",
    "result": []
  },
  {
    "postal": "L8W1J3",
    "result": [
      {
        "electoralDistricts": [
          {
            "election": null,
            "id": 38,
            "name": "Hamilton Mountain"
          }
        ],
        "pollDivisionIds": [
          10138705
        ],
        "postalCode": "L8W1J3",
        "streetName": "RIDLEY",
        "streetDirectionId": null,
        "streetTypeId": "DR",
        "placeName": "HAMILTON",
        "streetNameDisplayText": "RIDLEY DR, HAMILTON"
      }
    ]
  },
  {
    "postal": "L8W5S6",
    "result": []
  },
  {
    "postal": "L8W8P7",
    "result": []
  },
  {
    "postal": "L8W7S7",
    "result": []
  },
  {
    "postal": "L8W4C2",
    "result": []
  },
  {
    "postal": "L8W5Y0",
    "result": []
  },
  {
    "postal": "L8W2V7",
    "result": [
      {
        "electoralDistricts": [
          {
            "election": null,
            "id": 38,
            "name": "Hamilton Mountain"
          }
        ],
        "pollDivisionIds": [
          10138706
        ],
        "postalCode": "L8W2V7",
        "streetName": "INNSWOOD",
        "streetDirectionId": null,
        "streetTypeId": "PL",
        "placeName": "HAMILTON",
        "streetNameDisplayText": "INNSWOOD PL, HAMILTON"
      },
      {
        "electoralDistricts": [
          {
            "election": null,
            "id": 38,
            "name": "Hamilton Mountain"
          }
        ],
        "pollDivisionIds": [
          10138706
        ],
        "postalCode": "L8W2V7",
        "streetName": "TEMPLEMEAD",
        "streetDirectionId": null,
        "streetTypeId": "DR",
        "placeName": "HAMILTON",
        "streetNameDisplayText": "TEMPLEMEAD DR, HAMILTON"
      }
    ]
  },
  {
    "postal": "L8W8P5",
    "result": []
  },
  {
    "postal": "L8W5P5",
    "result": []
  },
  {
    "postal": "L8W5Z0",
    "result": []
  },
  {
    "postal": "L8W9B0",
    "result": []
  },
  {
    "postal": "L8W1L0",
    "result": []
  },
  {
    "postal": "L8W0B5",
    "result": [
      {
        "electoralDistricts": [
          {
            "election": null,
            "id": 31,
            "name": "Flamborough—Glanbrook"
          }
        ],
        "pollDivisionIds": [
          10138262,
          10138260
        ],
        "postalCode": "L8W0B5",
        "streetName": "VINEBERG",
        "streetDirectionId": null,
        "streetTypeId": "DR",
        "placeName": "HAMILTON",
        "streetNameDisplayText": "VINEBERG DR, HAMILTON"
      }
    ]
  },
  {
    "postal": "L8W3L2",
    "result": []
  },
  {
    "postal": "L8W3B7",
    "result": [
      {
        "electoralDistricts": [
          {
            "election": null,
            "id": 38,
            "name": "Hamilton Mountain"
          }
        ],
        "pollDivisionIds": [
          10138706
        ],
        "postalCode": "L8W3B7",
        "streetName": "ROCKLAND",
        "streetDirectionId": null,
        "streetTypeId": "AVE",
        "placeName": "HAMILTON",
        "streetNameDisplayText": "ROCKLAND AVE, HAMILTON"
      },
      {
        "electoralDistricts": [
          {
            "election": null,
            "id": 38,
            "name": "Hamilton Mountain"
          }
        ],
        "pollDivisionIds": [
          10138706
        ],
        "postalCode": "L8W3B7",
        "streetName": "RYMAL",
        "streetDirectionId": "E",
        "streetTypeId": "RD",
        "placeName": "HAMILTON",
        "streetNameDisplayText": "RYMAL RD E, HAMILTON"
      }
    ]
  },
  {
    "postal": "L8W8L1",
    "result": []
  },
  {
    "postal": "L8W5M4",
    "result": []
  },
  {
    "postal": "L8W4G9",
    "result": []
  },
  {
    "postal": "L8W0P0",
    "result": []
  },
  {
    "postal": "L8W8G2",
    "result": []
  },
  {
    "postal": "L8W1V9",
    "result": [
      {
        "electoralDistricts": [
          {
            "election": null,
            "id": 38,
            "name": "Hamilton Mountain"
          }
        ],
        "pollDivisionIds": [
          10138705
        ],
        "postalCode": "L8W1V9",
        "streetName": "ROWAN",
        "streetDirectionId": null,
        "streetTypeId": "CRT",
        "placeName": "HAMILTON",
        "streetNameDisplayText": "ROWAN CRT, HAMILTON"
      }
    ]
  },
  {
    "postal": "L8W8N8",
    "result": []
  },
  {
    "postal": "L8W6S8",
    "result": []
  },
  {
    "postal": "L8W8H2",
    "result": []
  },
  {
    "postal": "L8W5R8",
    "result": []
  },
  {
    "postal": "L8W5L4",
    "result": []
  },
  {
    "postal": "L8W9E1",
    "result": []
  },
  {
    "postal": "L8W1C4",
    "result": [
      {
        "electoralDistricts": [
          {
            "election": null,
            "id": 38,
            "name": "Hamilton Mountain"
          }
        ],
        "pollDivisionIds": [
          10138704
        ],
        "postalCode": "L8W1C4",
        "streetName": "UPPER SHERMAN",
        "streetDirectionId": null,
        "streetTypeId": "AVE",
        "placeName": "HAMILTON",
        "streetNameDisplayText": "UPPER SHERMAN AVE, HAMILTON"
      }
    ]
  },
  {
    "postal": "L8W8W5",
    "result": []
  },
  {
    "postal": "L8W1Y4",
    "result": [
      {
        "electoralDistricts": [
          {
            "election": null,
            "id": 38,
            "name": "Hamilton Mountain"
          }
        ],
        "pollDivisionIds": [
          10138702
        ],
        "postalCode": "L8W1Y4",
        "streetName": "JAMIE-ANN",
        "streetDirectionId": null,
        "streetTypeId": "ST",
        "placeName": "HAMILTON",
        "streetNameDisplayText": "JAMIE-ANN ST, HAMILTON"
      }
    ]
  },
  {
    "postal": "L8W1C0",
    "result": []
  },
  {
    "postal": "L8W2J2",
    "result": [
      {
        "electoralDistricts": [
          {
            "election": null,
            "id": 38,
            "name": "Hamilton Mountain"
          }
        ],
        "pollDivisionIds": [
          10138705
        ],
        "postalCode": "L8W2J2",
        "streetName": "RAVENBURY",
        "streetDirectionId": null,
        "streetTypeId": "DR",
        "placeName": "HAMILTON",
        "streetNameDisplayText": "RAVENBURY DR, HAMILTON"
      }
    ]
  },
  {
    "postal": "L8W2J0",
    "result": []
  },
  {
    "postal": "L8W7A3",
    "result": []
  },
  {
    "postal": "L8W8M1",
    "result": []
  },
  {
    "postal": "L8W7T9",
    "result": []
  },
  {
    "postal": "L8W6C0",
    "result": []
  },
  {
    "postal": "L8W7X1",
    "result": []
  },
  {
    "postal": "L8W0G1",
    "result": []
  },
  {
    "postal": "L8W4X2",
    "result": []
  },
  {
    "postal": "L8W0N6",
    "result": []
  },
  {
    "postal": "L8W8E3",
    "result": []
  },
  {
    "postal": "L8W5S8",
    "result": []
  },
  {
    "postal": "L8W0R0",
    "result": []
  },
  {
    "postal": "L8W6J6",
    "result": []
  },
  {
    "postal": "L8W4B4",
    "result": []
  },
  {
    "postal": "L8W7E3",
    "result": []
  },
  {
    "postal": "L8W3N6",
    "result": [
      {
        "electoralDistricts": [
          {
            "election": null,
            "id": 31,
            "name": "Flamborough—Glanbrook"
          }
        ],
        "pollDivisionIds": [
          10138262
        ],
        "postalCode": "L8W3N6",
        "streetName": "RYMAL",
        "streetDirectionId": "E",
        "streetTypeId": "RD",
        "placeName": "HAMILTON",
        "streetNameDisplayText": "RYMAL RD E, HAMILTON"
      }
    ]
  },
  {
    "postal": "L8W3X6",
    "result": [
      {
        "electoralDistricts": [
          {
            "election": null,
            "id": 31,
            "name": "Flamborough—Glanbrook"
          }
        ],
        "pollDivisionIds": [
          10138262
        ],
        "postalCode": "L8W3X6",
        "streetName": "CADHAM",
        "streetDirectionId": null,
        "streetTypeId": "BLVD",
        "placeName": "HAMILTON",
        "streetNameDisplayText": "CADHAM BLVD, HAMILTON"
      }
    ]
  },
  {
    "postal": "L8W8L0",
    "result": []
  },
  {
    "postal": "L8W8N1",
    "result": []
  },
  {
    "postal": "L8W4J0",
    "result": []
  },
  {
    "postal": "L8W0X7",
    "result": []
  },
  {
    "postal": "L8W6S4",
    "result": []
  },
  {
    "postal": "L8W0Z0",
    "result": []
  },
  {
    "postal": "L8W9X8",
    "result": []
  },
  {
    "postal": "L8W3H3",
    "result": [
      {
        "electoralDistricts": [
          {
            "election": null,
            "id": 38,
            "name": "Hamilton Mountain"
          }
        ],
        "pollDivisionIds": [
          10138706
        ],
        "postalCode": "L8W3H3",
        "streetName": "MOUNT PLEASANT",
        "streetDirectionId": null,
        "streetTypeId": "DR",
        "placeName": "HAMILTON",
        "streetNameDisplayText": "MOUNT PLEASANT DR, HAMILTON"
      },
      {
        "electoralDistricts": [
          {
            "election": null,
            "id": 38,
            "name": "Hamilton Mountain"
          }
        ],
        "pollDivisionIds": [
          10138706
        ],
        "postalCode": "L8W3H3",
        "streetName": "PEARSON",
        "streetDirectionId": null,
        "streetTypeId": "DR",
        "placeName": "HAMILTON",
        "streetNameDisplayText": "PEARSON DR, HAMILTON"
      }
    ]
  },
  {
    "postal": "L8W7S2",
    "result": []
  },
  {
    "postal": "L8W3T3",
    "result": [
      {
        "electoralDistricts": [
          {
            "election": null,
            "id": 31,
            "name": "Flamborough—Glanbrook"
          }
        ],
        "pollDivisionIds": [
          10138262
        ],
        "postalCode": "L8W3T3",
        "streetName": "DERBY",
        "streetDirectionId": null,
        "streetTypeId": "ST",
        "placeName": "HAMILTON",
        "streetNameDisplayText": "DERBY ST, HAMILTON"
      }
    ]
  },
  {
    "postal": "L8W9P3",
    "result": []
  },
  {
    "postal": "L8W4H8",
    "result": []
  },
  {
    "postal": "L8W6R1",
    "result": []
  },
  {
    "postal": "L8W1S0",
    "result": []
  },
  {
    "postal": "L8W3W8",
    "result": [
      {
        "electoralDistricts": [
          {
            "election": null,
            "id": 38,
            "name": "Hamilton Mountain"
          }
        ],
        "pollDivisionIds": [
          10138706
        ],
        "postalCode": "L8W3W8",
        "streetName": "LANCING",
        "streetDirectionId": null,
        "streetTypeId": "DR",
        "placeName": "HAMILTON",
        "streetNameDisplayText": "LANCING DR, HAMILTON"
      }
    ]
  },
  {
    "postal": "L8W4S3",
    "result": []
  },
  {
    "postal": "L8W1B6",
    "result": [
      {
        "electoralDistricts": [
          {
            "election": null,
            "id": 38,
            "name": "Hamilton Mountain"
          }
        ],
        "pollDivisionIds": [
          10138704,
          10138705
        ],
        "postalCode": "L8W1B6",
        "streetName": "RYMAL",
        "streetDirectionId": "E",
        "streetTypeId": "RD",
        "placeName": "HAMILTON",
        "streetNameDisplayText": "RYMAL RD E, HAMILTON"
      }
    ]
  },
  {
    "postal": "L8W8R3",
    "result": []
  },
  {
    "postal": "L8W4V9",
    "result": []
  },
  {
    "postal": "L8W9W4",
    "result": []
  },
  {
    "postal": "L8W3T4",
    "result": [
      {
        "electoralDistricts": [
          {
            "election": null,
            "id": 31,
            "name": "Flamborough—Glanbrook"
          }
        ],
        "pollDivisionIds": [
          10138262
        ],
        "postalCode": "L8W3T4",
        "streetName": "DERBY",
        "streetDirectionId": null,
        "streetTypeId": "ST",
        "placeName": "HAMILTON",
        "streetNameDisplayText": "DERBY ST, HAMILTON"
      }
    ]
  },
  {
    "postal": "L8W5C7",
    "result": []
  },
  {
    "postal": "L8W3Y1",
    "result": []
  },
  {
    "postal": "L8W5V0",
    "result": []
  },
  {
    "postal": "L8W8G8",
    "result": []
  },
  {
    "postal": "L8W8B1",
    "result": []
  },
  {
    "postal": "L8W4P5",
    "result": []
  },
  {
    "postal": "L8W7B2",
    "result": []
  },
  {
    "postal": "L8W0R2",
    "result": []
  },
  {
    "postal": "L8W4M4",
    "result": []
  },
  {
    "postal": "L8W7M4",
    "result": []
  },
  {
    "postal": "L8W9S7",
    "result": []
  },
  {
    "postal": "L8W5Z7",
    "result": []
  },
  {
    "postal": "L8W7J7",
    "result": []
  },
  {
    "postal": "L8W8R8",
    "result": []
  },
  {
    "postal": "L8W9X1",
    "result": []
  },
  {
    "postal": "L8W5M9",
    "result": []
  },
  {
    "postal": "L8W9B4",
    "result": []
  },
  {
    "postal": "L8W0L9",
    "result": []
  },
  {
    "postal": "L8W9G4",
    "result": []
  },
  {
    "postal": "L8W1J4",
    "result": [
      {
        "electoralDistricts": [
          {
            "election": null,
            "id": 38,
            "name": "Hamilton Mountain"
          }
        ],
        "pollDivisionIds": [
          10138706
        ],
        "postalCode": "L8W1J4",
        "streetName": "ROCHELLE",
        "streetDirectionId": null,
        "streetTypeId": "AVE",
        "placeName": "HAMILTON",
        "streetNameDisplayText": "ROCHELLE AVE, HAMILTON"
      }
    ]
  },
  {
    "postal": "L8W0W6",
    "result": []
  }
]
