[
  {
    "postal": "M5V9J6",
    "result": []
  },
  {
    "postal": "M5V9Z5",
    "result": []
  },
  {
    "postal": "M5V7H8",
    "result": []
  },
  {
    "postal": "M5V0P6",
    "result": []
  },
  {
    "postal": "M5V0S7",
    "result": []
  },
  {
    "postal": "M5V8B9",
    "result": []
  },
  {
    "postal": "M5V2A6",
    "result": [
      {
        "electoralDistricts": [
          {
            "election": null,
            "id": 101,
            "name": "Spadina—Fort York"
          }
        ],
        "pollDivisionIds": [
          10141944
        ],
        "postalCode": "M5V2A6",
        "streetName": "QUEEN",
        "streetDirectionId": "W",
        "streetTypeId": "ST",
        "placeName": "TORONTO",
        "streetNameDisplayText": "QUEEN ST W, TORONTO"
      }
    ]
  },
  {
    "postal": "M5V7V2",
    "result": []
  },
  {
    "postal": "M5V9P4",
    "result": []
  },
  {
    "postal": "M5V6G0",
    "result": []
  },
  {
    "postal": "M5V2K0",
    "result": []
  },
  {
    "postal": "M5V7N6",
    "result": []
  },
  {
    "postal": "M5V5R3",
    "result": []
  },
  {
    "postal": "M5V7K0",
    "result": []
  },
  {
    "postal": "M5V3R2",
    "result": []
  },
  {
    "postal": "M5V0J1",
    "result": [
      {
        "electoralDistricts": [
          {
            "election": null,
            "id": 101,
            "name": "Spadina—Fort York"
          }
        ],
        "pollDivisionIds": [
          10141964
        ],
        "postalCode": "M5V0J1",
        "streetName": "GRAND MAGAZINE",
        "streetDirectionId": null,
        "streetTypeId": "ST",
        "placeName": "TORONTO",
        "streetNameDisplayText": "GRAND MAGAZINE ST, TORONTO"
      }
    ]
  },
  {
    "postal": "M5V0B0",
    "result": []
  },
  {
    "postal": "M5V5Z2",
    "result": []
  },
  {
    "postal": "M5V7P3",
    "result": []
  },
  {
    "postal": "M5V2K3",
    "result": [
      {
        "electoralDistricts": [
          {
            "election": null,
            "id": 101,
            "name": "Spadina—Fort York"
          }
        ],
        "pollDivisionIds": [
          10141988
        ],
        "postalCode": "M5V2K3",
        "streetName": "KING",
        "streetDirectionId": "W",
        "streetTypeId": "ST",
        "placeName": "TORONTO",
        "streetNameDisplayText": "KING ST W, TORONTO"
      }
    ]
  },
  {
    "postal": "M5V7Y6",
    "result": []
  },
  {
    "postal": "M5V1L9",
    "result": [
      {
        "electoralDistricts": [
          {
            "election": null,
            "id": 101,
            "name": "Spadina—Fort York"
          }
        ],
        "pollDivisionIds": [
          10141952
        ],
        "postalCode": "M5V1L9",
        "streetName": "KING",
        "streetDirectionId": "W",
        "streetTypeId": "ST",
        "placeName": "TORONTO",
        "streetNameDisplayText": "KING ST W, TORONTO"
      },
      {
        "electoralDistricts": [
          {
            "election": null,
            "id": 111,
            "name": "Toronto—St. Paul's"
          }
        ],
        "pollDivisionIds": [
          10136054
        ],
        "postalCode": "M5V1L9",
        "streetName": "ST CLAIR",
        "streetDirectionId": "E",
        "streetTypeId": "AVE",
        "placeName": "TORONTO,ON",
        "streetNameDisplayText": "ST CLAIR AVE E, TORONTO,ON"
      }
    ]
  },
  {
    "postal": "M5V8T0",
    "result": []
  },
  {
    "postal": "M5V3K8",
    "result": [
      {
        "electoralDistricts": [
          {
            "election": null,
            "id": 101,
            "name": "Spadina—Fort York"
          }
        ],
        "pollDivisionIds": [
          10141964,
          10141958
        ],
        "postalCode": "M5V3K8",
        "streetName": "QUEENS",
        "streetDirectionId": "W",
        "streetTypeId": "QUAY",
        "placeName": "TORONTO",
        "streetNameDisplayText": "QUEENS QUAY W, TORONTO"
      }
    ]
  },
  {
    "postal": "M5V5W9",
    "result": []
  },
  {
    "postal": "M5V6T9",
    "result": []
  },
  {
    "postal": "M5V4H1",
    "result": []
  },
  {
    "postal": "M5V7A2",
    "result": []
  },
  {
    "postal": "M5V5G0",
    "result": []
  },
  {
    "postal": "M5V8V5",
    "result": []
  },
  {
    "postal": "M5V2Y8",
    "result": [
      {
        "electoralDistricts": [
          {
            "election": null,
            "id": 101,
            "name": "Spadina—Fort York"
          }
        ],
        "pollDivisionIds": [
          10141964
        ],
        "postalCode": "M5V2Y8",
        "streetName": "QUEENS",
        "streetDirectionId": "W",
        "streetTypeId": "QUAY",
        "placeName": "TORONTO",
        "streetNameDisplayText": "QUEENS QUAY W, TORONTO"
      }
    ]
  },
  {
    "postal": "M5V2B6",
    "result": [
      {
        "electoralDistricts": [
          {
            "election": null,
            "id": 101,
            "name": "Spadina—Fort York"
          }
        ],
        "pollDivisionIds": [
          10141952,
          10141951
        ],
        "postalCode": "M5V2B6",
        "streetName": "QUEEN",
        "streetDirectionId": "W",
        "streetTypeId": "ST",
        "placeName": "TORONTO",
        "streetNameDisplayText": "QUEEN ST W, TORONTO"
      }
    ]
  },
  {
    "postal": "M5V4W8",
    "result": []
  },
  {
    "postal": "M5V8H7",
    "result": []
  },
  {
    "postal": "M5V5P1",
    "result": []
  },
  {
    "postal": "M5V2B8",
    "result": []
  },
  {
    "postal": "M5V0P2",
    "result": []
  },
  {
    "postal": "M5V9M1",
    "result": []
  },
  {
    "postal": "M5V3G0",
    "result": []
  },
  {
    "postal": "M5V9Z2",
    "result": []
  },
  {
    "postal": "M5V2A0",
    "result": []
  },
  {
    "postal": "M5V6Y0",
    "result": []
  },
  {
    "postal": "M5V2Z8",
    "result": [
      {
        "electoralDistricts": [
          {
            "election": null,
            "id": 101,
            "name": "Spadina—Fort York"
          }
        ],
        "pollDivisionIds": [
          10141964
        ],
        "postalCode": "M5V2Z8",
        "streetName": "BISHOP TUTU",
        "streetDirectionId": null,
        "streetTypeId": "BLVD",
        "placeName": "TORONTO",
        "streetNameDisplayText": "BISHOP TUTU BLVD, TORONTO"
      }
    ]
  },
  {
    "postal": "M5V7Y3",
    "result": []
  },
  {
    "postal": "M5V6Z5",
    "result": []
  },
  {
    "postal": "M5V6E0",
    "result": []
  },
  {
    "postal": "M5V9B7",
    "result": []
  },
  {
    "postal": "M5V9S5",
    "result": []
  },
  {
    "postal": "M5V3X3",
    "result": [
      {
        "electoralDistricts": [
          {
            "election": null,
            "id": 101,
            "name": "Spadina—Fort York"
          }
        ],
        "pollDivisionIds": [
          10141948
        ],
        "postalCode": "M5V3X3",
        "streetName": "QUEEN",
        "streetDirectionId": "W",
        "streetTypeId": "ST",
        "placeName": "TORONTO",
        "streetNameDisplayText": "QUEEN ST W, TORONTO"
      }
    ]
  },
  {
    "postal": "M5V7R5",
    "result": []
  },
  {
    "postal": "M5V2X3",
    "result": []
  },
  {
    "postal": "M5V8Z9",
    "result": []
  },
  {
    "postal": "M5V0N4",
    "result": []
  },
  {
    "postal": "M5V1K1",
    "result": [
      {
        "electoralDistricts": [
          {
            "election": null,
            "id": 101,
            "name": "Spadina—Fort York"
          }
        ],
        "pollDivisionIds": [
          10141959
        ],
        "postalCode": "M5V1K1",
        "streetName": "KING",
        "streetDirectionId": "W",
        "streetTypeId": "ST",
        "placeName": "TORONTO",
        "streetNameDisplayText": "KING ST W, TORONTO"
      }
    ]
  },
  {
    "postal": "M5V1S3",
    "result": []
  },
  {
    "postal": "M5V6M4",
    "result": []
  },
  {
    "postal": "M5V9A9",
    "result": []
  },
  {
    "postal": "M5V9Z9",
    "result": []
  },
  {
    "postal": "M5V6T4",
    "result": []
  },
  {
    "postal": "M5V0B2",
    "result": [
      {
        "electoralDistricts": [
          {
            "election": null,
            "id": 101,
            "name": "Spadina—Fort York"
          }
        ],
        "pollDivisionIds": [
          10141964
        ],
        "postalCode": "M5V0B2",
        "streetName": "GRAND MAGAZINE",
        "streetDirectionId": null,
        "streetTypeId": "ST",
        "placeName": "TORONTO",
        "streetNameDisplayText": "GRAND MAGAZINE ST, TORONTO"
      }
    ]
  },
  {
    "postal": "M5V2L9",
    "result": [
      {
        "electoralDistricts": [
          {
            "election": null,
            "id": 101,
            "name": "Spadina—Fort York"
          }
        ],
        "pollDivisionIds": [
          10141952,
          10141951
        ],
        "postalCode": "M5V2L9",
        "streetName": "BRANT",
        "streetDirectionId": null,
        "streetTypeId": "ST",
        "placeName": "TORONTO",
        "streetNameDisplayText": "BRANT ST, TORONTO"
      }
    ]
  },
  {
    "postal": "M5V8K9",
    "result": []
  },
  {
    "postal": "M5V2H9",
    "result": []
  },
  {
    "postal": "M5V3Z6",
    "result": [
      {
        "electoralDistricts": [
          {
            "election": null,
            "id": 101,
            "name": "Spadina—Fort York"
          }
        ],
        "pollDivisionIds": [
          10142009
        ],
        "postalCode": "M5V3Z6",
        "streetName": "CAPREOL",
        "streetDirectionId": null,
        "streetTypeId": "CRT",
        "placeName": "TORONTO",
        "streetNameDisplayText": "CAPREOL CRT, TORONTO"
      }
    ]
  },
  {
    "postal": "M5V3B0",
    "result": []
  },
  {
    "postal": "M5V2H8",
    "result": [
      {
        "electoralDistricts": [
          {
            "election": null,
            "id": 101,
            "name": "Spadina—Fort York"
          }
        ],
        "pollDivisionIds": [
          10141952
        ],
        "postalCode": "M5V2H8",
        "streetName": "SPADINA",
        "streetDirectionId": null,
        "streetTypeId": "AVE",
        "placeName": "TORONTO",
        "streetNameDisplayText": "SPADINA AVE, TORONTO"
      }
    ]
  },
  {
    "postal": "M5V3X2",
    "result": []
  },
  {
    "postal": "M5V2E9",
    "result": [
      {
        "electoralDistricts": [
          {
            "election": null,
            "id": 101,
            "name": "Spadina—Fort York"
          }
        ],
        "pollDivisionIds": [
          10141959
        ],
        "postalCode": "M5V2E9",
        "streetName": "WIDMER",
        "streetDirectionId": null,
        "streetTypeId": "ST",
        "placeName": "TORONTO",
        "streetNameDisplayText": "WIDMER ST, TORONTO"
      }
    ]
  },
  {
    "postal": "M5V9P6",
    "result": []
  },
  {
    "postal": "M5V9E2",
    "result": []
  },
  {
    "postal": "M5V9H2",
    "result": []
  },
  {
    "postal": "M5V1S8",
    "result": [
      {
        "electoralDistricts": [
          {
            "election": null,
            "id": 101,
            "name": "Spadina—Fort York"
          }
        ],
        "pollDivisionIds": [
          10141952,
          10141959
        ],
        "postalCode": "M5V1S8",
        "streetName": "ADELAIDE",
        "streetDirectionId": "W",
        "streetTypeId": "ST",
        "placeName": "TORONTO",
        "streetNameDisplayText": "ADELAIDE ST W, TORONTO"
      }
    ]
  },
  {
    "postal": "M5V3M6",
    "result": [
      {
        "electoralDistricts": [
          {
            "election": null,
            "id": 101,
            "name": "Spadina—Fort York"
          }
        ],
        "pollDivisionIds": [
          10141959
        ],
        "postalCode": "M5V3M6",
        "streetName": "RICHMOND",
        "streetDirectionId": "W",
        "streetTypeId": "ST",
        "placeName": "TORONTO",
        "streetNameDisplayText": "RICHMOND ST W, TORONTO"
      }
    ]
  },
  {
    "postal": "M5V6Z8",
    "result": []
  },
  {
    "postal": "M5V4J2",
    "result": []
  },
  {
    "postal": "M5V9Y1",
    "result": []
  },
  {
    "postal": "M5V8V6",
    "result": []
  },
  {
    "postal": "M5V6B2",
    "result": []
  },
  {
    "postal": "M5V1P8",
    "result": [
      {
        "electoralDistricts": [
          {
            "election": null,
            "id": 101,
            "name": "Spadina—Fort York"
          }
        ],
        "pollDivisionIds": [
          10141959
        ],
        "postalCode": "M5V1P8",
        "streetName": "ADELAIDE",
        "streetDirectionId": "W",
        "streetTypeId": "ST",
        "placeName": "TORONTO",
        "streetNameDisplayText": "ADELAIDE ST W, TORONTO"
      }
    ]
  },
  {
    "postal": "M5V0V8",
    "result": []
  },
  {
    "postal": "M5V4Y0",
    "result": []
  },
  {
    "postal": "M5V2T4",
    "result": []
  },
  {
    "postal": "M5V2S3",
    "result": []
  },
  {
    "postal": "M5V0K0",
    "result": []
  },
  {
    "postal": "M5V5N1",
    "result": []
  },
  {
    "postal": "M5V7T0",
    "result": []
  },
  {
    "postal": "M5V9N2",
    "result": []
  },
  {
    "postal": "M5V5L1",
    "result": []
  },
  {
    "postal": "M5V7G5",
    "result": []
  },
  {
    "postal": "M5V6K2",
    "result": []
  },
  {
    "postal": "M5V6P9",
    "result": []
  },
  {
    "postal": "M5V0E6",
    "result": [
      {
        "electoralDistricts": [
          {
            "election": null,
            "id": 101,
            "name": "Spadina—Fort York"
          }
        ],
        "pollDivisionIds": [
          10141958
        ],
        "postalCode": "M5V0E6",
        "streetName": "FORT YORK",
        "streetDirectionId": null,
        "streetTypeId": "BLVD",
        "placeName": "TORONTO",
        "streetNameDisplayText": "FORT YORK BLVD, TORONTO"
      }
    ]
  },
  {
    "postal": "M5V8R9",
    "result": []
  },
  {
    "postal": "M5V3G9",
    "result": [
      {
        "electoralDistricts": [
          {
            "election": null,
            "id": 101,
            "name": "Spadina—Fort York"
          }
        ],
        "pollDivisionIds": [
          10141951
        ],
        "postalCode": "M5V3G9",
        "streetName": "BRANT",
        "streetDirectionId": null,
        "streetTypeId": "ST",
        "placeName": "TORONTO",
        "streetNameDisplayText": "BRANT ST, TORONTO"
      }
    ]
  },
  {
    "postal": "M5V0V7",
    "result": []
  },
  {
    "postal": "M5V2Z1",
    "result": [
      {
        "electoralDistricts": [
          {
            "election": null,
            "id": 101,
            "name": "Spadina—Fort York"
          }
        ],
        "pollDivisionIds": [
          10141964
        ],
        "postalCode": "M5V2Z1",
        "streetName": "LOWER SPADINA",
        "streetDirectionId": null,
        "streetTypeId": "AVE",
        "placeName": "TORONTO",
        "streetNameDisplayText": "LOWER SPADINA AVE, TORONTO"
      }
    ]
  },
  {
    "postal": "M5V7N1",
    "result": []
  },
  {
    "postal": "M5V3C6",
    "result": [
      {
        "electoralDistricts": [
          {
            "election": null,
            "id": 83,
            "name": "Parkdale—High Park"
          }
        ],
        "pollDivisionIds": [
          10126422
        ],
        "postalCode": "M5V3C6",
        "streetName": "JANE",
        "streetDirectionId": null,
        "streetTypeId": "ST",
        "placeName": "TORONTO",
        "streetNameDisplayText": "JANE ST, TORONTO"
      },
      {
        "electoralDistricts": [
          {
            "election": null,
            "id": 101,
            "name": "Spadina—Fort York"
          }
        ],
        "pollDivisionIds": [
          10141959
        ],
        "postalCode": "M5V3C6",
        "streetName": "JOHN",
        "streetDirectionId": null,
        "streetTypeId": "ST",
        "placeName": "TORONTO",
        "streetNameDisplayText": "JOHN ST, TORONTO"
      },
      {
        "electoralDistricts": [
          {
            "election": null,
            "id": 101,
            "name": "Spadina—Fort York"
          }
        ],
        "pollDivisionIds": [
          10141959
        ],
        "postalCode": "M5V3C6",
        "streetName": "KING",
        "streetDirectionId": "W",
        "streetTypeId": "ST",
        "placeName": "TORONTO",
        "streetNameDisplayText": "KING ST W, TORONTO"
      },
      {
        "electoralDistricts": [
          {
            "election": null,
            "id": 101,
            "name": "Spadina—Fort York"
          }
        ],
        "pollDivisionIds": [
          10141970
        ],
        "postalCode": "M5V3C6",
        "streetName": "PARLIAMENT",
        "streetDirectionId": null,
        "streetTypeId": "ST",
        "placeName": "TORONTO",
        "streetNameDisplayText": "PARLIAMENT ST, TORONTO"
      }
    ]
  },
  {
    "postal": "M5V4M1",
    "result": []
  },
  {
    "postal": "M5V9K2",
    "result": []
  },
  {
    "postal": "M5V9S6",
    "result": []
  },
  {
    "postal": "M5V4X1",
    "result": []
  },
  {
    "postal": "M5V8W2",
    "result": []
  },
  {
    "postal": "M5V7N2",
    "result": []
  },
  {
    "postal": "M5V8S3",
    "result": []
  },
  {
    "postal": "M5V4V0",
    "result": []
  },
  {
    "postal": "M5V6W4",
    "result": []
  },
  {
    "postal": "M5V5M1",
    "result": []
  },
  {
    "postal": "M5V0S4",
    "result": []
  },
  {
    "postal": "M5V5X6",
    "result": []
  },
  {
    "postal": "M5V8L5",
    "result": []
  },
  {
    "postal": "M5V5M8",
    "result": []
  },
  {
    "postal": "M5V2G3",
    "result": [
      {
        "electoralDistricts": [
          {
            "election": null,
            "id": 101,
            "name": "Spadina—Fort York"
          }
        ],
        "pollDivisionIds": [
          10141959
        ],
        "postalCode": "M5V2G3",
        "streetName": "BLUE JAYS",
        "streetDirectionId": null,
        "streetTypeId": "WAY",
        "placeName": "TORONTO",
        "streetNameDisplayText": "BLUE JAYS WAY, TORONTO"
      }
    ]
  },
  {
    "postal": "M5V8E4",
    "result": []
  },
  {
    "postal": "M5V7S9",
    "result": []
  },
  {
    "postal": "M5V1K3",
    "result": []
  },
  {
    "postal": "M5V4E1",
    "result": []
  },
  {
    "postal": "M5V4R2",
    "result": []
  },
  {
    "postal": "M5V6T0",
    "result": []
  },
  {
    "postal": "M5V3K5",
    "result": [
      {
        "electoralDistricts": [
          {
            "election": null,
            "id": 113,
            "name": "Vaughan—Woodbridge"
          }
        ],
        "pollDivisionIds": [
          10111404
        ],
        "postalCode": "M5V3K5",
        "streetName": "ALEX",
        "streetDirectionId": null,
        "streetTypeId": "AVE",
        "placeName": "WOODBRIDGE",
        "streetNameDisplayText": "ALEX AVE, WOODBRIDGE"
      }
    ]
  },
  {
    "postal": "M5V3S3",
    "result": [
      {
        "electoralDistricts": [
          {
            "election": null,
            "id": 101,
            "name": "Spadina—Fort York"
          }
        ],
        "pollDivisionIds": [
          10141959
        ],
        "postalCode": "M5V3S3",
        "streetName": "NAVY WHARF",
        "streetDirectionId": null,
        "streetTypeId": "CRT",
        "placeName": "TORONTO",
        "streetNameDisplayText": "NAVY WHARF CRT, TORONTO"
      }
    ]
  },
  {
    "postal": "M5V3L4",
    "result": [
      {
        "electoralDistricts": [
          {
            "election": null,
            "id": 101,
            "name": "Spadina—Fort York"
          }
        ],
        "pollDivisionIds": [
          10141959
        ],
        "postalCode": "M5V3L4",
        "streetName": "FRONT",
        "streetDirectionId": "W",
        "streetTypeId": "ST",
        "placeName": "TORONTO",
        "streetNameDisplayText": "FRONT ST W, TORONTO"
      }
    ]
  },
  {
    "postal": "M5V9Y2",
    "result": []
  },
  {
    "postal": "M5V1E0",
    "result": []
  },
  {
    "postal": "M5V9A4",
    "result": []
  },
  {
    "postal": "M5V1L3",
    "result": []
  },
  {
    "postal": "M5V6N1",
    "result": []
  },
  {
    "postal": "M5V6G7",
    "result": []
  },
  {
    "postal": "M5V7W1",
    "result": []
  },
  {
    "postal": "M5V4M6",
    "result": []
  },
  {
    "postal": "M5V1K0",
    "result": []
  },
  {
    "postal": "M5V3E2",
    "result": [
      {
        "electoralDistricts": [
          {
            "election": null,
            "id": 101,
            "name": "Spadina—Fort York"
          }
        ],
        "pollDivisionIds": [
          10141951
        ],
        "postalCode": "M5V3E2",
        "streetName": "TECUMSETH",
        "streetDirectionId": null,
        "streetTypeId": "PL",
        "placeName": "TORONTO",
        "streetNameDisplayText": "TECUMSETH PL, TORONTO"
      }
    ]
  },
  {
    "postal": "M5V5H4",
    "result": []
  },
  {
    "postal": "M5V1K7",
    "result": []
  },
  {
    "postal": "M5V0H0",
    "result": []
  },
  {
    "postal": "M5V0J3",
    "result": [
      {
        "electoralDistricts": [
          {
            "election": null,
            "id": 101,
            "name": "Spadina—Fort York"
          }
        ],
        "pollDivisionIds": [
          10141958
        ],
        "postalCode": "M5V0J3",
        "streetName": "QUEENS WHARF",
        "streetDirectionId": "W",
        "streetTypeId": "RD",
        "placeName": "TORONTO",
        "streetNameDisplayText": "QUEENS WHARF RD W, TORONTO"
      },
      {
        "electoralDistricts": [
          {
            "election": null,
            "id": 101,
            "name": "Spadina—Fort York"
          }
        ],
        "pollDivisionIds": [
          10141958,
          10142013
        ],
        "postalCode": "M5V0J3",
        "streetName": "QUEENS WHARF",
        "streetDirectionId": null,
        "streetTypeId": "RD",
        "placeName": "TORONTO",
        "streetNameDisplayText": "QUEENS WHARF RD, TORONTO"
      }
    ]
  },
  {
    "postal": "M5V1X6",
    "result": [
      {
        "electoralDistricts": [
          {
            "election": null,
            "id": 101,
            "name": "Spadina—Fort York"
          }
        ],
        "pollDivisionIds": [
          10141959
        ],
        "postalCode": "M5V1X6",
        "streetName": "RICHMOND",
        "streetDirectionId": "W",
        "streetTypeId": "ST",
        "placeName": "TORONTO",
        "streetNameDisplayText": "RICHMOND ST W, TORONTO"
      }
    ]
  },
  {
    "postal": "M5V2Z6",
    "result": [
      {
        "electoralDistricts": [
          {
            "election": null,
            "id": 101,
            "name": "Spadina—Fort York"
          }
        ],
        "pollDivisionIds": [
          10141964
        ],
        "postalCode": "M5V2Z6",
        "streetName": "STADIUM",
        "streetDirectionId": null,
        "streetTypeId": "RD",
        "placeName": "TORONTO",
        "streetNameDisplayText": "STADIUM RD, TORONTO"
      }
    ]
  },
  {
    "postal": "M5V4R9",
    "result": []
  },
  {
    "postal": "M5V0W8",
    "result": []
  },
  {
    "postal": "M5V1L4",
    "result": []
  },
  {
    "postal": "M5V0C8",
    "result": [
      {
        "electoralDistricts": [
          {
            "election": null,
            "id": 101,
            "name": "Spadina—Fort York"
          }
        ],
        "pollDivisionIds": [
          10142000
        ],
        "postalCode": "M5V0C8",
        "streetName": "FORT YORK",
        "streetDirectionId": null,
        "streetTypeId": "BLVD",
        "placeName": "TORONTO",
        "streetNameDisplayText": "FORT YORK BLVD, TORONTO"
      }
    ]
  },
  {
    "postal": "M5V9X7",
    "result": []
  },
  {
    "postal": "M5V4T1",
    "result": []
  },
  {
    "postal": "M5V0M0",
    "result": []
  },
  {
    "postal": "M5V6A2",
    "result": []
  },
  {
    "postal": "M5V9S8",
    "result": []
  },
  {
    "postal": "M5V9T4",
    "result": []
  },
  {
    "postal": "M5V9Y4",
    "result": []
  },
  {
    "postal": "M5V6G5",
    "result": []
  },
  {
    "postal": "M5V6H9",
    "result": []
  },
  {
    "postal": "M5V2P3",
    "result": []
  },
  {
    "postal": "M5V1T6",
    "result": [
      {
        "electoralDistricts": [
          {
            "election": null,
            "id": 101,
            "name": "Spadina—Fort York"
          }
        ],
        "pollDivisionIds": [
          10141951
        ],
        "postalCode": "M5V1T6",
        "streetName": "ADELAIDE",
        "streetDirectionId": "W",
        "streetTypeId": "ST",
        "placeName": "TORONTO, ON",
        "streetNameDisplayText": "ADELAIDE ST W, TORONTO, ON"
      }
    ]
  },
  {
    "postal": "M5V4P6",
    "result": []
  },
  {
    "postal": "M5V3K1",
    "result": []
  },
  {
    "postal": "M5V6X4",
    "result": []
  },
  {
    "postal": "M5V4M8",
    "result": []
  },
  {
    "postal": "M5V2Y1",
    "result": [
      {
        "electoralDistricts": [
          {
            "election": null,
            "id": 101,
            "name": "Spadina—Fort York"
          }
        ],
        "pollDivisionIds": [
          10141959
        ],
        "postalCode": "M5V2Y1",
        "streetName": "FRONT",
        "streetDirectionId": "W",
        "streetTypeId": "ST",
        "placeName": "TORONTO",
        "streetNameDisplayText": "FRONT ST W, TORONTO"
      }
    ]
  },
  {
    "postal": "M5V6M1",
    "result": []
  },
  {
    "postal": "M5V5L8",
    "result": []
  },
  {
    "postal": "M5V3P6",
    "result": [
      {
        "electoralDistricts": [
          {
            "election": null,
            "id": 101,
            "name": "Spadina—Fort York"
          }
        ],
        "pollDivisionIds": [
          10141961
        ],
        "postalCode": "M5V3P6",
        "streetName": "WELLINGTON",
        "streetDirectionId": "W",
        "streetTypeId": "ST",
        "placeName": "TORONTO",
        "streetNameDisplayText": "WELLINGTON ST W, TORONTO"
      }
    ]
  },
  {
    "postal": "M5V9A5",
    "result": []
  },
  {
    "postal": "M5V7K1",
    "result": []
  },
  {
    "postal": "M5V3J4",
    "result": []
  },
  {
    "postal": "M5V5E7",
    "result": []
  },
  {
    "postal": "M5V3A7",
    "result": [
      {
        "electoralDistricts": [
          {
            "election": null,
            "id": 101,
            "name": "Spadina—Fort York"
          }
        ],
        "pollDivisionIds": [
          10141940,
          10141967
        ],
        "postalCode": "M5V3A7",
        "streetName": "QUEENS",
        "streetDirectionId": "W",
        "streetTypeId": "QUAY",
        "placeName": "TORONTO",
        "streetNameDisplayText": "QUEENS QUAY W, TORONTO"
      },
      {
        "electoralDistricts": [
          {
            "election": null,
            "id": 101,
            "name": "Spadina—Fort York"
          }
        ],
        "pollDivisionIds": [
          10141967,
          10141959
        ],
        "postalCode": "M5V3A7",
        "streetName": "QUEEN'S",
        "streetDirectionId": "W",
        "streetTypeId": "QUAY",
        "placeName": "TORONTO",
        "streetNameDisplayText": "QUEEN'S QUAY W, TORONTO"
      }
    ]
  },
  {
    "postal": "M5V1B9",
    "result": [
      {
        "electoralDistricts": [
          {
            "election": null,
            "id": 101,
            "name": "Spadina—Fort York"
          }
        ],
        "pollDivisionIds": [
          10141996
        ],
        "postalCode": "M5V1B9",
        "streetName": "FLEET",
        "streetDirectionId": null,
        "streetTypeId": "ST",
        "placeName": "TORONTO",
        "streetNameDisplayText": "FLEET ST, TORONTO"
      }
    ]
  },
  {
    "postal": "M5V9E8",
    "result": []
  },
  {
    "postal": "M5V1C9",
    "result": [
      {
        "electoralDistricts": [
          {
            "election": null,
            "id": 101,
            "name": "Spadina—Fort York"
          }
        ],
        "pollDivisionIds": [
          10141957
        ],
        "postalCode": "M5V1C9",
        "streetName": "NIAGARA",
        "streetDirectionId": null,
        "streetTypeId": "ST",
        "placeName": "TORONTO",
        "streetNameDisplayText": "NIAGARA ST, TORONTO"
      }
    ]
  },
  {
    "postal": "M5V3B5",
    "result": []
  },
  {
    "postal": "M5V8R0",
    "result": []
  },
  {
    "postal": "M5V3P2",
    "result": []
  },
  {
    "postal": "M5V5V4",
    "result": []
  },
  {
    "postal": "M5V4H0",
    "result": []
  },
  {
    "postal": "M5V4S7",
    "result": []
  },
  {
    "postal": "M5V6C2",
    "result": []
  },
  {
    "postal": "M5V8W3",
    "result": []
  },
  {
    "postal": "M5V4M5",
    "result": []
  },
  {
    "postal": "M5V5T1",
    "result": []
  },
  {
    "postal": "M5V3B3",
    "result": []
  },
  {
    "postal": "M5V6C6",
    "result": []
  },
  {
    "postal": "M5V7N8",
    "result": []
  },
  {
    "postal": "M5V2Y3",
    "result": [
      {
        "electoralDistricts": [
          {
            "election": null,
            "id": 101,
            "name": "Spadina—Fort York"
          }
        ],
        "pollDivisionIds": [
          10141964
        ],
        "postalCode": "M5V2Y3",
        "streetName": "QUEENS",
        "streetDirectionId": "W",
        "streetTypeId": "QUAY",
        "placeName": "TORONTO",
        "streetNameDisplayText": "QUEENS QUAY W, TORONTO"
      }
    ]
  },
  {
    "postal": "M5V2R6",
    "result": [
      {
        "electoralDistricts": [
          {
            "election": null,
            "id": 101,
            "name": "Spadina—Fort York"
          }
        ],
        "pollDivisionIds": [
          10141957
        ],
        "postalCode": "M5V2R6",
        "streetName": "TECUMSETH",
        "streetDirectionId": null,
        "streetTypeId": "ST",
        "placeName": "TORONTO",
        "streetNameDisplayText": "TECUMSETH ST, TORONTO"
      }
    ]
  },
  {
    "postal": "M5V7N3",
    "result": []
  },
  {
    "postal": "M5V8J2",
    "result": []
  },
  {
    "postal": "M5V6A9",
    "result": []
  },
  {
    "postal": "M5V3V2",
    "result": [
      {
        "electoralDistricts": [
          {
            "election": null,
            "id": 101,
            "name": "Spadina—Fort York"
          }
        ],
        "pollDivisionIds": [
          10141963
        ],
        "postalCode": "M5V3V2",
        "streetName": "NAVY WHARF",
        "streetDirectionId": null,
        "streetTypeId": "CRT",
        "placeName": "TORONTO",
        "streetNameDisplayText": "NAVY WHARF CRT, TORONTO"
      }
    ]
  },
  {
    "postal": "M5V2N3",
    "result": [
      {
        "electoralDistricts": [
          {
            "election": null,
            "id": 29,
            "name": "Etobicoke—Lakeshore"
          }
        ],
        "pollDivisionIds": [
          10143883
        ],
        "postalCode": "M5V2N3",
        "streetName": "PORTLAND",
        "streetDirectionId": null,
        "streetTypeId": "ST",
        "placeName": "ETOBICOKE",
        "streetNameDisplayText": "PORTLAND ST, ETOBICOKE"
      },
      {
        "electoralDistricts": [
          {
            "election": null,
            "id": 101,
            "name": "Spadina—Fort York"
          }
        ],
        "pollDivisionIds": [
          10141951
        ],
        "postalCode": "M5V2N3",
        "streetName": "PORTLAND",
        "streetDirectionId": null,
        "streetTypeId": "ST",
        "placeName": "TORONTO",
        "streetNameDisplayText": "PORTLAND ST, TORONTO"
      }
    ]
  },
  {
    "postal": "M5V1S5",
    "result": [
      {
        "electoralDistricts": [
          {
            "election": null,
            "id": 101,
            "name": "Spadina—Fort York"
          }
        ],
        "pollDivisionIds": [
          10141952
        ],
        "postalCode": "M5V1S5",
        "streetName": "ADELAIDE",
        "streetDirectionId": "W",
        "streetTypeId": "ST",
        "placeName": "TORONTO",
        "streetNameDisplayText": "ADELAIDE ST W, TORONTO"
      }
    ]
  },
  {
    "postal": "M5V4T7",
    "result": []
  },
  {
    "postal": "M5V6Y7",
    "result": []
  },
  {
    "postal": "M5V0W7",
    "result": []
  },
  {
    "postal": "M5V2W9",
    "result": [
      {
        "electoralDistricts": [
          {
            "election": null,
            "id": 101,
            "name": "Spadina—Fort York"
          }
        ],
        "pollDivisionIds": [
          10141989
        ],
        "postalCode": "M5V2W9",
        "streetName": "KING",
        "streetDirectionId": "W",
        "streetTypeId": "ST",
        "placeName": "TORONTO",
        "streetNameDisplayText": "KING ST W, TORONTO"
      }
    ]
  },
  {
    "postal": "M5V8V0",
    "result": []
  },
  {
    "postal": "M5V0H4",
    "result": [
      {
        "electoralDistricts": [
          {
            "election": null,
            "id": 101,
            "name": "Spadina—Fort York"
          }
        ],
        "pollDivisionIds": [
          10141948,
          10141959
        ],
        "postalCode": "M5V0H4",
        "streetName": "RICHMOND",
        "streetDirectionId": "W",
        "streetTypeId": "ST",
        "placeName": "TORONTO",
        "streetNameDisplayText": "RICHMOND ST W, TORONTO"
      }
    ]
  },
  {
    "postal": "M5V2T1",
    "result": []
  },
  {
    "postal": "M5V1B1",
    "result": [
      {
        "electoralDistricts": [
          {
            "election": null,
            "id": 101,
            "name": "Spadina—Fort York"
          }
        ],
        "pollDivisionIds": [
          10141964
        ],
        "postalCode": "M5V1B1",
        "streetName": "FORT YORK",
        "streetDirectionId": null,
        "streetTypeId": "BLVD",
        "placeName": "TORONTO",
        "streetNameDisplayText": "FORT YORK BLVD, TORONTO"
      },
      {
        "electoralDistricts": [
          {
            "election": null,
            "id": 101,
            "name": "Spadina—Fort York"
          }
        ],
        "pollDivisionIds": [
          10141964
        ],
        "postalCode": "M5V1B1",
        "streetName": "GRAND MAGAZINE",
        "streetDirectionId": null,
        "streetTypeId": "ST",
        "placeName": "TORONTO, ON",
        "streetNameDisplayText": "GRAND MAGAZINE ST, TORONTO, ON"
      }
    ]
  },
  {
    "postal": "M5V8B6",
    "result": []
  },
  {
    "postal": "M5V6H1",
    "result": []
  },
  {
    "postal": "M5V8T8",
    "result": []
  },
  {
    "postal": "M5V0T4",
    "result": []
  },
  {
    "postal": "M5V2C4",
    "result": []
  },
  {
    "postal": "M5V8N3",
    "result": []
  },
  {
    "postal": "M5V4L8",
    "result": []
  },
  {
    "postal": "M5V2B5",
    "result": [
      {
        "electoralDistricts": [
          {
            "election": null,
            "id": 109,
            "name": "Toronto Centre"
          }
        ],
        "pollDivisionIds": [
          10135196
        ],
        "postalCode": "M5V2B5",
        "streetName": "QUEEN",
        "streetDirectionId": "E",
        "streetTypeId": "ST",
        "placeName": "TORONTO",
        "streetNameDisplayText": "QUEEN ST E, TORONTO"
      },
      {
        "electoralDistricts": [
          {
            "election": null,
            "id": 101,
            "name": "Spadina—Fort York"
          }
        ],
        "pollDivisionIds": [
          10141943
        ],
        "postalCode": "M5V2B5",
        "streetName": "QUEEN",
        "streetDirectionId": "W",
        "streetTypeId": "ST",
        "placeName": "TORONTO",
        "streetNameDisplayText": "QUEEN ST W, TORONTO"
      }
    ]
  },
  {
    "postal": "M5V3H1",
    "result": [
      {
        "electoralDistricts": [
          {
            "election": null,
            "id": 101,
            "name": "Spadina—Fort York"
          }
        ],
        "pollDivisionIds": [
          10141959
        ],
        "postalCode": "M5V3H1",
        "streetName": "WELLINGTON",
        "streetDirectionId": "W",
        "streetTypeId": "ST",
        "placeName": "TORONTO",
        "streetNameDisplayText": "WELLINGTON ST W, TORONTO"
      }
    ]
  },
  {
    "postal": "M5V4Y1",
    "result": []
  },
  {
    "postal": "M5V7E2",
    "result": []
  },
  {
    "postal": "M5V2P5",
    "result": [
      {
        "electoralDistricts": [
          {
            "election": null,
            "id": 101,
            "name": "Spadina—Fort York"
          }
        ],
        "pollDivisionIds": [
          10141951
        ],
        "postalCode": "M5V2P5",
        "streetName": "BATHURST",
        "streetDirectionId": null,
        "streetTypeId": "ST",
        "placeName": "TORONTO",
        "streetNameDisplayText": "BATHURST ST, TORONTO"
      }
    ]
  },
  {
    "postal": "M5V8R7",
    "result": []
  },
  {
    "postal": "M5V9P1",
    "result": []
  },
  {
    "postal": "M5V3B8",
    "result": []
  },
  {
    "postal": "M5V3P7",
    "result": [
      {
        "electoralDistricts": [
          {
            "election": null,
            "id": 101,
            "name": "Spadina—Fort York"
          }
        ],
        "pollDivisionIds": [
          10141943,
          10141959
        ],
        "postalCode": "M5V3P7",
        "streetName": "CHARLOTTE",
        "streetDirectionId": null,
        "streetTypeId": "ST",
        "placeName": "TORONTO",
        "streetNameDisplayText": "CHARLOTTE ST, TORONTO"
      }
    ]
  },
  {
    "postal": "M5V9B2",
    "result": []
  },
  {
    "postal": "M5V6Z3",
    "result": []
  },
  {
    "postal": "M5V4N5",
    "result": []
  },
  {
    "postal": "M5V8T3",
    "result": []
  },
  {
    "postal": "M5V1V2",
    "result": [
      {
        "electoralDistricts": [
          {
            "election": null,
            "id": 101,
            "name": "Spadina—Fort York"
          }
        ],
        "pollDivisionIds": [
          10141952
        ],
        "postalCode": "M5V1V2",
        "streetName": "CAMDEN",
        "streetDirectionId": null,
        "streetTypeId": "ST",
        "placeName": "TORONTO",
        "streetNameDisplayText": "CAMDEN ST, TORONTO"
      }
    ]
  },
  {
    "postal": "M5V1Y0",
    "result": []
  },
  {
    "postal": "M5V3G6",
    "result": [
      {
        "electoralDistricts": [
          {
            "election": null,
            "id": 101,
            "name": "Spadina—Fort York"
          }
        ],
        "pollDivisionIds": [
          10141959
        ],
        "postalCode": "M5V3G6",
        "streetName": "JOHN",
        "streetDirectionId": null,
        "streetTypeId": "ST",
        "placeName": "TORONTO",
        "streetNameDisplayText": "JOHN ST, TORONTO"
      }
    ]
  },
  {
    "postal": "M5V3H7",
    "result": [
      {
        "electoralDistricts": [
          {
            "election": null,
            "id": 101,
            "name": "Spadina—Fort York"
          }
        ],
        "pollDivisionIds": [
          10141957
        ],
        "postalCode": "M5V3H7",
        "streetName": "TECUMSETH",
        "streetDirectionId": null,
        "streetTypeId": "ST",
        "placeName": "TORONTO",
        "streetNameDisplayText": "TECUMSETH ST, TORONTO"
      }
    ]
  },
  {
    "postal": "M5V7X8",
    "result": []
  },
  {
    "postal": "M5V0C7",
    "result": [
      {
        "electoralDistricts": [
          {
            "election": null,
            "id": 101,
            "name": "Spadina—Fort York"
          }
        ],
        "pollDivisionIds": [
          10142000
        ],
        "postalCode": "M5V0C7",
        "streetName": "FORT YORK",
        "streetDirectionId": null,
        "streetTypeId": "BLVD",
        "placeName": "TORONTO",
        "streetNameDisplayText": "FORT YORK BLVD, TORONTO"
      }
    ]
  },
  {
    "postal": "M5V0W9",
    "result": []
  },
  {
    "postal": "M5V8E6",
    "result": []
  },
  {
    "postal": "M5V9Z8",
    "result": []
  },
  {
    "postal": "M5V3P4",
    "result": [
      {
        "electoralDistricts": [
          {
            "election": null,
            "id": 101,
            "name": "Spadina—Fort York"
          }
        ],
        "pollDivisionIds": [
          10141964
        ],
        "postalCode": "M5V3P4",
        "streetName": "STADIUM",
        "streetDirectionId": null,
        "streetTypeId": "RD",
        "placeName": "TORONTO",
        "streetNameDisplayText": "STADIUM RD, TORONTO"
      },
      {
        "electoralDistricts": [
          {
            "election": null,
            "id": 101,
            "name": "Spadina—Fort York"
          }
        ],
        "pollDivisionIds": [
          10141964
        ],
        "postalCode": "M5V3P4",
        "streetName": "STADIUM ROD",
        "streetDirectionId": null,
        "streetTypeId": "RD",
        "placeName": "TORONTO",
        "streetNameDisplayText": "STADIUM ROD RD, TORONTO"
      }
    ]
  },
  {
    "postal": "M5V6L8",
    "result": []
  },
  {
    "postal": "M5V2R4",
    "result": [
      {
        "electoralDistricts": [
          {
            "election": null,
            "id": 101,
            "name": "Spadina—Fort York"
          }
        ],
        "pollDivisionIds": [
          10141951
        ],
        "postalCode": "M5V2R4",
        "streetName": "BATHURST",
        "streetDirectionId": null,
        "streetTypeId": "ST",
        "placeName": "TORONTO",
        "streetNameDisplayText": "BATHURST ST, TORONTO"
      }
    ]
  },
  {
    "postal": "M5V2W1",
    "result": [
      {
        "electoralDistricts": [
          {
            "election": null,
            "id": 101,
            "name": "Spadina—Fort York"
          }
        ],
        "pollDivisionIds": [
          10141952
        ],
        "postalCode": "M5V2W1",
        "streetName": "AUGUSTA",
        "streetDirectionId": null,
        "streetTypeId": "AVE",
        "placeName": "TORONTO",
        "streetNameDisplayText": "AUGUSTA AVE, TORONTO"
      }
    ]
  },
  {
    "postal": "M5V9H8",
    "result": []
  },
  {
    "postal": "M5V8X9",
    "result": []
  },
  {
    "postal": "M5V7H4",
    "result": []
  },
  {
    "postal": "M5V3J1",
    "result": [
      {
        "electoralDistricts": [
          {
            "election": null,
            "id": 101,
            "name": "Spadina—Fort York"
          }
        ],
        "pollDivisionIds": [
          10141959
        ],
        "postalCode": "M5V3J1",
        "streetName": "FRONT",
        "streetDirectionId": "W",
        "streetTypeId": "ST",
        "placeName": "TORONTO",
        "streetNameDisplayText": "FRONT ST W, TORONTO"
      }
    ]
  },
  {
    "postal": "M5V1P4",
    "result": [
      {
        "electoralDistricts": [
          {
            "election": null,
            "id": 101,
            "name": "Spadina—Fort York"
          }
        ],
        "pollDivisionIds": [
          10141996
        ],
        "postalCode": "M5V1P4",
        "streetName": "SLOPING SKY",
        "streetDirectionId": null,
        "streetTypeId": "MEWS",
        "placeName": "TORONTO",
        "streetNameDisplayText": "SLOPING SKY MEWS, TORONTO"
      }
    ]
  },
  {
    "postal": "M5V2A3",
    "result": []
  },
  {
    "postal": "M5V0Z1",
    "result": []
  },
  {
    "postal": "M5V1C1",
    "result": [
      {
        "electoralDistricts": [
          {
            "election": null,
            "id": 101,
            "name": "Spadina—Fort York"
          }
        ],
        "pollDivisionIds": [
          10141958,
          10141940
        ],
        "postalCode": "M5V1C1",
        "streetName": "FRONT",
        "streetDirectionId": "W",
        "streetTypeId": "ST",
        "placeName": "TORONTO",
        "streetNameDisplayText": "FRONT ST W, TORONTO"
      },
      {
        "electoralDistricts": [
          {
            "election": null,
            "id": 101,
            "name": "Spadina—Fort York"
          }
        ],
        "pollDivisionIds": [
          10141940
        ],
        "postalCode": "M5V1C1",
        "streetName": "FRONT ST.",
        "streetDirectionId": "W",
        "streetTypeId": "ST",
        "placeName": "TORONTO",
        "streetNameDisplayText": "FRONT ST. ST W, TORONTO"
      }
    ]
  },
  {
    "postal": "M5V0H3",
    "result": []
  },
  {
    "postal": "M5V7B0",
    "result": []
  },
  {
    "postal": "M5V5K2",
    "result": []
  },
  {
    "postal": "M5V1E9",
    "result": [
      {
        "electoralDistricts": [
          {
            "election": null,
            "id": 101,
            "name": "Spadina—Fort York"
          }
        ],
        "pollDivisionIds": [
          10141958
        ],
        "postalCode": "M5V1E9",
        "streetName": "WELLINGTON",
        "streetDirectionId": "W",
        "streetTypeId": "ST",
        "placeName": "TORONTO",
        "streetNameDisplayText": "WELLINGTON ST W, TORONTO"
      }
    ]
  },
  {
    "postal": "M5V9W7",
    "result": []
  },
  {
    "postal": "M5V5W6",
    "result": []
  },
  {
    "postal": "M5V6S6",
    "result": []
  },
  {
    "postal": "M5V2P8",
    "result": []
  },
  {
    "postal": "M5V4P8",
    "result": []
  },
  {
    "postal": "M5V0V9",
    "result": []
  },
  {
    "postal": "M5V5Y2",
    "result": []
  },
  {
    "postal": "M5V7Z7",
    "result": []
  },
  {
    "postal": "M5V6Y8",
    "result": []
  },
  {
    "postal": "M5V2G7",
    "result": [
      {
        "electoralDistricts": [
          {
            "election": null,
            "id": 101,
            "name": "Spadina—Fort York"
          }
        ],
        "pollDivisionIds": [
          10141959
        ],
        "postalCode": "M5V2G7",
        "streetName": "PETER",
        "streetDirectionId": null,
        "streetTypeId": "ST",
        "placeName": "TORONTO",
        "streetNameDisplayText": "PETER ST, TORONTO"
      }
    ]
  },
  {
    "postal": "M5V8C1",
    "result": []
  },
  {
    "postal": "M5V5C5",
    "result": []
  },
  {
    "postal": "M5V2X8",
    "result": []
  },
  {
    "postal": "M5V1W5",
    "result": [
      {
        "electoralDistricts": [
          {
            "election": null,
            "id": 101,
            "name": "Spadina—Fort York"
          }
        ],
        "pollDivisionIds": [
          10141959
        ],
        "postalCode": "M5V1W5",
        "streetName": "RICHMOND",
        "streetDirectionId": "W",
        "streetTypeId": "ST",
        "placeName": "TORONTO",
        "streetNameDisplayText": "RICHMOND ST W, TORONTO"
      }
    ]
  },
  {
    "postal": "M5V7G0",
    "result": []
  },
  {
    "postal": "M5V8J8",
    "result": []
  },
  {
    "postal": "M5V3Y0",
    "result": []
  },
  {
    "postal": "M5V9T7",
    "result": []
  },
  {
    "postal": "M5V5P4",
    "result": []
  },
  {
    "postal": "M5V4B0",
    "result": []
  },
  {
    "postal": "M5V9N8",
    "result": []
  },
  {
    "postal": "M5V4A7",
    "result": [
      {
        "electoralDistricts": [
          {
            "election": null,
            "id": 101,
            "name": "Spadina—Fort York"
          }
        ],
        "pollDivisionIds": [
          10142005
        ],
        "postalCode": "M5V4A7",
        "streetName": "FORT YORK",
        "streetDirectionId": null,
        "streetTypeId": "BLVD",
        "placeName": "TORONTO",
        "streetNameDisplayText": "FORT YORK BLVD, TORONTO"
      }
    ]
  },
  {
    "postal": "M5V4H9",
    "result": []
  },
  {
    "postal": "M5V6X1",
    "result": []
  },
  {
    "postal": "M5V9Y7",
    "result": []
  },
  {
    "postal": "M5V2Y5",
    "result": [
      {
        "electoralDistricts": [
          {
            "election": null,
            "id": 101,
            "name": "Spadina—Fort York"
          }
        ],
        "pollDivisionIds": [
          10141942,
          10141964
        ],
        "postalCode": "M5V2Y5",
        "streetName": "QUEENS",
        "streetDirectionId": "W",
        "streetTypeId": "QUAY",
        "placeName": "TORONTO",
        "streetNameDisplayText": "QUEENS QUAY W, TORONTO"
      }
    ]
  },
  {
    "postal": "M5V8L7",
    "result": []
  },
  {
    "postal": "M5V2A8",
    "result": [
      {
        "electoralDistricts": [
          {
            "election": null,
            "id": 101,
            "name": "Spadina—Fort York"
          }
        ],
        "pollDivisionIds": [
          10141944
        ],
        "postalCode": "M5V2A8",
        "streetName": "QUEEN",
        "streetDirectionId": "W",
        "streetTypeId": "ST",
        "placeName": "TORONTO",
        "streetNameDisplayText": "QUEEN ST W, TORONTO"
      }
    ]
  },
  {
    "postal": "M5V2K9",
    "result": []
  },
  {
    "postal": "M5V3E5",
    "result": [
      {
        "electoralDistricts": [
          {
            "election": null,
            "id": 101,
            "name": "Spadina—Fort York"
          }
        ],
        "pollDivisionIds": [
          10141959
        ],
        "postalCode": "M5V3E5",
        "streetName": "RICHMOND",
        "streetDirectionId": "W",
        "streetTypeId": "ST",
        "placeName": "TORONTO",
        "streetNameDisplayText": "RICHMOND ST W, TORONTO"
      }
    ]
  },
  {
    "postal": "M5V8N6",
    "result": []
  },
  {
    "postal": "M5V8J4",
    "result": []
  },
  {
    "postal": "M5V4R7",
    "result": []
  },
  {
    "postal": "M5V9K1",
    "result": []
  },
  {
    "postal": "M5V8E1",
    "result": []
  },
  {
    "postal": "M5V0R1",
    "result": [
      {
        "electoralDistricts": [
          {
            "election": null,
            "id": 101,
            "name": "Spadina—Fort York"
          }
        ],
        "pollDivisionIds": [
          10141958
        ],
        "postalCode": "M5V0R1",
        "streetName": "BATHURST",
        "streetDirectionId": null,
        "streetTypeId": "ST",
        "placeName": "TORONTO",
        "streetNameDisplayText": "BATHURST ST, TORONTO"
      }
    ]
  },
  {
    "postal": "M5V4J3",
    "result": []
  },
  {
    "postal": "M5V7E7",
    "result": []
  },
  {
    "postal": "M5V0J0",
    "result": []
  },
  {
    "postal": "M5V7R8",
    "result": []
  },
  {
    "postal": "M5V9X0",
    "result": []
  },
  {
    "postal": "M5V7P6",
    "result": []
  },
  {
    "postal": "M5V0R7",
    "result": []
  },
  {
    "postal": "M5V5W1",
    "result": []
  },
  {
    "postal": "M5V0K4",
    "result": [
      {
        "electoralDistricts": [
          {
            "election": null,
            "id": 101,
            "name": "Spadina—Fort York"
          }
        ],
        "pollDivisionIds": [
          10142020
        ],
        "postalCode": "M5V0K4",
        "streetName": "CHARLOTTE",
        "streetDirectionId": null,
        "streetTypeId": "ST",
        "placeName": "TORONTO",
        "streetNameDisplayText": "CHARLOTTE ST, TORONTO"
      }
    ]
  },
  {
    "postal": "M5V7N9",
    "result": []
  },
  {
    "postal": "M5V1N0",
    "result": []
  },
  {
    "postal": "M5V6P3",
    "result": []
  },
  {
    "postal": "M5V5A1",
    "result": []
  },
  {
    "postal": "M5V9M9",
    "result": []
  },
  {
    "postal": "M5V7T6",
    "result": []
  },
  {
    "postal": "M5V3X0",
    "result": []
  },
  {
    "postal": "M5V2T0",
    "result": []
  },
  {
    "postal": "M5V5X9",
    "result": []
  },
  {
    "postal": "M5V2R3",
    "result": [
      {
        "electoralDistricts": [
          {
            "election": null,
            "id": 101,
            "name": "Spadina—Fort York"
          }
        ],
        "pollDivisionIds": [
          10141951
        ],
        "postalCode": "M5V2R3",
        "streetName": "BATHURST",
        "streetDirectionId": null,
        "streetTypeId": "ST",
        "placeName": "TORONTO",
        "streetNameDisplayText": "BATHURST ST, TORONTO"
      }
    ]
  },
  {
    "postal": "M5V5N2",
    "result": []
  },
  {
    "postal": "M5V4Y7",
    "result": []
  },
  {
    "postal": "M5V7M0",
    "result": []
  },
  {
    "postal": "M5V8P3",
    "result": []
  },
  {
    "postal": "M5V3N3",
    "result": [
      {
        "electoralDistricts": [
          {
            "election": null,
            "id": 101,
            "name": "Spadina—Fort York"
          }
        ],
        "pollDivisionIds": [
          10141952
        ],
        "postalCode": "M5V3N3",
        "streetName": "CAMDEN",
        "streetDirectionId": null,
        "streetTypeId": "ST",
        "placeName": "TORONTO",
        "streetNameDisplayText": "CAMDEN ST, TORONTO"
      }
    ]
  },
  {
    "postal": "M5V7S3",
    "result": []
  },
  {
    "postal": "M5V3V9",
    "result": [
      {
        "electoralDistricts": [
          {
            "election": null,
            "id": 101,
            "name": "Spadina—Fort York"
          }
        ],
        "pollDivisionIds": [
          10141963
        ],
        "postalCode": "M5V3V9",
        "streetName": "MARINER",
        "streetDirectionId": null,
        "streetTypeId": "TERR",
        "placeName": "TORONTO",
        "streetNameDisplayText": "MARINER TERR, TORONTO"
      }
    ]
  },
  {
    "postal": "M5V9N7",
    "result": []
  },
  {
    "postal": "M5V0G4",
    "result": [
      {
        "electoralDistricts": [
          {
            "election": null,
            "id": 101,
            "name": "Spadina—Fort York"
          }
        ],
        "pollDivisionIds": [
          10141940,
          10141952
        ],
        "postalCode": "M5V0G4",
        "streetName": "CAMDEN",
        "streetDirectionId": null,
        "streetTypeId": "ST",
        "placeName": "TORONTO",
        "streetNameDisplayText": "CAMDEN ST, TORONTO"
      }
    ]
  },
  {
    "postal": "M5V2E2",
    "result": [
      {
        "electoralDistricts": [
          {
            "election": null,
            "id": 101,
            "name": "Spadina—Fort York"
          }
        ],
        "pollDivisionIds": [
          10141959
        ],
        "postalCode": "M5V2E2",
        "streetName": "JOHN",
        "streetDirectionId": null,
        "streetTypeId": "ST",
        "placeName": "TORONTO",
        "streetNameDisplayText": "JOHN ST, TORONTO"
      }
    ]
  },
  {
    "postal": "M5V7W8",
    "result": []
  },
  {
    "postal": "M5V7M5",
    "result": []
  },
  {
    "postal": "M5V5W8",
    "result": []
  },
  {
    "postal": "M5V5E5",
    "result": []
  },
  {
    "postal": "M5V1P9",
    "result": [
      {
        "electoralDistricts": [
          {
            "election": null,
            "id": 101,
            "name": "Spadina—Fort York"
          }
        ],
        "pollDivisionIds": [
          10141959
        ],
        "postalCode": "M5V1P9",
        "streetName": "ADELAIDE",
        "streetDirectionId": "W",
        "streetTypeId": "ST",
        "placeName": "TORONTO",
        "streetNameDisplayText": "ADELAIDE ST W, TORONTO"
      }
    ]
  },
  {
    "postal": "M5V8V8",
    "result": []
  },
  {
    "postal": "M5V9G8",
    "result": []
  },
  {
    "postal": "M5V8H9",
    "result": []
  },
  {
    "postal": "M5V1Z1",
    "result": [
      {
        "electoralDistricts": [
          {
            "election": null,
            "id": 101,
            "name": "Spadina—Fort York"
          }
        ],
        "pollDivisionIds": [
          10141948
        ],
        "postalCode": "M5V1Z1",
        "streetName": "QUEEN",
        "streetDirectionId": "W",
        "streetTypeId": "ST",
        "placeName": "TORONTO",
        "streetNameDisplayText": "QUEEN ST W, TORONTO"
      }
    ]
  },
  {
    "postal": "M5V8M3",
    "result": []
  },
  {
    "postal": "M5V5H6",
    "result": []
  },
  {
    "postal": "M5V7W7",
    "result": []
  },
  {
    "postal": "M5V4L0",
    "result": []
  },
  {
    "postal": "M5V2N1",
    "result": []
  },
  {
    "postal": "M5V2H4",
    "result": []
  },
  {
    "postal": "M5V5C8",
    "result": []
  },
  {
    "postal": "M5V8B0",
    "result": []
  },
  {
    "postal": "M5V1T4",
    "result": [
      {
        "electoralDistricts": [
          {
            "election": null,
            "id": 101,
            "name": "Spadina—Fort York"
          }
        ],
        "pollDivisionIds": [
          10141951
        ],
        "postalCode": "M5V1T4",
        "streetName": "ADELAIDE",
        "streetDirectionId": "W",
        "streetTypeId": "ST",
        "placeName": "TORONTO",
        "streetNameDisplayText": "ADELAIDE ST W, TORONTO"
      }
    ]
  },
  {
    "postal": "M5V7N7",
    "result": []
  },
  {
    "postal": "M5V4L3",
    "result": []
  },
  {
    "postal": "M5V2N2",
    "result": [
      {
        "electoralDistricts": [
          {
            "election": null,
            "id": 29,
            "name": "Etobicoke—Lakeshore"
          }
        ],
        "pollDivisionIds": [
          10143883
        ],
        "postalCode": "M5V2N2",
        "streetName": "PORTLAND",
        "streetDirectionId": null,
        "streetTypeId": "ST",
        "placeName": "ETOBICOKE",
        "streetNameDisplayText": "PORTLAND ST, ETOBICOKE"
      },
      {
        "electoralDistricts": [
          {
            "election": null,
            "id": 101,
            "name": "Spadina—Fort York"
          },
          {
            "election": null,
            "id": 29,
            "name": "Etobicoke—Lakeshore"
          }
        ],
        "pollDivisionIds": [
          10141951,
          10143883
        ],
        "postalCode": "M5V2N2",
        "streetName": "PORTLAND",
        "streetDirectionId": null,
        "streetTypeId": "ST",
        "placeName": "TORONTO",
        "streetNameDisplayText": "PORTLAND ST, TORONTO"
      }
    ]
  },
  {
    "postal": "M5V4N8",
    "result": []
  },
  {
    "postal": "M5V3M5",
    "result": [
      {
        "electoralDistricts": [
          {
            "election": null,
            "id": 101,
            "name": "Spadina—Fort York"
          }
        ],
        "pollDivisionIds": [
          10141958,
          10141959
        ],
        "postalCode": "M5V3M5",
        "streetName": "SPADINA",
        "streetDirectionId": null,
        "streetTypeId": "AVE",
        "placeName": "TORONTO",
        "streetNameDisplayText": "SPADINA AVE, TORONTO"
      }
    ]
  },
  {
    "postal": "M5V6H7",
    "result": []
  },
  {
    "postal": "M5V8Y8",
    "result": []
  },
  {
    "postal": "M5V5R9",
    "result": []
  },
  {
    "postal": "M5V8G3",
    "result": []
  },
  {
    "postal": "M5V4N7",
    "result": []
  },
  {
    "postal": "M5V0B9",
    "result": []
  },
  {
    "postal": "M5V9K7",
    "result": []
  },
  {
    "postal": "M5V9K9",
    "result": []
  },
  {
    "postal": "M5V3Z2",
    "result": []
  },
  {
    "postal": "M5V6W7",
    "result": []
  },
  {
    "postal": "M5V0P1",
    "result": [
      {
        "electoralDistricts": [
          {
            "election": null,
            "id": 101,
            "name": "Spadina—Fort York"
          }
        ],
        "pollDivisionIds": [
          10141959
        ],
        "postalCode": "M5V0P1",
        "streetName": "PETER",
        "streetDirectionId": null,
        "streetTypeId": "ST",
        "placeName": "TORONTO",
        "streetNameDisplayText": "PETER ST, TORONTO"
      }
    ]
  },
  {
    "postal": "M5V3A0",
    "result": []
  },
  {
    "postal": "M5V8L9",
    "result": []
  },
  {
    "postal": "M5V6X0",
    "result": []
  },
  {
    "postal": "M5V3E9",
    "result": []
  },
  {
    "postal": "M5V0S5",
    "result": []
  },
  {
    "postal": "M5V1A2",
    "result": [
      {
        "electoralDistricts": [
          {
            "election": null,
            "id": 101,
            "name": "Spadina—Fort York"
          }
        ],
        "pollDivisionIds": [
          10141965
        ],
        "postalCode": "M5V1A2",
        "streetName": "QUEENS",
        "streetDirectionId": "W",
        "streetTypeId": "QUAY",
        "placeName": "TORONTO",
        "streetNameDisplayText": "QUEENS QUAY W, TORONTO"
      }
    ]
  },
  {
    "postal": "M5V5V8",
    "result": []
  },
  {
    "postal": "M5V8C5",
    "result": []
  },
  {
    "postal": "M5V6N0",
    "result": []
  },
  {
    "postal": "M5V9E6",
    "result": []
  },
  {
    "postal": "M5V5J7",
    "result": []
  },
  {
    "postal": "M5V2R2",
    "result": [
      {
        "electoralDistricts": [
          {
            "election": null,
            "id": 101,
            "name": "Spadina—Fort York"
          }
        ],
        "pollDivisionIds": [
          10141951
        ],
        "postalCode": "M5V2R2",
        "streetName": "BATHURST",
        "streetDirectionId": null,
        "streetTypeId": "ST",
        "placeName": "TORONTO",
        "streetNameDisplayText": "BATHURST ST, TORONTO"
      }
    ]
  },
  {
    "postal": "M5V0P5",
    "result": [
      {
        "electoralDistricts": [
          {
            "election": null,
            "id": 101,
            "name": "Spadina—Fort York"
          }
        ],
        "pollDivisionIds": [
          10141959
        ],
        "postalCode": "M5V0P5",
        "streetName": "QUEEN",
        "streetDirectionId": "W",
        "streetTypeId": "ST",
        "placeName": "TORONTO",
        "streetNameDisplayText": "QUEEN ST W, TORONTO"
      }
    ]
  },
  {
    "postal": "M5V5A7",
    "result": []
  },
  {
    "postal": "M5V1G1",
    "result": [
      {
        "electoralDistricts": [
          {
            "election": null,
            "id": 101,
            "name": "Spadina—Fort York"
          }
        ],
        "pollDivisionIds": [
          10141958
        ],
        "postalCode": "M5V1G1",
        "streetName": "WELLINGTON",
        "streetDirectionId": "W",
        "streetTypeId": "ST",
        "placeName": "TORONTO",
        "streetNameDisplayText": "WELLINGTON ST W, TORONTO"
      }
    ]
  },
  {
    "postal": "M5V9R6",
    "result": []
  },
  {
    "postal": "M5V4Z9",
    "result": []
  },
  {
    "postal": "M5V1V5",
    "result": []
  },
  {
    "postal": "M5V9Y5",
    "result": []
  },
  {
    "postal": "M5V1P2",
    "result": [
      {
        "electoralDistricts": [
          {
            "election": null,
            "id": 101,
            "name": "Spadina—Fort York"
          }
        ],
        "pollDivisionIds": [
          10141957
        ],
        "postalCode": "M5V1P2",
        "streetName": "KING",
        "streetDirectionId": "W",
        "streetTypeId": "ST",
        "placeName": "TORONTO",
        "streetNameDisplayText": "KING ST W, TORONTO"
      }
    ]
  },
  {
    "postal": "M5V5X0",
    "result": []
  },
  {
    "postal": "M5V7B8",
    "result": []
  },
  {
    "postal": "M5V0C6",
    "result": []
  },
  {
    "postal": "M5V6G1",
    "result": []
  },
  {
    "postal": "M5V3K3",
    "result": [
      {
        "electoralDistricts": [
          {
            "election": null,
            "id": 101,
            "name": "Spadina—Fort York"
          }
        ],
        "pollDivisionIds": [
          10141951
        ],
        "postalCode": "M5V3K3",
        "streetName": "ADELAIDE",
        "streetDirectionId": null,
        "streetTypeId": "PL",
        "placeName": "TORONTO",
        "streetNameDisplayText": "ADELAIDE PL, TORONTO"
      },
      {
        "electoralDistricts": [
          {
            "election": null,
            "id": 109,
            "name": "Toronto Centre"
          }
        ],
        "pollDivisionIds": [
          10135203
        ],
        "postalCode": "M5V3K3",
        "streetName": "ADELAIDE",
        "streetDirectionId": "W",
        "streetTypeId": "ST",
        "placeName": "TORONTO",
        "streetNameDisplayText": "ADELAIDE ST W, TORONTO"
      }
    ]
  },
  {
    "postal": "M5V9R0",
    "result": []
  },
  {
    "postal": "M5V4R8",
    "result": []
  },
  {
    "postal": "M5V5P9",
    "result": []
  },
  {
    "postal": "M5V8N4",
    "result": []
  },
  {
    "postal": "M5V8H4",
    "result": []
  },
  {
    "postal": "M5V4V1",
    "result": []
  },
  {
    "postal": "M5V1K5",
    "result": [
      {
        "electoralDistricts": [
          {
            "election": null,
            "id": 101,
            "name": "Spadina—Fort York"
          }
        ],
        "pollDivisionIds": [
          10141940,
          10142021
        ],
        "postalCode": "M5V1K5",
        "streetName": "KING",
        "streetDirectionId": "W",
        "streetTypeId": "ST",
        "placeName": "TORONTO",
        "streetNameDisplayText": "KING ST W, TORONTO"
      }
    ]
  },
  {
    "postal": "M5V1Z5",
    "result": [
      {
        "electoralDistricts": [
          {
            "election": null,
            "id": 101,
            "name": "Spadina—Fort York"
          }
        ],
        "pollDivisionIds": [
          10141959
        ],
        "postalCode": "M5V1Z5",
        "streetName": "QUEEN",
        "streetDirectionId": "W",
        "streetTypeId": "ST",
        "placeName": "TORONTO",
        "streetNameDisplayText": "QUEEN ST W, TORONTO"
      }
    ]
  },
  {
    "postal": "M5V9L9",
    "result": []
  },
  {
    "postal": "M5V5L2",
    "result": []
  },
  {
    "postal": "M5V0M2",
    "result": [
      {
        "electoralDistricts": [
          {
            "election": null,
            "id": 101,
            "name": "Spadina—Fort York"
          }
        ],
        "pollDivisionIds": [
          10141959
        ],
        "postalCode": "M5V0M2",
        "streetName": "PETER",
        "streetDirectionId": null,
        "streetTypeId": "ST",
        "placeName": "TORONTO",
        "streetNameDisplayText": "PETER ST, TORONTO"
      }
    ]
  },
  {
    "postal": "M5V1K8",
    "result": []
  },
  {
    "postal": "M5V3M7",
    "result": [
      {
        "electoralDistricts": [
          {
            "election": null,
            "id": 101,
            "name": "Spadina—Fort York"
          }
        ],
        "pollDivisionIds": [
          10141951
        ],
        "postalCode": "M5V3M7",
        "streetName": "KING",
        "streetDirectionId": "W",
        "streetTypeId": "ST",
        "placeName": "TORONTO",
        "streetNameDisplayText": "KING ST W, TORONTO"
      }
    ]
  },
  {
    "postal": "M5V1B2",
    "result": [
      {
        "electoralDistricts": [
          {
            "election": null,
            "id": 101,
            "name": "Spadina—Fort York"
          }
        ],
        "pollDivisionIds": [
          10141964,
          10141958,
          10141993
        ],
        "postalCode": "M5V1B2",
        "streetName": "FORT YORK",
        "streetDirectionId": null,
        "streetTypeId": "BLVD",
        "placeName": "TORONTO",
        "streetNameDisplayText": "FORT YORK BLVD, TORONTO"
      }
    ]
  },
  {
    "postal": "M5V0H9",
    "result": [
      {
        "electoralDistricts": [
          {
            "election": null,
            "id": 101,
            "name": "Spadina—Fort York"
          }
        ],
        "pollDivisionIds": [
          10141964
        ],
        "postalCode": "M5V0H9",
        "streetName": "BRUYERES",
        "streetDirectionId": null,
        "streetTypeId": "MEWS",
        "placeName": "TORONTO",
        "streetNameDisplayText": "BRUYERES MEWS, TORONTO"
      }
    ]
  },
  {
    "postal": "M5V8M4",
    "result": []
  },
  {
    "postal": "M5V2M5",
    "result": [
      {
        "electoralDistricts": [
          {
            "election": null,
            "id": 101,
            "name": "Spadina—Fort York"
          }
        ],
        "pollDivisionIds": [
          10141951
        ],
        "postalCode": "M5V2M5",
        "streetName": "MAUD",
        "streetDirectionId": null,
        "streetTypeId": "ST",
        "placeName": "TORONTO",
        "streetNameDisplayText": "MAUD ST, TORONTO"
      }
    ]
  },
  {
    "postal": "M5V0T9",
    "result": []
  },
  {
    "postal": "M5V3P1",
    "result": [
      {
        "electoralDistricts": [
          {
            "election": null,
            "id": 101,
            "name": "Spadina—Fort York"
          }
        ],
        "pollDivisionIds": [
          10141959
        ],
        "postalCode": "M5V3P1",
        "streetName": "RICHMOND",
        "streetDirectionId": "W",
        "streetTypeId": "ST",
        "placeName": "TORONTO",
        "streetNameDisplayText": "RICHMOND ST W, TORONTO"
      }
    ]
  },
  {
    "postal": "M5V1R6",
    "result": []
  },
  {
    "postal": "M5V9V5",
    "result": []
  },
  {
    "postal": "M5V9T0",
    "result": []
  },
  {
    "postal": "M5V0A9",
    "result": [
      {
        "electoralDistricts": [
          {
            "election": null,
            "id": 101,
            "name": "Spadina—Fort York"
          }
        ],
        "pollDivisionIds": [
          10141951,
          10141988
        ],
        "postalCode": "M5V0A9",
        "streetName": "TECUMSETH",
        "streetDirectionId": null,
        "streetTypeId": "ST",
        "placeName": "TORONTO",
        "streetNameDisplayText": "TECUMSETH ST, TORONTO"
      }
    ]
  },
  {
    "postal": "M5V1M3",
    "result": [
      {
        "electoralDistricts": [
          {
            "election": null,
            "id": 101,
            "name": "Spadina—Fort York"
          }
        ],
        "pollDivisionIds": [
          10141951
        ],
        "postalCode": "M5V1M3",
        "streetName": "KING",
        "streetDirectionId": "W",
        "streetTypeId": "ST",
        "placeName": "TORONTO",
        "streetNameDisplayText": "KING ST W, TORONTO"
      }
    ]
  },
  {
    "postal": "M5V1W8",
    "result": []
  },
  {
    "postal": "M5V9J1",
    "result": []
  },
  {
    "postal": "M5V8N5",
    "result": []
  },
  {
    "postal": "M5V5X1",
    "result": []
  },
  {
    "postal": "M5V6S2",
    "result": []
  },
  {
    "postal": "M5V2A2",
    "result": [
      {
        "electoralDistricts": [
          {
            "election": null,
            "id": 101,
            "name": "Spadina—Fort York"
          }
        ],
        "pollDivisionIds": [
          10141945
        ],
        "postalCode": "M5V2A2",
        "streetName": "QUEEN",
        "streetDirectionId": "W",
        "streetTypeId": "ST",
        "placeName": "TORONTO",
        "streetNameDisplayText": "QUEEN ST W, TORONTO"
      }
    ]
  },
  {
    "postal": "M5V6A6",
    "result": []
  },
  {
    "postal": "M5V0S3",
    "result": []
  },
  {
    "postal": "M5V3E7",
    "result": [
      {
        "electoralDistricts": [
          {
            "election": null,
            "id": 101,
            "name": "Spadina—Fort York"
          }
        ],
        "pollDivisionIds": [
          10141952
        ],
        "postalCode": "M5V3E7",
        "streetName": "RICHMOND",
        "streetDirectionId": "W",
        "streetTypeId": "ST",
        "placeName": "TORONTO",
        "streetNameDisplayText": "RICHMOND ST W, TORONTO"
      }
    ]
  },
  {
    "postal": "M5V5R7",
    "result": []
  },
  {
    "postal": "M5V3R6",
    "result": []
  },
  {
    "postal": "M5V6K4",
    "result": []
  },
  {
    "postal": "M5V2W5",
    "result": []
  },
  {
    "postal": "M5V8W4",
    "result": []
  },
  {
    "postal": "M5V9C2",
    "result": []
  },
  {
    "postal": "M5V2C0",
    "result": []
  },
  {
    "postal": "M5V0E1",
    "result": [
      {
        "electoralDistricts": [
          {
            "election": null,
            "id": 101,
            "name": "Spadina—Fort York"
          }
        ],
        "pollDivisionIds": [
          10141958
        ],
        "postalCode": "M5V0E1",
        "streetName": "FORT YORK",
        "streetDirectionId": null,
        "streetTypeId": "BLVD",
        "placeName": "TORONTO",
        "streetNameDisplayText": "FORT YORK BLVD, TORONTO"
      }
    ]
  },
  {
    "postal": "M5V1K9",
    "result": []
  },
  {
    "postal": "M5V1G7",
    "result": []
  },
  {
    "postal": "M5V4E9",
    "result": []
  },
  {
    "postal": "M5V9P0",
    "result": []
  },
  {
    "postal": "M5V5H3",
    "result": []
  },
  {
    "postal": "M5V9X6",
    "result": []
  },
  {
    "postal": "M5V5N7",
    "result": []
  },
  {
    "postal": "M5V5A6",
    "result": []
  },
  {
    "postal": "M5V4M0",
    "result": []
  },
  {
    "postal": "M5V3V6",
    "result": [
      {
        "electoralDistricts": [
          {
            "election": null,
            "id": 101,
            "name": "Spadina—Fort York"
          }
        ],
        "pollDivisionIds": [
          10141963
        ],
        "postalCode": "M5V3V6",
        "streetName": "MARINER",
        "streetDirectionId": null,
        "streetTypeId": "TERR",
        "placeName": "TORONTO",
        "streetNameDisplayText": "MARINER TERR, TORONTO"
      }
    ]
  },
  {
    "postal": "M5V1L7",
    "result": [
      {
        "electoralDistricts": [
          {
            "election": null,
            "id": 101,
            "name": "Spadina—Fort York"
          }
        ],
        "pollDivisionIds": [
          10141952
        ],
        "postalCode": "M5V1L7",
        "streetName": "KING",
        "streetDirectionId": "W",
        "streetTypeId": "ST",
        "placeName": "TORONTO",
        "streetNameDisplayText": "KING ST W, TORONTO"
      }
    ]
  },
  {
    "postal": "M5V2P9",
    "result": [
      {
        "electoralDistricts": [
          {
            "election": null,
            "id": 101,
            "name": "Spadina—Fort York"
          }
        ],
        "pollDivisionIds": [
          10141951
        ],
        "postalCode": "M5V2P9",
        "streetName": "BATHURST",
        "streetDirectionId": null,
        "streetTypeId": "ST",
        "placeName": "TORONTO",
        "streetNameDisplayText": "BATHURST ST, TORONTO"
      }
    ]
  },
  {
    "postal": "M5V5T4",
    "result": []
  },
  {
    "postal": "M5V5Z1",
    "result": []
  },
  {
    "postal": "M5V2X0",
    "result": []
  },
  {
    "postal": "M5V6Z2",
    "result": []
  },
  {
    "postal": "M5V0E0",
    "result": []
  },
  {
    "postal": "M5V3Z5",
    "result": [
      {
        "electoralDistricts": [
          {
            "election": null,
            "id": 101,
            "name": "Spadina—Fort York"
          }
        ],
        "pollDivisionIds": [
          10142010,
          10142009
        ],
        "postalCode": "M5V3Z5",
        "streetName": "TELEGRAM",
        "streetDirectionId": null,
        "streetTypeId": "MEWS",
        "placeName": "TORONTO",
        "streetNameDisplayText": "TELEGRAM MEWS, TORONTO"
      }
    ]
  },
  {
    "postal": "M5V8H3",
    "result": []
  },
  {
    "postal": "M5V7S6",
    "result": []
  },
  {
    "postal": "M5V4C1",
    "result": []
  },
  {
    "postal": "M5V3K2",
    "result": [
      {
        "electoralDistricts": [
          {
            "election": null,
            "id": 101,
            "name": "Spadina—Fort York"
          }
        ],
        "pollDivisionIds": [
          10141959
        ],
        "postalCode": "M5V3K2",
        "streetName": "FRONT",
        "streetDirectionId": "W",
        "streetTypeId": "ST",
        "placeName": "TORONTO",
        "streetNameDisplayText": "FRONT ST W, TORONTO"
      }
    ]
  },
  {
    "postal": "M5V1Y5",
    "result": [
      {
        "electoralDistricts": [
          {
            "election": null,
            "id": 101,
            "name": "Spadina—Fort York"
          }
        ],
        "pollDivisionIds": [
          10141940,
          10141951
        ],
        "postalCode": "M5V1Y5",
        "streetName": "RICHMOND",
        "streetDirectionId": "W",
        "streetTypeId": "ST",
        "placeName": "TORONTO",
        "streetNameDisplayText": "RICHMOND ST W, TORONTO"
      }
    ]
  },
  {
    "postal": "M5V6P6",
    "result": []
  },
  {
    "postal": "M5V3N9",
    "result": [
      {
        "electoralDistricts": [
          {
            "election": null,
            "id": 101,
            "name": "Spadina—Fort York"
          }
        ],
        "pollDivisionIds": [
          10141958
        ],
        "postalCode": "M5V3N9",
        "streetName": "NIAGARA",
        "streetDirectionId": null,
        "streetTypeId": "ST",
        "placeName": "TORONTO",
        "streetNameDisplayText": "NIAGARA ST, TORONTO"
      }
    ]
  },
  {
    "postal": "M5V3W2",
    "result": [
      {
        "electoralDistricts": [
          {
            "election": null,
            "id": 101,
            "name": "Spadina—Fort York"
          }
        ],
        "pollDivisionIds": [
          10141959
        ],
        "postalCode": "M5V3W2",
        "streetName": "JOHN",
        "streetDirectionId": null,
        "streetTypeId": "ST",
        "placeName": "TORONTO",
        "streetNameDisplayText": "JOHN ST, TORONTO"
      }
    ]
  },
  {
    "postal": "M5V6H8",
    "result": []
  },
  {
    "postal": "M5V9T3",
    "result": []
  },
  {
    "postal": "M5V5L9",
    "result": []
  },
  {
    "postal": "M5V7X7",
    "result": []
  },
  {
    "postal": "M5V3J5",
    "result": []
  },
  {
    "postal": "M5V4J5",
    "result": []
  },
  {
    "postal": "M5V6J2",
    "result": []
  },
  {
    "postal": "M5V5V6",
    "result": []
  },
  {
    "postal": "M5V3N2",
    "result": [
      {
        "electoralDistricts": [
          {
            "election": null,
            "id": 101,
            "name": "Spadina—Fort York"
          }
        ],
        "pollDivisionIds": [
          10141964,
          10142003
        ],
        "postalCode": "M5V3N2",
        "streetName": "QUEENS",
        "streetDirectionId": "W",
        "streetTypeId": "QUAY",
        "placeName": "TORONTO",
        "streetNameDisplayText": "QUEENS QUAY W, TORONTO"
      },
      {
        "electoralDistricts": [
          {
            "election": null,
            "id": 101,
            "name": "Spadina—Fort York"
          }
        ],
        "pollDivisionIds": [
          10141943
        ],
        "postalCode": "M5V3N2",
        "streetName": "QUEEN'S",
        "streetDirectionId": "W",
        "streetTypeId": "QUAY",
        "placeName": "TORONTO",
        "streetNameDisplayText": "QUEEN'S QUAY W, TORONTO"
      }
    ]
  },
  {
    "postal": "M5V3B1",
    "result": [
      {
        "electoralDistricts": [
          {
            "election": null,
            "id": 101,
            "name": "Spadina—Fort York"
          }
        ],
        "pollDivisionIds": [
          10141951
        ],
        "postalCode": "M5V3B1",
        "streetName": "RICHMOND",
        "streetDirectionId": "W",
        "streetTypeId": "ST",
        "placeName": "TORONTO",
        "streetNameDisplayText": "RICHMOND ST W, TORONTO"
      }
    ]
  },
  {
    "postal": "M5V8B5",
    "result": []
  },
  {
    "postal": "M5V0K1",
    "result": []
  },
  {
    "postal": "M5V7M7",
    "result": []
  },
  {
    "postal": "M5V2M2",
    "result": []
  },
  {
    "postal": "M5V9N3",
    "result": []
  },
  {
    "postal": "M5V4Y8",
    "result": []
  },
  {
    "postal": "M5V3V7",
    "result": [
      {
        "electoralDistricts": [
          {
            "election": null,
            "id": 101,
            "name": "Spadina—Fort York"
          }
        ],
        "pollDivisionIds": [
          10141963
        ],
        "postalCode": "M5V3V7",
        "streetName": "MARINER",
        "streetDirectionId": null,
        "streetTypeId": "TERR",
        "placeName": "TORONTO",
        "streetNameDisplayText": "MARINER TERR, TORONTO"
      }
    ]
  },
  {
    "postal": "M5V8Z1",
    "result": []
  },
  {
    "postal": "M5V7B3",
    "result": []
  },
  {
    "postal": "M5V3A8",
    "result": [
      {
        "electoralDistricts": [
          {
            "election": null,
            "id": 101,
            "name": "Spadina—Fort York"
          }
        ],
        "pollDivisionIds": [
          10141959
        ],
        "postalCode": "M5V3A8",
        "streetName": "RICHMOND",
        "streetDirectionId": "W",
        "streetTypeId": "ST",
        "placeName": "TORONTO",
        "streetNameDisplayText": "RICHMOND ST W, TORONTO"
      }
    ]
  },
  {
    "postal": "M5V7V5",
    "result": []
  },
  {
    "postal": "M5V2T2",
    "result": []
  },
  {
    "postal": "M5V6L3",
    "result": []
  },
  {
    "postal": "M5V0L2",
    "result": []
  },
  {
    "postal": "M5V5Y8",
    "result": []
  },
  {
    "postal": "M5V0B8",
    "result": [
      {
        "electoralDistricts": [
          {
            "election": null,
            "id": 101,
            "name": "Spadina—Fort York"
          }
        ],
        "pollDivisionIds": [
          10142023
        ],
        "postalCode": "M5V0B8",
        "streetName": "WIDMER",
        "streetDirectionId": null,
        "streetTypeId": "ST",
        "placeName": "TORONTO",
        "streetNameDisplayText": "WIDMER ST, TORONTO"
      }
    ]
  },
  {
    "postal": "M5V6R5",
    "result": []
  },
  {
    "postal": "M5V8W6",
    "result": []
  },
  {
    "postal": "M5V8G6",
    "result": []
  },
  {
    "postal": "M5V6X3",
    "result": []
  },
  {
    "postal": "M5V7R7",
    "result": []
  },
  {
    "postal": "M5V4B6",
    "result": []
  },
  {
    "postal": "M5V3P9",
    "result": [
      {
        "electoralDistricts": [
          {
            "election": null,
            "id": 101,
            "name": "Spadina—Fort York"
          }
        ],
        "pollDivisionIds": [
          10141959
        ],
        "postalCode": "M5V3P9",
        "streetName": "WELLINGTON",
        "streetDirectionId": "W",
        "streetTypeId": "ST",
        "placeName": "TORONTO",
        "streetNameDisplayText": "WELLINGTON ST W, TORONTO"
      }
    ]
  },
  {
    "postal": "M5V2T3",
    "result": [
      {
        "electoralDistricts": [
          {
            "election": null,
            "id": 101,
            "name": "Spadina—Fort York"
          }
        ],
        "pollDivisionIds": [
          10141951
        ],
        "postalCode": "M5V2T3",
        "streetName": "KING",
        "streetDirectionId": "W",
        "streetTypeId": "ST",
        "placeName": "TORONTO",
        "streetNameDisplayText": "KING ST W, TORONTO"
      }
    ]
  },
  {
    "postal": "M5V1M4",
    "result": []
  },
  {
    "postal": "M5V0H1",
    "result": [
      {
        "electoralDistricts": [
          {
            "election": null,
            "id": 101,
            "name": "Spadina—Fort York"
          }
        ],
        "pollDivisionIds": [
          10141951
        ],
        "postalCode": "M5V0H1",
        "streetName": "STEWART",
        "streetDirectionId": null,
        "streetTypeId": "ST",
        "placeName": "TORONTO",
        "streetNameDisplayText": "STEWART ST, TORONTO"
      }
    ]
  },
  {
    "postal": "M5V9W3",
    "result": []
  },
  {
    "postal": "M5V6P1",
    "result": []
  },
  {
    "postal": "M5V7G2",
    "result": []
  },
  {
    "postal": "M5V4J9",
    "result": []
  },
  {
    "postal": "M5V9E4",
    "result": []
  },
  {
    "postal": "M5V8H0",
    "result": []
  },
  {
    "postal": "M5V4M7",
    "result": []
  },
  {
    "postal": "M5V2G9",
    "result": [
      {
        "electoralDistricts": [
          {
            "election": null,
            "id": 101,
            "name": "Spadina—Fort York"
          }
        ],
        "pollDivisionIds": [
          10141959
        ],
        "postalCode": "M5V2G9",
        "streetName": "PETER",
        "streetDirectionId": null,
        "streetTypeId": "ST",
        "placeName": "TORONTO",
        "streetNameDisplayText": "PETER ST, TORONTO"
      }
    ]
  },
  {
    "postal": "M5V8T2",
    "result": []
  },
  {
    "postal": "M5V7G7",
    "result": []
  },
  {
    "postal": "M5V4Z3",
    "result": []
  },
  {
    "postal": "M5V5B3",
    "result": []
  },
  {
    "postal": "M5V1S7",
    "result": [
      {
        "electoralDistricts": [
          {
            "election": null,
            "id": 101,
            "name": "Spadina—Fort York"
          }
        ],
        "pollDivisionIds": [
          10141952
        ],
        "postalCode": "M5V1S7",
        "streetName": "ADELAIDE",
        "streetDirectionId": "W",
        "streetTypeId": "ST",
        "placeName": "TORONTO",
        "streetNameDisplayText": "ADELAIDE ST W, TORONTO"
      }
    ]
  },
  {
    "postal": "M5V2N7",
    "result": [
      {
        "electoralDistricts": [
          {
            "election": null,
            "id": 101,
            "name": "Spadina—Fort York"
          }
        ],
        "pollDivisionIds": [
          10141951
        ],
        "postalCode": "M5V2N7",
        "streetName": "ADELAIDE",
        "streetDirectionId": null,
        "streetTypeId": "PL",
        "placeName": "TORONTO",
        "streetNameDisplayText": "ADELAIDE PL, TORONTO"
      }
    ]
  },
  {
    "postal": "M5V0H8",
    "result": [
      {
        "electoralDistricts": [
          {
            "election": null,
            "id": 101,
            "name": "Spadina—Fort York"
          }
        ],
        "pollDivisionIds": [
          10141964
        ],
        "postalCode": "M5V0H8",
        "streetName": "BRUYERES",
        "streetDirectionId": null,
        "streetTypeId": "MEWS",
        "placeName": "TORONTO",
        "streetNameDisplayText": "BRUYERES MEWS, TORONTO"
      }
    ]
  },
  {
    "postal": "M5V7Z4",
    "result": []
  },
  {
    "postal": "M5V7B1",
    "result": []
  },
  {
    "postal": "M5V7P8",
    "result": []
  },
  {
    "postal": "M5V7N0",
    "result": []
  },
  {
    "postal": "M5V3Y5",
    "result": []
  },
  {
    "postal": "M5V6K1",
    "result": []
  },
  {
    "postal": "M5V9X5",
    "result": []
  },
  {
    "postal": "M5V7S5",
    "result": []
  },
  {
    "postal": "M5V0A4",
    "result": []
  },
  {
    "postal": "M5V4T5",
    "result": []
  },
  {
    "postal": "M5V5K1",
    "result": []
  },
  {
    "postal": "M5V0Z9",
    "result": []
  },
  {
    "postal": "M5V7T2",
    "result": []
  },
  {
    "postal": "M5V1L5",
    "result": []
  },
  {
    "postal": "M5V3N5",
    "result": [
      {
        "electoralDistricts": [
          {
            "election": null,
            "id": 101,
            "name": "Spadina—Fort York"
          }
        ],
        "pollDivisionIds": [
          10141958
        ],
        "postalCode": "M5V3N5",
        "streetName": "FRONT",
        "streetDirectionId": "W",
        "streetTypeId": "ST",
        "placeName": "TORONTO",
        "streetNameDisplayText": "FRONT ST W, TORONTO"
      }
    ]
  },
  {
    "postal": "M5V6H4",
    "result": []
  },
  {
    "postal": "M5V5A5",
    "result": []
  },
  {
    "postal": "M5V3R9",
    "result": [
      {
        "electoralDistricts": [
          {
            "election": null,
            "id": 101,
            "name": "Spadina—Fort York"
          }
        ],
        "pollDivisionIds": [
          10141962
        ],
        "postalCode": "M5V3R9",
        "streetName": "FRONT",
        "streetDirectionId": "W",
        "streetTypeId": "ST",
        "placeName": "TORONTO",
        "streetNameDisplayText": "FRONT ST W, TORONTO"
      }
    ]
  },
  {
    "postal": "M5V7L8",
    "result": []
  },
  {
    "postal": "M5V6T6",
    "result": []
  },
  {
    "postal": "M5V7Y7",
    "result": []
  },
  {
    "postal": "M5V3M8",
    "result": [
      {
        "electoralDistricts": [
          {
            "election": null,
            "id": 101,
            "name": "Spadina—Fort York"
          }
        ],
        "pollDivisionIds": [
          10141964,
          10141958
        ],
        "postalCode": "M5V3M8",
        "streetName": "QUEENS",
        "streetDirectionId": "W",
        "streetTypeId": "QUAY",
        "placeName": "TORONTO",
        "streetNameDisplayText": "QUEENS QUAY W, TORONTO"
      },
      {
        "electoralDistricts": [
          {
            "election": null,
            "id": 101,
            "name": "Spadina—Fort York"
          }
        ],
        "pollDivisionIds": [
          10141958,
          10141964
        ],
        "postalCode": "M5V3M8",
        "streetName": "QUEEN'S",
        "streetDirectionId": "W",
        "streetTypeId": "QUAY",
        "placeName": "TORONTO",
        "streetNameDisplayText": "QUEEN'S QUAY W, TORONTO"
      }
    ]
  },
  {
    "postal": "M5V2E0",
    "result": []
  },
  {
    "postal": "M5V4B5",
    "result": []
  },
  {
    "postal": "M5V1J3",
    "result": [
      {
        "electoralDistricts": [
          {
            "election": null,
            "id": 101,
            "name": "Spadina—Fort York"
          }
        ],
        "pollDivisionIds": [
          10141959
        ],
        "postalCode": "M5V1J3",
        "streetName": "BLUE JAYS",
        "streetDirectionId": null,
        "streetTypeId": "WAY",
        "placeName": "TORONTO",
        "streetNameDisplayText": "BLUE JAYS WAY, TORONTO"
      }
    ]
  },
  {
    "postal": "M5V5S6",
    "result": []
  },
  {
    "postal": "M5V8P7",
    "result": []
  },
  {
    "postal": "M5V7S7",
    "result": []
  },
  {
    "postal": "M5V4C2",
    "result": []
  },
  {
    "postal": "M5V5Y0",
    "result": []
  },
  {
    "postal": "M5V2V7",
    "result": []
  },
  {
    "postal": "M5V8P5",
    "result": []
  },
  {
    "postal": "M5V5P5",
    "result": []
  },
  {
    "postal": "M5V5Z0",
    "result": []
  },
  {
    "postal": "M5V9B0",
    "result": []
  },
  {
    "postal": "M5V1L0",
    "result": []
  },
  {
    "postal": "M5V0B5",
    "result": [
      {
        "electoralDistricts": [
          {
            "election": null,
            "id": 101,
            "name": "Spadina—Fort York"
          }
        ],
        "pollDivisionIds": [
          10141952
        ],
        "postalCode": "M5V0B5",
        "streetName": "WELLINGTON",
        "streetDirectionId": "W",
        "streetTypeId": "ST",
        "placeName": "TORONTO",
        "streetNameDisplayText": "WELLINGTON ST W, TORONTO"
      }
    ]
  },
  {
    "postal": "M5V3L2",
    "result": []
  },
  {
    "postal": "M5V3B7",
    "result": []
  },
  {
    "postal": "M5V8L1",
    "result": []
  },
  {
    "postal": "M5V5M4",
    "result": []
  },
  {
    "postal": "M5V4G9",
    "result": []
  },
  {
    "postal": "M5V0P0",
    "result": []
  },
  {
    "postal": "M5V8G2",
    "result": []
  },
  {
    "postal": "M5V1V9",
    "result": []
  },
  {
    "postal": "M5V8N8",
    "result": []
  },
  {
    "postal": "M5V6S8",
    "result": []
  },
  {
    "postal": "M5V8H2",
    "result": []
  },
  {
    "postal": "M5V5R8",
    "result": []
  },
  {
    "postal": "M5V5L4",
    "result": []
  },
  {
    "postal": "M5V9E1",
    "result": []
  },
  {
    "postal": "M5V1C4",
    "result": []
  },
  {
    "postal": "M5V8W5",
    "result": []
  },
  {
    "postal": "M5V1Y4",
    "result": [
      {
        "electoralDistricts": [
          {
            "election": null,
            "id": 101,
            "name": "Spadina—Fort York"
          }
        ],
        "pollDivisionIds": [
          10141951
        ],
        "postalCode": "M5V1Y4",
        "streetName": "RICHMOND",
        "streetDirectionId": "W",
        "streetTypeId": "ST",
        "placeName": "TORONTO",
        "streetNameDisplayText": "RICHMOND ST W, TORONTO"
      }
    ]
  },
  {
    "postal": "M5V1C0",
    "result": []
  },
  {
    "postal": "M5V2J2",
    "result": [
      {
        "electoralDistricts": [
          {
            "election": null,
            "id": 101,
            "name": "Spadina—Fort York"
          }
        ],
        "pollDivisionIds": [
          10141959
        ],
        "postalCode": "M5V2J2",
        "streetName": "SPADINA",
        "streetDirectionId": null,
        "streetTypeId": "AVE",
        "placeName": "TORONTO",
        "streetNameDisplayText": "SPADINA AVE, TORONTO"
      }
    ]
  },
  {
    "postal": "M5V2J0",
    "result": []
  },
  {
    "postal": "M5V7A3",
    "result": []
  },
  {
    "postal": "M5V8M1",
    "result": []
  },
  {
    "postal": "M5V7T9",
    "result": []
  },
  {
    "postal": "M5V6C0",
    "result": []
  },
  {
    "postal": "M5V7X1",
    "result": []
  },
  {
    "postal": "M5V0G1",
    "result": [
      {
        "electoralDistricts": [
          {
            "election": null,
            "id": 101,
            "name": "Spadina—Fort York"
          }
        ],
        "pollDivisionIds": [
          10141951
        ],
        "postalCode": "M5V0G1",
        "streetName": "PORTLAND",
        "streetDirectionId": null,
        "streetTypeId": "ST",
        "placeName": "TORONTO",
        "streetNameDisplayText": "PORTLAND ST, TORONTO"
      }
    ]
  },
  {
    "postal": "M5V4X2",
    "result": []
  },
  {
    "postal": "M5V0N6",
    "result": []
  },
  {
    "postal": "M5V8E3",
    "result": []
  },
  {
    "postal": "M5V5S8",
    "result": []
  },
  {
    "postal": "M5V0R0",
    "result": []
  },
  {
    "postal": "M5V6J6",
    "result": []
  },
  {
    "postal": "M5V4B4",
    "result": []
  },
  {
    "postal": "M5V7E3",
    "result": []
  },
  {
    "postal": "M5V3N6",
    "result": [
      {
        "electoralDistricts": [
          {
            "election": null,
            "id": 101,
            "name": "Spadina—Fort York"
          }
        ],
        "pollDivisionIds": [
          10141958
        ],
        "postalCode": "M5V3N6",
        "streetName": "PORTLAND",
        "streetDirectionId": null,
        "streetTypeId": "ST",
        "placeName": "TORONTO",
        "streetNameDisplayText": "PORTLAND ST, TORONTO"
      }
    ]
  },
  {
    "postal": "M5V3X6",
    "result": [
      {
        "electoralDistricts": [
          {
            "election": null,
            "id": 101,
            "name": "Spadina—Fort York"
          },
          {
            "election": null,
            "id": 29,
            "name": "Etobicoke—Lakeshore"
          }
        ],
        "pollDivisionIds": [
          10141943,
          10143883,
          10141957
        ],
        "postalCode": "M5V3X6",
        "streetName": "STAFFORD",
        "streetDirectionId": null,
        "streetTypeId": "ST",
        "placeName": "TORONTO",
        "streetNameDisplayText": "STAFFORD ST, TORONTO"
      }
    ]
  },
  {
    "postal": "M5V8L0",
    "result": []
  },
  {
    "postal": "M5V8N1",
    "result": []
  },
  {
    "postal": "M5V4J0",
    "result": []
  },
  {
    "postal": "M5V0X7",
    "result": []
  },
  {
    "postal": "M5V6S4",
    "result": []
  },
  {
    "postal": "M5V0Z0",
    "result": []
  },
  {
    "postal": "M5V9X8",
    "result": []
  },
  {
    "postal": "M5V3H3",
    "result": [
      {
        "electoralDistricts": [
          {
            "election": null,
            "id": 101,
            "name": "Spadina—Fort York"
          }
        ],
        "pollDivisionIds": [
          10141958
        ],
        "postalCode": "M5V3H3",
        "streetName": "FRONT",
        "streetDirectionId": "W",
        "streetTypeId": "ST",
        "placeName": "TORONTO",
        "streetNameDisplayText": "FRONT ST W, TORONTO"
      }
    ]
  },
  {
    "postal": "M5V7S2",
    "result": []
  },
  {
    "postal": "M5V3T3",
    "result": [
      {
        "electoralDistricts": [
          {
            "election": null,
            "id": 101,
            "name": "Spadina—Fort York"
          }
        ],
        "pollDivisionIds": [
          10141959
        ],
        "postalCode": "M5V3T3",
        "streetName": "BLUE JAYS",
        "streetDirectionId": null,
        "streetTypeId": "WAY",
        "placeName": "TORONTO",
        "streetNameDisplayText": "BLUE JAYS WAY, TORONTO"
      }
    ]
  },
  {
    "postal": "M5V9P3",
    "result": []
  },
  {
    "postal": "M5V4H8",
    "result": []
  },
  {
    "postal": "M5V6R1",
    "result": []
  },
  {
    "postal": "M5V1S0",
    "result": []
  },
  {
    "postal": "M5V3W8",
    "result": [
      {
        "electoralDistricts": [
          {
            "election": null,
            "id": 101,
            "name": "Spadina—Fort York"
          }
        ],
        "pollDivisionIds": [
          10141940,
          10141951
        ],
        "postalCode": "M5V3W8",
        "streetName": "ADELAIDE",
        "streetDirectionId": "W",
        "streetTypeId": "ST",
        "placeName": "TORONTO",
        "streetNameDisplayText": "ADELAIDE ST W, TORONTO"
      }
    ]
  },
  {
    "postal": "M5V4S3",
    "result": []
  },
  {
    "postal": "M5V1B6",
    "result": [
      {
        "electoralDistricts": [
          {
            "election": null,
            "id": 101,
            "name": "Spadina—Fort York"
          }
        ],
        "pollDivisionIds": [
          10141952
        ],
        "postalCode": "M5V1B6",
        "streetName": "FRONT",
        "streetDirectionId": "W",
        "streetTypeId": "ST",
        "placeName": "TORONTO",
        "streetNameDisplayText": "FRONT ST W, TORONTO"
      }
    ]
  },
  {
    "postal": "M5V8R3",
    "result": []
  },
  {
    "postal": "M5V4V9",
    "result": []
  },
  {
    "postal": "M5V9W4",
    "result": []
  },
  {
    "postal": "M5V3T4",
    "result": [
      {
        "electoralDistricts": [
          {
            "election": null,
            "id": 101,
            "name": "Spadina—Fort York"
          }
        ],
        "pollDivisionIds": [
          10141959
        ],
        "postalCode": "M5V3T4",
        "streetName": "WELLINGTON",
        "streetDirectionId": "W",
        "streetTypeId": "ST",
        "placeName": "TORONTO",
        "streetNameDisplayText": "WELLINGTON ST W, TORONTO"
      }
    ]
  },
  {
    "postal": "M5V5C7",
    "result": []
  },
  {
    "postal": "M5V3Y1",
    "result": [
      {
        "electoralDistricts": [
          {
            "election": null,
            "id": 101,
            "name": "Spadina—Fort York"
          }
        ],
        "pollDivisionIds": [
          10141951
        ],
        "postalCode": "M5V3Y1",
        "streetName": "RICHMOND",
        "streetDirectionId": "W",
        "streetTypeId": "ST",
        "placeName": "TORONTO",
        "streetNameDisplayText": "RICHMOND ST W, TORONTO"
      }
    ]
  },
  {
    "postal": "M5V5V0",
    "result": []
  },
  {
    "postal": "M5V8G8",
    "result": []
  },
  {
    "postal": "M5V8B1",
    "result": []
  },
  {
    "postal": "M5V4P5",
    "result": []
  },
  {
    "postal": "M5V7B2",
    "result": []
  },
  {
    "postal": "M5V0R2",
    "result": []
  },
  {
    "postal": "M5V4M4",
    "result": []
  },
  {
    "postal": "M5V7M4",
    "result": []
  },
  {
    "postal": "M5V9S7",
    "result": []
  },
  {
    "postal": "M5V5Z7",
    "result": []
  },
  {
    "postal": "M5V7J7",
    "result": []
  },
  {
    "postal": "M5V8R8",
    "result": []
  },
  {
    "postal": "M5V9X1",
    "result": []
  },
  {
    "postal": "M5V5M9",
    "result": []
  },
  {
    "postal": "M5V9B4",
    "result": []
  },
  {
    "postal": "M5V0L9",
    "result": []
  },
  {
    "postal": "M5V9G4",
    "result": []
  },
  {
    "postal": "M5V1J4",
    "result": [
      {
        "electoralDistricts": [
          {
            "election": null,
            "id": 101,
            "name": "Spadina—Fort York"
          }
        ],
        "pollDivisionIds": [
          10141959
        ],
        "postalCode": "M5V1J4",
        "streetName": "BLUE JAYS",
        "streetDirectionId": null,
        "streetTypeId": "WAY",
        "placeName": "TORONTO",
        "streetNameDisplayText": "BLUE JAYS WAY, TORONTO"
      }
    ]
  },
  {
    "postal": "M5V0W6",
    "result": []
  },
  {
    "postal": "M5V4C5",
    "result": []
  },
  {
    "postal": "M5V7E4",
    "result": []
  },
  {
    "postal": "M5V1R9",
    "result": [
      {
        "electoralDistricts": [
          {
            "election": null,
            "id": 101,
            "name": "Spadina—Fort York"
          }
        ],
        "pollDivisionIds": [
          10141959
        ],
        "postalCode": "M5V1R9",
        "streetName": "ADELAIDE",
        "streetDirectionId": "W",
        "streetTypeId": "ST",
        "placeName": "TORONTO",
        "streetNameDisplayText": "ADELAIDE ST W, TORONTO"
      }
    ]
  },
  {
    "postal": "M5V2P0",
    "result": []
  },
  {
    "postal": "M5V5S4",
    "result": []
  },
  {
    "postal": "M5V5K8",
    "result": []
  },
  {
    "postal": "M5V8K4",
    "result": []
  },
  {
    "postal": "M5V7C1",
    "result": []
  },
  {
    "postal": "M5V7K9",
    "result": []
  },
  {
    "postal": "M5V5J1",
    "result": []
  },
  {
    "postal": "M5V4P9",
    "result": []
  },
  {
    "postal": "M5V0N2",
    "result": []
  },
  {
    "postal": "M5V2G6",
    "result": []
  },
  {
    "postal": "M5V6P4",
    "result": []
  },
  {
    "postal": "M5V3J0",
    "result": []
  },
  {
    "postal": "M5V8X4",
    "result": []
  },
  {
    "postal": "M5V1Y3",
    "result": [
      {
        "electoralDistricts": [
          {
            "election": null,
            "id": 101,
            "name": "Spadina—Fort York"
          }
        ],
        "pollDivisionIds": [
          10141951
        ],
        "postalCode": "M5V1Y3",
        "streetName": "RICHMOND",
        "streetDirectionId": "W",
        "streetTypeId": "ST",
        "placeName": "TORONTO",
        "streetNameDisplayText": "RICHMOND ST W, TORONTO"
      }
    ]
  },
  {
    "postal": "M5V1A8",
    "result": [
      {
        "electoralDistricts": [
          {
            "election": null,
            "id": 101,
            "name": "Spadina—Fort York"
          }
        ],
        "pollDivisionIds": [
          10141964
        ],
        "postalCode": "M5V1A8",
        "streetName": "BASTION",
        "streetDirectionId": null,
        "streetTypeId": "ST",
        "placeName": "TORONTO",
        "streetNameDisplayText": "BASTION ST, TORONTO"
      },
      {
        "electoralDistricts": [
          {
            "election": null,
            "id": 101,
            "name": "Spadina—Fort York"
          }
        ],
        "pollDivisionIds": [
          10141996
        ],
        "postalCode": "M5V1A8",
        "streetName": "FLEET",
        "streetDirectionId": null,
        "streetTypeId": "ST",
        "placeName": "TORONTO",
        "streetNameDisplayText": "FLEET ST, TORONTO"
      }
    ]
  },
  {
    "postal": "M5V6Y5",
    "result": []
  },
  {
    "postal": "M5V0J6",
    "result": []
  },
  {
    "postal": "M5V2C9",
    "result": []
  },
  {
    "postal": "M5V8J6",
    "result": []
  },
  {
    "postal": "M5V8T4",
    "result": []
  },
  {
    "postal": "M5V1P7",
    "result": [
      {
        "electoralDistricts": [
          {
            "election": null,
            "id": 101,
            "name": "Spadina—Fort York"
          }
        ],
        "pollDivisionIds": [
          10141959
        ],
        "postalCode": "M5V1P7",
        "streetName": "ADELAIDE",
        "streetDirectionId": "W",
        "streetTypeId": "ST",
        "placeName": "TORONTO",
        "streetNameDisplayText": "ADELAIDE ST W, TORONTO"
      }
    ]
  },
  {
    "postal": "M5V9V9",
    "result": []
  },
  {
    "postal": "M5V0M1",
    "result": []
  },
  {
    "postal": "M5V6K5",
    "result": []
  },
  {
    "postal": "M5V2T5",
    "result": []
  },
  {
    "postal": "M5V7E9",
    "result": []
  },
  {
    "postal": "M5V5K5",
    "result": []
  },
  {
    "postal": "M5V3R5",
    "result": [
      {
        "electoralDistricts": [
          {
            "election": null,
            "id": 109,
            "name": "Toronto Centre"
          }
        ],
        "pollDivisionIds": [
          10135202
        ],
        "postalCode": "M5V3R5",
        "streetName": "FRONT",
        "streetDirectionId": "E",
        "streetTypeId": "ST",
        "placeName": "TORONTO",
        "streetNameDisplayText": "FRONT ST E, TORONTO"
      },
      {
        "electoralDistricts": [
          {
            "election": null,
            "id": 101,
            "name": "Spadina—Fort York"
          }
        ],
        "pollDivisionIds": [
          10141959,
          10141962
        ],
        "postalCode": "M5V3R5",
        "streetName": "FRONT",
        "streetDirectionId": "W",
        "streetTypeId": "ST",
        "placeName": "TORONTO",
        "streetNameDisplayText": "FRONT ST W, TORONTO"
      },
      {
        "electoralDistricts": [
          {
            "election": null,
            "id": 101,
            "name": "Spadina—Fort York"
          }
        ],
        "pollDivisionIds": [
          10141962,
          10141942
        ],
        "postalCode": "M5V3R5",
        "streetName": "FRONT ST.",
        "streetDirectionId": "W",
        "streetTypeId": "ST",
        "placeName": "TORONTO",
        "streetNameDisplayText": "FRONT ST. ST W, TORONTO"
      }
    ]
  },
  {
    "postal": "M5V5B1",
    "result": []
  },
  {
    "postal": "M5V2P1",
    "result": [
      {
        "electoralDistricts": [
          {
            "election": null,
            "id": 101,
            "name": "Spadina—Fort York"
          }
        ],
        "pollDivisionIds": [
          10141958
        ],
        "postalCode": "M5V2P1",
        "streetName": "BATHURST",
        "streetDirectionId": null,
        "streetTypeId": "ST",
        "placeName": "TORONTO",
        "streetNameDisplayText": "BATHURST ST, TORONTO"
      }
    ]
  },
  {
    "postal": "M5V7L0",
    "result": []
  },
  {
    "postal": "M5V3L6",
    "result": [
      {
        "electoralDistricts": [
          {
            "election": null,
            "id": 101,
            "name": "Spadina—Fort York"
          }
        ],
        "pollDivisionIds": [
          10141948
        ],
        "postalCode": "M5V3L6",
        "streetName": "QUEEN",
        "streetDirectionId": "W",
        "streetTypeId": "ST",
        "placeName": "TORONTO",
        "streetNameDisplayText": "QUEEN ST W, TORONTO"
      }
    ]
  },
  {
    "postal": "M5V2A4",
    "result": [
      {
        "electoralDistricts": [
          {
            "election": null,
            "id": 101,
            "name": "Spadina—Fort York"
          }
        ],
        "pollDivisionIds": [
          10141959
        ],
        "postalCode": "M5V2A4",
        "streetName": "QUEEN",
        "streetDirectionId": "W",
        "streetTypeId": "ST",
        "placeName": "TORONTO",
        "streetNameDisplayText": "QUEEN ST W, TORONTO"
      }
    ]
  },
  {
    "postal": "M5V8S0",
    "result": []
  },
  {
    "postal": "M5V3L5",
    "result": [
      {
        "electoralDistricts": [
          {
            "election": null,
            "id": 101,
            "name": "Spadina—Fort York"
          }
        ],
        "pollDivisionIds": [
          10141988,
          10141957
        ],
        "postalCode": "M5V3L5",
        "streetName": "KING",
        "streetDirectionId": "W",
        "streetTypeId": "ST",
        "placeName": "TORONTO",
        "streetNameDisplayText": "KING ST W, TORONTO"
      }
    ]
  },
  {
    "postal": "M5V2R5",
    "result": []
  },
  {
    "postal": "M5V9T6",
    "result": []
  },
  {
    "postal": "M5V8Z2",
    "result": []
  },
  {
    "postal": "M5V0E9",
    "result": [
      {
        "electoralDistricts": [
          {
            "election": null,
            "id": 101,
            "name": "Spadina—Fort York"
          }
        ],
        "pollDivisionIds": [
          10142018
        ],
        "postalCode": "M5V0E9",
        "streetName": "FRONT",
        "streetDirectionId": "W",
        "streetTypeId": "ST",
        "placeName": "TORONTO",
        "streetNameDisplayText": "FRONT ST W, TORONTO"
      }
    ]
  },
  {
    "postal": "M5V8C0",
    "result": []
  },
  {
    "postal": "M5V3K7",
    "result": [
      {
        "electoralDistricts": [
          {
            "election": null,
            "id": 101,
            "name": "Spadina—Fort York"
          }
        ],
        "pollDivisionIds": [
          10141959
        ],
        "postalCode": "M5V3K7",
        "streetName": "WELLINGTON",
        "streetDirectionId": "W",
        "streetTypeId": "ST",
        "placeName": "TORONTO",
        "streetNameDisplayText": "WELLINGTON ST W, TORONTO"
      }
    ]
  },
  {
    "postal": "M5V2H3",
    "result": [
      {
        "electoralDistricts": [
          {
            "election": null,
            "id": 101,
            "name": "Spadina—Fort York"
          }
        ],
        "pollDivisionIds": [
          10141959
        ],
        "postalCode": "M5V2H3",
        "streetName": "PETER",
        "streetDirectionId": null,
        "streetTypeId": "ST",
        "placeName": "TORONTO",
        "streetNameDisplayText": "PETER ST, TORONTO"
      }
    ]
  },
  {
    "postal": "M5V2Y6",
    "result": [
      {
        "electoralDistricts": [
          {
            "election": null,
            "id": 101,
            "name": "Spadina—Fort York"
          }
        ],
        "pollDivisionIds": [
          10141951
        ],
        "postalCode": "M5V2Y6",
        "streetName": "KING",
        "streetDirectionId": "W",
        "streetTypeId": "ST",
        "placeName": "TORONTO",
        "streetNameDisplayText": "KING ST W, TORONTO"
      }
    ]
  },
  {
    "postal": "M5V7M2",
    "result": []
  },
  {
    "postal": "M5V6E2",
    "result": []
  },
  {
    "postal": "M5V3R0",
    "result": []
  },
  {
    "postal": "M5V4J7",
    "result": []
  },
  {
    "postal": "M5V6N8",
    "result": []
  },
  {
    "postal": "M5V0J7",
    "result": []
  },
  {
    "postal": "M5V7P2",
    "result": []
  },
  {
    "postal": "M5V3T8",
    "result": []
  },
  {
    "postal": "M5V3S7",
    "result": []
  },
  {
    "postal": "M5V2S7",
    "result": []
  },
  {
    "postal": "M5V1S4",
    "result": [
      {
        "electoralDistricts": [
          {
            "election": null,
            "id": 101,
            "name": "Spadina—Fort York"
          }
        ],
        "pollDivisionIds": [
          10141952
        ],
        "postalCode": "M5V1S4",
        "streetName": "ADELAIDE",
        "streetDirectionId": "W",
        "streetTypeId": "ST",
        "placeName": "TORONTO",
        "streetNameDisplayText": "ADELAIDE ST W, TORONTO"
      },
      {
        "electoralDistricts": [
          {
            "election": null,
            "id": 101,
            "name": "Spadina—Fort York"
          }
        ],
        "pollDivisionIds": [
          10141952
        ],
        "postalCode": "M5V1S4",
        "streetName": "SPADINA",
        "streetDirectionId": null,
        "streetTypeId": "AVE",
        "placeName": "TORONTO",
        "streetNameDisplayText": "SPADINA AVE, TORONTO"
      }
    ]
  },
  {
    "postal": "M5V1L8",
    "result": [
      {
        "electoralDistricts": [
          {
            "election": null,
            "id": 101,
            "name": "Spadina—Fort York"
          }
        ],
        "pollDivisionIds": [
          10141952
        ],
        "postalCode": "M5V1L8",
        "streetName": "KING",
        "streetDirectionId": "W",
        "streetTypeId": "ST",
        "placeName": "TORONTO",
        "streetNameDisplayText": "KING ST W, TORONTO"
      }
    ]
  },
  {
    "postal": "M5V8E9",
    "result": []
  },
  {
    "postal": "M5V0T0",
    "result": []
  },
  {
    "postal": "M5V3G4",
    "result": []
  },
  {
    "postal": "M5V0V6",
    "result": []
  },
  {
    "postal": "M5V4W1",
    "result": []
  },
  {
    "postal": "M5V9G9",
    "result": [
      {
        "electoralDistricts": [
          {
            "election": null,
            "id": 101,
            "name": "Spadina—Fort York"
          }
        ],
        "pollDivisionIds": [
          10141959
        ],
        "postalCode": "M5V9G9",
        "streetName": "BLUE JAYS",
        "streetDirectionId": null,
        "streetTypeId": "WAY",
        "placeName": "TORONTO",
        "streetNameDisplayText": "BLUE JAYS WAY, TORONTO"
      }
    ]
  },
  {
    "postal": "M5V5W4",
    "result": []
  },
  {
    "postal": "M5V7M8",
    "result": []
  },
  {
    "postal": "M5V2C2",
    "result": []
  },
  {
    "postal": "M5V4Y2",
    "result": []
  },
  {
    "postal": "M5V9X9",
    "result": []
  },
  {
    "postal": "M5V3T0",
    "result": []
  },
  {
    "postal": "M5V4T8",
    "result": []
  },
  {
    "postal": "M5V9C4",
    "result": []
  },
  {
    "postal": "M5V8P2",
    "result": []
  },
  {
    "postal": "M5V0Y8",
    "result": []
  },
  {
    "postal": "M5V1G8",
    "result": [
      {
        "electoralDistricts": [
          {
            "election": null,
            "id": 101,
            "name": "Spadina—Fort York"
          }
        ],
        "pollDivisionIds": [
          10141957
        ],
        "postalCode": "M5V1G8",
        "streetName": "WELLINGTON",
        "streetDirectionId": "W",
        "streetTypeId": "ST",
        "placeName": "TORONTO",
        "streetNameDisplayText": "WELLINGTON ST W, TORONTO"
      }
    ]
  },
  {
    "postal": "M5V2T6",
    "result": [
      {
        "electoralDistricts": [
          {
            "election": null,
            "id": 101,
            "name": "Spadina—Fort York"
          }
        ],
        "pollDivisionIds": [
          10141959
        ],
        "postalCode": "M5V2T6",
        "streetName": "FRONT",
        "streetDirectionId": "W",
        "streetTypeId": "ST",
        "placeName": "TORONTO",
        "streetNameDisplayText": "FRONT ST W, TORONTO"
      }
    ]
  },
  {
    "postal": "M5V1N7",
    "result": []
  },
  {
    "postal": "M5V0L6",
    "result": [
      {
        "electoralDistricts": [
          {
            "election": null,
            "id": 101,
            "name": "Spadina—Fort York"
          }
        ],
        "pollDivisionIds": [
          10141951
        ],
        "postalCode": "M5V0L6",
        "streetName": "ADELAIDE",
        "streetDirectionId": "W",
        "streetTypeId": "ST",
        "placeName": "TORONTO",
        "streetNameDisplayText": "ADELAIDE ST W, TORONTO"
      }
    ]
  },
  {
    "postal": "M5V9V4",
    "result": []
  },
  {
    "postal": "M5V2V1",
    "result": [
      {
        "electoralDistricts": [
          {
            "election": null,
            "id": 101,
            "name": "Spadina—Fort York"
          }
        ],
        "pollDivisionIds": [
          10141992,
          10141951
        ],
        "postalCode": "M5V2V1",
        "streetName": "STEWART",
        "streetDirectionId": null,
        "streetTypeId": "ST",
        "placeName": "TORONTO",
        "streetNameDisplayText": "STEWART ST, TORONTO"
      }
    ]
  },
  {
    "postal": "M5V3L8",
    "result": [
      {
        "electoralDistricts": [
          {
            "election": null,
            "id": 101,
            "name": "Spadina—Fort York"
          }
        ],
        "pollDivisionIds": [
          10141958
        ],
        "postalCode": "M5V3L8",
        "streetName": "NIAGARA",
        "streetDirectionId": null,
        "streetTypeId": "ST",
        "placeName": "TORONTO",
        "streetNameDisplayText": "NIAGARA ST, TORONTO"
      }
    ]
  },
  {
    "postal": "M5V2R8",
    "result": [
      {
        "electoralDistricts": [
          {
            "election": null,
            "id": 101,
            "name": "Spadina—Fort York"
          }
        ],
        "pollDivisionIds": [
          10141951
        ],
        "postalCode": "M5V2R8",
        "streetName": "TECUMSETH",
        "streetDirectionId": null,
        "streetTypeId": "ST",
        "placeName": "TORONTO",
        "streetNameDisplayText": "TECUMSETH ST, TORONTO"
      }
    ]
  },
  {
    "postal": "M5V5C1",
    "result": []
  },
  {
    "postal": "M5V4W3",
    "result": []
  },
  {
    "postal": "M5V5X5",
    "result": []
  },
  {
    "postal": "M5V9W5",
    "result": []
  },
  {
    "postal": "M5V3C4",
    "result": []
  },
  {
    "postal": "M5V1N6",
    "result": [
      {
        "electoralDistricts": [
          {
            "election": null,
            "id": 101,
            "name": "Spadina—Fort York"
          }
        ],
        "pollDivisionIds": [
          10141951
        ],
        "postalCode": "M5V1N6",
        "streetName": "KING",
        "streetDirectionId": "W",
        "streetTypeId": "ST",
        "placeName": "TORONTO",
        "streetNameDisplayText": "KING ST W, TORONTO"
      }
    ]
  },
  {
    "postal": "M5V9S9",
    "result": []
  },
  {
    "postal": "M5V9M2",
    "result": []
  },
  {
    "postal": "M5V8Y4",
    "result": []
  },
  {
    "postal": "M5V7S4",
    "result": []
  },
  {
    "postal": "M5V0K6",
    "result": []
  },
  {
    "postal": "M5V1W3",
    "result": []
  },
  {
    "postal": "M5V7R2",
    "result": []
  },
  {
    "postal": "M5V2Y9",
    "result": [
      {
        "electoralDistricts": [
          {
            "election": null,
            "id": 101,
            "name": "Spadina—Fort York"
          }
        ],
        "pollDivisionIds": [
          10141964
        ],
        "postalCode": "M5V2Y9",
        "streetName": "QUEENS",
        "streetDirectionId": "W",
        "streetTypeId": "QUAY",
        "placeName": "TORONTO",
        "streetNameDisplayText": "QUEENS QUAY W, TORONTO"
      },
      {
        "electoralDistricts": [
          {
            "election": null,
            "id": 101,
            "name": "Spadina—Fort York"
          }
        ],
        "pollDivisionIds": [
          10141964
        ],
        "postalCode": "M5V2Y9",
        "streetName": "QUEEN'S",
        "streetDirectionId": "W",
        "streetTypeId": "QUAY",
        "placeName": "TORONTO",
        "streetNameDisplayText": "QUEEN'S QUAY W, TORONTO"
      }
    ]
  },
  {
    "postal": "M5V7G4",
    "result": []
  },
  {
    "postal": "M5V7E5",
    "result": []
  },
  {
    "postal": "M5V9G2",
    "result": []
  },
  {
    "postal": "M5V7Y8",
    "result": []
  },
  {
    "postal": "M5V9V2",
    "result": []
  },
  {
    "postal": "M5V3T7",
    "result": [
      {
        "electoralDistricts": [
          {
            "election": null,
            "id": 101,
            "name": "Spadina—Fort York"
          }
        ],
        "pollDivisionIds": [
          10141964
        ],
        "postalCode": "M5V3T7",
        "streetName": "LAKE SHORE",
        "streetDirectionId": "W",
        "streetTypeId": "BLVD",
        "placeName": "TORONTO",
        "streetNameDisplayText": "LAKE SHORE BLVD W, TORONTO"
      }
    ]
  },
  {
    "postal": "M5V1H0",
    "result": []
  },
  {
    "postal": "M5V1M7",
    "result": [
      {
        "electoralDistricts": [
          {
            "election": null,
            "id": 101,
            "name": "Spadina—Fort York"
          }
        ],
        "pollDivisionIds": [
          10141951,
          10141956
        ],
        "postalCode": "M5V1M7",
        "streetName": "KING",
        "streetDirectionId": "W",
        "streetTypeId": "ST",
        "placeName": "TORONTO",
        "streetNameDisplayText": "KING ST W, TORONTO"
      }
    ]
  },
  {
    "postal": "M5V8V4",
    "result": []
  },
  {
    "postal": "M5V4M2",
    "result": []
  },
  {
    "postal": "M5V0X2",
    "result": []
  },
  {
    "postal": "M5V5Z4",
    "result": []
  },
  {
    "postal": "M5V6V4",
    "result": []
  },
  {
    "postal": "M5V8J3",
    "result": []
  },
  {
    "postal": "M5V8E5",
    "result": []
  },
  {
    "postal": "M5V2V5",
    "result": [
      {
        "electoralDistricts": [
          {
            "election": null,
            "id": 101,
            "name": "Spadina—Fort York"
          }
        ],
        "pollDivisionIds": [
          10141992,
          10141951
        ],
        "postalCode": "M5V2V5",
        "streetName": "WELLINGTON",
        "streetDirectionId": "W",
        "streetTypeId": "ST",
        "placeName": "TORONTO",
        "streetNameDisplayText": "WELLINGTON ST W, TORONTO"
      }
    ]
  },
  {
    "postal": "M5V7S1",
    "result": []
  },
  {
    "postal": "M5V6V3",
    "result": []
  },
  {
    "postal": "M5V2L8",
    "result": []
  },
  {
    "postal": "M5V9V0",
    "result": []
  },
  {
    "postal": "M5V3M4",
    "result": [
      {
        "electoralDistricts": [
          {
            "election": null,
            "id": 101,
            "name": "Spadina—Fort York"
          }
        ],
        "pollDivisionIds": [
          10141952
        ],
        "postalCode": "M5V3M4",
        "streetName": "KING",
        "streetDirectionId": "W",
        "streetTypeId": "ST",
        "placeName": "TORONTO",
        "streetNameDisplayText": "KING ST W, TORONTO"
      }
    ]
  },
  {
    "postal": "M5V5B2",
    "result": []
  },
  {
    "postal": "M5V3X5",
    "result": [
      {
        "electoralDistricts": [
          {
            "election": null,
            "id": 101,
            "name": "Spadina—Fort York"
          }
        ],
        "pollDivisionIds": [
          10142022
        ],
        "postalCode": "M5V3X5",
        "streetName": "JOHN",
        "streetDirectionId": "W",
        "streetTypeId": "ST",
        "placeName": "TORONTO",
        "streetNameDisplayText": "JOHN ST W, TORONTO"
      }
    ]
  },
  {
    "postal": "M5V9R7",
    "result": []
  },
  {
    "postal": "M5V2X2",
    "result": []
  },
  {
    "postal": "M5V8Z6",
    "result": []
  },
  {
    "postal": "M5V4R4",
    "result": []
  },
  {
    "postal": "M5V2R1",
    "result": []
  },
  {
    "postal": "M5V3R8",
    "result": [
      {
        "electoralDistricts": [
          {
            "election": null,
            "id": 101,
            "name": "Spadina—Fort York"
          }
        ],
        "pollDivisionIds": [
          10141943,
          10141962
        ],
        "postalCode": "M5V3R8",
        "streetName": "FRONT",
        "streetDirectionId": "W",
        "streetTypeId": "ST",
        "placeName": "TORONTO",
        "streetNameDisplayText": "FRONT ST W, TORONTO"
      },
      {
        "electoralDistricts": [
          {
            "election": null,
            "id": 101,
            "name": "Spadina—Fort York"
          }
        ],
        "pollDivisionIds": [
          10141962
        ],
        "postalCode": "M5V3R8",
        "streetName": "FRONT ST.",
        "streetDirectionId": "W",
        "streetTypeId": "ST",
        "placeName": "TORONTO",
        "streetNameDisplayText": "FRONT ST. ST W, TORONTO"
      }
    ]
  },
  {
    "postal": "M5V9A1",
    "result": []
  },
  {
    "postal": "M5V8L3",
    "result": []
  },
  {
    "postal": "M5V9K4",
    "result": []
  },
  {
    "postal": "M5V9S3",
    "result": []
  },
  {
    "postal": "M5V8N7",
    "result": []
  },
  {
    "postal": "M5V1C6",
    "result": [
      {
        "electoralDistricts": [
          {
            "election": null,
            "id": 101,
            "name": "Spadina—Fort York"
          }
        ],
        "pollDivisionIds": [
          10141957
        ],
        "postalCode": "M5V1C6",
        "streetName": "NIAGARA",
        "streetDirectionId": null,
        "streetTypeId": "ST",
        "placeName": "TORONTO",
        "streetNameDisplayText": "NIAGARA ST, TORONTO"
      }
    ]
  },
  {
    "postal": "M5V3Z8",
    "result": [
      {
        "electoralDistricts": [
          {
            "election": null,
            "id": 101,
            "name": "Spadina—Fort York"
          }
        ],
        "pollDivisionIds": [
          10141951
        ],
        "postalCode": "M5V3Z8",
        "streetName": "RICHMOND",
        "streetDirectionId": "W",
        "streetTypeId": "ST",
        "placeName": "TORONTO",
        "streetNameDisplayText": "RICHMOND ST W, TORONTO"
      }
    ]
  },
  {
    "postal": "M5V8G5",
    "result": []
  },
  {
    "postal": "M5V5R6",
    "result": []
  },
  {
    "postal": "M5V2W3",
    "result": []
  },
  {
    "postal": "M5V0A0",
    "result": []
  },
  {
    "postal": "M5V6P8",
    "result": []
  },
  {
    "postal": "M5V8N9",
    "result": []
  },
  {
    "postal": "M5V0S9",
    "result": []
  },
  {
    "postal": "M5V8G0",
    "result": []
  },
  {
    "postal": "M5V8C7",
    "result": []
  },
  {
    "postal": "M5V5X8",
    "result": []
  },
  {
    "postal": "M5V7E8",
    "result": []
  },
  {
    "postal": "M5V6X2",
    "result": []
  },
  {
    "postal": "M5V4C6",
    "result": []
  },
  {
    "postal": "M5V7H2",
    "result": []
  },
  {
    "postal": "M5V4R0",
    "result": []
  },
  {
    "postal": "M5V6J3",
    "result": []
  },
  {
    "postal": "M5V4B8",
    "result": []
  },
  {
    "postal": "M5V6H6",
    "result": []
  },
  {
    "postal": "M5V0S1",
    "result": []
  },
  {
    "postal": "M5V4E3",
    "result": []
  },
  {
    "postal": "M5V7K2",
    "result": []
  },
  {
    "postal": "M5V7T8",
    "result": []
  },
  {
    "postal": "M5V0J9",
    "result": [
      {
        "electoralDistricts": [
          {
            "election": null,
            "id": 101,
            "name": "Spadina—Fort York"
          }
        ],
        "pollDivisionIds": [
          10141958,
          10141964
        ],
        "postalCode": "M5V0J9",
        "streetName": "QUEENS WHARF",
        "streetDirectionId": null,
        "streetTypeId": "RD",
        "placeName": "TORONTO",
        "streetNameDisplayText": "QUEENS WHARF RD, TORONTO"
      },
      {
        "electoralDistricts": [
          {
            "election": null,
            "id": 101,
            "name": "Spadina—Fort York"
          }
        ],
        "pollDivisionIds": [
          10141958,
          10141942
        ],
        "postalCode": "M5V0J9",
        "streetName": "QUEENS WHARF RD.",
        "streetDirectionId": null,
        "streetTypeId": "RD",
        "placeName": "TORONTO",
        "streetNameDisplayText": "QUEENS WHARF RD. RD, TORONTO"
      }
    ]
  },
  {
    "postal": "M5V5J9",
    "result": []
  },
  {
    "postal": "M5V5S7",
    "result": []
  },
  {
    "postal": "M5V0G9",
    "result": [
      {
        "electoralDistricts": [
          {
            "election": null,
            "id": 101,
            "name": "Spadina—Fort York"
          }
        ],
        "pollDivisionIds": [
          10141952,
          10141951,
          10141940
        ],
        "postalCode": "M5V0G9",
        "streetName": "KING",
        "streetDirectionId": "W",
        "streetTypeId": "ST",
        "placeName": "TORONTO",
        "streetNameDisplayText": "KING ST W, TORONTO"
      },
      {
        "electoralDistricts": [
          {
            "election": null,
            "id": 101,
            "name": "Spadina—Fort York"
          }
        ],
        "pollDivisionIds": [
          10141951
        ],
        "postalCode": "M5V0G9",
        "streetName": "KING STREET WEST",
        "streetDirectionId": "W",
        "streetTypeId": "ST",
        "placeName": "TORONTO",
        "streetNameDisplayText": "KING STREET WEST ST W, TORONTO"
      }
    ]
  },
  {
    "postal": "M5V3J9",
    "result": []
  },
  {
    "postal": "M5V2Y0",
    "result": []
  },
  {
    "postal": "M5V8X5",
    "result": []
  },
  {
    "postal": "M5V2M7",
    "result": [
      {
        "electoralDistricts": [
          {
            "election": null,
            "id": 101,
            "name": "Spadina—Fort York"
          }
        ],
        "pollDivisionIds": [
          10141951,
          10141940
        ],
        "postalCode": "M5V2M7",
        "streetName": "PORTLAND",
        "streetDirectionId": null,
        "streetTypeId": "ST",
        "placeName": "TORONTO",
        "streetNameDisplayText": "PORTLAND ST, TORONTO"
      }
    ]
  },
  {
    "postal": "M5V9Z3",
    "result": []
  },
  {
    "postal": "M5V7W2",
    "result": []
  },
  {
    "postal": "M5V3W0",
    "result": []
  },
  {
    "postal": "M5V3M1",
    "result": [
      {
        "electoralDistricts": [
          {
            "election": null,
            "id": 101,
            "name": "Spadina—Fort York"
          }
        ],
        "pollDivisionIds": [
          10141959
        ],
        "postalCode": "M5V3M1",
        "streetName": "FRONT",
        "streetDirectionId": "W",
        "streetTypeId": "ST",
        "placeName": "TORONTO",
        "streetNameDisplayText": "FRONT ST W, TORONTO"
      }
    ]
  },
  {
    "postal": "M5V6A5",
    "result": []
  },
  {
    "postal": "M5V2M9",
    "result": [
      {
        "electoralDistricts": [
          {
            "election": null,
            "id": 29,
            "name": "Etobicoke—Lakeshore"
          }
        ],
        "pollDivisionIds": [
          10143883
        ],
        "postalCode": "M5V2M9",
        "streetName": "PORTLAND",
        "streetDirectionId": null,
        "streetTypeId": "ST",
        "placeName": "ETOBICOKE",
        "streetNameDisplayText": "PORTLAND ST, ETOBICOKE"
      },
      {
        "electoralDistricts": [
          {
            "election": null,
            "id": 101,
            "name": "Spadina—Fort York"
          }
        ],
        "pollDivisionIds": [
          10141952
        ],
        "postalCode": "M5V2M9",
        "streetName": "PORTLAND",
        "streetDirectionId": null,
        "streetTypeId": "ST",
        "placeName": "TORONTO",
        "streetNameDisplayText": "PORTLAND ST, TORONTO"
      }
    ]
  },
  {
    "postal": "M5V5C3",
    "result": []
  },
  {
    "postal": "M5V0Y6",
    "result": []
  },
  {
    "postal": "M5V9H7",
    "result": []
  },
  {
    "postal": "M5V3L0",
    "result": []
  },
  {
    "postal": "M5V5N9",
    "result": []
  },
  {
    "postal": "M5V5E3",
    "result": []
  },
  {
    "postal": "M5V7M9",
    "result": []
  },
  {
    "postal": "M5V8N2",
    "result": []
  },
  {
    "postal": "M5V9H3",
    "result": []
  },
  {
    "postal": "M5V2K8",
    "result": [
      {
        "electoralDistricts": [
          {
            "election": null,
            "id": 101,
            "name": "Spadina—Fort York"
          }
        ],
        "pollDivisionIds": [
          10141959
        ],
        "postalCode": "M5V2K8",
        "streetName": "SPADINA",
        "streetDirectionId": null,
        "streetTypeId": "AVE",
        "placeName": "TORONTO",
        "streetNameDisplayText": "SPADINA AVE, TORONTO"
      }
    ]
  },
  {
    "postal": "M5V9L0",
    "result": []
  },
  {
    "postal": "M5V6L9",
    "result": []
  },
  {
    "postal": "M5V6A8",
    "result": []
  },
  {
    "postal": "M5V2K6",
    "result": [
      {
        "electoralDistricts": [
          {
            "election": null,
            "id": 101,
            "name": "Spadina—Fort York"
          }
        ],
        "pollDivisionIds": [
          10141952
        ],
        "postalCode": "M5V2K6",
        "streetName": "SPADINA",
        "streetDirectionId": null,
        "streetTypeId": "AVE",
        "placeName": "TORONTO",
        "streetNameDisplayText": "SPADINA AVE, TORONTO"
      }
    ]
  },
  {
    "postal": "M5V2M0",
    "result": []
  },
  {
    "postal": "M5V5X7",
    "result": []
  },
  {
    "postal": "M5V0M7",
    "result": []
  },
  {
    "postal": "M5V7A6",
    "result": []
  },
  {
    "postal": "M5V3C5",
    "result": []
  },
  {
    "postal": "M5V2P2",
    "result": [
      {
        "electoralDistricts": [
          {
            "election": null,
            "id": 101,
            "name": "Spadina—Fort York"
          }
        ],
        "pollDivisionIds": [
          10141958
        ],
        "postalCode": "M5V2P2",
        "streetName": "BATHURST",
        "streetDirectionId": null,
        "streetTypeId": "ST",
        "placeName": "TORONTO",
        "streetNameDisplayText": "BATHURST ST, TORONTO"
      }
    ]
  },
  {
    "postal": "M5V9N4",
    "result": []
  },
  {
    "postal": "M5V3M9",
    "result": [
      {
        "electoralDistricts": [
          {
            "election": null,
            "id": 101,
            "name": "Spadina—Fort York"
          }
        ],
        "pollDivisionIds": [
          10141959
        ],
        "postalCode": "M5V3M9",
        "streetName": "BREMNER",
        "streetDirectionId": null,
        "streetTypeId": "BLVD",
        "placeName": "TORONTO",
        "streetNameDisplayText": "BREMNER BLVD, TORONTO"
      }
    ]
  },
  {
    "postal": "M5V8K6",
    "result": []
  },
  {
    "postal": "M5V1L2",
    "result": []
  },
  {
    "postal": "M5V2Z9",
    "result": [
      {
        "electoralDistricts": [
          {
            "election": null,
            "id": 101,
            "name": "Spadina—Fort York"
          }
        ],
        "pollDivisionIds": [
          10141964
        ],
        "postalCode": "M5V2Z9",
        "streetName": "BISHOP TUTU",
        "streetDirectionId": null,
        "streetTypeId": "BLVD",
        "placeName": "TORONTO",
        "streetNameDisplayText": "BISHOP TUTU BLVD, TORONTO"
      }
    ]
  },
  {
    "postal": "M5V2S2",
    "result": []
  },
  {
    "postal": "M5V2W2",
    "result": []
  },
  {
    "postal": "M5V2C3",
    "result": [
      {
        "electoralDistricts": [
          {
            "election": null,
            "id": 101,
            "name": "Spadina—Fort York"
          }
        ],
        "pollDivisionIds": [
          10141959
        ],
        "postalCode": "M5V2C3",
        "streetName": "DUNCAN",
        "streetDirectionId": null,
        "streetTypeId": "ST",
        "placeName": "TORONTO",
        "streetNameDisplayText": "DUNCAN ST, TORONTO"
      }
    ]
  },
  {
    "postal": "M5V6L7",
    "result": []
  },
  {
    "postal": "M5V3K0",
    "result": []
  },
  {
    "postal": "M5V3C1",
    "result": [
      {
        "electoralDistricts": [
          {
            "election": null,
            "id": 101,
            "name": "Spadina—Fort York"
          }
        ],
        "pollDivisionIds": [
          10141952
        ],
        "postalCode": "M5V3C1",
        "streetName": "ADELAIDE",
        "streetDirectionId": "W",
        "streetTypeId": "ST",
        "placeName": "TORONTO",
        "streetNameDisplayText": "ADELAIDE ST W, TORONTO"
      }
    ]
  },
  {
    "postal": "M5V6M9",
    "result": []
  },
  {
    "postal": "M5V4N9",
    "result": []
  },
  {
    "postal": "M5V3Y7",
    "result": []
  },
  {
    "postal": "M5V2A9",
    "result": [
      {
        "electoralDistricts": [
          {
            "election": null,
            "id": 101,
            "name": "Spadina—Fort York"
          }
        ],
        "pollDivisionIds": [
          10141952
        ],
        "postalCode": "M5V2A9",
        "streetName": "QUEEN",
        "streetDirectionId": "W",
        "streetTypeId": "ST",
        "placeName": "TORONTO",
        "streetNameDisplayText": "QUEEN ST W, TORONTO"
      }
    ]
  },
  {
    "postal": "M5V6H5",
    "result": []
  },
  {
    "postal": "M5V8B4",
    "result": []
  },
  {
    "postal": "M5V4Z2",
    "result": []
  },
  {
    "postal": "M5V9J0",
    "result": []
  },
  {
    "postal": "M5V7V7",
    "result": []
  },
  {
    "postal": "M5V5T5",
    "result": []
  },
  {
    "postal": "M5V4W5",
    "result": []
  },
  {
    "postal": "M5V1T8",
    "result": []
  },
  {
    "postal": "M5V9G6",
    "result": []
  },
  {
    "postal": "M5V1H3",
    "result": [
      {
        "electoralDistricts": [
          {
            "election": null,
            "id": 101,
            "name": "Spadina—Fort York"
          }
        ],
        "pollDivisionIds": [
          10141959
        ],
        "postalCode": "M5V1H3",
        "streetName": "MERCER",
        "streetDirectionId": null,
        "streetTypeId": "ST",
        "placeName": "TORONTO",
        "streetNameDisplayText": "MERCER ST, TORONTO"
      }
    ]
  },
  {
    "postal": "M5V5R5",
    "result": []
  },
  {
    "postal": "M5V8A4",
    "result": []
  },
  {
    "postal": "M5V3T6",
    "result": []
  },
  {
    "postal": "M5V9W8",
    "result": []
  },
  {
    "postal": "M5V0N3",
    "result": [
      {
        "electoralDistricts": [
          {
            "election": null,
            "id": 101,
            "name": "Spadina—Fort York"
          }
        ],
        "pollDivisionIds": [
          10141952
        ],
        "postalCode": "M5V0N3",
        "streetName": "RICHMOND",
        "streetDirectionId": "W",
        "streetTypeId": "ST",
        "placeName": "TORONTO",
        "streetNameDisplayText": "RICHMOND ST W, TORONTO"
      }
    ]
  },
  {
    "postal": "M5V7V0",
    "result": []
  },
  {
    "postal": "M5V8T5",
    "result": []
  },
  {
    "postal": "M5V5N3",
    "result": []
  },
  {
    "postal": "M5V5G9",
    "result": []
  },
  {
    "postal": "M5V3X8",
    "result": []
  },
  {
    "postal": "M5V9R3",
    "result": []
  },
  {
    "postal": "M5V2S1",
    "result": [
      {
        "electoralDistricts": [
          {
            "election": null,
            "id": 101,
            "name": "Spadina—Fort York"
          }
        ],
        "pollDivisionIds": [
          10141957
        ],
        "postalCode": "M5V2S1",
        "streetName": "WALNUT",
        "streetDirectionId": null,
        "streetTypeId": "AVE",
        "placeName": "TORONTO",
        "streetNameDisplayText": "WALNUT AVE, TORONTO"
      }
    ]
  },
  {
    "postal": "M5V9J7",
    "result": []
  },
  {
    "postal": "M5V2J3",
    "result": [
      {
        "electoralDistricts": [
          {
            "election": null,
            "id": 101,
            "name": "Spadina—Fort York"
          }
        ],
        "pollDivisionIds": [
          10141952
        ],
        "postalCode": "M5V2J3",
        "streetName": "SPADINA",
        "streetDirectionId": null,
        "streetTypeId": "AVE",
        "placeName": "TORONTO",
        "streetNameDisplayText": "SPADINA AVE, TORONTO"
      }
    ]
  },
  {
    "postal": "M5V3B6",
    "result": [
      {
        "electoralDistricts": [
          {
            "election": null,
            "id": 101,
            "name": "Spadina—Fort York"
          }
        ],
        "pollDivisionIds": [
          10141959
        ],
        "postalCode": "M5V3B6",
        "streetName": "FRONT",
        "streetDirectionId": "W",
        "streetTypeId": "ST",
        "placeName": "TORONTO",
        "streetNameDisplayText": "FRONT ST W, TORONTO"
      }
    ]
  },
  {
    "postal": "M5V8J0",
    "result": []
  },
  {
    "postal": "M5V7R4",
    "result": []
  },
  {
    "postal": "M5V8K8",
    "result": []
  },
  {
    "postal": "M5V4P3",
    "result": []
  },
  {
    "postal": "M5V0A2",
    "result": [
      {
        "electoralDistricts": [
          {
            "election": null,
            "id": 101,
            "name": "Spadina—Fort York"
          }
        ],
        "pollDivisionIds": [
          10141999,
          10141964
        ],
        "postalCode": "M5V0A2",
        "streetName": "IANNUZZI",
        "streetDirectionId": null,
        "streetTypeId": "ST",
        "placeName": "TORONTO",
        "streetNameDisplayText": "IANNUZZI ST, TORONTO"
      },
      {
        "electoralDistricts": [
          {
            "election": null,
            "id": 101,
            "name": "Spadina—Fort York"
          }
        ],
        "pollDivisionIds": [
          10141964
        ],
        "postalCode": "M5V0A2",
        "streetName": "IANNUZZI ST.",
        "streetDirectionId": null,
        "streetTypeId": "ST",
        "placeName": "TORONTO",
        "streetNameDisplayText": "IANNUZZI ST. ST, TORONTO"
      }
    ]
  },
  {
    "postal": "M5V2G2",
    "result": []
  },
  {
    "postal": "M5V5Y9",
    "result": []
  },
  {
    "postal": "M5V7X0",
    "result": []
  },
  {
    "postal": "M5V7W3",
    "result": []
  },
  {
    "postal": "M5V7X5",
    "result": []
  },
  {
    "postal": "M5V5K6",
    "result": []
  },
  {
    "postal": "M5V5B6",
    "result": []
  },
  {
    "postal": "M5V7Z0",
    "result": []
  },
  {
    "postal": "M5V9H6",
    "result": []
  },
  {
    "postal": "M5V1B4",
    "result": [
      {
        "electoralDistricts": [
          {
            "election": null,
            "id": 101,
            "name": "Spadina—Fort York"
          }
        ],
        "pollDivisionIds": [
          10141996
        ],
        "postalCode": "M5V1B4",
        "streetName": "GRAND MAGAZINE",
        "streetDirectionId": null,
        "streetTypeId": "ST",
        "placeName": "TORONTO",
        "streetNameDisplayText": "GRAND MAGAZINE ST, TORONTO"
      }
    ]
  },
  {
    "postal": "M5V1A0",
    "result": []
  },
  {
    "postal": "M5V9A0",
    "result": []
  },
  {
    "postal": "M5V1M6",
    "result": [
      {
        "electoralDistricts": [
          {
            "election": null,
            "id": 101,
            "name": "Spadina—Fort York"
          }
        ],
        "pollDivisionIds": [
          10141951
        ],
        "postalCode": "M5V1M6",
        "streetName": "KING",
        "streetDirectionId": "W",
        "streetTypeId": "ST",
        "placeName": "TORONTO",
        "streetNameDisplayText": "KING ST W, TORONTO"
      }
    ]
  },
  {
    "postal": "M5V5H0",
    "result": []
  },
  {
    "postal": "M5V1K6",
    "result": []
  },
  {
    "postal": "M5V5E1",
    "result": []
  },
  {
    "postal": "M5V3T9",
    "result": [
      {
        "electoralDistricts": [
          {
            "election": null,
            "id": 101,
            "name": "Spadina—Fort York"
          }
        ],
        "pollDivisionIds": [
          10141952,
          10142019
        ],
        "postalCode": "M5V3T9",
        "streetName": "KING",
        "streetDirectionId": "W",
        "streetTypeId": "ST",
        "placeName": "TORONTO",
        "streetNameDisplayText": "KING ST W, TORONTO"
      }
    ]
  },
  {
    "postal": "M5V2M6",
    "result": [
      {
        "electoralDistricts": [
          {
            "election": null,
            "id": 101,
            "name": "Spadina—Fort York"
          }
        ],
        "pollDivisionIds": [
          10141951
        ],
        "postalCode": "M5V2M6",
        "streetName": "PORTLAND",
        "streetDirectionId": null,
        "streetTypeId": "ST",
        "placeName": "TORONTO",
        "streetNameDisplayText": "PORTLAND ST, TORONTO"
      }
    ]
  },
  {
    "postal": "M5V0G5",
    "result": [
      {
        "electoralDistricts": [
          {
            "election": null,
            "id": 101,
            "name": "Spadina—Fort York"
          }
        ],
        "pollDivisionIds": [
          10142018
        ],
        "postalCode": "M5V0G5",
        "streetName": "JOHN",
        "streetDirectionId": null,
        "streetTypeId": "ST",
        "placeName": "TORONTO",
        "streetNameDisplayText": "JOHN ST, TORONTO"
      }
    ]
  },
  {
    "postal": "M5V0Y2",
    "result": []
  },
  {
    "postal": "M5V2Y7",
    "result": []
  },
  {
    "postal": "M5V2J7",
    "result": []
  },
  {
    "postal": "M5V4K7",
    "result": []
  },
  {
    "postal": "M5V7P9",
    "result": []
  },
  {
    "postal": "M5V8X0",
    "result": []
  },
  {
    "postal": "M5V3X1",
    "result": [
      {
        "electoralDistricts": [
          {
            "election": null,
            "id": 101,
            "name": "Spadina—Fort York"
          }
        ],
        "pollDivisionIds": [
          10141958,
          10141940,
          10141942
        ],
        "postalCode": "M5V3X1",
        "streetName": "NIAGARA",
        "streetDirectionId": null,
        "streetTypeId": "ST",
        "placeName": "TORONTO",
        "streetNameDisplayText": "NIAGARA ST, TORONTO"
      }
    ]
  },
  {
    "postal": "M5V1R5",
    "result": [
      {
        "electoralDistricts": [
          {
            "election": null,
            "id": 101,
            "name": "Spadina—Fort York"
          }
        ],
        "pollDivisionIds": [
          10141959
        ],
        "postalCode": "M5V1R5",
        "streetName": "ADELAIDE",
        "streetDirectionId": "W",
        "streetTypeId": "ST",
        "placeName": "TORONTO",
        "streetNameDisplayText": "ADELAIDE ST W, TORONTO"
      }
    ]
  },
  {
    "postal": "M5V6X6",
    "result": []
  },
  {
    "postal": "M5V0Y1",
    "result": []
  },
  {
    "postal": "M5V8G1",
    "result": []
  },
  {
    "postal": "M5V3J3",
    "result": [
      {
        "electoralDistricts": [
          {
            "election": null,
            "id": 101,
            "name": "Spadina—Fort York"
          }
        ],
        "pollDivisionIds": [
          10141967
        ],
        "postalCode": "M5V3J3",
        "streetName": "QUEENS",
        "streetDirectionId": "W",
        "streetTypeId": "QUAY",
        "placeName": "TORONTO",
        "streetNameDisplayText": "QUEENS QUAY W, TORONTO"
      }
    ]
  },
  {
    "postal": "M5V8C2",
    "result": []
  },
  {
    "postal": "M5V4X9",
    "result": []
  },
  {
    "postal": "M5V6G9",
    "result": []
  },
  {
    "postal": "M5V4M3",
    "result": []
  },
  {
    "postal": "M5V9P7",
    "result": []
  },
  {
    "postal": "M5V4E5",
    "result": []
  },
  {
    "postal": "M5V5K9",
    "result": []
  },
  {
    "postal": "M5V2V2",
    "result": []
  },
  {
    "postal": "M5V2N9",
    "result": [
      {
        "electoralDistricts": [
          {
            "election": null,
            "id": 101,
            "name": "Spadina—Fort York"
          }
        ],
        "pollDivisionIds": [
          10141964
        ],
        "postalCode": "M5V2N9",
        "streetName": "BATHURST",
        "streetDirectionId": null,
        "streetTypeId": "ST",
        "placeName": "TORONTO",
        "streetNameDisplayText": "BATHURST ST, TORONTO"
      }
    ]
  },
  {
    "postal": "M5V6L4",
    "result": []
  },
  {
    "postal": "M5V8E0",
    "result": []
  },
  {
    "postal": "M5V0N0",
    "result": []
  },
  {
    "postal": "M5V6R0",
    "result": []
  },
  {
    "postal": "M5V9C1",
    "result": []
  },
  {
    "postal": "M5V4H4",
    "result": []
  },
  {
    "postal": "M5V5W3",
    "result": []
  },
  {
    "postal": "M5V9N9",
    "result": []
  },
  {
    "postal": "M5V1V7",
    "result": []
  },
  {
    "postal": "M5V8J1",
    "result": []
  },
  {
    "postal": "M5V5V9",
    "result": []
  },
  {
    "postal": "M5V2S8",
    "result": []
  },
  {
    "postal": "M5V6P0",
    "result": []
  },
  {
    "postal": "M5V4J8",
    "result": []
  },
  {
    "postal": "M5V0N1",
    "result": []
  },
  {
    "postal": "M5V1Y7",
    "result": []
  },
  {
    "postal": "M5V7W5",
    "result": []
  },
  {
    "postal": "M5V3Z1",
    "result": [
      {
        "electoralDistricts": [
          {
            "election": null,
            "id": 101,
            "name": "Spadina—Fort York"
          }
        ],
        "pollDivisionIds": [
          10142011
        ],
        "postalCode": "M5V3Z1",
        "streetName": "TELEGRAM",
        "streetDirectionId": null,
        "streetTypeId": "MEWS",
        "placeName": "TORONTO",
        "streetNameDisplayText": "TELEGRAM MEWS, TORONTO"
      }
    ]
  },
  {
    "postal": "M5V7M6",
    "result": []
  },
  {
    "postal": "M5V1W7",
    "result": []
  },
  {
    "postal": "M5V1X1",
    "result": [
      {
        "electoralDistricts": [
          {
            "election": null,
            "id": 101,
            "name": "Spadina—Fort York"
          }
        ],
        "pollDivisionIds": [
          10141959
        ],
        "postalCode": "M5V1X1",
        "streetName": "PETER",
        "streetDirectionId": null,
        "streetTypeId": "ST",
        "placeName": "TORONTO",
        "streetNameDisplayText": "PETER ST, TORONTO"
      },
      {
        "electoralDistricts": [
          {
            "election": null,
            "id": 101,
            "name": "Spadina—Fort York"
          }
        ],
        "pollDivisionIds": [
          10141959
        ],
        "postalCode": "M5V1X1",
        "streetName": "RICHMOND",
        "streetDirectionId": "W",
        "streetTypeId": "ST",
        "placeName": "TORONTO",
        "streetNameDisplayText": "RICHMOND ST W, TORONTO"
      }
    ]
  },
  {
    "postal": "M5V0C1",
    "result": []
  },
  {
    "postal": "M5V4N3",
    "result": []
  },
  {
    "postal": "M5V4S8",
    "result": []
  },
  {
    "postal": "M5V1H6",
    "result": [
      {
        "electoralDistricts": [
          {
            "election": null,
            "id": 101,
            "name": "Spadina—Fort York"
          }
        ],
        "pollDivisionIds": [
          10141951
        ],
        "postalCode": "M5V1H6",
        "streetName": "STEWART",
        "streetDirectionId": null,
        "streetTypeId": "ST",
        "placeName": "TORONTO",
        "streetNameDisplayText": "STEWART ST, TORONTO"
      },
      {
        "electoralDistricts": [
          {
            "election": null,
            "id": 101,
            "name": "Spadina—Fort York"
          }
        ],
        "pollDivisionIds": [
          10141951
        ],
        "postalCode": "M5V1H6",
        "streetName": "STEWART",
        "streetDirectionId": null,
        "streetTypeId": "ST",
        "placeName": "TORONTO, ON",
        "streetNameDisplayText": "STEWART ST, TORONTO, ON"
      }
    ]
  },
  {
    "postal": "M5V2Z4",
    "result": [
      {
        "electoralDistricts": [
          {
            "election": null,
            "id": 101,
            "name": "Spadina—Fort York"
          }
        ],
        "pollDivisionIds": [
          10141952
        ],
        "postalCode": "M5V2Z4",
        "streetName": "KING",
        "streetDirectionId": "W",
        "streetTypeId": "ST",
        "placeName": "TORONTO",
        "streetNameDisplayText": "KING ST W, TORONTO"
      }
    ]
  },
  {
    "postal": "M5V7K3",
    "result": []
  },
  {
    "postal": "M5V8A2",
    "result": []
  },
  {
    "postal": "M5V6J1",
    "result": []
  },
  {
    "postal": "M5V5Z6",
    "result": []
  },
  {
    "postal": "M5V3Z0",
    "result": []
  },
  {
    "postal": "M5V8M0",
    "result": []
  },
  {
    "postal": "M5V1Z6",
    "result": [
      {
        "electoralDistricts": [
          {
            "election": null,
            "id": 101,
            "name": "Spadina—Fort York"
          }
        ],
        "pollDivisionIds": [
          10141945
        ],
        "postalCode": "M5V1Z6",
        "streetName": "QUEEN",
        "streetDirectionId": "W",
        "streetTypeId": "ST",
        "placeName": "TORONTO",
        "streetNameDisplayText": "QUEEN ST W, TORONTO"
      }
    ]
  },
  {
    "postal": "M5V8K7",
    "result": []
  },
  {
    "postal": "M5V1N3",
    "result": [
      {
        "electoralDistricts": [
          {
            "election": null,
            "id": 101,
            "name": "Spadina—Fort York"
          }
        ],
        "pollDivisionIds": [
          10141951
        ],
        "postalCode": "M5V1N3",
        "streetName": "KING",
        "streetDirectionId": "W",
        "streetTypeId": "ST",
        "placeName": "TORONTO",
        "streetNameDisplayText": "KING ST W, TORONTO"
      }
    ]
  },
  {
    "postal": "M5V9S2",
    "result": []
  },
  {
    "postal": "M5V2K1",
    "result": []
  },
  {
    "postal": "M5V1E8",
    "result": []
  },
  {
    "postal": "M5V9B8",
    "result": []
  },
  {
    "postal": "M5V7X4",
    "result": []
  },
  {
    "postal": "M5V1Z4",
    "result": [
      {
        "electoralDistricts": [
          {
            "election": null,
            "id": 109,
            "name": "Toronto Centre"
          }
        ],
        "pollDivisionIds": [
          10135200
        ],
        "postalCode": "M5V1Z4",
        "streetName": "QUEEN",
        "streetDirectionId": "E",
        "streetTypeId": "ST",
        "placeName": "TORONTO",
        "streetNameDisplayText": "QUEEN ST E, TORONTO"
      },
      {
        "electoralDistricts": [
          {
            "election": null,
            "id": 101,
            "name": "Spadina—Fort York"
          }
        ],
        "pollDivisionIds": [
          10141959
        ],
        "postalCode": "M5V1Z4",
        "streetName": "QUEEN",
        "streetDirectionId": "W",
        "streetTypeId": "ST",
        "placeName": "TORONTO",
        "streetNameDisplayText": "QUEEN ST W, TORONTO"
      }
    ]
  },
  {
    "postal": "M5V2C7",
    "result": []
  },
  {
    "postal": "M5V2E7",
    "result": [
      {
        "electoralDistricts": [
          {
            "election": null,
            "id": 101,
            "name": "Spadina—Fort York"
          }
        ],
        "pollDivisionIds": [
          10141959
        ],
        "postalCode": "M5V2E7",
        "streetName": "WIDMER",
        "streetDirectionId": null,
        "streetTypeId": "ST",
        "placeName": "TORONTO",
        "streetNameDisplayText": "WIDMER ST, TORONTO"
      }
    ]
  },
  {
    "postal": "M5V3R1",
    "result": []
  },
  {
    "postal": "M5V4K4",
    "result": []
  },
  {
    "postal": "M5V9G3",
    "result": []
  },
  {
    "postal": "M5V6C9",
    "result": []
  },
  {
    "postal": "M5V9H5",
    "result": []
  },
  {
    "postal": "M5V1P5",
    "result": [
      {
        "electoralDistricts": [
          {
            "election": null,
            "id": 101,
            "name": "Spadina—Fort York"
          }
        ],
        "pollDivisionIds": [
          10143934,
          10141942
        ],
        "postalCode": "M5V1P5",
        "streetName": "KING",
        "streetDirectionId": "W",
        "streetTypeId": "ST",
        "placeName": "TORONTO",
        "streetNameDisplayText": "KING ST W, TORONTO"
      }
    ]
  },
  {
    "postal": "M5V2J5",
    "result": [
      {
        "electoralDistricts": [
          {
            "election": null,
            "id": 101,
            "name": "Spadina—Fort York"
          }
        ],
        "pollDivisionIds": [
          10141959
        ],
        "postalCode": "M5V2J5",
        "streetName": "CHARLOTTE",
        "streetDirectionId": null,
        "streetTypeId": "ST",
        "placeName": "TORONTO",
        "streetNameDisplayText": "CHARLOTTE ST, TORONTO"
      },
      {
        "electoralDistricts": [
          {
            "election": null,
            "id": 101,
            "name": "Spadina—Fort York"
          }
        ],
        "pollDivisionIds": [
          10141959
        ],
        "postalCode": "M5V2J5",
        "streetName": "OXLEY",
        "streetDirectionId": null,
        "streetTypeId": "ST",
        "placeName": "TORONTO",
        "streetNameDisplayText": "OXLEY ST, TORONTO"
      }
    ]
  },
  {
    "postal": "M5V4W6",
    "result": []
  },
  {
    "postal": "M5V8M8",
    "result": []
  },
  {
    "postal": "M5V6C5",
    "result": []
  },
  {
    "postal": "M5V9H0",
    "result": []
  },
  {
    "postal": "M5V1X8",
    "result": []
  },
  {
    "postal": "M5V3H4",
    "result": [
      {
        "electoralDistricts": [
          {
            "election": null,
            "id": 101,
            "name": "Spadina—Fort York"
          }
        ],
        "pollDivisionIds": [
          10141964
        ],
        "postalCode": "M5V3H4",
        "streetName": "STADIUM",
        "streetDirectionId": null,
        "streetTypeId": "RD",
        "placeName": "TORONTO",
        "streetNameDisplayText": "STADIUM RD, TORONTO"
      }
    ]
  },
  {
    "postal": "M5V4E7",
    "result": []
  },
  {
    "postal": "M5V8A0",
    "result": []
  },
  {
    "postal": "M5V1Z7",
    "result": [
      {
        "electoralDistricts": [
          {
            "election": null,
            "id": 101,
            "name": "Spadina—Fort York"
          }
        ],
        "pollDivisionIds": [
          10141945
        ],
        "postalCode": "M5V1Z7",
        "streetName": "QUEEN",
        "streetDirectionId": "W",
        "streetTypeId": "ST",
        "placeName": "TORONTO",
        "streetNameDisplayText": "QUEEN ST W, TORONTO"
      }
    ]
  },
  {
    "postal": "M5V7Z3",
    "result": []
  },
  {
    "postal": "M5V0L7",
    "result": [
      {
        "electoralDistricts": [
          {
            "election": null,
            "id": 101,
            "name": "Spadina—Fort York"
          }
        ],
        "pollDivisionIds": [
          10141959
        ],
        "postalCode": "M5V0L7",
        "streetName": "BLUE JAYS",
        "streetDirectionId": null,
        "streetTypeId": "WAY",
        "placeName": "TORONTO",
        "streetNameDisplayText": "BLUE JAYS WAY, TORONTO"
      }
    ]
  },
  {
    "postal": "M5V2C6",
    "result": []
  },
  {
    "postal": "M5V6M3",
    "result": []
  },
  {
    "postal": "M5V2J1",
    "result": [
      {
        "electoralDistricts": [
          {
            "election": null,
            "id": 101,
            "name": "Spadina—Fort York"
          }
        ],
        "pollDivisionIds": [
          10141959
        ],
        "postalCode": "M5V2J1",
        "streetName": "SPADINA",
        "streetDirectionId": null,
        "streetTypeId": "AVE",
        "placeName": "TORONTO",
        "streetNameDisplayText": "SPADINA AVE, TORONTO"
      }
    ]
  },
  {
    "postal": "M5V3E3",
    "result": [
      {
        "electoralDistricts": [
          {
            "election": null,
            "id": 101,
            "name": "Spadina—Fort York"
          }
        ],
        "pollDivisionIds": [
          10141959
        ],
        "postalCode": "M5V3E3",
        "streetName": "JOHN",
        "streetDirectionId": null,
        "streetTypeId": "ST",
        "placeName": "TORONTO",
        "streetNameDisplayText": "JOHN ST, TORONTO"
      }
    ]
  },
  {
    "postal": "M5V6Z9",
    "result": []
  },
  {
    "postal": "M5V3M3",
    "result": [
      {
        "electoralDistricts": [
          {
            "election": null,
            "id": 101,
            "name": "Spadina—Fort York"
          }
        ],
        "pollDivisionIds": [
          10142004
        ],
        "postalCode": "M5V3M3",
        "streetName": "QUEENS",
        "streetDirectionId": "W",
        "streetTypeId": "QUAY",
        "placeName": "TORONTO",
        "streetNameDisplayText": "QUEENS QUAY W, TORONTO"
      },
      {
        "electoralDistricts": [
          {
            "election": null,
            "id": 101,
            "name": "Spadina—Fort York"
          }
        ],
        "pollDivisionIds": [
          10141942
        ],
        "postalCode": "M5V3M3",
        "streetName": "QUEEN'S",
        "streetDirectionId": "W",
        "streetTypeId": "QUAY",
        "placeName": "TORONTO",
        "streetNameDisplayText": "QUEEN'S QUAY W, TORONTO"
      }
    ]
  },
  {
    "postal": "M5V9B1",
    "result": []
  },
  {
    "postal": "M5V9J5",
    "result": []
  },
  {
    "postal": "M5V4V8",
    "result": []
  },
  {
    "postal": "M5V6W2",
    "result": []
  },
  {
    "postal": "M5V0V5",
    "result": []
  },
  {
    "postal": "M5V0Z8",
    "result": []
  },
  {
    "postal": "M5V5G2",
    "result": []
  },
  {
    "postal": "M5V4N4",
    "result": []
  },
  {
    "postal": "M5V8G7",
    "result": []
  },
  {
    "postal": "M5V8W1",
    "result": []
  },
  {
    "postal": "M5V1S6",
    "result": []
  },
  {
    "postal": "M5V4E0",
    "result": []
  },
  {
    "postal": "M5V4L9",
    "result": []
  },
  {
    "postal": "M5V5Z9",
    "result": []
  },
  {
    "postal": "M5V5V3",
    "result": []
  },
  {
    "postal": "M5V4V2",
    "result": []
  },
  {
    "postal": "M5V7C0",
    "result": []
  },
  {
    "postal": "M5V6L0",
    "result": []
  },
  {
    "postal": "M5V1S9",
    "result": [
      {
        "electoralDistricts": [
          {
            "election": null,
            "id": 101,
            "name": "Spadina—Fort York"
          }
        ],
        "pollDivisionIds": [
          10141951
        ],
        "postalCode": "M5V1S9",
        "streetName": "ADELAIDE",
        "streetDirectionId": "W",
        "streetTypeId": "ST",
        "placeName": "TORONTO",
        "streetNameDisplayText": "ADELAIDE ST W, TORONTO"
      }
    ]
  },
  {
    "postal": "M5V7R6",
    "result": []
  },
  {
    "postal": "M5V7J0",
    "result": []
  },
  {
    "postal": "M5V5M0",
    "result": []
  },
  {
    "postal": "M5V2E5",
    "result": [
      {
        "electoralDistricts": [
          {
            "election": null,
            "id": 101,
            "name": "Spadina—Fort York"
          }
        ],
        "pollDivisionIds": [
          10141959
        ],
        "postalCode": "M5V2E5",
        "streetName": "JOHN",
        "streetDirectionId": null,
        "streetTypeId": "ST",
        "placeName": "TORONTO",
        "streetNameDisplayText": "JOHN ST, TORONTO"
      }
    ]
  },
  {
    "postal": "M5V7C7",
    "result": []
  },
  {
    "postal": "M5V5C0",
    "result": []
  },
  {
    "postal": "M5V8V9",
    "result": []
  },
  {
    "postal": "M5V7E0",
    "result": []
  },
  {
    "postal": "M5V6R4",
    "result": []
  },
  {
    "postal": "M5V3Z7",
    "result": [
      {
        "electoralDistricts": [
          {
            "election": null,
            "id": 101,
            "name": "Spadina—Fort York"
          }
        ],
        "pollDivisionIds": [
          10142009
        ],
        "postalCode": "M5V3Z7",
        "streetName": "CAPREOL",
        "streetDirectionId": null,
        "streetTypeId": "CRT",
        "placeName": "TORONTO",
        "streetNameDisplayText": "CAPREOL CRT, TORONTO"
      }
    ]
  },
  {
    "postal": "M5V1J9",
    "result": [
      {
        "electoralDistricts": [
          {
            "election": null,
            "id": 101,
            "name": "Spadina—Fort York"
          }
        ],
        "pollDivisionIds": [
          10141959
        ],
        "postalCode": "M5V1J9",
        "streetName": "KING",
        "streetDirectionId": "W",
        "streetTypeId": "ST",
        "placeName": "TORONTO",
        "streetNameDisplayText": "KING ST W, TORONTO"
      }
    ]
  },
  {
    "postal": "M5V7K6",
    "result": []
  },
  {
    "postal": "M5V7Y5",
    "result": []
  },
  {
    "postal": "M5V1B7",
    "result": [
      {
        "electoralDistricts": [
          {
            "election": null,
            "id": 101,
            "name": "Spadina—Fort York"
          }
        ],
        "pollDivisionIds": [
          10142002,
          10141943
        ],
        "postalCode": "M5V1B7",
        "streetName": "FLEET",
        "streetDirectionId": null,
        "streetTypeId": "ST",
        "placeName": "TORONTO",
        "streetNameDisplayText": "FLEET ST, TORONTO"
      }
    ]
  },
  {
    "postal": "M5V4S9",
    "result": []
  },
  {
    "postal": "M5V9R9",
    "result": []
  },
  {
    "postal": "M5V5K7",
    "result": []
  },
  {
    "postal": "M5V6P2",
    "result": []
  },
  {
    "postal": "M5V2C5",
    "result": [
      {
        "electoralDistricts": [
          {
            "election": null,
            "id": 101,
            "name": "Spadina—Fort York"
          }
        ],
        "pollDivisionIds": [
          10141959
        ],
        "postalCode": "M5V2C5",
        "streetName": "DUNCAN",
        "streetDirectionId": null,
        "streetTypeId": "ST",
        "placeName": "TORONTO",
        "streetNameDisplayText": "DUNCAN ST, TORONTO"
      }
    ]
  },
  {
    "postal": "M5V2N0",
    "result": []
  },
  {
    "postal": "M5V1G0",
    "result": []
  },
  {
    "postal": "M5V4K5",
    "result": []
  },
  {
    "postal": "M5V9B5",
    "result": []
  },
  {
    "postal": "M5V6T5",
    "result": []
  },
  {
    "postal": "M5V1N8",
    "result": []
  },
  {
    "postal": "M5V0C0",
    "result": []
  },
  {
    "postal": "M5V0R9",
    "result": []
  },
  {
    "postal": "M5V7L1",
    "result": []
  },
  {
    "postal": "M5V3Y8",
    "result": [
      {
        "electoralDistricts": [
          {
            "election": null,
            "id": 94,
            "name": "Scarborough Centre"
          }
        ],
        "pollDivisionIds": [
          10141597
        ],
        "postalCode": "M5V3Y8",
        "streetName": "NELSON",
        "streetDirectionId": null,
        "streetTypeId": "ST",
        "placeName": "SCARBOROUGH",
        "streetNameDisplayText": "NELSON ST, SCARBOROUGH"
      }
    ]
  },
  {
    "postal": "M5V7X9",
    "result": []
  },
  {
    "postal": "M5V1A7",
    "result": [
      {
        "electoralDistricts": [
          {
            "election": null,
            "id": 101,
            "name": "Spadina—Fort York"
          }
        ],
        "pollDivisionIds": [
          10141964
        ],
        "postalCode": "M5V1A7",
        "streetName": "LAKE SHORE",
        "streetDirectionId": "W",
        "streetTypeId": "BLVD",
        "placeName": "TORONTO",
        "streetNameDisplayText": "LAKE SHORE BLVD W, TORONTO"
      }
    ]
  },
  {
    "postal": "M5V2T9",
    "result": []
  },
  {
    "postal": "M5V2E6",
    "result": []
  },
  {
    "postal": "M5V8Y1",
    "result": []
  },
  {
    "postal": "M5V0J5",
    "result": []
  },
  {
    "postal": "M5V4J1",
    "result": []
  },
  {
    "postal": "M5V1A5",
    "result": []
  },
  {
    "postal": "M5V6Z6",
    "result": []
  },
  {
    "postal": "M5V5K4",
    "result": []
  },
  {
    "postal": "M5V7R9",
    "result": []
  },
  {
    "postal": "M5V6G4",
    "result": []
  }
]
