[
  {
    "postal": "L8J9J6",
    "result": []
  },
  {
    "postal": "L8J9Z5",
    "result": []
  },
  {
    "postal": "L8J7H8",
    "result": []
  },
  {
    "postal": "L8J0P6",
    "result": []
  },
  {
    "postal": "L8J0S7",
    "result": []
  },
  {
    "postal": "L8J8B9",
    "result": []
  },
  {
    "postal": "L8J2A6",
    "result": [
      {
        "electoralDistricts": [
          {
            "election": null,
            "id": 31,
            "name": "Flamborough—Glanbrook"
          }
        ],
        "pollDivisionIds": [
          10138267
        ],
        "postalCode": "L8J2A6",
        "streetName": "RIDELL",
        "streetDirectionId": null,
        "streetTypeId": "CRES",
        "placeName": "STONEY CREEK",
        "streetNameDisplayText": "RIDELL CRES, STONEY CREEK"
      }
    ]
  },
  {
    "postal": "L8J7V2",
    "result": []
  },
  {
    "postal": "L8J9P4",
    "result": []
  },
  {
    "postal": "L8J6G0",
    "result": []
  },
  {
    "postal": "L8J2K0",
    "result": []
  },
  {
    "postal": "L8J7N6",
    "result": []
  },
  {
    "postal": "L8J5R3",
    "result": []
  },
  {
    "postal": "L8J7K0",
    "result": []
  },
  {
    "postal": "L8J3R2",
    "result": [
      {
        "electoralDistricts": [
          {
            "election": null,
            "id": 31,
            "name": "Flamborough—Glanbrook"
          }
        ],
        "pollDivisionIds": [
          10138268
        ],
        "postalCode": "L8J3R2",
        "streetName": "FIRST",
        "streetDirectionId": "W",
        "streetTypeId": "RD",
        "placeName": "STONEY CREEK",
        "streetNameDisplayText": "FIRST RD W, STONEY CREEK"
      }
    ]
  },
  {
    "postal": "L8J0J1",
    "result": [
      {
        "electoralDistricts": [
          {
            "election": null,
            "id": 31,
            "name": "Flamborough—Glanbrook"
          }
        ],
        "pollDivisionIds": [
          10138267
        ],
        "postalCode": "L8J0J1",
        "streetName": "ALDGATE",
        "streetDirectionId": null,
        "streetTypeId": "AVE",
        "placeName": "STONEY CREEK",
        "streetNameDisplayText": "ALDGATE AVE, STONEY CREEK"
      },
      {
        "electoralDistricts": [
          {
            "election": null,
            "id": 31,
            "name": "Flamborough—Glanbrook"
          }
        ],
        "pollDivisionIds": [
          10138267
        ],
        "postalCode": "L8J0J1",
        "streetName": "CRAFTER",
        "streetDirectionId": null,
        "streetTypeId": "CRES",
        "placeName": "STONEY CREEK",
        "streetNameDisplayText": "CRAFTER CRES, STONEY CREEK"
      },
      {
        "electoralDistricts": [
          {
            "election": null,
            "id": 31,
            "name": "Flamborough—Glanbrook"
          }
        ],
        "pollDivisionIds": [
          10138267
        ],
        "postalCode": "L8J0J1",
        "streetName": "WEST GLEN",
        "streetDirectionId": null,
        "streetTypeId": "AVE",
        "placeName": "STONEY CREEK",
        "streetNameDisplayText": "WEST GLEN AVE, STONEY CREEK"
      }
    ]
  },
  {
    "postal": "L8J0B0",
    "result": []
  },
  {
    "postal": "L8J5Z2",
    "result": []
  },
  {
    "postal": "L8J7P3",
    "result": []
  },
  {
    "postal": "L8J2K3",
    "result": [
      {
        "electoralDistricts": [
          {
            "election": null,
            "id": 31,
            "name": "Flamborough—Glanbrook"
          }
        ],
        "pollDivisionIds": [
          10138263
        ],
        "postalCode": "L8J2K3",
        "streetName": "BENWOOD",
        "streetDirectionId": null,
        "streetTypeId": "CRT",
        "placeName": "STONEY CREEK",
        "streetNameDisplayText": "BENWOOD CRT, STONEY CREEK"
      }
    ]
  },
  {
    "postal": "L8J7Y6",
    "result": []
  },
  {
    "postal": "L8J1L9",
    "result": []
  },
  {
    "postal": "L8J8T0",
    "result": []
  },
  {
    "postal": "L8J3K8",
    "result": [
      {
        "electoralDistricts": [
          {
            "election": null,
            "id": 31,
            "name": "Flamborough—Glanbrook"
          }
        ],
        "pollDivisionIds": [
          10138269
        ],
        "postalCode": "L8J3K8",
        "streetName": "TAPLEYTOWN",
        "streetDirectionId": null,
        "streetTypeId": "RD",
        "placeName": "STONEY CREEK",
        "streetNameDisplayText": "TAPLEYTOWN RD, STONEY CREEK"
      }
    ]
  },
  {
    "postal": "L8J5W9",
    "result": []
  },
  {
    "postal": "L8J6T9",
    "result": []
  },
  {
    "postal": "L8J4H1",
    "result": []
  },
  {
    "postal": "L8J7A2",
    "result": []
  },
  {
    "postal": "L8J5G0",
    "result": []
  },
  {
    "postal": "L8J8V5",
    "result": []
  },
  {
    "postal": "L8J2Y8",
    "result": [
      {
        "electoralDistricts": [
          {
            "election": null,
            "id": 31,
            "name": "Flamborough—Glanbrook"
          }
        ],
        "pollDivisionIds": [
          10138269
        ],
        "postalCode": "L8J2Y8",
        "streetName": "RIDGE",
        "streetDirectionId": null,
        "streetTypeId": "RD",
        "placeName": "STONEY CREEK",
        "streetNameDisplayText": "RIDGE RD, STONEY CREEK"
      }
    ]
  },
  {
    "postal": "L8J2B6",
    "result": []
  },
  {
    "postal": "L8J4W8",
    "result": []
  },
  {
    "postal": "L8J8H7",
    "result": []
  },
  {
    "postal": "L8J5P1",
    "result": []
  },
  {
    "postal": "L8J2B8",
    "result": [
      {
        "electoralDistricts": [
          {
            "election": null,
            "id": 31,
            "name": "Flamborough—Glanbrook"
          }
        ],
        "pollDivisionIds": [
          10138264
        ],
        "postalCode": "L8J2B8",
        "streetName": "ATLAS",
        "streetDirectionId": null,
        "streetTypeId": "ST",
        "placeName": "STONEY CREEK",
        "streetNameDisplayText": "ATLAS ST, STONEY CREEK"
      }
    ]
  },
  {
    "postal": "L8J0P2",
    "result": []
  },
  {
    "postal": "L8J9M1",
    "result": []
  },
  {
    "postal": "L8J3G0",
    "result": []
  },
  {
    "postal": "L8J9Z2",
    "result": []
  },
  {
    "postal": "L8J2A0",
    "result": []
  },
  {
    "postal": "L8J6Y0",
    "result": []
  },
  {
    "postal": "L8J2Z8",
    "result": [
      {
        "electoralDistricts": [
          {
            "election": null,
            "id": 31,
            "name": "Flamborough—Glanbrook"
          }
        ],
        "pollDivisionIds": [
          10138269
        ],
        "postalCode": "L8J2Z8",
        "streetName": "GREEN MOUNTAIN",
        "streetDirectionId": "E",
        "streetTypeId": "RD",
        "placeName": "STONEY CREEK",
        "streetNameDisplayText": "GREEN MOUNTAIN RD E, STONEY CREEK"
      }
    ]
  },
  {
    "postal": "L8J7Y3",
    "result": []
  },
  {
    "postal": "L8J6Z5",
    "result": []
  },
  {
    "postal": "L8J6E0",
    "result": []
  },
  {
    "postal": "L8J9B7",
    "result": []
  },
  {
    "postal": "L8J9S5",
    "result": []
  },
  {
    "postal": "L8J3X3",
    "result": [
      {
        "electoralDistricts": [
          {
            "election": null,
            "id": 31,
            "name": "Flamborough—Glanbrook"
          }
        ],
        "pollDivisionIds": [
          10138263
        ],
        "postalCode": "L8J3X3",
        "streetName": "RICHDALE",
        "streetDirectionId": null,
        "streetTypeId": "DR",
        "placeName": "STONEY CREEK",
        "streetNameDisplayText": "RICHDALE DR, STONEY CREEK"
      }
    ]
  },
  {
    "postal": "L8J7R5",
    "result": []
  },
  {
    "postal": "L8J2X3",
    "result": [
      {
        "electoralDistricts": [
          {
            "election": null,
            "id": 31,
            "name": "Flamborough—Glanbrook"
          }
        ],
        "pollDivisionIds": [
          10138269
        ],
        "postalCode": "L8J2X3",
        "streetName": "FIRST",
        "streetDirectionId": "E",
        "streetTypeId": "RD",
        "placeName": "STONEY CREEK",
        "streetNameDisplayText": "FIRST RD E, STONEY CREEK"
      }
    ]
  },
  {
    "postal": "L8J8Z9",
    "result": []
  },
  {
    "postal": "L8J0N4",
    "result": []
  },
  {
    "postal": "L8J1K1",
    "result": [
      {
        "electoralDistricts": [
          {
            "election": null,
            "id": 31,
            "name": "Flamborough—Glanbrook"
          }
        ],
        "pollDivisionIds": [
          10138267
        ],
        "postalCode": "L8J1K1",
        "streetName": "AYLMER",
        "streetDirectionId": null,
        "streetTypeId": "CRES",
        "placeName": "STONEY CREEK",
        "streetNameDisplayText": "AYLMER CRES, STONEY CREEK"
      }
    ]
  },
  {
    "postal": "L8J1S3",
    "result": [
      {
        "electoralDistricts": [
          {
            "election": null,
            "id": 31,
            "name": "Flamborough—Glanbrook"
          }
        ],
        "pollDivisionIds": [
          10138264
        ],
        "postalCode": "L8J1S3",
        "streetName": "ATHENIA",
        "streetDirectionId": null,
        "streetTypeId": "DR",
        "placeName": "STONEY CREEK",
        "streetNameDisplayText": "ATHENIA DR, STONEY CREEK"
      }
    ]
  },
  {
    "postal": "L8J6M4",
    "result": []
  },
  {
    "postal": "L8J9A9",
    "result": []
  },
  {
    "postal": "L8J9Z9",
    "result": []
  },
  {
    "postal": "L8J6T4",
    "result": []
  },
  {
    "postal": "L8J0B2",
    "result": []
  },
  {
    "postal": "L8J2L9",
    "result": [
      {
        "electoralDistricts": [
          {
            "election": null,
            "id": 31,
            "name": "Flamborough—Glanbrook"
          }
        ],
        "pollDivisionIds": [
          10138265
        ],
        "postalCode": "L8J2L9",
        "streetName": "BRANTHAVEN",
        "streetDirectionId": null,
        "streetTypeId": "DR",
        "placeName": "STONEY CREEK",
        "streetNameDisplayText": "BRANTHAVEN DR, STONEY CREEK"
      }
    ]
  },
  {
    "postal": "L8J8K9",
    "result": []
  },
  {
    "postal": "L8J2H9",
    "result": [
      {
        "electoralDistricts": [
          {
            "election": null,
            "id": 31,
            "name": "Flamborough—Glanbrook"
          }
        ],
        "pollDivisionIds": [
          10138264
        ],
        "postalCode": "L8J2H9",
        "streetName": "AMBERWOOD",
        "streetDirectionId": null,
        "streetTypeId": "ST",
        "placeName": "STONEY CREEK",
        "streetNameDisplayText": "AMBERWOOD ST, STONEY CREEK"
      }
    ]
  },
  {
    "postal": "L8J3Z6",
    "result": [
      {
        "electoralDistricts": [
          {
            "election": null,
            "id": 31,
            "name": "Flamborough—Glanbrook"
          }
        ],
        "pollDivisionIds": [
          10138267
        ],
        "postalCode": "L8J3Z6",
        "streetName": "MUD",
        "streetDirectionId": "W",
        "streetTypeId": "ST",
        "placeName": "STONEY CREEK",
        "streetNameDisplayText": "MUD ST W, STONEY CREEK"
      }
    ]
  },
  {
    "postal": "L8J3B0",
    "result": []
  },
  {
    "postal": "L8J2H8",
    "result": []
  },
  {
    "postal": "L8J3X2",
    "result": [
      {
        "electoralDistricts": [
          {
            "election": null,
            "id": 31,
            "name": "Flamborough—Glanbrook"
          }
        ],
        "pollDivisionIds": [
          10138263
        ],
        "postalCode": "L8J3X2",
        "streetName": "SECOND",
        "streetDirectionId": "W",
        "streetTypeId": "RD",
        "placeName": "STONEY CREEK",
        "streetNameDisplayText": "SECOND RD W, STONEY CREEK"
      },
      {
        "electoralDistricts": [
          {
            "election": null,
            "id": 31,
            "name": "Flamborough—Glanbrook"
          }
        ],
        "pollDivisionIds": [
          10138263
        ],
        "postalCode": "L8J3X2",
        "streetName": "SHADETREE",
        "streetDirectionId": null,
        "streetTypeId": "CRES",
        "placeName": "STONEY CREEK",
        "streetNameDisplayText": "SHADETREE CRES, STONEY CREEK"
      }
    ]
  },
  {
    "postal": "L8J2E9",
    "result": [
      {
        "electoralDistricts": [
          {
            "election": null,
            "id": 31,
            "name": "Flamborough—Glanbrook"
          }
        ],
        "pollDivisionIds": [
          10138265
        ],
        "postalCode": "L8J2E9",
        "streetName": "LYTON",
        "streetDirectionId": null,
        "streetTypeId": "CRES",
        "placeName": "STONEY CREEK",
        "streetNameDisplayText": "LYTON CRES, STONEY CREEK"
      }
    ]
  },
  {
    "postal": "L8J9P6",
    "result": []
  },
  {
    "postal": "L8J9E2",
    "result": []
  },
  {
    "postal": "L8J9H2",
    "result": []
  },
  {
    "postal": "L8J1S8",
    "result": [
      {
        "electoralDistricts": [
          {
            "election": null,
            "id": 31,
            "name": "Flamborough—Glanbrook"
          }
        ],
        "pollDivisionIds": [
          10138264
        ],
        "postalCode": "L8J1S8",
        "streetName": "ATHENIA",
        "streetDirectionId": null,
        "streetTypeId": "DR",
        "placeName": "STONEY CREEK",
        "streetNameDisplayText": "ATHENIA DR, STONEY CREEK"
      }
    ]
  },
  {
    "postal": "L8J3M6",
    "result": [
      {
        "electoralDistricts": [
          {
            "election": null,
            "id": 31,
            "name": "Flamborough—Glanbrook"
          }
        ],
        "pollDivisionIds": [
          10138269
        ],
        "postalCode": "L8J3M6",
        "streetName": "TENTH",
        "streetDirectionId": "E",
        "streetTypeId": "RD",
        "placeName": "STONEY CREEK",
        "streetNameDisplayText": "TENTH RD E, STONEY CREEK"
      }
    ]
  },
  {
    "postal": "L8J6Z8",
    "result": []
  },
  {
    "postal": "L8J4J2",
    "result": []
  },
  {
    "postal": "L8J9Y1",
    "result": []
  },
  {
    "postal": "L8J8V6",
    "result": []
  },
  {
    "postal": "L8J6B2",
    "result": []
  },
  {
    "postal": "L8J1P8",
    "result": [
      {
        "electoralDistricts": [
          {
            "election": null,
            "id": 31,
            "name": "Flamborough—Glanbrook"
          }
        ],
        "pollDivisionIds": [
          10138267
        ],
        "postalCode": "L8J1P8",
        "streetName": "PARAMOUNT",
        "streetDirectionId": null,
        "streetTypeId": "DR",
        "placeName": "STONEY CREEK",
        "streetNameDisplayText": "PARAMOUNT DR, STONEY CREEK"
      }
    ]
  },
  {
    "postal": "L8J0V8",
    "result": []
  },
  {
    "postal": "L8J4Y0",
    "result": []
  },
  {
    "postal": "L8J2T4",
    "result": [
      {
        "electoralDistricts": [
          {
            "election": null,
            "id": 31,
            "name": "Flamborough—Glanbrook"
          }
        ],
        "pollDivisionIds": [
          10138266,
          10138268
        ],
        "postalCode": "L8J2T4",
        "streetName": "HIGHBURY",
        "streetDirectionId": null,
        "streetTypeId": "DR",
        "placeName": "STONEY CREEK",
        "streetNameDisplayText": "HIGHBURY DR, STONEY CREEK"
      },
      {
        "electoralDistricts": [
          {
            "election": null,
            "id": 31,
            "name": "Flamborough—Glanbrook"
          }
        ],
        "pollDivisionIds": [
          10138266
        ],
        "postalCode": "L8J2T4",
        "streetName": "HIGHBURY",
        "streetDirectionId": null,
        "streetTypeId": "RD",
        "placeName": "STONEY CREEK",
        "streetNameDisplayText": "HIGHBURY RD, STONEY CREEK"
      }
    ]
  },
  {
    "postal": "L8J2S3",
    "result": [
      {
        "electoralDistricts": [
          {
            "election": null,
            "id": 31,
            "name": "Flamborough—Glanbrook"
          }
        ],
        "pollDivisionIds": [
          10138266
        ],
        "postalCode": "L8J2S3",
        "streetName": "WHITEDEER",
        "streetDirectionId": null,
        "streetTypeId": "RD",
        "placeName": "STONEY CREEK",
        "streetNameDisplayText": "WHITEDEER RD, STONEY CREEK"
      }
    ]
  },
  {
    "postal": "L8J0K0",
    "result": []
  },
  {
    "postal": "L8J5N1",
    "result": []
  },
  {
    "postal": "L8J7T0",
    "result": []
  },
  {
    "postal": "L8J9N2",
    "result": []
  },
  {
    "postal": "L8J5L1",
    "result": []
  },
  {
    "postal": "L8J7G5",
    "result": []
  },
  {
    "postal": "L8J6K2",
    "result": []
  },
  {
    "postal": "L8J6P9",
    "result": []
  },
  {
    "postal": "L8J0E6",
    "result": [
      {
        "electoralDistricts": [
          {
            "election": null,
            "id": 31,
            "name": "Flamborough—Glanbrook"
          }
        ],
        "pollDivisionIds": [
          10138268
        ],
        "postalCode": "L8J0E6",
        "streetName": "BELL ROYAL",
        "streetDirectionId": null,
        "streetTypeId": "CRES",
        "placeName": "STONEY CREEK",
        "streetNameDisplayText": "BELL ROYAL CRES, STONEY CREEK"
      },
      {
        "electoralDistricts": [
          {
            "election": null,
            "id": 31,
            "name": "Flamborough—Glanbrook"
          }
        ],
        "pollDivisionIds": [
          10138268
        ],
        "postalCode": "L8J0E6",
        "streetName": "BELLROYAL",
        "streetDirectionId": null,
        "streetTypeId": "CRES",
        "placeName": "STONEY CREEK",
        "streetNameDisplayText": "BELLROYAL CRES, STONEY CREEK"
      },
      {
        "electoralDistricts": [
          {
            "election": null,
            "id": 31,
            "name": "Flamborough—Glanbrook"
          }
        ],
        "pollDivisionIds": [
          10138268
        ],
        "postalCode": "L8J0E6",
        "streetName": "TRAFALGAR",
        "streetDirectionId": null,
        "streetTypeId": "DR",
        "placeName": "STONEY CREEK",
        "streetNameDisplayText": "TRAFALGAR DR, STONEY CREEK"
      },
      {
        "electoralDistricts": [
          {
            "election": null,
            "id": 31,
            "name": "Flamborough—Glanbrook"
          }
        ],
        "pollDivisionIds": [
          10138268
        ],
        "postalCode": "L8J0E6",
        "streetName": "WEATHERING",
        "streetDirectionId": null,
        "streetTypeId": "HTS",
        "placeName": "STONEY CREEK",
        "streetNameDisplayText": "WEATHERING HTS, STONEY CREEK"
      }
    ]
  },
  {
    "postal": "L8J8R9",
    "result": []
  },
  {
    "postal": "L8J3G9",
    "result": [
      {
        "electoralDistricts": [
          {
            "election": null,
            "id": 31,
            "name": "Flamborough—Glanbrook"
          }
        ],
        "pollDivisionIds": [
          10138269
        ],
        "postalCode": "L8J3G9",
        "streetName": "HIGHLAND",
        "streetDirectionId": "E",
        "streetTypeId": "RD",
        "placeName": "STONEY CREEK",
        "streetNameDisplayText": "HIGHLAND RD E, STONEY CREEK"
      }
    ]
  },
  {
    "postal": "L8J0V7",
    "result": []
  },
  {
    "postal": "L8J2Z1",
    "result": [
      {
        "electoralDistricts": [
          {
            "election": null,
            "id": 31,
            "name": "Flamborough—Glanbrook"
          }
        ],
        "pollDivisionIds": [
          10138269
        ],
        "postalCode": "L8J2Z1",
        "streetName": "POWER LINE",
        "streetDirectionId": null,
        "streetTypeId": "RD",
        "placeName": "STONEY CREEK",
        "streetNameDisplayText": "POWER LINE RD, STONEY CREEK"
      },
      {
        "electoralDistricts": [
          {
            "election": null,
            "id": 31,
            "name": "Flamborough—Glanbrook"
          }
        ],
        "pollDivisionIds": [
          10138269
        ],
        "postalCode": "L8J2Z1",
        "streetName": "POWERLINE",
        "streetDirectionId": null,
        "streetTypeId": "RD",
        "placeName": "STONEY CREEK",
        "streetNameDisplayText": "POWERLINE RD, STONEY CREEK"
      }
    ]
  },
  {
    "postal": "L8J7N1",
    "result": []
  },
  {
    "postal": "L8J3C6",
    "result": [
      {
        "electoralDistricts": [
          {
            "election": null,
            "id": 31,
            "name": "Flamborough—Glanbrook"
          }
        ],
        "pollDivisionIds": [
          10138269
        ],
        "postalCode": "L8J3C6",
        "streetName": "MUD",
        "streetDirectionId": "E",
        "streetTypeId": "ST",
        "placeName": "STONEY CREEK",
        "streetNameDisplayText": "MUD ST E, STONEY CREEK"
      }
    ]
  },
  {
    "postal": "L8J4M1",
    "result": []
  },
  {
    "postal": "L8J9K2",
    "result": []
  },
  {
    "postal": "L8J9S6",
    "result": []
  },
  {
    "postal": "L8J4X1",
    "result": []
  },
  {
    "postal": "L8J8W2",
    "result": []
  },
  {
    "postal": "L8J7N2",
    "result": []
  },
  {
    "postal": "L8J8S3",
    "result": []
  },
  {
    "postal": "L8J4V0",
    "result": []
  },
  {
    "postal": "L8J6W4",
    "result": []
  },
  {
    "postal": "L8J5M1",
    "result": []
  },
  {
    "postal": "L8J0S4",
    "result": []
  },
  {
    "postal": "L8J5X6",
    "result": []
  },
  {
    "postal": "L8J8L5",
    "result": []
  },
  {
    "postal": "L8J5M8",
    "result": []
  },
  {
    "postal": "L8J2G3",
    "result": [
      {
        "electoralDistricts": [
          {
            "election": null,
            "id": 31,
            "name": "Flamborough—Glanbrook"
          }
        ],
        "pollDivisionIds": [
          10138264
        ],
        "postalCode": "L8J2G3",
        "streetName": "ASTRA",
        "streetDirectionId": null,
        "streetTypeId": "ST",
        "placeName": "STONEY CREEK",
        "streetNameDisplayText": "ASTRA ST, STONEY CREEK"
      }
    ]
  },
  {
    "postal": "L8J8E4",
    "result": []
  },
  {
    "postal": "L8J7S9",
    "result": []
  },
  {
    "postal": "L8J1K3",
    "result": [
      {
        "electoralDistricts": [
          {
            "election": null,
            "id": 31,
            "name": "Flamborough—Glanbrook"
          }
        ],
        "pollDivisionIds": [
          10138267
        ],
        "postalCode": "L8J1K3",
        "streetName": "AYLMER",
        "streetDirectionId": null,
        "streetTypeId": "CRES",
        "placeName": "STONEY CREEK",
        "streetNameDisplayText": "AYLMER CRES, STONEY CREEK"
      }
    ]
  },
  {
    "postal": "L8J4E1",
    "result": []
  },
  {
    "postal": "L8J4R2",
    "result": []
  },
  {
    "postal": "L8J6T0",
    "result": []
  },
  {
    "postal": "L8J3K5",
    "result": [
      {
        "electoralDistricts": [
          {
            "election": null,
            "id": 31,
            "name": "Flamborough—Glanbrook"
          }
        ],
        "pollDivisionIds": [
          10138269
        ],
        "postalCode": "L8J3K5",
        "streetName": "TAPLEYTOWN",
        "streetDirectionId": null,
        "streetTypeId": "RD",
        "placeName": "STONEY CREEK",
        "streetNameDisplayText": "TAPLEYTOWN RD, STONEY CREEK"
      }
    ]
  },
  {
    "postal": "L8J3S3",
    "result": [
      {
        "electoralDistricts": [
          {
            "election": null,
            "id": 31,
            "name": "Flamborough—Glanbrook"
          }
        ],
        "pollDivisionIds": [
          10138266
        ],
        "postalCode": "L8J3S3",
        "streetName": "CANDLEWOOD",
        "streetDirectionId": null,
        "streetTypeId": "DR",
        "placeName": "STONEY CREEK",
        "streetNameDisplayText": "CANDLEWOOD DR, STONEY CREEK"
      }
    ]
  },
  {
    "postal": "L8J3L4",
    "result": [
      {
        "electoralDistricts": [
          {
            "election": null,
            "id": 31,
            "name": "Flamborough—Glanbrook"
          }
        ],
        "pollDivisionIds": [
          10138269
        ],
        "postalCode": "L8J3L4",
        "streetName": "FIFTH",
        "streetDirectionId": "E",
        "streetTypeId": "RD",
        "placeName": "STONEY CREEK",
        "streetNameDisplayText": "FIFTH RD E, STONEY CREEK"
      }
    ]
  },
  {
    "postal": "L8J9Y2",
    "result": []
  },
  {
    "postal": "L8J1E0",
    "result": []
  },
  {
    "postal": "L8J9A4",
    "result": []
  },
  {
    "postal": "L8J1L3",
    "result": [
      {
        "electoralDistricts": [
          {
            "election": null,
            "id": 31,
            "name": "Flamborough—Glanbrook"
          }
        ],
        "pollDivisionIds": [
          10138263
        ],
        "postalCode": "L8J1L3",
        "streetName": "CHILTON",
        "streetDirectionId": null,
        "streetTypeId": "DR",
        "placeName": "STONEY CREEK",
        "streetNameDisplayText": "CHILTON DR, STONEY CREEK"
      }
    ]
  },
  {
    "postal": "L8J6N1",
    "result": []
  },
  {
    "postal": "L8J6G7",
    "result": []
  },
  {
    "postal": "L8J7W1",
    "result": []
  },
  {
    "postal": "L8J4M6",
    "result": []
  },
  {
    "postal": "L8J1K0",
    "result": []
  },
  {
    "postal": "L8J3E2",
    "result": [
      {
        "electoralDistricts": [
          {
            "election": null,
            "id": 31,
            "name": "Flamborough—Glanbrook"
          }
        ],
        "pollDivisionIds": [
          10138269
        ],
        "postalCode": "L8J3E2",
        "streetName": "MUD",
        "streetDirectionId": "E",
        "streetTypeId": "ST",
        "placeName": "STONEY CREEK",
        "streetNameDisplayText": "MUD ST E, STONEY CREEK"
      }
    ]
  },
  {
    "postal": "L8J5H4",
    "result": []
  },
  {
    "postal": "L8J1K7",
    "result": [
      {
        "electoralDistricts": [
          {
            "election": null,
            "id": 31,
            "name": "Flamborough—Glanbrook"
          }
        ],
        "pollDivisionIds": [
          10138268
        ],
        "postalCode": "L8J1K7",
        "streetName": "FIRST",
        "streetDirectionId": "W",
        "streetTypeId": "RD",
        "placeName": "STONEY CREEK",
        "streetNameDisplayText": "FIRST RD W, STONEY CREEK"
      }
    ]
  },
  {
    "postal": "L8J0H0",
    "result": []
  },
  {
    "postal": "L8J0J3",
    "result": [
      {
        "electoralDistricts": [
          {
            "election": null,
            "id": 31,
            "name": "Flamborough—Glanbrook"
          }
        ],
        "pollDivisionIds": [
          10138267
        ],
        "postalCode": "L8J0J3",
        "streetName": "CRAFTER",
        "streetDirectionId": null,
        "streetTypeId": "CRES",
        "placeName": "STONEY CREEK",
        "streetNameDisplayText": "CRAFTER CRES, STONEY CREEK"
      },
      {
        "electoralDistricts": [
          {
            "election": null,
            "id": 31,
            "name": "Flamborough—Glanbrook"
          }
        ],
        "pollDivisionIds": [
          10138267
        ],
        "postalCode": "L8J0J3",
        "streetName": "SHERWAY",
        "streetDirectionId": null,
        "streetTypeId": "ST",
        "placeName": "STONEY CREEK",
        "streetNameDisplayText": "SHERWAY ST, STONEY CREEK"
      }
    ]
  },
  {
    "postal": "L8J1X6",
    "result": [
      {
        "electoralDistricts": [
          {
            "election": null,
            "id": 31,
            "name": "Flamborough—Glanbrook"
          }
        ],
        "pollDivisionIds": [
          10138265
        ],
        "postalCode": "L8J1X6",
        "streetName": "VIVA",
        "streetDirectionId": null,
        "streetTypeId": "CRT",
        "placeName": "STONEY CREEK",
        "streetNameDisplayText": "VIVA CRT, STONEY CREEK"
      }
    ]
  },
  {
    "postal": "L8J2Z6",
    "result": [
      {
        "electoralDistricts": [
          {
            "election": null,
            "id": 31,
            "name": "Flamborough—Glanbrook"
          }
        ],
        "pollDivisionIds": [
          10138269
        ],
        "postalCode": "L8J2Z6",
        "streetName": "GREEN MOUNTAIN",
        "streetDirectionId": "E",
        "streetTypeId": "RD",
        "placeName": "STONEY CREEK",
        "streetNameDisplayText": "GREEN MOUNTAIN RD E, STONEY CREEK"
      }
    ]
  },
  {
    "postal": "L8J4R9",
    "result": []
  },
  {
    "postal": "L8J0W8",
    "result": []
  },
  {
    "postal": "L8J1L4",
    "result": [
      {
        "electoralDistricts": [
          {
            "election": null,
            "id": 31,
            "name": "Flamborough—Glanbrook"
          }
        ],
        "pollDivisionIds": [
          10138263
        ],
        "postalCode": "L8J1L4",
        "streetName": "CHILTON",
        "streetDirectionId": null,
        "streetTypeId": "DR",
        "placeName": "STONEY CREEK",
        "streetNameDisplayText": "CHILTON DR, STONEY CREEK"
      }
    ]
  },
  {
    "postal": "L8J0C8",
    "result": [
      {
        "electoralDistricts": [
          {
            "election": null,
            "id": 31,
            "name": "Flamborough—Glanbrook"
          }
        ],
        "pollDivisionIds": [
          10138264
        ],
        "postalCode": "L8J0C8",
        "streetName": "MUD",
        "streetDirectionId": null,
        "streetTypeId": "ST",
        "placeName": "STONEY CREEK",
        "streetNameDisplayText": "MUD ST, STONEY CREEK"
      },
      {
        "electoralDistricts": [
          {
            "election": null,
            "id": 31,
            "name": "Flamborough—Glanbrook"
          }
        ],
        "pollDivisionIds": [
          10138263
        ],
        "postalCode": "L8J0C8",
        "streetName": "OLD MUD",
        "streetDirectionId": null,
        "streetTypeId": "ST",
        "placeName": "STONEY CREEK",
        "streetNameDisplayText": "OLD MUD ST, STONEY CREEK"
      }
    ]
  },
  {
    "postal": "L8J9X7",
    "result": []
  },
  {
    "postal": "L8J4T1",
    "result": []
  },
  {
    "postal": "L8J0M0",
    "result": []
  },
  {
    "postal": "L8J6A2",
    "result": []
  },
  {
    "postal": "L8J9S8",
    "result": []
  },
  {
    "postal": "L8J9T4",
    "result": []
  },
  {
    "postal": "L8J9Y4",
    "result": []
  },
  {
    "postal": "L8J6G5",
    "result": []
  },
  {
    "postal": "L8J6H9",
    "result": []
  },
  {
    "postal": "L8J2P3",
    "result": [
      {
        "electoralDistricts": [
          {
            "election": null,
            "id": 31,
            "name": "Flamborough—Glanbrook"
          }
        ],
        "pollDivisionIds": [
          10138265
        ],
        "postalCode": "L8J2P3",
        "streetName": "DOLMAN",
        "streetDirectionId": null,
        "streetTypeId": "ST",
        "placeName": "STONEY CREEK",
        "streetNameDisplayText": "DOLMAN ST, STONEY CREEK"
      },
      {
        "electoralDistricts": [
          {
            "election": null,
            "id": 31,
            "name": "Flamborough—Glanbrook"
          }
        ],
        "pollDivisionIds": [
          10138265
        ],
        "postalCode": "L8J2P3",
        "streetName": "ISAAC BROCK",
        "streetDirectionId": null,
        "streetTypeId": "DR",
        "placeName": "STONEY CREEK",
        "streetNameDisplayText": "ISAAC BROCK DR, STONEY CREEK"
      }
    ]
  },
  {
    "postal": "L8J1T6",
    "result": [
      {
        "electoralDistricts": [
          {
            "election": null,
            "id": 31,
            "name": "Flamborough—Glanbrook"
          }
        ],
        "pollDivisionIds": [
          10138264
        ],
        "postalCode": "L8J1T6",
        "streetName": "ATHENIA",
        "streetDirectionId": null,
        "streetTypeId": "DR",
        "placeName": "STONEY CREEK",
        "streetNameDisplayText": "ATHENIA DR, STONEY CREEK"
      }
    ]
  },
  {
    "postal": "L8J4P6",
    "result": []
  },
  {
    "postal": "L8J3K1",
    "result": [
      {
        "electoralDistricts": [
          {
            "election": null,
            "id": 31,
            "name": "Flamborough—Glanbrook"
          }
        ],
        "pollDivisionIds": [
          10138269
        ],
        "postalCode": "L8J3K1",
        "streetName": "TAPLEYTOWN",
        "streetDirectionId": null,
        "streetTypeId": "RD",
        "placeName": "STONEY CREEK",
        "streetNameDisplayText": "TAPLEYTOWN RD, STONEY CREEK"
      }
    ]
  },
  {
    "postal": "L8J6X4",
    "result": []
  },
  {
    "postal": "L8J4M8",
    "result": []
  },
  {
    "postal": "L8J2Y1",
    "result": [
      {
        "electoralDistricts": [
          {
            "election": null,
            "id": 31,
            "name": "Flamborough—Glanbrook"
          }
        ],
        "pollDivisionIds": [
          10138269
        ],
        "postalCode": "L8J2Y1",
        "streetName": "SECOND",
        "streetDirectionId": "E",
        "streetTypeId": "RD",
        "placeName": "STONEY CREEK",
        "streetNameDisplayText": "SECOND RD E, STONEY CREEK"
      },
      {
        "electoralDistricts": [
          {
            "election": null,
            "id": 31,
            "name": "Flamborough—Glanbrook"
          }
        ],
        "pollDivisionIds": [
          10138269
        ],
        "postalCode": "L8J2Y1",
        "streetName": "THIRD",
        "streetDirectionId": "E",
        "streetTypeId": "RD",
        "placeName": "STONEY CREEK",
        "streetNameDisplayText": "THIRD RD E, STONEY CREEK"
      }
    ]
  },
  {
    "postal": "L8J6M1",
    "result": []
  },
  {
    "postal": "L8J5L8",
    "result": []
  },
  {
    "postal": "L8J3P6",
    "result": [
      {
        "electoralDistricts": [
          {
            "election": null,
            "id": 31,
            "name": "Flamborough—Glanbrook"
          }
        ],
        "pollDivisionIds": [
          10138266
        ],
        "postalCode": "L8J3P6",
        "streetName": "CANDLEWOOD",
        "streetDirectionId": null,
        "streetTypeId": "DR",
        "placeName": "STONEY CREEK",
        "streetNameDisplayText": "CANDLEWOOD DR, STONEY CREEK"
      },
      {
        "electoralDistricts": [
          {
            "election": null,
            "id": 31,
            "name": "Flamborough—Glanbrook"
          }
        ],
        "pollDivisionIds": [
          10138266
        ],
        "postalCode": "L8J3P6",
        "streetName": "FEATHERWOOD",
        "streetDirectionId": null,
        "streetTypeId": "CRES",
        "placeName": "STONEY CREEK",
        "streetNameDisplayText": "FEATHERWOOD CRES, STONEY CREEK"
      }
    ]
  },
  {
    "postal": "L8J9A5",
    "result": []
  },
  {
    "postal": "L8J7K1",
    "result": []
  },
  {
    "postal": "L8J3J4",
    "result": [
      {
        "electoralDistricts": [
          {
            "election": null,
            "id": 31,
            "name": "Flamborough—Glanbrook"
          }
        ],
        "pollDivisionIds": [
          10138269
        ],
        "postalCode": "L8J3J4",
        "streetName": "SECOND",
        "streetDirectionId": "E",
        "streetTypeId": "RD",
        "placeName": "STONEY CREEK",
        "streetNameDisplayText": "SECOND RD E, STONEY CREEK"
      }
    ]
  },
  {
    "postal": "L8J5E7",
    "result": []
  },
  {
    "postal": "L8J3A7",
    "result": [
      {
        "electoralDistricts": [
          {
            "election": null,
            "id": 31,
            "name": "Flamborough—Glanbrook"
          }
        ],
        "pollDivisionIds": [
          10138269
        ],
        "postalCode": "L8J3A7",
        "streetName": "GREEN MOUNTAIN",
        "streetDirectionId": "E",
        "streetTypeId": "RD",
        "placeName": "STONEY CREEK",
        "streetNameDisplayText": "GREEN MOUNTAIN RD E, STONEY CREEK"
      }
    ]
  },
  {
    "postal": "L8J1B9",
    "result": [
      {
        "electoralDistricts": [
          {
            "election": null,
            "id": 31,
            "name": "Flamborough—Glanbrook"
          }
        ],
        "pollDivisionIds": [
          10138265
        ],
        "postalCode": "L8J1B9",
        "streetName": "LEMOYNE",
        "streetDirectionId": null,
        "streetTypeId": "PL",
        "placeName": "STONEY CREEK",
        "streetNameDisplayText": "LEMOYNE PL, STONEY CREEK"
      }
    ]
  },
  {
    "postal": "L8J9E8",
    "result": []
  },
  {
    "postal": "L8J1C9",
    "result": [
      {
        "electoralDistricts": [
          {
            "election": null,
            "id": 31,
            "name": "Flamborough—Glanbrook"
          }
        ],
        "pollDivisionIds": [
          10138265
        ],
        "postalCode": "L8J1C9",
        "streetName": "PRIDEAUX",
        "streetDirectionId": null,
        "streetTypeId": "ST",
        "placeName": "STONEY CREEK",
        "streetNameDisplayText": "PRIDEAUX ST, STONEY CREEK"
      }
    ]
  },
  {
    "postal": "L8J3B5",
    "result": [
      {
        "electoralDistricts": [
          {
            "election": null,
            "id": 31,
            "name": "Flamborough—Glanbrook"
          }
        ],
        "pollDivisionIds": [
          10138269
        ],
        "postalCode": "L8J3B5",
        "streetName": "MUD",
        "streetDirectionId": "E",
        "streetTypeId": "ST",
        "placeName": "STONEY CREEK",
        "streetNameDisplayText": "MUD ST E, STONEY CREEK"
      }
    ]
  },
  {
    "postal": "L8J8R0",
    "result": []
  },
  {
    "postal": "L8J3P2",
    "result": [
      {
        "electoralDistricts": [
          {
            "election": null,
            "id": 31,
            "name": "Flamborough—Glanbrook"
          }
        ],
        "pollDivisionIds": [
          10138266
        ],
        "postalCode": "L8J3P2",
        "streetName": "FOXMEADOW",
        "streetDirectionId": null,
        "streetTypeId": "DR",
        "placeName": "STONEY CREEK",
        "streetNameDisplayText": "FOXMEADOW DR, STONEY CREEK"
      },
      {
        "electoralDistricts": [
          {
            "election": null,
            "id": 31,
            "name": "Flamborough—Glanbrook"
          }
        ],
        "pollDivisionIds": [
          10138266
        ],
        "postalCode": "L8J3P2",
        "streetName": "HIGHBURY",
        "streetDirectionId": null,
        "streetTypeId": "DR",
        "placeName": "STONEY CREEK",
        "streetNameDisplayText": "HIGHBURY DR, STONEY CREEK"
      }
    ]
  },
  {
    "postal": "L8J5V4",
    "result": []
  },
  {
    "postal": "L8J4H0",
    "result": []
  },
  {
    "postal": "L8J4S7",
    "result": []
  },
  {
    "postal": "L8J6C2",
    "result": []
  },
  {
    "postal": "L8J8W3",
    "result": []
  },
  {
    "postal": "L8J4M5",
    "result": []
  },
  {
    "postal": "L8J5T1",
    "result": []
  },
  {
    "postal": "L8J3B3",
    "result": []
  },
  {
    "postal": "L8J6C6",
    "result": []
  },
  {
    "postal": "L8J7N8",
    "result": []
  },
  {
    "postal": "L8J2Y3",
    "result": [
      {
        "electoralDistricts": [
          {
            "election": null,
            "id": 31,
            "name": "Flamborough—Glanbrook"
          }
        ],
        "pollDivisionIds": [
          10138269
        ],
        "postalCode": "L8J2Y3",
        "streetName": "RIDGE",
        "streetDirectionId": null,
        "streetTypeId": "RD",
        "placeName": "STONEY CREEK",
        "streetNameDisplayText": "RIDGE RD, STONEY CREEK"
      }
    ]
  },
  {
    "postal": "L8J2R6",
    "result": [
      {
        "electoralDistricts": [
          {
            "election": null,
            "id": 31,
            "name": "Flamborough—Glanbrook"
          }
        ],
        "pollDivisionIds": [
          10138263
        ],
        "postalCode": "L8J2R6",
        "streetName": "RYMAL",
        "streetDirectionId": "E",
        "streetTypeId": "RD",
        "placeName": "STONEY CREEK",
        "streetNameDisplayText": "RYMAL RD E, STONEY CREEK"
      }
    ]
  },
  {
    "postal": "L8J7N3",
    "result": []
  },
  {
    "postal": "L8J8J2",
    "result": []
  },
  {
    "postal": "L8J6A9",
    "result": []
  },
  {
    "postal": "L8J3V2",
    "result": [
      {
        "electoralDistricts": [
          {
            "election": null,
            "id": 31,
            "name": "Flamborough—Glanbrook"
          }
        ],
        "pollDivisionIds": [
          10138266
        ],
        "postalCode": "L8J3V2",
        "streetName": "PINEWOODS",
        "streetDirectionId": null,
        "streetTypeId": "DR",
        "placeName": "STONEY CREEK",
        "streetNameDisplayText": "PINEWOODS DR, STONEY CREEK"
      }
    ]
  },
  {
    "postal": "L8J2N3",
    "result": [
      {
        "electoralDistricts": [
          {
            "election": null,
            "id": 31,
            "name": "Flamborough—Glanbrook"
          }
        ],
        "pollDivisionIds": [
          10138264
        ],
        "postalCode": "L8J2N3",
        "streetName": "PARAMOUNT",
        "streetDirectionId": null,
        "streetTypeId": "DR",
        "placeName": "STONEY CREEK",
        "streetNameDisplayText": "PARAMOUNT DR, STONEY CREEK"
      }
    ]
  },
  {
    "postal": "L8J1S5",
    "result": [
      {
        "electoralDistricts": [
          {
            "election": null,
            "id": 31,
            "name": "Flamborough—Glanbrook"
          }
        ],
        "pollDivisionIds": [
          10138264
        ],
        "postalCode": "L8J1S5",
        "streetName": "ATHENIA",
        "streetDirectionId": null,
        "streetTypeId": "DR",
        "placeName": "STONEY CREEK",
        "streetNameDisplayText": "ATHENIA DR, STONEY CREEK"
      }
    ]
  },
  {
    "postal": "L8J4T7",
    "result": []
  },
  {
    "postal": "L8J6Y7",
    "result": []
  },
  {
    "postal": "L8J0W7",
    "result": []
  },
  {
    "postal": "L8J2W9",
    "result": [
      {
        "electoralDistricts": [
          {
            "election": null,
            "id": 31,
            "name": "Flamborough—Glanbrook"
          }
        ],
        "pollDivisionIds": [
          10138269
        ],
        "postalCode": "L8J2W9",
        "streetName": "REGIONAL 20",
        "streetDirectionId": null,
        "streetTypeId": "RD",
        "placeName": "STONEY CREEK",
        "streetNameDisplayText": "REGIONAL 20 RD, STONEY CREEK"
      }
    ]
  },
  {
    "postal": "L8J8V0",
    "result": []
  },
  {
    "postal": "L8J0H4",
    "result": [
      {
        "electoralDistricts": [
          {
            "election": null,
            "id": 31,
            "name": "Flamborough—Glanbrook"
          }
        ],
        "pollDivisionIds": [
          10138267
        ],
        "postalCode": "L8J0H4",
        "streetName": "WESTBANK",
        "streetDirectionId": null,
        "streetTypeId": "TRAIL",
        "placeName": "STONEY CREEK",
        "streetNameDisplayText": "WESTBANK TRAIL, STONEY CREEK"
      }
    ]
  },
  {
    "postal": "L8J2T1",
    "result": [
      {
        "electoralDistricts": [
          {
            "election": null,
            "id": 31,
            "name": "Flamborough—Glanbrook"
          }
        ],
        "pollDivisionIds": [
          10138268
        ],
        "postalCode": "L8J2T1",
        "streetName": "AUBREY",
        "streetDirectionId": null,
        "streetTypeId": "AVE",
        "placeName": "STONEY CREEK",
        "streetNameDisplayText": "AUBREY AVE, STONEY CREEK"
      },
      {
        "electoralDistricts": [
          {
            "election": null,
            "id": 31,
            "name": "Flamborough—Glanbrook"
          }
        ],
        "pollDivisionIds": [
          10138266
        ],
        "postalCode": "L8J2T1",
        "streetName": "BYRON",
        "streetDirectionId": null,
        "streetTypeId": "AVE",
        "placeName": "STONEY CREEK",
        "streetNameDisplayText": "BYRON AVE, STONEY CREEK"
      },
      {
        "electoralDistricts": [
          {
            "election": null,
            "id": 31,
            "name": "Flamborough—Glanbrook"
          }
        ],
        "pollDivisionIds": [
          10138268,
          10138266
        ],
        "postalCode": "L8J2T1",
        "streetName": "SLINGER",
        "streetDirectionId": null,
        "streetTypeId": "AVE",
        "placeName": "STONEY CREEK",
        "streetNameDisplayText": "SLINGER AVE, STONEY CREEK"
      }
    ]
  },
  {
    "postal": "L8J1B1",
    "result": [
      {
        "electoralDistricts": [
          {
            "election": null,
            "id": 31,
            "name": "Flamborough—Glanbrook"
          }
        ],
        "pollDivisionIds": [
          10138265
        ],
        "postalCode": "L8J1B1",
        "streetName": "RAND",
        "streetDirectionId": null,
        "streetTypeId": "ST",
        "placeName": "STONEY CREEK",
        "streetNameDisplayText": "RAND ST, STONEY CREEK"
      }
    ]
  },
  {
    "postal": "L8J8B6",
    "result": []
  },
  {
    "postal": "L8J6H1",
    "result": []
  },
  {
    "postal": "L8J8T8",
    "result": []
  },
  {
    "postal": "L8J0T4",
    "result": []
  },
  {
    "postal": "L8J2C4",
    "result": [
      {
        "electoralDistricts": [
          {
            "election": null,
            "id": 31,
            "name": "Flamborough—Glanbrook"
          }
        ],
        "pollDivisionIds": [
          10138265
        ],
        "postalCode": "L8J2C4",
        "streetName": "KENNARD",
        "streetDirectionId": null,
        "streetTypeId": "ST",
        "placeName": "STONEY CREEK",
        "streetNameDisplayText": "KENNARD ST, STONEY CREEK"
      }
    ]
  },
  {
    "postal": "L8J8N3",
    "result": []
  },
  {
    "postal": "L8J4L8",
    "result": []
  },
  {
    "postal": "L8J2B5",
    "result": [
      {
        "electoralDistricts": [
          {
            "election": null,
            "id": 31,
            "name": "Flamborough—Glanbrook"
          }
        ],
        "pollDivisionIds": [
          10138267
        ],
        "postalCode": "L8J2B5",
        "streetName": "VESPER",
        "streetDirectionId": null,
        "streetTypeId": "CRT",
        "placeName": "STONEY CREEK",
        "streetNameDisplayText": "VESPER CRT, STONEY CREEK"
      }
    ]
  },
  {
    "postal": "L8J3H1",
    "result": [
      {
        "electoralDistricts": [
          {
            "election": null,
            "id": 31,
            "name": "Flamborough—Glanbrook"
          }
        ],
        "pollDivisionIds": [
          10138269
        ],
        "postalCode": "L8J3H1",
        "streetName": "HIGHLAND",
        "streetDirectionId": "E",
        "streetTypeId": "RD",
        "placeName": "STONEY CREEK",
        "streetNameDisplayText": "HIGHLAND RD E, STONEY CREEK"
      }
    ]
  },
  {
    "postal": "L8J4Y1",
    "result": []
  },
  {
    "postal": "L8J7E2",
    "result": []
  },
  {
    "postal": "L8J2P5",
    "result": [
      {
        "electoralDistricts": [
          {
            "election": null,
            "id": 31,
            "name": "Flamborough—Glanbrook"
          }
        ],
        "pollDivisionIds": [
          10138268
        ],
        "postalCode": "L8J2P5",
        "streetName": "FIRST",
        "streetDirectionId": "W",
        "streetTypeId": "RD",
        "placeName": "STONEY CREEK",
        "streetNameDisplayText": "FIRST RD W, STONEY CREEK"
      }
    ]
  },
  {
    "postal": "L8J8R7",
    "result": []
  },
  {
    "postal": "L8J9P1",
    "result": []
  },
  {
    "postal": "L8J3B8",
    "result": [
      {
        "electoralDistricts": [
          {
            "election": null,
            "id": 31,
            "name": "Flamborough—Glanbrook"
          }
        ],
        "pollDivisionIds": [
          10138269
        ],
        "postalCode": "L8J3B8",
        "streetName": "MUD",
        "streetDirectionId": "E",
        "streetTypeId": "ST",
        "placeName": "STONEY CREEK",
        "streetNameDisplayText": "MUD ST E, STONEY CREEK"
      }
    ]
  },
  {
    "postal": "L8J3P7",
    "result": [
      {
        "electoralDistricts": [
          {
            "election": null,
            "id": 31,
            "name": "Flamborough—Glanbrook"
          }
        ],
        "pollDivisionIds": [
          10138266
        ],
        "postalCode": "L8J3P7",
        "streetName": "HIGHGATE",
        "streetDirectionId": null,
        "streetTypeId": "DR",
        "placeName": "STONEY CREEK",
        "streetNameDisplayText": "HIGHGATE DR, STONEY CREEK"
      }
    ]
  },
  {
    "postal": "L8J9B2",
    "result": []
  },
  {
    "postal": "L8J6Z3",
    "result": []
  },
  {
    "postal": "L8J4N5",
    "result": []
  },
  {
    "postal": "L8J8T3",
    "result": []
  },
  {
    "postal": "L8J1V2",
    "result": []
  },
  {
    "postal": "L8J1Y0",
    "result": []
  },
  {
    "postal": "L8J3G6",
    "result": [
      {
        "electoralDistricts": [
          {
            "election": null,
            "id": 31,
            "name": "Flamborough—Glanbrook"
          }
        ],
        "pollDivisionIds": [
          10138269
        ],
        "postalCode": "L8J3G6",
        "streetName": "HIGHLAND",
        "streetDirectionId": "E",
        "streetTypeId": "RD",
        "placeName": "STONEY CREEK",
        "streetNameDisplayText": "HIGHLAND RD E, STONEY CREEK"
      }
    ]
  },
  {
    "postal": "L8J3H7",
    "result": [
      {
        "electoralDistricts": [
          {
            "election": null,
            "id": 31,
            "name": "Flamborough—Glanbrook"
          }
        ],
        "pollDivisionIds": [
          10138269
        ],
        "postalCode": "L8J3H7",
        "streetName": "REGIONAL RD 20",
        "streetDirectionId": null,
        "streetTypeId": null,
        "placeName": "STONEY CREEK",
        "streetNameDisplayText": "REGIONAL RD 20, STONEY CREEK"
      }
    ]
  },
  {
    "postal": "L8J7X8",
    "result": []
  },
  {
    "postal": "L8J0C7",
    "result": [
      {
        "electoralDistricts": [
          {
            "election": null,
            "id": 31,
            "name": "Flamborough—Glanbrook"
          }
        ],
        "pollDivisionIds": [
          10138263
        ],
        "postalCode": "L8J0C7",
        "streetName": "OLD MUD",
        "streetDirectionId": null,
        "streetTypeId": "ST",
        "placeName": "STONEY CREEK",
        "streetNameDisplayText": "OLD MUD ST, STONEY CREEK"
      }
    ]
  },
  {
    "postal": "L8J0W9",
    "result": []
  },
  {
    "postal": "L8J8E6",
    "result": []
  },
  {
    "postal": "L8J9Z8",
    "result": []
  },
  {
    "postal": "L8J3P4",
    "result": [
      {
        "electoralDistricts": [
          {
            "election": null,
            "id": 31,
            "name": "Flamborough—Glanbrook"
          }
        ],
        "pollDivisionIds": [
          10138266
        ],
        "postalCode": "L8J3P4",
        "streetName": "FOXMEADOW",
        "streetDirectionId": null,
        "streetTypeId": "DR",
        "placeName": "STONEY CREEK",
        "streetNameDisplayText": "FOXMEADOW DR, STONEY CREEK"
      },
      {
        "electoralDistricts": [
          {
            "election": null,
            "id": 31,
            "name": "Flamborough—Glanbrook"
          }
        ],
        "pollDivisionIds": [
          10138266
        ],
        "postalCode": "L8J3P4",
        "streetName": "HIGHBURY",
        "streetDirectionId": null,
        "streetTypeId": "DR",
        "placeName": "STONEY CREEK",
        "streetNameDisplayText": "HIGHBURY DR, STONEY CREEK"
      }
    ]
  },
  {
    "postal": "L8J6L8",
    "result": []
  },
  {
    "postal": "L8J2R4",
    "result": [
      {
        "electoralDistricts": [
          {
            "election": null,
            "id": 31,
            "name": "Flamborough—Glanbrook"
          }
        ],
        "pollDivisionIds": [
          10138268,
          10138269
        ],
        "postalCode": "L8J2R4",
        "streetName": "FIRST",
        "streetDirectionId": "W",
        "streetTypeId": "RD",
        "placeName": "STONEY CREEK",
        "streetNameDisplayText": "FIRST RD W, STONEY CREEK"
      }
    ]
  },
  {
    "postal": "L8J2W1",
    "result": [
      {
        "electoralDistricts": [
          {
            "election": null,
            "id": 31,
            "name": "Flamborough—Glanbrook"
          }
        ],
        "pollDivisionIds": [
          10138269
        ],
        "postalCode": "L8J2W1",
        "streetName": "RIDGE",
        "streetDirectionId": null,
        "streetTypeId": "RD",
        "placeName": "STONEY CREEK",
        "streetNameDisplayText": "RIDGE RD, STONEY CREEK"
      }
    ]
  },
  {
    "postal": "L8J9H8",
    "result": []
  },
  {
    "postal": "L8J8X9",
    "result": []
  },
  {
    "postal": "L8J7H4",
    "result": []
  },
  {
    "postal": "L8J3J1",
    "result": [
      {
        "electoralDistricts": [
          {
            "election": null,
            "id": 31,
            "name": "Flamborough—Glanbrook"
          }
        ],
        "pollDivisionIds": [
          10138269
        ],
        "postalCode": "L8J3J1",
        "streetName": "SECOND",
        "streetDirectionId": "E",
        "streetTypeId": "RD",
        "placeName": "STONEY CREEK",
        "streetNameDisplayText": "SECOND RD E, STONEY CREEK"
      }
    ]
  },
  {
    "postal": "L8J1P4",
    "result": [
      {
        "electoralDistricts": [
          {
            "election": null,
            "id": 31,
            "name": "Flamborough—Glanbrook"
          }
        ],
        "pollDivisionIds": [
          10138263
        ],
        "postalCode": "L8J1P4",
        "streetName": "HOPEWELL",
        "streetDirectionId": null,
        "streetTypeId": "CRES",
        "placeName": "STONEY CREEK",
        "streetNameDisplayText": "HOPEWELL CRES, STONEY CREEK"
      }
    ]
  },
  {
    "postal": "L8J2A3",
    "result": [
      {
        "electoralDistricts": [
          {
            "election": null,
            "id": 31,
            "name": "Flamborough—Glanbrook"
          }
        ],
        "pollDivisionIds": [
          10138267
        ],
        "postalCode": "L8J2A3",
        "streetName": "BUFFALO",
        "streetDirectionId": null,
        "streetTypeId": "CRT",
        "placeName": "STONEY CREEK",
        "streetNameDisplayText": "BUFFALO CRT, STONEY CREEK"
      }
    ]
  },
  {
    "postal": "L8J0Z1",
    "result": []
  },
  {
    "postal": "L8J1C1",
    "result": [
      {
        "electoralDistricts": [
          {
            "election": null,
            "id": 31,
            "name": "Flamborough—Glanbrook"
          }
        ],
        "pollDivisionIds": [
          10138265
        ],
        "postalCode": "L8J1C1",
        "streetName": "LEMOYNE",
        "streetDirectionId": null,
        "streetTypeId": "PL",
        "placeName": "STONEY CREEK",
        "streetNameDisplayText": "LEMOYNE PL, STONEY CREEK"
      }
    ]
  },
  {
    "postal": "L8J0H3",
    "result": [
      {
        "electoralDistricts": [
          {
            "election": null,
            "id": 31,
            "name": "Flamborough—Glanbrook"
          }
        ],
        "pollDivisionIds": [
          10138267
        ],
        "postalCode": "L8J0H3",
        "streetName": "WESTBANK",
        "streetDirectionId": null,
        "streetTypeId": "TRAIL",
        "placeName": "STONEY CREEK",
        "streetNameDisplayText": "WESTBANK TRAIL, STONEY CREEK"
      }
    ]
  },
  {
    "postal": "L8J7B0",
    "result": []
  },
  {
    "postal": "L8J5K2",
    "result": []
  },
  {
    "postal": "L8J1E9",
    "result": [
      {
        "electoralDistricts": [
          {
            "election": null,
            "id": 31,
            "name": "Flamborough—Glanbrook"
          }
        ],
        "pollDivisionIds": [
          10138265
        ],
        "postalCode": "L8J1E9",
        "streetName": "GORDON DRUMMOND",
        "streetDirectionId": null,
        "streetTypeId": "AVE",
        "placeName": "STONEY CREEK",
        "streetNameDisplayText": "GORDON DRUMMOND AVE, STONEY CREEK"
      }
    ]
  },
  {
    "postal": "L8J9W7",
    "result": []
  },
  {
    "postal": "L8J5W6",
    "result": []
  },
  {
    "postal": "L8J6S6",
    "result": []
  },
  {
    "postal": "L8J2P8",
    "result": [
      {
        "electoralDistricts": [
          {
            "election": null,
            "id": 31,
            "name": "Flamborough—Glanbrook"
          }
        ],
        "pollDivisionIds": [
          10138267
        ],
        "postalCode": "L8J2P8",
        "streetName": "MISTYWOOD",
        "streetDirectionId": null,
        "streetTypeId": "DR",
        "placeName": "STONEY CREEK",
        "streetNameDisplayText": "MISTYWOOD DR, STONEY CREEK"
      }
    ]
  },
  {
    "postal": "L8J4P8",
    "result": []
  },
  {
    "postal": "L8J0V9",
    "result": []
  },
  {
    "postal": "L8J5Y2",
    "result": []
  },
  {
    "postal": "L8J7Z7",
    "result": []
  },
  {
    "postal": "L8J6Y8",
    "result": []
  },
  {
    "postal": "L8J2G7",
    "result": []
  },
  {
    "postal": "L8J8C1",
    "result": []
  },
  {
    "postal": "L8J5C5",
    "result": []
  },
  {
    "postal": "L8J2X8",
    "result": [
      {
        "electoralDistricts": [
          {
            "election": null,
            "id": 31,
            "name": "Flamborough—Glanbrook"
          }
        ],
        "pollDivisionIds": [
          10138269
        ],
        "postalCode": "L8J2X8",
        "streetName": "GREEN MOUNTAIN",
        "streetDirectionId": "E",
        "streetTypeId": "RD",
        "placeName": "STONEY CREEK",
        "streetNameDisplayText": "GREEN MOUNTAIN RD E, STONEY CREEK"
      },
      {
        "electoralDistricts": [
          {
            "election": null,
            "id": 31,
            "name": "Flamborough—Glanbrook"
          }
        ],
        "pollDivisionIds": [
          10138269
        ],
        "postalCode": "L8J2X8",
        "streetName": "THIRD",
        "streetDirectionId": "E",
        "streetTypeId": "RD",
        "placeName": "STONEY CREEK",
        "streetNameDisplayText": "THIRD RD E, STONEY CREEK"
      }
    ]
  },
  {
    "postal": "L8J1W5",
    "result": [
      {
        "electoralDistricts": [
          {
            "election": null,
            "id": 31,
            "name": "Flamborough—Glanbrook"
          }
        ],
        "pollDivisionIds": [
          10138265
        ],
        "postalCode": "L8J1W5",
        "streetName": "VENTURA",
        "streetDirectionId": null,
        "streetTypeId": "DR",
        "placeName": "STONEY CREEK",
        "streetNameDisplayText": "VENTURA DR, STONEY CREEK"
      }
    ]
  },
  {
    "postal": "L8J7G0",
    "result": []
  },
  {
    "postal": "L8J8J8",
    "result": []
  },
  {
    "postal": "L8J3Y0",
    "result": []
  },
  {
    "postal": "L8J9T7",
    "result": []
  },
  {
    "postal": "L8J5P4",
    "result": []
  },
  {
    "postal": "L8J4B0",
    "result": []
  },
  {
    "postal": "L8J9N8",
    "result": []
  },
  {
    "postal": "L8J4A7",
    "result": []
  },
  {
    "postal": "L8J4H9",
    "result": []
  },
  {
    "postal": "L8J6X1",
    "result": []
  },
  {
    "postal": "L8J9Y7",
    "result": []
  },
  {
    "postal": "L8J2Y5",
    "result": [
      {
        "electoralDistricts": [
          {
            "election": null,
            "id": 31,
            "name": "Flamborough—Glanbrook"
          }
        ],
        "pollDivisionIds": [
          10138269
        ],
        "postalCode": "L8J2Y5",
        "streetName": "RIDGE",
        "streetDirectionId": null,
        "streetTypeId": "RD",
        "placeName": "STONEY CREEK",
        "streetNameDisplayText": "RIDGE RD, STONEY CREEK"
      }
    ]
  },
  {
    "postal": "L8J8L7",
    "result": []
  },
  {
    "postal": "L8J2A8",
    "result": []
  },
  {
    "postal": "L8J2K9",
    "result": [
      {
        "electoralDistricts": [
          {
            "election": null,
            "id": 31,
            "name": "Flamborough—Glanbrook"
          }
        ],
        "pollDivisionIds": [
          10138264
        ],
        "postalCode": "L8J2K9",
        "streetName": "BUTTERNUT",
        "streetDirectionId": null,
        "streetTypeId": "CRT",
        "placeName": "STONEY CREEK",
        "streetNameDisplayText": "BUTTERNUT CRT, STONEY CREEK"
      },
      {
        "electoralDistricts": [
          {
            "election": null,
            "id": 31,
            "name": "Flamborough—Glanbrook"
          }
        ],
        "pollDivisionIds": [
          10138264
        ],
        "postalCode": "L8J2K9",
        "streetName": "GREENGROVE",
        "streetDirectionId": null,
        "streetTypeId": "AVE",
        "placeName": "STONEY CREEK",
        "streetNameDisplayText": "GREENGROVE AVE, STONEY CREEK"
      }
    ]
  },
  {
    "postal": "L8J3E5",
    "result": [
      {
        "electoralDistricts": [
          {
            "election": null,
            "id": 31,
            "name": "Flamborough—Glanbrook"
          }
        ],
        "pollDivisionIds": [
          10138269
        ],
        "postalCode": "L8J3E5",
        "streetName": "MUD",
        "streetDirectionId": "E",
        "streetTypeId": "ST",
        "placeName": "STONEY CREEK",
        "streetNameDisplayText": "MUD ST E, STONEY CREEK"
      }
    ]
  },
  {
    "postal": "L8J8N6",
    "result": []
  },
  {
    "postal": "L8J8J4",
    "result": []
  },
  {
    "postal": "L8J4R7",
    "result": []
  },
  {
    "postal": "L8J9K1",
    "result": []
  },
  {
    "postal": "L8J8E1",
    "result": []
  },
  {
    "postal": "L8J0R1",
    "result": []
  },
  {
    "postal": "L8J4J3",
    "result": []
  },
  {
    "postal": "L8J7E7",
    "result": []
  },
  {
    "postal": "L8J0J0",
    "result": []
  },
  {
    "postal": "L8J7R8",
    "result": []
  },
  {
    "postal": "L8J9X0",
    "result": []
  },
  {
    "postal": "L8J7P6",
    "result": []
  },
  {
    "postal": "L8J0R7",
    "result": []
  },
  {
    "postal": "L8J5W1",
    "result": []
  },
  {
    "postal": "L8J0K4",
    "result": [
      {
        "electoralDistricts": [
          {
            "election": null,
            "id": 31,
            "name": "Flamborough—Glanbrook"
          }
        ],
        "pollDivisionIds": [
          10138264,
          10138267
        ],
        "postalCode": "L8J0K4",
        "streetName": "ECHOVALLEY",
        "streetDirectionId": null,
        "streetTypeId": "DR",
        "placeName": "STONEY CREEK",
        "streetNameDisplayText": "ECHOVALLEY DR, STONEY CREEK"
      }
    ]
  },
  {
    "postal": "L8J7N9",
    "result": []
  },
  {
    "postal": "L8J1N0",
    "result": []
  },
  {
    "postal": "L8J6P3",
    "result": []
  },
  {
    "postal": "L8J5A1",
    "result": []
  },
  {
    "postal": "L8J9M9",
    "result": []
  },
  {
    "postal": "L8J7T6",
    "result": []
  },
  {
    "postal": "L8J3X0",
    "result": []
  },
  {
    "postal": "L8J2T0",
    "result": []
  },
  {
    "postal": "L8J5X9",
    "result": []
  },
  {
    "postal": "L8J2R3",
    "result": [
      {
        "electoralDistricts": [
          {
            "election": null,
            "id": 31,
            "name": "Flamborough—Glanbrook"
          }
        ],
        "pollDivisionIds": [
          10138268
        ],
        "postalCode": "L8J2R3",
        "streetName": "FIRST",
        "streetDirectionId": "W",
        "streetTypeId": "RD",
        "placeName": "STONEY CREEK",
        "streetNameDisplayText": "FIRST RD W, STONEY CREEK"
      }
    ]
  },
  {
    "postal": "L8J5N2",
    "result": []
  },
  {
    "postal": "L8J4Y7",
    "result": []
  },
  {
    "postal": "L8J7M0",
    "result": []
  },
  {
    "postal": "L8J8P3",
    "result": []
  },
  {
    "postal": "L8J3N3",
    "result": [
      {
        "electoralDistricts": [
          {
            "election": null,
            "id": 31,
            "name": "Flamborough—Glanbrook"
          }
        ],
        "pollDivisionIds": [
          10138269
        ],
        "postalCode": "L8J3N3",
        "streetName": "ELEVENTH",
        "streetDirectionId": "E",
        "streetTypeId": "RD",
        "placeName": "STONEY CREEK",
        "streetNameDisplayText": "ELEVENTH RD E, STONEY CREEK"
      }
    ]
  },
  {
    "postal": "L8J7S3",
    "result": []
  },
  {
    "postal": "L8J3V9",
    "result": [
      {
        "electoralDistricts": [
          {
            "election": null,
            "id": 31,
            "name": "Flamborough—Glanbrook"
          }
        ],
        "pollDivisionIds": [
          10138263
        ],
        "postalCode": "L8J3V9",
        "streetName": "PARAMOUNT",
        "streetDirectionId": null,
        "streetTypeId": "DR",
        "placeName": "STONEY CREEK",
        "streetNameDisplayText": "PARAMOUNT DR, STONEY CREEK"
      }
    ]
  },
  {
    "postal": "L8J9N7",
    "result": []
  },
  {
    "postal": "L8J0G4",
    "result": [
      {
        "electoralDistricts": [
          {
            "election": null,
            "id": 31,
            "name": "Flamborough—Glanbrook"
          }
        ],
        "pollDivisionIds": [
          10138268
        ],
        "postalCode": "L8J0G4",
        "streetName": "DORCHESTER",
        "streetDirectionId": null,
        "streetTypeId": "TERR",
        "placeName": "STONEY CREEK",
        "streetNameDisplayText": "DORCHESTER TERR, STONEY CREEK"
      },
      {
        "electoralDistricts": [
          {
            "election": null,
            "id": 31,
            "name": "Flamborough—Glanbrook"
          }
        ],
        "pollDivisionIds": [
          10138268
        ],
        "postalCode": "L8J0G4",
        "streetName": "ENGLAND",
        "streetDirectionId": null,
        "streetTypeId": "TERR",
        "placeName": "STONEY CREEK",
        "streetNameDisplayText": "ENGLAND TERR, STONEY CREEK"
      },
      {
        "electoralDistricts": [
          {
            "election": null,
            "id": 31,
            "name": "Flamborough—Glanbrook"
          }
        ],
        "pollDivisionIds": [
          10138268
        ],
        "postalCode": "L8J0G4",
        "streetName": "KENRIDGE",
        "streetDirectionId": null,
        "streetTypeId": "TERR",
        "placeName": "STONEY CREEK",
        "streetNameDisplayText": "KENRIDGE TERR, STONEY CREEK"
      },
      {
        "electoralDistricts": [
          {
            "election": null,
            "id": 31,
            "name": "Flamborough—Glanbrook"
          }
        ],
        "pollDivisionIds": [
          10138268
        ],
        "postalCode": "L8J0G4",
        "streetName": "MAYLAND",
        "streetDirectionId": null,
        "streetTypeId": "TRAIL",
        "placeName": "STONEY CREEK",
        "streetNameDisplayText": "MAYLAND TRAIL, STONEY CREEK"
      }
    ]
  },
  {
    "postal": "L8J2E2",
    "result": [
      {
        "electoralDistricts": [
          {
            "election": null,
            "id": 31,
            "name": "Flamborough—Glanbrook"
          }
        ],
        "pollDivisionIds": [
          10138265
        ],
        "postalCode": "L8J2E2",
        "streetName": "SUTTON",
        "streetDirectionId": null,
        "streetTypeId": "CRT",
        "placeName": "STONEY CREEK",
        "streetNameDisplayText": "SUTTON CRT, STONEY CREEK"
      }
    ]
  },
  {
    "postal": "L8J7W8",
    "result": []
  },
  {
    "postal": "L8J7M5",
    "result": []
  },
  {
    "postal": "L8J5W8",
    "result": []
  },
  {
    "postal": "L8J5E5",
    "result": []
  },
  {
    "postal": "L8J1P9",
    "result": [
      {
        "electoralDistricts": [
          {
            "election": null,
            "id": 31,
            "name": "Flamborough—Glanbrook"
          }
        ],
        "pollDivisionIds": [
          10138264
        ],
        "postalCode": "L8J1P9",
        "streetName": "ALLANBROOK",
        "streetDirectionId": null,
        "streetTypeId": "ST",
        "placeName": "STONEY CREEK",
        "streetNameDisplayText": "ALLANBROOK ST, STONEY CREEK"
      }
    ]
  },
  {
    "postal": "L8J8V8",
    "result": []
  },
  {
    "postal": "L8J9G8",
    "result": []
  },
  {
    "postal": "L8J8H9",
    "result": []
  },
  {
    "postal": "L8J1Z1",
    "result": [
      {
        "electoralDistricts": [
          {
            "election": null,
            "id": 31,
            "name": "Flamborough—Glanbrook"
          }
        ],
        "pollDivisionIds": [
          10138267
        ],
        "postalCode": "L8J1Z1",
        "streetName": "SPY",
        "streetDirectionId": null,
        "streetTypeId": "CRT",
        "placeName": "STONEY CREEK",
        "streetNameDisplayText": "SPY CRT, STONEY CREEK"
      }
    ]
  },
  {
    "postal": "L8J8M3",
    "result": []
  },
  {
    "postal": "L8J5H6",
    "result": []
  },
  {
    "postal": "L8J7W7",
    "result": []
  },
  {
    "postal": "L8J4L0",
    "result": []
  },
  {
    "postal": "L8J2N1",
    "result": [
      {
        "electoralDistricts": [
          {
            "election": null,
            "id": 31,
            "name": "Flamborough—Glanbrook"
          }
        ],
        "pollDivisionIds": [
          10138264
        ],
        "postalCode": "L8J2N1",
        "streetName": "PARAMOUNT",
        "streetDirectionId": null,
        "streetTypeId": "DR",
        "placeName": "STONEY CREEK",
        "streetNameDisplayText": "PARAMOUNT DR, STONEY CREEK"
      },
      {
        "electoralDistricts": [
          {
            "election": null,
            "id": 31,
            "name": "Flamborough—Glanbrook"
          }
        ],
        "pollDivisionIds": [
          10138263
        ],
        "postalCode": "L8J2N1",
        "streetName": "WINTERBERRY",
        "streetDirectionId": null,
        "streetTypeId": "DR",
        "placeName": "STONEY CREEK",
        "streetNameDisplayText": "WINTERBERRY DR, STONEY CREEK"
      }
    ]
  },
  {
    "postal": "L8J2H4",
    "result": []
  },
  {
    "postal": "L8J5C8",
    "result": []
  },
  {
    "postal": "L8J8B0",
    "result": []
  },
  {
    "postal": "L8J1T4",
    "result": [
      {
        "electoralDistricts": [
          {
            "election": null,
            "id": 31,
            "name": "Flamborough—Glanbrook"
          }
        ],
        "pollDivisionIds": [
          10138264
        ],
        "postalCode": "L8J1T4",
        "streetName": "ATHENIA",
        "streetDirectionId": null,
        "streetTypeId": "DR",
        "placeName": "STONEY CREEK",
        "streetNameDisplayText": "ATHENIA DR, STONEY CREEK"
      }
    ]
  },
  {
    "postal": "L8J7N7",
    "result": []
  },
  {
    "postal": "L8J4L3",
    "result": []
  },
  {
    "postal": "L8J2N2",
    "result": [
      {
        "electoralDistricts": [
          {
            "election": null,
            "id": 31,
            "name": "Flamborough—Glanbrook"
          }
        ],
        "pollDivisionIds": [
          10138264
        ],
        "postalCode": "L8J2N2",
        "streetName": "PARAMOUNT",
        "streetDirectionId": null,
        "streetTypeId": "DR",
        "placeName": "STONEY CREEK",
        "streetNameDisplayText": "PARAMOUNT DR, STONEY CREEK"
      }
    ]
  },
  {
    "postal": "L8J4N8",
    "result": []
  },
  {
    "postal": "L8J3M5",
    "result": [
      {
        "electoralDistricts": [
          {
            "election": null,
            "id": 31,
            "name": "Flamborough—Glanbrook"
          }
        ],
        "pollDivisionIds": [
          10138269
        ],
        "postalCode": "L8J3M5",
        "streetName": "TENTH",
        "streetDirectionId": "E",
        "streetTypeId": "RD",
        "placeName": "STONEY CREEK",
        "streetNameDisplayText": "TENTH RD E, STONEY CREEK"
      }
    ]
  },
  {
    "postal": "L8J6H7",
    "result": []
  },
  {
    "postal": "L8J8Y8",
    "result": []
  },
  {
    "postal": "L8J5R9",
    "result": []
  },
  {
    "postal": "L8J8G3",
    "result": []
  },
  {
    "postal": "L8J4N7",
    "result": []
  },
  {
    "postal": "L8J0B9",
    "result": [
      {
        "electoralDistricts": [
          {
            "election": null,
            "id": 31,
            "name": "Flamborough—Glanbrook"
          }
        ],
        "pollDivisionIds": [
          10138266
        ],
        "postalCode": "L8J0B9",
        "streetName": "BANKFIELD",
        "streetDirectionId": null,
        "streetTypeId": "CRES",
        "placeName": "STONEY CREEK",
        "streetNameDisplayText": "BANKFIELD CRES, STONEY CREEK"
      }
    ]
  },
  {
    "postal": "L8J9K7",
    "result": []
  },
  {
    "postal": "L8J9K9",
    "result": []
  },
  {
    "postal": "L8J3Z2",
    "result": [
      {
        "electoralDistricts": [
          {
            "election": null,
            "id": 31,
            "name": "Flamborough—Glanbrook"
          }
        ],
        "pollDivisionIds": [
          10138266
        ],
        "postalCode": "L8J3Z2",
        "streetName": "ERINGATE",
        "streetDirectionId": null,
        "streetTypeId": "DR",
        "placeName": "STONEY CREEK",
        "streetNameDisplayText": "ERINGATE DR, STONEY CREEK"
      }
    ]
  },
  {
    "postal": "L8J6W7",
    "result": []
  },
  {
    "postal": "L8J0P1",
    "result": []
  },
  {
    "postal": "L8J3A0",
    "result": []
  },
  {
    "postal": "L8J8L9",
    "result": []
  },
  {
    "postal": "L8J6X0",
    "result": []
  },
  {
    "postal": "L8J3E9",
    "result": [
      {
        "electoralDistricts": [
          {
            "election": null,
            "id": 31,
            "name": "Flamborough—Glanbrook"
          }
        ],
        "pollDivisionIds": [
          10138269
        ],
        "postalCode": "L8J3E9",
        "streetName": "HIGHLAND",
        "streetDirectionId": "E",
        "streetTypeId": "RD",
        "placeName": "STONEY CREEK",
        "streetNameDisplayText": "HIGHLAND RD E, STONEY CREEK"
      }
    ]
  },
  {
    "postal": "L8J0S5",
    "result": []
  },
  {
    "postal": "L8J1A2",
    "result": [
      {
        "electoralDistricts": [
          {
            "election": null,
            "id": 31,
            "name": "Flamborough—Glanbrook"
          }
        ],
        "pollDivisionIds": [
          10138265
        ],
        "postalCode": "L8J1A2",
        "streetName": "ODESSA",
        "streetDirectionId": null,
        "streetTypeId": "ST",
        "placeName": "STONEY CREEK",
        "streetNameDisplayText": "ODESSA ST, STONEY CREEK"
      }
    ]
  },
  {
    "postal": "L8J5V8",
    "result": []
  },
  {
    "postal": "L8J8C5",
    "result": []
  },
  {
    "postal": "L8J6N0",
    "result": []
  },
  {
    "postal": "L8J9E6",
    "result": []
  },
  {
    "postal": "L8J5J7",
    "result": []
  },
  {
    "postal": "L8J2R2",
    "result": [
      {
        "electoralDistricts": [
          {
            "election": null,
            "id": 31,
            "name": "Flamborough—Glanbrook"
          }
        ],
        "pollDivisionIds": [
          10138265
        ],
        "postalCode": "L8J2R2",
        "streetName": "ISAAC BROCK",
        "streetDirectionId": null,
        "streetTypeId": "DR",
        "placeName": "STONEY CREEK",
        "streetNameDisplayText": "ISAAC BROCK DR, STONEY CREEK"
      }
    ]
  },
  {
    "postal": "L8J0P5",
    "result": []
  },
  {
    "postal": "L8J5A7",
    "result": []
  },
  {
    "postal": "L8J1G1",
    "result": [
      {
        "electoralDistricts": [
          {
            "election": null,
            "id": 31,
            "name": "Flamborough—Glanbrook"
          }
        ],
        "pollDivisionIds": [
          10138265
        ],
        "postalCode": "L8J1G1",
        "streetName": "GORDON DRUMMOND",
        "streetDirectionId": null,
        "streetTypeId": "AVE",
        "placeName": "STONEY CREEK",
        "streetNameDisplayText": "GORDON DRUMMOND AVE, STONEY CREEK"
      }
    ]
  },
  {
    "postal": "L8J9R6",
    "result": []
  },
  {
    "postal": "L8J4Z9",
    "result": []
  },
  {
    "postal": "L8J1V5",
    "result": [
      {
        "electoralDistricts": [
          {
            "election": null,
            "id": 31,
            "name": "Flamborough—Glanbrook"
          }
        ],
        "pollDivisionIds": [
          10138263
        ],
        "postalCode": "L8J1V5",
        "streetName": "UPPER MOUNT ALBION",
        "streetDirectionId": null,
        "streetTypeId": "RD",
        "placeName": "STONEY CREEK",
        "streetNameDisplayText": "UPPER MOUNT ALBION RD, STONEY CREEK"
      }
    ]
  },
  {
    "postal": "L8J9Y5",
    "result": []
  },
  {
    "postal": "L8J1P2",
    "result": [
      {
        "electoralDistricts": [
          {
            "election": null,
            "id": 31,
            "name": "Flamborough—Glanbrook"
          }
        ],
        "pollDivisionIds": [
          10138263
        ],
        "postalCode": "L8J1P2",
        "streetName": "MARKHAM",
        "streetDirectionId": null,
        "streetTypeId": "CRES",
        "placeName": "STONEY CREEK",
        "streetNameDisplayText": "MARKHAM CRES, STONEY CREEK"
      }
    ]
  },
  {
    "postal": "L8J5X0",
    "result": []
  },
  {
    "postal": "L8J7B8",
    "result": []
  },
  {
    "postal": "L8J0C6",
    "result": []
  },
  {
    "postal": "L8J6G1",
    "result": []
  },
  {
    "postal": "L8J3K3",
    "result": [
      {
        "electoralDistricts": [
          {
            "election": null,
            "id": 31,
            "name": "Flamborough—Glanbrook"
          }
        ],
        "pollDivisionIds": [
          10138269
        ],
        "postalCode": "L8J3K3",
        "streetName": "TAPLEYTOWN",
        "streetDirectionId": null,
        "streetTypeId": "RD",
        "placeName": "STONEY CREEK",
        "streetNameDisplayText": "TAPLEYTOWN RD, STONEY CREEK"
      }
    ]
  },
  {
    "postal": "L8J9R0",
    "result": []
  },
  {
    "postal": "L8J4R8",
    "result": []
  },
  {
    "postal": "L8J5P9",
    "result": []
  },
  {
    "postal": "L8J8N4",
    "result": []
  },
  {
    "postal": "L8J8H4",
    "result": []
  },
  {
    "postal": "L8J4V1",
    "result": []
  },
  {
    "postal": "L8J1K5",
    "result": [
      {
        "electoralDistricts": [
          {
            "election": null,
            "id": 31,
            "name": "Flamborough—Glanbrook"
          }
        ],
        "pollDivisionIds": [
          10138268
        ],
        "postalCode": "L8J1K5",
        "streetName": "FIRST",
        "streetDirectionId": "W",
        "streetTypeId": "RD",
        "placeName": "STONEY CREEK",
        "streetNameDisplayText": "FIRST RD W, STONEY CREEK"
      }
    ]
  },
  {
    "postal": "L8J1Z5",
    "result": [
      {
        "electoralDistricts": [
          {
            "election": null,
            "id": 31,
            "name": "Flamborough—Glanbrook"
          }
        ],
        "pollDivisionIds": [
          10138267
        ],
        "postalCode": "L8J1Z5",
        "streetName": "RIDELL",
        "streetDirectionId": null,
        "streetTypeId": "CRES",
        "placeName": "STONEY CREEK",
        "streetNameDisplayText": "RIDELL CRES, STONEY CREEK"
      }
    ]
  },
  {
    "postal": "L8J9L9",
    "result": []
  },
  {
    "postal": "L8J5L2",
    "result": []
  },
  {
    "postal": "L8J0M2",
    "result": [
      {
        "electoralDistricts": [
          {
            "election": null,
            "id": 31,
            "name": "Flamborough—Glanbrook"
          }
        ],
        "pollDivisionIds": [
          10138267
        ],
        "postalCode": "L8J0M2",
        "streetName": "BEDROCK",
        "streetDirectionId": null,
        "streetTypeId": "DR",
        "placeName": "STONEY CREEK",
        "streetNameDisplayText": "BEDROCK DR, STONEY CREEK"
      }
    ]
  },
  {
    "postal": "L8J1K8",
    "result": [
      {
        "electoralDistricts": [
          {
            "election": null,
            "id": 31,
            "name": "Flamborough—Glanbrook"
          }
        ],
        "pollDivisionIds": [
          10138268
        ],
        "postalCode": "L8J1K8",
        "streetName": "FIRST",
        "streetDirectionId": "W",
        "streetTypeId": "RD",
        "placeName": "STONEY CREEK",
        "streetNameDisplayText": "FIRST RD W, STONEY CREEK"
      }
    ]
  },
  {
    "postal": "L8J3M7",
    "result": [
      {
        "electoralDistricts": [
          {
            "election": null,
            "id": 31,
            "name": "Flamborough—Glanbrook"
          }
        ],
        "pollDivisionIds": [
          10138269
        ],
        "postalCode": "L8J3M7",
        "streetName": "TENTH",
        "streetDirectionId": "E",
        "streetTypeId": "RD",
        "placeName": "STONEY CREEK",
        "streetNameDisplayText": "TENTH RD E, STONEY CREEK"
      }
    ]
  },
  {
    "postal": "L8J1B2",
    "result": [
      {
        "electoralDistricts": [
          {
            "election": null,
            "id": 31,
            "name": "Flamborough—Glanbrook"
          }
        ],
        "pollDivisionIds": [
          10138265
        ],
        "postalCode": "L8J1B2",
        "streetName": "WILLIAM JOHNSON",
        "streetDirectionId": null,
        "streetTypeId": "ST",
        "placeName": "STONEY CREEK",
        "streetNameDisplayText": "WILLIAM JOHNSON ST, STONEY CREEK"
      }
    ]
  },
  {
    "postal": "L8J0H9",
    "result": [
      {
        "electoralDistricts": [
          {
            "election": null,
            "id": 31,
            "name": "Flamborough—Glanbrook"
          }
        ],
        "pollDivisionIds": [
          10138267
        ],
        "postalCode": "L8J0H9",
        "streetName": "ALDGATE",
        "streetDirectionId": null,
        "streetTypeId": "AVE",
        "placeName": "STONEY CREEK",
        "streetNameDisplayText": "ALDGATE AVE, STONEY CREEK"
      },
      {
        "electoralDistricts": [
          {
            "election": null,
            "id": 31,
            "name": "Flamborough—Glanbrook"
          }
        ],
        "pollDivisionIds": [
          10138267
        ],
        "postalCode": "L8J0H9",
        "streetName": "WEST GLEN",
        "streetDirectionId": null,
        "streetTypeId": "AVE",
        "placeName": "STONEY CREEK",
        "streetNameDisplayText": "WEST GLEN AVE, STONEY CREEK"
      }
    ]
  },
  {
    "postal": "L8J8M4",
    "result": []
  },
  {
    "postal": "L8J2M5",
    "result": [
      {
        "electoralDistricts": [
          {
            "election": null,
            "id": 31,
            "name": "Flamborough—Glanbrook"
          }
        ],
        "pollDivisionIds": [
          10138265
        ],
        "postalCode": "L8J2M5",
        "streetName": "BRANTHAVEN",
        "streetDirectionId": null,
        "streetTypeId": "DR",
        "placeName": "STONEY CREEK",
        "streetNameDisplayText": "BRANTHAVEN DR, STONEY CREEK"
      }
    ]
  },
  {
    "postal": "L8J0T9",
    "result": []
  },
  {
    "postal": "L8J3P1",
    "result": []
  },
  {
    "postal": "L8J1R6",
    "result": [
      {
        "electoralDistricts": [
          {
            "election": null,
            "id": 31,
            "name": "Flamborough—Glanbrook"
          }
        ],
        "pollDivisionIds": [
          10138263
        ],
        "postalCode": "L8J1R6",
        "streetName": "MUD",
        "streetDirectionId": null,
        "streetTypeId": "ST",
        "placeName": "HAMILTON",
        "streetNameDisplayText": "MUD ST, HAMILTON"
      }
    ]
  },
  {
    "postal": "L8J9V5",
    "result": []
  },
  {
    "postal": "L8J9T0",
    "result": []
  },
  {
    "postal": "L8J0A9",
    "result": [
      {
        "electoralDistricts": [
          {
            "election": null,
            "id": 31,
            "name": "Flamborough—Glanbrook"
          }
        ],
        "pollDivisionIds": [
          10138263
        ],
        "postalCode": "L8J0A9",
        "streetName": "CORNERSTONE",
        "streetDirectionId": null,
        "streetTypeId": "DR",
        "placeName": "STONEY CREEK",
        "streetNameDisplayText": "CORNERSTONE DR, STONEY CREEK"
      }
    ]
  },
  {
    "postal": "L8J1M3",
    "result": [
      {
        "electoralDistricts": [
          {
            "election": null,
            "id": 31,
            "name": "Flamborough—Glanbrook"
          }
        ],
        "pollDivisionIds": [
          10138267
        ],
        "postalCode": "L8J1M3",
        "streetName": "CHILTON",
        "streetDirectionId": null,
        "streetTypeId": "DR",
        "placeName": "STONEY CREEK",
        "streetNameDisplayText": "CHILTON DR, STONEY CREEK"
      }
    ]
  },
  {
    "postal": "L8J1W8",
    "result": []
  },
  {
    "postal": "L8J9J1",
    "result": []
  },
  {
    "postal": "L8J8N5",
    "result": []
  },
  {
    "postal": "L8J5X1",
    "result": []
  },
  {
    "postal": "L8J6S2",
    "result": []
  },
  {
    "postal": "L8J2A2",
    "result": [
      {
        "electoralDistricts": [
          {
            "election": null,
            "id": 31,
            "name": "Flamborough—Glanbrook"
          }
        ],
        "pollDivisionIds": [
          10138264
        ],
        "postalCode": "L8J2A2",
        "streetName": "ASTRA",
        "streetDirectionId": null,
        "streetTypeId": "ST",
        "placeName": "STONEY CREEK",
        "streetNameDisplayText": "ASTRA ST, STONEY CREEK"
      }
    ]
  },
  {
    "postal": "L8J6A6",
    "result": []
  },
  {
    "postal": "L8J0S3",
    "result": []
  },
  {
    "postal": "L8J3E7",
    "result": [
      {
        "electoralDistricts": [
          {
            "election": null,
            "id": 31,
            "name": "Flamborough—Glanbrook"
          }
        ],
        "pollDivisionIds": [
          10138269
        ],
        "postalCode": "L8J3E7",
        "streetName": "HIGHLAND",
        "streetDirectionId": "E",
        "streetTypeId": "RD",
        "placeName": "STONEY CREEK",
        "streetNameDisplayText": "HIGHLAND RD E, STONEY CREEK"
      }
    ]
  },
  {
    "postal": "L8J5R7",
    "result": []
  },
  {
    "postal": "L8J3R6",
    "result": [
      {
        "electoralDistricts": [
          {
            "election": null,
            "id": 31,
            "name": "Flamborough—Glanbrook"
          }
        ],
        "pollDivisionIds": [
          10138263
        ],
        "postalCode": "L8J3R6",
        "streetName": "DALEGROVE",
        "streetDirectionId": null,
        "streetTypeId": "CRES",
        "placeName": "STONEY CREEK",
        "streetNameDisplayText": "DALEGROVE CRES, STONEY CREEK"
      },
      {
        "electoralDistricts": [
          {
            "election": null,
            "id": 31,
            "name": "Flamborough—Glanbrook"
          }
        ],
        "pollDivisionIds": [
          10138263
        ],
        "postalCode": "L8J3R6",
        "streetName": "ELDERRIDGE",
        "streetDirectionId": null,
        "streetTypeId": "CRT",
        "placeName": "STONEY CREEK",
        "streetNameDisplayText": "ELDERRIDGE CRT, STONEY CREEK"
      },
      {
        "electoralDistricts": [
          {
            "election": null,
            "id": 31,
            "name": "Flamborough—Glanbrook"
          }
        ],
        "pollDivisionIds": [
          10138263
        ],
        "postalCode": "L8J3R6",
        "streetName": "GLENHOLLOW",
        "streetDirectionId": null,
        "streetTypeId": "DR",
        "placeName": "STONEY CREEK",
        "streetNameDisplayText": "GLENHOLLOW DR, STONEY CREEK"
      }
    ]
  },
  {
    "postal": "L8J6K4",
    "result": []
  },
  {
    "postal": "L8J2W5",
    "result": [
      {
        "electoralDistricts": [
          {
            "election": null,
            "id": 31,
            "name": "Flamborough—Glanbrook"
          }
        ],
        "pollDivisionIds": [
          10138269
        ],
        "postalCode": "L8J2W5",
        "streetName": "HIGHLAND",
        "streetDirectionId": "E",
        "streetTypeId": "RD",
        "placeName": "STONEY CREEK",
        "streetNameDisplayText": "HIGHLAND RD E, STONEY CREEK"
      }
    ]
  },
  {
    "postal": "L8J8W4",
    "result": []
  },
  {
    "postal": "L8J9C2",
    "result": []
  },
  {
    "postal": "L8J2C0",
    "result": []
  },
  {
    "postal": "L8J0E1",
    "result": [
      {
        "electoralDistricts": [
          {
            "election": null,
            "id": 31,
            "name": "Flamborough—Glanbrook"
          }
        ],
        "pollDivisionIds": [
          10138264
        ],
        "postalCode": "L8J0E1",
        "streetName": "OLD MUD",
        "streetDirectionId": null,
        "streetTypeId": "ST",
        "placeName": "STONEY CREEK",
        "streetNameDisplayText": "OLD MUD ST, STONEY CREEK"
      }
    ]
  },
  {
    "postal": "L8J1K9",
    "result": [
      {
        "electoralDistricts": [
          {
            "election": null,
            "id": 31,
            "name": "Flamborough—Glanbrook"
          }
        ],
        "pollDivisionIds": [
          10138268
        ],
        "postalCode": "L8J1K9",
        "streetName": "FIRST",
        "streetDirectionId": "W",
        "streetTypeId": "RD",
        "placeName": "STONEY CREEK",
        "streetNameDisplayText": "FIRST RD W, STONEY CREEK"
      }
    ]
  },
  {
    "postal": "L8J1G7",
    "result": [
      {
        "electoralDistricts": [
          {
            "election": null,
            "id": 31,
            "name": "Flamborough—Glanbrook"
          }
        ],
        "pollDivisionIds": [
          10138265
        ],
        "postalCode": "L8J1G7",
        "streetName": "BYWOOD",
        "streetDirectionId": null,
        "streetTypeId": "CRES",
        "placeName": "STONEY CREEK",
        "streetNameDisplayText": "BYWOOD CRES, STONEY CREEK"
      }
    ]
  },
  {
    "postal": "L8J4E9",
    "result": []
  },
  {
    "postal": "L8J9P0",
    "result": []
  },
  {
    "postal": "L8J5H3",
    "result": []
  },
  {
    "postal": "L8J9X6",
    "result": []
  },
  {
    "postal": "L8J5N7",
    "result": []
  },
  {
    "postal": "L8J5A6",
    "result": []
  },
  {
    "postal": "L8J4M0",
    "result": []
  },
  {
    "postal": "L8J3V6",
    "result": [
      {
        "electoralDistricts": [
          {
            "election": null,
            "id": 31,
            "name": "Flamborough—Glanbrook"
          }
        ],
        "pollDivisionIds": [
          10138269
        ],
        "postalCode": "L8J3V6",
        "streetName": "SIXTH",
        "streetDirectionId": "E",
        "streetTypeId": "RD",
        "placeName": "STONEY CREEK",
        "streetNameDisplayText": "SIXTH RD E, STONEY CREEK"
      }
    ]
  },
  {
    "postal": "L8J1L7",
    "result": [
      {
        "electoralDistricts": [
          {
            "election": null,
            "id": 31,
            "name": "Flamborough—Glanbrook"
          }
        ],
        "pollDivisionIds": [
          10138267
        ],
        "postalCode": "L8J1L7",
        "streetName": "CHILTON",
        "streetDirectionId": null,
        "streetTypeId": "DR",
        "placeName": "STONEY CREEK",
        "streetNameDisplayText": "CHILTON DR, STONEY CREEK"
      }
    ]
  },
  {
    "postal": "L8J2P9",
    "result": [
      {
        "electoralDistricts": [
          {
            "election": null,
            "id": 31,
            "name": "Flamborough—Glanbrook"
          }
        ],
        "pollDivisionIds": [
          10138267
        ],
        "postalCode": "L8J2P9",
        "streetName": "MISTYWOOD",
        "streetDirectionId": null,
        "streetTypeId": "DR",
        "placeName": "STONEY CREEK",
        "streetNameDisplayText": "MISTYWOOD DR, STONEY CREEK"
      }
    ]
  },
  {
    "postal": "L8J5T4",
    "result": []
  },
  {
    "postal": "L8J5Z1",
    "result": []
  },
  {
    "postal": "L8J2X0",
    "result": []
  },
  {
    "postal": "L8J6Z2",
    "result": []
  },
  {
    "postal": "L8J0E0",
    "result": []
  },
  {
    "postal": "L8J3Z5",
    "result": [
      {
        "electoralDistricts": [
          {
            "election": null,
            "id": 31,
            "name": "Flamborough—Glanbrook"
          }
        ],
        "pollDivisionIds": [
          10138268
        ],
        "postalCode": "L8J3Z5",
        "streetName": "GATESTONE",
        "streetDirectionId": null,
        "streetTypeId": "DR",
        "placeName": "STONEY CREEK",
        "streetNameDisplayText": "GATESTONE DR, STONEY CREEK"
      }
    ]
  },
  {
    "postal": "L8J8H3",
    "result": []
  },
  {
    "postal": "L8J7S6",
    "result": []
  },
  {
    "postal": "L8J4C1",
    "result": []
  },
  {
    "postal": "L8J3K2",
    "result": [
      {
        "electoralDistricts": [
          {
            "election": null,
            "id": 31,
            "name": "Flamborough—Glanbrook"
          }
        ],
        "pollDivisionIds": [
          10138269
        ],
        "postalCode": "L8J3K2",
        "streetName": "TAPLEY TOWN",
        "streetDirectionId": null,
        "streetTypeId": "RD",
        "placeName": "STONEY CREEK",
        "streetNameDisplayText": "TAPLEY TOWN RD, STONEY CREEK"
      },
      {
        "electoralDistricts": [
          {
            "election": null,
            "id": 31,
            "name": "Flamborough—Glanbrook"
          }
        ],
        "pollDivisionIds": [
          10138269
        ],
        "postalCode": "L8J3K2",
        "streetName": "TAPLEYTOWN",
        "streetDirectionId": null,
        "streetTypeId": "RD",
        "placeName": "STONEY CREEK",
        "streetNameDisplayText": "TAPLEYTOWN RD, STONEY CREEK"
      }
    ]
  },
  {
    "postal": "L8J1Y5",
    "result": [
      {
        "electoralDistricts": [
          {
            "election": null,
            "id": 31,
            "name": "Flamborough—Glanbrook"
          }
        ],
        "pollDivisionIds": [
          10138267
        ],
        "postalCode": "L8J1Y5",
        "streetName": "VENTURA",
        "streetDirectionId": null,
        "streetTypeId": "CRT",
        "placeName": "STONEY CREEK",
        "streetNameDisplayText": "VENTURA CRT, STONEY CREEK"
      }
    ]
  },
  {
    "postal": "L8J6P6",
    "result": []
  },
  {
    "postal": "L8J3N9",
    "result": [
      {
        "electoralDistricts": [
          {
            "election": null,
            "id": 31,
            "name": "Flamborough—Glanbrook"
          }
        ],
        "pollDivisionIds": [
          10138269
        ],
        "postalCode": "L8J3N9",
        "streetName": "REGIONAL RD 20",
        "streetDirectionId": null,
        "streetTypeId": "RD",
        "placeName": "STONEY CREEK",
        "streetNameDisplayText": "REGIONAL RD 20 RD, STONEY CREEK"
      },
      {
        "electoralDistricts": [
          {
            "election": null,
            "id": 31,
            "name": "Flamborough—Glanbrook"
          }
        ],
        "pollDivisionIds": [
          10138269
        ],
        "postalCode": "L8J3N9",
        "streetName": "SOUTH TOWNLINE",
        "streetDirectionId": null,
        "streetTypeId": "RD",
        "placeName": "STONEY CREEK",
        "streetNameDisplayText": "SOUTH TOWNLINE RD, STONEY CREEK"
      }
    ]
  },
  {
    "postal": "L8J3W2",
    "result": [
      {
        "electoralDistricts": [
          {
            "election": null,
            "id": 31,
            "name": "Flamborough—Glanbrook"
          }
        ],
        "pollDivisionIds": [
          10138266
        ],
        "postalCode": "L8J3W2",
        "streetName": "UPPER CENTENNIAL",
        "streetDirectionId": null,
        "streetTypeId": "PKY",
        "placeName": "STONEY CREEK",
        "streetNameDisplayText": "UPPER CENTENNIAL PKY, STONEY CREEK"
      }
    ]
  },
  {
    "postal": "L8J6H8",
    "result": []
  },
  {
    "postal": "L8J9T3",
    "result": []
  },
  {
    "postal": "L8J5L9",
    "result": []
  },
  {
    "postal": "L8J7X7",
    "result": []
  },
  {
    "postal": "L8J3J5",
    "result": [
      {
        "electoralDistricts": [
          {
            "election": null,
            "id": 31,
            "name": "Flamborough—Glanbrook"
          }
        ],
        "pollDivisionIds": [
          10138269
        ],
        "postalCode": "L8J3J5",
        "streetName": "THIRD",
        "streetDirectionId": "E",
        "streetTypeId": "RD",
        "placeName": "STONEY CREEK",
        "streetNameDisplayText": "THIRD RD E, STONEY CREEK"
      }
    ]
  },
  {
    "postal": "L8J4J5",
    "result": []
  },
  {
    "postal": "L8J6J2",
    "result": []
  },
  {
    "postal": "L8J5V6",
    "result": []
  },
  {
    "postal": "L8J3N2",
    "result": [
      {
        "electoralDistricts": [
          {
            "election": null,
            "id": 31,
            "name": "Flamborough—Glanbrook"
          }
        ],
        "pollDivisionIds": [
          10138269
        ],
        "postalCode": "L8J3N2",
        "streetName": "ELEVENTH",
        "streetDirectionId": "E",
        "streetTypeId": "RD",
        "placeName": "STONEY CREEK",
        "streetNameDisplayText": "ELEVENTH RD E, STONEY CREEK"
      }
    ]
  },
  {
    "postal": "L8J3B1",
    "result": [
      {
        "electoralDistricts": [
          {
            "election": null,
            "id": 31,
            "name": "Flamborough—Glanbrook"
          }
        ],
        "pollDivisionIds": [
          10138269
        ],
        "postalCode": "L8J3B1",
        "streetName": "GREEN MOUNTAIN",
        "streetDirectionId": "E",
        "streetTypeId": "RD",
        "placeName": "STONEY CREEK",
        "streetNameDisplayText": "GREEN MOUNTAIN RD E, STONEY CREEK"
      }
    ]
  },
  {
    "postal": "L8J8B5",
    "result": []
  },
  {
    "postal": "L8J0K1",
    "result": [
      {
        "electoralDistricts": [
          {
            "election": null,
            "id": 31,
            "name": "Flamborough—Glanbrook"
          }
        ],
        "pollDivisionIds": [
          10138268
        ],
        "postalCode": "L8J0K1",
        "streetName": "LORMONT",
        "streetDirectionId": null,
        "streetTypeId": "BLVD",
        "placeName": "STONEY CREEK",
        "streetNameDisplayText": "LORMONT BLVD, STONEY CREEK"
      }
    ]
  },
  {
    "postal": "L8J7M7",
    "result": []
  },
  {
    "postal": "L8J2M2",
    "result": [
      {
        "electoralDistricts": [
          {
            "election": null,
            "id": 31,
            "name": "Flamborough—Glanbrook"
          }
        ],
        "pollDivisionIds": [
          10138265
        ],
        "postalCode": "L8J2M2",
        "streetName": "BRANTHAVEN",
        "streetDirectionId": null,
        "streetTypeId": "DR",
        "placeName": "STONEY CREEK",
        "streetNameDisplayText": "BRANTHAVEN DR, STONEY CREEK"
      }
    ]
  },
  {
    "postal": "L8J9N3",
    "result": []
  },
  {
    "postal": "L8J4Y8",
    "result": []
  },
  {
    "postal": "L8J3V7",
    "result": [
      {
        "electoralDistricts": [
          {
            "election": null,
            "id": 31,
            "name": "Flamborough—Glanbrook"
          }
        ],
        "pollDivisionIds": [
          10138263
        ],
        "postalCode": "L8J3V7",
        "streetName": "PARAMOUNT",
        "streetDirectionId": null,
        "streetTypeId": "DR",
        "placeName": "STONEY CREEK",
        "streetNameDisplayText": "PARAMOUNT DR, STONEY CREEK"
      }
    ]
  },
  {
    "postal": "L8J8Z1",
    "result": []
  },
  {
    "postal": "L8J7B3",
    "result": []
  },
  {
    "postal": "L8J3A8",
    "result": [
      {
        "electoralDistricts": [
          {
            "election": null,
            "id": 31,
            "name": "Flamborough—Glanbrook"
          }
        ],
        "pollDivisionIds": [
          10138269
        ],
        "postalCode": "L8J3A8",
        "streetName": "GREEN MOUNTAIN",
        "streetDirectionId": "E",
        "streetTypeId": "RD",
        "placeName": "STONEY CREEK",
        "streetNameDisplayText": "GREEN MOUNTAIN RD E, STONEY CREEK"
      }
    ]
  },
  {
    "postal": "L8J7V5",
    "result": []
  },
  {
    "postal": "L8J2T2",
    "result": [
      {
        "electoralDistricts": [
          {
            "election": null,
            "id": 31,
            "name": "Flamborough—Glanbrook"
          }
        ],
        "pollDivisionIds": [
          10138268
        ],
        "postalCode": "L8J2T2",
        "streetName": "AUBREY",
        "streetDirectionId": null,
        "streetTypeId": "AVE",
        "placeName": "STONEY CREEK",
        "streetNameDisplayText": "AUBREY AVE, STONEY CREEK"
      },
      {
        "electoralDistricts": [
          {
            "election": null,
            "id": 31,
            "name": "Flamborough—Glanbrook"
          }
        ],
        "pollDivisionIds": [
          10138268
        ],
        "postalCode": "L8J2T2",
        "streetName": "BYRON",
        "streetDirectionId": null,
        "streetTypeId": "AVE",
        "placeName": "STONEY CREEK",
        "streetNameDisplayText": "BYRON AVE, STONEY CREEK"
      },
      {
        "electoralDistricts": [
          {
            "election": null,
            "id": 31,
            "name": "Flamborough—Glanbrook"
          }
        ],
        "pollDivisionIds": [
          10138268
        ],
        "postalCode": "L8J2T2",
        "streetName": "HIGHLAND",
        "streetDirectionId": "W",
        "streetTypeId": "RD",
        "placeName": "STONEY CREEK",
        "streetNameDisplayText": "HIGHLAND RD W, STONEY CREEK"
      }
    ]
  },
  {
    "postal": "L8J6L3",
    "result": []
  },
  {
    "postal": "L8J0L2",
    "result": [
      {
        "electoralDistricts": [
          {
            "election": null,
            "id": 31,
            "name": "Flamborough—Glanbrook"
          }
        ],
        "pollDivisionIds": [
          10138268
        ],
        "postalCode": "L8J0L2",
        "streetName": "BAYONNE",
        "streetDirectionId": null,
        "streetTypeId": "DR",
        "placeName": "STONEY CREEK",
        "streetNameDisplayText": "BAYONNE DR, STONEY CREEK"
      },
      {
        "electoralDistricts": [
          {
            "election": null,
            "id": 31,
            "name": "Flamborough—Glanbrook"
          }
        ],
        "pollDivisionIds": [
          10138268
        ],
        "postalCode": "L8J0L2",
        "streetName": "TALENCE",
        "streetDirectionId": null,
        "streetTypeId": "DR",
        "placeName": "STONEY CREEK",
        "streetNameDisplayText": "TALENCE DR, STONEY CREEK"
      }
    ]
  },
  {
    "postal": "L8J5Y8",
    "result": []
  },
  {
    "postal": "L8J0B8",
    "result": [
      {
        "electoralDistricts": [
          {
            "election": null,
            "id": 31,
            "name": "Flamborough—Glanbrook"
          }
        ],
        "pollDivisionIds": [
          10138264,
          10138267
        ],
        "postalCode": "L8J0B8",
        "streetName": "BRIDGEWATER",
        "streetDirectionId": null,
        "streetTypeId": "CRT",
        "placeName": "STONEY CREEK",
        "streetNameDisplayText": "BRIDGEWATER CRT, STONEY CREEK"
      }
    ]
  },
  {
    "postal": "L8J6R5",
    "result": []
  },
  {
    "postal": "L8J8W6",
    "result": []
  },
  {
    "postal": "L8J8G6",
    "result": []
  },
  {
    "postal": "L8J6X3",
    "result": []
  },
  {
    "postal": "L8J7R7",
    "result": []
  },
  {
    "postal": "L8J4B6",
    "result": []
  },
  {
    "postal": "L8J3P9",
    "result": [
      {
        "electoralDistricts": [
          {
            "election": null,
            "id": 31,
            "name": "Flamborough—Glanbrook"
          }
        ],
        "pollDivisionIds": [
          10138263
        ],
        "postalCode": "L8J3P9",
        "streetName": "HIGHLAND",
        "streetDirectionId": "W",
        "streetTypeId": "RD",
        "placeName": "STONEY CREEK",
        "streetNameDisplayText": "HIGHLAND RD W, STONEY CREEK"
      }
    ]
  },
  {
    "postal": "L8J2T3",
    "result": [
      {
        "electoralDistricts": [
          {
            "election": null,
            "id": 31,
            "name": "Flamborough—Glanbrook"
          }
        ],
        "pollDivisionIds": [
          10138266,
          10138268
        ],
        "postalCode": "L8J2T3",
        "streetName": "HIGHBURY",
        "streetDirectionId": null,
        "streetTypeId": "DR",
        "placeName": "STONEY CREEK",
        "streetNameDisplayText": "HIGHBURY DR, STONEY CREEK"
      },
      {
        "electoralDistricts": [
          {
            "election": null,
            "id": 31,
            "name": "Flamborough—Glanbrook"
          }
        ],
        "pollDivisionIds": [
          10138266
        ],
        "postalCode": "L8J2T3",
        "streetName": "HIGHLAND",
        "streetDirectionId": "W",
        "streetTypeId": "RD",
        "placeName": "STONEY CREEK",
        "streetNameDisplayText": "HIGHLAND RD W, STONEY CREEK"
      },
      {
        "electoralDistricts": [
          {
            "election": null,
            "id": 31,
            "name": "Flamborough—Glanbrook"
          }
        ],
        "pollDivisionIds": [
          10138266
        ],
        "postalCode": "L8J2T3",
        "streetName": "PINEWOODS",
        "streetDirectionId": null,
        "streetTypeId": "DR",
        "placeName": "STONEY CREEK",
        "streetNameDisplayText": "PINEWOODS DR, STONEY CREEK"
      },
      {
        "electoralDistricts": [
          {
            "election": null,
            "id": 31,
            "name": "Flamborough—Glanbrook"
          }
        ],
        "pollDivisionIds": [
          10138266
        ],
        "postalCode": "L8J2T3",
        "streetName": "PROMENADE",
        "streetDirectionId": null,
        "streetTypeId": "DR",
        "placeName": "STONEY CREEK",
        "streetNameDisplayText": "PROMENADE DR, STONEY CREEK"
      }
    ]
  },
  {
    "postal": "L8J1M4",
    "result": [
      {
        "electoralDistricts": [
          {
            "election": null,
            "id": 31,
            "name": "Flamborough—Glanbrook"
          }
        ],
        "pollDivisionIds": [
          10138267
        ],
        "postalCode": "L8J1M4",
        "streetName": "CHILTON",
        "streetDirectionId": null,
        "streetTypeId": "DR",
        "placeName": "STONEY CREEK",
        "streetNameDisplayText": "CHILTON DR, STONEY CREEK"
      }
    ]
  },
  {
    "postal": "L8J0H1",
    "result": [
      {
        "electoralDistricts": [
          {
            "election": null,
            "id": 31,
            "name": "Flamborough—Glanbrook"
          }
        ],
        "pollDivisionIds": [
          10138267
        ],
        "postalCode": "L8J0H1",
        "streetName": "ECHOVALLEY",
        "streetDirectionId": null,
        "streetTypeId": "DR",
        "placeName": "STONEY CREEK",
        "streetNameDisplayText": "ECHOVALLEY DR, STONEY CREEK"
      }
    ]
  },
  {
    "postal": "L8J9W3",
    "result": []
  },
  {
    "postal": "L8J6P1",
    "result": []
  },
  {
    "postal": "L8J7G2",
    "result": []
  },
  {
    "postal": "L8J4J9",
    "result": []
  },
  {
    "postal": "L8J9E4",
    "result": []
  },
  {
    "postal": "L8J8H0",
    "result": []
  },
  {
    "postal": "L8J4M7",
    "result": []
  },
  {
    "postal": "L8J2G9",
    "result": []
  },
  {
    "postal": "L8J8T2",
    "result": []
  },
  {
    "postal": "L8J7G7",
    "result": []
  },
  {
    "postal": "L8J4Z3",
    "result": []
  },
  {
    "postal": "L8J5B3",
    "result": []
  },
  {
    "postal": "L8J1S7",
    "result": [
      {
        "electoralDistricts": [
          {
            "election": null,
            "id": 31,
            "name": "Flamborough—Glanbrook"
          }
        ],
        "pollDivisionIds": [
          10138264
        ],
        "postalCode": "L8J1S7",
        "streetName": "ATHENIA",
        "streetDirectionId": null,
        "streetTypeId": "DR",
        "placeName": "STONEY CREEK",
        "streetNameDisplayText": "ATHENIA DR, STONEY CREEK"
      }
    ]
  },
  {
    "postal": "L8J2N7",
    "result": [
      {
        "electoralDistricts": [
          {
            "election": null,
            "id": 31,
            "name": "Flamborough—Glanbrook"
          }
        ],
        "pollDivisionIds": [
          10138267
        ],
        "postalCode": "L8J2N7",
        "streetName": "DRIFTWOOD",
        "streetDirectionId": null,
        "streetTypeId": "PL",
        "placeName": "STONEY CREEK",
        "streetNameDisplayText": "DRIFTWOOD PL, STONEY CREEK"
      },
      {
        "electoralDistricts": [
          {
            "election": null,
            "id": 31,
            "name": "Flamborough—Glanbrook"
          }
        ],
        "pollDivisionIds": [
          10138267
        ],
        "postalCode": "L8J2N7",
        "streetName": "MISTYWOOD",
        "streetDirectionId": null,
        "streetTypeId": "DR",
        "placeName": "STONEY CREEK",
        "streetNameDisplayText": "MISTYWOOD DR, STONEY CREEK"
      }
    ]
  },
  {
    "postal": "L8J0H8",
    "result": [
      {
        "electoralDistricts": [
          {
            "election": null,
            "id": 31,
            "name": "Flamborough—Glanbrook"
          }
        ],
        "pollDivisionIds": [
          10138267
        ],
        "postalCode": "L8J0H8",
        "streetName": "CRAFTER",
        "streetDirectionId": null,
        "streetTypeId": "CRES",
        "placeName": "STONEY CREEK",
        "streetNameDisplayText": "CRAFTER CRES, STONEY CREEK"
      },
      {
        "electoralDistricts": [
          {
            "election": null,
            "id": 31,
            "name": "Flamborough—Glanbrook"
          }
        ],
        "pollDivisionIds": [
          10138267
        ],
        "postalCode": "L8J0H8",
        "streetName": "WEST GLEN",
        "streetDirectionId": null,
        "streetTypeId": "AVE",
        "placeName": "STONEY CREEK",
        "streetNameDisplayText": "WEST GLEN AVE, STONEY CREEK"
      }
    ]
  },
  {
    "postal": "L8J7Z4",
    "result": []
  },
  {
    "postal": "L8J7B1",
    "result": []
  },
  {
    "postal": "L8J7P8",
    "result": []
  },
  {
    "postal": "L8J7N0",
    "result": []
  },
  {
    "postal": "L8J3Y5",
    "result": [
      {
        "electoralDistricts": [
          {
            "election": null,
            "id": 31,
            "name": "Flamborough—Glanbrook"
          }
        ],
        "pollDivisionIds": [
          10138266
        ],
        "postalCode": "L8J3Y5",
        "streetName": "ERINGATE",
        "streetDirectionId": null,
        "streetTypeId": "DR",
        "placeName": "STONEY CREEK",
        "streetNameDisplayText": "ERINGATE DR, STONEY CREEK"
      },
      {
        "electoralDistricts": [
          {
            "election": null,
            "id": 31,
            "name": "Flamborough—Glanbrook"
          }
        ],
        "pollDivisionIds": [
          10138266
        ],
        "postalCode": "L8J3Y5",
        "streetName": "WOODBANK",
        "streetDirectionId": null,
        "streetTypeId": "ST",
        "placeName": "STONEY CREEK",
        "streetNameDisplayText": "WOODBANK ST, STONEY CREEK"
      }
    ]
  },
  {
    "postal": "L8J6K1",
    "result": []
  },
  {
    "postal": "L8J9X5",
    "result": []
  },
  {
    "postal": "L8J7S5",
    "result": []
  },
  {
    "postal": "L8J0A4",
    "result": [
      {
        "electoralDistricts": [
          {
            "election": null,
            "id": 31,
            "name": "Flamborough—Glanbrook"
          }
        ],
        "pollDivisionIds": [
          10138263
        ],
        "postalCode": "L8J0A4",
        "streetName": "CEDARVILLE",
        "streetDirectionId": null,
        "streetTypeId": "DR",
        "placeName": "STONEY CREEK",
        "streetNameDisplayText": "CEDARVILLE DR, STONEY CREEK"
      }
    ]
  },
  {
    "postal": "L8J4T5",
    "result": []
  },
  {
    "postal": "L8J5K1",
    "result": []
  },
  {
    "postal": "L8J0Z9",
    "result": []
  },
  {
    "postal": "L8J7T2",
    "result": []
  },
  {
    "postal": "L8J1L5",
    "result": [
      {
        "electoralDistricts": [
          {
            "election": null,
            "id": 31,
            "name": "Flamborough—Glanbrook"
          }
        ],
        "pollDivisionIds": [
          10138267
        ],
        "postalCode": "L8J1L5",
        "streetName": "CHILTON",
        "streetDirectionId": null,
        "streetTypeId": "DR",
        "placeName": "STONEY CREEK",
        "streetNameDisplayText": "CHILTON DR, STONEY CREEK"
      }
    ]
  },
  {
    "postal": "L8J3N5",
    "result": [
      {
        "electoralDistricts": [
          {
            "election": null,
            "id": 31,
            "name": "Flamborough—Glanbrook"
          }
        ],
        "pollDivisionIds": [
          10138269
        ],
        "postalCode": "L8J3N5",
        "streetName": "ELEVENTH",
        "streetDirectionId": "E",
        "streetTypeId": "RD",
        "placeName": "STONEY CREEK",
        "streetNameDisplayText": "ELEVENTH RD E, STONEY CREEK"
      }
    ]
  },
  {
    "postal": "L8J6H4",
    "result": []
  },
  {
    "postal": "L8J5A5",
    "result": []
  },
  {
    "postal": "L8J3R9",
    "result": [
      {
        "electoralDistricts": [
          {
            "election": null,
            "id": 31,
            "name": "Flamborough—Glanbrook"
          }
        ],
        "pollDivisionIds": [
          10138263
        ],
        "postalCode": "L8J3R9",
        "streetName": "BREEZEWOOD",
        "streetDirectionId": null,
        "streetTypeId": "RD",
        "placeName": "STONEY CREEK",
        "streetNameDisplayText": "BREEZEWOOD RD, STONEY CREEK"
      },
      {
        "electoralDistricts": [
          {
            "election": null,
            "id": 31,
            "name": "Flamborough—Glanbrook"
          }
        ],
        "pollDivisionIds": [
          10138263
        ],
        "postalCode": "L8J3R9",
        "streetName": "GLENHOLLOW",
        "streetDirectionId": null,
        "streetTypeId": "DR",
        "placeName": "STONEY CREEK",
        "streetNameDisplayText": "GLENHOLLOW DR, STONEY CREEK"
      },
      {
        "electoralDistricts": [
          {
            "election": null,
            "id": 31,
            "name": "Flamborough—Glanbrook"
          }
        ],
        "pollDivisionIds": [
          10138263
        ],
        "postalCode": "L8J3R9",
        "streetName": "TREEVIEW",
        "streetDirectionId": null,
        "streetTypeId": "CRT",
        "placeName": "STONEY CREEK",
        "streetNameDisplayText": "TREEVIEW CRT, STONEY CREEK"
      }
    ]
  },
  {
    "postal": "L8J7L8",
    "result": []
  },
  {
    "postal": "L8J6T6",
    "result": []
  },
  {
    "postal": "L8J7Y7",
    "result": []
  },
  {
    "postal": "L8J3M8",
    "result": [
      {
        "electoralDistricts": [
          {
            "election": null,
            "id": 31,
            "name": "Flamborough—Glanbrook"
          }
        ],
        "pollDivisionIds": [
          10138269
        ],
        "postalCode": "L8J3M8",
        "streetName": "TENTH",
        "streetDirectionId": "E",
        "streetTypeId": "RD",
        "placeName": "STONEY CREEK",
        "streetNameDisplayText": "TENTH RD E, STONEY CREEK"
      }
    ]
  },
  {
    "postal": "L8J2E0",
    "result": []
  },
  {
    "postal": "L8J4B5",
    "result": []
  },
  {
    "postal": "L8J1J3",
    "result": [
      {
        "electoralDistricts": [
          {
            "election": null,
            "id": 31,
            "name": "Flamborough—Glanbrook"
          }
        ],
        "pollDivisionIds": [
          10138264
        ],
        "postalCode": "L8J1J3",
        "streetName": "AUDUBON",
        "streetDirectionId": "N",
        "streetTypeId": "ST",
        "placeName": "STONEY CREEK",
        "streetNameDisplayText": "AUDUBON ST N, STONEY CREEK"
      }
    ]
  },
  {
    "postal": "L8J5S6",
    "result": []
  },
  {
    "postal": "L8J8P7",
    "result": []
  },
  {
    "postal": "L8J7S7",
    "result": []
  },
  {
    "postal": "L8J4C2",
    "result": []
  },
  {
    "postal": "L8J5Y0",
    "result": []
  },
  {
    "postal": "L8J2V7",
    "result": [
      {
        "electoralDistricts": [
          {
            "election": null,
            "id": 31,
            "name": "Flamborough—Glanbrook"
          }
        ],
        "pollDivisionIds": [
          10138268,
          10138267,
          10138263
        ],
        "postalCode": "L8J2V7",
        "streetName": "MUD",
        "streetDirectionId": "W",
        "streetTypeId": "ST",
        "placeName": "STONEY CREEK",
        "streetNameDisplayText": "MUD ST W, STONEY CREEK"
      },
      {
        "electoralDistricts": [
          {
            "election": null,
            "id": 31,
            "name": "Flamborough—Glanbrook"
          }
        ],
        "pollDivisionIds": [
          10138268
        ],
        "postalCode": "L8J2V7",
        "streetName": "PENNY",
        "streetDirectionId": null,
        "streetTypeId": "LANE",
        "placeName": "STONEY CREEK",
        "streetNameDisplayText": "PENNY LANE, STONEY CREEK"
      },
      {
        "electoralDistricts": [
          {
            "election": null,
            "id": 31,
            "name": "Flamborough—Glanbrook"
          }
        ],
        "pollDivisionIds": [
          10138268
        ],
        "postalCode": "L8J2V7",
        "streetName": "UPPER CENTENNIAL",
        "streetDirectionId": null,
        "streetTypeId": "PKY",
        "placeName": "STONEY CREEK",
        "streetNameDisplayText": "UPPER CENTENNIAL PKY, STONEY CREEK"
      }
    ]
  },
  {
    "postal": "L8J8P5",
    "result": []
  },
  {
    "postal": "L8J5P5",
    "result": []
  },
  {
    "postal": "L8J5Z0",
    "result": []
  },
  {
    "postal": "L8J9B0",
    "result": []
  },
  {
    "postal": "L8J1L0",
    "result": []
  },
  {
    "postal": "L8J0B5",
    "result": []
  },
  {
    "postal": "L8J3L2",
    "result": [
      {
        "electoralDistricts": [
          {
            "election": null,
            "id": 31,
            "name": "Flamborough—Glanbrook"
          }
        ],
        "pollDivisionIds": [
          10138269
        ],
        "postalCode": "L8J3L2",
        "streetName": "FIFTH",
        "streetDirectionId": "E",
        "streetTypeId": "RD",
        "placeName": "STONEY CREEK",
        "streetNameDisplayText": "FIFTH RD E, STONEY CREEK"
      }
    ]
  },
  {
    "postal": "L8J3B7",
    "result": [
      {
        "electoralDistricts": [
          {
            "election": null,
            "id": 31,
            "name": "Flamborough—Glanbrook"
          }
        ],
        "pollDivisionIds": [
          10138269
        ],
        "postalCode": "L8J3B7",
        "streetName": "MUD",
        "streetDirectionId": "E",
        "streetTypeId": "ST",
        "placeName": "STONEY CREEK",
        "streetNameDisplayText": "MUD ST E, STONEY CREEK"
      }
    ]
  },
  {
    "postal": "L8J8L1",
    "result": []
  },
  {
    "postal": "L8J5M4",
    "result": []
  },
  {
    "postal": "L8J4G9",
    "result": []
  },
  {
    "postal": "L8J0P0",
    "result": []
  },
  {
    "postal": "L8J8G2",
    "result": []
  },
  {
    "postal": "L8J1V9",
    "result": [
      {
        "electoralDistricts": [
          {
            "election": null,
            "id": 31,
            "name": "Flamborough—Glanbrook"
          }
        ],
        "pollDivisionIds": [
          10138264
        ],
        "postalCode": "L8J1V9",
        "streetName": "ACACIA",
        "streetDirectionId": null,
        "streetTypeId": "ST",
        "placeName": "STONEY CREEK",
        "streetNameDisplayText": "ACACIA ST, STONEY CREEK"
      }
    ]
  },
  {
    "postal": "L8J8N8",
    "result": []
  },
  {
    "postal": "L8J6S8",
    "result": []
  },
  {
    "postal": "L8J8H2",
    "result": []
  },
  {
    "postal": "L8J5R8",
    "result": []
  },
  {
    "postal": "L8J5L4",
    "result": []
  },
  {
    "postal": "L8J9E1",
    "result": []
  },
  {
    "postal": "L8J1C4",
    "result": [
      {
        "electoralDistricts": [
          {
            "election": null,
            "id": 31,
            "name": "Flamborough—Glanbrook"
          }
        ],
        "pollDivisionIds": [
          10138265
        ],
        "postalCode": "L8J1C4",
        "streetName": "JOHN MURRAY",
        "streetDirectionId": null,
        "streetTypeId": "ST",
        "placeName": "STONEY CREEK",
        "streetNameDisplayText": "JOHN MURRAY ST, STONEY CREEK"
      }
    ]
  },
  {
    "postal": "L8J8W5",
    "result": []
  },
  {
    "postal": "L8J1Y4",
    "result": [
      {
        "electoralDistricts": [
          {
            "election": null,
            "id": 31,
            "name": "Flamborough—Glanbrook"
          }
        ],
        "pollDivisionIds": [
          10138265
        ],
        "postalCode": "L8J1Y4",
        "streetName": "KELSEY",
        "streetDirectionId": null,
        "streetTypeId": "GATE",
        "placeName": "STONEY CREEK",
        "streetNameDisplayText": "KELSEY GATE, STONEY CREEK"
      }
    ]
  },
  {
    "postal": "L8J1C0",
    "result": []
  },
  {
    "postal": "L8J2J2",
    "result": []
  },
  {
    "postal": "L8J2J0",
    "result": []
  },
  {
    "postal": "L8J7A3",
    "result": []
  },
  {
    "postal": "L8J8M1",
    "result": []
  },
  {
    "postal": "L8J7T9",
    "result": []
  },
  {
    "postal": "L8J6C0",
    "result": []
  },
  {
    "postal": "L8J7X1",
    "result": []
  },
  {
    "postal": "L8J0G1",
    "result": [
      {
        "electoralDistricts": [
          {
            "election": null,
            "id": 31,
            "name": "Flamborough—Glanbrook"
          }
        ],
        "pollDivisionIds": [
          10138268
        ],
        "postalCode": "L8J0G1",
        "streetName": "BELLROYAL",
        "streetDirectionId": null,
        "streetTypeId": "CRES",
        "placeName": "STONEY CREEK",
        "streetNameDisplayText": "BELLROYAL CRES, STONEY CREEK"
      },
      {
        "electoralDistricts": [
          {
            "election": null,
            "id": 31,
            "name": "Flamborough—Glanbrook"
          }
        ],
        "pollDivisionIds": [
          10138268
        ],
        "postalCode": "L8J0G1",
        "streetName": "WEATHERING",
        "streetDirectionId": null,
        "streetTypeId": "HTS",
        "placeName": "STONEY CREEK",
        "streetNameDisplayText": "WEATHERING HTS, STONEY CREEK"
      }
    ]
  },
  {
    "postal": "L8J4X2",
    "result": []
  },
  {
    "postal": "L8J0N6",
    "result": []
  },
  {
    "postal": "L8J8E3",
    "result": []
  },
  {
    "postal": "L8J5S8",
    "result": []
  },
  {
    "postal": "L8J0R0",
    "result": []
  },
  {
    "postal": "L8J6J6",
    "result": []
  },
  {
    "postal": "L8J4B4",
    "result": []
  },
  {
    "postal": "L8J7E3",
    "result": []
  },
  {
    "postal": "L8J3N6",
    "result": [
      {
        "electoralDistricts": [
          {
            "election": null,
            "id": 31,
            "name": "Flamborough—Glanbrook"
          }
        ],
        "pollDivisionIds": [
          10138269
        ],
        "postalCode": "L8J3N6",
        "streetName": "ELEVENTH",
        "streetDirectionId": "E",
        "streetTypeId": "RD",
        "placeName": "STONEY CREEK",
        "streetNameDisplayText": "ELEVENTH RD E, STONEY CREEK"
      }
    ]
  },
  {
    "postal": "L8J3X6",
    "result": [
      {
        "electoralDistricts": [
          {
            "election": null,
            "id": 31,
            "name": "Flamborough—Glanbrook"
          }
        ],
        "pollDivisionIds": [
          10138264
        ],
        "postalCode": "L8J3X6",
        "streetName": "DAVIS",
        "streetDirectionId": null,
        "streetTypeId": "CRES",
        "placeName": "STONEY CREEK",
        "streetNameDisplayText": "DAVIS CRES, STONEY CREEK"
      },
      {
        "electoralDistricts": [
          {
            "election": null,
            "id": 31,
            "name": "Flamborough—Glanbrook"
          }
        ],
        "pollDivisionIds": [
          10138264
        ],
        "postalCode": "L8J3X6",
        "streetName": "KINGSVIEW",
        "streetDirectionId": null,
        "streetTypeId": "DR",
        "placeName": "STONEY CREEK",
        "streetNameDisplayText": "KINGSVIEW DR, STONEY CREEK"
      },
      {
        "electoralDistricts": [
          {
            "election": null,
            "id": 31,
            "name": "Flamborough—Glanbrook"
          }
        ],
        "pollDivisionIds": [
          10138264
        ],
        "postalCode": "L8J3X6",
        "streetName": "LASALLE",
        "streetDirectionId": null,
        "streetTypeId": "CRT",
        "placeName": "STONEY CREEK",
        "streetNameDisplayText": "LASALLE CRT, STONEY CREEK"
      }
    ]
  },
  {
    "postal": "L8J8L0",
    "result": []
  },
  {
    "postal": "L8J8N1",
    "result": []
  },
  {
    "postal": "L8J4J0",
    "result": []
  },
  {
    "postal": "L8J0X7",
    "result": []
  },
  {
    "postal": "L8J6S4",
    "result": []
  },
  {
    "postal": "L8J0Z0",
    "result": []
  },
  {
    "postal": "L8J9X8",
    "result": []
  },
  {
    "postal": "L8J3H3",
    "result": [
      {
        "electoralDistricts": [
          {
            "election": null,
            "id": 31,
            "name": "Flamborough—Glanbrook"
          }
        ],
        "pollDivisionIds": [
          10138269
        ],
        "postalCode": "L8J3H3",
        "streetName": "HIGHLAND",
        "streetDirectionId": "E",
        "streetTypeId": "RD",
        "placeName": "STONEY CREEK",
        "streetNameDisplayText": "HIGHLAND RD E, STONEY CREEK"
      }
    ]
  },
  {
    "postal": "L8J7S2",
    "result": []
  },
  {
    "postal": "L8J3T3",
    "result": [
      {
        "electoralDistricts": [
          {
            "election": null,
            "id": 31,
            "name": "Flamborough—Glanbrook"
          }
        ],
        "pollDivisionIds": [
          10138263
        ],
        "postalCode": "L8J3T3",
        "streetName": "HIGHLAND",
        "streetDirectionId": "W",
        "streetTypeId": "RD",
        "placeName": "STONEY CREEK",
        "streetNameDisplayText": "HIGHLAND RD W, STONEY CREEK"
      }
    ]
  },
  {
    "postal": "L8J9P3",
    "result": []
  },
  {
    "postal": "L8J4H8",
    "result": []
  },
  {
    "postal": "L8J6R1",
    "result": []
  },
  {
    "postal": "L8J1S0",
    "result": []
  },
  {
    "postal": "L8J3W8",
    "result": [
      {
        "electoralDistricts": [
          {
            "election": null,
            "id": 31,
            "name": "Flamborough—Glanbrook"
          }
        ],
        "pollDivisionIds": [
          10138263
        ],
        "postalCode": "L8J3W8",
        "streetName": "HAMPSHIRE",
        "streetDirectionId": null,
        "streetTypeId": "PL",
        "placeName": "STONEY CREEK",
        "streetNameDisplayText": "HAMPSHIRE PL, STONEY CREEK"
      },
      {
        "electoralDistricts": [
          {
            "election": null,
            "id": 31,
            "name": "Flamborough—Glanbrook"
          }
        ],
        "pollDivisionIds": [
          10138268
        ],
        "postalCode": "L8J3W8",
        "streetName": "SHADYGLEN",
        "streetDirectionId": null,
        "streetTypeId": "DR",
        "placeName": "STONEY CREEK",
        "streetNameDisplayText": "SHADYGLEN DR, STONEY CREEK"
      }
    ]
  },
  {
    "postal": "L8J4S3",
    "result": []
  },
  {
    "postal": "L8J1B6",
    "result": [
      {
        "electoralDistricts": [
          {
            "election": null,
            "id": 31,
            "name": "Flamborough—Glanbrook"
          }
        ],
        "pollDivisionIds": [
          10138265
        ],
        "postalCode": "L8J1B6",
        "streetName": "WILLIAM JOHNSON",
        "streetDirectionId": null,
        "streetTypeId": "ST",
        "placeName": "STONEY CREEK",
        "streetNameDisplayText": "WILLIAM JOHNSON ST, STONEY CREEK"
      }
    ]
  },
  {
    "postal": "L8J8R3",
    "result": []
  },
  {
    "postal": "L8J4V9",
    "result": []
  },
  {
    "postal": "L8J9W4",
    "result": []
  },
  {
    "postal": "L8J3T4",
    "result": [
      {
        "electoralDistricts": [
          {
            "election": null,
            "id": 31,
            "name": "Flamborough—Glanbrook"
          }
        ],
        "pollDivisionIds": [
          10138266
        ],
        "postalCode": "L8J3T4",
        "streetName": "WHITEDEER",
        "streetDirectionId": null,
        "streetTypeId": "RD",
        "placeName": "STONEY CREEK",
        "streetNameDisplayText": "WHITEDEER RD, STONEY CREEK"
      }
    ]
  },
  {
    "postal": "L8J5C7",
    "result": []
  },
  {
    "postal": "L8J3Y1",
    "result": [
      {
        "electoralDistricts": [
          {
            "election": null,
            "id": 31,
            "name": "Flamborough—Glanbrook"
          }
        ],
        "pollDivisionIds": [
          10138263
        ],
        "postalCode": "L8J3Y1",
        "streetName": "WINTERBERRY",
        "streetDirectionId": null,
        "streetTypeId": "DR",
        "placeName": "STONEY CREEK",
        "streetNameDisplayText": "WINTERBERRY DR, STONEY CREEK"
      }
    ]
  },
  {
    "postal": "L8J5V0",
    "result": []
  },
  {
    "postal": "L8J8G8",
    "result": []
  },
  {
    "postal": "L8J8B1",
    "result": []
  },
  {
    "postal": "L8J4P5",
    "result": []
  },
  {
    "postal": "L8J7B2",
    "result": []
  },
  {
    "postal": "L8J0R2",
    "result": []
  },
  {
    "postal": "L8J4M4",
    "result": []
  },
  {
    "postal": "L8J7M4",
    "result": []
  },
  {
    "postal": "L8J9S7",
    "result": []
  },
  {
    "postal": "L8J5Z7",
    "result": []
  },
  {
    "postal": "L8J7J7",
    "result": []
  },
  {
    "postal": "L8J8R8",
    "result": []
  },
  {
    "postal": "L8J9X1",
    "result": []
  },
  {
    "postal": "L8J5M9",
    "result": []
  },
  {
    "postal": "L8J9B4",
    "result": []
  },
  {
    "postal": "L8J0L9",
    "result": [
      {
        "electoralDistricts": [
          {
            "election": null,
            "id": 31,
            "name": "Flamborough—Glanbrook"
          }
        ],
        "pollDivisionIds": [
          10138263
        ],
        "postalCode": "L8J0L9",
        "streetName": "TIME SQUARE",
        "streetDirectionId": null,
        "streetTypeId": "BLVD",
        "placeName": "STONEY CREEK",
        "streetNameDisplayText": "TIME SQUARE BLVD, STONEY CREEK"
      },
      {
        "electoralDistricts": [
          {
            "election": null,
            "id": 39,
            "name": "Hamilton West—Ancaster—Dundas"
          },
          {
            "election": null,
            "id": 31,
            "name": "Flamborough—Glanbrook"
          }
        ],
        "pollDivisionIds": [
          10135268,
          10138263
        ],
        "postalCode": "L8J0L9",
        "streetName": "TIMES SQUARE",
        "streetDirectionId": null,
        "streetTypeId": "BLVD",
        "placeName": "STONEY CREEK",
        "streetNameDisplayText": "TIMES SQUARE BLVD, STONEY CREEK"
      }
    ]
  },
  {
    "postal": "L8J9G4",
    "result": []
  },
  {
    "postal": "L8J1J4",
    "result": [
      {
        "electoralDistricts": [
          {
            "election": null,
            "id": 31,
            "name": "Flamborough—Glanbrook"
          }
        ],
        "pollDivisionIds": [
          10138264
        ],
        "postalCode": "L8J1J4",
        "streetName": "AUDUBON",
        "streetDirectionId": "N",
        "streetTypeId": "ST",
        "placeName": "STONEY CREEK",
        "streetNameDisplayText": "AUDUBON ST N, STONEY CREEK"
      }
    ]
  },
  {
    "postal": "L8J0W6",
    "result": []
  }
]
