[
  {
    "postal": "N8Y9J6",
    "result": []
  },
  {
    "postal": "N8Y9Z5",
    "result": []
  },
  {
    "postal": "N8Y7H8",
    "result": []
  },
  {
    "postal": "N8Y0P6",
    "result": []
  },
  {
    "postal": "N8Y0S7",
    "result": []
  },
  {
    "postal": "N8Y8B9",
    "result": []
  },
  {
    "postal": "N8Y2A6",
    "result": [
      {
        "electoralDistricts": [
          {
            "election": null,
            "id": 118,
            "name": "Windsor—Tecumseh"
          }
        ],
        "pollDivisionIds": [
          10142717
        ],
        "postalCode": "N8Y2A6",
        "streetName": "SEMINOLE",
        "streetDirectionId": null,
        "streetTypeId": "ST",
        "placeName": "WINDSOR",
        "streetNameDisplayText": "SEMINOLE ST, WINDSOR"
      }
    ]
  },
  {
    "postal": "N8Y7V2",
    "result": []
  },
  {
    "postal": "N8Y9P4",
    "result": []
  },
  {
    "postal": "N8Y6G0",
    "result": []
  },
  {
    "postal": "N8Y2K0",
    "result": []
  },
  {
    "postal": "N8Y7N6",
    "result": []
  },
  {
    "postal": "N8Y5R3",
    "result": []
  },
  {
    "postal": "N8Y7K0",
    "result": []
  },
  {
    "postal": "N8Y3R2",
    "result": [
      {
        "electoralDistricts": [
          {
            "election": null,
            "id": 118,
            "name": "Windsor—Tecumseh"
          }
        ],
        "pollDivisionIds": [
          10142716
        ],
        "postalCode": "N8Y3R2",
        "streetName": "ALBERT",
        "streetDirectionId": null,
        "streetTypeId": "RD",
        "placeName": "WINDSOR",
        "streetNameDisplayText": "ALBERT RD, WINDSOR"
      }
    ]
  },
  {
    "postal": "N8Y0J1",
    "result": []
  },
  {
    "postal": "N8Y0B0",
    "result": []
  },
  {
    "postal": "N8Y5Z2",
    "result": []
  },
  {
    "postal": "N8Y7P3",
    "result": []
  },
  {
    "postal": "N8Y2K3",
    "result": [
      {
        "electoralDistricts": [
          {
            "election": null,
            "id": 118,
            "name": "Windsor—Tecumseh"
          }
        ],
        "pollDivisionIds": [
          10142711
        ],
        "postalCode": "N8Y2K3",
        "streetName": "CHILVER",
        "streetDirectionId": null,
        "streetTypeId": "RD",
        "placeName": "WINDSOR",
        "streetNameDisplayText": "CHILVER RD, WINDSOR"
      }
    ]
  },
  {
    "postal": "N8Y7Y6",
    "result": []
  },
  {
    "postal": "N8Y1L9",
    "result": [
      {
        "electoralDistricts": [
          {
            "election": null,
            "id": 118,
            "name": "Windsor—Tecumseh"
          }
        ],
        "pollDivisionIds": [
          10142714
        ],
        "postalCode": "N8Y1L9",
        "streetName": "RICHMOND",
        "streetDirectionId": null,
        "streetTypeId": "ST",
        "placeName": "WINDSOR",
        "streetNameDisplayText": "RICHMOND ST, WINDSOR"
      }
    ]
  },
  {
    "postal": "N8Y8T0",
    "result": []
  },
  {
    "postal": "N8Y3K8",
    "result": [
      {
        "electoralDistricts": [
          {
            "election": null,
            "id": 118,
            "name": "Windsor—Tecumseh"
          }
        ],
        "pollDivisionIds": [
          10142712
        ],
        "postalCode": "N8Y3K8",
        "streetName": "ARGYLE",
        "streetDirectionId": null,
        "streetTypeId": "RD",
        "placeName": "WINDSOR",
        "streetNameDisplayText": "ARGYLE RD, WINDSOR"
      }
    ]
  },
  {
    "postal": "N8Y5W9",
    "result": []
  },
  {
    "postal": "N8Y6T9",
    "result": []
  },
  {
    "postal": "N8Y4H1",
    "result": [
      {
        "electoralDistricts": [
          {
            "election": null,
            "id": 118,
            "name": "Windsor—Tecumseh"
          }
        ],
        "pollDivisionIds": [
          10142716
        ],
        "postalCode": "N8Y4H1",
        "streetName": "LABADIE",
        "streetDirectionId": null,
        "streetTypeId": "RD",
        "placeName": "WINDSOR",
        "streetNameDisplayText": "LABADIE RD, WINDSOR"
      }
    ]
  },
  {
    "postal": "N8Y7A2",
    "result": []
  },
  {
    "postal": "N8Y5G0",
    "result": []
  },
  {
    "postal": "N8Y8V5",
    "result": []
  },
  {
    "postal": "N8Y2Y8",
    "result": [
      {
        "electoralDistricts": [
          {
            "election": null,
            "id": 118,
            "name": "Windsor—Tecumseh"
          }
        ],
        "pollDivisionIds": [
          10142717
        ],
        "postalCode": "N8Y2Y8",
        "streetName": "GEORGE",
        "streetDirectionId": null,
        "streetTypeId": "AVE",
        "placeName": "WINDSOR",
        "streetNameDisplayText": "GEORGE AVE, WINDSOR"
      }
    ]
  },
  {
    "postal": "N8Y2B6",
    "result": [
      {
        "electoralDistricts": [
          {
            "election": null,
            "id": 118,
            "name": "Windsor—Tecumseh"
          }
        ],
        "pollDivisionIds": [
          10142715
        ],
        "postalCode": "N8Y2B6",
        "streetName": "ALICE",
        "streetDirectionId": null,
        "streetTypeId": "ST",
        "placeName": "WINDSOR",
        "streetNameDisplayText": "ALICE ST, WINDSOR"
      }
    ]
  },
  {
    "postal": "N8Y4W8",
    "result": [
      {
        "electoralDistricts": [
          {
            "election": null,
            "id": 118,
            "name": "Windsor—Tecumseh"
          }
        ],
        "pollDivisionIds": [
          10142714
        ],
        "postalCode": "N8Y4W8",
        "streetName": "EDNA",
        "streetDirectionId": null,
        "streetTypeId": "ST",
        "placeName": "WINDSOR",
        "streetNameDisplayText": "EDNA ST, WINDSOR"
      }
    ]
  },
  {
    "postal": "N8Y8H7",
    "result": []
  },
  {
    "postal": "N8Y5P1",
    "result": []
  },
  {
    "postal": "N8Y2B8",
    "result": [
      {
        "electoralDistricts": [
          {
            "election": null,
            "id": 118,
            "name": "Windsor—Tecumseh"
          }
        ],
        "pollDivisionIds": [
          10142717
        ],
        "postalCode": "N8Y2B8",
        "streetName": "ALICE",
        "streetDirectionId": null,
        "streetTypeId": "ST",
        "placeName": "WINDSOR",
        "streetNameDisplayText": "ALICE ST, WINDSOR"
      }
    ]
  },
  {
    "postal": "N8Y0P2",
    "result": []
  },
  {
    "postal": "N8Y9M1",
    "result": []
  },
  {
    "postal": "N8Y3G0",
    "result": []
  },
  {
    "postal": "N8Y9Z2",
    "result": []
  },
  {
    "postal": "N8Y2A0",
    "result": []
  },
  {
    "postal": "N8Y6Y0",
    "result": []
  },
  {
    "postal": "N8Y2Z8",
    "result": [
      {
        "electoralDistricts": [
          {
            "election": null,
            "id": 118,
            "name": "Windsor—Tecumseh"
          }
        ],
        "pollDivisionIds": [
          10142717
        ],
        "postalCode": "N8Y2Z8",
        "streetName": "ROSSINI",
        "streetDirectionId": null,
        "streetTypeId": "BLVD",
        "placeName": "WINDSOR",
        "streetNameDisplayText": "ROSSINI BLVD, WINDSOR"
      }
    ]
  },
  {
    "postal": "N8Y7Y3",
    "result": []
  },
  {
    "postal": "N8Y6Z5",
    "result": []
  },
  {
    "postal": "N8Y6E0",
    "result": []
  },
  {
    "postal": "N8Y9B7",
    "result": []
  },
  {
    "postal": "N8Y9S5",
    "result": []
  },
  {
    "postal": "N8Y3X3",
    "result": [
      {
        "electoralDistricts": [
          {
            "election": null,
            "id": 118,
            "name": "Windsor—Tecumseh"
          }
        ],
        "pollDivisionIds": [
          10142717
        ],
        "postalCode": "N8Y3X3",
        "streetName": "ELLROSE",
        "streetDirectionId": null,
        "streetTypeId": "AVE",
        "placeName": "WINDSOR",
        "streetNameDisplayText": "ELLROSE AVE, WINDSOR"
      }
    ]
  },
  {
    "postal": "N8Y7R5",
    "result": []
  },
  {
    "postal": "N8Y2X3",
    "result": [
      {
        "electoralDistricts": [
          {
            "election": null,
            "id": 118,
            "name": "Windsor—Tecumseh"
          }
        ],
        "pollDivisionIds": [
          10142713
        ],
        "postalCode": "N8Y2X3",
        "streetName": "GEORGE",
        "streetDirectionId": null,
        "streetTypeId": "AVE",
        "placeName": "WINDSOR",
        "streetNameDisplayText": "GEORGE AVE, WINDSOR"
      }
    ]
  },
  {
    "postal": "N8Y8Z9",
    "result": []
  },
  {
    "postal": "N8Y0N4",
    "result": []
  },
  {
    "postal": "N8Y1K1",
    "result": [
      {
        "electoralDistricts": [
          {
            "election": null,
            "id": 118,
            "name": "Windsor—Tecumseh"
          }
        ],
        "pollDivisionIds": [
          10142711
        ],
        "postalCode": "N8Y1K1",
        "streetName": "NIAGARA",
        "streetDirectionId": null,
        "streetTypeId": "ST",
        "placeName": "WINDSOR",
        "streetNameDisplayText": "NIAGARA ST, WINDSOR"
      }
    ]
  },
  {
    "postal": "N8Y1S3",
    "result": [
      {
        "electoralDistricts": [
          {
            "election": null,
            "id": 118,
            "name": "Windsor—Tecumseh"
          }
        ],
        "pollDivisionIds": [
          10142712
        ],
        "postalCode": "N8Y1S3",
        "streetName": "IROQUOIS",
        "streetDirectionId": null,
        "streetTypeId": "ST",
        "placeName": "WINDSOR",
        "streetNameDisplayText": "IROQUOIS ST, WINDSOR"
      }
    ]
  },
  {
    "postal": "N8Y6M4",
    "result": []
  },
  {
    "postal": "N8Y9A9",
    "result": []
  },
  {
    "postal": "N8Y9Z9",
    "result": []
  },
  {
    "postal": "N8Y6T4",
    "result": []
  },
  {
    "postal": "N8Y0B2",
    "result": []
  },
  {
    "postal": "N8Y2L9",
    "result": [
      {
        "electoralDistricts": [
          {
            "election": null,
            "id": 118,
            "name": "Windsor—Tecumseh"
          }
        ],
        "pollDivisionIds": [
          10142711
        ],
        "postalCode": "N8Y2L9",
        "streetName": "DEVONSHIRE",
        "streetDirectionId": null,
        "streetTypeId": "RD",
        "placeName": "WINDSOR",
        "streetNameDisplayText": "DEVONSHIRE RD, WINDSOR"
      }
    ]
  },
  {
    "postal": "N8Y8K9",
    "result": []
  },
  {
    "postal": "N8Y2H9",
    "result": [
      {
        "electoralDistricts": [
          {
            "election": null,
            "id": 118,
            "name": "Windsor—Tecumseh"
          }
        ],
        "pollDivisionIds": [
          10142711
        ],
        "postalCode": "N8Y2H9",
        "streetName": "LINCOLN",
        "streetDirectionId": null,
        "streetTypeId": "RD",
        "placeName": "WINDSOR",
        "streetNameDisplayText": "LINCOLN RD, WINDSOR"
      }
    ]
  },
  {
    "postal": "N8Y3Z6",
    "result": [
      {
        "electoralDistricts": [
          {
            "election": null,
            "id": 118,
            "name": "Windsor—Tecumseh"
          }
        ],
        "pollDivisionIds": [
          10142718
        ],
        "postalCode": "N8Y3Z6",
        "streetName": "LAWRENCE",
        "streetDirectionId": null,
        "streetTypeId": "RD",
        "placeName": "WINDSOR",
        "streetNameDisplayText": "LAWRENCE RD, WINDSOR"
      }
    ]
  },
  {
    "postal": "N8Y3B0",
    "result": []
  },
  {
    "postal": "N8Y2H8",
    "result": [
      {
        "electoralDistricts": [
          {
            "election": null,
            "id": 118,
            "name": "Windsor—Tecumseh"
          }
        ],
        "pollDivisionIds": [
          10142711
        ],
        "postalCode": "N8Y2H8",
        "streetName": "LINCOLN",
        "streetDirectionId": null,
        "streetTypeId": "RD",
        "placeName": "WINDSOR",
        "streetNameDisplayText": "LINCOLN RD, WINDSOR"
      }
    ]
  },
  {
    "postal": "N8Y3X2",
    "result": [
      {
        "electoralDistricts": [
          {
            "election": null,
            "id": 118,
            "name": "Windsor—Tecumseh"
          }
        ],
        "pollDivisionIds": [
          10142717
        ],
        "postalCode": "N8Y3X2",
        "streetName": "ELLROSE",
        "streetDirectionId": null,
        "streetTypeId": "AVE",
        "placeName": "WINDSOR",
        "streetNameDisplayText": "ELLROSE AVE, WINDSOR"
      }
    ]
  },
  {
    "postal": "N8Y2E9",
    "result": [
      {
        "electoralDistricts": [
          {
            "election": null,
            "id": 118,
            "name": "Windsor—Tecumseh"
          }
        ],
        "pollDivisionIds": [
          10142713
        ],
        "postalCode": "N8Y2E9",
        "streetName": "PLEASANT",
        "streetDirectionId": null,
        "streetTypeId": "PL",
        "placeName": "WINDSOR",
        "streetNameDisplayText": "PLEASANT PL, WINDSOR"
      }
    ]
  },
  {
    "postal": "N8Y9P6",
    "result": []
  },
  {
    "postal": "N8Y9E2",
    "result": []
  },
  {
    "postal": "N8Y9H2",
    "result": []
  },
  {
    "postal": "N8Y1S8",
    "result": [
      {
        "electoralDistricts": [
          {
            "election": null,
            "id": 118,
            "name": "Windsor—Tecumseh"
          }
        ],
        "pollDivisionIds": [
          10142711
        ],
        "postalCode": "N8Y1S8",
        "streetName": "ONEIDA",
        "streetDirectionId": null,
        "streetTypeId": "CRT",
        "placeName": "WINDSOR",
        "streetNameDisplayText": "ONEIDA CRT, WINDSOR"
      }
    ]
  },
  {
    "postal": "N8Y3M6",
    "result": [
      {
        "electoralDistricts": [
          {
            "election": null,
            "id": 118,
            "name": "Windsor—Tecumseh"
          }
        ],
        "pollDivisionIds": [
          10142714
        ],
        "postalCode": "N8Y3M6",
        "streetName": "ST LUKE",
        "streetDirectionId": null,
        "streetTypeId": "RD",
        "placeName": "WINDSOR",
        "streetNameDisplayText": "ST LUKE RD, WINDSOR"
      }
    ]
  },
  {
    "postal": "N8Y6Z8",
    "result": []
  },
  {
    "postal": "N8Y4J2",
    "result": [
      {
        "electoralDistricts": [
          {
            "election": null,
            "id": 118,
            "name": "Windsor—Tecumseh"
          }
        ],
        "pollDivisionIds": [
          10142717
        ],
        "postalCode": "N8Y4J2",
        "streetName": "TOURANGEAU",
        "streetDirectionId": null,
        "streetTypeId": "RD",
        "placeName": "WINDSOR",
        "streetNameDisplayText": "TOURANGEAU RD, WINDSOR"
      }
    ]
  },
  {
    "postal": "N8Y9Y1",
    "result": []
  },
  {
    "postal": "N8Y8V6",
    "result": []
  },
  {
    "postal": "N8Y6B2",
    "result": []
  },
  {
    "postal": "N8Y1P8",
    "result": [
      {
        "electoralDistricts": [
          {
            "election": null,
            "id": 118,
            "name": "Windsor—Tecumseh"
          }
        ],
        "pollDivisionIds": [
          10142712,
          10142711
        ],
        "postalCode": "N8Y1P8",
        "streetName": "DEVONSHIRE",
        "streetDirectionId": null,
        "streetTypeId": "CRT",
        "placeName": "WINDSOR",
        "streetNameDisplayText": "DEVONSHIRE CRT, WINDSOR"
      }
    ]
  },
  {
    "postal": "N8Y0V8",
    "result": []
  },
  {
    "postal": "N8Y4Y0",
    "result": []
  },
  {
    "postal": "N8Y2T4",
    "result": [
      {
        "electoralDistricts": [
          {
            "election": null,
            "id": 118,
            "name": "Windsor—Tecumseh"
          }
        ],
        "pollDivisionIds": [
          10142714
        ],
        "postalCode": "N8Y2T4",
        "streetName": "HENRY FORD CENTRE",
        "streetDirectionId": null,
        "streetTypeId": "DR",
        "placeName": "WINDSOR",
        "streetNameDisplayText": "HENRY FORD CENTRE DR, WINDSOR"
      }
    ]
  },
  {
    "postal": "N8Y2S3",
    "result": [
      {
        "electoralDistricts": [
          {
            "election": null,
            "id": 118,
            "name": "Windsor—Tecumseh"
          }
        ],
        "pollDivisionIds": [
          10142716
        ],
        "postalCode": "N8Y2S3",
        "streetName": "DROUILLARD",
        "streetDirectionId": null,
        "streetTypeId": "RD",
        "placeName": "WINDSOR",
        "streetNameDisplayText": "DROUILLARD RD, WINDSOR"
      }
    ]
  },
  {
    "postal": "N8Y0K0",
    "result": []
  },
  {
    "postal": "N8Y5N1",
    "result": []
  },
  {
    "postal": "N8Y7T0",
    "result": []
  },
  {
    "postal": "N8Y9N2",
    "result": []
  },
  {
    "postal": "N8Y5L1",
    "result": []
  },
  {
    "postal": "N8Y7G5",
    "result": []
  },
  {
    "postal": "N8Y6K2",
    "result": []
  },
  {
    "postal": "N8Y6P9",
    "result": []
  },
  {
    "postal": "N8Y0E6",
    "result": []
  },
  {
    "postal": "N8Y8R9",
    "result": []
  },
  {
    "postal": "N8Y3G9",
    "result": []
  },
  {
    "postal": "N8Y0V7",
    "result": []
  },
  {
    "postal": "N8Y2Z1",
    "result": [
      {
        "electoralDistricts": [
          {
            "election": null,
            "id": 118,
            "name": "Windsor—Tecumseh"
          }
        ],
        "pollDivisionIds": [
          10142713
        ],
        "postalCode": "N8Y2Z1",
        "streetName": "ROSSINI",
        "streetDirectionId": null,
        "streetTypeId": "BLVD",
        "placeName": "WINDSOR",
        "streetNameDisplayText": "ROSSINI BLVD, WINDSOR"
      }
    ]
  },
  {
    "postal": "N8Y7N1",
    "result": []
  },
  {
    "postal": "N8Y3C6",
    "result": [
      {
        "electoralDistricts": [
          {
            "election": null,
            "id": 118,
            "name": "Windsor—Tecumseh"
          }
        ],
        "pollDivisionIds": [
          10142717
        ],
        "postalCode": "N8Y3C6",
        "streetName": "PILLETTE",
        "streetDirectionId": null,
        "streetTypeId": "RD",
        "placeName": "WINDSOR",
        "streetNameDisplayText": "PILLETTE RD, WINDSOR"
      }
    ]
  },
  {
    "postal": "N8Y4M1",
    "result": [
      {
        "electoralDistricts": [
          {
            "election": null,
            "id": 118,
            "name": "Windsor—Tecumseh"
          }
        ],
        "pollDivisionIds": [
          10142717
        ],
        "postalCode": "N8Y4M1",
        "streetName": "FRANCOIS",
        "streetDirectionId": null,
        "streetTypeId": "RD",
        "placeName": "WINDSOR",
        "streetNameDisplayText": "FRANCOIS RD, WINDSOR"
      }
    ]
  },
  {
    "postal": "N8Y9K2",
    "result": []
  },
  {
    "postal": "N8Y9S6",
    "result": []
  },
  {
    "postal": "N8Y4X1",
    "result": [
      {
        "electoralDistricts": [
          {
            "election": null,
            "id": 118,
            "name": "Windsor—Tecumseh"
          }
        ],
        "pollDivisionIds": [
          10142717
        ],
        "postalCode": "N8Y4X1",
        "streetName": "MILLOY",
        "streetDirectionId": null,
        "streetTypeId": "ST",
        "placeName": "WINDSOR",
        "streetNameDisplayText": "MILLOY ST, WINDSOR"
      }
    ]
  },
  {
    "postal": "N8Y8W2",
    "result": []
  },
  {
    "postal": "N8Y7N2",
    "result": []
  },
  {
    "postal": "N8Y8S3",
    "result": []
  },
  {
    "postal": "N8Y4V0",
    "result": []
  },
  {
    "postal": "N8Y6W4",
    "result": []
  },
  {
    "postal": "N8Y5M1",
    "result": []
  },
  {
    "postal": "N8Y0S4",
    "result": []
  },
  {
    "postal": "N8Y5X6",
    "result": []
  },
  {
    "postal": "N8Y8L5",
    "result": []
  },
  {
    "postal": "N8Y5M8",
    "result": []
  },
  {
    "postal": "N8Y2G3",
    "result": [
      {
        "electoralDistricts": [
          {
            "election": null,
            "id": 118,
            "name": "Windsor—Tecumseh"
          }
        ],
        "pollDivisionIds": [
          10142710
        ],
        "postalCode": "N8Y2G3",
        "streetName": "LINCOLN",
        "streetDirectionId": null,
        "streetTypeId": "RD",
        "placeName": "WINDSOR",
        "streetNameDisplayText": "LINCOLN RD, WINDSOR"
      }
    ]
  },
  {
    "postal": "N8Y8E4",
    "result": []
  },
  {
    "postal": "N8Y7S9",
    "result": []
  },
  {
    "postal": "N8Y1K3",
    "result": [
      {
        "electoralDistricts": [
          {
            "election": null,
            "id": 118,
            "name": "Windsor—Tecumseh"
          }
        ],
        "pollDivisionIds": [
          10142711
        ],
        "postalCode": "N8Y1K3",
        "streetName": "NIAGARA",
        "streetDirectionId": null,
        "streetTypeId": "ST",
        "placeName": "WINDSOR",
        "streetNameDisplayText": "NIAGARA ST, WINDSOR"
      }
    ]
  },
  {
    "postal": "N8Y4E1",
    "result": [
      {
        "electoralDistricts": [
          {
            "election": null,
            "id": 118,
            "name": "Windsor—Tecumseh"
          }
        ],
        "pollDivisionIds": [
          10142711
        ],
        "postalCode": "N8Y4E1",
        "streetName": "WESCOTT",
        "streetDirectionId": null,
        "streetTypeId": "RD",
        "placeName": "WINDSOR",
        "streetNameDisplayText": "WESCOTT RD, WINDSOR"
      },
      {
        "electoralDistricts": [
          {
            "election": null,
            "id": 118,
            "name": "Windsor—Tecumseh"
          }
        ],
        "pollDivisionIds": [
          10142716
        ],
        "postalCode": "N8Y4E1",
        "streetName": "WESTCOTT",
        "streetDirectionId": null,
        "streetTypeId": "RD",
        "placeName": "WINDSOR",
        "streetNameDisplayText": "WESTCOTT RD, WINDSOR"
      }
    ]
  },
  {
    "postal": "N8Y4R2",
    "result": [
      {
        "electoralDistricts": [
          {
            "election": null,
            "id": 118,
            "name": "Windsor—Tecumseh"
          }
        ],
        "pollDivisionIds": [
          10142715
        ],
        "postalCode": "N8Y4R2",
        "streetName": "FACTORIA",
        "streetDirectionId": null,
        "streetTypeId": "RD",
        "placeName": "WINDSOR",
        "streetNameDisplayText": "FACTORIA RD, WINDSOR"
      }
    ]
  },
  {
    "postal": "N8Y6T0",
    "result": []
  },
  {
    "postal": "N8Y3K5",
    "result": [
      {
        "electoralDistricts": [
          {
            "election": null,
            "id": 118,
            "name": "Windsor—Tecumseh"
          }
        ],
        "pollDivisionIds": [
          10142711
        ],
        "postalCode": "N8Y3K5",
        "streetName": "ARGYLE",
        "streetDirectionId": null,
        "streetTypeId": "RD",
        "placeName": "WINDSOR",
        "streetNameDisplayText": "ARGYLE RD, WINDSOR"
      }
    ]
  },
  {
    "postal": "N8Y3S3",
    "result": [
      {
        "electoralDistricts": [
          {
            "election": null,
            "id": 118,
            "name": "Windsor—Tecumseh"
          }
        ],
        "pollDivisionIds": [
          10142714
        ],
        "postalCode": "N8Y3S3",
        "streetName": "HICKORY",
        "streetDirectionId": null,
        "streetTypeId": "RD",
        "placeName": "WINDSOR",
        "streetNameDisplayText": "HICKORY RD, WINDSOR"
      }
    ]
  },
  {
    "postal": "N8Y3L4",
    "result": [
      {
        "electoralDistricts": [
          {
            "election": null,
            "id": 118,
            "name": "Windsor—Tecumseh"
          }
        ],
        "pollDivisionIds": [
          10142711
        ],
        "postalCode": "N8Y3L4",
        "streetName": "MONMOUTH",
        "streetDirectionId": null,
        "streetTypeId": "RD",
        "placeName": "WINDSOR",
        "streetNameDisplayText": "MONMOUTH RD, WINDSOR"
      }
    ]
  },
  {
    "postal": "N8Y9Y2",
    "result": []
  },
  {
    "postal": "N8Y1E0",
    "result": []
  },
  {
    "postal": "N8Y9A4",
    "result": []
  },
  {
    "postal": "N8Y1L3",
    "result": [
      {
        "electoralDistricts": [
          {
            "election": null,
            "id": 118,
            "name": "Windsor—Tecumseh"
          }
        ],
        "pollDivisionIds": [
          10142711
        ],
        "postalCode": "N8Y1L3",
        "streetName": "RICHMOND",
        "streetDirectionId": null,
        "streetTypeId": "ST",
        "placeName": "WINDSOR",
        "streetNameDisplayText": "RICHMOND ST, WINDSOR"
      }
    ]
  },
  {
    "postal": "N8Y6N1",
    "result": []
  },
  {
    "postal": "N8Y6G7",
    "result": []
  },
  {
    "postal": "N8Y7W1",
    "result": []
  },
  {
    "postal": "N8Y4M6",
    "result": [
      {
        "electoralDistricts": [
          {
            "election": null,
            "id": 118,
            "name": "Windsor—Tecumseh"
          }
        ],
        "pollDivisionIds": [
          10142717
        ],
        "postalCode": "N8Y4M6",
        "streetName": "OLIVE",
        "streetDirectionId": null,
        "streetTypeId": "RD",
        "placeName": "WINDSOR",
        "streetNameDisplayText": "OLIVE RD, WINDSOR"
      }
    ]
  },
  {
    "postal": "N8Y1K0",
    "result": []
  },
  {
    "postal": "N8Y3E2",
    "result": [
      {
        "electoralDistricts": [
          {
            "election": null,
            "id": 118,
            "name": "Windsor—Tecumseh"
          }
        ],
        "pollDivisionIds": [
          10142710
        ],
        "postalCode": "N8Y3E2",
        "streetName": "WINDERMERE",
        "streetDirectionId": null,
        "streetTypeId": "RD",
        "placeName": "WINDSOR",
        "streetNameDisplayText": "WINDERMERE RD, WINDSOR"
      }
    ]
  },
  {
    "postal": "N8Y5H4",
    "result": []
  },
  {
    "postal": "N8Y1K7",
    "result": [
      {
        "electoralDistricts": [
          {
            "election": null,
            "id": 118,
            "name": "Windsor—Tecumseh"
          }
        ],
        "pollDivisionIds": [
          10142711
        ],
        "postalCode": "N8Y1K7",
        "streetName": "ERIE",
        "streetDirectionId": "E",
        "streetTypeId": "ST",
        "placeName": "WINDSOR",
        "streetNameDisplayText": "ERIE ST E, WINDSOR"
      }
    ]
  },
  {
    "postal": "N8Y0H0",
    "result": []
  },
  {
    "postal": "N8Y0J3",
    "result": []
  },
  {
    "postal": "N8Y1X6",
    "result": [
      {
        "electoralDistricts": [
          {
            "election": null,
            "id": 118,
            "name": "Windsor—Tecumseh"
          }
        ],
        "pollDivisionIds": [
          10142716
        ],
        "postalCode": "N8Y1X6",
        "streetName": "SEMINOLE",
        "streetDirectionId": null,
        "streetTypeId": "ST",
        "placeName": "WINDSOR",
        "streetNameDisplayText": "SEMINOLE ST, WINDSOR"
      }
    ]
  },
  {
    "postal": "N8Y2Z6",
    "result": [
      {
        "electoralDistricts": [
          {
            "election": null,
            "id": 118,
            "name": "Windsor—Tecumseh"
          }
        ],
        "pollDivisionIds": [
          10142716
        ],
        "postalCode": "N8Y2Z6",
        "streetName": "ROSSINI",
        "streetDirectionId": null,
        "streetTypeId": "BLVD",
        "placeName": "WINDSOR",
        "streetNameDisplayText": "ROSSINI BLVD, WINDSOR"
      }
    ]
  },
  {
    "postal": "N8Y4R9",
    "result": []
  },
  {
    "postal": "N8Y0W8",
    "result": []
  },
  {
    "postal": "N8Y1L4",
    "result": [
      {
        "electoralDistricts": [
          {
            "election": null,
            "id": 118,
            "name": "Windsor—Tecumseh"
          }
        ],
        "pollDivisionIds": [
          10142711
        ],
        "postalCode": "N8Y1L4",
        "streetName": "RICHMOND",
        "streetDirectionId": null,
        "streetTypeId": "ST",
        "placeName": "WINDSOR",
        "streetNameDisplayText": "RICHMOND ST, WINDSOR"
      }
    ]
  },
  {
    "postal": "N8Y0C8",
    "result": []
  },
  {
    "postal": "N8Y9X7",
    "result": []
  },
  {
    "postal": "N8Y4T1",
    "result": []
  },
  {
    "postal": "N8Y0M0",
    "result": []
  },
  {
    "postal": "N8Y6A2",
    "result": []
  },
  {
    "postal": "N8Y9S8",
    "result": []
  },
  {
    "postal": "N8Y9T4",
    "result": []
  },
  {
    "postal": "N8Y9Y4",
    "result": []
  },
  {
    "postal": "N8Y6G5",
    "result": []
  },
  {
    "postal": "N8Y6H9",
    "result": []
  },
  {
    "postal": "N8Y2P3",
    "result": [
      {
        "electoralDistricts": [
          {
            "election": null,
            "id": 118,
            "name": "Windsor—Tecumseh"
          }
        ],
        "pollDivisionIds": [
          10142713
        ],
        "postalCode": "N8Y2P3",
        "streetName": "DROUILLARD",
        "streetDirectionId": null,
        "streetTypeId": "RD",
        "placeName": "WINDSOR",
        "streetNameDisplayText": "DROUILLARD RD, WINDSOR"
      }
    ]
  },
  {
    "postal": "N8Y1T6",
    "result": [
      {
        "electoralDistricts": [
          {
            "election": null,
            "id": 118,
            "name": "Windsor—Tecumseh"
          }
        ],
        "pollDivisionIds": [
          10142712
        ],
        "postalCode": "N8Y1T6",
        "streetName": "ARGYLE",
        "streetDirectionId": null,
        "streetTypeId": "CRT",
        "placeName": "WINDSOR",
        "streetNameDisplayText": "ARGYLE CRT, WINDSOR"
      }
    ]
  },
  {
    "postal": "N8Y4P6",
    "result": [
      {
        "electoralDistricts": [
          {
            "election": null,
            "id": 118,
            "name": "Windsor—Tecumseh"
          }
        ],
        "pollDivisionIds": [
          10142715
        ],
        "postalCode": "N8Y4P6",
        "streetName": "ALEXIS",
        "streetDirectionId": null,
        "streetTypeId": "RD",
        "placeName": "WINDSOR",
        "streetNameDisplayText": "ALEXIS RD, WINDSOR"
      }
    ]
  },
  {
    "postal": "N8Y3K1",
    "result": [
      {
        "electoralDistricts": [
          {
            "election": null,
            "id": 118,
            "name": "Windsor—Tecumseh"
          }
        ],
        "pollDivisionIds": [
          10142711
        ],
        "postalCode": "N8Y3K1",
        "streetName": "ARGYLE",
        "streetDirectionId": null,
        "streetTypeId": "RD",
        "placeName": "WINDSOR",
        "streetNameDisplayText": "ARGYLE RD, WINDSOR"
      }
    ]
  },
  {
    "postal": "N8Y6X4",
    "result": []
  },
  {
    "postal": "N8Y4M8",
    "result": [
      {
        "electoralDistricts": [
          {
            "election": null,
            "id": 118,
            "name": "Windsor—Tecumseh"
          }
        ],
        "pollDivisionIds": [
          10142717
        ],
        "postalCode": "N8Y4M8",
        "streetName": "OLIVE",
        "streetDirectionId": null,
        "streetTypeId": "RD",
        "placeName": "WINDSOR",
        "streetNameDisplayText": "OLIVE RD, WINDSOR"
      }
    ]
  },
  {
    "postal": "N8Y2Y1",
    "result": [
      {
        "electoralDistricts": [
          {
            "election": null,
            "id": 118,
            "name": "Windsor—Tecumseh"
          }
        ],
        "pollDivisionIds": [
          10142717
        ],
        "postalCode": "N8Y2Y1",
        "streetName": "GEORGE",
        "streetDirectionId": null,
        "streetTypeId": "AVE",
        "placeName": "WINDSOR",
        "streetNameDisplayText": "GEORGE AVE, WINDSOR"
      }
    ]
  },
  {
    "postal": "N8Y6M1",
    "result": []
  },
  {
    "postal": "N8Y5L8",
    "result": []
  },
  {
    "postal": "N8Y3P6",
    "result": [
      {
        "electoralDistricts": [
          {
            "election": null,
            "id": 118,
            "name": "Windsor—Tecumseh"
          }
        ],
        "pollDivisionIds": [
          10142714
        ],
        "postalCode": "N8Y3P6",
        "streetName": "ALBERT",
        "streetDirectionId": null,
        "streetTypeId": "RD",
        "placeName": "WINDSOR",
        "streetNameDisplayText": "ALBERT RD, WINDSOR"
      }
    ]
  },
  {
    "postal": "N8Y9A5",
    "result": []
  },
  {
    "postal": "N8Y7K1",
    "result": []
  },
  {
    "postal": "N8Y3J4",
    "result": []
  },
  {
    "postal": "N8Y5E7",
    "result": []
  },
  {
    "postal": "N8Y3A7",
    "result": [
      {
        "electoralDistricts": [
          {
            "election": null,
            "id": 118,
            "name": "Windsor—Tecumseh"
          }
        ],
        "pollDivisionIds": [
          10142713
        ],
        "postalCode": "N8Y3A7",
        "streetName": "JOS JANISSE",
        "streetDirectionId": null,
        "streetTypeId": "AVE",
        "placeName": "WINDSOR",
        "streetNameDisplayText": "JOS JANISSE AVE, WINDSOR"
      }
    ]
  },
  {
    "postal": "N8Y1B9",
    "result": [
      {
        "electoralDistricts": [
          {
            "election": null,
            "id": 118,
            "name": "Windsor—Tecumseh"
          }
        ],
        "pollDivisionIds": [
          10142713
        ],
        "postalCode": "N8Y1B9",
        "streetName": "RIVERSIDE",
        "streetDirectionId": "E",
        "streetTypeId": "DR",
        "placeName": "WINDSOR",
        "streetNameDisplayText": "RIVERSIDE DR E, WINDSOR"
      }
    ]
  },
  {
    "postal": "N8Y9E8",
    "result": []
  },
  {
    "postal": "N8Y1C9",
    "result": [
      {
        "electoralDistricts": [
          {
            "election": null,
            "id": 118,
            "name": "Windsor—Tecumseh"
          }
        ],
        "pollDivisionIds": [
          10142710
        ],
        "postalCode": "N8Y1C9",
        "streetName": "WYANDOTTE",
        "streetDirectionId": "E",
        "streetTypeId": "ST",
        "placeName": "WINDSOR",
        "streetNameDisplayText": "WYANDOTTE ST E, WINDSOR"
      }
    ]
  },
  {
    "postal": "N8Y3B5",
    "result": [
      {
        "electoralDistricts": [
          {
            "election": null,
            "id": 118,
            "name": "Windsor—Tecumseh"
          }
        ],
        "pollDivisionIds": [
          10142718
        ],
        "postalCode": "N8Y3B5",
        "streetName": "PILLETTE",
        "streetDirectionId": null,
        "streetTypeId": "RD",
        "placeName": "WINDSOR",
        "streetNameDisplayText": "PILLETTE RD, WINDSOR"
      }
    ]
  },
  {
    "postal": "N8Y8R0",
    "result": []
  },
  {
    "postal": "N8Y3P2",
    "result": [
      {
        "electoralDistricts": [
          {
            "election": null,
            "id": 118,
            "name": "Windsor—Tecumseh"
          }
        ],
        "pollDivisionIds": [
          10142714
        ],
        "postalCode": "N8Y3P2",
        "streetName": "ALBERT",
        "streetDirectionId": null,
        "streetTypeId": "RD",
        "placeName": "WINDSOR",
        "streetNameDisplayText": "ALBERT RD, WINDSOR"
      }
    ]
  },
  {
    "postal": "N8Y5V4",
    "result": []
  },
  {
    "postal": "N8Y4H0",
    "result": []
  },
  {
    "postal": "N8Y4S7",
    "result": [
      {
        "electoralDistricts": [
          {
            "election": null,
            "id": 118,
            "name": "Windsor—Tecumseh"
          }
        ],
        "pollDivisionIds": [
          10142713
        ],
        "postalCode": "N8Y4S7",
        "streetName": "RIVERSIDE",
        "streetDirectionId": "E",
        "streetTypeId": "DR",
        "placeName": "WINDSOR",
        "streetNameDisplayText": "RIVERSIDE DR E, WINDSOR"
      }
    ]
  },
  {
    "postal": "N8Y6C2",
    "result": []
  },
  {
    "postal": "N8Y8W3",
    "result": []
  },
  {
    "postal": "N8Y4M5",
    "result": [
      {
        "electoralDistricts": [
          {
            "election": null,
            "id": 118,
            "name": "Windsor—Tecumseh"
          }
        ],
        "pollDivisionIds": [
          10142717
        ],
        "postalCode": "N8Y4M5",
        "streetName": "OLIVE",
        "streetDirectionId": null,
        "streetTypeId": "RD",
        "placeName": "WINDSOR",
        "streetNameDisplayText": "OLIVE RD, WINDSOR"
      }
    ]
  },
  {
    "postal": "N8Y5T1",
    "result": []
  },
  {
    "postal": "N8Y3B3",
    "result": [
      {
        "electoralDistricts": [
          {
            "election": null,
            "id": 118,
            "name": "Windsor—Tecumseh"
          }
        ],
        "pollDivisionIds": [
          10142713
        ],
        "postalCode": "N8Y3B3",
        "streetName": "PILLETTE",
        "streetDirectionId": null,
        "streetTypeId": "RD",
        "placeName": "WINDSOR",
        "streetNameDisplayText": "PILLETTE RD, WINDSOR"
      }
    ]
  },
  {
    "postal": "N8Y6C6",
    "result": []
  },
  {
    "postal": "N8Y7N8",
    "result": []
  },
  {
    "postal": "N8Y2Y3",
    "result": [
      {
        "electoralDistricts": [
          {
            "election": null,
            "id": 118,
            "name": "Windsor—Tecumseh"
          }
        ],
        "pollDivisionIds": [
          10142717
        ],
        "postalCode": "N8Y2Y3",
        "streetName": "GEORGE",
        "streetDirectionId": null,
        "streetTypeId": "AVE",
        "placeName": "WINDSOR",
        "streetNameDisplayText": "GEORGE AVE, WINDSOR"
      }
    ]
  },
  {
    "postal": "N8Y2R6",
    "result": [
      {
        "electoralDistricts": [
          {
            "election": null,
            "id": 118,
            "name": "Windsor—Tecumseh"
          }
        ],
        "pollDivisionIds": [
          10142714
        ],
        "postalCode": "N8Y2R6",
        "streetName": "DROUILLARD",
        "streetDirectionId": null,
        "streetTypeId": "RD",
        "placeName": "WINDSOR",
        "streetNameDisplayText": "DROUILLARD RD, WINDSOR"
      }
    ]
  },
  {
    "postal": "N8Y7N3",
    "result": []
  },
  {
    "postal": "N8Y8J2",
    "result": []
  },
  {
    "postal": "N8Y6A9",
    "result": []
  },
  {
    "postal": "N8Y3V2",
    "result": [
      {
        "electoralDistricts": [
          {
            "election": null,
            "id": 118,
            "name": "Windsor—Tecumseh"
          }
        ],
        "pollDivisionIds": [
          10142716
        ],
        "postalCode": "N8Y3V2",
        "streetName": "CENTRAL",
        "streetDirectionId": null,
        "streetTypeId": "AVE",
        "placeName": "WINDSOR",
        "streetNameDisplayText": "CENTRAL AVE, WINDSOR"
      }
    ]
  },
  {
    "postal": "N8Y2N3",
    "result": [
      {
        "electoralDistricts": [
          {
            "election": null,
            "id": 118,
            "name": "Windsor—Tecumseh"
          }
        ],
        "pollDivisionIds": [
          10142714
        ],
        "postalCode": "N8Y2N3",
        "streetName": "WALKER",
        "streetDirectionId": null,
        "streetTypeId": "RD",
        "placeName": "WINDSOR",
        "streetNameDisplayText": "WALKER RD, WINDSOR"
      }
    ]
  },
  {
    "postal": "N8Y1S5",
    "result": [
      {
        "electoralDistricts": [
          {
            "election": null,
            "id": 118,
            "name": "Windsor—Tecumseh"
          }
        ],
        "pollDivisionIds": [
          10142711
        ],
        "postalCode": "N8Y1S5",
        "streetName": "DACOTAH",
        "streetDirectionId": null,
        "streetTypeId": "DR",
        "placeName": "WINDSOR",
        "streetNameDisplayText": "DACOTAH DR, WINDSOR"
      }
    ]
  },
  {
    "postal": "N8Y4T7",
    "result": [
      {
        "electoralDistricts": [
          {
            "election": null,
            "id": 118,
            "name": "Windsor—Tecumseh"
          }
        ],
        "pollDivisionIds": [
          10142716
        ],
        "postalCode": "N8Y4T7",
        "streetName": "REGINALD",
        "streetDirectionId": null,
        "streetTypeId": "ST",
        "placeName": "WINDSOR",
        "streetNameDisplayText": "REGINALD ST, WINDSOR"
      }
    ]
  },
  {
    "postal": "N8Y6Y7",
    "result": []
  },
  {
    "postal": "N8Y0W7",
    "result": []
  },
  {
    "postal": "N8Y2W9",
    "result": []
  },
  {
    "postal": "N8Y8V0",
    "result": []
  },
  {
    "postal": "N8Y0H4",
    "result": []
  },
  {
    "postal": "N8Y2T1",
    "result": []
  },
  {
    "postal": "N8Y1B1",
    "result": [
      {
        "electoralDistricts": [
          {
            "election": null,
            "id": 118,
            "name": "Windsor—Tecumseh"
          }
        ],
        "pollDivisionIds": [
          10142713
        ],
        "postalCode": "N8Y1B1",
        "streetName": "RIVERSIDE",
        "streetDirectionId": "E",
        "streetTypeId": "DR",
        "placeName": "WINDSOR",
        "streetNameDisplayText": "RIVERSIDE DR E, WINDSOR"
      }
    ]
  },
  {
    "postal": "N8Y8B6",
    "result": []
  },
  {
    "postal": "N8Y6H1",
    "result": []
  },
  {
    "postal": "N8Y8T8",
    "result": []
  },
  {
    "postal": "N8Y0T4",
    "result": []
  },
  {
    "postal": "N8Y2C4",
    "result": []
  },
  {
    "postal": "N8Y8N3",
    "result": []
  },
  {
    "postal": "N8Y4L8",
    "result": [
      {
        "electoralDistricts": [
          {
            "election": null,
            "id": 118,
            "name": "Windsor—Tecumseh"
          }
        ],
        "pollDivisionIds": [
          10142717
        ],
        "postalCode": "N8Y4L8",
        "streetName": "FRANCOIS",
        "streetDirectionId": null,
        "streetTypeId": "RD",
        "placeName": "WINDSOR",
        "streetNameDisplayText": "FRANCOIS RD, WINDSOR"
      }
    ]
  },
  {
    "postal": "N8Y2B5",
    "result": [
      {
        "electoralDistricts": [
          {
            "election": null,
            "id": 118,
            "name": "Windsor—Tecumseh"
          }
        ],
        "pollDivisionIds": [
          10142715
        ],
        "postalCode": "N8Y2B5",
        "streetName": "ALICE",
        "streetDirectionId": null,
        "streetTypeId": "ST",
        "placeName": "WINDSOR",
        "streetNameDisplayText": "ALICE ST, WINDSOR"
      }
    ]
  },
  {
    "postal": "N8Y3H1",
    "result": [
      {
        "electoralDistricts": [
          {
            "election": null,
            "id": 118,
            "name": "Windsor—Tecumseh"
          }
        ],
        "pollDivisionIds": [
          10142711
        ],
        "postalCode": "N8Y3H1",
        "streetName": "KILDARE",
        "streetDirectionId": null,
        "streetTypeId": "RD",
        "placeName": "WINDSOR",
        "streetNameDisplayText": "KILDARE RD, WINDSOR"
      }
    ]
  },
  {
    "postal": "N8Y4Y1",
    "result": [
      {
        "electoralDistricts": [
          {
            "election": null,
            "id": 118,
            "name": "Windsor—Tecumseh"
          }
        ],
        "pollDivisionIds": [
          10142766
        ],
        "postalCode": "N8Y4Y1",
        "streetName": "DROUILLARD",
        "streetDirectionId": null,
        "streetTypeId": "RD",
        "placeName": "WINDSOR",
        "streetNameDisplayText": "DROUILLARD RD, WINDSOR"
      }
    ]
  },
  {
    "postal": "N8Y7E2",
    "result": []
  },
  {
    "postal": "N8Y2P5",
    "result": [
      {
        "electoralDistricts": [
          {
            "election": null,
            "id": 118,
            "name": "Windsor—Tecumseh"
          }
        ],
        "pollDivisionIds": [
          10142714
        ],
        "postalCode": "N8Y2P5",
        "streetName": "DROUILLARD",
        "streetDirectionId": null,
        "streetTypeId": "RD",
        "placeName": "WINDSOR",
        "streetNameDisplayText": "DROUILLARD RD, WINDSOR"
      }
    ]
  },
  {
    "postal": "N8Y8R7",
    "result": []
  },
  {
    "postal": "N8Y9P1",
    "result": []
  },
  {
    "postal": "N8Y3B8",
    "result": [
      {
        "electoralDistricts": [
          {
            "election": null,
            "id": 118,
            "name": "Windsor—Tecumseh"
          }
        ],
        "pollDivisionIds": [
          10142717
        ],
        "postalCode": "N8Y3B8",
        "streetName": "PILLETTE",
        "streetDirectionId": null,
        "streetTypeId": "RD",
        "placeName": "WINDSOR",
        "streetNameDisplayText": "PILLETTE RD, WINDSOR"
      }
    ]
  },
  {
    "postal": "N8Y3P7",
    "result": [
      {
        "electoralDistricts": [
          {
            "election": null,
            "id": 118,
            "name": "Windsor—Tecumseh"
          }
        ],
        "pollDivisionIds": [
          10142714
        ],
        "postalCode": "N8Y3P7",
        "streetName": "ALBERT",
        "streetDirectionId": null,
        "streetTypeId": "RD",
        "placeName": "WINDSOR",
        "streetNameDisplayText": "ALBERT RD, WINDSOR"
      }
    ]
  },
  {
    "postal": "N8Y9B2",
    "result": []
  },
  {
    "postal": "N8Y6Z3",
    "result": []
  },
  {
    "postal": "N8Y4N5",
    "result": [
      {
        "electoralDistricts": [
          {
            "election": null,
            "id": 118,
            "name": "Windsor—Tecumseh"
          }
        ],
        "pollDivisionIds": [
          10142717
        ],
        "postalCode": "N8Y4N5",
        "streetName": "NORMAN",
        "streetDirectionId": null,
        "streetTypeId": "RD",
        "placeName": "WINDSOR",
        "streetNameDisplayText": "NORMAN RD, WINDSOR"
      }
    ]
  },
  {
    "postal": "N8Y8T3",
    "result": []
  },
  {
    "postal": "N8Y1V2",
    "result": [
      {
        "electoralDistricts": [
          {
            "election": null,
            "id": 118,
            "name": "Windsor—Tecumseh"
          }
        ],
        "pollDivisionIds": [
          10142714
        ],
        "postalCode": "N8Y1V2",
        "streetName": "EDNA",
        "streetDirectionId": null,
        "streetTypeId": "ST",
        "placeName": "WINDSOR",
        "streetNameDisplayText": "EDNA ST, WINDSOR"
      }
    ]
  },
  {
    "postal": "N8Y1Y0",
    "result": []
  },
  {
    "postal": "N8Y3G6",
    "result": [
      {
        "electoralDistricts": [
          {
            "election": null,
            "id": 118,
            "name": "Windsor—Tecumseh"
          }
        ],
        "pollDivisionIds": [
          10142710
        ],
        "postalCode": "N8Y3G6",
        "streetName": "KILDARE",
        "streetDirectionId": null,
        "streetTypeId": "RD",
        "placeName": "WINDSOR",
        "streetNameDisplayText": "KILDARE RD, WINDSOR"
      }
    ]
  },
  {
    "postal": "N8Y3H7",
    "result": [
      {
        "electoralDistricts": [
          {
            "election": null,
            "id": 118,
            "name": "Windsor—Tecumseh"
          }
        ],
        "pollDivisionIds": [
          10142711
        ],
        "postalCode": "N8Y3H7",
        "streetName": "KILDARE",
        "streetDirectionId": null,
        "streetTypeId": "RD",
        "placeName": "WINDSOR",
        "streetNameDisplayText": "KILDARE RD, WINDSOR"
      }
    ]
  },
  {
    "postal": "N8Y7X8",
    "result": []
  },
  {
    "postal": "N8Y0C7",
    "result": []
  },
  {
    "postal": "N8Y0W9",
    "result": []
  },
  {
    "postal": "N8Y8E6",
    "result": []
  },
  {
    "postal": "N8Y9Z8",
    "result": []
  },
  {
    "postal": "N8Y3P4",
    "result": [
      {
        "electoralDistricts": [
          {
            "election": null,
            "id": 118,
            "name": "Windsor—Tecumseh"
          }
        ],
        "pollDivisionIds": [
          10142714
        ],
        "postalCode": "N8Y3P4",
        "streetName": "ALBERT",
        "streetDirectionId": null,
        "streetTypeId": "RD",
        "placeName": "WINDSOR",
        "streetNameDisplayText": "ALBERT RD, WINDSOR"
      }
    ]
  },
  {
    "postal": "N8Y6L8",
    "result": []
  },
  {
    "postal": "N8Y2R4",
    "result": [
      {
        "electoralDistricts": [
          {
            "election": null,
            "id": 118,
            "name": "Windsor—Tecumseh"
          }
        ],
        "pollDivisionIds": [
          10142714
        ],
        "postalCode": "N8Y2R4",
        "streetName": "DROUILLARD",
        "streetDirectionId": null,
        "streetTypeId": "RD",
        "placeName": "WINDSOR",
        "streetNameDisplayText": "DROUILLARD RD, WINDSOR"
      }
    ]
  },
  {
    "postal": "N8Y2W1",
    "result": [
      {
        "electoralDistricts": [
          {
            "election": null,
            "id": 118,
            "name": "Windsor—Tecumseh"
          }
        ],
        "pollDivisionIds": [
          10142713
        ],
        "postalCode": "N8Y2W1",
        "streetName": "BELLEVIEW",
        "streetDirectionId": null,
        "streetTypeId": "AVE",
        "placeName": "WINDSOR",
        "streetNameDisplayText": "BELLEVIEW AVE, WINDSOR"
      }
    ]
  },
  {
    "postal": "N8Y9H8",
    "result": []
  },
  {
    "postal": "N8Y8X9",
    "result": []
  },
  {
    "postal": "N8Y7H4",
    "result": []
  },
  {
    "postal": "N8Y3J1",
    "result": [
      {
        "electoralDistricts": [
          {
            "election": null,
            "id": 118,
            "name": "Windsor—Tecumseh"
          }
        ],
        "pollDivisionIds": [
          10142712
        ],
        "postalCode": "N8Y3J1",
        "streetName": "KILDARE",
        "streetDirectionId": null,
        "streetTypeId": "RD",
        "placeName": "WINDSOR",
        "streetNameDisplayText": "KILDARE RD, WINDSOR"
      }
    ]
  },
  {
    "postal": "N8Y1P4",
    "result": []
  },
  {
    "postal": "N8Y2A3",
    "result": [
      {
        "electoralDistricts": [
          {
            "election": null,
            "id": 118,
            "name": "Windsor—Tecumseh"
          }
        ],
        "pollDivisionIds": [
          10142719
        ],
        "postalCode": "N8Y2A3",
        "streetName": "SEMINOLE",
        "streetDirectionId": null,
        "streetTypeId": "ST",
        "placeName": "WINDSOR",
        "streetNameDisplayText": "SEMINOLE ST, WINDSOR"
      }
    ]
  },
  {
    "postal": "N8Y0Z1",
    "result": []
  },
  {
    "postal": "N8Y1C1",
    "result": [
      {
        "electoralDistricts": [
          {
            "election": null,
            "id": 118,
            "name": "Windsor—Tecumseh"
          }
        ],
        "pollDivisionIds": [
          10142710
        ],
        "postalCode": "N8Y1C1",
        "streetName": "ASSUMPTION",
        "streetDirectionId": null,
        "streetTypeId": "ST",
        "placeName": "WINDSOR",
        "streetNameDisplayText": "ASSUMPTION ST, WINDSOR"
      }
    ]
  },
  {
    "postal": "N8Y0H3",
    "result": []
  },
  {
    "postal": "N8Y7B0",
    "result": []
  },
  {
    "postal": "N8Y5K2",
    "result": []
  },
  {
    "postal": "N8Y1E9",
    "result": [
      {
        "electoralDistricts": [
          {
            "election": null,
            "id": 118,
            "name": "Windsor—Tecumseh"
          }
        ],
        "pollDivisionIds": [
          10142713
        ],
        "postalCode": "N8Y1E9",
        "streetName": "WYANDOTTE",
        "streetDirectionId": "E",
        "streetTypeId": "ST",
        "placeName": "WINDSOR",
        "streetNameDisplayText": "WYANDOTTE ST E, WINDSOR"
      }
    ]
  },
  {
    "postal": "N8Y9W7",
    "result": []
  },
  {
    "postal": "N8Y5W6",
    "result": []
  },
  {
    "postal": "N8Y6S6",
    "result": []
  },
  {
    "postal": "N8Y2P8",
    "result": [
      {
        "electoralDistricts": [
          {
            "election": null,
            "id": 118,
            "name": "Windsor—Tecumseh"
          }
        ],
        "pollDivisionIds": [
          10142714
        ],
        "postalCode": "N8Y2P8",
        "streetName": "DROUILLARD",
        "streetDirectionId": null,
        "streetTypeId": "RD",
        "placeName": "WINDSOR",
        "streetNameDisplayText": "DROUILLARD RD, WINDSOR"
      }
    ]
  },
  {
    "postal": "N8Y4P8",
    "result": [
      {
        "electoralDistricts": [
          {
            "election": null,
            "id": 118,
            "name": "Windsor—Tecumseh"
          }
        ],
        "pollDivisionIds": [
          10142716
        ],
        "postalCode": "N8Y4P8",
        "streetName": "CHANDLER",
        "streetDirectionId": null,
        "streetTypeId": "RD",
        "placeName": "WINDSOR",
        "streetNameDisplayText": "CHANDLER RD, WINDSOR"
      }
    ]
  },
  {
    "postal": "N8Y0V9",
    "result": []
  },
  {
    "postal": "N8Y5Y2",
    "result": []
  },
  {
    "postal": "N8Y7Z7",
    "result": []
  },
  {
    "postal": "N8Y6Y8",
    "result": []
  },
  {
    "postal": "N8Y2G7",
    "result": [
      {
        "electoralDistricts": [
          {
            "election": null,
            "id": 118,
            "name": "Windsor—Tecumseh"
          }
        ],
        "pollDivisionIds": [
          10142710
        ],
        "postalCode": "N8Y2G7",
        "streetName": "LINCOLN",
        "streetDirectionId": null,
        "streetTypeId": "RD",
        "placeName": "WINDSOR",
        "streetNameDisplayText": "LINCOLN RD, WINDSOR"
      }
    ]
  },
  {
    "postal": "N8Y8C1",
    "result": []
  },
  {
    "postal": "N8Y5C5",
    "result": []
  },
  {
    "postal": "N8Y2X8",
    "result": [
      {
        "electoralDistricts": [
          {
            "election": null,
            "id": 118,
            "name": "Windsor—Tecumseh"
          }
        ],
        "pollDivisionIds": [
          10142716
        ],
        "postalCode": "N8Y2X8",
        "streetName": "GEORGE",
        "streetDirectionId": null,
        "streetTypeId": "AVE",
        "placeName": "WINDSOR",
        "streetNameDisplayText": "GEORGE AVE, WINDSOR"
      }
    ]
  },
  {
    "postal": "N8Y1W5",
    "result": []
  },
  {
    "postal": "N8Y7G0",
    "result": []
  },
  {
    "postal": "N8Y8J8",
    "result": []
  },
  {
    "postal": "N8Y3Y0",
    "result": []
  },
  {
    "postal": "N8Y9T7",
    "result": []
  },
  {
    "postal": "N8Y5P4",
    "result": []
  },
  {
    "postal": "N8Y4B0",
    "result": []
  },
  {
    "postal": "N8Y9N8",
    "result": []
  },
  {
    "postal": "N8Y4A7",
    "result": [
      {
        "electoralDistricts": [
          {
            "election": null,
            "id": 118,
            "name": "Windsor—Tecumseh"
          }
        ],
        "pollDivisionIds": [
          10142718
        ],
        "postalCode": "N8Y4A7",
        "streetName": "RAYMO",
        "streetDirectionId": null,
        "streetTypeId": "RD",
        "placeName": "WINDSOR",
        "streetNameDisplayText": "RAYMO RD, WINDSOR"
      }
    ]
  },
  {
    "postal": "N8Y4H9",
    "result": [
      {
        "electoralDistricts": [
          {
            "election": null,
            "id": 118,
            "name": "Windsor—Tecumseh"
          }
        ],
        "pollDivisionIds": [
          10142716
        ],
        "postalCode": "N8Y4H9",
        "streetName": "TOURANGEAU",
        "streetDirectionId": null,
        "streetTypeId": "RD",
        "placeName": "WINDSOR",
        "streetNameDisplayText": "TOURANGEAU RD, WINDSOR"
      }
    ]
  },
  {
    "postal": "N8Y6X1",
    "result": []
  },
  {
    "postal": "N8Y9Y7",
    "result": []
  },
  {
    "postal": "N8Y2Y5",
    "result": [
      {
        "electoralDistricts": [
          {
            "election": null,
            "id": 118,
            "name": "Windsor—Tecumseh"
          }
        ],
        "pollDivisionIds": [
          10142716
        ],
        "postalCode": "N8Y2Y5",
        "streetName": "GEORGE",
        "streetDirectionId": null,
        "streetTypeId": "AVE",
        "placeName": "WINDSOR",
        "streetNameDisplayText": "GEORGE AVE, WINDSOR"
      }
    ]
  },
  {
    "postal": "N8Y8L7",
    "result": []
  },
  {
    "postal": "N8Y2A8",
    "result": [
      {
        "electoralDistricts": [
          {
            "election": null,
            "id": 118,
            "name": "Windsor—Tecumseh"
          }
        ],
        "pollDivisionIds": [
          10142716
        ],
        "postalCode": "N8Y2A8",
        "streetName": "REGINALD",
        "streetDirectionId": null,
        "streetTypeId": "ST",
        "placeName": "WINDSOR",
        "streetNameDisplayText": "REGINALD ST, WINDSOR"
      }
    ]
  },
  {
    "postal": "N8Y2K9",
    "result": [
      {
        "electoralDistricts": [
          {
            "election": null,
            "id": 118,
            "name": "Windsor—Tecumseh"
          }
        ],
        "pollDivisionIds": [
          10142711
        ],
        "postalCode": "N8Y2K9",
        "streetName": "CHILVER",
        "streetDirectionId": null,
        "streetTypeId": "RD",
        "placeName": "WINDSOR",
        "streetNameDisplayText": "CHILVER RD, WINDSOR"
      }
    ]
  },
  {
    "postal": "N8Y3E5",
    "result": [
      {
        "electoralDistricts": [
          {
            "election": null,
            "id": 118,
            "name": "Windsor—Tecumseh"
          }
        ],
        "pollDivisionIds": [
          10142711
        ],
        "postalCode": "N8Y3E5",
        "streetName": "WINDERMERE",
        "streetDirectionId": null,
        "streetTypeId": "RD",
        "placeName": "WINDSOR",
        "streetNameDisplayText": "WINDERMERE RD, WINDSOR"
      }
    ]
  },
  {
    "postal": "N8Y8N6",
    "result": []
  },
  {
    "postal": "N8Y8J4",
    "result": []
  },
  {
    "postal": "N8Y4R7",
    "result": []
  },
  {
    "postal": "N8Y9K1",
    "result": []
  },
  {
    "postal": "N8Y8E1",
    "result": []
  },
  {
    "postal": "N8Y0R1",
    "result": []
  },
  {
    "postal": "N8Y4J3",
    "result": [
      {
        "electoralDistricts": [
          {
            "election": null,
            "id": 118,
            "name": "Windsor—Tecumseh"
          }
        ],
        "pollDivisionIds": [
          10142717
        ],
        "postalCode": "N8Y4J3",
        "streetName": "TOURANGEAU",
        "streetDirectionId": null,
        "streetTypeId": "RD",
        "placeName": "WINDSOR",
        "streetNameDisplayText": "TOURANGEAU RD, WINDSOR"
      }
    ]
  },
  {
    "postal": "N8Y7E7",
    "result": []
  },
  {
    "postal": "N8Y0J0",
    "result": []
  },
  {
    "postal": "N8Y7R8",
    "result": []
  },
  {
    "postal": "N8Y9X0",
    "result": []
  },
  {
    "postal": "N8Y7P6",
    "result": []
  },
  {
    "postal": "N8Y0R7",
    "result": []
  },
  {
    "postal": "N8Y5W1",
    "result": []
  },
  {
    "postal": "N8Y0K4",
    "result": []
  },
  {
    "postal": "N8Y7N9",
    "result": []
  },
  {
    "postal": "N8Y1N0",
    "result": []
  },
  {
    "postal": "N8Y6P3",
    "result": []
  },
  {
    "postal": "N8Y5A1",
    "result": []
  },
  {
    "postal": "N8Y9M9",
    "result": []
  },
  {
    "postal": "N8Y7T6",
    "result": []
  },
  {
    "postal": "N8Y3X0",
    "result": []
  },
  {
    "postal": "N8Y2T0",
    "result": []
  },
  {
    "postal": "N8Y5X9",
    "result": []
  },
  {
    "postal": "N8Y2R3",
    "result": [
      {
        "electoralDistricts": [
          {
            "election": null,
            "id": 118,
            "name": "Windsor—Tecumseh"
          }
        ],
        "pollDivisionIds": [
          10142714
        ],
        "postalCode": "N8Y2R3",
        "streetName": "DROUILLARD",
        "streetDirectionId": null,
        "streetTypeId": "RD",
        "placeName": "WINDSOR",
        "streetNameDisplayText": "DROUILLARD RD, WINDSOR"
      }
    ]
  },
  {
    "postal": "N8Y5N2",
    "result": []
  },
  {
    "postal": "N8Y4Y7",
    "result": []
  },
  {
    "postal": "N8Y7M0",
    "result": []
  },
  {
    "postal": "N8Y8P3",
    "result": []
  },
  {
    "postal": "N8Y3N3",
    "result": [
      {
        "electoralDistricts": [
          {
            "election": null,
            "id": 118,
            "name": "Windsor—Tecumseh"
          }
        ],
        "pollDivisionIds": [
          10142716
        ],
        "postalCode": "N8Y3N3",
        "streetName": "ST LUKE",
        "streetDirectionId": null,
        "streetTypeId": "RD",
        "placeName": "WINDSOR",
        "streetNameDisplayText": "ST LUKE RD, WINDSOR"
      }
    ]
  },
  {
    "postal": "N8Y7S3",
    "result": []
  },
  {
    "postal": "N8Y3V9",
    "result": [
      {
        "electoralDistricts": [
          {
            "election": null,
            "id": 118,
            "name": "Windsor—Tecumseh"
          }
        ],
        "pollDivisionIds": [
          10142716
        ],
        "postalCode": "N8Y3V9",
        "streetName": "CENTRAL",
        "streetDirectionId": null,
        "streetTypeId": "AVE",
        "placeName": "WINDSOR",
        "streetNameDisplayText": "CENTRAL AVE, WINDSOR"
      }
    ]
  },
  {
    "postal": "N8Y9N7",
    "result": []
  },
  {
    "postal": "N8Y0G4",
    "result": []
  },
  {
    "postal": "N8Y2E2",
    "result": [
      {
        "electoralDistricts": [
          {
            "election": null,
            "id": 118,
            "name": "Windsor—Tecumseh"
          }
        ],
        "pollDivisionIds": [
          10142716
        ],
        "postalCode": "N8Y2E2",
        "streetName": "FRANKLIN",
        "streetDirectionId": null,
        "streetTypeId": "ST",
        "placeName": "WINDSOR",
        "streetNameDisplayText": "FRANKLIN ST, WINDSOR"
      }
    ]
  },
  {
    "postal": "N8Y7W8",
    "result": []
  },
  {
    "postal": "N8Y7M5",
    "result": []
  },
  {
    "postal": "N8Y5W8",
    "result": []
  },
  {
    "postal": "N8Y5E5",
    "result": []
  },
  {
    "postal": "N8Y1P9",
    "result": [
      {
        "electoralDistricts": [
          {
            "election": null,
            "id": 118,
            "name": "Windsor—Tecumseh"
          }
        ],
        "pollDivisionIds": [
          10142711
        ],
        "postalCode": "N8Y1P9",
        "streetName": "DEVONSHIRE",
        "streetDirectionId": null,
        "streetTypeId": "CRT",
        "placeName": "WINDSOR",
        "streetNameDisplayText": "DEVONSHIRE CRT, WINDSOR"
      }
    ]
  },
  {
    "postal": "N8Y8V8",
    "result": []
  },
  {
    "postal": "N8Y9G8",
    "result": []
  },
  {
    "postal": "N8Y8H9",
    "result": []
  },
  {
    "postal": "N8Y1Z1",
    "result": [
      {
        "electoralDistricts": [
          {
            "election": null,
            "id": 118,
            "name": "Windsor—Tecumseh"
          }
        ],
        "pollDivisionIds": [
          10142716
        ],
        "postalCode": "N8Y1Z1",
        "streetName": "SEMINOLE",
        "streetDirectionId": null,
        "streetTypeId": "ST",
        "placeName": "WINDSOR",
        "streetNameDisplayText": "SEMINOLE ST, WINDSOR"
      }
    ]
  },
  {
    "postal": "N8Y8M3",
    "result": []
  },
  {
    "postal": "N8Y5H6",
    "result": []
  },
  {
    "postal": "N8Y7W7",
    "result": []
  },
  {
    "postal": "N8Y4L0",
    "result": []
  },
  {
    "postal": "N8Y2N1",
    "result": [
      {
        "electoralDistricts": [
          {
            "election": null,
            "id": 118,
            "name": "Windsor—Tecumseh"
          }
        ],
        "pollDivisionIds": [
          10142714
        ],
        "postalCode": "N8Y2N1",
        "streetName": "WALKER",
        "streetDirectionId": null,
        "streetTypeId": "RD",
        "placeName": "WINDSOR",
        "streetNameDisplayText": "WALKER RD, WINDSOR"
      }
    ]
  },
  {
    "postal": "N8Y2H4",
    "result": [
      {
        "electoralDistricts": [
          {
            "election": null,
            "id": 118,
            "name": "Windsor—Tecumseh"
          }
        ],
        "pollDivisionIds": [
          10142711
        ],
        "postalCode": "N8Y2H4",
        "streetName": "LINCOLN",
        "streetDirectionId": null,
        "streetTypeId": "RD",
        "placeName": "WINDSOR",
        "streetNameDisplayText": "LINCOLN RD, WINDSOR"
      }
    ]
  },
  {
    "postal": "N8Y5C8",
    "result": []
  },
  {
    "postal": "N8Y8B0",
    "result": []
  },
  {
    "postal": "N8Y1T4",
    "result": [
      {
        "electoralDistricts": [
          {
            "election": null,
            "id": 118,
            "name": "Windsor—Tecumseh"
          }
        ],
        "pollDivisionIds": [
          10142712
        ],
        "postalCode": "N8Y1T4",
        "streetName": "SHEPHERD",
        "streetDirectionId": "E",
        "streetTypeId": "ST",
        "placeName": "WINDSOR",
        "streetNameDisplayText": "SHEPHERD ST E, WINDSOR"
      }
    ]
  },
  {
    "postal": "N8Y7N7",
    "result": []
  },
  {
    "postal": "N8Y4L3",
    "result": [
      {
        "electoralDistricts": [
          {
            "election": null,
            "id": 118,
            "name": "Windsor—Tecumseh"
          }
        ],
        "pollDivisionIds": [
          10142717
        ],
        "postalCode": "N8Y4L3",
        "streetName": "FRANCOIS",
        "streetDirectionId": null,
        "streetTypeId": "RD",
        "placeName": "WINDSOR",
        "streetNameDisplayText": "FRANCOIS RD, WINDSOR"
      }
    ]
  },
  {
    "postal": "N8Y2N2",
    "result": [
      {
        "electoralDistricts": [
          {
            "election": null,
            "id": 118,
            "name": "Windsor—Tecumseh"
          }
        ],
        "pollDivisionIds": [
          10142711
        ],
        "postalCode": "N8Y2N2",
        "streetName": "WALKER",
        "streetDirectionId": null,
        "streetTypeId": "RD",
        "placeName": "WINDSOR",
        "streetNameDisplayText": "WALKER RD, WINDSOR"
      }
    ]
  },
  {
    "postal": "N8Y4N8",
    "result": [
      {
        "electoralDistricts": [
          {
            "election": null,
            "id": 118,
            "name": "Windsor—Tecumseh"
          }
        ],
        "pollDivisionIds": [
          10142717
        ],
        "postalCode": "N8Y4N8",
        "streetName": "NORMAN",
        "streetDirectionId": null,
        "streetTypeId": "RD",
        "placeName": "WINDSOR",
        "streetNameDisplayText": "NORMAN RD, WINDSOR"
      }
    ]
  },
  {
    "postal": "N8Y3M5",
    "result": [
      {
        "electoralDistricts": [
          {
            "election": null,
            "id": 118,
            "name": "Windsor—Tecumseh"
          }
        ],
        "pollDivisionIds": [
          10142714
        ],
        "postalCode": "N8Y3M5",
        "streetName": "ST LUKE",
        "streetDirectionId": null,
        "streetTypeId": "RD",
        "placeName": "WINDSOR",
        "streetNameDisplayText": "ST LUKE RD, WINDSOR"
      }
    ]
  },
  {
    "postal": "N8Y6H7",
    "result": []
  },
  {
    "postal": "N8Y8Y8",
    "result": []
  },
  {
    "postal": "N8Y5R9",
    "result": []
  },
  {
    "postal": "N8Y8G3",
    "result": []
  },
  {
    "postal": "N8Y4N7",
    "result": [
      {
        "electoralDistricts": [
          {
            "election": null,
            "id": 118,
            "name": "Windsor—Tecumseh"
          }
        ],
        "pollDivisionIds": [
          10142717
        ],
        "postalCode": "N8Y4N7",
        "streetName": "NORMAN",
        "streetDirectionId": null,
        "streetTypeId": "RD",
        "placeName": "WINDSOR",
        "streetNameDisplayText": "NORMAN RD, WINDSOR"
      }
    ]
  },
  {
    "postal": "N8Y0B9",
    "result": []
  },
  {
    "postal": "N8Y9K7",
    "result": []
  },
  {
    "postal": "N8Y9K9",
    "result": []
  },
  {
    "postal": "N8Y3Z2",
    "result": [
      {
        "electoralDistricts": [
          {
            "election": null,
            "id": 118,
            "name": "Windsor—Tecumseh"
          }
        ],
        "pollDivisionIds": [
          10142717
        ],
        "postalCode": "N8Y3Z2",
        "streetName": "ARTHUR",
        "streetDirectionId": null,
        "streetTypeId": "RD",
        "placeName": "WINDSOR",
        "streetNameDisplayText": "ARTHUR RD, WINDSOR"
      }
    ]
  },
  {
    "postal": "N8Y6W7",
    "result": []
  },
  {
    "postal": "N8Y0P1",
    "result": []
  },
  {
    "postal": "N8Y3A0",
    "result": []
  },
  {
    "postal": "N8Y8L9",
    "result": []
  },
  {
    "postal": "N8Y6X0",
    "result": []
  },
  {
    "postal": "N8Y3E9",
    "result": [
      {
        "electoralDistricts": [
          {
            "election": null,
            "id": 118,
            "name": "Windsor—Tecumseh"
          }
        ],
        "pollDivisionIds": [
          10142711
        ],
        "postalCode": "N8Y3E9",
        "streetName": "WINDERMERE",
        "streetDirectionId": null,
        "streetTypeId": "RD",
        "placeName": "WINDSOR",
        "streetNameDisplayText": "WINDERMERE RD, WINDSOR"
      }
    ]
  },
  {
    "postal": "N8Y0S5",
    "result": []
  },
  {
    "postal": "N8Y1A2",
    "result": []
  },
  {
    "postal": "N8Y5V8",
    "result": []
  },
  {
    "postal": "N8Y8C5",
    "result": []
  },
  {
    "postal": "N8Y6N0",
    "result": []
  },
  {
    "postal": "N8Y9E6",
    "result": []
  },
  {
    "postal": "N8Y5J7",
    "result": []
  },
  {
    "postal": "N8Y2R2",
    "result": [
      {
        "electoralDistricts": [
          {
            "election": null,
            "id": 118,
            "name": "Windsor—Tecumseh"
          }
        ],
        "pollDivisionIds": [
          10142714
        ],
        "postalCode": "N8Y2R2",
        "streetName": "DROUILLARD",
        "streetDirectionId": null,
        "streetTypeId": "RD",
        "placeName": "WINDSOR",
        "streetNameDisplayText": "DROUILLARD RD, WINDSOR"
      }
    ]
  },
  {
    "postal": "N8Y0P5",
    "result": []
  },
  {
    "postal": "N8Y5A7",
    "result": []
  },
  {
    "postal": "N8Y1G1",
    "result": [
      {
        "electoralDistricts": [
          {
            "election": null,
            "id": 118,
            "name": "Windsor—Tecumseh"
          }
        ],
        "pollDivisionIds": [
          10142713
        ],
        "postalCode": "N8Y1G1",
        "streetName": "WYANDOTTE",
        "streetDirectionId": "E",
        "streetTypeId": "ST",
        "placeName": "WINDSOR",
        "streetNameDisplayText": "WYANDOTTE ST E, WINDSOR"
      }
    ]
  },
  {
    "postal": "N8Y9R6",
    "result": []
  },
  {
    "postal": "N8Y4Z9",
    "result": []
  },
  {
    "postal": "N8Y1V5",
    "result": []
  },
  {
    "postal": "N8Y9Y5",
    "result": []
  },
  {
    "postal": "N8Y1P2",
    "result": [
      {
        "electoralDistricts": [
          {
            "election": null,
            "id": 118,
            "name": "Windsor—Tecumseh"
          }
        ],
        "pollDivisionIds": [
          10142716
        ],
        "postalCode": "N8Y1P2",
        "streetName": "ONTARIO",
        "streetDirectionId": null,
        "streetTypeId": "ST",
        "placeName": "WINDSOR",
        "streetNameDisplayText": "ONTARIO ST, WINDSOR"
      }
    ]
  },
  {
    "postal": "N8Y5X0",
    "result": []
  },
  {
    "postal": "N8Y7B8",
    "result": []
  },
  {
    "postal": "N8Y0C6",
    "result": []
  },
  {
    "postal": "N8Y6G1",
    "result": []
  },
  {
    "postal": "N8Y3K3",
    "result": [
      {
        "electoralDistricts": [
          {
            "election": null,
            "id": 118,
            "name": "Windsor—Tecumseh"
          }
        ],
        "pollDivisionIds": [
          10142711
        ],
        "postalCode": "N8Y3K3",
        "streetName": "ARGYLE",
        "streetDirectionId": null,
        "streetTypeId": "RD",
        "placeName": "WINDSOR",
        "streetNameDisplayText": "ARGYLE RD, WINDSOR"
      }
    ]
  },
  {
    "postal": "N8Y9R0",
    "result": []
  },
  {
    "postal": "N8Y4R8",
    "result": []
  },
  {
    "postal": "N8Y5P9",
    "result": []
  },
  {
    "postal": "N8Y8N4",
    "result": []
  },
  {
    "postal": "N8Y8H4",
    "result": []
  },
  {
    "postal": "N8Y4V1",
    "result": [
      {
        "electoralDistricts": [
          {
            "election": null,
            "id": 118,
            "name": "Windsor—Tecumseh"
          }
        ],
        "pollDivisionIds": [
          10142713
        ],
        "postalCode": "N8Y4V1",
        "streetName": "WYANDOTTE",
        "streetDirectionId": "E",
        "streetTypeId": "ST",
        "placeName": "WINDSOR",
        "streetNameDisplayText": "WYANDOTTE ST E, WINDSOR"
      },
      {
        "electoralDistricts": [
          {
            "election": null,
            "id": 118,
            "name": "Windsor—Tecumseh"
          }
        ],
        "pollDivisionIds": [
          10142713
        ],
        "postalCode": "N8Y4V1",
        "streetName": "WYANDOTTE ST.",
        "streetDirectionId": "E",
        "streetTypeId": "ST",
        "placeName": "WINDSOR",
        "streetNameDisplayText": "WYANDOTTE ST. ST E, WINDSOR"
      }
    ]
  },
  {
    "postal": "N8Y1K5",
    "result": [
      {
        "electoralDistricts": [
          {
            "election": null,
            "id": 118,
            "name": "Windsor—Tecumseh"
          }
        ],
        "pollDivisionIds": [
          10142711
        ],
        "postalCode": "N8Y1K5",
        "streetName": "WILLISTEAD",
        "streetDirectionId": null,
        "streetTypeId": "CRES",
        "placeName": "WINDSOR",
        "streetNameDisplayText": "WILLISTEAD CRES, WINDSOR"
      }
    ]
  },
  {
    "postal": "N8Y1Z5",
    "result": [
      {
        "electoralDistricts": [
          {
            "election": null,
            "id": 118,
            "name": "Windsor—Tecumseh"
          }
        ],
        "pollDivisionIds": [
          10142717
        ],
        "postalCode": "N8Y1Z5",
        "streetName": "SEMINOLE",
        "streetDirectionId": null,
        "streetTypeId": "ST",
        "placeName": "WINDSOR",
        "streetNameDisplayText": "SEMINOLE ST, WINDSOR"
      }
    ]
  },
  {
    "postal": "N8Y9L9",
    "result": []
  },
  {
    "postal": "N8Y5L2",
    "result": []
  },
  {
    "postal": "N8Y0M2",
    "result": []
  },
  {
    "postal": "N8Y1K8",
    "result": [
      {
        "electoralDistricts": [
          {
            "election": null,
            "id": 118,
            "name": "Windsor—Tecumseh"
          }
        ],
        "pollDivisionIds": [
          10142711
        ],
        "postalCode": "N8Y1K8",
        "streetName": "RICHMOND",
        "streetDirectionId": null,
        "streetTypeId": "ST",
        "placeName": "WINDSOR",
        "streetNameDisplayText": "RICHMOND ST, WINDSOR"
      }
    ]
  },
  {
    "postal": "N8Y3M7",
    "result": [
      {
        "electoralDistricts": [
          {
            "election": null,
            "id": 118,
            "name": "Windsor—Tecumseh"
          }
        ],
        "pollDivisionIds": [
          10142714
        ],
        "postalCode": "N8Y3M7",
        "streetName": "ST LUKE",
        "streetDirectionId": null,
        "streetTypeId": "RD",
        "placeName": "WINDSOR",
        "streetNameDisplayText": "ST LUKE RD, WINDSOR"
      }
    ]
  },
  {
    "postal": "N8Y1B2",
    "result": [
      {
        "electoralDistricts": [
          {
            "election": null,
            "id": 118,
            "name": "Windsor—Tecumseh"
          }
        ],
        "pollDivisionIds": [
          10142713,
          10142749
        ],
        "postalCode": "N8Y1B2",
        "streetName": "RIVERSIDE",
        "streetDirectionId": "E",
        "streetTypeId": "DR",
        "placeName": "WINDSOR",
        "streetNameDisplayText": "RIVERSIDE DR E, WINDSOR"
      }
    ]
  },
  {
    "postal": "N8Y0H9",
    "result": []
  },
  {
    "postal": "N8Y8M4",
    "result": []
  },
  {
    "postal": "N8Y2M5",
    "result": [
      {
        "electoralDistricts": [
          {
            "election": null,
            "id": 118,
            "name": "Windsor—Tecumseh"
          }
        ],
        "pollDivisionIds": [
          10142711
        ],
        "postalCode": "N8Y2M5",
        "streetName": "DEVONSHIRE",
        "streetDirectionId": null,
        "streetTypeId": "RD",
        "placeName": "WINDSOR",
        "streetNameDisplayText": "DEVONSHIRE RD, WINDSOR"
      }
    ]
  },
  {
    "postal": "N8Y0T9",
    "result": []
  },
  {
    "postal": "N8Y3P1",
    "result": [
      {
        "electoralDistricts": [
          {
            "election": null,
            "id": 118,
            "name": "Windsor—Tecumseh"
          }
        ],
        "pollDivisionIds": [
          10142714
        ],
        "postalCode": "N8Y3P1",
        "streetName": "ALBERT",
        "streetDirectionId": null,
        "streetTypeId": "RD",
        "placeName": "WINDSOR",
        "streetNameDisplayText": "ALBERT RD, WINDSOR"
      }
    ]
  },
  {
    "postal": "N8Y1R6",
    "result": [
      {
        "electoralDistricts": [
          {
            "election": null,
            "id": 118,
            "name": "Windsor—Tecumseh"
          }
        ],
        "pollDivisionIds": [
          10142712
        ],
        "postalCode": "N8Y1R6",
        "streetName": "OTTAWA",
        "streetDirectionId": null,
        "streetTypeId": "ST",
        "placeName": "WINDSOR",
        "streetNameDisplayText": "OTTAWA ST, WINDSOR"
      }
    ]
  },
  {
    "postal": "N8Y9V5",
    "result": []
  },
  {
    "postal": "N8Y9T0",
    "result": []
  },
  {
    "postal": "N8Y0A9",
    "result": []
  },
  {
    "postal": "N8Y1M3",
    "result": []
  },
  {
    "postal": "N8Y1W8",
    "result": [
      {
        "electoralDistricts": [
          {
            "election": null,
            "id": 118,
            "name": "Windsor—Tecumseh"
          }
        ],
        "pollDivisionIds": [
          10142714
        ],
        "postalCode": "N8Y1W8",
        "streetName": "METCALFE",
        "streetDirectionId": null,
        "streetTypeId": "ST",
        "placeName": "WINDSOR",
        "streetNameDisplayText": "METCALFE ST, WINDSOR"
      }
    ]
  },
  {
    "postal": "N8Y9J1",
    "result": []
  },
  {
    "postal": "N8Y8N5",
    "result": []
  },
  {
    "postal": "N8Y5X1",
    "result": []
  },
  {
    "postal": "N8Y6S2",
    "result": []
  },
  {
    "postal": "N8Y2A2",
    "result": [
      {
        "electoralDistricts": [
          {
            "election": null,
            "id": 118,
            "name": "Windsor—Tecumseh"
          }
        ],
        "pollDivisionIds": [
          10142717
        ],
        "postalCode": "N8Y2A2",
        "streetName": "SEMINOLE",
        "streetDirectionId": null,
        "streetTypeId": "ST",
        "placeName": "WINDSOR",
        "streetNameDisplayText": "SEMINOLE ST, WINDSOR"
      }
    ]
  },
  {
    "postal": "N8Y6A6",
    "result": []
  },
  {
    "postal": "N8Y0S3",
    "result": []
  },
  {
    "postal": "N8Y3E7",
    "result": [
      {
        "electoralDistricts": [
          {
            "election": null,
            "id": 118,
            "name": "Windsor—Tecumseh"
          }
        ],
        "pollDivisionIds": [
          10142711
        ],
        "postalCode": "N8Y3E7",
        "streetName": "WINDERMERE",
        "streetDirectionId": null,
        "streetTypeId": "RD",
        "placeName": "WINDSOR",
        "streetNameDisplayText": "WINDERMERE RD, WINDSOR"
      }
    ]
  },
  {
    "postal": "N8Y5R7",
    "result": []
  },
  {
    "postal": "N8Y3R6",
    "result": [
      {
        "electoralDistricts": [
          {
            "election": null,
            "id": 118,
            "name": "Windsor—Tecumseh"
          }
        ],
        "pollDivisionIds": [
          10142715
        ],
        "postalCode": "N8Y3R6",
        "streetName": "ALBERT",
        "streetDirectionId": null,
        "streetTypeId": "RD",
        "placeName": "WINDSOR",
        "streetNameDisplayText": "ALBERT RD, WINDSOR"
      }
    ]
  },
  {
    "postal": "N8Y6K4",
    "result": []
  },
  {
    "postal": "N8Y2W5",
    "result": [
      {
        "electoralDistricts": [
          {
            "election": null,
            "id": 118,
            "name": "Windsor—Tecumseh"
          }
        ],
        "pollDivisionIds": [
          10142713
        ],
        "postalCode": "N8Y2W5",
        "streetName": "PRATT",
        "streetDirectionId": null,
        "streetTypeId": "PL",
        "placeName": "WINDSOR",
        "streetNameDisplayText": "PRATT PL, WINDSOR"
      }
    ]
  },
  {
    "postal": "N8Y8W4",
    "result": []
  },
  {
    "postal": "N8Y9C2",
    "result": []
  },
  {
    "postal": "N8Y2C0",
    "result": []
  },
  {
    "postal": "N8Y0E1",
    "result": []
  },
  {
    "postal": "N8Y1K9",
    "result": [
      {
        "electoralDistricts": [
          {
            "election": null,
            "id": 118,
            "name": "Windsor—Tecumseh"
          }
        ],
        "pollDivisionIds": [
          10142711
        ],
        "postalCode": "N8Y1K9",
        "streetName": "RICHMOND",
        "streetDirectionId": null,
        "streetTypeId": "ST",
        "placeName": "WINDSOR",
        "streetNameDisplayText": "RICHMOND ST, WINDSOR"
      }
    ]
  },
  {
    "postal": "N8Y1G7",
    "result": [
      {
        "electoralDistricts": [
          {
            "election": null,
            "id": 118,
            "name": "Windsor—Tecumseh"
          }
        ],
        "pollDivisionIds": [
          10142713
        ],
        "postalCode": "N8Y1G7",
        "streetName": "WYANDOTTE",
        "streetDirectionId": "E",
        "streetTypeId": "ST",
        "placeName": "WINDSOR",
        "streetNameDisplayText": "WYANDOTTE ST E, WINDSOR"
      }
    ]
  },
  {
    "postal": "N8Y4E9",
    "result": [
      {
        "electoralDistricts": [
          {
            "election": null,
            "id": 118,
            "name": "Windsor—Tecumseh"
          }
        ],
        "pollDivisionIds": [
          10142717
        ],
        "postalCode": "N8Y4E9",
        "streetName": "AUBIN",
        "streetDirectionId": null,
        "streetTypeId": "RD",
        "placeName": "WINDSOR",
        "streetNameDisplayText": "AUBIN RD, WINDSOR"
      }
    ]
  },
  {
    "postal": "N8Y9P0",
    "result": []
  },
  {
    "postal": "N8Y5H3",
    "result": []
  },
  {
    "postal": "N8Y9X6",
    "result": []
  },
  {
    "postal": "N8Y5N7",
    "result": []
  },
  {
    "postal": "N8Y5A6",
    "result": [
      {
        "electoralDistricts": [
          {
            "election": null,
            "id": 118,
            "name": "Windsor—Tecumseh"
          }
        ],
        "pollDivisionIds": [
          10142751
        ],
        "postalCode": "N8Y5A6",
        "streetName": "RIVERSIDE",
        "streetDirectionId": "E",
        "streetTypeId": "DR",
        "placeName": "WINDSOR",
        "streetNameDisplayText": "RIVERSIDE DR E, WINDSOR"
      }
    ]
  },
  {
    "postal": "N8Y4M0",
    "result": []
  },
  {
    "postal": "N8Y3V6",
    "result": [
      {
        "electoralDistricts": [
          {
            "election": null,
            "id": 118,
            "name": "Windsor—Tecumseh"
          }
        ],
        "pollDivisionIds": [
          10142716
        ],
        "postalCode": "N8Y3V6",
        "streetName": "CENTRAL",
        "streetDirectionId": null,
        "streetTypeId": "AVE",
        "placeName": "WINDSOR",
        "streetNameDisplayText": "CENTRAL AVE, WINDSOR"
      }
    ]
  },
  {
    "postal": "N8Y1L7",
    "result": []
  },
  {
    "postal": "N8Y2P9",
    "result": [
      {
        "electoralDistricts": [
          {
            "election": null,
            "id": 118,
            "name": "Windsor—Tecumseh"
          }
        ],
        "pollDivisionIds": [
          10142714
        ],
        "postalCode": "N8Y2P9",
        "streetName": "DROUILLARD",
        "streetDirectionId": null,
        "streetTypeId": "RD",
        "placeName": "WINDSOR",
        "streetNameDisplayText": "DROUILLARD RD, WINDSOR"
      }
    ]
  },
  {
    "postal": "N8Y5T4",
    "result": []
  },
  {
    "postal": "N8Y5Z1",
    "result": []
  },
  {
    "postal": "N8Y2X0",
    "result": []
  },
  {
    "postal": "N8Y6Z2",
    "result": []
  },
  {
    "postal": "N8Y0E0",
    "result": []
  },
  {
    "postal": "N8Y3Z5",
    "result": [
      {
        "electoralDistricts": [
          {
            "election": null,
            "id": 118,
            "name": "Windsor—Tecumseh"
          }
        ],
        "pollDivisionIds": [
          10142717
        ],
        "postalCode": "N8Y3Z5",
        "streetName": "ARTHUR",
        "streetDirectionId": null,
        "streetTypeId": "RD",
        "placeName": "WINDSOR",
        "streetNameDisplayText": "ARTHUR RD, WINDSOR"
      }
    ]
  },
  {
    "postal": "N8Y8H3",
    "result": []
  },
  {
    "postal": "N8Y7S6",
    "result": []
  },
  {
    "postal": "N8Y4C1",
    "result": [
      {
        "electoralDistricts": [
          {
            "election": null,
            "id": 118,
            "name": "Windsor—Tecumseh"
          }
        ],
        "pollDivisionIds": [
          10142716
        ],
        "postalCode": "N8Y4C1",
        "streetName": "WESTCOTT",
        "streetDirectionId": null,
        "streetTypeId": "RD",
        "placeName": "WINDSOR",
        "streetNameDisplayText": "WESTCOTT RD, WINDSOR"
      }
    ]
  },
  {
    "postal": "N8Y3K2",
    "result": [
      {
        "electoralDistricts": [
          {
            "election": null,
            "id": 118,
            "name": "Windsor—Tecumseh"
          }
        ],
        "pollDivisionIds": [
          10142711
        ],
        "postalCode": "N8Y3K2",
        "streetName": "ARGYLE",
        "streetDirectionId": null,
        "streetTypeId": "RD",
        "placeName": "WINDSOR",
        "streetNameDisplayText": "ARGYLE RD, WINDSOR"
      }
    ]
  },
  {
    "postal": "N8Y1Y5",
    "result": [
      {
        "electoralDistricts": [
          {
            "election": null,
            "id": 118,
            "name": "Windsor—Tecumseh"
          }
        ],
        "pollDivisionIds": [
          10142716
        ],
        "postalCode": "N8Y1Y5",
        "streetName": "SEMINOLE",
        "streetDirectionId": null,
        "streetTypeId": "ST",
        "placeName": "WINDSOR",
        "streetNameDisplayText": "SEMINOLE ST, WINDSOR"
      }
    ]
  },
  {
    "postal": "N8Y6P6",
    "result": []
  },
  {
    "postal": "N8Y3N9",
    "result": [
      {
        "electoralDistricts": [
          {
            "election": null,
            "id": 118,
            "name": "Windsor—Tecumseh"
          }
        ],
        "pollDivisionIds": [
          10142714
        ],
        "postalCode": "N8Y3N9",
        "streetName": "ALBERT",
        "streetDirectionId": null,
        "streetTypeId": "RD",
        "placeName": "WINDSOR",
        "streetNameDisplayText": "ALBERT RD, WINDSOR"
      }
    ]
  },
  {
    "postal": "N8Y3W2",
    "result": [
      {
        "electoralDistricts": [
          {
            "election": null,
            "id": 118,
            "name": "Windsor—Tecumseh"
          }
        ],
        "pollDivisionIds": [
          10142716
        ],
        "postalCode": "N8Y3W2",
        "streetName": "CENTRAL",
        "streetDirectionId": null,
        "streetTypeId": "AVE",
        "placeName": "WINDSOR",
        "streetNameDisplayText": "CENTRAL AVE, WINDSOR"
      }
    ]
  },
  {
    "postal": "N8Y6H8",
    "result": []
  },
  {
    "postal": "N8Y9T3",
    "result": []
  },
  {
    "postal": "N8Y5L9",
    "result": []
  },
  {
    "postal": "N8Y7X7",
    "result": []
  },
  {
    "postal": "N8Y3J5",
    "result": [
      {
        "electoralDistricts": [
          {
            "election": null,
            "id": 118,
            "name": "Windsor—Tecumseh"
          }
        ],
        "pollDivisionIds": [
          10142711
        ],
        "postalCode": "N8Y3J5",
        "streetName": "ARGYLE",
        "streetDirectionId": null,
        "streetTypeId": "RD",
        "placeName": "WINDSOR",
        "streetNameDisplayText": "ARGYLE RD, WINDSOR"
      }
    ]
  },
  {
    "postal": "N8Y4J5",
    "result": [
      {
        "electoralDistricts": [
          {
            "election": null,
            "id": 118,
            "name": "Windsor—Tecumseh"
          }
        ],
        "pollDivisionIds": [
          10142717
        ],
        "postalCode": "N8Y4J5",
        "streetName": "TOURANGEAU",
        "streetDirectionId": null,
        "streetTypeId": "RD",
        "placeName": "WINDSOR",
        "streetNameDisplayText": "TOURANGEAU RD, WINDSOR"
      }
    ]
  },
  {
    "postal": "N8Y6J2",
    "result": []
  },
  {
    "postal": "N8Y5V6",
    "result": []
  },
  {
    "postal": "N8Y3N2",
    "result": [
      {
        "electoralDistricts": [
          {
            "election": null,
            "id": 118,
            "name": "Windsor—Tecumseh"
          }
        ],
        "pollDivisionIds": [
          10142714
        ],
        "postalCode": "N8Y3N2",
        "streetName": "ST LUKE",
        "streetDirectionId": null,
        "streetTypeId": "RD",
        "placeName": "WINDSOR",
        "streetNameDisplayText": "ST LUKE RD, WINDSOR"
      }
    ]
  },
  {
    "postal": "N8Y3B1",
    "result": [
      {
        "electoralDistricts": [
          {
            "election": null,
            "id": 118,
            "name": "Windsor—Tecumseh"
          }
        ],
        "pollDivisionIds": [
          10142713
        ],
        "postalCode": "N8Y3B1",
        "streetName": "PILLETTE",
        "streetDirectionId": null,
        "streetTypeId": "RD",
        "placeName": "WINDSOR",
        "streetNameDisplayText": "PILLETTE RD, WINDSOR"
      }
    ]
  },
  {
    "postal": "N8Y8B5",
    "result": []
  },
  {
    "postal": "N8Y0K1",
    "result": []
  },
  {
    "postal": "N8Y7M7",
    "result": []
  },
  {
    "postal": "N8Y2M2",
    "result": []
  },
  {
    "postal": "N8Y9N3",
    "result": []
  },
  {
    "postal": "N8Y4Y8",
    "result": [
      {
        "electoralDistricts": [
          {
            "election": null,
            "id": 118,
            "name": "Windsor—Tecumseh"
          }
        ],
        "pollDivisionIds": [
          10142714
        ],
        "postalCode": "N8Y4Y8",
        "streetName": "ST LUKE",
        "streetDirectionId": null,
        "streetTypeId": "RD",
        "placeName": "WINDSOR",
        "streetNameDisplayText": "ST LUKE RD, WINDSOR"
      }
    ]
  },
  {
    "postal": "N8Y3V7",
    "result": [
      {
        "electoralDistricts": [
          {
            "election": null,
            "id": 118,
            "name": "Windsor—Tecumseh"
          }
        ],
        "pollDivisionIds": [
          10142716
        ],
        "postalCode": "N8Y3V7",
        "streetName": "CENTRAL",
        "streetDirectionId": null,
        "streetTypeId": "AVE",
        "placeName": "WINDSOR",
        "streetNameDisplayText": "CENTRAL AVE, WINDSOR"
      }
    ]
  },
  {
    "postal": "N8Y8Z1",
    "result": []
  },
  {
    "postal": "N8Y7B3",
    "result": []
  },
  {
    "postal": "N8Y3A8",
    "result": [
      {
        "electoralDistricts": [
          {
            "election": null,
            "id": 118,
            "name": "Windsor—Tecumseh"
          }
        ],
        "pollDivisionIds": [
          10142713
        ],
        "postalCode": "N8Y3A8",
        "streetName": "JOS JANISSE",
        "streetDirectionId": null,
        "streetTypeId": "AVE",
        "placeName": "WINDSOR",
        "streetNameDisplayText": "JOS JANISSE AVE, WINDSOR"
      },
      {
        "electoralDistricts": [
          {
            "election": null,
            "id": 118,
            "name": "Windsor—Tecumseh"
          }
        ],
        "pollDivisionIds": [
          10142713
        ],
        "postalCode": "N8Y3A8",
        "streetName": "JOS. JANISSE",
        "streetDirectionId": null,
        "streetTypeId": "AVE",
        "placeName": "WINDSOR",
        "streetNameDisplayText": "JOS. JANISSE AVE, WINDSOR"
      }
    ]
  },
  {
    "postal": "N8Y7V5",
    "result": []
  },
  {
    "postal": "N8Y2T2",
    "result": []
  },
  {
    "postal": "N8Y6L3",
    "result": []
  },
  {
    "postal": "N8Y0L2",
    "result": []
  },
  {
    "postal": "N8Y5Y8",
    "result": []
  },
  {
    "postal": "N8Y0B8",
    "result": []
  },
  {
    "postal": "N8Y6R5",
    "result": []
  },
  {
    "postal": "N8Y8W6",
    "result": []
  },
  {
    "postal": "N8Y8G6",
    "result": []
  },
  {
    "postal": "N8Y6X3",
    "result": []
  },
  {
    "postal": "N8Y7R7",
    "result": []
  },
  {
    "postal": "N8Y4B6",
    "result": [
      {
        "electoralDistricts": [
          {
            "election": null,
            "id": 118,
            "name": "Windsor—Tecumseh"
          }
        ],
        "pollDivisionIds": [
          10142716
        ],
        "postalCode": "N8Y4B6",
        "streetName": "LAURENDEAU",
        "streetDirectionId": null,
        "streetTypeId": "AVE",
        "placeName": "WINDSOR",
        "streetNameDisplayText": "LAURENDEAU AVE, WINDSOR"
      }
    ]
  },
  {
    "postal": "N8Y3P9",
    "result": [
      {
        "electoralDistricts": [
          {
            "election": null,
            "id": 118,
            "name": "Windsor—Tecumseh"
          }
        ],
        "pollDivisionIds": [
          10142714
        ],
        "postalCode": "N8Y3P9",
        "streetName": "ALBERT",
        "streetDirectionId": null,
        "streetTypeId": "RD",
        "placeName": "WINDSOR",
        "streetNameDisplayText": "ALBERT RD, WINDSOR"
      }
    ]
  },
  {
    "postal": "N8Y2T3",
    "result": [
      {
        "electoralDistricts": [
          {
            "election": null,
            "id": 118,
            "name": "Windsor—Tecumseh"
          }
        ],
        "pollDivisionIds": [
          10142714
        ],
        "postalCode": "N8Y2T3",
        "streetName": "HENRY FORD CENTRE",
        "streetDirectionId": null,
        "streetTypeId": "DR",
        "placeName": "WINDSOR",
        "streetNameDisplayText": "HENRY FORD CENTRE DR, WINDSOR"
      }
    ]
  },
  {
    "postal": "N8Y1M4",
    "result": []
  },
  {
    "postal": "N8Y0H1",
    "result": []
  },
  {
    "postal": "N8Y9W3",
    "result": []
  },
  {
    "postal": "N8Y6P1",
    "result": []
  },
  {
    "postal": "N8Y7G2",
    "result": []
  },
  {
    "postal": "N8Y4J9",
    "result": [
      {
        "electoralDistricts": [
          {
            "election": null,
            "id": 118,
            "name": "Windsor—Tecumseh"
          }
        ],
        "pollDivisionIds": [
          10142717
        ],
        "postalCode": "N8Y4J9",
        "streetName": "TOURANGEAU",
        "streetDirectionId": null,
        "streetTypeId": "RD",
        "placeName": "WINDSOR",
        "streetNameDisplayText": "TOURANGEAU RD, WINDSOR"
      }
    ]
  },
  {
    "postal": "N8Y9E4",
    "result": []
  },
  {
    "postal": "N8Y8H0",
    "result": []
  },
  {
    "postal": "N8Y4M7",
    "result": [
      {
        "electoralDistricts": [
          {
            "election": null,
            "id": 118,
            "name": "Windsor—Tecumseh"
          }
        ],
        "pollDivisionIds": [
          10142717
        ],
        "postalCode": "N8Y4M7",
        "streetName": "OLIVE",
        "streetDirectionId": null,
        "streetTypeId": "RD",
        "placeName": "WINDSOR",
        "streetNameDisplayText": "OLIVE RD, WINDSOR"
      }
    ]
  },
  {
    "postal": "N8Y2G9",
    "result": [
      {
        "electoralDistricts": [
          {
            "election": null,
            "id": 118,
            "name": "Windsor—Tecumseh"
          }
        ],
        "pollDivisionIds": [
          10142711
        ],
        "postalCode": "N8Y2G9",
        "streetName": "LINCOLN",
        "streetDirectionId": null,
        "streetTypeId": "RD",
        "placeName": "WINDSOR",
        "streetNameDisplayText": "LINCOLN RD, WINDSOR"
      }
    ]
  },
  {
    "postal": "N8Y8T2",
    "result": []
  },
  {
    "postal": "N8Y7G7",
    "result": []
  },
  {
    "postal": "N8Y4Z3",
    "result": [
      {
        "electoralDistricts": [
          {
            "election": null,
            "id": 118,
            "name": "Windsor—Tecumseh"
          }
        ],
        "pollDivisionIds": [
          10142711
        ],
        "postalCode": "N8Y4Z3",
        "streetName": "WYANDOTTE",
        "streetDirectionId": "E",
        "streetTypeId": "ST",
        "placeName": "WINDSOR",
        "streetNameDisplayText": "WYANDOTTE ST E, WINDSOR"
      }
    ]
  },
  {
    "postal": "N8Y5B3",
    "result": [
      {
        "electoralDistricts": [
          {
            "election": null,
            "id": 118,
            "name": "Windsor—Tecumseh"
          }
        ],
        "pollDivisionIds": [
          3967
        ],
        "postalCode": "N8Y5B3",
        "streetName": "RIVERSIDE",
        "streetDirectionId": "E",
        "streetTypeId": "DR",
        "placeName": "WINDSOR",
        "streetNameDisplayText": "RIVERSIDE DR E, WINDSOR"
      },
      {
        "electoralDistricts": [
          {
            "election": null,
            "id": 118,
            "name": "Windsor—Tecumseh"
          }
        ],
        "pollDivisionIds": [
          3967
        ],
        "postalCode": "N8Y5B3",
        "streetName": "RIVERSIDE",
        "streetDirectionId": "E",
        "streetTypeId": "ST",
        "placeName": "WINDSOR",
        "streetNameDisplayText": "RIVERSIDE ST E, WINDSOR"
      }
    ]
  },
  {
    "postal": "N8Y1S7",
    "result": [
      {
        "electoralDistricts": [
          {
            "election": null,
            "id": 118,
            "name": "Windsor—Tecumseh"
          }
        ],
        "pollDivisionIds": [
          10142712
        ],
        "postalCode": "N8Y1S7",
        "streetName": "DACOTAH",
        "streetDirectionId": null,
        "streetTypeId": "DR",
        "placeName": "WINDSOR",
        "streetNameDisplayText": "DACOTAH DR, WINDSOR"
      }
    ]
  },
  {
    "postal": "N8Y2N7",
    "result": [
      {
        "electoralDistricts": [
          {
            "election": null,
            "id": 118,
            "name": "Windsor—Tecumseh"
          }
        ],
        "pollDivisionIds": [
          10142714,
          10142711
        ],
        "postalCode": "N8Y2N7",
        "streetName": "WALKER",
        "streetDirectionId": null,
        "streetTypeId": "RD",
        "placeName": "WINDSOR",
        "streetNameDisplayText": "WALKER RD, WINDSOR"
      }
    ]
  },
  {
    "postal": "N8Y0H8",
    "result": []
  },
  {
    "postal": "N8Y7Z4",
    "result": []
  },
  {
    "postal": "N8Y7B1",
    "result": []
  },
  {
    "postal": "N8Y7P8",
    "result": []
  },
  {
    "postal": "N8Y7N0",
    "result": []
  },
  {
    "postal": "N8Y3Y5",
    "result": [
      {
        "electoralDistricts": [
          {
            "election": null,
            "id": 118,
            "name": "Windsor—Tecumseh"
          }
        ],
        "pollDivisionIds": [
          10142717
        ],
        "postalCode": "N8Y3Y5",
        "streetName": "ARTHUR",
        "streetDirectionId": null,
        "streetTypeId": "RD",
        "placeName": "WINDSOR",
        "streetNameDisplayText": "ARTHUR RD, WINDSOR"
      }
    ]
  },
  {
    "postal": "N8Y6K1",
    "result": []
  },
  {
    "postal": "N8Y9X5",
    "result": []
  },
  {
    "postal": "N8Y7S5",
    "result": []
  },
  {
    "postal": "N8Y0A4",
    "result": [
      {
        "electoralDistricts": [
          {
            "election": null,
            "id": 118,
            "name": "Windsor—Tecumseh"
          }
        ],
        "pollDivisionIds": [
          10142767
        ],
        "postalCode": "N8Y0A4",
        "streetName": "RIVERSIDE",
        "streetDirectionId": "E",
        "streetTypeId": "DR",
        "placeName": "WINDSOR",
        "streetNameDisplayText": "RIVERSIDE DR E, WINDSOR"
      }
    ]
  },
  {
    "postal": "N8Y4T5",
    "result": [
      {
        "electoralDistricts": [
          {
            "election": null,
            "id": 118,
            "name": "Windsor—Tecumseh"
          }
        ],
        "pollDivisionIds": [
          10142713
        ],
        "postalCode": "N8Y4T5",
        "streetName": "ERSKINE",
        "streetDirectionId": null,
        "streetTypeId": "ST",
        "placeName": "WINDSOR",
        "streetNameDisplayText": "ERSKINE ST, WINDSOR"
      }
    ]
  },
  {
    "postal": "N8Y5K1",
    "result": []
  },
  {
    "postal": "N8Y0Z9",
    "result": []
  },
  {
    "postal": "N8Y7T2",
    "result": []
  },
  {
    "postal": "N8Y1L5",
    "result": [
      {
        "electoralDistricts": [
          {
            "election": null,
            "id": 118,
            "name": "Windsor—Tecumseh"
          }
        ],
        "pollDivisionIds": [
          10142711
        ],
        "postalCode": "N8Y1L5",
        "streetName": "RICHMOND",
        "streetDirectionId": null,
        "streetTypeId": "ST",
        "placeName": "WINDSOR",
        "streetNameDisplayText": "RICHMOND ST, WINDSOR"
      }
    ]
  },
  {
    "postal": "N8Y3N5",
    "result": [
      {
        "electoralDistricts": [
          {
            "election": null,
            "id": 118,
            "name": "Windsor—Tecumseh"
          }
        ],
        "pollDivisionIds": [
          10142716
        ],
        "postalCode": "N8Y3N5",
        "streetName": "ST LUKE",
        "streetDirectionId": null,
        "streetTypeId": "RD",
        "placeName": "WINDSOR",
        "streetNameDisplayText": "ST LUKE RD, WINDSOR"
      }
    ]
  },
  {
    "postal": "N8Y6H4",
    "result": []
  },
  {
    "postal": "N8Y5A5",
    "result": []
  },
  {
    "postal": "N8Y3R9",
    "result": [
      {
        "electoralDistricts": [
          {
            "election": null,
            "id": 118,
            "name": "Windsor—Tecumseh"
          }
        ],
        "pollDivisionIds": [
          10142714
        ],
        "postalCode": "N8Y3R9",
        "streetName": "MAISONVILLE",
        "streetDirectionId": null,
        "streetTypeId": "AVE",
        "placeName": "WINDSOR",
        "streetNameDisplayText": "MAISONVILLE AVE, WINDSOR"
      }
    ]
  },
  {
    "postal": "N8Y7L8",
    "result": []
  },
  {
    "postal": "N8Y6T6",
    "result": []
  },
  {
    "postal": "N8Y7Y7",
    "result": []
  },
  {
    "postal": "N8Y3M8",
    "result": [
      {
        "electoralDistricts": [
          {
            "election": null,
            "id": 118,
            "name": "Windsor—Tecumseh"
          }
        ],
        "pollDivisionIds": [
          10142714
        ],
        "postalCode": "N8Y3M8",
        "streetName": "ST LUKE",
        "streetDirectionId": null,
        "streetTypeId": "RD",
        "placeName": "WINDSOR",
        "streetNameDisplayText": "ST LUKE RD, WINDSOR"
      },
      {
        "electoralDistricts": [
          {
            "election": null,
            "id": 118,
            "name": "Windsor—Tecumseh"
          }
        ],
        "pollDivisionIds": [
          10142714
        ],
        "postalCode": "N8Y3M8",
        "streetName": "ST. LUKE",
        "streetDirectionId": null,
        "streetTypeId": "RD",
        "placeName": "WINDSOR",
        "streetNameDisplayText": "ST. LUKE RD, WINDSOR"
      }
    ]
  },
  {
    "postal": "N8Y2E0",
    "result": []
  },
  {
    "postal": "N8Y4B5",
    "result": [
      {
        "electoralDistricts": [
          {
            "election": null,
            "id": 118,
            "name": "Windsor—Tecumseh"
          }
        ],
        "pollDivisionIds": [
          10142716
        ],
        "postalCode": "N8Y4B5",
        "streetName": "LAURENDEAU",
        "streetDirectionId": null,
        "streetTypeId": "AVE",
        "placeName": "WINDSOR",
        "streetNameDisplayText": "LAURENDEAU AVE, WINDSOR"
      }
    ]
  },
  {
    "postal": "N8Y1J3",
    "result": [
      {
        "electoralDistricts": [
          {
            "election": null,
            "id": 118,
            "name": "Windsor—Tecumseh"
          }
        ],
        "pollDivisionIds": [
          10142711
        ],
        "postalCode": "N8Y1J3",
        "streetName": "TUSCARORA",
        "streetDirectionId": null,
        "streetTypeId": "ST",
        "placeName": "WINDSOR",
        "streetNameDisplayText": "TUSCARORA ST, WINDSOR"
      }
    ]
  },
  {
    "postal": "N8Y5S6",
    "result": []
  },
  {
    "postal": "N8Y8P7",
    "result": []
  },
  {
    "postal": "N8Y7S7",
    "result": []
  },
  {
    "postal": "N8Y4C2",
    "result": [
      {
        "electoralDistricts": [
          {
            "election": null,
            "id": 118,
            "name": "Windsor—Tecumseh"
          }
        ],
        "pollDivisionIds": [
          10142716
        ],
        "postalCode": "N8Y4C2",
        "streetName": "WESTCOTT",
        "streetDirectionId": null,
        "streetTypeId": "RD",
        "placeName": "WINDSOR",
        "streetNameDisplayText": "WESTCOTT RD, WINDSOR"
      }
    ]
  },
  {
    "postal": "N8Y5Y0",
    "result": []
  },
  {
    "postal": "N8Y2V7",
    "result": [
      {
        "electoralDistricts": [
          {
            "election": null,
            "id": 118,
            "name": "Windsor—Tecumseh"
          }
        ],
        "pollDivisionIds": [
          10142716,
          10142715
        ],
        "postalCode": "N8Y2V7",
        "streetName": "CADILLAC",
        "streetDirectionId": null,
        "streetTypeId": "ST",
        "placeName": "WINDSOR",
        "streetNameDisplayText": "CADILLAC ST, WINDSOR"
      }
    ]
  },
  {
    "postal": "N8Y8P5",
    "result": []
  },
  {
    "postal": "N8Y5P5",
    "result": []
  },
  {
    "postal": "N8Y5Z0",
    "result": []
  },
  {
    "postal": "N8Y9B0",
    "result": []
  },
  {
    "postal": "N8Y1L0",
    "result": []
  },
  {
    "postal": "N8Y0B5",
    "result": []
  },
  {
    "postal": "N8Y3L2",
    "result": [
      {
        "electoralDistricts": [
          {
            "election": null,
            "id": 118,
            "name": "Windsor—Tecumseh"
          }
        ],
        "pollDivisionIds": [
          10142711
        ],
        "postalCode": "N8Y3L2",
        "streetName": "MONMOUTH",
        "streetDirectionId": null,
        "streetTypeId": "RD",
        "placeName": "WINDSOR",
        "streetNameDisplayText": "MONMOUTH RD, WINDSOR"
      }
    ]
  },
  {
    "postal": "N8Y3B7",
    "result": [
      {
        "electoralDistricts": [
          {
            "election": null,
            "id": 118,
            "name": "Windsor—Tecumseh"
          }
        ],
        "pollDivisionIds": [
          10142718
        ],
        "postalCode": "N8Y3B7",
        "streetName": "PILLETTE",
        "streetDirectionId": null,
        "streetTypeId": "RD",
        "placeName": "WINDSOR",
        "streetNameDisplayText": "PILLETTE RD, WINDSOR"
      }
    ]
  },
  {
    "postal": "N8Y8L1",
    "result": []
  },
  {
    "postal": "N8Y5M4",
    "result": []
  },
  {
    "postal": "N8Y4G9",
    "result": [
      {
        "electoralDistricts": [
          {
            "election": null,
            "id": 118,
            "name": "Windsor—Tecumseh"
          }
        ],
        "pollDivisionIds": [
          10142716
        ],
        "postalCode": "N8Y4G9",
        "streetName": "LABADIE",
        "streetDirectionId": null,
        "streetTypeId": "RD",
        "placeName": "WINDSOR",
        "streetNameDisplayText": "LABADIE RD, WINDSOR"
      }
    ]
  },
  {
    "postal": "N8Y0P0",
    "result": []
  },
  {
    "postal": "N8Y8G2",
    "result": []
  },
  {
    "postal": "N8Y1V9",
    "result": []
  },
  {
    "postal": "N8Y8N8",
    "result": []
  },
  {
    "postal": "N8Y6S8",
    "result": []
  },
  {
    "postal": "N8Y8H2",
    "result": []
  },
  {
    "postal": "N8Y5R8",
    "result": []
  },
  {
    "postal": "N8Y5L4",
    "result": []
  },
  {
    "postal": "N8Y9E1",
    "result": []
  },
  {
    "postal": "N8Y1C4",
    "result": [
      {
        "electoralDistricts": [
          {
            "election": null,
            "id": 118,
            "name": "Windsor—Tecumseh"
          }
        ],
        "pollDivisionIds": [
          10142710
        ],
        "postalCode": "N8Y1C4",
        "streetName": "ASSUMPTION",
        "streetDirectionId": null,
        "streetTypeId": "ST",
        "placeName": "WINDSOR",
        "streetNameDisplayText": "ASSUMPTION ST, WINDSOR"
      }
    ]
  },
  {
    "postal": "N8Y8W5",
    "result": []
  },
  {
    "postal": "N8Y1Y4",
    "result": [
      {
        "electoralDistricts": [
          {
            "election": null,
            "id": 118,
            "name": "Windsor—Tecumseh"
          }
        ],
        "pollDivisionIds": [
          10142716
        ],
        "postalCode": "N8Y1Y4",
        "streetName": "SEMINOLE",
        "streetDirectionId": null,
        "streetTypeId": "ST",
        "placeName": "WINDSOR",
        "streetNameDisplayText": "SEMINOLE ST, WINDSOR"
      }
    ]
  },
  {
    "postal": "N8Y1C0",
    "result": []
  },
  {
    "postal": "N8Y2J2",
    "result": [
      {
        "electoralDistricts": [
          {
            "election": null,
            "id": 118,
            "name": "Windsor—Tecumseh"
          }
        ],
        "pollDivisionIds": [
          10142712
        ],
        "postalCode": "N8Y2J2",
        "streetName": "LINCOLN",
        "streetDirectionId": null,
        "streetTypeId": "RD",
        "placeName": "WINDSOR",
        "streetNameDisplayText": "LINCOLN RD, WINDSOR"
      }
    ]
  },
  {
    "postal": "N8Y2J0",
    "result": []
  },
  {
    "postal": "N8Y7A3",
    "result": []
  },
  {
    "postal": "N8Y8M1",
    "result": []
  },
  {
    "postal": "N8Y7T9",
    "result": []
  },
  {
    "postal": "N8Y6C0",
    "result": []
  },
  {
    "postal": "N8Y7X1",
    "result": []
  },
  {
    "postal": "N8Y0G1",
    "result": []
  },
  {
    "postal": "N8Y4X2",
    "result": [
      {
        "electoralDistricts": [
          {
            "election": null,
            "id": 118,
            "name": "Windsor—Tecumseh"
          }
        ],
        "pollDivisionIds": [
          10142714
        ],
        "postalCode": "N8Y4X2",
        "streetName": "WYANDOTTE",
        "streetDirectionId": "E",
        "streetTypeId": "ST",
        "placeName": "WINDSOR",
        "streetNameDisplayText": "WYANDOTTE ST E, WINDSOR"
      }
    ]
  },
  {
    "postal": "N8Y0N6",
    "result": []
  },
  {
    "postal": "N8Y8E3",
    "result": []
  },
  {
    "postal": "N8Y5S8",
    "result": []
  },
  {
    "postal": "N8Y0R0",
    "result": []
  },
  {
    "postal": "N8Y6J6",
    "result": []
  },
  {
    "postal": "N8Y4B4",
    "result": [
      {
        "electoralDistricts": [
          {
            "election": null,
            "id": 118,
            "name": "Windsor—Tecumseh"
          }
        ],
        "pollDivisionIds": [
          10142716
        ],
        "postalCode": "N8Y4B4",
        "streetName": "LAURENDEAU",
        "streetDirectionId": null,
        "streetTypeId": "AVE",
        "placeName": "WINDSOR",
        "streetNameDisplayText": "LAURENDEAU AVE, WINDSOR"
      }
    ]
  },
  {
    "postal": "N8Y7E3",
    "result": []
  },
  {
    "postal": "N8Y3N6",
    "result": [
      {
        "electoralDistricts": [
          {
            "election": null,
            "id": 118,
            "name": "Windsor—Tecumseh"
          }
        ],
        "pollDivisionIds": [
          10142715
        ],
        "postalCode": "N8Y3N6",
        "streetName": "ST LUKE",
        "streetDirectionId": null,
        "streetTypeId": "RD",
        "placeName": "WINDSOR",
        "streetNameDisplayText": "ST LUKE RD, WINDSOR"
      },
      {
        "electoralDistricts": [
          {
            "election": null,
            "id": 118,
            "name": "Windsor—Tecumseh"
          }
        ],
        "pollDivisionIds": [
          10142715
        ],
        "postalCode": "N8Y3N6",
        "streetName": "ST. LUKE",
        "streetDirectionId": null,
        "streetTypeId": "RD",
        "placeName": "WINDSOR",
        "streetNameDisplayText": "ST. LUKE RD, WINDSOR"
      }
    ]
  },
  {
    "postal": "N8Y3X6",
    "result": [
      {
        "electoralDistricts": [
          {
            "election": null,
            "id": 118,
            "name": "Windsor—Tecumseh"
          }
        ],
        "pollDivisionIds": [
          10142717
        ],
        "postalCode": "N8Y3X6",
        "streetName": "ELLROSE",
        "streetDirectionId": null,
        "streetTypeId": "AVE",
        "placeName": "WINDSOR",
        "streetNameDisplayText": "ELLROSE AVE, WINDSOR"
      }
    ]
  },
  {
    "postal": "N8Y8L0",
    "result": []
  },
  {
    "postal": "N8Y8N1",
    "result": []
  },
  {
    "postal": "N8Y4J0",
    "result": []
  },
  {
    "postal": "N8Y0X7",
    "result": []
  },
  {
    "postal": "N8Y6S4",
    "result": []
  },
  {
    "postal": "N8Y0Z0",
    "result": []
  },
  {
    "postal": "N8Y9X8",
    "result": []
  },
  {
    "postal": "N8Y3H3",
    "result": [
      {
        "electoralDistricts": [
          {
            "election": null,
            "id": 118,
            "name": "Windsor—Tecumseh"
          }
        ],
        "pollDivisionIds": [
          10142711
        ],
        "postalCode": "N8Y3H3",
        "streetName": "KILDARE",
        "streetDirectionId": null,
        "streetTypeId": "RD",
        "placeName": "WINDSOR",
        "streetNameDisplayText": "KILDARE RD, WINDSOR"
      }
    ]
  },
  {
    "postal": "N8Y7S2",
    "result": []
  },
  {
    "postal": "N8Y3T3",
    "result": [
      {
        "electoralDistricts": [
          {
            "election": null,
            "id": 118,
            "name": "Windsor—Tecumseh"
          }
        ],
        "pollDivisionIds": [
          10142716
        ],
        "postalCode": "N8Y3T3",
        "streetName": "HICKORY",
        "streetDirectionId": null,
        "streetTypeId": "RD",
        "placeName": "WINDSOR",
        "streetNameDisplayText": "HICKORY RD, WINDSOR"
      }
    ]
  },
  {
    "postal": "N8Y9P3",
    "result": []
  },
  {
    "postal": "N8Y4H8",
    "result": [
      {
        "electoralDistricts": [
          {
            "election": null,
            "id": 118,
            "name": "Windsor—Tecumseh"
          }
        ],
        "pollDivisionIds": [
          10142716
        ],
        "postalCode": "N8Y4H8",
        "streetName": "TOURANGEAU",
        "streetDirectionId": null,
        "streetTypeId": "RD",
        "placeName": "WINDSOR",
        "streetNameDisplayText": "TOURANGEAU RD, WINDSOR"
      }
    ]
  },
  {
    "postal": "N8Y6R1",
    "result": []
  },
  {
    "postal": "N8Y1S0",
    "result": []
  },
  {
    "postal": "N8Y3W8",
    "result": [
      {
        "electoralDistricts": [
          {
            "election": null,
            "id": 118,
            "name": "Windsor—Tecumseh"
          }
        ],
        "pollDivisionIds": [
          10142718
        ],
        "postalCode": "N8Y3W8",
        "streetName": "ELLROSE",
        "streetDirectionId": null,
        "streetTypeId": "AVE",
        "placeName": "WINDSOR",
        "streetNameDisplayText": "ELLROSE AVE, WINDSOR"
      }
    ]
  },
  {
    "postal": "N8Y4S3",
    "result": []
  },
  {
    "postal": "N8Y1B6",
    "result": [
      {
        "electoralDistricts": [
          {
            "election": null,
            "id": 118,
            "name": "Windsor—Tecumseh"
          }
        ],
        "pollDivisionIds": [
          10142713
        ],
        "postalCode": "N8Y1B6",
        "streetName": "RIVERSIDE",
        "streetDirectionId": "E",
        "streetTypeId": "DR",
        "placeName": "WINDSOR",
        "streetNameDisplayText": "RIVERSIDE DR E, WINDSOR"
      }
    ]
  },
  {
    "postal": "N8Y8R3",
    "result": []
  },
  {
    "postal": "N8Y4V9",
    "result": [
      {
        "electoralDistricts": [
          {
            "election": null,
            "id": 118,
            "name": "Windsor—Tecumseh"
          }
        ],
        "pollDivisionIds": [
          10142719
        ],
        "postalCode": "N8Y4V9",
        "streetName": "POLONIA PARK",
        "streetDirectionId": null,
        "streetTypeId": "PL",
        "placeName": "WINDSOR",
        "streetNameDisplayText": "POLONIA PARK PL, WINDSOR"
      }
    ]
  },
  {
    "postal": "N8Y9W4",
    "result": []
  },
  {
    "postal": "N8Y3T4",
    "result": [
      {
        "electoralDistricts": [
          {
            "election": null,
            "id": 118,
            "name": "Windsor—Tecumseh"
          }
        ],
        "pollDivisionIds": [
          10142715
        ],
        "postalCode": "N8Y3T4",
        "streetName": "HICKORY",
        "streetDirectionId": null,
        "streetTypeId": "RD",
        "placeName": "WINDSOR",
        "streetNameDisplayText": "HICKORY RD, WINDSOR"
      }
    ]
  },
  {
    "postal": "N8Y5C7",
    "result": []
  },
  {
    "postal": "N8Y3Y1",
    "result": [
      {
        "electoralDistricts": [
          {
            "election": null,
            "id": 118,
            "name": "Windsor—Tecumseh"
          }
        ],
        "pollDivisionIds": [
          10142718
        ],
        "postalCode": "N8Y3Y1",
        "streetName": "ARTHUR",
        "streetDirectionId": null,
        "streetTypeId": "RD",
        "placeName": "WINDSOR",
        "streetNameDisplayText": "ARTHUR RD, WINDSOR"
      }
    ]
  },
  {
    "postal": "N8Y5V0",
    "result": []
  },
  {
    "postal": "N8Y8G8",
    "result": []
  },
  {
    "postal": "N8Y8B1",
    "result": []
  },
  {
    "postal": "N8Y4P5",
    "result": [
      {
        "electoralDistricts": [
          {
            "election": null,
            "id": 118,
            "name": "Windsor—Tecumseh"
          }
        ],
        "pollDivisionIds": [
          10142715
        ],
        "postalCode": "N8Y4P5",
        "streetName": "ALEXIS",
        "streetDirectionId": null,
        "streetTypeId": "RD",
        "placeName": "WINDSOR",
        "streetNameDisplayText": "ALEXIS RD, WINDSOR"
      }
    ]
  },
  {
    "postal": "N8Y7B2",
    "result": []
  },
  {
    "postal": "N8Y0R2",
    "result": []
  },
  {
    "postal": "N8Y4M4",
    "result": [
      {
        "electoralDistricts": [
          {
            "election": null,
            "id": 118,
            "name": "Windsor—Tecumseh"
          }
        ],
        "pollDivisionIds": [
          10142719
        ],
        "postalCode": "N8Y4M4",
        "streetName": "OLIVE",
        "streetDirectionId": null,
        "streetTypeId": "RD",
        "placeName": "WINDSOR",
        "streetNameDisplayText": "OLIVE RD, WINDSOR"
      }
    ]
  },
  {
    "postal": "N8Y7M4",
    "result": []
  },
  {
    "postal": "N8Y9S7",
    "result": []
  },
  {
    "postal": "N8Y5Z7",
    "result": []
  },
  {
    "postal": "N8Y7J7",
    "result": []
  },
  {
    "postal": "N8Y8R8",
    "result": []
  },
  {
    "postal": "N8Y9X1",
    "result": []
  },
  {
    "postal": "N8Y5M9",
    "result": []
  },
  {
    "postal": "N8Y9B4",
    "result": []
  },
  {
    "postal": "N8Y0L9",
    "result": []
  },
  {
    "postal": "N8Y9G4",
    "result": []
  },
  {
    "postal": "N8Y1J4",
    "result": [
      {
        "electoralDistricts": [
          {
            "election": null,
            "id": 118,
            "name": "Windsor—Tecumseh"
          }
        ],
        "pollDivisionIds": [
          10142711
        ],
        "postalCode": "N8Y1J4",
        "streetName": "CATARAQUI",
        "streetDirectionId": null,
        "streetTypeId": "ST",
        "placeName": "WINDSOR",
        "streetNameDisplayText": "CATARAQUI ST, WINDSOR"
      }
    ]
  },
  {
    "postal": "N8Y0W6",
    "result": []
  }
]
