[
  {
    "postal": "N4W9J6",
    "result": []
  },
  {
    "postal": "N4W9Z5",
    "result": []
  },
  {
    "postal": "N4W7H8",
    "result": []
  },
  {
    "postal": "N4W0P6",
    "result": []
  },
  {
    "postal": "N4W0S7",
    "result": []
  },
  {
    "postal": "N4W8B9",
    "result": []
  },
  {
    "postal": "N4W2A6",
    "result": [
      {
        "electoralDistricts": [
          {
            "election": null,
            "id": 85,
            "name": "Perth—Wellington"
          }
        ],
        "pollDivisionIds": [
          10135494
        ],
        "postalCode": "N4W2A6",
        "streetName": "HAVELOCK",
        "streetDirectionId": "S",
        "streetTypeId": "AVE",
        "placeName": "LISTOWEL",
        "streetNameDisplayText": "HAVELOCK AVE S, LISTOWEL"
      }
    ]
  },
  {
    "postal": "N4W7V2",
    "result": []
  },
  {
    "postal": "N4W9P4",
    "result": []
  },
  {
    "postal": "N4W6G0",
    "result": []
  },
  {
    "postal": "N4W2K0",
    "result": [
      {
        "electoralDistricts": [
          {
            "election": null,
            "id": 85,
            "name": "Perth—Wellington"
          }
        ],
        "pollDivisionIds": [
          10135496
        ],
        "postalCode": "N4W2K0",
        "streetName": "MAPLETON",
        "streetDirectionId": null,
        "streetTypeId": null,
        "placeName": "MOOREFIELD",
        "streetNameDisplayText": "MAPLETON, MOOREFIELD"
      }
    ]
  },
  {
    "postal": "N4W7N6",
    "result": []
  },
  {
    "postal": "N4W5R3",
    "result": []
  },
  {
    "postal": "N4W7K0",
    "result": []
  },
  {
    "postal": "N4W3R2",
    "result": []
  },
  {
    "postal": "N4W0J1",
    "result": []
  },
  {
    "postal": "N4W0B0",
    "result": []
  },
  {
    "postal": "N4W5Z2",
    "result": []
  },
  {
    "postal": "N4W7P3",
    "result": []
  },
  {
    "postal": "N4W2K3",
    "result": [
      {
        "electoralDistricts": [
          {
            "election": null,
            "id": 85,
            "name": "Perth—Wellington"
          }
        ],
        "pollDivisionIds": [
          10135494
        ],
        "postalCode": "N4W2K3",
        "streetName": "DAVIDSON",
        "streetDirectionId": "S",
        "streetTypeId": "AVE",
        "placeName": "LISTOWEL",
        "streetNameDisplayText": "DAVIDSON AVE S, LISTOWEL"
      }
    ]
  },
  {
    "postal": "N4W7Y6",
    "result": []
  },
  {
    "postal": "N4W1L9",
    "result": [
      {
        "electoralDistricts": [
          {
            "election": null,
            "id": 85,
            "name": "Perth—Wellington"
          }
        ],
        "pollDivisionIds": [
          10135494
        ],
        "postalCode": "N4W1L9",
        "streetName": "WALLACE",
        "streetDirectionId": "N",
        "streetTypeId": "AVE",
        "placeName": "LISTOWEL",
        "streetNameDisplayText": "WALLACE AVE N, LISTOWEL"
      }
    ]
  },
  {
    "postal": "N4W8T0",
    "result": []
  },
  {
    "postal": "N4W3K8",
    "result": [
      {
        "electoralDistricts": [
          {
            "election": null,
            "id": 85,
            "name": "Perth—Wellington"
          }
        ],
        "pollDivisionIds": [
          10135494
        ],
        "postalCode": "N4W3K8",
        "streetName": "ANN",
        "streetDirectionId": "W",
        "streetTypeId": "ST",
        "placeName": "LISTOWEL",
        "streetNameDisplayText": "ANN ST W, LISTOWEL"
      },
      {
        "electoralDistricts": [
          {
            "election": null,
            "id": 85,
            "name": "Perth—Wellington"
          }
        ],
        "pollDivisionIds": [
          10135494
        ],
        "postalCode": "N4W3K8",
        "streetName": "ANN",
        "streetDirectionId": null,
        "streetTypeId": "ST",
        "placeName": "LISTOWEL",
        "streetNameDisplayText": "ANN ST, LISTOWEL"
      }
    ]
  },
  {
    "postal": "N4W5W9",
    "result": []
  },
  {
    "postal": "N4W6T9",
    "result": []
  },
  {
    "postal": "N4W4H1",
    "result": []
  },
  {
    "postal": "N4W7A2",
    "result": []
  },
  {
    "postal": "N4W5G0",
    "result": []
  },
  {
    "postal": "N4W8V5",
    "result": []
  },
  {
    "postal": "N4W2Y8",
    "result": [
      {
        "electoralDistricts": [
          {
            "election": null,
            "id": 85,
            "name": "Perth—Wellington"
          }
        ],
        "pollDivisionIds": [
          10135495
        ],
        "postalCode": "N4W2Y8",
        "streetName": "SARAH",
        "streetDirectionId": "N",
        "streetTypeId": "AVE",
        "placeName": "LISTOWEL",
        "streetNameDisplayText": "SARAH AVE N, LISTOWEL"
      }
    ]
  },
  {
    "postal": "N4W2B6",
    "result": [
      {
        "electoralDistricts": [
          {
            "election": null,
            "id": 85,
            "name": "Perth—Wellington"
          }
        ],
        "pollDivisionIds": [
          10135494
        ],
        "postalCode": "N4W2B6",
        "streetName": "MAIN",
        "streetDirectionId": "E",
        "streetTypeId": "ST",
        "placeName": "LISTOWEL",
        "streetNameDisplayText": "MAIN ST E, LISTOWEL"
      }
    ]
  },
  {
    "postal": "N4W4W8",
    "result": []
  },
  {
    "postal": "N4W8H7",
    "result": []
  },
  {
    "postal": "N4W5P1",
    "result": []
  },
  {
    "postal": "N4W2B8",
    "result": [
      {
        "electoralDistricts": [
          {
            "election": null,
            "id": 85,
            "name": "Perth—Wellington"
          }
        ],
        "pollDivisionIds": [
          10135495
        ],
        "postalCode": "N4W2B8",
        "streetName": "MAIN",
        "streetDirectionId": "E",
        "streetTypeId": "ST",
        "placeName": "LISTOWEL",
        "streetNameDisplayText": "MAIN ST E, LISTOWEL"
      }
    ]
  },
  {
    "postal": "N4W0P2",
    "result": []
  },
  {
    "postal": "N4W9M1",
    "result": []
  },
  {
    "postal": "N4W3G0",
    "result": []
  },
  {
    "postal": "N4W9Z2",
    "result": []
  },
  {
    "postal": "N4W2A0",
    "result": []
  },
  {
    "postal": "N4W6Y0",
    "result": []
  },
  {
    "postal": "N4W2Z8",
    "result": [
      {
        "electoralDistricts": [
          {
            "election": null,
            "id": 85,
            "name": "Perth—Wellington"
          }
        ],
        "pollDivisionIds": [
          10135494
        ],
        "postalCode": "N4W2Z8",
        "streetName": "RICHMOND",
        "streetDirectionId": "N",
        "streetTypeId": "AVE",
        "placeName": "LISTOWEL",
        "streetNameDisplayText": "RICHMOND AVE N, LISTOWEL"
      }
    ]
  },
  {
    "postal": "N4W7Y3",
    "result": []
  },
  {
    "postal": "N4W6Z5",
    "result": []
  },
  {
    "postal": "N4W6E0",
    "result": []
  },
  {
    "postal": "N4W9B7",
    "result": []
  },
  {
    "postal": "N4W9S5",
    "result": []
  },
  {
    "postal": "N4W3X3",
    "result": []
  },
  {
    "postal": "N4W7R5",
    "result": []
  },
  {
    "postal": "N4W2X3",
    "result": [
      {
        "electoralDistricts": [
          {
            "election": null,
            "id": 85,
            "name": "Perth—Wellington"
          }
        ],
        "pollDivisionIds": [
          10135495
        ],
        "postalCode": "N4W2X3",
        "streetName": "MCDONALD",
        "streetDirectionId": "E",
        "streetTypeId": "ST",
        "placeName": "LISTOWEL",
        "streetNameDisplayText": "MCDONALD ST E, LISTOWEL"
      },
      {
        "electoralDistricts": [
          {
            "election": null,
            "id": 85,
            "name": "Perth—Wellington"
          }
        ],
        "pollDivisionIds": [
          10135495
        ],
        "postalCode": "N4W2X3",
        "streetName": "MCDONALD ST.",
        "streetDirectionId": "E",
        "streetTypeId": "ST",
        "placeName": "LISTOWEL",
        "streetNameDisplayText": "MCDONALD ST. ST E, LISTOWEL"
      }
    ]
  },
  {
    "postal": "N4W8Z9",
    "result": []
  },
  {
    "postal": "N4W0N4",
    "result": []
  },
  {
    "postal": "N4W1K1",
    "result": [
      {
        "electoralDistricts": [
          {
            "election": null,
            "id": 85,
            "name": "Perth—Wellington"
          }
        ],
        "pollDivisionIds": [
          10135494
        ],
        "postalCode": "N4W1K1",
        "streetName": "CHURCHILL",
        "streetDirectionId": null,
        "streetTypeId": "DR",
        "placeName": "LISTOWEL",
        "streetNameDisplayText": "CHURCHILL DR, LISTOWEL"
      }
    ]
  },
  {
    "postal": "N4W1S3",
    "result": [
      {
        "electoralDistricts": [
          {
            "election": null,
            "id": 85,
            "name": "Perth—Wellington"
          }
        ],
        "pollDivisionIds": [
          10135494
        ],
        "postalCode": "N4W1S3",
        "streetName": "BARBER",
        "streetDirectionId": "N",
        "streetTypeId": "AVE",
        "placeName": "LISTOWEL",
        "streetNameDisplayText": "BARBER AVE N, LISTOWEL"
      }
    ]
  },
  {
    "postal": "N4W6M4",
    "result": []
  },
  {
    "postal": "N4W9A9",
    "result": []
  },
  {
    "postal": "N4W9Z9",
    "result": []
  },
  {
    "postal": "N4W6T4",
    "result": []
  },
  {
    "postal": "N4W0B2",
    "result": []
  },
  {
    "postal": "N4W2L9",
    "result": [
      {
        "electoralDistricts": [
          {
            "election": null,
            "id": 85,
            "name": "Perth—Wellington"
          }
        ],
        "pollDivisionIds": [
          10135495
        ],
        "postalCode": "N4W2L9",
        "streetName": "INKERMAN",
        "streetDirectionId": "E",
        "streetTypeId": "ST",
        "placeName": "LISTOWEL",
        "streetNameDisplayText": "INKERMAN ST E, LISTOWEL"
      }
    ]
  },
  {
    "postal": "N4W8K9",
    "result": []
  },
  {
    "postal": "N4W2H9",
    "result": [
      {
        "electoralDistricts": [
          {
            "election": null,
            "id": 85,
            "name": "Perth—Wellington"
          }
        ],
        "pollDivisionIds": [
          10135494
        ],
        "postalCode": "N4W2H9",
        "streetName": "WELLINGTON",
        "streetDirectionId": "S",
        "streetTypeId": "AVE",
        "placeName": "LISTOWEL",
        "streetNameDisplayText": "WELLINGTON AVE S, LISTOWEL"
      }
    ]
  },
  {
    "postal": "N4W3Z6",
    "result": []
  },
  {
    "postal": "N4W3B0",
    "result": []
  },
  {
    "postal": "N4W2H8",
    "result": []
  },
  {
    "postal": "N4W3X2",
    "result": []
  },
  {
    "postal": "N4W2E9",
    "result": [
      {
        "electoralDistricts": [
          {
            "election": null,
            "id": 85,
            "name": "Perth—Wellington"
          }
        ],
        "pollDivisionIds": [
          10135494
        ],
        "postalCode": "N4W2E9",
        "streetName": "CLAYTON",
        "streetDirectionId": "E",
        "streetTypeId": "ST",
        "placeName": "LISTOWEL",
        "streetNameDisplayText": "CLAYTON ST E, LISTOWEL"
      }
    ]
  },
  {
    "postal": "N4W9P6",
    "result": []
  },
  {
    "postal": "N4W9E2",
    "result": []
  },
  {
    "postal": "N4W9H2",
    "result": []
  },
  {
    "postal": "N4W1S8",
    "result": [
      {
        "electoralDistricts": [
          {
            "election": null,
            "id": 85,
            "name": "Perth—Wellington"
          }
        ],
        "pollDivisionIds": [
          10135495
        ],
        "postalCode": "N4W1S8",
        "streetName": "VICTORIA",
        "streetDirectionId": "N",
        "streetTypeId": "AVE",
        "placeName": "LISTOWEL",
        "streetNameDisplayText": "VICTORIA AVE N, LISTOWEL"
      }
    ]
  },
  {
    "postal": "N4W3M6",
    "result": [
      {
        "electoralDistricts": [
          {
            "election": null,
            "id": 85,
            "name": "Perth—Wellington"
          }
        ],
        "pollDivisionIds": [
          10135494
        ],
        "postalCode": "N4W3M6",
        "streetName": "MCLAREN",
        "streetDirectionId": "N",
        "streetTypeId": "AVE",
        "placeName": "LISTOWEL",
        "streetNameDisplayText": "MCLAREN AVE N, LISTOWEL"
      }
    ]
  },
  {
    "postal": "N4W6Z8",
    "result": []
  },
  {
    "postal": "N4W4J2",
    "result": []
  },
  {
    "postal": "N4W9Y1",
    "result": []
  },
  {
    "postal": "N4W8V6",
    "result": []
  },
  {
    "postal": "N4W6B2",
    "result": []
  },
  {
    "postal": "N4W1P8",
    "result": [
      {
        "electoralDistricts": [
          {
            "election": null,
            "id": 85,
            "name": "Perth—Wellington"
          }
        ],
        "pollDivisionIds": [
          10135495
        ],
        "postalCode": "N4W1P8",
        "streetName": "LIVINGSTONE",
        "streetDirectionId": "N",
        "streetTypeId": "AVE",
        "placeName": "LISTOWEL",
        "streetNameDisplayText": "LIVINGSTONE AVE N, LISTOWEL"
      },
      {
        "electoralDistricts": [
          {
            "election": null,
            "id": 85,
            "name": "Perth—Wellington"
          }
        ],
        "pollDivisionIds": [
          10135494
        ],
        "postalCode": "N4W1P8",
        "streetName": "LIVINGSTONE",
        "streetDirectionId": "S",
        "streetTypeId": "AVE",
        "placeName": "LISTOWEL",
        "streetNameDisplayText": "LIVINGSTONE AVE S, LISTOWEL"
      }
    ]
  },
  {
    "postal": "N4W0V8",
    "result": []
  },
  {
    "postal": "N4W4Y0",
    "result": []
  },
  {
    "postal": "N4W2T4",
    "result": [
      {
        "electoralDistricts": [
          {
            "election": null,
            "id": 85,
            "name": "Perth—Wellington"
          }
        ],
        "pollDivisionIds": [
          10135495
        ],
        "postalCode": "N4W2T4",
        "streetName": "CAMPBELL",
        "streetDirectionId": "E",
        "streetTypeId": "ST",
        "placeName": "LISTOWEL",
        "streetNameDisplayText": "CAMPBELL ST E, LISTOWEL"
      }
    ]
  },
  {
    "postal": "N4W2S3",
    "result": [
      {
        "electoralDistricts": [
          {
            "election": null,
            "id": 85,
            "name": "Perth—Wellington"
          }
        ],
        "pollDivisionIds": [
          10135495
        ],
        "postalCode": "N4W2S3",
        "streetName": "ROYAL",
        "streetDirectionId": "E",
        "streetTypeId": "ST",
        "placeName": "LISTOWEL",
        "streetNameDisplayText": "ROYAL ST E, LISTOWEL"
      }
    ]
  },
  {
    "postal": "N4W0K0",
    "result": []
  },
  {
    "postal": "N4W5N1",
    "result": []
  },
  {
    "postal": "N4W7T0",
    "result": []
  },
  {
    "postal": "N4W9N2",
    "result": []
  },
  {
    "postal": "N4W5L1",
    "result": []
  },
  {
    "postal": "N4W7G5",
    "result": []
  },
  {
    "postal": "N4W6K2",
    "result": []
  },
  {
    "postal": "N4W6P9",
    "result": []
  },
  {
    "postal": "N4W0E6",
    "result": [
      {
        "electoralDistricts": [
          {
            "election": null,
            "id": 85,
            "name": "Perth—Wellington"
          }
        ],
        "pollDivisionIds": [
          10135494
        ],
        "postalCode": "N4W0E6",
        "streetName": "ADAMS",
        "streetDirectionId": "S",
        "streetTypeId": "AVE",
        "placeName": "LISTOWEL",
        "streetNameDisplayText": "ADAMS AVE S, LISTOWEL"
      },
      {
        "electoralDistricts": [
          {
            "election": null,
            "id": 85,
            "name": "Perth—Wellington"
          }
        ],
        "pollDivisionIds": [
          10135494
        ],
        "postalCode": "N4W0E6",
        "streetName": "ARMSTRONG",
        "streetDirectionId": "W",
        "streetTypeId": "ST",
        "placeName": "LISTOWEL",
        "streetNameDisplayText": "ARMSTRONG ST W, LISTOWEL"
      },
      {
        "electoralDistricts": [
          {
            "election": null,
            "id": 85,
            "name": "Perth—Wellington"
          }
        ],
        "pollDivisionIds": [
          10135494
        ],
        "postalCode": "N4W0E6",
        "streetName": "ARMSTRONG STREET WEST",
        "streetDirectionId": "W",
        "streetTypeId": "ST",
        "placeName": "LISTOWEL",
        "streetNameDisplayText": "ARMSTRONG STREET WEST ST W, LISTOWEL"
      }
    ]
  },
  {
    "postal": "N4W8R9",
    "result": []
  },
  {
    "postal": "N4W3G9",
    "result": [
      {
        "electoralDistricts": [
          {
            "election": null,
            "id": 85,
            "name": "Perth—Wellington"
          }
        ],
        "pollDivisionIds": [
          10135500
        ],
        "postalCode": "N4W3G9",
        "streetName": "116",
        "streetDirectionId": null,
        "streetTypeId": "RD",
        "placeName": "LISTOWEL",
        "streetNameDisplayText": "116 RD, LISTOWEL"
      },
      {
        "electoralDistricts": [
          {
            "election": null,
            "id": 85,
            "name": "Perth—Wellington"
          }
        ],
        "pollDivisionIds": [
          10135500
        ],
        "postalCode": "N4W3G9",
        "streetName": "121 PERTH",
        "streetDirectionId": null,
        "streetTypeId": "RD",
        "placeName": "LISTOWEL",
        "streetNameDisplayText": "121 PERTH RD, LISTOWEL"
      },
      {
        "electoralDistricts": [
          {
            "election": null,
            "id": 85,
            "name": "Perth—Wellington"
          }
        ],
        "pollDivisionIds": [
          10135500
        ],
        "postalCode": "N4W3G9",
        "streetName": "124",
        "streetDirectionId": null,
        "streetTypeId": "RD",
        "placeName": "LISTOWEL",
        "streetNameDisplayText": "124 RD, LISTOWEL"
      },
      {
        "electoralDistricts": [
          {
            "election": null,
            "id": 85,
            "name": "Perth—Wellington"
          }
        ],
        "pollDivisionIds": [
          10135500
        ],
        "postalCode": "N4W3G9",
        "streetName": "129",
        "streetDirectionId": null,
        "streetTypeId": "RD",
        "placeName": "LISTOWEL",
        "streetNameDisplayText": "129 RD, LISTOWEL"
      },
      {
        "electoralDistricts": [
          {
            "election": null,
            "id": 85,
            "name": "Perth—Wellington"
          }
        ],
        "pollDivisionIds": [
          10135500
        ],
        "postalCode": "N4W3G9",
        "streetName": "131",
        "streetDirectionId": null,
        "streetTypeId": "RD",
        "placeName": "LISTOWEL",
        "streetNameDisplayText": "131 RD, LISTOWEL"
      },
      {
        "electoralDistricts": [
          {
            "election": null,
            "id": 85,
            "name": "Perth—Wellington"
          }
        ],
        "pollDivisionIds": [
          10135500
        ],
        "postalCode": "N4W3G9",
        "streetName": "136",
        "streetDirectionId": null,
        "streetTypeId": "RD",
        "placeName": "LISTOWEL",
        "streetNameDisplayText": "136 RD, LISTOWEL"
      },
      {
        "electoralDistricts": [
          {
            "election": null,
            "id": 85,
            "name": "Perth—Wellington"
          }
        ],
        "pollDivisionIds": [
          10135495
        ],
        "postalCode": "N4W3G9",
        "streetName": "147",
        "streetDirectionId": null,
        "streetTypeId": "RD",
        "placeName": "LISTOWEL",
        "streetNameDisplayText": "147 RD, LISTOWEL"
      },
      {
        "electoralDistricts": [
          {
            "election": null,
            "id": 85,
            "name": "Perth—Wellington"
          }
        ],
        "pollDivisionIds": [
          10135499,
          10135494,
          10135495
        ],
        "postalCode": "N4W3G9",
        "streetName": "158",
        "streetDirectionId": null,
        "streetTypeId": "RD",
        "placeName": "LISTOWEL",
        "streetNameDisplayText": "158 RD, LISTOWEL"
      },
      {
        "electoralDistricts": [
          {
            "election": null,
            "id": 85,
            "name": "Perth—Wellington"
          }
        ],
        "pollDivisionIds": [
          10135500
        ],
        "postalCode": "N4W3G9",
        "streetName": "80",
        "streetDirectionId": null,
        "streetTypeId": "LINE",
        "placeName": "LISTOWEL",
        "streetNameDisplayText": "80 LINE, LISTOWEL"
      },
      {
        "electoralDistricts": [
          {
            "election": null,
            "id": 85,
            "name": "Perth—Wellington"
          }
        ],
        "pollDivisionIds": [
          10135495,
          10135494
        ],
        "postalCode": "N4W3G9",
        "streetName": "81",
        "streetDirectionId": null,
        "streetTypeId": "LINE",
        "placeName": "LISTOWEL",
        "streetNameDisplayText": "81 LINE, LISTOWEL"
      },
      {
        "electoralDistricts": [
          {
            "election": null,
            "id": 85,
            "name": "Perth—Wellington"
          }
        ],
        "pollDivisionIds": [
          10135495
        ],
        "postalCode": "N4W3G9",
        "streetName": "82",
        "streetDirectionId": null,
        "streetTypeId": "LINE",
        "placeName": "LISTOWEL",
        "streetNameDisplayText": "82 LINE, LISTOWEL"
      },
      {
        "electoralDistricts": [
          {
            "election": null,
            "id": 85,
            "name": "Perth—Wellington"
          }
        ],
        "pollDivisionIds": [
          10135500
        ],
        "postalCode": "N4W3G9",
        "streetName": "83",
        "streetDirectionId": null,
        "streetTypeId": "LINE",
        "placeName": "LISTOWEL",
        "streetNameDisplayText": "83 LINE, LISTOWEL"
      },
      {
        "electoralDistricts": [
          {
            "election": null,
            "id": 85,
            "name": "Perth—Wellington"
          }
        ],
        "pollDivisionIds": [
          10135495
        ],
        "postalCode": "N4W3G9",
        "streetName": "84",
        "streetDirectionId": null,
        "streetTypeId": "LINE",
        "placeName": "LISTOWEL",
        "streetNameDisplayText": "84 LINE, LISTOWEL"
      },
      {
        "electoralDistricts": [
          {
            "election": null,
            "id": 85,
            "name": "Perth—Wellington"
          }
        ],
        "pollDivisionIds": [
          10135500
        ],
        "postalCode": "N4W3G9",
        "streetName": "COLONIAL",
        "streetDirectionId": null,
        "streetTypeId": "DR",
        "placeName": "LISTOWEL",
        "streetNameDisplayText": "COLONIAL DR, LISTOWEL"
      },
      {
        "electoralDistricts": [
          {
            "election": null,
            "id": 85,
            "name": "Perth—Wellington"
          }
        ],
        "pollDivisionIds": [
          10135494,
          10135495
        ],
        "postalCode": "N4W3G9",
        "streetName": "LINE 81",
        "streetDirectionId": null,
        "streetTypeId": null,
        "placeName": "LISTOWEL",
        "streetNameDisplayText": "LINE 81, LISTOWEL"
      },
      {
        "electoralDistricts": [
          {
            "election": null,
            "id": 85,
            "name": "Perth—Wellington"
          }
        ],
        "pollDivisionIds": [
          10135495
        ],
        "postalCode": "N4W3G9",
        "streetName": "LINE 82",
        "streetDirectionId": null,
        "streetTypeId": null,
        "placeName": "LISTOWEL",
        "streetNameDisplayText": "LINE 82, LISTOWEL"
      },
      {
        "electoralDistricts": [
          {
            "election": null,
            "id": 85,
            "name": "Perth—Wellington"
          }
        ],
        "pollDivisionIds": [
          10135500
        ],
        "postalCode": "N4W3G9",
        "streetName": "LINE 83",
        "streetDirectionId": null,
        "streetTypeId": null,
        "placeName": "LISTOWEL",
        "streetNameDisplayText": "LINE 83, LISTOWEL"
      },
      {
        "electoralDistricts": [
          {
            "election": null,
            "id": 85,
            "name": "Perth—Wellington"
          }
        ],
        "pollDivisionIds": [
          10135494,
          10135495
        ],
        "postalCode": "N4W3G9",
        "streetName": "LINE 84",
        "streetDirectionId": null,
        "streetTypeId": null,
        "placeName": "LISTOWEL",
        "streetNameDisplayText": "LINE 84, LISTOWEL"
      },
      {
        "electoralDistricts": [
          {
            "election": null,
            "id": 85,
            "name": "Perth—Wellington"
          }
        ],
        "pollDivisionIds": [
          10135500
        ],
        "postalCode": "N4W3G9",
        "streetName": "PERTH 131",
        "streetDirectionId": null,
        "streetTypeId": "RD",
        "placeName": "LISTOWEL",
        "streetNameDisplayText": "PERTH 131 RD, LISTOWEL"
      },
      {
        "electoralDistricts": [
          {
            "election": null,
            "id": 85,
            "name": "Perth—Wellington"
          }
        ],
        "pollDivisionIds": [
          10135495
        ],
        "postalCode": "N4W3G9",
        "streetName": "PERTH 147",
        "streetDirectionId": null,
        "streetTypeId": "RD",
        "placeName": "LISTOWEL",
        "streetNameDisplayText": "PERTH 147 RD, LISTOWEL"
      },
      {
        "electoralDistricts": [
          {
            "election": null,
            "id": 85,
            "name": "Perth—Wellington"
          }
        ],
        "pollDivisionIds": [
          10135495
        ],
        "postalCode": "N4W3G9",
        "streetName": "PERTH 86",
        "streetDirectionId": null,
        "streetTypeId": "LINE",
        "placeName": "LISTOWEL",
        "streetNameDisplayText": "PERTH 86 LINE, LISTOWEL"
      },
      {
        "electoralDistricts": [
          {
            "election": null,
            "id": 85,
            "name": "Perth—Wellington"
          }
        ],
        "pollDivisionIds": [
          10135500
        ],
        "postalCode": "N4W3G9",
        "streetName": "PERTH RD 140",
        "streetDirectionId": null,
        "streetTypeId": null,
        "placeName": "LISTOWEL",
        "streetNameDisplayText": "PERTH RD 140, LISTOWEL"
      },
      {
        "electoralDistricts": [
          {
            "election": null,
            "id": 85,
            "name": "Perth—Wellington"
          }
        ],
        "pollDivisionIds": [
          10135495
        ],
        "postalCode": "N4W3G9",
        "streetName": "PERTH",
        "streetDirectionId": null,
        "streetTypeId": "RD",
        "placeName": "LISTOWEL",
        "streetNameDisplayText": "PERTH RD, LISTOWEL"
      },
      {
        "electoralDistricts": [
          {
            "election": null,
            "id": 85,
            "name": "Perth—Wellington"
          }
        ],
        "pollDivisionIds": [
          10135500
        ],
        "postalCode": "N4W3G9",
        "streetName": "PERTH ROAD 140",
        "streetDirectionId": null,
        "streetTypeId": null,
        "placeName": "LISTOWEL",
        "streetNameDisplayText": "PERTH ROAD 140, LISTOWEL"
      },
      {
        "electoralDistricts": [
          {
            "election": null,
            "id": 48,
            "name": "Kitchener—Conestoga"
          }
        ],
        "pollDivisionIds": [
          10139253
        ],
        "postalCode": "N4W3G9",
        "streetName": "ROAD 116",
        "streetDirectionId": null,
        "streetTypeId": null,
        "placeName": "LISTOWEL",
        "streetNameDisplayText": "ROAD 116, LISTOWEL"
      },
      {
        "electoralDistricts": [
          {
            "election": null,
            "id": 85,
            "name": "Perth—Wellington"
          }
        ],
        "pollDivisionIds": [
          10135500
        ],
        "postalCode": "N4W3G9",
        "streetName": "ROAD 140",
        "streetDirectionId": null,
        "streetTypeId": null,
        "placeName": "LISTOWEL",
        "streetNameDisplayText": "ROAD 140, LISTOWEL"
      },
      {
        "electoralDistricts": [
          {
            "election": null,
            "id": 85,
            "name": "Perth—Wellington"
          }
        ],
        "pollDivisionIds": [
          10135494
        ],
        "postalCode": "N4W3G9",
        "streetName": "ROAD 147",
        "streetDirectionId": null,
        "streetTypeId": null,
        "placeName": "LISTOWEL",
        "streetNameDisplayText": "ROAD 147, LISTOWEL"
      },
      {
        "electoralDistricts": [
          {
            "election": null,
            "id": 85,
            "name": "Perth—Wellington"
          }
        ],
        "pollDivisionIds": [
          10135490,
          10135495
        ],
        "postalCode": "N4W3G9",
        "streetName": "TREMAINE",
        "streetDirectionId": "S",
        "streetTypeId": "AVE",
        "placeName": "LISTOWEL",
        "streetNameDisplayText": "TREMAINE AVE S, LISTOWEL"
      }
    ]
  },
  {
    "postal": "N4W0V7",
    "result": []
  },
  {
    "postal": "N4W2Z1",
    "result": [
      {
        "electoralDistricts": [
          {
            "election": null,
            "id": 85,
            "name": "Perth—Wellington"
          }
        ],
        "pollDivisionIds": [
          10135495
        ],
        "postalCode": "N4W2Z1",
        "streetName": "RICHMOND",
        "streetDirectionId": "N",
        "streetTypeId": "AVE",
        "placeName": "LISTOWEL",
        "streetNameDisplayText": "RICHMOND AVE N, LISTOWEL"
      }
    ]
  },
  {
    "postal": "N4W7N1",
    "result": []
  },
  {
    "postal": "N4W3C6",
    "result": [
      {
        "electoralDistricts": [
          {
            "election": null,
            "id": 85,
            "name": "Perth—Wellington"
          }
        ],
        "pollDivisionIds": [
          10135495
        ],
        "postalCode": "N4W3C6",
        "streetName": "HALSTEAD",
        "streetDirectionId": "N",
        "streetTypeId": "AVE",
        "placeName": "LISTOWEL",
        "streetNameDisplayText": "HALSTEAD AVE N, LISTOWEL"
      }
    ]
  },
  {
    "postal": "N4W4M1",
    "result": []
  },
  {
    "postal": "N4W9K2",
    "result": []
  },
  {
    "postal": "N4W9S6",
    "result": []
  },
  {
    "postal": "N4W4X1",
    "result": []
  },
  {
    "postal": "N4W8W2",
    "result": []
  },
  {
    "postal": "N4W7N2",
    "result": []
  },
  {
    "postal": "N4W8S3",
    "result": []
  },
  {
    "postal": "N4W4V0",
    "result": []
  },
  {
    "postal": "N4W6W4",
    "result": []
  },
  {
    "postal": "N4W5M1",
    "result": []
  },
  {
    "postal": "N4W0S4",
    "result": []
  },
  {
    "postal": "N4W5X6",
    "result": []
  },
  {
    "postal": "N4W8L5",
    "result": []
  },
  {
    "postal": "N4W5M8",
    "result": []
  },
  {
    "postal": "N4W2G3",
    "result": [
      {
        "electoralDistricts": [
          {
            "election": null,
            "id": 85,
            "name": "Perth—Wellington"
          }
        ],
        "pollDivisionIds": [
          10135495
        ],
        "postalCode": "N4W2G3",
        "streetName": "CLAYTON",
        "streetDirectionId": "E",
        "streetTypeId": "ST",
        "placeName": "LISTOWEL",
        "streetNameDisplayText": "CLAYTON ST E, LISTOWEL"
      }
    ]
  },
  {
    "postal": "N4W8E4",
    "result": []
  },
  {
    "postal": "N4W7S9",
    "result": []
  },
  {
    "postal": "N4W1K3",
    "result": [
      {
        "electoralDistricts": [
          {
            "election": null,
            "id": 85,
            "name": "Perth—Wellington"
          }
        ],
        "pollDivisionIds": [
          10135494
        ],
        "postalCode": "N4W1K3",
        "streetName": "JACKSON",
        "streetDirectionId": null,
        "streetTypeId": "CRES",
        "placeName": "LISTOWEL",
        "streetNameDisplayText": "JACKSON CRES, LISTOWEL"
      }
    ]
  },
  {
    "postal": "N4W4E1",
    "result": []
  },
  {
    "postal": "N4W4R2",
    "result": []
  },
  {
    "postal": "N4W6T0",
    "result": []
  },
  {
    "postal": "N4W3K5",
    "result": [
      {
        "electoralDistricts": [
          {
            "election": null,
            "id": 85,
            "name": "Perth—Wellington"
          }
        ],
        "pollDivisionIds": [
          10135494
        ],
        "postalCode": "N4W3K5",
        "streetName": "BOYNE",
        "streetDirectionId": "S",
        "streetTypeId": "AVE",
        "placeName": "LISTOWEL",
        "streetNameDisplayText": "BOYNE AVE S, LISTOWEL"
      },
      {
        "electoralDistricts": [
          {
            "election": null,
            "id": 85,
            "name": "Perth—Wellington"
          }
        ],
        "pollDivisionIds": [
          10135494
        ],
        "postalCode": "N4W3K5",
        "streetName": "BOYNE",
        "streetDirectionId": null,
        "streetTypeId": "AVE",
        "placeName": "LISTOWEL",
        "streetNameDisplayText": "BOYNE AVE, LISTOWEL"
      }
    ]
  },
  {
    "postal": "N4W3S3",
    "result": [
      {
        "electoralDistricts": [
          {
            "election": null,
            "id": 85,
            "name": "Perth—Wellington"
          }
        ],
        "pollDivisionIds": [
          10135495
        ],
        "postalCode": "N4W3S3",
        "streetName": "WINSTON",
        "streetDirectionId": "E",
        "streetTypeId": "ST",
        "placeName": "LISTOWEL",
        "streetNameDisplayText": "WINSTON ST E, LISTOWEL"
      }
    ]
  },
  {
    "postal": "N4W3L4",
    "result": []
  },
  {
    "postal": "N4W9Y2",
    "result": []
  },
  {
    "postal": "N4W1E0",
    "result": []
  },
  {
    "postal": "N4W9A4",
    "result": []
  },
  {
    "postal": "N4W1L3",
    "result": [
      {
        "electoralDistricts": [
          {
            "election": null,
            "id": 85,
            "name": "Perth—Wellington"
          }
        ],
        "pollDivisionIds": [
          10135495
        ],
        "postalCode": "N4W1L3",
        "streetName": "WALLACE",
        "streetDirectionId": "N",
        "streetTypeId": "AVE",
        "placeName": "LISTOWEL",
        "streetNameDisplayText": "WALLACE AVE N, LISTOWEL"
      }
    ]
  },
  {
    "postal": "N4W6N1",
    "result": []
  },
  {
    "postal": "N4W6G7",
    "result": []
  },
  {
    "postal": "N4W7W1",
    "result": []
  },
  {
    "postal": "N4W4M6",
    "result": []
  },
  {
    "postal": "N4W1K0",
    "result": []
  },
  {
    "postal": "N4W3E2",
    "result": [
      {
        "electoralDistricts": [
          {
            "election": null,
            "id": 85,
            "name": "Perth—Wellington"
          }
        ],
        "pollDivisionIds": [
          10135495
        ],
        "postalCode": "N4W3E2",
        "streetName": "NICHOL",
        "streetDirectionId": "N",
        "streetTypeId": "AVE",
        "placeName": "LISTOWEL",
        "streetNameDisplayText": "NICHOL AVE N, LISTOWEL"
      }
    ]
  },
  {
    "postal": "N4W5H4",
    "result": []
  },
  {
    "postal": "N4W1K7",
    "result": [
      {
        "electoralDistricts": [
          {
            "election": null,
            "id": 85,
            "name": "Perth—Wellington"
          }
        ],
        "pollDivisionIds": [
          10135495
        ],
        "postalCode": "N4W1K7",
        "streetName": "WALLACE",
        "streetDirectionId": "N",
        "streetTypeId": "AVE",
        "placeName": "LISTOWEL",
        "streetNameDisplayText": "WALLACE AVE N, LISTOWEL"
      },
      {
        "electoralDistricts": [
          {
            "election": null,
            "id": 85,
            "name": "Perth—Wellington"
          }
        ],
        "pollDivisionIds": [
          10135494
        ],
        "postalCode": "N4W1K7",
        "streetName": "WALLACE",
        "streetDirectionId": "S",
        "streetTypeId": "AVE",
        "placeName": "LISTOWEL",
        "streetNameDisplayText": "WALLACE AVE S, LISTOWEL"
      }
    ]
  },
  {
    "postal": "N4W0H0",
    "result": []
  },
  {
    "postal": "N4W0J3",
    "result": []
  },
  {
    "postal": "N4W1X6",
    "result": [
      {
        "electoralDistricts": [
          {
            "election": null,
            "id": 85,
            "name": "Perth—Wellington"
          }
        ],
        "pollDivisionIds": [
          10135494
        ],
        "postalCode": "N4W1X6",
        "streetName": "ERIE",
        "streetDirectionId": "W",
        "streetTypeId": "ST",
        "placeName": "LISTOWEL",
        "streetNameDisplayText": "ERIE ST W, LISTOWEL"
      }
    ]
  },
  {
    "postal": "N4W2Z6",
    "result": [
      {
        "electoralDistricts": [
          {
            "election": null,
            "id": 85,
            "name": "Perth—Wellington"
          }
        ],
        "pollDivisionIds": [
          10135494
        ],
        "postalCode": "N4W2Z6",
        "streetName": "RICHMOND",
        "streetDirectionId": "N",
        "streetTypeId": "AVE",
        "placeName": "LISTOWEL",
        "streetNameDisplayText": "RICHMOND AVE N, LISTOWEL"
      }
    ]
  },
  {
    "postal": "N4W4R9",
    "result": []
  },
  {
    "postal": "N4W0W8",
    "result": []
  },
  {
    "postal": "N4W1L4",
    "result": [
      {
        "electoralDistricts": [
          {
            "election": null,
            "id": 85,
            "name": "Perth—Wellington"
          }
        ],
        "pollDivisionIds": [
          10135495
        ],
        "postalCode": "N4W1L4",
        "streetName": "WALLACE",
        "streetDirectionId": "N",
        "streetTypeId": "AVE",
        "placeName": "LISTOWEL",
        "streetNameDisplayText": "WALLACE AVE N, LISTOWEL"
      },
      {
        "electoralDistricts": [
          {
            "election": null,
            "id": 85,
            "name": "Perth—Wellington"
          }
        ],
        "pollDivisionIds": [
          10135494
        ],
        "postalCode": "N4W1L4",
        "streetName": "WALLACE",
        "streetDirectionId": "S",
        "streetTypeId": "AVE",
        "placeName": "LISTOWEL",
        "streetNameDisplayText": "WALLACE AVE S, LISTOWEL"
      }
    ]
  },
  {
    "postal": "N4W0C8",
    "result": []
  },
  {
    "postal": "N4W9X7",
    "result": []
  },
  {
    "postal": "N4W4T1",
    "result": []
  },
  {
    "postal": "N4W0M0",
    "result": []
  },
  {
    "postal": "N4W6A2",
    "result": []
  },
  {
    "postal": "N4W9S8",
    "result": []
  },
  {
    "postal": "N4W9T4",
    "result": []
  },
  {
    "postal": "N4W9Y4",
    "result": []
  },
  {
    "postal": "N4W6G5",
    "result": []
  },
  {
    "postal": "N4W6H9",
    "result": []
  },
  {
    "postal": "N4W2P3",
    "result": [
      {
        "electoralDistricts": [
          {
            "election": null,
            "id": 85,
            "name": "Perth—Wellington"
          }
        ],
        "pollDivisionIds": [
          10135495
        ],
        "postalCode": "N4W2P3",
        "streetName": "INKERMAN",
        "streetDirectionId": "E",
        "streetTypeId": "ST",
        "placeName": "LISTOWEL",
        "streetNameDisplayText": "INKERMAN ST E, LISTOWEL"
      }
    ]
  },
  {
    "postal": "N4W1T6",
    "result": []
  },
  {
    "postal": "N4W4P6",
    "result": []
  },
  {
    "postal": "N4W3K1",
    "result": [
      {
        "electoralDistricts": [
          {
            "election": null,
            "id": 85,
            "name": "Perth—Wellington"
          }
        ],
        "pollDivisionIds": [
          10135494
        ],
        "postalCode": "N4W3K1",
        "streetName": "MCLAREN",
        "streetDirectionId": "N",
        "streetTypeId": "AVE",
        "placeName": "LISTOWEL",
        "streetNameDisplayText": "MCLAREN AVE N, LISTOWEL"
      }
    ]
  },
  {
    "postal": "N4W6X4",
    "result": []
  },
  {
    "postal": "N4W4M8",
    "result": []
  },
  {
    "postal": "N4W2Y1",
    "result": [
      {
        "electoralDistricts": [
          {
            "election": null,
            "id": 85,
            "name": "Perth—Wellington"
          }
        ],
        "pollDivisionIds": [
          10135494
        ],
        "postalCode": "N4W2Y1",
        "streetName": "YORK",
        "streetDirectionId": "N",
        "streetTypeId": "AVE",
        "placeName": "LISTOWEL",
        "streetNameDisplayText": "YORK AVE N, LISTOWEL"
      }
    ]
  },
  {
    "postal": "N4W6M1",
    "result": []
  },
  {
    "postal": "N4W5L8",
    "result": []
  },
  {
    "postal": "N4W3P6",
    "result": []
  },
  {
    "postal": "N4W9A5",
    "result": []
  },
  {
    "postal": "N4W7K1",
    "result": []
  },
  {
    "postal": "N4W3J4",
    "result": []
  },
  {
    "postal": "N4W5E7",
    "result": []
  },
  {
    "postal": "N4W3A7",
    "result": [
      {
        "electoralDistricts": [
          {
            "election": null,
            "id": 85,
            "name": "Perth—Wellington"
          }
        ],
        "pollDivisionIds": [
          10135495
        ],
        "postalCode": "N4W3A7",
        "streetName": "DAVIDSON",
        "streetDirectionId": "N",
        "streetTypeId": "AVE",
        "placeName": "LISTOWEL",
        "streetNameDisplayText": "DAVIDSON AVE N, LISTOWEL"
      }
    ]
  },
  {
    "postal": "N4W1B9",
    "result": []
  },
  {
    "postal": "N4W9E8",
    "result": []
  },
  {
    "postal": "N4W1C9",
    "result": [
      {
        "electoralDistricts": [
          {
            "election": null,
            "id": 85,
            "name": "Perth—Wellington"
          }
        ],
        "pollDivisionIds": [
          10135495
        ],
        "postalCode": "N4W1C9",
        "streetName": "ELIZABETH",
        "streetDirectionId": "W",
        "streetTypeId": "ST",
        "placeName": "LISTOWEL",
        "streetNameDisplayText": "ELIZABETH ST W, LISTOWEL"
      }
    ]
  },
  {
    "postal": "N4W3B5",
    "result": [
      {
        "electoralDistricts": [
          {
            "election": null,
            "id": 85,
            "name": "Perth—Wellington"
          }
        ],
        "pollDivisionIds": [
          10135495
        ],
        "postalCode": "N4W3B5",
        "streetName": "DAVIDSON",
        "streetDirectionId": "N",
        "streetTypeId": "AVE",
        "placeName": "LISTOWEL",
        "streetNameDisplayText": "DAVIDSON AVE N, LISTOWEL"
      }
    ]
  },
  {
    "postal": "N4W8R0",
    "result": []
  },
  {
    "postal": "N4W3P2",
    "result": [
      {
        "electoralDistricts": [
          {
            "election": null,
            "id": 85,
            "name": "Perth—Wellington"
          }
        ],
        "pollDivisionIds": [
          10135494
        ],
        "postalCode": "N4W3P2",
        "streetName": "LOUISE",
        "streetDirectionId": "N",
        "streetTypeId": "AVE",
        "placeName": "LISTOWEL",
        "streetNameDisplayText": "LOUISE AVE N, LISTOWEL"
      }
    ]
  },
  {
    "postal": "N4W5V4",
    "result": []
  },
  {
    "postal": "N4W4H0",
    "result": []
  },
  {
    "postal": "N4W4S7",
    "result": []
  },
  {
    "postal": "N4W6C2",
    "result": []
  },
  {
    "postal": "N4W8W3",
    "result": []
  },
  {
    "postal": "N4W4M5",
    "result": []
  },
  {
    "postal": "N4W5T1",
    "result": []
  },
  {
    "postal": "N4W3B3",
    "result": [
      {
        "electoralDistricts": [
          {
            "election": null,
            "id": 85,
            "name": "Perth—Wellington"
          }
        ],
        "pollDivisionIds": [
          10135494
        ],
        "postalCode": "N4W3B3",
        "streetName": "DAVIDSON",
        "streetDirectionId": "N",
        "streetTypeId": "AVE",
        "placeName": "LISTOWEL",
        "streetNameDisplayText": "DAVIDSON AVE N, LISTOWEL"
      }
    ]
  },
  {
    "postal": "N4W6C6",
    "result": []
  },
  {
    "postal": "N4W7N8",
    "result": []
  },
  {
    "postal": "N4W2Y3",
    "result": [
      {
        "electoralDistricts": [
          {
            "election": null,
            "id": 85,
            "name": "Perth—Wellington"
          }
        ],
        "pollDivisionIds": [
          10135494
        ],
        "postalCode": "N4W2Y3",
        "streetName": "YORK",
        "streetDirectionId": "N",
        "streetTypeId": "AVE",
        "placeName": "LISTOWEL",
        "streetNameDisplayText": "YORK AVE N, LISTOWEL"
      }
    ]
  },
  {
    "postal": "N4W2R6",
    "result": [
      {
        "electoralDistricts": [
          {
            "election": null,
            "id": 85,
            "name": "Perth—Wellington"
          }
        ],
        "pollDivisionIds": [
          10135495
        ],
        "postalCode": "N4W2R6",
        "streetName": "ELIZABETH",
        "streetDirectionId": "E",
        "streetTypeId": "ST",
        "placeName": "LISTOWEL",
        "streetNameDisplayText": "ELIZABETH ST E, LISTOWEL"
      }
    ]
  },
  {
    "postal": "N4W7N3",
    "result": []
  },
  {
    "postal": "N4W8J2",
    "result": []
  },
  {
    "postal": "N4W6A9",
    "result": []
  },
  {
    "postal": "N4W3V2",
    "result": [
      {
        "electoralDistricts": [
          {
            "election": null,
            "id": 85,
            "name": "Perth—Wellington"
          }
        ],
        "pollDivisionIds": [
          10135494
        ],
        "postalCode": "N4W3V2",
        "streetName": "BAMFORD",
        "streetDirectionId": null,
        "streetTypeId": "DR",
        "placeName": "LISTOWEL",
        "streetNameDisplayText": "BAMFORD DR, LISTOWEL"
      },
      {
        "electoralDistricts": [
          {
            "election": null,
            "id": 85,
            "name": "Perth—Wellington"
          }
        ],
        "pollDivisionIds": [
          10135494
        ],
        "postalCode": "N4W3V2",
        "streetName": "HUTTON",
        "streetDirectionId": "W",
        "streetTypeId": "ST",
        "placeName": "LISTOWEL",
        "streetNameDisplayText": "HUTTON ST W, LISTOWEL"
      },
      {
        "electoralDistricts": [
          {
            "election": null,
            "id": 85,
            "name": "Perth—Wellington"
          }
        ],
        "pollDivisionIds": [
          10135494
        ],
        "postalCode": "N4W3V2",
        "streetName": "SALISBURY",
        "streetDirectionId": "S",
        "streetTypeId": "AVE",
        "placeName": "LISTOWEL",
        "streetNameDisplayText": "SALISBURY AVE S, LISTOWEL"
      }
    ]
  },
  {
    "postal": "N4W2N3",
    "result": [
      {
        "electoralDistricts": [
          {
            "election": null,
            "id": 85,
            "name": "Perth—Wellington"
          }
        ],
        "pollDivisionIds": [
          10135495
        ],
        "postalCode": "N4W2N3",
        "streetName": "INKERMAN",
        "streetDirectionId": "E",
        "streetTypeId": "ST",
        "placeName": "LISTOWEL",
        "streetNameDisplayText": "INKERMAN ST E, LISTOWEL"
      }
    ]
  },
  {
    "postal": "N4W1S5",
    "result": [
      {
        "electoralDistricts": [
          {
            "election": null,
            "id": 85,
            "name": "Perth—Wellington"
          }
        ],
        "pollDivisionIds": [
          10135494
        ],
        "postalCode": "N4W1S5",
        "streetName": "BARBER",
        "streetDirectionId": "N",
        "streetTypeId": "AVE",
        "placeName": "LISTOWEL",
        "streetNameDisplayText": "BARBER AVE N, LISTOWEL"
      }
    ]
  },
  {
    "postal": "N4W4T7",
    "result": []
  },
  {
    "postal": "N4W6Y7",
    "result": []
  },
  {
    "postal": "N4W0W7",
    "result": []
  },
  {
    "postal": "N4W2W9",
    "result": [
      {
        "electoralDistricts": [
          {
            "election": null,
            "id": 85,
            "name": "Perth—Wellington"
          }
        ],
        "pollDivisionIds": [
          10135495
        ],
        "postalCode": "N4W2W9",
        "streetName": "MCKENZIE",
        "streetDirectionId": "E",
        "streetTypeId": "ST",
        "placeName": "LISTOWEL",
        "streetNameDisplayText": "MCKENZIE ST E, LISTOWEL"
      }
    ]
  },
  {
    "postal": "N4W8V0",
    "result": []
  },
  {
    "postal": "N4W0H4",
    "result": []
  },
  {
    "postal": "N4W2T1",
    "result": [
      {
        "electoralDistricts": [
          {
            "election": null,
            "id": 85,
            "name": "Perth—Wellington"
          }
        ],
        "pollDivisionIds": [
          10135495
        ],
        "postalCode": "N4W2T1",
        "streetName": "CAMPBELL",
        "streetDirectionId": "E",
        "streetTypeId": "ST",
        "placeName": "LISTOWEL",
        "streetNameDisplayText": "CAMPBELL ST E, LISTOWEL"
      }
    ]
  },
  {
    "postal": "N4W1B1",
    "result": [
      {
        "electoralDistricts": [
          {
            "election": null,
            "id": 85,
            "name": "Perth—Wellington"
          }
        ],
        "pollDivisionIds": [
          10135494
        ],
        "postalCode": "N4W1B1",
        "streetName": "MAIN",
        "streetDirectionId": "W",
        "streetTypeId": "ST",
        "placeName": "LISTOWEL",
        "streetNameDisplayText": "MAIN ST W, LISTOWEL"
      }
    ]
  },
  {
    "postal": "N4W8B6",
    "result": []
  },
  {
    "postal": "N4W6H1",
    "result": []
  },
  {
    "postal": "N4W8T8",
    "result": []
  },
  {
    "postal": "N4W0T4",
    "result": []
  },
  {
    "postal": "N4W2C4",
    "result": [
      {
        "electoralDistricts": [
          {
            "election": null,
            "id": 85,
            "name": "Perth—Wellington"
          }
        ],
        "pollDivisionIds": [
          10135495
        ],
        "postalCode": "N4W2C4",
        "streetName": "MAIN",
        "streetDirectionId": "E",
        "streetTypeId": "ST",
        "placeName": "LISTOWEL",
        "streetNameDisplayText": "MAIN ST E, LISTOWEL"
      }
    ]
  },
  {
    "postal": "N4W8N3",
    "result": []
  },
  {
    "postal": "N4W4L8",
    "result": []
  },
  {
    "postal": "N4W2B5",
    "result": [
      {
        "electoralDistricts": [
          {
            "election": null,
            "id": 85,
            "name": "Perth—Wellington"
          }
        ],
        "pollDivisionIds": [
          10135495
        ],
        "postalCode": "N4W2B5",
        "streetName": "MAIN",
        "streetDirectionId": "E",
        "streetTypeId": "ST",
        "placeName": "LISTOWEL",
        "streetNameDisplayText": "MAIN ST E, LISTOWEL"
      }
    ]
  },
  {
    "postal": "N4W3H1",
    "result": []
  },
  {
    "postal": "N4W4Y1",
    "result": []
  },
  {
    "postal": "N4W7E2",
    "result": []
  },
  {
    "postal": "N4W2P5",
    "result": [
      {
        "electoralDistricts": [
          {
            "election": null,
            "id": 85,
            "name": "Perth—Wellington"
          }
        ],
        "pollDivisionIds": [
          10135495
        ],
        "postalCode": "N4W2P5",
        "streetName": "ELIZABETH",
        "streetDirectionId": "E",
        "streetTypeId": "ST",
        "placeName": "LISTOWEL",
        "streetNameDisplayText": "ELIZABETH ST E, LISTOWEL"
      }
    ]
  },
  {
    "postal": "N4W8R7",
    "result": []
  },
  {
    "postal": "N4W9P1",
    "result": []
  },
  {
    "postal": "N4W3B8",
    "result": [
      {
        "electoralDistricts": [
          {
            "election": null,
            "id": 85,
            "name": "Perth—Wellington"
          }
        ],
        "pollDivisionIds": [
          10135495
        ],
        "postalCode": "N4W3B8",
        "streetName": "PARK",
        "streetDirectionId": "N",
        "streetTypeId": "AVE",
        "placeName": "LISTOWEL",
        "streetNameDisplayText": "PARK AVE N, LISTOWEL"
      }
    ]
  },
  {
    "postal": "N4W3P7",
    "result": []
  },
  {
    "postal": "N4W9B2",
    "result": []
  },
  {
    "postal": "N4W6Z3",
    "result": []
  },
  {
    "postal": "N4W4N5",
    "result": []
  },
  {
    "postal": "N4W8T3",
    "result": []
  },
  {
    "postal": "N4W1V2",
    "result": [
      {
        "electoralDistricts": [
          {
            "election": null,
            "id": 85,
            "name": "Perth—Wellington"
          }
        ],
        "pollDivisionIds": [
          10135494
        ],
        "postalCode": "N4W1V2",
        "streetName": "ALBERT",
        "streetDirectionId": "N",
        "streetTypeId": "AVE",
        "placeName": "LISTOWEL",
        "streetNameDisplayText": "ALBERT AVE N, LISTOWEL"
      }
    ]
  },
  {
    "postal": "N4W1Y0",
    "result": []
  },
  {
    "postal": "N4W3G6",
    "result": [
      {
        "electoralDistricts": [
          {
            "election": null,
            "id": 85,
            "name": "Perth—Wellington"
          }
        ],
        "pollDivisionIds": [
          10135494,
          10135495
        ],
        "postalCode": "N4W3G6",
        "streetName": "164",
        "streetDirectionId": null,
        "streetTypeId": "RD",
        "placeName": "LISTOWEL",
        "streetNameDisplayText": "164 RD, LISTOWEL"
      },
      {
        "electoralDistricts": [
          {
            "election": null,
            "id": 85,
            "name": "Perth—Wellington"
          }
        ],
        "pollDivisionIds": [
          10135494
        ],
        "postalCode": "N4W3G6",
        "streetName": "165",
        "streetDirectionId": null,
        "streetTypeId": "RD",
        "placeName": "LISTOWEL",
        "streetNameDisplayText": "165 RD, LISTOWEL"
      },
      {
        "electoralDistricts": [
          {
            "election": null,
            "id": 85,
            "name": "Perth—Wellington"
          }
        ],
        "pollDivisionIds": [
          10135494
        ],
        "postalCode": "N4W3G6",
        "streetName": "166",
        "streetDirectionId": null,
        "streetTypeId": "RD",
        "placeName": "LISTOWEL",
        "streetNameDisplayText": "166 RD, LISTOWEL"
      },
      {
        "electoralDistricts": [
          {
            "election": null,
            "id": 85,
            "name": "Perth—Wellington"
          }
        ],
        "pollDivisionIds": [
          10135494,
          10135493
        ],
        "postalCode": "N4W3G6",
        "streetName": "167",
        "streetDirectionId": null,
        "streetTypeId": "RD",
        "placeName": "LISTOWEL",
        "streetNameDisplayText": "167 RD, LISTOWEL"
      },
      {
        "electoralDistricts": [
          {
            "election": null,
            "id": 85,
            "name": "Perth—Wellington"
          }
        ],
        "pollDivisionIds": [
          10135493
        ],
        "postalCode": "N4W3G6",
        "streetName": "171",
        "streetDirectionId": null,
        "streetTypeId": "RD",
        "placeName": "LISTOWEL",
        "streetNameDisplayText": "171 RD, LISTOWEL"
      },
      {
        "electoralDistricts": [
          {
            "election": null,
            "id": 85,
            "name": "Perth—Wellington"
          }
        ],
        "pollDivisionIds": [
          10135494
        ],
        "postalCode": "N4W3G6",
        "streetName": "172",
        "streetDirectionId": null,
        "streetTypeId": "RD",
        "placeName": "LISTOWEL",
        "streetNameDisplayText": "172 RD, LISTOWEL"
      },
      {
        "electoralDistricts": [
          {
            "election": null,
            "id": 85,
            "name": "Perth—Wellington"
          }
        ],
        "pollDivisionIds": [
          10135493
        ],
        "postalCode": "N4W3G6",
        "streetName": "175",
        "streetDirectionId": null,
        "streetTypeId": "RD",
        "placeName": "LISTOWEL",
        "streetNameDisplayText": "175 RD, LISTOWEL"
      },
      {
        "electoralDistricts": [
          {
            "election": null,
            "id": 85,
            "name": "Perth—Wellington"
          }
        ],
        "pollDivisionIds": [
          10135493
        ],
        "postalCode": "N4W3G6",
        "streetName": "176",
        "streetDirectionId": null,
        "streetTypeId": "RD",
        "placeName": "LISTOWEL",
        "streetNameDisplayText": "176 RD, LISTOWEL"
      },
      {
        "electoralDistricts": [
          {
            "election": null,
            "id": 85,
            "name": "Perth—Wellington"
          }
        ],
        "pollDivisionIds": [
          10135493
        ],
        "postalCode": "N4W3G6",
        "streetName": "176 RD",
        "streetDirectionId": null,
        "streetTypeId": null,
        "placeName": "LISTOWEL",
        "streetNameDisplayText": "176 RD, LISTOWEL"
      },
      {
        "electoralDistricts": [
          {
            "election": null,
            "id": 85,
            "name": "Perth—Wellington"
          }
        ],
        "pollDivisionIds": [
          10135493
        ],
        "postalCode": "N4W3G6",
        "streetName": "177",
        "streetDirectionId": null,
        "streetTypeId": "RD",
        "placeName": "LISTOWEL",
        "streetNameDisplayText": "177 RD, LISTOWEL"
      },
      {
        "electoralDistricts": [
          {
            "election": null,
            "id": 85,
            "name": "Perth—Wellington"
          }
        ],
        "pollDivisionIds": [
          10135494
        ],
        "postalCode": "N4W3G6",
        "streetName": "23",
        "streetDirectionId": null,
        "streetTypeId": "HWY",
        "placeName": "GOWANSTOWN",
        "streetNameDisplayText": "23 HWY, GOWANSTOWN"
      },
      {
        "electoralDistricts": [
          {
            "election": null,
            "id": 85,
            "name": "Perth—Wellington"
          }
        ],
        "pollDivisionIds": [
          10135494
        ],
        "postalCode": "N4W3G6",
        "streetName": "23",
        "streetDirectionId": null,
        "streetTypeId": "HWY",
        "placeName": "LISTOWEL",
        "streetNameDisplayText": "23 HWY, LISTOWEL"
      },
      {
        "electoralDistricts": [
          {
            "election": null,
            "id": 85,
            "name": "Perth—Wellington"
          }
        ],
        "pollDivisionIds": [
          10135493,
          10135494
        ],
        "postalCode": "N4W3G6",
        "streetName": "86",
        "streetDirectionId": null,
        "streetTypeId": "HWY",
        "placeName": "LISTOWEL",
        "streetNameDisplayText": "86 HWY, LISTOWEL"
      },
      {
        "electoralDistricts": [
          {
            "election": null,
            "id": 85,
            "name": "Perth—Wellington"
          }
        ],
        "pollDivisionIds": [
          10135494,
          10135493
        ],
        "postalCode": "N4W3G6",
        "streetName": "87",
        "streetDirectionId": null,
        "streetTypeId": "LINE",
        "placeName": "LISTOWEL",
        "streetNameDisplayText": "87 LINE, LISTOWEL"
      },
      {
        "electoralDistricts": [
          {
            "election": null,
            "id": 42,
            "name": "Huron—Bruce"
          }
        ],
        "pollDivisionIds": [
          10138880
        ],
        "postalCode": "N4W3G6",
        "streetName": "AMBERLEY",
        "streetDirectionId": null,
        "streetTypeId": "RD",
        "placeName": "BLUEVALE",
        "streetNameDisplayText": "AMBERLEY RD, BLUEVALE"
      },
      {
        "electoralDistricts": [
          {
            "election": null,
            "id": 42,
            "name": "Huron—Bruce"
          }
        ],
        "pollDivisionIds": [
          10138880
        ],
        "postalCode": "N4W3G6",
        "streetName": "AMBERLEY",
        "streetDirectionId": null,
        "streetTypeId": "RD",
        "placeName": "LISTOWEL",
        "streetNameDisplayText": "AMBERLEY RD, LISTOWEL"
      },
      {
        "electoralDistricts": [
          {
            "election": null,
            "id": 85,
            "name": "Perth—Wellington"
          }
        ],
        "pollDivisionIds": [
          10135494
        ],
        "postalCode": "N4W3G6",
        "streetName": "FAIRLANE",
        "streetDirectionId": null,
        "streetTypeId": "RD",
        "placeName": "LISTOWEL",
        "streetNameDisplayText": "FAIRLANE RD, LISTOWEL"
      },
      {
        "electoralDistricts": [
          {
            "election": null,
            "id": 85,
            "name": "Perth—Wellington"
          },
          {
            "election": null,
            "id": 42,
            "name": "Huron—Bruce"
          }
        ],
        "pollDivisionIds": [
          10135493,
          10138880,
          10135494
        ],
        "postalCode": "N4W3G6",
        "streetName": "LINE 86",
        "streetDirectionId": null,
        "streetTypeId": null,
        "placeName": "LISTOWEL",
        "streetNameDisplayText": "LINE 86, LISTOWEL"
      },
      {
        "electoralDistricts": [
          {
            "election": null,
            "id": 42,
            "name": "Huron—Bruce"
          }
        ],
        "pollDivisionIds": [
          10138880
        ],
        "postalCode": "N4W3G6",
        "streetName": "MAPLE KEYS",
        "streetDirectionId": null,
        "streetTypeId": "LINE",
        "placeName": "LISTOWEL",
        "streetNameDisplayText": "MAPLE KEYS LINE, LISTOWEL"
      },
      {
        "electoralDistricts": [
          {
            "election": null,
            "id": 42,
            "name": "Huron—Bruce"
          }
        ],
        "pollDivisionIds": [
          10138880
        ],
        "postalCode": "N4W3G6",
        "streetName": "MOLESWORTH",
        "streetDirectionId": null,
        "streetTypeId": "LINE",
        "placeName": "LISTOWEL",
        "streetNameDisplayText": "MOLESWORTH LINE, LISTOWEL"
      },
      {
        "electoralDistricts": [
          {
            "election": null,
            "id": 85,
            "name": "Perth—Wellington"
          },
          {
            "election": null,
            "id": 42,
            "name": "Huron—Bruce"
          }
        ],
        "pollDivisionIds": [
          10135493,
          10135494,
          10138880
        ],
        "postalCode": "N4W3G6",
        "streetName": "PERTH 86",
        "streetDirectionId": null,
        "streetTypeId": "LINE",
        "placeName": "LISTOWEL",
        "streetNameDisplayText": "PERTH 86 LINE, LISTOWEL"
      },
      {
        "electoralDistricts": [
          {
            "election": null,
            "id": 42,
            "name": "Huron—Bruce"
          }
        ],
        "pollDivisionIds": [
          10138880
        ],
        "postalCode": "N4W3G6",
        "streetName": "PERTH LINE 86",
        "streetDirectionId": null,
        "streetTypeId": null,
        "placeName": "LISTOWEL",
        "streetNameDisplayText": "PERTH LINE 86, LISTOWEL"
      },
      {
        "electoralDistricts": [
          {
            "election": null,
            "id": 42,
            "name": "Huron—Bruce"
          }
        ],
        "pollDivisionIds": [
          10138880
        ],
        "postalCode": "N4W3G6",
        "streetName": "PERTH RD",
        "streetDirectionId": null,
        "streetTypeId": null,
        "placeName": "LISTOWEL",
        "streetNameDisplayText": "PERTH RD, LISTOWEL"
      },
      {
        "electoralDistricts": [
          {
            "election": null,
            "id": 42,
            "name": "Huron—Bruce"
          }
        ],
        "pollDivisionIds": [
          10138880
        ],
        "postalCode": "N4W3G6",
        "streetName": "RD 172",
        "streetDirectionId": null,
        "streetTypeId": null,
        "placeName": "LISTOWEL",
        "streetNameDisplayText": "RD 172, LISTOWEL"
      },
      {
        "electoralDistricts": [
          {
            "election": null,
            "id": 85,
            "name": "Perth—Wellington"
          }
        ],
        "pollDivisionIds": [
          10135494
        ],
        "postalCode": "N4W3G6",
        "streetName": "ROAD 165",
        "streetDirectionId": null,
        "streetTypeId": null,
        "placeName": "LISTOWEL",
        "streetNameDisplayText": "ROAD 165, LISTOWEL"
      },
      {
        "electoralDistricts": [
          {
            "election": null,
            "id": 85,
            "name": "Perth—Wellington"
          }
        ],
        "pollDivisionIds": [
          10135495
        ],
        "postalCode": "N4W3G6",
        "streetName": "RR4",
        "streetDirectionId": null,
        "streetTypeId": null,
        "placeName": "LISTOWEL",
        "streetNameDisplayText": "RR4, LISTOWEL"
      }
    ]
  },
  {
    "postal": "N4W3H7",
    "result": []
  },
  {
    "postal": "N4W7X8",
    "result": []
  },
  {
    "postal": "N4W0C7",
    "result": [
      {
        "electoralDistricts": [
          {
            "election": null,
            "id": 85,
            "name": "Perth—Wellington"
          }
        ],
        "pollDivisionIds": [
          10135494,
          10135490
        ],
        "postalCode": "N4W0C7",
        "streetName": "NELSON",
        "streetDirectionId": "S",
        "streetTypeId": "AVE",
        "placeName": "LISTOWEL",
        "streetNameDisplayText": "NELSON AVE S, LISTOWEL"
      }
    ]
  },
  {
    "postal": "N4W0W9",
    "result": []
  },
  {
    "postal": "N4W8E6",
    "result": []
  },
  {
    "postal": "N4W9Z8",
    "result": []
  },
  {
    "postal": "N4W3P4",
    "result": []
  },
  {
    "postal": "N4W6L8",
    "result": []
  },
  {
    "postal": "N4W2R4",
    "result": [
      {
        "electoralDistricts": [
          {
            "election": null,
            "id": 85,
            "name": "Perth—Wellington"
          }
        ],
        "pollDivisionIds": [
          10135495
        ],
        "postalCode": "N4W2R4",
        "streetName": "ELIZABETH",
        "streetDirectionId": "E",
        "streetTypeId": "ST",
        "placeName": "LISTOWEL",
        "streetNameDisplayText": "ELIZABETH ST E, LISTOWEL"
      }
    ]
  },
  {
    "postal": "N4W2W1",
    "result": [
      {
        "electoralDistricts": [
          {
            "election": null,
            "id": 85,
            "name": "Perth—Wellington"
          }
        ],
        "pollDivisionIds": [
          10135495
        ],
        "postalCode": "N4W2W1",
        "streetName": "BLAKE",
        "streetDirectionId": "E",
        "streetTypeId": "ST",
        "placeName": "LISTOWEL",
        "streetNameDisplayText": "BLAKE ST E, LISTOWEL"
      }
    ]
  },
  {
    "postal": "N4W9H8",
    "result": []
  },
  {
    "postal": "N4W8X9",
    "result": []
  },
  {
    "postal": "N4W7H4",
    "result": []
  },
  {
    "postal": "N4W3J1",
    "result": []
  },
  {
    "postal": "N4W1P4",
    "result": [
      {
        "electoralDistricts": [
          {
            "election": null,
            "id": 85,
            "name": "Perth—Wellington"
          }
        ],
        "pollDivisionIds": [
          10135494
        ],
        "postalCode": "N4W1P4",
        "streetName": "WINSTON",
        "streetDirectionId": null,
        "streetTypeId": "BLVD",
        "placeName": "LISTOWEL",
        "streetNameDisplayText": "WINSTON BLVD, LISTOWEL"
      }
    ]
  },
  {
    "postal": "N4W2A3",
    "result": [
      {
        "electoralDistricts": [
          {
            "election": null,
            "id": 85,
            "name": "Perth—Wellington"
          }
        ],
        "pollDivisionIds": [
          10135494
        ],
        "postalCode": "N4W2A3",
        "streetName": "HAVELOCK",
        "streetDirectionId": "S",
        "streetTypeId": "AVE",
        "placeName": "LISTOWEL",
        "streetNameDisplayText": "HAVELOCK AVE S, LISTOWEL"
      }
    ]
  },
  {
    "postal": "N4W0Z1",
    "result": []
  },
  {
    "postal": "N4W1C1",
    "result": [
      {
        "electoralDistricts": [
          {
            "election": null,
            "id": 85,
            "name": "Perth—Wellington"
          }
        ],
        "pollDivisionIds": [
          10135495
        ],
        "postalCode": "N4W1C1",
        "streetName": "INKERMAN",
        "streetDirectionId": "W",
        "streetTypeId": "ST",
        "placeName": "LISTOWEL",
        "streetNameDisplayText": "INKERMAN ST W, LISTOWEL"
      }
    ]
  },
  {
    "postal": "N4W0H3",
    "result": []
  },
  {
    "postal": "N4W7B0",
    "result": []
  },
  {
    "postal": "N4W5K2",
    "result": []
  },
  {
    "postal": "N4W1E9",
    "result": [
      {
        "electoralDistricts": [
          {
            "election": null,
            "id": 85,
            "name": "Perth—Wellington"
          }
        ],
        "pollDivisionIds": [
          10135495,
          10135494
        ],
        "postalCode": "N4W1E9",
        "streetName": "ELIZABETH",
        "streetDirectionId": "W",
        "streetTypeId": "ST",
        "placeName": "LISTOWEL",
        "streetNameDisplayText": "ELIZABETH ST W, LISTOWEL"
      },
      {
        "electoralDistricts": [
          {
            "election": null,
            "id": 85,
            "name": "Perth—Wellington"
          }
        ],
        "pollDivisionIds": [
          10135494
        ],
        "postalCode": "N4W1E9",
        "streetName": "ELIZABETH ST.",
        "streetDirectionId": "W",
        "streetTypeId": "ST",
        "placeName": "LISTOWEL",
        "streetNameDisplayText": "ELIZABETH ST. ST W, LISTOWEL"
      },
      {
        "electoralDistricts": [
          {
            "election": null,
            "id": 85,
            "name": "Perth—Wellington"
          }
        ],
        "pollDivisionIds": [
          10135494
        ],
        "postalCode": "N4W1E9",
        "streetName": "ELIZABETH ST.,",
        "streetDirectionId": "W",
        "streetTypeId": "ST",
        "placeName": "LISTOWEL",
        "streetNameDisplayText": "ELIZABETH ST., ST W, LISTOWEL"
      }
    ]
  },
  {
    "postal": "N4W9W7",
    "result": []
  },
  {
    "postal": "N4W5W6",
    "result": []
  },
  {
    "postal": "N4W6S6",
    "result": []
  },
  {
    "postal": "N4W2P8",
    "result": [
      {
        "electoralDistricts": [
          {
            "election": null,
            "id": 85,
            "name": "Perth—Wellington"
          }
        ],
        "pollDivisionIds": [
          10135495
        ],
        "postalCode": "N4W2P8",
        "streetName": "ELIZABETH",
        "streetDirectionId": "E",
        "streetTypeId": "ST",
        "placeName": "LISTOWEL",
        "streetNameDisplayText": "ELIZABETH ST E, LISTOWEL"
      }
    ]
  },
  {
    "postal": "N4W4P8",
    "result": []
  },
  {
    "postal": "N4W0V9",
    "result": []
  },
  {
    "postal": "N4W5Y2",
    "result": []
  },
  {
    "postal": "N4W7Z7",
    "result": []
  },
  {
    "postal": "N4W6Y8",
    "result": []
  },
  {
    "postal": "N4W2G7",
    "result": [
      {
        "electoralDistricts": [
          {
            "election": null,
            "id": 85,
            "name": "Perth—Wellington"
          }
        ],
        "pollDivisionIds": [
          10135495
        ],
        "postalCode": "N4W2G7",
        "streetName": "CLAYTON",
        "streetDirectionId": "E",
        "streetTypeId": "ST",
        "placeName": "LISTOWEL",
        "streetNameDisplayText": "CLAYTON ST E, LISTOWEL"
      }
    ]
  },
  {
    "postal": "N4W8C1",
    "result": []
  },
  {
    "postal": "N4W5C5",
    "result": []
  },
  {
    "postal": "N4W2X8",
    "result": [
      {
        "electoralDistricts": [
          {
            "election": null,
            "id": 85,
            "name": "Perth—Wellington"
          }
        ],
        "pollDivisionIds": [
          10135495
        ],
        "postalCode": "N4W2X8",
        "streetName": "YORK",
        "streetDirectionId": "N",
        "streetTypeId": "AVE",
        "placeName": "LISTOWEL",
        "streetNameDisplayText": "YORK AVE N, LISTOWEL"
      }
    ]
  },
  {
    "postal": "N4W1W5",
    "result": [
      {
        "electoralDistricts": [
          {
            "election": null,
            "id": 85,
            "name": "Perth—Wellington"
          }
        ],
        "pollDivisionIds": [
          10135494
        ],
        "postalCode": "N4W1W5",
        "streetName": "ELMA",
        "streetDirectionId": "W",
        "streetTypeId": "ST",
        "placeName": "LISTOWEL",
        "streetNameDisplayText": "ELMA ST W, LISTOWEL"
      }
    ]
  },
  {
    "postal": "N4W7G0",
    "result": []
  },
  {
    "postal": "N4W8J8",
    "result": []
  },
  {
    "postal": "N4W3Y0",
    "result": []
  },
  {
    "postal": "N4W9T7",
    "result": []
  },
  {
    "postal": "N4W5P4",
    "result": []
  },
  {
    "postal": "N4W4B0",
    "result": []
  },
  {
    "postal": "N4W9N8",
    "result": []
  },
  {
    "postal": "N4W4A7",
    "result": []
  },
  {
    "postal": "N4W4H9",
    "result": []
  },
  {
    "postal": "N4W6X1",
    "result": []
  },
  {
    "postal": "N4W9Y7",
    "result": []
  },
  {
    "postal": "N4W2Y5",
    "result": [
      {
        "electoralDistricts": [
          {
            "election": null,
            "id": 85,
            "name": "Perth—Wellington"
          }
        ],
        "pollDivisionIds": [
          10135495
        ],
        "postalCode": "N4W2Y5",
        "streetName": "YORK",
        "streetDirectionId": "N",
        "streetTypeId": "AVE",
        "placeName": "LISTOWEL",
        "streetNameDisplayText": "YORK AVE N, LISTOWEL"
      }
    ]
  },
  {
    "postal": "N4W8L7",
    "result": []
  },
  {
    "postal": "N4W2A8",
    "result": [
      {
        "electoralDistricts": [
          {
            "election": null,
            "id": 85,
            "name": "Perth—Wellington"
          }
        ],
        "pollDivisionIds": [
          10135494
        ],
        "postalCode": "N4W2A8",
        "streetName": "HAY",
        "streetDirectionId": "S",
        "streetTypeId": "AVE",
        "placeName": "LISTOWEL",
        "streetNameDisplayText": "HAY AVE S, LISTOWEL"
      }
    ]
  },
  {
    "postal": "N4W2K9",
    "result": [
      {
        "electoralDistricts": [
          {
            "election": null,
            "id": 85,
            "name": "Perth—Wellington"
          }
        ],
        "pollDivisionIds": [
          10135495
        ],
        "postalCode": "N4W2K9",
        "streetName": "RESERVE",
        "streetDirectionId": "S",
        "streetTypeId": "AVE",
        "placeName": "LISTOWEL",
        "streetNameDisplayText": "RESERVE AVE S, LISTOWEL"
      }
    ]
  },
  {
    "postal": "N4W3E5",
    "result": [
      {
        "electoralDistricts": [
          {
            "election": null,
            "id": 85,
            "name": "Perth—Wellington"
          }
        ],
        "pollDivisionIds": [
          10135495
        ],
        "postalCode": "N4W3E5",
        "streetName": "MAITLAND",
        "streetDirectionId": "N",
        "streetTypeId": "AVE",
        "placeName": "LISTOWEL",
        "streetNameDisplayText": "MAITLAND AVE N, LISTOWEL"
      }
    ]
  },
  {
    "postal": "N4W8N6",
    "result": []
  },
  {
    "postal": "N4W8J4",
    "result": []
  },
  {
    "postal": "N4W4R7",
    "result": []
  },
  {
    "postal": "N4W9K1",
    "result": []
  },
  {
    "postal": "N4W8E1",
    "result": []
  },
  {
    "postal": "N4W0R1",
    "result": []
  },
  {
    "postal": "N4W4J3",
    "result": []
  },
  {
    "postal": "N4W7E7",
    "result": []
  },
  {
    "postal": "N4W0J0",
    "result": []
  },
  {
    "postal": "N4W7R8",
    "result": []
  },
  {
    "postal": "N4W9X0",
    "result": []
  },
  {
    "postal": "N4W7P6",
    "result": []
  },
  {
    "postal": "N4W0R7",
    "result": []
  },
  {
    "postal": "N4W5W1",
    "result": []
  },
  {
    "postal": "N4W0K4",
    "result": []
  },
  {
    "postal": "N4W7N9",
    "result": []
  },
  {
    "postal": "N4W1N0",
    "result": []
  },
  {
    "postal": "N4W6P3",
    "result": []
  },
  {
    "postal": "N4W5A1",
    "result": []
  },
  {
    "postal": "N4W9M9",
    "result": []
  },
  {
    "postal": "N4W7T6",
    "result": []
  },
  {
    "postal": "N4W3X0",
    "result": []
  },
  {
    "postal": "N4W2T0",
    "result": []
  },
  {
    "postal": "N4W5X9",
    "result": []
  },
  {
    "postal": "N4W2R3",
    "result": [
      {
        "electoralDistricts": [
          {
            "election": null,
            "id": 85,
            "name": "Perth—Wellington"
          }
        ],
        "pollDivisionIds": [
          10135495
        ],
        "postalCode": "N4W2R3",
        "streetName": "ELIZABETH",
        "streetDirectionId": "E",
        "streetTypeId": "ST",
        "placeName": "LISTOWEL",
        "streetNameDisplayText": "ELIZABETH ST E, LISTOWEL"
      }
    ]
  },
  {
    "postal": "N4W5N2",
    "result": []
  },
  {
    "postal": "N4W4Y7",
    "result": []
  },
  {
    "postal": "N4W7M0",
    "result": []
  },
  {
    "postal": "N4W8P3",
    "result": []
  },
  {
    "postal": "N4W3N3",
    "result": []
  },
  {
    "postal": "N4W7S3",
    "result": []
  },
  {
    "postal": "N4W3V9",
    "result": [
      {
        "electoralDistricts": [
          {
            "election": null,
            "id": 85,
            "name": "Perth—Wellington"
          }
        ],
        "pollDivisionIds": [
          10135490,
          10135494
        ],
        "postalCode": "N4W3V9",
        "streetName": "BARNETT",
        "streetDirectionId": null,
        "streetTypeId": "ST",
        "placeName": "LISTOWEL",
        "streetNameDisplayText": "BARNETT ST, LISTOWEL"
      }
    ]
  },
  {
    "postal": "N4W9N7",
    "result": []
  },
  {
    "postal": "N4W0G4",
    "result": [
      {
        "electoralDistricts": [
          {
            "election": null,
            "id": 85,
            "name": "Perth—Wellington"
          }
        ],
        "pollDivisionIds": [
          10135495,
          10135494
        ],
        "postalCode": "N4W0G4",
        "streetName": "NELSON",
        "streetDirectionId": "S",
        "streetTypeId": "AVE",
        "placeName": "LISTOWEL",
        "streetNameDisplayText": "NELSON AVE S, LISTOWEL"
      }
    ]
  },
  {
    "postal": "N4W2E2",
    "result": [
      {
        "electoralDistricts": [
          {
            "election": null,
            "id": 85,
            "name": "Perth—Wellington"
          }
        ],
        "pollDivisionIds": [
          10135494
        ],
        "postalCode": "N4W2E2",
        "streetName": "ELMA",
        "streetDirectionId": "E",
        "streetTypeId": "ST",
        "placeName": "LISTOWEL",
        "streetNameDisplayText": "ELMA ST E, LISTOWEL"
      }
    ]
  },
  {
    "postal": "N4W7W8",
    "result": []
  },
  {
    "postal": "N4W7M5",
    "result": []
  },
  {
    "postal": "N4W5W8",
    "result": []
  },
  {
    "postal": "N4W5E5",
    "result": []
  },
  {
    "postal": "N4W1P9",
    "result": [
      {
        "electoralDistricts": [
          {
            "election": null,
            "id": 85,
            "name": "Perth—Wellington"
          }
        ],
        "pollDivisionIds": [
          10135495
        ],
        "postalCode": "N4W1P9",
        "streetName": "LIVINGSTONE AVE N",
        "streetDirectionId": "N",
        "streetTypeId": "AVE",
        "placeName": "LISTOWEL",
        "streetNameDisplayText": "LIVINGSTONE AVE N AVE N, LISTOWEL"
      },
      {
        "electoralDistricts": [
          {
            "election": null,
            "id": 85,
            "name": "Perth—Wellington"
          }
        ],
        "pollDivisionIds": [
          10135495
        ],
        "postalCode": "N4W1P9",
        "streetName": "LIVINGSTONE",
        "streetDirectionId": "N",
        "streetTypeId": "AVE",
        "placeName": "LISTOWEL",
        "streetNameDisplayText": "LIVINGSTONE AVE N, LISTOWEL"
      }
    ]
  },
  {
    "postal": "N4W8V8",
    "result": []
  },
  {
    "postal": "N4W9G8",
    "result": []
  },
  {
    "postal": "N4W8H9",
    "result": []
  },
  {
    "postal": "N4W1Z1",
    "result": [
      {
        "electoralDistricts": [
          {
            "election": null,
            "id": 85,
            "name": "Perth—Wellington"
          }
        ],
        "pollDivisionIds": [
          10135494
        ],
        "postalCode": "N4W1Z1",
        "streetName": "RICHILEAU",
        "streetDirectionId": "S",
        "streetTypeId": "AVE",
        "placeName": "LISTOWEL",
        "streetNameDisplayText": "RICHILEAU AVE S, LISTOWEL"
      }
    ]
  },
  {
    "postal": "N4W8M3",
    "result": []
  },
  {
    "postal": "N4W5H6",
    "result": []
  },
  {
    "postal": "N4W7W7",
    "result": []
  },
  {
    "postal": "N4W4L0",
    "result": []
  },
  {
    "postal": "N4W2N1",
    "result": [
      {
        "electoralDistricts": [
          {
            "election": null,
            "id": 85,
            "name": "Perth—Wellington"
          }
        ],
        "pollDivisionIds": [
          10135495
        ],
        "postalCode": "N4W2N1",
        "streetName": "INKERMAN",
        "streetDirectionId": "E",
        "streetTypeId": "ST",
        "placeName": "LISTOWEL",
        "streetNameDisplayText": "INKERMAN ST E, LISTOWEL"
      }
    ]
  },
  {
    "postal": "N4W2H4",
    "result": [
      {
        "electoralDistricts": [
          {
            "election": null,
            "id": 85,
            "name": "Perth—Wellington"
          }
        ],
        "pollDivisionIds": [
          10135495
        ],
        "postalCode": "N4W2H4",
        "streetName": "JOHN ROSA",
        "streetDirectionId": "E",
        "streetTypeId": "ST",
        "placeName": "LISTOWEL",
        "streetNameDisplayText": "JOHN ROSA ST E, LISTOWEL"
      }
    ]
  },
  {
    "postal": "N4W5C8",
    "result": []
  },
  {
    "postal": "N4W8B0",
    "result": []
  },
  {
    "postal": "N4W1T4",
    "result": [
      {
        "electoralDistricts": [
          {
            "election": null,
            "id": 85,
            "name": "Perth—Wellington"
          }
        ],
        "pollDivisionIds": [
          10135494
        ],
        "postalCode": "N4W1T4",
        "streetName": "EDWARD",
        "streetDirectionId": "N",
        "streetTypeId": "AVE",
        "placeName": "LISTOWEL",
        "streetNameDisplayText": "EDWARD AVE N, LISTOWEL"
      }
    ]
  },
  {
    "postal": "N4W7N7",
    "result": []
  },
  {
    "postal": "N4W4L3",
    "result": []
  },
  {
    "postal": "N4W2N2",
    "result": [
      {
        "electoralDistricts": [
          {
            "election": null,
            "id": 85,
            "name": "Perth—Wellington"
          }
        ],
        "pollDivisionIds": [
          10135495
        ],
        "postalCode": "N4W2N2",
        "streetName": "INKERMAN",
        "streetDirectionId": "E",
        "streetTypeId": "ST",
        "placeName": "LISTOWEL",
        "streetNameDisplayText": "INKERMAN ST E, LISTOWEL"
      }
    ]
  },
  {
    "postal": "N4W4N8",
    "result": []
  },
  {
    "postal": "N4W3M5",
    "result": []
  },
  {
    "postal": "N4W6H7",
    "result": []
  },
  {
    "postal": "N4W8Y8",
    "result": []
  },
  {
    "postal": "N4W5R9",
    "result": []
  },
  {
    "postal": "N4W8G3",
    "result": []
  },
  {
    "postal": "N4W4N7",
    "result": []
  },
  {
    "postal": "N4W0B9",
    "result": [
      {
        "electoralDistricts": [
          {
            "election": null,
            "id": 85,
            "name": "Perth—Wellington"
          }
        ],
        "pollDivisionIds": [
          10135495
        ],
        "postalCode": "N4W0B9",
        "streetName": "FORBES",
        "streetDirectionId": null,
        "streetTypeId": "CRES",
        "placeName": "LISTOWEL",
        "streetNameDisplayText": "FORBES CRES, LISTOWEL"
      }
    ]
  },
  {
    "postal": "N4W9K7",
    "result": []
  },
  {
    "postal": "N4W9K9",
    "result": []
  },
  {
    "postal": "N4W3Z2",
    "result": []
  },
  {
    "postal": "N4W6W7",
    "result": []
  },
  {
    "postal": "N4W0P1",
    "result": []
  },
  {
    "postal": "N4W3A0",
    "result": []
  },
  {
    "postal": "N4W8L9",
    "result": []
  },
  {
    "postal": "N4W6X0",
    "result": []
  },
  {
    "postal": "N4W3E9",
    "result": [
      {
        "electoralDistricts": [
          {
            "election": null,
            "id": 85,
            "name": "Perth—Wellington"
          }
        ],
        "pollDivisionIds": [
          10135495
        ],
        "postalCode": "N4W3E9",
        "streetName": "ELM",
        "streetDirectionId": "N",
        "streetTypeId": "AVE",
        "placeName": "LISTOWEL",
        "streetNameDisplayText": "ELM AVE N, LISTOWEL"
      }
    ]
  },
  {
    "postal": "N4W0S5",
    "result": []
  },
  {
    "postal": "N4W1A2",
    "result": [
      {
        "electoralDistricts": [
          {
            "election": null,
            "id": 85,
            "name": "Perth—Wellington"
          }
        ],
        "pollDivisionIds": [
          10135495
        ],
        "postalCode": "N4W1A2",
        "streetName": "MAIN",
        "streetDirectionId": "W",
        "streetTypeId": "ST",
        "placeName": "LISTOWEL",
        "streetNameDisplayText": "MAIN ST W, LISTOWEL"
      }
    ]
  },
  {
    "postal": "N4W5V8",
    "result": []
  },
  {
    "postal": "N4W8C5",
    "result": []
  },
  {
    "postal": "N4W6N0",
    "result": []
  },
  {
    "postal": "N4W9E6",
    "result": []
  },
  {
    "postal": "N4W5J7",
    "result": []
  },
  {
    "postal": "N4W2R2",
    "result": [
      {
        "electoralDistricts": [
          {
            "election": null,
            "id": 85,
            "name": "Perth—Wellington"
          }
        ],
        "pollDivisionIds": [
          10135495
        ],
        "postalCode": "N4W2R2",
        "streetName": "ELIZABETH",
        "streetDirectionId": "E",
        "streetTypeId": "ST",
        "placeName": "LISTOWEL",
        "streetNameDisplayText": "ELIZABETH ST E, LISTOWEL"
      }
    ]
  },
  {
    "postal": "N4W0P5",
    "result": []
  },
  {
    "postal": "N4W5A7",
    "result": []
  },
  {
    "postal": "N4W1G1",
    "result": [
      {
        "electoralDistricts": [
          {
            "election": null,
            "id": 85,
            "name": "Perth—Wellington"
          }
        ],
        "pollDivisionIds": [
          10135494
        ],
        "postalCode": "N4W1G1",
        "streetName": "ELIZABETH",
        "streetDirectionId": "W",
        "streetTypeId": "ST",
        "placeName": "LISTOWEL",
        "streetNameDisplayText": "ELIZABETH ST W, LISTOWEL"
      }
    ]
  },
  {
    "postal": "N4W9R6",
    "result": []
  },
  {
    "postal": "N4W4Z9",
    "result": []
  },
  {
    "postal": "N4W1V5",
    "result": [
      {
        "electoralDistricts": [
          {
            "election": null,
            "id": 85,
            "name": "Perth—Wellington"
          }
        ],
        "pollDivisionIds": [
          10135494
        ],
        "postalCode": "N4W1V5",
        "streetName": "ALBERT",
        "streetDirectionId": "N",
        "streetTypeId": "AVE",
        "placeName": "LISTOWEL",
        "streetNameDisplayText": "ALBERT AVE N, LISTOWEL"
      }
    ]
  },
  {
    "postal": "N4W9Y5",
    "result": []
  },
  {
    "postal": "N4W1P2",
    "result": [
      {
        "electoralDistricts": [
          {
            "election": null,
            "id": 85,
            "name": "Perth—Wellington"
          }
        ],
        "pollDivisionIds": [
          10135494
        ],
        "postalCode": "N4W1P2",
        "streetName": "WINSTON",
        "streetDirectionId": null,
        "streetTypeId": "BLVD",
        "placeName": "LISTOWEL",
        "streetNameDisplayText": "WINSTON BLVD, LISTOWEL"
      }
    ]
  },
  {
    "postal": "N4W5X0",
    "result": []
  },
  {
    "postal": "N4W7B8",
    "result": []
  },
  {
    "postal": "N4W0C6",
    "result": [
      {
        "electoralDistricts": [
          {
            "election": null,
            "id": 85,
            "name": "Perth—Wellington"
          }
        ],
        "pollDivisionIds": [
          10135490
        ],
        "postalCode": "N4W0C6",
        "streetName": "WALLACE",
        "streetDirectionId": "S",
        "streetTypeId": "AVE",
        "placeName": "ATWOOD",
        "streetNameDisplayText": "WALLACE AVE S, ATWOOD"
      },
      {
        "electoralDistricts": [
          {
            "election": null,
            "id": 85,
            "name": "Perth—Wellington"
          }
        ],
        "pollDivisionIds": [
          10135494
        ],
        "postalCode": "N4W0C6",
        "streetName": "WALLACE",
        "streetDirectionId": "S",
        "streetTypeId": "AVE",
        "placeName": "LISTOWEL",
        "streetNameDisplayText": "WALLACE AVE S, LISTOWEL"
      }
    ]
  },
  {
    "postal": "N4W6G1",
    "result": []
  },
  {
    "postal": "N4W3K3",
    "result": [
      {
        "electoralDistricts": [
          {
            "election": null,
            "id": 85,
            "name": "Perth—Wellington"
          }
        ],
        "pollDivisionIds": [
          10135494
        ],
        "postalCode": "N4W3K3",
        "streetName": "VICTORIA",
        "streetDirectionId": "S",
        "streetTypeId": "AVE",
        "placeName": "LISTOWEL",
        "streetNameDisplayText": "VICTORIA AVE S, LISTOWEL"
      }
    ]
  },
  {
    "postal": "N4W9R0",
    "result": []
  },
  {
    "postal": "N4W4R8",
    "result": []
  },
  {
    "postal": "N4W5P9",
    "result": []
  },
  {
    "postal": "N4W8N4",
    "result": []
  },
  {
    "postal": "N4W8H4",
    "result": []
  },
  {
    "postal": "N4W4V1",
    "result": []
  },
  {
    "postal": "N4W1K5",
    "result": [
      {
        "electoralDistricts": [
          {
            "election": null,
            "id": 85,
            "name": "Perth—Wellington"
          }
        ],
        "pollDivisionIds": [
          10135494
        ],
        "postalCode": "N4W1K5",
        "streetName": "MCDONALD",
        "streetDirectionId": "W",
        "streetTypeId": "ST",
        "placeName": "LISTOWEL",
        "streetNameDisplayText": "MCDONALD ST W, LISTOWEL"
      }
    ]
  },
  {
    "postal": "N4W1Z5",
    "result": []
  },
  {
    "postal": "N4W9L9",
    "result": []
  },
  {
    "postal": "N4W5L2",
    "result": []
  },
  {
    "postal": "N4W0M2",
    "result": []
  },
  {
    "postal": "N4W1K8",
    "result": [
      {
        "electoralDistricts": [
          {
            "election": null,
            "id": 85,
            "name": "Perth—Wellington"
          }
        ],
        "pollDivisionIds": [
          10135495
        ],
        "postalCode": "N4W1K8",
        "streetName": "WALLACE",
        "streetDirectionId": "N",
        "streetTypeId": "AVE",
        "placeName": "LISTOWEL",
        "streetNameDisplayText": "WALLACE AVE N, LISTOWEL"
      }
    ]
  },
  {
    "postal": "N4W3M7",
    "result": [
      {
        "electoralDistricts": [
          {
            "election": null,
            "id": 85,
            "name": "Perth—Wellington"
          }
        ],
        "pollDivisionIds": [
          10135495
        ],
        "postalCode": "N4W3M7",
        "streetName": "NICHOL",
        "streetDirectionId": "S",
        "streetTypeId": "AVE",
        "placeName": "LISTOWEL",
        "streetNameDisplayText": "NICHOL AVE S, LISTOWEL"
      }
    ]
  },
  {
    "postal": "N4W1B2",
    "result": [
      {
        "electoralDistricts": [
          {
            "election": null,
            "id": 85,
            "name": "Perth—Wellington"
          }
        ],
        "pollDivisionIds": [
          10135494
        ],
        "postalCode": "N4W1B2",
        "streetName": "MAIN",
        "streetDirectionId": "W",
        "streetTypeId": "ST",
        "placeName": "LISTOWEL",
        "streetNameDisplayText": "MAIN ST W, LISTOWEL"
      }
    ]
  },
  {
    "postal": "N4W0H9",
    "result": []
  },
  {
    "postal": "N4W8M4",
    "result": []
  },
  {
    "postal": "N4W2M5",
    "result": [
      {
        "electoralDistricts": [
          {
            "election": null,
            "id": 85,
            "name": "Perth—Wellington"
          }
        ],
        "pollDivisionIds": [
          10135495
        ],
        "postalCode": "N4W2M5",
        "streetName": "MAITLAND",
        "streetDirectionId": "S",
        "streetTypeId": "AVE",
        "placeName": "LISTOWEL",
        "streetNameDisplayText": "MAITLAND AVE S, LISTOWEL"
      }
    ]
  },
  {
    "postal": "N4W0T9",
    "result": []
  },
  {
    "postal": "N4W3P1",
    "result": []
  },
  {
    "postal": "N4W1R6",
    "result": [
      {
        "electoralDistricts": [
          {
            "election": null,
            "id": 85,
            "name": "Perth—Wellington"
          }
        ],
        "pollDivisionIds": [
          10135495
        ],
        "postalCode": "N4W1R6",
        "streetName": "BARBER",
        "streetDirectionId": "N",
        "streetTypeId": "AVE",
        "placeName": "LISTOWEL",
        "streetNameDisplayText": "BARBER AVE N, LISTOWEL"
      }
    ]
  },
  {
    "postal": "N4W9V5",
    "result": []
  },
  {
    "postal": "N4W9T0",
    "result": []
  },
  {
    "postal": "N4W0A9",
    "result": [
      {
        "electoralDistricts": [
          {
            "election": null,
            "id": 85,
            "name": "Perth—Wellington"
          }
        ],
        "pollDivisionIds": [
          10135495
        ],
        "postalCode": "N4W0A9",
        "streetName": "PARKMEADOW",
        "streetDirectionId": null,
        "streetTypeId": "PL",
        "placeName": "LISTOWEL",
        "streetNameDisplayText": "PARKMEADOW PL, LISTOWEL"
      },
      {
        "electoralDistricts": [
          {
            "election": null,
            "id": 85,
            "name": "Perth—Wellington"
          }
        ],
        "pollDivisionIds": [
          10135495
        ],
        "postalCode": "N4W0A9",
        "streetName": "PARKMEADOW",
        "streetDirectionId": null,
        "streetTypeId": "PLACE",
        "placeName": "LISTOWEL",
        "streetNameDisplayText": "PARKMEADOW PLACE, LISTOWEL"
      }
    ]
  },
  {
    "postal": "N4W1M3",
    "result": [
      {
        "electoralDistricts": [
          {
            "election": null,
            "id": 85,
            "name": "Perth—Wellington"
          }
        ],
        "pollDivisionIds": [
          10135494
        ],
        "postalCode": "N4W1M3",
        "streetName": "WALLACE",
        "streetDirectionId": "N",
        "streetTypeId": "AVE",
        "placeName": "LISTOWEL",
        "streetNameDisplayText": "WALLACE AVE N, LISTOWEL"
      }
    ]
  },
  {
    "postal": "N4W1W8",
    "result": [
      {
        "electoralDistricts": [
          {
            "election": null,
            "id": 85,
            "name": "Perth—Wellington"
          }
        ],
        "pollDivisionIds": [
          10135494
        ],
        "postalCode": "N4W1W8",
        "streetName": "ELMA",
        "streetDirectionId": "W",
        "streetTypeId": "ST",
        "placeName": "LISTOWEL",
        "streetNameDisplayText": "ELMA ST W, LISTOWEL"
      }
    ]
  },
  {
    "postal": "N4W9J1",
    "result": []
  },
  {
    "postal": "N4W8N5",
    "result": []
  },
  {
    "postal": "N4W5X1",
    "result": []
  },
  {
    "postal": "N4W6S2",
    "result": []
  },
  {
    "postal": "N4W2A2",
    "result": [
      {
        "electoralDistricts": [
          {
            "election": null,
            "id": 85,
            "name": "Perth—Wellington"
          }
        ],
        "pollDivisionIds": [
          10135495
        ],
        "postalCode": "N4W2A2",
        "streetName": "NICHOL",
        "streetDirectionId": "S",
        "streetTypeId": "AVE",
        "placeName": "LISTOWEL",
        "streetNameDisplayText": "NICHOL AVE S, LISTOWEL"
      },
      {
        "electoralDistricts": [
          {
            "election": null,
            "id": 85,
            "name": "Perth—Wellington"
          }
        ],
        "pollDivisionIds": [
          10135494
        ],
        "postalCode": "N4W2A2",
        "streetName": "VICTORIA",
        "streetDirectionId": "S",
        "streetTypeId": "AVE",
        "placeName": "LISTOWEL",
        "streetNameDisplayText": "VICTORIA AVE S, LISTOWEL"
      }
    ]
  },
  {
    "postal": "N4W6A6",
    "result": []
  },
  {
    "postal": "N4W0S3",
    "result": []
  },
  {
    "postal": "N4W3E7",
    "result": [
      {
        "electoralDistricts": [
          {
            "election": null,
            "id": 85,
            "name": "Perth—Wellington"
          }
        ],
        "pollDivisionIds": [
          10135495
        ],
        "postalCode": "N4W3E7",
        "streetName": "ELM",
        "streetDirectionId": "N",
        "streetTypeId": "AVE",
        "placeName": "LISTOWEL",
        "streetNameDisplayText": "ELM AVE N, LISTOWEL"
      }
    ]
  },
  {
    "postal": "N4W5R7",
    "result": []
  },
  {
    "postal": "N4W3R6",
    "result": [
      {
        "electoralDistricts": [
          {
            "election": null,
            "id": 85,
            "name": "Perth—Wellington"
          }
        ],
        "pollDivisionIds": [
          10135494
        ],
        "postalCode": "N4W3R6",
        "streetName": "RIVERVIEW",
        "streetDirectionId": null,
        "streetTypeId": "DR",
        "placeName": "LISTOWEL",
        "streetNameDisplayText": "RIVERVIEW DR, LISTOWEL"
      }
    ]
  },
  {
    "postal": "N4W6K4",
    "result": []
  },
  {
    "postal": "N4W2W5",
    "result": []
  },
  {
    "postal": "N4W8W4",
    "result": []
  },
  {
    "postal": "N4W9C2",
    "result": []
  },
  {
    "postal": "N4W2C0",
    "result": []
  },
  {
    "postal": "N4W0E1",
    "result": [
      {
        "electoralDistricts": [
          {
            "election": null,
            "id": 85,
            "name": "Perth—Wellington"
          }
        ],
        "pollDivisionIds": [
          10135494
        ],
        "postalCode": "N4W0E1",
        "streetName": "KROTZ",
        "streetDirectionId": "W",
        "streetTypeId": "ST",
        "placeName": "LISTOWEL",
        "streetNameDisplayText": "KROTZ ST W, LISTOWEL"
      }
    ]
  },
  {
    "postal": "N4W1K9",
    "result": [
      {
        "electoralDistricts": [
          {
            "election": null,
            "id": 85,
            "name": "Perth—Wellington"
          }
        ],
        "pollDivisionIds": [
          10135495
        ],
        "postalCode": "N4W1K9",
        "streetName": "WALLACE",
        "streetDirectionId": "N",
        "streetTypeId": "AVE",
        "placeName": "LISTOWEL",
        "streetNameDisplayText": "WALLACE AVE N, LISTOWEL"
      }
    ]
  },
  {
    "postal": "N4W1G7",
    "result": [
      {
        "electoralDistricts": [
          {
            "election": null,
            "id": 85,
            "name": "Perth—Wellington"
          }
        ],
        "pollDivisionIds": [
          10135494
        ],
        "postalCode": "N4W1G7",
        "streetName": "BINNING",
        "streetDirectionId": "W",
        "streetTypeId": "ST",
        "placeName": "LISTOWEL",
        "streetNameDisplayText": "BINNING ST W, LISTOWEL"
      }
    ]
  },
  {
    "postal": "N4W4E9",
    "result": []
  },
  {
    "postal": "N4W9P0",
    "result": []
  },
  {
    "postal": "N4W5H3",
    "result": []
  },
  {
    "postal": "N4W9X6",
    "result": []
  },
  {
    "postal": "N4W5N7",
    "result": []
  },
  {
    "postal": "N4W5A6",
    "result": []
  },
  {
    "postal": "N4W4M0",
    "result": []
  },
  {
    "postal": "N4W3V6",
    "result": [
      {
        "electoralDistricts": [
          {
            "election": null,
            "id": 85,
            "name": "Perth—Wellington"
          }
        ],
        "pollDivisionIds": [
          10135494
        ],
        "postalCode": "N4W3V6",
        "streetName": "BOYNE",
        "streetDirectionId": null,
        "streetTypeId": "AVE",
        "placeName": "LISTOWEL",
        "streetNameDisplayText": "BOYNE AVE, LISTOWEL"
      }
    ]
  },
  {
    "postal": "N4W1L7",
    "result": [
      {
        "electoralDistricts": [
          {
            "election": null,
            "id": 85,
            "name": "Perth—Wellington"
          }
        ],
        "pollDivisionIds": [
          10135495
        ],
        "postalCode": "N4W1L7",
        "streetName": "WALLACE",
        "streetDirectionId": "N",
        "streetTypeId": "AVE",
        "placeName": "LISTOWEL",
        "streetNameDisplayText": "WALLACE AVE N, LISTOWEL"
      }
    ]
  },
  {
    "postal": "N4W2P9",
    "result": [
      {
        "electoralDistricts": [
          {
            "election": null,
            "id": 85,
            "name": "Perth—Wellington"
          }
        ],
        "pollDivisionIds": [
          10135495
        ],
        "postalCode": "N4W2P9",
        "streetName": "ELIZABETH",
        "streetDirectionId": "E",
        "streetTypeId": "ST",
        "placeName": "LISTOWEL",
        "streetNameDisplayText": "ELIZABETH ST E, LISTOWEL"
      }
    ]
  },
  {
    "postal": "N4W5T4",
    "result": []
  },
  {
    "postal": "N4W5Z1",
    "result": []
  },
  {
    "postal": "N4W2X0",
    "result": []
  },
  {
    "postal": "N4W6Z2",
    "result": []
  },
  {
    "postal": "N4W0E0",
    "result": []
  },
  {
    "postal": "N4W3Z5",
    "result": []
  },
  {
    "postal": "N4W8H3",
    "result": []
  },
  {
    "postal": "N4W7S6",
    "result": []
  },
  {
    "postal": "N4W4C1",
    "result": []
  },
  {
    "postal": "N4W3K2",
    "result": [
      {
        "electoralDistricts": [
          {
            "election": null,
            "id": 85,
            "name": "Perth—Wellington"
          }
        ],
        "pollDivisionIds": [
          10135494
        ],
        "postalCode": "N4W3K2",
        "streetName": "BLAKE",
        "streetDirectionId": "E",
        "streetTypeId": "ST",
        "placeName": "LISTOWEL",
        "streetNameDisplayText": "BLAKE ST E, LISTOWEL"
      }
    ]
  },
  {
    "postal": "N4W1Y5",
    "result": [
      {
        "electoralDistricts": [
          {
            "election": null,
            "id": 85,
            "name": "Perth—Wellington"
          }
        ],
        "pollDivisionIds": [
          10135494
        ],
        "postalCode": "N4W1Y5",
        "streetName": "WALLACE",
        "streetDirectionId": "S",
        "streetTypeId": "AVE",
        "placeName": "LISTOWEL",
        "streetNameDisplayText": "WALLACE AVE S, LISTOWEL"
      }
    ]
  },
  {
    "postal": "N4W6P6",
    "result": []
  },
  {
    "postal": "N4W3N9",
    "result": []
  },
  {
    "postal": "N4W3W2",
    "result": [
      {
        "electoralDistricts": [
          {
            "election": null,
            "id": 85,
            "name": "Perth—Wellington"
          }
        ],
        "pollDivisionIds": [
          10135494
        ],
        "postalCode": "N4W3W2",
        "streetName": "DENSTEDT",
        "streetDirectionId": "W",
        "streetTypeId": "ST",
        "placeName": "LISTOWEL",
        "streetNameDisplayText": "DENSTEDT ST W, LISTOWEL"
      },
      {
        "electoralDistricts": [
          {
            "election": null,
            "id": 85,
            "name": "Perth—Wellington"
          }
        ],
        "pollDivisionIds": [
          10135494
        ],
        "postalCode": "N4W3W2",
        "streetName": "DENSTEDT",
        "streetDirectionId": null,
        "streetTypeId": "ST",
        "placeName": "LISTOWEL",
        "streetNameDisplayText": "DENSTEDT ST, LISTOWEL"
      },
      {
        "electoralDistricts": [
          {
            "election": null,
            "id": 85,
            "name": "Perth—Wellington"
          }
        ],
        "pollDivisionIds": [
          10135494
        ],
        "postalCode": "N4W3W2",
        "streetName": "WALLACE",
        "streetDirectionId": "S",
        "streetTypeId": "AVE",
        "placeName": "LISTOWEL",
        "streetNameDisplayText": "WALLACE AVE S, LISTOWEL"
      }
    ]
  },
  {
    "postal": "N4W6H8",
    "result": []
  },
  {
    "postal": "N4W9T3",
    "result": []
  },
  {
    "postal": "N4W5L9",
    "result": []
  },
  {
    "postal": "N4W7X7",
    "result": []
  },
  {
    "postal": "N4W3J5",
    "result": []
  },
  {
    "postal": "N4W4J5",
    "result": []
  },
  {
    "postal": "N4W6J2",
    "result": []
  },
  {
    "postal": "N4W5V6",
    "result": []
  },
  {
    "postal": "N4W3N2",
    "result": []
  },
  {
    "postal": "N4W3B1",
    "result": [
      {
        "electoralDistricts": [
          {
            "election": null,
            "id": 85,
            "name": "Perth—Wellington"
          }
        ],
        "pollDivisionIds": [
          10135495
        ],
        "postalCode": "N4W3B1",
        "streetName": "DAVIDSON",
        "streetDirectionId": "N",
        "streetTypeId": "AVE",
        "placeName": "LISTOWEL",
        "streetNameDisplayText": "DAVIDSON AVE N, LISTOWEL"
      }
    ]
  },
  {
    "postal": "N4W8B5",
    "result": []
  },
  {
    "postal": "N4W0K1",
    "result": []
  },
  {
    "postal": "N4W7M7",
    "result": []
  },
  {
    "postal": "N4W2M2",
    "result": [
      {
        "electoralDistricts": [
          {
            "election": null,
            "id": 85,
            "name": "Perth—Wellington"
          }
        ],
        "pollDivisionIds": [
          10135495
        ],
        "postalCode": "N4W2M2",
        "streetName": "NICHOL",
        "streetDirectionId": "S",
        "streetTypeId": "AVE",
        "placeName": "LISTOWEL",
        "streetNameDisplayText": "NICHOL AVE S, LISTOWEL"
      }
    ]
  },
  {
    "postal": "N4W9N3",
    "result": []
  },
  {
    "postal": "N4W4Y8",
    "result": []
  },
  {
    "postal": "N4W3V7",
    "result": [
      {
        "electoralDistricts": [
          {
            "election": null,
            "id": 85,
            "name": "Perth—Wellington"
          }
        ],
        "pollDivisionIds": [
          10135494
        ],
        "postalCode": "N4W3V7",
        "streetName": "ARMSTONG",
        "streetDirectionId": "E",
        "streetTypeId": "ST",
        "placeName": "LISTOWEL",
        "streetNameDisplayText": "ARMSTONG ST E, LISTOWEL"
      },
      {
        "electoralDistricts": [
          {
            "election": null,
            "id": 85,
            "name": "Perth—Wellington"
          }
        ],
        "pollDivisionIds": [
          10135494,
          10135495
        ],
        "postalCode": "N4W3V7",
        "streetName": "ARMSTRONG",
        "streetDirectionId": "E",
        "streetTypeId": "ST",
        "placeName": "LISTOWEL",
        "streetNameDisplayText": "ARMSTRONG ST E, LISTOWEL"
      },
      {
        "electoralDistricts": [
          {
            "election": null,
            "id": 85,
            "name": "Perth—Wellington"
          }
        ],
        "pollDivisionIds": [
          10135494
        ],
        "postalCode": "N4W3V7",
        "streetName": "ARMSTRONG ST EAST",
        "streetDirectionId": "E",
        "streetTypeId": "ST",
        "placeName": "LISTOWEL",
        "streetNameDisplayText": "ARMSTRONG ST EAST ST E, LISTOWEL"
      },
      {
        "electoralDistricts": [
          {
            "election": null,
            "id": 85,
            "name": "Perth—Wellington"
          }
        ],
        "pollDivisionIds": [
          10135494
        ],
        "postalCode": "N4W3V7",
        "streetName": "ARMSTRONG ST.",
        "streetDirectionId": "E",
        "streetTypeId": "ST",
        "placeName": "LISTOWEL",
        "streetNameDisplayText": "ARMSTRONG ST. ST E, LISTOWEL"
      },
      {
        "electoralDistricts": [
          {
            "election": null,
            "id": 85,
            "name": "Perth—Wellington"
          }
        ],
        "pollDivisionIds": [
          10135494
        ],
        "postalCode": "N4W3V7",
        "streetName": "BAKER",
        "streetDirectionId": null,
        "streetTypeId": "AVE",
        "placeName": "LISTOWEL",
        "streetNameDisplayText": "BAKER AVE, LISTOWEL"
      }
    ]
  },
  {
    "postal": "N4W8Z1",
    "result": []
  },
  {
    "postal": "N4W7B3",
    "result": []
  },
  {
    "postal": "N4W3A8",
    "result": [
      {
        "electoralDistricts": [
          {
            "election": null,
            "id": 85,
            "name": "Perth—Wellington"
          }
        ],
        "pollDivisionIds": [
          10135495
        ],
        "postalCode": "N4W3A8",
        "streetName": "DAVIDSON",
        "streetDirectionId": "N",
        "streetTypeId": "AVE",
        "placeName": "LISTOWEL",
        "streetNameDisplayText": "DAVIDSON AVE N, LISTOWEL"
      }
    ]
  },
  {
    "postal": "N4W7V5",
    "result": []
  },
  {
    "postal": "N4W2T2",
    "result": [
      {
        "electoralDistricts": [
          {
            "election": null,
            "id": 85,
            "name": "Perth—Wellington"
          }
        ],
        "pollDivisionIds": [
          10135492,
          10135495
        ],
        "postalCode": "N4W2T2",
        "streetName": "CAMPBELL",
        "streetDirectionId": "E",
        "streetTypeId": "ST",
        "placeName": "LISTOWEL",
        "streetNameDisplayText": "CAMPBELL ST E, LISTOWEL"
      }
    ]
  },
  {
    "postal": "N4W6L3",
    "result": []
  },
  {
    "postal": "N4W0L2",
    "result": []
  },
  {
    "postal": "N4W5Y8",
    "result": []
  },
  {
    "postal": "N4W0B8",
    "result": [
      {
        "electoralDistricts": [
          {
            "election": null,
            "id": 85,
            "name": "Perth—Wellington"
          }
        ],
        "pollDivisionIds": [
          10135495
        ],
        "postalCode": "N4W0B8",
        "streetName": "RESERVE",
        "streetDirectionId": "S",
        "streetTypeId": "AVE",
        "placeName": "LISTOWEL",
        "streetNameDisplayText": "RESERVE AVE S, LISTOWEL"
      }
    ]
  },
  {
    "postal": "N4W6R5",
    "result": []
  },
  {
    "postal": "N4W8W6",
    "result": []
  },
  {
    "postal": "N4W8G6",
    "result": []
  },
  {
    "postal": "N4W6X3",
    "result": []
  },
  {
    "postal": "N4W7R7",
    "result": []
  },
  {
    "postal": "N4W4B6",
    "result": []
  },
  {
    "postal": "N4W3P9",
    "result": [
      {
        "electoralDistricts": [
          {
            "election": null,
            "id": 85,
            "name": "Perth—Wellington"
          }
        ],
        "pollDivisionIds": [
          10135494
        ],
        "postalCode": "N4W3P9",
        "streetName": "BRIARWOOD",
        "streetDirectionId": null,
        "streetTypeId": "AVE",
        "placeName": "LISTOWEL",
        "streetNameDisplayText": "BRIARWOOD AVE, LISTOWEL"
      }
    ]
  },
  {
    "postal": "N4W2T3",
    "result": [
      {
        "electoralDistricts": [
          {
            "election": null,
            "id": 85,
            "name": "Perth—Wellington"
          }
        ],
        "pollDivisionIds": [
          10135495
        ],
        "postalCode": "N4W2T3",
        "streetName": "CAMPBELL",
        "streetDirectionId": "E",
        "streetTypeId": "ST",
        "placeName": "LISTOWEL",
        "streetNameDisplayText": "CAMPBELL ST E, LISTOWEL"
      }
    ]
  },
  {
    "postal": "N4W1M4",
    "result": [
      {
        "electoralDistricts": [
          {
            "election": null,
            "id": 85,
            "name": "Perth—Wellington"
          }
        ],
        "pollDivisionIds": [
          10135495
        ],
        "postalCode": "N4W1M4",
        "streetName": "WALLACE",
        "streetDirectionId": "N",
        "streetTypeId": "AVE",
        "placeName": "LISTOWEL",
        "streetNameDisplayText": "WALLACE AVE N, LISTOWEL"
      }
    ]
  },
  {
    "postal": "N4W0H1",
    "result": []
  },
  {
    "postal": "N4W9W3",
    "result": []
  },
  {
    "postal": "N4W6P1",
    "result": []
  },
  {
    "postal": "N4W7G2",
    "result": []
  },
  {
    "postal": "N4W4J9",
    "result": []
  },
  {
    "postal": "N4W9E4",
    "result": []
  },
  {
    "postal": "N4W8H0",
    "result": []
  },
  {
    "postal": "N4W4M7",
    "result": []
  },
  {
    "postal": "N4W2G9",
    "result": [
      {
        "electoralDistricts": [
          {
            "election": null,
            "id": 85,
            "name": "Perth—Wellington"
          }
        ],
        "pollDivisionIds": [
          10135494
        ],
        "postalCode": "N4W2G9",
        "streetName": "UNION",
        "streetDirectionId": "E",
        "streetTypeId": "ST",
        "placeName": "LISTOWEL",
        "streetNameDisplayText": "UNION ST E, LISTOWEL"
      }
    ]
  },
  {
    "postal": "N4W8T2",
    "result": []
  },
  {
    "postal": "N4W7G7",
    "result": []
  },
  {
    "postal": "N4W4Z3",
    "result": []
  },
  {
    "postal": "N4W5B3",
    "result": []
  },
  {
    "postal": "N4W1S7",
    "result": [
      {
        "electoralDistricts": [
          {
            "election": null,
            "id": 85,
            "name": "Perth—Wellington"
          }
        ],
        "pollDivisionIds": [
          10135494
        ],
        "postalCode": "N4W1S7",
        "streetName": "VICTORIA",
        "streetDirectionId": "N",
        "streetTypeId": "AVE",
        "placeName": "LISTOWEL",
        "streetNameDisplayText": "VICTORIA AVE N, LISTOWEL"
      }
    ]
  },
  {
    "postal": "N4W2N7",
    "result": [
      {
        "electoralDistricts": [
          {
            "election": null,
            "id": 85,
            "name": "Perth—Wellington"
          }
        ],
        "pollDivisionIds": [
          10135495
        ],
        "postalCode": "N4W2N7",
        "streetName": "INKERMAN",
        "streetDirectionId": "E",
        "streetTypeId": "ST",
        "placeName": "LISTOWEL",
        "streetNameDisplayText": "INKERMAN ST E, LISTOWEL"
      }
    ]
  },
  {
    "postal": "N4W0H8",
    "result": []
  },
  {
    "postal": "N4W7Z4",
    "result": []
  },
  {
    "postal": "N4W7B1",
    "result": []
  },
  {
    "postal": "N4W7P8",
    "result": []
  },
  {
    "postal": "N4W7N0",
    "result": []
  },
  {
    "postal": "N4W3Y5",
    "result": []
  },
  {
    "postal": "N4W6K1",
    "result": []
  },
  {
    "postal": "N4W9X5",
    "result": []
  },
  {
    "postal": "N4W7S5",
    "result": []
  },
  {
    "postal": "N4W0A4",
    "result": [
      {
        "electoralDistricts": [
          {
            "election": null,
            "id": 85,
            "name": "Perth—Wellington"
          }
        ],
        "pollDivisionIds": [
          10135495
        ],
        "postalCode": "N4W0A4",
        "streetName": "MOWAT",
        "streetDirectionId": "E",
        "streetTypeId": "ST",
        "placeName": "LISTOWEL",
        "streetNameDisplayText": "MOWAT ST E, LISTOWEL"
      }
    ]
  },
  {
    "postal": "N4W4T5",
    "result": []
  },
  {
    "postal": "N4W5K1",
    "result": []
  },
  {
    "postal": "N4W0Z9",
    "result": []
  },
  {
    "postal": "N4W7T2",
    "result": []
  },
  {
    "postal": "N4W1L5",
    "result": [
      {
        "electoralDistricts": [
          {
            "election": null,
            "id": 85,
            "name": "Perth—Wellington"
          }
        ],
        "pollDivisionIds": [
          10135494
        ],
        "postalCode": "N4W1L5",
        "streetName": "WALLACE",
        "streetDirectionId": "N",
        "streetTypeId": "AVE",
        "placeName": "LISTOWEL",
        "streetNameDisplayText": "WALLACE AVE N, LISTOWEL"
      }
    ]
  },
  {
    "postal": "N4W3N5",
    "result": [
      {
        "electoralDistricts": [
          {
            "election": null,
            "id": 85,
            "name": "Perth—Wellington"
          }
        ],
        "pollDivisionIds": [
          10135494
        ],
        "postalCode": "N4W3N5",
        "streetName": "LOUISE",
        "streetDirectionId": "N",
        "streetTypeId": "AVE",
        "placeName": "LISTOWEL",
        "streetNameDisplayText": "LOUISE AVE N, LISTOWEL"
      }
    ]
  },
  {
    "postal": "N4W6H4",
    "result": []
  },
  {
    "postal": "N4W5A5",
    "result": []
  },
  {
    "postal": "N4W3R9",
    "result": [
      {
        "electoralDistricts": [
          {
            "election": null,
            "id": 85,
            "name": "Perth—Wellington"
          }
        ],
        "pollDivisionIds": [
          10135495
        ],
        "postalCode": "N4W3R9",
        "streetName": "WALTON",
        "streetDirectionId": "N",
        "streetTypeId": "AVE",
        "placeName": "LISTOWEL",
        "streetNameDisplayText": "WALTON AVE N, LISTOWEL"
      }
    ]
  },
  {
    "postal": "N4W7L8",
    "result": []
  },
  {
    "postal": "N4W6T6",
    "result": []
  },
  {
    "postal": "N4W7Y7",
    "result": []
  },
  {
    "postal": "N4W3M8",
    "result": [
      {
        "electoralDistricts": [
          {
            "election": null,
            "id": 85,
            "name": "Perth—Wellington"
          }
        ],
        "pollDivisionIds": [
          10135495
        ],
        "postalCode": "N4W3M8",
        "streetName": "NICHOL",
        "streetDirectionId": "S",
        "streetTypeId": "AVE",
        "placeName": "LISTOWEL",
        "streetNameDisplayText": "NICHOL AVE S, LISTOWEL"
      }
    ]
  },
  {
    "postal": "N4W2E0",
    "result": []
  },
  {
    "postal": "N4W4B5",
    "result": []
  },
  {
    "postal": "N4W1J3",
    "result": [
      {
        "electoralDistricts": [
          {
            "election": null,
            "id": 85,
            "name": "Perth—Wellington"
          }
        ],
        "pollDivisionIds": [
          10135494
        ],
        "postalCode": "N4W1J3",
        "streetName": "CAMPBELL",
        "streetDirectionId": "W",
        "streetTypeId": "ST",
        "placeName": "LISTOWEL",
        "streetNameDisplayText": "CAMPBELL ST W, LISTOWEL"
      },
      {
        "electoralDistricts": [
          {
            "election": null,
            "id": 85,
            "name": "Perth—Wellington"
          }
        ],
        "pollDivisionIds": [
          10135494
        ],
        "postalCode": "N4W1J3",
        "streetName": "CAMPBELL ST.",
        "streetDirectionId": "W",
        "streetTypeId": "ST",
        "placeName": "LISTOWEL",
        "streetNameDisplayText": "CAMPBELL ST. ST W, LISTOWEL"
      }
    ]
  },
  {
    "postal": "N4W5S6",
    "result": []
  },
  {
    "postal": "N4W8P7",
    "result": []
  },
  {
    "postal": "N4W7S7",
    "result": []
  },
  {
    "postal": "N4W4C2",
    "result": []
  },
  {
    "postal": "N4W5Y0",
    "result": []
  },
  {
    "postal": "N4W2V7",
    "result": [
      {
        "electoralDistricts": [
          {
            "election": null,
            "id": 85,
            "name": "Perth—Wellington"
          }
        ],
        "pollDivisionIds": [
          10135494
        ],
        "postalCode": "N4W2V7",
        "streetName": "BLAKE",
        "streetDirectionId": "E",
        "streetTypeId": "ST",
        "placeName": "LISTOWEL",
        "streetNameDisplayText": "BLAKE ST E, LISTOWEL"
      }
    ]
  },
  {
    "postal": "N4W8P5",
    "result": []
  },
  {
    "postal": "N4W5P5",
    "result": []
  },
  {
    "postal": "N4W5Z0",
    "result": []
  },
  {
    "postal": "N4W9B0",
    "result": []
  },
  {
    "postal": "N4W1L0",
    "result": []
  },
  {
    "postal": "N4W0B5",
    "result": [
      {
        "electoralDistricts": [
          {
            "election": null,
            "id": 85,
            "name": "Perth—Wellington"
          }
        ],
        "pollDivisionIds": [
          10135495
        ],
        "postalCode": "N4W0B5",
        "streetName": "KROTZ",
        "streetDirectionId": "E",
        "streetTypeId": "ST",
        "placeName": "LISTOWEL",
        "streetNameDisplayText": "KROTZ ST E, LISTOWEL"
      },
      {
        "electoralDistricts": [
          {
            "election": null,
            "id": 85,
            "name": "Perth—Wellington"
          }
        ],
        "pollDivisionIds": [
          10135495
        ],
        "postalCode": "N4W0B5",
        "streetName": "RESERVE",
        "streetDirectionId": "S",
        "streetTypeId": "AVE",
        "placeName": "LISTOWEL",
        "streetNameDisplayText": "RESERVE AVE S, LISTOWEL"
      }
    ]
  },
  {
    "postal": "N4W3L2",
    "result": [
      {
        "electoralDistricts": [
          {
            "election": null,
            "id": 85,
            "name": "Perth—Wellington"
          }
        ],
        "pollDivisionIds": [
          10135494
        ],
        "postalCode": "N4W3L2",
        "streetName": "MAIN",
        "streetDirectionId": "W",
        "streetTypeId": "ST",
        "placeName": "LISTOWEL",
        "streetNameDisplayText": "MAIN ST W, LISTOWEL"
      },
      {
        "electoralDistricts": [
          {
            "election": null,
            "id": 85,
            "name": "Perth—Wellington"
          }
        ],
        "pollDivisionIds": [
          10135494
        ],
        "postalCode": "N4W3L2",
        "streetName": "PERTH 86",
        "streetDirectionId": null,
        "streetTypeId": "LINE",
        "placeName": "LISTOWEL",
        "streetNameDisplayText": "PERTH 86 LINE, LISTOWEL"
      }
    ]
  },
  {
    "postal": "N4W3B7",
    "result": [
      {
        "electoralDistricts": [
          {
            "election": null,
            "id": 85,
            "name": "Perth—Wellington"
          }
        ],
        "pollDivisionIds": [
          10135495
        ],
        "postalCode": "N4W3B7",
        "streetName": "PARK",
        "streetDirectionId": "N",
        "streetTypeId": "AVE",
        "placeName": "LISTOWEL",
        "streetNameDisplayText": "PARK AVE N, LISTOWEL"
      }
    ]
  },
  {
    "postal": "N4W8L1",
    "result": []
  },
  {
    "postal": "N4W5M4",
    "result": []
  },
  {
    "postal": "N4W4G9",
    "result": []
  },
  {
    "postal": "N4W0P0",
    "result": []
  },
  {
    "postal": "N4W8G2",
    "result": []
  },
  {
    "postal": "N4W1V9",
    "result": [
      {
        "electoralDistricts": [
          {
            "election": null,
            "id": 85,
            "name": "Perth—Wellington"
          }
        ],
        "pollDivisionIds": [
          10135494
        ],
        "postalCode": "N4W1V9",
        "streetName": "ELMA",
        "streetDirectionId": "W",
        "streetTypeId": "ST",
        "placeName": "LISTOWEL",
        "streetNameDisplayText": "ELMA ST W, LISTOWEL"
      }
    ]
  },
  {
    "postal": "N4W8N8",
    "result": []
  },
  {
    "postal": "N4W6S8",
    "result": []
  },
  {
    "postal": "N4W8H2",
    "result": []
  },
  {
    "postal": "N4W5R8",
    "result": []
  },
  {
    "postal": "N4W5L4",
    "result": []
  },
  {
    "postal": "N4W9E1",
    "result": []
  },
  {
    "postal": "N4W1C4",
    "result": [
      {
        "electoralDistricts": [
          {
            "election": null,
            "id": 85,
            "name": "Perth—Wellington"
          }
        ],
        "pollDivisionIds": [
          10135495
        ],
        "postalCode": "N4W1C4",
        "streetName": "INKERMAN",
        "streetDirectionId": "W",
        "streetTypeId": "ST",
        "placeName": "LISTOWEL",
        "streetNameDisplayText": "INKERMAN ST W, LISTOWEL"
      }
    ]
  },
  {
    "postal": "N4W8W5",
    "result": []
  },
  {
    "postal": "N4W1Y4",
    "result": [
      {
        "electoralDistricts": [
          {
            "election": null,
            "id": 85,
            "name": "Perth—Wellington"
          }
        ],
        "pollDivisionIds": [
          10135494
        ],
        "postalCode": "N4W1Y4",
        "streetName": "WALLACE",
        "streetDirectionId": "S",
        "streetTypeId": "AVE",
        "placeName": "LISTOWEL",
        "streetNameDisplayText": "WALLACE AVE S, LISTOWEL"
      }
    ]
  },
  {
    "postal": "N4W1C0",
    "result": []
  },
  {
    "postal": "N4W2J2",
    "result": [
      {
        "electoralDistricts": [
          {
            "election": null,
            "id": 85,
            "name": "Perth—Wellington"
          }
        ],
        "pollDivisionIds": [
          10135494
        ],
        "postalCode": "N4W2J2",
        "streetName": "WELLINGTON",
        "streetDirectionId": "S",
        "streetTypeId": "AVE",
        "placeName": "LISTOWEL",
        "streetNameDisplayText": "WELLINGTON AVE S, LISTOWEL"
      }
    ]
  },
  {
    "postal": "N4W2J0",
    "result": []
  },
  {
    "postal": "N4W7A3",
    "result": []
  },
  {
    "postal": "N4W8M1",
    "result": []
  },
  {
    "postal": "N4W7T9",
    "result": []
  },
  {
    "postal": "N4W6C0",
    "result": []
  },
  {
    "postal": "N4W7X1",
    "result": []
  },
  {
    "postal": "N4W0G1",
    "result": [
      {
        "electoralDistricts": [
          {
            "election": null,
            "id": 85,
            "name": "Perth—Wellington"
          }
        ],
        "pollDivisionIds": [
          10135494
        ],
        "postalCode": "N4W0G1",
        "streetName": "ALBERT",
        "streetDirectionId": "N",
        "streetTypeId": "AVE",
        "placeName": "LISTOWEL",
        "streetNameDisplayText": "ALBERT AVE N, LISTOWEL"
      },
      {
        "electoralDistricts": [
          {
            "election": null,
            "id": 85,
            "name": "Perth—Wellington"
          }
        ],
        "pollDivisionIds": [
          10135494,
          10135495
        ],
        "postalCode": "N4W0G1",
        "streetName": "GRIFFITH",
        "streetDirectionId": null,
        "streetTypeId": "CRT",
        "placeName": "LISTOWEL",
        "streetNameDisplayText": "GRIFFITH CRT, LISTOWEL"
      },
      {
        "electoralDistricts": [
          {
            "election": null,
            "id": 85,
            "name": "Perth—Wellington"
          }
        ],
        "pollDivisionIds": [
          10135494
        ],
        "postalCode": "N4W0G1",
        "streetName": "RICHARDS",
        "streetDirectionId": null,
        "streetTypeId": "CRT",
        "placeName": "LISTOWEL",
        "streetNameDisplayText": "RICHARDS CRT, LISTOWEL"
      },
      {
        "electoralDistricts": [
          {
            "election": null,
            "id": 85,
            "name": "Perth—Wellington"
          }
        ],
        "pollDivisionIds": [
          10135494
        ],
        "postalCode": "N4W0G1",
        "streetName": "ROGERS",
        "streetDirectionId": null,
        "streetTypeId": "RD",
        "placeName": "LISTOWEL",
        "streetNameDisplayText": "ROGERS RD, LISTOWEL"
      }
    ]
  },
  {
    "postal": "N4W4X2",
    "result": []
  },
  {
    "postal": "N4W0N6",
    "result": []
  },
  {
    "postal": "N4W8E3",
    "result": []
  },
  {
    "postal": "N4W5S8",
    "result": []
  },
  {
    "postal": "N4W0R0",
    "result": []
  },
  {
    "postal": "N4W6J6",
    "result": []
  },
  {
    "postal": "N4W4B4",
    "result": []
  },
  {
    "postal": "N4W7E3",
    "result": []
  },
  {
    "postal": "N4W3N6",
    "result": [
      {
        "electoralDistricts": [
          {
            "election": null,
            "id": 85,
            "name": "Perth—Wellington"
          }
        ],
        "pollDivisionIds": [
          10135495
        ],
        "postalCode": "N4W3N6",
        "streetName": "BLAKE",
        "streetDirectionId": "E",
        "streetTypeId": "ST",
        "placeName": "LISTOWEL",
        "streetNameDisplayText": "BLAKE ST E, LISTOWEL"
      }
    ]
  },
  {
    "postal": "N4W3X6",
    "result": []
  },
  {
    "postal": "N4W8L0",
    "result": []
  },
  {
    "postal": "N4W8N1",
    "result": []
  },
  {
    "postal": "N4W4J0",
    "result": []
  },
  {
    "postal": "N4W0X7",
    "result": []
  },
  {
    "postal": "N4W6S4",
    "result": []
  },
  {
    "postal": "N4W0Z0",
    "result": []
  },
  {
    "postal": "N4W9X8",
    "result": []
  },
  {
    "postal": "N4W3H3",
    "result": []
  },
  {
    "postal": "N4W7S2",
    "result": []
  },
  {
    "postal": "N4W3T3",
    "result": [
      {
        "electoralDistricts": [
          {
            "election": null,
            "id": 85,
            "name": "Perth—Wellington"
          }
        ],
        "pollDivisionIds": [
          10135494
        ],
        "postalCode": "N4W3T3",
        "streetName": "NAPIER",
        "streetDirectionId": "W",
        "streetTypeId": "ST",
        "placeName": "LISTOWEL",
        "streetNameDisplayText": "NAPIER ST W, LISTOWEL"
      }
    ]
  },
  {
    "postal": "N4W9P3",
    "result": []
  },
  {
    "postal": "N4W4H8",
    "result": []
  },
  {
    "postal": "N4W6R1",
    "result": []
  },
  {
    "postal": "N4W1S0",
    "result": []
  },
  {
    "postal": "N4W3W8",
    "result": []
  },
  {
    "postal": "N4W4S3",
    "result": []
  },
  {
    "postal": "N4W1B6",
    "result": [
      {
        "electoralDistricts": [
          {
            "election": null,
            "id": 85,
            "name": "Perth—Wellington"
          }
        ],
        "pollDivisionIds": [
          10135495,
          10135494
        ],
        "postalCode": "N4W1B6",
        "streetName": "JOHN",
        "streetDirectionId": "W",
        "streetTypeId": "ST",
        "placeName": "LISTOWEL",
        "streetNameDisplayText": "JOHN ST W, LISTOWEL"
      }
    ]
  },
  {
    "postal": "N4W8R3",
    "result": []
  },
  {
    "postal": "N4W4V9",
    "result": []
  },
  {
    "postal": "N4W9W4",
    "result": []
  },
  {
    "postal": "N4W3T4",
    "result": [
      {
        "electoralDistricts": [
          {
            "election": null,
            "id": 85,
            "name": "Perth—Wellington"
          }
        ],
        "pollDivisionIds": [
          10135494
        ],
        "postalCode": "N4W3T4",
        "streetName": "BROCK",
        "streetDirectionId": null,
        "streetTypeId": "ST",
        "placeName": "LISTOWEL",
        "streetNameDisplayText": "BROCK ST, LISTOWEL"
      },
      {
        "electoralDistricts": [
          {
            "election": null,
            "id": 85,
            "name": "Perth—Wellington"
          }
        ],
        "pollDivisionIds": [
          10135494
        ],
        "postalCode": "N4W3T4",
        "streetName": "HAVELOCK",
        "streetDirectionId": "S",
        "streetTypeId": "AVE",
        "placeName": "LISTOWEL",
        "streetNameDisplayText": "HAVELOCK AVE S, LISTOWEL"
      },
      {
        "electoralDistricts": [
          {
            "election": null,
            "id": 85,
            "name": "Perth—Wellington"
          }
        ],
        "pollDivisionIds": [
          10135494
        ],
        "postalCode": "N4W3T4",
        "streetName": "LAVERY",
        "streetDirectionId": null,
        "streetTypeId": "ST",
        "placeName": "LISTOWEL",
        "streetNameDisplayText": "LAVERY ST, LISTOWEL"
      }
    ]
  },
  {
    "postal": "N4W5C7",
    "result": []
  },
  {
    "postal": "N4W3Y1",
    "result": []
  },
  {
    "postal": "N4W5V0",
    "result": []
  },
  {
    "postal": "N4W8G8",
    "result": []
  },
  {
    "postal": "N4W8B1",
    "result": []
  },
  {
    "postal": "N4W4P5",
    "result": []
  },
  {
    "postal": "N4W7B2",
    "result": []
  },
  {
    "postal": "N4W0R2",
    "result": []
  },
  {
    "postal": "N4W4M4",
    "result": []
  },
  {
    "postal": "N4W7M4",
    "result": []
  },
  {
    "postal": "N4W9S7",
    "result": []
  },
  {
    "postal": "N4W5Z7",
    "result": []
  },
  {
    "postal": "N4W7J7",
    "result": []
  },
  {
    "postal": "N4W8R8",
    "result": []
  },
  {
    "postal": "N4W9X1",
    "result": []
  },
  {
    "postal": "N4W5M9",
    "result": []
  },
  {
    "postal": "N4W9B4",
    "result": []
  },
  {
    "postal": "N4W0L9",
    "result": []
  },
  {
    "postal": "N4W9G4",
    "result": []
  },
  {
    "postal": "N4W1J4",
    "result": []
  },
  {
    "postal": "N4W0W6",
    "result": []
  }
]
