[
  {
    "postal": "P3C9J6",
    "result": []
  },
  {
    "postal": "P3C9Z5",
    "result": []
  },
  {
    "postal": "P3C7H8",
    "result": []
  },
  {
    "postal": "P3C0P6",
    "result": []
  },
  {
    "postal": "P3C0S7",
    "result": []
  },
  {
    "postal": "P3C8B9",
    "result": []
  },
  {
    "postal": "P3C2A6",
    "result": [
      {
        "electoralDistricts": [
          {
            "election": null,
            "id": 103,
            "name": "Sudbury"
          }
        ],
        "pollDivisionIds": [
          10142132
        ],
        "postalCode": "P3C2A6",
        "streetName": "ASH",
        "streetDirectionId": null,
        "streetTypeId": "ST",
        "placeName": "SUDBURY",
        "streetNameDisplayText": "ASH ST, SUDBURY"
      }
    ]
  },
  {
    "postal": "P3C7V2",
    "result": []
  },
  {
    "postal": "P3C9P4",
    "result": []
  },
  {
    "postal": "P3C6G0",
    "result": []
  },
  {
    "postal": "P3C2K0",
    "result": []
  },
  {
    "postal": "P3C7N6",
    "result": []
  },
  {
    "postal": "P3C5R3",
    "result": [
      {
        "electoralDistricts": [
          {
            "election": null,
            "id": 103,
            "name": "Sudbury"
          }
        ],
        "pollDivisionIds": [
          10142139
        ],
        "postalCode": "P3C5R3",
        "streetName": "CAMBRIAN HEIGHTS",
        "streetDirectionId": null,
        "streetTypeId": "DR",
        "placeName": "SUDBURY",
        "streetNameDisplayText": "CAMBRIAN HEIGHTS DR, SUDBURY"
      }
    ]
  },
  {
    "postal": "P3C7K0",
    "result": []
  },
  {
    "postal": "P3C3R2",
    "result": [
      {
        "electoralDistricts": [
          {
            "election": null,
            "id": 103,
            "name": "Sudbury"
          }
        ],
        "pollDivisionIds": [
          10142132
        ],
        "postalCode": "P3C3R2",
        "streetName": "ETHELBERT",
        "streetDirectionId": null,
        "streetTypeId": "ST",
        "placeName": "SUDBURY",
        "streetNameDisplayText": "ETHELBERT ST, SUDBURY"
      }
    ]
  },
  {
    "postal": "P3C0J1",
    "result": []
  },
  {
    "postal": "P3C0B0",
    "result": []
  },
  {
    "postal": "P3C5Z2",
    "result": []
  },
  {
    "postal": "P3C7P3",
    "result": []
  },
  {
    "postal": "P3C2K3",
    "result": [
      {
        "electoralDistricts": [
          {
            "election": null,
            "id": 103,
            "name": "Sudbury"
          }
        ],
        "pollDivisionIds": [
          10142134
        ],
        "postalCode": "P3C2K3",
        "streetName": "BLOOR",
        "streetDirectionId": null,
        "streetTypeId": "ST",
        "placeName": "SUDBURY",
        "streetNameDisplayText": "BLOOR ST, SUDBURY"
      }
    ]
  },
  {
    "postal": "P3C7Y6",
    "result": []
  },
  {
    "postal": "P3C1L9",
    "result": [
      {
        "electoralDistricts": [
          {
            "election": null,
            "id": 103,
            "name": "Sudbury"
          }
        ],
        "pollDivisionIds": [
          10142131
        ],
        "postalCode": "P3C1L9",
        "streetName": "WALNUT",
        "streetDirectionId": null,
        "streetTypeId": "ST",
        "placeName": "SUDBURY",
        "streetNameDisplayText": "WALNUT ST, SUDBURY"
      }
    ]
  },
  {
    "postal": "P3C8T0",
    "result": []
  },
  {
    "postal": "P3C3K8",
    "result": [
      {
        "electoralDistricts": [
          {
            "election": null,
            "id": 103,
            "name": "Sudbury"
          }
        ],
        "pollDivisionIds": [
          10142131
        ],
        "postalCode": "P3C3K8",
        "streetName": "SANDRA",
        "streetDirectionId": null,
        "streetTypeId": "BLVD",
        "placeName": "SUDBURY",
        "streetNameDisplayText": "SANDRA BLVD, SUDBURY"
      }
    ]
  },
  {
    "postal": "P3C5W9",
    "result": []
  },
  {
    "postal": "P3C6T9",
    "result": []
  },
  {
    "postal": "P3C4H1",
    "result": [
      {
        "electoralDistricts": [
          {
            "election": null,
            "id": 103,
            "name": "Sudbury"
          }
        ],
        "pollDivisionIds": [
          10142134
        ],
        "postalCode": "P3C4H1",
        "streetName": "BESSIE",
        "streetDirectionId": null,
        "streetTypeId": "AVE",
        "placeName": "SUDBURY",
        "streetNameDisplayText": "BESSIE AVE, SUDBURY"
      }
    ]
  },
  {
    "postal": "P3C7A2",
    "result": []
  },
  {
    "postal": "P3C5G0",
    "result": []
  },
  {
    "postal": "P3C8V5",
    "result": []
  },
  {
    "postal": "P3C2Y8",
    "result": [
      {
        "electoralDistricts": [
          {
            "election": null,
            "id": 103,
            "name": "Sudbury"
          }
        ],
        "pollDivisionIds": [
          10142136
        ],
        "postalCode": "P3C2Y8",
        "streetName": "SEVERN",
        "streetDirectionId": null,
        "streetTypeId": "ST",
        "placeName": "SUDBURY",
        "streetNameDisplayText": "SEVERN ST, SUDBURY"
      }
    ]
  },
  {
    "postal": "P3C2B6",
    "result": [
      {
        "electoralDistricts": [
          {
            "election": null,
            "id": 103,
            "name": "Sudbury"
          }
        ],
        "pollDivisionIds": [
          10142132
        ],
        "postalCode": "P3C2B6",
        "streetName": "MAPLE",
        "streetDirectionId": null,
        "streetTypeId": "ST",
        "placeName": "SUDBURY",
        "streetNameDisplayText": "MAPLE ST, SUDBURY"
      }
    ]
  },
  {
    "postal": "P3C4W8",
    "result": [
      {
        "electoralDistricts": [
          {
            "election": null,
            "id": 103,
            "name": "Sudbury"
          }
        ],
        "pollDivisionIds": [
          10142133
        ],
        "postalCode": "P3C4W8",
        "streetName": "SUFFOLK",
        "streetDirectionId": null,
        "streetTypeId": "LANE",
        "placeName": "SUDBURY",
        "streetNameDisplayText": "SUFFOLK LANE, SUDBURY"
      }
    ]
  },
  {
    "postal": "P3C8H7",
    "result": []
  },
  {
    "postal": "P3C5P1",
    "result": []
  },
  {
    "postal": "P3C2B8",
    "result": [
      {
        "electoralDistricts": [
          {
            "election": null,
            "id": 103,
            "name": "Sudbury"
          }
        ],
        "pollDivisionIds": [
          10142158,
          10142132
        ],
        "postalCode": "P3C2B8",
        "streetName": "MAPLE",
        "streetDirectionId": null,
        "streetTypeId": "ST",
        "placeName": "SUDBURY",
        "streetNameDisplayText": "MAPLE ST, SUDBURY"
      },
      {
        "electoralDistricts": [
          {
            "election": null,
            "id": 103,
            "name": "Sudbury"
          }
        ],
        "pollDivisionIds": [
          10142158
        ],
        "postalCode": "P3C2B8",
        "streetName": "MAPLE ST.",
        "streetDirectionId": null,
        "streetTypeId": "ST",
        "placeName": "SUDBURY",
        "streetNameDisplayText": "MAPLE ST. ST, SUDBURY"
      }
    ]
  },
  {
    "postal": "P3C0P2",
    "result": []
  },
  {
    "postal": "P3C9M1",
    "result": []
  },
  {
    "postal": "P3C3G0",
    "result": []
  },
  {
    "postal": "P3C9Z2",
    "result": []
  },
  {
    "postal": "P3C2A0",
    "result": []
  },
  {
    "postal": "P3C6Y0",
    "result": []
  },
  {
    "postal": "P3C2Z8",
    "result": [
      {
        "electoralDistricts": [
          {
            "election": null,
            "id": 103,
            "name": "Sudbury"
          }
        ],
        "pollDivisionIds": [
          10142136
        ],
        "postalCode": "P3C2Z8",
        "streetName": "HEARNE",
        "streetDirectionId": null,
        "streetTypeId": "AVE",
        "placeName": "SUDBURY",
        "streetNameDisplayText": "HEARNE AVE, SUDBURY"
      }
    ]
  },
  {
    "postal": "P3C7Y3",
    "result": []
  },
  {
    "postal": "P3C6Z5",
    "result": []
  },
  {
    "postal": "P3C6E0",
    "result": []
  },
  {
    "postal": "P3C9B7",
    "result": []
  },
  {
    "postal": "P3C9S5",
    "result": []
  },
  {
    "postal": "P3C3X3",
    "result": [
      {
        "electoralDistricts": [
          {
            "election": null,
            "id": 103,
            "name": "Sudbury"
          }
        ],
        "pollDivisionIds": [
          10142132
        ],
        "postalCode": "P3C3X3",
        "streetName": "WHITTAKER",
        "streetDirectionId": null,
        "streetTypeId": "ST",
        "placeName": "SUDBURY",
        "streetNameDisplayText": "WHITTAKER ST, SUDBURY"
      }
    ]
  },
  {
    "postal": "P3C7R5",
    "result": []
  },
  {
    "postal": "P3C2X3",
    "result": [
      {
        "electoralDistricts": [
          {
            "election": null,
            "id": 103,
            "name": "Sudbury"
          }
        ],
        "pollDivisionIds": [
          10142136
        ],
        "postalCode": "P3C2X3",
        "streetName": "ST LAWRENCE",
        "streetDirectionId": null,
        "streetTypeId": "ST",
        "placeName": "SUDBURY",
        "streetNameDisplayText": "ST LAWRENCE ST, SUDBURY"
      }
    ]
  },
  {
    "postal": "P3C8Z9",
    "result": []
  },
  {
    "postal": "P3C0N4",
    "result": []
  },
  {
    "postal": "P3C1K1",
    "result": [
      {
        "electoralDistricts": [
          {
            "election": null,
            "id": 103,
            "name": "Sudbury"
          }
        ],
        "pollDivisionIds": [
          10142131
        ],
        "postalCode": "P3C1K1",
        "streetName": "HAIG",
        "streetDirectionId": null,
        "streetTypeId": "ST",
        "placeName": "SUDBURY ONTARIO",
        "streetNameDisplayText": "HAIG ST, SUDBURY ONTARIO"
      },
      {
        "electoralDistricts": [
          {
            "election": null,
            "id": 103,
            "name": "Sudbury"
          }
        ],
        "pollDivisionIds": [
          10142131
        ],
        "postalCode": "P3C1K1",
        "streetName": "WILLOW",
        "streetDirectionId": null,
        "streetTypeId": "ST",
        "placeName": "SUDBURY",
        "streetNameDisplayText": "WILLOW ST, SUDBURY"
      }
    ]
  },
  {
    "postal": "P3C1S3",
    "result": []
  },
  {
    "postal": "P3C6M4",
    "result": []
  },
  {
    "postal": "P3C9A9",
    "result": []
  },
  {
    "postal": "P3C9Z9",
    "result": []
  },
  {
    "postal": "P3C6T4",
    "result": []
  },
  {
    "postal": "P3C0B2",
    "result": []
  },
  {
    "postal": "P3C2L9",
    "result": [
      {
        "electoralDistricts": [
          {
            "election": null,
            "id": 103,
            "name": "Sudbury"
          }
        ],
        "pollDivisionIds": [
          10142135
        ],
        "postalCode": "P3C2L9",
        "streetName": "KATHLEEN",
        "streetDirectionId": null,
        "streetTypeId": "ST",
        "placeName": "SUDBURY",
        "streetNameDisplayText": "KATHLEEN ST, SUDBURY"
      },
      {
        "electoralDistricts": [
          {
            "election": null,
            "id": 103,
            "name": "Sudbury"
          }
        ],
        "pollDivisionIds": [
          10142135
        ],
        "postalCode": "P3C2L9",
        "streetName": "ST GEORGE",
        "streetDirectionId": null,
        "streetTypeId": "ST",
        "placeName": "SUDBURY",
        "streetNameDisplayText": "ST GEORGE ST, SUDBURY"
      }
    ]
  },
  {
    "postal": "P3C8K9",
    "result": []
  },
  {
    "postal": "P3C2H9",
    "result": []
  },
  {
    "postal": "P3C3Z6",
    "result": [
      {
        "electoralDistricts": [
          {
            "election": null,
            "id": 103,
            "name": "Sudbury"
          }
        ],
        "pollDivisionIds": [
          10142133
        ],
        "postalCode": "P3C3Z6",
        "streetName": "DONOVAN",
        "streetDirectionId": null,
        "streetTypeId": "ST",
        "placeName": "SUDBURY",
        "streetNameDisplayText": "DONOVAN ST, SUDBURY"
      }
    ]
  },
  {
    "postal": "P3C3B0",
    "result": []
  },
  {
    "postal": "P3C2H8",
    "result": [
      {
        "electoralDistricts": [
          {
            "election": null,
            "id": 103,
            "name": "Sudbury"
          }
        ],
        "pollDivisionIds": [
          10142132
        ],
        "postalCode": "P3C2H8",
        "streetName": "BEATTY",
        "streetDirectionId": null,
        "streetTypeId": "ST",
        "placeName": "SUDBURY",
        "streetNameDisplayText": "BEATTY ST, SUDBURY"
      },
      {
        "electoralDistricts": [
          {
            "election": null,
            "id": 103,
            "name": "Sudbury"
          }
        ],
        "pollDivisionIds": [
          10142131
        ],
        "postalCode": "P3C2H8",
        "streetName": "HEMLOCK",
        "streetDirectionId": null,
        "streetTypeId": "ST",
        "placeName": "SUDBURY",
        "streetNameDisplayText": "HEMLOCK ST, SUDBURY"
      }
    ]
  },
  {
    "postal": "P3C3X2",
    "result": [
      {
        "electoralDistricts": [
          {
            "election": null,
            "id": 103,
            "name": "Sudbury"
          }
        ],
        "pollDivisionIds": [
          10142132
        ],
        "postalCode": "P3C3X2",
        "streetName": "WHITTAKER",
        "streetDirectionId": null,
        "streetTypeId": "ST",
        "placeName": "SUDBURY",
        "streetNameDisplayText": "WHITTAKER ST, SUDBURY"
      }
    ]
  },
  {
    "postal": "P3C2E9",
    "result": [
      {
        "electoralDistricts": [
          {
            "election": null,
            "id": 103,
            "name": "Sudbury"
          }
        ],
        "pollDivisionIds": [
          10142134
        ],
        "postalCode": "P3C2E9",
        "streetName": "BAKER",
        "streetDirectionId": null,
        "streetTypeId": "ST",
        "placeName": "SUDBURY",
        "streetNameDisplayText": "BAKER ST, SUDBURY"
      }
    ]
  },
  {
    "postal": "P3C9P6",
    "result": []
  },
  {
    "postal": "P3C9E2",
    "result": []
  },
  {
    "postal": "P3C9H2",
    "result": []
  },
  {
    "postal": "P3C1S8",
    "result": [
      {
        "electoralDistricts": [
          {
            "election": null,
            "id": 103,
            "name": "Sudbury"
          }
        ],
        "pollDivisionIds": [
          10142134
        ],
        "postalCode": "P3C1S8",
        "streetName": "ELM",
        "streetDirectionId": null,
        "streetTypeId": "ST",
        "placeName": "SUDBURY",
        "streetNameDisplayText": "ELM ST, SUDBURY"
      }
    ]
  },
  {
    "postal": "P3C3M6",
    "result": []
  },
  {
    "postal": "P3C6Z8",
    "result": []
  },
  {
    "postal": "P3C4J2",
    "result": [
      {
        "electoralDistricts": [
          {
            "election": null,
            "id": 103,
            "name": "Sudbury"
          }
        ],
        "pollDivisionIds": [
          10142131
        ],
        "postalCode": "P3C4J2",
        "streetName": "ALDER",
        "streetDirectionId": null,
        "streetTypeId": "ST",
        "placeName": "SUDBURY",
        "streetNameDisplayText": "ALDER ST, SUDBURY"
      }
    ]
  },
  {
    "postal": "P3C9Y1",
    "result": []
  },
  {
    "postal": "P3C8V6",
    "result": []
  },
  {
    "postal": "P3C6B2",
    "result": []
  },
  {
    "postal": "P3C1P8",
    "result": [
      {
        "electoralDistricts": [
          {
            "election": null,
            "id": 103,
            "name": "Sudbury"
          }
        ],
        "pollDivisionIds": [
          10142132
        ],
        "postalCode": "P3C1P8",
        "streetName": "SPRUCE",
        "streetDirectionId": null,
        "streetTypeId": "ST",
        "placeName": "SUDBURY",
        "streetNameDisplayText": "SPRUCE ST, SUDBURY"
      }
    ]
  },
  {
    "postal": "P3C0V8",
    "result": []
  },
  {
    "postal": "P3C4Y0",
    "result": []
  },
  {
    "postal": "P3C2T4",
    "result": [
      {
        "electoralDistricts": [
          {
            "election": null,
            "id": 103,
            "name": "Sudbury"
          }
        ],
        "pollDivisionIds": [
          10142135
        ],
        "postalCode": "P3C2T4",
        "streetName": "BOND",
        "streetDirectionId": null,
        "streetTypeId": "ST",
        "placeName": "SUDBURY",
        "streetNameDisplayText": "BOND ST, SUDBURY"
      }
    ]
  },
  {
    "postal": "P3C2S3",
    "result": [
      {
        "electoralDistricts": [
          {
            "election": null,
            "id": 103,
            "name": "Sudbury"
          }
        ],
        "pollDivisionIds": [
          10142133
        ],
        "postalCode": "P3C2S3",
        "streetName": "JEAN",
        "streetDirectionId": null,
        "streetTypeId": "ST",
        "placeName": "SUDBURY",
        "streetNameDisplayText": "JEAN ST, SUDBURY"
      }
    ]
  },
  {
    "postal": "P3C0K0",
    "result": []
  },
  {
    "postal": "P3C5N1",
    "result": [
      {
        "electoralDistricts": [
          {
            "election": null,
            "id": 103,
            "name": "Sudbury"
          }
        ],
        "pollDivisionIds": [
          10142174
        ],
        "postalCode": "P3C5N1",
        "streetName": "LORNE",
        "streetDirectionId": null,
        "streetTypeId": "ST",
        "placeName": "SUDBURY",
        "streetNameDisplayText": "LORNE ST, SUDBURY"
      }
    ]
  },
  {
    "postal": "P3C7T0",
    "result": []
  },
  {
    "postal": "P3C9N2",
    "result": []
  },
  {
    "postal": "P3C5L1",
    "result": [
      {
        "electoralDistricts": [
          {
            "election": null,
            "id": 103,
            "name": "Sudbury"
          }
        ],
        "pollDivisionIds": [
          10142136
        ],
        "postalCode": "P3C5L1",
        "streetName": "NOTRE DAME",
        "streetDirectionId": null,
        "streetTypeId": "AVE",
        "placeName": "SUDBURY",
        "streetNameDisplayText": "NOTRE DAME AVE, SUDBURY"
      }
    ]
  },
  {
    "postal": "P3C7G5",
    "result": []
  },
  {
    "postal": "P3C6K2",
    "result": []
  },
  {
    "postal": "P3C6P9",
    "result": []
  },
  {
    "postal": "P3C0E6",
    "result": []
  },
  {
    "postal": "P3C8R9",
    "result": []
  },
  {
    "postal": "P3C3G9",
    "result": [
      {
        "electoralDistricts": [
          {
            "election": null,
            "id": 103,
            "name": "Sudbury"
          }
        ],
        "pollDivisionIds": [
          10142130
        ],
        "postalCode": "P3C3G9",
        "streetName": "CLEMOW",
        "streetDirectionId": null,
        "streetTypeId": "AVE",
        "placeName": "SUDBURY",
        "streetNameDisplayText": "CLEMOW AVE, SUDBURY"
      }
    ]
  },
  {
    "postal": "P3C0V7",
    "result": []
  },
  {
    "postal": "P3C2Z1",
    "result": [
      {
        "electoralDistricts": [
          {
            "election": null,
            "id": 103,
            "name": "Sudbury"
          }
        ],
        "pollDivisionIds": [
          10142137
        ],
        "postalCode": "P3C2Z1",
        "streetName": "ST CHARLES",
        "streetDirectionId": null,
        "streetTypeId": "ST",
        "placeName": "SUDBURY",
        "streetNameDisplayText": "ST CHARLES ST, SUDBURY"
      }
    ]
  },
  {
    "postal": "P3C7N1",
    "result": []
  },
  {
    "postal": "P3C3C6",
    "result": [
      {
        "electoralDistricts": [
          {
            "election": null,
            "id": 103,
            "name": "Sudbury"
          }
        ],
        "pollDivisionIds": [
          10142130
        ],
        "postalCode": "P3C3C6",
        "streetName": "DEAN",
        "streetDirectionId": null,
        "streetTypeId": "AVE",
        "placeName": "SUDBURY",
        "streetNameDisplayText": "DEAN AVE, SUDBURY"
      }
    ]
  },
  {
    "postal": "P3C4M1",
    "result": [
      {
        "electoralDistricts": [
          {
            "election": null,
            "id": 103,
            "name": "Sudbury"
          }
        ],
        "pollDivisionIds": [
          10142134
        ],
        "postalCode": "P3C4M1",
        "streetName": "LANSDOWNE",
        "streetDirectionId": null,
        "streetTypeId": "ST",
        "placeName": "SUDBURY",
        "streetNameDisplayText": "LANSDOWNE ST, SUDBURY"
      }
    ]
  },
  {
    "postal": "P3C9K2",
    "result": []
  },
  {
    "postal": "P3C9S6",
    "result": []
  },
  {
    "postal": "P3C4X1",
    "result": [
      {
        "electoralDistricts": [
          {
            "election": null,
            "id": 103,
            "name": "Sudbury"
          }
        ],
        "pollDivisionIds": [
          10142140
        ],
        "postalCode": "P3C4X1",
        "streetName": "SECORD",
        "streetDirectionId": null,
        "streetTypeId": "CRT",
        "placeName": "SUDBURY",
        "streetNameDisplayText": "SECORD CRT, SUDBURY"
      }
    ]
  },
  {
    "postal": "P3C8W2",
    "result": []
  },
  {
    "postal": "P3C7N2",
    "result": []
  },
  {
    "postal": "P3C8S3",
    "result": []
  },
  {
    "postal": "P3C4V0",
    "result": []
  },
  {
    "postal": "P3C6W4",
    "result": []
  },
  {
    "postal": "P3C5M1",
    "result": [
      {
        "electoralDistricts": [
          {
            "election": null,
            "id": 103,
            "name": "Sudbury"
          }
        ],
        "pollDivisionIds": [
          10142136
        ],
        "postalCode": "P3C5M1",
        "streetName": "HUMBER",
        "streetDirectionId": null,
        "streetTypeId": "CRT",
        "placeName": "SUDBURY",
        "streetNameDisplayText": "HUMBER CRT, SUDBURY"
      }
    ]
  },
  {
    "postal": "P3C0S4",
    "result": []
  },
  {
    "postal": "P3C5X6",
    "result": []
  },
  {
    "postal": "P3C8L5",
    "result": []
  },
  {
    "postal": "P3C5M8",
    "result": [
      {
        "electoralDistricts": [
          {
            "election": null,
            "id": 103,
            "name": "Sudbury"
          }
        ],
        "pollDivisionIds": [
          10142187
        ],
        "postalCode": "P3C5M8",
        "streetName": "STE ANNE",
        "streetDirectionId": null,
        "streetTypeId": "RD",
        "placeName": "SUDBURY",
        "streetNameDisplayText": "STE ANNE RD, SUDBURY"
      }
    ]
  },
  {
    "postal": "P3C2G3",
    "result": [
      {
        "electoralDistricts": [
          {
            "election": null,
            "id": 103,
            "name": "Sudbury"
          }
        ],
        "pollDivisionIds": [
          10142132
        ],
        "postalCode": "P3C2G3",
        "streetName": "WHITE",
        "streetDirectionId": null,
        "streetTypeId": "AVE",
        "placeName": "SUDBURY",
        "streetNameDisplayText": "WHITE AVE, SUDBURY"
      }
    ]
  },
  {
    "postal": "P3C8E4",
    "result": []
  },
  {
    "postal": "P3C7S9",
    "result": []
  },
  {
    "postal": "P3C1K3",
    "result": []
  },
  {
    "postal": "P3C4E1",
    "result": [
      {
        "electoralDistricts": [
          {
            "election": null,
            "id": 103,
            "name": "Sudbury"
          }
        ],
        "pollDivisionIds": [
          10142131
        ],
        "postalCode": "P3C4E1",
        "streetName": "REGENT",
        "streetDirectionId": null,
        "streetTypeId": "ST",
        "placeName": "SUDBURY",
        "streetNameDisplayText": "REGENT ST, SUDBURY"
      }
    ]
  },
  {
    "postal": "P3C4R2",
    "result": []
  },
  {
    "postal": "P3C6T0",
    "result": []
  },
  {
    "postal": "P3C3K5",
    "result": [
      {
        "electoralDistricts": [
          {
            "election": null,
            "id": 103,
            "name": "Sudbury"
          }
        ],
        "pollDivisionIds": [
          10142132
        ],
        "postalCode": "P3C3K5",
        "streetName": "GILMAN",
        "streetDirectionId": null,
        "streetTypeId": "ST",
        "placeName": "SUDBURY",
        "streetNameDisplayText": "GILMAN ST, SUDBURY"
      }
    ]
  },
  {
    "postal": "P3C3S3",
    "result": [
      {
        "electoralDistricts": [
          {
            "election": null,
            "id": 103,
            "name": "Sudbury"
          }
        ],
        "pollDivisionIds": [
          10142132
        ],
        "postalCode": "P3C3S3",
        "streetName": "BAIKIE",
        "streetDirectionId": null,
        "streetTypeId": "ST",
        "placeName": "SUDBURY",
        "streetNameDisplayText": "BAIKIE ST, SUDBURY"
      }
    ]
  },
  {
    "postal": "P3C3L4",
    "result": [
      {
        "electoralDistricts": [
          {
            "election": null,
            "id": 103,
            "name": "Sudbury"
          }
        ],
        "pollDivisionIds": [
          10142132
        ],
        "postalCode": "P3C3L4",
        "streetName": "SIMCOE",
        "streetDirectionId": null,
        "streetTypeId": "ST",
        "placeName": "SUDBURY",
        "streetNameDisplayText": "SIMCOE ST, SUDBURY"
      }
    ]
  },
  {
    "postal": "P3C9Y2",
    "result": []
  },
  {
    "postal": "P3C1E0",
    "result": []
  },
  {
    "postal": "P3C9A4",
    "result": []
  },
  {
    "postal": "P3C1L3",
    "result": [
      {
        "electoralDistricts": [
          {
            "election": null,
            "id": 103,
            "name": "Sudbury"
          }
        ],
        "pollDivisionIds": [
          10142132
        ],
        "postalCode": "P3C1L3",
        "streetName": "VICTORIA",
        "streetDirectionId": null,
        "streetTypeId": "ST",
        "placeName": "SUDBURY",
        "streetNameDisplayText": "VICTORIA ST, SUDBURY"
      }
    ]
  },
  {
    "postal": "P3C6N1",
    "result": []
  },
  {
    "postal": "P3C6G7",
    "result": []
  },
  {
    "postal": "P3C7W1",
    "result": []
  },
  {
    "postal": "P3C4M6",
    "result": [
      {
        "electoralDistricts": [
          {
            "election": null,
            "id": 103,
            "name": "Sudbury"
          }
        ],
        "pollDivisionIds": [
          10142134
        ],
        "postalCode": "P3C4M6",
        "streetName": "LANSDOWNE",
        "streetDirectionId": null,
        "streetTypeId": "ST",
        "placeName": "SUDBURY",
        "streetNameDisplayText": "LANSDOWNE ST, SUDBURY"
      }
    ]
  },
  {
    "postal": "P3C1K0",
    "result": []
  },
  {
    "postal": "P3C3E2",
    "result": [
      {
        "electoralDistricts": [
          {
            "election": null,
            "id": 103,
            "name": "Sudbury"
          }
        ],
        "pollDivisionIds": [
          10142130
        ],
        "postalCode": "P3C3E2",
        "streetName": "LOGAN",
        "streetDirectionId": null,
        "streetTypeId": "AVE",
        "placeName": "SUDBURY",
        "streetNameDisplayText": "LOGAN AVE, SUDBURY"
      }
    ]
  },
  {
    "postal": "P3C5H4",
    "result": [
      {
        "electoralDistricts": [
          {
            "election": null,
            "id": 103,
            "name": "Sudbury"
          }
        ],
        "pollDivisionIds": [
          10142135
        ],
        "postalCode": "P3C5H4",
        "streetName": "CARON",
        "streetDirectionId": null,
        "streetTypeId": "ST",
        "placeName": "SUDBURY",
        "streetNameDisplayText": "CARON ST, SUDBURY"
      }
    ]
  },
  {
    "postal": "P3C1K7",
    "result": [
      {
        "electoralDistricts": [
          {
            "election": null,
            "id": 103,
            "name": "Sudbury"
          }
        ],
        "pollDivisionIds": [
          10142131
        ],
        "postalCode": "P3C1K7",
        "streetName": "VICTORIA",
        "streetDirectionId": null,
        "streetTypeId": "ST",
        "placeName": "SUDBURY",
        "streetNameDisplayText": "VICTORIA ST, SUDBURY"
      }
    ]
  },
  {
    "postal": "P3C0H0",
    "result": []
  },
  {
    "postal": "P3C0J3",
    "result": []
  },
  {
    "postal": "P3C1X6",
    "result": [
      {
        "electoralDistricts": [
          {
            "election": null,
            "id": 103,
            "name": "Sudbury"
          }
        ],
        "pollDivisionIds": [
          10142134
        ],
        "postalCode": "P3C1X6",
        "streetName": "PINE",
        "streetDirectionId": null,
        "streetTypeId": "ST",
        "placeName": "SUDBURY",
        "streetNameDisplayText": "PINE ST, SUDBURY"
      }
    ]
  },
  {
    "postal": "P3C2Z6",
    "result": [
      {
        "electoralDistricts": [
          {
            "election": null,
            "id": 103,
            "name": "Sudbury"
          }
        ],
        "pollDivisionIds": [
          10142136
        ],
        "postalCode": "P3C2Z6",
        "streetName": "ALBANY",
        "streetDirectionId": null,
        "streetTypeId": "ST",
        "placeName": "SUDBURY",
        "streetNameDisplayText": "ALBANY ST, SUDBURY"
      }
    ]
  },
  {
    "postal": "P3C4R9",
    "result": [
      {
        "electoralDistricts": [
          {
            "election": null,
            "id": 103,
            "name": "Sudbury"
          }
        ],
        "pollDivisionIds": [
          10142171
        ],
        "postalCode": "P3C4R9",
        "streetName": "LORNE",
        "streetDirectionId": null,
        "streetTypeId": "ST",
        "placeName": "SUDBURY",
        "streetNameDisplayText": "LORNE ST, SUDBURY"
      },
      {
        "electoralDistricts": [
          {
            "election": null,
            "id": 103,
            "name": "Sudbury"
          }
        ],
        "pollDivisionIds": [
          10142130
        ],
        "postalCode": "P3C4R9",
        "streetName": "LORNE",
        "streetDirectionId": null,
        "streetTypeId": "ST",
        "placeName": "SUDBURY ONTARIO",
        "streetNameDisplayText": "LORNE ST, SUDBURY ONTARIO"
      }
    ]
  },
  {
    "postal": "P3C0W8",
    "result": []
  },
  {
    "postal": "P3C1L4",
    "result": [
      {
        "electoralDistricts": [
          {
            "election": null,
            "id": 103,
            "name": "Sudbury"
          }
        ],
        "pollDivisionIds": [
          10142132
        ],
        "postalCode": "P3C1L4",
        "streetName": "VICTORIA",
        "streetDirectionId": null,
        "streetTypeId": "ST",
        "placeName": "SUDBURY",
        "streetNameDisplayText": "VICTORIA ST, SUDBURY"
      }
    ]
  },
  {
    "postal": "P3C0C8",
    "result": []
  },
  {
    "postal": "P3C9X7",
    "result": []
  },
  {
    "postal": "P3C4T1",
    "result": [
      {
        "electoralDistricts": [
          {
            "election": null,
            "id": 103,
            "name": "Sudbury"
          }
        ],
        "pollDivisionIds": [
          10142130
        ],
        "postalCode": "P3C4T1",
        "streetName": "LORNE",
        "streetDirectionId": null,
        "streetTypeId": "ST",
        "placeName": "SUDBURY",
        "streetNameDisplayText": "LORNE ST, SUDBURY"
      }
    ]
  },
  {
    "postal": "P3C0M0",
    "result": []
  },
  {
    "postal": "P3C6A2",
    "result": []
  },
  {
    "postal": "P3C9S8",
    "result": []
  },
  {
    "postal": "P3C9T4",
    "result": []
  },
  {
    "postal": "P3C9Y4",
    "result": []
  },
  {
    "postal": "P3C6G5",
    "result": []
  },
  {
    "postal": "P3C6H9",
    "result": []
  },
  {
    "postal": "P3C2P3",
    "result": [
      {
        "electoralDistricts": [
          {
            "election": null,
            "id": 103,
            "name": "Sudbury"
          }
        ],
        "pollDivisionIds": [
          10142132
        ],
        "postalCode": "P3C2P3",
        "streetName": "GRANITE",
        "streetDirectionId": null,
        "streetTypeId": "ST",
        "placeName": "SUDBURY",
        "streetNameDisplayText": "GRANITE ST, SUDBURY"
      }
    ]
  },
  {
    "postal": "P3C1T6",
    "result": [
      {
        "electoralDistricts": [
          {
            "election": null,
            "id": 103,
            "name": "Sudbury"
          }
        ],
        "pollDivisionIds": [
          10142134
        ],
        "postalCode": "P3C1T6",
        "streetName": "ELM",
        "streetDirectionId": null,
        "streetTypeId": "ST",
        "placeName": "SUDBURY",
        "streetNameDisplayText": "ELM ST, SUDBURY"
      }
    ]
  },
  {
    "postal": "P3C4P6",
    "result": [
      {
        "electoralDistricts": [
          {
            "election": null,
            "id": 103,
            "name": "Sudbury"
          }
        ],
        "pollDivisionIds": [
          10142131
        ],
        "postalCode": "P3C4P6",
        "streetName": "LORNE",
        "streetDirectionId": null,
        "streetTypeId": "ST",
        "placeName": "SUDBURY",
        "streetNameDisplayText": "LORNE ST, SUDBURY"
      }
    ]
  },
  {
    "postal": "P3C3K1",
    "result": [
      {
        "electoralDistricts": [
          {
            "election": null,
            "id": 103,
            "name": "Sudbury"
          }
        ],
        "pollDivisionIds": [
          10142132
        ],
        "postalCode": "P3C3K1",
        "streetName": "TRAVERS",
        "streetDirectionId": null,
        "streetTypeId": "ST",
        "placeName": "SUDBURY",
        "streetNameDisplayText": "TRAVERS ST, SUDBURY"
      }
    ]
  },
  {
    "postal": "P3C6X4",
    "result": []
  },
  {
    "postal": "P3C4M8",
    "result": [
      {
        "electoralDistricts": [
          {
            "election": null,
            "id": 103,
            "name": "Sudbury"
          }
        ],
        "pollDivisionIds": [
          10142133
        ],
        "postalCode": "P3C4M8",
        "streetName": "ANTWERP",
        "streetDirectionId": null,
        "streetTypeId": "AVE",
        "placeName": "SUDBURY",
        "streetNameDisplayText": "ANTWERP AVE, SUDBURY"
      }
    ]
  },
  {
    "postal": "P3C2Y1",
    "result": [
      {
        "electoralDistricts": [
          {
            "election": null,
            "id": 103,
            "name": "Sudbury"
          }
        ],
        "pollDivisionIds": [
          10142137
        ],
        "postalCode": "P3C2Y1",
        "streetName": "DELL",
        "streetDirectionId": null,
        "streetTypeId": "ST",
        "placeName": "SUDBURY",
        "streetNameDisplayText": "DELL ST, SUDBURY"
      }
    ]
  },
  {
    "postal": "P3C6M1",
    "result": []
  },
  {
    "postal": "P3C5L8",
    "result": [
      {
        "electoralDistricts": [
          {
            "election": null,
            "id": 103,
            "name": "Sudbury"
          }
        ],
        "pollDivisionIds": [
          10142139
        ],
        "postalCode": "P3C5L8",
        "streetName": "CAMBRIAN HEIGHTS",
        "streetDirectionId": null,
        "streetTypeId": "DR",
        "placeName": "SUDBURY",
        "streetNameDisplayText": "CAMBRIAN HEIGHTS DR, SUDBURY"
      }
    ]
  },
  {
    "postal": "P3C3P6",
    "result": [
      {
        "electoralDistricts": [
          {
            "election": null,
            "id": 103,
            "name": "Sudbury"
          }
        ],
        "pollDivisionIds": [
          10142132
        ],
        "postalCode": "P3C3P6",
        "streetName": "ETHELBERT",
        "streetDirectionId": null,
        "streetTypeId": "ST",
        "placeName": "SUDBURY",
        "streetNameDisplayText": "ETHELBERT ST, SUDBURY"
      }
    ]
  },
  {
    "postal": "P3C9A5",
    "result": []
  },
  {
    "postal": "P3C7K1",
    "result": []
  },
  {
    "postal": "P3C3J4",
    "result": [
      {
        "electoralDistricts": [
          {
            "election": null,
            "id": 103,
            "name": "Sudbury"
          }
        ],
        "pollDivisionIds": [
          10142130
        ],
        "postalCode": "P3C3J4",
        "streetName": "BULMER",
        "streetDirectionId": null,
        "streetTypeId": "AVE",
        "placeName": "SUDBURY",
        "streetNameDisplayText": "BULMER AVE, SUDBURY"
      }
    ]
  },
  {
    "postal": "P3C5E7",
    "result": [
      {
        "electoralDistricts": [
          {
            "election": null,
            "id": 103,
            "name": "Sudbury"
          }
        ],
        "pollDivisionIds": [
          10142134
        ],
        "postalCode": "P3C5E7",
        "streetName": "D'YOUVILLE",
        "streetDirectionId": null,
        "streetTypeId": "ST",
        "placeName": "SUDBURY",
        "streetNameDisplayText": "D'YOUVILLE ST, SUDBURY"
      }
    ]
  },
  {
    "postal": "P3C3A7",
    "result": [
      {
        "electoralDistricts": [
          {
            "election": null,
            "id": 103,
            "name": "Sudbury"
          }
        ],
        "pollDivisionIds": [
          10142130
        ],
        "postalCode": "P3C3A7",
        "streetName": "SUTHERLAND",
        "streetDirectionId": null,
        "streetTypeId": "AVE",
        "placeName": "SUDBURY",
        "streetNameDisplayText": "SUTHERLAND AVE, SUDBURY"
      }
    ]
  },
  {
    "postal": "P3C1B9",
    "result": [
      {
        "electoralDistricts": [
          {
            "election": null,
            "id": 103,
            "name": "Sudbury"
          }
        ],
        "pollDivisionIds": [
          10142130
        ],
        "postalCode": "P3C1B9",
        "streetName": "LANDSEND",
        "streetDirectionId": null,
        "streetTypeId": "ST",
        "placeName": "SUDBURY",
        "streetNameDisplayText": "LANDSEND ST, SUDBURY"
      }
    ]
  },
  {
    "postal": "P3C9E8",
    "result": []
  },
  {
    "postal": "P3C1C9",
    "result": [
      {
        "electoralDistricts": [
          {
            "election": null,
            "id": 103,
            "name": "Sudbury"
          }
        ],
        "pollDivisionIds": [
          10142131
        ],
        "postalCode": "P3C1C9",
        "streetName": "HAIG",
        "streetDirectionId": null,
        "streetTypeId": "ST",
        "placeName": "SUDBURY",
        "streetNameDisplayText": "HAIG ST, SUDBURY"
      }
    ]
  },
  {
    "postal": "P3C3B5",
    "result": [
      {
        "electoralDistricts": [
          {
            "election": null,
            "id": 103,
            "name": "Sudbury"
          }
        ],
        "pollDivisionIds": [
          10142130
        ],
        "postalCode": "P3C3B5",
        "streetName": "WALTER",
        "streetDirectionId": null,
        "streetTypeId": "AVE",
        "placeName": "GREATER SUDBURY",
        "streetNameDisplayText": "WALTER AVE, GREATER SUDBURY"
      },
      {
        "electoralDistricts": [
          {
            "election": null,
            "id": 103,
            "name": "Sudbury"
          }
        ],
        "pollDivisionIds": [
          10142130
        ],
        "postalCode": "P3C3B5",
        "streetName": "WALTER",
        "streetDirectionId": null,
        "streetTypeId": "AVE",
        "placeName": "SUDBURY",
        "streetNameDisplayText": "WALTER AVE, SUDBURY"
      }
    ]
  },
  {
    "postal": "P3C8R0",
    "result": []
  },
  {
    "postal": "P3C3P2",
    "result": [
      {
        "electoralDistricts": [
          {
            "election": null,
            "id": 103,
            "name": "Sudbury"
          }
        ],
        "pollDivisionIds": [
          10142131
        ],
        "postalCode": "P3C3P2",
        "streetName": "EDNA",
        "streetDirectionId": null,
        "streetTypeId": "ST",
        "placeName": "SUDBURY",
        "streetNameDisplayText": "EDNA ST, SUDBURY"
      }
    ]
  },
  {
    "postal": "P3C5V4",
    "result": []
  },
  {
    "postal": "P3C4H0",
    "result": []
  },
  {
    "postal": "P3C4S7",
    "result": [
      {
        "electoralDistricts": [
          {
            "election": null,
            "id": 103,
            "name": "Sudbury"
          }
        ],
        "pollDivisionIds": [
          10142130
        ],
        "postalCode": "P3C4S7",
        "streetName": "LORNE",
        "streetDirectionId": null,
        "streetTypeId": "ST",
        "placeName": "SUDBURY",
        "streetNameDisplayText": "LORNE ST, SUDBURY"
      }
    ]
  },
  {
    "postal": "P3C6C2",
    "result": []
  },
  {
    "postal": "P3C8W3",
    "result": []
  },
  {
    "postal": "P3C4M5",
    "result": [
      {
        "electoralDistricts": [
          {
            "election": null,
            "id": 103,
            "name": "Sudbury"
          }
        ],
        "pollDivisionIds": [
          10142134
        ],
        "postalCode": "P3C4M5",
        "streetName": "LANSDOWNE",
        "streetDirectionId": null,
        "streetTypeId": "ST",
        "placeName": "SUDBURY",
        "streetNameDisplayText": "LANSDOWNE ST, SUDBURY"
      }
    ]
  },
  {
    "postal": "P3C5T1",
    "result": []
  },
  {
    "postal": "P3C3B3",
    "result": [
      {
        "electoralDistricts": [
          {
            "election": null,
            "id": 103,
            "name": "Sudbury"
          }
        ],
        "pollDivisionIds": [
          10142169,
          10142130
        ],
        "postalCode": "P3C3B3",
        "streetName": "WALTER",
        "streetDirectionId": null,
        "streetTypeId": "AVE",
        "placeName": "SUDBURY",
        "streetNameDisplayText": "WALTER AVE, SUDBURY"
      }
    ]
  },
  {
    "postal": "P3C6C6",
    "result": []
  },
  {
    "postal": "P3C7N8",
    "result": []
  },
  {
    "postal": "P3C2Y3",
    "result": [
      {
        "electoralDistricts": [
          {
            "election": null,
            "id": 103,
            "name": "Sudbury"
          }
        ],
        "pollDivisionIds": [
          10142137
        ],
        "postalCode": "P3C2Y3",
        "streetName": "DELL",
        "streetDirectionId": null,
        "streetTypeId": "ST",
        "placeName": "SUDBURY",
        "streetNameDisplayText": "DELL ST, SUDBURY"
      }
    ]
  },
  {
    "postal": "P3C2R6",
    "result": [
      {
        "electoralDistricts": [
          {
            "election": null,
            "id": 103,
            "name": "Sudbury"
          }
        ],
        "pollDivisionIds": [
          10142133
        ],
        "postalCode": "P3C2R6",
        "streetName": "JEAN",
        "streetDirectionId": null,
        "streetTypeId": "ST",
        "placeName": "SUDBURY",
        "streetNameDisplayText": "JEAN ST, SUDBURY"
      }
    ]
  },
  {
    "postal": "P3C7N3",
    "result": []
  },
  {
    "postal": "P3C8J2",
    "result": []
  },
  {
    "postal": "P3C6A9",
    "result": []
  },
  {
    "postal": "P3C3V2",
    "result": [
      {
        "electoralDistricts": [
          {
            "election": null,
            "id": 103,
            "name": "Sudbury"
          }
        ],
        "pollDivisionIds": [
          10142132
        ],
        "postalCode": "P3C3V2",
        "streetName": "ERIE",
        "streetDirectionId": null,
        "streetTypeId": "ST",
        "placeName": "SUDBURY",
        "streetNameDisplayText": "ERIE ST, SUDBURY"
      }
    ]
  },
  {
    "postal": "P3C2N3",
    "result": [
      {
        "electoralDistricts": [
          {
            "election": null,
            "id": 103,
            "name": "Sudbury"
          }
        ],
        "pollDivisionIds": [
          10142133
        ],
        "postalCode": "P3C2N3",
        "streetName": "KATHLEEN",
        "streetDirectionId": null,
        "streetTypeId": "ST",
        "placeName": "SUDBURY",
        "streetNameDisplayText": "KATHLEEN ST, SUDBURY"
      }
    ]
  },
  {
    "postal": "P3C1S5",
    "result": []
  },
  {
    "postal": "P3C4T7",
    "result": [
      {
        "electoralDistricts": [
          {
            "election": null,
            "id": 103,
            "name": "Sudbury"
          }
        ],
        "pollDivisionIds": [
          10142134
        ],
        "postalCode": "P3C4T7",
        "streetName": "COLLEGE",
        "streetDirectionId": null,
        "streetTypeId": "ST",
        "placeName": "SUDBURY",
        "streetNameDisplayText": "COLLEGE ST, SUDBURY"
      }
    ]
  },
  {
    "postal": "P3C6Y7",
    "result": []
  },
  {
    "postal": "P3C0W7",
    "result": []
  },
  {
    "postal": "P3C2W9",
    "result": [
      {
        "electoralDistricts": [
          {
            "election": null,
            "id": 103,
            "name": "Sudbury"
          }
        ],
        "pollDivisionIds": [
          10142136
        ],
        "postalCode": "P3C2W9",
        "streetName": "ST GEORGE",
        "streetDirectionId": null,
        "streetTypeId": "ST",
        "placeName": "SUDBURY",
        "streetNameDisplayText": "ST GEORGE ST, SUDBURY"
      }
    ]
  },
  {
    "postal": "P3C8V0",
    "result": []
  },
  {
    "postal": "P3C0H4",
    "result": []
  },
  {
    "postal": "P3C2T1",
    "result": [
      {
        "electoralDistricts": [
          {
            "election": null,
            "id": 103,
            "name": "Sudbury"
          }
        ],
        "pollDivisionIds": [
          10142133
        ],
        "postalCode": "P3C2T1",
        "streetName": "JEAN",
        "streetDirectionId": null,
        "streetTypeId": "ST",
        "placeName": "SUDBURY",
        "streetNameDisplayText": "JEAN ST, SUDBURY"
      }
    ]
  },
  {
    "postal": "P3C1B1",
    "result": [
      {
        "electoralDistricts": [
          {
            "election": null,
            "id": 103,
            "name": "Sudbury"
          }
        ],
        "pollDivisionIds": [
          10142130
        ],
        "postalCode": "P3C1B1",
        "streetName": "JANE",
        "streetDirectionId": null,
        "streetTypeId": "ST",
        "placeName": "SUDBURY",
        "streetNameDisplayText": "JANE ST, SUDBURY"
      }
    ]
  },
  {
    "postal": "P3C8B6",
    "result": []
  },
  {
    "postal": "P3C6H1",
    "result": []
  },
  {
    "postal": "P3C8T8",
    "result": []
  },
  {
    "postal": "P3C0T4",
    "result": []
  },
  {
    "postal": "P3C2C4",
    "result": [
      {
        "electoralDistricts": [
          {
            "election": null,
            "id": 103,
            "name": "Sudbury"
          }
        ],
        "pollDivisionIds": [
          10142132
        ],
        "postalCode": "P3C2C4",
        "streetName": "POPLAR",
        "streetDirectionId": null,
        "streetTypeId": "ST",
        "placeName": "SUDBURY",
        "streetNameDisplayText": "POPLAR ST, SUDBURY"
      }
    ]
  },
  {
    "postal": "P3C8N3",
    "result": []
  },
  {
    "postal": "P3C4L8",
    "result": [
      {
        "electoralDistricts": [
          {
            "election": null,
            "id": 103,
            "name": "Sudbury"
          }
        ],
        "pollDivisionIds": [
          10142134
        ],
        "postalCode": "P3C4L8",
        "streetName": "HARTMAN",
        "streetDirectionId": null,
        "streetTypeId": "AVE",
        "placeName": "SUDBURY",
        "streetNameDisplayText": "HARTMAN AVE, SUDBURY"
      }
    ]
  },
  {
    "postal": "P3C2B5",
    "result": [
      {
        "electoralDistricts": [
          {
            "election": null,
            "id": 103,
            "name": "Sudbury"
          }
        ],
        "pollDivisionIds": [
          10142132
        ],
        "postalCode": "P3C2B5",
        "streetName": "MAPLE",
        "streetDirectionId": null,
        "streetTypeId": "ST",
        "placeName": "SUDBURY",
        "streetNameDisplayText": "MAPLE ST, SUDBURY"
      }
    ]
  },
  {
    "postal": "P3C3H1",
    "result": [
      {
        "electoralDistricts": [
          {
            "election": null,
            "id": 103,
            "name": "Sudbury"
          }
        ],
        "pollDivisionIds": [
          10142130
        ],
        "postalCode": "P3C3H1",
        "streetName": "CLEMOW",
        "streetDirectionId": null,
        "streetTypeId": "AVE",
        "placeName": "SUDBURY",
        "streetNameDisplayText": "CLEMOW AVE, SUDBURY"
      }
    ]
  },
  {
    "postal": "P3C4Y1",
    "result": [
      {
        "electoralDistricts": [
          {
            "election": null,
            "id": 103,
            "name": "Sudbury"
          }
        ],
        "pollDivisionIds": [
          10142134
        ],
        "postalCode": "P3C4Y1",
        "streetName": "MACKENZIE",
        "streetDirectionId": null,
        "streetTypeId": "ST",
        "placeName": "SUDBURY",
        "streetNameDisplayText": "MACKENZIE ST, SUDBURY"
      }
    ]
  },
  {
    "postal": "P3C7E2",
    "result": []
  },
  {
    "postal": "P3C2P5",
    "result": [
      {
        "electoralDistricts": [
          {
            "election": null,
            "id": 103,
            "name": "Sudbury"
          }
        ],
        "pollDivisionIds": [
          10142132
        ],
        "postalCode": "P3C2P5",
        "streetName": "GRANITE",
        "streetDirectionId": null,
        "streetTypeId": "ST",
        "placeName": "SUDBURY",
        "streetNameDisplayText": "GRANITE ST, SUDBURY"
      }
    ]
  },
  {
    "postal": "P3C8R7",
    "result": []
  },
  {
    "postal": "P3C9P1",
    "result": []
  },
  {
    "postal": "P3C3B8",
    "result": [
      {
        "electoralDistricts": [
          {
            "election": null,
            "id": 103,
            "name": "Sudbury"
          }
        ],
        "pollDivisionIds": [
          10142130
        ],
        "postalCode": "P3C3B8",
        "streetName": "DEAN",
        "streetDirectionId": null,
        "streetTypeId": "AVE",
        "placeName": "SUDBURY",
        "streetNameDisplayText": "DEAN AVE, SUDBURY"
      }
    ]
  },
  {
    "postal": "P3C3P7",
    "result": [
      {
        "electoralDistricts": [
          {
            "election": null,
            "id": 103,
            "name": "Sudbury"
          }
        ],
        "pollDivisionIds": [
          10142132
        ],
        "postalCode": "P3C3P7",
        "streetName": "ETHELBERT",
        "streetDirectionId": null,
        "streetTypeId": "ST",
        "placeName": "SUDBURY",
        "streetNameDisplayText": "ETHELBERT ST, SUDBURY"
      }
    ]
  },
  {
    "postal": "P3C9B2",
    "result": []
  },
  {
    "postal": "P3C6Z3",
    "result": []
  },
  {
    "postal": "P3C4N5",
    "result": [
      {
        "electoralDistricts": [
          {
            "election": null,
            "id": 103,
            "name": "Sudbury"
          }
        ],
        "pollDivisionIds": [
          10142133
        ],
        "postalCode": "P3C4N5",
        "streetName": "EVA",
        "streetDirectionId": null,
        "streetTypeId": "AVE",
        "placeName": "SUDBURY",
        "streetNameDisplayText": "EVA AVE, SUDBURY"
      }
    ]
  },
  {
    "postal": "P3C8T3",
    "result": []
  },
  {
    "postal": "P3C1V2",
    "result": []
  },
  {
    "postal": "P3C1Y0",
    "result": []
  },
  {
    "postal": "P3C3G6",
    "result": [
      {
        "electoralDistricts": [
          {
            "election": null,
            "id": 103,
            "name": "Sudbury"
          }
        ],
        "pollDivisionIds": [
          10142130
        ],
        "postalCode": "P3C3G6",
        "streetName": "MORRISON",
        "streetDirectionId": null,
        "streetTypeId": "AVE",
        "placeName": "SUDBURY",
        "streetNameDisplayText": "MORRISON AVE, SUDBURY"
      }
    ]
  },
  {
    "postal": "P3C3H7",
    "result": [
      {
        "electoralDistricts": [
          {
            "election": null,
            "id": 103,
            "name": "Sudbury"
          }
        ],
        "pollDivisionIds": [
          10142130
        ],
        "postalCode": "P3C3H7",
        "streetName": "GUTCHER",
        "streetDirectionId": null,
        "streetTypeId": "AVE",
        "placeName": "SUDBURY",
        "streetNameDisplayText": "GUTCHER AVE, SUDBURY"
      }
    ]
  },
  {
    "postal": "P3C7X8",
    "result": []
  },
  {
    "postal": "P3C0C7",
    "result": []
  },
  {
    "postal": "P3C0W9",
    "result": []
  },
  {
    "postal": "P3C8E6",
    "result": []
  },
  {
    "postal": "P3C9Z8",
    "result": []
  },
  {
    "postal": "P3C3P4",
    "result": [
      {
        "electoralDistricts": [
          {
            "election": null,
            "id": 103,
            "name": "Sudbury"
          }
        ],
        "pollDivisionIds": [
          10142132
        ],
        "postalCode": "P3C3P4",
        "streetName": "ETHELBERT",
        "streetDirectionId": null,
        "streetTypeId": "ST",
        "placeName": "SUDBURY",
        "streetNameDisplayText": "ETHELBERT ST, SUDBURY"
      }
    ]
  },
  {
    "postal": "P3C6L8",
    "result": []
  },
  {
    "postal": "P3C2R4",
    "result": [
      {
        "electoralDistricts": [
          {
            "election": null,
            "id": 103,
            "name": "Sudbury"
          }
        ],
        "pollDivisionIds": [
          10142136
        ],
        "postalCode": "P3C2R4",
        "streetName": "MABEL",
        "streetDirectionId": null,
        "streetTypeId": "AVE",
        "placeName": "SUDBURY",
        "streetNameDisplayText": "MABEL AVE, SUDBURY"
      }
    ]
  },
  {
    "postal": "P3C2W1",
    "result": [
      {
        "electoralDistricts": [
          {
            "election": null,
            "id": 103,
            "name": "Sudbury"
          }
        ],
        "pollDivisionIds": [
          10142136
        ],
        "postalCode": "P3C2W1",
        "streetName": "KING",
        "streetDirectionId": null,
        "streetTypeId": "ST",
        "placeName": "SUDBURY",
        "streetNameDisplayText": "KING ST, SUDBURY"
      }
    ]
  },
  {
    "postal": "P3C9H8",
    "result": []
  },
  {
    "postal": "P3C8X9",
    "result": []
  },
  {
    "postal": "P3C7H4",
    "result": []
  },
  {
    "postal": "P3C3J1",
    "result": [
      {
        "electoralDistricts": [
          {
            "election": null,
            "id": 103,
            "name": "Sudbury"
          }
        ],
        "pollDivisionIds": [
          10142171
        ],
        "postalCode": "P3C3J1",
        "streetName": "PACIFIC",
        "streetDirectionId": null,
        "streetTypeId": "AVE",
        "placeName": "SUDBURY",
        "streetNameDisplayText": "PACIFIC AVE, SUDBURY"
      }
    ]
  },
  {
    "postal": "P3C1P4",
    "result": [
      {
        "electoralDistricts": [
          {
            "election": null,
            "id": 103,
            "name": "Sudbury"
          }
        ],
        "pollDivisionIds": [
          10142132
        ],
        "postalCode": "P3C1P4",
        "streetName": "SPRUCE",
        "streetDirectionId": null,
        "streetTypeId": "ST",
        "placeName": "SUDBURY",
        "streetNameDisplayText": "SPRUCE ST, SUDBURY"
      }
    ]
  },
  {
    "postal": "P3C2A3",
    "result": [
      {
        "electoralDistricts": [
          {
            "election": null,
            "id": 103,
            "name": "Sudbury"
          }
        ],
        "pollDivisionIds": [
          10142132
        ],
        "postalCode": "P3C2A3",
        "streetName": "ASH",
        "streetDirectionId": null,
        "streetTypeId": "ST",
        "placeName": "SUDBURY",
        "streetNameDisplayText": "ASH ST, SUDBURY"
      }
    ]
  },
  {
    "postal": "P3C0Z1",
    "result": []
  },
  {
    "postal": "P3C1C1",
    "result": [
      {
        "electoralDistricts": [
          {
            "election": null,
            "id": 103,
            "name": "Sudbury"
          }
        ],
        "pollDivisionIds": [
          10142130
        ],
        "postalCode": "P3C1C1",
        "streetName": "LANDSEND",
        "streetDirectionId": null,
        "streetTypeId": "ST",
        "placeName": "SUDBURY",
        "streetNameDisplayText": "LANDSEND ST, SUDBURY"
      }
    ]
  },
  {
    "postal": "P3C0H3",
    "result": []
  },
  {
    "postal": "P3C7B0",
    "result": []
  },
  {
    "postal": "P3C5K2",
    "result": [
      {
        "electoralDistricts": [
          {
            "election": null,
            "id": 103,
            "name": "Sudbury"
          }
        ],
        "pollDivisionIds": [
          10142151
        ],
        "postalCode": "P3C5K2",
        "streetName": "NOTRE DAME",
        "streetDirectionId": null,
        "streetTypeId": "AVE",
        "placeName": "SUDBURY",
        "streetNameDisplayText": "NOTRE DAME AVE, SUDBURY"
      }
    ]
  },
  {
    "postal": "P3C1E9",
    "result": [
      {
        "electoralDistricts": [
          {
            "election": null,
            "id": 103,
            "name": "Sudbury"
          }
        ],
        "pollDivisionIds": [
          10142131
        ],
        "postalCode": "P3C1E9",
        "streetName": "ARNLEY",
        "streetDirectionId": null,
        "streetTypeId": "ST",
        "placeName": "SUDBURY",
        "streetNameDisplayText": "ARNLEY ST, SUDBURY"
      }
    ]
  },
  {
    "postal": "P3C9W7",
    "result": []
  },
  {
    "postal": "P3C5W6",
    "result": []
  },
  {
    "postal": "P3C6S6",
    "result": []
  },
  {
    "postal": "P3C2P8",
    "result": [
      {
        "electoralDistricts": [
          {
            "election": null,
            "id": 103,
            "name": "Sudbury"
          }
        ],
        "pollDivisionIds": [
          10142132
        ],
        "postalCode": "P3C2P8",
        "streetName": "HURON",
        "streetDirectionId": null,
        "streetTypeId": "ST",
        "placeName": "SUDBURY",
        "streetNameDisplayText": "HURON ST, SUDBURY"
      }
    ]
  },
  {
    "postal": "P3C4P8",
    "result": [
      {
        "electoralDistricts": [
          {
            "election": null,
            "id": 103,
            "name": "Sudbury"
          }
        ],
        "pollDivisionIds": [
          10142131
        ],
        "postalCode": "P3C4P8",
        "streetName": "LORNE",
        "streetDirectionId": null,
        "streetTypeId": "ST",
        "placeName": "SUDBURY",
        "streetNameDisplayText": "LORNE ST, SUDBURY"
      }
    ]
  },
  {
    "postal": "P3C0V9",
    "result": []
  },
  {
    "postal": "P3C5Y2",
    "result": []
  },
  {
    "postal": "P3C7Z7",
    "result": []
  },
  {
    "postal": "P3C6Y8",
    "result": []
  },
  {
    "postal": "P3C2G7",
    "result": [
      {
        "electoralDistricts": [
          {
            "election": null,
            "id": 103,
            "name": "Sudbury"
          }
        ],
        "pollDivisionIds": [
          10142134
        ],
        "postalCode": "P3C2G7",
        "streetName": "LEVIS",
        "streetDirectionId": null,
        "streetTypeId": "ST",
        "placeName": "SUDBURY",
        "streetNameDisplayText": "LEVIS ST, SUDBURY"
      }
    ]
  },
  {
    "postal": "P3C8C1",
    "result": []
  },
  {
    "postal": "P3C5C5",
    "result": [
      {
        "electoralDistricts": [
          {
            "election": null,
            "id": 103,
            "name": "Sudbury"
          }
        ],
        "pollDivisionIds": [
          10142134
        ],
        "postalCode": "P3C5C5",
        "streetName": "MONTCALM",
        "streetDirectionId": null,
        "streetTypeId": "AVE",
        "placeName": "SUDBURY",
        "streetNameDisplayText": "MONTCALM AVE, SUDBURY"
      }
    ]
  },
  {
    "postal": "P3C2X8",
    "result": [
      {
        "electoralDistricts": [
          {
            "election": null,
            "id": 103,
            "name": "Sudbury"
          }
        ],
        "pollDivisionIds": [
          10142136
        ],
        "postalCode": "P3C2X8",
        "streetName": "DELL",
        "streetDirectionId": null,
        "streetTypeId": "ST",
        "placeName": "SUDBURY",
        "streetNameDisplayText": "DELL ST, SUDBURY"
      }
    ]
  },
  {
    "postal": "P3C1W5",
    "result": [
      {
        "electoralDistricts": [
          {
            "election": null,
            "id": 103,
            "name": "Sudbury"
          }
        ],
        "pollDivisionIds": [
          10142132
        ],
        "postalCode": "P3C1W5",
        "streetName": "ELM",
        "streetDirectionId": null,
        "streetTypeId": "ST",
        "placeName": "SUDBURY",
        "streetNameDisplayText": "ELM ST, SUDBURY"
      }
    ]
  },
  {
    "postal": "P3C7G0",
    "result": []
  },
  {
    "postal": "P3C8J8",
    "result": []
  },
  {
    "postal": "P3C3Y0",
    "result": []
  },
  {
    "postal": "P3C9T7",
    "result": []
  },
  {
    "postal": "P3C5P4",
    "result": [
      {
        "electoralDistricts": [
          {
            "election": null,
            "id": 103,
            "name": "Sudbury"
          }
        ],
        "pollDivisionIds": [
          10142131
        ],
        "postalCode": "P3C5P4",
        "streetName": "ALDER",
        "streetDirectionId": null,
        "streetTypeId": "ST",
        "placeName": "SUDBURY",
        "streetNameDisplayText": "ALDER ST, SUDBURY"
      }
    ]
  },
  {
    "postal": "P3C4B0",
    "result": []
  },
  {
    "postal": "P3C9N8",
    "result": []
  },
  {
    "postal": "P3C4A7",
    "result": [
      {
        "electoralDistricts": [
          {
            "election": null,
            "id": 103,
            "name": "Sudbury"
          }
        ],
        "pollDivisionIds": [
          10142132
        ],
        "postalCode": "P3C4A7",
        "streetName": "EYRE",
        "streetDirectionId": null,
        "streetTypeId": "ST",
        "placeName": "SUDBURY",
        "streetNameDisplayText": "EYRE ST, SUDBURY"
      }
    ]
  },
  {
    "postal": "P3C4H9",
    "result": [
      {
        "electoralDistricts": [
          {
            "election": null,
            "id": 103,
            "name": "Sudbury"
          }
        ],
        "pollDivisionIds": [
          10142133
        ],
        "postalCode": "P3C4H9",
        "streetName": "BESSIE",
        "streetDirectionId": null,
        "streetTypeId": "AVE",
        "placeName": "SUDBURY",
        "streetNameDisplayText": "BESSIE AVE, SUDBURY"
      }
    ]
  },
  {
    "postal": "P3C6X1",
    "result": []
  },
  {
    "postal": "P3C9Y7",
    "result": []
  },
  {
    "postal": "P3C2Y5",
    "result": [
      {
        "electoralDistricts": [
          {
            "election": null,
            "id": 103,
            "name": "Sudbury"
          }
        ],
        "pollDivisionIds": [
          10142136
        ],
        "postalCode": "P3C2Y5",
        "streetName": "DELL",
        "streetDirectionId": null,
        "streetTypeId": "ST",
        "placeName": "SUDBURY",
        "streetNameDisplayText": "DELL ST, SUDBURY"
      }
    ]
  },
  {
    "postal": "P3C8L7",
    "result": []
  },
  {
    "postal": "P3C2A8",
    "result": [
      {
        "electoralDistricts": [
          {
            "election": null,
            "id": 103,
            "name": "Sudbury"
          }
        ],
        "pollDivisionIds": [
          10142132
        ],
        "postalCode": "P3C2A8",
        "streetName": "ASH",
        "streetDirectionId": null,
        "streetTypeId": "ST",
        "placeName": "SUDBURY",
        "streetNameDisplayText": "ASH ST, SUDBURY"
      }
    ]
  },
  {
    "postal": "P3C2K9",
    "result": [
      {
        "electoralDistricts": [
          {
            "election": null,
            "id": 103,
            "name": "Sudbury"
          }
        ],
        "pollDivisionIds": [
          10142134
        ],
        "postalCode": "P3C2K9",
        "streetName": "BLOOR",
        "streetDirectionId": null,
        "streetTypeId": "ST",
        "placeName": "SUDBURY",
        "streetNameDisplayText": "BLOOR ST, SUDBURY"
      }
    ]
  },
  {
    "postal": "P3C3E5",
    "result": [
      {
        "electoralDistricts": [
          {
            "election": null,
            "id": 103,
            "name": "Sudbury"
          }
        ],
        "pollDivisionIds": [
          10142130
        ],
        "postalCode": "P3C3E5",
        "streetName": "LOGAN",
        "streetDirectionId": null,
        "streetTypeId": "AVE",
        "placeName": "SUDBURY",
        "streetNameDisplayText": "LOGAN AVE, SUDBURY"
      }
    ]
  },
  {
    "postal": "P3C8N6",
    "result": []
  },
  {
    "postal": "P3C8J4",
    "result": []
  },
  {
    "postal": "P3C4R7",
    "result": [
      {
        "electoralDistricts": [
          {
            "election": null,
            "id": 103,
            "name": "Sudbury"
          }
        ],
        "pollDivisionIds": [
          10142130
        ],
        "postalCode": "P3C4R7",
        "streetName": "LORNE",
        "streetDirectionId": null,
        "streetTypeId": "ST",
        "placeName": "SUDBURY",
        "streetNameDisplayText": "LORNE ST, SUDBURY"
      }
    ]
  },
  {
    "postal": "P3C9K1",
    "result": []
  },
  {
    "postal": "P3C8E1",
    "result": []
  },
  {
    "postal": "P3C0R1",
    "result": []
  },
  {
    "postal": "P3C4J3",
    "result": [
      {
        "electoralDistricts": [
          {
            "election": null,
            "id": 103,
            "name": "Sudbury"
          }
        ],
        "pollDivisionIds": [
          10142131
        ],
        "postalCode": "P3C4J3",
        "streetName": "ALDER",
        "streetDirectionId": null,
        "streetTypeId": "ST",
        "placeName": "SUDBURY",
        "streetNameDisplayText": "ALDER ST, SUDBURY"
      }
    ]
  },
  {
    "postal": "P3C7E7",
    "result": []
  },
  {
    "postal": "P3C0J0",
    "result": []
  },
  {
    "postal": "P3C7R8",
    "result": []
  },
  {
    "postal": "P3C9X0",
    "result": []
  },
  {
    "postal": "P3C7P6",
    "result": []
  },
  {
    "postal": "P3C0R7",
    "result": []
  },
  {
    "postal": "P3C5W1",
    "result": []
  },
  {
    "postal": "P3C0K4",
    "result": []
  },
  {
    "postal": "P3C7N9",
    "result": []
  },
  {
    "postal": "P3C1N0",
    "result": []
  },
  {
    "postal": "P3C6P3",
    "result": []
  },
  {
    "postal": "P3C5A1",
    "result": [
      {
        "electoralDistricts": [
          {
            "election": null,
            "id": 103,
            "name": "Sudbury"
          }
        ],
        "pollDivisionIds": [
          10142133
        ],
        "postalCode": "P3C5A1",
        "streetName": "FROOD",
        "streetDirectionId": null,
        "streetTypeId": "RD",
        "placeName": "SUDBURY",
        "streetNameDisplayText": "FROOD RD, SUDBURY"
      }
    ]
  },
  {
    "postal": "P3C9M9",
    "result": []
  },
  {
    "postal": "P3C7T6",
    "result": []
  },
  {
    "postal": "P3C3X0",
    "result": []
  },
  {
    "postal": "P3C2T0",
    "result": []
  },
  {
    "postal": "P3C5X9",
    "result": []
  },
  {
    "postal": "P3C2R3",
    "result": [
      {
        "electoralDistricts": [
          {
            "election": null,
            "id": 103,
            "name": "Sudbury"
          }
        ],
        "pollDivisionIds": [
          10142136,
          10142133
        ],
        "postalCode": "P3C2R3",
        "streetName": "MABEL",
        "streetDirectionId": null,
        "streetTypeId": "AVE",
        "placeName": "SUDBURY",
        "streetNameDisplayText": "MABEL AVE, SUDBURY"
      }
    ]
  },
  {
    "postal": "P3C5N2",
    "result": []
  },
  {
    "postal": "P3C4Y7",
    "result": [
      {
        "electoralDistricts": [
          {
            "election": null,
            "id": 103,
            "name": "Sudbury"
          }
        ],
        "pollDivisionIds": [
          10142134
        ],
        "postalCode": "P3C4Y7",
        "streetName": "MACKENZIE",
        "streetDirectionId": null,
        "streetTypeId": "ST",
        "placeName": "SUDBURY",
        "streetNameDisplayText": "MACKENZIE ST, SUDBURY"
      }
    ]
  },
  {
    "postal": "P3C7M0",
    "result": []
  },
  {
    "postal": "P3C8P3",
    "result": []
  },
  {
    "postal": "P3C3N3",
    "result": [
      {
        "electoralDistricts": [
          {
            "election": null,
            "id": 103,
            "name": "Sudbury"
          }
        ],
        "pollDivisionIds": [
          10142131
        ],
        "postalCode": "P3C3N3",
        "streetName": "BYNG",
        "streetDirectionId": null,
        "streetTypeId": "ST",
        "placeName": "SUDBURY",
        "streetNameDisplayText": "BYNG ST, SUDBURY"
      }
    ]
  },
  {
    "postal": "P3C7S3",
    "result": []
  },
  {
    "postal": "P3C3V9",
    "result": [
      {
        "electoralDistricts": [
          {
            "election": null,
            "id": 103,
            "name": "Sudbury"
          }
        ],
        "pollDivisionIds": [
          10142131
        ],
        "postalCode": "P3C3V9",
        "streetName": "ALBINSON",
        "streetDirectionId": null,
        "streetTypeId": "ST",
        "placeName": "SUDBURY",
        "streetNameDisplayText": "ALBINSON ST, SUDBURY"
      }
    ]
  },
  {
    "postal": "P3C9N7",
    "result": []
  },
  {
    "postal": "P3C0G4",
    "result": []
  },
  {
    "postal": "P3C2E2",
    "result": []
  },
  {
    "postal": "P3C7W8",
    "result": []
  },
  {
    "postal": "P3C7M5",
    "result": []
  },
  {
    "postal": "P3C5W8",
    "result": []
  },
  {
    "postal": "P3C5E5",
    "result": []
  },
  {
    "postal": "P3C1P9",
    "result": [
      {
        "electoralDistricts": [
          {
            "election": null,
            "id": 103,
            "name": "Sudbury"
          }
        ],
        "pollDivisionIds": [
          10142132
        ],
        "postalCode": "P3C1P9",
        "streetName": "SPRUCE",
        "streetDirectionId": null,
        "streetTypeId": "ST",
        "placeName": "SUDBURY",
        "streetNameDisplayText": "SPRUCE ST, SUDBURY"
      }
    ]
  },
  {
    "postal": "P3C8V8",
    "result": []
  },
  {
    "postal": "P3C9G8",
    "result": []
  },
  {
    "postal": "P3C8H9",
    "result": []
  },
  {
    "postal": "P3C1Z1",
    "result": []
  },
  {
    "postal": "P3C8M3",
    "result": []
  },
  {
    "postal": "P3C5H6",
    "result": [
      {
        "electoralDistricts": [
          {
            "election": null,
            "id": 103,
            "name": "Sudbury"
          }
        ],
        "pollDivisionIds": [
          10142136
        ],
        "postalCode": "P3C5H6",
        "streetName": "MORIN",
        "streetDirectionId": null,
        "streetTypeId": "AVE",
        "placeName": "SUDBURY",
        "streetNameDisplayText": "MORIN AVE, SUDBURY"
      }
    ]
  },
  {
    "postal": "P3C7W7",
    "result": []
  },
  {
    "postal": "P3C4L0",
    "result": []
  },
  {
    "postal": "P3C2N1",
    "result": [
      {
        "electoralDistricts": [
          {
            "election": null,
            "id": 103,
            "name": "Sudbury"
          }
        ],
        "pollDivisionIds": [
          10142134
        ],
        "postalCode": "P3C2N1",
        "streetName": "KATHLEEN",
        "streetDirectionId": null,
        "streetTypeId": "ST",
        "placeName": "SUDBURY",
        "streetNameDisplayText": "KATHLEEN ST, SUDBURY"
      }
    ]
  },
  {
    "postal": "P3C2H4",
    "result": [
      {
        "electoralDistricts": [
          {
            "election": null,
            "id": 103,
            "name": "Sudbury"
          }
        ],
        "pollDivisionIds": [
          10142132
        ],
        "postalCode": "P3C2H4",
        "streetName": "MCNEILL",
        "streetDirectionId": null,
        "streetTypeId": "BLVD",
        "placeName": "SUDBURY",
        "streetNameDisplayText": "MCNEILL BLVD, SUDBURY"
      }
    ]
  },
  {
    "postal": "P3C5C8",
    "result": [
      {
        "electoralDistricts": [
          {
            "election": null,
            "id": 103,
            "name": "Sudbury"
          }
        ],
        "pollDivisionIds": [
          10142127,
          10142134
        ],
        "postalCode": "P3C5C8",
        "streetName": "MONTCALM",
        "streetDirectionId": null,
        "streetTypeId": "AVE",
        "placeName": "SUDBURY",
        "streetNameDisplayText": "MONTCALM AVE, SUDBURY"
      }
    ]
  },
  {
    "postal": "P3C8B0",
    "result": []
  },
  {
    "postal": "P3C1T4",
    "result": [
      {
        "electoralDistricts": [
          {
            "election": null,
            "id": 103,
            "name": "Sudbury"
          }
        ],
        "pollDivisionIds": [
          10142168
        ],
        "postalCode": "P3C1T4",
        "streetName": "ELM",
        "streetDirectionId": null,
        "streetTypeId": "ST",
        "placeName": "SUDBURY",
        "streetNameDisplayText": "ELM ST, SUDBURY"
      }
    ]
  },
  {
    "postal": "P3C7N7",
    "result": []
  },
  {
    "postal": "P3C4L3",
    "result": [
      {
        "electoralDistricts": [
          {
            "election": null,
            "id": 103,
            "name": "Sudbury"
          }
        ],
        "pollDivisionIds": [
          10142140,
          10142136
        ],
        "postalCode": "P3C4L3",
        "streetName": "BURTON",
        "streetDirectionId": null,
        "streetTypeId": "AVE",
        "placeName": "SUDBURY",
        "streetNameDisplayText": "BURTON AVE, SUDBURY"
      }
    ]
  },
  {
    "postal": "P3C2N2",
    "result": [
      {
        "electoralDistricts": [
          {
            "election": null,
            "id": 103,
            "name": "Sudbury"
          }
        ],
        "pollDivisionIds": [
          10142133
        ],
        "postalCode": "P3C2N2",
        "streetName": "KATHLEEN",
        "streetDirectionId": null,
        "streetTypeId": "ST",
        "placeName": "SUDBURY",
        "streetNameDisplayText": "KATHLEEN ST, SUDBURY"
      }
    ]
  },
  {
    "postal": "P3C4N8",
    "result": [
      {
        "electoralDistricts": [
          {
            "election": null,
            "id": 103,
            "name": "Sudbury"
          }
        ],
        "pollDivisionIds": [
          10142168
        ],
        "postalCode": "P3C4N8",
        "streetName": "LORNE",
        "streetDirectionId": null,
        "streetTypeId": "ST",
        "placeName": "SUDBURY",
        "streetNameDisplayText": "LORNE ST, SUDBURY"
      }
    ]
  },
  {
    "postal": "P3C3M5",
    "result": [
      {
        "electoralDistricts": [
          {
            "election": null,
            "id": 103,
            "name": "Sudbury"
          }
        ],
        "pollDivisionIds": [
          10142131
        ],
        "postalCode": "P3C3M5",
        "streetName": "WESTVIEW",
        "streetDirectionId": null,
        "streetTypeId": "DR",
        "placeName": "SUDBURY",
        "streetNameDisplayText": "WESTVIEW DR, SUDBURY"
      }
    ]
  },
  {
    "postal": "P3C6H7",
    "result": []
  },
  {
    "postal": "P3C8Y8",
    "result": []
  },
  {
    "postal": "P3C5R9",
    "result": [
      {
        "electoralDistricts": [
          {
            "election": null,
            "id": 103,
            "name": "Sudbury"
          }
        ],
        "pollDivisionIds": [
          10142138
        ],
        "postalCode": "P3C5R9",
        "streetName": "BRUCE",
        "streetDirectionId": null,
        "streetTypeId": "AVE",
        "placeName": "SUDBURY",
        "streetNameDisplayText": "BRUCE AVE, SUDBURY"
      }
    ]
  },
  {
    "postal": "P3C8G3",
    "result": []
  },
  {
    "postal": "P3C4N7",
    "result": [
      {
        "electoralDistricts": [
          {
            "election": null,
            "id": 103,
            "name": "Sudbury"
          }
        ],
        "pollDivisionIds": [
          10142136
        ],
        "postalCode": "P3C4N7",
        "streetName": "SNOWDON",
        "streetDirectionId": null,
        "streetTypeId": "AVE",
        "placeName": "SUDBURY",
        "streetNameDisplayText": "SNOWDON AVE, SUDBURY"
      }
    ]
  },
  {
    "postal": "P3C0B9",
    "result": []
  },
  {
    "postal": "P3C9K7",
    "result": []
  },
  {
    "postal": "P3C9K9",
    "result": []
  },
  {
    "postal": "P3C3Z2",
    "result": [
      {
        "electoralDistricts": [
          {
            "election": null,
            "id": 103,
            "name": "Sudbury"
          }
        ],
        "pollDivisionIds": [
          10142132
        ],
        "postalCode": "P3C3Z2",
        "streetName": "STANLEY",
        "streetDirectionId": null,
        "streetTypeId": "ST",
        "placeName": "SUDBURY",
        "streetNameDisplayText": "STANLEY ST, SUDBURY"
      }
    ]
  },
  {
    "postal": "P3C6W7",
    "result": []
  },
  {
    "postal": "P3C0P1",
    "result": []
  },
  {
    "postal": "P3C3A0",
    "result": []
  },
  {
    "postal": "P3C8L9",
    "result": []
  },
  {
    "postal": "P3C6X0",
    "result": []
  },
  {
    "postal": "P3C3E9",
    "result": [
      {
        "electoralDistricts": [
          {
            "election": null,
            "id": 103,
            "name": "Sudbury"
          }
        ],
        "pollDivisionIds": [
          10142130
        ],
        "postalCode": "P3C3E9",
        "streetName": "TUDDENHAM",
        "streetDirectionId": null,
        "streetTypeId": "AVE",
        "placeName": "SUDBURY",
        "streetNameDisplayText": "TUDDENHAM AVE, SUDBURY"
      }
    ]
  },
  {
    "postal": "P3C0S5",
    "result": []
  },
  {
    "postal": "P3C1A2",
    "result": [
      {
        "electoralDistricts": [
          {
            "election": null,
            "id": 103,
            "name": "Sudbury"
          }
        ],
        "pollDivisionIds": [
          10142130
        ],
        "postalCode": "P3C1A2",
        "streetName": "DAMARIS",
        "streetDirectionId": null,
        "streetTypeId": "CRES",
        "placeName": "SUDBURY",
        "streetNameDisplayText": "DAMARIS CRES, SUDBURY"
      }
    ]
  },
  {
    "postal": "P3C5V8",
    "result": []
  },
  {
    "postal": "P3C8C5",
    "result": []
  },
  {
    "postal": "P3C6N0",
    "result": []
  },
  {
    "postal": "P3C9E6",
    "result": []
  },
  {
    "postal": "P3C5J7",
    "result": [
      {
        "electoralDistricts": [
          {
            "election": null,
            "id": 103,
            "name": "Sudbury"
          }
        ],
        "pollDivisionIds": [
          10142136
        ],
        "postalCode": "P3C5J7",
        "streetName": "LAFOREST",
        "streetDirectionId": null,
        "streetTypeId": "AVE",
        "placeName": "SUDBURY",
        "streetNameDisplayText": "LAFOREST AVE, SUDBURY"
      }
    ]
  },
  {
    "postal": "P3C2R2",
    "result": [
      {
        "electoralDistricts": [
          {
            "election": null,
            "id": 103,
            "name": "Sudbury"
          }
        ],
        "pollDivisionIds": [
          10142132
        ],
        "postalCode": "P3C2R2",
        "streetName": "HURON",
        "streetDirectionId": null,
        "streetTypeId": "ST",
        "placeName": "SUDBURY",
        "streetNameDisplayText": "HURON ST, SUDBURY"
      }
    ]
  },
  {
    "postal": "P3C0P5",
    "result": []
  },
  {
    "postal": "P3C5A7",
    "result": [
      {
        "electoralDistricts": [
          {
            "election": null,
            "id": 103,
            "name": "Sudbury"
          }
        ],
        "pollDivisionIds": [
          10142136
        ],
        "postalCode": "P3C5A7",
        "streetName": "MORIN",
        "streetDirectionId": null,
        "streetTypeId": "AVE",
        "placeName": "SUDBURY",
        "streetNameDisplayText": "MORIN AVE, SUDBURY"
      }
    ]
  },
  {
    "postal": "P3C1G1",
    "result": [
      {
        "electoralDistricts": [
          {
            "election": null,
            "id": 103,
            "name": "Sudbury"
          }
        ],
        "pollDivisionIds": [
          10142131
        ],
        "postalCode": "P3C1G1",
        "streetName": "ARNLEY",
        "streetDirectionId": null,
        "streetTypeId": "ST",
        "placeName": "SUDBURY",
        "streetNameDisplayText": "ARNLEY ST, SUDBURY"
      }
    ]
  },
  {
    "postal": "P3C9R6",
    "result": []
  },
  {
    "postal": "P3C4Z9",
    "result": [
      {
        "electoralDistricts": [
          {
            "election": null,
            "id": 103,
            "name": "Sudbury"
          }
        ],
        "pollDivisionIds": [
          10142133
        ],
        "postalCode": "P3C4Z9",
        "streetName": "FROOD",
        "streetDirectionId": null,
        "streetTypeId": "RD",
        "placeName": "SUDBURY",
        "streetNameDisplayText": "FROOD RD, SUDBURY"
      }
    ]
  },
  {
    "postal": "P3C1V5",
    "result": [
      {
        "electoralDistricts": [
          {
            "election": null,
            "id": 103,
            "name": "Sudbury"
          }
        ],
        "pollDivisionIds": [
          10142131
        ],
        "postalCode": "P3C1V5",
        "streetName": "ELM",
        "streetDirectionId": null,
        "streetTypeId": "ST",
        "placeName": "SUDBURY",
        "streetNameDisplayText": "ELM ST, SUDBURY"
      }
    ]
  },
  {
    "postal": "P3C9Y5",
    "result": []
  },
  {
    "postal": "P3C1P2",
    "result": [
      {
        "electoralDistricts": [
          {
            "election": null,
            "id": 103,
            "name": "Sudbury"
          }
        ],
        "pollDivisionIds": [
          10142132
        ],
        "postalCode": "P3C1P2",
        "streetName": "SPRUCE",
        "streetDirectionId": null,
        "streetTypeId": "ST",
        "placeName": "SUDBURY",
        "streetNameDisplayText": "SPRUCE ST, SUDBURY"
      }
    ]
  },
  {
    "postal": "P3C5X0",
    "result": []
  },
  {
    "postal": "P3C7B8",
    "result": []
  },
  {
    "postal": "P3C0C6",
    "result": []
  },
  {
    "postal": "P3C6G1",
    "result": []
  },
  {
    "postal": "P3C3K3",
    "result": [
      {
        "electoralDistricts": [
          {
            "election": null,
            "id": 103,
            "name": "Sudbury"
          }
        ],
        "pollDivisionIds": [
          10142132
        ],
        "postalCode": "P3C3K3",
        "streetName": "BARLOW",
        "streetDirectionId": null,
        "streetTypeId": "ST",
        "placeName": "SUDBURY",
        "streetNameDisplayText": "BARLOW ST, SUDBURY"
      }
    ]
  },
  {
    "postal": "P3C9R0",
    "result": []
  },
  {
    "postal": "P3C4R8",
    "result": [
      {
        "electoralDistricts": [
          {
            "election": null,
            "id": 103,
            "name": "Sudbury"
          }
        ],
        "pollDivisionIds": [
          10142130
        ],
        "postalCode": "P3C4R8",
        "streetName": "LORNE",
        "streetDirectionId": null,
        "streetTypeId": "ST",
        "placeName": "SUDBURY",
        "streetNameDisplayText": "LORNE ST, SUDBURY"
      }
    ]
  },
  {
    "postal": "P3C5P9",
    "result": [
      {
        "electoralDistricts": [
          {
            "election": null,
            "id": 103,
            "name": "Sudbury"
          }
        ],
        "pollDivisionIds": [
          10142131
        ],
        "postalCode": "P3C5P9",
        "streetName": "WALNUT",
        "streetDirectionId": null,
        "streetTypeId": "ST",
        "placeName": "SUDBURY",
        "streetNameDisplayText": "WALNUT ST, SUDBURY"
      }
    ]
  },
  {
    "postal": "P3C8N4",
    "result": []
  },
  {
    "postal": "P3C8H4",
    "result": []
  },
  {
    "postal": "P3C4V1",
    "result": []
  },
  {
    "postal": "P3C1K5",
    "result": [
      {
        "electoralDistricts": [
          {
            "election": null,
            "id": 103,
            "name": "Sudbury"
          }
        ],
        "pollDivisionIds": [
          10142131
        ],
        "postalCode": "P3C1K5",
        "streetName": "BUCHANAN",
        "streetDirectionId": null,
        "streetTypeId": "ST",
        "placeName": "SUDBURY ONTARIO",
        "streetNameDisplayText": "BUCHANAN ST, SUDBURY ONTARIO"
      },
      {
        "electoralDistricts": [
          {
            "election": null,
            "id": 103,
            "name": "Sudbury"
          }
        ],
        "pollDivisionIds": [
          10142131
        ],
        "postalCode": "P3C1K5",
        "streetName": "VICTORIA",
        "streetDirectionId": null,
        "streetTypeId": "ST",
        "placeName": "SUDBURY",
        "streetNameDisplayText": "VICTORIA ST, SUDBURY"
      }
    ]
  },
  {
    "postal": "P3C1Z5",
    "result": [
      {
        "electoralDistricts": [
          {
            "election": null,
            "id": 103,
            "name": "Sudbury"
          }
        ],
        "pollDivisionIds": [
          10142134
        ],
        "postalCode": "P3C1Z5",
        "streetName": "FIR",
        "streetDirectionId": null,
        "streetTypeId": "LANE",
        "placeName": "SUDBURY",
        "streetNameDisplayText": "FIR LANE, SUDBURY"
      }
    ]
  },
  {
    "postal": "P3C9L9",
    "result": []
  },
  {
    "postal": "P3C5L2",
    "result": [
      {
        "electoralDistricts": [
          {
            "election": null,
            "id": 103,
            "name": "Sudbury"
          }
        ],
        "pollDivisionIds": [
          10142136,
          10142135
        ],
        "postalCode": "P3C5L2",
        "streetName": "NOTRE DAME",
        "streetDirectionId": null,
        "streetTypeId": "AVE",
        "placeName": "SUDBURY",
        "streetNameDisplayText": "NOTRE DAME AVE, SUDBURY"
      }
    ]
  },
  {
    "postal": "P3C0M2",
    "result": []
  },
  {
    "postal": "P3C1K8",
    "result": [
      {
        "electoralDistricts": [
          {
            "election": null,
            "id": 103,
            "name": "Sudbury"
          }
        ],
        "pollDivisionIds": [
          10142132
        ],
        "postalCode": "P3C1K8",
        "streetName": "VICTORIA",
        "streetDirectionId": null,
        "streetTypeId": "ST",
        "placeName": "SUDBURY",
        "streetNameDisplayText": "VICTORIA ST, SUDBURY"
      }
    ]
  },
  {
    "postal": "P3C3M7",
    "result": [
      {
        "electoralDistricts": [
          {
            "election": null,
            "id": 103,
            "name": "Sudbury"
          }
        ],
        "pollDivisionIds": [
          10142132
        ],
        "postalCode": "P3C3M7",
        "streetName": "BRODIE",
        "streetDirectionId": null,
        "streetTypeId": "AVE",
        "placeName": "SUDBURY",
        "streetNameDisplayText": "BRODIE AVE, SUDBURY"
      }
    ]
  },
  {
    "postal": "P3C1B2",
    "result": []
  },
  {
    "postal": "P3C0H9",
    "result": []
  },
  {
    "postal": "P3C8M4",
    "result": []
  },
  {
    "postal": "P3C2M5",
    "result": [
      {
        "electoralDistricts": [
          {
            "election": null,
            "id": 103,
            "name": "Sudbury"
          }
        ],
        "pollDivisionIds": [
          10142133
        ],
        "postalCode": "P3C2M5",
        "streetName": "KATHLEEN",
        "streetDirectionId": null,
        "streetTypeId": "ST",
        "placeName": "SUDBURY",
        "streetNameDisplayText": "KATHLEEN ST, SUDBURY"
      }
    ]
  },
  {
    "postal": "P3C0T9",
    "result": []
  },
  {
    "postal": "P3C3P1",
    "result": [
      {
        "electoralDistricts": [
          {
            "election": null,
            "id": 103,
            "name": "Sudbury"
          }
        ],
        "pollDivisionIds": [
          10142131
        ],
        "postalCode": "P3C3P1",
        "streetName": "EDNA",
        "streetDirectionId": null,
        "streetTypeId": "ST",
        "placeName": "SUDBURY",
        "streetNameDisplayText": "EDNA ST, SUDBURY"
      }
    ]
  },
  {
    "postal": "P3C1R6",
    "result": [
      {
        "electoralDistricts": [
          {
            "election": null,
            "id": 103,
            "name": "Sudbury"
          }
        ],
        "pollDivisionIds": [
          10142170
        ],
        "postalCode": "P3C1R6",
        "streetName": "ELM",
        "streetDirectionId": null,
        "streetTypeId": "ST",
        "placeName": "SUDBURY",
        "streetNameDisplayText": "ELM ST, SUDBURY"
      }
    ]
  },
  {
    "postal": "P3C9V5",
    "result": []
  },
  {
    "postal": "P3C9T0",
    "result": []
  },
  {
    "postal": "P3C0A9",
    "result": []
  },
  {
    "postal": "P3C1M3",
    "result": [
      {
        "electoralDistricts": [
          {
            "election": null,
            "id": 71,
            "name": "Nickel Belt"
          }
        ],
        "pollDivisionIds": [
          10140119
        ],
        "postalCode": "P3C1M3",
        "streetName": "ALBERT",
        "streetDirectionId": null,
        "streetTypeId": "ST",
        "placeName": "AZILDA",
        "streetNameDisplayText": "ALBERT ST, AZILDA"
      },
      {
        "electoralDistricts": [
          {
            "election": null,
            "id": 103,
            "name": "Sudbury"
          }
        ],
        "pollDivisionIds": [
          10142132
        ],
        "postalCode": "P3C1M3",
        "streetName": "ALBERT",
        "streetDirectionId": null,
        "streetTypeId": "ST",
        "placeName": "SUDBURY",
        "streetNameDisplayText": "ALBERT ST, SUDBURY"
      },
      {
        "electoralDistricts": [
          {
            "election": null,
            "id": 71,
            "name": "Nickel Belt"
          }
        ],
        "pollDivisionIds": [
          10140132
        ],
        "postalCode": "P3C1M3",
        "streetName": "SOUTHSHORE",
        "streetDirectionId": null,
        "streetTypeId": "RD",
        "placeName": "SUDBURY",
        "streetNameDisplayText": "SOUTHSHORE RD, SUDBURY"
      }
    ]
  },
  {
    "postal": "P3C1W8",
    "result": []
  },
  {
    "postal": "P3C9J1",
    "result": []
  },
  {
    "postal": "P3C8N5",
    "result": []
  },
  {
    "postal": "P3C5X1",
    "result": []
  },
  {
    "postal": "P3C6S2",
    "result": []
  },
  {
    "postal": "P3C2A2",
    "result": [
      {
        "electoralDistricts": [
          {
            "election": null,
            "id": 103,
            "name": "Sudbury"
          }
        ],
        "pollDivisionIds": [
          10142132
        ],
        "postalCode": "P3C2A2",
        "streetName": "ASH",
        "streetDirectionId": null,
        "streetTypeId": "ST",
        "placeName": "SUDBURY",
        "streetNameDisplayText": "ASH ST, SUDBURY"
      }
    ]
  },
  {
    "postal": "P3C6A6",
    "result": []
  },
  {
    "postal": "P3C0S3",
    "result": []
  },
  {
    "postal": "P3C3E7",
    "result": [
      {
        "electoralDistricts": [
          {
            "election": null,
            "id": 103,
            "name": "Sudbury"
          }
        ],
        "pollDivisionIds": [
          10142130
        ],
        "postalCode": "P3C3E7",
        "streetName": "STRUDWICK",
        "streetDirectionId": null,
        "streetTypeId": "AVE",
        "placeName": "SUDBURY",
        "streetNameDisplayText": "STRUDWICK AVE, SUDBURY"
      }
    ]
  },
  {
    "postal": "P3C5R7",
    "result": [
      {
        "electoralDistricts": [
          {
            "election": null,
            "id": 103,
            "name": "Sudbury"
          }
        ],
        "pollDivisionIds": [
          10142131
        ],
        "postalCode": "P3C5R7",
        "streetName": "VICTORIA",
        "streetDirectionId": null,
        "streetTypeId": "ST",
        "placeName": "SUDBURY",
        "streetNameDisplayText": "VICTORIA ST, SUDBURY"
      }
    ]
  },
  {
    "postal": "P3C3R6",
    "result": [
      {
        "electoralDistricts": [
          {
            "election": null,
            "id": 103,
            "name": "Sudbury"
          }
        ],
        "pollDivisionIds": [
          10142132
        ],
        "postalCode": "P3C3R6",
        "streetName": "ETHELBERT",
        "streetDirectionId": null,
        "streetTypeId": "ST",
        "placeName": "SUDBURY",
        "streetNameDisplayText": "ETHELBERT ST, SUDBURY"
      }
    ]
  },
  {
    "postal": "P3C6K4",
    "result": []
  },
  {
    "postal": "P3C2W5",
    "result": [
      {
        "electoralDistricts": [
          {
            "election": null,
            "id": 103,
            "name": "Sudbury"
          }
        ],
        "pollDivisionIds": [
          10142136
        ],
        "postalCode": "P3C2W5",
        "streetName": "ETHEL",
        "streetDirectionId": null,
        "streetTypeId": "ST",
        "placeName": "SUDBURY",
        "streetNameDisplayText": "ETHEL ST, SUDBURY"
      }
    ]
  },
  {
    "postal": "P3C8W4",
    "result": []
  },
  {
    "postal": "P3C9C2",
    "result": []
  },
  {
    "postal": "P3C2C0",
    "result": []
  },
  {
    "postal": "P3C0E1",
    "result": []
  },
  {
    "postal": "P3C1K9",
    "result": [
      {
        "electoralDistricts": [
          {
            "election": null,
            "id": 103,
            "name": "Sudbury"
          }
        ],
        "pollDivisionIds": [
          10142132
        ],
        "postalCode": "P3C1K9",
        "streetName": "VICTORIA",
        "streetDirectionId": null,
        "streetTypeId": "ST",
        "placeName": "SUDBURY",
        "streetNameDisplayText": "VICTORIA ST, SUDBURY"
      }
    ]
  },
  {
    "postal": "P3C1G7",
    "result": [
      {
        "electoralDistricts": [
          {
            "election": null,
            "id": 103,
            "name": "Sudbury"
          }
        ],
        "pollDivisionIds": [
          10142131
        ],
        "postalCode": "P3C1G7",
        "streetName": "HILLCREST",
        "streetDirectionId": null,
        "streetTypeId": "CRES",
        "placeName": "SUDBURY",
        "streetNameDisplayText": "HILLCREST CRES, SUDBURY"
      }
    ]
  },
  {
    "postal": "P3C4E9",
    "result": [
      {
        "electoralDistricts": [
          {
            "election": null,
            "id": 103,
            "name": "Sudbury"
          }
        ],
        "pollDivisionIds": [
          10142134
        ],
        "postalCode": "P3C4E9",
        "streetName": "BEATTY",
        "streetDirectionId": null,
        "streetTypeId": "ST",
        "placeName": "SUDBURY",
        "streetNameDisplayText": "BEATTY ST, SUDBURY"
      }
    ]
  },
  {
    "postal": "P3C9P0",
    "result": []
  },
  {
    "postal": "P3C5H3",
    "result": [
      {
        "electoralDistricts": [
          {
            "election": null,
            "id": 103,
            "name": "Sudbury"
          }
        ],
        "pollDivisionIds": [
          10142135
        ],
        "postalCode": "P3C5H3",
        "streetName": "CARON",
        "streetDirectionId": null,
        "streetTypeId": "ST",
        "placeName": "SUDBURY",
        "streetNameDisplayText": "CARON ST, SUDBURY"
      }
    ]
  },
  {
    "postal": "P3C9X6",
    "result": []
  },
  {
    "postal": "P3C5N7",
    "result": []
  },
  {
    "postal": "P3C5A6",
    "result": [
      {
        "electoralDistricts": [
          {
            "election": null,
            "id": 103,
            "name": "Sudbury"
          }
        ],
        "pollDivisionIds": [
          10142136
        ],
        "postalCode": "P3C5A6",
        "streetName": "MORIN",
        "streetDirectionId": null,
        "streetTypeId": "AVE",
        "placeName": "SUDBURY",
        "streetNameDisplayText": "MORIN AVE, SUDBURY"
      }
    ]
  },
  {
    "postal": "P3C4M0",
    "result": []
  },
  {
    "postal": "P3C3V6",
    "result": [
      {
        "electoralDistricts": [
          {
            "election": null,
            "id": 103,
            "name": "Sudbury"
          }
        ],
        "pollDivisionIds": [
          10142132
        ],
        "postalCode": "P3C3V6",
        "streetName": "MACLACHLAN",
        "streetDirectionId": null,
        "streetTypeId": "ST",
        "placeName": "SUDBURY",
        "streetNameDisplayText": "MACLACHLAN ST, SUDBURY"
      }
    ]
  },
  {
    "postal": "P3C1L7",
    "result": [
      {
        "electoralDistricts": [
          {
            "election": null,
            "id": 103,
            "name": "Sudbury"
          }
        ],
        "pollDivisionIds": [
          10142131
        ],
        "postalCode": "P3C1L7",
        "streetName": "WALNUT",
        "streetDirectionId": null,
        "streetTypeId": "ST",
        "placeName": "SUDBURY",
        "streetNameDisplayText": "WALNUT ST, SUDBURY"
      }
    ]
  },
  {
    "postal": "P3C2P9",
    "result": [
      {
        "electoralDistricts": [
          {
            "election": null,
            "id": 103,
            "name": "Sudbury"
          }
        ],
        "pollDivisionIds": [
          10142132
        ],
        "postalCode": "P3C2P9",
        "streetName": "HURON",
        "streetDirectionId": null,
        "streetTypeId": "ST",
        "placeName": "SUDBURY",
        "streetNameDisplayText": "HURON ST, SUDBURY"
      }
    ]
  },
  {
    "postal": "P3C5T4",
    "result": [
      {
        "electoralDistricts": [
          {
            "election": null,
            "id": 103,
            "name": "Sudbury"
          }
        ],
        "pollDivisionIds": [
          10142139
        ],
        "postalCode": "P3C5T4",
        "streetName": "AMBERDALE",
        "streetDirectionId": null,
        "streetTypeId": "CRT",
        "placeName": "SUDBURY",
        "streetNameDisplayText": "AMBERDALE CRT, SUDBURY"
      }
    ]
  },
  {
    "postal": "P3C5Z1",
    "result": []
  },
  {
    "postal": "P3C2X0",
    "result": []
  },
  {
    "postal": "P3C6Z2",
    "result": []
  },
  {
    "postal": "P3C0E0",
    "result": []
  },
  {
    "postal": "P3C3Z5",
    "result": [
      {
        "electoralDistricts": [
          {
            "election": null,
            "id": 103,
            "name": "Sudbury"
          }
        ],
        "pollDivisionIds": [
          10142133
        ],
        "postalCode": "P3C3Z5",
        "streetName": "DONOVAN",
        "streetDirectionId": null,
        "streetTypeId": "ST",
        "placeName": "SUDBURY",
        "streetNameDisplayText": "DONOVAN ST, SUDBURY"
      }
    ]
  },
  {
    "postal": "P3C8H3",
    "result": []
  },
  {
    "postal": "P3C7S6",
    "result": []
  },
  {
    "postal": "P3C4C1",
    "result": [
      {
        "electoralDistricts": [
          {
            "election": null,
            "id": 103,
            "name": "Sudbury"
          }
        ],
        "pollDivisionIds": [
          10142132
        ],
        "postalCode": "P3C4C1",
        "streetName": "REGENT",
        "streetDirectionId": null,
        "streetTypeId": "ST",
        "placeName": "SUDBURY",
        "streetNameDisplayText": "REGENT ST, SUDBURY"
      }
    ]
  },
  {
    "postal": "P3C3K2",
    "result": [
      {
        "electoralDistricts": [
          {
            "election": null,
            "id": 103,
            "name": "Sudbury"
          }
        ],
        "pollDivisionIds": [
          10142132
        ],
        "postalCode": "P3C3K2",
        "streetName": "TRAVERS",
        "streetDirectionId": null,
        "streetTypeId": "ST",
        "placeName": "SUDBURY",
        "streetNameDisplayText": "TRAVERS ST, SUDBURY"
      }
    ]
  },
  {
    "postal": "P3C1Y5",
    "result": [
      {
        "electoralDistricts": [
          {
            "election": null,
            "id": 103,
            "name": "Sudbury"
          }
        ],
        "pollDivisionIds": [
          10142132
        ],
        "postalCode": "P3C1Y5",
        "streetName": "PINE",
        "streetDirectionId": null,
        "streetTypeId": "ST",
        "placeName": "SUDBURY",
        "streetNameDisplayText": "PINE ST, SUDBURY"
      }
    ]
  },
  {
    "postal": "P3C6P6",
    "result": []
  },
  {
    "postal": "P3C3N9",
    "result": [
      {
        "electoralDistricts": [
          {
            "election": null,
            "id": 103,
            "name": "Sudbury"
          }
        ],
        "pollDivisionIds": [
          10142131
        ],
        "postalCode": "P3C3N9",
        "streetName": "EDNA",
        "streetDirectionId": null,
        "streetTypeId": "ST",
        "placeName": "SUDBURY",
        "streetNameDisplayText": "EDNA ST, SUDBURY"
      }
    ]
  },
  {
    "postal": "P3C3W2",
    "result": [
      {
        "electoralDistricts": [
          {
            "election": null,
            "id": 103,
            "name": "Sudbury"
          }
        ],
        "pollDivisionIds": [
          10142131
        ],
        "postalCode": "P3C3W2",
        "streetName": "ALBINSON",
        "streetDirectionId": null,
        "streetTypeId": "ST",
        "placeName": "SUDBURY",
        "streetNameDisplayText": "ALBINSON ST, SUDBURY"
      }
    ]
  },
  {
    "postal": "P3C6H8",
    "result": []
  },
  {
    "postal": "P3C9T3",
    "result": []
  },
  {
    "postal": "P3C5L9",
    "result": [
      {
        "electoralDistricts": [
          {
            "election": null,
            "id": 103,
            "name": "Sudbury"
          }
        ],
        "pollDivisionIds": [
          10142131
        ],
        "postalCode": "P3C5L9",
        "streetName": "VICTORIA",
        "streetDirectionId": null,
        "streetTypeId": "ST",
        "placeName": "SUDBURY",
        "streetNameDisplayText": "VICTORIA ST, SUDBURY"
      }
    ]
  },
  {
    "postal": "P3C7X7",
    "result": []
  },
  {
    "postal": "P3C3J5",
    "result": [
      {
        "electoralDistricts": [
          {
            "election": null,
            "id": 103,
            "name": "Sudbury"
          }
        ],
        "pollDivisionIds": [
          10142130
        ],
        "postalCode": "P3C3J5",
        "streetName": "DEMOREST",
        "streetDirectionId": null,
        "streetTypeId": "AVE",
        "placeName": "SUDBURY",
        "streetNameDisplayText": "DEMOREST AVE, SUDBURY"
      }
    ]
  },
  {
    "postal": "P3C4J5",
    "result": [
      {
        "electoralDistricts": [
          {
            "election": null,
            "id": 103,
            "name": "Sudbury"
          }
        ],
        "pollDivisionIds": [
          10142131
        ],
        "postalCode": "P3C4J5",
        "streetName": "ALDER",
        "streetDirectionId": null,
        "streetTypeId": "ST",
        "placeName": "SUDBURY",
        "streetNameDisplayText": "ALDER ST, SUDBURY"
      }
    ]
  },
  {
    "postal": "P3C6J2",
    "result": []
  },
  {
    "postal": "P3C5V6",
    "result": []
  },
  {
    "postal": "P3C3N2",
    "result": [
      {
        "electoralDistricts": [
          {
            "election": null,
            "id": 103,
            "name": "Sudbury"
          }
        ],
        "pollDivisionIds": [
          10142131
        ],
        "postalCode": "P3C3N2",
        "streetName": "BYNG",
        "streetDirectionId": null,
        "streetTypeId": "ST",
        "placeName": "SUDBURY",
        "streetNameDisplayText": "BYNG ST, SUDBURY"
      }
    ]
  },
  {
    "postal": "P3C3B1",
    "result": [
      {
        "electoralDistricts": [
          {
            "election": null,
            "id": 103,
            "name": "Sudbury"
          }
        ],
        "pollDivisionIds": [
          10142130
        ],
        "postalCode": "P3C3B1",
        "streetName": "WALTER",
        "streetDirectionId": null,
        "streetTypeId": "AVE",
        "placeName": "SUDBURY",
        "streetNameDisplayText": "WALTER AVE, SUDBURY"
      }
    ]
  },
  {
    "postal": "P3C8B5",
    "result": []
  },
  {
    "postal": "P3C0K1",
    "result": []
  },
  {
    "postal": "P3C7M7",
    "result": []
  },
  {
    "postal": "P3C2M2",
    "result": [
      {
        "electoralDistricts": [
          {
            "election": null,
            "id": 103,
            "name": "Sudbury"
          }
        ],
        "pollDivisionIds": [
          10142134,
          10142136
        ],
        "postalCode": "P3C2M2",
        "streetName": "KATHLEEN",
        "streetDirectionId": null,
        "streetTypeId": "ST",
        "placeName": "SUDBURY",
        "streetNameDisplayText": "KATHLEEN ST, SUDBURY"
      }
    ]
  },
  {
    "postal": "P3C9N3",
    "result": []
  },
  {
    "postal": "P3C4Y8",
    "result": [
      {
        "electoralDistricts": [
          {
            "election": null,
            "id": 103,
            "name": "Sudbury"
          }
        ],
        "pollDivisionIds": [
          10142134
        ],
        "postalCode": "P3C4Y8",
        "streetName": "MACKENZIE",
        "streetDirectionId": null,
        "streetTypeId": "ST",
        "placeName": "SUDBURY",
        "streetNameDisplayText": "MACKENZIE ST, SUDBURY"
      }
    ]
  },
  {
    "postal": "P3C3V7",
    "result": [
      {
        "electoralDistricts": [
          {
            "election": null,
            "id": 103,
            "name": "Sudbury"
          }
        ],
        "pollDivisionIds": [
          10142132
        ],
        "postalCode": "P3C3V7",
        "streetName": "MACLACHLAN",
        "streetDirectionId": null,
        "streetTypeId": "ST",
        "placeName": "SUDBURY",
        "streetNameDisplayText": "MACLACHLAN ST, SUDBURY"
      }
    ]
  },
  {
    "postal": "P3C8Z1",
    "result": []
  },
  {
    "postal": "P3C7B3",
    "result": []
  },
  {
    "postal": "P3C3A8",
    "result": [
      {
        "electoralDistricts": [
          {
            "election": null,
            "id": 103,
            "name": "Sudbury"
          }
        ],
        "pollDivisionIds": [
          10142130
        ],
        "postalCode": "P3C3A8",
        "streetName": "RONALD",
        "streetDirectionId": null,
        "streetTypeId": "AVE",
        "placeName": "SUDBURY",
        "streetNameDisplayText": "RONALD AVE, SUDBURY"
      }
    ]
  },
  {
    "postal": "P3C7V5",
    "result": []
  },
  {
    "postal": "P3C2T2",
    "result": [
      {
        "electoralDistricts": [
          {
            "election": null,
            "id": 103,
            "name": "Sudbury"
          }
        ],
        "pollDivisionIds": [
          10142135
        ],
        "postalCode": "P3C2T2",
        "streetName": "BOND",
        "streetDirectionId": null,
        "streetTypeId": "ST",
        "placeName": "SUDBURY",
        "streetNameDisplayText": "BOND ST, SUDBURY"
      }
    ]
  },
  {
    "postal": "P3C6L3",
    "result": []
  },
  {
    "postal": "P3C0L2",
    "result": []
  },
  {
    "postal": "P3C5Y8",
    "result": []
  },
  {
    "postal": "P3C0B8",
    "result": []
  },
  {
    "postal": "P3C6R5",
    "result": []
  },
  {
    "postal": "P3C8W6",
    "result": []
  },
  {
    "postal": "P3C8G6",
    "result": []
  },
  {
    "postal": "P3C6X3",
    "result": []
  },
  {
    "postal": "P3C7R7",
    "result": []
  },
  {
    "postal": "P3C4B6",
    "result": [
      {
        "electoralDistricts": [
          {
            "election": null,
            "id": 103,
            "name": "Sudbury"
          }
        ],
        "pollDivisionIds": [
          10142131
        ],
        "postalCode": "P3C4B6",
        "streetName": "EYRE",
        "streetDirectionId": null,
        "streetTypeId": "ST",
        "placeName": "SUDBURY",
        "streetNameDisplayText": "EYRE ST, SUDBURY"
      }
    ]
  },
  {
    "postal": "P3C3P9",
    "result": [
      {
        "electoralDistricts": [
          {
            "election": null,
            "id": 103,
            "name": "Sudbury"
          }
        ],
        "pollDivisionIds": [
          10142132
        ],
        "postalCode": "P3C3P9",
        "streetName": "ETHELBERT",
        "streetDirectionId": null,
        "streetTypeId": "ST",
        "placeName": "SUDBURY",
        "streetNameDisplayText": "ETHELBERT ST, SUDBURY"
      }
    ]
  },
  {
    "postal": "P3C2T3",
    "result": [
      {
        "electoralDistricts": [
          {
            "election": null,
            "id": 103,
            "name": "Sudbury"
          }
        ],
        "pollDivisionIds": [
          10142135
        ],
        "postalCode": "P3C2T3",
        "streetName": "BOND",
        "streetDirectionId": null,
        "streetTypeId": "ST",
        "placeName": "SUDBURY",
        "streetNameDisplayText": "BOND ST, SUDBURY"
      }
    ]
  },
  {
    "postal": "P3C1M4",
    "result": [
      {
        "electoralDistricts": [
          {
            "election": null,
            "id": 103,
            "name": "Sudbury"
          }
        ],
        "pollDivisionIds": [
          10142132
        ],
        "postalCode": "P3C1M4",
        "streetName": "ALBERT",
        "streetDirectionId": null,
        "streetTypeId": "ST",
        "placeName": "SUDBURY",
        "streetNameDisplayText": "ALBERT ST, SUDBURY"
      }
    ]
  },
  {
    "postal": "P3C0H1",
    "result": []
  },
  {
    "postal": "P3C9W3",
    "result": []
  },
  {
    "postal": "P3C6P1",
    "result": []
  },
  {
    "postal": "P3C7G2",
    "result": []
  },
  {
    "postal": "P3C4J9",
    "result": [
      {
        "electoralDistricts": [
          {
            "election": null,
            "id": 103,
            "name": "Sudbury"
          }
        ],
        "pollDivisionIds": [
          10142134
        ],
        "postalCode": "P3C4J9",
        "streetName": "ALDER",
        "streetDirectionId": null,
        "streetTypeId": "ST",
        "placeName": "SUDBURY",
        "streetNameDisplayText": "ALDER ST, SUDBURY"
      }
    ]
  },
  {
    "postal": "P3C9E4",
    "result": []
  },
  {
    "postal": "P3C8H0",
    "result": []
  },
  {
    "postal": "P3C4M7",
    "result": [
      {
        "electoralDistricts": [
          {
            "election": null,
            "id": 103,
            "name": "Sudbury"
          }
        ],
        "pollDivisionIds": [
          10142133
        ],
        "postalCode": "P3C4M7",
        "streetName": "ANTWERP",
        "streetDirectionId": null,
        "streetTypeId": "AVE",
        "placeName": "SUDBURY",
        "streetNameDisplayText": "ANTWERP AVE, SUDBURY"
      }
    ]
  },
  {
    "postal": "P3C2G9",
    "result": [
      {
        "electoralDistricts": [
          {
            "election": null,
            "id": 103,
            "name": "Sudbury"
          }
        ],
        "pollDivisionIds": [
          10142134
        ],
        "postalCode": "P3C2G9",
        "streetName": "LEVIS",
        "streetDirectionId": null,
        "streetTypeId": "ST",
        "placeName": "SUDBURY",
        "streetNameDisplayText": "LEVIS ST, SUDBURY"
      }
    ]
  },
  {
    "postal": "P3C8T2",
    "result": []
  },
  {
    "postal": "P3C7G7",
    "result": []
  },
  {
    "postal": "P3C4Z3",
    "result": [
      {
        "electoralDistricts": [
          {
            "election": null,
            "id": 103,
            "name": "Sudbury"
          }
        ],
        "pollDivisionIds": [
          10142134
        ],
        "postalCode": "P3C4Z3",
        "streetName": "FROOD",
        "streetDirectionId": null,
        "streetTypeId": "RD",
        "placeName": "SUDBURY",
        "streetNameDisplayText": "FROOD RD, SUDBURY"
      }
    ]
  },
  {
    "postal": "P3C5B3",
    "result": [
      {
        "electoralDistricts": [
          {
            "election": null,
            "id": 103,
            "name": "Sudbury"
          }
        ],
        "pollDivisionIds": [
          10142134
        ],
        "postalCode": "P3C5B3",
        "streetName": "ELGIN",
        "streetDirectionId": null,
        "streetTypeId": "ST",
        "placeName": "SUDBURY",
        "streetNameDisplayText": "ELGIN ST, SUDBURY"
      }
    ]
  },
  {
    "postal": "P3C1S7",
    "result": [
      {
        "electoralDistricts": [
          {
            "election": null,
            "id": 103,
            "name": "Sudbury"
          }
        ],
        "pollDivisionIds": [
          10142134
        ],
        "postalCode": "P3C1S7",
        "streetName": "ELM",
        "streetDirectionId": null,
        "streetTypeId": "ST",
        "placeName": "SUDBURY",
        "streetNameDisplayText": "ELM ST, SUDBURY"
      }
    ]
  },
  {
    "postal": "P3C2N7",
    "result": [
      {
        "electoralDistricts": [
          {
            "election": null,
            "id": 103,
            "name": "Sudbury"
          }
        ],
        "pollDivisionIds": [
          10142135
        ],
        "postalCode": "P3C2N7",
        "streetName": "GARNIER",
        "streetDirectionId": null,
        "streetTypeId": "ST",
        "placeName": "SUDBURY",
        "streetNameDisplayText": "GARNIER ST, SUDBURY"
      }
    ]
  },
  {
    "postal": "P3C0H8",
    "result": []
  },
  {
    "postal": "P3C7Z4",
    "result": []
  },
  {
    "postal": "P3C7B1",
    "result": []
  },
  {
    "postal": "P3C7P8",
    "result": []
  },
  {
    "postal": "P3C7N0",
    "result": []
  },
  {
    "postal": "P3C3Y5",
    "result": [
      {
        "electoralDistricts": [
          {
            "election": null,
            "id": 103,
            "name": "Sudbury"
          }
        ],
        "pollDivisionIds": [
          10142132
        ],
        "postalCode": "P3C3Y5",
        "streetName": "STANLEY",
        "streetDirectionId": null,
        "streetTypeId": "ST",
        "placeName": "SUDBURY",
        "streetNameDisplayText": "STANLEY ST, SUDBURY"
      }
    ]
  },
  {
    "postal": "P3C6K1",
    "result": []
  },
  {
    "postal": "P3C9X5",
    "result": []
  },
  {
    "postal": "P3C7S5",
    "result": []
  },
  {
    "postal": "P3C0A4",
    "result": [
      {
        "electoralDistricts": [
          {
            "election": null,
            "id": 103,
            "name": "Sudbury"
          }
        ],
        "pollDivisionIds": [
          10142139
        ],
        "postalCode": "P3C0A4",
        "streetName": "CAMBRIAN HEIGHTS",
        "streetDirectionId": null,
        "streetTypeId": "DR",
        "placeName": "SUDBURY",
        "streetNameDisplayText": "CAMBRIAN HEIGHTS DR, SUDBURY"
      }
    ]
  },
  {
    "postal": "P3C4T5",
    "result": [
      {
        "electoralDistricts": [
          {
            "election": null,
            "id": 103,
            "name": "Sudbury"
          }
        ],
        "pollDivisionIds": [
          10142140
        ],
        "postalCode": "P3C4T5",
        "streetName": "SELKIRK",
        "streetDirectionId": null,
        "streetTypeId": "ST",
        "placeName": "SUDBURY",
        "streetNameDisplayText": "SELKIRK ST, SUDBURY"
      }
    ]
  },
  {
    "postal": "P3C5K1",
    "result": [
      {
        "electoralDistricts": [
          {
            "election": null,
            "id": 103,
            "name": "Sudbury"
          }
        ],
        "pollDivisionIds": [
          10142137,
          10142135
        ],
        "postalCode": "P3C5K1",
        "streetName": "LAFOREST",
        "streetDirectionId": null,
        "streetTypeId": "AVE",
        "placeName": "SUDBURY",
        "streetNameDisplayText": "LAFOREST AVE, SUDBURY"
      }
    ]
  },
  {
    "postal": "P3C0Z9",
    "result": []
  },
  {
    "postal": "P3C7T2",
    "result": []
  },
  {
    "postal": "P3C1L5",
    "result": [
      {
        "electoralDistricts": [
          {
            "election": null,
            "id": 103,
            "name": "Sudbury"
          }
        ],
        "pollDivisionIds": [
          10142132
        ],
        "postalCode": "P3C1L5",
        "streetName": "VICTORIA",
        "streetDirectionId": null,
        "streetTypeId": "ST",
        "placeName": "SUDBURY",
        "streetNameDisplayText": "VICTORIA ST, SUDBURY"
      }
    ]
  },
  {
    "postal": "P3C3N5",
    "result": [
      {
        "electoralDistricts": [
          {
            "election": null,
            "id": 103,
            "name": "Sudbury"
          }
        ],
        "pollDivisionIds": [
          10142131
        ],
        "postalCode": "P3C3N5",
        "streetName": "BYNG",
        "streetDirectionId": null,
        "streetTypeId": "ST",
        "placeName": "SUDBURY",
        "streetNameDisplayText": "BYNG ST, SUDBURY"
      }
    ]
  },
  {
    "postal": "P3C6H4",
    "result": []
  },
  {
    "postal": "P3C5A5",
    "result": [
      {
        "electoralDistricts": [
          {
            "election": null,
            "id": 103,
            "name": "Sudbury"
          }
        ],
        "pollDivisionIds": [
          10142136
        ],
        "postalCode": "P3C5A5",
        "streetName": "MORIN",
        "streetDirectionId": null,
        "streetTypeId": "AVE",
        "placeName": "SUDBURY",
        "streetNameDisplayText": "MORIN AVE, SUDBURY"
      }
    ]
  },
  {
    "postal": "P3C3R9",
    "result": [
      {
        "electoralDistricts": [
          {
            "election": null,
            "id": 103,
            "name": "Sudbury"
          }
        ],
        "pollDivisionIds": [
          10142132
        ],
        "postalCode": "P3C3R9",
        "streetName": "NOBLE",
        "streetDirectionId": null,
        "streetTypeId": "ST",
        "placeName": "GREATER SUDBURY",
        "streetNameDisplayText": "NOBLE ST, GREATER SUDBURY"
      },
      {
        "electoralDistricts": [
          {
            "election": null,
            "id": 103,
            "name": "Sudbury"
          }
        ],
        "pollDivisionIds": [
          10142132
        ],
        "postalCode": "P3C3R9",
        "streetName": "NOBLE",
        "streetDirectionId": null,
        "streetTypeId": "ST",
        "placeName": "SUDBURY",
        "streetNameDisplayText": "NOBLE ST, SUDBURY"
      }
    ]
  },
  {
    "postal": "P3C7L8",
    "result": []
  },
  {
    "postal": "P3C6T6",
    "result": []
  },
  {
    "postal": "P3C7Y7",
    "result": []
  },
  {
    "postal": "P3C3M8",
    "result": [
      {
        "electoralDistricts": [
          {
            "election": null,
            "id": 103,
            "name": "Sudbury"
          }
        ],
        "pollDivisionIds": [
          10142132
        ],
        "postalCode": "P3C3M8",
        "streetName": "BRODIE",
        "streetDirectionId": null,
        "streetTypeId": "AVE",
        "placeName": "SUDBURY",
        "streetNameDisplayText": "BRODIE AVE, SUDBURY"
      }
    ]
  },
  {
    "postal": "P3C2E0",
    "result": []
  },
  {
    "postal": "P3C4B5",
    "result": [
      {
        "electoralDistricts": [
          {
            "election": null,
            "id": 103,
            "name": "Sudbury"
          }
        ],
        "pollDivisionIds": [
          10142131
        ],
        "postalCode": "P3C4B5",
        "streetName": "EYRE",
        "streetDirectionId": null,
        "streetTypeId": "ST",
        "placeName": "SUDBURY",
        "streetNameDisplayText": "EYRE ST, SUDBURY"
      }
    ]
  },
  {
    "postal": "P3C1J3",
    "result": [
      {
        "electoralDistricts": [
          {
            "election": null,
            "id": 103,
            "name": "Sudbury"
          }
        ],
        "pollDivisionIds": [
          10142131
        ],
        "postalCode": "P3C1J3",
        "streetName": "ISABEL",
        "streetDirectionId": null,
        "streetTypeId": "ST",
        "placeName": "SUDBURY",
        "streetNameDisplayText": "ISABEL ST, SUDBURY"
      }
    ]
  },
  {
    "postal": "P3C5S6",
    "result": [
      {
        "electoralDistricts": [
          {
            "election": null,
            "id": 103,
            "name": "Sudbury"
          }
        ],
        "pollDivisionIds": [
          10142138
        ],
        "postalCode": "P3C5S6",
        "streetName": "BRUCE",
        "streetDirectionId": null,
        "streetTypeId": "AVE",
        "placeName": "SUDBURY",
        "streetNameDisplayText": "BRUCE AVE, SUDBURY"
      }
    ]
  },
  {
    "postal": "P3C8P7",
    "result": []
  },
  {
    "postal": "P3C7S7",
    "result": []
  },
  {
    "postal": "P3C4C2",
    "result": [
      {
        "electoralDistricts": [
          {
            "election": null,
            "id": 103,
            "name": "Sudbury"
          }
        ],
        "pollDivisionIds": [
          10142131
        ],
        "postalCode": "P3C4C2",
        "streetName": "REGENT",
        "streetDirectionId": null,
        "streetTypeId": "ST",
        "placeName": "SUDBURY",
        "streetNameDisplayText": "REGENT ST, SUDBURY"
      }
    ]
  },
  {
    "postal": "P3C5Y0",
    "result": []
  },
  {
    "postal": "P3C2V7",
    "result": [
      {
        "electoralDistricts": [
          {
            "election": null,
            "id": 103,
            "name": "Sudbury"
          }
        ],
        "pollDivisionIds": [
          10142136
        ],
        "postalCode": "P3C2V7",
        "streetName": "KING",
        "streetDirectionId": null,
        "streetTypeId": "ST",
        "placeName": "SUDBURY",
        "streetNameDisplayText": "KING ST, SUDBURY"
      }
    ]
  },
  {
    "postal": "P3C8P5",
    "result": []
  },
  {
    "postal": "P3C5P5",
    "result": [
      {
        "electoralDistricts": [
          {
            "election": null,
            "id": 103,
            "name": "Sudbury"
          }
        ],
        "pollDivisionIds": [
          10142134
        ],
        "postalCode": "P3C5P5",
        "streetName": "PERKOVICH",
        "streetDirectionId": null,
        "streetTypeId": "LANE",
        "placeName": "SUDBURY",
        "streetNameDisplayText": "PERKOVICH LANE, SUDBURY"
      }
    ]
  },
  {
    "postal": "P3C5Z0",
    "result": []
  },
  {
    "postal": "P3C9B0",
    "result": []
  },
  {
    "postal": "P3C1L0",
    "result": []
  },
  {
    "postal": "P3C0B5",
    "result": []
  },
  {
    "postal": "P3C3L2",
    "result": [
      {
        "electoralDistricts": [
          {
            "election": null,
            "id": 103,
            "name": "Sudbury"
          }
        ],
        "pollDivisionIds": [
          10142132
        ],
        "postalCode": "P3C3L2",
        "streetName": "SIMCOE",
        "streetDirectionId": null,
        "streetTypeId": "ST",
        "placeName": "SUDBURY",
        "streetNameDisplayText": "SIMCOE ST, SUDBURY"
      }
    ]
  },
  {
    "postal": "P3C3B7",
    "result": [
      {
        "electoralDistricts": [
          {
            "election": null,
            "id": 103,
            "name": "Sudbury"
          }
        ],
        "pollDivisionIds": [
          10142174,
          10142171
        ],
        "postalCode": "P3C3B7",
        "streetName": "WEBBWOOD",
        "streetDirectionId": null,
        "streetTypeId": "DR",
        "placeName": "SUDBURY",
        "streetNameDisplayText": "WEBBWOOD DR, SUDBURY"
      }
    ]
  },
  {
    "postal": "P3C8L1",
    "result": []
  },
  {
    "postal": "P3C5M4",
    "result": [
      {
        "electoralDistricts": [
          {
            "election": null,
            "id": 103,
            "name": "Sudbury"
          }
        ],
        "pollDivisionIds": [
          10142186
        ],
        "postalCode": "P3C5M4",
        "streetName": "STE ANNE",
        "streetDirectionId": null,
        "streetTypeId": "RD",
        "placeName": "SUDBURY",
        "streetNameDisplayText": "STE ANNE RD, SUDBURY"
      }
    ]
  },
  {
    "postal": "P3C4G9",
    "result": [
      {
        "electoralDistricts": [
          {
            "election": null,
            "id": 103,
            "name": "Sudbury"
          }
        ],
        "pollDivisionIds": [
          10142133
        ],
        "postalCode": "P3C4G9",
        "streetName": "MONTAGUE",
        "streetDirectionId": null,
        "streetTypeId": "AVE",
        "placeName": "SUDBURY",
        "streetNameDisplayText": "MONTAGUE AVE, SUDBURY"
      }
    ]
  },
  {
    "postal": "P3C0P0",
    "result": []
  },
  {
    "postal": "P3C8G2",
    "result": []
  },
  {
    "postal": "P3C1V9",
    "result": [
      {
        "electoralDistricts": [
          {
            "election": null,
            "id": 103,
            "name": "Sudbury"
          }
        ],
        "pollDivisionIds": [
          10142132
        ],
        "postalCode": "P3C1V9",
        "streetName": "ELM",
        "streetDirectionId": null,
        "streetTypeId": "ST",
        "placeName": "SUDBURY",
        "streetNameDisplayText": "ELM ST, SUDBURY"
      }
    ]
  },
  {
    "postal": "P3C8N8",
    "result": []
  },
  {
    "postal": "P3C6S8",
    "result": []
  },
  {
    "postal": "P3C8H2",
    "result": []
  },
  {
    "postal": "P3C5R8",
    "result": [
      {
        "electoralDistricts": [
          {
            "election": null,
            "id": 103,
            "name": "Sudbury"
          }
        ],
        "pollDivisionIds": [
          10142138,
          10142139
        ],
        "postalCode": "P3C5R8",
        "streetName": "CAMBRIAN HEIGHTS",
        "streetDirectionId": null,
        "streetTypeId": "DR",
        "placeName": "SUDBURY",
        "streetNameDisplayText": "CAMBRIAN HEIGHTS DR, SUDBURY"
      }
    ]
  },
  {
    "postal": "P3C5L4",
    "result": [
      {
        "electoralDistricts": [
          {
            "election": null,
            "id": 103,
            "name": "Sudbury"
          }
        ],
        "pollDivisionIds": [
          10142137
        ],
        "postalCode": "P3C5L4",
        "streetName": "NOTRE DAME",
        "streetDirectionId": null,
        "streetTypeId": "AVE",
        "placeName": "SUDBURY",
        "streetNameDisplayText": "NOTRE DAME AVE, SUDBURY"
      }
    ]
  },
  {
    "postal": "P3C9E1",
    "result": []
  },
  {
    "postal": "P3C1C4",
    "result": []
  },
  {
    "postal": "P3C8W5",
    "result": []
  },
  {
    "postal": "P3C1Y4",
    "result": [
      {
        "electoralDistricts": [
          {
            "election": null,
            "id": 103,
            "name": "Sudbury"
          }
        ],
        "pollDivisionIds": [
          10142132
        ],
        "postalCode": "P3C1Y4",
        "streetName": "PINE",
        "streetDirectionId": null,
        "streetTypeId": "ST",
        "placeName": "SUDBURY",
        "streetNameDisplayText": "PINE ST, SUDBURY"
      }
    ]
  },
  {
    "postal": "P3C1C0",
    "result": []
  },
  {
    "postal": "P3C2J2",
    "result": [
      {
        "electoralDistricts": [
          {
            "election": null,
            "id": 103,
            "name": "Sudbury"
          }
        ],
        "pollDivisionIds": [
          10142134
        ],
        "postalCode": "P3C2J2",
        "streetName": "PATTERSON",
        "streetDirectionId": null,
        "streetTypeId": "ST",
        "placeName": "SUDBURY",
        "streetNameDisplayText": "PATTERSON ST, SUDBURY"
      }
    ]
  },
  {
    "postal": "P3C2J0",
    "result": []
  },
  {
    "postal": "P3C7A3",
    "result": []
  },
  {
    "postal": "P3C8M1",
    "result": []
  },
  {
    "postal": "P3C7T9",
    "result": []
  },
  {
    "postal": "P3C6C0",
    "result": []
  },
  {
    "postal": "P3C7X1",
    "result": []
  },
  {
    "postal": "P3C0G1",
    "result": []
  },
  {
    "postal": "P3C4X2",
    "result": [
      {
        "electoralDistricts": [
          {
            "election": null,
            "id": 103,
            "name": "Sudbury"
          }
        ],
        "pollDivisionIds": [
          10142136
        ],
        "postalCode": "P3C4X2",
        "streetName": "MELVIN",
        "streetDirectionId": null,
        "streetTypeId": "AVE",
        "placeName": "SUDBURY",
        "streetNameDisplayText": "MELVIN AVE, SUDBURY"
      }
    ]
  },
  {
    "postal": "P3C0N6",
    "result": []
  },
  {
    "postal": "P3C8E3",
    "result": []
  },
  {
    "postal": "P3C5S8",
    "result": []
  },
  {
    "postal": "P3C0R0",
    "result": []
  },
  {
    "postal": "P3C6J6",
    "result": []
  },
  {
    "postal": "P3C4B4",
    "result": [
      {
        "electoralDistricts": [
          {
            "election": null,
            "id": 103,
            "name": "Sudbury"
          }
        ],
        "pollDivisionIds": [
          10142131
        ],
        "postalCode": "P3C4B4",
        "streetName": "EYRE",
        "streetDirectionId": null,
        "streetTypeId": "ST",
        "placeName": "SUDBURY",
        "streetNameDisplayText": "EYRE ST, SUDBURY"
      }
    ]
  },
  {
    "postal": "P3C7E3",
    "result": []
  },
  {
    "postal": "P3C3N6",
    "result": [
      {
        "electoralDistricts": [
          {
            "election": null,
            "id": 103,
            "name": "Sudbury"
          }
        ],
        "pollDivisionIds": [
          10142131
        ],
        "postalCode": "P3C3N6",
        "streetName": "BYNG",
        "streetDirectionId": null,
        "streetTypeId": "ST",
        "placeName": "SUDBURY",
        "streetNameDisplayText": "BYNG ST, SUDBURY"
      }
    ]
  },
  {
    "postal": "P3C3X6",
    "result": [
      {
        "electoralDistricts": [
          {
            "election": null,
            "id": 103,
            "name": "Sudbury"
          }
        ],
        "pollDivisionIds": [
          10142131
        ],
        "postalCode": "P3C3X6",
        "streetName": "WHITTAKER",
        "streetDirectionId": null,
        "streetTypeId": "ST",
        "placeName": "SUDBURY",
        "streetNameDisplayText": "WHITTAKER ST, SUDBURY"
      }
    ]
  },
  {
    "postal": "P3C8L0",
    "result": []
  },
  {
    "postal": "P3C8N1",
    "result": []
  },
  {
    "postal": "P3C4J0",
    "result": []
  },
  {
    "postal": "P3C0X7",
    "result": []
  },
  {
    "postal": "P3C6S4",
    "result": []
  },
  {
    "postal": "P3C0Z0",
    "result": []
  },
  {
    "postal": "P3C9X8",
    "result": []
  },
  {
    "postal": "P3C3H3",
    "result": [
      {
        "electoralDistricts": [
          {
            "election": null,
            "id": 103,
            "name": "Sudbury"
          }
        ],
        "pollDivisionIds": [
          10142130
        ],
        "postalCode": "P3C3H3",
        "streetName": "CLEMOW",
        "streetDirectionId": null,
        "streetTypeId": "AVE",
        "placeName": "SUDBURY",
        "streetNameDisplayText": "CLEMOW AVE, SUDBURY"
      },
      {
        "electoralDistricts": [
          {
            "election": null,
            "id": 103,
            "name": "Sudbury"
          }
        ],
        "pollDivisionIds": [
          10142130
        ],
        "postalCode": "P3C3H3",
        "streetName": "GUTCHER",
        "streetDirectionId": null,
        "streetTypeId": "AVE",
        "placeName": "SUDBURY",
        "streetNameDisplayText": "GUTCHER AVE, SUDBURY"
      }
    ]
  },
  {
    "postal": "P3C7S2",
    "result": []
  },
  {
    "postal": "P3C3T3",
    "result": [
      {
        "electoralDistricts": [
          {
            "election": null,
            "id": 103,
            "name": "Sudbury"
          }
        ],
        "pollDivisionIds": [
          10142132
        ],
        "postalCode": "P3C3T3",
        "streetName": "PARKWOOD",
        "streetDirectionId": null,
        "streetTypeId": "ST",
        "placeName": "SUDBURY",
        "streetNameDisplayText": "PARKWOOD ST, SUDBURY"
      }
    ]
  },
  {
    "postal": "P3C9P3",
    "result": []
  },
  {
    "postal": "P3C4H8",
    "result": [
      {
        "electoralDistricts": [
          {
            "election": null,
            "id": 103,
            "name": "Sudbury"
          }
        ],
        "pollDivisionIds": [
          10142133
        ],
        "postalCode": "P3C4H8",
        "streetName": "BESSIE",
        "streetDirectionId": null,
        "streetTypeId": "AVE",
        "placeName": "SUDBURY",
        "streetNameDisplayText": "BESSIE AVE, SUDBURY"
      }
    ]
  },
  {
    "postal": "P3C6R1",
    "result": []
  },
  {
    "postal": "P3C1S0",
    "result": []
  },
  {
    "postal": "P3C3W8",
    "result": [
      {
        "electoralDistricts": [
          {
            "election": null,
            "id": 103,
            "name": "Sudbury"
          }
        ],
        "pollDivisionIds": [
          10142132
        ],
        "postalCode": "P3C3W8",
        "streetName": "WHITTAKER",
        "streetDirectionId": null,
        "streetTypeId": "ST",
        "placeName": "SUDBURY",
        "streetNameDisplayText": "WHITTAKER ST, SUDBURY"
      }
    ]
  },
  {
    "postal": "P3C4S3",
    "result": [
      {
        "electoralDistricts": [
          {
            "election": null,
            "id": 103,
            "name": "Sudbury"
          }
        ],
        "pollDivisionIds": [
          10142130
        ],
        "postalCode": "P3C4S3",
        "streetName": "LORNE",
        "streetDirectionId": null,
        "streetTypeId": "ST",
        "placeName": "SUDBURY",
        "streetNameDisplayText": "LORNE ST, SUDBURY"
      }
    ]
  },
  {
    "postal": "P3C1B6",
    "result": []
  },
  {
    "postal": "P3C8R3",
    "result": []
  },
  {
    "postal": "P3C4V9",
    "result": [
      {
        "electoralDistricts": [
          {
            "election": null,
            "id": 103,
            "name": "Sudbury"
          }
        ],
        "pollDivisionIds": [
          10142133
        ],
        "postalCode": "P3C4V9",
        "streetName": "MABEL",
        "streetDirectionId": null,
        "streetTypeId": "AVE",
        "placeName": "SUDBURY",
        "streetNameDisplayText": "MABEL AVE, SUDBURY"
      }
    ]
  },
  {
    "postal": "P3C9W4",
    "result": []
  },
  {
    "postal": "P3C3T4",
    "result": [
      {
        "electoralDistricts": [
          {
            "election": null,
            "id": 103,
            "name": "Sudbury"
          }
        ],
        "pollDivisionIds": [
          10142132
        ],
        "postalCode": "P3C3T4",
        "streetName": "PARKWOOD",
        "streetDirectionId": null,
        "streetTypeId": "ST",
        "placeName": "SUDBURY",
        "streetNameDisplayText": "PARKWOOD ST, SUDBURY"
      }
    ]
  },
  {
    "postal": "P3C5C7",
    "result": [
      {
        "electoralDistricts": [
          {
            "election": null,
            "id": 103,
            "name": "Sudbury"
          }
        ],
        "pollDivisionIds": [
          10142134
        ],
        "postalCode": "P3C5C7",
        "streetName": "MONTCALM",
        "streetDirectionId": null,
        "streetTypeId": "AVE",
        "placeName": "SUDBURY",
        "streetNameDisplayText": "MONTCALM AVE, SUDBURY"
      }
    ]
  },
  {
    "postal": "P3C3Y1",
    "result": [
      {
        "electoralDistricts": [
          {
            "election": null,
            "id": 103,
            "name": "Sudbury"
          }
        ],
        "pollDivisionIds": [
          10142131
        ],
        "postalCode": "P3C3Y1",
        "streetName": "WHITTAKER",
        "streetDirectionId": null,
        "streetTypeId": "ST",
        "placeName": "SUDBURY",
        "streetNameDisplayText": "WHITTAKER ST, SUDBURY"
      }
    ]
  },
  {
    "postal": "P3C5V0",
    "result": []
  },
  {
    "postal": "P3C8G8",
    "result": []
  },
  {
    "postal": "P3C8B1",
    "result": []
  },
  {
    "postal": "P3C4P5",
    "result": []
  },
  {
    "postal": "P3C7B2",
    "result": []
  },
  {
    "postal": "P3C0R2",
    "result": []
  },
  {
    "postal": "P3C4M4",
    "result": [
      {
        "electoralDistricts": [
          {
            "election": null,
            "id": 103,
            "name": "Sudbury"
          }
        ],
        "pollDivisionIds": [
          10142134
        ],
        "postalCode": "P3C4M4",
        "streetName": "LANSDOWNE",
        "streetDirectionId": null,
        "streetTypeId": "ST",
        "placeName": "SUDBURY",
        "streetNameDisplayText": "LANSDOWNE ST, SUDBURY"
      }
    ]
  },
  {
    "postal": "P3C7M4",
    "result": []
  },
  {
    "postal": "P3C9S7",
    "result": []
  },
  {
    "postal": "P3C5Z7",
    "result": []
  },
  {
    "postal": "P3C7J7",
    "result": []
  },
  {
    "postal": "P3C8R8",
    "result": []
  },
  {
    "postal": "P3C9X1",
    "result": []
  },
  {
    "postal": "P3C5M9",
    "result": [
      {
        "electoralDistricts": [
          {
            "election": null,
            "id": 103,
            "name": "Sudbury"
          }
        ],
        "pollDivisionIds": [
          10142130
        ],
        "postalCode": "P3C5M9",
        "streetName": "LORNE",
        "streetDirectionId": null,
        "streetTypeId": "ST",
        "placeName": "SUDBURY",
        "streetNameDisplayText": "LORNE ST, SUDBURY"
      }
    ]
  },
  {
    "postal": "P3C9B4",
    "result": []
  },
  {
    "postal": "P3C0L9",
    "result": []
  },
  {
    "postal": "P3C9G4",
    "result": []
  },
  {
    "postal": "P3C1J4",
    "result": [
      {
        "electoralDistricts": [
          {
            "election": null,
            "id": 103,
            "name": "Sudbury"
          }
        ],
        "pollDivisionIds": [
          10142131
        ],
        "postalCode": "P3C1J4",
        "streetName": "ISABEL",
        "streetDirectionId": null,
        "streetTypeId": "ST",
        "placeName": "SUDBURY",
        "streetNameDisplayText": "ISABEL ST, SUDBURY"
      }
    ]
  },
  {
    "postal": "P3C0W6",
    "result": []
  }
]
