[
  {
    "postal": "L8T9J6",
    "result": []
  },
  {
    "postal": "L8T9Z5",
    "result": []
  },
  {
    "postal": "L8T7H8",
    "result": []
  },
  {
    "postal": "L8T0P6",
    "result": []
  },
  {
    "postal": "L8T0S7",
    "result": []
  },
  {
    "postal": "L8T8B9",
    "result": []
  },
  {
    "postal": "L8T2A6",
    "result": [
      {
        "electoralDistricts": [
          {
            "election": null,
            "id": 38,
            "name": "Hamilton Mountain"
          }
        ],
        "pollDivisionIds": [
          10138697
        ],
        "postalCode": "L8T2A6",
        "streetName": "NINTH",
        "streetDirectionId": null,
        "streetTypeId": "AVE",
        "placeName": "HAMILTON",
        "streetNameDisplayText": "NINTH AVE, HAMILTON"
      }
    ]
  },
  {
    "postal": "L8T7V2",
    "result": []
  },
  {
    "postal": "L8T9P4",
    "result": []
  },
  {
    "postal": "L8T6G0",
    "result": []
  },
  {
    "postal": "L8T2K0",
    "result": []
  },
  {
    "postal": "L8T7N6",
    "result": []
  },
  {
    "postal": "L8T5R3",
    "result": []
  },
  {
    "postal": "L8T7K0",
    "result": []
  },
  {
    "postal": "L8T3R2",
    "result": [
      {
        "electoralDistricts": [
          {
            "election": null,
            "id": 38,
            "name": "Hamilton Mountain"
          }
        ],
        "pollDivisionIds": [
          10138698
        ],
        "postalCode": "L8T3R2",
        "streetName": "CASTLEFIELD",
        "streetDirectionId": null,
        "streetTypeId": "DR",
        "placeName": "HAMILTON",
        "streetNameDisplayText": "CASTLEFIELD DR, HAMILTON"
      }
    ]
  },
  {
    "postal": "L8T0J1",
    "result": []
  },
  {
    "postal": "L8T0B0",
    "result": []
  },
  {
    "postal": "L8T5Z2",
    "result": []
  },
  {
    "postal": "L8T7P3",
    "result": []
  },
  {
    "postal": "L8T2K3",
    "result": [
      {
        "electoralDistricts": [
          {
            "election": null,
            "id": 38,
            "name": "Hamilton Mountain"
          }
        ],
        "pollDivisionIds": [
          10138699
        ],
        "postalCode": "L8T2K3",
        "streetName": "FERN",
        "streetDirectionId": null,
        "streetTypeId": "PL",
        "placeName": "HAMILTON",
        "streetNameDisplayText": "FERN PL, HAMILTON"
      }
    ]
  },
  {
    "postal": "L8T7Y6",
    "result": []
  },
  {
    "postal": "L8T1L9",
    "result": [
      {
        "electoralDistricts": [
          {
            "election": null,
            "id": 38,
            "name": "Hamilton Mountain"
          }
        ],
        "pollDivisionIds": [
          10138694
        ],
        "postalCode": "L8T1L9",
        "streetName": "BRUCEDALE",
        "streetDirectionId": "E",
        "streetTypeId": "AVE",
        "placeName": "HAMILTON",
        "streetNameDisplayText": "BRUCEDALE AVE E, HAMILTON"
      }
    ]
  },
  {
    "postal": "L8T8T0",
    "result": []
  },
  {
    "postal": "L8T3K8",
    "result": [
      {
        "electoralDistricts": [
          {
            "election": null,
            "id": 38,
            "name": "Hamilton Mountain"
          }
        ],
        "pollDivisionIds": [
          10138697
        ],
        "postalCode": "L8T3K8",
        "streetName": "EAST 45TH",
        "streetDirectionId": null,
        "streetTypeId": "ST",
        "placeName": "HAMILTON",
        "streetNameDisplayText": "EAST 45TH ST, HAMILTON"
      }
    ]
  },
  {
    "postal": "L8T5W9",
    "result": []
  },
  {
    "postal": "L8T6T9",
    "result": []
  },
  {
    "postal": "L8T4H1",
    "result": [
      {
        "electoralDistricts": [
          {
            "election": null,
            "id": 38,
            "name": "Hamilton Mountain"
          }
        ],
        "pollDivisionIds": [
          10138699
        ],
        "postalCode": "L8T4H1",
        "streetName": "UPPER KENILWORTH",
        "streetDirectionId": null,
        "streetTypeId": "AVE",
        "placeName": "HAMILTON",
        "streetNameDisplayText": "UPPER KENILWORTH AVE, HAMILTON"
      }
    ]
  },
  {
    "postal": "L8T7A2",
    "result": []
  },
  {
    "postal": "L8T5G0",
    "result": []
  },
  {
    "postal": "L8T8V5",
    "result": []
  },
  {
    "postal": "L8T2Y8",
    "result": [
      {
        "electoralDistricts": [
          {
            "election": null,
            "id": 38,
            "name": "Hamilton Mountain"
          }
        ],
        "pollDivisionIds": [
          10138701
        ],
        "postalCode": "L8T2Y8",
        "streetName": "NORTHGATE",
        "streetDirectionId": null,
        "streetTypeId": "DR",
        "placeName": "HAMILTON",
        "streetNameDisplayText": "NORTHGATE DR, HAMILTON"
      }
    ]
  },
  {
    "postal": "L8T2B6",
    "result": [
      {
        "electoralDistricts": [
          {
            "election": null,
            "id": 38,
            "name": "Hamilton Mountain"
          }
        ],
        "pollDivisionIds": [
          10138698
        ],
        "postalCode": "L8T2B6",
        "streetName": "BROKER",
        "streetDirectionId": null,
        "streetTypeId": "DR",
        "placeName": "HAMILTON",
        "streetNameDisplayText": "BROKER DR, HAMILTON"
      }
    ]
  },
  {
    "postal": "L8T4W8",
    "result": [
      {
        "electoralDistricts": [
          {
            "election": null,
            "id": 38,
            "name": "Hamilton Mountain"
          }
        ],
        "pollDivisionIds": [
          10138701
        ],
        "postalCode": "L8T4W8",
        "streetName": "BASIN",
        "streetDirectionId": null,
        "streetTypeId": "CRES",
        "placeName": "HAMILTON",
        "streetNameDisplayText": "BASIN CRES, HAMILTON"
      }
    ]
  },
  {
    "postal": "L8T8H7",
    "result": []
  },
  {
    "postal": "L8T5P1",
    "result": []
  },
  {
    "postal": "L8T2B8",
    "result": [
      {
        "electoralDistricts": [
          {
            "election": null,
            "id": 38,
            "name": "Hamilton Mountain"
          }
        ],
        "pollDivisionIds": [
          10138698
        ],
        "postalCode": "L8T2B8",
        "streetName": "BROKER",
        "streetDirectionId": null,
        "streetTypeId": "DR",
        "placeName": "HAMILTON",
        "streetNameDisplayText": "BROKER DR, HAMILTON"
      }
    ]
  },
  {
    "postal": "L8T0P2",
    "result": []
  },
  {
    "postal": "L8T9M1",
    "result": []
  },
  {
    "postal": "L8T3G0",
    "result": []
  },
  {
    "postal": "L8T9Z2",
    "result": []
  },
  {
    "postal": "L8T2A0",
    "result": []
  },
  {
    "postal": "L8T6Y0",
    "result": []
  },
  {
    "postal": "L8T2Z8",
    "result": [
      {
        "electoralDistricts": [
          {
            "election": null,
            "id": 38,
            "name": "Hamilton Mountain"
          }
        ],
        "pollDivisionIds": [
          10138694
        ],
        "postalCode": "L8T2Z8",
        "streetName": "EAST 41ST",
        "streetDirectionId": null,
        "streetTypeId": "ST",
        "placeName": "HAMILTON",
        "streetNameDisplayText": "EAST 41ST ST, HAMILTON"
      }
    ]
  },
  {
    "postal": "L8T7Y3",
    "result": []
  },
  {
    "postal": "L8T6Z5",
    "result": []
  },
  {
    "postal": "L8T6E0",
    "result": []
  },
  {
    "postal": "L8T9B7",
    "result": []
  },
  {
    "postal": "L8T9S5",
    "result": []
  },
  {
    "postal": "L8T3X3",
    "result": [
      {
        "electoralDistricts": [
          {
            "election": null,
            "id": 38,
            "name": "Hamilton Mountain"
          }
        ],
        "pollDivisionIds": [
          10138695
        ],
        "postalCode": "L8T3X3",
        "streetName": "WELLWOOD",
        "streetDirectionId": null,
        "streetTypeId": "ST",
        "placeName": "HAMILTON",
        "streetNameDisplayText": "WELLWOOD ST, HAMILTON"
      }
    ]
  },
  {
    "postal": "L8T7R5",
    "result": []
  },
  {
    "postal": "L8T2X3",
    "result": [
      {
        "electoralDistricts": [
          {
            "election": null,
            "id": 38,
            "name": "Hamilton Mountain"
          }
        ],
        "pollDivisionIds": [
          10138701
        ],
        "postalCode": "L8T2X3",
        "streetName": "ANSON",
        "streetDirectionId": null,
        "streetTypeId": "AVE",
        "placeName": "HAMILTON",
        "streetNameDisplayText": "ANSON AVE, HAMILTON"
      }
    ]
  },
  {
    "postal": "L8T8Z9",
    "result": []
  },
  {
    "postal": "L8T0N4",
    "result": []
  },
  {
    "postal": "L8T1K1",
    "result": [
      {
        "electoralDistricts": [
          {
            "election": null,
            "id": 38,
            "name": "Hamilton Mountain"
          }
        ],
        "pollDivisionIds": [
          10138695
        ],
        "postalCode": "L8T1K1",
        "streetName": "EDGEWOOD",
        "streetDirectionId": null,
        "streetTypeId": "AVE",
        "placeName": "HAMILTON",
        "streetNameDisplayText": "EDGEWOOD AVE, HAMILTON"
      }
    ]
  },
  {
    "postal": "L8T1S3",
    "result": [
      {
        "electoralDistricts": [
          {
            "election": null,
            "id": 38,
            "name": "Hamilton Mountain"
          }
        ],
        "pollDivisionIds": [
          10138695
        ],
        "postalCode": "L8T1S3",
        "streetName": "FENNELL",
        "streetDirectionId": "E",
        "streetTypeId": "AVE",
        "placeName": "HAMILTON",
        "streetNameDisplayText": "FENNELL AVE E, HAMILTON"
      }
    ]
  },
  {
    "postal": "L8T6M4",
    "result": []
  },
  {
    "postal": "L8T9A9",
    "result": []
  },
  {
    "postal": "L8T9Z9",
    "result": []
  },
  {
    "postal": "L8T6T4",
    "result": []
  },
  {
    "postal": "L8T0B2",
    "result": []
  },
  {
    "postal": "L8T2L9",
    "result": [
      {
        "electoralDistricts": [
          {
            "election": null,
            "id": 38,
            "name": "Hamilton Mountain"
          }
        ],
        "pollDivisionIds": [
          10138699
        ],
        "postalCode": "L8T2L9",
        "streetName": "WISE",
        "streetDirectionId": null,
        "streetTypeId": "CRES",
        "placeName": "HAMILTON",
        "streetNameDisplayText": "WISE CRES, HAMILTON"
      }
    ]
  },
  {
    "postal": "L8T8K9",
    "result": []
  },
  {
    "postal": "L8T2H9",
    "result": [
      {
        "electoralDistricts": [
          {
            "election": null,
            "id": 38,
            "name": "Hamilton Mountain"
          }
        ],
        "pollDivisionIds": [
          10138699
        ],
        "postalCode": "L8T2H9",
        "streetName": "ELLSWORTH",
        "streetDirectionId": null,
        "streetTypeId": "DR",
        "placeName": "HAMILTON",
        "streetNameDisplayText": "ELLSWORTH DR, HAMILTON"
      }
    ]
  },
  {
    "postal": "L8T3Z6",
    "result": [
      {
        "electoralDistricts": [
          {
            "election": null,
            "id": 38,
            "name": "Hamilton Mountain"
          }
        ],
        "pollDivisionIds": [
          10138695
        ],
        "postalCode": "L8T3Z6",
        "streetName": "HIGH",
        "streetDirectionId": null,
        "streetTypeId": "ST",
        "placeName": "HAMILTON",
        "streetNameDisplayText": "HIGH ST, HAMILTON"
      }
    ]
  },
  {
    "postal": "L8T3B0",
    "result": []
  },
  {
    "postal": "L8T2H8",
    "result": [
      {
        "electoralDistricts": [
          {
            "election": null,
            "id": 38,
            "name": "Hamilton Mountain"
          }
        ],
        "pollDivisionIds": [
          10138699
        ],
        "postalCode": "L8T2H8",
        "streetName": "ELLIOTT",
        "streetDirectionId": null,
        "streetTypeId": "AVE",
        "placeName": "HAMILTON",
        "streetNameDisplayText": "ELLIOTT AVE, HAMILTON"
      }
    ]
  },
  {
    "postal": "L8T3X2",
    "result": [
      {
        "electoralDistricts": [
          {
            "election": null,
            "id": 38,
            "name": "Hamilton Mountain"
          }
        ],
        "pollDivisionIds": [
          10138695
        ],
        "postalCode": "L8T3X2",
        "streetName": "WELLWOOD",
        "streetDirectionId": null,
        "streetTypeId": "ST",
        "placeName": "HAMILTON",
        "streetNameDisplayText": "WELLWOOD ST, HAMILTON"
      }
    ]
  },
  {
    "postal": "L8T2E9",
    "result": [
      {
        "electoralDistricts": [
          {
            "election": null,
            "id": 38,
            "name": "Hamilton Mountain"
          }
        ],
        "pollDivisionIds": [
          10138699
        ],
        "postalCode": "L8T2E9",
        "streetName": "CECILIA",
        "streetDirectionId": null,
        "streetTypeId": "CRT",
        "placeName": "HAMILTON",
        "streetNameDisplayText": "CECILIA CRT, HAMILTON"
      }
    ]
  },
  {
    "postal": "L8T9P6",
    "result": []
  },
  {
    "postal": "L8T9E2",
    "result": []
  },
  {
    "postal": "L8T9H2",
    "result": []
  },
  {
    "postal": "L8T1S8",
    "result": [
      {
        "electoralDistricts": [
          {
            "election": null,
            "id": 38,
            "name": "Hamilton Mountain"
          }
        ],
        "pollDivisionIds": [
          10138695
        ],
        "postalCode": "L8T1S8",
        "streetName": "FENNELL",
        "streetDirectionId": "E",
        "streetTypeId": "AVE",
        "placeName": "HAMILTON",
        "streetNameDisplayText": "FENNELL AVE E, HAMILTON"
      }
    ]
  },
  {
    "postal": "L8T3M6",
    "result": [
      {
        "electoralDistricts": [
          {
            "election": null,
            "id": 38,
            "name": "Hamilton Mountain"
          }
        ],
        "pollDivisionIds": [
          10138701
        ],
        "postalCode": "L8T3M6",
        "streetName": "CURRIE",
        "streetDirectionId": null,
        "streetTypeId": "ST",
        "placeName": "HAMILTON",
        "streetNameDisplayText": "CURRIE ST, HAMILTON"
      }
    ]
  },
  {
    "postal": "L8T6Z8",
    "result": []
  },
  {
    "postal": "L8T4J2",
    "result": [
      {
        "electoralDistricts": [
          {
            "election": null,
            "id": 38,
            "name": "Hamilton Mountain"
          }
        ],
        "pollDivisionIds": [
          10138695
        ],
        "postalCode": "L8T4J2",
        "streetName": "PINEHURST",
        "streetDirectionId": null,
        "streetTypeId": "DR",
        "placeName": "HAMILTON",
        "streetNameDisplayText": "PINEHURST DR, HAMILTON"
      }
    ]
  },
  {
    "postal": "L8T9Y1",
    "result": []
  },
  {
    "postal": "L8T8V6",
    "result": []
  },
  {
    "postal": "L8T6B2",
    "result": []
  },
  {
    "postal": "L8T1P8",
    "result": [
      {
        "electoralDistricts": [
          {
            "election": null,
            "id": 38,
            "name": "Hamilton Mountain"
          }
        ],
        "pollDivisionIds": [
          10138695
        ],
        "postalCode": "L8T1P8",
        "streetName": "MORNINGSIDE",
        "streetDirectionId": null,
        "streetTypeId": "DR",
        "placeName": "HAMILTON",
        "streetNameDisplayText": "MORNINGSIDE DR, HAMILTON"
      }
    ]
  },
  {
    "postal": "L8T0V8",
    "result": []
  },
  {
    "postal": "L8T4Y0",
    "result": []
  },
  {
    "postal": "L8T2T4",
    "result": [
      {
        "electoralDistricts": [
          {
            "election": null,
            "id": 38,
            "name": "Hamilton Mountain"
          }
        ],
        "pollDivisionIds": [
          10138701
        ],
        "postalCode": "L8T2T4",
        "streetName": "RIDEAU",
        "streetDirectionId": null,
        "streetTypeId": "CRES",
        "placeName": "HAMILTON",
        "streetNameDisplayText": "RIDEAU CRES, HAMILTON"
      }
    ]
  },
  {
    "postal": "L8T2S3",
    "result": [
      {
        "electoralDistricts": [
          {
            "election": null,
            "id": 38,
            "name": "Hamilton Mountain"
          }
        ],
        "pollDivisionIds": [
          10138699
        ],
        "postalCode": "L8T2S3",
        "streetName": "MOHAWK",
        "streetDirectionId": "E",
        "streetTypeId": "RD",
        "placeName": "HAMILTON",
        "streetNameDisplayText": "MOHAWK RD E, HAMILTON"
      }
    ]
  },
  {
    "postal": "L8T0K0",
    "result": []
  },
  {
    "postal": "L8T5N1",
    "result": []
  },
  {
    "postal": "L8T7T0",
    "result": []
  },
  {
    "postal": "L8T9N2",
    "result": []
  },
  {
    "postal": "L8T5L1",
    "result": []
  },
  {
    "postal": "L8T7G5",
    "result": []
  },
  {
    "postal": "L8T6K2",
    "result": []
  },
  {
    "postal": "L8T6P9",
    "result": []
  },
  {
    "postal": "L8T0E6",
    "result": []
  },
  {
    "postal": "L8T8R9",
    "result": []
  },
  {
    "postal": "L8T3G9",
    "result": [
      {
        "electoralDistricts": [
          {
            "election": null,
            "id": 38,
            "name": "Hamilton Mountain"
          }
        ],
        "pollDivisionIds": [
          10138696
        ],
        "postalCode": "L8T3G9",
        "streetName": "EAST 44TH",
        "streetDirectionId": null,
        "streetTypeId": "ST",
        "placeName": "HAMILTON",
        "streetNameDisplayText": "EAST 44TH ST, HAMILTON"
      }
    ]
  },
  {
    "postal": "L8T0V7",
    "result": []
  },
  {
    "postal": "L8T2Z1",
    "result": [
      {
        "electoralDistricts": [
          {
            "election": null,
            "id": 38,
            "name": "Hamilton Mountain"
          }
        ],
        "pollDivisionIds": [
          10138701
        ],
        "postalCode": "L8T2Z1",
        "streetName": "THORLEY",
        "streetDirectionId": null,
        "streetTypeId": "DR",
        "placeName": "HAMILTON",
        "streetNameDisplayText": "THORLEY DR, HAMILTON"
      }
    ]
  },
  {
    "postal": "L8T7N1",
    "result": []
  },
  {
    "postal": "L8T3C6",
    "result": [
      {
        "electoralDistricts": [
          {
            "election": null,
            "id": 38,
            "name": "Hamilton Mountain"
          }
        ],
        "pollDivisionIds": [
          10138696
        ],
        "postalCode": "L8T3C6",
        "streetName": "EAST 43RD",
        "streetDirectionId": null,
        "streetTypeId": "ST",
        "placeName": "HAMILTON",
        "streetNameDisplayText": "EAST 43RD ST, HAMILTON"
      }
    ]
  },
  {
    "postal": "L8T4M1",
    "result": [
      {
        "electoralDistricts": [
          {
            "election": null,
            "id": 38,
            "name": "Hamilton Mountain"
          }
        ],
        "pollDivisionIds": [
          10138701
        ],
        "postalCode": "L8T4M1",
        "streetName": "BOWDEN",
        "streetDirectionId": null,
        "streetTypeId": "ST",
        "placeName": "HAMILTON",
        "streetNameDisplayText": "BOWDEN ST, HAMILTON"
      }
    ]
  },
  {
    "postal": "L8T9K2",
    "result": []
  },
  {
    "postal": "L8T9S6",
    "result": []
  },
  {
    "postal": "L8T4X1",
    "result": [
      {
        "electoralDistricts": [
          {
            "election": null,
            "id": 38,
            "name": "Hamilton Mountain"
          }
        ],
        "pollDivisionIds": [
          10138701
        ],
        "postalCode": "L8T4X1",
        "streetName": "BERRISFIELD",
        "streetDirectionId": null,
        "streetTypeId": "CRES",
        "placeName": "HAMILTON",
        "streetNameDisplayText": "BERRISFIELD CRES, HAMILTON"
      }
    ]
  },
  {
    "postal": "L8T8W2",
    "result": []
  },
  {
    "postal": "L8T7N2",
    "result": []
  },
  {
    "postal": "L8T8S3",
    "result": []
  },
  {
    "postal": "L8T4V0",
    "result": []
  },
  {
    "postal": "L8T6W4",
    "result": []
  },
  {
    "postal": "L8T5M1",
    "result": []
  },
  {
    "postal": "L8T0S4",
    "result": []
  },
  {
    "postal": "L8T5X6",
    "result": []
  },
  {
    "postal": "L8T8L5",
    "result": []
  },
  {
    "postal": "L8T5M8",
    "result": []
  },
  {
    "postal": "L8T2G3",
    "result": [
      {
        "electoralDistricts": [
          {
            "election": null,
            "id": 38,
            "name": "Hamilton Mountain"
          }
        ],
        "pollDivisionIds": [
          10138697
        ],
        "postalCode": "L8T2G3",
        "streetName": "TENTH",
        "streetDirectionId": null,
        "streetTypeId": "AVE",
        "placeName": "HAMILTON",
        "streetNameDisplayText": "TENTH AVE, HAMILTON"
      }
    ]
  },
  {
    "postal": "L8T8E4",
    "result": []
  },
  {
    "postal": "L8T7S9",
    "result": []
  },
  {
    "postal": "L8T1K3",
    "result": [
      {
        "electoralDistricts": [
          {
            "election": null,
            "id": 38,
            "name": "Hamilton Mountain"
          }
        ],
        "pollDivisionIds": [
          10138695
        ],
        "postalCode": "L8T1K3",
        "streetName": "DONLEA",
        "streetDirectionId": null,
        "streetTypeId": "DR",
        "placeName": "HAMILTON",
        "streetNameDisplayText": "DONLEA DR, HAMILTON"
      }
    ]
  },
  {
    "postal": "L8T4E1",
    "result": [
      {
        "electoralDistricts": [
          {
            "election": null,
            "id": 38,
            "name": "Hamilton Mountain"
          }
        ],
        "pollDivisionIds": [
          10138699
        ],
        "postalCode": "L8T4E1",
        "streetName": "GRENADIER",
        "streetDirectionId": null,
        "streetTypeId": "DR",
        "placeName": "HAMILTON",
        "streetNameDisplayText": "GRENADIER DR, HAMILTON"
      }
    ]
  },
  {
    "postal": "L8T4R2",
    "result": [
      {
        "electoralDistricts": [
          {
            "election": null,
            "id": 38,
            "name": "Hamilton Mountain"
          }
        ],
        "pollDivisionIds": [
          10138701
        ],
        "postalCode": "L8T4R2",
        "streetName": "BILLINGTON",
        "streetDirectionId": null,
        "streetTypeId": "CRES",
        "placeName": "HAMILTON",
        "streetNameDisplayText": "BILLINGTON CRES, HAMILTON"
      }
    ]
  },
  {
    "postal": "L8T6T0",
    "result": []
  },
  {
    "postal": "L8T3K5",
    "result": [
      {
        "electoralDistricts": [
          {
            "election": null,
            "id": 38,
            "name": "Hamilton Mountain"
          }
        ],
        "pollDivisionIds": [
          10138697
        ],
        "postalCode": "L8T3K5",
        "streetName": "EAST 45TH",
        "streetDirectionId": null,
        "streetTypeId": "ST",
        "placeName": "HAMILTON",
        "streetNameDisplayText": "EAST 45TH ST, HAMILTON"
      }
    ]
  },
  {
    "postal": "L8T3S3",
    "result": [
      {
        "electoralDistricts": [
          {
            "election": null,
            "id": 38,
            "name": "Hamilton Mountain"
          }
        ],
        "pollDivisionIds": [
          10138701
        ],
        "postalCode": "L8T3S3",
        "streetName": "LORRAINE",
        "streetDirectionId": null,
        "streetTypeId": "DR",
        "placeName": "HAMILTON",
        "streetNameDisplayText": "LORRAINE DR, HAMILTON"
      }
    ]
  },
  {
    "postal": "L8T3L4",
    "result": [
      {
        "electoralDistricts": [
          {
            "election": null,
            "id": 38,
            "name": "Hamilton Mountain"
          }
        ],
        "pollDivisionIds": [
          10138698
        ],
        "postalCode": "L8T3L4",
        "streetName": "FERNWOOD",
        "streetDirectionId": null,
        "streetTypeId": "CRES",
        "placeName": "HAMILTON",
        "streetNameDisplayText": "FERNWOOD CRES, HAMILTON"
      }
    ]
  },
  {
    "postal": "L8T9Y2",
    "result": []
  },
  {
    "postal": "L8T1E0",
    "result": []
  },
  {
    "postal": "L8T9A4",
    "result": []
  },
  {
    "postal": "L8T1L3",
    "result": [
      {
        "electoralDistricts": [
          {
            "election": null,
            "id": 38,
            "name": "Hamilton Mountain"
          }
        ],
        "pollDivisionIds": [
          10138694
        ],
        "postalCode": "L8T1L3",
        "streetName": "BRUCEDALE",
        "streetDirectionId": "E",
        "streetTypeId": "AVE",
        "placeName": "HAMILTON",
        "streetNameDisplayText": "BRUCEDALE AVE E, HAMILTON"
      }
    ]
  },
  {
    "postal": "L8T6N1",
    "result": []
  },
  {
    "postal": "L8T6G7",
    "result": []
  },
  {
    "postal": "L8T7W1",
    "result": []
  },
  {
    "postal": "L8T4M6",
    "result": [
      {
        "electoralDistricts": [
          {
            "election": null,
            "id": 38,
            "name": "Hamilton Mountain"
          }
        ],
        "pollDivisionIds": [
          10138701
        ],
        "postalCode": "L8T4M6",
        "streetName": "BOGART",
        "streetDirectionId": null,
        "streetTypeId": "CRT",
        "placeName": "HAMILTON",
        "streetNameDisplayText": "BOGART CRT, HAMILTON"
      }
    ]
  },
  {
    "postal": "L8T1K0",
    "result": []
  },
  {
    "postal": "L8T3E2",
    "result": [
      {
        "electoralDistricts": [
          {
            "election": null,
            "id": 38,
            "name": "Hamilton Mountain"
          }
        ],
        "pollDivisionIds": [
          10138697
        ],
        "postalCode": "L8T3E2",
        "streetName": "EAST 43RD",
        "streetDirectionId": null,
        "streetTypeId": "ST",
        "placeName": "HAMILTON",
        "streetNameDisplayText": "EAST 43RD ST, HAMILTON"
      }
    ]
  },
  {
    "postal": "L8T5H4",
    "result": []
  },
  {
    "postal": "L8T1K7",
    "result": [
      {
        "electoralDistricts": [
          {
            "election": null,
            "id": 38,
            "name": "Hamilton Mountain"
          }
        ],
        "pollDivisionIds": [
          10138695
        ],
        "postalCode": "L8T1K7",
        "streetName": "VALECREST",
        "streetDirectionId": null,
        "streetTypeId": "AVE",
        "placeName": "HAMILTON",
        "streetNameDisplayText": "VALECREST AVE, HAMILTON"
      }
    ]
  },
  {
    "postal": "L8T0H0",
    "result": []
  },
  {
    "postal": "L8T0J3",
    "result": []
  },
  {
    "postal": "L8T1X6",
    "result": [
      {
        "electoralDistricts": [
          {
            "election": null,
            "id": 38,
            "name": "Hamilton Mountain"
          }
        ],
        "pollDivisionIds": [
          10138698
        ],
        "postalCode": "L8T1X6",
        "streetName": "HUNTINGTON",
        "streetDirectionId": null,
        "streetTypeId": "AVE",
        "placeName": "HAMILITON",
        "streetNameDisplayText": "HUNTINGTON AVE, HAMILITON"
      },
      {
        "electoralDistricts": [
          {
            "election": null,
            "id": 38,
            "name": "Hamilton Mountain"
          }
        ],
        "pollDivisionIds": [
          10138698
        ],
        "postalCode": "L8T1X6",
        "streetName": "HUNTINGTON",
        "streetDirectionId": null,
        "streetTypeId": "AVE",
        "placeName": "HAMILTON",
        "streetNameDisplayText": "HUNTINGTON AVE, HAMILTON"
      }
    ]
  },
  {
    "postal": "L8T2Z6",
    "result": [
      {
        "electoralDistricts": [
          {
            "election": null,
            "id": 38,
            "name": "Hamilton Mountain"
          }
        ],
        "pollDivisionIds": [
          10138694
        ],
        "postalCode": "L8T2Z6",
        "streetName": "EAST 41ST",
        "streetDirectionId": null,
        "streetTypeId": "ST",
        "placeName": "HAMILTON",
        "streetNameDisplayText": "EAST 41ST ST, HAMILTON"
      }
    ]
  },
  {
    "postal": "L8T4R9",
    "result": [
      {
        "electoralDistricts": [
          {
            "election": null,
            "id": 38,
            "name": "Hamilton Mountain"
          }
        ],
        "pollDivisionIds": [
          10138701
        ],
        "postalCode": "L8T4R9",
        "streetName": "MOXELY",
        "streetDirectionId": null,
        "streetTypeId": "DR",
        "placeName": "HAMILTON",
        "streetNameDisplayText": "MOXELY DR, HAMILTON"
      },
      {
        "electoralDistricts": [
          {
            "election": null,
            "id": 38,
            "name": "Hamilton Mountain"
          }
        ],
        "pollDivisionIds": [
          10138701
        ],
        "postalCode": "L8T4R9",
        "streetName": "MOXLEY",
        "streetDirectionId": null,
        "streetTypeId": "DR",
        "placeName": "HAMILTON",
        "streetNameDisplayText": "MOXLEY DR, HAMILTON"
      }
    ]
  },
  {
    "postal": "L8T0W8",
    "result": []
  },
  {
    "postal": "L8T1L4",
    "result": [
      {
        "electoralDistricts": [
          {
            "election": null,
            "id": 38,
            "name": "Hamilton Mountain"
          }
        ],
        "pollDivisionIds": [
          10138694
        ],
        "postalCode": "L8T1L4",
        "streetName": "BRUCEDALE",
        "streetDirectionId": "E",
        "streetTypeId": "AVE",
        "placeName": "HAMILTON",
        "streetNameDisplayText": "BRUCEDALE AVE E, HAMILTON"
      }
    ]
  },
  {
    "postal": "L8T0C8",
    "result": []
  },
  {
    "postal": "L8T9X7",
    "result": []
  },
  {
    "postal": "L8T4T1",
    "result": [
      {
        "electoralDistricts": [
          {
            "election": null,
            "id": 38,
            "name": "Hamilton Mountain"
          }
        ],
        "pollDivisionIds": [
          10138702
        ],
        "postalCode": "L8T4T1",
        "streetName": "UPPER KENILWORTH",
        "streetDirectionId": null,
        "streetTypeId": "AVE",
        "placeName": "HAMILTON",
        "streetNameDisplayText": "UPPER KENILWORTH AVE, HAMILTON"
      }
    ]
  },
  {
    "postal": "L8T0M0",
    "result": []
  },
  {
    "postal": "L8T6A2",
    "result": []
  },
  {
    "postal": "L8T9S8",
    "result": []
  },
  {
    "postal": "L8T9T4",
    "result": []
  },
  {
    "postal": "L8T9Y4",
    "result": []
  },
  {
    "postal": "L8T6G5",
    "result": []
  },
  {
    "postal": "L8T6H9",
    "result": []
  },
  {
    "postal": "L8T2P3",
    "result": [
      {
        "electoralDistricts": [
          {
            "election": null,
            "id": 38,
            "name": "Hamilton Mountain"
          }
        ],
        "pollDivisionIds": [
          10138699
        ],
        "postalCode": "L8T2P3",
        "streetName": "NOVA",
        "streetDirectionId": null,
        "streetTypeId": "DR",
        "placeName": "HAMILTON",
        "streetNameDisplayText": "NOVA DR, HAMILTON"
      }
    ]
  },
  {
    "postal": "L8T1T6",
    "result": []
  },
  {
    "postal": "L8T4P6",
    "result": [
      {
        "electoralDistricts": [
          {
            "election": null,
            "id": 38,
            "name": "Hamilton Mountain"
          }
        ],
        "pollDivisionIds": [
          10138701
        ],
        "postalCode": "L8T4P6",
        "streetName": "BIRCHVIEW",
        "streetDirectionId": null,
        "streetTypeId": "DR",
        "placeName": "HAMILTON",
        "streetNameDisplayText": "BIRCHVIEW DR, HAMILTON"
      }
    ]
  },
  {
    "postal": "L8T3K1",
    "result": [
      {
        "electoralDistricts": [
          {
            "election": null,
            "id": 38,
            "name": "Hamilton Mountain"
          }
        ],
        "pollDivisionIds": [
          10138696
        ],
        "postalCode": "L8T3K1",
        "streetName": "EAST 45TH",
        "streetDirectionId": null,
        "streetTypeId": "ST",
        "placeName": "HAMILTON",
        "streetNameDisplayText": "EAST 45TH ST, HAMILTON"
      }
    ]
  },
  {
    "postal": "L8T6X4",
    "result": []
  },
  {
    "postal": "L8T4M8",
    "result": [
      {
        "electoralDistricts": [
          {
            "election": null,
            "id": 38,
            "name": "Hamilton Mountain"
          }
        ],
        "pollDivisionIds": [
          10138701
        ],
        "postalCode": "L8T4M8",
        "streetName": "BOON",
        "streetDirectionId": null,
        "streetTypeId": "CRT",
        "placeName": "HAMILTON",
        "streetNameDisplayText": "BOON CRT, HAMILTON"
      }
    ]
  },
  {
    "postal": "L8T2Y1",
    "result": [
      {
        "electoralDistricts": [
          {
            "election": null,
            "id": 38,
            "name": "Hamilton Mountain"
          }
        ],
        "pollDivisionIds": [
          10138701
        ],
        "postalCode": "L8T2Y1",
        "streetName": "RICHARD",
        "streetDirectionId": null,
        "streetTypeId": "CRT",
        "placeName": "HAMILTON",
        "streetNameDisplayText": "RICHARD CRT, HAMILTON"
      }
    ]
  },
  {
    "postal": "L8T6M1",
    "result": []
  },
  {
    "postal": "L8T5L8",
    "result": []
  },
  {
    "postal": "L8T3P6",
    "result": [
      {
        "electoralDistricts": [
          {
            "election": null,
            "id": 38,
            "name": "Hamilton Mountain"
          }
        ],
        "pollDivisionIds": [
          10138694
        ],
        "postalCode": "L8T3P6",
        "streetName": "RENDELL",
        "streetDirectionId": null,
        "streetTypeId": "BLVD",
        "placeName": "HAMILTON",
        "streetNameDisplayText": "RENDELL BLVD, HAMILTON"
      }
    ]
  },
  {
    "postal": "L8T9A5",
    "result": []
  },
  {
    "postal": "L8T7K1",
    "result": []
  },
  {
    "postal": "L8T3J4",
    "result": [
      {
        "electoralDistricts": [
          {
            "election": null,
            "id": 38,
            "name": "Hamilton Mountain"
          }
        ],
        "pollDivisionIds": [
          10138694
        ],
        "postalCode": "L8T3J4",
        "streetName": "GREEN MEADOW",
        "streetDirectionId": null,
        "streetTypeId": "RD",
        "placeName": "HAMILTON",
        "streetNameDisplayText": "GREEN MEADOW RD, HAMILTON"
      }
    ]
  },
  {
    "postal": "L8T5E7",
    "result": []
  },
  {
    "postal": "L8T3A7",
    "result": [
      {
        "electoralDistricts": [
          {
            "election": null,
            "id": 38,
            "name": "Hamilton Mountain"
          }
        ],
        "pollDivisionIds": [
          10138696
        ],
        "postalCode": "L8T3A7",
        "streetName": "EAST 42ND",
        "streetDirectionId": null,
        "streetTypeId": "ST",
        "placeName": "HAMILTON",
        "streetNameDisplayText": "EAST 42ND ST, HAMILTON"
      }
    ]
  },
  {
    "postal": "L8T1B9",
    "result": [
      {
        "electoralDistricts": [
          {
            "election": null,
            "id": 38,
            "name": "Hamilton Mountain"
          }
        ],
        "pollDivisionIds": [
          10138694
        ],
        "postalCode": "L8T1B9",
        "streetName": "SUNNING HILL",
        "streetDirectionId": null,
        "streetTypeId": "AVE",
        "placeName": "HAMILTON",
        "streetNameDisplayText": "SUNNING HILL AVE, HAMILTON"
      }
    ]
  },
  {
    "postal": "L8T9E8",
    "result": []
  },
  {
    "postal": "L8T1C9",
    "result": [
      {
        "electoralDistricts": [
          {
            "election": null,
            "id": 38,
            "name": "Hamilton Mountain"
          }
        ],
        "pollDivisionIds": [
          10138694
        ],
        "postalCode": "L8T1C9",
        "streetName": "SHARON",
        "streetDirectionId": null,
        "streetTypeId": "AVE",
        "placeName": "HAMILTON",
        "streetNameDisplayText": "SHARON AVE, HAMILTON"
      }
    ]
  },
  {
    "postal": "L8T3B5",
    "result": [
      {
        "electoralDistricts": [
          {
            "election": null,
            "id": 38,
            "name": "Hamilton Mountain"
          }
        ],
        "pollDivisionIds": [
          10138701
        ],
        "postalCode": "L8T3B5",
        "streetName": "BANFF",
        "streetDirectionId": null,
        "streetTypeId": "DR",
        "placeName": "HAMILTON",
        "streetNameDisplayText": "BANFF DR, HAMILTON"
      }
    ]
  },
  {
    "postal": "L8T8R0",
    "result": []
  },
  {
    "postal": "L8T3P2",
    "result": [
      {
        "electoralDistricts": [
          {
            "election": null,
            "id": 38,
            "name": "Hamilton Mountain"
          }
        ],
        "pollDivisionIds": [
          10138694
        ],
        "postalCode": "L8T3P2",
        "streetName": "RENDELL",
        "streetDirectionId": null,
        "streetTypeId": "BLVD",
        "placeName": "HAMILTON",
        "streetNameDisplayText": "RENDELL BLVD, HAMILTON"
      }
    ]
  },
  {
    "postal": "L8T5V4",
    "result": []
  },
  {
    "postal": "L8T4H0",
    "result": []
  },
  {
    "postal": "L8T4S7",
    "result": [
      {
        "electoralDistricts": [
          {
            "election": null,
            "id": 38,
            "name": "Hamilton Mountain"
          }
        ],
        "pollDivisionIds": [
          10138701
        ],
        "postalCode": "L8T4S7",
        "streetName": "BERYL",
        "streetDirectionId": null,
        "streetTypeId": "ST",
        "placeName": "HAMILTON",
        "streetNameDisplayText": "BERYL ST, HAMILTON"
      }
    ]
  },
  {
    "postal": "L8T6C2",
    "result": []
  },
  {
    "postal": "L8T8W3",
    "result": []
  },
  {
    "postal": "L8T4M5",
    "result": [
      {
        "electoralDistricts": [
          {
            "election": null,
            "id": 38,
            "name": "Hamilton Mountain"
          }
        ],
        "pollDivisionIds": [
          10138702
        ],
        "postalCode": "L8T4M5",
        "streetName": "CARSON",
        "streetDirectionId": null,
        "streetTypeId": "DR",
        "placeName": "HAMILTON",
        "streetNameDisplayText": "CARSON DR, HAMILTON"
      }
    ]
  },
  {
    "postal": "L8T5T1",
    "result": []
  },
  {
    "postal": "L8T3B3",
    "result": [
      {
        "electoralDistricts": [
          {
            "election": null,
            "id": 38,
            "name": "Hamilton Mountain"
          }
        ],
        "pollDivisionIds": [
          10138697
        ],
        "postalCode": "L8T3B3",
        "streetName": "EAST 42ND",
        "streetDirectionId": null,
        "streetTypeId": "ST",
        "placeName": "HAMILTON",
        "streetNameDisplayText": "EAST 42ND ST, HAMILTON"
      }
    ]
  },
  {
    "postal": "L8T6C6",
    "result": []
  },
  {
    "postal": "L8T7N8",
    "result": []
  },
  {
    "postal": "L8T2Y3",
    "result": [
      {
        "electoralDistricts": [
          {
            "election": null,
            "id": 38,
            "name": "Hamilton Mountain"
          }
        ],
        "pollDivisionIds": [
          10138701
        ],
        "postalCode": "L8T2Y3",
        "streetName": "MICHAEL",
        "streetDirectionId": null,
        "streetTypeId": "AVE",
        "placeName": "HAMILTON",
        "streetNameDisplayText": "MICHAEL AVE, HAMILTON"
      }
    ]
  },
  {
    "postal": "L8T2R6",
    "result": [
      {
        "electoralDistricts": [
          {
            "election": null,
            "id": 38,
            "name": "Hamilton Mountain"
          }
        ],
        "pollDivisionIds": [
          10138698
        ],
        "postalCode": "L8T2R6",
        "streetName": "MOHAWK",
        "streetDirectionId": "E",
        "streetTypeId": "RD",
        "placeName": "HAMILTON",
        "streetNameDisplayText": "MOHAWK RD E, HAMILTON"
      }
    ]
  },
  {
    "postal": "L8T7N3",
    "result": []
  },
  {
    "postal": "L8T8J2",
    "result": []
  },
  {
    "postal": "L8T6A9",
    "result": []
  },
  {
    "postal": "L8T3V2",
    "result": [
      {
        "electoralDistricts": [
          {
            "election": null,
            "id": 38,
            "name": "Hamilton Mountain"
          }
        ],
        "pollDivisionIds": [
          10138697
        ],
        "postalCode": "L8T3V2",
        "streetName": "UPPER OTTAWA",
        "streetDirectionId": null,
        "streetTypeId": "ST",
        "placeName": "HAMILTON",
        "streetNameDisplayText": "UPPER OTTAWA ST, HAMILTON"
      }
    ]
  },
  {
    "postal": "L8T2N3",
    "result": [
      {
        "electoralDistricts": [
          {
            "election": null,
            "id": 38,
            "name": "Hamilton Mountain"
          }
        ],
        "pollDivisionIds": [
          10138698
        ],
        "postalCode": "L8T2N3",
        "streetName": "BEACON",
        "streetDirectionId": null,
        "streetTypeId": "AVE",
        "placeName": "HAMILTON",
        "streetNameDisplayText": "BEACON AVE, HAMILTON"
      }
    ]
  },
  {
    "postal": "L8T1S5",
    "result": [
      {
        "electoralDistricts": [
          {
            "election": null,
            "id": 38,
            "name": "Hamilton Mountain"
          }
        ],
        "pollDivisionIds": [
          10138698
        ],
        "postalCode": "L8T1S5",
        "streetName": "FENNELL",
        "streetDirectionId": "E",
        "streetTypeId": "AVE",
        "placeName": "HAMILTON",
        "streetNameDisplayText": "FENNELL AVE E, HAMILTON"
      }
    ]
  },
  {
    "postal": "L8T4T7",
    "result": [
      {
        "electoralDistricts": [
          {
            "election": null,
            "id": 38,
            "name": "Hamilton Mountain"
          }
        ],
        "pollDivisionIds": [
          10138702
        ],
        "postalCode": "L8T4T7",
        "streetName": "CARSON",
        "streetDirectionId": null,
        "streetTypeId": "DR",
        "placeName": "HAMILTON",
        "streetNameDisplayText": "CARSON DR, HAMILTON"
      }
    ]
  },
  {
    "postal": "L8T6Y7",
    "result": []
  },
  {
    "postal": "L8T0W7",
    "result": []
  },
  {
    "postal": "L8T2W9",
    "result": [
      {
        "electoralDistricts": [
          {
            "election": null,
            "id": 38,
            "name": "Hamilton Mountain"
          }
        ],
        "pollDivisionIds": [
          10138701
        ],
        "postalCode": "L8T2W9",
        "streetName": "BEACONSFIELD",
        "streetDirectionId": null,
        "streetTypeId": "DR",
        "placeName": "HAMILTON",
        "streetNameDisplayText": "BEACONSFIELD DR, HAMILTON"
      }
    ]
  },
  {
    "postal": "L8T8V0",
    "result": []
  },
  {
    "postal": "L8T0H4",
    "result": []
  },
  {
    "postal": "L8T2T1",
    "result": [
      {
        "electoralDistricts": [
          {
            "election": null,
            "id": 38,
            "name": "Hamilton Mountain"
          }
        ],
        "pollDivisionIds": [
          10138702
        ],
        "postalCode": "L8T2T1",
        "streetName": "RIDEAU",
        "streetDirectionId": null,
        "streetTypeId": "CRES",
        "placeName": "HAMILTON",
        "streetNameDisplayText": "RIDEAU CRES, HAMILTON"
      }
    ]
  },
  {
    "postal": "L8T1B1",
    "result": [
      {
        "electoralDistricts": [
          {
            "election": null,
            "id": 38,
            "name": "Hamilton Mountain"
          }
        ],
        "pollDivisionIds": [
          10138699
        ],
        "postalCode": "L8T1B1",
        "streetName": "MOUNTAIN BROW",
        "streetDirectionId": null,
        "streetTypeId": "BLVD",
        "placeName": "HAMILTON",
        "streetNameDisplayText": "MOUNTAIN BROW BLVD, HAMILTON"
      }
    ]
  },
  {
    "postal": "L8T8B6",
    "result": []
  },
  {
    "postal": "L8T6H1",
    "result": []
  },
  {
    "postal": "L8T8T8",
    "result": []
  },
  {
    "postal": "L8T0T4",
    "result": []
  },
  {
    "postal": "L8T2C4",
    "result": [
      {
        "electoralDistricts": [
          {
            "election": null,
            "id": 38,
            "name": "Hamilton Mountain"
          }
        ],
        "pollDivisionIds": [
          10138699
        ],
        "postalCode": "L8T2C4",
        "streetName": "BROKER",
        "streetDirectionId": null,
        "streetTypeId": "DR",
        "placeName": "HAMILTON",
        "streetNameDisplayText": "BROKER DR, HAMILTON"
      }
    ]
  },
  {
    "postal": "L8T8N3",
    "result": []
  },
  {
    "postal": "L8T4L8",
    "result": [
      {
        "electoralDistricts": [
          {
            "election": null,
            "id": 38,
            "name": "Hamilton Mountain"
          }
        ],
        "pollDivisionIds": [
          10138702
        ],
        "postalCode": "L8T4L8",
        "streetName": "LAIRD",
        "streetDirectionId": null,
        "streetTypeId": "DR",
        "placeName": "HAMILTON",
        "streetNameDisplayText": "LAIRD DR, HAMILTON"
      }
    ]
  },
  {
    "postal": "L8T2B5",
    "result": [
      {
        "electoralDistricts": [
          {
            "election": null,
            "id": 38,
            "name": "Hamilton Mountain"
          }
        ],
        "pollDivisionIds": [
          10138698
        ],
        "postalCode": "L8T2B5",
        "streetName": "BROKER",
        "streetDirectionId": null,
        "streetTypeId": "DR",
        "placeName": "HAMILTON",
        "streetNameDisplayText": "BROKER DR, HAMILTON"
      }
    ]
  },
  {
    "postal": "L8T3H1",
    "result": [
      {
        "electoralDistricts": [
          {
            "election": null,
            "id": 38,
            "name": "Hamilton Mountain"
          }
        ],
        "pollDivisionIds": [
          10138696
        ],
        "postalCode": "L8T3H1",
        "streetName": "EAST 44TH",
        "streetDirectionId": null,
        "streetTypeId": "ST",
        "placeName": "HAMILTON",
        "streetNameDisplayText": "EAST 44TH ST, HAMILTON"
      }
    ]
  },
  {
    "postal": "L8T4Y1",
    "result": [
      {
        "electoralDistricts": [
          {
            "election": null,
            "id": 38,
            "name": "Hamilton Mountain"
          }
        ],
        "pollDivisionIds": [
          10138702
        ],
        "postalCode": "L8T4Y1",
        "streetName": "SUMMERLEA",
        "streetDirectionId": null,
        "streetTypeId": "DR",
        "placeName": "HAMILTON",
        "streetNameDisplayText": "SUMMERLEA DR, HAMILTON"
      }
    ]
  },
  {
    "postal": "L8T7E2",
    "result": []
  },
  {
    "postal": "L8T2P5",
    "result": [
      {
        "electoralDistricts": [
          {
            "election": null,
            "id": 38,
            "name": "Hamilton Mountain"
          }
        ],
        "pollDivisionIds": [
          10138699
        ],
        "postalCode": "L8T2P5",
        "streetName": "NOVA",
        "streetDirectionId": null,
        "streetTypeId": "DR",
        "placeName": "HAMILTON",
        "streetNameDisplayText": "NOVA DR, HAMILTON"
      }
    ]
  },
  {
    "postal": "L8T8R7",
    "result": []
  },
  {
    "postal": "L8T9P1",
    "result": []
  },
  {
    "postal": "L8T3B8",
    "result": [
      {
        "electoralDistricts": [
          {
            "election": null,
            "id": 38,
            "name": "Hamilton Mountain"
          }
        ],
        "pollDivisionIds": [
          10138694
        ],
        "postalCode": "L8T3B8",
        "streetName": "EAST 43RD",
        "streetDirectionId": null,
        "streetTypeId": "ST",
        "placeName": "HAMILTON",
        "streetNameDisplayText": "EAST 43RD ST, HAMILTON"
      }
    ]
  },
  {
    "postal": "L8T3P7",
    "result": [
      {
        "electoralDistricts": [
          {
            "election": null,
            "id": 38,
            "name": "Hamilton Mountain"
          }
        ],
        "pollDivisionIds": [
          10138694
        ],
        "postalCode": "L8T3P7",
        "streetName": "RENDELL",
        "streetDirectionId": null,
        "streetTypeId": "BLVD",
        "placeName": "HAMILTON",
        "streetNameDisplayText": "RENDELL BLVD, HAMILTON"
      }
    ]
  },
  {
    "postal": "L8T9B2",
    "result": []
  },
  {
    "postal": "L8T6Z3",
    "result": []
  },
  {
    "postal": "L8T4N5",
    "result": [
      {
        "electoralDistricts": [
          {
            "election": null,
            "id": 38,
            "name": "Hamilton Mountain"
          }
        ],
        "pollDivisionIds": [
          10138701
        ],
        "postalCode": "L8T4N5",
        "streetName": "BEHAN",
        "streetDirectionId": null,
        "streetTypeId": "ST",
        "placeName": "HAMILTON",
        "streetNameDisplayText": "BEHAN ST, HAMILTON"
      }
    ]
  },
  {
    "postal": "L8T8T3",
    "result": []
  },
  {
    "postal": "L8T1V2",
    "result": [
      {
        "electoralDistricts": [
          {
            "election": null,
            "id": 38,
            "name": "Hamilton Mountain"
          }
        ],
        "pollDivisionIds": [
          10138696
        ],
        "postalCode": "L8T1V2",
        "streetName": "SEVENTH",
        "streetDirectionId": null,
        "streetTypeId": "AVE",
        "placeName": "HAMILTON",
        "streetNameDisplayText": "SEVENTH AVE, HAMILTON"
      }
    ]
  },
  {
    "postal": "L8T1Y0",
    "result": []
  },
  {
    "postal": "L8T3G6",
    "result": [
      {
        "electoralDistricts": [
          {
            "election": null,
            "id": 38,
            "name": "Hamilton Mountain"
          }
        ],
        "pollDivisionIds": [
          10138694
        ],
        "postalCode": "L8T3G6",
        "streetName": "EAST 44TH",
        "streetDirectionId": null,
        "streetTypeId": "ST",
        "placeName": "HAMILTON",
        "streetNameDisplayText": "EAST 44TH ST, HAMILTON"
      }
    ]
  },
  {
    "postal": "L8T3H7",
    "result": [
      {
        "electoralDistricts": [
          {
            "election": null,
            "id": 38,
            "name": "Hamilton Mountain"
          }
        ],
        "pollDivisionIds": [
          10138697
        ],
        "postalCode": "L8T3H7",
        "streetName": "EAST 44TH",
        "streetDirectionId": null,
        "streetTypeId": "ST",
        "placeName": "HAMILTON",
        "streetNameDisplayText": "EAST 44TH ST, HAMILTON"
      }
    ]
  },
  {
    "postal": "L8T7X8",
    "result": []
  },
  {
    "postal": "L8T0C7",
    "result": []
  },
  {
    "postal": "L8T0W9",
    "result": []
  },
  {
    "postal": "L8T8E6",
    "result": []
  },
  {
    "postal": "L8T9Z8",
    "result": []
  },
  {
    "postal": "L8T3P4",
    "result": [
      {
        "electoralDistricts": [
          {
            "election": null,
            "id": 38,
            "name": "Hamilton Mountain"
          }
        ],
        "pollDivisionIds": [
          10138694
        ],
        "postalCode": "L8T3P4",
        "streetName": "RENDELL",
        "streetDirectionId": null,
        "streetTypeId": "BLVD",
        "placeName": "HAMILTON",
        "streetNameDisplayText": "RENDELL BLVD, HAMILTON"
      }
    ]
  },
  {
    "postal": "L8T6L8",
    "result": []
  },
  {
    "postal": "L8T2R4",
    "result": [
      {
        "electoralDistricts": [
          {
            "election": null,
            "id": 38,
            "name": "Hamilton Mountain"
          }
        ],
        "pollDivisionIds": [
          10138697
        ],
        "postalCode": "L8T2R4",
        "streetName": "MOHAWK",
        "streetDirectionId": "E",
        "streetTypeId": "RD",
        "placeName": "HAMILTON",
        "streetNameDisplayText": "MOHAWK RD E, HAMILTON"
      }
    ]
  },
  {
    "postal": "L8T2W1",
    "result": [
      {
        "electoralDistricts": [
          {
            "election": null,
            "id": 38,
            "name": "Hamilton Mountain"
          }
        ],
        "pollDivisionIds": [
          10138701
        ],
        "postalCode": "L8T2W1",
        "streetName": "CROYDON",
        "streetDirectionId": null,
        "streetTypeId": "CRT",
        "placeName": "HAMILTON",
        "streetNameDisplayText": "CROYDON CRT, HAMILTON"
      }
    ]
  },
  {
    "postal": "L8T9H8",
    "result": []
  },
  {
    "postal": "L8T8X9",
    "result": []
  },
  {
    "postal": "L8T7H4",
    "result": []
  },
  {
    "postal": "L8T3J1",
    "result": [
      {
        "electoralDistricts": [
          {
            "election": null,
            "id": 38,
            "name": "Hamilton Mountain"
          }
        ],
        "pollDivisionIds": [
          10138697
        ],
        "postalCode": "L8T3J1",
        "streetName": "EAST 44TH",
        "streetDirectionId": null,
        "streetTypeId": "ST",
        "placeName": "HAMILTON",
        "streetNameDisplayText": "EAST 44TH ST, HAMILTON"
      }
    ]
  },
  {
    "postal": "L8T1P4",
    "result": [
      {
        "electoralDistricts": [
          {
            "election": null,
            "id": 38,
            "name": "Hamilton Mountain"
          }
        ],
        "pollDivisionIds": [
          10138695
        ],
        "postalCode": "L8T1P4",
        "streetName": "SHERWOOD",
        "streetDirectionId": null,
        "streetTypeId": "RISE",
        "placeName": "HAMILTON",
        "streetNameDisplayText": "SHERWOOD RISE, HAMILTON"
      }
    ]
  },
  {
    "postal": "L8T2A3",
    "result": [
      {
        "electoralDistricts": [
          {
            "election": null,
            "id": 38,
            "name": "Hamilton Mountain"
          }
        ],
        "pollDivisionIds": [
          10138697
        ],
        "postalCode": "L8T2A3",
        "streetName": "NINTH",
        "streetDirectionId": null,
        "streetTypeId": "AVE",
        "placeName": "HAMILTON",
        "streetNameDisplayText": "NINTH AVE, HAMILTON"
      }
    ]
  },
  {
    "postal": "L8T0Z1",
    "result": []
  },
  {
    "postal": "L8T1C1",
    "result": [
      {
        "electoralDistricts": [
          {
            "election": null,
            "id": 38,
            "name": "Hamilton Mountain"
          }
        ],
        "pollDivisionIds": [
          10138694
        ],
        "postalCode": "L8T1C1",
        "streetName": "SUNNING HILL",
        "streetDirectionId": null,
        "streetTypeId": "AVE",
        "placeName": "HAMILTON",
        "streetNameDisplayText": "SUNNING HILL AVE, HAMILTON"
      }
    ]
  },
  {
    "postal": "L8T0H3",
    "result": []
  },
  {
    "postal": "L8T7B0",
    "result": []
  },
  {
    "postal": "L8T5K2",
    "result": []
  },
  {
    "postal": "L8T1E9",
    "result": [
      {
        "electoralDistricts": [
          {
            "election": null,
            "id": 38,
            "name": "Hamilton Mountain"
          }
        ],
        "pollDivisionIds": [
          10138694
        ],
        "postalCode": "L8T1E9",
        "streetName": "EVERTON",
        "streetDirectionId": null,
        "streetTypeId": "PL",
        "placeName": "HAMILTON",
        "streetNameDisplayText": "EVERTON PL, HAMILTON"
      }
    ]
  },
  {
    "postal": "L8T9W7",
    "result": []
  },
  {
    "postal": "L8T5W6",
    "result": []
  },
  {
    "postal": "L8T6S6",
    "result": []
  },
  {
    "postal": "L8T2P8",
    "result": [
      {
        "electoralDistricts": [
          {
            "election": null,
            "id": 38,
            "name": "Hamilton Mountain"
          }
        ],
        "pollDivisionIds": [
          10138701
        ],
        "postalCode": "L8T2P8",
        "streetName": "MOHAWK",
        "streetDirectionId": "E",
        "streetTypeId": "RD",
        "placeName": "HAMILTON",
        "streetNameDisplayText": "MOHAWK RD E, HAMILTON"
      }
    ]
  },
  {
    "postal": "L8T4P8",
    "result": [
      {
        "electoralDistricts": [
          {
            "election": null,
            "id": 38,
            "name": "Hamilton Mountain"
          }
        ],
        "pollDivisionIds": [
          10138701
        ],
        "postalCode": "L8T4P8",
        "streetName": "BLOOR",
        "streetDirectionId": null,
        "streetTypeId": "ST",
        "placeName": "HAMILTON",
        "streetNameDisplayText": "BLOOR ST, HAMILTON"
      }
    ]
  },
  {
    "postal": "L8T0V9",
    "result": []
  },
  {
    "postal": "L8T5Y2",
    "result": []
  },
  {
    "postal": "L8T7Z7",
    "result": []
  },
  {
    "postal": "L8T6Y8",
    "result": []
  },
  {
    "postal": "L8T2G7",
    "result": [
      {
        "electoralDistricts": [
          {
            "election": null,
            "id": 38,
            "name": "Hamilton Mountain"
          }
        ],
        "pollDivisionIds": [
          10138698
        ],
        "postalCode": "L8T2G7",
        "streetName": "TENTH",
        "streetDirectionId": null,
        "streetTypeId": "AVE",
        "placeName": "HAMILTON",
        "streetNameDisplayText": "TENTH AVE, HAMILTON"
      }
    ]
  },
  {
    "postal": "L8T8C1",
    "result": []
  },
  {
    "postal": "L8T5C5",
    "result": []
  },
  {
    "postal": "L8T2X8",
    "result": [
      {
        "electoralDistricts": [
          {
            "election": null,
            "id": 38,
            "name": "Hamilton Mountain"
          }
        ],
        "pollDivisionIds": [
          10138702
        ],
        "postalCode": "L8T2X8",
        "streetName": "CARSON",
        "streetDirectionId": null,
        "streetTypeId": "DR",
        "placeName": "HAMILTON",
        "streetNameDisplayText": "CARSON DR, HAMILTON"
      }
    ]
  },
  {
    "postal": "L8T1W5",
    "result": [
      {
        "electoralDistricts": [
          {
            "election": null,
            "id": 38,
            "name": "Hamilton Mountain"
          }
        ],
        "pollDivisionIds": [
          10138699
        ],
        "postalCode": "L8T1W5",
        "streetName": "KEEN",
        "streetDirectionId": null,
        "streetTypeId": "CRT",
        "placeName": "HAMILTON",
        "streetNameDisplayText": "KEEN CRT, HAMILTON"
      }
    ]
  },
  {
    "postal": "L8T7G0",
    "result": []
  },
  {
    "postal": "L8T8J8",
    "result": []
  },
  {
    "postal": "L8T3Y0",
    "result": []
  },
  {
    "postal": "L8T9T7",
    "result": []
  },
  {
    "postal": "L8T5P4",
    "result": []
  },
  {
    "postal": "L8T4B0",
    "result": []
  },
  {
    "postal": "L8T9N8",
    "result": []
  },
  {
    "postal": "L8T4A7",
    "result": [
      {
        "electoralDistricts": [
          {
            "election": null,
            "id": 38,
            "name": "Hamilton Mountain"
          }
        ],
        "pollDivisionIds": [
          10138698
        ],
        "postalCode": "L8T4A7",
        "streetName": "KINGSLEA",
        "streetDirectionId": null,
        "streetTypeId": "DR",
        "placeName": "HAMILTON",
        "streetNameDisplayText": "KINGSLEA DR, HAMILTON"
      }
    ]
  },
  {
    "postal": "L8T4H9",
    "result": [
      {
        "electoralDistricts": [
          {
            "election": null,
            "id": 38,
            "name": "Hamilton Mountain"
          }
        ],
        "pollDivisionIds": [
          10138699
        ],
        "postalCode": "L8T4H9",
        "streetName": "SEAGRAM",
        "streetDirectionId": null,
        "streetTypeId": "PL",
        "placeName": "HAMILTON",
        "streetNameDisplayText": "SEAGRAM PL, HAMILTON"
      }
    ]
  },
  {
    "postal": "L8T6X1",
    "result": []
  },
  {
    "postal": "L8T9Y7",
    "result": []
  },
  {
    "postal": "L8T2Y5",
    "result": [
      {
        "electoralDistricts": [
          {
            "election": null,
            "id": 38,
            "name": "Hamilton Mountain"
          }
        ],
        "pollDivisionIds": [
          10138701
        ],
        "postalCode": "L8T2Y5",
        "streetName": "CHOPIN",
        "streetDirectionId": null,
        "streetTypeId": "CRT",
        "placeName": "HAMILTON",
        "streetNameDisplayText": "CHOPIN CRT, HAMILTON"
      }
    ]
  },
  {
    "postal": "L8T8L7",
    "result": []
  },
  {
    "postal": "L8T2A8",
    "result": [
      {
        "electoralDistricts": [
          {
            "election": null,
            "id": 38,
            "name": "Hamilton Mountain"
          }
        ],
        "pollDivisionIds": [
          10138697
        ],
        "postalCode": "L8T2A8",
        "streetName": "NINTH",
        "streetDirectionId": null,
        "streetTypeId": "AVE",
        "placeName": "HAMILTON",
        "streetNameDisplayText": "NINTH AVE, HAMILTON"
      }
    ]
  },
  {
    "postal": "L8T2K9",
    "result": [
      {
        "electoralDistricts": [
          {
            "election": null,
            "id": 38,
            "name": "Hamilton Mountain"
          }
        ],
        "pollDivisionIds": [
          10138697
        ],
        "postalCode": "L8T2K9",
        "streetName": "ELEVENTH",
        "streetDirectionId": "E",
        "streetTypeId": "AVE",
        "placeName": "HAMILTON",
        "streetNameDisplayText": "ELEVENTH AVE E, HAMILTON"
      }
    ]
  },
  {
    "postal": "L8T3E5",
    "result": [
      {
        "electoralDistricts": [
          {
            "election": null,
            "id": 38,
            "name": "Hamilton Mountain"
          }
        ],
        "pollDivisionIds": [
          10138697
        ],
        "postalCode": "L8T3E5",
        "streetName": "EAST 43RD",
        "streetDirectionId": null,
        "streetTypeId": "ST",
        "placeName": "HAMILTON",
        "streetNameDisplayText": "EAST 43RD ST, HAMILTON"
      }
    ]
  },
  {
    "postal": "L8T8N6",
    "result": []
  },
  {
    "postal": "L8T8J4",
    "result": []
  },
  {
    "postal": "L8T4R7",
    "result": [
      {
        "electoralDistricts": [
          {
            "election": null,
            "id": 38,
            "name": "Hamilton Mountain"
          }
        ],
        "pollDivisionIds": [
          10138701
        ],
        "postalCode": "L8T4R7",
        "streetName": "BRETT",
        "streetDirectionId": null,
        "streetTypeId": "CRT",
        "placeName": "HAMILTON",
        "streetNameDisplayText": "BRETT CRT, HAMILTON"
      }
    ]
  },
  {
    "postal": "L8T9K1",
    "result": []
  },
  {
    "postal": "L8T8E1",
    "result": []
  },
  {
    "postal": "L8T0R1",
    "result": []
  },
  {
    "postal": "L8T4J3",
    "result": [
      {
        "electoralDistricts": [
          {
            "election": null,
            "id": 38,
            "name": "Hamilton Mountain"
          }
        ],
        "pollDivisionIds": [
          10138699
        ],
        "postalCode": "L8T4J3",
        "streetName": "KING'S FOREST",
        "streetDirectionId": null,
        "streetTypeId": "DR",
        "placeName": "HAMILTON",
        "streetNameDisplayText": "KING'S FOREST DR, HAMILTON"
      }
    ]
  },
  {
    "postal": "L8T7E7",
    "result": []
  },
  {
    "postal": "L8T0J0",
    "result": []
  },
  {
    "postal": "L8T7R8",
    "result": []
  },
  {
    "postal": "L8T9X0",
    "result": []
  },
  {
    "postal": "L8T7P6",
    "result": []
  },
  {
    "postal": "L8T0R7",
    "result": []
  },
  {
    "postal": "L8T5W1",
    "result": []
  },
  {
    "postal": "L8T0K4",
    "result": []
  },
  {
    "postal": "L8T7N9",
    "result": []
  },
  {
    "postal": "L8T1N0",
    "result": []
  },
  {
    "postal": "L8T6P3",
    "result": []
  },
  {
    "postal": "L8T5A1",
    "result": []
  },
  {
    "postal": "L8T9M9",
    "result": []
  },
  {
    "postal": "L8T7T6",
    "result": []
  },
  {
    "postal": "L8T3X0",
    "result": []
  },
  {
    "postal": "L8T2T0",
    "result": []
  },
  {
    "postal": "L8T5X9",
    "result": []
  },
  {
    "postal": "L8T2R3",
    "result": [
      {
        "electoralDistricts": [
          {
            "election": null,
            "id": 38,
            "name": "Hamilton Mountain"
          }
        ],
        "pollDivisionIds": [
          10138697
        ],
        "postalCode": "L8T2R3",
        "streetName": "MOHAWK",
        "streetDirectionId": "E",
        "streetTypeId": "RD",
        "placeName": "HAMILTON",
        "streetNameDisplayText": "MOHAWK RD E, HAMILTON"
      }
    ]
  },
  {
    "postal": "L8T5N2",
    "result": []
  },
  {
    "postal": "L8T4Y7",
    "result": [
      {
        "electoralDistricts": [
          {
            "election": null,
            "id": 38,
            "name": "Hamilton Mountain"
          }
        ],
        "pollDivisionIds": [
          10138701
        ],
        "postalCode": "L8T4Y7",
        "streetName": "BIRCHVIEW",
        "streetDirectionId": null,
        "streetTypeId": "DR",
        "placeName": "HAMILTON",
        "streetNameDisplayText": "BIRCHVIEW DR, HAMILTON"
      }
    ]
  },
  {
    "postal": "L8T7M0",
    "result": []
  },
  {
    "postal": "L8T8P3",
    "result": []
  },
  {
    "postal": "L8T3N3",
    "result": [
      {
        "electoralDistricts": [
          {
            "election": null,
            "id": 38,
            "name": "Hamilton Mountain"
          }
        ],
        "pollDivisionIds": [
          10138698
        ],
        "postalCode": "L8T3N3",
        "streetName": "GREENWOOD",
        "streetDirectionId": null,
        "streetTypeId": "ST",
        "placeName": "HAMILTON",
        "streetNameDisplayText": "GREENWOOD ST, HAMILTON"
      }
    ]
  },
  {
    "postal": "L8T7S3",
    "result": []
  },
  {
    "postal": "L8T3V9",
    "result": [
      {
        "electoralDistricts": [
          {
            "election": null,
            "id": 38,
            "name": "Hamilton Mountain"
          }
        ],
        "pollDivisionIds": [
          10138698
        ],
        "postalCode": "L8T3V9",
        "streetName": "BRENTWOOD",
        "streetDirectionId": null,
        "streetTypeId": "DR",
        "placeName": "HAMILTON",
        "streetNameDisplayText": "BRENTWOOD DR, HAMILTON"
      }
    ]
  },
  {
    "postal": "L8T9N7",
    "result": []
  },
  {
    "postal": "L8T0G4",
    "result": []
  },
  {
    "postal": "L8T2E2",
    "result": [
      {
        "electoralDistricts": [
          {
            "election": null,
            "id": 38,
            "name": "Hamilton Mountain"
          }
        ],
        "pollDivisionIds": [
          10138698
        ],
        "postalCode": "L8T2E2",
        "streetName": "SANDALWOOD",
        "streetDirectionId": null,
        "streetTypeId": "AVE",
        "placeName": "HAMILTON",
        "streetNameDisplayText": "SANDALWOOD AVE, HAMILTON"
      }
    ]
  },
  {
    "postal": "L8T7W8",
    "result": []
  },
  {
    "postal": "L8T7M5",
    "result": []
  },
  {
    "postal": "L8T5W8",
    "result": []
  },
  {
    "postal": "L8T5E5",
    "result": []
  },
  {
    "postal": "L8T1P9",
    "result": [
      {
        "electoralDistricts": [
          {
            "election": null,
            "id": 38,
            "name": "Hamilton Mountain"
          }
        ],
        "pollDivisionIds": [
          10138696
        ],
        "postalCode": "L8T1P9",
        "streetName": "FENNELL",
        "streetDirectionId": "E",
        "streetTypeId": "AVE",
        "placeName": "HAMILTON",
        "streetNameDisplayText": "FENNELL AVE E, HAMILTON"
      }
    ]
  },
  {
    "postal": "L8T8V8",
    "result": []
  },
  {
    "postal": "L8T9G8",
    "result": []
  },
  {
    "postal": "L8T8H9",
    "result": []
  },
  {
    "postal": "L8T1Z1",
    "result": [
      {
        "electoralDistricts": [
          {
            "election": null,
            "id": 38,
            "name": "Hamilton Mountain"
          }
        ],
        "pollDivisionIds": [
          10138699
        ],
        "postalCode": "L8T1Z1",
        "streetName": "ORGAN",
        "streetDirectionId": null,
        "streetTypeId": "CRES",
        "placeName": "HAMILTON",
        "streetNameDisplayText": "ORGAN CRES, HAMILTON"
      }
    ]
  },
  {
    "postal": "L8T8M3",
    "result": []
  },
  {
    "postal": "L8T5H6",
    "result": []
  },
  {
    "postal": "L8T7W7",
    "result": []
  },
  {
    "postal": "L8T4L0",
    "result": []
  },
  {
    "postal": "L8T2N1",
    "result": [
      {
        "electoralDistricts": [
          {
            "election": null,
            "id": 38,
            "name": "Hamilton Mountain"
          }
        ],
        "pollDivisionIds": [
          10138697
        ],
        "postalCode": "L8T2N1",
        "streetName": "WINCHESTER",
        "streetDirectionId": null,
        "streetTypeId": "BLVD",
        "placeName": "HAMILTON",
        "streetNameDisplayText": "WINCHESTER BLVD, HAMILTON"
      }
    ]
  },
  {
    "postal": "L8T2H4",
    "result": [
      {
        "electoralDistricts": [
          {
            "election": null,
            "id": 38,
            "name": "Hamilton Mountain"
          }
        ],
        "pollDivisionIds": [
          10138698
        ],
        "postalCode": "L8T2H4",
        "streetName": "ELLIOTT",
        "streetDirectionId": null,
        "streetTypeId": "AVE",
        "placeName": "HAMILTON",
        "streetNameDisplayText": "ELLIOTT AVE, HAMILTON"
      }
    ]
  },
  {
    "postal": "L8T5C8",
    "result": []
  },
  {
    "postal": "L8T8B0",
    "result": []
  },
  {
    "postal": "L8T1T4",
    "result": [
      {
        "electoralDistricts": [
          {
            "election": null,
            "id": 38,
            "name": "Hamilton Mountain"
          }
        ],
        "pollDivisionIds": [
          10138699
        ],
        "postalCode": "L8T1T4",
        "streetName": "FENNELL",
        "streetDirectionId": "E",
        "streetTypeId": "AVE",
        "placeName": "HAMILTON",
        "streetNameDisplayText": "FENNELL AVE E, HAMILTON"
      }
    ]
  },
  {
    "postal": "L8T7N7",
    "result": []
  },
  {
    "postal": "L8T4L3",
    "result": [
      {
        "electoralDistricts": [
          {
            "election": null,
            "id": 38,
            "name": "Hamilton Mountain"
          }
        ],
        "pollDivisionIds": [
          10138701
        ],
        "postalCode": "L8T4L3",
        "streetName": "BIRCHCLIFFE",
        "streetDirectionId": null,
        "streetTypeId": "CRES",
        "placeName": "HAMILTON",
        "streetNameDisplayText": "BIRCHCLIFFE CRES, HAMILTON"
      }
    ]
  },
  {
    "postal": "L8T2N2",
    "result": [
      {
        "electoralDistricts": [
          {
            "election": null,
            "id": 38,
            "name": "Hamilton Mountain"
          }
        ],
        "pollDivisionIds": [
          10138697
        ],
        "postalCode": "L8T2N2",
        "streetName": "WINCHESTER",
        "streetDirectionId": null,
        "streetTypeId": "BLVD",
        "placeName": "HAMILTON",
        "streetNameDisplayText": "WINCHESTER BLVD, HAMILTON"
      }
    ]
  },
  {
    "postal": "L8T4N8",
    "result": [
      {
        "electoralDistricts": [
          {
            "election": null,
            "id": 38,
            "name": "Hamilton Mountain"
          }
        ],
        "pollDivisionIds": [
          10138701
        ],
        "postalCode": "L8T4N8",
        "streetName": "LARCH",
        "streetDirectionId": null,
        "streetTypeId": "ST",
        "placeName": "HAMILTON",
        "streetNameDisplayText": "LARCH ST, HAMILTON"
      }
    ]
  },
  {
    "postal": "L8T3M5",
    "result": [
      {
        "electoralDistricts": [
          {
            "election": null,
            "id": 38,
            "name": "Hamilton Mountain"
          }
        ],
        "pollDivisionIds": [
          10138701
        ],
        "postalCode": "L8T3M5",
        "streetName": "CURRIE",
        "streetDirectionId": null,
        "streetTypeId": "ST",
        "placeName": "HAMILTON",
        "streetNameDisplayText": "CURRIE ST, HAMILTON"
      }
    ]
  },
  {
    "postal": "L8T6H7",
    "result": []
  },
  {
    "postal": "L8T8Y8",
    "result": []
  },
  {
    "postal": "L8T5R9",
    "result": []
  },
  {
    "postal": "L8T8G3",
    "result": []
  },
  {
    "postal": "L8T4N7",
    "result": [
      {
        "electoralDistricts": [
          {
            "election": null,
            "id": 38,
            "name": "Hamilton Mountain"
          }
        ],
        "pollDivisionIds": [
          10138701
        ],
        "postalCode": "L8T4N7",
        "streetName": "BEHAN",
        "streetDirectionId": null,
        "streetTypeId": "ST",
        "placeName": "HAMILTON",
        "streetNameDisplayText": "BEHAN ST, HAMILTON"
      }
    ]
  },
  {
    "postal": "L8T0B9",
    "result": []
  },
  {
    "postal": "L8T9K7",
    "result": []
  },
  {
    "postal": "L8T9K9",
    "result": []
  },
  {
    "postal": "L8T3Z2",
    "result": [
      {
        "electoralDistricts": [
          {
            "election": null,
            "id": 38,
            "name": "Hamilton Mountain"
          }
        ],
        "pollDivisionIds": [
          10138695
        ],
        "postalCode": "L8T3Z2",
        "streetName": "HIGH",
        "streetDirectionId": null,
        "streetTypeId": "ST",
        "placeName": "HAMILTON",
        "streetNameDisplayText": "HIGH ST, HAMILTON"
      }
    ]
  },
  {
    "postal": "L8T6W7",
    "result": []
  },
  {
    "postal": "L8T0P1",
    "result": []
  },
  {
    "postal": "L8T3A0",
    "result": []
  },
  {
    "postal": "L8T8L9",
    "result": []
  },
  {
    "postal": "L8T6X0",
    "result": []
  },
  {
    "postal": "L8T3E9",
    "result": [
      {
        "electoralDistricts": [
          {
            "election": null,
            "id": 38,
            "name": "Hamilton Mountain"
          }
        ],
        "pollDivisionIds": [
          10138701
        ],
        "postalCode": "L8T3E9",
        "streetName": "PALMER",
        "streetDirectionId": null,
        "streetTypeId": "RD",
        "placeName": "HAMILTON",
        "streetNameDisplayText": "PALMER RD, HAMILTON"
      }
    ]
  },
  {
    "postal": "L8T0S5",
    "result": []
  },
  {
    "postal": "L8T1A2",
    "result": [
      {
        "electoralDistricts": [
          {
            "election": null,
            "id": 38,
            "name": "Hamilton Mountain"
          }
        ],
        "pollDivisionIds": [
          10138694
        ],
        "postalCode": "L8T1A2",
        "streetName": "CONCESSION",
        "streetDirectionId": null,
        "streetTypeId": "ST",
        "placeName": "HAMILTON",
        "streetNameDisplayText": "CONCESSION ST, HAMILTON"
      }
    ]
  },
  {
    "postal": "L8T5V8",
    "result": []
  },
  {
    "postal": "L8T8C5",
    "result": []
  },
  {
    "postal": "L8T6N0",
    "result": []
  },
  {
    "postal": "L8T9E6",
    "result": []
  },
  {
    "postal": "L8T5J7",
    "result": []
  },
  {
    "postal": "L8T2R2",
    "result": [
      {
        "electoralDistricts": [
          {
            "election": null,
            "id": 38,
            "name": "Hamilton Mountain"
          }
        ],
        "pollDivisionIds": [
          10138697
        ],
        "postalCode": "L8T2R2",
        "streetName": "MOHAWK",
        "streetDirectionId": "E",
        "streetTypeId": "RD",
        "placeName": "HAMILTON",
        "streetNameDisplayText": "MOHAWK RD E, HAMILTON"
      }
    ]
  },
  {
    "postal": "L8T0P5",
    "result": []
  },
  {
    "postal": "L8T5A7",
    "result": [
      {
        "electoralDistricts": [
          {
            "election": null,
            "id": 38,
            "name": "Hamilton Mountain"
          }
        ],
        "pollDivisionIds": [
          10138702
        ],
        "postalCode": "L8T5A7",
        "streetName": "TOWNMANSION",
        "streetDirectionId": null,
        "streetTypeId": "DR",
        "placeName": "HAMILTON",
        "streetNameDisplayText": "TOWNMANSION DR, HAMILTON"
      }
    ]
  },
  {
    "postal": "L8T1G1",
    "result": [
      {
        "electoralDistricts": [
          {
            "election": null,
            "id": 38,
            "name": "Hamilton Mountain"
          }
        ],
        "pollDivisionIds": [
          10138694
        ],
        "postalCode": "L8T1G1",
        "streetName": "EVERTON",
        "streetDirectionId": null,
        "streetTypeId": "PL",
        "placeName": "HAMILTON",
        "streetNameDisplayText": "EVERTON PL, HAMILTON"
      }
    ]
  },
  {
    "postal": "L8T9R6",
    "result": []
  },
  {
    "postal": "L8T4Z9",
    "result": [
      {
        "electoralDistricts": [
          {
            "election": null,
            "id": 38,
            "name": "Hamilton Mountain"
          }
        ],
        "pollDivisionIds": [
          10138702
        ],
        "postalCode": "L8T4Z9",
        "streetName": "ARTISTIC",
        "streetDirectionId": null,
        "streetTypeId": "BLVD",
        "placeName": "HAMILTON",
        "streetNameDisplayText": "ARTISTIC BLVD, HAMILTON"
      },
      {
        "electoralDistricts": [
          {
            "election": null,
            "id": 38,
            "name": "Hamilton Mountain"
          }
        ],
        "pollDivisionIds": [
          10138702
        ],
        "postalCode": "L8T4Z9",
        "streetName": "EMBASSY",
        "streetDirectionId": null,
        "streetTypeId": "DR",
        "placeName": "HAMILTON",
        "streetNameDisplayText": "EMBASSY DR, HAMILTON"
      },
      {
        "electoralDistricts": [
          {
            "election": null,
            "id": 38,
            "name": "Hamilton Mountain"
          }
        ],
        "pollDivisionIds": [
          10138702
        ],
        "postalCode": "L8T4Z9",
        "streetName": "RANKO",
        "streetDirectionId": null,
        "streetTypeId": "CRT",
        "placeName": "HAMILTON",
        "streetNameDisplayText": "RANKO CRT, HAMILTON"
      }
    ]
  },
  {
    "postal": "L8T1V5",
    "result": [
      {
        "electoralDistricts": [
          {
            "election": null,
            "id": 38,
            "name": "Hamilton Mountain"
          }
        ],
        "pollDivisionIds": [
          10138696
        ],
        "postalCode": "L8T1V5",
        "streetName": "SEVENTH",
        "streetDirectionId": null,
        "streetTypeId": "AVE",
        "placeName": "HAMILTON",
        "streetNameDisplayText": "SEVENTH AVE, HAMILTON"
      }
    ]
  },
  {
    "postal": "L8T9Y5",
    "result": []
  },
  {
    "postal": "L8T1P2",
    "result": [
      {
        "electoralDistricts": [
          {
            "election": null,
            "id": 38,
            "name": "Hamilton Mountain"
          }
        ],
        "pollDivisionIds": [
          10138695
        ],
        "postalCode": "L8T1P2",
        "streetName": "SHERWOOD",
        "streetDirectionId": null,
        "streetTypeId": "RISE",
        "placeName": "HAMILTON",
        "streetNameDisplayText": "SHERWOOD RISE, HAMILTON"
      }
    ]
  },
  {
    "postal": "L8T5X0",
    "result": []
  },
  {
    "postal": "L8T7B8",
    "result": []
  },
  {
    "postal": "L8T0C6",
    "result": []
  },
  {
    "postal": "L8T6G1",
    "result": []
  },
  {
    "postal": "L8T3K3",
    "result": [
      {
        "electoralDistricts": [
          {
            "election": null,
            "id": 38,
            "name": "Hamilton Mountain"
          }
        ],
        "pollDivisionIds": [
          10138696
        ],
        "postalCode": "L8T3K3",
        "streetName": "EAST 45TH",
        "streetDirectionId": null,
        "streetTypeId": "ST",
        "placeName": "HAMILTON",
        "streetNameDisplayText": "EAST 45TH ST, HAMILTON"
      }
    ]
  },
  {
    "postal": "L8T9R0",
    "result": []
  },
  {
    "postal": "L8T4R8",
    "result": [
      {
        "electoralDistricts": [
          {
            "election": null,
            "id": 38,
            "name": "Hamilton Mountain"
          }
        ],
        "pollDivisionIds": [
          10138701
        ],
        "postalCode": "L8T4R8",
        "streetName": "BRETT",
        "streetDirectionId": null,
        "streetTypeId": "CRT",
        "placeName": "HAMILTON",
        "streetNameDisplayText": "BRETT CRT, HAMILTON"
      }
    ]
  },
  {
    "postal": "L8T5P9",
    "result": []
  },
  {
    "postal": "L8T8N4",
    "result": []
  },
  {
    "postal": "L8T8H4",
    "result": []
  },
  {
    "postal": "L8T4V1",
    "result": [
      {
        "electoralDistricts": [
          {
            "election": null,
            "id": 38,
            "name": "Hamilton Mountain"
          }
        ],
        "pollDivisionIds": [
          10138702
        ],
        "postalCode": "L8T4V1",
        "streetName": "CARSON",
        "streetDirectionId": null,
        "streetTypeId": "DR",
        "placeName": "HAMILTON",
        "streetNameDisplayText": "CARSON DR, HAMILTON"
      }
    ]
  },
  {
    "postal": "L8T1K5",
    "result": [
      {
        "electoralDistricts": [
          {
            "election": null,
            "id": 38,
            "name": "Hamilton Mountain"
          }
        ],
        "pollDivisionIds": [
          10138695
        ],
        "postalCode": "L8T1K5",
        "streetName": "DONLEA",
        "streetDirectionId": null,
        "streetTypeId": "DR",
        "placeName": "HAMILTON",
        "streetNameDisplayText": "DONLEA DR, HAMILTON"
      }
    ]
  },
  {
    "postal": "L8T1Z5",
    "result": [
      {
        "electoralDistricts": [
          {
            "election": null,
            "id": 38,
            "name": "Hamilton Mountain"
          }
        ],
        "pollDivisionIds": [
          10138699
        ],
        "postalCode": "L8T1Z5",
        "streetName": "SYMON",
        "streetDirectionId": null,
        "streetTypeId": "PL",
        "placeName": "HAMILTON",
        "streetNameDisplayText": "SYMON PL, HAMILTON"
      }
    ]
  },
  {
    "postal": "L8T9L9",
    "result": []
  },
  {
    "postal": "L8T5L2",
    "result": []
  },
  {
    "postal": "L8T0M2",
    "result": []
  },
  {
    "postal": "L8T1K8",
    "result": [
      {
        "electoralDistricts": [
          {
            "election": null,
            "id": 38,
            "name": "Hamilton Mountain"
          }
        ],
        "pollDivisionIds": [
          10138695
        ],
        "postalCode": "L8T1K8",
        "streetName": "VALECREST",
        "streetDirectionId": null,
        "streetTypeId": "AVE",
        "placeName": "HAMILTON",
        "streetNameDisplayText": "VALECREST AVE, HAMILTON"
      }
    ]
  },
  {
    "postal": "L8T3M7",
    "result": [
      {
        "electoralDistricts": [
          {
            "election": null,
            "id": 38,
            "name": "Hamilton Mountain"
          }
        ],
        "pollDivisionIds": [
          10138701
        ],
        "postalCode": "L8T3M7",
        "streetName": "CURRIE",
        "streetDirectionId": null,
        "streetTypeId": "ST",
        "placeName": "HAMILTON",
        "streetNameDisplayText": "CURRIE ST, HAMILTON"
      }
    ]
  },
  {
    "postal": "L8T1B2",
    "result": [
      {
        "electoralDistricts": [
          {
            "election": null,
            "id": 38,
            "name": "Hamilton Mountain"
          }
        ],
        "pollDivisionIds": [
          10138699
        ],
        "postalCode": "L8T1B2",
        "streetName": "MOUNTAIN BROW",
        "streetDirectionId": null,
        "streetTypeId": "BLVD",
        "placeName": "HAMILTON",
        "streetNameDisplayText": "MOUNTAIN BROW BLVD, HAMILTON"
      }
    ]
  },
  {
    "postal": "L8T0H9",
    "result": []
  },
  {
    "postal": "L8T8M4",
    "result": []
  },
  {
    "postal": "L8T2M5",
    "result": [
      {
        "electoralDistricts": [
          {
            "election": null,
            "id": 38,
            "name": "Hamilton Mountain"
          }
        ],
        "pollDivisionIds": [
          10138699
        ],
        "postalCode": "L8T2M5",
        "streetName": "TILBURY",
        "streetDirectionId": null,
        "streetTypeId": "CRT",
        "placeName": "HAMILTON",
        "streetNameDisplayText": "TILBURY CRT, HAMILTON"
      }
    ]
  },
  {
    "postal": "L8T0T9",
    "result": []
  },
  {
    "postal": "L8T3P1",
    "result": [
      {
        "electoralDistricts": [
          {
            "election": null,
            "id": 38,
            "name": "Hamilton Mountain"
          }
        ],
        "pollDivisionIds": [
          10138694
        ],
        "postalCode": "L8T3P1",
        "streetName": "RENDELL",
        "streetDirectionId": null,
        "streetTypeId": "BLVD",
        "placeName": "HAMILTON",
        "streetNameDisplayText": "RENDELL BLVD, HAMILTON"
      }
    ]
  },
  {
    "postal": "L8T1R6",
    "result": [
      {
        "electoralDistricts": [
          {
            "election": null,
            "id": 38,
            "name": "Hamilton Mountain"
          }
        ],
        "pollDivisionIds": [
          10138698
        ],
        "postalCode": "L8T1R6",
        "streetName": "FENNELL",
        "streetDirectionId": "E",
        "streetTypeId": "AVE",
        "placeName": "HAMILTON",
        "streetNameDisplayText": "FENNELL AVE E, HAMILTON"
      }
    ]
  },
  {
    "postal": "L8T9V5",
    "result": []
  },
  {
    "postal": "L8T9T0",
    "result": []
  },
  {
    "postal": "L8T0A9",
    "result": []
  },
  {
    "postal": "L8T1M3",
    "result": [
      {
        "electoralDistricts": [
          {
            "election": null,
            "id": 38,
            "name": "Hamilton Mountain"
          }
        ],
        "pollDivisionIds": [
          10138695
        ],
        "postalCode": "L8T1M3",
        "streetName": "BRUCEDALE",
        "streetDirectionId": "E",
        "streetTypeId": "AVE",
        "placeName": "HAMILTON",
        "streetNameDisplayText": "BRUCEDALE AVE E, HAMILTON"
      }
    ]
  },
  {
    "postal": "L8T1W8",
    "result": [
      {
        "electoralDistricts": [
          {
            "election": null,
            "id": 38,
            "name": "Hamilton Mountain"
          }
        ],
        "pollDivisionIds": [
          10138699
        ],
        "postalCode": "L8T1W8",
        "streetName": "PERCY",
        "streetDirectionId": null,
        "streetTypeId": "CRT",
        "placeName": "HAMILTON",
        "streetNameDisplayText": "PERCY CRT, HAMILTON"
      }
    ]
  },
  {
    "postal": "L8T9J1",
    "result": []
  },
  {
    "postal": "L8T8N5",
    "result": []
  },
  {
    "postal": "L8T5X1",
    "result": []
  },
  {
    "postal": "L8T6S2",
    "result": []
  },
  {
    "postal": "L8T2A2",
    "result": [
      {
        "electoralDistricts": [
          {
            "election": null,
            "id": 38,
            "name": "Hamilton Mountain"
          }
        ],
        "pollDivisionIds": [
          10138696
        ],
        "postalCode": "L8T2A2",
        "streetName": "NINTH",
        "streetDirectionId": null,
        "streetTypeId": "AVE",
        "placeName": "HAMILTON",
        "streetNameDisplayText": "NINTH AVE, HAMILTON"
      }
    ]
  },
  {
    "postal": "L8T6A6",
    "result": []
  },
  {
    "postal": "L8T0S3",
    "result": []
  },
  {
    "postal": "L8T3E7",
    "result": [
      {
        "electoralDistricts": [
          {
            "election": null,
            "id": 38,
            "name": "Hamilton Mountain"
          }
        ],
        "pollDivisionIds": [
          10138701
        ],
        "postalCode": "L8T3E7",
        "streetName": "PALMER",
        "streetDirectionId": null,
        "streetTypeId": "RD",
        "placeName": "HAMILTON",
        "streetNameDisplayText": "PALMER RD, HAMILTON"
      }
    ]
  },
  {
    "postal": "L8T5R7",
    "result": []
  },
  {
    "postal": "L8T3R6",
    "result": [
      {
        "electoralDistricts": [
          {
            "election": null,
            "id": 38,
            "name": "Hamilton Mountain"
          }
        ],
        "pollDivisionIds": [
          10138694
        ],
        "postalCode": "L8T3R6",
        "streetName": "IVY LEA",
        "streetDirectionId": null,
        "streetTypeId": "PL",
        "placeName": "HAMILTON",
        "streetNameDisplayText": "IVY LEA PL, HAMILTON"
      }
    ]
  },
  {
    "postal": "L8T6K4",
    "result": []
  },
  {
    "postal": "L8T2W5",
    "result": [
      {
        "electoralDistricts": [
          {
            "election": null,
            "id": 38,
            "name": "Hamilton Mountain"
          }
        ],
        "pollDivisionIds": [
          10138702
        ],
        "postalCode": "L8T2W5",
        "streetName": "GATINEAU",
        "streetDirectionId": null,
        "streetTypeId": "DR",
        "placeName": "HAMILTON",
        "streetNameDisplayText": "GATINEAU DR, HAMILTON"
      }
    ]
  },
  {
    "postal": "L8T8W4",
    "result": []
  },
  {
    "postal": "L8T9C2",
    "result": []
  },
  {
    "postal": "L8T2C0",
    "result": []
  },
  {
    "postal": "L8T0E1",
    "result": []
  },
  {
    "postal": "L8T1K9",
    "result": [
      {
        "electoralDistricts": [
          {
            "election": null,
            "id": 38,
            "name": "Hamilton Mountain"
          }
        ],
        "pollDivisionIds": [
          10138694
        ],
        "postalCode": "L8T1K9",
        "streetName": "KERR",
        "streetDirectionId": null,
        "streetTypeId": "ST",
        "placeName": "HAMILTON",
        "streetNameDisplayText": "KERR ST, HAMILTON"
      }
    ]
  },
  {
    "postal": "L8T1G7",
    "result": [
      {
        "electoralDistricts": [
          {
            "election": null,
            "id": 38,
            "name": "Hamilton Mountain"
          }
        ],
        "pollDivisionIds": [
          10138694
        ],
        "postalCode": "L8T1G7",
        "streetName": "EVERTON",
        "streetDirectionId": null,
        "streetTypeId": "PL",
        "placeName": "HAMILTON",
        "streetNameDisplayText": "EVERTON PL, HAMILTON"
      }
    ]
  },
  {
    "postal": "L8T4E9",
    "result": [
      {
        "electoralDistricts": [
          {
            "election": null,
            "id": 38,
            "name": "Hamilton Mountain"
          }
        ],
        "pollDivisionIds": [
          10138695
        ],
        "postalCode": "L8T4E9",
        "streetName": "SOUTHWOOD",
        "streetDirectionId": null,
        "streetTypeId": "DR",
        "placeName": "HAMILTON",
        "streetNameDisplayText": "SOUTHWOOD DR, HAMILTON"
      }
    ]
  },
  {
    "postal": "L8T9P0",
    "result": []
  },
  {
    "postal": "L8T5H3",
    "result": []
  },
  {
    "postal": "L8T9X6",
    "result": []
  },
  {
    "postal": "L8T5N7",
    "result": []
  },
  {
    "postal": "L8T5A6",
    "result": [
      {
        "electoralDistricts": [
          {
            "election": null,
            "id": 38,
            "name": "Hamilton Mountain"
          }
        ],
        "pollDivisionIds": [
          10138702
        ],
        "postalCode": "L8T5A6",
        "streetName": "TOWNMANSION",
        "streetDirectionId": null,
        "streetTypeId": "DR",
        "placeName": "HAMILTON",
        "streetNameDisplayText": "TOWNMANSION DR, HAMILTON"
      },
      {
        "electoralDistricts": [
          {
            "election": null,
            "id": 38,
            "name": "Hamilton Mountain"
          }
        ],
        "pollDivisionIds": [
          10138702
        ],
        "postalCode": "L8T5A6",
        "streetName": "UPPER KENILWORTH",
        "streetDirectionId": null,
        "streetTypeId": "AVE",
        "placeName": "HAMILTON",
        "streetNameDisplayText": "UPPER KENILWORTH AVE, HAMILTON"
      }
    ]
  },
  {
    "postal": "L8T4M0",
    "result": []
  },
  {
    "postal": "L8T3V6",
    "result": [
      {
        "electoralDistricts": [
          {
            "election": null,
            "id": 38,
            "name": "Hamilton Mountain"
          }
        ],
        "pollDivisionIds": [
          10138701
        ],
        "postalCode": "L8T3V6",
        "streetName": "UPPER OTTAWA",
        "streetDirectionId": null,
        "streetTypeId": "ST",
        "placeName": "HAMILTON",
        "streetNameDisplayText": "UPPER OTTAWA ST, HAMILTON"
      }
    ]
  },
  {
    "postal": "L8T1L7",
    "result": [
      {
        "electoralDistricts": [
          {
            "election": null,
            "id": 38,
            "name": "Hamilton Mountain"
          }
        ],
        "pollDivisionIds": [
          10138694
        ],
        "postalCode": "L8T1L7",
        "streetName": "BRUCEDALE",
        "streetDirectionId": "E",
        "streetTypeId": "AVE",
        "placeName": "HAMILTON",
        "streetNameDisplayText": "BRUCEDALE AVE E, HAMILTON"
      }
    ]
  },
  {
    "postal": "L8T2P9",
    "result": [
      {
        "electoralDistricts": [
          {
            "election": null,
            "id": 38,
            "name": "Hamilton Mountain"
          }
        ],
        "pollDivisionIds": [
          10138697
        ],
        "postalCode": "L8T2P9",
        "streetName": "MOHAWK",
        "streetDirectionId": "E",
        "streetTypeId": "RD",
        "placeName": "HAMILTON",
        "streetNameDisplayText": "MOHAWK RD E, HAMILTON"
      },
      {
        "electoralDistricts": [
          {
            "election": null,
            "id": 38,
            "name": "Hamilton Mountain"
          }
        ],
        "pollDivisionIds": [
          10138697
        ],
        "postalCode": "L8T2P9",
        "streetName": "MOHAWK ROAD EAST",
        "streetDirectionId": "E",
        "streetTypeId": "RD",
        "placeName": "HAMILTON",
        "streetNameDisplayText": "MOHAWK ROAD EAST RD E, HAMILTON"
      }
    ]
  },
  {
    "postal": "L8T5T4",
    "result": []
  },
  {
    "postal": "L8T5Z1",
    "result": []
  },
  {
    "postal": "L8T2X0",
    "result": []
  },
  {
    "postal": "L8T6Z2",
    "result": []
  },
  {
    "postal": "L8T0E0",
    "result": []
  },
  {
    "postal": "L8T3Z5",
    "result": [
      {
        "electoralDistricts": [
          {
            "election": null,
            "id": 38,
            "name": "Hamilton Mountain"
          }
        ],
        "pollDivisionIds": [
          10138695
        ],
        "postalCode": "L8T3Z5",
        "streetName": "HIGH",
        "streetDirectionId": null,
        "streetTypeId": "ST",
        "placeName": "HAMILTON",
        "streetNameDisplayText": "HIGH ST, HAMILTON"
      }
    ]
  },
  {
    "postal": "L8T8H3",
    "result": []
  },
  {
    "postal": "L8T7S6",
    "result": []
  },
  {
    "postal": "L8T4C1",
    "result": [
      {
        "electoralDistricts": [
          {
            "election": null,
            "id": 38,
            "name": "Hamilton Mountain"
          }
        ],
        "pollDivisionIds": [
          10138699
        ],
        "postalCode": "L8T4C1",
        "streetName": "FERRARA",
        "streetDirectionId": null,
        "streetTypeId": "ST",
        "placeName": "HAMILTON",
        "streetNameDisplayText": "FERRARA ST, HAMILTON"
      }
    ]
  },
  {
    "postal": "L8T3K2",
    "result": [
      {
        "electoralDistricts": [
          {
            "election": null,
            "id": 38,
            "name": "Hamilton Mountain"
          }
        ],
        "pollDivisionIds": [
          10138698
        ],
        "postalCode": "L8T3K2",
        "streetName": "EAST 45TH",
        "streetDirectionId": null,
        "streetTypeId": "ST",
        "placeName": "HAMILTON",
        "streetNameDisplayText": "EAST 45TH ST, HAMILTON"
      }
    ]
  },
  {
    "postal": "L8T1Y5",
    "result": [
      {
        "electoralDistricts": [
          {
            "election": null,
            "id": 38,
            "name": "Hamilton Mountain"
          }
        ],
        "pollDivisionIds": [
          10138699
        ],
        "postalCode": "L8T1Y5",
        "streetName": "ORGAN",
        "streetDirectionId": null,
        "streetTypeId": "CRES",
        "placeName": "HAMILTON",
        "streetNameDisplayText": "ORGAN CRES, HAMILTON"
      }
    ]
  },
  {
    "postal": "L8T6P6",
    "result": []
  },
  {
    "postal": "L8T3N9",
    "result": [
      {
        "electoralDistricts": [
          {
            "election": null,
            "id": 38,
            "name": "Hamilton Mountain"
          }
        ],
        "pollDivisionIds": [
          10138694
        ],
        "postalCode": "L8T3N9",
        "streetName": "RENDELL",
        "streetDirectionId": null,
        "streetTypeId": "BLVD",
        "placeName": "HAMILTON",
        "streetNameDisplayText": "RENDELL BLVD, HAMILTON"
      }
    ]
  },
  {
    "postal": "L8T3W2",
    "result": [
      {
        "electoralDistricts": [
          {
            "election": null,
            "id": 38,
            "name": "Hamilton Mountain"
          }
        ],
        "pollDivisionIds": [
          10138698
        ],
        "postalCode": "L8T3W2",
        "streetName": "BRENTWOOD",
        "streetDirectionId": null,
        "streetTypeId": "DR",
        "placeName": "HAMILTON",
        "streetNameDisplayText": "BRENTWOOD DR, HAMILTON"
      }
    ]
  },
  {
    "postal": "L8T6H8",
    "result": []
  },
  {
    "postal": "L8T9T3",
    "result": []
  },
  {
    "postal": "L8T5L9",
    "result": []
  },
  {
    "postal": "L8T7X7",
    "result": []
  },
  {
    "postal": "L8T3J5",
    "result": [
      {
        "electoralDistricts": [
          {
            "election": null,
            "id": 38,
            "name": "Hamilton Mountain"
          }
        ],
        "pollDivisionIds": [
          10138694
        ],
        "postalCode": "L8T3J5",
        "streetName": "GREEN MEADOW",
        "streetDirectionId": null,
        "streetTypeId": "RD",
        "placeName": "HAMILTON",
        "streetNameDisplayText": "GREEN MEADOW RD, HAMILTON"
      }
    ]
  },
  {
    "postal": "L8T4J5",
    "result": [
      {
        "electoralDistricts": [
          {
            "election": null,
            "id": 38,
            "name": "Hamilton Mountain"
          }
        ],
        "pollDivisionIds": [
          10138699
        ],
        "postalCode": "L8T4J5",
        "streetName": "KING'S FOREST",
        "streetDirectionId": null,
        "streetTypeId": "DR",
        "placeName": "HAMILTON",
        "streetNameDisplayText": "KING'S FOREST DR, HAMILTON"
      }
    ]
  },
  {
    "postal": "L8T6J2",
    "result": []
  },
  {
    "postal": "L8T5V6",
    "result": []
  },
  {
    "postal": "L8T3N2",
    "result": [
      {
        "electoralDistricts": [
          {
            "election": null,
            "id": 38,
            "name": "Hamilton Mountain"
          }
        ],
        "pollDivisionIds": [
          10138698
        ],
        "postalCode": "L8T3N2",
        "streetName": "GREENWOOD",
        "streetDirectionId": null,
        "streetTypeId": "ST",
        "placeName": "HAMILTON",
        "streetNameDisplayText": "GREENWOOD ST, HAMILTON"
      }
    ]
  },
  {
    "postal": "L8T3B1",
    "result": [
      {
        "electoralDistricts": [
          {
            "election": null,
            "id": 38,
            "name": "Hamilton Mountain"
          }
        ],
        "pollDivisionIds": [
          10138697
        ],
        "postalCode": "L8T3B1",
        "streetName": "EAST 42ND",
        "streetDirectionId": null,
        "streetTypeId": "ST",
        "placeName": "HAMILTON",
        "streetNameDisplayText": "EAST 42ND ST, HAMILTON"
      }
    ]
  },
  {
    "postal": "L8T8B5",
    "result": []
  },
  {
    "postal": "L8T0K1",
    "result": []
  },
  {
    "postal": "L8T7M7",
    "result": []
  },
  {
    "postal": "L8T2M2",
    "result": [
      {
        "electoralDistricts": [
          {
            "election": null,
            "id": 38,
            "name": "Hamilton Mountain"
          }
        ],
        "pollDivisionIds": [
          10138699
        ],
        "postalCode": "L8T2M2",
        "streetName": "WISE",
        "streetDirectionId": null,
        "streetTypeId": "CRT",
        "placeName": "HAMILTON",
        "streetNameDisplayText": "WISE CRT, HAMILTON"
      }
    ]
  },
  {
    "postal": "L8T9N3",
    "result": []
  },
  {
    "postal": "L8T4Y8",
    "result": [
      {
        "electoralDistricts": [
          {
            "election": null,
            "id": 38,
            "name": "Hamilton Mountain"
          }
        ],
        "pollDivisionIds": [
          10138711,
          10138702
        ],
        "postalCode": "L8T4Y8",
        "streetName": "UPPER KENILWORTH",
        "streetDirectionId": null,
        "streetTypeId": "AVE",
        "placeName": "HAMILTON",
        "streetNameDisplayText": "UPPER KENILWORTH AVE, HAMILTON"
      }
    ]
  },
  {
    "postal": "L8T3V7",
    "result": [
      {
        "electoralDistricts": [
          {
            "election": null,
            "id": 38,
            "name": "Hamilton Mountain"
          }
        ],
        "pollDivisionIds": [
          10138701
        ],
        "postalCode": "L8T3V7",
        "streetName": "UPPER OTTAWA",
        "streetDirectionId": null,
        "streetTypeId": "ST",
        "placeName": "HAMILTON",
        "streetNameDisplayText": "UPPER OTTAWA ST, HAMILTON"
      }
    ]
  },
  {
    "postal": "L8T8Z1",
    "result": []
  },
  {
    "postal": "L8T7B3",
    "result": []
  },
  {
    "postal": "L8T3A8",
    "result": [
      {
        "electoralDistricts": [
          {
            "election": null,
            "id": 38,
            "name": "Hamilton Mountain"
          }
        ],
        "pollDivisionIds": [
          10138697
        ],
        "postalCode": "L8T3A8",
        "streetName": "EAST 42ND",
        "streetDirectionId": null,
        "streetTypeId": "ST",
        "placeName": "HAMILTON",
        "streetNameDisplayText": "EAST 42ND ST, HAMILTON"
      }
    ]
  },
  {
    "postal": "L8T7V5",
    "result": []
  },
  {
    "postal": "L8T2T2",
    "result": [
      {
        "electoralDistricts": [
          {
            "election": null,
            "id": 38,
            "name": "Hamilton Mountain"
          }
        ],
        "pollDivisionIds": [
          10138701
        ],
        "postalCode": "L8T2T2",
        "streetName": "RIDEAU",
        "streetDirectionId": null,
        "streetTypeId": "CRES",
        "placeName": "HAMILTON",
        "streetNameDisplayText": "RIDEAU CRES, HAMILTON"
      }
    ]
  },
  {
    "postal": "L8T6L3",
    "result": []
  },
  {
    "postal": "L8T0L2",
    "result": []
  },
  {
    "postal": "L8T5Y8",
    "result": []
  },
  {
    "postal": "L8T0B8",
    "result": []
  },
  {
    "postal": "L8T6R5",
    "result": []
  },
  {
    "postal": "L8T8W6",
    "result": []
  },
  {
    "postal": "L8T8G6",
    "result": []
  },
  {
    "postal": "L8T6X3",
    "result": []
  },
  {
    "postal": "L8T7R7",
    "result": []
  },
  {
    "postal": "L8T4B6",
    "result": [
      {
        "electoralDistricts": [
          {
            "election": null,
            "id": 38,
            "name": "Hamilton Mountain"
          }
        ],
        "pollDivisionIds": [
          10138695
        ],
        "postalCode": "L8T4B6",
        "streetName": "PRINCETON",
        "streetDirectionId": null,
        "streetTypeId": "DR",
        "placeName": "HAMILTON",
        "streetNameDisplayText": "PRINCETON DR, HAMILTON"
      }
    ]
  },
  {
    "postal": "L8T3P9",
    "result": [
      {
        "electoralDistricts": [
          {
            "election": null,
            "id": 38,
            "name": "Hamilton Mountain"
          }
        ],
        "pollDivisionIds": [
          10138694
        ],
        "postalCode": "L8T3P9",
        "streetName": "RENDELL",
        "streetDirectionId": null,
        "streetTypeId": "BLVD",
        "placeName": "HAMILTON",
        "streetNameDisplayText": "RENDELL BLVD, HAMILTON"
      }
    ]
  },
  {
    "postal": "L8T2T3",
    "result": [
      {
        "electoralDistricts": [
          {
            "election": null,
            "id": 38,
            "name": "Hamilton Mountain"
          }
        ],
        "pollDivisionIds": [
          10138702
        ],
        "postalCode": "L8T2T3",
        "streetName": "RIDEAU",
        "streetDirectionId": null,
        "streetTypeId": "CRES",
        "placeName": "HAMILTON",
        "streetNameDisplayText": "RIDEAU CRES, HAMILTON"
      }
    ]
  },
  {
    "postal": "L8T1M4",
    "result": [
      {
        "electoralDistricts": [
          {
            "election": null,
            "id": 38,
            "name": "Hamilton Mountain"
          }
        ],
        "pollDivisionIds": [
          10138695
        ],
        "postalCode": "L8T1M4",
        "streetName": "BRUCEDALE",
        "streetDirectionId": "E",
        "streetTypeId": "AVE",
        "placeName": "HAMILTON",
        "streetNameDisplayText": "BRUCEDALE AVE E, HAMILTON"
      }
    ]
  },
  {
    "postal": "L8T0H1",
    "result": []
  },
  {
    "postal": "L8T9W3",
    "result": []
  },
  {
    "postal": "L8T6P1",
    "result": []
  },
  {
    "postal": "L8T7G2",
    "result": []
  },
  {
    "postal": "L8T4J9",
    "result": [
      {
        "electoralDistricts": [
          {
            "election": null,
            "id": 38,
            "name": "Hamilton Mountain"
          }
        ],
        "pollDivisionIds": [
          10138699
        ],
        "postalCode": "L8T4J9",
        "streetName": "KING'S FOREST",
        "streetDirectionId": null,
        "streetTypeId": "DR",
        "placeName": "HAMILTON",
        "streetNameDisplayText": "KING'S FOREST DR, HAMILTON"
      }
    ]
  },
  {
    "postal": "L8T9E4",
    "result": []
  },
  {
    "postal": "L8T8H0",
    "result": []
  },
  {
    "postal": "L8T4M7",
    "result": [
      {
        "electoralDistricts": [
          {
            "election": null,
            "id": 38,
            "name": "Hamilton Mountain"
          }
        ],
        "pollDivisionIds": [
          10138701
        ],
        "postalCode": "L8T4M7",
        "streetName": "BOGART",
        "streetDirectionId": null,
        "streetTypeId": "CRT",
        "placeName": "HAMILTON",
        "streetNameDisplayText": "BOGART CRT, HAMILTON"
      }
    ]
  },
  {
    "postal": "L8T2G9",
    "result": [
      {
        "electoralDistricts": [
          {
            "election": null,
            "id": 38,
            "name": "Hamilton Mountain"
          }
        ],
        "pollDivisionIds": [
          10138698
        ],
        "postalCode": "L8T2G9",
        "streetName": "TENTH",
        "streetDirectionId": null,
        "streetTypeId": "AVE",
        "placeName": "HAMILTON",
        "streetNameDisplayText": "TENTH AVE, HAMILTON"
      }
    ]
  },
  {
    "postal": "L8T8T2",
    "result": []
  },
  {
    "postal": "L8T7G7",
    "result": []
  },
  {
    "postal": "L8T4Z3",
    "result": [
      {
        "electoralDistricts": [
          {
            "election": null,
            "id": 38,
            "name": "Hamilton Mountain"
          }
        ],
        "pollDivisionIds": [
          10138702
        ],
        "postalCode": "L8T4Z3",
        "streetName": "KINGSBERRY",
        "streetDirectionId": null,
        "streetTypeId": "ST",
        "placeName": "HAMILTON",
        "streetNameDisplayText": "KINGSBERRY ST, HAMILTON"
      }
    ]
  },
  {
    "postal": "L8T5B3",
    "result": []
  },
  {
    "postal": "L8T1S7",
    "result": [
      {
        "electoralDistricts": [
          {
            "election": null,
            "id": 38,
            "name": "Hamilton Mountain"
          }
        ],
        "pollDivisionIds": [
          10138698
        ],
        "postalCode": "L8T1S7",
        "streetName": "FENNELL",
        "streetDirectionId": "E",
        "streetTypeId": "AVE",
        "placeName": "HAMILTON",
        "streetNameDisplayText": "FENNELL AVE E, HAMILTON"
      }
    ]
  },
  {
    "postal": "L8T2N7",
    "result": [
      {
        "electoralDistricts": [
          {
            "election": null,
            "id": 38,
            "name": "Hamilton Mountain"
          }
        ],
        "pollDivisionIds": [
          10138698
        ],
        "postalCode": "L8T2N7",
        "streetName": "TOBY",
        "streetDirectionId": null,
        "streetTypeId": "CRES",
        "placeName": "HAMILTON",
        "streetNameDisplayText": "TOBY CRES, HAMILTON"
      }
    ]
  },
  {
    "postal": "L8T0H8",
    "result": []
  },
  {
    "postal": "L8T7Z4",
    "result": []
  },
  {
    "postal": "L8T7B1",
    "result": []
  },
  {
    "postal": "L8T7P8",
    "result": []
  },
  {
    "postal": "L8T7N0",
    "result": []
  },
  {
    "postal": "L8T3Y5",
    "result": [
      {
        "electoralDistricts": [
          {
            "election": null,
            "id": 38,
            "name": "Hamilton Mountain"
          }
        ],
        "pollDivisionIds": [
          10138702
        ],
        "postalCode": "L8T3Y5",
        "streetName": "MOXLEY",
        "streetDirectionId": null,
        "streetTypeId": "DR",
        "placeName": "HAMILTON",
        "streetNameDisplayText": "MOXLEY DR, HAMILTON"
      }
    ]
  },
  {
    "postal": "L8T6K1",
    "result": []
  },
  {
    "postal": "L8T9X5",
    "result": []
  },
  {
    "postal": "L8T7S5",
    "result": []
  },
  {
    "postal": "L8T0A4",
    "result": []
  },
  {
    "postal": "L8T4T5",
    "result": [
      {
        "electoralDistricts": [
          {
            "election": null,
            "id": 38,
            "name": "Hamilton Mountain"
          }
        ],
        "pollDivisionIds": [
          10138701
        ],
        "postalCode": "L8T4T5",
        "streetName": "UPPER OTTAWA",
        "streetDirectionId": null,
        "streetTypeId": "ST",
        "placeName": "HAMILTON",
        "streetNameDisplayText": "UPPER OTTAWA ST, HAMILTON"
      }
    ]
  },
  {
    "postal": "L8T5K1",
    "result": []
  },
  {
    "postal": "L8T0Z9",
    "result": []
  },
  {
    "postal": "L8T7T2",
    "result": []
  },
  {
    "postal": "L8T1L5",
    "result": [
      {
        "electoralDistricts": [
          {
            "election": null,
            "id": 38,
            "name": "Hamilton Mountain"
          }
        ],
        "pollDivisionIds": [
          10138694
        ],
        "postalCode": "L8T1L5",
        "streetName": "BRUCEDALE",
        "streetDirectionId": "E",
        "streetTypeId": "AVE",
        "placeName": "HAMILTON",
        "streetNameDisplayText": "BRUCEDALE AVE E, HAMILTON"
      }
    ]
  },
  {
    "postal": "L8T3N5",
    "result": [
      {
        "electoralDistricts": [
          {
            "election": null,
            "id": 38,
            "name": "Hamilton Mountain"
          }
        ],
        "pollDivisionIds": [
          10138697
        ],
        "postalCode": "L8T3N5",
        "streetName": "NOTTINGHAM",
        "streetDirectionId": null,
        "streetTypeId": "AVE",
        "placeName": "HAMILTON",
        "streetNameDisplayText": "NOTTINGHAM AVE, HAMILTON"
      }
    ]
  },
  {
    "postal": "L8T6H4",
    "result": []
  },
  {
    "postal": "L8T5A5",
    "result": [
      {
        "electoralDistricts": [
          {
            "election": null,
            "id": 38,
            "name": "Hamilton Mountain"
          }
        ],
        "pollDivisionIds": [
          10138702
        ],
        "postalCode": "L8T5A5",
        "streetName": "LOCHEED",
        "streetDirectionId": null,
        "streetTypeId": "DR",
        "placeName": "HAMILTON",
        "streetNameDisplayText": "LOCHEED DR, HAMILTON"
      },
      {
        "electoralDistricts": [
          {
            "election": null,
            "id": 38,
            "name": "Hamilton Mountain"
          }
        ],
        "pollDivisionIds": [
          10138702
        ],
        "postalCode": "L8T5A5",
        "streetName": "MANSION",
        "streetDirectionId": null,
        "streetTypeId": "CRT",
        "placeName": "HAMILTON",
        "streetNameDisplayText": "MANSION CRT, HAMILTON"
      }
    ]
  },
  {
    "postal": "L8T3R9",
    "result": [
      {
        "electoralDistricts": [
          {
            "election": null,
            "id": 38,
            "name": "Hamilton Mountain"
          }
        ],
        "pollDivisionIds": [
          10138701
        ],
        "postalCode": "L8T3R9",
        "streetName": "LORRAINE",
        "streetDirectionId": null,
        "streetTypeId": "DR",
        "placeName": "HAMILTON",
        "streetNameDisplayText": "LORRAINE DR, HAMILTON"
      }
    ]
  },
  {
    "postal": "L8T7L8",
    "result": []
  },
  {
    "postal": "L8T6T6",
    "result": []
  },
  {
    "postal": "L8T7Y7",
    "result": []
  },
  {
    "postal": "L8T3M8",
    "result": [
      {
        "electoralDistricts": [
          {
            "election": null,
            "id": 38,
            "name": "Hamilton Mountain"
          }
        ],
        "pollDivisionIds": [
          10138701
        ],
        "postalCode": "L8T3M8",
        "streetName": "CURRIE",
        "streetDirectionId": null,
        "streetTypeId": "ST",
        "placeName": "HAMILTON",
        "streetNameDisplayText": "CURRIE ST, HAMILTON"
      }
    ]
  },
  {
    "postal": "L8T2E0",
    "result": []
  },
  {
    "postal": "L8T4B5",
    "result": [
      {
        "electoralDistricts": [
          {
            "election": null,
            "id": 38,
            "name": "Hamilton Mountain"
          }
        ],
        "pollDivisionIds": [
          10138695
        ],
        "postalCode": "L8T4B5",
        "streetName": "PRINCETON",
        "streetDirectionId": null,
        "streetTypeId": "DR",
        "placeName": "HAMILTON",
        "streetNameDisplayText": "PRINCETON DR, HAMILTON"
      }
    ]
  },
  {
    "postal": "L8T1J3",
    "result": [
      {
        "electoralDistricts": [
          {
            "election": null,
            "id": 38,
            "name": "Hamilton Mountain"
          }
        ],
        "pollDivisionIds": [
          10138694
        ],
        "postalCode": "L8T1J3",
        "streetName": "QUEENSDALE",
        "streetDirectionId": "E",
        "streetTypeId": "AVE",
        "placeName": "HAMILTON",
        "streetNameDisplayText": "QUEENSDALE AVE E, HAMILTON"
      }
    ]
  },
  {
    "postal": "L8T5S6",
    "result": []
  },
  {
    "postal": "L8T8P7",
    "result": []
  },
  {
    "postal": "L8T7S7",
    "result": []
  },
  {
    "postal": "L8T4C2",
    "result": [
      {
        "electoralDistricts": [
          {
            "election": null,
            "id": 38,
            "name": "Hamilton Mountain"
          }
        ],
        "pollDivisionIds": [
          10138698
        ],
        "postalCode": "L8T4C2",
        "streetName": "FERRARA",
        "streetDirectionId": null,
        "streetTypeId": "ST",
        "placeName": "HAMILTON",
        "streetNameDisplayText": "FERRARA ST, HAMILTON"
      }
    ]
  },
  {
    "postal": "L8T5Y0",
    "result": []
  },
  {
    "postal": "L8T2V7",
    "result": [
      {
        "electoralDistricts": [
          {
            "election": null,
            "id": 38,
            "name": "Hamilton Mountain"
          }
        ],
        "pollDivisionIds": [
          10138701
        ],
        "postalCode": "L8T2V7",
        "streetName": "CROZIER",
        "streetDirectionId": null,
        "streetTypeId": "CRT",
        "placeName": "HAMILTON",
        "streetNameDisplayText": "CROZIER CRT, HAMILTON"
      }
    ]
  },
  {
    "postal": "L8T8P5",
    "result": []
  },
  {
    "postal": "L8T5P5",
    "result": []
  },
  {
    "postal": "L8T5Z0",
    "result": []
  },
  {
    "postal": "L8T9B0",
    "result": []
  },
  {
    "postal": "L8T1L0",
    "result": []
  },
  {
    "postal": "L8T0B5",
    "result": []
  },
  {
    "postal": "L8T3L2",
    "result": [
      {
        "electoralDistricts": [
          {
            "election": null,
            "id": 38,
            "name": "Hamilton Mountain"
          }
        ],
        "pollDivisionIds": [
          10138698
        ],
        "postalCode": "L8T3L2",
        "streetName": "FERNWOOD",
        "streetDirectionId": null,
        "streetTypeId": "CRES",
        "placeName": "HAMILTON",
        "streetNameDisplayText": "FERNWOOD CRES, HAMILTON"
      }
    ]
  },
  {
    "postal": "L8T3B7",
    "result": [
      {
        "electoralDistricts": [
          {
            "election": null,
            "id": 38,
            "name": "Hamilton Mountain"
          }
        ],
        "pollDivisionIds": [
          10138694
        ],
        "postalCode": "L8T3B7",
        "streetName": "EAST 43RD",
        "streetDirectionId": null,
        "streetTypeId": "ST",
        "placeName": "HAMILTON",
        "streetNameDisplayText": "EAST 43RD ST, HAMILTON"
      }
    ]
  },
  {
    "postal": "L8T8L1",
    "result": []
  },
  {
    "postal": "L8T5M4",
    "result": []
  },
  {
    "postal": "L8T4G9",
    "result": [
      {
        "electoralDistricts": [
          {
            "election": null,
            "id": 38,
            "name": "Hamilton Mountain"
          }
        ],
        "pollDivisionIds": [
          10138699
        ],
        "postalCode": "L8T4G9",
        "streetName": "UPPER KENILWORTH",
        "streetDirectionId": null,
        "streetTypeId": "AVE",
        "placeName": "HAMILTON",
        "streetNameDisplayText": "UPPER KENILWORTH AVE, HAMILTON"
      }
    ]
  },
  {
    "postal": "L8T0P0",
    "result": []
  },
  {
    "postal": "L8T8G2",
    "result": []
  },
  {
    "postal": "L8T1V9",
    "result": [
      {
        "electoralDistricts": [
          {
            "election": null,
            "id": 38,
            "name": "Hamilton Mountain"
          }
        ],
        "pollDivisionIds": [
          10138698
        ],
        "postalCode": "L8T1V9",
        "streetName": "IDLEWOOD",
        "streetDirectionId": null,
        "streetTypeId": "AVE",
        "placeName": "HAMILTON",
        "streetNameDisplayText": "IDLEWOOD AVE, HAMILTON"
      }
    ]
  },
  {
    "postal": "L8T8N8",
    "result": []
  },
  {
    "postal": "L8T6S8",
    "result": []
  },
  {
    "postal": "L8T8H2",
    "result": []
  },
  {
    "postal": "L8T5R8",
    "result": []
  },
  {
    "postal": "L8T5L4",
    "result": []
  },
  {
    "postal": "L8T9E1",
    "result": []
  },
  {
    "postal": "L8T1C4",
    "result": [
      {
        "electoralDistricts": [
          {
            "election": null,
            "id": 38,
            "name": "Hamilton Mountain"
          }
        ],
        "pollDivisionIds": [
          10138695
        ],
        "postalCode": "L8T1C4",
        "streetName": "WOODSIDE",
        "streetDirectionId": null,
        "streetTypeId": "DR",
        "placeName": "HAMILTON",
        "streetNameDisplayText": "WOODSIDE DR, HAMILTON"
      }
    ]
  },
  {
    "postal": "L8T8W5",
    "result": []
  },
  {
    "postal": "L8T1Y4",
    "result": [
      {
        "electoralDistricts": [
          {
            "election": null,
            "id": 38,
            "name": "Hamilton Mountain"
          }
        ],
        "pollDivisionIds": [
          10138699
        ],
        "postalCode": "L8T1Y4",
        "streetName": "HARDALE",
        "streetDirectionId": null,
        "streetTypeId": "CRES",
        "placeName": "HAMILTON",
        "streetNameDisplayText": "HARDALE CRES, HAMILTON"
      }
    ]
  },
  {
    "postal": "L8T1C0",
    "result": []
  },
  {
    "postal": "L8T2J2",
    "result": [
      {
        "electoralDistricts": [
          {
            "election": null,
            "id": 38,
            "name": "Hamilton Mountain"
          }
        ],
        "pollDivisionIds": [
          10138699
        ],
        "postalCode": "L8T2J2",
        "streetName": "ELLSWORTH",
        "streetDirectionId": null,
        "streetTypeId": "DR",
        "placeName": "HAMILTON",
        "streetNameDisplayText": "ELLSWORTH DR, HAMILTON"
      }
    ]
  },
  {
    "postal": "L8T2J0",
    "result": []
  },
  {
    "postal": "L8T7A3",
    "result": []
  },
  {
    "postal": "L8T8M1",
    "result": []
  },
  {
    "postal": "L8T7T9",
    "result": []
  },
  {
    "postal": "L8T6C0",
    "result": []
  },
  {
    "postal": "L8T7X1",
    "result": []
  },
  {
    "postal": "L8T0G1",
    "result": []
  },
  {
    "postal": "L8T4X2",
    "result": [
      {
        "electoralDistricts": [
          {
            "election": null,
            "id": 38,
            "name": "Hamilton Mountain"
          }
        ],
        "pollDivisionIds": [
          10138701
        ],
        "postalCode": "L8T4X2",
        "streetName": "BIXBY",
        "streetDirectionId": null,
        "streetTypeId": "CRES",
        "placeName": "HAMILTON",
        "streetNameDisplayText": "BIXBY CRES, HAMILTON"
      }
    ]
  },
  {
    "postal": "L8T0N6",
    "result": []
  },
  {
    "postal": "L8T8E3",
    "result": []
  },
  {
    "postal": "L8T5S8",
    "result": []
  },
  {
    "postal": "L8T0R0",
    "result": []
  },
  {
    "postal": "L8T6J6",
    "result": []
  },
  {
    "postal": "L8T4B4",
    "result": [
      {
        "electoralDistricts": [
          {
            "election": null,
            "id": 38,
            "name": "Hamilton Mountain"
          }
        ],
        "pollDivisionIds": [
          10138695
        ],
        "postalCode": "L8T4B4",
        "streetName": "PRINCETON",
        "streetDirectionId": null,
        "streetTypeId": "DR",
        "placeName": "HAMILTON",
        "streetNameDisplayText": "PRINCETON DR, HAMILTON"
      }
    ]
  },
  {
    "postal": "L8T7E3",
    "result": []
  },
  {
    "postal": "L8T3N6",
    "result": [
      {
        "electoralDistricts": [
          {
            "election": null,
            "id": 38,
            "name": "Hamilton Mountain"
          }
        ],
        "pollDivisionIds": [
          10138701
        ],
        "postalCode": "L8T3N6",
        "streetName": "SYCAMORE",
        "streetDirectionId": null,
        "streetTypeId": "ST",
        "placeName": "HAMILTON",
        "streetNameDisplayText": "SYCAMORE ST, HAMILTON"
      }
    ]
  },
  {
    "postal": "L8T3X6",
    "result": [
      {
        "electoralDistricts": [
          {
            "election": null,
            "id": 38,
            "name": "Hamilton Mountain"
          }
        ],
        "pollDivisionIds": [
          10138701
        ],
        "postalCode": "L8T3X6",
        "streetName": "RAPALLO",
        "streetDirectionId": null,
        "streetTypeId": "DR",
        "placeName": "HAMILTON",
        "streetNameDisplayText": "RAPALLO DR, HAMILTON"
      }
    ]
  },
  {
    "postal": "L8T8L0",
    "result": []
  },
  {
    "postal": "L8T8N1",
    "result": []
  },
  {
    "postal": "L8T4J0",
    "result": []
  },
  {
    "postal": "L8T0X7",
    "result": []
  },
  {
    "postal": "L8T6S4",
    "result": []
  },
  {
    "postal": "L8T0Z0",
    "result": []
  },
  {
    "postal": "L8T9X8",
    "result": []
  },
  {
    "postal": "L8T3H3",
    "result": [
      {
        "electoralDistricts": [
          {
            "election": null,
            "id": 38,
            "name": "Hamilton Mountain"
          }
        ],
        "pollDivisionIds": [
          10138696
        ],
        "postalCode": "L8T3H3",
        "streetName": "EAST 44TH",
        "streetDirectionId": null,
        "streetTypeId": "ST",
        "placeName": "HAMILTON",
        "streetNameDisplayText": "EAST 44TH ST, HAMILTON"
      }
    ]
  },
  {
    "postal": "L8T7S2",
    "result": []
  },
  {
    "postal": "L8T3T3",
    "result": [
      {
        "electoralDistricts": [
          {
            "election": null,
            "id": 38,
            "name": "Hamilton Mountain"
          }
        ],
        "pollDivisionIds": [
          10138695
        ],
        "postalCode": "L8T3T3",
        "streetName": "UPPER OTTAWA",
        "streetDirectionId": null,
        "streetTypeId": "ST",
        "placeName": "HAMILTON",
        "streetNameDisplayText": "UPPER OTTAWA ST, HAMILTON"
      }
    ]
  },
  {
    "postal": "L8T9P3",
    "result": []
  },
  {
    "postal": "L8T4H8",
    "result": [
      {
        "electoralDistricts": [
          {
            "election": null,
            "id": 38,
            "name": "Hamilton Mountain"
          }
        ],
        "pollDivisionIds": [
          10138699
        ],
        "postalCode": "L8T4H8",
        "streetName": "SEAGRAM",
        "streetDirectionId": null,
        "streetTypeId": "PL",
        "placeName": "HAMILTON",
        "streetNameDisplayText": "SEAGRAM PL, HAMILTON"
      }
    ]
  },
  {
    "postal": "L8T6R1",
    "result": []
  },
  {
    "postal": "L8T1S0",
    "result": []
  },
  {
    "postal": "L8T3W8",
    "result": [
      {
        "electoralDistricts": [
          {
            "election": null,
            "id": 38,
            "name": "Hamilton Mountain"
          }
        ],
        "pollDivisionIds": [
          10138698
        ],
        "postalCode": "L8T3W8",
        "streetName": "BRENTWOOD",
        "streetDirectionId": null,
        "streetTypeId": "DR",
        "placeName": "HAMILTON",
        "streetNameDisplayText": "BRENTWOOD DR, HAMILTON"
      }
    ]
  },
  {
    "postal": "L8T4S3",
    "result": [
      {
        "electoralDistricts": [
          {
            "election": null,
            "id": 38,
            "name": "Hamilton Mountain"
          }
        ],
        "pollDivisionIds": [
          10138702
        ],
        "postalCode": "L8T4S3",
        "streetName": "LEDUC",
        "streetDirectionId": null,
        "streetTypeId": "ST",
        "placeName": "HAMILTON",
        "streetNameDisplayText": "LEDUC ST, HAMILTON"
      }
    ]
  },
  {
    "postal": "L8T1B6",
    "result": [
      {
        "electoralDistricts": [
          {
            "election": null,
            "id": 38,
            "name": "Hamilton Mountain"
          }
        ],
        "pollDivisionIds": [
          10138694
        ],
        "postalCode": "L8T1B6",
        "streetName": "SUNNING HILL",
        "streetDirectionId": null,
        "streetTypeId": "AVE",
        "placeName": "HAMILTON",
        "streetNameDisplayText": "SUNNING HILL AVE, HAMILTON"
      }
    ]
  },
  {
    "postal": "L8T8R3",
    "result": []
  },
  {
    "postal": "L8T4V9",
    "result": [
      {
        "electoralDistricts": [
          {
            "election": null,
            "id": 38,
            "name": "Hamilton Mountain"
          }
        ],
        "pollDivisionIds": [
          10138701
        ],
        "postalCode": "L8T4V9",
        "streetName": "UPPER OTTAWA",
        "streetDirectionId": null,
        "streetTypeId": "ST",
        "placeName": "HAMILTON",
        "streetNameDisplayText": "UPPER OTTAWA ST, HAMILTON"
      }
    ]
  },
  {
    "postal": "L8T9W4",
    "result": []
  },
  {
    "postal": "L8T3T4",
    "result": [
      {
        "electoralDistricts": [
          {
            "election": null,
            "id": 38,
            "name": "Hamilton Mountain"
          }
        ],
        "pollDivisionIds": [
          10138698
        ],
        "postalCode": "L8T3T4",
        "streetName": "UPPER OTTAWA",
        "streetDirectionId": null,
        "streetTypeId": "ST",
        "placeName": "HAMILTON",
        "streetNameDisplayText": "UPPER OTTAWA ST, HAMILTON"
      }
    ]
  },
  {
    "postal": "L8T5C7",
    "result": []
  },
  {
    "postal": "L8T3Y1",
    "result": [
      {
        "electoralDistricts": [
          {
            "election": null,
            "id": 38,
            "name": "Hamilton Mountain"
          }
        ],
        "pollDivisionIds": [
          10138695
        ],
        "postalCode": "L8T3Y1",
        "streetName": "COMPTON",
        "streetDirectionId": null,
        "streetTypeId": "PL",
        "placeName": "HAMILTON",
        "streetNameDisplayText": "COMPTON PL, HAMILTON"
      }
    ]
  },
  {
    "postal": "L8T5V0",
    "result": []
  },
  {
    "postal": "L8T8G8",
    "result": []
  },
  {
    "postal": "L8T8B1",
    "result": []
  },
  {
    "postal": "L8T4P5",
    "result": [
      {
        "electoralDistricts": [
          {
            "election": null,
            "id": 38,
            "name": "Hamilton Mountain"
          }
        ],
        "pollDivisionIds": [
          10138701
        ],
        "postalCode": "L8T4P5",
        "streetName": "LARCH",
        "streetDirectionId": null,
        "streetTypeId": "ST",
        "placeName": "HAMILTON",
        "streetNameDisplayText": "LARCH ST, HAMILTON"
      }
    ]
  },
  {
    "postal": "L8T7B2",
    "result": []
  },
  {
    "postal": "L8T0R2",
    "result": []
  },
  {
    "postal": "L8T4M4",
    "result": [
      {
        "electoralDistricts": [
          {
            "election": null,
            "id": 38,
            "name": "Hamilton Mountain"
          }
        ],
        "pollDivisionIds": [
          10138702
        ],
        "postalCode": "L8T4M4",
        "streetName": "CARSON",
        "streetDirectionId": null,
        "streetTypeId": "DR",
        "placeName": "HAMILTON",
        "streetNameDisplayText": "CARSON DR, HAMILTON"
      }
    ]
  },
  {
    "postal": "L8T7M4",
    "result": []
  },
  {
    "postal": "L8T9S7",
    "result": []
  },
  {
    "postal": "L8T5Z7",
    "result": []
  },
  {
    "postal": "L8T7J7",
    "result": []
  },
  {
    "postal": "L8T8R8",
    "result": []
  },
  {
    "postal": "L8T9X1",
    "result": []
  },
  {
    "postal": "L8T5M9",
    "result": []
  },
  {
    "postal": "L8T9B4",
    "result": []
  },
  {
    "postal": "L8T0L9",
    "result": []
  },
  {
    "postal": "L8T9G4",
    "result": []
  },
  {
    "postal": "L8T1J4",
    "result": [
      {
        "electoralDistricts": [
          {
            "election": null,
            "id": 38,
            "name": "Hamilton Mountain"
          }
        ],
        "pollDivisionIds": [
          10138694
        ],
        "postalCode": "L8T1J4",
        "streetName": "QUEENSDALE",
        "streetDirectionId": "E",
        "streetTypeId": "AVE",
        "placeName": "HAMILTON",
        "streetNameDisplayText": "QUEENSDALE AVE E, HAMILTON"
      }
    ]
  },
  {
    "postal": "L8T0W6",
    "result": []
  }
]
