[
  {
    "postal": "N2E9J6",
    "result": []
  },
  {
    "postal": "N2E9Z5",
    "result": []
  },
  {
    "postal": "N2E7H8",
    "result": []
  },
  {
    "postal": "N2E0P6",
    "result": []
  },
  {
    "postal": "N2E0S7",
    "result": []
  },
  {
    "postal": "N2E8B9",
    "result": []
  },
  {
    "postal": "N2E2A6",
    "result": [
      {
        "electoralDistricts": [
          {
            "election": null,
            "id": 49,
            "name": "Kitchener South—Hespeler"
          }
        ],
        "pollDivisionIds": [
          10139288
        ],
        "postalCode": "N2E2A6",
        "streetName": "SANDSPRINGS",
        "streetDirectionId": null,
        "streetTypeId": "CRES",
        "placeName": "KITCHENER",
        "streetNameDisplayText": "SANDSPRINGS CRES, KITCHENER"
      }
    ]
  },
  {
    "postal": "N2E7V2",
    "result": []
  },
  {
    "postal": "N2E9P4",
    "result": []
  },
  {
    "postal": "N2E6G0",
    "result": []
  },
  {
    "postal": "N2E2K0",
    "result": []
  },
  {
    "postal": "N2E7N6",
    "result": []
  },
  {
    "postal": "N2E5R3",
    "result": []
  },
  {
    "postal": "N2E7K0",
    "result": []
  },
  {
    "postal": "N2E3R2",
    "result": [
      {
        "electoralDistricts": [
          {
            "election": null,
            "id": 48,
            "name": "Kitchener—Conestoga"
          }
        ],
        "pollDivisionIds": [
          10139268
        ],
        "postalCode": "N2E3R2",
        "streetName": "ACTIVA",
        "streetDirectionId": null,
        "streetTypeId": "AVE",
        "placeName": "KITCHENER",
        "streetNameDisplayText": "ACTIVA AVE, KITCHENER"
      },
      {
        "electoralDistricts": [
          {
            "election": null,
            "id": 48,
            "name": "Kitchener—Conestoga"
          }
        ],
        "pollDivisionIds": [
          10139268
        ],
        "postalCode": "N2E3R2",
        "streetName": "BUSH CLOVER",
        "streetDirectionId": null,
        "streetTypeId": "CRES",
        "placeName": "KITCHENER",
        "streetNameDisplayText": "BUSH CLOVER CRES, KITCHENER"
      },
      {
        "electoralDistricts": [
          {
            "election": null,
            "id": 48,
            "name": "Kitchener—Conestoga"
          }
        ],
        "pollDivisionIds": [
          10139268
        ],
        "postalCode": "N2E3R2",
        "streetName": "HACKBERRY",
        "streetDirectionId": null,
        "streetTypeId": "ST",
        "placeName": "KITCHENER",
        "streetNameDisplayText": "HACKBERRY ST, KITCHENER"
      }
    ]
  },
  {
    "postal": "N2E0J1",
    "result": []
  },
  {
    "postal": "N2E0B0",
    "result": []
  },
  {
    "postal": "N2E5Z2",
    "result": []
  },
  {
    "postal": "N2E7P3",
    "result": []
  },
  {
    "postal": "N2E2K3",
    "result": [
      {
        "electoralDistricts": [
          {
            "election": null,
            "id": 49,
            "name": "Kitchener South—Hespeler"
          }
        ],
        "pollDivisionIds": [
          10139288
        ],
        "postalCode": "N2E2K3",
        "streetName": "THE COUNTRY",
        "streetDirectionId": null,
        "streetTypeId": "WAY",
        "placeName": "KITCHENER",
        "streetNameDisplayText": "THE COUNTRY WAY, KITCHENER"
      }
    ]
  },
  {
    "postal": "N2E7Y6",
    "result": []
  },
  {
    "postal": "N2E1L9",
    "result": [
      {
        "electoralDistricts": [
          {
            "election": null,
            "id": 49,
            "name": "Kitchener South—Hespeler"
          }
        ],
        "pollDivisionIds": [
          10139284
        ],
        "postalCode": "N2E1L9",
        "streetName": "OTTAWA",
        "streetDirectionId": "S",
        "streetTypeId": "ST",
        "placeName": "KITCHENER",
        "streetNameDisplayText": "OTTAWA ST S, KITCHENER"
      }
    ]
  },
  {
    "postal": "N2E8T0",
    "result": []
  },
  {
    "postal": "N2E3K8",
    "result": [
      {
        "electoralDistricts": [
          {
            "election": null,
            "id": 49,
            "name": "Kitchener South—Hespeler"
          }
        ],
        "pollDivisionIds": [
          10139285
        ],
        "postalCode": "N2E3K8",
        "streetName": "ERINBROOK",
        "streetDirectionId": null,
        "streetTypeId": "DR",
        "placeName": "KITCHENER",
        "streetNameDisplayText": "ERINBROOK DR, KITCHENER"
      },
      {
        "electoralDistricts": [
          {
            "election": null,
            "id": 49,
            "name": "Kitchener South—Hespeler"
          }
        ],
        "pollDivisionIds": [
          10139285
        ],
        "postalCode": "N2E3K8",
        "streetName": "TAMVALE",
        "streetDirectionId": null,
        "streetTypeId": "CRES",
        "placeName": "KITCHENER",
        "streetNameDisplayText": "TAMVALE CRES, KITCHENER"
      }
    ]
  },
  {
    "postal": "N2E5W9",
    "result": []
  },
  {
    "postal": "N2E6T9",
    "result": []
  },
  {
    "postal": "N2E4H1",
    "result": [
      {
        "electoralDistricts": [
          {
            "election": null,
            "id": 48,
            "name": "Kitchener—Conestoga"
          }
        ],
        "pollDivisionIds": [
          10139270
        ],
        "postalCode": "N2E4H1",
        "streetName": "ACTIVA",
        "streetDirectionId": null,
        "streetTypeId": "AVE",
        "placeName": "KITCHENER",
        "streetNameDisplayText": "ACTIVA AVE, KITCHENER"
      },
      {
        "electoralDistricts": [
          {
            "election": null,
            "id": 48,
            "name": "Kitchener—Conestoga"
          }
        ],
        "pollDivisionIds": [
          10139270
        ],
        "postalCode": "N2E4H1",
        "streetName": "DOLL",
        "streetDirectionId": null,
        "streetTypeId": "CRT",
        "placeName": "KITCHENER",
        "streetNameDisplayText": "DOLL CRT, KITCHENER"
      },
      {
        "electoralDistricts": [
          {
            "election": null,
            "id": 48,
            "name": "Kitchener—Conestoga"
          }
        ],
        "pollDivisionIds": [
          10139270
        ],
        "postalCode": "N2E4H1",
        "streetName": "HENHOEFFER",
        "streetDirectionId": null,
        "streetTypeId": "CRES",
        "placeName": "KITCHENER",
        "streetNameDisplayText": "HENHOEFFER CRES, KITCHENER"
      },
      {
        "electoralDistricts": [
          {
            "election": null,
            "id": 48,
            "name": "Kitchener—Conestoga"
          }
        ],
        "pollDivisionIds": [
          10139270
        ],
        "postalCode": "N2E4H1",
        "streetName": "REISTVIEW",
        "streetDirectionId": null,
        "streetTypeId": "ST",
        "placeName": "KITCHENER",
        "streetNameDisplayText": "REISTVIEW ST, KITCHENER"
      }
    ]
  },
  {
    "postal": "N2E7A2",
    "result": []
  },
  {
    "postal": "N2E5G0",
    "result": []
  },
  {
    "postal": "N2E8V5",
    "result": []
  },
  {
    "postal": "N2E2Y8",
    "result": [
      {
        "electoralDistricts": [
          {
            "election": null,
            "id": 49,
            "name": "Kitchener South—Hespeler"
          }
        ],
        "pollDivisionIds": [
          10139285
        ],
        "postalCode": "N2E2Y8",
        "streetName": "ROSEBANK",
        "streetDirectionId": null,
        "streetTypeId": "CRES",
        "placeName": "KITCHENER",
        "streetNameDisplayText": "ROSEBANK CRES, KITCHENER"
      }
    ]
  },
  {
    "postal": "N2E2B6",
    "result": [
      {
        "electoralDistricts": [
          {
            "election": null,
            "id": 49,
            "name": "Kitchener South—Hespeler"
          }
        ],
        "pollDivisionIds": [
          10139286
        ],
        "postalCode": "N2E2B6",
        "streetName": "LAURENTIAN",
        "streetDirectionId": null,
        "streetTypeId": "DR",
        "placeName": "KITCHENER",
        "streetNameDisplayText": "LAURENTIAN DR, KITCHENER"
      }
    ]
  },
  {
    "postal": "N2E4W8",
    "result": []
  },
  {
    "postal": "N2E8H7",
    "result": []
  },
  {
    "postal": "N2E5P1",
    "result": []
  },
  {
    "postal": "N2E2B8",
    "result": [
      {
        "electoralDistricts": [
          {
            "election": null,
            "id": 49,
            "name": "Kitchener South—Hespeler"
          }
        ],
        "pollDivisionIds": [
          10139286
        ],
        "postalCode": "N2E2B8",
        "streetName": "BRIAR KNOLL",
        "streetDirectionId": null,
        "streetTypeId": "DR",
        "placeName": "KITCHENER",
        "streetNameDisplayText": "BRIAR KNOLL DR, KITCHENER"
      }
    ]
  },
  {
    "postal": "N2E0P2",
    "result": []
  },
  {
    "postal": "N2E9M1",
    "result": []
  },
  {
    "postal": "N2E3G0",
    "result": []
  },
  {
    "postal": "N2E9Z2",
    "result": []
  },
  {
    "postal": "N2E2A0",
    "result": []
  },
  {
    "postal": "N2E6Y0",
    "result": []
  },
  {
    "postal": "N2E2Z8",
    "result": [
      {
        "electoralDistricts": [
          {
            "election": null,
            "id": 49,
            "name": "Kitchener South—Hespeler"
          }
        ],
        "pollDivisionIds": [
          10139285
        ],
        "postalCode": "N2E2Z8",
        "streetName": "ASHLEY",
        "streetDirectionId": null,
        "streetTypeId": "CRT",
        "placeName": "KITCHENER",
        "streetNameDisplayText": "ASHLEY CRT, KITCHENER"
      },
      {
        "electoralDistricts": [
          {
            "election": null,
            "id": 49,
            "name": "Kitchener South—Hespeler"
          }
        ],
        "pollDivisionIds": [
          10139285
        ],
        "postalCode": "N2E2Z8",
        "streetName": "ERINBROOK",
        "streetDirectionId": null,
        "streetTypeId": "DR",
        "placeName": "KITCHENER",
        "streetNameDisplayText": "ERINBROOK DR, KITCHENER"
      }
    ]
  },
  {
    "postal": "N2E7Y3",
    "result": []
  },
  {
    "postal": "N2E6Z5",
    "result": []
  },
  {
    "postal": "N2E6E0",
    "result": []
  },
  {
    "postal": "N2E9B7",
    "result": []
  },
  {
    "postal": "N2E9S5",
    "result": []
  },
  {
    "postal": "N2E3X3",
    "result": [
      {
        "electoralDistricts": [
          {
            "election": null,
            "id": 49,
            "name": "Kitchener South—Hespeler"
          }
        ],
        "pollDivisionIds": [
          10139285
        ],
        "postalCode": "N2E3X3",
        "streetName": "WESTMOUNT",
        "streetDirectionId": "E",
        "streetTypeId": "RD",
        "placeName": "KITCHENER",
        "streetNameDisplayText": "WESTMOUNT RD E, KITCHENER"
      }
    ]
  },
  {
    "postal": "N2E7R5",
    "result": []
  },
  {
    "postal": "N2E2X3",
    "result": [
      {
        "electoralDistricts": [
          {
            "election": null,
            "id": 49,
            "name": "Kitchener South—Hespeler"
          }
        ],
        "pollDivisionIds": [
          10139285
        ],
        "postalCode": "N2E2X3",
        "streetName": "RITTENHOUSE",
        "streetDirectionId": null,
        "streetTypeId": "RD",
        "placeName": "KITCHENER",
        "streetNameDisplayText": "RITTENHOUSE RD, KITCHENER"
      }
    ]
  },
  {
    "postal": "N2E8Z9",
    "result": []
  },
  {
    "postal": "N2E0N4",
    "result": []
  },
  {
    "postal": "N2E1K1",
    "result": [
      {
        "electoralDistricts": [
          {
            "election": null,
            "id": 49,
            "name": "Kitchener South—Hespeler"
          }
        ],
        "pollDivisionIds": [
          10139284
        ],
        "postalCode": "N2E1K1",
        "streetName": "PINEDALE",
        "streetDirectionId": null,
        "streetTypeId": "DR",
        "placeName": "KITCHENER",
        "streetNameDisplayText": "PINEDALE DR, KITCHENER"
      }
    ]
  },
  {
    "postal": "N2E1S3",
    "result": [
      {
        "electoralDistricts": [
          {
            "election": null,
            "id": 49,
            "name": "Kitchener South—Hespeler"
          }
        ],
        "pollDivisionIds": [
          10139290
        ],
        "postalCode": "N2E1S3",
        "streetName": "OLD COUNTRY",
        "streetDirectionId": null,
        "streetTypeId": "DR",
        "placeName": "KITCHENER",
        "streetNameDisplayText": "OLD COUNTRY DR, KITCHENER"
      }
    ]
  },
  {
    "postal": "N2E6M4",
    "result": []
  },
  {
    "postal": "N2E9A9",
    "result": []
  },
  {
    "postal": "N2E9Z9",
    "result": []
  },
  {
    "postal": "N2E6T4",
    "result": []
  },
  {
    "postal": "N2E0B2",
    "result": [
      {
        "electoralDistricts": [
          {
            "election": null,
            "id": 48,
            "name": "Kitchener—Conestoga"
          }
        ],
        "pollDivisionIds": [
          10139258
        ],
        "postalCode": "N2E0B2",
        "streetName": "GRAVEL RIDGE",
        "streetDirectionId": null,
        "streetTypeId": "TRAIL",
        "placeName": "KITCHENER",
        "streetNameDisplayText": "GRAVEL RIDGE TRAIL, KITCHENER"
      },
      {
        "electoralDistricts": [
          {
            "election": null,
            "id": 48,
            "name": "Kitchener—Conestoga"
          }
        ],
        "pollDivisionIds": [
          10139258
        ],
        "postalCode": "N2E0B2",
        "streetName": "ISAIAH",
        "streetDirectionId": null,
        "streetTypeId": "DR",
        "placeName": "KITCHENER",
        "streetNameDisplayText": "ISAIAH DR, KITCHENER"
      },
      {
        "electoralDistricts": [
          {
            "election": null,
            "id": 48,
            "name": "Kitchener—Conestoga"
          }
        ],
        "pollDivisionIds": [
          10139258
        ],
        "postalCode": "N2E0B2",
        "streetName": "MELINDA",
        "streetDirectionId": null,
        "streetTypeId": "ST",
        "placeName": "KITCHENER",
        "streetNameDisplayText": "MELINDA ST, KITCHENER"
      }
    ]
  },
  {
    "postal": "N2E2L9",
    "result": [
      {
        "electoralDistricts": [
          {
            "election": null,
            "id": 49,
            "name": "Kitchener South—Hespeler"
          }
        ],
        "pollDivisionIds": [
          10139288
        ],
        "postalCode": "N2E2L9",
        "streetName": "TUERR",
        "streetDirectionId": null,
        "streetTypeId": "DR",
        "placeName": "KITCHENER",
        "streetNameDisplayText": "TUERR DR, KITCHENER"
      }
    ]
  },
  {
    "postal": "N2E8K9",
    "result": []
  },
  {
    "postal": "N2E2H9",
    "result": [
      {
        "electoralDistricts": [
          {
            "election": null,
            "id": 49,
            "name": "Kitchener South—Hespeler"
          }
        ],
        "pollDivisionIds": [
          10139288
        ],
        "postalCode": "N2E2H9",
        "streetName": "SOUTHWOOD",
        "streetDirectionId": null,
        "streetTypeId": "CRT",
        "placeName": "KITCHENER",
        "streetNameDisplayText": "SOUTHWOOD CRT, KITCHENER"
      }
    ]
  },
  {
    "postal": "N2E3Z6",
    "result": [
      {
        "electoralDistricts": [
          {
            "election": null,
            "id": 48,
            "name": "Kitchener—Conestoga"
          }
        ],
        "pollDivisionIds": [
          10139269
        ],
        "postalCode": "N2E3Z6",
        "streetName": "PEACH BLOSSOM",
        "streetDirectionId": null,
        "streetTypeId": "CRES",
        "placeName": "KITCHENER",
        "streetNameDisplayText": "PEACH BLOSSOM CRES, KITCHENER"
      }
    ]
  },
  {
    "postal": "N2E3B0",
    "result": []
  },
  {
    "postal": "N2E2H8",
    "result": [
      {
        "electoralDistricts": [
          {
            "election": null,
            "id": 49,
            "name": "Kitchener South—Hespeler"
          }
        ],
        "pollDivisionIds": [
          10139288
        ],
        "postalCode": "N2E2H8",
        "streetName": "CENTURY HILL",
        "streetDirectionId": null,
        "streetTypeId": "DR",
        "placeName": "KITCHENER",
        "streetNameDisplayText": "CENTURY HILL DR, KITCHENER"
      }
    ]
  },
  {
    "postal": "N2E3X2",
    "result": [
      {
        "electoralDistricts": [
          {
            "election": null,
            "id": 48,
            "name": "Kitchener—Conestoga"
          }
        ],
        "pollDivisionIds": [
          10139270
        ],
        "postalCode": "N2E3X2",
        "streetName": "BRIDLEWREATH",
        "streetDirectionId": null,
        "streetTypeId": "ST",
        "placeName": "KITCHENER",
        "streetNameDisplayText": "BRIDLEWREATH ST, KITCHENER"
      },
      {
        "electoralDistricts": [
          {
            "election": null,
            "id": 48,
            "name": "Kitchener—Conestoga"
          }
        ],
        "pollDivisionIds": [
          10139270
        ],
        "postalCode": "N2E3X2",
        "streetName": "DONNENWERTH",
        "streetDirectionId": null,
        "streetTypeId": "DR",
        "placeName": "KITCHENER",
        "streetNameDisplayText": "DONNENWERTH DR, KITCHENER"
      },
      {
        "electoralDistricts": [
          {
            "election": null,
            "id": 48,
            "name": "Kitchener—Conestoga"
          }
        ],
        "pollDivisionIds": [
          10139269
        ],
        "postalCode": "N2E3X2",
        "streetName": "MOUNTAIN LAUREL",
        "streetDirectionId": null,
        "streetTypeId": "CRES",
        "placeName": "KITCHENER",
        "streetNameDisplayText": "MOUNTAIN LAUREL CRES, KITCHENER"
      }
    ]
  },
  {
    "postal": "N2E2E9",
    "result": [
      {
        "electoralDistricts": [
          {
            "election": null,
            "id": 49,
            "name": "Kitchener South—Hespeler"
          }
        ],
        "pollDivisionIds": [
          10139286
        ],
        "postalCode": "N2E2E9",
        "streetName": "LAURENTIAN",
        "streetDirectionId": null,
        "streetTypeId": "DR",
        "placeName": "KITCHENER",
        "streetNameDisplayText": "LAURENTIAN DR, KITCHENER"
      }
    ]
  },
  {
    "postal": "N2E9P6",
    "result": []
  },
  {
    "postal": "N2E9E2",
    "result": []
  },
  {
    "postal": "N2E9H2",
    "result": []
  },
  {
    "postal": "N2E1S8",
    "result": [
      {
        "electoralDistricts": [
          {
            "election": null,
            "id": 49,
            "name": "Kitchener South—Hespeler"
          }
        ],
        "pollDivisionIds": [
          10139287
        ],
        "postalCode": "N2E1S8",
        "streetName": "FLINT",
        "streetDirectionId": null,
        "streetTypeId": "DR",
        "placeName": "KITCHENER",
        "streetNameDisplayText": "FLINT DR, KITCHENER"
      }
    ]
  },
  {
    "postal": "N2E3M6",
    "result": [
      {
        "electoralDistricts": [
          {
            "election": null,
            "id": 49,
            "name": "Kitchener South—Hespeler"
          }
        ],
        "pollDivisionIds": [
          10139287
        ],
        "postalCode": "N2E3M6",
        "streetName": "STRASBURG",
        "streetDirectionId": null,
        "streetTypeId": "RD",
        "placeName": "KITCHENER",
        "streetNameDisplayText": "STRASBURG RD, KITCHENER"
      }
    ]
  },
  {
    "postal": "N2E6Z8",
    "result": []
  },
  {
    "postal": "N2E4J2",
    "result": [
      {
        "electoralDistricts": [
          {
            "election": null,
            "id": 49,
            "name": "Kitchener South—Hespeler"
          }
        ],
        "pollDivisionIds": [
          10139286
        ],
        "postalCode": "N2E4J2",
        "streetName": "BLOCK LINE",
        "streetDirectionId": null,
        "streetTypeId": "RD",
        "placeName": "KITCHENER",
        "streetNameDisplayText": "BLOCK LINE RD, KITCHENER"
      }
    ]
  },
  {
    "postal": "N2E9Y1",
    "result": []
  },
  {
    "postal": "N2E8V6",
    "result": []
  },
  {
    "postal": "N2E6B2",
    "result": []
  },
  {
    "postal": "N2E1P8",
    "result": [
      {
        "electoralDistricts": [
          {
            "election": null,
            "id": 49,
            "name": "Kitchener South—Hespeler"
          }
        ],
        "pollDivisionIds": [
          10139286
        ],
        "postalCode": "N2E1P8",
        "streetName": "JAY",
        "streetDirectionId": null,
        "streetTypeId": "CRT",
        "placeName": "KITCHENER",
        "streetNameDisplayText": "JAY CRT, KITCHENER"
      }
    ]
  },
  {
    "postal": "N2E0V8",
    "result": []
  },
  {
    "postal": "N2E4Y0",
    "result": []
  },
  {
    "postal": "N2E2T4",
    "result": [
      {
        "electoralDistricts": [
          {
            "election": null,
            "id": 49,
            "name": "Kitchener South—Hespeler"
          }
        ],
        "pollDivisionIds": [
          10139284
        ],
        "postalCode": "N2E2T4",
        "streetName": "WILLIAMSBURG",
        "streetDirectionId": null,
        "streetTypeId": "RD",
        "placeName": "KITCHENER",
        "streetNameDisplayText": "WILLIAMSBURG RD, KITCHENER"
      }
    ]
  },
  {
    "postal": "N2E2S3",
    "result": [
      {
        "electoralDistricts": [
          {
            "election": null,
            "id": 49,
            "name": "Kitchener South—Hespeler"
          }
        ],
        "pollDivisionIds": [
          10139288
        ],
        "postalCode": "N2E2S3",
        "streetName": "THE COUNTRY",
        "streetDirectionId": null,
        "streetTypeId": "WAY",
        "placeName": "KITCHENER",
        "streetNameDisplayText": "THE COUNTRY WAY, KITCHENER"
      }
    ]
  },
  {
    "postal": "N2E0K0",
    "result": []
  },
  {
    "postal": "N2E5N1",
    "result": []
  },
  {
    "postal": "N2E7T0",
    "result": []
  },
  {
    "postal": "N2E9N2",
    "result": []
  },
  {
    "postal": "N2E5L1",
    "result": []
  },
  {
    "postal": "N2E7G5",
    "result": []
  },
  {
    "postal": "N2E6K2",
    "result": []
  },
  {
    "postal": "N2E6P9",
    "result": []
  },
  {
    "postal": "N2E0E6",
    "result": [
      {
        "electoralDistricts": [
          {
            "election": null,
            "id": 48,
            "name": "Kitchener—Conestoga"
          }
        ],
        "pollDivisionIds": [
          10139258
        ],
        "postalCode": "N2E0E6",
        "streetName": "ISAIAH",
        "streetDirectionId": null,
        "streetTypeId": "CRES",
        "placeName": "KITCHENER",
        "streetNameDisplayText": "ISAIAH CRES, KITCHENER"
      },
      {
        "electoralDistricts": [
          {
            "election": null,
            "id": 48,
            "name": "Kitchener—Conestoga"
          }
        ],
        "pollDivisionIds": [
          10139258
        ],
        "postalCode": "N2E0E6",
        "streetName": "ISAIAH",
        "streetDirectionId": null,
        "streetTypeId": "DR",
        "placeName": "KITCHENER",
        "streetNameDisplayText": "ISAIAH DR, KITCHENER"
      }
    ]
  },
  {
    "postal": "N2E8R9",
    "result": []
  },
  {
    "postal": "N2E3G9",
    "result": [
      {
        "electoralDistricts": [
          {
            "election": null,
            "id": 49,
            "name": "Kitchener South—Hespeler"
          }
        ],
        "pollDivisionIds": [
          10139289
        ],
        "postalCode": "N2E3G9",
        "streetName": "SHOEMAKER",
        "streetDirectionId": null,
        "streetTypeId": "ST",
        "placeName": "KITCHENER",
        "streetNameDisplayText": "SHOEMAKER ST, KITCHENER"
      }
    ]
  },
  {
    "postal": "N2E0V7",
    "result": []
  },
  {
    "postal": "N2E2Z1",
    "result": [
      {
        "electoralDistricts": [
          {
            "election": null,
            "id": 49,
            "name": "Kitchener South—Hespeler"
          }
        ],
        "pollDivisionIds": [
          10139288
        ],
        "postalCode": "N2E2Z1",
        "streetName": "THE COUNTRY",
        "streetDirectionId": null,
        "streetTypeId": "WAY",
        "placeName": "KITCHENER",
        "streetNameDisplayText": "THE COUNTRY WAY, KITCHENER"
      }
    ]
  },
  {
    "postal": "N2E7N1",
    "result": []
  },
  {
    "postal": "N2E3C6",
    "result": [
      {
        "electoralDistricts": [
          {
            "election": null,
            "id": 49,
            "name": "Kitchener South—Hespeler"
          }
        ],
        "pollDivisionIds": [
          10139285
        ],
        "postalCode": "N2E3C6",
        "streetName": "ERINBROOK",
        "streetDirectionId": null,
        "streetTypeId": "DR",
        "placeName": "KITCHENER",
        "streetNameDisplayText": "ERINBROOK DR, KITCHENER"
      },
      {
        "electoralDistricts": [
          {
            "election": null,
            "id": 49,
            "name": "Kitchener South—Hespeler"
          }
        ],
        "pollDivisionIds": [
          10139285
        ],
        "postalCode": "N2E3C6",
        "streetName": "PIPERS GREEN",
        "streetDirectionId": null,
        "streetTypeId": "CRT",
        "placeName": "KITCHENER",
        "streetNameDisplayText": "PIPERS GREEN CRT, KITCHENER"
      },
      {
        "electoralDistricts": [
          {
            "election": null,
            "id": 49,
            "name": "Kitchener South—Hespeler"
          }
        ],
        "pollDivisionIds": [
          10139285
        ],
        "postalCode": "N2E3C6",
        "streetName": "THISTLEDOWN",
        "streetDirectionId": null,
        "streetTypeId": "DR",
        "placeName": "KITCHENER",
        "streetNameDisplayText": "THISTLEDOWN DR, KITCHENER"
      }
    ]
  },
  {
    "postal": "N2E4M1",
    "result": []
  },
  {
    "postal": "N2E9K2",
    "result": []
  },
  {
    "postal": "N2E9S6",
    "result": []
  },
  {
    "postal": "N2E4X1",
    "result": []
  },
  {
    "postal": "N2E8W2",
    "result": []
  },
  {
    "postal": "N2E7N2",
    "result": []
  },
  {
    "postal": "N2E8S3",
    "result": []
  },
  {
    "postal": "N2E4V0",
    "result": []
  },
  {
    "postal": "N2E6W4",
    "result": []
  },
  {
    "postal": "N2E5M1",
    "result": []
  },
  {
    "postal": "N2E0S4",
    "result": []
  },
  {
    "postal": "N2E5X6",
    "result": []
  },
  {
    "postal": "N2E8L5",
    "result": []
  },
  {
    "postal": "N2E5M8",
    "result": []
  },
  {
    "postal": "N2E2G3",
    "result": [
      {
        "electoralDistricts": [
          {
            "election": null,
            "id": 49,
            "name": "Kitchener South—Hespeler"
          }
        ],
        "pollDivisionIds": [
          10139286
        ],
        "postalCode": "N2E2G3",
        "streetName": "RADCLIFFE",
        "streetDirectionId": null,
        "streetTypeId": "DR",
        "placeName": "KITCHENER",
        "streetNameDisplayText": "RADCLIFFE DR, KITCHENER"
      }
    ]
  },
  {
    "postal": "N2E8E4",
    "result": []
  },
  {
    "postal": "N2E7S9",
    "result": []
  },
  {
    "postal": "N2E1K3",
    "result": [
      {
        "electoralDistricts": [
          {
            "election": null,
            "id": 49,
            "name": "Kitchener South—Hespeler"
          }
        ],
        "pollDivisionIds": [
          10139284
        ],
        "postalCode": "N2E1K3",
        "streetName": "PINEDALE",
        "streetDirectionId": null,
        "streetTypeId": "DR",
        "placeName": "KITCHENER",
        "streetNameDisplayText": "PINEDALE DR, KITCHENER"
      }
    ]
  },
  {
    "postal": "N2E4E1",
    "result": [
      {
        "electoralDistricts": [
          {
            "election": null,
            "id": 48,
            "name": "Kitchener—Conestoga"
          }
        ],
        "pollDivisionIds": [
          10139270
        ],
        "postalCode": "N2E4E1",
        "streetName": "ACTIVA",
        "streetDirectionId": null,
        "streetTypeId": "AVE",
        "placeName": "KITCHENER",
        "streetNameDisplayText": "ACTIVA AVE, KITCHENER"
      },
      {
        "electoralDistricts": [
          {
            "election": null,
            "id": 48,
            "name": "Kitchener—Conestoga"
          }
        ],
        "pollDivisionIds": [
          10139270
        ],
        "postalCode": "N2E4E1",
        "streetName": "HENHOEFFER",
        "streetDirectionId": null,
        "streetTypeId": "CRES",
        "placeName": "KITCHENER",
        "streetNameDisplayText": "HENHOEFFER CRES, KITCHENER"
      },
      {
        "electoralDistricts": [
          {
            "election": null,
            "id": 48,
            "name": "Kitchener—Conestoga"
          }
        ],
        "pollDivisionIds": [
          10139270
        ],
        "postalCode": "N2E4E1",
        "streetName": "PERIWINKLE",
        "streetDirectionId": null,
        "streetTypeId": "ST",
        "placeName": "KITCHENER",
        "streetNameDisplayText": "PERIWINKLE ST, KITCHENER"
      }
    ]
  },
  {
    "postal": "N2E4R2",
    "result": []
  },
  {
    "postal": "N2E6T0",
    "result": []
  },
  {
    "postal": "N2E3K5",
    "result": [
      {
        "electoralDistricts": [
          {
            "election": null,
            "id": 49,
            "name": "Kitchener South—Hespeler"
          }
        ],
        "pollDivisionIds": [
          10139285
        ],
        "postalCode": "N2E3K5",
        "streetName": "ERINBROOK",
        "streetDirectionId": null,
        "streetTypeId": "DR",
        "placeName": "KITCHENER",
        "streetNameDisplayText": "ERINBROOK DR, KITCHENER"
      },
      {
        "electoralDistricts": [
          {
            "election": null,
            "id": 49,
            "name": "Kitchener South—Hespeler"
          }
        ],
        "pollDivisionIds": [
          10139285
        ],
        "postalCode": "N2E3K5",
        "streetName": "HEDGESTONE",
        "streetDirectionId": null,
        "streetTypeId": "CRES",
        "placeName": "KITCHENER",
        "streetNameDisplayText": "HEDGESTONE CRES, KITCHENER"
      }
    ]
  },
  {
    "postal": "N2E3S3",
    "result": [
      {
        "electoralDistricts": [
          {
            "election": null,
            "id": 49,
            "name": "Kitchener South—Hespeler"
          }
        ],
        "pollDivisionIds": [
          10139284
        ],
        "postalCode": "N2E3S3",
        "streetName": "WESTMOUNT",
        "streetDirectionId": "E",
        "streetTypeId": "RD",
        "placeName": "KITCHENER",
        "streetNameDisplayText": "WESTMOUNT RD E, KITCHENER"
      }
    ]
  },
  {
    "postal": "N2E3L4",
    "result": [
      {
        "electoralDistricts": [
          {
            "election": null,
            "id": 48,
            "name": "Kitchener—Conestoga"
          }
        ],
        "pollDivisionIds": [
          10139268
        ],
        "postalCode": "N2E3L4",
        "streetName": "WAKE ROBIN",
        "streetDirectionId": null,
        "streetTypeId": "CRES",
        "placeName": "KITCHENER",
        "streetNameDisplayText": "WAKE ROBIN CRES, KITCHENER"
      },
      {
        "electoralDistricts": [
          {
            "election": null,
            "id": 48,
            "name": "Kitchener—Conestoga"
          }
        ],
        "pollDivisionIds": [
          10139268,
          10139269
        ],
        "postalCode": "N2E3L4",
        "streetName": "WAKE ROBIN",
        "streetDirectionId": null,
        "streetTypeId": "DR",
        "placeName": "KITCHENER",
        "streetNameDisplayText": "WAKE ROBIN DR, KITCHENER"
      },
      {
        "electoralDistricts": [
          {
            "election": null,
            "id": 48,
            "name": "Kitchener—Conestoga"
          }
        ],
        "pollDivisionIds": [
          10139268
        ],
        "postalCode": "N2E3L4",
        "streetName": "WINDFLOWER",
        "streetDirectionId": null,
        "streetTypeId": "DR",
        "placeName": "KITCHENER",
        "streetNameDisplayText": "WINDFLOWER DR, KITCHENER"
      }
    ]
  },
  {
    "postal": "N2E9Y2",
    "result": []
  },
  {
    "postal": "N2E1E0",
    "result": []
  },
  {
    "postal": "N2E9A4",
    "result": []
  },
  {
    "postal": "N2E1L3",
    "result": [
      {
        "electoralDistricts": [
          {
            "election": null,
            "id": 49,
            "name": "Kitchener South—Hespeler"
          }
        ],
        "pollDivisionIds": [
          10139284
        ],
        "postalCode": "N2E1L3",
        "streetName": "NINE PINES",
        "streetDirectionId": null,
        "streetTypeId": "RD",
        "placeName": "KITCHENER",
        "streetNameDisplayText": "NINE PINES RD, KITCHENER"
      }
    ]
  },
  {
    "postal": "N2E6N1",
    "result": []
  },
  {
    "postal": "N2E6G7",
    "result": []
  },
  {
    "postal": "N2E7W1",
    "result": []
  },
  {
    "postal": "N2E4M6",
    "result": []
  },
  {
    "postal": "N2E1K0",
    "result": []
  },
  {
    "postal": "N2E3E2",
    "result": [
      {
        "electoralDistricts": [
          {
            "election": null,
            "id": 49,
            "name": "Kitchener South—Hespeler"
          }
        ],
        "pollDivisionIds": [
          10139289
        ],
        "postalCode": "N2E3E2",
        "streetName": "SHOEMAKER",
        "streetDirectionId": null,
        "streetTypeId": "ST",
        "placeName": "KITCHENER",
        "streetNameDisplayText": "SHOEMAKER ST, KITCHENER"
      }
    ]
  },
  {
    "postal": "N2E5H4",
    "result": []
  },
  {
    "postal": "N2E1K7",
    "result": [
      {
        "electoralDistricts": [
          {
            "election": null,
            "id": 49,
            "name": "Kitchener South—Hespeler"
          }
        ],
        "pollDivisionIds": [
          10139284
        ],
        "postalCode": "N2E1K7",
        "streetName": "WILLIAMSBURG",
        "streetDirectionId": null,
        "streetTypeId": "RD",
        "placeName": "KITCHENER",
        "streetNameDisplayText": "WILLIAMSBURG RD, KITCHENER"
      }
    ]
  },
  {
    "postal": "N2E0H0",
    "result": []
  },
  {
    "postal": "N2E0J3",
    "result": []
  },
  {
    "postal": "N2E1X6",
    "result": [
      {
        "electoralDistricts": [
          {
            "election": null,
            "id": 49,
            "name": "Kitchener South—Hespeler"
          }
        ],
        "pollDivisionIds": [
          10139287
        ],
        "postalCode": "N2E1X6",
        "streetName": "CHANDLER",
        "streetDirectionId": null,
        "streetTypeId": "DR",
        "placeName": "KITCHENER",
        "streetNameDisplayText": "CHANDLER DR, KITCHENER"
      }
    ]
  },
  {
    "postal": "N2E2Z6",
    "result": [
      {
        "electoralDistricts": [
          {
            "election": null,
            "id": 49,
            "name": "Kitchener South—Hespeler"
          }
        ],
        "pollDivisionIds": [
          10139285
        ],
        "postalCode": "N2E2Z6",
        "streetName": "ASHLEY",
        "streetDirectionId": null,
        "streetTypeId": "CRT",
        "placeName": "KITCHENER",
        "streetNameDisplayText": "ASHLEY CRT, KITCHENER"
      },
      {
        "electoralDistricts": [
          {
            "election": null,
            "id": 49,
            "name": "Kitchener South—Hespeler"
          }
        ],
        "pollDivisionIds": [
          10139285
        ],
        "postalCode": "N2E2Z6",
        "streetName": "ERINBROOK",
        "streetDirectionId": null,
        "streetTypeId": "DR",
        "placeName": "KITCHENER",
        "streetNameDisplayText": "ERINBROOK DR, KITCHENER"
      }
    ]
  },
  {
    "postal": "N2E4R9",
    "result": []
  },
  {
    "postal": "N2E0W8",
    "result": []
  },
  {
    "postal": "N2E1L4",
    "result": [
      {
        "electoralDistricts": [
          {
            "election": null,
            "id": 49,
            "name": "Kitchener South—Hespeler"
          }
        ],
        "pollDivisionIds": [
          10139284
        ],
        "postalCode": "N2E1L4",
        "streetName": "NINE PINES",
        "streetDirectionId": null,
        "streetTypeId": "RD",
        "placeName": "KITCHENER",
        "streetNameDisplayText": "NINE PINES RD, KITCHENER"
      }
    ]
  },
  {
    "postal": "N2E0C8",
    "result": [
      {
        "electoralDistricts": [
          {
            "election": null,
            "id": 48,
            "name": "Kitchener—Conestoga"
          }
        ],
        "pollDivisionIds": [
          10139258
        ],
        "postalCode": "N2E0C8",
        "streetName": "OTTAWA",
        "streetDirectionId": "S",
        "streetTypeId": "ST",
        "placeName": "KITCHENER",
        "streetNameDisplayText": "OTTAWA ST S, KITCHENER"
      }
    ]
  },
  {
    "postal": "N2E9X7",
    "result": []
  },
  {
    "postal": "N2E4T1",
    "result": []
  },
  {
    "postal": "N2E0M0",
    "result": []
  },
  {
    "postal": "N2E6A2",
    "result": []
  },
  {
    "postal": "N2E9S8",
    "result": []
  },
  {
    "postal": "N2E9T4",
    "result": []
  },
  {
    "postal": "N2E9Y4",
    "result": []
  },
  {
    "postal": "N2E6G5",
    "result": []
  },
  {
    "postal": "N2E6H9",
    "result": []
  },
  {
    "postal": "N2E2P3",
    "result": [
      {
        "electoralDistricts": [
          {
            "election": null,
            "id": 49,
            "name": "Kitchener South—Hespeler"
          }
        ],
        "pollDivisionIds": [
          10139288
        ],
        "postalCode": "N2E2P3",
        "streetName": "KESSELRING",
        "streetDirectionId": null,
        "streetTypeId": "DR",
        "placeName": "KITCHENER",
        "streetNameDisplayText": "KESSELRING DR, KITCHENER"
      }
    ]
  },
  {
    "postal": "N2E1T6",
    "result": [
      {
        "electoralDistricts": [
          {
            "election": null,
            "id": 49,
            "name": "Kitchener South—Hespeler"
          }
        ],
        "pollDivisionIds": [
          10139288
        ],
        "postalCode": "N2E1T6",
        "streetName": "STRASBURG",
        "streetDirectionId": null,
        "streetTypeId": "RD",
        "placeName": "KITCHENER",
        "streetNameDisplayText": "STRASBURG RD, KITCHENER"
      }
    ]
  },
  {
    "postal": "N2E4P6",
    "result": []
  },
  {
    "postal": "N2E3K1",
    "result": [
      {
        "electoralDistricts": [
          {
            "election": null,
            "id": 49,
            "name": "Kitchener South—Hespeler"
          }
        ],
        "pollDivisionIds": [
          10139285,
          10139325
        ],
        "postalCode": "N2E3K1",
        "streetName": "BLOCK LINE",
        "streetDirectionId": null,
        "streetTypeId": "RD",
        "placeName": "KITCHENER",
        "streetNameDisplayText": "BLOCK LINE RD, KITCHENER"
      }
    ]
  },
  {
    "postal": "N2E6X4",
    "result": []
  },
  {
    "postal": "N2E4M8",
    "result": []
  },
  {
    "postal": "N2E2Y1",
    "result": [
      {
        "electoralDistricts": [
          {
            "election": null,
            "id": 49,
            "name": "Kitchener South—Hespeler"
          }
        ],
        "pollDivisionIds": [
          10139285
        ],
        "postalCode": "N2E2Y1",
        "streetName": "ERINBROOK",
        "streetDirectionId": null,
        "streetTypeId": "DR",
        "placeName": "KITCHENER",
        "streetNameDisplayText": "ERINBROOK DR, KITCHENER"
      }
    ]
  },
  {
    "postal": "N2E6M1",
    "result": []
  },
  {
    "postal": "N2E5L8",
    "result": []
  },
  {
    "postal": "N2E3P6",
    "result": [
      {
        "electoralDistricts": [
          {
            "election": null,
            "id": 49,
            "name": "Kitchener South—Hespeler"
          }
        ],
        "pollDivisionIds": [
          10139284
        ],
        "postalCode": "N2E3P6",
        "streetName": "HIGHBROOK",
        "streetDirectionId": null,
        "streetTypeId": "CRES",
        "placeName": "KITCHENER",
        "streetNameDisplayText": "HIGHBROOK CRES, KITCHENER"
      },
      {
        "electoralDistricts": [
          {
            "election": null,
            "id": 49,
            "name": "Kitchener South—Hespeler"
          }
        ],
        "pollDivisionIds": [
          10139284
        ],
        "postalCode": "N2E3P6",
        "streetName": "HIGHBROOK",
        "streetDirectionId": null,
        "streetTypeId": "ST",
        "placeName": "KITCHENER",
        "streetNameDisplayText": "HIGHBROOK ST, KITCHENER"
      }
    ]
  },
  {
    "postal": "N2E9A5",
    "result": []
  },
  {
    "postal": "N2E7K1",
    "result": []
  },
  {
    "postal": "N2E3J4",
    "result": [
      {
        "electoralDistricts": [
          {
            "election": null,
            "id": 49,
            "name": "Kitchener South—Hespeler"
          }
        ],
        "pollDivisionIds": [
          10139287
        ],
        "postalCode": "N2E3J4",
        "streetName": "KINGSWOOD",
        "streetDirectionId": null,
        "streetTypeId": "DR",
        "placeName": "KITCHENER",
        "streetNameDisplayText": "KINGSWOOD DR, KITCHENER"
      }
    ]
  },
  {
    "postal": "N2E5E7",
    "result": []
  },
  {
    "postal": "N2E3A7",
    "result": [
      {
        "electoralDistricts": [
          {
            "election": null,
            "id": 49,
            "name": "Kitchener South—Hespeler"
          }
        ],
        "pollDivisionIds": [
          10139284
        ],
        "postalCode": "N2E3A7",
        "streetName": "RISTAU",
        "streetDirectionId": null,
        "streetTypeId": "CRES",
        "placeName": "KITCHENER",
        "streetNameDisplayText": "RISTAU CRES, KITCHENER"
      }
    ]
  },
  {
    "postal": "N2E1B9",
    "result": [
      {
        "electoralDistricts": [
          {
            "election": null,
            "id": 49,
            "name": "Kitchener South—Hespeler"
          }
        ],
        "pollDivisionIds": [
          10139286
        ],
        "postalCode": "N2E1B9",
        "streetName": "D'ARCY",
        "streetDirectionId": null,
        "streetTypeId": "PL",
        "placeName": "KITCHENER",
        "streetNameDisplayText": "D'ARCY PL, KITCHENER"
      }
    ]
  },
  {
    "postal": "N2E9E8",
    "result": []
  },
  {
    "postal": "N2E1C9",
    "result": [
      {
        "electoralDistricts": [
          {
            "election": null,
            "id": 49,
            "name": "Kitchener South—Hespeler"
          }
        ],
        "pollDivisionIds": [
          10139287
        ],
        "postalCode": "N2E1C9",
        "streetName": "KIMBERLY",
        "streetDirectionId": null,
        "streetTypeId": "CRES",
        "placeName": "KITCHENER",
        "streetNameDisplayText": "KIMBERLY CRES, KITCHENER"
      }
    ]
  },
  {
    "postal": "N2E3B5",
    "result": [
      {
        "electoralDistricts": [
          {
            "election": null,
            "id": 49,
            "name": "Kitchener South—Hespeler"
          }
        ],
        "pollDivisionIds": [
          10139289
        ],
        "postalCode": "N2E3B5",
        "streetName": "SHOEMAKER",
        "streetDirectionId": null,
        "streetTypeId": "ST",
        "placeName": "KITCHENER",
        "streetNameDisplayText": "SHOEMAKER ST, KITCHENER"
      }
    ]
  },
  {
    "postal": "N2E8R0",
    "result": []
  },
  {
    "postal": "N2E3P2",
    "result": [
      {
        "electoralDistricts": [
          {
            "election": null,
            "id": 48,
            "name": "Kitchener—Conestoga"
          }
        ],
        "pollDivisionIds": [
          10139268
        ],
        "postalCode": "N2E3P2",
        "streetName": "GREY FOX",
        "streetDirectionId": null,
        "streetTypeId": "DR",
        "placeName": "KITCHENER",
        "streetNameDisplayText": "GREY FOX DR, KITCHENER"
      },
      {
        "electoralDistricts": [
          {
            "election": null,
            "id": 48,
            "name": "Kitchener—Conestoga"
          }
        ],
        "pollDivisionIds": [
          10139268
        ],
        "postalCode": "N2E3P2",
        "streetName": "OTTAWA",
        "streetDirectionId": "S",
        "streetTypeId": "ST",
        "placeName": "KITCHENER",
        "streetNameDisplayText": "OTTAWA ST S, KITCHENER"
      },
      {
        "electoralDistricts": [
          {
            "election": null,
            "id": 48,
            "name": "Kitchener—Conestoga"
          }
        ],
        "pollDivisionIds": [
          10139268
        ],
        "postalCode": "N2E3P2",
        "streetName": "WILDERNESS",
        "streetDirectionId": null,
        "streetTypeId": "DR",
        "placeName": "KITCHENER",
        "streetNameDisplayText": "WILDERNESS DR, KITCHENER"
      }
    ]
  },
  {
    "postal": "N2E5V4",
    "result": []
  },
  {
    "postal": "N2E4H0",
    "result": []
  },
  {
    "postal": "N2E4S7",
    "result": []
  },
  {
    "postal": "N2E6C2",
    "result": []
  },
  {
    "postal": "N2E8W3",
    "result": []
  },
  {
    "postal": "N2E4M5",
    "result": []
  },
  {
    "postal": "N2E5T1",
    "result": []
  },
  {
    "postal": "N2E3B3",
    "result": [
      {
        "electoralDistricts": [
          {
            "election": null,
            "id": 49,
            "name": "Kitchener South—Hespeler"
          }
        ],
        "pollDivisionIds": [
          10139289
        ],
        "postalCode": "N2E3B3",
        "streetName": "SHOEMAKER",
        "streetDirectionId": null,
        "streetTypeId": "ST",
        "placeName": "KITCHENER",
        "streetNameDisplayText": "SHOEMAKER ST, KITCHENER"
      }
    ]
  },
  {
    "postal": "N2E6C6",
    "result": []
  },
  {
    "postal": "N2E7N8",
    "result": []
  },
  {
    "postal": "N2E2Y3",
    "result": [
      {
        "electoralDistricts": [
          {
            "election": null,
            "id": 49,
            "name": "Kitchener South—Hespeler"
          }
        ],
        "pollDivisionIds": [
          10139288
        ],
        "postalCode": "N2E2Y3",
        "streetName": "STRASBURG",
        "streetDirectionId": null,
        "streetTypeId": "RD",
        "placeName": "KITCHENER",
        "streetNameDisplayText": "STRASBURG RD, KITCHENER"
      }
    ]
  },
  {
    "postal": "N2E2R6",
    "result": [
      {
        "electoralDistricts": [
          {
            "election": null,
            "id": 49,
            "name": "Kitchener South—Hespeler"
          }
        ],
        "pollDivisionIds": [
          10139288
        ],
        "postalCode": "N2E2R6",
        "streetName": "SOUTHWOOD",
        "streetDirectionId": null,
        "streetTypeId": "DR",
        "placeName": "KITCHENER",
        "streetNameDisplayText": "SOUTHWOOD DR, KITCHENER"
      }
    ]
  },
  {
    "postal": "N2E7N3",
    "result": []
  },
  {
    "postal": "N2E8J2",
    "result": []
  },
  {
    "postal": "N2E6A9",
    "result": []
  },
  {
    "postal": "N2E3V2",
    "result": [
      {
        "electoralDistricts": [
          {
            "election": null,
            "id": 48,
            "name": "Kitchener—Conestoga"
          }
        ],
        "pollDivisionIds": [
          10139269
        ],
        "postalCode": "N2E3V2",
        "streetName": "ACTIVA",
        "streetDirectionId": null,
        "streetTypeId": "AVE",
        "placeName": "KITCHENER",
        "streetNameDisplayText": "ACTIVA AVE, KITCHENER"
      }
    ]
  },
  {
    "postal": "N2E2N3",
    "result": [
      {
        "electoralDistricts": [
          {
            "election": null,
            "id": 49,
            "name": "Kitchener South—Hespeler"
          }
        ],
        "pollDivisionIds": [
          10139284
        ],
        "postalCode": "N2E2N3",
        "streetName": "ALBION",
        "streetDirectionId": null,
        "streetTypeId": "CRT",
        "placeName": "KITCHENER",
        "streetNameDisplayText": "ALBION CRT, KITCHENER"
      }
    ]
  },
  {
    "postal": "N2E1S5",
    "result": [
      {
        "electoralDistricts": [
          {
            "election": null,
            "id": 49,
            "name": "Kitchener South—Hespeler"
          }
        ],
        "pollDivisionIds": [
          10139290
        ],
        "postalCode": "N2E1S5",
        "streetName": "CEDARHILL",
        "streetDirectionId": null,
        "streetTypeId": "CRES",
        "placeName": "KITCHENER",
        "streetNameDisplayText": "CEDARHILL CRES, KITCHENER"
      }
    ]
  },
  {
    "postal": "N2E4T7",
    "result": []
  },
  {
    "postal": "N2E6Y7",
    "result": []
  },
  {
    "postal": "N2E0W7",
    "result": []
  },
  {
    "postal": "N2E2W9",
    "result": [
      {
        "electoralDistricts": [
          {
            "election": null,
            "id": 49,
            "name": "Kitchener South—Hespeler"
          }
        ],
        "pollDivisionIds": [
          10139288
        ],
        "postalCode": "N2E2W9",
        "streetName": "MCCABE",
        "streetDirectionId": null,
        "streetTypeId": "CRT",
        "placeName": "KITCHENER",
        "streetNameDisplayText": "MCCABE CRT, KITCHENER"
      }
    ]
  },
  {
    "postal": "N2E8V0",
    "result": []
  },
  {
    "postal": "N2E0H4",
    "result": [
      {
        "electoralDistricts": [
          {
            "election": null,
            "id": 48,
            "name": "Kitchener—Conestoga"
          }
        ],
        "pollDivisionIds": [
          10139270
        ],
        "postalCode": "N2E0H4",
        "streetName": "COMMONWEALTH",
        "streetDirectionId": null,
        "streetTypeId": "ST",
        "placeName": "KITCHENER",
        "streetNameDisplayText": "COMMONWEALTH ST, KITCHENER"
      }
    ]
  },
  {
    "postal": "N2E2T1",
    "result": [
      {
        "electoralDistricts": [
          {
            "election": null,
            "id": 49,
            "name": "Kitchener South—Hespeler"
          }
        ],
        "pollDivisionIds": [
          10139285
        ],
        "postalCode": "N2E2T1",
        "streetName": "FOLKSTONE",
        "streetDirectionId": null,
        "streetTypeId": "CRES",
        "placeName": "KITCHENER",
        "streetNameDisplayText": "FOLKSTONE CRES, KITCHENER"
      }
    ]
  },
  {
    "postal": "N2E1B1",
    "result": [
      {
        "electoralDistricts": [
          {
            "election": null,
            "id": 49,
            "name": "Kitchener South—Hespeler"
          }
        ],
        "pollDivisionIds": [
          10139287
        ],
        "postalCode": "N2E1B1",
        "streetName": "KINGSWOOD",
        "streetDirectionId": null,
        "streetTypeId": "DR",
        "placeName": "KITCHENER",
        "streetNameDisplayText": "KINGSWOOD DR, KITCHENER"
      }
    ]
  },
  {
    "postal": "N2E8B6",
    "result": []
  },
  {
    "postal": "N2E6H1",
    "result": []
  },
  {
    "postal": "N2E8T8",
    "result": []
  },
  {
    "postal": "N2E0T4",
    "result": []
  },
  {
    "postal": "N2E2C4",
    "result": [
      {
        "electoralDistricts": [
          {
            "election": null,
            "id": 49,
            "name": "Kitchener South—Hespeler"
          }
        ],
        "pollDivisionIds": [
          10139289
        ],
        "postalCode": "N2E2C4",
        "streetName": "TRILLIUM",
        "streetDirectionId": null,
        "streetTypeId": "DR",
        "placeName": "KITCHENER",
        "streetNameDisplayText": "TRILLIUM DR, KITCHENER"
      }
    ]
  },
  {
    "postal": "N2E8N3",
    "result": []
  },
  {
    "postal": "N2E4L8",
    "result": []
  },
  {
    "postal": "N2E2B5",
    "result": [
      {
        "electoralDistricts": [
          {
            "election": null,
            "id": 49,
            "name": "Kitchener South—Hespeler"
          }
        ],
        "pollDivisionIds": [
          10139286
        ],
        "postalCode": "N2E2B5",
        "streetName": "LAURENTIAN",
        "streetDirectionId": null,
        "streetTypeId": "DR",
        "placeName": "KITCHENER",
        "streetNameDisplayText": "LAURENTIAN DR, KITCHENER"
      }
    ]
  },
  {
    "postal": "N2E3H1",
    "result": [
      {
        "electoralDistricts": [
          {
            "election": null,
            "id": 49,
            "name": "Kitchener South—Hespeler"
          }
        ],
        "pollDivisionIds": [
          10139284
        ],
        "postalCode": "N2E3H1",
        "streetName": "WILLIAMSBURG",
        "streetDirectionId": null,
        "streetTypeId": "RD",
        "placeName": "KITCHENER",
        "streetNameDisplayText": "WILLIAMSBURG RD, KITCHENER"
      }
    ]
  },
  {
    "postal": "N2E4Y1",
    "result": []
  },
  {
    "postal": "N2E7E2",
    "result": []
  },
  {
    "postal": "N2E2P5",
    "result": [
      {
        "electoralDistricts": [
          {
            "election": null,
            "id": 49,
            "name": "Kitchener South—Hespeler"
          }
        ],
        "pollDivisionIds": [
          10139288
        ],
        "postalCode": "N2E2P5",
        "streetName": "COUNTRYSIDE",
        "streetDirectionId": null,
        "streetTypeId": "CRES",
        "placeName": "KITCHENER",
        "streetNameDisplayText": "COUNTRYSIDE CRES, KITCHENER"
      }
    ]
  },
  {
    "postal": "N2E8R7",
    "result": []
  },
  {
    "postal": "N2E9P1",
    "result": []
  },
  {
    "postal": "N2E3B8",
    "result": [
      {
        "electoralDistricts": [
          {
            "election": null,
            "id": 49,
            "name": "Kitchener South—Hespeler"
          }
        ],
        "pollDivisionIds": [
          10139285
        ],
        "postalCode": "N2E3B8",
        "streetName": "BONNYBANK",
        "streetDirectionId": null,
        "streetTypeId": "CRT",
        "placeName": "KITCHENER",
        "streetNameDisplayText": "BONNYBANK CRT, KITCHENER"
      },
      {
        "electoralDistricts": [
          {
            "election": null,
            "id": 49,
            "name": "Kitchener South—Hespeler"
          }
        ],
        "pollDivisionIds": [
          10139285
        ],
        "postalCode": "N2E3B8",
        "streetName": "ERINBROOK",
        "streetDirectionId": null,
        "streetTypeId": "DR",
        "placeName": "KITCHENER",
        "streetNameDisplayText": "ERINBROOK DR, KITCHENER"
      }
    ]
  },
  {
    "postal": "N2E3P7",
    "result": [
      {
        "electoralDistricts": [
          {
            "election": null,
            "id": 48,
            "name": "Kitchener—Conestoga"
          }
        ],
        "pollDivisionIds": [
          10139268
        ],
        "postalCode": "N2E3P7",
        "streetName": "BUSH CLOVER",
        "streetDirectionId": null,
        "streetTypeId": "CRES",
        "placeName": "KITCHENER",
        "streetNameDisplayText": "BUSH CLOVER CRES, KITCHENER"
      }
    ]
  },
  {
    "postal": "N2E9B2",
    "result": []
  },
  {
    "postal": "N2E6Z3",
    "result": []
  },
  {
    "postal": "N2E4N5",
    "result": []
  },
  {
    "postal": "N2E8T3",
    "result": []
  },
  {
    "postal": "N2E1V2",
    "result": [
      {
        "electoralDistricts": [
          {
            "election": null,
            "id": 49,
            "name": "Kitchener South—Hespeler"
          }
        ],
        "pollDivisionIds": [
          10139286
        ],
        "postalCode": "N2E1V2",
        "streetName": "CALMCREST",
        "streetDirectionId": null,
        "streetTypeId": "DR",
        "placeName": "KITCHENER",
        "streetNameDisplayText": "CALMCREST DR, KITCHENER"
      }
    ]
  },
  {
    "postal": "N2E1Y0",
    "result": []
  },
  {
    "postal": "N2E3G6",
    "result": [
      {
        "electoralDistricts": [
          {
            "election": null,
            "id": 49,
            "name": "Kitchener South—Hespeler"
          }
        ],
        "pollDivisionIds": [
          10139288
        ],
        "postalCode": "N2E3G6",
        "streetName": "RITTENHOUSE",
        "streetDirectionId": null,
        "streetTypeId": "RD",
        "placeName": "KITCHENER",
        "streetNameDisplayText": "RITTENHOUSE RD, KITCHENER"
      }
    ]
  },
  {
    "postal": "N2E3H7",
    "result": [
      {
        "electoralDistricts": [
          {
            "election": null,
            "id": 49,
            "name": "Kitchener South—Hespeler"
          }
        ],
        "pollDivisionIds": [
          10139284
        ],
        "postalCode": "N2E3H7",
        "streetName": "HOWE",
        "streetDirectionId": null,
        "streetTypeId": "DR",
        "placeName": "KITCHENER",
        "streetNameDisplayText": "HOWE DR, KITCHENER"
      }
    ]
  },
  {
    "postal": "N2E7X8",
    "result": []
  },
  {
    "postal": "N2E0C7",
    "result": [
      {
        "electoralDistricts": [
          {
            "election": null,
            "id": 48,
            "name": "Kitchener—Conestoga"
          }
        ],
        "pollDivisionIds": [
          10139258
        ],
        "postalCode": "N2E0C7",
        "streetName": "OTTAWA",
        "streetDirectionId": "S",
        "streetTypeId": "ST",
        "placeName": "KITCHENER",
        "streetNameDisplayText": "OTTAWA ST S, KITCHENER"
      }
    ]
  },
  {
    "postal": "N2E0W9",
    "result": []
  },
  {
    "postal": "N2E8E6",
    "result": []
  },
  {
    "postal": "N2E9Z8",
    "result": []
  },
  {
    "postal": "N2E3P4",
    "result": [
      {
        "electoralDistricts": [
          {
            "election": null,
            "id": 49,
            "name": "Kitchener South—Hespeler"
          }
        ],
        "pollDivisionIds": [
          10139284
        ],
        "postalCode": "N2E3P4",
        "streetName": "HIGHBROOK",
        "streetDirectionId": null,
        "streetTypeId": "CRT",
        "placeName": "KITCHENER",
        "streetNameDisplayText": "HIGHBROOK CRT, KITCHENER"
      },
      {
        "electoralDistricts": [
          {
            "election": null,
            "id": 49,
            "name": "Kitchener South—Hespeler"
          }
        ],
        "pollDivisionIds": [
          10139284
        ],
        "postalCode": "N2E3P4",
        "streetName": "HIGHBROOK",
        "streetDirectionId": null,
        "streetTypeId": "ST",
        "placeName": "KITCHENER",
        "streetNameDisplayText": "HIGHBROOK ST, KITCHENER"
      }
    ]
  },
  {
    "postal": "N2E6L8",
    "result": []
  },
  {
    "postal": "N2E2R4",
    "result": [
      {
        "electoralDistricts": [
          {
            "election": null,
            "id": 49,
            "name": "Kitchener South—Hespeler"
          }
        ],
        "pollDivisionIds": [
          10139285
        ],
        "postalCode": "N2E2R4",
        "streetName": "ROSEBANK",
        "streetDirectionId": null,
        "streetTypeId": "CRES",
        "placeName": "KITCHENER",
        "streetNameDisplayText": "ROSEBANK CRES, KITCHENER"
      }
    ]
  },
  {
    "postal": "N2E2W1",
    "result": [
      {
        "electoralDistricts": [
          {
            "election": null,
            "id": 49,
            "name": "Kitchener South—Hespeler"
          }
        ],
        "pollDivisionIds": [
          10139285
        ],
        "postalCode": "N2E2W1",
        "streetName": "ERINBROOK",
        "streetDirectionId": null,
        "streetTypeId": "DR",
        "placeName": "KITCHENER",
        "streetNameDisplayText": "ERINBROOK DR, KITCHENER"
      }
    ]
  },
  {
    "postal": "N2E9H8",
    "result": []
  },
  {
    "postal": "N2E8X9",
    "result": []
  },
  {
    "postal": "N2E7H4",
    "result": []
  },
  {
    "postal": "N2E3J1",
    "result": [
      {
        "electoralDistricts": [
          {
            "election": null,
            "id": 49,
            "name": "Kitchener South—Hespeler"
          }
        ],
        "pollDivisionIds": [
          10139284
        ],
        "postalCode": "N2E3J1",
        "streetName": "VALLEYVIEW",
        "streetDirectionId": null,
        "streetTypeId": "RD",
        "placeName": "KITCHENER",
        "streetNameDisplayText": "VALLEYVIEW RD, KITCHENER"
      }
    ]
  },
  {
    "postal": "N2E1P4",
    "result": [
      {
        "electoralDistricts": [
          {
            "election": null,
            "id": 49,
            "name": "Kitchener South—Hespeler"
          }
        ],
        "pollDivisionIds": [
          10139290
        ],
        "postalCode": "N2E1P4",
        "streetName": "COACH HILL",
        "streetDirectionId": null,
        "streetTypeId": "DR",
        "placeName": "KITCHENER",
        "streetNameDisplayText": "COACH HILL DR, KITCHENER"
      }
    ]
  },
  {
    "postal": "N2E2A3",
    "result": [
      {
        "electoralDistricts": [
          {
            "election": null,
            "id": 49,
            "name": "Kitchener South—Hespeler"
          }
        ],
        "pollDivisionIds": [
          10139290
        ],
        "postalCode": "N2E2A3",
        "streetName": "MARTINGLEN",
        "streetDirectionId": null,
        "streetTypeId": "CRES",
        "placeName": "KITCHENER",
        "streetNameDisplayText": "MARTINGLEN CRES, KITCHENER"
      }
    ]
  },
  {
    "postal": "N2E0Z1",
    "result": []
  },
  {
    "postal": "N2E1C1",
    "result": [
      {
        "electoralDistricts": [
          {
            "election": null,
            "id": 49,
            "name": "Kitchener South—Hespeler"
          }
        ],
        "pollDivisionIds": [
          10139286
        ],
        "postalCode": "N2E1C1",
        "streetName": "LAURENTIAN",
        "streetDirectionId": null,
        "streetTypeId": "DR",
        "placeName": "KITCHENER",
        "streetNameDisplayText": "LAURENTIAN DR, KITCHENER"
      }
    ]
  },
  {
    "postal": "N2E0H3",
    "result": [
      {
        "electoralDistricts": [
          {
            "election": null,
            "id": 49,
            "name": "Kitchener South—Hespeler"
          }
        ],
        "pollDivisionIds": [
          10139287
        ],
        "postalCode": "N2E0H3",
        "streetName": "KINGSWOOD",
        "streetDirectionId": null,
        "streetTypeId": "DR",
        "placeName": "KITCHENER",
        "streetNameDisplayText": "KINGSWOOD DR, KITCHENER"
      }
    ]
  },
  {
    "postal": "N2E7B0",
    "result": []
  },
  {
    "postal": "N2E5K2",
    "result": []
  },
  {
    "postal": "N2E1E9",
    "result": [
      {
        "electoralDistricts": [
          {
            "election": null,
            "id": 49,
            "name": "Kitchener South—Hespeler"
          }
        ],
        "pollDivisionIds": [
          10139287
        ],
        "postalCode": "N2E1E9",
        "streetName": "SHEA",
        "streetDirectionId": null,
        "streetTypeId": "CRES",
        "placeName": "KITCHENER",
        "streetNameDisplayText": "SHEA CRES, KITCHENER"
      }
    ]
  },
  {
    "postal": "N2E9W7",
    "result": []
  },
  {
    "postal": "N2E5W6",
    "result": []
  },
  {
    "postal": "N2E6S6",
    "result": []
  },
  {
    "postal": "N2E2P8",
    "result": [
      {
        "electoralDistricts": [
          {
            "election": null,
            "id": 49,
            "name": "Kitchener South—Hespeler"
          }
        ],
        "pollDivisionIds": [
          10139285
        ],
        "postalCode": "N2E2P8",
        "streetName": "UXBRIDGE",
        "streetDirectionId": null,
        "streetTypeId": "CRES",
        "placeName": "KITCHENER",
        "streetNameDisplayText": "UXBRIDGE CRES, KITCHENER"
      }
    ]
  },
  {
    "postal": "N2E4P8",
    "result": []
  },
  {
    "postal": "N2E0V9",
    "result": []
  },
  {
    "postal": "N2E5Y2",
    "result": []
  },
  {
    "postal": "N2E7Z7",
    "result": []
  },
  {
    "postal": "N2E6Y8",
    "result": []
  },
  {
    "postal": "N2E2G7",
    "result": [
      {
        "electoralDistricts": [
          {
            "election": null,
            "id": 49,
            "name": "Kitchener South—Hespeler"
          }
        ],
        "pollDivisionIds": [
          10139290
        ],
        "postalCode": "N2E2G7",
        "streetName": "COUNTRY HILL",
        "streetDirectionId": null,
        "streetTypeId": "DR",
        "placeName": "KITCHENER",
        "streetNameDisplayText": "COUNTRY HILL DR, KITCHENER"
      }
    ]
  },
  {
    "postal": "N2E8C1",
    "result": []
  },
  {
    "postal": "N2E5C5",
    "result": []
  },
  {
    "postal": "N2E2X8",
    "result": [
      {
        "electoralDistricts": [
          {
            "election": null,
            "id": 49,
            "name": "Kitchener South—Hespeler"
          }
        ],
        "pollDivisionIds": [
          10139285
        ],
        "postalCode": "N2E2X8",
        "streetName": "RITTENHOUSE",
        "streetDirectionId": null,
        "streetTypeId": "RD",
        "placeName": "KITCHENER",
        "streetNameDisplayText": "RITTENHOUSE RD, KITCHENER"
      }
    ]
  },
  {
    "postal": "N2E1W5",
    "result": [
      {
        "electoralDistricts": [
          {
            "election": null,
            "id": 49,
            "name": "Kitchener South—Hespeler"
          }
        ],
        "pollDivisionIds": [
          10139286
        ],
        "postalCode": "N2E1W5",
        "streetName": "DUNSMERE",
        "streetDirectionId": null,
        "streetTypeId": "DR",
        "placeName": "KITCHENER",
        "streetNameDisplayText": "DUNSMERE DR, KITCHENER"
      }
    ]
  },
  {
    "postal": "N2E7G0",
    "result": []
  },
  {
    "postal": "N2E8J8",
    "result": []
  },
  {
    "postal": "N2E3Y0",
    "result": []
  },
  {
    "postal": "N2E9T7",
    "result": []
  },
  {
    "postal": "N2E5P4",
    "result": []
  },
  {
    "postal": "N2E4B0",
    "result": []
  },
  {
    "postal": "N2E9N8",
    "result": []
  },
  {
    "postal": "N2E4A7",
    "result": [
      {
        "electoralDistricts": [
          {
            "election": null,
            "id": 48,
            "name": "Kitchener—Conestoga"
          }
        ],
        "pollDivisionIds": [
          10139270
        ],
        "postalCode": "N2E4A7",
        "streetName": "DUBRICK",
        "streetDirectionId": null,
        "streetTypeId": "CRES",
        "placeName": "KITCHENER",
        "streetNameDisplayText": "DUBRICK CRES, KITCHENER"
      },
      {
        "electoralDistricts": [
          {
            "election": null,
            "id": 48,
            "name": "Kitchener—Conestoga"
          }
        ],
        "pollDivisionIds": [
          10139270
        ],
        "postalCode": "N2E4A7",
        "streetName": "SWARTZ",
        "streetDirectionId": null,
        "streetTypeId": "ST",
        "placeName": "KITCHENER",
        "streetNameDisplayText": "SWARTZ ST, KITCHENER"
      }
    ]
  },
  {
    "postal": "N2E4H9",
    "result": [
      {
        "electoralDistricts": [
          {
            "election": null,
            "id": 48,
            "name": "Kitchener—Conestoga"
          }
        ],
        "pollDivisionIds": [
          10139270
        ],
        "postalCode": "N2E4H9",
        "streetName": "FISCHER HALLMAN",
        "streetDirectionId": null,
        "streetTypeId": "RD",
        "placeName": "KITCHENER",
        "streetNameDisplayText": "FISCHER HALLMAN RD, KITCHENER"
      }
    ]
  },
  {
    "postal": "N2E6X1",
    "result": []
  },
  {
    "postal": "N2E9Y7",
    "result": []
  },
  {
    "postal": "N2E2Y5",
    "result": [
      {
        "electoralDistricts": [
          {
            "election": null,
            "id": 49,
            "name": "Kitchener South—Hespeler"
          }
        ],
        "pollDivisionIds": [
          10139284
        ],
        "postalCode": "N2E2Y5",
        "streetName": "HOWE",
        "streetDirectionId": null,
        "streetTypeId": "DR",
        "placeName": "KITCHENER",
        "streetNameDisplayText": "HOWE DR, KITCHENER"
      }
    ]
  },
  {
    "postal": "N2E8L7",
    "result": []
  },
  {
    "postal": "N2E2A8",
    "result": [
      {
        "electoralDistricts": [
          {
            "election": null,
            "id": 49,
            "name": "Kitchener South—Hespeler"
          }
        ],
        "pollDivisionIds": [
          10139288
        ],
        "postalCode": "N2E2A8",
        "streetName": "DEVONGLEN",
        "streetDirectionId": null,
        "streetTypeId": "CRT",
        "placeName": "KITCHENER",
        "streetNameDisplayText": "DEVONGLEN CRT, KITCHENER"
      }
    ]
  },
  {
    "postal": "N2E2K9",
    "result": [
      {
        "electoralDistricts": [
          {
            "election": null,
            "id": 49,
            "name": "Kitchener South—Hespeler"
          }
        ],
        "pollDivisionIds": [
          10139290
        ],
        "postalCode": "N2E2K9",
        "streetName": "COUNTRY HILL",
        "streetDirectionId": null,
        "streetTypeId": "DR",
        "placeName": "KITCHENER",
        "streetNameDisplayText": "COUNTRY HILL DR, KITCHENER"
      }
    ]
  },
  {
    "postal": "N2E3E5",
    "result": [
      {
        "electoralDistricts": [
          {
            "election": null,
            "id": 49,
            "name": "Kitchener South—Hespeler"
          }
        ],
        "pollDivisionIds": [
          10139284
        ],
        "postalCode": "N2E3E5",
        "streetName": "WINDALE",
        "streetDirectionId": null,
        "streetTypeId": "CRES",
        "placeName": "KITCHENER",
        "streetNameDisplayText": "WINDALE CRES, KITCHENER"
      }
    ]
  },
  {
    "postal": "N2E8N6",
    "result": []
  },
  {
    "postal": "N2E8J4",
    "result": []
  },
  {
    "postal": "N2E4R7",
    "result": []
  },
  {
    "postal": "N2E9K1",
    "result": []
  },
  {
    "postal": "N2E8E1",
    "result": []
  },
  {
    "postal": "N2E0R1",
    "result": []
  },
  {
    "postal": "N2E4J3",
    "result": []
  },
  {
    "postal": "N2E7E7",
    "result": []
  },
  {
    "postal": "N2E0J0",
    "result": []
  },
  {
    "postal": "N2E7R8",
    "result": []
  },
  {
    "postal": "N2E9X0",
    "result": []
  },
  {
    "postal": "N2E7P6",
    "result": []
  },
  {
    "postal": "N2E0R7",
    "result": []
  },
  {
    "postal": "N2E5W1",
    "result": []
  },
  {
    "postal": "N2E0K4",
    "result": []
  },
  {
    "postal": "N2E7N9",
    "result": []
  },
  {
    "postal": "N2E1N0",
    "result": []
  },
  {
    "postal": "N2E6P3",
    "result": []
  },
  {
    "postal": "N2E5A1",
    "result": []
  },
  {
    "postal": "N2E9M9",
    "result": []
  },
  {
    "postal": "N2E7T6",
    "result": []
  },
  {
    "postal": "N2E3X0",
    "result": []
  },
  {
    "postal": "N2E2T0",
    "result": []
  },
  {
    "postal": "N2E5X9",
    "result": []
  },
  {
    "postal": "N2E2R3",
    "result": [
      {
        "electoralDistricts": [
          {
            "election": null,
            "id": 49,
            "name": "Kitchener South—Hespeler"
          }
        ],
        "pollDivisionIds": [
          10139285
        ],
        "postalCode": "N2E2R3",
        "streetName": "FAIRBANK",
        "streetDirectionId": null,
        "streetTypeId": "PL",
        "placeName": "KITCHENER",
        "streetNameDisplayText": "FAIRBANK PL, KITCHENER"
      }
    ]
  },
  {
    "postal": "N2E5N2",
    "result": []
  },
  {
    "postal": "N2E4Y7",
    "result": []
  },
  {
    "postal": "N2E7M0",
    "result": []
  },
  {
    "postal": "N2E8P3",
    "result": []
  },
  {
    "postal": "N2E3N3",
    "result": [
      {
        "electoralDistricts": [
          {
            "election": null,
            "id": 48,
            "name": "Kitchener—Conestoga"
          }
        ],
        "pollDivisionIds": [
          10139268
        ],
        "postalCode": "N2E3N3",
        "streetName": "ORCHID",
        "streetDirectionId": null,
        "streetTypeId": "CRES",
        "placeName": "KITCHENER",
        "streetNameDisplayText": "ORCHID CRES, KITCHENER"
      }
    ]
  },
  {
    "postal": "N2E7S3",
    "result": []
  },
  {
    "postal": "N2E3V9",
    "result": [
      {
        "electoralDistricts": [
          {
            "election": null,
            "id": 48,
            "name": "Kitchener—Conestoga"
          }
        ],
        "pollDivisionIds": [
          10139270
        ],
        "postalCode": "N2E3V9",
        "streetName": "COPPER LEAF",
        "streetDirectionId": null,
        "streetTypeId": "ST",
        "placeName": "KITCHENER",
        "streetNameDisplayText": "COPPER LEAF ST, KITCHENER"
      },
      {
        "electoralDistricts": [
          {
            "election": null,
            "id": 48,
            "name": "Kitchener—Conestoga"
          }
        ],
        "pollDivisionIds": [
          10139270
        ],
        "postalCode": "N2E3V9",
        "streetName": "LEMONBALM",
        "streetDirectionId": null,
        "streetTypeId": "ST",
        "placeName": "KITCHENER",
        "streetNameDisplayText": "LEMONBALM ST, KITCHENER"
      }
    ]
  },
  {
    "postal": "N2E9N7",
    "result": []
  },
  {
    "postal": "N2E0G4",
    "result": [
      {
        "electoralDistricts": [
          {
            "election": null,
            "id": 49,
            "name": "Kitchener South—Hespeler"
          }
        ],
        "pollDivisionIds": [
          10139284
        ],
        "postalCode": "N2E0G4",
        "streetName": "HOWE",
        "streetDirectionId": null,
        "streetTypeId": "DR",
        "placeName": "KITCHENER",
        "streetNameDisplayText": "HOWE DR, KITCHENER"
      }
    ]
  },
  {
    "postal": "N2E2E2",
    "result": [
      {
        "electoralDistricts": [
          {
            "election": null,
            "id": 49,
            "name": "Kitchener South—Hespeler"
          }
        ],
        "pollDivisionIds": [
          10139288
        ],
        "postalCode": "N2E2E2",
        "streetName": "CENTURY HILL",
        "streetDirectionId": null,
        "streetTypeId": "DR",
        "placeName": "KITCHENER",
        "streetNameDisplayText": "CENTURY HILL DR, KITCHENER"
      }
    ]
  },
  {
    "postal": "N2E7W8",
    "result": []
  },
  {
    "postal": "N2E7M5",
    "result": []
  },
  {
    "postal": "N2E5W8",
    "result": []
  },
  {
    "postal": "N2E5E5",
    "result": []
  },
  {
    "postal": "N2E1P9",
    "result": [
      {
        "electoralDistricts": [
          {
            "election": null,
            "id": 49,
            "name": "Kitchener South—Hespeler"
          }
        ],
        "pollDivisionIds": [
          10139290
        ],
        "postalCode": "N2E1P9",
        "streetName": "COACH HILL",
        "streetDirectionId": null,
        "streetTypeId": "DR",
        "placeName": "KITCHENER",
        "streetNameDisplayText": "COACH HILL DR, KITCHENER"
      }
    ]
  },
  {
    "postal": "N2E8V8",
    "result": []
  },
  {
    "postal": "N2E9G8",
    "result": []
  },
  {
    "postal": "N2E8H9",
    "result": []
  },
  {
    "postal": "N2E1Z1",
    "result": [
      {
        "electoralDistricts": [
          {
            "election": null,
            "id": 49,
            "name": "Kitchener South—Hespeler"
          }
        ],
        "pollDivisionIds": [
          10139286
        ],
        "postalCode": "N2E1Z1",
        "streetName": "BOSWORTH",
        "streetDirectionId": null,
        "streetTypeId": "CRES",
        "placeName": "KITCHENER",
        "streetNameDisplayText": "BOSWORTH CRES, KITCHENER"
      }
    ]
  },
  {
    "postal": "N2E8M3",
    "result": []
  },
  {
    "postal": "N2E5H6",
    "result": []
  },
  {
    "postal": "N2E7W7",
    "result": []
  },
  {
    "postal": "N2E4L0",
    "result": []
  },
  {
    "postal": "N2E2N1",
    "result": [
      {
        "electoralDistricts": [
          {
            "election": null,
            "id": 49,
            "name": "Kitchener South—Hespeler"
          }
        ],
        "pollDivisionIds": [
          10139290
        ],
        "postalCode": "N2E2N1",
        "streetName": "BLEAMS",
        "streetDirectionId": null,
        "streetTypeId": "RD",
        "placeName": "KITCHENER",
        "streetNameDisplayText": "BLEAMS RD, KITCHENER"
      }
    ]
  },
  {
    "postal": "N2E2H4",
    "result": [
      {
        "electoralDistricts": [
          {
            "election": null,
            "id": 49,
            "name": "Kitchener South—Hespeler"
          }
        ],
        "pollDivisionIds": [
          10139290
        ],
        "postalCode": "N2E2H4",
        "streetName": "CEDARHILL",
        "streetDirectionId": null,
        "streetTypeId": "CRES",
        "placeName": "KITCHENER",
        "streetNameDisplayText": "CEDARHILL CRES, KITCHENER"
      }
    ]
  },
  {
    "postal": "N2E5C8",
    "result": []
  },
  {
    "postal": "N2E8B0",
    "result": []
  },
  {
    "postal": "N2E1T4",
    "result": [
      {
        "electoralDistricts": [
          {
            "election": null,
            "id": 49,
            "name": "Kitchener South—Hespeler"
          }
        ],
        "pollDivisionIds": [
          10139286
        ],
        "postalCode": "N2E1T4",
        "streetName": "BLACKHORNE",
        "streetDirectionId": null,
        "streetTypeId": "DR",
        "placeName": "KITCHENER",
        "streetNameDisplayText": "BLACKHORNE DR, KITCHENER"
      }
    ]
  },
  {
    "postal": "N2E7N7",
    "result": []
  },
  {
    "postal": "N2E4L3",
    "result": [
      {
        "electoralDistricts": [
          {
            "election": null,
            "id": 48,
            "name": "Kitchener—Conestoga"
          }
        ],
        "pollDivisionIds": [
          10139270
        ],
        "postalCode": "N2E4L3",
        "streetName": "HARDING",
        "streetDirectionId": null,
        "streetTypeId": "ST",
        "placeName": "KITCHENER",
        "streetNameDisplayText": "HARDING ST, KITCHENER"
      },
      {
        "electoralDistricts": [
          {
            "election": null,
            "id": 48,
            "name": "Kitchener—Conestoga"
          }
        ],
        "pollDivisionIds": [
          10139270
        ],
        "postalCode": "N2E4L3",
        "streetName": "RIEHM",
        "streetDirectionId": null,
        "streetTypeId": "ST",
        "placeName": "KITCHENER",
        "streetNameDisplayText": "RIEHM ST, KITCHENER"
      }
    ]
  },
  {
    "postal": "N2E2N2",
    "result": [
      {
        "electoralDistricts": [
          {
            "election": null,
            "id": 49,
            "name": "Kitchener South—Hespeler"
          }
        ],
        "pollDivisionIds": [
          10139284
        ],
        "postalCode": "N2E2N2",
        "streetName": "WILLIAMSBURG",
        "streetDirectionId": null,
        "streetTypeId": "RD",
        "placeName": "KITCHENER",
        "streetNameDisplayText": "WILLIAMSBURG RD, KITCHENER"
      }
    ]
  },
  {
    "postal": "N2E4N8",
    "result": []
  },
  {
    "postal": "N2E3M5",
    "result": []
  },
  {
    "postal": "N2E6H7",
    "result": []
  },
  {
    "postal": "N2E8Y8",
    "result": []
  },
  {
    "postal": "N2E5R9",
    "result": []
  },
  {
    "postal": "N2E8G3",
    "result": []
  },
  {
    "postal": "N2E4N7",
    "result": []
  },
  {
    "postal": "N2E0B9",
    "result": [
      {
        "electoralDistricts": [
          {
            "election": null,
            "id": 48,
            "name": "Kitchener—Conestoga"
          }
        ],
        "pollDivisionIds": [
          10139258
        ],
        "postalCode": "N2E0B9",
        "streetName": "AUDREY",
        "streetDirectionId": null,
        "streetTypeId": "PL",
        "placeName": "KITCHENER",
        "streetNameDisplayText": "AUDREY PL, KITCHENER"
      },
      {
        "electoralDistricts": [
          {
            "election": null,
            "id": 48,
            "name": "Kitchener—Conestoga"
          }
        ],
        "pollDivisionIds": [
          10139258
        ],
        "postalCode": "N2E0B9",
        "streetName": "GRAVEL RIDGE",
        "streetDirectionId": null,
        "streetTypeId": "TRAIL",
        "placeName": "KITCHENER",
        "streetNameDisplayText": "GRAVEL RIDGE TRAIL, KITCHENER"
      },
      {
        "electoralDistricts": [
          {
            "election": null,
            "id": 48,
            "name": "Kitchener—Conestoga"
          }
        ],
        "pollDivisionIds": [
          10139258
        ],
        "postalCode": "N2E0B9",
        "streetName": "MELINDA",
        "streetDirectionId": null,
        "streetTypeId": "ST",
        "placeName": "KITCHENER",
        "streetNameDisplayText": "MELINDA ST, KITCHENER"
      }
    ]
  },
  {
    "postal": "N2E9K7",
    "result": []
  },
  {
    "postal": "N2E9K9",
    "result": []
  },
  {
    "postal": "N2E3Z2",
    "result": [
      {
        "electoralDistricts": [
          {
            "election": null,
            "id": 48,
            "name": "Kitchener—Conestoga"
          }
        ],
        "pollDivisionIds": [
          10139269
        ],
        "postalCode": "N2E3Z2",
        "streetName": "MAHOGANY",
        "streetDirectionId": null,
        "streetTypeId": "ST",
        "placeName": "KITCHENER",
        "streetNameDisplayText": "MAHOGANY ST, KITCHENER"
      },
      {
        "electoralDistricts": [
          {
            "election": null,
            "id": 48,
            "name": "Kitchener—Conestoga"
          }
        ],
        "pollDivisionIds": [
          10139269
        ],
        "postalCode": "N2E3Z2",
        "streetName": "PROSPERITY",
        "streetDirectionId": null,
        "streetTypeId": "DR",
        "placeName": "KITCHENER",
        "streetNameDisplayText": "PROSPERITY DR, KITCHENER"
      }
    ]
  },
  {
    "postal": "N2E6W7",
    "result": []
  },
  {
    "postal": "N2E0P1",
    "result": []
  },
  {
    "postal": "N2E3A0",
    "result": []
  },
  {
    "postal": "N2E8L9",
    "result": []
  },
  {
    "postal": "N2E6X0",
    "result": []
  },
  {
    "postal": "N2E3E9",
    "result": [
      {
        "electoralDistricts": [
          {
            "election": null,
            "id": 49,
            "name": "Kitchener South—Hespeler"
          }
        ],
        "pollDivisionIds": [
          10139288
        ],
        "postalCode": "N2E3E9",
        "streetName": "RITTENHOUSE",
        "streetDirectionId": null,
        "streetTypeId": "RD",
        "placeName": "KITCHENER",
        "streetNameDisplayText": "RITTENHOUSE RD, KITCHENER"
      }
    ]
  },
  {
    "postal": "N2E0S5",
    "result": []
  },
  {
    "postal": "N2E1A2",
    "result": [
      {
        "electoralDistricts": [
          {
            "election": null,
            "id": 49,
            "name": "Kitchener South—Hespeler"
          }
        ],
        "pollDivisionIds": [
          10139287
        ],
        "postalCode": "N2E1A2",
        "streetName": "FLINT",
        "streetDirectionId": null,
        "streetTypeId": "DR",
        "placeName": "KITCHENER",
        "streetNameDisplayText": "FLINT DR, KITCHENER"
      }
    ]
  },
  {
    "postal": "N2E5V8",
    "result": []
  },
  {
    "postal": "N2E8C5",
    "result": []
  },
  {
    "postal": "N2E6N0",
    "result": []
  },
  {
    "postal": "N2E9E6",
    "result": []
  },
  {
    "postal": "N2E5J7",
    "result": []
  },
  {
    "postal": "N2E2R2",
    "result": [
      {
        "electoralDistricts": [
          {
            "election": null,
            "id": 49,
            "name": "Kitchener South—Hespeler"
          }
        ],
        "pollDivisionIds": [
          10139290
        ],
        "postalCode": "N2E2R2",
        "streetName": "PRIMROSE",
        "streetDirectionId": null,
        "streetTypeId": "PATH",
        "placeName": "KITCHENER",
        "streetNameDisplayText": "PRIMROSE PATH, KITCHENER"
      }
    ]
  },
  {
    "postal": "N2E0P5",
    "result": []
  },
  {
    "postal": "N2E5A7",
    "result": []
  },
  {
    "postal": "N2E1G1",
    "result": [
      {
        "electoralDistricts": [
          {
            "election": null,
            "id": 49,
            "name": "Kitchener South—Hespeler"
          }
        ],
        "pollDivisionIds": [
          10139287
        ],
        "postalCode": "N2E1G1",
        "streetName": "HOWLAND",
        "streetDirectionId": null,
        "streetTypeId": "DR",
        "placeName": "KITCHENER",
        "streetNameDisplayText": "HOWLAND DR, KITCHENER"
      }
    ]
  },
  {
    "postal": "N2E9R6",
    "result": []
  },
  {
    "postal": "N2E4Z9",
    "result": []
  },
  {
    "postal": "N2E1V5",
    "result": [
      {
        "electoralDistricts": [
          {
            "election": null,
            "id": 49,
            "name": "Kitchener South—Hespeler"
          }
        ],
        "pollDivisionIds": [
          10139286
        ],
        "postalCode": "N2E1V5",
        "streetName": "DUNSMERE",
        "streetDirectionId": null,
        "streetTypeId": "CRT",
        "placeName": "KITCHENER",
        "streetNameDisplayText": "DUNSMERE CRT, KITCHENER"
      }
    ]
  },
  {
    "postal": "N2E9Y5",
    "result": []
  },
  {
    "postal": "N2E1P2",
    "result": [
      {
        "electoralDistricts": [
          {
            "election": null,
            "id": 49,
            "name": "Kitchener South—Hespeler"
          }
        ],
        "pollDivisionIds": [
          10139286
        ],
        "postalCode": "N2E1P2",
        "streetName": "STRASBURG",
        "streetDirectionId": null,
        "streetTypeId": "RD",
        "placeName": "KITCHENER",
        "streetNameDisplayText": "STRASBURG RD, KITCHENER"
      }
    ]
  },
  {
    "postal": "N2E5X0",
    "result": []
  },
  {
    "postal": "N2E7B8",
    "result": []
  },
  {
    "postal": "N2E0C6",
    "result": [
      {
        "electoralDistricts": [
          {
            "election": null,
            "id": 48,
            "name": "Kitchener—Conestoga"
          }
        ],
        "pollDivisionIds": [
          10139269
        ],
        "postalCode": "N2E0C6",
        "streetName": "OTTAWA",
        "streetDirectionId": "S",
        "streetTypeId": "ST",
        "placeName": "KITCHENER",
        "streetNameDisplayText": "OTTAWA ST S, KITCHENER"
      }
    ]
  },
  {
    "postal": "N2E6G1",
    "result": []
  },
  {
    "postal": "N2E3K3",
    "result": [
      {
        "electoralDistricts": [
          {
            "election": null,
            "id": 48,
            "name": "Kitchener—Conestoga"
          }
        ],
        "pollDivisionIds": [
          10139258
        ],
        "postalCode": "N2E3K3",
        "streetName": "OTTAWA",
        "streetDirectionId": "S",
        "streetTypeId": "ST",
        "placeName": "KITCHENER",
        "streetNameDisplayText": "OTTAWA ST S, KITCHENER"
      }
    ]
  },
  {
    "postal": "N2E9R0",
    "result": []
  },
  {
    "postal": "N2E4R8",
    "result": []
  },
  {
    "postal": "N2E5P9",
    "result": []
  },
  {
    "postal": "N2E8N4",
    "result": []
  },
  {
    "postal": "N2E8H4",
    "result": []
  },
  {
    "postal": "N2E4V1",
    "result": []
  },
  {
    "postal": "N2E1K5",
    "result": [
      {
        "electoralDistricts": [
          {
            "election": null,
            "id": 49,
            "name": "Kitchener South—Hespeler"
          }
        ],
        "pollDivisionIds": [
          10139284
        ],
        "postalCode": "N2E1K5",
        "streetName": "WILLIAMSBURG",
        "streetDirectionId": null,
        "streetTypeId": "RD",
        "placeName": "KITCHENER",
        "streetNameDisplayText": "WILLIAMSBURG RD, KITCHENER"
      }
    ]
  },
  {
    "postal": "N2E1Z5",
    "result": [
      {
        "electoralDistricts": [
          {
            "election": null,
            "id": 49,
            "name": "Kitchener South—Hespeler"
          }
        ],
        "pollDivisionIds": [
          10139286
        ],
        "postalCode": "N2E1Z5",
        "streetName": "RADCLIFFE",
        "streetDirectionId": null,
        "streetTypeId": "DR",
        "placeName": "KITCHENER",
        "streetNameDisplayText": "RADCLIFFE DR, KITCHENER"
      }
    ]
  },
  {
    "postal": "N2E9L9",
    "result": []
  },
  {
    "postal": "N2E5L2",
    "result": []
  },
  {
    "postal": "N2E0M2",
    "result": []
  },
  {
    "postal": "N2E1K8",
    "result": [
      {
        "electoralDistricts": [
          {
            "election": null,
            "id": 49,
            "name": "Kitchener South—Hespeler"
          }
        ],
        "pollDivisionIds": [
          10139284
        ],
        "postalCode": "N2E1K8",
        "streetName": "WILLIAMSBURG",
        "streetDirectionId": null,
        "streetTypeId": "RD",
        "placeName": "KITCHENER",
        "streetNameDisplayText": "WILLIAMSBURG RD, KITCHENER"
      }
    ]
  },
  {
    "postal": "N2E3M7",
    "result": [
      {
        "electoralDistricts": [
          {
            "election": null,
            "id": 49,
            "name": "Kitchener South—Hespeler"
          }
        ],
        "pollDivisionIds": [
          10139285
        ],
        "postalCode": "N2E3M7",
        "streetName": "JULIA",
        "streetDirectionId": null,
        "streetTypeId": "CRES",
        "placeName": "KITCHENER",
        "streetNameDisplayText": "JULIA CRES, KITCHENER"
      }
    ]
  },
  {
    "postal": "N2E1B2",
    "result": [
      {
        "electoralDistricts": [
          {
            "election": null,
            "id": 49,
            "name": "Kitchener South—Hespeler"
          }
        ],
        "pollDivisionIds": [
          10139287
        ],
        "postalCode": "N2E1B2",
        "streetName": "KINGSWOOD",
        "streetDirectionId": null,
        "streetTypeId": "DR",
        "placeName": "KITCHENER",
        "streetNameDisplayText": "KINGSWOOD DR, KITCHENER"
      }
    ]
  },
  {
    "postal": "N2E0H9",
    "result": []
  },
  {
    "postal": "N2E8M4",
    "result": []
  },
  {
    "postal": "N2E2M5",
    "result": [
      {
        "electoralDistricts": [
          {
            "election": null,
            "id": 49,
            "name": "Kitchener South—Hespeler"
          }
        ],
        "pollDivisionIds": [
          10139284
        ],
        "postalCode": "N2E2M5",
        "streetName": "LITTLEFIELD",
        "streetDirectionId": null,
        "streetTypeId": "CRES",
        "placeName": "KITCHENER",
        "streetNameDisplayText": "LITTLEFIELD CRES, KITCHENER"
      }
    ]
  },
  {
    "postal": "N2E0T9",
    "result": []
  },
  {
    "postal": "N2E3P1",
    "result": [
      {
        "electoralDistricts": [
          {
            "election": null,
            "id": 49,
            "name": "Kitchener South—Hespeler"
          }
        ],
        "pollDivisionIds": [
          10139284
        ],
        "postalCode": "N2E3P1",
        "streetName": "HIGHBROOK",
        "streetDirectionId": null,
        "streetTypeId": "ST",
        "placeName": "KITCHENER",
        "streetNameDisplayText": "HIGHBROOK ST, KITCHENER"
      }
    ]
  },
  {
    "postal": "N2E1R6",
    "result": [
      {
        "electoralDistricts": [
          {
            "election": null,
            "id": 49,
            "name": "Kitchener South—Hespeler"
          }
        ],
        "pollDivisionIds": [
          10139290
        ],
        "postalCode": "N2E1R6",
        "streetName": "COUNTRY HILL",
        "streetDirectionId": null,
        "streetTypeId": "DR",
        "placeName": "KITCHENER",
        "streetNameDisplayText": "COUNTRY HILL DR, KITCHENER"
      }
    ]
  },
  {
    "postal": "N2E9V5",
    "result": []
  },
  {
    "postal": "N2E9T0",
    "result": []
  },
  {
    "postal": "N2E0A9",
    "result": []
  },
  {
    "postal": "N2E1M3",
    "result": [
      {
        "electoralDistricts": [
          {
            "election": null,
            "id": 49,
            "name": "Kitchener South—Hespeler"
          }
        ],
        "pollDivisionIds": [
          10139286
        ],
        "postalCode": "N2E1M3",
        "streetName": "SELKIRK",
        "streetDirectionId": null,
        "streetTypeId": "CRT",
        "placeName": "KITCHENER",
        "streetNameDisplayText": "SELKIRK CRT, KITCHENER"
      }
    ]
  },
  {
    "postal": "N2E1W8",
    "result": [
      {
        "electoralDistricts": [
          {
            "election": null,
            "id": 49,
            "name": "Kitchener South—Hespeler"
          }
        ],
        "pollDivisionIds": [
          10139289
        ],
        "postalCode": "N2E1W8",
        "streetName": "TRILLIUM",
        "streetDirectionId": null,
        "streetTypeId": "DR",
        "placeName": "KITCHENER",
        "streetNameDisplayText": "TRILLIUM DR, KITCHENER"
      }
    ]
  },
  {
    "postal": "N2E9J1",
    "result": []
  },
  {
    "postal": "N2E8N5",
    "result": []
  },
  {
    "postal": "N2E5X1",
    "result": []
  },
  {
    "postal": "N2E6S2",
    "result": []
  },
  {
    "postal": "N2E2A2",
    "result": [
      {
        "electoralDistricts": [
          {
            "election": null,
            "id": 49,
            "name": "Kitchener South—Hespeler"
          }
        ],
        "pollDivisionIds": [
          10139290
        ],
        "postalCode": "N2E2A2",
        "streetName": "MARTINGLEN",
        "streetDirectionId": null,
        "streetTypeId": "CRES",
        "placeName": "KITCHENER",
        "streetNameDisplayText": "MARTINGLEN CRES, KITCHENER"
      }
    ]
  },
  {
    "postal": "N2E6A6",
    "result": []
  },
  {
    "postal": "N2E0S3",
    "result": []
  },
  {
    "postal": "N2E3E7",
    "result": [
      {
        "electoralDistricts": [
          {
            "election": null,
            "id": 49,
            "name": "Kitchener South—Hespeler"
          }
        ],
        "pollDivisionIds": [
          10139284
        ],
        "postalCode": "N2E3E7",
        "streetName": "VALLEYVIEW",
        "streetDirectionId": null,
        "streetTypeId": "RD",
        "placeName": "KITCHENER",
        "streetNameDisplayText": "VALLEYVIEW RD, KITCHENER"
      },
      {
        "electoralDistricts": [
          {
            "election": null,
            "id": 49,
            "name": "Kitchener South—Hespeler"
          }
        ],
        "pollDivisionIds": [
          10139284
        ],
        "postalCode": "N2E3E7",
        "streetName": "WINDALE",
        "streetDirectionId": null,
        "streetTypeId": "CRES",
        "placeName": "KITCHENER",
        "streetNameDisplayText": "WINDALE CRES, KITCHENER"
      }
    ]
  },
  {
    "postal": "N2E5R7",
    "result": []
  },
  {
    "postal": "N2E3R6",
    "result": [
      {
        "electoralDistricts": [
          {
            "election": null,
            "id": 48,
            "name": "Kitchener—Conestoga"
          }
        ],
        "pollDivisionIds": [
          10139268
        ],
        "postalCode": "N2E3R6",
        "streetName": "MOUNTAIN MINT",
        "streetDirectionId": null,
        "streetTypeId": "CRES",
        "placeName": "KITCHENER",
        "streetNameDisplayText": "MOUNTAIN MINT CRES, KITCHENER"
      },
      {
        "electoralDistricts": [
          {
            "election": null,
            "id": 48,
            "name": "Kitchener—Conestoga"
          }
        ],
        "pollDivisionIds": [
          10139268
        ],
        "postalCode": "N2E3R6",
        "streetName": "WILDERNESS",
        "streetDirectionId": null,
        "streetTypeId": "DR",
        "placeName": "KITCHENER",
        "streetNameDisplayText": "WILDERNESS DR, KITCHENER"
      }
    ]
  },
  {
    "postal": "N2E6K4",
    "result": []
  },
  {
    "postal": "N2E2W5",
    "result": [
      {
        "electoralDistricts": [
          {
            "election": null,
            "id": 49,
            "name": "Kitchener South—Hespeler"
          }
        ],
        "pollDivisionIds": [
          10139288
        ],
        "postalCode": "N2E2W5",
        "streetName": "SUTTON",
        "streetDirectionId": null,
        "streetTypeId": "PL",
        "placeName": "KITCHENER",
        "streetNameDisplayText": "SUTTON PL, KITCHENER"
      }
    ]
  },
  {
    "postal": "N2E8W4",
    "result": []
  },
  {
    "postal": "N2E9C2",
    "result": []
  },
  {
    "postal": "N2E2C0",
    "result": []
  },
  {
    "postal": "N2E0E1",
    "result": [
      {
        "electoralDistricts": [
          {
            "election": null,
            "id": 48,
            "name": "Kitchener—Conestoga"
          }
        ],
        "pollDivisionIds": [
          10139269
        ],
        "postalCode": "N2E0E1",
        "streetName": "FOXGLOVE",
        "streetDirectionId": null,
        "streetTypeId": "CRES",
        "placeName": "KITCHENER",
        "streetNameDisplayText": "FOXGLOVE CRES, KITCHENER"
      }
    ]
  },
  {
    "postal": "N2E1K9",
    "result": [
      {
        "electoralDistricts": [
          {
            "election": null,
            "id": 49,
            "name": "Kitchener South—Hespeler"
          }
        ],
        "pollDivisionIds": [
          10139284
        ],
        "postalCode": "N2E1K9",
        "streetName": "PINEDALE",
        "streetDirectionId": null,
        "streetTypeId": "CRT",
        "placeName": "KITCHENER",
        "streetNameDisplayText": "PINEDALE CRT, KITCHENER"
      }
    ]
  },
  {
    "postal": "N2E1G7",
    "result": [
      {
        "electoralDistricts": [
          {
            "election": null,
            "id": 49,
            "name": "Kitchener South—Hespeler"
          }
        ],
        "pollDivisionIds": [
          10139287
        ],
        "postalCode": "N2E1G7",
        "streetName": "CHANDLER",
        "streetDirectionId": null,
        "streetTypeId": "DR",
        "placeName": "KICHENER",
        "streetNameDisplayText": "CHANDLER DR, KICHENER"
      },
      {
        "electoralDistricts": [
          {
            "election": null,
            "id": 49,
            "name": "Kitchener South—Hespeler"
          }
        ],
        "pollDivisionIds": [
          10139287
        ],
        "postalCode": "N2E1G7",
        "streetName": "CHANDLER",
        "streetDirectionId": null,
        "streetTypeId": "DR",
        "placeName": "KITCHENER",
        "streetNameDisplayText": "CHANDLER DR, KITCHENER"
      }
    ]
  },
  {
    "postal": "N2E4E9",
    "result": [
      {
        "electoralDistricts": [
          {
            "election": null,
            "id": 48,
            "name": "Kitchener—Conestoga"
          }
        ],
        "pollDivisionIds": [
          10139268
        ],
        "postalCode": "N2E4E9",
        "streetName": "FISCHER HALLMAN",
        "streetDirectionId": null,
        "streetTypeId": "RD",
        "placeName": "KITCHENER",
        "streetNameDisplayText": "FISCHER HALLMAN RD, KITCHENER"
      },
      {
        "electoralDistricts": [
          {
            "election": null,
            "id": 48,
            "name": "Kitchener—Conestoga"
          }
        ],
        "pollDivisionIds": [
          10139268
        ],
        "postalCode": "N2E4E9",
        "streetName": "FISCHER-HALLMAN",
        "streetDirectionId": null,
        "streetTypeId": "RD",
        "placeName": "KITCHENER",
        "streetNameDisplayText": "FISCHER-HALLMAN RD, KITCHENER"
      }
    ]
  },
  {
    "postal": "N2E9P0",
    "result": []
  },
  {
    "postal": "N2E5H3",
    "result": []
  },
  {
    "postal": "N2E9X6",
    "result": []
  },
  {
    "postal": "N2E5N7",
    "result": []
  },
  {
    "postal": "N2E5A6",
    "result": []
  },
  {
    "postal": "N2E4M0",
    "result": []
  },
  {
    "postal": "N2E3V6",
    "result": [
      {
        "electoralDistricts": [
          {
            "election": null,
            "id": 48,
            "name": "Kitchener—Conestoga"
          }
        ],
        "pollDivisionIds": [
          10139270
        ],
        "postalCode": "N2E3V6",
        "streetName": "BRIDLEWREATH",
        "streetDirectionId": null,
        "streetTypeId": "CRT",
        "placeName": "KITCHENER",
        "streetNameDisplayText": "BRIDLEWREATH CRT, KITCHENER"
      },
      {
        "electoralDistricts": [
          {
            "election": null,
            "id": 48,
            "name": "Kitchener—Conestoga"
          }
        ],
        "pollDivisionIds": [
          10139268,
          10139269
        ],
        "postalCode": "N2E3V6",
        "streetName": "BRIDLEWREATH",
        "streetDirectionId": null,
        "streetTypeId": "ST",
        "placeName": "KITCHENER",
        "streetNameDisplayText": "BRIDLEWREATH ST, KITCHENER"
      }
    ]
  },
  {
    "postal": "N2E1L7",
    "result": [
      {
        "electoralDistricts": [
          {
            "election": null,
            "id": 49,
            "name": "Kitchener South—Hespeler"
          }
        ],
        "pollDivisionIds": [
          10139284
        ],
        "postalCode": "N2E1L7",
        "streetName": "FISCHER HALLMAN",
        "streetDirectionId": null,
        "streetTypeId": "RD",
        "placeName": "KITCHENER",
        "streetNameDisplayText": "FISCHER HALLMAN RD, KITCHENER"
      }
    ]
  },
  {
    "postal": "N2E2P9",
    "result": [
      {
        "electoralDistricts": [
          {
            "election": null,
            "id": 49,
            "name": "Kitchener South—Hespeler"
          }
        ],
        "pollDivisionIds": [
          10139288
        ],
        "postalCode": "N2E2P9",
        "streetName": "THE COUNTRY",
        "streetDirectionId": null,
        "streetTypeId": "WAY",
        "placeName": "KITCHENER",
        "streetNameDisplayText": "THE COUNTRY WAY, KITCHENER"
      }
    ]
  },
  {
    "postal": "N2E5T4",
    "result": []
  },
  {
    "postal": "N2E5Z1",
    "result": []
  },
  {
    "postal": "N2E2X0",
    "result": []
  },
  {
    "postal": "N2E6Z2",
    "result": []
  },
  {
    "postal": "N2E0E0",
    "result": []
  },
  {
    "postal": "N2E3Z5",
    "result": [
      {
        "electoralDistricts": [
          {
            "election": null,
            "id": 49,
            "name": "Kitchener South—Hespeler"
          }
        ],
        "pollDivisionIds": [
          10139289
        ],
        "postalCode": "N2E3Z5",
        "streetName": "BLEAMS",
        "streetDirectionId": null,
        "streetTypeId": "RD",
        "placeName": "KITCHENER",
        "streetNameDisplayText": "BLEAMS RD, KITCHENER"
      }
    ]
  },
  {
    "postal": "N2E8H3",
    "result": []
  },
  {
    "postal": "N2E7S6",
    "result": []
  },
  {
    "postal": "N2E4C1",
    "result": [
      {
        "electoralDistricts": [
          {
            "election": null,
            "id": 48,
            "name": "Kitchener—Conestoga"
          }
        ],
        "pollDivisionIds": [
          10139269
        ],
        "postalCode": "N2E4C1",
        "streetName": "ACTIVA",
        "streetDirectionId": null,
        "streetTypeId": "AVE",
        "placeName": "KITCHENER",
        "streetNameDisplayText": "ACTIVA AVE, KITCHENER"
      },
      {
        "electoralDistricts": [
          {
            "election": null,
            "id": 48,
            "name": "Kitchener—Conestoga"
          }
        ],
        "pollDivisionIds": [
          10139269
        ],
        "postalCode": "N2E4C1",
        "streetName": "SNOWDROP",
        "streetDirectionId": null,
        "streetTypeId": "CRES",
        "placeName": "KITCHENER",
        "streetNameDisplayText": "SNOWDROP CRES, KITCHENER"
      }
    ]
  },
  {
    "postal": "N2E3K2",
    "result": []
  },
  {
    "postal": "N2E1Y5",
    "result": [
      {
        "electoralDistricts": [
          {
            "election": null,
            "id": 49,
            "name": "Kitchener South—Hespeler"
          }
        ],
        "pollDivisionIds": [
          10139286
        ],
        "postalCode": "N2E1Y5",
        "streetName": "RADCLIFFE",
        "streetDirectionId": null,
        "streetTypeId": "DR",
        "placeName": "KITCHENER",
        "streetNameDisplayText": "RADCLIFFE DR, KITCHENER"
      }
    ]
  },
  {
    "postal": "N2E6P6",
    "result": []
  },
  {
    "postal": "N2E3N9",
    "result": [
      {
        "electoralDistricts": [
          {
            "election": null,
            "id": 49,
            "name": "Kitchener South—Hespeler"
          }
        ],
        "pollDivisionIds": [
          10139284
        ],
        "postalCode": "N2E3N9",
        "streetName": "HIGHBROOK",
        "streetDirectionId": null,
        "streetTypeId": "ST",
        "placeName": "KITCHENER",
        "streetNameDisplayText": "HIGHBROOK ST, KITCHENER"
      }
    ]
  },
  {
    "postal": "N2E3W2",
    "result": [
      {
        "electoralDistricts": [
          {
            "election": null,
            "id": 48,
            "name": "Kitchener—Conestoga"
          }
        ],
        "pollDivisionIds": [
          10139270
        ],
        "postalCode": "N2E3W2",
        "streetName": "MAX BECKER",
        "streetDirectionId": null,
        "streetTypeId": "DR",
        "placeName": "KITCHENER",
        "streetNameDisplayText": "MAX BECKER DR, KITCHENER"
      }
    ]
  },
  {
    "postal": "N2E6H8",
    "result": []
  },
  {
    "postal": "N2E9T3",
    "result": []
  },
  {
    "postal": "N2E5L9",
    "result": []
  },
  {
    "postal": "N2E7X7",
    "result": []
  },
  {
    "postal": "N2E3J5",
    "result": [
      {
        "electoralDistricts": [
          {
            "election": null,
            "id": 49,
            "name": "Kitchener South—Hespeler"
          }
        ],
        "pollDivisionIds": [
          10139287
        ],
        "postalCode": "N2E3J5",
        "streetName": "KINGSWOOD",
        "streetDirectionId": null,
        "streetTypeId": "DR",
        "placeName": "KITCHENER",
        "streetNameDisplayText": "KINGSWOOD DR, KITCHENER"
      }
    ]
  },
  {
    "postal": "N2E4J5",
    "result": [
      {
        "electoralDistricts": [
          {
            "election": null,
            "id": 48,
            "name": "Kitchener—Conestoga"
          }
        ],
        "pollDivisionIds": [
          10139269,
          10139258
        ],
        "postalCode": "N2E4J5",
        "streetName": "RED CLOVER",
        "streetDirectionId": null,
        "streetTypeId": "CRT",
        "placeName": "KITCHENER",
        "streetNameDisplayText": "RED CLOVER CRT, KITCHENER"
      }
    ]
  },
  {
    "postal": "N2E6J2",
    "result": []
  },
  {
    "postal": "N2E5V6",
    "result": []
  },
  {
    "postal": "N2E3N2",
    "result": [
      {
        "electoralDistricts": [
          {
            "election": null,
            "id": 48,
            "name": "Kitchener—Conestoga"
          }
        ],
        "pollDivisionIds": [
          10139268
        ],
        "postalCode": "N2E3N2",
        "streetName": "GREY FOX",
        "streetDirectionId": null,
        "streetTypeId": "DR",
        "placeName": "KITCHENER",
        "streetNameDisplayText": "GREY FOX DR, KITCHENER"
      },
      {
        "electoralDistricts": [
          {
            "election": null,
            "id": 48,
            "name": "Kitchener—Conestoga"
          }
        ],
        "pollDivisionIds": [
          10139268
        ],
        "postalCode": "N2E3N2",
        "streetName": "ORCHID",
        "streetDirectionId": null,
        "streetTypeId": "CRES",
        "placeName": "KITCHENER",
        "streetNameDisplayText": "ORCHID CRES, KITCHENER"
      }
    ]
  },
  {
    "postal": "N2E3B1",
    "result": [
      {
        "electoralDistricts": [
          {
            "election": null,
            "id": 49,
            "name": "Kitchener South—Hespeler"
          }
        ],
        "pollDivisionIds": [
          10139284
        ],
        "postalCode": "N2E3B1",
        "streetName": "RISTAU",
        "streetDirectionId": null,
        "streetTypeId": "CRES",
        "placeName": "KITCHENER",
        "streetNameDisplayText": "RISTAU CRES, KITCHENER"
      },
      {
        "electoralDistricts": [
          {
            "election": null,
            "id": 49,
            "name": "Kitchener South—Hespeler"
          }
        ],
        "pollDivisionIds": [
          10139284
        ],
        "postalCode": "N2E3B1",
        "streetName": "RISTAU",
        "streetDirectionId": null,
        "streetTypeId": "PL",
        "placeName": "KITCHENER",
        "streetNameDisplayText": "RISTAU PL, KITCHENER"
      }
    ]
  },
  {
    "postal": "N2E8B5",
    "result": []
  },
  {
    "postal": "N2E0K1",
    "result": []
  },
  {
    "postal": "N2E7M7",
    "result": []
  },
  {
    "postal": "N2E2M2",
    "result": [
      {
        "electoralDistricts": [
          {
            "election": null,
            "id": 49,
            "name": "Kitchener South—Hespeler"
          }
        ],
        "pollDivisionIds": [
          10139288
        ],
        "postalCode": "N2E2M2",
        "streetName": "STRASBURG",
        "streetDirectionId": null,
        "streetTypeId": "RD",
        "placeName": "KITCHENER",
        "streetNameDisplayText": "STRASBURG RD, KITCHENER"
      }
    ]
  },
  {
    "postal": "N2E9N3",
    "result": []
  },
  {
    "postal": "N2E4Y8",
    "result": []
  },
  {
    "postal": "N2E3V7",
    "result": [
      {
        "electoralDistricts": [
          {
            "election": null,
            "id": 48,
            "name": "Kitchener—Conestoga"
          }
        ],
        "pollDivisionIds": [
          10139269
        ],
        "postalCode": "N2E3V7",
        "streetName": "MAX BECKER",
        "streetDirectionId": null,
        "streetTypeId": "DR",
        "placeName": "KITCHENER",
        "streetNameDisplayText": "MAX BECKER DR, KITCHENER"
      }
    ]
  },
  {
    "postal": "N2E8Z1",
    "result": []
  },
  {
    "postal": "N2E7B3",
    "result": []
  },
  {
    "postal": "N2E3A8",
    "result": [
      {
        "electoralDistricts": [
          {
            "election": null,
            "id": 49,
            "name": "Kitchener South—Hespeler"
          }
        ],
        "pollDivisionIds": [
          10139284
        ],
        "postalCode": "N2E3A8",
        "streetName": "RISTAU",
        "streetDirectionId": null,
        "streetTypeId": "CRES",
        "placeName": "KITCHENER",
        "streetNameDisplayText": "RISTAU CRES, KITCHENER"
      }
    ]
  },
  {
    "postal": "N2E7V5",
    "result": []
  },
  {
    "postal": "N2E2T2",
    "result": [
      {
        "electoralDistricts": [
          {
            "election": null,
            "id": 49,
            "name": "Kitchener South—Hespeler"
          }
        ],
        "pollDivisionIds": [
          10139285
        ],
        "postalCode": "N2E2T2",
        "streetName": "SPRING HILL",
        "streetDirectionId": null,
        "streetTypeId": "PL",
        "placeName": "KITCHENER",
        "streetNameDisplayText": "SPRING HILL PL, KITCHENER"
      }
    ]
  },
  {
    "postal": "N2E6L3",
    "result": []
  },
  {
    "postal": "N2E0L2",
    "result": []
  },
  {
    "postal": "N2E5Y8",
    "result": []
  },
  {
    "postal": "N2E0B8",
    "result": [
      {
        "electoralDistricts": [
          {
            "election": null,
            "id": 48,
            "name": "Kitchener—Conestoga"
          }
        ],
        "pollDivisionIds": [
          10139258
        ],
        "postalCode": "N2E0B8",
        "streetName": "GRAVEL RIDGE",
        "streetDirectionId": null,
        "streetTypeId": "TRAIL",
        "placeName": "KITCHENER",
        "streetNameDisplayText": "GRAVEL RIDGE TRAIL, KITCHENER"
      },
      {
        "electoralDistricts": [
          {
            "election": null,
            "id": 48,
            "name": "Kitchener—Conestoga"
          }
        ],
        "pollDivisionIds": [
          10139258
        ],
        "postalCode": "N2E0B8",
        "streetName": "MELINDA",
        "streetDirectionId": null,
        "streetTypeId": "ST",
        "placeName": "KITCHENER",
        "streetNameDisplayText": "MELINDA ST, KITCHENER"
      }
    ]
  },
  {
    "postal": "N2E6R5",
    "result": []
  },
  {
    "postal": "N2E8W6",
    "result": []
  },
  {
    "postal": "N2E8G6",
    "result": []
  },
  {
    "postal": "N2E6X3",
    "result": []
  },
  {
    "postal": "N2E7R7",
    "result": []
  },
  {
    "postal": "N2E4B6",
    "result": [
      {
        "electoralDistricts": [
          {
            "election": null,
            "id": 48,
            "name": "Kitchener—Conestoga"
          }
        ],
        "pollDivisionIds": [
          10139270,
          10139269
        ],
        "postalCode": "N2E4B6",
        "streetName": "MOUNTAIN LAUREL",
        "streetDirectionId": null,
        "streetTypeId": "CRES",
        "placeName": "KITCHENER",
        "streetNameDisplayText": "MOUNTAIN LAUREL CRES, KITCHENER"
      }
    ]
  },
  {
    "postal": "N2E3P9",
    "result": [
      {
        "electoralDistricts": [
          {
            "election": null,
            "id": 48,
            "name": "Kitchener—Conestoga"
          }
        ],
        "pollDivisionIds": [
          10139268
        ],
        "postalCode": "N2E3P9",
        "streetName": "BUSH CLOVER",
        "streetDirectionId": null,
        "streetTypeId": "CRES",
        "placeName": "KITCHENER",
        "streetNameDisplayText": "BUSH CLOVER CRES, KITCHENER"
      },
      {
        "electoralDistricts": [
          {
            "election": null,
            "id": 48,
            "name": "Kitchener—Conestoga"
          }
        ],
        "pollDivisionIds": [
          10139268
        ],
        "postalCode": "N2E3P9",
        "streetName": "HACKBERRY",
        "streetDirectionId": null,
        "streetTypeId": "ST",
        "placeName": "KITCHENER",
        "streetNameDisplayText": "HACKBERRY ST, KITCHENER"
      }
    ]
  },
  {
    "postal": "N2E2T3",
    "result": [
      {
        "electoralDistricts": [
          {
            "election": null,
            "id": 49,
            "name": "Kitchener South—Hespeler"
          }
        ],
        "pollDivisionIds": [
          10139285
        ],
        "postalCode": "N2E2T3",
        "streetName": "THE COUNTRY",
        "streetDirectionId": null,
        "streetTypeId": "WAY",
        "placeName": "KITCHENER",
        "streetNameDisplayText": "THE COUNTRY WAY, KITCHENER"
      }
    ]
  },
  {
    "postal": "N2E1M4",
    "result": [
      {
        "electoralDistricts": [
          {
            "election": null,
            "id": 49,
            "name": "Kitchener South—Hespeler"
          }
        ],
        "pollDivisionIds": [
          10139286
        ],
        "postalCode": "N2E1M4",
        "streetName": "SELKIRK",
        "streetDirectionId": null,
        "streetTypeId": "DR",
        "placeName": "KITCHENER",
        "streetNameDisplayText": "SELKIRK DR, KITCHENER"
      }
    ]
  },
  {
    "postal": "N2E0H1",
    "result": []
  },
  {
    "postal": "N2E9W3",
    "result": []
  },
  {
    "postal": "N2E6P1",
    "result": []
  },
  {
    "postal": "N2E7G2",
    "result": []
  },
  {
    "postal": "N2E4J9",
    "result": [
      {
        "electoralDistricts": [
          {
            "election": null,
            "id": 48,
            "name": "Kitchener—Conestoga"
          }
        ],
        "pollDivisionIds": [
          10139270
        ],
        "postalCode": "N2E4J9",
        "streetName": "COMMONWEALTH",
        "streetDirectionId": null,
        "streetTypeId": "CRES",
        "placeName": "KITCHENER",
        "streetNameDisplayText": "COMMONWEALTH CRES, KITCHENER"
      },
      {
        "electoralDistricts": [
          {
            "election": null,
            "id": 48,
            "name": "Kitchener—Conestoga"
          }
        ],
        "pollDivisionIds": [
          10139270
        ],
        "postalCode": "N2E4J9",
        "streetName": "ISABELLA",
        "streetDirectionId": null,
        "streetTypeId": "ST",
        "placeName": "KITCHENER",
        "streetNameDisplayText": "ISABELLA ST, KITCHENER"
      }
    ]
  },
  {
    "postal": "N2E9E4",
    "result": []
  },
  {
    "postal": "N2E8H0",
    "result": []
  },
  {
    "postal": "N2E4M7",
    "result": []
  },
  {
    "postal": "N2E2G9",
    "result": [
      {
        "electoralDistricts": [
          {
            "election": null,
            "id": 49,
            "name": "Kitchener South—Hespeler"
          }
        ],
        "pollDivisionIds": [
          10139286
        ],
        "postalCode": "N2E2G9",
        "streetName": "STRASBURG",
        "streetDirectionId": null,
        "streetTypeId": "RD",
        "placeName": "KITCHENER",
        "streetNameDisplayText": "STRASBURG RD, KITCHENER"
      }
    ]
  },
  {
    "postal": "N2E8T2",
    "result": []
  },
  {
    "postal": "N2E7G7",
    "result": []
  },
  {
    "postal": "N2E4Z3",
    "result": []
  },
  {
    "postal": "N2E5B3",
    "result": []
  },
  {
    "postal": "N2E1S7",
    "result": [
      {
        "electoralDistricts": [
          {
            "election": null,
            "id": 49,
            "name": "Kitchener South—Hespeler"
          }
        ],
        "pollDivisionIds": [
          10139284
        ],
        "postalCode": "N2E1S7",
        "streetName": "WILKINS",
        "streetDirectionId": null,
        "streetTypeId": "DR",
        "placeName": "KITCHENER",
        "streetNameDisplayText": "WILKINS DR, KITCHENER"
      }
    ]
  },
  {
    "postal": "N2E2N7",
    "result": [
      {
        "electoralDistricts": [
          {
            "election": null,
            "id": 49,
            "name": "Kitchener South—Hespeler"
          }
        ],
        "pollDivisionIds": [
          10139287
        ],
        "postalCode": "N2E2N7",
        "streetName": "OTTAWA",
        "streetDirectionId": "S",
        "streetTypeId": "ST",
        "placeName": "KITCHENER",
        "streetNameDisplayText": "OTTAWA ST S, KITCHENER"
      }
    ]
  },
  {
    "postal": "N2E0H8",
    "result": []
  },
  {
    "postal": "N2E7Z4",
    "result": []
  },
  {
    "postal": "N2E7B1",
    "result": []
  },
  {
    "postal": "N2E7P8",
    "result": []
  },
  {
    "postal": "N2E7N0",
    "result": []
  },
  {
    "postal": "N2E3Y5",
    "result": [
      {
        "electoralDistricts": [
          {
            "election": null,
            "id": 48,
            "name": "Kitchener—Conestoga"
          }
        ],
        "pollDivisionIds": [
          10139269
        ],
        "postalCode": "N2E3Y5",
        "streetName": "EVERGLADE",
        "streetDirectionId": null,
        "streetTypeId": "CRES",
        "placeName": "KITCHENER",
        "streetNameDisplayText": "EVERGLADE CRES, KITCHENER"
      }
    ]
  },
  {
    "postal": "N2E6K1",
    "result": []
  },
  {
    "postal": "N2E9X5",
    "result": []
  },
  {
    "postal": "N2E7S5",
    "result": []
  },
  {
    "postal": "N2E0A4",
    "result": [
      {
        "electoralDistricts": [
          {
            "election": null,
            "id": 49,
            "name": "Kitchener South—Hespeler"
          }
        ],
        "pollDivisionIds": [
          10139284
        ],
        "postalCode": "N2E0A4",
        "streetName": "WINDALE",
        "streetDirectionId": null,
        "streetTypeId": "CRES",
        "placeName": "KITCHENER",
        "streetNameDisplayText": "WINDALE CRES, KITCHENER"
      }
    ]
  },
  {
    "postal": "N2E4T5",
    "result": []
  },
  {
    "postal": "N2E5K1",
    "result": []
  },
  {
    "postal": "N2E0Z9",
    "result": []
  },
  {
    "postal": "N2E7T2",
    "result": []
  },
  {
    "postal": "N2E1L5",
    "result": [
      {
        "electoralDistricts": [
          {
            "election": null,
            "id": 49,
            "name": "Kitchener South—Hespeler"
          }
        ],
        "pollDivisionIds": [
          10139284
        ],
        "postalCode": "N2E1L5",
        "streetName": "VALLEYVIEW",
        "streetDirectionId": null,
        "streetTypeId": "RD",
        "placeName": "KITCHENER",
        "streetNameDisplayText": "VALLEYVIEW RD, KITCHENER"
      }
    ]
  },
  {
    "postal": "N2E3N5",
    "result": [
      {
        "electoralDistricts": [
          {
            "election": null,
            "id": 48,
            "name": "Kitchener—Conestoga"
          }
        ],
        "pollDivisionIds": [
          10139268
        ],
        "postalCode": "N2E3N5",
        "streetName": "GREY FOX",
        "streetDirectionId": null,
        "streetTypeId": "DR",
        "placeName": "KITCHENER",
        "streetNameDisplayText": "GREY FOX DR, KITCHENER"
      },
      {
        "electoralDistricts": [
          {
            "election": null,
            "id": 48,
            "name": "Kitchener—Conestoga"
          }
        ],
        "pollDivisionIds": [
          10139268
        ],
        "postalCode": "N2E3N5",
        "streetName": "QUEEN CHARLOTTE",
        "streetDirectionId": null,
        "streetTypeId": "CRES",
        "placeName": "KITCHENER",
        "streetNameDisplayText": "QUEEN CHARLOTTE CRES, KITCHENER"
      }
    ]
  },
  {
    "postal": "N2E6H4",
    "result": []
  },
  {
    "postal": "N2E5A5",
    "result": []
  },
  {
    "postal": "N2E3R9",
    "result": [
      {
        "electoralDistricts": [
          {
            "election": null,
            "id": 48,
            "name": "Kitchener—Conestoga"
          }
        ],
        "pollDivisionIds": [
          10139268
        ],
        "postalCode": "N2E3R9",
        "streetName": "HACKBERRY",
        "streetDirectionId": null,
        "streetTypeId": "ST",
        "placeName": "KITCHENER",
        "streetNameDisplayText": "HACKBERRY ST, KITCHENER"
      }
    ]
  },
  {
    "postal": "N2E7L8",
    "result": []
  },
  {
    "postal": "N2E6T6",
    "result": []
  },
  {
    "postal": "N2E7Y7",
    "result": []
  },
  {
    "postal": "N2E3M8",
    "result": [
      {
        "electoralDistricts": [
          {
            "election": null,
            "id": 49,
            "name": "Kitchener South—Hespeler"
          }
        ],
        "pollDivisionIds": [
          10139285
        ],
        "postalCode": "N2E3M8",
        "streetName": "ERINBROOK",
        "streetDirectionId": null,
        "streetTypeId": "DR",
        "placeName": "KITCHENER",
        "streetNameDisplayText": "ERINBROOK DR, KITCHENER"
      },
      {
        "electoralDistricts": [
          {
            "election": null,
            "id": 49,
            "name": "Kitchener South—Hespeler"
          }
        ],
        "pollDivisionIds": [
          10139285
        ],
        "postalCode": "N2E3M8",
        "streetName": "JULIA",
        "streetDirectionId": null,
        "streetTypeId": "CRES",
        "placeName": "KITCHENER",
        "streetNameDisplayText": "JULIA CRES, KITCHENER"
      }
    ]
  },
  {
    "postal": "N2E2E0",
    "result": []
  },
  {
    "postal": "N2E4B5",
    "result": [
      {
        "electoralDistricts": [
          {
            "election": null,
            "id": 48,
            "name": "Kitchener—Conestoga"
          }
        ],
        "pollDivisionIds": [
          10139270
        ],
        "postalCode": "N2E4B5",
        "streetName": "BRIDLEWREATH",
        "streetDirectionId": null,
        "streetTypeId": "ST",
        "placeName": "KITCHENER",
        "streetNameDisplayText": "BRIDLEWREATH ST, KITCHENER"
      }
    ]
  },
  {
    "postal": "N2E1J3",
    "result": [
      {
        "electoralDistricts": [
          {
            "election": null,
            "id": 49,
            "name": "Kitchener South—Hespeler"
          }
        ],
        "pollDivisionIds": [
          10139284
        ],
        "postalCode": "N2E1J3",
        "streetName": "HOWE",
        "streetDirectionId": null,
        "streetTypeId": "DR",
        "placeName": "KITCHENER",
        "streetNameDisplayText": "HOWE DR, KITCHENER"
      }
    ]
  },
  {
    "postal": "N2E5S6",
    "result": []
  },
  {
    "postal": "N2E8P7",
    "result": []
  },
  {
    "postal": "N2E7S7",
    "result": []
  },
  {
    "postal": "N2E4C2",
    "result": [
      {
        "electoralDistricts": [
          {
            "election": null,
            "id": 48,
            "name": "Kitchener—Conestoga"
          }
        ],
        "pollDivisionIds": [
          10139269,
          10139270
        ],
        "postalCode": "N2E4C2",
        "streetName": "ACTIVA",
        "streetDirectionId": null,
        "streetTypeId": "AVE",
        "placeName": "KITCHENER",
        "streetNameDisplayText": "ACTIVA AVE, KITCHENER"
      },
      {
        "electoralDistricts": [
          {
            "election": null,
            "id": 48,
            "name": "Kitchener—Conestoga"
          }
        ],
        "pollDivisionIds": [
          10139269
        ],
        "postalCode": "N2E4C2",
        "streetName": "SNOWDROP",
        "streetDirectionId": null,
        "streetTypeId": "CRES",
        "placeName": "KITCHENER",
        "streetNameDisplayText": "SNOWDROP CRES, KITCHENER"
      }
    ]
  },
  {
    "postal": "N2E5Y0",
    "result": []
  },
  {
    "postal": "N2E2V7",
    "result": [
      {
        "electoralDistricts": [
          {
            "election": null,
            "id": 49,
            "name": "Kitchener South—Hespeler"
          }
        ],
        "pollDivisionIds": [
          10139288
        ],
        "postalCode": "N2E2V7",
        "streetName": "OLD COUNTRY",
        "streetDirectionId": null,
        "streetTypeId": "DR",
        "placeName": "KITCHENER",
        "streetNameDisplayText": "OLD COUNTRY DR, KITCHENER"
      }
    ]
  },
  {
    "postal": "N2E8P5",
    "result": []
  },
  {
    "postal": "N2E5P5",
    "result": []
  },
  {
    "postal": "N2E5Z0",
    "result": []
  },
  {
    "postal": "N2E9B0",
    "result": []
  },
  {
    "postal": "N2E1L0",
    "result": []
  },
  {
    "postal": "N2E0B5",
    "result": [
      {
        "electoralDistricts": [
          {
            "election": null,
            "id": 48,
            "name": "Kitchener—Conestoga"
          }
        ],
        "pollDivisionIds": [
          10139258
        ],
        "postalCode": "N2E0B5",
        "streetName": "AUDREY",
        "streetDirectionId": null,
        "streetTypeId": "PL",
        "placeName": "KITCHENER",
        "streetNameDisplayText": "AUDREY PL, KITCHENER"
      },
      {
        "electoralDistricts": [
          {
            "election": null,
            "id": 48,
            "name": "Kitchener—Conestoga"
          }
        ],
        "pollDivisionIds": [
          10139258
        ],
        "postalCode": "N2E0B5",
        "streetName": "MELINDA",
        "streetDirectionId": null,
        "streetTypeId": "ST",
        "placeName": "KITCHENER",
        "streetNameDisplayText": "MELINDA ST, KITCHENER"
      }
    ]
  },
  {
    "postal": "N2E3L2",
    "result": [
      {
        "electoralDistricts": [
          {
            "election": null,
            "id": 48,
            "name": "Kitchener—Conestoga"
          }
        ],
        "pollDivisionIds": [
          10139268
        ],
        "postalCode": "N2E3L2",
        "streetName": "MILFOIL",
        "streetDirectionId": null,
        "streetTypeId": "CRES",
        "placeName": "KITCHENER",
        "streetNameDisplayText": "MILFOIL CRES, KITCHENER"
      },
      {
        "electoralDistricts": [
          {
            "election": null,
            "id": 48,
            "name": "Kitchener—Conestoga"
          }
        ],
        "pollDivisionIds": [
          10139268
        ],
        "postalCode": "N2E3L2",
        "streetName": "WAKE ROBIN",
        "streetDirectionId": null,
        "streetTypeId": "DR",
        "placeName": "KITCHENER",
        "streetNameDisplayText": "WAKE ROBIN DR, KITCHENER"
      }
    ]
  },
  {
    "postal": "N2E3B7",
    "result": [
      {
        "electoralDistricts": [
          {
            "election": null,
            "id": 49,
            "name": "Kitchener South—Hespeler"
          }
        ],
        "pollDivisionIds": [
          10139285
        ],
        "postalCode": "N2E3B7",
        "streetName": "ERINBROOK",
        "streetDirectionId": null,
        "streetTypeId": "DR",
        "placeName": "KITCHENER",
        "streetNameDisplayText": "ERINBROOK DR, KITCHENER"
      },
      {
        "electoralDistricts": [
          {
            "election": null,
            "id": 49,
            "name": "Kitchener South—Hespeler"
          }
        ],
        "pollDivisionIds": [
          10139285
        ],
        "postalCode": "N2E3B7",
        "streetName": "HEDGESTONE",
        "streetDirectionId": null,
        "streetTypeId": "CRES",
        "placeName": "KITCHENER",
        "streetNameDisplayText": "HEDGESTONE CRES, KITCHENER"
      }
    ]
  },
  {
    "postal": "N2E8L1",
    "result": []
  },
  {
    "postal": "N2E5M4",
    "result": []
  },
  {
    "postal": "N2E4G9",
    "result": [
      {
        "electoralDistricts": [
          {
            "election": null,
            "id": 48,
            "name": "Kitchener—Conestoga"
          }
        ],
        "pollDivisionIds": [
          10139269
        ],
        "postalCode": "N2E4G9",
        "streetName": "RED CLOVER",
        "streetDirectionId": null,
        "streetTypeId": "CRES",
        "placeName": "KITCHENER",
        "streetNameDisplayText": "RED CLOVER CRES, KITCHENER"
      },
      {
        "electoralDistricts": [
          {
            "election": null,
            "id": 48,
            "name": "Kitchener—Conestoga"
          }
        ],
        "pollDivisionIds": [
          10139269
        ],
        "postalCode": "N2E4G9",
        "streetName": "SNOWDROP",
        "streetDirectionId": null,
        "streetTypeId": "CRES",
        "placeName": "KITCHENER",
        "streetNameDisplayText": "SNOWDROP CRES, KITCHENER"
      }
    ]
  },
  {
    "postal": "N2E0P0",
    "result": []
  },
  {
    "postal": "N2E8G2",
    "result": []
  },
  {
    "postal": "N2E1V9",
    "result": [
      {
        "electoralDistricts": [
          {
            "election": null,
            "id": 49,
            "name": "Kitchener South—Hespeler"
          }
        ],
        "pollDivisionIds": [
          10139286
        ],
        "postalCode": "N2E1V9",
        "streetName": "ROSENEATH",
        "streetDirectionId": null,
        "streetTypeId": "CRES",
        "placeName": "KITCHENER",
        "streetNameDisplayText": "ROSENEATH CRES, KITCHENER"
      }
    ]
  },
  {
    "postal": "N2E8N8",
    "result": []
  },
  {
    "postal": "N2E6S8",
    "result": []
  },
  {
    "postal": "N2E8H2",
    "result": []
  },
  {
    "postal": "N2E5R8",
    "result": []
  },
  {
    "postal": "N2E5L4",
    "result": []
  },
  {
    "postal": "N2E9E1",
    "result": []
  },
  {
    "postal": "N2E1C4",
    "result": [
      {
        "electoralDistricts": [
          {
            "election": null,
            "id": 49,
            "name": "Kitchener South—Hespeler"
          }
        ],
        "pollDivisionIds": [
          10139287
        ],
        "postalCode": "N2E1C4",
        "streetName": "LAURENTIAN",
        "streetDirectionId": null,
        "streetTypeId": "DR",
        "placeName": "KITCHENER",
        "streetNameDisplayText": "LAURENTIAN DR, KITCHENER"
      }
    ]
  },
  {
    "postal": "N2E8W5",
    "result": []
  },
  {
    "postal": "N2E1Y4",
    "result": [
      {
        "electoralDistricts": [
          {
            "election": null,
            "id": 49,
            "name": "Kitchener South—Hespeler"
          }
        ],
        "pollDivisionIds": [
          10139286
        ],
        "postalCode": "N2E1Y4",
        "streetName": "RADCLIFFE",
        "streetDirectionId": null,
        "streetTypeId": "DR",
        "placeName": "KITCHENER",
        "streetNameDisplayText": "RADCLIFFE DR, KITCHENER"
      }
    ]
  },
  {
    "postal": "N2E1C0",
    "result": []
  },
  {
    "postal": "N2E2J2",
    "result": [
      {
        "electoralDistricts": [
          {
            "election": null,
            "id": 49,
            "name": "Kitchener South—Hespeler"
          }
        ],
        "pollDivisionIds": [
          10139288
        ],
        "postalCode": "N2E2J2",
        "streetName": "DEVONGLEN",
        "streetDirectionId": null,
        "streetTypeId": "DR",
        "placeName": "KITCHENER",
        "streetNameDisplayText": "DEVONGLEN DR, KITCHENER"
      }
    ]
  },
  {
    "postal": "N2E2J0",
    "result": []
  },
  {
    "postal": "N2E7A3",
    "result": []
  },
  {
    "postal": "N2E8M1",
    "result": []
  },
  {
    "postal": "N2E7T9",
    "result": []
  },
  {
    "postal": "N2E6C0",
    "result": []
  },
  {
    "postal": "N2E7X1",
    "result": []
  },
  {
    "postal": "N2E0G1",
    "result": [
      {
        "electoralDistricts": [
          {
            "election": null,
            "id": 114,
            "name": "Waterloo"
          },
          {
            "election": null,
            "id": 48,
            "name": "Kitchener—Conestoga"
          }
        ],
        "pollDivisionIds": [
          10126570,
          10139258
        ],
        "postalCode": "N2E0G1",
        "streetName": "ELIZA",
        "streetDirectionId": null,
        "streetTypeId": "AVE",
        "placeName": "KITCHENER",
        "streetNameDisplayText": "ELIZA AVE, KITCHENER"
      },
      {
        "electoralDistricts": [
          {
            "election": null,
            "id": 48,
            "name": "Kitchener—Conestoga"
          }
        ],
        "pollDivisionIds": [
          10139258
        ],
        "postalCode": "N2E0G1",
        "streetName": "NYLES DR",
        "streetDirectionId": null,
        "streetTypeId": "DR",
        "placeName": "KITCHENER",
        "streetNameDisplayText": "NYLES DR DR, KITCHENER"
      },
      {
        "electoralDistricts": [
          {
            "election": null,
            "id": 49,
            "name": "Kitchener South—Hespeler"
          }
        ],
        "pollDivisionIds": [
          10139308
        ],
        "postalCode": "N2E0G1",
        "streetName": "NYLES",
        "streetDirectionId": null,
        "streetTypeId": "DR",
        "placeName": "KITCHENER",
        "streetNameDisplayText": "NYLES DR, KITCHENER"
      }
    ]
  },
  {
    "postal": "N2E4X2",
    "result": []
  },
  {
    "postal": "N2E0N6",
    "result": []
  },
  {
    "postal": "N2E8E3",
    "result": []
  },
  {
    "postal": "N2E5S8",
    "result": []
  },
  {
    "postal": "N2E0R0",
    "result": []
  },
  {
    "postal": "N2E6J6",
    "result": []
  },
  {
    "postal": "N2E4B4",
    "result": [
      {
        "electoralDistricts": [
          {
            "election": null,
            "id": 48,
            "name": "Kitchener—Conestoga"
          }
        ],
        "pollDivisionIds": [
          10139270
        ],
        "postalCode": "N2E4B4",
        "streetName": "BRIDLEWREATH",
        "streetDirectionId": null,
        "streetTypeId": "ST",
        "placeName": "KITCHENER",
        "streetNameDisplayText": "BRIDLEWREATH ST, KITCHENER"
      },
      {
        "electoralDistricts": [
          {
            "election": null,
            "id": 48,
            "name": "Kitchener—Conestoga"
          }
        ],
        "pollDivisionIds": [
          10139270
        ],
        "postalCode": "N2E4B4",
        "streetName": "MOUNTAIN LAUREL",
        "streetDirectionId": null,
        "streetTypeId": "CRES",
        "placeName": "KITCHENER",
        "streetNameDisplayText": "MOUNTAIN LAUREL CRES, KITCHENER"
      }
    ]
  },
  {
    "postal": "N2E7E3",
    "result": []
  },
  {
    "postal": "N2E3N6",
    "result": [
      {
        "electoralDistricts": [
          {
            "election": null,
            "id": 48,
            "name": "Kitchener—Conestoga"
          }
        ],
        "pollDivisionIds": [
          10139268
        ],
        "postalCode": "N2E3N6",
        "streetName": "QUEEN CHARLOTTE",
        "streetDirectionId": null,
        "streetTypeId": "CRES",
        "placeName": "KITCHENER",
        "streetNameDisplayText": "QUEEN CHARLOTTE CRES, KITCHENER"
      }
    ]
  },
  {
    "postal": "N2E3X6",
    "result": [
      {
        "electoralDistricts": [
          {
            "election": null,
            "id": 49,
            "name": "Kitchener South—Hespeler"
          }
        ],
        "pollDivisionIds": [
          10139289
        ],
        "postalCode": "N2E3X6",
        "streetName": "BLEAMS",
        "streetDirectionId": null,
        "streetTypeId": "RD",
        "placeName": "KITCHENER",
        "streetNameDisplayText": "BLEAMS RD, KITCHENER"
      }
    ]
  },
  {
    "postal": "N2E8L0",
    "result": []
  },
  {
    "postal": "N2E8N1",
    "result": []
  },
  {
    "postal": "N2E4J0",
    "result": []
  },
  {
    "postal": "N2E0X7",
    "result": []
  },
  {
    "postal": "N2E6S4",
    "result": []
  },
  {
    "postal": "N2E0Z0",
    "result": []
  },
  {
    "postal": "N2E9X8",
    "result": []
  },
  {
    "postal": "N2E3H3",
    "result": [
      {
        "electoralDistricts": [
          {
            "election": null,
            "id": 49,
            "name": "Kitchener South—Hespeler"
          }
        ],
        "pollDivisionIds": [
          10139284
        ],
        "postalCode": "N2E3H3",
        "streetName": "WINDALE",
        "streetDirectionId": null,
        "streetTypeId": "CRES",
        "placeName": "KITCHENER",
        "streetNameDisplayText": "WINDALE CRES, KITCHENER"
      }
    ]
  },
  {
    "postal": "N2E7S2",
    "result": []
  },
  {
    "postal": "N2E3T3",
    "result": [
      {
        "electoralDistricts": [
          {
            "election": null,
            "id": 48,
            "name": "Kitchener—Conestoga"
          }
        ],
        "pollDivisionIds": [
          10139268
        ],
        "postalCode": "N2E3T3",
        "streetName": "ACTIVA",
        "streetDirectionId": null,
        "streetTypeId": "AVE",
        "placeName": "KITCHENER",
        "streetNameDisplayText": "ACTIVA AVE, KITCHENER"
      },
      {
        "electoralDistricts": [
          {
            "election": null,
            "id": 48,
            "name": "Kitchener—Conestoga"
          }
        ],
        "pollDivisionIds": [
          10139268
        ],
        "postalCode": "N2E3T3",
        "streetName": "COPPER LEAF",
        "streetDirectionId": null,
        "streetTypeId": "ST",
        "placeName": "KITCHENER",
        "streetNameDisplayText": "COPPER LEAF ST, KITCHENER"
      }
    ]
  },
  {
    "postal": "N2E9P3",
    "result": []
  },
  {
    "postal": "N2E4H8",
    "result": [
      {
        "electoralDistricts": [
          {
            "election": null,
            "id": 48,
            "name": "Kitchener—Conestoga"
          }
        ],
        "pollDivisionIds": [
          10139269
        ],
        "postalCode": "N2E4H8",
        "streetName": "DAVID BERGEY",
        "streetDirectionId": null,
        "streetTypeId": "DR",
        "placeName": "KITCHENER",
        "streetNameDisplayText": "DAVID BERGEY DR, KITCHENER"
      }
    ]
  },
  {
    "postal": "N2E6R1",
    "result": []
  },
  {
    "postal": "N2E1S0",
    "result": []
  },
  {
    "postal": "N2E3W8",
    "result": [
      {
        "electoralDistricts": [
          {
            "election": null,
            "id": 48,
            "name": "Kitchener—Conestoga"
          }
        ],
        "pollDivisionIds": [
          10139270,
          10139269
        ],
        "postalCode": "N2E3W8",
        "streetName": "BLUE LACE",
        "streetDirectionId": null,
        "streetTypeId": "CRES",
        "placeName": "KITCHENER",
        "streetNameDisplayText": "BLUE LACE CRES, KITCHENER"
      },
      {
        "electoralDistricts": [
          {
            "election": null,
            "id": 48,
            "name": "Kitchener—Conestoga"
          }
        ],
        "pollDivisionIds": [
          10139270,
          10139269
        ],
        "postalCode": "N2E3W8",
        "streetName": "MOUNTAIN LAUREL",
        "streetDirectionId": null,
        "streetTypeId": "CRES",
        "placeName": "KITCHENER",
        "streetNameDisplayText": "MOUNTAIN LAUREL CRES, KITCHENER"
      }
    ]
  },
  {
    "postal": "N2E4S3",
    "result": []
  },
  {
    "postal": "N2E1B6",
    "result": [
      {
        "electoralDistricts": [
          {
            "election": null,
            "id": 49,
            "name": "Kitchener South—Hespeler"
          }
        ],
        "pollDivisionIds": [
          10139287
        ],
        "postalCode": "N2E1B6",
        "streetName": "OTTAWA",
        "streetDirectionId": "S",
        "streetTypeId": "ST",
        "placeName": "KITCHENER",
        "streetNameDisplayText": "OTTAWA ST S, KITCHENER"
      }
    ]
  },
  {
    "postal": "N2E8R3",
    "result": []
  },
  {
    "postal": "N2E4V9",
    "result": []
  },
  {
    "postal": "N2E9W4",
    "result": []
  },
  {
    "postal": "N2E3T4",
    "result": [
      {
        "electoralDistricts": [
          {
            "election": null,
            "id": 48,
            "name": "Kitchener—Conestoga"
          }
        ],
        "pollDivisionIds": [
          10139268
        ],
        "postalCode": "N2E3T4",
        "streetName": "COPPER LEAF",
        "streetDirectionId": null,
        "streetTypeId": "ST",
        "placeName": "KITCHENER",
        "streetNameDisplayText": "COPPER LEAF ST, KITCHENER"
      },
      {
        "electoralDistricts": [
          {
            "election": null,
            "id": 48,
            "name": "Kitchener—Conestoga"
          }
        ],
        "pollDivisionIds": [
          10139268
        ],
        "postalCode": "N2E3T4",
        "streetName": "WISTERIA",
        "streetDirectionId": null,
        "streetTypeId": "CRT",
        "placeName": "KITCHENER",
        "streetNameDisplayText": "WISTERIA CRT, KITCHENER"
      }
    ]
  },
  {
    "postal": "N2E5C7",
    "result": []
  },
  {
    "postal": "N2E3Y1",
    "result": [
      {
        "electoralDistricts": [
          {
            "election": null,
            "id": 48,
            "name": "Kitchener—Conestoga"
          }
        ],
        "pollDivisionIds": [
          10139258
        ],
        "postalCode": "N2E3Y1",
        "streetName": "BLEAMS",
        "streetDirectionId": null,
        "streetTypeId": "RD",
        "placeName": "KITCHENER",
        "streetNameDisplayText": "BLEAMS RD, KITCHENER"
      }
    ]
  },
  {
    "postal": "N2E5V0",
    "result": []
  },
  {
    "postal": "N2E8G8",
    "result": []
  },
  {
    "postal": "N2E8B1",
    "result": []
  },
  {
    "postal": "N2E4P5",
    "result": []
  },
  {
    "postal": "N2E7B2",
    "result": []
  },
  {
    "postal": "N2E0R2",
    "result": []
  },
  {
    "postal": "N2E4M4",
    "result": []
  },
  {
    "postal": "N2E7M4",
    "result": []
  },
  {
    "postal": "N2E9S7",
    "result": []
  },
  {
    "postal": "N2E5Z7",
    "result": []
  },
  {
    "postal": "N2E7J7",
    "result": []
  },
  {
    "postal": "N2E8R8",
    "result": []
  },
  {
    "postal": "N2E9X1",
    "result": []
  },
  {
    "postal": "N2E5M9",
    "result": []
  },
  {
    "postal": "N2E9B4",
    "result": []
  },
  {
    "postal": "N2E0L9",
    "result": []
  },
  {
    "postal": "N2E9G4",
    "result": []
  },
  {
    "postal": "N2E1J4",
    "result": [
      {
        "electoralDistricts": [
          {
            "election": null,
            "id": 49,
            "name": "Kitchener South—Hespeler"
          }
        ],
        "pollDivisionIds": [
          10139284
        ],
        "postalCode": "N2E1J4",
        "streetName": "HOWE",
        "streetDirectionId": null,
        "streetTypeId": "DR",
        "placeName": "KITCHENER",
        "streetNameDisplayText": "HOWE DR, KITCHENER"
      }
    ]
  },
  {
    "postal": "N2E0W6",
    "result": []
  }
]
