[
  {
    "postal": "N5Z9J6",
    "result": []
  },
  {
    "postal": "N5Z9Z5",
    "result": []
  },
  {
    "postal": "N5Z7H8",
    "result": []
  },
  {
    "postal": "N5Z0P6",
    "result": []
  },
  {
    "postal": "N5Z0S7",
    "result": []
  },
  {
    "postal": "N5Z8B9",
    "result": []
  },
  {
    "postal": "N5Z2A6",
    "result": [
      {
        "electoralDistricts": [
          {
            "election": null,
            "id": 53,
            "name": "London—Fanshawe"
          }
        ],
        "pollDivisionIds": [
          10139569
        ],
        "postalCode": "N5Z2A6",
        "streetName": "RECTORY",
        "streetDirectionId": null,
        "streetTypeId": "ST",
        "placeName": "LONDON",
        "streetNameDisplayText": "RECTORY ST, LONDON"
      }
    ]
  },
  {
    "postal": "N5Z7V2",
    "result": []
  },
  {
    "postal": "N5Z9P4",
    "result": []
  },
  {
    "postal": "N5Z6G0",
    "result": []
  },
  {
    "postal": "N5Z2K0",
    "result": []
  },
  {
    "postal": "N5Z7N6",
    "result": []
  },
  {
    "postal": "N5Z5R3",
    "result": []
  },
  {
    "postal": "N5Z7K0",
    "result": []
  },
  {
    "postal": "N5Z3R2",
    "result": [
      {
        "electoralDistricts": [
          {
            "election": null,
            "id": 53,
            "name": "London—Fanshawe"
          }
        ],
        "pollDivisionIds": [
          10139572
        ],
        "postalCode": "N5Z3R2",
        "streetName": "GLADSTONE",
        "streetDirectionId": null,
        "streetTypeId": "AVE",
        "placeName": "LONDON",
        "streetNameDisplayText": "GLADSTONE AVE, LONDON"
      }
    ]
  },
  {
    "postal": "N5Z0J1",
    "result": []
  },
  {
    "postal": "N5Z0B0",
    "result": []
  },
  {
    "postal": "N5Z5Z2",
    "result": []
  },
  {
    "postal": "N5Z7P3",
    "result": []
  },
  {
    "postal": "N5Z2K3",
    "result": [
      {
        "electoralDistricts": [
          {
            "election": null,
            "id": 53,
            "name": "London—Fanshawe"
          }
        ],
        "pollDivisionIds": [
          10139568,
          10139570
        ],
        "postalCode": "N5Z2K3",
        "streetName": "ELM",
        "streetDirectionId": null,
        "streetTypeId": "ST",
        "placeName": "LONDON",
        "streetNameDisplayText": "ELM ST, LONDON"
      }
    ]
  },
  {
    "postal": "N5Z7Y6",
    "result": []
  },
  {
    "postal": "N5Z1L9",
    "result": [
      {
        "electoralDistricts": [
          {
            "election": null,
            "id": 53,
            "name": "London—Fanshawe"
          }
        ],
        "pollDivisionIds": [
          10139570
        ],
        "postalCode": "N5Z1L9",
        "streetName": "STEDWELL",
        "streetDirectionId": null,
        "streetTypeId": "ST",
        "placeName": "LONDON",
        "streetNameDisplayText": "STEDWELL ST, LONDON"
      }
    ]
  },
  {
    "postal": "N5Z8T0",
    "result": []
  },
  {
    "postal": "N5Z3K8",
    "result": [
      {
        "electoralDistricts": [
          {
            "election": null,
            "id": 53,
            "name": "London—Fanshawe"
          }
        ],
        "pollDivisionIds": [
          10139574
        ],
        "postalCode": "N5Z3K8",
        "streetName": "ADELAIDE",
        "streetDirectionId": "S",
        "streetTypeId": "ST",
        "placeName": "LONDON",
        "streetNameDisplayText": "ADELAIDE ST S, LONDON"
      }
    ]
  },
  {
    "postal": "N5Z5W9",
    "result": []
  },
  {
    "postal": "N5Z6T9",
    "result": []
  },
  {
    "postal": "N5Z4H1",
    "result": [
      {
        "electoralDistricts": [
          {
            "election": null,
            "id": 53,
            "name": "London—Fanshawe"
          }
        ],
        "pollDivisionIds": [
          10139576
        ],
        "postalCode": "N5Z4H1",
        "streetName": "CLUNEY",
        "streetDirectionId": null,
        "streetTypeId": "PL",
        "placeName": "LONDON",
        "streetNameDisplayText": "CLUNEY PL, LONDON"
      }
    ]
  },
  {
    "postal": "N5Z7A2",
    "result": []
  },
  {
    "postal": "N5Z5G0",
    "result": []
  },
  {
    "postal": "N5Z8V5",
    "result": []
  },
  {
    "postal": "N5Z2Y8",
    "result": [
      {
        "electoralDistricts": [
          {
            "election": null,
            "id": 53,
            "name": "London—Fanshawe"
          }
        ],
        "pollDivisionIds": [
          10139574
        ],
        "postalCode": "N5Z2Y8",
        "streetName": "THOMPSON",
        "streetDirectionId": null,
        "streetTypeId": "RD",
        "placeName": "LONDON",
        "streetNameDisplayText": "THOMPSON RD, LONDON"
      }
    ]
  },
  {
    "postal": "N5Z2B6",
    "result": [
      {
        "electoralDistricts": [
          {
            "election": null,
            "id": 53,
            "name": "London—Fanshawe"
          }
        ],
        "pollDivisionIds": [
          10139569
        ],
        "postalCode": "N5Z2B6",
        "streetName": "ROBERTS",
        "streetDirectionId": null,
        "streetTypeId": "AVE",
        "placeName": "LONDON",
        "streetNameDisplayText": "ROBERTS AVE, LONDON"
      }
    ]
  },
  {
    "postal": "N5Z4W8",
    "result": [
      {
        "electoralDistricts": [
          {
            "election": null,
            "id": 53,
            "name": "London—Fanshawe"
          }
        ],
        "pollDivisionIds": [
          10139573
        ],
        "postalCode": "N5Z4W8",
        "streetName": "COMMISSIONERS",
        "streetDirectionId": "E",
        "streetTypeId": "RD",
        "placeName": "LONDON",
        "streetNameDisplayText": "COMMISSIONERS RD E, LONDON"
      }
    ]
  },
  {
    "postal": "N5Z8H7",
    "result": []
  },
  {
    "postal": "N5Z5P1",
    "result": []
  },
  {
    "postal": "N5Z2B8",
    "result": [
      {
        "electoralDistricts": [
          {
            "election": null,
            "id": 53,
            "name": "London—Fanshawe"
          }
        ],
        "pollDivisionIds": [
          10139570
        ],
        "postalCode": "N5Z2B8",
        "streetName": "DILLABOUGH",
        "streetDirectionId": null,
        "streetTypeId": "ST",
        "placeName": "LONDON",
        "streetNameDisplayText": "DILLABOUGH ST, LONDON"
      }
    ]
  },
  {
    "postal": "N5Z0P2",
    "result": []
  },
  {
    "postal": "N5Z9M1",
    "result": []
  },
  {
    "postal": "N5Z3G0",
    "result": []
  },
  {
    "postal": "N5Z9Z2",
    "result": []
  },
  {
    "postal": "N5Z2A0",
    "result": []
  },
  {
    "postal": "N5Z6Y0",
    "result": []
  },
  {
    "postal": "N5Z2Z8",
    "result": [
      {
        "electoralDistricts": [
          {
            "election": null,
            "id": 53,
            "name": "London—Fanshawe"
          }
        ],
        "pollDivisionIds": [
          10139574
        ],
        "postalCode": "N5Z2Z8",
        "streetName": "THOMPSON",
        "streetDirectionId": null,
        "streetTypeId": "RD",
        "placeName": "LONDON",
        "streetNameDisplayText": "THOMPSON RD, LONDON"
      }
    ]
  },
  {
    "postal": "N5Z7Y3",
    "result": []
  },
  {
    "postal": "N5Z6Z5",
    "result": []
  },
  {
    "postal": "N5Z6E0",
    "result": []
  },
  {
    "postal": "N5Z9B7",
    "result": []
  },
  {
    "postal": "N5Z9S5",
    "result": []
  },
  {
    "postal": "N5Z3X3",
    "result": [
      {
        "electoralDistricts": [
          {
            "election": null,
            "id": 53,
            "name": "London—Fanshawe"
          }
        ],
        "pollDivisionIds": [
          10139573
        ],
        "postalCode": "N5Z3X3",
        "streetName": "AILSA",
        "streetDirectionId": null,
        "streetTypeId": "PL",
        "placeName": "LONDON",
        "streetNameDisplayText": "AILSA PL, LONDON"
      },
      {
        "electoralDistricts": [
          {
            "election": null,
            "id": 53,
            "name": "London—Fanshawe"
          }
        ],
        "pollDivisionIds": [
          10139573
        ],
        "postalCode": "N5Z3X3",
        "streetName": "POND MILLS",
        "streetDirectionId": null,
        "streetTypeId": "RD",
        "placeName": "LONDON",
        "streetNameDisplayText": "POND MILLS RD, LONDON"
      }
    ]
  },
  {
    "postal": "N5Z7R5",
    "result": []
  },
  {
    "postal": "N5Z2X3",
    "result": [
      {
        "electoralDistricts": [
          {
            "election": null,
            "id": 53,
            "name": "London—Fanshawe"
          }
        ],
        "pollDivisionIds": [
          10139572
        ],
        "postalCode": "N5Z2X3",
        "streetName": "ADA",
        "streetDirectionId": null,
        "streetTypeId": "ST",
        "placeName": "LONDON",
        "streetNameDisplayText": "ADA ST, LONDON"
      }
    ]
  },
  {
    "postal": "N5Z8Z9",
    "result": []
  },
  {
    "postal": "N5Z0N4",
    "result": []
  },
  {
    "postal": "N5Z1K1",
    "result": [
      {
        "electoralDistricts": [
          {
            "election": null,
            "id": 53,
            "name": "London—Fanshawe"
          }
        ],
        "pollDivisionIds": [
          10139571
        ],
        "postalCode": "N5Z1K1",
        "streetName": "NELSON",
        "streetDirectionId": null,
        "streetTypeId": "ST",
        "placeName": "LONDON",
        "streetNameDisplayText": "NELSON ST, LONDON"
      }
    ]
  },
  {
    "postal": "N5Z1S3",
    "result": [
      {
        "electoralDistricts": [
          {
            "election": null,
            "id": 53,
            "name": "London—Fanshawe"
          }
        ],
        "pollDivisionIds": [
          10139570
        ],
        "postalCode": "N5Z1S3",
        "streetName": "HAMILTON",
        "streetDirectionId": null,
        "streetTypeId": "RD",
        "placeName": "LONDON",
        "streetNameDisplayText": "HAMILTON RD, LONDON"
      }
    ]
  },
  {
    "postal": "N5Z6M4",
    "result": []
  },
  {
    "postal": "N5Z9A9",
    "result": []
  },
  {
    "postal": "N5Z9Z9",
    "result": []
  },
  {
    "postal": "N5Z6T4",
    "result": []
  },
  {
    "postal": "N5Z0B2",
    "result": []
  },
  {
    "postal": "N5Z2L9",
    "result": [
      {
        "electoralDistricts": [
          {
            "election": null,
            "id": 53,
            "name": "London—Fanshawe"
          }
        ],
        "pollDivisionIds": [
          10139570
        ],
        "postalCode": "N5Z2L9",
        "streetName": "BRISBIN",
        "streetDirectionId": null,
        "streetTypeId": "ST",
        "placeName": "LONDON",
        "streetNameDisplayText": "BRISBIN ST, LONDON"
      }
    ]
  },
  {
    "postal": "N5Z8K9",
    "result": []
  },
  {
    "postal": "N5Z2H9",
    "result": [
      {
        "electoralDistricts": [
          {
            "election": null,
            "id": 53,
            "name": "London—Fanshawe"
          }
        ],
        "pollDivisionIds": [
          10139570
        ],
        "postalCode": "N5Z2H9",
        "streetName": "PRICE",
        "streetDirectionId": null,
        "streetTypeId": "ST",
        "placeName": "LONDON",
        "streetNameDisplayText": "PRICE ST, LONDON"
      }
    ]
  },
  {
    "postal": "N5Z3Z6",
    "result": [
      {
        "electoralDistricts": [
          {
            "election": null,
            "id": 53,
            "name": "London—Fanshawe"
          }
        ],
        "pollDivisionIds": [
          10139577
        ],
        "postalCode": "N5Z3Z6",
        "streetName": "WEST AFTON",
        "streetDirectionId": null,
        "streetTypeId": "PL",
        "placeName": "LONDON",
        "streetNameDisplayText": "WEST AFTON PL, LONDON"
      }
    ]
  },
  {
    "postal": "N5Z3B0",
    "result": []
  },
  {
    "postal": "N5Z2H8",
    "result": [
      {
        "electoralDistricts": [
          {
            "election": null,
            "id": 53,
            "name": "London—Fanshawe"
          }
        ],
        "pollDivisionIds": [
          10139570
        ],
        "postalCode": "N5Z2H8",
        "streetName": "PRICE",
        "streetDirectionId": null,
        "streetTypeId": "ST",
        "placeName": "LONDON",
        "streetNameDisplayText": "PRICE ST, LONDON"
      }
    ]
  },
  {
    "postal": "N5Z3X2",
    "result": [
      {
        "electoralDistricts": [
          {
            "election": null,
            "id": 53,
            "name": "London—Fanshawe"
          }
        ],
        "pollDivisionIds": [
          10139573
        ],
        "postalCode": "N5Z3X2",
        "streetName": "POND MILLS",
        "streetDirectionId": null,
        "streetTypeId": "RD",
        "placeName": "LONDON",
        "streetNameDisplayText": "POND MILLS RD, LONDON"
      }
    ]
  },
  {
    "postal": "N5Z2E9",
    "result": [
      {
        "electoralDistricts": [
          {
            "election": null,
            "id": 53,
            "name": "London—Fanshawe"
          }
        ],
        "pollDivisionIds": [
          10139570
        ],
        "postalCode": "N5Z2E9",
        "streetName": "EGERTON",
        "streetDirectionId": null,
        "streetTypeId": "ST",
        "placeName": "LONDON",
        "streetNameDisplayText": "EGERTON ST, LONDON"
      }
    ]
  },
  {
    "postal": "N5Z9P6",
    "result": []
  },
  {
    "postal": "N5Z9E2",
    "result": []
  },
  {
    "postal": "N5Z9H2",
    "result": []
  },
  {
    "postal": "N5Z1S8",
    "result": [
      {
        "electoralDistricts": [
          {
            "election": null,
            "id": 53,
            "name": "London—Fanshawe"
          }
        ],
        "pollDivisionIds": [
          10139570
        ],
        "postalCode": "N5Z1S8",
        "streetName": "HAMILTON",
        "streetDirectionId": null,
        "streetTypeId": "RD",
        "placeName": "LONDON",
        "streetNameDisplayText": "HAMILTON RD, LONDON"
      }
    ]
  },
  {
    "postal": "N5Z3M6",
    "result": []
  },
  {
    "postal": "N5Z6Z8",
    "result": []
  },
  {
    "postal": "N5Z4J2",
    "result": [
      {
        "electoralDistricts": [
          {
            "election": null,
            "id": 53,
            "name": "London—Fanshawe"
          }
        ],
        "pollDivisionIds": [
          10139576
        ],
        "postalCode": "N5Z4J2",
        "streetName": "EDMUNDS",
        "streetDirectionId": null,
        "streetTypeId": "CRES",
        "placeName": "LONDON",
        "streetNameDisplayText": "EDMUNDS CRES, LONDON"
      }
    ]
  },
  {
    "postal": "N5Z9Y1",
    "result": []
  },
  {
    "postal": "N5Z8V6",
    "result": []
  },
  {
    "postal": "N5Z6B2",
    "result": []
  },
  {
    "postal": "N5Z1P8",
    "result": [
      {
        "electoralDistricts": [
          {
            "election": null,
            "id": 53,
            "name": "London—Fanshawe"
          }
        ],
        "pollDivisionIds": [
          10139569
        ],
        "postalCode": "N5Z1P8",
        "streetName": "BATHURST",
        "streetDirectionId": null,
        "streetTypeId": "ST",
        "placeName": "LONDON",
        "streetNameDisplayText": "BATHURST ST, LONDON"
      }
    ]
  },
  {
    "postal": "N5Z0V8",
    "result": []
  },
  {
    "postal": "N5Z4Y0",
    "result": []
  },
  {
    "postal": "N5Z2T4",
    "result": [
      {
        "electoralDistricts": [
          {
            "election": null,
            "id": 53,
            "name": "London—Fanshawe"
          }
        ],
        "pollDivisionIds": [
          10139570
        ],
        "postalCode": "N5Z2T4",
        "streetName": "ELGIN",
        "streetDirectionId": null,
        "streetTypeId": "ST",
        "placeName": "LONDON",
        "streetNameDisplayText": "ELGIN ST, LONDON"
      }
    ]
  },
  {
    "postal": "N5Z2S3",
    "result": [
      {
        "electoralDistricts": [
          {
            "election": null,
            "id": 53,
            "name": "London—Fanshawe"
          }
        ],
        "pollDivisionIds": [
          10139568
        ],
        "postalCode": "N5Z2S3",
        "streetName": "EAST",
        "streetDirectionId": null,
        "streetTypeId": "ST",
        "placeName": "LONDON",
        "streetNameDisplayText": "EAST ST, LONDON"
      }
    ]
  },
  {
    "postal": "N5Z0K0",
    "result": []
  },
  {
    "postal": "N5Z5N1",
    "result": []
  },
  {
    "postal": "N5Z7T0",
    "result": []
  },
  {
    "postal": "N5Z9N2",
    "result": []
  },
  {
    "postal": "N5Z5L1",
    "result": []
  },
  {
    "postal": "N5Z7G5",
    "result": []
  },
  {
    "postal": "N5Z6K2",
    "result": []
  },
  {
    "postal": "N5Z6P9",
    "result": []
  },
  {
    "postal": "N5Z0E6",
    "result": []
  },
  {
    "postal": "N5Z8R9",
    "result": []
  },
  {
    "postal": "N5Z3G9",
    "result": [
      {
        "electoralDistricts": [
          {
            "election": null,
            "id": 53,
            "name": "London—Fanshawe"
          }
        ],
        "pollDivisionIds": [
          10139574
        ],
        "postalCode": "N5Z3G9",
        "streetName": "BURLINGTON",
        "streetDirectionId": null,
        "streetTypeId": "CRES",
        "placeName": "LONDON",
        "streetNameDisplayText": "BURLINGTON CRES, LONDON"
      }
    ]
  },
  {
    "postal": "N5Z0V7",
    "result": []
  },
  {
    "postal": "N5Z2Z1",
    "result": [
      {
        "electoralDistricts": [
          {
            "election": null,
            "id": 53,
            "name": "London—Fanshawe"
          }
        ],
        "pollDivisionIds": [
          10139572
        ],
        "postalCode": "N5Z2Z1",
        "streetName": "THOMPSON",
        "streetDirectionId": null,
        "streetTypeId": "RD",
        "placeName": "LONDON",
        "streetNameDisplayText": "THOMPSON RD, LONDON"
      }
    ]
  },
  {
    "postal": "N5Z7N1",
    "result": []
  },
  {
    "postal": "N5Z3C6",
    "result": [
      {
        "electoralDistricts": [
          {
            "election": null,
            "id": 53,
            "name": "London—Fanshawe"
          }
        ],
        "pollDivisionIds": [
          10139573
        ],
        "postalCode": "N5Z3C6",
        "streetName": "PRIMROSE",
        "streetDirectionId": null,
        "streetTypeId": "CRT",
        "placeName": "LONDON",
        "streetNameDisplayText": "PRIMROSE CRT, LONDON"
      }
    ]
  },
  {
    "postal": "N5Z4M1",
    "result": [
      {
        "electoralDistricts": [
          {
            "election": null,
            "id": 53,
            "name": "London—Fanshawe"
          }
        ],
        "pollDivisionIds": [
          10139576
        ],
        "postalCode": "N5Z4M1",
        "streetName": "BANBURY",
        "streetDirectionId": null,
        "streetTypeId": "RD",
        "placeName": "LONDON",
        "streetNameDisplayText": "BANBURY RD, LONDON"
      }
    ]
  },
  {
    "postal": "N5Z9K2",
    "result": []
  },
  {
    "postal": "N5Z9S6",
    "result": []
  },
  {
    "postal": "N5Z4X1",
    "result": [
      {
        "electoralDistricts": [
          {
            "election": null,
            "id": 53,
            "name": "London—Fanshawe"
          }
        ],
        "pollDivisionIds": [
          10139576
        ],
        "postalCode": "N5Z4X1",
        "streetName": "GLENROY",
        "streetDirectionId": null,
        "streetTypeId": "RD",
        "placeName": "LONDON",
        "streetNameDisplayText": "GLENROY RD, LONDON"
      }
    ]
  },
  {
    "postal": "N5Z8W2",
    "result": []
  },
  {
    "postal": "N5Z7N2",
    "result": []
  },
  {
    "postal": "N5Z8S3",
    "result": []
  },
  {
    "postal": "N5Z4V0",
    "result": []
  },
  {
    "postal": "N5Z6W4",
    "result": []
  },
  {
    "postal": "N5Z5M1",
    "result": []
  },
  {
    "postal": "N5Z0S4",
    "result": []
  },
  {
    "postal": "N5Z5X6",
    "result": []
  },
  {
    "postal": "N5Z8L5",
    "result": []
  },
  {
    "postal": "N5Z5M8",
    "result": []
  },
  {
    "postal": "N5Z2G3",
    "result": [
      {
        "electoralDistricts": [
          {
            "election": null,
            "id": 53,
            "name": "London—Fanshawe"
          }
        ],
        "pollDivisionIds": [
          10139570
        ],
        "postalCode": "N5Z2G3",
        "streetName": "EGERTON",
        "streetDirectionId": null,
        "streetTypeId": "ST",
        "placeName": "LONDON",
        "streetNameDisplayText": "EGERTON ST, LONDON"
      }
    ]
  },
  {
    "postal": "N5Z8E4",
    "result": []
  },
  {
    "postal": "N5Z7S9",
    "result": []
  },
  {
    "postal": "N5Z1K3",
    "result": [
      {
        "electoralDistricts": [
          {
            "election": null,
            "id": 53,
            "name": "London—Fanshawe"
          }
        ],
        "pollDivisionIds": [
          10139571
        ],
        "postalCode": "N5Z1K3",
        "streetName": "NELSON",
        "streetDirectionId": null,
        "streetTypeId": "ST",
        "placeName": "LONDON",
        "streetNameDisplayText": "NELSON ST, LONDON"
      }
    ]
  },
  {
    "postal": "N5Z4E1",
    "result": [
      {
        "electoralDistricts": [
          {
            "election": null,
            "id": 53,
            "name": "London—Fanshawe"
          }
        ],
        "pollDivisionIds": [
          10139577
        ],
        "postalCode": "N5Z4E1",
        "streetName": "SOUTH ALMOND",
        "streetDirectionId": null,
        "streetTypeId": "PL",
        "placeName": "LONDON",
        "streetNameDisplayText": "SOUTH ALMOND PL, LONDON"
      }
    ]
  },
  {
    "postal": "N5Z4R2",
    "result": [
      {
        "electoralDistricts": [
          {
            "election": null,
            "id": 53,
            "name": "London—Fanshawe"
          }
        ],
        "pollDivisionIds": [
          10139580
        ],
        "postalCode": "N5Z4R2",
        "streetName": "POND MILLS",
        "streetDirectionId": null,
        "streetTypeId": "RD",
        "placeName": "LONDON",
        "streetNameDisplayText": "POND MILLS RD, LONDON"
      }
    ]
  },
  {
    "postal": "N5Z6T0",
    "result": []
  },
  {
    "postal": "N5Z3K5",
    "result": [
      {
        "electoralDistricts": [
          {
            "election": null,
            "id": 53,
            "name": "London—Fanshawe"
          }
        ],
        "pollDivisionIds": [
          10139572
        ],
        "postalCode": "N5Z3K5",
        "streetName": "ADELAIDE",
        "streetDirectionId": "S",
        "streetTypeId": "ST",
        "placeName": "LONDON",
        "streetNameDisplayText": "ADELAIDE ST S, LONDON"
      }
    ]
  },
  {
    "postal": "N5Z3S3",
    "result": [
      {
        "electoralDistricts": [
          {
            "election": null,
            "id": 53,
            "name": "London—Fanshawe"
          }
        ],
        "pollDivisionIds": [
          10139572
        ],
        "postalCode": "N5Z3S3",
        "streetName": "MARLBOROUGH",
        "streetDirectionId": null,
        "streetTypeId": "AVE",
        "placeName": "LONDON",
        "streetNameDisplayText": "MARLBOROUGH AVE, LONDON"
      }
    ]
  },
  {
    "postal": "N5Z3L4",
    "result": []
  },
  {
    "postal": "N5Z9Y2",
    "result": []
  },
  {
    "postal": "N5Z1E0",
    "result": []
  },
  {
    "postal": "N5Z9A4",
    "result": []
  },
  {
    "postal": "N5Z1L3",
    "result": [
      {
        "electoralDistricts": [
          {
            "election": null,
            "id": 53,
            "name": "London—Fanshawe"
          }
        ],
        "pollDivisionIds": [
          10139571
        ],
        "postalCode": "N5Z1L3",
        "streetName": "LAYARD",
        "streetDirectionId": null,
        "streetTypeId": "ST",
        "placeName": "LONDON",
        "streetNameDisplayText": "LAYARD ST, LONDON"
      }
    ]
  },
  {
    "postal": "N5Z6N1",
    "result": []
  },
  {
    "postal": "N5Z6G7",
    "result": []
  },
  {
    "postal": "N5Z7W1",
    "result": []
  },
  {
    "postal": "N5Z4M6",
    "result": [
      {
        "electoralDistricts": [
          {
            "election": null,
            "id": 53,
            "name": "London—Fanshawe"
          }
        ],
        "pollDivisionIds": [
          10139576
        ],
        "postalCode": "N5Z4M6",
        "streetName": "EDGEMERE",
        "streetDirectionId": null,
        "streetTypeId": "CRES",
        "placeName": "LONDON",
        "streetNameDisplayText": "EDGEMERE CRES, LONDON"
      }
    ]
  },
  {
    "postal": "N5Z1K0",
    "result": []
  },
  {
    "postal": "N5Z3E2",
    "result": [
      {
        "electoralDistricts": [
          {
            "election": null,
            "id": 53,
            "name": "London—Fanshawe"
          }
        ],
        "pollDivisionIds": [
          10139574
        ],
        "postalCode": "N5Z3E2",
        "streetName": "MARION",
        "streetDirectionId": null,
        "streetTypeId": "ST",
        "placeName": "LONDON",
        "streetNameDisplayText": "MARION ST, LONDON"
      }
    ]
  },
  {
    "postal": "N5Z5H4",
    "result": []
  },
  {
    "postal": "N5Z1K7",
    "result": [
      {
        "electoralDistricts": [
          {
            "election": null,
            "id": 53,
            "name": "London—Fanshawe"
          }
        ],
        "pollDivisionIds": [
          10139568
        ],
        "postalCode": "N5Z1K7",
        "streetName": "SYCAMORE",
        "streetDirectionId": null,
        "streetTypeId": "ST",
        "placeName": "LONDON",
        "streetNameDisplayText": "SYCAMORE ST, LONDON"
      }
    ]
  },
  {
    "postal": "N5Z0H0",
    "result": []
  },
  {
    "postal": "N5Z0J3",
    "result": []
  },
  {
    "postal": "N5Z1X6",
    "result": [
      {
        "electoralDistricts": [
          {
            "election": null,
            "id": 53,
            "name": "London—Fanshawe"
          }
        ],
        "pollDivisionIds": [
          10139571
        ],
        "postalCode": "N5Z1X6",
        "streetName": "INKERMAN",
        "streetDirectionId": null,
        "streetTypeId": "ST",
        "placeName": "LONDON",
        "streetNameDisplayText": "INKERMAN ST, LONDON"
      }
    ]
  },
  {
    "postal": "N5Z2Z6",
    "result": [
      {
        "electoralDistricts": [
          {
            "election": null,
            "id": 53,
            "name": "London—Fanshawe"
          }
        ],
        "pollDivisionIds": [
          10139572
        ],
        "postalCode": "N5Z2Z6",
        "streetName": "THOMPSON",
        "streetDirectionId": null,
        "streetTypeId": "RD",
        "placeName": "LONDON",
        "streetNameDisplayText": "THOMPSON RD, LONDON"
      }
    ]
  },
  {
    "postal": "N5Z4R9",
    "result": [
      {
        "electoralDistricts": [
          {
            "election": null,
            "id": 53,
            "name": "London—Fanshawe"
          }
        ],
        "pollDivisionIds": [
          10139576
        ],
        "postalCode": "N5Z4R9",
        "streetName": "BANBURY",
        "streetDirectionId": null,
        "streetTypeId": "RD",
        "placeName": "LONDON",
        "streetNameDisplayText": "BANBURY RD, LONDON"
      }
    ]
  },
  {
    "postal": "N5Z0W8",
    "result": []
  },
  {
    "postal": "N5Z1L4",
    "result": [
      {
        "electoralDistricts": [
          {
            "election": null,
            "id": 53,
            "name": "London—Fanshawe"
          }
        ],
        "pollDivisionIds": [
          10139571
        ],
        "postalCode": "N5Z1L4",
        "streetName": "LAYARD",
        "streetDirectionId": null,
        "streetTypeId": "ST",
        "placeName": "LONDON",
        "streetNameDisplayText": "LAYARD ST, LONDON"
      }
    ]
  },
  {
    "postal": "N5Z0C8",
    "result": []
  },
  {
    "postal": "N5Z9X7",
    "result": []
  },
  {
    "postal": "N5Z4T1",
    "result": [
      {
        "electoralDistricts": [
          {
            "election": null,
            "id": 53,
            "name": "London—Fanshawe"
          }
        ],
        "pollDivisionIds": [
          10139576
        ],
        "postalCode": "N5Z4T1",
        "streetName": "SALVIA",
        "streetDirectionId": null,
        "streetTypeId": "ST",
        "placeName": "LONDON",
        "streetNameDisplayText": "SALVIA ST, LONDON"
      }
    ]
  },
  {
    "postal": "N5Z0M0",
    "result": []
  },
  {
    "postal": "N5Z6A2",
    "result": []
  },
  {
    "postal": "N5Z9S8",
    "result": []
  },
  {
    "postal": "N5Z9T4",
    "result": []
  },
  {
    "postal": "N5Z9Y4",
    "result": []
  },
  {
    "postal": "N5Z6G5",
    "result": []
  },
  {
    "postal": "N5Z6H9",
    "result": []
  },
  {
    "postal": "N5Z2P3",
    "result": [
      {
        "electoralDistricts": [
          {
            "election": null,
            "id": 53,
            "name": "London—Fanshawe"
          }
        ],
        "pollDivisionIds": [
          10139570
        ],
        "postalCode": "N5Z2P3",
        "streetName": "MADISON",
        "streetDirectionId": null,
        "streetTypeId": "AVE",
        "placeName": "LONDON",
        "streetNameDisplayText": "MADISON AVE, LONDON"
      }
    ]
  },
  {
    "postal": "N5Z1T6",
    "result": [
      {
        "electoralDistricts": [
          {
            "election": null,
            "id": 53,
            "name": "London—Fanshawe"
          }
        ],
        "pollDivisionIds": [
          10139568
        ],
        "postalCode": "N5Z1T6",
        "streetName": "HAMILTON",
        "streetDirectionId": null,
        "streetTypeId": "RD",
        "placeName": "LONDON",
        "streetNameDisplayText": "HAMILTON RD, LONDON"
      }
    ]
  },
  {
    "postal": "N5Z4P6",
    "result": [
      {
        "electoralDistricts": [
          {
            "election": null,
            "id": 53,
            "name": "London—Fanshawe"
          }
        ],
        "pollDivisionIds": [
          10139577
        ],
        "postalCode": "N5Z4P6",
        "streetName": "MILLMEAD",
        "streetDirectionId": null,
        "streetTypeId": "RD",
        "placeName": "LONDON",
        "streetNameDisplayText": "MILLMEAD RD, LONDON"
      }
    ]
  },
  {
    "postal": "N5Z3K1",
    "result": [
      {
        "electoralDistricts": [
          {
            "election": null,
            "id": 53,
            "name": "London—Fanshawe"
          }
        ],
        "pollDivisionIds": [
          10139572
        ],
        "postalCode": "N5Z3K1",
        "streetName": "ADELAIDE",
        "streetDirectionId": "S",
        "streetTypeId": "ST",
        "placeName": "LONDON",
        "streetNameDisplayText": "ADELAIDE ST S, LONDON"
      }
    ]
  },
  {
    "postal": "N5Z6X4",
    "result": []
  },
  {
    "postal": "N5Z4M8",
    "result": [
      {
        "electoralDistricts": [
          {
            "election": null,
            "id": 53,
            "name": "London—Fanshawe"
          }
        ],
        "pollDivisionIds": [
          10139576
        ],
        "postalCode": "N5Z4M8",
        "streetName": "EDGEMERE",
        "streetDirectionId": null,
        "streetTypeId": "CRES",
        "placeName": "LONDON",
        "streetNameDisplayText": "EDGEMERE CRES, LONDON"
      }
    ]
  },
  {
    "postal": "N5Z2Y1",
    "result": [
      {
        "electoralDistricts": [
          {
            "election": null,
            "id": 53,
            "name": "London—Fanshawe"
          }
        ],
        "pollDivisionIds": [
          10139574
        ],
        "postalCode": "N5Z2Y1",
        "streetName": "EDNA",
        "streetDirectionId": null,
        "streetTypeId": "ST",
        "placeName": "LONDON",
        "streetNameDisplayText": "EDNA ST, LONDON"
      }
    ]
  },
  {
    "postal": "N5Z6M1",
    "result": []
  },
  {
    "postal": "N5Z5L8",
    "result": []
  },
  {
    "postal": "N5Z3P6",
    "result": [
      {
        "electoralDistricts": [
          {
            "election": null,
            "id": 53,
            "name": "London—Fanshawe"
          }
        ],
        "pollDivisionIds": [
          10139572
        ],
        "postalCode": "N5Z3P6",
        "streetName": "JACQUELINE",
        "streetDirectionId": null,
        "streetTypeId": "ST",
        "placeName": "LONDON",
        "streetNameDisplayText": "JACQUELINE ST, LONDON"
      }
    ]
  },
  {
    "postal": "N5Z9A5",
    "result": []
  },
  {
    "postal": "N5Z7K1",
    "result": []
  },
  {
    "postal": "N5Z3J4",
    "result": [
      {
        "electoralDistricts": [
          {
            "election": null,
            "id": 53,
            "name": "London—Fanshawe"
          }
        ],
        "pollDivisionIds": [
          10139572
        ],
        "postalCode": "N5Z3J4",
        "streetName": "BROOKSIDE",
        "streetDirectionId": null,
        "streetTypeId": "ST",
        "placeName": "LONDON",
        "streetNameDisplayText": "BROOKSIDE ST, LONDON"
      }
    ]
  },
  {
    "postal": "N5Z5E7",
    "result": [
      {
        "electoralDistricts": [
          {
            "election": null,
            "id": 53,
            "name": "London—Fanshawe"
          }
        ],
        "pollDivisionIds": [
          10139576
        ],
        "postalCode": "N5Z5E7",
        "streetName": "SIMMS",
        "streetDirectionId": null,
        "streetTypeId": "CRT",
        "placeName": "LONDON",
        "streetNameDisplayText": "SIMMS CRT, LONDON"
      }
    ]
  },
  {
    "postal": "N5Z3A7",
    "result": [
      {
        "electoralDistricts": [
          {
            "election": null,
            "id": 53,
            "name": "London—Fanshawe"
          }
        ],
        "pollDivisionIds": [
          10139574
        ],
        "postalCode": "N5Z3A7",
        "streetName": "DIEPPE",
        "streetDirectionId": null,
        "streetTypeId": "ST",
        "placeName": "LONDON",
        "streetNameDisplayText": "DIEPPE ST, LONDON"
      }
    ]
  },
  {
    "postal": "N5Z1B9",
    "result": [
      {
        "electoralDistricts": [
          {
            "election": null,
            "id": 53,
            "name": "London—Fanshawe"
          }
        ],
        "pollDivisionIds": [
          10139570
        ],
        "postalCode": "N5Z1B9",
        "streetName": "WARD",
        "streetDirectionId": null,
        "streetTypeId": "ST",
        "placeName": "LONDON",
        "streetNameDisplayText": "WARD ST, LONDON"
      }
    ]
  },
  {
    "postal": "N5Z9E8",
    "result": []
  },
  {
    "postal": "N5Z1C9",
    "result": [
      {
        "electoralDistricts": [
          {
            "election": null,
            "id": 53,
            "name": "London—Fanshawe"
          }
        ],
        "pollDivisionIds": [
          10139568
        ],
        "postalCode": "N5Z1C9",
        "streetName": "MAJOR",
        "streetDirectionId": null,
        "streetTypeId": "ST",
        "placeName": "LONDON",
        "streetNameDisplayText": "MAJOR ST, LONDON"
      }
    ]
  },
  {
    "postal": "N5Z3B5",
    "result": [
      {
        "electoralDistricts": [
          {
            "election": null,
            "id": 53,
            "name": "London—Fanshawe"
          }
        ],
        "pollDivisionIds": [
          10139574
        ],
        "postalCode": "N5Z3B5",
        "streetName": "RENFRO",
        "streetDirectionId": null,
        "streetTypeId": "CRES",
        "placeName": "LONDON",
        "streetNameDisplayText": "RENFRO CRES, LONDON"
      }
    ]
  },
  {
    "postal": "N5Z8R0",
    "result": []
  },
  {
    "postal": "N5Z3P2",
    "result": [
      {
        "electoralDistricts": [
          {
            "election": null,
            "id": 53,
            "name": "London—Fanshawe"
          }
        ],
        "pollDivisionIds": [
          10139572
        ],
        "postalCode": "N5Z3P2",
        "streetName": "JOSEPHINE",
        "streetDirectionId": null,
        "streetTypeId": "ST",
        "placeName": "LONDON",
        "streetNameDisplayText": "JOSEPHINE ST, LONDON"
      }
    ]
  },
  {
    "postal": "N5Z5V4",
    "result": []
  },
  {
    "postal": "N5Z4H0",
    "result": []
  },
  {
    "postal": "N5Z4S7",
    "result": [
      {
        "electoralDistricts": [
          {
            "election": null,
            "id": 53,
            "name": "London—Fanshawe"
          }
        ],
        "pollDivisionIds": [
          10139577
        ],
        "postalCode": "N5Z4S7",
        "streetName": "MILLERS",
        "streetDirectionId": null,
        "streetTypeId": "RD",
        "placeName": "LONDON",
        "streetNameDisplayText": "MILLERS RD, LONDON"
      }
    ]
  },
  {
    "postal": "N5Z6C2",
    "result": []
  },
  {
    "postal": "N5Z8W3",
    "result": []
  },
  {
    "postal": "N5Z4M5",
    "result": [
      {
        "electoralDistricts": [
          {
            "election": null,
            "id": 53,
            "name": "London—Fanshawe"
          }
        ],
        "pollDivisionIds": [
          10139576
        ],
        "postalCode": "N5Z4M5",
        "streetName": "EDGEMERE",
        "streetDirectionId": null,
        "streetTypeId": "CRES",
        "placeName": "LONDON",
        "streetNameDisplayText": "EDGEMERE CRES, LONDON"
      }
    ]
  },
  {
    "postal": "N5Z5T1",
    "result": []
  },
  {
    "postal": "N5Z3B3",
    "result": [
      {
        "electoralDistricts": [
          {
            "election": null,
            "id": 53,
            "name": "London—Fanshawe"
          }
        ],
        "pollDivisionIds": [
          10139573
        ],
        "postalCode": "N5Z3B3",
        "streetName": "IVY",
        "streetDirectionId": null,
        "streetTypeId": "CRT",
        "placeName": "LONDON",
        "streetNameDisplayText": "IVY CRT, LONDON"
      }
    ]
  },
  {
    "postal": "N5Z6C6",
    "result": []
  },
  {
    "postal": "N5Z7N8",
    "result": []
  },
  {
    "postal": "N5Z2Y3",
    "result": [
      {
        "electoralDistricts": [
          {
            "election": null,
            "id": 53,
            "name": "London—Fanshawe"
          }
        ],
        "pollDivisionIds": [
          10139574
        ],
        "postalCode": "N5Z2Y3",
        "streetName": "MAUD",
        "streetDirectionId": null,
        "streetTypeId": "ST",
        "placeName": "LONDON",
        "streetNameDisplayText": "MAUD ST, LONDON"
      }
    ]
  },
  {
    "postal": "N5Z2R6",
    "result": [
      {
        "electoralDistricts": [
          {
            "election": null,
            "id": 53,
            "name": "London—Fanshawe"
          }
        ],
        "pollDivisionIds": [
          10139570
        ],
        "postalCode": "N5Z2R6",
        "streetName": "EAST",
        "streetDirectionId": null,
        "streetTypeId": "ST",
        "placeName": "LONDON",
        "streetNameDisplayText": "EAST ST, LONDON"
      }
    ]
  },
  {
    "postal": "N5Z7N3",
    "result": []
  },
  {
    "postal": "N5Z8J2",
    "result": []
  },
  {
    "postal": "N5Z6A9",
    "result": []
  },
  {
    "postal": "N5Z3V2",
    "result": [
      {
        "electoralDistricts": [
          {
            "election": null,
            "id": 53,
            "name": "London—Fanshawe"
          }
        ],
        "pollDivisionIds": [
          10139574
        ],
        "postalCode": "N5Z3V2",
        "streetName": "KING EDWARD",
        "streetDirectionId": null,
        "streetTypeId": "AVE",
        "placeName": "LONDON",
        "streetNameDisplayText": "KING EDWARD AVE, LONDON"
      }
    ]
  },
  {
    "postal": "N5Z2N3",
    "result": [
      {
        "electoralDistricts": [
          {
            "election": null,
            "id": 53,
            "name": "London—Fanshawe"
          }
        ],
        "pollDivisionIds": [
          10139568
        ],
        "postalCode": "N5Z2N3",
        "streetName": "ST JULIEN",
        "streetDirectionId": null,
        "streetTypeId": "ST",
        "placeName": "LONDON",
        "streetNameDisplayText": "ST JULIEN ST, LONDON"
      }
    ]
  },
  {
    "postal": "N5Z1S5",
    "result": [
      {
        "electoralDistricts": [
          {
            "election": null,
            "id": 53,
            "name": "London—Fanshawe"
          }
        ],
        "pollDivisionIds": [
          10139570
        ],
        "postalCode": "N5Z1S5",
        "streetName": "HAMILTON",
        "streetDirectionId": null,
        "streetTypeId": "RD",
        "placeName": "LONDON",
        "streetNameDisplayText": "HAMILTON RD, LONDON"
      }
    ]
  },
  {
    "postal": "N5Z4T7",
    "result": [
      {
        "electoralDistricts": [
          {
            "election": null,
            "id": 53,
            "name": "London—Fanshawe"
          }
        ],
        "pollDivisionIds": [
          10139576
        ],
        "postalCode": "N5Z4T7",
        "streetName": "BANBURY",
        "streetDirectionId": null,
        "streetTypeId": "CRES",
        "placeName": "LONDON",
        "streetNameDisplayText": "BANBURY CRES, LONDON"
      }
    ]
  },
  {
    "postal": "N5Z6Y7",
    "result": []
  },
  {
    "postal": "N5Z0W7",
    "result": []
  },
  {
    "postal": "N5Z2W9",
    "result": [
      {
        "electoralDistricts": [
          {
            "election": null,
            "id": 53,
            "name": "London—Fanshawe"
          }
        ],
        "pollDivisionIds": [
          10139567
        ],
        "postalCode": "N5Z2W9",
        "streetName": "HIGHBURY",
        "streetDirectionId": "N",
        "streetTypeId": "AVE",
        "placeName": "LONDON",
        "streetNameDisplayText": "HIGHBURY AVE N, LONDON"
      }
    ]
  },
  {
    "postal": "N5Z8V0",
    "result": []
  },
  {
    "postal": "N5Z0H4",
    "result": []
  },
  {
    "postal": "N5Z2T1",
    "result": [
      {
        "electoralDistricts": [
          {
            "election": null,
            "id": 53,
            "name": "London—Fanshawe"
          }
        ],
        "pollDivisionIds": [
          10139568
        ],
        "postalCode": "N5Z2T1",
        "streetName": "SANDERS",
        "streetDirectionId": null,
        "streetTypeId": "ST",
        "placeName": "LONDON",
        "streetNameDisplayText": "SANDERS ST, LONDON"
      }
    ]
  },
  {
    "postal": "N5Z1B1",
    "result": [
      {
        "electoralDistricts": [
          {
            "election": null,
            "id": 53,
            "name": "London—Fanshawe"
          }
        ],
        "pollDivisionIds": [
          10139570
        ],
        "postalCode": "N5Z1B1",
        "streetName": "HOMAN",
        "streetDirectionId": null,
        "streetTypeId": "ST",
        "placeName": "LONDON",
        "streetNameDisplayText": "HOMAN ST, LONDON"
      }
    ]
  },
  {
    "postal": "N5Z8B6",
    "result": []
  },
  {
    "postal": "N5Z6H1",
    "result": []
  },
  {
    "postal": "N5Z8T8",
    "result": []
  },
  {
    "postal": "N5Z0T4",
    "result": []
  },
  {
    "postal": "N5Z2C4",
    "result": [
      {
        "electoralDistricts": [
          {
            "election": null,
            "id": 53,
            "name": "London—Fanshawe"
          }
        ],
        "pollDivisionIds": [
          10139569
        ],
        "postalCode": "N5Z2C4",
        "streetName": "CHESLEY",
        "streetDirectionId": null,
        "streetTypeId": "AVE",
        "placeName": "LONDON",
        "streetNameDisplayText": "CHESLEY AVE, LONDON"
      }
    ]
  },
  {
    "postal": "N5Z8N3",
    "result": []
  },
  {
    "postal": "N5Z4L8",
    "result": [
      {
        "electoralDistricts": [
          {
            "election": null,
            "id": 53,
            "name": "London—Fanshawe"
          }
        ],
        "pollDivisionIds": [
          10139577
        ],
        "postalCode": "N5Z4L8",
        "streetName": "COMMISSIONERS",
        "streetDirectionId": "E",
        "streetTypeId": "RD",
        "placeName": "LONDON",
        "streetNameDisplayText": "COMMISSIONERS RD E, LONDON"
      }
    ]
  },
  {
    "postal": "N5Z2B5",
    "result": [
      {
        "electoralDistricts": [
          {
            "election": null,
            "id": 53,
            "name": "London—Fanshawe"
          }
        ],
        "pollDivisionIds": [
          10139570
        ],
        "postalCode": "N5Z2B5",
        "streetName": "PEGLER",
        "streetDirectionId": null,
        "streetTypeId": "ST",
        "placeName": "LONDON",
        "streetNameDisplayText": "PEGLER ST, LONDON"
      }
    ]
  },
  {
    "postal": "N5Z3H1",
    "result": [
      {
        "electoralDistricts": [
          {
            "election": null,
            "id": 53,
            "name": "London—Fanshawe"
          }
        ],
        "pollDivisionIds": [
          10139573
        ],
        "postalCode": "N5Z3H1",
        "streetName": "BURLINGTON",
        "streetDirectionId": null,
        "streetTypeId": "CRES",
        "placeName": "LONDON",
        "streetNameDisplayText": "BURLINGTON CRES, LONDON"
      }
    ]
  },
  {
    "postal": "N5Z4Y1",
    "result": [
      {
        "electoralDistricts": [
          {
            "election": null,
            "id": 53,
            "name": "London—Fanshawe"
          }
        ],
        "pollDivisionIds": [
          10139576
        ],
        "postalCode": "N5Z4Y1",
        "streetName": "DEVERON",
        "streetDirectionId": null,
        "streetTypeId": "CRES",
        "placeName": "LONDON",
        "streetNameDisplayText": "DEVERON CRES, LONDON"
      }
    ]
  },
  {
    "postal": "N5Z7E2",
    "result": []
  },
  {
    "postal": "N5Z2P5",
    "result": [
      {
        "electoralDistricts": [
          {
            "election": null,
            "id": 53,
            "name": "London—Fanshawe"
          }
        ],
        "pollDivisionIds": [
          10139570
        ],
        "postalCode": "N5Z2P5",
        "streetName": "MADISON",
        "streetDirectionId": null,
        "streetTypeId": "AVE",
        "placeName": "LONDON",
        "streetNameDisplayText": "MADISON AVE, LONDON"
      }
    ]
  },
  {
    "postal": "N5Z8R7",
    "result": []
  },
  {
    "postal": "N5Z9P1",
    "result": []
  },
  {
    "postal": "N5Z3B8",
    "result": [
      {
        "electoralDistricts": [
          {
            "election": null,
            "id": 53,
            "name": "London—Fanshawe"
          }
        ],
        "pollDivisionIds": [
          10139574
        ],
        "postalCode": "N5Z3B8",
        "streetName": "DOVER",
        "streetDirectionId": null,
        "streetTypeId": "PL",
        "placeName": "LONDON",
        "streetNameDisplayText": "DOVER PL, LONDON"
      }
    ]
  },
  {
    "postal": "N5Z3P7",
    "result": [
      {
        "electoralDistricts": [
          {
            "election": null,
            "id": 53,
            "name": "London—Fanshawe"
          }
        ],
        "pollDivisionIds": [
          10139572
        ],
        "postalCode": "N5Z3P7",
        "streetName": "JACQUELINE",
        "streetDirectionId": null,
        "streetTypeId": "ST",
        "placeName": "LONDON",
        "streetNameDisplayText": "JACQUELINE ST, LONDON"
      }
    ]
  },
  {
    "postal": "N5Z9B2",
    "result": []
  },
  {
    "postal": "N5Z6Z3",
    "result": []
  },
  {
    "postal": "N5Z4N5",
    "result": []
  },
  {
    "postal": "N5Z8T3",
    "result": []
  },
  {
    "postal": "N5Z1V2",
    "result": [
      {
        "electoralDistricts": [
          {
            "election": null,
            "id": 53,
            "name": "London—Fanshawe"
          }
        ],
        "pollDivisionIds": [
          10139570
        ],
        "postalCode": "N5Z1V2",
        "streetName": "HAMILTON",
        "streetDirectionId": null,
        "streetTypeId": "RD",
        "placeName": "LONDON",
        "streetNameDisplayText": "HAMILTON RD, LONDON"
      }
    ]
  },
  {
    "postal": "N5Z1Y0",
    "result": []
  },
  {
    "postal": "N5Z3G6",
    "result": [
      {
        "electoralDistricts": [
          {
            "election": null,
            "id": 53,
            "name": "London—Fanshawe"
          }
        ],
        "pollDivisionIds": [
          10139573
        ],
        "postalCode": "N5Z3G6",
        "streetName": "BURLINGTON",
        "streetDirectionId": null,
        "streetTypeId": "CRES",
        "placeName": "LONDON",
        "streetNameDisplayText": "BURLINGTON CRES, LONDON"
      }
    ]
  },
  {
    "postal": "N5Z3H7",
    "result": [
      {
        "electoralDistricts": [
          {
            "election": null,
            "id": 53,
            "name": "London—Fanshawe"
          }
        ],
        "pollDivisionIds": [
          10139574
        ],
        "postalCode": "N5Z3H7",
        "streetName": "EAGLE",
        "streetDirectionId": null,
        "streetTypeId": "CRES",
        "placeName": "LONDON",
        "streetNameDisplayText": "EAGLE CRES, LONDON"
      }
    ]
  },
  {
    "postal": "N5Z7X8",
    "result": []
  },
  {
    "postal": "N5Z0C7",
    "result": []
  },
  {
    "postal": "N5Z0W9",
    "result": []
  },
  {
    "postal": "N5Z8E6",
    "result": []
  },
  {
    "postal": "N5Z9Z8",
    "result": []
  },
  {
    "postal": "N5Z3P4",
    "result": [
      {
        "electoralDistricts": [
          {
            "election": null,
            "id": 53,
            "name": "London—Fanshawe"
          }
        ],
        "pollDivisionIds": [
          10139572
        ],
        "postalCode": "N5Z3P4",
        "streetName": "JOSEPHINE",
        "streetDirectionId": null,
        "streetTypeId": "ST",
        "placeName": "LONDON",
        "streetNameDisplayText": "JOSEPHINE ST, LONDON"
      }
    ]
  },
  {
    "postal": "N5Z6L8",
    "result": []
  },
  {
    "postal": "N5Z2R4",
    "result": [
      {
        "electoralDistricts": [
          {
            "election": null,
            "id": 53,
            "name": "London—Fanshawe"
          }
        ],
        "pollDivisionIds": [
          10139568
        ],
        "postalCode": "N5Z2R4",
        "streetName": "PINE LAWN",
        "streetDirectionId": null,
        "streetTypeId": "AVE",
        "placeName": "LONDON",
        "streetNameDisplayText": "PINE LAWN AVE, LONDON"
      }
    ]
  },
  {
    "postal": "N5Z2W1",
    "result": [
      {
        "electoralDistricts": [
          {
            "election": null,
            "id": 53,
            "name": "London—Fanshawe"
          }
        ],
        "pollDivisionIds": [
          10139568
        ],
        "postalCode": "N5Z2W1",
        "streetName": "GILES",
        "streetDirectionId": null,
        "streetTypeId": "ST",
        "placeName": "LONDON",
        "streetNameDisplayText": "GILES ST, LONDON"
      }
    ]
  },
  {
    "postal": "N5Z9H8",
    "result": []
  },
  {
    "postal": "N5Z8X9",
    "result": []
  },
  {
    "postal": "N5Z7H4",
    "result": []
  },
  {
    "postal": "N5Z3J1",
    "result": [
      {
        "electoralDistricts": [
          {
            "election": null,
            "id": 53,
            "name": "London—Fanshawe"
          }
        ],
        "pollDivisionIds": [
          10139574
        ],
        "postalCode": "N5Z3J1",
        "streetName": "COMMISSIONERS",
        "streetDirectionId": "E",
        "streetTypeId": "RD",
        "placeName": "LONDON",
        "streetNameDisplayText": "COMMISSIONERS RD E, LONDON"
      }
    ]
  },
  {
    "postal": "N5Z1P4",
    "result": [
      {
        "electoralDistricts": [
          {
            "election": null,
            "id": 53,
            "name": "London—Fanshawe"
          }
        ],
        "pollDivisionIds": [
          10139569
        ],
        "postalCode": "N5Z1P4",
        "streetName": "LITTLE SIMCOE",
        "streetDirectionId": null,
        "streetTypeId": "ST",
        "placeName": "LONDON",
        "streetNameDisplayText": "LITTLE SIMCOE ST, LONDON"
      },
      {
        "electoralDistricts": [
          {
            "election": null,
            "id": 54,
            "name": "London North Centre"
          }
        ],
        "pollDivisionIds": [
          10135390
        ],
        "postalCode": "N5Z1P4",
        "streetName": "SIMCOE",
        "streetDirectionId": null,
        "streetTypeId": "ST",
        "placeName": "LONDON",
        "streetNameDisplayText": "SIMCOE ST, LONDON"
      }
    ]
  },
  {
    "postal": "N5Z2A3",
    "result": [
      {
        "electoralDistricts": [
          {
            "election": null,
            "id": 53,
            "name": "London—Fanshawe"
          }
        ],
        "pollDivisionIds": [
          10139569
        ],
        "postalCode": "N5Z2A3",
        "streetName": "RECTORY",
        "streetDirectionId": null,
        "streetTypeId": "ST",
        "placeName": "LONDON",
        "streetNameDisplayText": "RECTORY ST, LONDON"
      }
    ]
  },
  {
    "postal": "N5Z0Z1",
    "result": []
  },
  {
    "postal": "N5Z1C1",
    "result": [
      {
        "electoralDistricts": [
          {
            "election": null,
            "id": 53,
            "name": "London—Fanshawe"
          }
        ],
        "pollDivisionIds": [
          10139570
        ],
        "postalCode": "N5Z1C1",
        "streetName": "TERRENCE",
        "streetDirectionId": null,
        "streetTypeId": "ST",
        "placeName": "LONDON",
        "streetNameDisplayText": "TERRENCE ST, LONDON"
      }
    ]
  },
  {
    "postal": "N5Z0H3",
    "result": []
  },
  {
    "postal": "N5Z7B0",
    "result": []
  },
  {
    "postal": "N5Z5K2",
    "result": []
  },
  {
    "postal": "N5Z1E9",
    "result": [
      {
        "electoralDistricts": [
          {
            "election": null,
            "id": 53,
            "name": "London—Fanshawe"
          }
        ],
        "pollDivisionIds": [
          10139570
        ],
        "postalCode": "N5Z1E9",
        "streetName": "TRAFALGAR",
        "streetDirectionId": null,
        "streetTypeId": "ST",
        "placeName": "LONDON",
        "streetNameDisplayText": "TRAFALGAR ST, LONDON"
      }
    ]
  },
  {
    "postal": "N5Z9W7",
    "result": []
  },
  {
    "postal": "N5Z5W6",
    "result": []
  },
  {
    "postal": "N5Z6S6",
    "result": []
  },
  {
    "postal": "N5Z2P8",
    "result": [
      {
        "electoralDistricts": [
          {
            "election": null,
            "id": 53,
            "name": "London—Fanshawe"
          }
        ],
        "pollDivisionIds": [
          10139568
        ],
        "postalCode": "N5Z2P8",
        "streetName": "GLENWOOD",
        "streetDirectionId": null,
        "streetTypeId": "AVE",
        "placeName": "LONDON",
        "streetNameDisplayText": "GLENWOOD AVE, LONDON"
      }
    ]
  },
  {
    "postal": "N5Z4P8",
    "result": [
      {
        "electoralDistricts": [
          {
            "election": null,
            "id": 53,
            "name": "London—Fanshawe"
          }
        ],
        "pollDivisionIds": [
          10139578
        ],
        "postalCode": "N5Z4P8",
        "streetName": "POND MILLS",
        "streetDirectionId": null,
        "streetTypeId": "RD",
        "placeName": "LONDON",
        "streetNameDisplayText": "POND MILLS RD, LONDON"
      }
    ]
  },
  {
    "postal": "N5Z0V9",
    "result": []
  },
  {
    "postal": "N5Z5Y2",
    "result": []
  },
  {
    "postal": "N5Z7Z7",
    "result": []
  },
  {
    "postal": "N5Z6Y8",
    "result": []
  },
  {
    "postal": "N5Z2G7",
    "result": [
      {
        "electoralDistricts": [
          {
            "election": null,
            "id": 53,
            "name": "London—Fanshawe"
          }
        ],
        "pollDivisionIds": [
          10139568
        ],
        "postalCode": "N5Z2G7",
        "streetName": "EGERTON",
        "streetDirectionId": null,
        "streetTypeId": "ST",
        "placeName": "LONDON",
        "streetNameDisplayText": "EGERTON ST, LONDON"
      }
    ]
  },
  {
    "postal": "N5Z8C1",
    "result": []
  },
  {
    "postal": "N5Z5C5",
    "result": [
      {
        "electoralDistricts": [
          {
            "election": null,
            "id": 53,
            "name": "London—Fanshawe"
          }
        ],
        "pollDivisionIds": [
          10139573
        ],
        "postalCode": "N5Z5C5",
        "streetName": "SHELBORNE",
        "streetDirectionId": null,
        "streetTypeId": "ST",
        "placeName": "LONDON",
        "streetNameDisplayText": "SHELBORNE ST, LONDON"
      }
    ]
  },
  {
    "postal": "N5Z2X8",
    "result": [
      {
        "electoralDistricts": [
          {
            "election": null,
            "id": 53,
            "name": "London—Fanshawe"
          }
        ],
        "pollDivisionIds": [
          10139574
        ],
        "postalCode": "N5Z2X8",
        "streetName": "EDNA",
        "streetDirectionId": null,
        "streetTypeId": "ST",
        "placeName": "LONDON",
        "streetNameDisplayText": "EDNA ST, LONDON"
      }
    ]
  },
  {
    "postal": "N5Z1W5",
    "result": [
      {
        "electoralDistricts": [
          {
            "election": null,
            "id": 53,
            "name": "London—Fanshawe"
          }
        ],
        "pollDivisionIds": [
          10139570
        ],
        "postalCode": "N5Z1W5",
        "streetName": "HAMILTON",
        "streetDirectionId": null,
        "streetTypeId": "RD",
        "placeName": "LONDON",
        "streetNameDisplayText": "HAMILTON RD, LONDON"
      }
    ]
  },
  {
    "postal": "N5Z7G0",
    "result": []
  },
  {
    "postal": "N5Z8J8",
    "result": []
  },
  {
    "postal": "N5Z3Y0",
    "result": []
  },
  {
    "postal": "N5Z9T7",
    "result": []
  },
  {
    "postal": "N5Z5P4",
    "result": []
  },
  {
    "postal": "N5Z4B0",
    "result": []
  },
  {
    "postal": "N5Z9N8",
    "result": []
  },
  {
    "postal": "N5Z4A7",
    "result": [
      {
        "electoralDistricts": [
          {
            "election": null,
            "id": 53,
            "name": "London—Fanshawe"
          }
        ],
        "pollDivisionIds": [
          10139577
        ],
        "postalCode": "N5Z4A7",
        "streetName": "SILVERDALE",
        "streetDirectionId": null,
        "streetTypeId": "PL",
        "placeName": "LONDON",
        "streetNameDisplayText": "SILVERDALE PL, LONDON"
      }
    ]
  },
  {
    "postal": "N5Z4H9",
    "result": [
      {
        "electoralDistricts": [
          {
            "election": null,
            "id": 53,
            "name": "London—Fanshawe"
          }
        ],
        "pollDivisionIds": [
          10139576
        ],
        "postalCode": "N5Z4H9",
        "streetName": "WORTHINGTON",
        "streetDirectionId": null,
        "streetTypeId": "AVE",
        "placeName": "LONDON",
        "streetNameDisplayText": "WORTHINGTON AVE, LONDON"
      }
    ]
  },
  {
    "postal": "N5Z6X1",
    "result": []
  },
  {
    "postal": "N5Z9Y7",
    "result": []
  },
  {
    "postal": "N5Z2Y5",
    "result": [
      {
        "electoralDistricts": [
          {
            "election": null,
            "id": 53,
            "name": "London—Fanshawe"
          }
        ],
        "pollDivisionIds": [
          10139572
        ],
        "postalCode": "N5Z2Y5",
        "streetName": "VERONICA",
        "streetDirectionId": null,
        "streetTypeId": "AVE",
        "placeName": "LONDON",
        "streetNameDisplayText": "VERONICA AVE, LONDON"
      }
    ]
  },
  {
    "postal": "N5Z8L7",
    "result": []
  },
  {
    "postal": "N5Z2A8",
    "result": []
  },
  {
    "postal": "N5Z2K9",
    "result": [
      {
        "electoralDistricts": [
          {
            "election": null,
            "id": 53,
            "name": "London—Fanshawe"
          }
        ],
        "pollDivisionIds": [
          10139568
        ],
        "postalCode": "N5Z2K9",
        "streetName": "HYLA",
        "streetDirectionId": null,
        "streetTypeId": "ST",
        "placeName": "LONDON",
        "streetNameDisplayText": "HYLA ST, LONDON"
      }
    ]
  },
  {
    "postal": "N5Z3E5",
    "result": [
      {
        "electoralDistricts": [
          {
            "election": null,
            "id": 53,
            "name": "London—Fanshawe"
          }
        ],
        "pollDivisionIds": [
          10139574
        ],
        "postalCode": "N5Z3E5",
        "streetName": "VERMONT",
        "streetDirectionId": null,
        "streetTypeId": "AVE",
        "placeName": "LONDON",
        "streetNameDisplayText": "VERMONT AVE, LONDON"
      }
    ]
  },
  {
    "postal": "N5Z8N6",
    "result": []
  },
  {
    "postal": "N5Z8J4",
    "result": []
  },
  {
    "postal": "N5Z4R7",
    "result": [
      {
        "electoralDistricts": [
          {
            "election": null,
            "id": 53,
            "name": "London—Fanshawe"
          }
        ],
        "pollDivisionIds": [
          10139576
        ],
        "postalCode": "N5Z4R7",
        "streetName": "SUNDRIDGE",
        "streetDirectionId": null,
        "streetTypeId": "CRES",
        "placeName": "LONDON",
        "streetNameDisplayText": "SUNDRIDGE CRES, LONDON"
      }
    ]
  },
  {
    "postal": "N5Z9K1",
    "result": []
  },
  {
    "postal": "N5Z8E1",
    "result": []
  },
  {
    "postal": "N5Z0R1",
    "result": []
  },
  {
    "postal": "N5Z4J3",
    "result": [
      {
        "electoralDistricts": [
          {
            "election": null,
            "id": 53,
            "name": "London—Fanshawe"
          }
        ],
        "pollDivisionIds": [
          10139576
        ],
        "postalCode": "N5Z4J3",
        "streetName": "DEVERON",
        "streetDirectionId": null,
        "streetTypeId": "CRES",
        "placeName": "LONDON",
        "streetNameDisplayText": "DEVERON CRES, LONDON"
      }
    ]
  },
  {
    "postal": "N5Z7E7",
    "result": []
  },
  {
    "postal": "N5Z0J0",
    "result": []
  },
  {
    "postal": "N5Z7R8",
    "result": []
  },
  {
    "postal": "N5Z9X0",
    "result": []
  },
  {
    "postal": "N5Z7P6",
    "result": []
  },
  {
    "postal": "N5Z0R7",
    "result": []
  },
  {
    "postal": "N5Z5W1",
    "result": []
  },
  {
    "postal": "N5Z0K4",
    "result": []
  },
  {
    "postal": "N5Z7N9",
    "result": []
  },
  {
    "postal": "N5Z1N0",
    "result": []
  },
  {
    "postal": "N5Z6P3",
    "result": []
  },
  {
    "postal": "N5Z5A1",
    "result": [
      {
        "electoralDistricts": [
          {
            "election": null,
            "id": 53,
            "name": "London—Fanshawe"
          }
        ],
        "pollDivisionIds": [
          10139572
        ],
        "postalCode": "N5Z5A1",
        "streetName": "KIMBERLEY",
        "streetDirectionId": null,
        "streetTypeId": "AVE",
        "placeName": "LONDON",
        "streetNameDisplayText": "KIMBERLEY AVE, LONDON"
      }
    ]
  },
  {
    "postal": "N5Z9M9",
    "result": []
  },
  {
    "postal": "N5Z7T6",
    "result": []
  },
  {
    "postal": "N5Z3X0",
    "result": []
  },
  {
    "postal": "N5Z2T0",
    "result": []
  },
  {
    "postal": "N5Z5X9",
    "result": []
  },
  {
    "postal": "N5Z2R3",
    "result": [
      {
        "electoralDistricts": [
          {
            "election": null,
            "id": 53,
            "name": "London—Fanshawe"
          }
        ],
        "pollDivisionIds": [
          10139568
        ],
        "postalCode": "N5Z2R3",
        "streetName": "PINE LAWN",
        "streetDirectionId": null,
        "streetTypeId": "AVE",
        "placeName": "LONDON",
        "streetNameDisplayText": "PINE LAWN AVE, LONDON"
      }
    ]
  },
  {
    "postal": "N5Z5N2",
    "result": []
  },
  {
    "postal": "N5Z4Y7",
    "result": []
  },
  {
    "postal": "N5Z7M0",
    "result": []
  },
  {
    "postal": "N5Z8P3",
    "result": []
  },
  {
    "postal": "N5Z3N3",
    "result": [
      {
        "electoralDistricts": [
          {
            "election": null,
            "id": 53,
            "name": "London—Fanshawe"
          }
        ],
        "pollDivisionIds": [
          10139574
        ],
        "postalCode": "N5Z3N3",
        "streetName": "CHESTERFIELD",
        "streetDirectionId": null,
        "streetTypeId": "AVE",
        "placeName": "LONDON",
        "streetNameDisplayText": "CHESTERFIELD AVE, LONDON"
      }
    ]
  },
  {
    "postal": "N5Z7S3",
    "result": []
  },
  {
    "postal": "N5Z3V9",
    "result": [
      {
        "electoralDistricts": [
          {
            "election": null,
            "id": 53,
            "name": "London—Fanshawe"
          }
        ],
        "pollDivisionIds": [
          10139574
        ],
        "postalCode": "N5Z3V9",
        "streetName": "BURLINGTON",
        "streetDirectionId": null,
        "streetTypeId": "ST",
        "placeName": "LONDON",
        "streetNameDisplayText": "BURLINGTON ST, LONDON"
      }
    ]
  },
  {
    "postal": "N5Z9N7",
    "result": []
  },
  {
    "postal": "N5Z0G4",
    "result": []
  },
  {
    "postal": "N5Z2E2",
    "result": [
      {
        "electoralDistricts": [
          {
            "election": null,
            "id": 53,
            "name": "London—Fanshawe"
          }
        ],
        "pollDivisionIds": [
          10139568
        ],
        "postalCode": "N5Z2E2",
        "streetName": "SACKVILLE",
        "streetDirectionId": null,
        "streetTypeId": "ST",
        "placeName": "LONDON",
        "streetNameDisplayText": "SACKVILLE ST, LONDON"
      }
    ]
  },
  {
    "postal": "N5Z7W8",
    "result": []
  },
  {
    "postal": "N5Z7M5",
    "result": []
  },
  {
    "postal": "N5Z5W8",
    "result": []
  },
  {
    "postal": "N5Z5E5",
    "result": []
  },
  {
    "postal": "N5Z1P9",
    "result": [
      {
        "electoralDistricts": [
          {
            "election": null,
            "id": 53,
            "name": "London—Fanshawe"
          }
        ],
        "pollDivisionIds": [
          10139571
        ],
        "postalCode": "N5Z1P9",
        "streetName": "HAMILTON",
        "streetDirectionId": null,
        "streetTypeId": "RD",
        "placeName": "LONDON",
        "streetNameDisplayText": "HAMILTON RD, LONDON"
      }
    ]
  },
  {
    "postal": "N5Z8V8",
    "result": []
  },
  {
    "postal": "N5Z9G8",
    "result": []
  },
  {
    "postal": "N5Z8H9",
    "result": []
  },
  {
    "postal": "N5Z1Z1",
    "result": [
      {
        "electoralDistricts": [
          {
            "election": null,
            "id": 53,
            "name": "London—Fanshawe"
          }
        ],
        "pollDivisionIds": [
          10139571
        ],
        "postalCode": "N5Z1Z1",
        "streetName": "CARSON",
        "streetDirectionId": null,
        "streetTypeId": "LANE",
        "placeName": "LONDON",
        "streetNameDisplayText": "CARSON LANE, LONDON"
      }
    ]
  },
  {
    "postal": "N5Z8M3",
    "result": []
  },
  {
    "postal": "N5Z5H6",
    "result": []
  },
  {
    "postal": "N5Z7W7",
    "result": []
  },
  {
    "postal": "N5Z4L0",
    "result": []
  },
  {
    "postal": "N5Z2N1",
    "result": [
      {
        "electoralDistricts": [
          {
            "election": null,
            "id": 53,
            "name": "London—Fanshawe"
          }
        ],
        "pollDivisionIds": [
          10139568
        ],
        "postalCode": "N5Z2N1",
        "streetName": "ST JULIEN",
        "streetDirectionId": null,
        "streetTypeId": "ST",
        "placeName": "LONDON",
        "streetNameDisplayText": "ST JULIEN ST, LONDON"
      }
    ]
  },
  {
    "postal": "N5Z2H4",
    "result": [
      {
        "electoralDistricts": [
          {
            "election": null,
            "id": 53,
            "name": "London—Fanshawe"
          }
        ],
        "pollDivisionIds": [
          10139570
        ],
        "postalCode": "N5Z2H4",
        "streetName": "HYDRO",
        "streetDirectionId": null,
        "streetTypeId": "ST",
        "placeName": "LONDON",
        "streetNameDisplayText": "HYDRO ST, LONDON"
      }
    ]
  },
  {
    "postal": "N5Z5C8",
    "result": [
      {
        "electoralDistricts": [
          {
            "election": null,
            "id": 53,
            "name": "London—Fanshawe"
          }
        ],
        "pollDivisionIds": [
          10139573
        ],
        "postalCode": "N5Z5C8",
        "streetName": "JONATHAN",
        "streetDirectionId": null,
        "streetTypeId": "ST",
        "placeName": "LONDON",
        "streetNameDisplayText": "JONATHAN ST, LONDON"
      },
      {
        "electoralDistricts": [
          {
            "election": null,
            "id": 53,
            "name": "London—Fanshawe"
          }
        ],
        "pollDivisionIds": [
          10139573
        ],
        "postalCode": "N5Z5C8",
        "streetName": "SANDY",
        "streetDirectionId": null,
        "streetTypeId": "ST",
        "placeName": "LONDON",
        "streetNameDisplayText": "SANDY ST, LONDON"
      },
      {
        "electoralDistricts": [
          {
            "election": null,
            "id": 53,
            "name": "London—Fanshawe"
          }
        ],
        "pollDivisionIds": [
          10139573
        ],
        "postalCode": "N5Z5C8",
        "streetName": "SHELBORNE",
        "streetDirectionId": null,
        "streetTypeId": "ST",
        "placeName": "LONDON",
        "streetNameDisplayText": "SHELBORNE ST, LONDON"
      }
    ]
  },
  {
    "postal": "N5Z8B0",
    "result": []
  },
  {
    "postal": "N5Z1T4",
    "result": [
      {
        "electoralDistricts": [
          {
            "election": null,
            "id": 53,
            "name": "London—Fanshawe"
          }
        ],
        "pollDivisionIds": [
          10139570
        ],
        "postalCode": "N5Z1T4",
        "streetName": "HAMILTON",
        "streetDirectionId": null,
        "streetTypeId": "RD",
        "placeName": "LONDON",
        "streetNameDisplayText": "HAMILTON RD, LONDON"
      }
    ]
  },
  {
    "postal": "N5Z7N7",
    "result": []
  },
  {
    "postal": "N5Z4L3",
    "result": [
      {
        "electoralDistricts": [
          {
            "election": null,
            "id": 53,
            "name": "London—Fanshawe"
          }
        ],
        "pollDivisionIds": [
          10139576
        ],
        "postalCode": "N5Z4L3",
        "streetName": "LYSANDA",
        "streetDirectionId": null,
        "streetTypeId": "AVE",
        "placeName": "LONDON",
        "streetNameDisplayText": "LYSANDA AVE, LONDON"
      }
    ]
  },
  {
    "postal": "N5Z2N2",
    "result": [
      {
        "electoralDistricts": [
          {
            "election": null,
            "id": 53,
            "name": "London—Fanshawe"
          }
        ],
        "pollDivisionIds": [
          10139568
        ],
        "postalCode": "N5Z2N2",
        "streetName": "ST JULIEN",
        "streetDirectionId": null,
        "streetTypeId": "ST",
        "placeName": "LONDON",
        "streetNameDisplayText": "ST JULIEN ST, LONDON"
      }
    ]
  },
  {
    "postal": "N5Z4N8",
    "result": [
      {
        "electoralDistricts": [
          {
            "election": null,
            "id": 53,
            "name": "London—Fanshawe"
          }
        ],
        "pollDivisionIds": [
          10139577
        ],
        "postalCode": "N5Z4N8",
        "streetName": "MILLERS",
        "streetDirectionId": null,
        "streetTypeId": "RD",
        "placeName": "LONDON",
        "streetNameDisplayText": "MILLERS RD, LONDON"
      }
    ]
  },
  {
    "postal": "N5Z3M5",
    "result": [
      {
        "electoralDistricts": [
          {
            "election": null,
            "id": 53,
            "name": "London—Fanshawe"
          }
        ],
        "pollDivisionIds": [
          10139574
        ],
        "postalCode": "N5Z3M5",
        "streetName": "LEATHORNE",
        "streetDirectionId": null,
        "streetTypeId": "ST",
        "placeName": "LONDON",
        "streetNameDisplayText": "LEATHORNE ST, LONDON"
      }
    ]
  },
  {
    "postal": "N5Z6H7",
    "result": []
  },
  {
    "postal": "N5Z8Y8",
    "result": []
  },
  {
    "postal": "N5Z5R9",
    "result": []
  },
  {
    "postal": "N5Z8G3",
    "result": []
  },
  {
    "postal": "N5Z4N7",
    "result": []
  },
  {
    "postal": "N5Z0B9",
    "result": []
  },
  {
    "postal": "N5Z9K7",
    "result": []
  },
  {
    "postal": "N5Z9K9",
    "result": []
  },
  {
    "postal": "N5Z3Z2",
    "result": [
      {
        "electoralDistricts": [
          {
            "election": null,
            "id": 53,
            "name": "London—Fanshawe"
          }
        ],
        "pollDivisionIds": [
          10139577
        ],
        "postalCode": "N5Z3Z2",
        "streetName": "SUMNER",
        "streetDirectionId": null,
        "streetTypeId": "RD",
        "placeName": "LONDON",
        "streetNameDisplayText": "SUMNER RD, LONDON"
      }
    ]
  },
  {
    "postal": "N5Z6W7",
    "result": []
  },
  {
    "postal": "N5Z0P1",
    "result": []
  },
  {
    "postal": "N5Z3A0",
    "result": []
  },
  {
    "postal": "N5Z8L9",
    "result": []
  },
  {
    "postal": "N5Z6X0",
    "result": []
  },
  {
    "postal": "N5Z3E9",
    "result": [
      {
        "electoralDistricts": [
          {
            "election": null,
            "id": 53,
            "name": "London—Fanshawe"
          }
        ],
        "pollDivisionIds": [
          10139573
        ],
        "postalCode": "N5Z3E9",
        "streetName": "THREE VALLEYS",
        "streetDirectionId": null,
        "streetTypeId": "CRES",
        "placeName": "LONDON",
        "streetNameDisplayText": "THREE VALLEYS CRES, LONDON"
      },
      {
        "electoralDistricts": [
          {
            "election": null,
            "id": 53,
            "name": "London—Fanshawe"
          }
        ],
        "pollDivisionIds": [
          10139573
        ],
        "postalCode": "N5Z3E9",
        "streetName": "THREE VALLEYS",
        "streetDirectionId": null,
        "streetTypeId": "PL",
        "placeName": "LONDON",
        "streetNameDisplayText": "THREE VALLEYS PL, LONDON"
      }
    ]
  },
  {
    "postal": "N5Z0S5",
    "result": []
  },
  {
    "postal": "N5Z1A2",
    "result": [
      {
        "electoralDistricts": [
          {
            "election": null,
            "id": 53,
            "name": "London—Fanshawe"
          }
        ],
        "pollDivisionIds": [
          10139570
        ],
        "postalCode": "N5Z1A2",
        "streetName": "HORACE",
        "streetDirectionId": null,
        "streetTypeId": "ST",
        "placeName": "LONDON",
        "streetNameDisplayText": "HORACE ST, LONDON"
      }
    ]
  },
  {
    "postal": "N5Z5V8",
    "result": []
  },
  {
    "postal": "N5Z8C5",
    "result": []
  },
  {
    "postal": "N5Z6N0",
    "result": []
  },
  {
    "postal": "N5Z9E6",
    "result": []
  },
  {
    "postal": "N5Z5J7",
    "result": []
  },
  {
    "postal": "N5Z2R2",
    "result": [
      {
        "electoralDistricts": [
          {
            "election": null,
            "id": 53,
            "name": "London—Fanshawe"
          }
        ],
        "pollDivisionIds": [
          10139570
        ],
        "postalCode": "N5Z2R2",
        "streetName": "PINE LAWN",
        "streetDirectionId": null,
        "streetTypeId": "AVE",
        "placeName": "LONDON",
        "streetNameDisplayText": "PINE LAWN AVE, LONDON"
      }
    ]
  },
  {
    "postal": "N5Z0P5",
    "result": []
  },
  {
    "postal": "N5Z5A7",
    "result": [
      {
        "electoralDistricts": [
          {
            "election": null,
            "id": 53,
            "name": "London—Fanshawe"
          }
        ],
        "pollDivisionIds": [
          10139573
        ],
        "postalCode": "N5Z5A7",
        "streetName": "SHELBORNE",
        "streetDirectionId": null,
        "streetTypeId": "ST",
        "placeName": "LONDON",
        "streetNameDisplayText": "SHELBORNE ST, LONDON"
      }
    ]
  },
  {
    "postal": "N5Z1G1",
    "result": [
      {
        "electoralDistricts": [
          {
            "election": null,
            "id": 53,
            "name": "London—Fanshawe"
          }
        ],
        "pollDivisionIds": [
          10139570
        ],
        "postalCode": "N5Z1G1",
        "streetName": "TRAFALGAR",
        "streetDirectionId": null,
        "streetTypeId": "ST",
        "placeName": "LONDON",
        "streetNameDisplayText": "TRAFALGAR ST, LONDON"
      }
    ]
  },
  {
    "postal": "N5Z9R6",
    "result": []
  },
  {
    "postal": "N5Z4Z9",
    "result": [
      {
        "electoralDistricts": [
          {
            "election": null,
            "id": 53,
            "name": "London—Fanshawe"
          }
        ],
        "pollDivisionIds": [
          10139572
        ],
        "postalCode": "N5Z4Z9",
        "streetName": "SPIRITWOOD",
        "streetDirectionId": null,
        "streetTypeId": "CRT",
        "placeName": "LONDON",
        "streetNameDisplayText": "SPIRITWOOD CRT, LONDON"
      }
    ]
  },
  {
    "postal": "N5Z1V5",
    "result": [
      {
        "electoralDistricts": [
          {
            "election": null,
            "id": 53,
            "name": "London—Fanshawe"
          }
        ],
        "pollDivisionIds": [
          10139568
        ],
        "postalCode": "N5Z1V5",
        "streetName": "HAMILTON",
        "streetDirectionId": null,
        "streetTypeId": "RD",
        "placeName": "LONDON",
        "streetNameDisplayText": "HAMILTON RD, LONDON"
      }
    ]
  },
  {
    "postal": "N5Z9Y5",
    "result": []
  },
  {
    "postal": "N5Z1P2",
    "result": [
      {
        "electoralDistricts": [
          {
            "election": null,
            "id": 53,
            "name": "London—Fanshawe"
          }
        ],
        "pollDivisionIds": [
          10139569
        ],
        "postalCode": "N5Z1P2",
        "streetName": "LITTLE GREY",
        "streetDirectionId": null,
        "streetTypeId": "ST",
        "placeName": "LONDON",
        "streetNameDisplayText": "LITTLE GREY ST, LONDON"
      }
    ]
  },
  {
    "postal": "N5Z5X0",
    "result": []
  },
  {
    "postal": "N5Z7B8",
    "result": []
  },
  {
    "postal": "N5Z0C6",
    "result": []
  },
  {
    "postal": "N5Z6G1",
    "result": []
  },
  {
    "postal": "N5Z3K3",
    "result": [
      {
        "electoralDistricts": [
          {
            "election": null,
            "id": 53,
            "name": "London—Fanshawe"
          }
        ],
        "pollDivisionIds": [
          10139574
        ],
        "postalCode": "N5Z3K3",
        "streetName": "ADELAIDE",
        "streetDirectionId": "S",
        "streetTypeId": "ST",
        "placeName": "LONDON",
        "streetNameDisplayText": "ADELAIDE ST S, LONDON"
      }
    ]
  },
  {
    "postal": "N5Z9R0",
    "result": []
  },
  {
    "postal": "N5Z4R8",
    "result": []
  },
  {
    "postal": "N5Z5P9",
    "result": []
  },
  {
    "postal": "N5Z8N4",
    "result": []
  },
  {
    "postal": "N5Z8H4",
    "result": []
  },
  {
    "postal": "N5Z4V1",
    "result": [
      {
        "electoralDistricts": [
          {
            "election": null,
            "id": 53,
            "name": "London—Fanshawe"
          }
        ],
        "pollDivisionIds": [
          10139576
        ],
        "postalCode": "N5Z4V1",
        "streetName": "BANBURY",
        "streetDirectionId": null,
        "streetTypeId": "CRES",
        "placeName": "LONDON",
        "streetNameDisplayText": "BANBURY CRES, LONDON"
      }
    ]
  },
  {
    "postal": "N5Z1K5",
    "result": [
      {
        "electoralDistricts": [
          {
            "election": null,
            "id": 53,
            "name": "London—Fanshawe"
          }
        ],
        "pollDivisionIds": [
          10139568
        ],
        "postalCode": "N5Z1K5",
        "streetName": "ORMSBY",
        "streetDirectionId": null,
        "streetTypeId": "ST",
        "placeName": "LONDON",
        "streetNameDisplayText": "ORMSBY ST, LONDON"
      }
    ]
  },
  {
    "postal": "N5Z1Z5",
    "result": [
      {
        "electoralDistricts": [
          {
            "election": null,
            "id": 53,
            "name": "London—Fanshawe"
          }
        ],
        "pollDivisionIds": [
          10139571
        ],
        "postalCode": "N5Z1Z5",
        "streetName": "MARMORA",
        "streetDirectionId": null,
        "streetTypeId": "ST",
        "placeName": "LONDON",
        "streetNameDisplayText": "MARMORA ST, LONDON"
      }
    ]
  },
  {
    "postal": "N5Z9L9",
    "result": []
  },
  {
    "postal": "N5Z5L2",
    "result": []
  },
  {
    "postal": "N5Z0M2",
    "result": []
  },
  {
    "postal": "N5Z1K8",
    "result": [
      {
        "electoralDistricts": [
          {
            "election": null,
            "id": 53,
            "name": "London—Fanshawe"
          }
        ],
        "pollDivisionIds": [
          10139568
        ],
        "postalCode": "N5Z1K8",
        "streetName": "SYCAMORE",
        "streetDirectionId": null,
        "streetTypeId": "ST",
        "placeName": "LONDON",
        "streetNameDisplayText": "SYCAMORE ST, LONDON"
      }
    ]
  },
  {
    "postal": "N5Z3M7",
    "result": [
      {
        "electoralDistricts": [
          {
            "election": null,
            "id": 53,
            "name": "London—Fanshawe"
          }
        ],
        "pollDivisionIds": [
          10139574
        ],
        "postalCode": "N5Z3M7",
        "streetName": "LEATHORNE",
        "streetDirectionId": null,
        "streetTypeId": "ST",
        "placeName": "LONDON",
        "streetNameDisplayText": "LEATHORNE ST, LONDON"
      }
    ]
  },
  {
    "postal": "N5Z1B2",
    "result": [
      {
        "electoralDistricts": [
          {
            "election": null,
            "id": 53,
            "name": "London—Fanshawe"
          }
        ],
        "pollDivisionIds": [
          10139570
        ],
        "postalCode": "N5Z1B2",
        "streetName": "VAUXHALL",
        "streetDirectionId": null,
        "streetTypeId": "ST",
        "placeName": "LONDON",
        "streetNameDisplayText": "VAUXHALL ST, LONDON"
      }
    ]
  },
  {
    "postal": "N5Z0H9",
    "result": []
  },
  {
    "postal": "N5Z8M4",
    "result": []
  },
  {
    "postal": "N5Z2M5",
    "result": [
      {
        "electoralDistricts": [
          {
            "election": null,
            "id": 53,
            "name": "London—Fanshawe"
          }
        ],
        "pollDivisionIds": [
          10139570
        ],
        "postalCode": "N5Z2M5",
        "streetName": "ST JULIEN",
        "streetDirectionId": null,
        "streetTypeId": "ST",
        "placeName": "LONDON",
        "streetNameDisplayText": "ST JULIEN ST, LONDON"
      }
    ]
  },
  {
    "postal": "N5Z0T9",
    "result": []
  },
  {
    "postal": "N5Z3P1",
    "result": [
      {
        "electoralDistricts": [
          {
            "election": null,
            "id": 53,
            "name": "London—Fanshawe"
          }
        ],
        "pollDivisionIds": [
          10139574
        ],
        "postalCode": "N5Z3P1",
        "streetName": "JOSEPHINE",
        "streetDirectionId": null,
        "streetTypeId": "ST",
        "placeName": "LONDON",
        "streetNameDisplayText": "JOSEPHINE ST, LONDON"
      }
    ]
  },
  {
    "postal": "N5Z1R6",
    "result": [
      {
        "electoralDistricts": [
          {
            "election": null,
            "id": 53,
            "name": "London—Fanshawe"
          }
        ],
        "pollDivisionIds": [
          10139571
        ],
        "postalCode": "N5Z1R6",
        "streetName": "HAMILTON",
        "streetDirectionId": null,
        "streetTypeId": "RD",
        "placeName": "LONDON",
        "streetNameDisplayText": "HAMILTON RD, LONDON"
      }
    ]
  },
  {
    "postal": "N5Z9V5",
    "result": []
  },
  {
    "postal": "N5Z9T0",
    "result": []
  },
  {
    "postal": "N5Z0A9",
    "result": []
  },
  {
    "postal": "N5Z1M3",
    "result": [
      {
        "electoralDistricts": [
          {
            "election": null,
            "id": 53,
            "name": "London—Fanshawe"
          }
        ],
        "pollDivisionIds": [
          10139568
        ],
        "postalCode": "N5Z1M3",
        "streetName": "DAME",
        "streetDirectionId": null,
        "streetTypeId": "ST",
        "placeName": "LONDON",
        "streetNameDisplayText": "DAME ST, LONDON"
      }
    ]
  },
  {
    "postal": "N5Z1W8",
    "result": [
      {
        "electoralDistricts": [
          {
            "election": null,
            "id": 53,
            "name": "London—Fanshawe"
          }
        ],
        "pollDivisionIds": [
          10139571
        ],
        "postalCode": "N5Z1W8",
        "streetName": "DREANEY",
        "streetDirectionId": null,
        "streetTypeId": "AVE",
        "placeName": "LONDON",
        "streetNameDisplayText": "DREANEY AVE, LONDON"
      }
    ]
  },
  {
    "postal": "N5Z9J1",
    "result": []
  },
  {
    "postal": "N5Z8N5",
    "result": []
  },
  {
    "postal": "N5Z5X1",
    "result": []
  },
  {
    "postal": "N5Z6S2",
    "result": []
  },
  {
    "postal": "N5Z2A2",
    "result": [
      {
        "electoralDistricts": [
          {
            "election": null,
            "id": 53,
            "name": "London—Fanshawe"
          }
        ],
        "pollDivisionIds": [
          10139569
        ],
        "postalCode": "N5Z2A2",
        "streetName": "RECTORY",
        "streetDirectionId": null,
        "streetTypeId": "ST",
        "placeName": "LONDON",
        "streetNameDisplayText": "RECTORY ST, LONDON"
      }
    ]
  },
  {
    "postal": "N5Z6A6",
    "result": []
  },
  {
    "postal": "N5Z0S3",
    "result": []
  },
  {
    "postal": "N5Z3E7",
    "result": [
      {
        "electoralDistricts": [
          {
            "election": null,
            "id": 53,
            "name": "London—Fanshawe"
          }
        ],
        "pollDivisionIds": [
          10139573
        ],
        "postalCode": "N5Z3E7",
        "streetName": "THREE VALLEYS",
        "streetDirectionId": null,
        "streetTypeId": "CRES",
        "placeName": "LONDON",
        "streetNameDisplayText": "THREE VALLEYS CRES, LONDON"
      }
    ]
  },
  {
    "postal": "N5Z5R7",
    "result": []
  },
  {
    "postal": "N5Z3R6",
    "result": [
      {
        "electoralDistricts": [
          {
            "election": null,
            "id": 53,
            "name": "London—Fanshawe"
          }
        ],
        "pollDivisionIds": [
          10139572
        ],
        "postalCode": "N5Z3R6",
        "streetName": "GLADSTONE",
        "streetDirectionId": null,
        "streetTypeId": "AVE",
        "placeName": "LONDON",
        "streetNameDisplayText": "GLADSTONE AVE, LONDON"
      }
    ]
  },
  {
    "postal": "N5Z6K4",
    "result": []
  },
  {
    "postal": "N5Z2W5",
    "result": [
      {
        "electoralDistricts": [
          {
            "election": null,
            "id": 53,
            "name": "London—Fanshawe"
          }
        ],
        "pollDivisionIds": [
          10139568
        ],
        "postalCode": "N5Z2W5",
        "streetName": "HIGHBURY",
        "streetDirectionId": "N",
        "streetTypeId": "AVE",
        "placeName": "LONDON",
        "streetNameDisplayText": "HIGHBURY AVE N, LONDON"
      }
    ]
  },
  {
    "postal": "N5Z8W4",
    "result": []
  },
  {
    "postal": "N5Z9C2",
    "result": []
  },
  {
    "postal": "N5Z2C0",
    "result": []
  },
  {
    "postal": "N5Z0E1",
    "result": []
  },
  {
    "postal": "N5Z1K9",
    "result": [
      {
        "electoralDistricts": [
          {
            "election": null,
            "id": 53,
            "name": "London—Fanshawe"
          }
        ],
        "pollDivisionIds": [
          10139568
        ],
        "postalCode": "N5Z1K9",
        "streetName": "ROSEWOOD",
        "streetDirectionId": null,
        "streetTypeId": "AVE",
        "placeName": "LONDON",
        "streetNameDisplayText": "ROSEWOOD AVE, LONDON"
      }
    ]
  },
  {
    "postal": "N5Z1G7",
    "result": [
      {
        "electoralDistricts": [
          {
            "election": null,
            "id": 53,
            "name": "London—Fanshawe"
          }
        ],
        "pollDivisionIds": [
          10139568
        ],
        "postalCode": "N5Z1G7",
        "streetName": "TRAFALGAR",
        "streetDirectionId": null,
        "streetTypeId": "ST",
        "placeName": "LONDON",
        "streetNameDisplayText": "TRAFALGAR ST, LONDON"
      }
    ]
  },
  {
    "postal": "N5Z4E9",
    "result": [
      {
        "electoralDistricts": [
          {
            "election": null,
            "id": 53,
            "name": "London—Fanshawe"
          }
        ],
        "pollDivisionIds": [
          10139577
        ],
        "postalCode": "N5Z4E9",
        "streetName": "CURTIS",
        "streetDirectionId": null,
        "streetTypeId": "AVE",
        "placeName": "LONDON",
        "streetNameDisplayText": "CURTIS AVE, LONDON"
      }
    ]
  },
  {
    "postal": "N5Z9P0",
    "result": []
  },
  {
    "postal": "N5Z5H3",
    "result": []
  },
  {
    "postal": "N5Z9X6",
    "result": []
  },
  {
    "postal": "N5Z5N7",
    "result": []
  },
  {
    "postal": "N5Z5A6",
    "result": []
  },
  {
    "postal": "N5Z4M0",
    "result": []
  },
  {
    "postal": "N5Z3V6",
    "result": [
      {
        "electoralDistricts": [
          {
            "election": null,
            "id": 53,
            "name": "London—Fanshawe"
          }
        ],
        "pollDivisionIds": [
          10139574
        ],
        "postalCode": "N5Z3V6",
        "streetName": "BUCKINGHAM",
        "streetDirectionId": null,
        "streetTypeId": "ST",
        "placeName": "LONDON",
        "streetNameDisplayText": "BUCKINGHAM ST, LONDON"
      }
    ]
  },
  {
    "postal": "N5Z1L7",
    "result": [
      {
        "electoralDistricts": [
          {
            "election": null,
            "id": 53,
            "name": "London—Fanshawe"
          }
        ],
        "pollDivisionIds": [
          10139571
        ],
        "postalCode": "N5Z1L7",
        "streetName": "LAYARD",
        "streetDirectionId": null,
        "streetTypeId": "ST",
        "placeName": "LONDON",
        "streetNameDisplayText": "LAYARD ST, LONDON"
      }
    ]
  },
  {
    "postal": "N5Z2P9",
    "result": [
      {
        "electoralDistricts": [
          {
            "election": null,
            "id": 53,
            "name": "London—Fanshawe"
          }
        ],
        "pollDivisionIds": [
          10139568
        ],
        "postalCode": "N5Z2P9",
        "streetName": "GLENWOOD",
        "streetDirectionId": null,
        "streetTypeId": "AVE",
        "placeName": "LONDON",
        "streetNameDisplayText": "GLENWOOD AVE, LONDON"
      }
    ]
  },
  {
    "postal": "N5Z5T4",
    "result": []
  },
  {
    "postal": "N5Z5Z1",
    "result": []
  },
  {
    "postal": "N5Z2X0",
    "result": []
  },
  {
    "postal": "N5Z6Z2",
    "result": []
  },
  {
    "postal": "N5Z0E0",
    "result": []
  },
  {
    "postal": "N5Z3Z5",
    "result": [
      {
        "electoralDistricts": [
          {
            "election": null,
            "id": 53,
            "name": "London—Fanshawe"
          }
        ],
        "pollDivisionIds": [
          10139577
        ],
        "postalCode": "N5Z3Z5",
        "streetName": "STORMONT",
        "streetDirectionId": null,
        "streetTypeId": "DR",
        "placeName": "LONDON",
        "streetNameDisplayText": "STORMONT DR, LONDON"
      }
    ]
  },
  {
    "postal": "N5Z8H3",
    "result": []
  },
  {
    "postal": "N5Z7S6",
    "result": []
  },
  {
    "postal": "N5Z4C1",
    "result": [
      {
        "electoralDistricts": [
          {
            "election": null,
            "id": 53,
            "name": "London—Fanshawe"
          }
        ],
        "pollDivisionIds": [
          10139577
        ],
        "postalCode": "N5Z4C1",
        "streetName": "ALMOND",
        "streetDirectionId": null,
        "streetTypeId": "RD",
        "placeName": "LONDON",
        "streetNameDisplayText": "ALMOND RD, LONDON"
      }
    ]
  },
  {
    "postal": "N5Z3K2",
    "result": [
      {
        "electoralDistricts": [
          {
            "election": null,
            "id": 53,
            "name": "London—Fanshawe"
          }
        ],
        "pollDivisionIds": [
          10139572
        ],
        "postalCode": "N5Z3K2",
        "streetName": "ADELAIDE",
        "streetDirectionId": "S",
        "streetTypeId": "ST",
        "placeName": "LONDON",
        "streetNameDisplayText": "ADELAIDE ST S, LONDON"
      }
    ]
  },
  {
    "postal": "N5Z1Y5",
    "result": [
      {
        "electoralDistricts": [
          {
            "election": null,
            "id": 53,
            "name": "London—Fanshawe"
          }
        ],
        "pollDivisionIds": [
          10139569
        ],
        "postalCode": "N5Z1Y5",
        "streetName": "HYATT",
        "streetDirectionId": null,
        "streetTypeId": "AVE",
        "placeName": "LONDON",
        "streetNameDisplayText": "HYATT AVE, LONDON"
      }
    ]
  },
  {
    "postal": "N5Z6P6",
    "result": []
  },
  {
    "postal": "N5Z3N9",
    "result": [
      {
        "electoralDistricts": [
          {
            "election": null,
            "id": 53,
            "name": "London—Fanshawe"
          }
        ],
        "pollDivisionIds": [
          10139572
        ],
        "postalCode": "N5Z3N9",
        "streetName": "JOSEPHINE",
        "streetDirectionId": null,
        "streetTypeId": "ST",
        "placeName": "LONDON",
        "streetNameDisplayText": "JOSEPHINE ST, LONDON"
      }
    ]
  },
  {
    "postal": "N5Z3W2",
    "result": [
      {
        "electoralDistricts": [
          {
            "election": null,
            "id": 53,
            "name": "London—Fanshawe"
          }
        ],
        "pollDivisionIds": [
          10139574
        ],
        "postalCode": "N5Z3W2",
        "streetName": "BURLINGTON",
        "streetDirectionId": null,
        "streetTypeId": "ST",
        "placeName": "LONDON",
        "streetNameDisplayText": "BURLINGTON ST, LONDON"
      }
    ]
  },
  {
    "postal": "N5Z6H8",
    "result": []
  },
  {
    "postal": "N5Z9T3",
    "result": []
  },
  {
    "postal": "N5Z5L9",
    "result": []
  },
  {
    "postal": "N5Z7X7",
    "result": []
  },
  {
    "postal": "N5Z3J5",
    "result": [
      {
        "electoralDistricts": [
          {
            "election": null,
            "id": 53,
            "name": "London—Fanshawe"
          }
        ],
        "pollDivisionIds": [
          10139574
        ],
        "postalCode": "N5Z3J5",
        "streetName": "BROOKSIDE",
        "streetDirectionId": null,
        "streetTypeId": "ST",
        "placeName": "LONDON",
        "streetNameDisplayText": "BROOKSIDE ST, LONDON"
      }
    ]
  },
  {
    "postal": "N5Z4J5",
    "result": [
      {
        "electoralDistricts": [
          {
            "election": null,
            "id": 53,
            "name": "London—Fanshawe"
          }
        ],
        "pollDivisionIds": [
          10139576
        ],
        "postalCode": "N5Z4J5",
        "streetName": "DEVERON",
        "streetDirectionId": null,
        "streetTypeId": "CRES",
        "placeName": "LONDON",
        "streetNameDisplayText": "DEVERON CRES, LONDON"
      }
    ]
  },
  {
    "postal": "N5Z6J2",
    "result": []
  },
  {
    "postal": "N5Z5V6",
    "result": []
  },
  {
    "postal": "N5Z3N2",
    "result": [
      {
        "electoralDistricts": [
          {
            "election": null,
            "id": 53,
            "name": "London—Fanshawe"
          }
        ],
        "pollDivisionIds": [
          10139572
        ],
        "postalCode": "N5Z3N2",
        "streetName": "CHESTERFIELD",
        "streetDirectionId": null,
        "streetTypeId": "AVE",
        "placeName": "LONDON",
        "streetNameDisplayText": "CHESTERFIELD AVE, LONDON"
      }
    ]
  },
  {
    "postal": "N5Z3B1",
    "result": [
      {
        "electoralDistricts": [
          {
            "election": null,
            "id": 53,
            "name": "London—Fanshawe"
          }
        ],
        "pollDivisionIds": [
          10139572
        ],
        "postalCode": "N5Z3B1",
        "streetName": "SCENIC",
        "streetDirectionId": null,
        "streetTypeId": "DR",
        "placeName": "LONDON",
        "streetNameDisplayText": "SCENIC DR, LONDON"
      }
    ]
  },
  {
    "postal": "N5Z8B5",
    "result": []
  },
  {
    "postal": "N5Z0K1",
    "result": []
  },
  {
    "postal": "N5Z7M7",
    "result": []
  },
  {
    "postal": "N5Z2M2",
    "result": [
      {
        "electoralDistricts": [
          {
            "election": null,
            "id": 53,
            "name": "London—Fanshawe"
          }
        ],
        "pollDivisionIds": [
          10139570
        ],
        "postalCode": "N5Z2M2",
        "streetName": "BRISBIN",
        "streetDirectionId": null,
        "streetTypeId": "ST",
        "placeName": "LONDON",
        "streetNameDisplayText": "BRISBIN ST, LONDON"
      }
    ]
  },
  {
    "postal": "N5Z9N3",
    "result": []
  },
  {
    "postal": "N5Z4Y8",
    "result": [
      {
        "electoralDistricts": [
          {
            "election": null,
            "id": 53,
            "name": "London—Fanshawe"
          }
        ],
        "pollDivisionIds": [
          10139578
        ],
        "postalCode": "N5Z4Y8",
        "streetName": "POND MILLS",
        "streetDirectionId": null,
        "streetTypeId": "RD",
        "placeName": "LONDON",
        "streetNameDisplayText": "POND MILLS RD, LONDON"
      }
    ]
  },
  {
    "postal": "N5Z3V7",
    "result": [
      {
        "electoralDistricts": [
          {
            "election": null,
            "id": 53,
            "name": "London—Fanshawe"
          }
        ],
        "pollDivisionIds": [
          10139574
        ],
        "postalCode": "N5Z3V7",
        "streetName": "BUCKINGHAM",
        "streetDirectionId": null,
        "streetTypeId": "ST",
        "placeName": "LONDON",
        "streetNameDisplayText": "BUCKINGHAM ST, LONDON"
      }
    ]
  },
  {
    "postal": "N5Z8Z1",
    "result": []
  },
  {
    "postal": "N5Z7B3",
    "result": []
  },
  {
    "postal": "N5Z3A8",
    "result": [
      {
        "electoralDistricts": [
          {
            "election": null,
            "id": 53,
            "name": "London—Fanshawe"
          }
        ],
        "pollDivisionIds": [
          10139572
        ],
        "postalCode": "N5Z3A8",
        "streetName": "SCENIC",
        "streetDirectionId": null,
        "streetTypeId": "DR",
        "placeName": "LONDON",
        "streetNameDisplayText": "SCENIC DR, LONDON"
      }
    ]
  },
  {
    "postal": "N5Z7V5",
    "result": []
  },
  {
    "postal": "N5Z2T2",
    "result": [
      {
        "electoralDistricts": [
          {
            "election": null,
            "id": 53,
            "name": "London—Fanshawe"
          }
        ],
        "pollDivisionIds": [
          10139568
        ],
        "postalCode": "N5Z2T2",
        "streetName": "SANDERS",
        "streetDirectionId": null,
        "streetTypeId": "ST",
        "placeName": "LONDON",
        "streetNameDisplayText": "SANDERS ST, LONDON"
      }
    ]
  },
  {
    "postal": "N5Z6L3",
    "result": []
  },
  {
    "postal": "N5Z0L2",
    "result": []
  },
  {
    "postal": "N5Z5Y8",
    "result": []
  },
  {
    "postal": "N5Z0B8",
    "result": []
  },
  {
    "postal": "N5Z6R5",
    "result": []
  },
  {
    "postal": "N5Z8W6",
    "result": []
  },
  {
    "postal": "N5Z8G6",
    "result": []
  },
  {
    "postal": "N5Z6X3",
    "result": []
  },
  {
    "postal": "N5Z7R7",
    "result": []
  },
  {
    "postal": "N5Z4B6",
    "result": [
      {
        "electoralDistricts": [
          {
            "election": null,
            "id": 53,
            "name": "London—Fanshawe"
          }
        ],
        "pollDivisionIds": [
          10139576
        ],
        "postalCode": "N5Z4B6",
        "streetName": "DEVERON",
        "streetDirectionId": null,
        "streetTypeId": "CRES",
        "placeName": "LONDON",
        "streetNameDisplayText": "DEVERON CRES, LONDON"
      }
    ]
  },
  {
    "postal": "N5Z3P9",
    "result": [
      {
        "electoralDistricts": [
          {
            "election": null,
            "id": 53,
            "name": "London—Fanshawe"
          }
        ],
        "pollDivisionIds": [
          10139572
        ],
        "postalCode": "N5Z3P9",
        "streetName": "JACQUELINE",
        "streetDirectionId": null,
        "streetTypeId": "ST",
        "placeName": "LONDON",
        "streetNameDisplayText": "JACQUELINE ST, LONDON"
      }
    ]
  },
  {
    "postal": "N5Z2T3",
    "result": [
      {
        "electoralDistricts": [
          {
            "election": null,
            "id": 53,
            "name": "London—Fanshawe"
          }
        ],
        "pollDivisionIds": [
          10139570
        ],
        "postalCode": "N5Z2T3",
        "streetName": "ELGIN",
        "streetDirectionId": null,
        "streetTypeId": "ST",
        "placeName": "LONDON",
        "streetNameDisplayText": "ELGIN ST, LONDON"
      }
    ]
  },
  {
    "postal": "N5Z1M4",
    "result": [
      {
        "electoralDistricts": [
          {
            "election": null,
            "id": 53,
            "name": "London—Fanshawe"
          }
        ],
        "pollDivisionIds": [
          10139569
        ],
        "postalCode": "N5Z1M4",
        "streetName": "DAME",
        "streetDirectionId": null,
        "streetTypeId": "ST",
        "placeName": "LONDON",
        "streetNameDisplayText": "DAME ST, LONDON"
      }
    ]
  },
  {
    "postal": "N5Z0H1",
    "result": []
  },
  {
    "postal": "N5Z9W3",
    "result": []
  },
  {
    "postal": "N5Z6P1",
    "result": []
  },
  {
    "postal": "N5Z7G2",
    "result": []
  },
  {
    "postal": "N5Z4J9",
    "result": [
      {
        "electoralDistricts": [
          {
            "election": null,
            "id": 53,
            "name": "London—Fanshawe"
          }
        ],
        "pollDivisionIds": [
          10139577
        ],
        "postalCode": "N5Z4J9",
        "streetName": "POND MILLS",
        "streetDirectionId": null,
        "streetTypeId": "RD",
        "placeName": "LONDON",
        "streetNameDisplayText": "POND MILLS RD, LONDON"
      }
    ]
  },
  {
    "postal": "N5Z9E4",
    "result": []
  },
  {
    "postal": "N5Z8H0",
    "result": []
  },
  {
    "postal": "N5Z4M7",
    "result": [
      {
        "electoralDistricts": [
          {
            "election": null,
            "id": 53,
            "name": "London—Fanshawe"
          }
        ],
        "pollDivisionIds": [
          10139576
        ],
        "postalCode": "N5Z4M7",
        "streetName": "EDGEMERE",
        "streetDirectionId": null,
        "streetTypeId": "PL",
        "placeName": "LONDON",
        "streetNameDisplayText": "EDGEMERE PL, LONDON"
      }
    ]
  },
  {
    "postal": "N5Z2G9",
    "result": [
      {
        "electoralDistricts": [
          {
            "election": null,
            "id": 53,
            "name": "London—Fanshawe"
          }
        ],
        "pollDivisionIds": [
          10139568
        ],
        "postalCode": "N5Z2G9",
        "streetName": "EGERTON",
        "streetDirectionId": null,
        "streetTypeId": "ST",
        "placeName": "LONDON",
        "streetNameDisplayText": "EGERTON ST, LONDON"
      }
    ]
  },
  {
    "postal": "N5Z8T2",
    "result": []
  },
  {
    "postal": "N5Z7G7",
    "result": []
  },
  {
    "postal": "N5Z4Z3",
    "result": [
      {
        "electoralDistricts": [
          {
            "election": null,
            "id": 53,
            "name": "London—Fanshawe"
          }
        ],
        "pollDivisionIds": [
          10139577
        ],
        "postalCode": "N5Z4Z3",
        "streetName": "POND MILLS",
        "streetDirectionId": null,
        "streetTypeId": "RD",
        "placeName": "LONDON",
        "streetNameDisplayText": "POND MILLS RD, LONDON"
      }
    ]
  },
  {
    "postal": "N5Z5B3",
    "result": [
      {
        "electoralDistricts": [
          {
            "election": null,
            "id": 53,
            "name": "London—Fanshawe"
          }
        ],
        "pollDivisionIds": [
          10139569
        ],
        "postalCode": "N5Z5B3",
        "streetName": "LISA",
        "streetDirectionId": null,
        "streetTypeId": "CRT",
        "placeName": "LONDON",
        "streetNameDisplayText": "LISA CRT, LONDON"
      }
    ]
  },
  {
    "postal": "N5Z1S7",
    "result": [
      {
        "electoralDistricts": [
          {
            "election": null,
            "id": 53,
            "name": "London—Fanshawe"
          }
        ],
        "pollDivisionIds": [
          10139570
        ],
        "postalCode": "N5Z1S7",
        "streetName": "HAMILTON",
        "streetDirectionId": null,
        "streetTypeId": "RD",
        "placeName": "LONDON",
        "streetNameDisplayText": "HAMILTON RD, LONDON"
      }
    ]
  },
  {
    "postal": "N5Z2N7",
    "result": [
      {
        "electoralDistricts": [
          {
            "election": null,
            "id": 53,
            "name": "London—Fanshawe"
          }
        ],
        "pollDivisionIds": [
          10139570
        ],
        "postalCode": "N5Z2N7",
        "streetName": "DELAWARE",
        "streetDirectionId": null,
        "streetTypeId": "ST",
        "placeName": "LONDON",
        "streetNameDisplayText": "DELAWARE ST, LONDON"
      }
    ]
  },
  {
    "postal": "N5Z0H8",
    "result": []
  },
  {
    "postal": "N5Z7Z4",
    "result": []
  },
  {
    "postal": "N5Z7B1",
    "result": []
  },
  {
    "postal": "N5Z7P8",
    "result": []
  },
  {
    "postal": "N5Z7N0",
    "result": []
  },
  {
    "postal": "N5Z3Y5",
    "result": [
      {
        "electoralDistricts": [
          {
            "election": null,
            "id": 53,
            "name": "London—Fanshawe"
          }
        ],
        "pollDivisionIds": [
          10139577
        ],
        "postalCode": "N5Z3Y5",
        "streetName": "FRONTENAC",
        "streetDirectionId": null,
        "streetTypeId": "RD",
        "placeName": "LONDON",
        "streetNameDisplayText": "FRONTENAC RD, LONDON"
      }
    ]
  },
  {
    "postal": "N5Z6K1",
    "result": []
  },
  {
    "postal": "N5Z9X5",
    "result": []
  },
  {
    "postal": "N5Z7S5",
    "result": []
  },
  {
    "postal": "N5Z0A4",
    "result": []
  },
  {
    "postal": "N5Z4T5",
    "result": [
      {
        "electoralDistricts": [
          {
            "election": null,
            "id": 53,
            "name": "London—Fanshawe"
          }
        ],
        "pollDivisionIds": [
          10139573
        ],
        "postalCode": "N5Z4T5",
        "streetName": "CLEVELAND",
        "streetDirectionId": null,
        "streetTypeId": "PL",
        "placeName": "LONDON",
        "streetNameDisplayText": "CLEVELAND PL, LONDON"
      }
    ]
  },
  {
    "postal": "N5Z5K1",
    "result": []
  },
  {
    "postal": "N5Z0Z9",
    "result": []
  },
  {
    "postal": "N5Z7T2",
    "result": []
  },
  {
    "postal": "N5Z1L5",
    "result": []
  },
  {
    "postal": "N5Z3N5",
    "result": [
      {
        "electoralDistricts": [
          {
            "election": null,
            "id": 53,
            "name": "London—Fanshawe"
          }
        ],
        "pollDivisionIds": [
          10139574
        ],
        "postalCode": "N5Z3N5",
        "streetName": "CHESTERFIELD",
        "streetDirectionId": null,
        "streetTypeId": "AVE",
        "placeName": "LONDON",
        "streetNameDisplayText": "CHESTERFIELD AVE, LONDON"
      }
    ]
  },
  {
    "postal": "N5Z6H4",
    "result": []
  },
  {
    "postal": "N5Z5A5",
    "result": [
      {
        "electoralDistricts": [
          {
            "election": null,
            "id": 53,
            "name": "London—Fanshawe"
          }
        ],
        "pollDivisionIds": [
          10139573
        ],
        "postalCode": "N5Z5A5",
        "streetName": "SHELBORNE",
        "streetDirectionId": null,
        "streetTypeId": "ST",
        "placeName": "LONDON",
        "streetNameDisplayText": "SHELBORNE ST, LONDON"
      }
    ]
  },
  {
    "postal": "N5Z3R9",
    "result": [
      {
        "electoralDistricts": [
          {
            "election": null,
            "id": 53,
            "name": "London—Fanshawe"
          }
        ],
        "pollDivisionIds": [
          10139574
        ],
        "postalCode": "N5Z3R9",
        "streetName": "GLADSTONE",
        "streetDirectionId": null,
        "streetTypeId": "AVE",
        "placeName": "LONDON",
        "streetNameDisplayText": "GLADSTONE AVE, LONDON"
      }
    ]
  },
  {
    "postal": "N5Z7L8",
    "result": []
  },
  {
    "postal": "N5Z6T6",
    "result": []
  },
  {
    "postal": "N5Z7Y7",
    "result": []
  },
  {
    "postal": "N5Z3M8",
    "result": [
      {
        "electoralDistricts": [
          {
            "election": null,
            "id": 53,
            "name": "London—Fanshawe"
          }
        ],
        "pollDivisionIds": [
          10139572
        ],
        "postalCode": "N5Z3M8",
        "streetName": "CHESTERFIELD",
        "streetDirectionId": null,
        "streetTypeId": "AVE",
        "placeName": "LONDON",
        "streetNameDisplayText": "CHESTERFIELD AVE, LONDON"
      }
    ]
  },
  {
    "postal": "N5Z2E0",
    "result": []
  },
  {
    "postal": "N5Z4B5",
    "result": [
      {
        "electoralDistricts": [
          {
            "election": null,
            "id": 53,
            "name": "London—Fanshawe"
          }
        ],
        "pollDivisionIds": [
          10139577
        ],
        "postalCode": "N5Z4B5",
        "streetName": "DEVERON",
        "streetDirectionId": null,
        "streetTypeId": "CRES",
        "placeName": "LONDON",
        "streetNameDisplayText": "DEVERON CRES, LONDON"
      }
    ]
  },
  {
    "postal": "N5Z1J3",
    "result": [
      {
        "electoralDistricts": [
          {
            "election": null,
            "id": 53,
            "name": "London—Fanshawe"
          }
        ],
        "pollDivisionIds": [
          10139571
        ],
        "postalCode": "N5Z1J3",
        "streetName": "WALKER",
        "streetDirectionId": null,
        "streetTypeId": "ST",
        "placeName": "LONDON",
        "streetNameDisplayText": "WALKER ST, LONDON"
      }
    ]
  },
  {
    "postal": "N5Z5S6",
    "result": []
  },
  {
    "postal": "N5Z8P7",
    "result": []
  },
  {
    "postal": "N5Z7S7",
    "result": []
  },
  {
    "postal": "N5Z4C2",
    "result": [
      {
        "electoralDistricts": [
          {
            "election": null,
            "id": 53,
            "name": "London—Fanshawe"
          }
        ],
        "pollDivisionIds": [
          10139576
        ],
        "postalCode": "N5Z4C2",
        "streetName": "ALMOND",
        "streetDirectionId": null,
        "streetTypeId": "RD",
        "placeName": "LONDON",
        "streetNameDisplayText": "ALMOND RD, LONDON"
      }
    ]
  },
  {
    "postal": "N5Z5Y0",
    "result": []
  },
  {
    "postal": "N5Z2V7",
    "result": [
      {
        "electoralDistricts": [
          {
            "election": null,
            "id": 53,
            "name": "London—Fanshawe"
          }
        ],
        "pollDivisionIds": [
          10139568
        ],
        "postalCode": "N5Z2V7",
        "streetName": "GILES",
        "streetDirectionId": null,
        "streetTypeId": "ST",
        "placeName": "LONDON",
        "streetNameDisplayText": "GILES ST, LONDON"
      }
    ]
  },
  {
    "postal": "N5Z8P5",
    "result": []
  },
  {
    "postal": "N5Z5P5",
    "result": []
  },
  {
    "postal": "N5Z5Z0",
    "result": []
  },
  {
    "postal": "N5Z9B0",
    "result": []
  },
  {
    "postal": "N5Z1L0",
    "result": []
  },
  {
    "postal": "N5Z0B5",
    "result": []
  },
  {
    "postal": "N5Z3L2",
    "result": [
      {
        "electoralDistricts": [
          {
            "election": null,
            "id": 53,
            "name": "London—Fanshawe"
          }
        ],
        "pollDivisionIds": [
          10139574
        ],
        "postalCode": "N5Z3L2",
        "streetName": "ADELAIDE",
        "streetDirectionId": "S",
        "streetTypeId": "ST",
        "placeName": "LONDON",
        "streetNameDisplayText": "ADELAIDE ST S, LONDON"
      }
    ]
  },
  {
    "postal": "N5Z3B7",
    "result": [
      {
        "electoralDistricts": [
          {
            "election": null,
            "id": 53,
            "name": "London—Fanshawe"
          }
        ],
        "pollDivisionIds": [
          10139574
        ],
        "postalCode": "N5Z3B7",
        "streetName": "RENFRO",
        "streetDirectionId": null,
        "streetTypeId": "CRES",
        "placeName": "LONDON",
        "streetNameDisplayText": "RENFRO CRES, LONDON"
      }
    ]
  },
  {
    "postal": "N5Z8L1",
    "result": []
  },
  {
    "postal": "N5Z5M4",
    "result": []
  },
  {
    "postal": "N5Z4G9",
    "result": [
      {
        "electoralDistricts": [
          {
            "election": null,
            "id": 53,
            "name": "London—Fanshawe"
          }
        ],
        "pollDivisionIds": [
          10139576
        ],
        "postalCode": "N5Z4G9",
        "streetName": "GOODMAN",
        "streetDirectionId": null,
        "streetTypeId": "DR",
        "placeName": "LONDON",
        "streetNameDisplayText": "GOODMAN DR, LONDON"
      }
    ]
  },
  {
    "postal": "N5Z0P0",
    "result": []
  },
  {
    "postal": "N5Z8G2",
    "result": []
  },
  {
    "postal": "N5Z1V9",
    "result": [
      {
        "electoralDistricts": [
          {
            "election": null,
            "id": 53,
            "name": "London—Fanshawe"
          }
        ],
        "pollDivisionIds": [
          10139568
        ],
        "postalCode": "N5Z1V9",
        "streetName": "HAMILTON",
        "streetDirectionId": null,
        "streetTypeId": "RD",
        "placeName": "LONDON",
        "streetNameDisplayText": "HAMILTON RD, LONDON"
      }
    ]
  },
  {
    "postal": "N5Z8N8",
    "result": []
  },
  {
    "postal": "N5Z6S8",
    "result": []
  },
  {
    "postal": "N5Z8H2",
    "result": []
  },
  {
    "postal": "N5Z5R8",
    "result": []
  },
  {
    "postal": "N5Z5L4",
    "result": []
  },
  {
    "postal": "N5Z9E1",
    "result": []
  },
  {
    "postal": "N5Z1C4",
    "result": [
      {
        "electoralDistricts": [
          {
            "election": null,
            "id": 53,
            "name": "London—Fanshawe"
          }
        ],
        "pollDivisionIds": [
          10139570
        ],
        "postalCode": "N5Z1C4",
        "streetName": "TERRENCE",
        "streetDirectionId": null,
        "streetTypeId": "ST",
        "placeName": "LONDON",
        "streetNameDisplayText": "TERRENCE ST, LONDON"
      }
    ]
  },
  {
    "postal": "N5Z8W5",
    "result": []
  },
  {
    "postal": "N5Z1Y4",
    "result": [
      {
        "electoralDistricts": [
          {
            "election": null,
            "id": 53,
            "name": "London—Fanshawe"
          }
        ],
        "pollDivisionIds": [
          10139569
        ],
        "postalCode": "N5Z1Y4",
        "streetName": "RATHGAR",
        "streetDirectionId": null,
        "streetTypeId": "ST",
        "placeName": "LONDON",
        "streetNameDisplayText": "RATHGAR ST, LONDON"
      }
    ]
  },
  {
    "postal": "N5Z1C0",
    "result": []
  },
  {
    "postal": "N5Z2J2",
    "result": [
      {
        "electoralDistricts": [
          {
            "election": null,
            "id": 53,
            "name": "London—Fanshawe"
          }
        ],
        "pollDivisionIds": [
          10139570
        ],
        "postalCode": "N5Z2J2",
        "streetName": "PRICE",
        "streetDirectionId": null,
        "streetTypeId": "ST",
        "placeName": "LONDON",
        "streetNameDisplayText": "PRICE ST, LONDON"
      }
    ]
  },
  {
    "postal": "N5Z2J0",
    "result": []
  },
  {
    "postal": "N5Z7A3",
    "result": []
  },
  {
    "postal": "N5Z8M1",
    "result": []
  },
  {
    "postal": "N5Z7T9",
    "result": []
  },
  {
    "postal": "N5Z6C0",
    "result": []
  },
  {
    "postal": "N5Z7X1",
    "result": []
  },
  {
    "postal": "N5Z0G1",
    "result": []
  },
  {
    "postal": "N5Z4X2",
    "result": [
      {
        "electoralDistricts": [
          {
            "election": null,
            "id": 53,
            "name": "London—Fanshawe"
          }
        ],
        "pollDivisionIds": [
          10139577
        ],
        "postalCode": "N5Z4X2",
        "streetName": "POND MILLS",
        "streetDirectionId": null,
        "streetTypeId": "RD",
        "placeName": "LONDON",
        "streetNameDisplayText": "POND MILLS RD, LONDON"
      }
    ]
  },
  {
    "postal": "N5Z0N6",
    "result": []
  },
  {
    "postal": "N5Z8E3",
    "result": []
  },
  {
    "postal": "N5Z5S8",
    "result": []
  },
  {
    "postal": "N5Z0R0",
    "result": []
  },
  {
    "postal": "N5Z6J6",
    "result": []
  },
  {
    "postal": "N5Z4B4",
    "result": [
      {
        "electoralDistricts": [
          {
            "election": null,
            "id": 53,
            "name": "London—Fanshawe"
          }
        ],
        "pollDivisionIds": [
          10139577
        ],
        "postalCode": "N5Z4B4",
        "streetName": "DEVERON",
        "streetDirectionId": null,
        "streetTypeId": "CRES",
        "placeName": "LONDON",
        "streetNameDisplayText": "DEVERON CRES, LONDON"
      }
    ]
  },
  {
    "postal": "N5Z7E3",
    "result": []
  },
  {
    "postal": "N5Z3N6",
    "result": [
      {
        "electoralDistricts": [
          {
            "election": null,
            "id": 53,
            "name": "London—Fanshawe"
          }
        ],
        "pollDivisionIds": [
          10139572
        ],
        "postalCode": "N5Z3N6",
        "streetName": "JOSEPHINE",
        "streetDirectionId": null,
        "streetTypeId": "ST",
        "placeName": "LONDON",
        "streetNameDisplayText": "JOSEPHINE ST, LONDON"
      }
    ]
  },
  {
    "postal": "N5Z3X6",
    "result": [
      {
        "electoralDistricts": [
          {
            "election": null,
            "id": 53,
            "name": "London—Fanshawe"
          }
        ],
        "pollDivisionIds": [
          10139576
        ],
        "postalCode": "N5Z3X6",
        "streetName": "POND MILLS",
        "streetDirectionId": null,
        "streetTypeId": "RD",
        "placeName": "LONDON",
        "streetNameDisplayText": "POND MILLS RD, LONDON"
      }
    ]
  },
  {
    "postal": "N5Z8L0",
    "result": []
  },
  {
    "postal": "N5Z8N1",
    "result": []
  },
  {
    "postal": "N5Z4J0",
    "result": []
  },
  {
    "postal": "N5Z0X7",
    "result": []
  },
  {
    "postal": "N5Z6S4",
    "result": []
  },
  {
    "postal": "N5Z0Z0",
    "result": []
  },
  {
    "postal": "N5Z9X8",
    "result": []
  },
  {
    "postal": "N5Z3H3",
    "result": [
      {
        "electoralDistricts": [
          {
            "election": null,
            "id": 53,
            "name": "London—Fanshawe"
          }
        ],
        "pollDivisionIds": [
          10139573
        ],
        "postalCode": "N5Z3H3",
        "streetName": "PANORAMA",
        "streetDirectionId": null,
        "streetTypeId": "CRES",
        "placeName": "LONDON",
        "streetNameDisplayText": "PANORAMA CRES, LONDON"
      }
    ]
  },
  {
    "postal": "N5Z7S2",
    "result": []
  },
  {
    "postal": "N5Z3T3",
    "result": [
      {
        "electoralDistricts": [
          {
            "election": null,
            "id": 53,
            "name": "London—Fanshawe"
          }
        ],
        "pollDivisionIds": [
          10139572
        ],
        "postalCode": "N5Z3T3",
        "streetName": "KING EDWARD",
        "streetDirectionId": null,
        "streetTypeId": "AVE",
        "placeName": "LONDON",
        "streetNameDisplayText": "KING EDWARD AVE, LONDON"
      }
    ]
  },
  {
    "postal": "N5Z9P3",
    "result": []
  },
  {
    "postal": "N5Z4H8",
    "result": [
      {
        "electoralDistricts": [
          {
            "election": null,
            "id": 53,
            "name": "London—Fanshawe"
          }
        ],
        "pollDivisionIds": [
          10139576
        ],
        "postalCode": "N5Z4H8",
        "streetName": "GLENROY",
        "streetDirectionId": null,
        "streetTypeId": "CRES",
        "placeName": "LONDON",
        "streetNameDisplayText": "GLENROY CRES, LONDON"
      }
    ]
  },
  {
    "postal": "N5Z6R1",
    "result": []
  },
  {
    "postal": "N5Z1S0",
    "result": []
  },
  {
    "postal": "N5Z3W8",
    "result": [
      {
        "electoralDistricts": [
          {
            "election": null,
            "id": 53,
            "name": "London—Fanshawe"
          }
        ],
        "pollDivisionIds": [
          10139573
        ],
        "postalCode": "N5Z3W8",
        "streetName": "CAIRN",
        "streetDirectionId": null,
        "streetTypeId": "ST",
        "placeName": "LONDON",
        "streetNameDisplayText": "CAIRN ST, LONDON"
      }
    ]
  },
  {
    "postal": "N5Z4S3",
    "result": [
      {
        "electoralDistricts": [
          {
            "election": null,
            "id": 53,
            "name": "London—Fanshawe"
          }
        ],
        "pollDivisionIds": [
          10139576
        ],
        "postalCode": "N5Z4S3",
        "streetName": "DEVERON",
        "streetDirectionId": null,
        "streetTypeId": "CRES",
        "placeName": "LONDON",
        "streetNameDisplayText": "DEVERON CRES, LONDON"
      }
    ]
  },
  {
    "postal": "N5Z1B6",
    "result": [
      {
        "electoralDistricts": [
          {
            "election": null,
            "id": 53,
            "name": "London—Fanshawe"
          }
        ],
        "pollDivisionIds": [
          10139570
        ],
        "postalCode": "N5Z1B6",
        "streetName": "VAUXHALL",
        "streetDirectionId": null,
        "streetTypeId": "ST",
        "placeName": "LONDON",
        "streetNameDisplayText": "VAUXHALL ST, LONDON"
      }
    ]
  },
  {
    "postal": "N5Z8R3",
    "result": []
  },
  {
    "postal": "N5Z4V9",
    "result": [
      {
        "electoralDistricts": [
          {
            "election": null,
            "id": 53,
            "name": "London—Fanshawe"
          }
        ],
        "pollDivisionIds": [
          10139576
        ],
        "postalCode": "N5Z4V9",
        "streetName": "EDMUNDS",
        "streetDirectionId": null,
        "streetTypeId": "PL",
        "placeName": "LONDON",
        "streetNameDisplayText": "EDMUNDS PL, LONDON"
      }
    ]
  },
  {
    "postal": "N5Z9W4",
    "result": []
  },
  {
    "postal": "N5Z3T4",
    "result": [
      {
        "electoralDistricts": [
          {
            "election": null,
            "id": 53,
            "name": "London—Fanshawe"
          }
        ],
        "pollDivisionIds": [
          10139572
        ],
        "postalCode": "N5Z3T4",
        "streetName": "KING EDWARD",
        "streetDirectionId": null,
        "streetTypeId": "AVE",
        "placeName": "LONDON",
        "streetNameDisplayText": "KING EDWARD AVE, LONDON"
      }
    ]
  },
  {
    "postal": "N5Z5C7",
    "result": [
      {
        "electoralDistricts": [
          {
            "election": null,
            "id": 53,
            "name": "London—Fanshawe"
          }
        ],
        "pollDivisionIds": [
          10139573
        ],
        "postalCode": "N5Z5C7",
        "streetName": "JONATHAN",
        "streetDirectionId": null,
        "streetTypeId": "ST",
        "placeName": "LONDON",
        "streetNameDisplayText": "JONATHAN ST, LONDON"
      },
      {
        "electoralDistricts": [
          {
            "election": null,
            "id": 53,
            "name": "London—Fanshawe"
          }
        ],
        "pollDivisionIds": [
          10139573
        ],
        "postalCode": "N5Z5C7",
        "streetName": "SANDY",
        "streetDirectionId": null,
        "streetTypeId": "ST",
        "placeName": "LONDON",
        "streetNameDisplayText": "SANDY ST, LONDON"
      }
    ]
  },
  {
    "postal": "N5Z3Y1",
    "result": [
      {
        "electoralDistricts": [
          {
            "election": null,
            "id": 53,
            "name": "London—Fanshawe"
          }
        ],
        "pollDivisionIds": [
          10139577
        ],
        "postalCode": "N5Z3Y1",
        "streetName": "FRONTENAC",
        "streetDirectionId": null,
        "streetTypeId": "RD",
        "placeName": "LONDON",
        "streetNameDisplayText": "FRONTENAC RD, LONDON"
      }
    ]
  },
  {
    "postal": "N5Z5V0",
    "result": []
  },
  {
    "postal": "N5Z8G8",
    "result": []
  },
  {
    "postal": "N5Z8B1",
    "result": []
  },
  {
    "postal": "N5Z4P5",
    "result": []
  },
  {
    "postal": "N5Z7B2",
    "result": []
  },
  {
    "postal": "N5Z0R2",
    "result": []
  },
  {
    "postal": "N5Z4M4",
    "result": [
      {
        "electoralDistricts": [
          {
            "election": null,
            "id": 53,
            "name": "London—Fanshawe"
          }
        ],
        "pollDivisionIds": [
          10139576
        ],
        "postalCode": "N5Z4M4",
        "streetName": "DEVERON",
        "streetDirectionId": null,
        "streetTypeId": "CRES",
        "placeName": "LONDON",
        "streetNameDisplayText": "DEVERON CRES, LONDON"
      }
    ]
  },
  {
    "postal": "N5Z7M4",
    "result": []
  },
  {
    "postal": "N5Z9S7",
    "result": []
  },
  {
    "postal": "N5Z5Z7",
    "result": []
  },
  {
    "postal": "N5Z7J7",
    "result": []
  },
  {
    "postal": "N5Z8R8",
    "result": []
  },
  {
    "postal": "N5Z9X1",
    "result": []
  },
  {
    "postal": "N5Z5M9",
    "result": []
  },
  {
    "postal": "N5Z9B4",
    "result": []
  },
  {
    "postal": "N5Z0L9",
    "result": []
  },
  {
    "postal": "N5Z9G4",
    "result": []
  },
  {
    "postal": "N5Z1J4",
    "result": [
      {
        "electoralDistricts": [
          {
            "election": null,
            "id": 53,
            "name": "London—Fanshawe"
          }
        ],
        "pollDivisionIds": [
          10139571
        ],
        "postalCode": "N5Z1J4",
        "streetName": "WALKER",
        "streetDirectionId": null,
        "streetTypeId": "ST",
        "placeName": "LONDON",
        "streetNameDisplayText": "WALKER ST, LONDON"
      }
    ]
  },
  {
    "postal": "N5Z0W6",
    "result": []
  }
]
