[
  {
    "postal": "L8S9J6",
    "result": []
  },
  {
    "postal": "L8S9Z5",
    "result": []
  },
  {
    "postal": "L8S7H8",
    "result": []
  },
  {
    "postal": "L8S0P6",
    "result": []
  },
  {
    "postal": "L8S0S7",
    "result": []
  },
  {
    "postal": "L8S8B9",
    "result": []
  },
  {
    "postal": "L8S2A6",
    "result": []
  },
  {
    "postal": "L8S7V2",
    "result": []
  },
  {
    "postal": "L8S9P4",
    "result": []
  },
  {
    "postal": "L8S6G0",
    "result": []
  },
  {
    "postal": "L8S2K0",
    "result": []
  },
  {
    "postal": "L8S7N6",
    "result": []
  },
  {
    "postal": "L8S5R3",
    "result": []
  },
  {
    "postal": "L8S7K0",
    "result": []
  },
  {
    "postal": "L8S3R2",
    "result": [
      {
        "electoralDistricts": [
          {
            "election": null,
            "id": 39,
            "name": "Hamilton West—Ancaster—Dundas"
          }
        ],
        "pollDivisionIds": [
          10135269
        ],
        "postalCode": "L8S3R2",
        "streetName": "NORWOOD",
        "streetDirectionId": null,
        "streetTypeId": "RD",
        "placeName": "HAMILTON",
        "streetNameDisplayText": "NORWOOD RD, HAMILTON"
      }
    ]
  },
  {
    "postal": "L8S0J1",
    "result": []
  },
  {
    "postal": "L8S0B0",
    "result": []
  },
  {
    "postal": "L8S5Z2",
    "result": []
  },
  {
    "postal": "L8S7P3",
    "result": []
  },
  {
    "postal": "L8S2K3",
    "result": [
      {
        "electoralDistricts": [
          {
            "election": null,
            "id": 39,
            "name": "Hamilton West—Ancaster—Dundas"
          }
        ],
        "pollDivisionIds": [
          10135267
        ],
        "postalCode": "L8S2K3",
        "streetName": "MAPES",
        "streetDirectionId": null,
        "streetTypeId": "AVE",
        "placeName": "HAMILTON",
        "streetNameDisplayText": "MAPES AVE, HAMILTON"
      }
    ]
  },
  {
    "postal": "L8S7Y6",
    "result": []
  },
  {
    "postal": "L8S1L9",
    "result": []
  },
  {
    "postal": "L8S8T0",
    "result": []
  },
  {
    "postal": "L8S3K8",
    "result": [
      {
        "electoralDistricts": [
          {
            "election": null,
            "id": 39,
            "name": "Hamilton West—Ancaster—Dundas"
          }
        ],
        "pollDivisionIds": [
          10135267
        ],
        "postalCode": "L8S3K8",
        "streetName": "BINKLEY",
        "streetDirectionId": null,
        "streetTypeId": "CRES",
        "placeName": "HAMILTON",
        "streetNameDisplayText": "BINKLEY CRES, HAMILTON"
      },
      {
        "electoralDistricts": [
          {
            "election": null,
            "id": 31,
            "name": "Flamborough—Glanbrook"
          }
        ],
        "pollDivisionIds": [
          10138244
        ],
        "postalCode": "L8S3K8",
        "streetName": "BINKLEY",
        "streetDirectionId": null,
        "streetTypeId": "CRT",
        "placeName": "HAMILTON",
        "streetNameDisplayText": "BINKLEY CRT, HAMILTON"
      }
    ]
  },
  {
    "postal": "L8S5W9",
    "result": []
  },
  {
    "postal": "L8S6T9",
    "result": []
  },
  {
    "postal": "L8S4H1",
    "result": [
      {
        "electoralDistricts": [
          {
            "election": null,
            "id": 39,
            "name": "Hamilton West—Ancaster—Dundas"
          }
        ],
        "pollDivisionIds": [
          10135268
        ],
        "postalCode": "L8S4H1",
        "streetName": "PAISLEY",
        "streetDirectionId": "N",
        "streetTypeId": "AVE",
        "placeName": "HAMILTON",
        "streetNameDisplayText": "PAISLEY AVE N, HAMILTON"
      }
    ]
  },
  {
    "postal": "L8S7A2",
    "result": []
  },
  {
    "postal": "L8S5G0",
    "result": []
  },
  {
    "postal": "L8S8V5",
    "result": []
  },
  {
    "postal": "L8S2Y8",
    "result": [
      {
        "electoralDistricts": [
          {
            "election": null,
            "id": 39,
            "name": "Hamilton West—Ancaster—Dundas"
          }
        ],
        "pollDivisionIds": [
          10135272
        ],
        "postalCode": "L8S2Y8",
        "streetName": "EMERSON",
        "streetDirectionId": null,
        "streetTypeId": "ST",
        "placeName": "HAMILTON",
        "streetNameDisplayText": "EMERSON ST, HAMILTON"
      }
    ]
  },
  {
    "postal": "L8S2B6",
    "result": [
      {
        "electoralDistricts": [
          {
            "election": null,
            "id": 39,
            "name": "Hamilton West—Ancaster—Dundas"
          }
        ],
        "pollDivisionIds": [
          10135272
        ],
        "postalCode": "L8S2B6",
        "streetName": "WESTWOOD",
        "streetDirectionId": null,
        "streetTypeId": "AVE",
        "placeName": "HAMILTON",
        "streetNameDisplayText": "WESTWOOD AVE, HAMILTON"
      }
    ]
  },
  {
    "postal": "L8S4W8",
    "result": []
  },
  {
    "postal": "L8S8H7",
    "result": []
  },
  {
    "postal": "L8S5P1",
    "result": []
  },
  {
    "postal": "L8S2B8",
    "result": [
      {
        "electoralDistricts": [
          {
            "election": null,
            "id": 39,
            "name": "Hamilton West—Ancaster—Dundas"
          }
        ],
        "pollDivisionIds": [
          10135272
        ],
        "postalCode": "L8S2B8",
        "streetName": "BAXTER",
        "streetDirectionId": null,
        "streetTypeId": "ST",
        "placeName": "HAMILTON",
        "streetNameDisplayText": "BAXTER ST, HAMILTON"
      }
    ]
  },
  {
    "postal": "L8S0P2",
    "result": []
  },
  {
    "postal": "L8S9M1",
    "result": []
  },
  {
    "postal": "L8S3G0",
    "result": []
  },
  {
    "postal": "L8S9Z2",
    "result": []
  },
  {
    "postal": "L8S2A0",
    "result": []
  },
  {
    "postal": "L8S6Y0",
    "result": []
  },
  {
    "postal": "L8S2Z8",
    "result": [
      {
        "electoralDistricts": [
          {
            "election": null,
            "id": 39,
            "name": "Hamilton West—Ancaster—Dundas"
          }
        ],
        "pollDivisionIds": [
          10135267
        ],
        "postalCode": "L8S2Z8",
        "streetName": "LELAND",
        "streetDirectionId": null,
        "streetTypeId": "ST",
        "placeName": "HAMILTON",
        "streetNameDisplayText": "LELAND ST, HAMILTON"
      }
    ]
  },
  {
    "postal": "L8S7Y3",
    "result": []
  },
  {
    "postal": "L8S6Z5",
    "result": []
  },
  {
    "postal": "L8S6E0",
    "result": []
  },
  {
    "postal": "L8S9B7",
    "result": []
  },
  {
    "postal": "L8S9S5",
    "result": []
  },
  {
    "postal": "L8S3X3",
    "result": [
      {
        "electoralDistricts": [
          {
            "election": null,
            "id": 39,
            "name": "Hamilton West—Ancaster—Dundas"
          }
        ],
        "pollDivisionIds": [
          10135269
        ],
        "postalCode": "L8S3X3",
        "streetName": "KIPLING",
        "streetDirectionId": null,
        "streetTypeId": "RD",
        "placeName": "HAMILTON",
        "streetNameDisplayText": "KIPLING RD, HAMILTON"
      }
    ]
  },
  {
    "postal": "L8S7R5",
    "result": []
  },
  {
    "postal": "L8S2X3",
    "result": []
  },
  {
    "postal": "L8S8Z9",
    "result": []
  },
  {
    "postal": "L8S0N4",
    "result": []
  },
  {
    "postal": "L8S1K1",
    "result": [
      {
        "electoralDistricts": [
          {
            "election": null,
            "id": 39,
            "name": "Hamilton West—Ancaster—Dundas"
          }
        ],
        "pollDivisionIds": [
          10135268
        ],
        "postalCode": "L8S1K1",
        "streetName": "KING",
        "streetDirectionId": "W",
        "streetTypeId": "ST",
        "placeName": "HAMILTON",
        "streetNameDisplayText": "KING ST W, HAMILTON"
      }
    ]
  },
  {
    "postal": "L8S1S3",
    "result": [
      {
        "electoralDistricts": [
          {
            "election": null,
            "id": 39,
            "name": "Hamilton West—Ancaster—Dundas"
          }
        ],
        "pollDivisionIds": [
          10135268
        ],
        "postalCode": "L8S1S3",
        "streetName": "PARADISE",
        "streetDirectionId": "S",
        "streetTypeId": "RD",
        "placeName": "HAMILTON",
        "streetNameDisplayText": "PARADISE RD S, HAMILTON"
      }
    ]
  },
  {
    "postal": "L8S6M4",
    "result": []
  },
  {
    "postal": "L8S9A9",
    "result": []
  },
  {
    "postal": "L8S9Z9",
    "result": []
  },
  {
    "postal": "L8S6T4",
    "result": []
  },
  {
    "postal": "L8S0B2",
    "result": []
  },
  {
    "postal": "L8S2L9",
    "result": [
      {
        "electoralDistricts": [
          {
            "election": null,
            "id": 39,
            "name": "Hamilton West—Ancaster—Dundas"
          }
        ],
        "pollDivisionIds": [
          10135271
        ],
        "postalCode": "L8S2L9",
        "streetName": "IONA",
        "streetDirectionId": null,
        "streetTypeId": "AVE",
        "placeName": "HAMILTON",
        "streetNameDisplayText": "IONA AVE, HAMILTON"
      }
    ]
  },
  {
    "postal": "L8S8K9",
    "result": []
  },
  {
    "postal": "L8S2H9",
    "result": [
      {
        "electoralDistricts": [
          {
            "election": null,
            "id": 39,
            "name": "Hamilton West—Ancaster—Dundas"
          }
        ],
        "pollDivisionIds": [
          10135272
        ],
        "postalCode": "L8S2H9",
        "streetName": "WILLOWCREST",
        "streetDirectionId": null,
        "streetTypeId": "AVE",
        "placeName": "HAMILTON",
        "streetNameDisplayText": "WILLOWCREST AVE, HAMILTON"
      }
    ]
  },
  {
    "postal": "L8S3Z6",
    "result": [
      {
        "electoralDistricts": [
          {
            "election": null,
            "id": 39,
            "name": "Hamilton West—Ancaster—Dundas"
          }
        ],
        "pollDivisionIds": [
          10135268
        ],
        "postalCode": "L8S3Z6",
        "streetName": "CLINE",
        "streetDirectionId": "N",
        "streetTypeId": "AVE",
        "placeName": "HAMILTON",
        "streetNameDisplayText": "CLINE AVE N, HAMILTON"
      }
    ]
  },
  {
    "postal": "L8S3B0",
    "result": []
  },
  {
    "postal": "L8S2H8",
    "result": [
      {
        "electoralDistricts": [
          {
            "election": null,
            "id": 39,
            "name": "Hamilton West—Ancaster—Dundas"
          }
        ],
        "pollDivisionIds": [
          10135271
        ],
        "postalCode": "L8S2H8",
        "streetName": "WHITNEY",
        "streetDirectionId": null,
        "streetTypeId": "AVE",
        "placeName": "HAMILTON",
        "streetNameDisplayText": "WHITNEY AVE, HAMILTON"
      }
    ]
  },
  {
    "postal": "L8S3X2",
    "result": [
      {
        "electoralDistricts": [
          {
            "election": null,
            "id": 39,
            "name": "Hamilton West—Ancaster—Dundas"
          }
        ],
        "pollDivisionIds": [
          10135269
        ],
        "postalCode": "L8S3X2",
        "streetName": "KIPLING",
        "streetDirectionId": null,
        "streetTypeId": "RD",
        "placeName": "HAMILTON",
        "streetNameDisplayText": "KIPLING RD, HAMILTON"
      }
    ]
  },
  {
    "postal": "L8S2E9",
    "result": [
      {
        "electoralDistricts": [
          {
            "election": null,
            "id": 39,
            "name": "Hamilton West—Ancaster—Dundas"
          }
        ],
        "pollDivisionIds": [
          10135272
        ],
        "postalCode": "L8S2E9",
        "streetName": "WARD",
        "streetDirectionId": null,
        "streetTypeId": "AVE",
        "placeName": "HAMILTON",
        "streetNameDisplayText": "WARD AVE, HAMILTON"
      }
    ]
  },
  {
    "postal": "L8S9P6",
    "result": []
  },
  {
    "postal": "L8S9E2",
    "result": []
  },
  {
    "postal": "L8S9H2",
    "result": []
  },
  {
    "postal": "L8S1S8",
    "result": [
      {
        "electoralDistricts": [
          {
            "election": null,
            "id": 39,
            "name": "Hamilton West—Ancaster—Dundas"
          }
        ],
        "pollDivisionIds": [
          10135261
        ],
        "postalCode": "L8S1S8",
        "streetName": "BOND",
        "streetDirectionId": "S",
        "streetTypeId": "ST",
        "placeName": "DUNDAS",
        "streetNameDisplayText": "BOND ST S, DUNDAS"
      },
      {
        "electoralDistricts": [
          {
            "election": null,
            "id": 39,
            "name": "Hamilton West—Ancaster—Dundas"
          }
        ],
        "pollDivisionIds": [
          10135268
        ],
        "postalCode": "L8S1S8",
        "streetName": "BOND",
        "streetDirectionId": "S",
        "streetTypeId": "ST",
        "placeName": "HAMILTON",
        "streetNameDisplayText": "BOND ST S, HAMILTON"
      },
      {
        "electoralDistricts": [
          {
            "election": null,
            "id": 39,
            "name": "Hamilton West—Ancaster—Dundas"
          }
        ],
        "pollDivisionIds": [
          10135268
        ],
        "postalCode": "L8S1S8",
        "streetName": "KING",
        "streetDirectionId": "W",
        "streetTypeId": "ST",
        "placeName": "HAMILTON",
        "streetNameDisplayText": "KING ST W, HAMILTON"
      }
    ]
  },
  {
    "postal": "L8S3M6",
    "result": [
      {
        "electoralDistricts": [
          {
            "election": null,
            "id": 39,
            "name": "Hamilton West—Ancaster—Dundas"
          }
        ],
        "pollDivisionIds": [
          10135268
        ],
        "postalCode": "L8S3M6",
        "streetName": "GLEN",
        "streetDirectionId": null,
        "streetTypeId": "RD",
        "placeName": "HAMILTON",
        "streetNameDisplayText": "GLEN RD, HAMILTON"
      }
    ]
  },
  {
    "postal": "L8S6Z8",
    "result": []
  },
  {
    "postal": "L8S4J2",
    "result": [
      {
        "electoralDistricts": [
          {
            "election": null,
            "id": 39,
            "name": "Hamilton West—Ancaster—Dundas"
          }
        ],
        "pollDivisionIds": [
          10135268
        ],
        "postalCode": "L8S4J2",
        "streetName": "STERLING",
        "streetDirectionId": null,
        "streetTypeId": "ST",
        "placeName": "HAMILTON",
        "streetNameDisplayText": "STERLING ST, HAMILTON"
      }
    ]
  },
  {
    "postal": "L8S9Y1",
    "result": []
  },
  {
    "postal": "L8S8V6",
    "result": []
  },
  {
    "postal": "L8S6B2",
    "result": []
  },
  {
    "postal": "L8S1P8",
    "result": [
      {
        "electoralDistricts": [
          {
            "election": null,
            "id": 39,
            "name": "Hamilton West—Ancaster—Dundas"
          }
        ],
        "pollDivisionIds": [
          10135268
        ],
        "postalCode": "L8S1P8",
        "streetName": "SOUTH OVAL",
        "streetDirectionId": null,
        "streetTypeId": null,
        "placeName": "HAMILTON",
        "streetNameDisplayText": "SOUTH OVAL, HAMILTON"
      }
    ]
  },
  {
    "postal": "L8S0V8",
    "result": []
  },
  {
    "postal": "L8S4Y0",
    "result": []
  },
  {
    "postal": "L8S2T4",
    "result": [
      {
        "electoralDistricts": [
          {
            "election": null,
            "id": 39,
            "name": "Hamilton West—Ancaster—Dundas"
          }
        ],
        "pollDivisionIds": [
          10135272
        ],
        "postalCode": "L8S2T4",
        "streetName": "BOWMAN",
        "streetDirectionId": null,
        "streetTypeId": "ST",
        "placeName": "HAMILTON",
        "streetNameDisplayText": "BOWMAN ST, HAMILTON"
      }
    ]
  },
  {
    "postal": "L8S2S3",
    "result": [
      {
        "electoralDistricts": [
          {
            "election": null,
            "id": 39,
            "name": "Hamilton West—Ancaster—Dundas"
          }
        ],
        "pollDivisionIds": [
          10135271
        ],
        "postalCode": "L8S2S3",
        "streetName": "PURVIS",
        "streetDirectionId": null,
        "streetTypeId": "DR",
        "placeName": "HAMILTON",
        "streetNameDisplayText": "PURVIS DR, HAMILTON"
      }
    ]
  },
  {
    "postal": "L8S0K0",
    "result": []
  },
  {
    "postal": "L8S5N1",
    "result": []
  },
  {
    "postal": "L8S7T0",
    "result": []
  },
  {
    "postal": "L8S9N2",
    "result": []
  },
  {
    "postal": "L8S5L1",
    "result": []
  },
  {
    "postal": "L8S7G5",
    "result": []
  },
  {
    "postal": "L8S6K2",
    "result": []
  },
  {
    "postal": "L8S6P9",
    "result": []
  },
  {
    "postal": "L8S0E6",
    "result": []
  },
  {
    "postal": "L8S8R9",
    "result": []
  },
  {
    "postal": "L8S3G9",
    "result": [
      {
        "electoralDistricts": [
          {
            "election": null,
            "id": 39,
            "name": "Hamilton West—Ancaster—Dundas"
          }
        ],
        "pollDivisionIds": [
          10135271
        ],
        "postalCode": "L8S3G9",
        "streetName": "LOWER HORNING",
        "streetDirectionId": null,
        "streetTypeId": "RD",
        "placeName": "HAMILTON",
        "streetNameDisplayText": "LOWER HORNING RD, HAMILTON"
      }
    ]
  },
  {
    "postal": "L8S0V7",
    "result": []
  },
  {
    "postal": "L8S2Z1",
    "result": [
      {
        "electoralDistricts": [
          {
            "election": null,
            "id": 39,
            "name": "Hamilton West—Ancaster—Dundas"
          }
        ],
        "pollDivisionIds": [
          10135267
        ],
        "postalCode": "L8S2Z1",
        "streetName": "AYLETT",
        "streetDirectionId": null,
        "streetTypeId": "ST",
        "placeName": "HAMILTON",
        "streetNameDisplayText": "AYLETT ST, HAMILTON"
      }
    ]
  },
  {
    "postal": "L8S7N1",
    "result": []
  },
  {
    "postal": "L8S3C6",
    "result": [
      {
        "electoralDistricts": [
          {
            "election": null,
            "id": 39,
            "name": "Hamilton West—Ancaster—Dundas"
          }
        ],
        "pollDivisionIds": [
          10135271
        ],
        "postalCode": "L8S3C6",
        "streetName": "EWEN",
        "streetDirectionId": null,
        "streetTypeId": "RD",
        "placeName": "HAMILTON",
        "streetNameDisplayText": "EWEN RD, HAMILTON"
      }
    ]
  },
  {
    "postal": "L8S4M1",
    "result": [
      {
        "electoralDistricts": [
          {
            "election": null,
            "id": 39,
            "name": "Hamilton West—Ancaster—Dundas"
          }
        ],
        "pollDivisionIds": [
          10135268
        ],
        "postalCode": "L8S4M1",
        "streetName": "MAIN",
        "streetDirectionId": "W",
        "streetTypeId": "ST",
        "placeName": "HAMILTON",
        "streetNameDisplayText": "MAIN ST W, HAMILTON"
      }
    ]
  },
  {
    "postal": "L8S9K2",
    "result": []
  },
  {
    "postal": "L8S9S6",
    "result": []
  },
  {
    "postal": "L8S4X1",
    "result": []
  },
  {
    "postal": "L8S8W2",
    "result": []
  },
  {
    "postal": "L8S7N2",
    "result": []
  },
  {
    "postal": "L8S8S3",
    "result": []
  },
  {
    "postal": "L8S4V0",
    "result": []
  },
  {
    "postal": "L8S6W4",
    "result": []
  },
  {
    "postal": "L8S5M1",
    "result": []
  },
  {
    "postal": "L8S0S4",
    "result": []
  },
  {
    "postal": "L8S5X6",
    "result": []
  },
  {
    "postal": "L8S8L5",
    "result": []
  },
  {
    "postal": "L8S5M8",
    "result": []
  },
  {
    "postal": "L8S2G3",
    "result": [
      {
        "electoralDistricts": [
          {
            "election": null,
            "id": 39,
            "name": "Hamilton West—Ancaster—Dundas"
          }
        ],
        "pollDivisionIds": [
          10135272
        ],
        "postalCode": "L8S2G3",
        "streetName": "WHITNEY",
        "streetDirectionId": null,
        "streetTypeId": "AVE",
        "placeName": "HAMILTON",
        "streetNameDisplayText": "WHITNEY AVE, HAMILTON"
      }
    ]
  },
  {
    "postal": "L8S8E4",
    "result": []
  },
  {
    "postal": "L8S7S9",
    "result": []
  },
  {
    "postal": "L8S1K3",
    "result": [
      {
        "electoralDistricts": [
          {
            "election": null,
            "id": 39,
            "name": "Hamilton West—Ancaster—Dundas"
          }
        ],
        "pollDivisionIds": [
          10135269
        ],
        "postalCode": "L8S1K3",
        "streetName": "KING",
        "streetDirectionId": "W",
        "streetTypeId": "ST",
        "placeName": "HAMILTON",
        "streetNameDisplayText": "KING ST W, HAMILTON"
      }
    ]
  },
  {
    "postal": "L8S4E1",
    "result": [
      {
        "electoralDistricts": [
          {
            "election": null,
            "id": 39,
            "name": "Hamilton West—Ancaster—Dundas"
          }
        ],
        "pollDivisionIds": [
          10135268
        ],
        "postalCode": "L8S4E1",
        "streetName": "FORSYTH",
        "streetDirectionId": "N",
        "streetTypeId": "AVE",
        "placeName": "HAMILTON",
        "streetNameDisplayText": "FORSYTH AVE N, HAMILTON"
      }
    ]
  },
  {
    "postal": "L8S4R2",
    "result": [
      {
        "electoralDistricts": [
          {
            "election": null,
            "id": 39,
            "name": "Hamilton West—Ancaster—Dundas"
          }
        ],
        "pollDivisionIds": [
          10135271
        ],
        "postalCode": "L8S4R2",
        "streetName": "MAIN",
        "streetDirectionId": "W",
        "streetTypeId": "ST",
        "placeName": "HAMILTON",
        "streetNameDisplayText": "MAIN ST W, HAMILTON"
      }
    ]
  },
  {
    "postal": "L8S6T0",
    "result": []
  },
  {
    "postal": "L8S3K5",
    "result": [
      {
        "electoralDistricts": [
          {
            "election": null,
            "id": 39,
            "name": "Hamilton West—Ancaster—Dundas"
          }
        ],
        "pollDivisionIds": [
          10135267
        ],
        "postalCode": "L8S3K5",
        "streetName": "THORNDALE",
        "streetDirectionId": "N",
        "streetTypeId": "ST",
        "placeName": "HAMILTON",
        "streetNameDisplayText": "THORNDALE ST N, HAMILTON"
      }
    ]
  },
  {
    "postal": "L8S3S3",
    "result": [
      {
        "electoralDistricts": [
          {
            "election": null,
            "id": 39,
            "name": "Hamilton West—Ancaster—Dundas"
          }
        ],
        "pollDivisionIds": [
          10135269
        ],
        "postalCode": "L8S3S3",
        "streetName": "PARADISE",
        "streetDirectionId": "N",
        "streetTypeId": "RD",
        "placeName": "HAMILTON",
        "streetNameDisplayText": "PARADISE RD N, HAMILTON"
      }
    ]
  },
  {
    "postal": "L8S3L4",
    "result": [
      {
        "electoralDistricts": [
          {
            "election": null,
            "id": 39,
            "name": "Hamilton West—Ancaster—Dundas"
          }
        ],
        "pollDivisionIds": [
          10135267
        ],
        "postalCode": "L8S3L4",
        "streetName": "COTTRILL",
        "streetDirectionId": null,
        "streetTypeId": "ST",
        "placeName": "HAMILTON",
        "streetNameDisplayText": "COTTRILL ST, HAMILTON"
      }
    ]
  },
  {
    "postal": "L8S9Y2",
    "result": []
  },
  {
    "postal": "L8S1E0",
    "result": []
  },
  {
    "postal": "L8S9A4",
    "result": []
  },
  {
    "postal": "L8S1L3",
    "result": [
      {
        "electoralDistricts": [
          {
            "election": null,
            "id": 39,
            "name": "Hamilton West—Ancaster—Dundas"
          }
        ],
        "pollDivisionIds": [
          10135268
        ],
        "postalCode": "L8S1L3",
        "streetName": "KING",
        "streetDirectionId": "W",
        "streetTypeId": "ST",
        "placeName": "HAMILTON",
        "streetNameDisplayText": "KING ST W, HAMILTON"
      }
    ]
  },
  {
    "postal": "L8S6N1",
    "result": []
  },
  {
    "postal": "L8S6G7",
    "result": []
  },
  {
    "postal": "L8S7W1",
    "result": []
  },
  {
    "postal": "L8S4M6",
    "result": [
      {
        "electoralDistricts": [
          {
            "election": null,
            "id": 39,
            "name": "Hamilton West—Ancaster—Dundas"
          }
        ],
        "pollDivisionIds": [
          10135268
        ],
        "postalCode": "L8S4M6",
        "streetName": "MAIN",
        "streetDirectionId": "W",
        "streetTypeId": "ST",
        "placeName": "HAMILTON",
        "streetNameDisplayText": "MAIN ST W, HAMILTON"
      }
    ]
  },
  {
    "postal": "L8S1K0",
    "result": []
  },
  {
    "postal": "L8S3E2",
    "result": [
      {
        "electoralDistricts": [
          {
            "election": null,
            "id": 39,
            "name": "Hamilton West—Ancaster—Dundas"
          }
        ],
        "pollDivisionIds": [
          10135271
        ],
        "postalCode": "L8S3E2",
        "streetName": "YARMOUTH",
        "streetDirectionId": null,
        "streetTypeId": "CRT",
        "placeName": "HAMILTON",
        "streetNameDisplayText": "YARMOUTH CRT, HAMILTON"
      }
    ]
  },
  {
    "postal": "L8S5H4",
    "result": []
  },
  {
    "postal": "L8S1K7",
    "result": [
      {
        "electoralDistricts": [
          {
            "election": null,
            "id": 39,
            "name": "Hamilton West—Ancaster—Dundas"
          }
        ],
        "pollDivisionIds": [
          10135268
        ],
        "postalCode": "L8S1K7",
        "streetName": "KING",
        "streetDirectionId": "W",
        "streetTypeId": "ST",
        "placeName": "HAMILTON",
        "streetNameDisplayText": "KING ST W, HAMILTON"
      }
    ]
  },
  {
    "postal": "L8S0H0",
    "result": []
  },
  {
    "postal": "L8S0J3",
    "result": []
  },
  {
    "postal": "L8S1X6",
    "result": [
      {
        "electoralDistricts": [
          {
            "election": null,
            "id": 39,
            "name": "Hamilton West—Ancaster—Dundas"
          }
        ],
        "pollDivisionIds": [
          10135268
        ],
        "postalCode": "L8S1X6",
        "streetName": "HADDON",
        "streetDirectionId": "S",
        "streetTypeId": "AVE",
        "placeName": "HAMILTON",
        "streetNameDisplayText": "HADDON AVE S, HAMILTON"
      }
    ]
  },
  {
    "postal": "L8S2Z6",
    "result": [
      {
        "electoralDistricts": [
          {
            "election": null,
            "id": 39,
            "name": "Hamilton West—Ancaster—Dundas"
          }
        ],
        "pollDivisionIds": [
          10135272
        ],
        "postalCode": "L8S2Z6",
        "streetName": "CLIFFORD",
        "streetDirectionId": null,
        "streetTypeId": "ST",
        "placeName": "HAMILTON",
        "streetNameDisplayText": "CLIFFORD ST, HAMILTON"
      }
    ]
  },
  {
    "postal": "L8S4R9",
    "result": [
      {
        "electoralDistricts": [
          {
            "election": null,
            "id": 39,
            "name": "Hamilton West—Ancaster—Dundas"
          }
        ],
        "pollDivisionIds": [
          10135272
        ],
        "postalCode": "L8S4R9",
        "streetName": "MAIN",
        "streetDirectionId": "W",
        "streetTypeId": "ST",
        "placeName": "HAMILTON",
        "streetNameDisplayText": "MAIN ST W, HAMILTON"
      }
    ]
  },
  {
    "postal": "L8S0W8",
    "result": []
  },
  {
    "postal": "L8S1L4",
    "result": [
      {
        "electoralDistricts": [
          {
            "election": null,
            "id": 39,
            "name": "Hamilton West—Ancaster—Dundas"
          }
        ],
        "pollDivisionIds": [
          10135268
        ],
        "postalCode": "L8S1L4",
        "streetName": "KING",
        "streetDirectionId": "W",
        "streetTypeId": "ST",
        "placeName": "HAMILTON",
        "streetNameDisplayText": "KING ST W, HAMILTON"
      }
    ]
  },
  {
    "postal": "L8S0C8",
    "result": []
  },
  {
    "postal": "L8S9X7",
    "result": []
  },
  {
    "postal": "L8S4T1",
    "result": []
  },
  {
    "postal": "L8S0M0",
    "result": []
  },
  {
    "postal": "L8S6A2",
    "result": []
  },
  {
    "postal": "L8S9S8",
    "result": []
  },
  {
    "postal": "L8S9T4",
    "result": []
  },
  {
    "postal": "L8S9Y4",
    "result": []
  },
  {
    "postal": "L8S6G5",
    "result": []
  },
  {
    "postal": "L8S6H9",
    "result": []
  },
  {
    "postal": "L8S2P3",
    "result": [
      {
        "electoralDistricts": [
          {
            "election": null,
            "id": 39,
            "name": "Hamilton West—Ancaster—Dundas"
          }
        ],
        "pollDivisionIds": [
          10135271
        ],
        "postalCode": "L8S2P3",
        "streetName": "MERICOURT",
        "streetDirectionId": null,
        "streetTypeId": "RD",
        "placeName": "HAMILTON",
        "streetNameDisplayText": "MERICOURT RD, HAMILTON"
      }
    ]
  },
  {
    "postal": "L8S1T6",
    "result": [
      {
        "electoralDistricts": [
          {
            "election": null,
            "id": 39,
            "name": "Hamilton West—Ancaster—Dundas"
          }
        ],
        "pollDivisionIds": [
          10135268
        ],
        "postalCode": "L8S1T6",
        "streetName": "MARION",
        "streetDirectionId": "S",
        "streetTypeId": "AVE",
        "placeName": "HAMILTON",
        "streetNameDisplayText": "MARION AVE S, HAMILTON"
      }
    ]
  },
  {
    "postal": "L8S4P6",
    "result": []
  },
  {
    "postal": "L8S3K1",
    "result": [
      {
        "electoralDistricts": [
          {
            "election": null,
            "id": 39,
            "name": "Hamilton West—Ancaster—Dundas"
          }
        ],
        "pollDivisionIds": [
          10135267
        ],
        "postalCode": "L8S3K1",
        "streetName": "NORFOLK",
        "streetDirectionId": "N",
        "streetTypeId": "ST",
        "placeName": "HAMILTON",
        "streetNameDisplayText": "NORFOLK ST N, HAMILTON"
      }
    ]
  },
  {
    "postal": "L8S6X4",
    "result": []
  },
  {
    "postal": "L8S4M8",
    "result": [
      {
        "electoralDistricts": [
          {
            "election": null,
            "id": 39,
            "name": "Hamilton West—Ancaster—Dundas"
          },
          {
            "election": null,
            "id": 36,
            "name": "Hamilton Centre"
          }
        ],
        "pollDivisionIds": [
          10135311,
          10138593
        ],
        "postalCode": "L8S4M8",
        "streetName": "MAIN",
        "streetDirectionId": "W",
        "streetTypeId": "ST",
        "placeName": "HAMILTON",
        "streetNameDisplayText": "MAIN ST W, HAMILTON"
      }
    ]
  },
  {
    "postal": "L8S2Y1",
    "result": [
      {
        "electoralDistricts": [
          {
            "election": null,
            "id": 39,
            "name": "Hamilton West—Ancaster—Dundas"
          }
        ],
        "pollDivisionIds": [
          10135272
        ],
        "postalCode": "L8S2Y1",
        "streetName": "EMERSON",
        "streetDirectionId": null,
        "streetTypeId": "ST",
        "placeName": "HAMILTON",
        "streetNameDisplayText": "EMERSON ST, HAMILTON"
      }
    ]
  },
  {
    "postal": "L8S6M1",
    "result": []
  },
  {
    "postal": "L8S5L8",
    "result": []
  },
  {
    "postal": "L8S3P6",
    "result": [
      {
        "electoralDistricts": [
          {
            "election": null,
            "id": 39,
            "name": "Hamilton West—Ancaster—Dundas"
          }
        ],
        "pollDivisionIds": [
          10135269
        ],
        "postalCode": "L8S3P6",
        "streetName": "ROANOKE",
        "streetDirectionId": null,
        "streetTypeId": "RD",
        "placeName": "HAMILTON",
        "streetNameDisplayText": "ROANOKE RD, HAMILTON"
      }
    ]
  },
  {
    "postal": "L8S9A5",
    "result": []
  },
  {
    "postal": "L8S7K1",
    "result": []
  },
  {
    "postal": "L8S3J4",
    "result": [
      {
        "electoralDistricts": [
          {
            "election": null,
            "id": 39,
            "name": "Hamilton West—Ancaster—Dundas"
          }
        ],
        "pollDivisionIds": [
          10135267
        ],
        "postalCode": "L8S3J4",
        "streetName": "SANDERS",
        "streetDirectionId": null,
        "streetTypeId": "BLVD",
        "placeName": "HAMILTON",
        "streetNameDisplayText": "SANDERS BLVD, HAMILTON"
      }
    ]
  },
  {
    "postal": "L8S5E7",
    "result": []
  },
  {
    "postal": "L8S3A7",
    "result": [
      {
        "electoralDistricts": [
          {
            "election": null,
            "id": 39,
            "name": "Hamilton West—Ancaster—Dundas"
          }
        ],
        "pollDivisionIds": [
          10135267
        ],
        "postalCode": "L8S3A7",
        "streetName": "THORNDALE",
        "streetDirectionId": "S",
        "streetTypeId": "ST",
        "placeName": "HAMILTON",
        "streetNameDisplayText": "THORNDALE ST S, HAMILTON"
      }
    ]
  },
  {
    "postal": "L8S1B9",
    "result": [
      {
        "electoralDistricts": [
          {
            "election": null,
            "id": 39,
            "name": "Hamilton West—Ancaster—Dundas"
          }
        ],
        "pollDivisionIds": [
          10135272
        ],
        "postalCode": "L8S1B9",
        "streetName": "MAIN",
        "streetDirectionId": "W",
        "streetTypeId": "ST",
        "placeName": "HAMILTON",
        "streetNameDisplayText": "MAIN ST W, HAMILTON"
      }
    ]
  },
  {
    "postal": "L8S9E8",
    "result": []
  },
  {
    "postal": "L8S1C9",
    "result": [
      {
        "electoralDistricts": [
          {
            "election": null,
            "id": 37,
            "name": "Hamilton East—Stoney Creek"
          }
        ],
        "pollDivisionIds": [
          10138644
        ],
        "postalCode": "L8S1C9",
        "streetName": "MAIN",
        "streetDirectionId": "E",
        "streetTypeId": "ST",
        "placeName": "HAMILTON",
        "streetNameDisplayText": "MAIN ST E, HAMILTON"
      },
      {
        "electoralDistricts": [
          {
            "election": null,
            "id": 39,
            "name": "Hamilton West—Ancaster—Dundas"
          }
        ],
        "pollDivisionIds": [
          10135267
        ],
        "postalCode": "L8S1C9",
        "streetName": "MAIN",
        "streetDirectionId": "W",
        "streetTypeId": "ST",
        "placeName": "HAMILTON",
        "streetNameDisplayText": "MAIN ST W, HAMILTON"
      }
    ]
  },
  {
    "postal": "L8S3B5",
    "result": []
  },
  {
    "postal": "L8S8R0",
    "result": []
  },
  {
    "postal": "L8S3P2",
    "result": [
      {
        "electoralDistricts": [
          {
            "election": null,
            "id": 39,
            "name": "Hamilton West—Ancaster—Dundas"
          }
        ],
        "pollDivisionIds": [
          10135269
        ],
        "postalCode": "L8S3P2",
        "streetName": "EDGEVALE",
        "streetDirectionId": null,
        "streetTypeId": "RD",
        "placeName": "HAMILTON",
        "streetNameDisplayText": "EDGEVALE RD, HAMILTON"
      }
    ]
  },
  {
    "postal": "L8S5V4",
    "result": []
  },
  {
    "postal": "L8S4H0",
    "result": []
  },
  {
    "postal": "L8S4S7",
    "result": []
  },
  {
    "postal": "L8S6C2",
    "result": []
  },
  {
    "postal": "L8S8W3",
    "result": []
  },
  {
    "postal": "L8S4M5",
    "result": []
  },
  {
    "postal": "L8S5T1",
    "result": []
  },
  {
    "postal": "L8S3B3",
    "result": [
      {
        "electoralDistricts": [
          {
            "election": null,
            "id": 39,
            "name": "Hamilton West—Ancaster—Dundas"
          }
        ],
        "pollDivisionIds": [
          10135267
        ],
        "postalCode": "L8S3B3",
        "streetName": "KINGSMOUNT",
        "streetDirectionId": "S",
        "streetTypeId": "ST",
        "placeName": "HAMILTON",
        "streetNameDisplayText": "KINGSMOUNT ST S, HAMILTON"
      }
    ]
  },
  {
    "postal": "L8S6C6",
    "result": []
  },
  {
    "postal": "L8S7N8",
    "result": []
  },
  {
    "postal": "L8S2Y3",
    "result": [
      {
        "electoralDistricts": [
          {
            "election": null,
            "id": 39,
            "name": "Hamilton West—Ancaster—Dundas"
          }
        ],
        "pollDivisionIds": [
          10135272
        ],
        "postalCode": "L8S2Y3",
        "streetName": "EMERSON",
        "streetDirectionId": null,
        "streetTypeId": "ST",
        "placeName": "HAMILTON",
        "streetNameDisplayText": "EMERSON ST, HAMILTON"
      }
    ]
  },
  {
    "postal": "L8S2R6",
    "result": [
      {
        "electoralDistricts": [
          {
            "election": null,
            "id": 39,
            "name": "Hamilton West—Ancaster—Dundas"
          }
        ],
        "pollDivisionIds": [
          10135271
        ],
        "postalCode": "L8S2R6",
        "streetName": "HAROLD",
        "streetDirectionId": null,
        "streetTypeId": "ST",
        "placeName": "HAMILTON",
        "streetNameDisplayText": "HAROLD ST, HAMILTON"
      }
    ]
  },
  {
    "postal": "L8S7N3",
    "result": []
  },
  {
    "postal": "L8S8J2",
    "result": []
  },
  {
    "postal": "L8S6A9",
    "result": []
  },
  {
    "postal": "L8S3V2",
    "result": [
      {
        "electoralDistricts": [
          {
            "election": null,
            "id": 39,
            "name": "Hamilton West—Ancaster—Dundas"
          }
        ],
        "pollDivisionIds": [
          10135269
        ],
        "postalCode": "L8S3V2",
        "streetName": "LONGWOOD",
        "streetDirectionId": "N",
        "streetTypeId": "RD",
        "placeName": "HAMILTON",
        "streetNameDisplayText": "LONGWOOD RD N, HAMILTON"
      }
    ]
  },
  {
    "postal": "L8S2N3",
    "result": [
      {
        "electoralDistricts": [
          {
            "election": null,
            "id": 39,
            "name": "Hamilton West—Ancaster—Dundas"
          }
        ],
        "pollDivisionIds": [
          10135271
        ],
        "postalCode": "L8S2N3",
        "streetName": "SHERIDAN",
        "streetDirectionId": null,
        "streetTypeId": "LANE",
        "placeName": "HAMILTON",
        "streetNameDisplayText": "SHERIDAN LANE, HAMILTON"
      }
    ]
  },
  {
    "postal": "L8S1S5",
    "result": [
      {
        "electoralDistricts": [
          {
            "election": null,
            "id": 39,
            "name": "Hamilton West—Ancaster—Dundas"
          }
        ],
        "pollDivisionIds": [
          10135268
        ],
        "postalCode": "L8S1S5",
        "streetName": "LONGWOOD",
        "streetDirectionId": "S",
        "streetTypeId": "RD",
        "placeName": "HAMILTON",
        "streetNameDisplayText": "LONGWOOD RD S, HAMILTON"
      }
    ]
  },
  {
    "postal": "L8S4T7",
    "result": []
  },
  {
    "postal": "L8S6Y7",
    "result": []
  },
  {
    "postal": "L8S0W7",
    "result": []
  },
  {
    "postal": "L8S2W9",
    "result": [
      {
        "electoralDistricts": [
          {
            "election": null,
            "id": 39,
            "name": "Hamilton West—Ancaster—Dundas"
          }
        ],
        "pollDivisionIds": [
          10135272
        ],
        "postalCode": "L8S2W9",
        "streetName": "BROADWAY",
        "streetDirectionId": null,
        "streetTypeId": "AVE",
        "placeName": "HAMILTON",
        "streetNameDisplayText": "BROADWAY AVE, HAMILTON"
      }
    ]
  },
  {
    "postal": "L8S8V0",
    "result": []
  },
  {
    "postal": "L8S0H4",
    "result": []
  },
  {
    "postal": "L8S2T1",
    "result": [
      {
        "electoralDistricts": [
          {
            "election": null,
            "id": 39,
            "name": "Hamilton West—Ancaster—Dundas"
          }
        ],
        "pollDivisionIds": [
          10135272
        ],
        "postalCode": "L8S2T1",
        "streetName": "WILMONT",
        "streetDirectionId": null,
        "streetTypeId": "CRT",
        "placeName": "HAMILTON",
        "streetNameDisplayText": "WILMONT CRT, HAMILTON"
      }
    ]
  },
  {
    "postal": "L8S1B1",
    "result": [
      {
        "electoralDistricts": [
          {
            "election": null,
            "id": 39,
            "name": "Hamilton West—Ancaster—Dundas"
          }
        ],
        "pollDivisionIds": [
          10135268
        ],
        "postalCode": "L8S1B1",
        "streetName": "MAIN",
        "streetDirectionId": "W",
        "streetTypeId": "ST",
        "placeName": "HAMILTON",
        "streetNameDisplayText": "MAIN ST W, HAMILTON"
      }
    ]
  },
  {
    "postal": "L8S8B6",
    "result": []
  },
  {
    "postal": "L8S6H1",
    "result": []
  },
  {
    "postal": "L8S8T8",
    "result": []
  },
  {
    "postal": "L8S0T4",
    "result": []
  },
  {
    "postal": "L8S2C4",
    "result": [
      {
        "electoralDistricts": [
          {
            "election": null,
            "id": 39,
            "name": "Hamilton West—Ancaster—Dundas"
          }
        ],
        "pollDivisionIds": [
          10135272
        ],
        "postalCode": "L8S2C4",
        "streetName": "ROYAL",
        "streetDirectionId": null,
        "streetTypeId": "AVE",
        "placeName": "HAMILTON",
        "streetNameDisplayText": "ROYAL AVE, HAMILTON"
      }
    ]
  },
  {
    "postal": "L8S8N3",
    "result": []
  },
  {
    "postal": "L8S4L8",
    "result": [
      {
        "electoralDistricts": [
          {
            "election": null,
            "id": 39,
            "name": "Hamilton West—Ancaster—Dundas"
          }
        ],
        "pollDivisionIds": [
          10135268
        ],
        "postalCode": "L8S4L8",
        "streetName": "MAIN",
        "streetDirectionId": "W",
        "streetTypeId": "ST",
        "placeName": "HAMILTON",
        "streetNameDisplayText": "MAIN ST W, HAMILTON"
      }
    ]
  },
  {
    "postal": "L8S2B5",
    "result": [
      {
        "electoralDistricts": [
          {
            "election": null,
            "id": 39,
            "name": "Hamilton West—Ancaster—Dundas"
          }
        ],
        "pollDivisionIds": [
          10135272
        ],
        "postalCode": "L8S2B5",
        "streetName": "WESTWOOD",
        "streetDirectionId": null,
        "streetTypeId": "AVE",
        "placeName": "HAMILTON",
        "streetNameDisplayText": "WESTWOOD AVE, HAMILTON"
      }
    ]
  },
  {
    "postal": "L8S3H1",
    "result": [
      {
        "electoralDistricts": [
          {
            "election": null,
            "id": 39,
            "name": "Hamilton West—Ancaster—Dundas"
          }
        ],
        "pollDivisionIds": [
          10135271
        ],
        "postalCode": "L8S3H1",
        "streetName": "LOWER HORNING",
        "streetDirectionId": null,
        "streetTypeId": "RD",
        "placeName": "HAMILTON",
        "streetNameDisplayText": "LOWER HORNING RD, HAMILTON"
      }
    ]
  },
  {
    "postal": "L8S4Y1",
    "result": []
  },
  {
    "postal": "L8S7E2",
    "result": []
  },
  {
    "postal": "L8S2P5",
    "result": [
      {
        "electoralDistricts": [
          {
            "election": null,
            "id": 39,
            "name": "Hamilton West—Ancaster—Dundas"
          }
        ],
        "pollDivisionIds": [
          10135271
        ],
        "postalCode": "L8S2P5",
        "streetName": "ELIZABETH",
        "streetDirectionId": null,
        "streetTypeId": "CRT",
        "placeName": "HAMILTON",
        "streetNameDisplayText": "ELIZABETH CRT, HAMILTON"
      }
    ]
  },
  {
    "postal": "L8S8R7",
    "result": []
  },
  {
    "postal": "L8S9P1",
    "result": []
  },
  {
    "postal": "L8S3B8",
    "result": [
      {
        "electoralDistricts": [
          {
            "election": null,
            "id": 39,
            "name": "Hamilton West—Ancaster—Dundas"
          }
        ],
        "pollDivisionIds": [
          10135271
        ],
        "postalCode": "L8S3B8",
        "streetName": "RIFLE RANGE",
        "streetDirectionId": null,
        "streetTypeId": "RD",
        "placeName": "HAMILTON",
        "streetNameDisplayText": "RIFLE RANGE RD, HAMILTON"
      }
    ]
  },
  {
    "postal": "L8S3P7",
    "result": [
      {
        "electoralDistricts": [
          {
            "election": null,
            "id": 39,
            "name": "Hamilton West—Ancaster—Dundas"
          }
        ],
        "pollDivisionIds": [
          10135269
        ],
        "postalCode": "L8S3P7",
        "streetName": "ROANOKE",
        "streetDirectionId": null,
        "streetTypeId": "RD",
        "placeName": "HAMILTON",
        "streetNameDisplayText": "ROANOKE RD, HAMILTON"
      }
    ]
  },
  {
    "postal": "L8S9B2",
    "result": []
  },
  {
    "postal": "L8S6Z3",
    "result": []
  },
  {
    "postal": "L8S4N5",
    "result": [
      {
        "electoralDistricts": [
          {
            "election": null,
            "id": 39,
            "name": "Hamilton West—Ancaster—Dundas"
          }
        ],
        "pollDivisionIds": [
          10135271
        ],
        "postalCode": "L8S4N5",
        "streetName": "MAIN",
        "streetDirectionId": "W",
        "streetTypeId": "ST",
        "placeName": "HAMILTON",
        "streetNameDisplayText": "MAIN ST W, HAMILTON"
      }
    ]
  },
  {
    "postal": "L8S8T3",
    "result": []
  },
  {
    "postal": "L8S1V2",
    "result": [
      {
        "electoralDistricts": [
          {
            "election": null,
            "id": 39,
            "name": "Hamilton West—Ancaster—Dundas"
          }
        ],
        "pollDivisionIds": [
          10135268
        ],
        "postalCode": "L8S1V2",
        "streetName": "PAISLEY",
        "streetDirectionId": "S",
        "streetTypeId": "AVE",
        "placeName": "HAMILTON",
        "streetNameDisplayText": "PAISLEY AVE S, HAMILTON"
      }
    ]
  },
  {
    "postal": "L8S1Y0",
    "result": []
  },
  {
    "postal": "L8S3G6",
    "result": [
      {
        "electoralDistricts": [
          {
            "election": null,
            "id": 39,
            "name": "Hamilton West—Ancaster—Dundas"
          }
        ],
        "pollDivisionIds": [
          10135271
        ],
        "postalCode": "L8S3G6",
        "streetName": "LOWER HORNING",
        "streetDirectionId": null,
        "streetTypeId": "RD",
        "placeName": "HAMILTON",
        "streetNameDisplayText": "LOWER HORNING RD, HAMILTON"
      }
    ]
  },
  {
    "postal": "L8S3H7",
    "result": [
      {
        "electoralDistricts": [
          {
            "election": null,
            "id": 39,
            "name": "Hamilton West—Ancaster—Dundas"
          }
        ],
        "pollDivisionIds": [
          10135267
        ],
        "postalCode": "L8S3H7",
        "streetName": "SANDERS",
        "streetDirectionId": null,
        "streetTypeId": "BLVD",
        "placeName": "HAMILTON",
        "streetNameDisplayText": "SANDERS BLVD, HAMILTON"
      }
    ]
  },
  {
    "postal": "L8S7X8",
    "result": []
  },
  {
    "postal": "L8S0C7",
    "result": []
  },
  {
    "postal": "L8S0W9",
    "result": []
  },
  {
    "postal": "L8S8E6",
    "result": []
  },
  {
    "postal": "L8S9Z8",
    "result": []
  },
  {
    "postal": "L8S3P4",
    "result": [
      {
        "electoralDistricts": [
          {
            "election": null,
            "id": 39,
            "name": "Hamilton West—Ancaster—Dundas"
          }
        ],
        "pollDivisionIds": [
          10135269
        ],
        "postalCode": "L8S3P4",
        "streetName": "ROANOKE",
        "streetDirectionId": null,
        "streetTypeId": "PL",
        "placeName": "HAMILTON",
        "streetNameDisplayText": "ROANOKE PL, HAMILTON"
      }
    ]
  },
  {
    "postal": "L8S6L8",
    "result": []
  },
  {
    "postal": "L8S2R4",
    "result": [
      {
        "electoralDistricts": [
          {
            "election": null,
            "id": 39,
            "name": "Hamilton West—Ancaster—Dundas"
          }
        ],
        "pollDivisionIds": [
          10135271
        ],
        "postalCode": "L8S2R4",
        "streetName": "BUTTY",
        "streetDirectionId": null,
        "streetTypeId": "PL",
        "placeName": "HAMILTON",
        "streetNameDisplayText": "BUTTY PL, HAMILTON"
      }
    ]
  },
  {
    "postal": "L8S2W1",
    "result": [
      {
        "electoralDistricts": [
          {
            "election": null,
            "id": 39,
            "name": "Hamilton West—Ancaster—Dundas"
          }
        ],
        "pollDivisionIds": [
          10135272
        ],
        "postalCode": "L8S2W1",
        "streetName": "BROADWAY",
        "streetDirectionId": null,
        "streetTypeId": "AVE",
        "placeName": "HAMILTON",
        "streetNameDisplayText": "BROADWAY AVE, HAMILTON"
      }
    ]
  },
  {
    "postal": "L8S9H8",
    "result": []
  },
  {
    "postal": "L8S8X9",
    "result": []
  },
  {
    "postal": "L8S7H4",
    "result": []
  },
  {
    "postal": "L8S3J1",
    "result": [
      {
        "electoralDistricts": [
          {
            "election": null,
            "id": 39,
            "name": "Hamilton West—Ancaster—Dundas"
          }
        ],
        "pollDivisionIds": [
          10135267
        ],
        "postalCode": "L8S3J1",
        "streetName": "SANDERS",
        "streetDirectionId": null,
        "streetTypeId": "BLVD",
        "placeName": "HAMILTON",
        "streetNameDisplayText": "SANDERS BLVD, HAMILTON"
      }
    ]
  },
  {
    "postal": "L8S1P4",
    "result": [
      {
        "electoralDistricts": [
          {
            "election": null,
            "id": 39,
            "name": "Hamilton West—Ancaster—Dundas"
          }
        ],
        "pollDivisionIds": [
          10135268
        ],
        "postalCode": "L8S1P4",
        "streetName": "BARCLAY",
        "streetDirectionId": null,
        "streetTypeId": "ST",
        "placeName": "HAMILTON",
        "streetNameDisplayText": "BARCLAY ST, HAMILTON"
      }
    ]
  },
  {
    "postal": "L8S2A3",
    "result": [
      {
        "electoralDistricts": [
          {
            "election": null,
            "id": 39,
            "name": "Hamilton West—Ancaster—Dundas"
          }
        ],
        "pollDivisionIds": [
          10135268
        ],
        "postalCode": "L8S2A3",
        "streetName": "FORSYTH",
        "streetDirectionId": "S",
        "streetTypeId": "AVE",
        "placeName": "HAMILTON",
        "streetNameDisplayText": "FORSYTH AVE S, HAMILTON"
      }
    ]
  },
  {
    "postal": "L8S0Z1",
    "result": []
  },
  {
    "postal": "L8S1C1",
    "result": [
      {
        "electoralDistricts": [
          {
            "election": null,
            "id": 39,
            "name": "Hamilton West—Ancaster—Dundas"
          }
        ],
        "pollDivisionIds": [
          10135268
        ],
        "postalCode": "L8S1C1",
        "streetName": "MAIN",
        "streetDirectionId": "W",
        "streetTypeId": "ST",
        "placeName": "HAMILTON",
        "streetNameDisplayText": "MAIN ST W, HAMILTON"
      }
    ]
  },
  {
    "postal": "L8S0H3",
    "result": []
  },
  {
    "postal": "L8S7B0",
    "result": []
  },
  {
    "postal": "L8S5K2",
    "result": []
  },
  {
    "postal": "L8S1E9",
    "result": [
      {
        "electoralDistricts": [
          {
            "election": null,
            "id": 39,
            "name": "Hamilton West—Ancaster—Dundas"
          }
        ],
        "pollDivisionIds": [
          10135267
        ],
        "postalCode": "L8S1E9",
        "streetName": "MAIN",
        "streetDirectionId": "W",
        "streetTypeId": "ST",
        "placeName": "HAMILTON",
        "streetNameDisplayText": "MAIN ST W, HAMILTON"
      }
    ]
  },
  {
    "postal": "L8S9W7",
    "result": []
  },
  {
    "postal": "L8S5W6",
    "result": []
  },
  {
    "postal": "L8S6S6",
    "result": []
  },
  {
    "postal": "L8S2P8",
    "result": [
      {
        "electoralDistricts": [
          {
            "election": null,
            "id": 39,
            "name": "Hamilton West—Ancaster—Dundas"
          }
        ],
        "pollDivisionIds": [
          10135271
        ],
        "postalCode": "L8S2P8",
        "streetName": "BEAUCOURT",
        "streetDirectionId": null,
        "streetTypeId": "PL",
        "placeName": "HAMILTON",
        "streetNameDisplayText": "BEAUCOURT PL, HAMILTON"
      }
    ]
  },
  {
    "postal": "L8S4P8",
    "result": [
      {
        "electoralDistricts": [
          {
            "election": null,
            "id": 39,
            "name": "Hamilton West—Ancaster—Dundas"
          }
        ],
        "pollDivisionIds": [
          10143848
        ],
        "postalCode": "L8S4P8",
        "streetName": "MAIN",
        "streetDirectionId": "W",
        "streetTypeId": "ST",
        "placeName": "HAMILTON",
        "streetNameDisplayText": "MAIN ST W, HAMILTON"
      }
    ]
  },
  {
    "postal": "L8S0V9",
    "result": []
  },
  {
    "postal": "L8S5Y2",
    "result": []
  },
  {
    "postal": "L8S7Z7",
    "result": []
  },
  {
    "postal": "L8S6Y8",
    "result": []
  },
  {
    "postal": "L8S2G7",
    "result": [
      {
        "electoralDistricts": [
          {
            "election": null,
            "id": 39,
            "name": "Hamilton West—Ancaster—Dundas"
          }
        ],
        "pollDivisionIds": [
          10135271
        ],
        "postalCode": "L8S2G7",
        "streetName": "WHITNEY",
        "streetDirectionId": null,
        "streetTypeId": "AVE",
        "placeName": "HAMILTON",
        "streetNameDisplayText": "WHITNEY AVE, HAMILTON"
      }
    ]
  },
  {
    "postal": "L8S8C1",
    "result": []
  },
  {
    "postal": "L8S5C5",
    "result": []
  },
  {
    "postal": "L8S2X8",
    "result": [
      {
        "electoralDistricts": [
          {
            "election": null,
            "id": 39,
            "name": "Hamilton West—Ancaster—Dundas"
          }
        ],
        "pollDivisionIds": [
          10135272
        ],
        "postalCode": "L8S2X8",
        "streetName": "EMERSON",
        "streetDirectionId": null,
        "streetTypeId": "ST",
        "placeName": "HAMILTON",
        "streetNameDisplayText": "EMERSON ST, HAMILTON"
      }
    ]
  },
  {
    "postal": "L8S1W5",
    "result": [
      {
        "electoralDistricts": [
          {
            "election": null,
            "id": 39,
            "name": "Hamilton West—Ancaster—Dundas"
          }
        ],
        "pollDivisionIds": [
          10135272
        ],
        "postalCode": "L8S1W5",
        "streetName": "SOUTHVIEW",
        "streetDirectionId": null,
        "streetTypeId": "PL",
        "placeName": "HAMILTON",
        "streetNameDisplayText": "SOUTHVIEW PL, HAMILTON"
      }
    ]
  },
  {
    "postal": "L8S7G0",
    "result": []
  },
  {
    "postal": "L8S8J8",
    "result": []
  },
  {
    "postal": "L8S3Y0",
    "result": []
  },
  {
    "postal": "L8S9T7",
    "result": []
  },
  {
    "postal": "L8S5P4",
    "result": []
  },
  {
    "postal": "L8S4B0",
    "result": []
  },
  {
    "postal": "L8S9N8",
    "result": []
  },
  {
    "postal": "L8S4A7",
    "result": [
      {
        "electoralDistricts": [
          {
            "election": null,
            "id": 39,
            "name": "Hamilton West—Ancaster—Dundas"
          }
        ],
        "pollDivisionIds": [
          10135268
        ],
        "postalCode": "L8S4A7",
        "streetName": "HADDON",
        "streetDirectionId": "N",
        "streetTypeId": "AVE",
        "placeName": "HAMILTON",
        "streetNameDisplayText": "HADDON AVE N, HAMILTON"
      }
    ]
  },
  {
    "postal": "L8S4H9",
    "result": [
      {
        "electoralDistricts": [
          {
            "election": null,
            "id": 39,
            "name": "Hamilton West—Ancaster—Dundas"
          }
        ],
        "pollDivisionIds": [
          10135268
        ],
        "postalCode": "L8S4H9",
        "streetName": "STERLING",
        "streetDirectionId": null,
        "streetTypeId": "ST",
        "placeName": "HAMILTON",
        "streetNameDisplayText": "STERLING ST, HAMILTON"
      }
    ]
  },
  {
    "postal": "L8S6X1",
    "result": []
  },
  {
    "postal": "L8S9Y7",
    "result": []
  },
  {
    "postal": "L8S2Y5",
    "result": [
      {
        "electoralDistricts": [
          {
            "election": null,
            "id": 39,
            "name": "Hamilton West—Ancaster—Dundas"
          }
        ],
        "pollDivisionIds": [
          10135272
        ],
        "postalCode": "L8S2Y5",
        "streetName": "EMERSON",
        "streetDirectionId": null,
        "streetTypeId": "ST",
        "placeName": "HAMILTON",
        "streetNameDisplayText": "EMERSON ST, HAMILTON"
      }
    ]
  },
  {
    "postal": "L8S8L7",
    "result": []
  },
  {
    "postal": "L8S2A8",
    "result": [
      {
        "electoralDistricts": [
          {
            "election": null,
            "id": 39,
            "name": "Hamilton West—Ancaster—Dundas"
          }
        ],
        "pollDivisionIds": [
          10135272
        ],
        "postalCode": "L8S2A8",
        "streetName": "WESTWOOD",
        "streetDirectionId": null,
        "streetTypeId": "AVE",
        "placeName": "HAMILTON",
        "streetNameDisplayText": "WESTWOOD AVE, HAMILTON"
      }
    ]
  },
  {
    "postal": "L8S2K9",
    "result": [
      {
        "electoralDistricts": [
          {
            "election": null,
            "id": 39,
            "name": "Hamilton West—Ancaster—Dundas"
          }
        ],
        "pollDivisionIds": [
          10135272
        ],
        "postalCode": "L8S2K9",
        "streetName": "HOLMES",
        "streetDirectionId": null,
        "streetTypeId": "AVE",
        "placeName": "HAMILTON",
        "streetNameDisplayText": "HOLMES AVE, HAMILTON"
      }
    ]
  },
  {
    "postal": "L8S3E5",
    "result": [
      {
        "electoralDistricts": [
          {
            "election": null,
            "id": 39,
            "name": "Hamilton West—Ancaster—Dundas"
          }
        ],
        "pollDivisionIds": [
          10135271
        ],
        "postalCode": "L8S3E5",
        "streetName": "RADFORD",
        "streetDirectionId": null,
        "streetTypeId": "ST",
        "placeName": "HAMILTON",
        "streetNameDisplayText": "RADFORD ST, HAMILTON"
      }
    ]
  },
  {
    "postal": "L8S8N6",
    "result": []
  },
  {
    "postal": "L8S8J4",
    "result": []
  },
  {
    "postal": "L8S4R7",
    "result": [
      {
        "electoralDistricts": [
          {
            "election": null,
            "id": 39,
            "name": "Hamilton West—Ancaster—Dundas"
          }
        ],
        "pollDivisionIds": [
          10135307
        ],
        "postalCode": "L8S4R7",
        "streetName": "MAIN",
        "streetDirectionId": "W",
        "streetTypeId": "ST",
        "placeName": "HAMILTON",
        "streetNameDisplayText": "MAIN ST W, HAMILTON"
      }
    ]
  },
  {
    "postal": "L8S9K1",
    "result": []
  },
  {
    "postal": "L8S8E1",
    "result": []
  },
  {
    "postal": "L8S0R1",
    "result": []
  },
  {
    "postal": "L8S4J3",
    "result": [
      {
        "electoralDistricts": [
          {
            "election": null,
            "id": 39,
            "name": "Hamilton West—Ancaster—Dundas"
          }
        ],
        "pollDivisionIds": [
          10135268
        ],
        "postalCode": "L8S4J3",
        "streetName": "STERLING",
        "streetDirectionId": null,
        "streetTypeId": "ST",
        "placeName": "HAMILTON",
        "streetNameDisplayText": "STERLING ST, HAMILTON"
      }
    ]
  },
  {
    "postal": "L8S7E7",
    "result": []
  },
  {
    "postal": "L8S0J0",
    "result": []
  },
  {
    "postal": "L8S7R8",
    "result": []
  },
  {
    "postal": "L8S9X0",
    "result": []
  },
  {
    "postal": "L8S7P6",
    "result": []
  },
  {
    "postal": "L8S0R7",
    "result": []
  },
  {
    "postal": "L8S5W1",
    "result": []
  },
  {
    "postal": "L8S0K4",
    "result": []
  },
  {
    "postal": "L8S7N9",
    "result": []
  },
  {
    "postal": "L8S1N0",
    "result": []
  },
  {
    "postal": "L8S6P3",
    "result": []
  },
  {
    "postal": "L8S5A1",
    "result": []
  },
  {
    "postal": "L8S9M9",
    "result": []
  },
  {
    "postal": "L8S7T6",
    "result": []
  },
  {
    "postal": "L8S3X0",
    "result": []
  },
  {
    "postal": "L8S2T0",
    "result": []
  },
  {
    "postal": "L8S5X9",
    "result": []
  },
  {
    "postal": "L8S2R3",
    "result": [
      {
        "electoralDistricts": [
          {
            "election": null,
            "id": 39,
            "name": "Hamilton West—Ancaster—Dundas"
          }
        ],
        "pollDivisionIds": [
          10135271
        ],
        "postalCode": "L8S2R3",
        "streetName": "BEAUCOURT",
        "streetDirectionId": null,
        "streetTypeId": "RD",
        "placeName": "HAMILTON",
        "streetNameDisplayText": "BEAUCOURT RD, HAMILTON"
      },
      {
        "electoralDistricts": [
          {
            "election": null,
            "id": 39,
            "name": "Hamilton West—Ancaster—Dundas"
          }
        ],
        "pollDivisionIds": [
          10135271
        ],
        "postalCode": "L8S2R3",
        "streetName": "BEAUCOURT RD.",
        "streetDirectionId": null,
        "streetTypeId": "RD",
        "placeName": "HAMILTON",
        "streetNameDisplayText": "BEAUCOURT RD. RD, HAMILTON"
      }
    ]
  },
  {
    "postal": "L8S5N2",
    "result": []
  },
  {
    "postal": "L8S4Y7",
    "result": []
  },
  {
    "postal": "L8S7M0",
    "result": []
  },
  {
    "postal": "L8S8P3",
    "result": []
  },
  {
    "postal": "L8S3N3",
    "result": [
      {
        "electoralDistricts": [
          {
            "election": null,
            "id": 39,
            "name": "Hamilton West—Ancaster—Dundas"
          }
        ],
        "pollDivisionIds": [
          10135269
        ],
        "postalCode": "L8S3N3",
        "streetName": "GLEN",
        "streetDirectionId": null,
        "streetTypeId": "RD",
        "placeName": "HAMILTON",
        "streetNameDisplayText": "GLEN RD, HAMILTON"
      }
    ]
  },
  {
    "postal": "L8S7S3",
    "result": []
  },
  {
    "postal": "L8S3V9",
    "result": [
      {
        "electoralDistricts": [
          {
            "election": null,
            "id": 39,
            "name": "Hamilton West—Ancaster—Dundas"
          }
        ],
        "pollDivisionIds": [
          10135269
        ],
        "postalCode": "L8S3V9",
        "streetName": "LONGWOOD",
        "streetDirectionId": "N",
        "streetTypeId": "RD",
        "placeName": "HAMILTON",
        "streetNameDisplayText": "LONGWOOD RD N, HAMILTON"
      }
    ]
  },
  {
    "postal": "L8S9N7",
    "result": []
  },
  {
    "postal": "L8S0G4",
    "result": []
  },
  {
    "postal": "L8S2E2",
    "result": [
      {
        "electoralDistricts": [
          {
            "election": null,
            "id": 39,
            "name": "Hamilton West—Ancaster—Dundas"
          }
        ],
        "pollDivisionIds": [
          10135267
        ],
        "postalCode": "L8S2E2",
        "streetName": "SUSSEX",
        "streetDirectionId": null,
        "streetTypeId": "ST",
        "placeName": "HAMILTON",
        "streetNameDisplayText": "SUSSEX ST, HAMILTON"
      }
    ]
  },
  {
    "postal": "L8S7W8",
    "result": []
  },
  {
    "postal": "L8S7M5",
    "result": []
  },
  {
    "postal": "L8S5W8",
    "result": []
  },
  {
    "postal": "L8S5E5",
    "result": []
  },
  {
    "postal": "L8S1P9",
    "result": [
      {
        "electoralDistricts": [
          {
            "election": null,
            "id": 39,
            "name": "Hamilton West—Ancaster—Dundas"
          }
        ],
        "pollDivisionIds": [
          10135268
        ],
        "postalCode": "L8S1P9",
        "streetName": "SOUTH OVAL",
        "streetDirectionId": null,
        "streetTypeId": null,
        "placeName": "HAMILTON",
        "streetNameDisplayText": "SOUTH OVAL, HAMILTON"
      }
    ]
  },
  {
    "postal": "L8S8V8",
    "result": []
  },
  {
    "postal": "L8S9G8",
    "result": []
  },
  {
    "postal": "L8S8H9",
    "result": []
  },
  {
    "postal": "L8S1Z1",
    "result": [
      {
        "electoralDistricts": [
          {
            "election": null,
            "id": 39,
            "name": "Hamilton West—Ancaster—Dundas"
          }
        ],
        "pollDivisionIds": [
          10135272
        ],
        "postalCode": "L8S1Z1",
        "streetName": "DALEWOOD",
        "streetDirectionId": null,
        "streetTypeId": "AVE",
        "placeName": "HAMILTON",
        "streetNameDisplayText": "DALEWOOD AVE, HAMILTON"
      }
    ]
  },
  {
    "postal": "L8S8M3",
    "result": []
  },
  {
    "postal": "L8S5H6",
    "result": []
  },
  {
    "postal": "L8S7W7",
    "result": []
  },
  {
    "postal": "L8S4L0",
    "result": []
  },
  {
    "postal": "L8S2N1",
    "result": [
      {
        "electoralDistricts": [
          {
            "election": null,
            "id": 39,
            "name": "Hamilton West—Ancaster—Dundas"
          }
        ],
        "pollDivisionIds": [
          10135271
        ],
        "postalCode": "L8S2N1",
        "streetName": "RAMSEY",
        "streetDirectionId": null,
        "streetTypeId": "CRES",
        "placeName": "HAMILTON",
        "streetNameDisplayText": "RAMSEY CRES, HAMILTON"
      }
    ]
  },
  {
    "postal": "L8S2H4",
    "result": [
      {
        "electoralDistricts": [
          {
            "election": null,
            "id": 39,
            "name": "Hamilton West—Ancaster—Dundas"
          }
        ],
        "pollDivisionIds": [
          10135271
        ],
        "postalCode": "L8S2H4",
        "streetName": "WHITNEY",
        "streetDirectionId": null,
        "streetTypeId": "AVE",
        "placeName": "HAMILTON",
        "streetNameDisplayText": "WHITNEY AVE, HAMILTON"
      }
    ]
  },
  {
    "postal": "L8S5C8",
    "result": []
  },
  {
    "postal": "L8S8B0",
    "result": []
  },
  {
    "postal": "L8S1T4",
    "result": [
      {
        "electoralDistricts": [
          {
            "election": null,
            "id": 39,
            "name": "Hamilton West—Ancaster—Dundas"
          }
        ],
        "pollDivisionIds": [
          10135268
        ],
        "postalCode": "L8S1T4",
        "streetName": "MARION",
        "streetDirectionId": "S",
        "streetTypeId": "AVE",
        "placeName": "HAMILTON",
        "streetNameDisplayText": "MARION AVE S, HAMILTON"
      }
    ]
  },
  {
    "postal": "L8S7N7",
    "result": []
  },
  {
    "postal": "L8S4L3",
    "result": []
  },
  {
    "postal": "L8S2N2",
    "result": [
      {
        "electoralDistricts": [
          {
            "election": null,
            "id": 39,
            "name": "Hamilton West—Ancaster—Dundas"
          }
        ],
        "pollDivisionIds": [
          10135271
        ],
        "postalCode": "L8S2N2",
        "streetName": "RAMSEY",
        "streetDirectionId": null,
        "streetTypeId": "CRES",
        "placeName": "HAMILTON",
        "streetNameDisplayText": "RAMSEY CRES, HAMILTON"
      }
    ]
  },
  {
    "postal": "L8S4N8",
    "result": [
      {
        "electoralDistricts": [
          {
            "election": null,
            "id": 39,
            "name": "Hamilton West—Ancaster—Dundas"
          }
        ],
        "pollDivisionIds": [
          10135268
        ],
        "postalCode": "L8S4N8",
        "streetName": "MAIN",
        "streetDirectionId": "W",
        "streetTypeId": "ST",
        "placeName": "HAMILTON",
        "streetNameDisplayText": "MAIN ST W, HAMILTON"
      }
    ]
  },
  {
    "postal": "L8S3M5",
    "result": [
      {
        "electoralDistricts": [
          {
            "election": null,
            "id": 39,
            "name": "Hamilton West—Ancaster—Dundas"
          }
        ],
        "pollDivisionIds": [
          10135267
        ],
        "postalCode": "L8S3M5",
        "streetName": "WEST PARK",
        "streetDirectionId": null,
        "streetTypeId": "AVE",
        "placeName": "HAMILTON",
        "streetNameDisplayText": "WEST PARK AVE, HAMILTON"
      }
    ]
  },
  {
    "postal": "L8S6H7",
    "result": []
  },
  {
    "postal": "L8S8Y8",
    "result": []
  },
  {
    "postal": "L8S5R9",
    "result": []
  },
  {
    "postal": "L8S8G3",
    "result": []
  },
  {
    "postal": "L8S4N7",
    "result": [
      {
        "electoralDistricts": [
          {
            "election": null,
            "id": 39,
            "name": "Hamilton West—Ancaster—Dundas"
          }
        ],
        "pollDivisionIds": [
          10135268,
          10143848
        ],
        "postalCode": "L8S4N7",
        "streetName": "MAIN",
        "streetDirectionId": "W",
        "streetTypeId": "ST",
        "placeName": "HAMILTON",
        "streetNameDisplayText": "MAIN ST W, HAMILTON"
      }
    ]
  },
  {
    "postal": "L8S0B9",
    "result": []
  },
  {
    "postal": "L8S9K7",
    "result": []
  },
  {
    "postal": "L8S9K9",
    "result": []
  },
  {
    "postal": "L8S3Z2",
    "result": [
      {
        "electoralDistricts": [
          {
            "election": null,
            "id": 39,
            "name": "Hamilton West—Ancaster—Dundas"
          }
        ],
        "pollDivisionIds": [
          10135268
        ],
        "postalCode": "L8S3Z2",
        "streetName": "NORTH OVAL",
        "streetDirectionId": null,
        "streetTypeId": null,
        "placeName": "HAMILTON",
        "streetNameDisplayText": "NORTH OVAL, HAMILTON"
      }
    ]
  },
  {
    "postal": "L8S6W7",
    "result": []
  },
  {
    "postal": "L8S0P1",
    "result": []
  },
  {
    "postal": "L8S3A0",
    "result": []
  },
  {
    "postal": "L8S8L9",
    "result": []
  },
  {
    "postal": "L8S6X0",
    "result": []
  },
  {
    "postal": "L8S3E9",
    "result": [
      {
        "electoralDistricts": [
          {
            "election": null,
            "id": 39,
            "name": "Hamilton West—Ancaster—Dundas"
          }
        ],
        "pollDivisionIds": [
          10135271
        ],
        "postalCode": "L8S3E9",
        "streetName": "LOWER HORNING",
        "streetDirectionId": null,
        "streetTypeId": "RD",
        "placeName": "HAMILTON",
        "streetNameDisplayText": "LOWER HORNING RD, HAMILTON"
      }
    ]
  },
  {
    "postal": "L8S0S5",
    "result": []
  },
  {
    "postal": "L8S1A2",
    "result": [
      {
        "electoralDistricts": [
          {
            "election": null,
            "id": 39,
            "name": "Hamilton West—Ancaster—Dundas"
          }
        ],
        "pollDivisionIds": [
          10135268
        ],
        "postalCode": "L8S1A2",
        "streetName": "MAIN",
        "streetDirectionId": "W",
        "streetTypeId": "ST",
        "placeName": "HAMILTON",
        "streetNameDisplayText": "MAIN ST W, HAMILTON"
      }
    ]
  },
  {
    "postal": "L8S5V8",
    "result": []
  },
  {
    "postal": "L8S8C5",
    "result": []
  },
  {
    "postal": "L8S6N0",
    "result": []
  },
  {
    "postal": "L8S9E6",
    "result": []
  },
  {
    "postal": "L8S5J7",
    "result": []
  },
  {
    "postal": "L8S2R2",
    "result": [
      {
        "electoralDistricts": [
          {
            "election": null,
            "id": 39,
            "name": "Hamilton West—Ancaster—Dundas"
          }
        ],
        "pollDivisionIds": [
          10135271
        ],
        "postalCode": "L8S2R2",
        "streetName": "BEAUCOURT",
        "streetDirectionId": null,
        "streetTypeId": "RD",
        "placeName": "HAMILTON",
        "streetNameDisplayText": "BEAUCOURT RD, HAMILTON"
      }
    ]
  },
  {
    "postal": "L8S0P5",
    "result": []
  },
  {
    "postal": "L8S5A7",
    "result": []
  },
  {
    "postal": "L8S1G1",
    "result": [
      {
        "electoralDistricts": [
          {
            "election": null,
            "id": 39,
            "name": "Hamilton West—Ancaster—Dundas"
          }
        ],
        "pollDivisionIds": [
          10135267
        ],
        "postalCode": "L8S1G1",
        "streetName": "MAIN",
        "streetDirectionId": "W",
        "streetTypeId": "ST",
        "placeName": "HAMILTON",
        "streetNameDisplayText": "MAIN ST W, HAMILTON"
      }
    ]
  },
  {
    "postal": "L8S9R6",
    "result": []
  },
  {
    "postal": "L8S4Z9",
    "result": []
  },
  {
    "postal": "L8S1V5",
    "result": []
  },
  {
    "postal": "L8S9Y5",
    "result": []
  },
  {
    "postal": "L8S1P2",
    "result": [
      {
        "electoralDistricts": [
          {
            "election": null,
            "id": 39,
            "name": "Hamilton West—Ancaster—Dundas"
          }
        ],
        "pollDivisionIds": [
          10135268
        ],
        "postalCode": "L8S1P2",
        "streetName": "BARCLAY",
        "streetDirectionId": null,
        "streetTypeId": "ST",
        "placeName": "HAMILTON",
        "streetNameDisplayText": "BARCLAY ST, HAMILTON"
      }
    ]
  },
  {
    "postal": "L8S5X0",
    "result": []
  },
  {
    "postal": "L8S7B8",
    "result": []
  },
  {
    "postal": "L8S0C6",
    "result": []
  },
  {
    "postal": "L8S6G1",
    "result": []
  },
  {
    "postal": "L8S3K3",
    "result": [
      {
        "electoralDistricts": [
          {
            "election": null,
            "id": 39,
            "name": "Hamilton West—Ancaster—Dundas"
          }
        ],
        "pollDivisionIds": [
          10135267
        ],
        "postalCode": "L8S3K3",
        "streetName": "THORNDALE",
        "streetDirectionId": null,
        "streetTypeId": "CRES",
        "placeName": "HAMILTON",
        "streetNameDisplayText": "THORNDALE CRES, HAMILTON"
      }
    ]
  },
  {
    "postal": "L8S9R0",
    "result": []
  },
  {
    "postal": "L8S4R8",
    "result": [
      {
        "electoralDistricts": [
          {
            "election": null,
            "id": 39,
            "name": "Hamilton West—Ancaster—Dundas"
          }
        ],
        "pollDivisionIds": [
          10135307
        ],
        "postalCode": "L8S4R8",
        "streetName": "MAIN",
        "streetDirectionId": "W",
        "streetTypeId": "ST",
        "placeName": "HAMILTON",
        "streetNameDisplayText": "MAIN ST W, HAMILTON"
      }
    ]
  },
  {
    "postal": "L8S5P9",
    "result": []
  },
  {
    "postal": "L8S8N4",
    "result": []
  },
  {
    "postal": "L8S8H4",
    "result": []
  },
  {
    "postal": "L8S4V1",
    "result": []
  },
  {
    "postal": "L8S1K5",
    "result": [
      {
        "electoralDistricts": [
          {
            "election": null,
            "id": 39,
            "name": "Hamilton West—Ancaster—Dundas"
          }
        ],
        "pollDivisionIds": [
          10135268
        ],
        "postalCode": "L8S1K5",
        "streetName": "KING",
        "streetDirectionId": "W",
        "streetTypeId": "ST",
        "placeName": "HAMILTON",
        "streetNameDisplayText": "KING ST W, HAMILTON"
      }
    ]
  },
  {
    "postal": "L8S1Z5",
    "result": [
      {
        "electoralDistricts": [
          {
            "election": null,
            "id": 39,
            "name": "Hamilton West—Ancaster—Dundas"
          }
        ],
        "pollDivisionIds": [
          10135272
        ],
        "postalCode": "L8S1Z5",
        "streetName": "DALEWOOD",
        "streetDirectionId": null,
        "streetTypeId": "AVE",
        "placeName": "HAMILTON",
        "streetNameDisplayText": "DALEWOOD AVE, HAMILTON"
      }
    ]
  },
  {
    "postal": "L8S9L9",
    "result": []
  },
  {
    "postal": "L8S5L2",
    "result": []
  },
  {
    "postal": "L8S0M2",
    "result": []
  },
  {
    "postal": "L8S1K8",
    "result": [
      {
        "electoralDistricts": [
          {
            "election": null,
            "id": 39,
            "name": "Hamilton West—Ancaster—Dundas"
          }
        ],
        "pollDivisionIds": [
          10135268
        ],
        "postalCode": "L8S1K8",
        "streetName": "KING",
        "streetDirectionId": "W",
        "streetTypeId": "ST",
        "placeName": "HAMILTON",
        "streetNameDisplayText": "KING ST W, HAMILTON"
      }
    ]
  },
  {
    "postal": "L8S3M7",
    "result": [
      {
        "electoralDistricts": [
          {
            "election": null,
            "id": 39,
            "name": "Hamilton West—Ancaster—Dundas"
          }
        ],
        "pollDivisionIds": [
          10135268
        ],
        "postalCode": "L8S3M7",
        "streetName": "GLEN",
        "streetDirectionId": null,
        "streetTypeId": "RD",
        "placeName": "HAMILTON",
        "streetNameDisplayText": "GLEN RD, HAMILTON"
      }
    ]
  },
  {
    "postal": "L8S1B2",
    "result": [
      {
        "electoralDistricts": [
          {
            "election": null,
            "id": 36,
            "name": "Hamilton Centre"
          }
        ],
        "pollDivisionIds": [
          10138613
        ],
        "postalCode": "L8S1B2",
        "streetName": "MAIN",
        "streetDirectionId": "E",
        "streetTypeId": "ST",
        "placeName": "HAMILTON",
        "streetNameDisplayText": "MAIN ST E, HAMILTON"
      },
      {
        "electoralDistricts": [
          {
            "election": null,
            "id": 39,
            "name": "Hamilton West—Ancaster—Dundas"
          }
        ],
        "pollDivisionIds": [
          10135268
        ],
        "postalCode": "L8S1B2",
        "streetName": "MAIN",
        "streetDirectionId": "W",
        "streetTypeId": "ST",
        "placeName": "HAMILTON",
        "streetNameDisplayText": "MAIN ST W, HAMILTON"
      }
    ]
  },
  {
    "postal": "L8S0H9",
    "result": []
  },
  {
    "postal": "L8S8M4",
    "result": []
  },
  {
    "postal": "L8S2M5",
    "result": [
      {
        "electoralDistricts": [
          {
            "election": null,
            "id": 39,
            "name": "Hamilton West—Ancaster—Dundas"
          }
        ],
        "pollDivisionIds": [
          10135271
        ],
        "postalCode": "L8S2M5",
        "streetName": "OFIELD",
        "streetDirectionId": null,
        "streetTypeId": "RD",
        "placeName": "HAMILTON",
        "streetNameDisplayText": "OFIELD RD, HAMILTON"
      }
    ]
  },
  {
    "postal": "L8S0T9",
    "result": []
  },
  {
    "postal": "L8S3P1",
    "result": [
      {
        "electoralDistricts": [
          {
            "election": null,
            "id": 39,
            "name": "Hamilton West—Ancaster—Dundas"
          }
        ],
        "pollDivisionIds": [
          10135269
        ],
        "postalCode": "L8S3P1",
        "streetName": "EDGEVALE",
        "streetDirectionId": null,
        "streetTypeId": "RD",
        "placeName": "HAMILTON",
        "streetNameDisplayText": "EDGEVALE RD, HAMILTON"
      }
    ]
  },
  {
    "postal": "L8S1R6",
    "result": [
      {
        "electoralDistricts": [
          {
            "election": null,
            "id": 39,
            "name": "Hamilton West—Ancaster—Dundas"
          }
        ],
        "pollDivisionIds": [
          10135268
        ],
        "postalCode": "L8S1R6",
        "streetName": "ARNOLD",
        "streetDirectionId": null,
        "streetTypeId": "ST",
        "placeName": "HAMILTON",
        "streetNameDisplayText": "ARNOLD ST, HAMILTON"
      }
    ]
  },
  {
    "postal": "L8S9V5",
    "result": []
  },
  {
    "postal": "L8S9T0",
    "result": []
  },
  {
    "postal": "L8S0A9",
    "result": []
  },
  {
    "postal": "L8S1M3",
    "result": [
      {
        "electoralDistricts": [
          {
            "election": null,
            "id": 36,
            "name": "Hamilton Centre"
          }
        ],
        "pollDivisionIds": [
          10138611
        ],
        "postalCode": "L8S1M3",
        "streetName": "KING",
        "streetDirectionId": "E",
        "streetTypeId": "ST",
        "placeName": "HAMILTON",
        "streetNameDisplayText": "KING ST E, HAMILTON"
      },
      {
        "electoralDistricts": [
          {
            "election": null,
            "id": 39,
            "name": "Hamilton West—Ancaster—Dundas"
          }
        ],
        "pollDivisionIds": [
          10135268
        ],
        "postalCode": "L8S1M3",
        "streetName": "KING",
        "streetDirectionId": "W",
        "streetTypeId": "ST",
        "placeName": "HAMILTON",
        "streetNameDisplayText": "KING ST W, HAMILTON"
      }
    ]
  },
  {
    "postal": "L8S1W8",
    "result": [
      {
        "electoralDistricts": [
          {
            "election": null,
            "id": 39,
            "name": "Hamilton West—Ancaster—Dundas"
          }
        ],
        "pollDivisionIds": [
          10135268
        ],
        "postalCode": "L8S1W8",
        "streetName": "CLINE",
        "streetDirectionId": "S",
        "streetTypeId": "AVE",
        "placeName": "HAMILTON",
        "streetNameDisplayText": "CLINE AVE S, HAMILTON"
      }
    ]
  },
  {
    "postal": "L8S9J1",
    "result": []
  },
  {
    "postal": "L8S8N5",
    "result": []
  },
  {
    "postal": "L8S5X1",
    "result": []
  },
  {
    "postal": "L8S6S2",
    "result": []
  },
  {
    "postal": "L8S2A2",
    "result": [
      {
        "electoralDistricts": [
          {
            "election": null,
            "id": 39,
            "name": "Hamilton West—Ancaster—Dundas"
          }
        ],
        "pollDivisionIds": [
          10135272
        ],
        "postalCode": "L8S2A2",
        "streetName": "STROUD",
        "streetDirectionId": null,
        "streetTypeId": "RD",
        "placeName": "HAMILTON",
        "streetNameDisplayText": "STROUD RD, HAMILTON"
      }
    ]
  },
  {
    "postal": "L8S6A6",
    "result": []
  },
  {
    "postal": "L8S0S3",
    "result": []
  },
  {
    "postal": "L8S3E7",
    "result": [
      {
        "electoralDistricts": [
          {
            "election": null,
            "id": 39,
            "name": "Hamilton West—Ancaster—Dundas"
          }
        ],
        "pollDivisionIds": [
          10135271
        ],
        "postalCode": "L8S3E7",
        "streetName": "LOWER HORNING",
        "streetDirectionId": null,
        "streetTypeId": "RD",
        "placeName": "HAMILTON",
        "streetNameDisplayText": "LOWER HORNING RD, HAMILTON"
      }
    ]
  },
  {
    "postal": "L8S5R7",
    "result": []
  },
  {
    "postal": "L8S3R6",
    "result": [
      {
        "electoralDistricts": [
          {
            "election": null,
            "id": 39,
            "name": "Hamilton West—Ancaster—Dundas"
          }
        ],
        "pollDivisionIds": [
          10135269
        ],
        "postalCode": "L8S3R6",
        "streetName": "FREELAND",
        "streetDirectionId": null,
        "streetTypeId": "CRT",
        "placeName": "HAMILTON",
        "streetNameDisplayText": "FREELAND CRT, HAMILTON"
      }
    ]
  },
  {
    "postal": "L8S6K4",
    "result": []
  },
  {
    "postal": "L8S2W5",
    "result": [
      {
        "electoralDistricts": [
          {
            "election": null,
            "id": 39,
            "name": "Hamilton West—Ancaster—Dundas"
          }
        ],
        "pollDivisionIds": [
          10135272
        ],
        "postalCode": "L8S2W5",
        "streetName": "BROADWAY",
        "streetDirectionId": null,
        "streetTypeId": "AVE",
        "placeName": "HAMILTON",
        "streetNameDisplayText": "BROADWAY AVE, HAMILTON"
      }
    ]
  },
  {
    "postal": "L8S8W4",
    "result": []
  },
  {
    "postal": "L8S9C2",
    "result": []
  },
  {
    "postal": "L8S2C0",
    "result": []
  },
  {
    "postal": "L8S0E1",
    "result": []
  },
  {
    "postal": "L8S1K9",
    "result": [
      {
        "electoralDistricts": [
          {
            "election": null,
            "id": 39,
            "name": "Hamilton West—Ancaster—Dundas"
          }
        ],
        "pollDivisionIds": [
          10135268
        ],
        "postalCode": "L8S1K9",
        "streetName": "KING",
        "streetDirectionId": "W",
        "streetTypeId": "ST",
        "placeName": "HAMILTON",
        "streetNameDisplayText": "KING ST W, HAMILTON"
      }
    ]
  },
  {
    "postal": "L8S1G7",
    "result": [
      {
        "electoralDistricts": [
          {
            "election": null,
            "id": 39,
            "name": "Hamilton West—Ancaster—Dundas"
          }
        ],
        "pollDivisionIds": [
          10135271
        ],
        "postalCode": "L8S1G7",
        "streetName": "MAIN",
        "streetDirectionId": "W",
        "streetTypeId": "ST",
        "placeName": "HAMILTON",
        "streetNameDisplayText": "MAIN ST W, HAMILTON"
      }
    ]
  },
  {
    "postal": "L8S4E9",
    "result": [
      {
        "electoralDistricts": [
          {
            "election": null,
            "id": 39,
            "name": "Hamilton West—Ancaster—Dundas"
          }
        ],
        "pollDivisionIds": [
          10135268
        ],
        "postalCode": "L8S4E9",
        "streetName": "MAYFAIR",
        "streetDirectionId": null,
        "streetTypeId": "PL",
        "placeName": "HAMILTON",
        "streetNameDisplayText": "MAYFAIR PL, HAMILTON"
      }
    ]
  },
  {
    "postal": "L8S9P0",
    "result": []
  },
  {
    "postal": "L8S5H3",
    "result": []
  },
  {
    "postal": "L8S9X6",
    "result": []
  },
  {
    "postal": "L8S5N7",
    "result": []
  },
  {
    "postal": "L8S5A6",
    "result": []
  },
  {
    "postal": "L8S4M0",
    "result": []
  },
  {
    "postal": "L8S3V6",
    "result": [
      {
        "electoralDistricts": [
          {
            "election": null,
            "id": 39,
            "name": "Hamilton West—Ancaster—Dundas"
          }
        ],
        "pollDivisionIds": [
          10135269
        ],
        "postalCode": "L8S3V6",
        "streetName": "LONGWOOD",
        "streetDirectionId": "N",
        "streetTypeId": "RD",
        "placeName": "HAMILTON",
        "streetNameDisplayText": "LONGWOOD RD N, HAMILTON"
      }
    ]
  },
  {
    "postal": "L8S1L7",
    "result": [
      {
        "electoralDistricts": [
          {
            "election": null,
            "id": 39,
            "name": "Hamilton West—Ancaster—Dundas"
          }
        ],
        "pollDivisionIds": [
          10135268
        ],
        "postalCode": "L8S1L7",
        "streetName": "KING",
        "streetDirectionId": "W",
        "streetTypeId": "ST",
        "placeName": "HAMILTON",
        "streetNameDisplayText": "KING ST W, HAMILTON"
      }
    ]
  },
  {
    "postal": "L8S2P9",
    "result": [
      {
        "electoralDistricts": [
          {
            "election": null,
            "id": 39,
            "name": "Hamilton West—Ancaster—Dundas"
          }
        ],
        "pollDivisionIds": [
          10135271
        ],
        "postalCode": "L8S2P9",
        "streetName": "BEAUCOURT",
        "streetDirectionId": null,
        "streetTypeId": "RD",
        "placeName": "HAMILTON",
        "streetNameDisplayText": "BEAUCOURT RD, HAMILTON"
      }
    ]
  },
  {
    "postal": "L8S5T4",
    "result": []
  },
  {
    "postal": "L8S5Z1",
    "result": []
  },
  {
    "postal": "L8S2X0",
    "result": []
  },
  {
    "postal": "L8S6Z2",
    "result": []
  },
  {
    "postal": "L8S0E0",
    "result": []
  },
  {
    "postal": "L8S3Z5",
    "result": [
      {
        "electoralDistricts": [
          {
            "election": null,
            "id": 39,
            "name": "Hamilton West—Ancaster—Dundas"
          }
        ],
        "pollDivisionIds": [
          10135268
        ],
        "postalCode": "L8S3Z5",
        "streetName": "CLINE",
        "streetDirectionId": "N",
        "streetTypeId": "AVE",
        "placeName": "HAMILTON",
        "streetNameDisplayText": "CLINE AVE N, HAMILTON"
      }
    ]
  },
  {
    "postal": "L8S8H3",
    "result": []
  },
  {
    "postal": "L8S7S6",
    "result": []
  },
  {
    "postal": "L8S4C1",
    "result": [
      {
        "electoralDistricts": [
          {
            "election": null,
            "id": 39,
            "name": "Hamilton West—Ancaster—Dundas"
          }
        ],
        "pollDivisionIds": [
          10135268
        ],
        "postalCode": "L8S4C1",
        "streetName": "DALEWOOD",
        "streetDirectionId": null,
        "streetTypeId": "CRES",
        "placeName": "HAMILTON",
        "streetNameDisplayText": "DALEWOOD CRES, HAMILTON"
      }
    ]
  },
  {
    "postal": "L8S3K2",
    "result": [
      {
        "electoralDistricts": [
          {
            "election": null,
            "id": 39,
            "name": "Hamilton West—Ancaster—Dundas"
          }
        ],
        "pollDivisionIds": [
          10135259,
          10135267
        ],
        "postalCode": "L8S3K2",
        "streetName": "THORNDALE",
        "streetDirectionId": null,
        "streetTypeId": "CRES",
        "placeName": "HAMILTON",
        "streetNameDisplayText": "THORNDALE CRES, HAMILTON"
      }
    ]
  },
  {
    "postal": "L8S1Y5",
    "result": [
      {
        "electoralDistricts": [
          {
            "election": null,
            "id": 39,
            "name": "Hamilton West—Ancaster—Dundas"
          }
        ],
        "pollDivisionIds": [
          10135272
        ],
        "postalCode": "L8S1Y5",
        "streetName": "GARY",
        "streetDirectionId": null,
        "streetTypeId": "AVE",
        "placeName": "HAMILTON",
        "streetNameDisplayText": "GARY AVE, HAMILTON"
      }
    ]
  },
  {
    "postal": "L8S6P6",
    "result": []
  },
  {
    "postal": "L8S3N9",
    "result": [
      {
        "electoralDistricts": [
          {
            "election": null,
            "id": 39,
            "name": "Hamilton West—Ancaster—Dundas"
          }
        ],
        "pollDivisionIds": [
          10135269
        ],
        "postalCode": "L8S3N9",
        "streetName": "EDGEVALE",
        "streetDirectionId": null,
        "streetTypeId": "PL",
        "placeName": "HAMILTON",
        "streetNameDisplayText": "EDGEVALE PL, HAMILTON"
      }
    ]
  },
  {
    "postal": "L8S3W2",
    "result": [
      {
        "electoralDistricts": [
          {
            "election": null,
            "id": 39,
            "name": "Hamilton West—Ancaster—Dundas"
          }
        ],
        "pollDivisionIds": [
          10135269
        ],
        "postalCode": "L8S3W2",
        "streetName": "BOND",
        "streetDirectionId": "N",
        "streetTypeId": "ST",
        "placeName": "HAMILTON",
        "streetNameDisplayText": "BOND ST N, HAMILTON"
      }
    ]
  },
  {
    "postal": "L8S6H8",
    "result": []
  },
  {
    "postal": "L8S9T3",
    "result": []
  },
  {
    "postal": "L8S5L9",
    "result": []
  },
  {
    "postal": "L8S7X7",
    "result": []
  },
  {
    "postal": "L8S3J5",
    "result": [
      {
        "electoralDistricts": [
          {
            "election": null,
            "id": 39,
            "name": "Hamilton West—Ancaster—Dundas"
          }
        ],
        "pollDivisionIds": [
          10135267
        ],
        "postalCode": "L8S3J5",
        "streetName": "SANDERS",
        "streetDirectionId": null,
        "streetTypeId": "BLVD",
        "placeName": "HAMILTON",
        "streetNameDisplayText": "SANDERS BLVD, HAMILTON"
      }
    ]
  },
  {
    "postal": "L8S4J5",
    "result": [
      {
        "electoralDistricts": [
          {
            "election": null,
            "id": 39,
            "name": "Hamilton West—Ancaster—Dundas"
          }
        ],
        "pollDivisionIds": [
          10135268
        ],
        "postalCode": "L8S4J5",
        "streetName": "STERLING",
        "streetDirectionId": null,
        "streetTypeId": "ST",
        "placeName": "HAMILTON",
        "streetNameDisplayText": "STERLING ST, HAMILTON"
      }
    ]
  },
  {
    "postal": "L8S6J2",
    "result": []
  },
  {
    "postal": "L8S5V6",
    "result": []
  },
  {
    "postal": "L8S3N2",
    "result": [
      {
        "electoralDistricts": [
          {
            "election": null,
            "id": 39,
            "name": "Hamilton West—Ancaster—Dundas"
          }
        ],
        "pollDivisionIds": [
          10135269
        ],
        "postalCode": "L8S3N2",
        "streetName": "GLEN",
        "streetDirectionId": null,
        "streetTypeId": "RD",
        "placeName": "HAMILTON",
        "streetNameDisplayText": "GLEN RD, HAMILTON"
      }
    ]
  },
  {
    "postal": "L8S3B1",
    "result": [
      {
        "electoralDistricts": [
          {
            "election": null,
            "id": 39,
            "name": "Hamilton West—Ancaster—Dundas"
          }
        ],
        "pollDivisionIds": [
          10135267
        ],
        "postalCode": "L8S3B1",
        "streetName": "HOLLYWOOD",
        "streetDirectionId": "S",
        "streetTypeId": "ST",
        "placeName": "HAMILTON",
        "streetNameDisplayText": "HOLLYWOOD ST S, HAMILTON"
      }
    ]
  },
  {
    "postal": "L8S8B5",
    "result": []
  },
  {
    "postal": "L8S0K1",
    "result": []
  },
  {
    "postal": "L8S7M7",
    "result": []
  },
  {
    "postal": "L8S2M2",
    "result": [
      {
        "electoralDistricts": [
          {
            "election": null,
            "id": 39,
            "name": "Hamilton West—Ancaster—Dundas"
          }
        ],
        "pollDivisionIds": [
          10135271
        ],
        "postalCode": "L8S2M2",
        "streetName": "IONA",
        "streetDirectionId": null,
        "streetTypeId": "AVE",
        "placeName": "HAMILTON",
        "streetNameDisplayText": "IONA AVE, HAMILTON"
      }
    ]
  },
  {
    "postal": "L8S9N3",
    "result": []
  },
  {
    "postal": "L8S4Y8",
    "result": []
  },
  {
    "postal": "L8S3V7",
    "result": [
      {
        "electoralDistricts": [
          {
            "election": null,
            "id": 39,
            "name": "Hamilton West—Ancaster—Dundas"
          }
        ],
        "pollDivisionIds": [
          10135269
        ],
        "postalCode": "L8S3V7",
        "streetName": "LONGWOOD",
        "streetDirectionId": "N",
        "streetTypeId": "RD",
        "placeName": "HAMILTON",
        "streetNameDisplayText": "LONGWOOD RD N, HAMILTON"
      }
    ]
  },
  {
    "postal": "L8S8Z1",
    "result": []
  },
  {
    "postal": "L8S7B3",
    "result": []
  },
  {
    "postal": "L8S3A8",
    "result": [
      {
        "electoralDistricts": [
          {
            "election": null,
            "id": 39,
            "name": "Hamilton West—Ancaster—Dundas"
          }
        ],
        "pollDivisionIds": [
          10135267
        ],
        "postalCode": "L8S3A8",
        "streetName": "THORNDALE",
        "streetDirectionId": "S",
        "streetTypeId": "ST",
        "placeName": "HAMILTON",
        "streetNameDisplayText": "THORNDALE ST S, HAMILTON"
      }
    ]
  },
  {
    "postal": "L8S7V5",
    "result": []
  },
  {
    "postal": "L8S2T2",
    "result": [
      {
        "electoralDistricts": [
          {
            "election": null,
            "id": 39,
            "name": "Hamilton West—Ancaster—Dundas"
          }
        ],
        "pollDivisionIds": [
          10135272
        ],
        "postalCode": "L8S2T2",
        "streetName": "WILMONT",
        "streetDirectionId": null,
        "streetTypeId": "CRT",
        "placeName": "HAMILTON",
        "streetNameDisplayText": "WILMONT CRT, HAMILTON"
      }
    ]
  },
  {
    "postal": "L8S6L3",
    "result": []
  },
  {
    "postal": "L8S0L2",
    "result": []
  },
  {
    "postal": "L8S5Y8",
    "result": []
  },
  {
    "postal": "L8S0B8",
    "result": []
  },
  {
    "postal": "L8S6R5",
    "result": []
  },
  {
    "postal": "L8S8W6",
    "result": []
  },
  {
    "postal": "L8S8G6",
    "result": []
  },
  {
    "postal": "L8S6X3",
    "result": []
  },
  {
    "postal": "L8S7R7",
    "result": []
  },
  {
    "postal": "L8S4B6",
    "result": [
      {
        "electoralDistricts": [
          {
            "election": null,
            "id": 39,
            "name": "Hamilton West—Ancaster—Dundas"
          }
        ],
        "pollDivisionIds": [
          10135268
        ],
        "postalCode": "L8S4B6",
        "streetName": "DALEWOOD",
        "streetDirectionId": null,
        "streetTypeId": "AVE",
        "placeName": "HAMILTON",
        "streetNameDisplayText": "DALEWOOD AVE, HAMILTON"
      },
      {
        "electoralDistricts": [
          {
            "election": null,
            "id": 39,
            "name": "Hamilton West—Ancaster—Dundas"
          }
        ],
        "pollDivisionIds": [
          10135268
        ],
        "postalCode": "L8S4B6",
        "streetName": "DALEWOOD",
        "streetDirectionId": null,
        "streetTypeId": "CRES",
        "placeName": "HAMILTON",
        "streetNameDisplayText": "DALEWOOD CRES, HAMILTON"
      }
    ]
  },
  {
    "postal": "L8S3P9",
    "result": [
      {
        "electoralDistricts": [
          {
            "election": null,
            "id": 39,
            "name": "Hamilton West—Ancaster—Dundas"
          }
        ],
        "pollDivisionIds": [
          10135269
        ],
        "postalCode": "L8S3P9",
        "streetName": "NORWOOD",
        "streetDirectionId": null,
        "streetTypeId": "RD",
        "placeName": "HAMILTON",
        "streetNameDisplayText": "NORWOOD RD, HAMILTON"
      }
    ]
  },
  {
    "postal": "L8S2T3",
    "result": [
      {
        "electoralDistricts": [
          {
            "election": null,
            "id": 39,
            "name": "Hamilton West—Ancaster—Dundas"
          }
        ],
        "pollDivisionIds": [
          10135272
        ],
        "postalCode": "L8S2T3",
        "streetName": "BOWMAN",
        "streetDirectionId": null,
        "streetTypeId": "ST",
        "placeName": "HAMILTON",
        "streetNameDisplayText": "BOWMAN ST, HAMILTON"
      }
    ]
  },
  {
    "postal": "L8S1M4",
    "result": [
      {
        "electoralDistricts": [
          {
            "election": null,
            "id": 36,
            "name": "Hamilton Centre"
          }
        ],
        "pollDivisionIds": [
          10138611
        ],
        "postalCode": "L8S1M4",
        "streetName": "KING",
        "streetDirectionId": "E",
        "streetTypeId": "ST",
        "placeName": "HAMILTON",
        "streetNameDisplayText": "KING ST E, HAMILTON"
      },
      {
        "electoralDistricts": [
          {
            "election": null,
            "id": 39,
            "name": "Hamilton West—Ancaster—Dundas"
          }
        ],
        "pollDivisionIds": [
          10135268
        ],
        "postalCode": "L8S1M4",
        "streetName": "KING",
        "streetDirectionId": "W",
        "streetTypeId": "ST",
        "placeName": "HAMILTON",
        "streetNameDisplayText": "KING ST W, HAMILTON"
      }
    ]
  },
  {
    "postal": "L8S0H1",
    "result": []
  },
  {
    "postal": "L8S9W3",
    "result": []
  },
  {
    "postal": "L8S6P1",
    "result": []
  },
  {
    "postal": "L8S7G2",
    "result": []
  },
  {
    "postal": "L8S4J9",
    "result": []
  },
  {
    "postal": "L8S9E4",
    "result": []
  },
  {
    "postal": "L8S8H0",
    "result": []
  },
  {
    "postal": "L8S4M7",
    "result": [
      {
        "electoralDistricts": [
          {
            "election": null,
            "id": 39,
            "name": "Hamilton West—Ancaster—Dundas"
          }
        ],
        "pollDivisionIds": [
          10135267
        ],
        "postalCode": "L8S4M7",
        "streetName": "MAIN",
        "streetDirectionId": "W",
        "streetTypeId": "ST",
        "placeName": "HAMILTON",
        "streetNameDisplayText": "MAIN ST W, HAMILTON"
      }
    ]
  },
  {
    "postal": "L8S2G9",
    "result": [
      {
        "electoralDistricts": [
          {
            "election": null,
            "id": 39,
            "name": "Hamilton West—Ancaster—Dundas"
          }
        ],
        "pollDivisionIds": [
          10135271
        ],
        "postalCode": "L8S2G9",
        "streetName": "WHITNEY",
        "streetDirectionId": null,
        "streetTypeId": "AVE",
        "placeName": "HAMILTON",
        "streetNameDisplayText": "WHITNEY AVE, HAMILTON"
      }
    ]
  },
  {
    "postal": "L8S8T2",
    "result": []
  },
  {
    "postal": "L8S7G7",
    "result": []
  },
  {
    "postal": "L8S4Z3",
    "result": []
  },
  {
    "postal": "L8S5B3",
    "result": []
  },
  {
    "postal": "L8S1S7",
    "result": [
      {
        "electoralDistricts": [
          {
            "election": null,
            "id": 39,
            "name": "Hamilton West—Ancaster—Dundas"
          }
        ],
        "pollDivisionIds": [
          10135261
        ],
        "postalCode": "L8S1S7",
        "streetName": "BOND",
        "streetDirectionId": "S",
        "streetTypeId": "ST",
        "placeName": "DUNDAS",
        "streetNameDisplayText": "BOND ST S, DUNDAS"
      },
      {
        "electoralDistricts": [
          {
            "election": null,
            "id": 39,
            "name": "Hamilton West—Ancaster—Dundas"
          }
        ],
        "pollDivisionIds": [
          10135269,
          10135268
        ],
        "postalCode": "L8S1S7",
        "streetName": "BOND",
        "streetDirectionId": "S",
        "streetTypeId": "ST",
        "placeName": "HAMILTON",
        "streetNameDisplayText": "BOND ST S, HAMILTON"
      },
      {
        "electoralDistricts": [
          {
            "election": null,
            "id": 39,
            "name": "Hamilton West—Ancaster—Dundas"
          }
        ],
        "pollDivisionIds": [
          10135268
        ],
        "postalCode": "L8S1S7",
        "streetName": "KING",
        "streetDirectionId": "W",
        "streetTypeId": "ST",
        "placeName": "HAMILTON",
        "streetNameDisplayText": "KING ST W, HAMILTON"
      }
    ]
  },
  {
    "postal": "L8S2N7",
    "result": [
      {
        "electoralDistricts": [
          {
            "election": null,
            "id": 39,
            "name": "Hamilton West—Ancaster—Dundas"
          }
        ],
        "pollDivisionIds": [
          10135271
        ],
        "postalCode": "L8S2N7",
        "streetName": "MERICOURT",
        "streetDirectionId": null,
        "streetTypeId": "RD",
        "placeName": "HAMILTON",
        "streetNameDisplayText": "MERICOURT RD, HAMILTON"
      }
    ]
  },
  {
    "postal": "L8S0H8",
    "result": []
  },
  {
    "postal": "L8S7Z4",
    "result": []
  },
  {
    "postal": "L8S7B1",
    "result": []
  },
  {
    "postal": "L8S7P8",
    "result": []
  },
  {
    "postal": "L8S7N0",
    "result": []
  },
  {
    "postal": "L8S3Y5",
    "result": [
      {
        "electoralDistricts": [
          {
            "election": null,
            "id": 39,
            "name": "Hamilton West—Ancaster—Dundas"
          }
        ],
        "pollDivisionIds": [
          10135269
        ],
        "postalCode": "L8S3Y5",
        "streetName": "PARKVIEW",
        "streetDirectionId": null,
        "streetTypeId": "DR",
        "placeName": "HAMILTON",
        "streetNameDisplayText": "PARKVIEW DR, HAMILTON"
      }
    ]
  },
  {
    "postal": "L8S6K1",
    "result": []
  },
  {
    "postal": "L8S9X5",
    "result": []
  },
  {
    "postal": "L8S7S5",
    "result": []
  },
  {
    "postal": "L8S0A4",
    "result": []
  },
  {
    "postal": "L8S4T5",
    "result": []
  },
  {
    "postal": "L8S5K1",
    "result": []
  },
  {
    "postal": "L8S0Z9",
    "result": []
  },
  {
    "postal": "L8S7T2",
    "result": []
  },
  {
    "postal": "L8S1L5",
    "result": [
      {
        "electoralDistricts": [
          {
            "election": null,
            "id": 39,
            "name": "Hamilton West—Ancaster—Dundas"
          }
        ],
        "pollDivisionIds": [
          10135268
        ],
        "postalCode": "L8S1L5",
        "streetName": "KING",
        "streetDirectionId": "W",
        "streetTypeId": "ST",
        "placeName": "HAMILTON",
        "streetNameDisplayText": "KING ST W, HAMILTON"
      }
    ]
  },
  {
    "postal": "L8S3N5",
    "result": [
      {
        "electoralDistricts": [
          {
            "election": null,
            "id": 39,
            "name": "Hamilton West—Ancaster—Dundas"
          }
        ],
        "pollDivisionIds": [
          10135268
        ],
        "postalCode": "L8S3N5",
        "streetName": "DUFFERIN",
        "streetDirectionId": null,
        "streetTypeId": "ST",
        "placeName": "HAMILTON",
        "streetNameDisplayText": "DUFFERIN ST, HAMILTON"
      }
    ]
  },
  {
    "postal": "L8S6H4",
    "result": []
  },
  {
    "postal": "L8S5A5",
    "result": []
  },
  {
    "postal": "L8S3R9",
    "result": [
      {
        "electoralDistricts": [
          {
            "election": null,
            "id": 39,
            "name": "Hamilton West—Ancaster—Dundas"
          }
        ],
        "pollDivisionIds": [
          10135268
        ],
        "postalCode": "L8S3R9",
        "streetName": "MACKLIN",
        "streetDirectionId": "N",
        "streetTypeId": "ST",
        "placeName": "HAMILTON",
        "streetNameDisplayText": "MACKLIN ST N, HAMILTON"
      }
    ]
  },
  {
    "postal": "L8S7L8",
    "result": []
  },
  {
    "postal": "L8S6T6",
    "result": []
  },
  {
    "postal": "L8S7Y7",
    "result": []
  },
  {
    "postal": "L8S3M8",
    "result": [
      {
        "electoralDistricts": [
          {
            "election": null,
            "id": 39,
            "name": "Hamilton West—Ancaster—Dundas"
          }
        ],
        "pollDivisionIds": [
          10135268
        ],
        "postalCode": "L8S3M8",
        "streetName": "GLEN",
        "streetDirectionId": null,
        "streetTypeId": "RD",
        "placeName": "HAMILTON",
        "streetNameDisplayText": "GLEN RD, HAMILTON"
      }
    ]
  },
  {
    "postal": "L8S2E0",
    "result": []
  },
  {
    "postal": "L8S4B5",
    "result": [
      {
        "electoralDistricts": [
          {
            "election": null,
            "id": 39,
            "name": "Hamilton West—Ancaster—Dundas"
          }
        ],
        "pollDivisionIds": [
          10135268
        ],
        "postalCode": "L8S4B5",
        "streetName": "DALEWOOD",
        "streetDirectionId": null,
        "streetTypeId": "CRES",
        "placeName": "HAMILTON",
        "streetNameDisplayText": "DALEWOOD CRES, HAMILTON"
      }
    ]
  },
  {
    "postal": "L8S1J3",
    "result": []
  },
  {
    "postal": "L8S5S6",
    "result": []
  },
  {
    "postal": "L8S8P7",
    "result": []
  },
  {
    "postal": "L8S7S7",
    "result": []
  },
  {
    "postal": "L8S4C2",
    "result": [
      {
        "electoralDistricts": [
          {
            "election": null,
            "id": 39,
            "name": "Hamilton West—Ancaster—Dundas"
          }
        ],
        "pollDivisionIds": [
          10135268
        ],
        "postalCode": "L8S4C2",
        "streetName": "OAK KNOLL",
        "streetDirectionId": null,
        "streetTypeId": "DR",
        "placeName": "HAMILTON",
        "streetNameDisplayText": "OAK KNOLL DR, HAMILTON"
      }
    ]
  },
  {
    "postal": "L8S5Y0",
    "result": []
  },
  {
    "postal": "L8S2V7",
    "result": [
      {
        "electoralDistricts": [
          {
            "election": null,
            "id": 39,
            "name": "Hamilton West—Ancaster—Dundas"
          }
        ],
        "pollDivisionIds": [
          10135267
        ],
        "postalCode": "L8S2V7",
        "streetName": "BROADWAY",
        "streetDirectionId": null,
        "streetTypeId": "AVE",
        "placeName": "HAMILTON",
        "streetNameDisplayText": "BROADWAY AVE, HAMILTON"
      }
    ]
  },
  {
    "postal": "L8S8P5",
    "result": []
  },
  {
    "postal": "L8S5P5",
    "result": []
  },
  {
    "postal": "L8S5Z0",
    "result": []
  },
  {
    "postal": "L8S9B0",
    "result": []
  },
  {
    "postal": "L8S1L0",
    "result": []
  },
  {
    "postal": "L8S0B5",
    "result": []
  },
  {
    "postal": "L8S3L2",
    "result": [
      {
        "electoralDistricts": [
          {
            "election": null,
            "id": 39,
            "name": "Hamilton West—Ancaster—Dundas"
          }
        ],
        "pollDivisionIds": [
          10135267
        ],
        "postalCode": "L8S3L2",
        "streetName": "KINGSMOUNT",
        "streetDirectionId": "N",
        "streetTypeId": "ST",
        "placeName": "HAMILTON",
        "streetNameDisplayText": "KINGSMOUNT ST N, HAMILTON"
      }
    ]
  },
  {
    "postal": "L8S3B7",
    "result": [
      {
        "electoralDistricts": [
          {
            "election": null,
            "id": 39,
            "name": "Hamilton West—Ancaster—Dundas"
          }
        ],
        "pollDivisionIds": [
          10135271
        ],
        "postalCode": "L8S3B7",
        "streetName": "RIFLE RANGE",
        "streetDirectionId": null,
        "streetTypeId": "RD",
        "placeName": "HAMILTON",
        "streetNameDisplayText": "RIFLE RANGE RD, HAMILTON"
      }
    ]
  },
  {
    "postal": "L8S8L1",
    "result": []
  },
  {
    "postal": "L8S5M4",
    "result": []
  },
  {
    "postal": "L8S4G9",
    "result": [
      {
        "electoralDistricts": [
          {
            "election": null,
            "id": 39,
            "name": "Hamilton West—Ancaster—Dundas"
          }
        ],
        "pollDivisionIds": [
          10135268
        ],
        "postalCode": "L8S4G9",
        "streetName": "PAISLEY",
        "streetDirectionId": "N",
        "streetTypeId": "AVE",
        "placeName": "HAMILTON",
        "streetNameDisplayText": "PAISLEY AVE N, HAMILTON"
      }
    ]
  },
  {
    "postal": "L8S0P0",
    "result": []
  },
  {
    "postal": "L8S8G2",
    "result": []
  },
  {
    "postal": "L8S1V9",
    "result": [
      {
        "electoralDistricts": [
          {
            "election": null,
            "id": 39,
            "name": "Hamilton West—Ancaster—Dundas"
          }
        ],
        "pollDivisionIds": [
          10135268
        ],
        "postalCode": "L8S1V9",
        "streetName": "NEWTON",
        "streetDirectionId": null,
        "streetTypeId": "AVE",
        "placeName": "HAMILTON",
        "streetNameDisplayText": "NEWTON AVE, HAMILTON"
      }
    ]
  },
  {
    "postal": "L8S8N8",
    "result": []
  },
  {
    "postal": "L8S6S8",
    "result": []
  },
  {
    "postal": "L8S8H2",
    "result": []
  },
  {
    "postal": "L8S5R8",
    "result": []
  },
  {
    "postal": "L8S5L4",
    "result": []
  },
  {
    "postal": "L8S9E1",
    "result": []
  },
  {
    "postal": "L8S1C4",
    "result": [
      {
        "electoralDistricts": [
          {
            "election": null,
            "id": 39,
            "name": "Hamilton West—Ancaster—Dundas"
          }
        ],
        "pollDivisionIds": [
          10135272
        ],
        "postalCode": "L8S1C4",
        "streetName": "MAIN",
        "streetDirectionId": "W",
        "streetTypeId": "ST",
        "placeName": "HAMILTON",
        "streetNameDisplayText": "MAIN ST W, HAMILTON"
      }
    ]
  },
  {
    "postal": "L8S8W5",
    "result": []
  },
  {
    "postal": "L8S1Y4",
    "result": [
      {
        "electoralDistricts": [
          {
            "election": null,
            "id": 39,
            "name": "Hamilton West—Ancaster—Dundas"
          }
        ],
        "pollDivisionIds": [
          10135272
        ],
        "postalCode": "L8S1Y4",
        "streetName": "GARY",
        "streetDirectionId": null,
        "streetTypeId": "AVE",
        "placeName": "HAMILTON",
        "streetNameDisplayText": "GARY AVE, HAMILTON"
      }
    ]
  },
  {
    "postal": "L8S1C0",
    "result": []
  },
  {
    "postal": "L8S2J2",
    "result": [
      {
        "electoralDistricts": [
          {
            "election": null,
            "id": 39,
            "name": "Hamilton West—Ancaster—Dundas"
          }
        ],
        "pollDivisionIds": [
          10135272
        ],
        "postalCode": "L8S2J2",
        "streetName": "WILLOWCREST",
        "streetDirectionId": null,
        "streetTypeId": "AVE",
        "placeName": "HAMILTON",
        "streetNameDisplayText": "WILLOWCREST AVE, HAMILTON"
      }
    ]
  },
  {
    "postal": "L8S2J0",
    "result": []
  },
  {
    "postal": "L8S7A3",
    "result": []
  },
  {
    "postal": "L8S8M1",
    "result": []
  },
  {
    "postal": "L8S7T9",
    "result": []
  },
  {
    "postal": "L8S6C0",
    "result": []
  },
  {
    "postal": "L8S7X1",
    "result": []
  },
  {
    "postal": "L8S0G1",
    "result": []
  },
  {
    "postal": "L8S4X2",
    "result": []
  },
  {
    "postal": "L8S0N6",
    "result": []
  },
  {
    "postal": "L8S8E3",
    "result": []
  },
  {
    "postal": "L8S5S8",
    "result": []
  },
  {
    "postal": "L8S0R0",
    "result": []
  },
  {
    "postal": "L8S6J6",
    "result": []
  },
  {
    "postal": "L8S4B4",
    "result": [
      {
        "electoralDistricts": [
          {
            "election": null,
            "id": 39,
            "name": "Hamilton West—Ancaster—Dundas"
          }
        ],
        "pollDivisionIds": [
          10135268
        ],
        "postalCode": "L8S4B4",
        "streetName": "DROMORE",
        "streetDirectionId": null,
        "streetTypeId": "CRES",
        "placeName": "HAMILTON",
        "streetNameDisplayText": "DROMORE CRES, HAMILTON"
      }
    ]
  },
  {
    "postal": "L8S7E3",
    "result": []
  },
  {
    "postal": "L8S3N6",
    "result": [
      {
        "electoralDistricts": [
          {
            "election": null,
            "id": 39,
            "name": "Hamilton West—Ancaster—Dundas"
          }
        ],
        "pollDivisionIds": [
          10135268
        ],
        "postalCode": "L8S3N6",
        "streetName": "DUFFERIN",
        "streetDirectionId": null,
        "streetTypeId": "ST",
        "placeName": "HAMILTON",
        "streetNameDisplayText": "DUFFERIN ST, HAMILTON"
      }
    ]
  },
  {
    "postal": "L8S3X6",
    "result": [
      {
        "electoralDistricts": [
          {
            "election": null,
            "id": 39,
            "name": "Hamilton West—Ancaster—Dundas"
          }
        ],
        "pollDivisionIds": [
          10135269
        ],
        "postalCode": "L8S3X6",
        "streetName": "UPLANDS",
        "streetDirectionId": null,
        "streetTypeId": "AVE",
        "placeName": "HAMILTON",
        "streetNameDisplayText": "UPLANDS AVE, HAMILTON"
      }
    ]
  },
  {
    "postal": "L8S8L0",
    "result": []
  },
  {
    "postal": "L8S8N1",
    "result": []
  },
  {
    "postal": "L8S4J0",
    "result": []
  },
  {
    "postal": "L8S0X7",
    "result": []
  },
  {
    "postal": "L8S6S4",
    "result": []
  },
  {
    "postal": "L8S0Z0",
    "result": []
  },
  {
    "postal": "L8S9X8",
    "result": []
  },
  {
    "postal": "L8S3H3",
    "result": [
      {
        "electoralDistricts": [
          {
            "election": null,
            "id": 39,
            "name": "Hamilton West—Ancaster—Dundas"
          }
        ],
        "pollDivisionIds": [
          10135271
        ],
        "postalCode": "L8S3H3",
        "streetName": "CARWYN",
        "streetDirectionId": null,
        "streetTypeId": "CRES",
        "placeName": "HAMILTON",
        "streetNameDisplayText": "CARWYN CRES, HAMILTON"
      }
    ]
  },
  {
    "postal": "L8S7S2",
    "result": []
  },
  {
    "postal": "L8S3T3",
    "result": [
      {
        "electoralDistricts": [
          {
            "election": null,
            "id": 39,
            "name": "Hamilton West—Ancaster—Dundas"
          }
        ],
        "pollDivisionIds": [
          10135269
        ],
        "postalCode": "L8S3T3",
        "streetName": "PARADISE",
        "streetDirectionId": "N",
        "streetTypeId": "RD",
        "placeName": "HAMILTON",
        "streetNameDisplayText": "PARADISE RD N, HAMILTON"
      }
    ]
  },
  {
    "postal": "L8S9P3",
    "result": []
  },
  {
    "postal": "L8S4H8",
    "result": [
      {
        "electoralDistricts": [
          {
            "election": null,
            "id": 39,
            "name": "Hamilton West—Ancaster—Dundas"
          }
        ],
        "pollDivisionIds": [
          10135268
        ],
        "postalCode": "L8S4H8",
        "streetName": "STERLING",
        "streetDirectionId": null,
        "streetTypeId": "ST",
        "placeName": "HAMILTON",
        "streetNameDisplayText": "STERLING ST, HAMILTON"
      }
    ]
  },
  {
    "postal": "L8S6R1",
    "result": []
  },
  {
    "postal": "L8S1S0",
    "result": []
  },
  {
    "postal": "L8S3W8",
    "result": [
      {
        "electoralDistricts": [
          {
            "election": null,
            "id": 39,
            "name": "Hamilton West—Ancaster—Dundas"
          }
        ],
        "pollDivisionIds": [
          10135269
        ],
        "postalCode": "L8S3W8",
        "streetName": "BOND",
        "streetDirectionId": "N",
        "streetTypeId": "ST",
        "placeName": "HAMILTON",
        "streetNameDisplayText": "BOND ST N, HAMILTON"
      }
    ]
  },
  {
    "postal": "L8S4S3",
    "result": [
      {
        "electoralDistricts": [
          {
            "election": null,
            "id": 39,
            "name": "Hamilton West—Ancaster—Dundas"
          }
        ],
        "pollDivisionIds": [
          10135268
        ],
        "postalCode": "L8S4S3",
        "streetName": "KING",
        "streetDirectionId": "W",
        "streetTypeId": "ST",
        "placeName": "HAMILTON",
        "streetNameDisplayText": "KING ST W, HAMILTON"
      }
    ]
  },
  {
    "postal": "L8S1B6",
    "result": []
  },
  {
    "postal": "L8S8R3",
    "result": []
  },
  {
    "postal": "L8S4V9",
    "result": []
  },
  {
    "postal": "L8S9W4",
    "result": []
  },
  {
    "postal": "L8S3T4",
    "result": [
      {
        "electoralDistricts": [
          {
            "election": null,
            "id": 39,
            "name": "Hamilton West—Ancaster—Dundas"
          }
        ],
        "pollDivisionIds": [
          10135269
        ],
        "postalCode": "L8S3T4",
        "streetName": "PARADISE",
        "streetDirectionId": "N",
        "streetTypeId": "RD",
        "placeName": "HAMILTON",
        "streetNameDisplayText": "PARADISE RD N, HAMILTON"
      }
    ]
  },
  {
    "postal": "L8S5C7",
    "result": []
  },
  {
    "postal": "L8S3Y1",
    "result": [
      {
        "electoralDistricts": [
          {
            "election": null,
            "id": 39,
            "name": "Hamilton West—Ancaster—Dundas"
          }
        ],
        "pollDivisionIds": [
          10135269
        ],
        "postalCode": "L8S3Y1",
        "streetName": "PARKSIDE",
        "streetDirectionId": null,
        "streetTypeId": "DR",
        "placeName": "HAMILTON",
        "streetNameDisplayText": "PARKSIDE DR, HAMILTON"
      },
      {
        "electoralDistricts": [
          {
            "election": null,
            "id": 31,
            "name": "Flamborough—Glanbrook"
          }
        ],
        "pollDivisionIds": [
          10138246
        ],
        "postalCode": "L8S3Y1",
        "streetName": "PARKSIDE",
        "streetDirectionId": null,
        "streetTypeId": "DR",
        "placeName": "WATERDOWN",
        "streetNameDisplayText": "PARKSIDE DR, WATERDOWN"
      }
    ]
  },
  {
    "postal": "L8S5V0",
    "result": []
  },
  {
    "postal": "L8S8G8",
    "result": []
  },
  {
    "postal": "L8S8B1",
    "result": []
  },
  {
    "postal": "L8S4P5",
    "result": [
      {
        "electoralDistricts": [
          {
            "election": null,
            "id": 39,
            "name": "Hamilton West—Ancaster—Dundas"
          }
        ],
        "pollDivisionIds": [
          10135268
        ],
        "postalCode": "L8S4P5",
        "streetName": "MAIN",
        "streetDirectionId": "W",
        "streetTypeId": "ST",
        "placeName": "HAMILTON",
        "streetNameDisplayText": "MAIN ST W, HAMILTON"
      }
    ]
  },
  {
    "postal": "L8S7B2",
    "result": []
  },
  {
    "postal": "L8S0R2",
    "result": []
  },
  {
    "postal": "L8S4M4",
    "result": [
      {
        "electoralDistricts": [
          {
            "election": null,
            "id": 39,
            "name": "Hamilton West—Ancaster—Dundas"
          }
        ],
        "pollDivisionIds": [
          10135268
        ],
        "postalCode": "L8S4M4",
        "streetName": "MAIN",
        "streetDirectionId": "W",
        "streetTypeId": "ST",
        "placeName": "HAMILTON",
        "streetNameDisplayText": "MAIN ST W, HAMILTON"
      }
    ]
  },
  {
    "postal": "L8S7M4",
    "result": []
  },
  {
    "postal": "L8S9S7",
    "result": []
  },
  {
    "postal": "L8S5Z7",
    "result": []
  },
  {
    "postal": "L8S7J7",
    "result": []
  },
  {
    "postal": "L8S8R8",
    "result": []
  },
  {
    "postal": "L8S9X1",
    "result": []
  },
  {
    "postal": "L8S5M9",
    "result": []
  },
  {
    "postal": "L8S9B4",
    "result": []
  },
  {
    "postal": "L8S0L9",
    "result": []
  },
  {
    "postal": "L8S9G4",
    "result": []
  },
  {
    "postal": "L8S1J4",
    "result": [
      {
        "electoralDistricts": [
          {
            "election": null,
            "id": 39,
            "name": "Hamilton West—Ancaster—Dundas"
          }
        ],
        "pollDivisionIds": [
          10135308
        ],
        "postalCode": "L8S1J4",
        "streetName": "MAIN",
        "streetDirectionId": "W",
        "streetTypeId": "ST",
        "placeName": "HAMILTON",
        "streetNameDisplayText": "MAIN ST W, HAMILTON"
      }
    ]
  },
  {
    "postal": "L8S0W6",
    "result": []
  }
]
