[
  {
    "postal": "N3H9J6",
    "result": []
  },
  {
    "postal": "N3H9Z5",
    "result": []
  },
  {
    "postal": "N3H7H8",
    "result": []
  },
  {
    "postal": "N3H0P6",
    "result": []
  },
  {
    "postal": "N3H0S7",
    "result": []
  },
  {
    "postal": "N3H8B9",
    "result": []
  },
  {
    "postal": "N3H2A6",
    "result": [
      {
        "electoralDistricts": [
          {
            "election": null,
            "id": 16,
            "name": "Cambridge"
          }
        ],
        "pollDivisionIds": [
          10137418
        ],
        "postalCode": "N3H2A6",
        "streetName": "DOLPH",
        "streetDirectionId": "N",
        "streetTypeId": "ST",
        "placeName": "CAMBRIDGE",
        "streetNameDisplayText": "DOLPH ST N, CAMBRIDGE"
      }
    ]
  },
  {
    "postal": "N3H7V2",
    "result": []
  },
  {
    "postal": "N3H9P4",
    "result": []
  },
  {
    "postal": "N3H6G0",
    "result": []
  },
  {
    "postal": "N3H2K0",
    "result": []
  },
  {
    "postal": "N3H7N6",
    "result": []
  },
  {
    "postal": "N3H5R3",
    "result": []
  },
  {
    "postal": "N3H7K0",
    "result": []
  },
  {
    "postal": "N3H3R2",
    "result": [
      {
        "electoralDistricts": [
          {
            "election": null,
            "id": 16,
            "name": "Cambridge"
          }
        ],
        "pollDivisionIds": [
          10137418
        ],
        "postalCode": "N3H3R2",
        "streetName": "KING",
        "streetDirectionId": "E",
        "streetTypeId": "ST",
        "placeName": "CAMBRIDGE",
        "streetNameDisplayText": "KING ST E, CAMBRIDGE"
      }
    ]
  },
  {
    "postal": "N3H0J1",
    "result": []
  },
  {
    "postal": "N3H0B0",
    "result": []
  },
  {
    "postal": "N3H5Z2",
    "result": []
  },
  {
    "postal": "N3H7P3",
    "result": []
  },
  {
    "postal": "N3H2K3",
    "result": [
      {
        "electoralDistricts": [
          {
            "election": null,
            "id": 16,
            "name": "Cambridge"
          }
        ],
        "pollDivisionIds": [
          10137418
        ],
        "postalCode": "N3H2K3",
        "streetName": "BISHOP",
        "streetDirectionId": "N",
        "streetTypeId": "ST",
        "placeName": "CAMBRIDGE",
        "streetNameDisplayText": "BISHOP ST N, CAMBRIDGE"
      }
    ]
  },
  {
    "postal": "N3H7Y6",
    "result": []
  },
  {
    "postal": "N3H1L9",
    "result": [
      {
        "electoralDistricts": [
          {
            "election": null,
            "id": 16,
            "name": "Cambridge"
          }
        ],
        "pollDivisionIds": [
          10137415
        ],
        "postalCode": "N3H1L9",
        "streetName": "DOVER",
        "streetDirectionId": "S",
        "streetTypeId": "ST",
        "placeName": "CAMBRIDGE",
        "streetNameDisplayText": "DOVER ST S, CAMBRIDGE"
      }
    ]
  },
  {
    "postal": "N3H8T0",
    "result": []
  },
  {
    "postal": "N3H3K8",
    "result": [
      {
        "electoralDistricts": [
          {
            "election": null,
            "id": 16,
            "name": "Cambridge"
          }
        ],
        "pollDivisionIds": [
          10137418
        ],
        "postalCode": "N3H3K8",
        "streetName": "QUEENSTON",
        "streetDirectionId": null,
        "streetTypeId": "RD",
        "placeName": "CAMBRIDGE",
        "streetNameDisplayText": "QUEENSTON RD, CAMBRIDGE"
      }
    ]
  },
  {
    "postal": "N3H5W9",
    "result": []
  },
  {
    "postal": "N3H6T9",
    "result": []
  },
  {
    "postal": "N3H4H1",
    "result": [
      {
        "electoralDistricts": [
          {
            "election": null,
            "id": 16,
            "name": "Cambridge"
          }
        ],
        "pollDivisionIds": [
          10137416,
          10137418
        ],
        "postalCode": "N3H4H1",
        "streetName": "HEWAT",
        "streetDirectionId": null,
        "streetTypeId": "ST",
        "placeName": "CAMBRIDGE",
        "streetNameDisplayText": "HEWAT ST, CAMBRIDGE"
      }
    ]
  },
  {
    "postal": "N3H7A2",
    "result": []
  },
  {
    "postal": "N3H5G0",
    "result": []
  },
  {
    "postal": "N3H8V5",
    "result": []
  },
  {
    "postal": "N3H2Y8",
    "result": [
      {
        "electoralDistricts": [
          {
            "election": null,
            "id": 16,
            "name": "Cambridge"
          }
        ],
        "pollDivisionIds": [
          10137415
        ],
        "postalCode": "N3H2Y8",
        "streetName": "VINE",
        "streetDirectionId": null,
        "streetTypeId": "ST",
        "placeName": "CAMBRIDGE",
        "streetNameDisplayText": "VINE ST, CAMBRIDGE"
      }
    ]
  },
  {
    "postal": "N3H2B6",
    "result": [
      {
        "electoralDistricts": [
          {
            "election": null,
            "id": 16,
            "name": "Cambridge"
          }
        ],
        "pollDivisionIds": [
          10137416
        ],
        "postalCode": "N3H2B6",
        "streetName": "DOLPH",
        "streetDirectionId": "N",
        "streetTypeId": "ST",
        "placeName": "CAMBRIDGE",
        "streetNameDisplayText": "DOLPH ST N, CAMBRIDGE"
      }
    ]
  },
  {
    "postal": "N3H4W8",
    "result": [
      {
        "electoralDistricts": [
          {
            "election": null,
            "id": 16,
            "name": "Cambridge"
          }
        ],
        "pollDivisionIds": [
          10137418
        ],
        "postalCode": "N3H4W8",
        "streetName": "LONGFIELD",
        "streetDirectionId": null,
        "streetTypeId": "CRT",
        "placeName": "CAMBRIDGE",
        "streetNameDisplayText": "LONGFIELD CRT, CAMBRIDGE"
      }
    ]
  },
  {
    "postal": "N3H8H7",
    "result": []
  },
  {
    "postal": "N3H5P1",
    "result": [
      {
        "electoralDistricts": [
          {
            "election": null,
            "id": 16,
            "name": "Cambridge"
          }
        ],
        "pollDivisionIds": [
          10137418
        ],
        "postalCode": "N3H5P1",
        "streetName": "DOLPH",
        "streetDirectionId": "S",
        "streetTypeId": "ST",
        "placeName": "CAMBRIDGE",
        "streetNameDisplayText": "DOLPH ST S, CAMBRIDGE"
      }
    ]
  },
  {
    "postal": "N3H2B8",
    "result": [
      {
        "electoralDistricts": [
          {
            "election": null,
            "id": 16,
            "name": "Cambridge"
          }
        ],
        "pollDivisionIds": [
          10137416
        ],
        "postalCode": "N3H2B8",
        "streetName": "DOLPH",
        "streetDirectionId": "N",
        "streetTypeId": "ST",
        "placeName": "CAMBRIDGE",
        "streetNameDisplayText": "DOLPH ST N, CAMBRIDGE"
      }
    ]
  },
  {
    "postal": "N3H0P2",
    "result": []
  },
  {
    "postal": "N3H9M1",
    "result": []
  },
  {
    "postal": "N3H3G0",
    "result": []
  },
  {
    "postal": "N3H9Z2",
    "result": []
  },
  {
    "postal": "N3H2A0",
    "result": []
  },
  {
    "postal": "N3H6Y0",
    "result": []
  },
  {
    "postal": "N3H2Z8",
    "result": [
      {
        "electoralDistricts": [
          {
            "election": null,
            "id": 16,
            "name": "Cambridge"
          }
        ],
        "pollDivisionIds": [
          10137418
        ],
        "postalCode": "N3H2Z8",
        "streetName": "VINE",
        "streetDirectionId": null,
        "streetTypeId": "ST",
        "placeName": "CAMBRIDGE",
        "streetNameDisplayText": "VINE ST, CAMBRIDGE"
      }
    ]
  },
  {
    "postal": "N3H7Y3",
    "result": []
  },
  {
    "postal": "N3H6Z5",
    "result": []
  },
  {
    "postal": "N3H6E0",
    "result": []
  },
  {
    "postal": "N3H9B7",
    "result": []
  },
  {
    "postal": "N3H9S5",
    "result": []
  },
  {
    "postal": "N3H3X3",
    "result": [
      {
        "electoralDistricts": [
          {
            "election": null,
            "id": 16,
            "name": "Cambridge"
          }
        ],
        "pollDivisionIds": [
          10137418
        ],
        "postalCode": "N3H3X3",
        "streetName": "BLEILER",
        "streetDirectionId": null,
        "streetTypeId": "ST",
        "placeName": "CAMBRIDGE",
        "streetNameDisplayText": "BLEILER ST, CAMBRIDGE"
      }
    ]
  },
  {
    "postal": "N3H7R5",
    "result": []
  },
  {
    "postal": "N3H2X3",
    "result": [
      {
        "electoralDistricts": [
          {
            "election": null,
            "id": 16,
            "name": "Cambridge"
          }
        ],
        "pollDivisionIds": [
          10137415
        ],
        "postalCode": "N3H2X3",
        "streetName": "SHERRING",
        "streetDirectionId": null,
        "streetTypeId": "ST",
        "placeName": "CAMBRIDGE",
        "streetNameDisplayText": "SHERRING ST, CAMBRIDGE"
      }
    ]
  },
  {
    "postal": "N3H8Z9",
    "result": []
  },
  {
    "postal": "N3H0N4",
    "result": []
  },
  {
    "postal": "N3H1K1",
    "result": [
      {
        "electoralDistricts": [
          {
            "election": null,
            "id": 16,
            "name": "Cambridge"
          }
        ],
        "pollDivisionIds": [
          10137414
        ],
        "postalCode": "N3H1K1",
        "streetName": "NELSON",
        "streetDirectionId": null,
        "streetTypeId": "ST",
        "placeName": "CAMBRIDGE",
        "streetNameDisplayText": "NELSON ST, CAMBRIDGE"
      }
    ]
  },
  {
    "postal": "N3H1S3",
    "result": [
      {
        "electoralDistricts": [
          {
            "election": null,
            "id": 16,
            "name": "Cambridge"
          }
        ],
        "pollDivisionIds": [
          10137414
        ],
        "postalCode": "N3H1S3",
        "streetName": "WESTMINSTER",
        "streetDirectionId": "N",
        "streetTypeId": "DR",
        "placeName": "CAMBRIDGE",
        "streetNameDisplayText": "WESTMINSTER DR N, CAMBRIDGE"
      }
    ]
  },
  {
    "postal": "N3H6M4",
    "result": []
  },
  {
    "postal": "N3H9A9",
    "result": []
  },
  {
    "postal": "N3H9Z9",
    "result": []
  },
  {
    "postal": "N3H6T4",
    "result": []
  },
  {
    "postal": "N3H0B2",
    "result": []
  },
  {
    "postal": "N3H2L9",
    "result": [
      {
        "electoralDistricts": [
          {
            "election": null,
            "id": 16,
            "name": "Cambridge"
          }
        ],
        "pollDivisionIds": [
          10137418
        ],
        "postalCode": "N3H2L9",
        "streetName": "ORIOLE",
        "streetDirectionId": null,
        "streetTypeId": "AVE",
        "placeName": "CAMBRIDGE",
        "streetNameDisplayText": "ORIOLE AVE, CAMBRIDGE"
      }
    ]
  },
  {
    "postal": "N3H8K9",
    "result": []
  },
  {
    "postal": "N3H2H9",
    "result": [
      {
        "electoralDistricts": [
          {
            "election": null,
            "id": 16,
            "name": "Cambridge"
          }
        ],
        "pollDivisionIds": [
          10137418
        ],
        "postalCode": "N3H2H9",
        "streetName": "MONTROSE",
        "streetDirectionId": "S",
        "streetTypeId": "ST",
        "placeName": "CAMBRIDGE",
        "streetNameDisplayText": "MONTROSE ST S, CAMBRIDGE"
      }
    ]
  },
  {
    "postal": "N3H3Z6",
    "result": [
      {
        "electoralDistricts": [
          {
            "election": null,
            "id": 16,
            "name": "Cambridge"
          }
        ],
        "pollDivisionIds": [
          10137414
        ],
        "postalCode": "N3H3Z6",
        "streetName": "LAUREL",
        "streetDirectionId": null,
        "streetTypeId": "ST",
        "placeName": "CAMBRIDGE",
        "streetNameDisplayText": "LAUREL ST, CAMBRIDGE"
      }
    ]
  },
  {
    "postal": "N3H3B0",
    "result": []
  },
  {
    "postal": "N3H2H8",
    "result": [
      {
        "electoralDistricts": [
          {
            "election": null,
            "id": 16,
            "name": "Cambridge"
          }
        ],
        "pollDivisionIds": [
          10137418
        ],
        "postalCode": "N3H2H8",
        "streetName": "MONTROSE",
        "streetDirectionId": "N",
        "streetTypeId": "ST",
        "placeName": "CAMBRIDGE",
        "streetNameDisplayText": "MONTROSE ST N, CAMBRIDGE"
      }
    ]
  },
  {
    "postal": "N3H3X2",
    "result": [
      {
        "electoralDistricts": [
          {
            "election": null,
            "id": 16,
            "name": "Cambridge"
          }
        ],
        "pollDivisionIds": [
          10137414
        ],
        "postalCode": "N3H3X2",
        "streetName": "WILLIAM",
        "streetDirectionId": null,
        "streetTypeId": "ST",
        "placeName": "CAMBRIDGE",
        "streetNameDisplayText": "WILLIAM ST, CAMBRIDGE"
      }
    ]
  },
  {
    "postal": "N3H2E9",
    "result": [
      {
        "electoralDistricts": [
          {
            "election": null,
            "id": 16,
            "name": "Cambridge"
          }
        ],
        "pollDivisionIds": [
          10137415
        ],
        "postalCode": "N3H2E9",
        "streetName": "ROSE",
        "streetDirectionId": null,
        "streetTypeId": "ST",
        "placeName": "CAMBRIDGE",
        "streetNameDisplayText": "ROSE ST, CAMBRIDGE"
      }
    ]
  },
  {
    "postal": "N3H9P6",
    "result": []
  },
  {
    "postal": "N3H9E2",
    "result": []
  },
  {
    "postal": "N3H9H2",
    "result": []
  },
  {
    "postal": "N3H1S8",
    "result": [
      {
        "electoralDistricts": [
          {
            "election": null,
            "id": 16,
            "name": "Cambridge"
          }
        ],
        "pollDivisionIds": [
          10137415
        ],
        "postalCode": "N3H1S8",
        "streetName": "WESTMINSTER",
        "streetDirectionId": "S",
        "streetTypeId": "DR",
        "placeName": "CAMBRIDGE",
        "streetNameDisplayText": "WESTMINSTER DR S, CAMBRIDGE"
      }
    ]
  },
  {
    "postal": "N3H3M6",
    "result": [
      {
        "electoralDistricts": [
          {
            "election": null,
            "id": 16,
            "name": "Cambridge"
          }
        ],
        "pollDivisionIds": [
          10137414,
          10137418
        ],
        "postalCode": "N3H3M6",
        "streetName": "KING",
        "streetDirectionId": "E",
        "streetTypeId": "ST",
        "placeName": "CAMBRIDGE",
        "streetNameDisplayText": "KING ST E, CAMBRIDGE"
      }
    ]
  },
  {
    "postal": "N3H6Z8",
    "result": []
  },
  {
    "postal": "N3H4J2",
    "result": [
      {
        "electoralDistricts": [
          {
            "election": null,
            "id": 16,
            "name": "Cambridge"
          }
        ],
        "pollDivisionIds": [
          10137414
        ],
        "postalCode": "N3H4J2",
        "streetName": "OAKWOOD",
        "streetDirectionId": null,
        "streetTypeId": "AVE",
        "placeName": "CAMBRIDGE",
        "streetNameDisplayText": "OAKWOOD AVE, CAMBRIDGE"
      }
    ]
  },
  {
    "postal": "N3H9Y1",
    "result": []
  },
  {
    "postal": "N3H8V6",
    "result": []
  },
  {
    "postal": "N3H6B2",
    "result": []
  },
  {
    "postal": "N3H1P8",
    "result": [
      {
        "electoralDistricts": [
          {
            "election": null,
            "id": 16,
            "name": "Cambridge"
          }
        ],
        "pollDivisionIds": [
          10137415
        ],
        "postalCode": "N3H1P8",
        "streetName": "ARGYLE",
        "streetDirectionId": "S",
        "streetTypeId": "ST",
        "placeName": "CAMBRIDGE",
        "streetNameDisplayText": "ARGYLE ST S, CAMBRIDGE"
      }
    ]
  },
  {
    "postal": "N3H0V8",
    "result": []
  },
  {
    "postal": "N3H4Y0",
    "result": []
  },
  {
    "postal": "N3H2T4",
    "result": [
      {
        "electoralDistricts": [
          {
            "election": null,
            "id": 16,
            "name": "Cambridge"
          }
        ],
        "pollDivisionIds": [
          10137418,
          10137472
        ],
        "postalCode": "N3H2T4",
        "streetName": "DUNBAR",
        "streetDirectionId": null,
        "streetTypeId": "RD",
        "placeName": "CAMBRIDGE",
        "streetNameDisplayText": "DUNBAR RD, CAMBRIDGE"
      }
    ]
  },
  {
    "postal": "N3H2S3",
    "result": [
      {
        "electoralDistricts": [
          {
            "election": null,
            "id": 16,
            "name": "Cambridge"
          }
        ],
        "pollDivisionIds": [
          10137418
        ],
        "postalCode": "N3H2S3",
        "streetName": "GRAND VALLEY",
        "streetDirectionId": null,
        "streetTypeId": "DR",
        "placeName": "CAMBRIDGE",
        "streetNameDisplayText": "GRAND VALLEY DR, CAMBRIDGE"
      }
    ]
  },
  {
    "postal": "N3H0K0",
    "result": []
  },
  {
    "postal": "N3H5N1",
    "result": [
      {
        "electoralDistricts": [
          {
            "election": null,
            "id": 16,
            "name": "Cambridge"
          }
        ],
        "pollDivisionIds": [
          10137411
        ],
        "postalCode": "N3H5N1",
        "streetName": "PRESTON",
        "streetDirectionId": null,
        "streetTypeId": "PKY",
        "placeName": "CAMBRIDGE",
        "streetNameDisplayText": "PRESTON PKY, CAMBRIDGE"
      }
    ]
  },
  {
    "postal": "N3H7T0",
    "result": []
  },
  {
    "postal": "N3H9N2",
    "result": []
  },
  {
    "postal": "N3H5L1",
    "result": [
      {
        "electoralDistricts": [
          {
            "election": null,
            "id": 16,
            "name": "Cambridge"
          }
        ],
        "pollDivisionIds": [
          10137418
        ],
        "postalCode": "N3H5L1",
        "streetName": "UNION",
        "streetDirectionId": "N",
        "streetTypeId": "ST",
        "placeName": "CAMBRIDGE",
        "streetNameDisplayText": "UNION ST N, CAMBRIDGE"
      }
    ]
  },
  {
    "postal": "N3H7G5",
    "result": []
  },
  {
    "postal": "N3H6K2",
    "result": []
  },
  {
    "postal": "N3H6P9",
    "result": []
  },
  {
    "postal": "N3H0E6",
    "result": []
  },
  {
    "postal": "N3H8R9",
    "result": []
  },
  {
    "postal": "N3H3G9",
    "result": [
      {
        "electoralDistricts": [
          {
            "election": null,
            "id": 16,
            "name": "Cambridge"
          }
        ],
        "pollDivisionIds": [
          10137418
        ],
        "postalCode": "N3H3G9",
        "streetName": "BLUE HERON",
        "streetDirectionId": null,
        "streetTypeId": "RIDGE",
        "placeName": "CAMBRIDGE",
        "streetNameDisplayText": "BLUE HERON RIDGE, CAMBRIDGE"
      }
    ]
  },
  {
    "postal": "N3H0V7",
    "result": []
  },
  {
    "postal": "N3H2Z1",
    "result": [
      {
        "electoralDistricts": [
          {
            "election": null,
            "id": 16,
            "name": "Cambridge"
          }
        ],
        "pollDivisionIds": [
          10137415
        ],
        "postalCode": "N3H2Z1",
        "streetName": "VINE",
        "streetDirectionId": null,
        "streetTypeId": "ST",
        "placeName": "CAMBRIDGE",
        "streetNameDisplayText": "VINE ST, CAMBRIDGE"
      }
    ]
  },
  {
    "postal": "N3H7N1",
    "result": []
  },
  {
    "postal": "N3H3C6",
    "result": [
      {
        "electoralDistricts": [
          {
            "election": null,
            "id": 16,
            "name": "Cambridge"
          }
        ],
        "pollDivisionIds": [
          10137415
        ],
        "postalCode": "N3H3C6",
        "streetName": "HAMILTON",
        "streetDirectionId": null,
        "streetTypeId": "ST",
        "placeName": "CAMBRIDGE",
        "streetNameDisplayText": "HAMILTON ST, CAMBRIDGE"
      }
    ]
  },
  {
    "postal": "N3H4M1",
    "result": [
      {
        "electoralDistricts": [
          {
            "election": null,
            "id": 16,
            "name": "Cambridge"
          }
        ],
        "pollDivisionIds": [
          10137418
        ],
        "postalCode": "N3H4M1",
        "streetName": "CONCESSION",
        "streetDirectionId": null,
        "streetTypeId": "RD",
        "placeName": "CAMBRIDGE",
        "streetNameDisplayText": "CONCESSION RD, CAMBRIDGE"
      }
    ]
  },
  {
    "postal": "N3H9K2",
    "result": []
  },
  {
    "postal": "N3H9S6",
    "result": []
  },
  {
    "postal": "N3H4X1",
    "result": [
      {
        "electoralDistricts": [
          {
            "election": null,
            "id": 16,
            "name": "Cambridge"
          }
        ],
        "pollDivisionIds": [
          10137418
        ],
        "postalCode": "N3H4X1",
        "streetName": "PINEVIEW",
        "streetDirectionId": null,
        "streetTypeId": "AVE",
        "placeName": "CAMBRIDGE",
        "streetNameDisplayText": "PINEVIEW AVE, CAMBRIDGE"
      },
      {
        "electoralDistricts": [
          {
            "election": null,
            "id": 16,
            "name": "Cambridge"
          }
        ],
        "pollDivisionIds": [
          10137418
        ],
        "postalCode": "N3H4X1",
        "streetName": "PINEVIEW",
        "streetDirectionId": null,
        "streetTypeId": "CRT",
        "placeName": "CAMBRIDGE",
        "streetNameDisplayText": "PINEVIEW CRT, CAMBRIDGE"
      }
    ]
  },
  {
    "postal": "N3H8W2",
    "result": []
  },
  {
    "postal": "N3H7N2",
    "result": []
  },
  {
    "postal": "N3H8S3",
    "result": []
  },
  {
    "postal": "N3H4V0",
    "result": []
  },
  {
    "postal": "N3H6W4",
    "result": []
  },
  {
    "postal": "N3H5M1",
    "result": []
  },
  {
    "postal": "N3H0S4",
    "result": []
  },
  {
    "postal": "N3H5X6",
    "result": []
  },
  {
    "postal": "N3H8L5",
    "result": []
  },
  {
    "postal": "N3H5M8",
    "result": [
      {
        "electoralDistricts": [
          {
            "election": null,
            "id": 16,
            "name": "Cambridge"
          }
        ],
        "pollDivisionIds": [
          10137416
        ],
        "postalCode": "N3H5M8",
        "streetName": "OLD NEWBURY",
        "streetDirectionId": null,
        "streetTypeId": "LANE",
        "placeName": "CAMBRIDGE",
        "streetNameDisplayText": "OLD NEWBURY LANE, CAMBRIDGE"
      },
      {
        "electoralDistricts": [
          {
            "election": null,
            "id": 16,
            "name": "Cambridge"
          }
        ],
        "pollDivisionIds": [
          10137416
        ],
        "postalCode": "N3H5M8",
        "streetName": "TRICO",
        "streetDirectionId": null,
        "streetTypeId": "DR",
        "placeName": "CAMBRIDGE",
        "streetNameDisplayText": "TRICO DR, CAMBRIDGE"
      }
    ]
  },
  {
    "postal": "N3H2G3",
    "result": [
      {
        "electoralDistricts": [
          {
            "election": null,
            "id": 16,
            "name": "Cambridge"
          }
        ],
        "pollDivisionIds": [
          10137415,
          10137418
        ],
        "postalCode": "N3H2G3",
        "streetName": "ROSE",
        "streetDirectionId": null,
        "streetTypeId": "ST",
        "placeName": "CAMBRIDGE",
        "streetNameDisplayText": "ROSE ST, CAMBRIDGE"
      }
    ]
  },
  {
    "postal": "N3H8E4",
    "result": []
  },
  {
    "postal": "N3H7S9",
    "result": []
  },
  {
    "postal": "N3H1K3",
    "result": [
      {
        "electoralDistricts": [
          {
            "election": null,
            "id": 16,
            "name": "Cambridge"
          }
        ],
        "pollDivisionIds": [
          10137414
        ],
        "postalCode": "N3H1K3",
        "streetName": "AGNES",
        "streetDirectionId": null,
        "streetTypeId": "ST",
        "placeName": "CAMBRIDGE",
        "streetNameDisplayText": "AGNES ST, CAMBRIDGE"
      }
    ]
  },
  {
    "postal": "N3H4E1",
    "result": [
      {
        "electoralDistricts": [
          {
            "election": null,
            "id": 16,
            "name": "Cambridge"
          }
        ],
        "pollDivisionIds": [
          10137416,
          10137414
        ],
        "postalCode": "N3H4E1",
        "streetName": "GARDEN",
        "streetDirectionId": null,
        "streetTypeId": "ST",
        "placeName": "CAMBRIDGE",
        "streetNameDisplayText": "GARDEN ST, CAMBRIDGE"
      }
    ]
  },
  {
    "postal": "N3H4R2",
    "result": [
      {
        "electoralDistricts": [
          {
            "election": null,
            "id": 16,
            "name": "Cambridge"
          }
        ],
        "pollDivisionIds": [
          10137418
        ],
        "postalCode": "N3H4R2",
        "streetName": "BISCAYNE",
        "streetDirectionId": null,
        "streetTypeId": "DR",
        "placeName": "CAMBRIDGE",
        "streetNameDisplayText": "BISCAYNE DR, CAMBRIDGE"
      }
    ]
  },
  {
    "postal": "N3H6T0",
    "result": []
  },
  {
    "postal": "N3H3K5",
    "result": [
      {
        "electoralDistricts": [
          {
            "election": null,
            "id": 16,
            "name": "Cambridge"
          }
        ],
        "pollDivisionIds": [
          10137415
        ],
        "postalCode": "N3H3K5",
        "streetName": "QUEENSTON",
        "streetDirectionId": null,
        "streetTypeId": "RD",
        "placeName": "CAMBRIDGE",
        "streetNameDisplayText": "QUEENSTON RD, CAMBRIDGE"
      }
    ]
  },
  {
    "postal": "N3H3S3",
    "result": [
      {
        "electoralDistricts": [
          {
            "election": null,
            "id": 16,
            "name": "Cambridge"
          }
        ],
        "pollDivisionIds": [
          10137418
        ],
        "postalCode": "N3H3S3",
        "streetName": "CORONATION",
        "streetDirectionId": null,
        "streetTypeId": "BLVD",
        "placeName": "CAMBRIDGE",
        "streetNameDisplayText": "CORONATION BLVD, CAMBRIDGE"
      }
    ]
  },
  {
    "postal": "N3H3L4",
    "result": [
      {
        "electoralDistricts": [
          {
            "election": null,
            "id": 16,
            "name": "Cambridge"
          }
        ],
        "pollDivisionIds": [
          10137418
        ],
        "postalCode": "N3H3L4",
        "streetName": "QUEENSTON",
        "streetDirectionId": null,
        "streetTypeId": "RD",
        "placeName": "CAMBRIDGE",
        "streetNameDisplayText": "QUEENSTON RD, CAMBRIDGE"
      }
    ]
  },
  {
    "postal": "N3H9Y2",
    "result": []
  },
  {
    "postal": "N3H1E0",
    "result": []
  },
  {
    "postal": "N3H9A4",
    "result": []
  },
  {
    "postal": "N3H1L3",
    "result": [
      {
        "electoralDistricts": [
          {
            "election": null,
            "id": 16,
            "name": "Cambridge"
          }
        ],
        "pollDivisionIds": [
          10137415
        ],
        "postalCode": "N3H1L3",
        "streetName": "DOVER",
        "streetDirectionId": "S",
        "streetTypeId": "ST",
        "placeName": "CAMBRIDGE",
        "streetNameDisplayText": "DOVER ST S, CAMBRIDGE"
      }
    ]
  },
  {
    "postal": "N3H6N1",
    "result": []
  },
  {
    "postal": "N3H6G7",
    "result": []
  },
  {
    "postal": "N3H7W1",
    "result": []
  },
  {
    "postal": "N3H4M6",
    "result": [
      {
        "electoralDistricts": [
          {
            "election": null,
            "id": 16,
            "name": "Cambridge"
          }
        ],
        "pollDivisionIds": [
          10137418
        ],
        "postalCode": "N3H4M6",
        "streetName": "FAIRVIEW",
        "streetDirectionId": null,
        "streetTypeId": "RD",
        "placeName": "CAMBRIDGE",
        "streetNameDisplayText": "FAIRVIEW RD, CAMBRIDGE"
      }
    ]
  },
  {
    "postal": "N3H1K0",
    "result": []
  },
  {
    "postal": "N3H3E2",
    "result": [
      {
        "electoralDistricts": [
          {
            "election": null,
            "id": 16,
            "name": "Cambridge"
          }
        ],
        "pollDivisionIds": [
          10137415
        ],
        "postalCode": "N3H3E2",
        "streetName": "HAMILTON",
        "streetDirectionId": null,
        "streetTypeId": "ST",
        "placeName": "CAMBRIDGE",
        "streetNameDisplayText": "HAMILTON ST, CAMBRIDGE"
      }
    ]
  },
  {
    "postal": "N3H5H4",
    "result": []
  },
  {
    "postal": "N3H1K7",
    "result": [
      {
        "electoralDistricts": [
          {
            "election": null,
            "id": 16,
            "name": "Cambridge"
          }
        ],
        "pollDivisionIds": [
          10137414
        ],
        "postalCode": "N3H1K7",
        "streetName": "DOVER",
        "streetDirectionId": "N",
        "streetTypeId": "ST",
        "placeName": "CAMBRIDGE",
        "streetNameDisplayText": "DOVER ST N, CAMBRIDGE"
      }
    ]
  },
  {
    "postal": "N3H0H0",
    "result": []
  },
  {
    "postal": "N3H0J3",
    "result": []
  },
  {
    "postal": "N3H1X6",
    "result": [
      {
        "electoralDistricts": [
          {
            "election": null,
            "id": 16,
            "name": "Cambridge"
          }
        ],
        "pollDivisionIds": [
          10137415
        ],
        "postalCode": "N3H1X6",
        "streetName": "CHURCH",
        "streetDirectionId": "S",
        "streetTypeId": "ST",
        "placeName": "CAMBRIDGE",
        "streetNameDisplayText": "CHURCH ST S, CAMBRIDGE"
      }
    ]
  },
  {
    "postal": "N3H2Z6",
    "result": [
      {
        "electoralDistricts": [
          {
            "election": null,
            "id": 16,
            "name": "Cambridge"
          }
        ],
        "pollDivisionIds": [
          10137415
        ],
        "postalCode": "N3H2Z6",
        "streetName": "VINE",
        "streetDirectionId": null,
        "streetTypeId": "ST",
        "placeName": "CAMBRIDGE",
        "streetNameDisplayText": "VINE ST, CAMBRIDGE"
      }
    ]
  },
  {
    "postal": "N3H4R9",
    "result": []
  },
  {
    "postal": "N3H0W8",
    "result": []
  },
  {
    "postal": "N3H1L4",
    "result": [
      {
        "electoralDistricts": [
          {
            "election": null,
            "id": 16,
            "name": "Cambridge"
          }
        ],
        "pollDivisionIds": [
          10137414,
          10137415
        ],
        "postalCode": "N3H1L4",
        "streetName": "DOVER",
        "streetDirectionId": "S",
        "streetTypeId": "ST",
        "placeName": "CAMBRIDGE",
        "streetNameDisplayText": "DOVER ST S, CAMBRIDGE"
      }
    ]
  },
  {
    "postal": "N3H0C8",
    "result": [
      {
        "electoralDistricts": [
          {
            "election": null,
            "id": 16,
            "name": "Cambridge"
          }
        ],
        "pollDivisionIds": [
          10137411
        ],
        "postalCode": "N3H0C8",
        "streetName": "DUCKWORTH",
        "streetDirectionId": null,
        "streetTypeId": "RD",
        "placeName": "CAMBRIDGE",
        "streetNameDisplayText": "DUCKWORTH RD, CAMBRIDGE"
      }
    ]
  },
  {
    "postal": "N3H9X7",
    "result": []
  },
  {
    "postal": "N3H4T1",
    "result": []
  },
  {
    "postal": "N3H0M0",
    "result": []
  },
  {
    "postal": "N3H6A2",
    "result": []
  },
  {
    "postal": "N3H9S8",
    "result": []
  },
  {
    "postal": "N3H9T4",
    "result": []
  },
  {
    "postal": "N3H9Y4",
    "result": []
  },
  {
    "postal": "N3H6G5",
    "result": []
  },
  {
    "postal": "N3H6H9",
    "result": []
  },
  {
    "postal": "N3H2P3",
    "result": [
      {
        "electoralDistricts": [
          {
            "election": null,
            "id": 16,
            "name": "Cambridge"
          }
        ],
        "pollDivisionIds": [
          10137418
        ],
        "postalCode": "N3H2P3",
        "streetName": "MONTROSE",
        "streetDirectionId": "N",
        "streetTypeId": "ST",
        "placeName": "CAMBRIDGE",
        "streetNameDisplayText": "MONTROSE ST N, CAMBRIDGE"
      }
    ]
  },
  {
    "postal": "N3H1T6",
    "result": [
      {
        "electoralDistricts": [
          {
            "election": null,
            "id": 16,
            "name": "Cambridge"
          }
        ],
        "pollDivisionIds": [
          10137415
        ],
        "postalCode": "N3H1T6",
        "streetName": "WESTMINSTER",
        "streetDirectionId": "S",
        "streetTypeId": "DR",
        "placeName": "CAMBRIDGE",
        "streetNameDisplayText": "WESTMINSTER DR S, CAMBRIDGE"
      }
    ]
  },
  {
    "postal": "N3H4P6",
    "result": [
      {
        "electoralDistricts": [
          {
            "election": null,
            "id": 16,
            "name": "Cambridge"
          }
        ],
        "pollDivisionIds": [
          10137417
        ],
        "postalCode": "N3H4P6",
        "streetName": "WALTER",
        "streetDirectionId": null,
        "streetTypeId": "ST",
        "placeName": "CAMBRIDGE",
        "streetNameDisplayText": "WALTER ST, CAMBRIDGE"
      }
    ]
  },
  {
    "postal": "N3H3K1",
    "result": [
      {
        "electoralDistricts": [
          {
            "election": null,
            "id": 16,
            "name": "Cambridge"
          }
        ],
        "pollDivisionIds": [
          10137415
        ],
        "postalCode": "N3H3K1",
        "streetName": "QUEENSTON",
        "streetDirectionId": null,
        "streetTypeId": "RD",
        "placeName": "CAMBRIDGE",
        "streetNameDisplayText": "QUEENSTON RD, CAMBRIDGE"
      }
    ]
  },
  {
    "postal": "N3H6X4",
    "result": []
  },
  {
    "postal": "N3H4M8",
    "result": [
      {
        "electoralDistricts": [
          {
            "election": null,
            "id": 16,
            "name": "Cambridge"
          }
        ],
        "pollDivisionIds": [
          10137418
        ],
        "postalCode": "N3H4M8",
        "streetName": "FAIRVIEW",
        "streetDirectionId": null,
        "streetTypeId": "RD",
        "placeName": "CAMBRIDGE",
        "streetNameDisplayText": "FAIRVIEW RD, CAMBRIDGE"
      }
    ]
  },
  {
    "postal": "N3H2Y1",
    "result": [
      {
        "electoralDistricts": [
          {
            "election": null,
            "id": 16,
            "name": "Cambridge"
          }
        ],
        "pollDivisionIds": [
          10137418
        ],
        "postalCode": "N3H2Y1",
        "streetName": "BECK",
        "streetDirectionId": null,
        "streetTypeId": "ST",
        "placeName": "CAMBRIDGE",
        "streetNameDisplayText": "BECK ST, CAMBRIDGE"
      }
    ]
  },
  {
    "postal": "N3H6M1",
    "result": []
  },
  {
    "postal": "N3H5L8",
    "result": [
      {
        "electoralDistricts": [
          {
            "election": null,
            "id": 16,
            "name": "Cambridge"
          }
        ],
        "pollDivisionIds": [
          10137416
        ],
        "postalCode": "N3H5L8",
        "streetName": "HESPELER",
        "streetDirectionId": null,
        "streetTypeId": "RD",
        "placeName": "CAMBRIDGE",
        "streetNameDisplayText": "HESPELER RD, CAMBRIDGE"
      }
    ]
  },
  {
    "postal": "N3H3P6",
    "result": [
      {
        "electoralDistricts": [
          {
            "election": null,
            "id": 16,
            "name": "Cambridge"
          }
        ],
        "pollDivisionIds": [
          10137418
        ],
        "postalCode": "N3H3P6",
        "streetName": "KING",
        "streetDirectionId": "E",
        "streetTypeId": "ST",
        "placeName": "CAMBRIDGE",
        "streetNameDisplayText": "KING ST E, CAMBRIDGE"
      }
    ]
  },
  {
    "postal": "N3H9A5",
    "result": []
  },
  {
    "postal": "N3H7K1",
    "result": []
  },
  {
    "postal": "N3H3J4",
    "result": [
      {
        "electoralDistricts": [
          {
            "election": null,
            "id": 16,
            "name": "Cambridge"
          }
        ],
        "pollDivisionIds": [
          10137415
        ],
        "postalCode": "N3H3J4",
        "streetName": "QUEENSTON",
        "streetDirectionId": null,
        "streetTypeId": "RD",
        "placeName": "CAMBRIDGE",
        "streetNameDisplayText": "QUEENSTON RD, CAMBRIDGE"
      }
    ]
  },
  {
    "postal": "N3H5E7",
    "result": [
      {
        "electoralDistricts": [
          {
            "election": null,
            "id": 16,
            "name": "Cambridge"
          }
        ],
        "pollDivisionIds": [
          10137416
        ],
        "postalCode": "N3H5E7",
        "streetName": "SHETTLESTON",
        "streetDirectionId": null,
        "streetTypeId": "DR",
        "placeName": "CAMBRIDGE",
        "streetNameDisplayText": "SHETTLESTON DR, CAMBRIDGE"
      }
    ]
  },
  {
    "postal": "N3H3A7",
    "result": [
      {
        "electoralDistricts": [
          {
            "election": null,
            "id": 16,
            "name": "Cambridge"
          }
        ],
        "pollDivisionIds": [
          10137415
        ],
        "postalCode": "N3H3A7",
        "streetName": "MOORE",
        "streetDirectionId": null,
        "streetTypeId": "ST",
        "placeName": "CAMBRIDGE",
        "streetNameDisplayText": "MOORE ST, CAMBRIDGE"
      }
    ]
  },
  {
    "postal": "N3H1B9",
    "result": [
      {
        "electoralDistricts": [
          {
            "election": null,
            "id": 16,
            "name": "Cambridge"
          }
        ],
        "pollDivisionIds": [
          10137414
        ],
        "postalCode": "N3H1B9",
        "streetName": "EAGLE",
        "streetDirectionId": "N",
        "streetTypeId": "ST",
        "placeName": "CAMBRIDGE",
        "streetNameDisplayText": "EAGLE ST N, CAMBRIDGE"
      }
    ]
  },
  {
    "postal": "N3H9E8",
    "result": []
  },
  {
    "postal": "N3H1C9",
    "result": [
      {
        "electoralDistricts": [
          {
            "election": null,
            "id": 16,
            "name": "Cambridge"
          }
        ],
        "pollDivisionIds": [
          10137416
        ],
        "postalCode": "N3H1C9",
        "streetName": "EAGLE",
        "streetDirectionId": "N",
        "streetTypeId": "ST",
        "placeName": "CAMBRIDGE",
        "streetNameDisplayText": "EAGLE ST N, CAMBRIDGE"
      }
    ]
  },
  {
    "postal": "N3H3B5",
    "result": [
      {
        "electoralDistricts": [
          {
            "election": null,
            "id": 16,
            "name": "Cambridge"
          }
        ],
        "pollDivisionIds": [
          10137415
        ],
        "postalCode": "N3H3B5",
        "streetName": "MOORE",
        "streetDirectionId": null,
        "streetTypeId": "ST",
        "placeName": "CAMBRIDGE",
        "streetNameDisplayText": "MOORE ST, CAMBRIDGE"
      }
    ]
  },
  {
    "postal": "N3H8R0",
    "result": []
  },
  {
    "postal": "N3H3P2",
    "result": [
      {
        "electoralDistricts": [
          {
            "election": null,
            "id": 16,
            "name": "Cambridge"
          }
        ],
        "pollDivisionIds": [
          10137415
        ],
        "postalCode": "N3H3P2",
        "streetName": "KING",
        "streetDirectionId": "E",
        "streetTypeId": "ST",
        "placeName": "CAMBRIDGE",
        "streetNameDisplayText": "KING ST E, CAMBRIDGE"
      }
    ]
  },
  {
    "postal": "N3H5V4",
    "result": []
  },
  {
    "postal": "N3H4H0",
    "result": []
  },
  {
    "postal": "N3H4S7",
    "result": []
  },
  {
    "postal": "N3H6C2",
    "result": []
  },
  {
    "postal": "N3H8W3",
    "result": []
  },
  {
    "postal": "N3H4M5",
    "result": [
      {
        "electoralDistricts": [
          {
            "election": null,
            "id": 16,
            "name": "Cambridge"
          }
        ],
        "pollDivisionIds": [
          10137418
        ],
        "postalCode": "N3H4M5",
        "streetName": "FAIRVIEW",
        "streetDirectionId": null,
        "streetTypeId": "RD",
        "placeName": "CAMBRIDGE",
        "streetNameDisplayText": "FAIRVIEW RD, CAMBRIDGE"
      }
    ]
  },
  {
    "postal": "N3H5T1",
    "result": [
      {
        "electoralDistricts": [
          {
            "election": null,
            "id": 16,
            "name": "Cambridge"
          }
        ],
        "pollDivisionIds": [
          10137414
        ],
        "postalCode": "N3H5T1",
        "streetName": "LAWRENCE",
        "streetDirectionId": null,
        "streetTypeId": "ST",
        "placeName": "CAMBRIDGE",
        "streetNameDisplayText": "LAWRENCE ST, CAMBRIDGE"
      }
    ]
  },
  {
    "postal": "N3H3B3",
    "result": [
      {
        "electoralDistricts": [
          {
            "election": null,
            "id": 16,
            "name": "Cambridge"
          }
        ],
        "pollDivisionIds": [
          10137415
        ],
        "postalCode": "N3H3B3",
        "streetName": "MOORE",
        "streetDirectionId": null,
        "streetTypeId": "ST",
        "placeName": "CAMBRIDGE",
        "streetNameDisplayText": "MOORE ST, CAMBRIDGE"
      }
    ]
  },
  {
    "postal": "N3H6C6",
    "result": []
  },
  {
    "postal": "N3H7N8",
    "result": []
  },
  {
    "postal": "N3H2Y3",
    "result": [
      {
        "electoralDistricts": [
          {
            "election": null,
            "id": 16,
            "name": "Cambridge"
          }
        ],
        "pollDivisionIds": [
          10137418
        ],
        "postalCode": "N3H2Y3",
        "streetName": "BECK",
        "streetDirectionId": null,
        "streetTypeId": "ST",
        "placeName": "CAMBRIDGE",
        "streetNameDisplayText": "BECK ST, CAMBRIDGE"
      }
    ]
  },
  {
    "postal": "N3H2R6",
    "result": [
      {
        "electoralDistricts": [
          {
            "election": null,
            "id": 16,
            "name": "Cambridge"
          }
        ],
        "pollDivisionIds": [
          10137418
        ],
        "postalCode": "N3H2R6",
        "streetName": "SEVERN",
        "streetDirectionId": null,
        "streetTypeId": "AVE",
        "placeName": "CAMBRIDGE",
        "streetNameDisplayText": "SEVERN AVE, CAMBRIDGE"
      }
    ]
  },
  {
    "postal": "N3H7N3",
    "result": []
  },
  {
    "postal": "N3H8J2",
    "result": []
  },
  {
    "postal": "N3H6A9",
    "result": []
  },
  {
    "postal": "N3H3V2",
    "result": [
      {
        "electoralDistricts": [
          {
            "election": null,
            "id": 16,
            "name": "Cambridge"
          }
        ],
        "pollDivisionIds": [
          10137414
        ],
        "postalCode": "N3H3V2",
        "streetName": "DUKE",
        "streetDirectionId": null,
        "streetTypeId": "ST",
        "placeName": "CAMBRIDGE",
        "streetNameDisplayText": "DUKE ST, CAMBRIDGE"
      }
    ]
  },
  {
    "postal": "N3H2N3",
    "result": [
      {
        "electoralDistricts": [
          {
            "election": null,
            "id": 16,
            "name": "Cambridge"
          }
        ],
        "pollDivisionIds": [
          10137417
        ],
        "postalCode": "N3H2N3",
        "streetName": "BARBARA",
        "streetDirectionId": null,
        "streetTypeId": "CRT",
        "placeName": "CAMBRIDGE",
        "streetNameDisplayText": "BARBARA CRT, CAMBRIDGE"
      }
    ]
  },
  {
    "postal": "N3H1S5",
    "result": [
      {
        "electoralDistricts": [
          {
            "election": null,
            "id": 16,
            "name": "Cambridge"
          }
        ],
        "pollDivisionIds": [
          10137414
        ],
        "postalCode": "N3H1S5",
        "streetName": "WESTMINSTER",
        "streetDirectionId": "N",
        "streetTypeId": "DR",
        "placeName": "CAMBRIDGE",
        "streetNameDisplayText": "WESTMINSTER DR N, CAMBRIDGE"
      }
    ]
  },
  {
    "postal": "N3H4T7",
    "result": []
  },
  {
    "postal": "N3H6Y7",
    "result": []
  },
  {
    "postal": "N3H0W7",
    "result": []
  },
  {
    "postal": "N3H2W9",
    "result": [
      {
        "electoralDistricts": [
          {
            "election": null,
            "id": 16,
            "name": "Cambridge"
          }
        ],
        "pollDivisionIds": [
          10137415
        ],
        "postalCode": "N3H2W9",
        "streetName": "SHERRING",
        "streetDirectionId": null,
        "streetTypeId": "ST",
        "placeName": "CAMBRIDGE",
        "streetNameDisplayText": "SHERRING ST, CAMBRIDGE"
      }
    ]
  },
  {
    "postal": "N3H8V0",
    "result": []
  },
  {
    "postal": "N3H0H4",
    "result": []
  },
  {
    "postal": "N3H2T1",
    "result": [
      {
        "electoralDistricts": [
          {
            "election": null,
            "id": 16,
            "name": "Cambridge"
          }
        ],
        "pollDivisionIds": [
          10137418
        ],
        "postalCode": "N3H2T1",
        "streetName": "EASTDOWNS",
        "streetDirectionId": null,
        "streetTypeId": "DR",
        "placeName": "CAMBRIDGE",
        "streetNameDisplayText": "EASTDOWNS DR, CAMBRIDGE"
      }
    ]
  },
  {
    "postal": "N3H1B1",
    "result": [
      {
        "electoralDistricts": [
          {
            "election": null,
            "id": 16,
            "name": "Cambridge"
          }
        ],
        "pollDivisionIds": [
          10137416
        ],
        "postalCode": "N3H1B1",
        "streetName": "LYDIA",
        "streetDirectionId": null,
        "streetTypeId": "ST",
        "placeName": "CAMBRIDGE",
        "streetNameDisplayText": "LYDIA ST, CAMBRIDGE"
      }
    ]
  },
  {
    "postal": "N3H8B6",
    "result": []
  },
  {
    "postal": "N3H6H1",
    "result": []
  },
  {
    "postal": "N3H8T8",
    "result": []
  },
  {
    "postal": "N3H0T4",
    "result": []
  },
  {
    "postal": "N3H2C4",
    "result": [
      {
        "electoralDistricts": [
          {
            "election": null,
            "id": 16,
            "name": "Cambridge"
          }
        ],
        "pollDivisionIds": [
          10137418
        ],
        "postalCode": "N3H2C4",
        "streetName": "FRONT",
        "streetDirectionId": null,
        "streetTypeId": "ST",
        "placeName": "CAMBRIDGE",
        "streetNameDisplayText": "FRONT ST, CAMBRIDGE"
      }
    ]
  },
  {
    "postal": "N3H8N3",
    "result": []
  },
  {
    "postal": "N3H4L8",
    "result": [
      {
        "electoralDistricts": [
          {
            "election": null,
            "id": 16,
            "name": "Cambridge"
          }
        ],
        "pollDivisionIds": [
          10137418
        ],
        "postalCode": "N3H4L8",
        "streetName": "CONCESSION",
        "streetDirectionId": null,
        "streetTypeId": "RD",
        "placeName": "CAMBRIDGE",
        "streetNameDisplayText": "CONCESSION RD, CAMBRIDGE"
      }
    ]
  },
  {
    "postal": "N3H2B5",
    "result": [
      {
        "electoralDistricts": [
          {
            "election": null,
            "id": 16,
            "name": "Cambridge"
          }
        ],
        "pollDivisionIds": [
          10137418
        ],
        "postalCode": "N3H2B5",
        "streetName": "DOLPH",
        "streetDirectionId": "N",
        "streetTypeId": "ST",
        "placeName": "CAMBRIDGE",
        "streetNameDisplayText": "DOLPH ST N, CAMBRIDGE"
      }
    ]
  },
  {
    "postal": "N3H3H1",
    "result": [
      {
        "electoralDistricts": [
          {
            "election": null,
            "id": 16,
            "name": "Cambridge"
          }
        ],
        "pollDivisionIds": [
          10137418
        ],
        "postalCode": "N3H3H1",
        "streetName": "BLUE HERON",
        "streetDirectionId": null,
        "streetTypeId": "RIDGE",
        "placeName": "CAMBRIDGE",
        "streetNameDisplayText": "BLUE HERON RIDGE, CAMBRIDGE"
      }
    ]
  },
  {
    "postal": "N3H4Y1",
    "result": [
      {
        "electoralDistricts": [
          {
            "election": null,
            "id": 16,
            "name": "Cambridge"
          }
        ],
        "pollDivisionIds": [
          10137413
        ],
        "postalCode": "N3H4Y1",
        "streetName": "LINDEN",
        "streetDirectionId": null,
        "streetTypeId": "DR",
        "placeName": "CAMBRIDGE",
        "streetNameDisplayText": "LINDEN DR, CAMBRIDGE"
      }
    ]
  },
  {
    "postal": "N3H7E2",
    "result": []
  },
  {
    "postal": "N3H2P5",
    "result": [
      {
        "electoralDistricts": [
          {
            "election": null,
            "id": 16,
            "name": "Cambridge"
          }
        ],
        "pollDivisionIds": [
          10137418
        ],
        "postalCode": "N3H2P5",
        "streetName": "MONTROSE",
        "streetDirectionId": "N",
        "streetTypeId": "ST",
        "placeName": "CAMBRIDGE",
        "streetNameDisplayText": "MONTROSE ST N, CAMBRIDGE"
      }
    ]
  },
  {
    "postal": "N3H8R7",
    "result": []
  },
  {
    "postal": "N3H9P1",
    "result": []
  },
  {
    "postal": "N3H3B8",
    "result": [
      {
        "electoralDistricts": [
          {
            "election": null,
            "id": 16,
            "name": "Cambridge"
          }
        ],
        "pollDivisionIds": [
          10137415
        ],
        "postalCode": "N3H3B8",
        "streetName": "MOORE",
        "streetDirectionId": null,
        "streetTypeId": "ST",
        "placeName": "CAMBRIDGE",
        "streetNameDisplayText": "MOORE ST, CAMBRIDGE"
      }
    ]
  },
  {
    "postal": "N3H3P7",
    "result": [
      {
        "electoralDistricts": [
          {
            "election": null,
            "id": 16,
            "name": "Cambridge"
          }
        ],
        "pollDivisionIds": [
          10137418
        ],
        "postalCode": "N3H3P7",
        "streetName": "KING",
        "streetDirectionId": "E",
        "streetTypeId": "ST",
        "placeName": "CAMBRIDGE",
        "streetNameDisplayText": "KING ST E, CAMBRIDGE"
      }
    ]
  },
  {
    "postal": "N3H9B2",
    "result": []
  },
  {
    "postal": "N3H6Z3",
    "result": []
  },
  {
    "postal": "N3H4N5",
    "result": [
      {
        "electoralDistricts": [
          {
            "election": null,
            "id": 16,
            "name": "Cambridge"
          }
        ],
        "pollDivisionIds": [
          10137418
        ],
        "postalCode": "N3H4N5",
        "streetName": "MARY",
        "streetDirectionId": null,
        "streetTypeId": "AVE",
        "placeName": "CAMBRIDGE",
        "streetNameDisplayText": "MARY AVE, CAMBRIDGE"
      }
    ]
  },
  {
    "postal": "N3H8T3",
    "result": []
  },
  {
    "postal": "N3H1V2",
    "result": [
      {
        "electoralDistricts": [
          {
            "election": null,
            "id": 16,
            "name": "Cambridge"
          }
        ],
        "pollDivisionIds": [
          10137415
        ],
        "postalCode": "N3H1V2",
        "streetName": "WESTMINSTER",
        "streetDirectionId": "S",
        "streetTypeId": "DR",
        "placeName": "CAMBRIDGE",
        "streetNameDisplayText": "WESTMINSTER DR S, CAMBRIDGE"
      }
    ]
  },
  {
    "postal": "N3H1Y0",
    "result": []
  },
  {
    "postal": "N3H3G6",
    "result": [
      {
        "electoralDistricts": [
          {
            "election": null,
            "id": 16,
            "name": "Cambridge"
          }
        ],
        "pollDivisionIds": [
          10137418
        ],
        "postalCode": "N3H3G6",
        "streetName": "HAMILTON",
        "streetDirectionId": null,
        "streetTypeId": "ST",
        "placeName": "CAMBRIDGE",
        "streetNameDisplayText": "HAMILTON ST, CAMBRIDGE"
      }
    ]
  },
  {
    "postal": "N3H3H7",
    "result": [
      {
        "electoralDistricts": [
          {
            "election": null,
            "id": 16,
            "name": "Cambridge"
          }
        ],
        "pollDivisionIds": [
          10137418
        ],
        "postalCode": "N3H3H7",
        "streetName": "HIGHLAND",
        "streetDirectionId": null,
        "streetTypeId": "PK",
        "placeName": "CAMBRIDGE",
        "streetNameDisplayText": "HIGHLAND PK, CAMBRIDGE"
      }
    ]
  },
  {
    "postal": "N3H7X8",
    "result": []
  },
  {
    "postal": "N3H0C7",
    "result": [
      {
        "electoralDistricts": [
          {
            "election": null,
            "id": 16,
            "name": "Cambridge"
          }
        ],
        "pollDivisionIds": [
          10137411
        ],
        "postalCode": "N3H0C7",
        "streetName": "LINDEN",
        "streetDirectionId": null,
        "streetTypeId": "DR",
        "placeName": "CAMBRIDGE",
        "streetNameDisplayText": "LINDEN DR, CAMBRIDGE"
      }
    ]
  },
  {
    "postal": "N3H0W9",
    "result": []
  },
  {
    "postal": "N3H8E6",
    "result": []
  },
  {
    "postal": "N3H9Z8",
    "result": []
  },
  {
    "postal": "N3H3P4",
    "result": [
      {
        "electoralDistricts": [
          {
            "election": null,
            "id": 16,
            "name": "Cambridge"
          }
        ],
        "pollDivisionIds": [
          10137414
        ],
        "postalCode": "N3H3P4",
        "streetName": "KING",
        "streetDirectionId": "E",
        "streetTypeId": "ST",
        "placeName": "CAMBRIDGE",
        "streetNameDisplayText": "KING ST E, CAMBRIDGE"
      }
    ]
  },
  {
    "postal": "N3H6L8",
    "result": []
  },
  {
    "postal": "N3H2R4",
    "result": [
      {
        "electoralDistricts": [
          {
            "election": null,
            "id": 16,
            "name": "Cambridge"
          }
        ],
        "pollDivisionIds": [
          10137418,
          10137415
        ],
        "postalCode": "N3H2R4",
        "streetName": "PHILIP",
        "streetDirectionId": null,
        "streetTypeId": "CRES",
        "placeName": "CAMBRIDGE",
        "streetNameDisplayText": "PHILIP CRES, CAMBRIDGE"
      }
    ]
  },
  {
    "postal": "N3H2W1",
    "result": [
      {
        "electoralDistricts": [
          {
            "election": null,
            "id": 16,
            "name": "Cambridge"
          }
        ],
        "pollDivisionIds": [
          10137415
        ],
        "postalCode": "N3H2W1",
        "streetName": "BEAVER",
        "streetDirectionId": null,
        "streetTypeId": "ST",
        "placeName": "CAMBRIDGE",
        "streetNameDisplayText": "BEAVER ST, CAMBRIDGE"
      }
    ]
  },
  {
    "postal": "N3H9H8",
    "result": []
  },
  {
    "postal": "N3H8X9",
    "result": []
  },
  {
    "postal": "N3H7H4",
    "result": []
  },
  {
    "postal": "N3H3J1",
    "result": [
      {
        "electoralDistricts": [
          {
            "election": null,
            "id": 16,
            "name": "Cambridge"
          }
        ],
        "pollDivisionIds": [
          10137414
        ],
        "postalCode": "N3H3J1",
        "streetName": "QUEENSTON",
        "streetDirectionId": null,
        "streetTypeId": "RD",
        "placeName": "CAMBRIDGE",
        "streetNameDisplayText": "QUEENSTON RD, CAMBRIDGE"
      }
    ]
  },
  {
    "postal": "N3H1P4",
    "result": [
      {
        "electoralDistricts": [
          {
            "election": null,
            "id": 16,
            "name": "Cambridge"
          }
        ],
        "pollDivisionIds": [
          10137415
        ],
        "postalCode": "N3H1P4",
        "streetName": "WATERLOO",
        "streetDirectionId": "S",
        "streetTypeId": "ST",
        "placeName": "CAMBRIDGE",
        "streetNameDisplayText": "WATERLOO ST S, CAMBRIDGE"
      }
    ]
  },
  {
    "postal": "N3H2A3",
    "result": [
      {
        "electoralDistricts": [
          {
            "election": null,
            "id": 16,
            "name": "Cambridge"
          }
        ],
        "pollDivisionIds": [
          10137418
        ],
        "postalCode": "N3H2A3",
        "streetName": "FREDERICK",
        "streetDirectionId": null,
        "streetTypeId": "ST",
        "placeName": "CAMBRIDGE",
        "streetNameDisplayText": "FREDERICK ST, CAMBRIDGE"
      }
    ]
  },
  {
    "postal": "N3H0Z1",
    "result": []
  },
  {
    "postal": "N3H1C1",
    "result": [
      {
        "electoralDistricts": [
          {
            "election": null,
            "id": 16,
            "name": "Cambridge"
          }
        ],
        "pollDivisionIds": [
          10137414
        ],
        "postalCode": "N3H1C1",
        "streetName": "EAGLE",
        "streetDirectionId": "N",
        "streetTypeId": "ST",
        "placeName": "CAMBRIDGE",
        "streetNameDisplayText": "EAGLE ST N, CAMBRIDGE"
      }
    ]
  },
  {
    "postal": "N3H0H3",
    "result": []
  },
  {
    "postal": "N3H7B0",
    "result": []
  },
  {
    "postal": "N3H5K2",
    "result": []
  },
  {
    "postal": "N3H1E9",
    "result": [
      {
        "electoralDistricts": [
          {
            "election": null,
            "id": 16,
            "name": "Cambridge"
          }
        ],
        "pollDivisionIds": [
          10137415
        ],
        "postalCode": "N3H1E9",
        "streetName": "EAGLE",
        "streetDirectionId": "S",
        "streetTypeId": "ST",
        "placeName": "CAMBRIDGE",
        "streetNameDisplayText": "EAGLE ST S, CAMBRIDGE"
      }
    ]
  },
  {
    "postal": "N3H9W7",
    "result": []
  },
  {
    "postal": "N3H5W6",
    "result": []
  },
  {
    "postal": "N3H6S6",
    "result": []
  },
  {
    "postal": "N3H2P8",
    "result": [
      {
        "electoralDistricts": [
          {
            "election": null,
            "id": 16,
            "name": "Cambridge"
          }
        ],
        "pollDivisionIds": [
          10137418
        ],
        "postalCode": "N3H2P8",
        "streetName": "MICHAEL",
        "streetDirectionId": null,
        "streetTypeId": "CRES",
        "placeName": "CAMBRIDGE",
        "streetNameDisplayText": "MICHAEL CRES, CAMBRIDGE"
      }
    ]
  },
  {
    "postal": "N3H4P8",
    "result": [
      {
        "electoralDistricts": [
          {
            "election": null,
            "id": 16,
            "name": "Cambridge"
          }
        ],
        "pollDivisionIds": [
          10137418
        ],
        "postalCode": "N3H4P8",
        "streetName": "VALENTINE",
        "streetDirectionId": null,
        "streetTypeId": "DR",
        "placeName": "CAMBRIDGE",
        "streetNameDisplayText": "VALENTINE DR, CAMBRIDGE"
      }
    ]
  },
  {
    "postal": "N3H0V9",
    "result": []
  },
  {
    "postal": "N3H5Y2",
    "result": []
  },
  {
    "postal": "N3H7Z7",
    "result": []
  },
  {
    "postal": "N3H6Y8",
    "result": []
  },
  {
    "postal": "N3H2G7",
    "result": [
      {
        "electoralDistricts": [
          {
            "election": null,
            "id": 16,
            "name": "Cambridge"
          }
        ],
        "pollDivisionIds": [
          10137418
        ],
        "postalCode": "N3H2G7",
        "streetName": "GILLIES",
        "streetDirectionId": null,
        "streetTypeId": "ST",
        "placeName": "CAMBRIDGE",
        "streetNameDisplayText": "GILLIES ST, CAMBRIDGE"
      }
    ]
  },
  {
    "postal": "N3H8C1",
    "result": []
  },
  {
    "postal": "N3H5C5",
    "result": [
      {
        "electoralDistricts": [
          {
            "election": null,
            "id": 16,
            "name": "Cambridge"
          }
        ],
        "pollDivisionIds": [
          10137418
        ],
        "postalCode": "N3H5C5",
        "streetName": "DOLPH",
        "streetDirectionId": "N",
        "streetTypeId": "ST",
        "placeName": "CAMBRIDGE",
        "streetNameDisplayText": "DOLPH ST N, CAMBRIDGE"
      }
    ]
  },
  {
    "postal": "N3H2X8",
    "result": [
      {
        "electoralDistricts": [
          {
            "election": null,
            "id": 16,
            "name": "Cambridge"
          }
        ],
        "pollDivisionIds": [
          10137418
        ],
        "postalCode": "N3H2X8",
        "streetName": "SHERRING",
        "streetDirectionId": null,
        "streetTypeId": "ST",
        "placeName": "CAMBRIDGE",
        "streetNameDisplayText": "SHERRING ST, CAMBRIDGE"
      }
    ]
  },
  {
    "postal": "N3H1W5",
    "result": [
      {
        "electoralDistricts": [
          {
            "election": null,
            "id": 16,
            "name": "Cambridge"
          }
        ],
        "pollDivisionIds": [
          10137415
        ],
        "postalCode": "N3H1W5",
        "streetName": "CHURCH",
        "streetDirectionId": "S",
        "streetTypeId": "ST",
        "placeName": "CAMBRIDGE",
        "streetNameDisplayText": "CHURCH ST S, CAMBRIDGE"
      }
    ]
  },
  {
    "postal": "N3H7G0",
    "result": []
  },
  {
    "postal": "N3H8J8",
    "result": []
  },
  {
    "postal": "N3H3Y0",
    "result": []
  },
  {
    "postal": "N3H9T7",
    "result": []
  },
  {
    "postal": "N3H5P4",
    "result": []
  },
  {
    "postal": "N3H4B0",
    "result": []
  },
  {
    "postal": "N3H9N8",
    "result": []
  },
  {
    "postal": "N3H4A7",
    "result": [
      {
        "electoralDistricts": [
          {
            "election": null,
            "id": 16,
            "name": "Cambridge"
          }
        ],
        "pollDivisionIds": [
          10137414
        ],
        "postalCode": "N3H4A7",
        "streetName": "MELROSE",
        "streetDirectionId": null,
        "streetTypeId": "ST",
        "placeName": "CAMBRIDGE",
        "streetNameDisplayText": "MELROSE ST, CAMBRIDGE"
      }
    ]
  },
  {
    "postal": "N3H4H9",
    "result": [
      {
        "electoralDistricts": [
          {
            "election": null,
            "id": 16,
            "name": "Cambridge"
          }
        ],
        "pollDivisionIds": [
          10137416
        ],
        "postalCode": "N3H4H9",
        "streetName": "DURHAM",
        "streetDirectionId": null,
        "streetTypeId": "AVE",
        "placeName": "CAMBRIDGE",
        "streetNameDisplayText": "DURHAM AVE, CAMBRIDGE"
      }
    ]
  },
  {
    "postal": "N3H6X1",
    "result": []
  },
  {
    "postal": "N3H9Y7",
    "result": []
  },
  {
    "postal": "N3H2Y5",
    "result": [
      {
        "electoralDistricts": [
          {
            "election": null,
            "id": 16,
            "name": "Cambridge"
          }
        ],
        "pollDivisionIds": [
          10137415
        ],
        "postalCode": "N3H2Y5",
        "streetName": "VINE",
        "streetDirectionId": null,
        "streetTypeId": "ST",
        "placeName": "CAMBRIDGE",
        "streetNameDisplayText": "VINE ST, CAMBRIDGE"
      }
    ]
  },
  {
    "postal": "N3H8L7",
    "result": []
  },
  {
    "postal": "N3H2A8",
    "result": [
      {
        "electoralDistricts": [
          {
            "election": null,
            "id": 16,
            "name": "Cambridge"
          }
        ],
        "pollDivisionIds": [
          10137418
        ],
        "postalCode": "N3H2A8",
        "streetName": "DOLPH",
        "streetDirectionId": "N",
        "streetTypeId": "ST",
        "placeName": "CAMBRIDGE",
        "streetNameDisplayText": "DOLPH ST N, CAMBRIDGE"
      }
    ]
  },
  {
    "postal": "N3H2K9",
    "result": [
      {
        "electoralDistricts": [
          {
            "election": null,
            "id": 16,
            "name": "Cambridge"
          }
        ],
        "pollDivisionIds": [
          10137418
        ],
        "postalCode": "N3H2K9",
        "streetName": "BISHOP",
        "streetDirectionId": "N",
        "streetTypeId": "ST",
        "placeName": "CAMBRIDGE",
        "streetNameDisplayText": "BISHOP ST N, CAMBRIDGE"
      }
    ]
  },
  {
    "postal": "N3H3E5",
    "result": [
      {
        "electoralDistricts": [
          {
            "election": null,
            "id": 16,
            "name": "Cambridge"
          }
        ],
        "pollDivisionIds": [
          10137415
        ],
        "postalCode": "N3H3E5",
        "streetName": "HAMILTON",
        "streetDirectionId": null,
        "streetTypeId": "ST",
        "placeName": "CAMBRIDGE",
        "streetNameDisplayText": "HAMILTON ST, CAMBRIDGE"
      }
    ]
  },
  {
    "postal": "N3H8N6",
    "result": []
  },
  {
    "postal": "N3H8J4",
    "result": []
  },
  {
    "postal": "N3H4R7",
    "result": [
      {
        "electoralDistricts": [
          {
            "election": null,
            "id": 49,
            "name": "Kitchener SouthHespeler"
          }
        ],
        "pollDivisionIds": [
          10139304
        ],
        "postalCode": "N3H4R7",
        "streetName": "BARNES",
        "streetDirectionId": null,
        "streetTypeId": "RD",
        "placeName": "CAMBRIDGE",
        "streetNameDisplayText": "BARNES RD, CAMBRIDGE"
      },
      {
        "electoralDistricts": [
          {
            "election": null,
            "id": 49,
            "name": "Kitchener SouthHespeler"
          }
        ],
        "pollDivisionIds": [
          10139304
        ],
        "postalCode": "N3H4R7",
        "streetName": "CHERRY BLOSSOM",
        "streetDirectionId": null,
        "streetTypeId": "RD",
        "placeName": "CAMBRIDGE",
        "streetNameDisplayText": "CHERRY BLOSSOM RD, CAMBRIDGE"
      },
      {
        "electoralDistricts": [
          {
            "election": null,
            "id": 16,
            "name": "Cambridge"
          }
        ],
        "pollDivisionIds": [
          10137416,
          10137419
        ],
        "postalCode": "N3H4R7",
        "streetName": "EAGLE",
        "streetDirectionId": "N",
        "streetTypeId": "ST",
        "placeName": "CAMBRIDGE",
        "streetNameDisplayText": "EAGLE ST N, CAMBRIDGE"
      },
      {
        "electoralDistricts": [
          {
            "election": null,
            "id": 49,
            "name": "Kitchener SouthHespeler"
          }
        ],
        "pollDivisionIds": [
          10139304
        ],
        "postalCode": "N3H4R7",
        "streetName": "FOUNTAIN",
        "streetDirectionId": "N",
        "streetTypeId": "ST",
        "placeName": "CAMBRIDGE",
        "streetNameDisplayText": "FOUNTAIN ST N, CAMBRIDGE"
      },
      {
        "electoralDistricts": [
          {
            "election": null,
            "id": 16,
            "name": "Cambridge"
          }
        ],
        "pollDivisionIds": [
          10137416
        ],
        "postalCode": "N3H4R7",
        "streetName": "INDUSTRIAL",
        "streetDirectionId": null,
        "streetTypeId": "RD",
        "placeName": "CAMBRIDGE",
        "streetNameDisplayText": "INDUSTRIAL RD, CAMBRIDGE"
      },
      {
        "electoralDistricts": [
          {
            "election": null,
            "id": 49,
            "name": "Kitchener SouthHespeler"
          }
        ],
        "pollDivisionIds": [
          10139304
        ],
        "postalCode": "N3H4R7",
        "streetName": "KOSSUTH",
        "streetDirectionId": null,
        "streetTypeId": "RD",
        "placeName": "CAMBRIDGE",
        "streetNameDisplayText": "KOSSUTH RD, CAMBRIDGE"
      },
      {
        "electoralDistricts": [
          {
            "election": null,
            "id": 49,
            "name": "Kitchener SouthHespeler"
          }
        ],
        "pollDivisionIds": [
          10139304
        ],
        "postalCode": "N3H4R7",
        "streetName": "MAPLE GROVE",
        "streetDirectionId": null,
        "streetTypeId": "RD",
        "placeName": "CAMBRIDGE",
        "streetNameDisplayText": "MAPLE GROVE RD, CAMBRIDGE"
      },
      {
        "electoralDistricts": [
          {
            "election": null,
            "id": 16,
            "name": "Cambridge"
          }
        ],
        "pollDivisionIds": [
          10137416
        ],
        "postalCode": "N3H4R7",
        "streetName": "MCGOVERN",
        "streetDirectionId": null,
        "streetTypeId": "DR",
        "placeName": "CAMBRIDGE",
        "streetNameDisplayText": "MCGOVERN DR, CAMBRIDGE"
      },
      {
        "electoralDistricts": [
          {
            "election": null,
            "id": 49,
            "name": "Kitchener SouthHespeler"
          }
        ],
        "pollDivisionIds": [
          10139304
        ],
        "postalCode": "N3H4R7",
        "streetName": "ROYAL OAK",
        "streetDirectionId": null,
        "streetTypeId": "RD",
        "placeName": "CAMBRIDGE",
        "streetNameDisplayText": "ROYAL OAK RD, CAMBRIDGE"
      },
      {
        "electoralDistricts": [
          {
            "election": null,
            "id": 49,
            "name": "Kitchener SouthHespeler"
          }
        ],
        "pollDivisionIds": [
          10139304
        ],
        "postalCode": "N3H4R7",
        "streetName": "SALTSMAN",
        "streetDirectionId": null,
        "streetTypeId": "DR",
        "placeName": "CAMBRIDGE",
        "streetNameDisplayText": "SALTSMAN DR, CAMBRIDGE"
      },
      {
        "electoralDistricts": [
          {
            "election": null,
            "id": 16,
            "name": "Cambridge"
          }
        ],
        "pollDivisionIds": [
          10137416
        ],
        "postalCode": "N3H4R7",
        "streetName": "WITMER",
        "streetDirectionId": null,
        "streetTypeId": "ST",
        "placeName": "CAMBRIDGE",
        "streetNameDisplayText": "WITMER ST, CAMBRIDGE"
      }
    ]
  },
  {
    "postal": "N3H9K1",
    "result": []
  },
  {
    "postal": "N3H8E1",
    "result": []
  },
  {
    "postal": "N3H0R1",
    "result": []
  },
  {
    "postal": "N3H4J3",
    "result": [
      {
        "electoralDistricts": [
          {
            "election": null,
            "id": 16,
            "name": "Cambridge"
          }
        ],
        "pollDivisionIds": [
          10137414
        ],
        "postalCode": "N3H4J3",
        "streetName": "OAKWOOD",
        "streetDirectionId": null,
        "streetTypeId": "AVE",
        "placeName": "CAMBRIDGE",
        "streetNameDisplayText": "OAKWOOD AVE, CAMBRIDGE"
      }
    ]
  },
  {
    "postal": "N3H7E7",
    "result": []
  },
  {
    "postal": "N3H0J0",
    "result": []
  },
  {
    "postal": "N3H7R8",
    "result": []
  },
  {
    "postal": "N3H9X0",
    "result": []
  },
  {
    "postal": "N3H7P6",
    "result": []
  },
  {
    "postal": "N3H0R7",
    "result": []
  },
  {
    "postal": "N3H5W1",
    "result": []
  },
  {
    "postal": "N3H0K4",
    "result": []
  },
  {
    "postal": "N3H7N9",
    "result": []
  },
  {
    "postal": "N3H1N0",
    "result": []
  },
  {
    "postal": "N3H6P3",
    "result": []
  },
  {
    "postal": "N3H5A1",
    "result": [
      {
        "electoralDistricts": [
          {
            "election": null,
            "id": 16,
            "name": "Cambridge"
          }
        ],
        "pollDivisionIds": [
          10137413
        ],
        "postalCode": "N3H5A1",
        "streetName": "PARKVIEW",
        "streetDirectionId": null,
        "streetTypeId": "CRES",
        "placeName": "CAMBRIDGE",
        "streetNameDisplayText": "PARKVIEW CRES, CAMBRIDGE"
      }
    ]
  },
  {
    "postal": "N3H9M9",
    "result": []
  },
  {
    "postal": "N3H7T6",
    "result": []
  },
  {
    "postal": "N3H3X0",
    "result": []
  },
  {
    "postal": "N3H2T0",
    "result": []
  },
  {
    "postal": "N3H5X9",
    "result": []
  },
  {
    "postal": "N3H2R3",
    "result": [
      {
        "electoralDistricts": [
          {
            "election": null,
            "id": 16,
            "name": "Cambridge"
          }
        ],
        "pollDivisionIds": [
          10137418
        ],
        "postalCode": "N3H2R3",
        "streetName": "GRIMMS",
        "streetDirectionId": null,
        "streetTypeId": "DR",
        "placeName": "CAMBRIDGE",
        "streetNameDisplayText": "GRIMMS DR, CAMBRIDGE"
      }
    ]
  },
  {
    "postal": "N3H5N2",
    "result": [
      {
        "electoralDistricts": [
          {
            "election": null,
            "id": 16,
            "name": "Cambridge"
          }
        ],
        "pollDivisionIds": [
          10137418
        ],
        "postalCode": "N3H5N2",
        "streetName": "BISHOP",
        "streetDirectionId": "S",
        "streetTypeId": "ST",
        "placeName": "CAMBRIDGE",
        "streetNameDisplayText": "BISHOP ST S, CAMBRIDGE"
      }
    ]
  },
  {
    "postal": "N3H4Y7",
    "result": [
      {
        "electoralDistricts": [
          {
            "election": null,
            "id": 16,
            "name": "Cambridge"
          }
        ],
        "pollDivisionIds": [
          10137416
        ],
        "postalCode": "N3H4Y7",
        "streetName": "SHANNON",
        "streetDirectionId": null,
        "streetTypeId": "DR",
        "placeName": "CAMBRIDGE",
        "streetNameDisplayText": "SHANNON DR, CAMBRIDGE"
      }
    ]
  },
  {
    "postal": "N3H7M0",
    "result": []
  },
  {
    "postal": "N3H8P3",
    "result": []
  },
  {
    "postal": "N3H3N3",
    "result": []
  },
  {
    "postal": "N3H7S3",
    "result": []
  },
  {
    "postal": "N3H3V9",
    "result": [
      {
        "electoralDistricts": [
          {
            "election": null,
            "id": 16,
            "name": "Cambridge"
          }
        ],
        "pollDivisionIds": [
          10137418
        ],
        "postalCode": "N3H3V9",
        "streetName": "DUKE",
        "streetDirectionId": null,
        "streetTypeId": "ST",
        "placeName": "CAMBRIDGE",
        "streetNameDisplayText": "DUKE ST, CAMBRIDGE"
      }
    ]
  },
  {
    "postal": "N3H9N7",
    "result": []
  },
  {
    "postal": "N3H0G4",
    "result": []
  },
  {
    "postal": "N3H2E2",
    "result": [
      {
        "electoralDistricts": [
          {
            "election": null,
            "id": 16,
            "name": "Cambridge"
          }
        ],
        "pollDivisionIds": [
          10137418
        ],
        "postalCode": "N3H2E2",
        "streetName": "CLARE",
        "streetDirectionId": null,
        "streetTypeId": "AVE",
        "placeName": "CAMBRIDGE",
        "streetNameDisplayText": "CLARE AVE, CAMBRIDGE"
      }
    ]
  },
  {
    "postal": "N3H7W8",
    "result": []
  },
  {
    "postal": "N3H7M5",
    "result": []
  },
  {
    "postal": "N3H5W8",
    "result": []
  },
  {
    "postal": "N3H5E5",
    "result": [
      {
        "electoralDistricts": [
          {
            "election": null,
            "id": 16,
            "name": "Cambridge"
          }
        ],
        "pollDivisionIds": [
          10137414
        ],
        "postalCode": "N3H5E5",
        "streetName": "NELSON",
        "streetDirectionId": null,
        "streetTypeId": "ST",
        "placeName": "CAMBRIDGE",
        "streetNameDisplayText": "NELSON ST, CAMBRIDGE"
      }
    ]
  },
  {
    "postal": "N3H1P9",
    "result": [
      {
        "electoralDistricts": [
          {
            "election": null,
            "id": 16,
            "name": "Cambridge"
          }
        ],
        "pollDivisionIds": [
          10137415
        ],
        "postalCode": "N3H1P9",
        "streetName": "ARGYLE",
        "streetDirectionId": "S",
        "streetTypeId": "ST",
        "placeName": "CAMBRIDGE",
        "streetNameDisplayText": "ARGYLE ST S, CAMBRIDGE"
      }
    ]
  },
  {
    "postal": "N3H8V8",
    "result": []
  },
  {
    "postal": "N3H9G8",
    "result": []
  },
  {
    "postal": "N3H8H9",
    "result": []
  },
  {
    "postal": "N3H1Z1",
    "result": [
      {
        "electoralDistricts": [
          {
            "election": null,
            "id": 16,
            "name": "Cambridge"
          }
        ],
        "pollDivisionIds": [
          10137415
        ],
        "postalCode": "N3H1Z1",
        "streetName": "LOWTHER",
        "streetDirectionId": "S",
        "streetTypeId": "ST",
        "placeName": "CAMBRIDGE",
        "streetNameDisplayText": "LOWTHER ST S, CAMBRIDGE"
      }
    ]
  },
  {
    "postal": "N3H8M3",
    "result": []
  },
  {
    "postal": "N3H5H6",
    "result": []
  },
  {
    "postal": "N3H7W7",
    "result": []
  },
  {
    "postal": "N3H4L0",
    "result": []
  },
  {
    "postal": "N3H2N1",
    "result": [
      {
        "electoralDistricts": [
          {
            "election": null,
            "id": 16,
            "name": "Cambridge"
          }
        ],
        "pollDivisionIds": [
          10137416,
          10137414
        ],
        "postalCode": "N3H2N1",
        "streetName": "LAWRENCE",
        "streetDirectionId": null,
        "streetTypeId": "ST",
        "placeName": "CAMBRIDGE",
        "streetNameDisplayText": "LAWRENCE ST, CAMBRIDGE"
      }
    ]
  },
  {
    "postal": "N3H2H4",
    "result": [
      {
        "electoralDistricts": [
          {
            "election": null,
            "id": 16,
            "name": "Cambridge"
          }
        ],
        "pollDivisionIds": [
          10137418
        ],
        "postalCode": "N3H2H4",
        "streetName": "MONTROSE",
        "streetDirectionId": "N",
        "streetTypeId": "ST",
        "placeName": "CAMBRIDGE",
        "streetNameDisplayText": "MONTROSE ST N, CAMBRIDGE"
      }
    ]
  },
  {
    "postal": "N3H5C8",
    "result": [
      {
        "electoralDistricts": [
          {
            "election": null,
            "id": 16,
            "name": "Cambridge"
          }
        ],
        "pollDivisionIds": [
          10137414
        ],
        "postalCode": "N3H5C8",
        "streetName": "WESTMINSTER",
        "streetDirectionId": "N",
        "streetTypeId": "DR",
        "placeName": "CAMBRIDGE",
        "streetNameDisplayText": "WESTMINSTER DR N, CAMBRIDGE"
      }
    ]
  },
  {
    "postal": "N3H8B0",
    "result": []
  },
  {
    "postal": "N3H1T4",
    "result": [
      {
        "electoralDistricts": [
          {
            "election": null,
            "id": 16,
            "name": "Cambridge"
          }
        ],
        "pollDivisionIds": [
          10137415
        ],
        "postalCode": "N3H1T4",
        "streetName": "WESTMINSTER",
        "streetDirectionId": "S",
        "streetTypeId": "DR",
        "placeName": "CAMBRIDGE",
        "streetNameDisplayText": "WESTMINSTER DR S, CAMBRIDGE"
      }
    ]
  },
  {
    "postal": "N3H7N7",
    "result": []
  },
  {
    "postal": "N3H4L3",
    "result": [
      {
        "electoralDistricts": [
          {
            "election": null,
            "id": 16,
            "name": "Cambridge"
          }
        ],
        "pollDivisionIds": [
          10137416
        ],
        "postalCode": "N3H4L3",
        "streetName": "CONCESSION",
        "streetDirectionId": null,
        "streetTypeId": "RD",
        "placeName": "CAMBRIDGE",
        "streetNameDisplayText": "CONCESSION RD, CAMBRIDGE"
      }
    ]
  },
  {
    "postal": "N3H2N2",
    "result": [
      {
        "electoralDistricts": [
          {
            "election": null,
            "id": 16,
            "name": "Cambridge"
          }
        ],
        "pollDivisionIds": [
          10137417
        ],
        "postalCode": "N3H2N2",
        "streetName": "PATTERSON",
        "streetDirectionId": null,
        "streetTypeId": "PL",
        "placeName": "CAMBRIDGE",
        "streetNameDisplayText": "PATTERSON PL, CAMBRIDGE"
      }
    ]
  },
  {
    "postal": "N3H4N8",
    "result": [
      {
        "electoralDistricts": [
          {
            "election": null,
            "id": 16,
            "name": "Cambridge"
          }
        ],
        "pollDivisionIds": [
          10137418
        ],
        "postalCode": "N3H4N8",
        "streetName": "MARY",
        "streetDirectionId": null,
        "streetTypeId": "AVE",
        "placeName": "CAMBRIDGE",
        "streetNameDisplayText": "MARY AVE, CAMBRIDGE"
      }
    ]
  },
  {
    "postal": "N3H3M5",
    "result": [
      {
        "electoralDistricts": [
          {
            "election": null,
            "id": 16,
            "name": "Cambridge"
          }
        ],
        "pollDivisionIds": [
          10137414
        ],
        "postalCode": "N3H3M5",
        "streetName": "KING",
        "streetDirectionId": "E",
        "streetTypeId": "ST",
        "placeName": "CAMBRIDGE",
        "streetNameDisplayText": "KING ST E, CAMBRIDGE"
      }
    ]
  },
  {
    "postal": "N3H6H7",
    "result": []
  },
  {
    "postal": "N3H8Y8",
    "result": []
  },
  {
    "postal": "N3H5R9",
    "result": []
  },
  {
    "postal": "N3H8G3",
    "result": []
  },
  {
    "postal": "N3H4N7",
    "result": [
      {
        "electoralDistricts": [
          {
            "election": null,
            "id": 16,
            "name": "Cambridge"
          }
        ],
        "pollDivisionIds": [
          10137418,
          10137414
        ],
        "postalCode": "N3H4N7",
        "streetName": "MARY",
        "streetDirectionId": null,
        "streetTypeId": "AVE",
        "placeName": "CAMBRIDGE",
        "streetNameDisplayText": "MARY AVE, CAMBRIDGE"
      }
    ]
  },
  {
    "postal": "N3H0B9",
    "result": [
      {
        "electoralDistricts": [
          {
            "election": null,
            "id": 16,
            "name": "Cambridge"
          }
        ],
        "pollDivisionIds": [
          10137411
        ],
        "postalCode": "N3H0B9",
        "streetName": "DUCKWORTH",
        "streetDirectionId": null,
        "streetTypeId": "RD",
        "placeName": "CAMBRIDGE",
        "streetNameDisplayText": "DUCKWORTH RD, CAMBRIDGE"
      },
      {
        "electoralDistricts": [
          {
            "election": null,
            "id": 16,
            "name": "Cambridge"
          }
        ],
        "pollDivisionIds": [
          10137410,
          10137411
        ],
        "postalCode": "N3H0B9",
        "streetName": "KNOTTY PINE",
        "streetDirectionId": null,
        "streetTypeId": "AVE",
        "placeName": "CAMBRIDGE",
        "streetNameDisplayText": "KNOTTY PINE AVE, CAMBRIDGE"
      }
    ]
  },
  {
    "postal": "N3H9K7",
    "result": []
  },
  {
    "postal": "N3H9K9",
    "result": []
  },
  {
    "postal": "N3H3Z2",
    "result": [
      {
        "electoralDistricts": [
          {
            "election": null,
            "id": 16,
            "name": "Cambridge"
          }
        ],
        "pollDivisionIds": [
          10137414
        ],
        "postalCode": "N3H3Z2",
        "streetName": "LAUREL",
        "streetDirectionId": null,
        "streetTypeId": "ST",
        "placeName": "CAMBRIDGE",
        "streetNameDisplayText": "LAUREL ST, CAMBRIDGE"
      }
    ]
  },
  {
    "postal": "N3H6W7",
    "result": []
  },
  {
    "postal": "N3H0P1",
    "result": []
  },
  {
    "postal": "N3H3A0",
    "result": []
  },
  {
    "postal": "N3H8L9",
    "result": []
  },
  {
    "postal": "N3H6X0",
    "result": []
  },
  {
    "postal": "N3H3E9",
    "result": [
      {
        "electoralDistricts": [
          {
            "election": null,
            "id": 16,
            "name": "Cambridge"
          }
        ],
        "pollDivisionIds": [
          10137418
        ],
        "postalCode": "N3H3E9",
        "streetName": "HAMILTON",
        "streetDirectionId": null,
        "streetTypeId": "ST",
        "placeName": "CAMBRIDGE",
        "streetNameDisplayText": "HAMILTON ST, CAMBRIDGE"
      }
    ]
  },
  {
    "postal": "N3H0S5",
    "result": []
  },
  {
    "postal": "N3H1A2",
    "result": [
      {
        "electoralDistricts": [
          {
            "election": null,
            "id": 16,
            "name": "Cambridge"
          }
        ],
        "pollDivisionIds": [
          10137416
        ],
        "postalCode": "N3H1A2",
        "streetName": "THORMAN",
        "streetDirectionId": null,
        "streetTypeId": "DR",
        "placeName": "CAMBRIDGE",
        "streetNameDisplayText": "THORMAN DR, CAMBRIDGE"
      }
    ]
  },
  {
    "postal": "N3H5V8",
    "result": []
  },
  {
    "postal": "N3H8C5",
    "result": []
  },
  {
    "postal": "N3H6N0",
    "result": []
  },
  {
    "postal": "N3H9E6",
    "result": []
  },
  {
    "postal": "N3H5J7",
    "result": [
      {
        "electoralDistricts": [
          {
            "election": null,
            "id": 16,
            "name": "Cambridge"
          }
        ],
        "pollDivisionIds": [
          10137411
        ],
        "postalCode": "N3H5J7",
        "streetName": "HALBERSTADT",
        "streetDirectionId": null,
        "streetTypeId": "CIR",
        "placeName": "CAMBRIDGE",
        "streetNameDisplayText": "HALBERSTADT CIR, CAMBRIDGE"
      }
    ]
  },
  {
    "postal": "N3H2R2",
    "result": [
      {
        "electoralDistricts": [
          {
            "election": null,
            "id": 16,
            "name": "Cambridge"
          }
        ],
        "pollDivisionIds": [
          10137418
        ],
        "postalCode": "N3H2R2",
        "streetName": "GRIMMS",
        "streetDirectionId": null,
        "streetTypeId": "DR",
        "placeName": "CAMBRIDGE",
        "streetNameDisplayText": "GRIMMS DR, CAMBRIDGE"
      }
    ]
  },
  {
    "postal": "N3H0P5",
    "result": []
  },
  {
    "postal": "N3H5A7",
    "result": [
      {
        "electoralDistricts": [
          {
            "election": null,
            "id": 16,
            "name": "Cambridge"
          }
        ],
        "pollDivisionIds": [
          10137418
        ],
        "postalCode": "N3H5A7",
        "streetName": "BRIARWOOD",
        "streetDirectionId": null,
        "streetTypeId": "DR",
        "placeName": "CAMBRIDGE",
        "streetNameDisplayText": "BRIARWOOD DR, CAMBRIDGE"
      }
    ]
  },
  {
    "postal": "N3H1G1",
    "result": [
      {
        "electoralDistricts": [
          {
            "election": null,
            "id": 16,
            "name": "Cambridge"
          }
        ],
        "pollDivisionIds": [
          10137414
        ],
        "postalCode": "N3H1G1",
        "streetName": "EAGLE",
        "streetDirectionId": "S",
        "streetTypeId": "ST",
        "placeName": "CAMBRIDGE",
        "streetNameDisplayText": "EAGLE ST S, CAMBRIDGE"
      }
    ]
  },
  {
    "postal": "N3H9R6",
    "result": []
  },
  {
    "postal": "N3H4Z9",
    "result": [
      {
        "electoralDistricts": [
          {
            "election": null,
            "id": 16,
            "name": "Cambridge"
          }
        ],
        "pollDivisionIds": [
          10137413
        ],
        "postalCode": "N3H4Z9",
        "streetName": "PARKVIEW",
        "streetDirectionId": null,
        "streetTypeId": "CRES",
        "placeName": "CAMBRIDGE",
        "streetNameDisplayText": "PARKVIEW CRES, CAMBRIDGE"
      }
    ]
  },
  {
    "postal": "N3H1V5",
    "result": [
      {
        "electoralDistricts": [
          {
            "election": null,
            "id": 16,
            "name": "Cambridge"
          }
        ],
        "pollDivisionIds": [
          10137415
        ],
        "postalCode": "N3H1V5",
        "streetName": "WESTMINSTER",
        "streetDirectionId": "S",
        "streetTypeId": "DR",
        "placeName": "CAMBRIDGE",
        "streetNameDisplayText": "WESTMINSTER DR S, CAMBRIDGE"
      }
    ]
  },
  {
    "postal": "N3H9Y5",
    "result": []
  },
  {
    "postal": "N3H1P2",
    "result": [
      {
        "electoralDistricts": [
          {
            "election": null,
            "id": 16,
            "name": "Cambridge"
          }
        ],
        "pollDivisionIds": [
          10137415
        ],
        "postalCode": "N3H1P2",
        "streetName": "WATERLOO",
        "streetDirectionId": "S",
        "streetTypeId": "ST",
        "placeName": "CAMBRIDGE",
        "streetNameDisplayText": "WATERLOO ST S, CAMBRIDGE"
      }
    ]
  },
  {
    "postal": "N3H5X0",
    "result": []
  },
  {
    "postal": "N3H7B8",
    "result": []
  },
  {
    "postal": "N3H0C6",
    "result": [
      {
        "electoralDistricts": [
          {
            "election": null,
            "id": 16,
            "name": "Cambridge"
          }
        ],
        "pollDivisionIds": [
          10137411
        ],
        "postalCode": "N3H0C6",
        "streetName": "LINDEN",
        "streetDirectionId": null,
        "streetTypeId": "DR",
        "placeName": "CAMBRIDGE",
        "streetNameDisplayText": "LINDEN DR, CAMBRIDGE"
      }
    ]
  },
  {
    "postal": "N3H6G1",
    "result": []
  },
  {
    "postal": "N3H3K3",
    "result": [
      {
        "electoralDistricts": [
          {
            "election": null,
            "id": 16,
            "name": "Cambridge"
          }
        ],
        "pollDivisionIds": [
          10137415
        ],
        "postalCode": "N3H3K3",
        "streetName": "QUEENSTON",
        "streetDirectionId": null,
        "streetTypeId": "RD",
        "placeName": "CAMBRIDGE",
        "streetNameDisplayText": "QUEENSTON RD, CAMBRIDGE"
      }
    ]
  },
  {
    "postal": "N3H9R0",
    "result": []
  },
  {
    "postal": "N3H4R8",
    "result": [
      {
        "electoralDistricts": [
          {
            "election": null,
            "id": 16,
            "name": "Cambridge"
          }
        ],
        "pollDivisionIds": [
          10137410
        ],
        "postalCode": "N3H4R8",
        "streetName": "ASHTON",
        "streetDirectionId": null,
        "streetTypeId": "ST",
        "placeName": "CAMBRIDGE",
        "streetNameDisplayText": "ASHTON ST, CAMBRIDGE"
      },
      {
        "electoralDistricts": [
          {
            "election": null,
            "id": 16,
            "name": "Cambridge"
          }
        ],
        "pollDivisionIds": [
          10137410
        ],
        "postalCode": "N3H4R8",
        "streetName": "BLAIR",
        "streetDirectionId": null,
        "streetTypeId": "RD",
        "placeName": "CAMBRIDGE",
        "streetNameDisplayText": "BLAIR RD, CAMBRIDGE"
      },
      {
        "electoralDistricts": [
          {
            "election": null,
            "id": 16,
            "name": "Cambridge"
          }
        ],
        "pollDivisionIds": [
          10137410
        ],
        "postalCode": "N3H4R8",
        "streetName": "DICKIE SETTLEMENT",
        "streetDirectionId": null,
        "streetTypeId": "RD",
        "placeName": "CAMBRIDGE",
        "streetNameDisplayText": "DICKIE SETTLEMENT RD, CAMBRIDGE"
      },
      {
        "electoralDistricts": [
          {
            "election": null,
            "id": 16,
            "name": "Cambridge"
          }
        ],
        "pollDivisionIds": [
          10137410
        ],
        "postalCode": "N3H4R8",
        "streetName": "FALLBROOK",
        "streetDirectionId": null,
        "streetTypeId": "LANE",
        "placeName": "CAMBRIDGE",
        "streetNameDisplayText": "FALLBROOK LANE, CAMBRIDGE"
      },
      {
        "electoralDistricts": [
          {
            "election": null,
            "id": 16,
            "name": "Cambridge"
          }
        ],
        "pollDivisionIds": [
          10137410
        ],
        "postalCode": "N3H4R8",
        "streetName": "HIGHGROVE",
        "streetDirectionId": null,
        "streetTypeId": "CRT",
        "placeName": "CAMBRIDGE",
        "streetNameDisplayText": "HIGHGROVE CRT, CAMBRIDGE"
      },
      {
        "electoralDistricts": [
          {
            "election": null,
            "id": 16,
            "name": "Cambridge"
          }
        ],
        "pollDivisionIds": [
          10137410
        ],
        "postalCode": "N3H4R8",
        "streetName": "JOAN",
        "streetDirectionId": null,
        "streetTypeId": "LANE",
        "placeName": "CAMBRIDGE",
        "streetNameDisplayText": "JOAN LANE, CAMBRIDGE"
      },
      {
        "electoralDistricts": [
          {
            "election": null,
            "id": 16,
            "name": "Cambridge"
          }
        ],
        "pollDivisionIds": [
          10137410
        ],
        "postalCode": "N3H4R8",
        "streetName": "JOHN BRICKER",
        "streetDirectionId": null,
        "streetTypeId": "RD",
        "placeName": "CAMBRIDGE",
        "streetNameDisplayText": "JOHN BRICKER RD, CAMBRIDGE"
      },
      {
        "electoralDistricts": [
          {
            "election": null,
            "id": 16,
            "name": "Cambridge"
          }
        ],
        "pollDivisionIds": [
          10137410
        ],
        "postalCode": "N3H4R8",
        "streetName": "JOHNBRICKER",
        "streetDirectionId": null,
        "streetTypeId": "RD",
        "placeName": "CAMBRIDGE",
        "streetNameDisplayText": "JOHNBRICKER RD, CAMBRIDGE"
      },
      {
        "electoralDistricts": [
          {
            "election": null,
            "id": 16,
            "name": "Cambridge"
          }
        ],
        "pollDivisionIds": [
          10137410
        ],
        "postalCode": "N3H4R8",
        "streetName": "LANGDON",
        "streetDirectionId": null,
        "streetTypeId": "DR",
        "placeName": "CAMBRIDGE",
        "streetNameDisplayText": "LANGDON DR, CAMBRIDGE"
      },
      {
        "electoralDistricts": [
          {
            "election": null,
            "id": 16,
            "name": "Cambridge"
          }
        ],
        "pollDivisionIds": [
          10137410
        ],
        "postalCode": "N3H4R8",
        "streetName": "MEADOWCREEK",
        "streetDirectionId": null,
        "streetTypeId": "LANE",
        "placeName": "CAMBRIDGE",
        "streetNameDisplayText": "MEADOWCREEK LANE, CAMBRIDGE"
      },
      {
        "electoralDistricts": [
          {
            "election": null,
            "id": 16,
            "name": "Cambridge"
          }
        ],
        "pollDivisionIds": [
          10137410
        ],
        "postalCode": "N3H4R8",
        "streetName": "MORNINGSIDE",
        "streetDirectionId": null,
        "streetTypeId": "DR",
        "placeName": "CAMBRIDGE",
        "streetNameDisplayText": "MORNINGSIDE DR, CAMBRIDGE"
      },
      {
        "electoralDistricts": [
          {
            "election": null,
            "id": 16,
            "name": "Cambridge"
          }
        ],
        "pollDivisionIds": [
          10137410
        ],
        "postalCode": "N3H4R8",
        "streetName": "OLD MILL",
        "streetDirectionId": null,
        "streetTypeId": "RD",
        "placeName": "CAMBRIDGE",
        "streetNameDisplayText": "OLD MILL RD, CAMBRIDGE"
      }
    ]
  },
  {
    "postal": "N3H5P9",
    "result": [
      {
        "electoralDistricts": [
          {
            "election": null,
            "id": 16,
            "name": "Cambridge"
          }
        ],
        "pollDivisionIds": [
          10137416
        ],
        "postalCode": "N3H5P9",
        "streetName": "NEWPORT",
        "streetDirectionId": null,
        "streetTypeId": "DR",
        "placeName": "CAMBRIDGE",
        "streetNameDisplayText": "NEWPORT DR, CAMBRIDGE"
      },
      {
        "electoralDistricts": [
          {
            "election": null,
            "id": 16,
            "name": "Cambridge"
          }
        ],
        "pollDivisionIds": [
          10137416
        ],
        "postalCode": "N3H5P9",
        "streetName": "WATCH HILL",
        "streetDirectionId": null,
        "streetTypeId": "LANE",
        "placeName": "CAMBRIDGE",
        "streetNameDisplayText": "WATCH HILL LANE, CAMBRIDGE"
      }
    ]
  },
  {
    "postal": "N3H8N4",
    "result": []
  },
  {
    "postal": "N3H8H4",
    "result": []
  },
  {
    "postal": "N3H4V1",
    "result": []
  },
  {
    "postal": "N3H1K5",
    "result": [
      {
        "electoralDistricts": [
          {
            "election": null,
            "id": 16,
            "name": "Cambridge"
          }
        ],
        "pollDivisionIds": [
          10137414
        ],
        "postalCode": "N3H1K5",
        "streetName": "DOVER",
        "streetDirectionId": "N",
        "streetTypeId": "ST",
        "placeName": "CAMBRIDGE",
        "streetNameDisplayText": "DOVER ST N, CAMBRIDGE"
      }
    ]
  },
  {
    "postal": "N3H1Z5",
    "result": [
      {
        "electoralDistricts": [
          {
            "election": null,
            "id": 16,
            "name": "Cambridge"
          }
        ],
        "pollDivisionIds": [
          10137418
        ],
        "postalCode": "N3H1Z5",
        "streetName": "LOWTHER",
        "streetDirectionId": "S",
        "streetTypeId": "ST",
        "placeName": "CAMBRIDGE",
        "streetNameDisplayText": "LOWTHER ST S, CAMBRIDGE"
      }
    ]
  },
  {
    "postal": "N3H9L9",
    "result": []
  },
  {
    "postal": "N3H5L2",
    "result": [
      {
        "electoralDistricts": [
          {
            "election": null,
            "id": 16,
            "name": "Cambridge"
          }
        ],
        "pollDivisionIds": [
          10137414
        ],
        "postalCode": "N3H5L2",
        "streetName": "KING",
        "streetDirectionId": "W",
        "streetTypeId": "ST",
        "placeName": "CAMBRIDGE",
        "streetNameDisplayText": "KING ST W, CAMBRIDGE"
      }
    ]
  },
  {
    "postal": "N3H0M2",
    "result": []
  },
  {
    "postal": "N3H1K8",
    "result": [
      {
        "electoralDistricts": [
          {
            "election": null,
            "id": 16,
            "name": "Cambridge"
          }
        ],
        "pollDivisionIds": [
          10137414
        ],
        "postalCode": "N3H1K8",
        "streetName": "DOVER",
        "streetDirectionId": "N",
        "streetTypeId": "ST",
        "placeName": "CAMBRIDGE",
        "streetNameDisplayText": "DOVER ST N, CAMBRIDGE"
      }
    ]
  },
  {
    "postal": "N3H3M7",
    "result": [
      {
        "electoralDistricts": [
          {
            "election": null,
            "id": 16,
            "name": "Cambridge"
          }
        ],
        "pollDivisionIds": [
          10137414
        ],
        "postalCode": "N3H3M7",
        "streetName": "KING",
        "streetDirectionId": "E",
        "streetTypeId": "ST",
        "placeName": "CAMBRIDGE",
        "streetNameDisplayText": "KING ST E, CAMBRIDGE"
      }
    ]
  },
  {
    "postal": "N3H1B2",
    "result": [
      {
        "electoralDistricts": [
          {
            "election": null,
            "id": 16,
            "name": "Cambridge"
          }
        ],
        "pollDivisionIds": [
          10137412
        ],
        "postalCode": "N3H1B2",
        "streetName": "HILLCREST",
        "streetDirectionId": null,
        "streetTypeId": "RD",
        "placeName": "CAMBRIDGE",
        "streetNameDisplayText": "HILLCREST RD, CAMBRIDGE"
      }
    ]
  },
  {
    "postal": "N3H0H9",
    "result": []
  },
  {
    "postal": "N3H8M4",
    "result": []
  },
  {
    "postal": "N3H2M5",
    "result": [
      {
        "electoralDistricts": [
          {
            "election": null,
            "id": 16,
            "name": "Cambridge"
          }
        ],
        "pollDivisionIds": [
          10137418
        ],
        "postalCode": "N3H2M5",
        "streetName": "MAPLEWOOD",
        "streetDirectionId": null,
        "streetTypeId": "AVE",
        "placeName": "CAMBRIDGE",
        "streetNameDisplayText": "MAPLEWOOD AVE, CAMBRIDGE"
      }
    ]
  },
  {
    "postal": "N3H0T9",
    "result": []
  },
  {
    "postal": "N3H3P1",
    "result": [
      {
        "electoralDistricts": [
          {
            "election": null,
            "id": 16,
            "name": "Cambridge"
          }
        ],
        "pollDivisionIds": [
          10137414
        ],
        "postalCode": "N3H3P1",
        "streetName": "KING",
        "streetDirectionId": "E",
        "streetTypeId": "ST",
        "placeName": "CAMBRIDGE",
        "streetNameDisplayText": "KING ST E, CAMBRIDGE"
      }
    ]
  },
  {
    "postal": "N3H1R6",
    "result": [
      {
        "electoralDistricts": [
          {
            "election": null,
            "id": 16,
            "name": "Cambridge"
          }
        ],
        "pollDivisionIds": [
          10137415
        ],
        "postalCode": "N3H1R6",
        "streetName": "ARGYLE",
        "streetDirectionId": "S",
        "streetTypeId": "ST",
        "placeName": "CAMBRIDGE",
        "streetNameDisplayText": "ARGYLE ST S, CAMBRIDGE"
      }
    ]
  },
  {
    "postal": "N3H9V5",
    "result": []
  },
  {
    "postal": "N3H9T0",
    "result": []
  },
  {
    "postal": "N3H0A9",
    "result": [
      {
        "electoralDistricts": [
          {
            "election": null,
            "id": 16,
            "name": "Cambridge"
          }
        ],
        "pollDivisionIds": [
          10137414
        ],
        "postalCode": "N3H0A9",
        "streetName": "LAWRENCE",
        "streetDirectionId": null,
        "streetTypeId": "ST",
        "placeName": "CAMBRIDGE",
        "streetNameDisplayText": "LAWRENCE ST, CAMBRIDGE"
      }
    ]
  },
  {
    "postal": "N3H1M3",
    "result": [
      {
        "electoralDistricts": [
          {
            "election": null,
            "id": 16,
            "name": "Cambridge"
          }
        ],
        "pollDivisionIds": [
          10137415
        ],
        "postalCode": "N3H1M3",
        "streetName": "DOVER",
        "streetDirectionId": "S",
        "streetTypeId": "ST",
        "placeName": "CAMBRIDGE",
        "streetNameDisplayText": "DOVER ST S, CAMBRIDGE"
      }
    ]
  },
  {
    "postal": "N3H1W8",
    "result": [
      {
        "electoralDistricts": [
          {
            "election": null,
            "id": 16,
            "name": "Cambridge"
          }
        ],
        "pollDivisionIds": [
          10137415
        ],
        "postalCode": "N3H1W8",
        "streetName": "CHURCH",
        "streetDirectionId": "S",
        "streetTypeId": "ST",
        "placeName": "CAMBRIDGE",
        "streetNameDisplayText": "CHURCH ST S, CAMBRIDGE"
      }
    ]
  },
  {
    "postal": "N3H9J1",
    "result": []
  },
  {
    "postal": "N3H8N5",
    "result": []
  },
  {
    "postal": "N3H5X1",
    "result": []
  },
  {
    "postal": "N3H6S2",
    "result": []
  },
  {
    "postal": "N3H2A2",
    "result": [
      {
        "electoralDistricts": [
          {
            "election": null,
            "id": 16,
            "name": "Cambridge"
          }
        ],
        "pollDivisionIds": [
          10137418
        ],
        "postalCode": "N3H2A2",
        "streetName": "FREDERICK",
        "streetDirectionId": null,
        "streetTypeId": "ST",
        "placeName": "CAMBRIDGE",
        "streetNameDisplayText": "FREDERICK ST, CAMBRIDGE"
      }
    ]
  },
  {
    "postal": "N3H6A6",
    "result": []
  },
  {
    "postal": "N3H0S3",
    "result": []
  },
  {
    "postal": "N3H3E7",
    "result": [
      {
        "electoralDistricts": [
          {
            "election": null,
            "id": 16,
            "name": "Cambridge"
          }
        ],
        "pollDivisionIds": [
          10137415
        ],
        "postalCode": "N3H3E7",
        "streetName": "HAMILTON",
        "streetDirectionId": null,
        "streetTypeId": "ST",
        "placeName": "CAMBRIDGE",
        "streetNameDisplayText": "HAMILTON ST, CAMBRIDGE"
      }
    ]
  },
  {
    "postal": "N3H5R7",
    "result": [
      {
        "electoralDistricts": [
          {
            "election": null,
            "id": 16,
            "name": "Cambridge"
          }
        ],
        "pollDivisionIds": [
          10137416,
          10137417
        ],
        "postalCode": "N3H5R7",
        "streetName": "MORTIMER",
        "streetDirectionId": null,
        "streetTypeId": "DR",
        "placeName": "CAMBRIDGE",
        "streetNameDisplayText": "MORTIMER DR, CAMBRIDGE"
      }
    ]
  },
  {
    "postal": "N3H3R6",
    "result": [
      {
        "electoralDistricts": [
          {
            "election": null,
            "id": 16,
            "name": "Cambridge"
          }
        ],
        "pollDivisionIds": [
          10137418
        ],
        "postalCode": "N3H3R6",
        "streetName": "KING",
        "streetDirectionId": "E",
        "streetTypeId": "ST",
        "placeName": "CAMBRIDGE",
        "streetNameDisplayText": "KING ST E, CAMBRIDGE"
      }
    ]
  },
  {
    "postal": "N3H6K4",
    "result": []
  },
  {
    "postal": "N3H2W5",
    "result": [
      {
        "electoralDistricts": [
          {
            "election": null,
            "id": 16,
            "name": "Cambridge"
          }
        ],
        "pollDivisionIds": [
          10137414
        ],
        "postalCode": "N3H2W5",
        "streetName": "SHERRING",
        "streetDirectionId": null,
        "streetTypeId": "ST",
        "placeName": "CAMBRIDGE",
        "streetNameDisplayText": "SHERRING ST, CAMBRIDGE"
      }
    ]
  },
  {
    "postal": "N3H8W4",
    "result": []
  },
  {
    "postal": "N3H9C2",
    "result": []
  },
  {
    "postal": "N3H2C0",
    "result": []
  },
  {
    "postal": "N3H0E1",
    "result": []
  },
  {
    "postal": "N3H1K9",
    "result": [
      {
        "electoralDistricts": [
          {
            "election": null,
            "id": 16,
            "name": "Cambridge"
          }
        ],
        "pollDivisionIds": [
          10137414
        ],
        "postalCode": "N3H1K9",
        "streetName": "DOVER",
        "streetDirectionId": "N",
        "streetTypeId": "ST",
        "placeName": "CAMBRIDGE",
        "streetNameDisplayText": "DOVER ST N, CAMBRIDGE"
      }
    ]
  },
  {
    "postal": "N3H1G7",
    "result": [
      {
        "electoralDistricts": [
          {
            "election": null,
            "id": 16,
            "name": "Cambridge"
          }
        ],
        "pollDivisionIds": [
          10137414
        ],
        "postalCode": "N3H1G7",
        "streetName": "NORTH",
        "streetDirectionId": null,
        "streetTypeId": "ST",
        "placeName": "CAMBRIDGE",
        "streetNameDisplayText": "NORTH ST, CAMBRIDGE"
      }
    ]
  },
  {
    "postal": "N3H4E9",
    "result": [
      {
        "electoralDistricts": [
          {
            "election": null,
            "id": 16,
            "name": "Cambridge"
          }
        ],
        "pollDivisionIds": [
          10137414
        ],
        "postalCode": "N3H4E9",
        "streetName": "HICKORY",
        "streetDirectionId": null,
        "streetTypeId": "ST",
        "placeName": "CAMBRIDGE",
        "streetNameDisplayText": "HICKORY ST, CAMBRIDGE"
      }
    ]
  },
  {
    "postal": "N3H9P0",
    "result": []
  },
  {
    "postal": "N3H5H3",
    "result": [
      {
        "electoralDistricts": [
          {
            "election": null,
            "id": 16,
            "name": "Cambridge"
          }
        ],
        "pollDivisionIds": [
          10137411,
          10137413,
          10137469
        ],
        "postalCode": "N3H5H3",
        "streetName": "HILLVIEW",
        "streetDirectionId": null,
        "streetTypeId": "RD",
        "placeName": "CAMBRIDGE",
        "streetNameDisplayText": "HILLVIEW RD, CAMBRIDGE"
      }
    ]
  },
  {
    "postal": "N3H9X6",
    "result": []
  },
  {
    "postal": "N3H5N7",
    "result": [
      {
        "electoralDistricts": [
          {
            "election": null,
            "id": 16,
            "name": "Cambridge"
          }
        ],
        "pollDivisionIds": [
          10137411
        ],
        "postalCode": "N3H5N7",
        "streetName": "LINDEN",
        "streetDirectionId": null,
        "streetTypeId": "DR",
        "placeName": "CAMBRIDGE",
        "streetNameDisplayText": "LINDEN DR, CAMBRIDGE"
      }
    ]
  },
  {
    "postal": "N3H5A6",
    "result": [
      {
        "electoralDistricts": [
          {
            "election": null,
            "id": 16,
            "name": "Cambridge"
          }
        ],
        "pollDivisionIds": [
          10137418
        ],
        "postalCode": "N3H5A6",
        "streetName": "BRIARWOOD",
        "streetDirectionId": null,
        "streetTypeId": "DR",
        "placeName": "CAMBRIDGE",
        "streetNameDisplayText": "BRIARWOOD DR, CAMBRIDGE"
      }
    ]
  },
  {
    "postal": "N3H4M0",
    "result": []
  },
  {
    "postal": "N3H3V6",
    "result": [
      {
        "electoralDistricts": [
          {
            "election": null,
            "id": 16,
            "name": "Cambridge"
          }
        ],
        "pollDivisionIds": [
          10137418
        ],
        "postalCode": "N3H3V6",
        "streetName": "DUKE",
        "streetDirectionId": null,
        "streetTypeId": "ST",
        "placeName": "CAMBRIDGE",
        "streetNameDisplayText": "DUKE ST, CAMBRIDGE"
      }
    ]
  },
  {
    "postal": "N3H1L7",
    "result": [
      {
        "electoralDistricts": [
          {
            "election": null,
            "id": 16,
            "name": "Cambridge"
          }
        ],
        "pollDivisionIds": [
          10137415
        ],
        "postalCode": "N3H1L7",
        "streetName": "DOVER",
        "streetDirectionId": "S",
        "streetTypeId": "ST",
        "placeName": "CAMBRIDGE",
        "streetNameDisplayText": "DOVER ST S, CAMBRIDGE"
      }
    ]
  },
  {
    "postal": "N3H2P9",
    "result": [
      {
        "electoralDistricts": [
          {
            "election": null,
            "id": 16,
            "name": "Cambridge"
          }
        ],
        "pollDivisionIds": [
          10137418
        ],
        "postalCode": "N3H2P9",
        "streetName": "MICHAEL",
        "streetDirectionId": null,
        "streetTypeId": "CRES",
        "placeName": "CAMBRIDGE",
        "streetNameDisplayText": "MICHAEL CRES, CAMBRIDGE"
      }
    ]
  },
  {
    "postal": "N3H5T4",
    "result": [
      {
        "electoralDistricts": [
          {
            "election": null,
            "id": 16,
            "name": "Cambridge"
          }
        ],
        "pollDivisionIds": [
          10137418
        ],
        "postalCode": "N3H5T4",
        "streetName": "FRONT",
        "streetDirectionId": null,
        "streetTypeId": "ST",
        "placeName": "CAMBRIDGE",
        "streetNameDisplayText": "FRONT ST, CAMBRIDGE"
      }
    ]
  },
  {
    "postal": "N3H5Z1",
    "result": []
  },
  {
    "postal": "N3H2X0",
    "result": []
  },
  {
    "postal": "N3H6Z2",
    "result": []
  },
  {
    "postal": "N3H0E0",
    "result": []
  },
  {
    "postal": "N3H3Z5",
    "result": [
      {
        "electoralDistricts": [
          {
            "election": null,
            "id": 16,
            "name": "Cambridge"
          }
        ],
        "pollDivisionIds": [
          10137414
        ],
        "postalCode": "N3H3Z5",
        "streetName": "LAUREL",
        "streetDirectionId": null,
        "streetTypeId": "ST",
        "placeName": "CAMBRIDGE",
        "streetNameDisplayText": "LAUREL ST, CAMBRIDGE"
      }
    ]
  },
  {
    "postal": "N3H8H3",
    "result": []
  },
  {
    "postal": "N3H7S6",
    "result": []
  },
  {
    "postal": "N3H4C1",
    "result": [
      {
        "electoralDistricts": [
          {
            "election": null,
            "id": 16,
            "name": "Cambridge"
          }
        ],
        "pollDivisionIds": [
          10137414
        ],
        "postalCode": "N3H4C1",
        "streetName": "ARLINGTON",
        "streetDirectionId": null,
        "streetTypeId": "ST",
        "placeName": "CAMBRIDGE",
        "streetNameDisplayText": "ARLINGTON ST, CAMBRIDGE"
      }
    ]
  },
  {
    "postal": "N3H3K2",
    "result": [
      {
        "electoralDistricts": [
          {
            "election": null,
            "id": 16,
            "name": "Cambridge"
          }
        ],
        "pollDivisionIds": [
          10137415
        ],
        "postalCode": "N3H3K2",
        "streetName": "QUEENSTON",
        "streetDirectionId": null,
        "streetTypeId": "RD",
        "placeName": "CAMBRIDGE",
        "streetNameDisplayText": "QUEENSTON RD, CAMBRIDGE"
      }
    ]
  },
  {
    "postal": "N3H1Y5",
    "result": [
      {
        "electoralDistricts": [
          {
            "election": null,
            "id": 16,
            "name": "Cambridge"
          }
        ],
        "pollDivisionIds": [
          10137415
        ],
        "postalCode": "N3H1Y5",
        "streetName": "LOWTHER",
        "streetDirectionId": "S",
        "streetTypeId": "ST",
        "placeName": "CAMBRIDGE",
        "streetNameDisplayText": "LOWTHER ST S, CAMBRIDGE"
      }
    ]
  },
  {
    "postal": "N3H6P6",
    "result": []
  },
  {
    "postal": "N3H3N9",
    "result": [
      {
        "electoralDistricts": [
          {
            "election": null,
            "id": 16,
            "name": "Cambridge"
          }
        ],
        "pollDivisionIds": [
          10137415
        ],
        "postalCode": "N3H3N9",
        "streetName": "KING",
        "streetDirectionId": "E",
        "streetTypeId": "ST",
        "placeName": "CAMBRIDGE",
        "streetNameDisplayText": "KING ST E, CAMBRIDGE"
      }
    ]
  },
  {
    "postal": "N3H3W2",
    "result": [
      {
        "electoralDistricts": [
          {
            "election": null,
            "id": 16,
            "name": "Cambridge"
          }
        ],
        "pollDivisionIds": [
          10137414
        ],
        "postalCode": "N3H3W2",
        "streetName": "WILLIAM",
        "streetDirectionId": null,
        "streetTypeId": "ST",
        "placeName": "CAMBRIDGE",
        "streetNameDisplayText": "WILLIAM ST, CAMBRIDGE"
      }
    ]
  },
  {
    "postal": "N3H6H8",
    "result": []
  },
  {
    "postal": "N3H9T3",
    "result": []
  },
  {
    "postal": "N3H5L9",
    "result": []
  },
  {
    "postal": "N3H7X7",
    "result": []
  },
  {
    "postal": "N3H3J5",
    "result": [
      {
        "electoralDistricts": [
          {
            "election": null,
            "id": 16,
            "name": "Cambridge"
          }
        ],
        "pollDivisionIds": [
          10137415
        ],
        "postalCode": "N3H3J5",
        "streetName": "QUEENSTON",
        "streetDirectionId": null,
        "streetTypeId": "RD",
        "placeName": "CAMBRIDGE",
        "streetNameDisplayText": "QUEENSTON RD, CAMBRIDGE"
      }
    ]
  },
  {
    "postal": "N3H4J5",
    "result": [
      {
        "electoralDistricts": [
          {
            "election": null,
            "id": 16,
            "name": "Cambridge"
          }
        ],
        "pollDivisionIds": [
          10137414
        ],
        "postalCode": "N3H4J5",
        "streetName": "OAKWOOD",
        "streetDirectionId": null,
        "streetTypeId": "AVE",
        "placeName": "CAMBRIDGE",
        "streetNameDisplayText": "OAKWOOD AVE, CAMBRIDGE"
      }
    ]
  },
  {
    "postal": "N3H6J2",
    "result": []
  },
  {
    "postal": "N3H5V6",
    "result": []
  },
  {
    "postal": "N3H3N2",
    "result": [
      {
        "electoralDistricts": [
          {
            "election": null,
            "id": 16,
            "name": "Cambridge"
          }
        ],
        "pollDivisionIds": [
          10137415
        ],
        "postalCode": "N3H3N2",
        "streetName": "KING",
        "streetDirectionId": "E",
        "streetTypeId": "ST",
        "placeName": "CAMBRIDGE",
        "streetNameDisplayText": "KING ST E, CAMBRIDGE"
      }
    ]
  },
  {
    "postal": "N3H3B1",
    "result": [
      {
        "electoralDistricts": [
          {
            "election": null,
            "id": 16,
            "name": "Cambridge"
          }
        ],
        "pollDivisionIds": [
          10137415
        ],
        "postalCode": "N3H3B1",
        "streetName": "MOORE",
        "streetDirectionId": null,
        "streetTypeId": "ST",
        "placeName": "CAMBRIDGE",
        "streetNameDisplayText": "MOORE ST, CAMBRIDGE"
      }
    ]
  },
  {
    "postal": "N3H8B5",
    "result": []
  },
  {
    "postal": "N3H0K1",
    "result": []
  },
  {
    "postal": "N3H7M7",
    "result": []
  },
  {
    "postal": "N3H2M2",
    "result": [
      {
        "electoralDistricts": [
          {
            "election": null,
            "id": 16,
            "name": "Cambridge"
          }
        ],
        "pollDivisionIds": [
          10137418
        ],
        "postalCode": "N3H2M2",
        "streetName": "PINEWOOD",
        "streetDirectionId": null,
        "streetTypeId": "AVE",
        "placeName": "CAMBRIDGE",
        "streetNameDisplayText": "PINEWOOD AVE, CAMBRIDGE"
      }
    ]
  },
  {
    "postal": "N3H9N3",
    "result": []
  },
  {
    "postal": "N3H4Y8",
    "result": [
      {
        "electoralDistricts": [
          {
            "election": null,
            "id": 16,
            "name": "Cambridge"
          }
        ],
        "pollDivisionIds": [
          10137417,
          10137416
        ],
        "postalCode": "N3H4Y8",
        "streetName": "SHANNON",
        "streetDirectionId": null,
        "streetTypeId": "DR",
        "placeName": "CAMBRIDGE",
        "streetNameDisplayText": "SHANNON DR, CAMBRIDGE"
      }
    ]
  },
  {
    "postal": "N3H3V7",
    "result": [
      {
        "electoralDistricts": [
          {
            "election": null,
            "id": 16,
            "name": "Cambridge"
          }
        ],
        "pollDivisionIds": [
          10137418
        ],
        "postalCode": "N3H3V7",
        "streetName": "DUKE",
        "streetDirectionId": null,
        "streetTypeId": "ST",
        "placeName": "CAMBRIDGE",
        "streetNameDisplayText": "DUKE ST, CAMBRIDGE"
      }
    ]
  },
  {
    "postal": "N3H8Z1",
    "result": []
  },
  {
    "postal": "N3H7B3",
    "result": []
  },
  {
    "postal": "N3H3A8",
    "result": [
      {
        "electoralDistricts": [
          {
            "election": null,
            "id": 16,
            "name": "Cambridge"
          }
        ],
        "pollDivisionIds": [
          10137415
        ],
        "postalCode": "N3H3A8",
        "streetName": "MOORE",
        "streetDirectionId": null,
        "streetTypeId": "ST",
        "placeName": "CAMBRIDGE",
        "streetNameDisplayText": "MOORE ST, CAMBRIDGE"
      }
    ]
  },
  {
    "postal": "N3H7V5",
    "result": []
  },
  {
    "postal": "N3H2T2",
    "result": [
      {
        "electoralDistricts": [
          {
            "election": null,
            "id": 16,
            "name": "Cambridge"
          }
        ],
        "pollDivisionIds": [
          10137418
        ],
        "postalCode": "N3H2T2",
        "streetName": "EASTDOWNS",
        "streetDirectionId": null,
        "streetTypeId": "DR",
        "placeName": "CAMBRIDGE",
        "streetNameDisplayText": "EASTDOWNS DR, CAMBRIDGE"
      }
    ]
  },
  {
    "postal": "N3H6L3",
    "result": []
  },
  {
    "postal": "N3H0L2",
    "result": []
  },
  {
    "postal": "N3H5Y8",
    "result": []
  },
  {
    "postal": "N3H0B8",
    "result": [
      {
        "electoralDistricts": [
          {
            "election": null,
            "id": 16,
            "name": "Cambridge"
          }
        ],
        "pollDivisionIds": [
          10137413,
          10137411
        ],
        "postalCode": "N3H0B8",
        "streetName": "KNOTTY PINE",
        "streetDirectionId": null,
        "streetTypeId": "AVE",
        "placeName": "CAMBRIDGE",
        "streetNameDisplayText": "KNOTTY PINE AVE, CAMBRIDGE"
      }
    ]
  },
  {
    "postal": "N3H6R5",
    "result": []
  },
  {
    "postal": "N3H8W6",
    "result": []
  },
  {
    "postal": "N3H8G6",
    "result": []
  },
  {
    "postal": "N3H6X3",
    "result": []
  },
  {
    "postal": "N3H7R7",
    "result": []
  },
  {
    "postal": "N3H4B6",
    "result": [
      {
        "electoralDistricts": [
          {
            "election": null,
            "id": 16,
            "name": "Cambridge"
          }
        ],
        "pollDivisionIds": [
          10137414
        ],
        "postalCode": "N3H4B6",
        "streetName": "SCHLUETER",
        "streetDirectionId": null,
        "streetTypeId": "ST",
        "placeName": "CAMBRIDGE",
        "streetNameDisplayText": "SCHLUETER ST, CAMBRIDGE"
      }
    ]
  },
  {
    "postal": "N3H3P9",
    "result": [
      {
        "electoralDistricts": [
          {
            "election": null,
            "id": 16,
            "name": "Cambridge"
          }
        ],
        "pollDivisionIds": [
          10137418
        ],
        "postalCode": "N3H3P9",
        "streetName": "KING",
        "streetDirectionId": "E",
        "streetTypeId": "ST",
        "placeName": "CAMBRIDGE",
        "streetNameDisplayText": "KING ST E, CAMBRIDGE"
      }
    ]
  },
  {
    "postal": "N3H2T3",
    "result": [
      {
        "electoralDistricts": [
          {
            "election": null,
            "id": 16,
            "name": "Cambridge"
          }
        ],
        "pollDivisionIds": [
          10137418
        ],
        "postalCode": "N3H2T3",
        "streetName": "DUNBAR",
        "streetDirectionId": null,
        "streetTypeId": "RD",
        "placeName": "CAMBRIDGE",
        "streetNameDisplayText": "DUNBAR RD, CAMBRIDGE"
      }
    ]
  },
  {
    "postal": "N3H1M4",
    "result": [
      {
        "electoralDistricts": [
          {
            "election": null,
            "id": 16,
            "name": "Cambridge"
          }
        ],
        "pollDivisionIds": [
          10137415
        ],
        "postalCode": "N3H1M4",
        "streetName": "DOVER",
        "streetDirectionId": "S",
        "streetTypeId": "ST",
        "placeName": "CAMBRIDGE",
        "streetNameDisplayText": "DOVER ST S, CAMBRIDGE"
      }
    ]
  },
  {
    "postal": "N3H0H1",
    "result": []
  },
  {
    "postal": "N3H9W3",
    "result": []
  },
  {
    "postal": "N3H6P1",
    "result": []
  },
  {
    "postal": "N3H7G2",
    "result": []
  },
  {
    "postal": "N3H4J9",
    "result": [
      {
        "electoralDistricts": [
          {
            "election": null,
            "id": 16,
            "name": "Cambridge"
          }
        ],
        "pollDivisionIds": [
          10137418
        ],
        "postalCode": "N3H4J9",
        "streetName": "WINTERHALT",
        "streetDirectionId": null,
        "streetTypeId": "AVE",
        "placeName": "CAMBRIDGE",
        "streetNameDisplayText": "WINTERHALT AVE, CAMBRIDGE"
      }
    ]
  },
  {
    "postal": "N3H9E4",
    "result": []
  },
  {
    "postal": "N3H8H0",
    "result": []
  },
  {
    "postal": "N3H4M7",
    "result": [
      {
        "electoralDistricts": [
          {
            "election": null,
            "id": 16,
            "name": "Cambridge"
          }
        ],
        "pollDivisionIds": [
          10137418
        ],
        "postalCode": "N3H4M7",
        "streetName": "FAIRVIEW",
        "streetDirectionId": null,
        "streetTypeId": "RD",
        "placeName": "CAMBRIDGE",
        "streetNameDisplayText": "FAIRVIEW RD, CAMBRIDGE"
      }
    ]
  },
  {
    "postal": "N3H2G9",
    "result": [
      {
        "electoralDistricts": [
          {
            "election": null,
            "id": 16,
            "name": "Cambridge"
          }
        ],
        "pollDivisionIds": [
          10137418
        ],
        "postalCode": "N3H2G9",
        "streetName": "ANNE",
        "streetDirectionId": null,
        "streetTypeId": "ST",
        "placeName": "CAMBRIDGE",
        "streetNameDisplayText": "ANNE ST, CAMBRIDGE"
      }
    ]
  },
  {
    "postal": "N3H8T2",
    "result": []
  },
  {
    "postal": "N3H7G7",
    "result": []
  },
  {
    "postal": "N3H4Z3",
    "result": [
      {
        "electoralDistricts": [
          {
            "election": null,
            "id": 16,
            "name": "Cambridge"
          }
        ],
        "pollDivisionIds": [
          10137413
        ],
        "postalCode": "N3H4Z3",
        "streetName": "PINETREE",
        "streetDirectionId": null,
        "streetTypeId": "CRES",
        "placeName": "CAMBRIDGE",
        "streetNameDisplayText": "PINETREE CRES, CAMBRIDGE"
      }
    ]
  },
  {
    "postal": "N3H5B3",
    "result": [
      {
        "electoralDistricts": [
          {
            "election": null,
            "id": 16,
            "name": "Cambridge"
          }
        ],
        "pollDivisionIds": [
          10137418
        ],
        "postalCode": "N3H5B3",
        "streetName": "BISHOP",
        "streetDirectionId": "N",
        "streetTypeId": "ST",
        "placeName": "CAMBRIDGE",
        "streetNameDisplayText": "BISHOP ST N, CAMBRIDGE"
      }
    ]
  },
  {
    "postal": "N3H1S7",
    "result": [
      {
        "electoralDistricts": [
          {
            "election": null,
            "id": 16,
            "name": "Cambridge"
          }
        ],
        "pollDivisionIds": [
          10137414
        ],
        "postalCode": "N3H1S7",
        "streetName": "WESTMINSTER",
        "streetDirectionId": "N",
        "streetTypeId": "DR",
        "placeName": "CAMBRIDGE",
        "streetNameDisplayText": "WESTMINSTER DR N, CAMBRIDGE"
      }
    ]
  },
  {
    "postal": "N3H2N7",
    "result": []
  },
  {
    "postal": "N3H0H8",
    "result": []
  },
  {
    "postal": "N3H7Z4",
    "result": []
  },
  {
    "postal": "N3H7B1",
    "result": []
  },
  {
    "postal": "N3H7P8",
    "result": []
  },
  {
    "postal": "N3H7N0",
    "result": []
  },
  {
    "postal": "N3H3Y5",
    "result": [
      {
        "electoralDistricts": [
          {
            "election": null,
            "id": 16,
            "name": "Cambridge"
          }
        ],
        "pollDivisionIds": [
          10137414
        ],
        "postalCode": "N3H3Y5",
        "streetName": "LAUREL",
        "streetDirectionId": null,
        "streetTypeId": "ST",
        "placeName": "CAMBRIDGE",
        "streetNameDisplayText": "LAUREL ST, CAMBRIDGE"
      }
    ]
  },
  {
    "postal": "N3H6K1",
    "result": []
  },
  {
    "postal": "N3H9X5",
    "result": []
  },
  {
    "postal": "N3H7S5",
    "result": []
  },
  {
    "postal": "N3H0A4",
    "result": [
      {
        "electoralDistricts": [
          {
            "election": null,
            "id": 16,
            "name": "Cambridge"
          }
        ],
        "pollDivisionIds": [
          10137416
        ],
        "postalCode": "N3H0A4",
        "streetName": "WITMER",
        "streetDirectionId": null,
        "streetTypeId": "ST",
        "placeName": "CAMBRIDGE",
        "streetNameDisplayText": "WITMER ST, CAMBRIDGE"
      }
    ]
  },
  {
    "postal": "N3H4T5",
    "result": []
  },
  {
    "postal": "N3H5K1",
    "result": [
      {
        "electoralDistricts": [
          {
            "election": null,
            "id": 16,
            "name": "Cambridge"
          }
        ],
        "pollDivisionIds": [
          10137413
        ],
        "postalCode": "N3H5K1",
        "streetName": "WOODS",
        "streetDirectionId": null,
        "streetTypeId": "LANE",
        "placeName": "CAMBRIDGE",
        "streetNameDisplayText": "WOODS LANE, CAMBRIDGE"
      }
    ]
  },
  {
    "postal": "N3H0Z9",
    "result": []
  },
  {
    "postal": "N3H7T2",
    "result": []
  },
  {
    "postal": "N3H1L5",
    "result": [
      {
        "electoralDistricts": [
          {
            "election": null,
            "id": 16,
            "name": "Cambridge"
          }
        ],
        "pollDivisionIds": [
          10137415
        ],
        "postalCode": "N3H1L5",
        "streetName": "DOVER",
        "streetDirectionId": "S",
        "streetTypeId": "ST",
        "placeName": "CAMBRIDGE",
        "streetNameDisplayText": "DOVER ST S, CAMBRIDGE"
      }
    ]
  },
  {
    "postal": "N3H3N5",
    "result": []
  },
  {
    "postal": "N3H6H4",
    "result": []
  },
  {
    "postal": "N3H5A5",
    "result": [
      {
        "electoralDistricts": [
          {
            "election": null,
            "id": 16,
            "name": "Cambridge"
          }
        ],
        "pollDivisionIds": [
          10137418
        ],
        "postalCode": "N3H5A5",
        "streetName": "EARLWOOD",
        "streetDirectionId": null,
        "streetTypeId": "DR",
        "placeName": "CAMBRIDGE",
        "streetNameDisplayText": "EARLWOOD DR, CAMBRIDGE"
      }
    ]
  },
  {
    "postal": "N3H3R9",
    "result": [
      {
        "electoralDistricts": [
          {
            "election": null,
            "id": 16,
            "name": "Cambridge"
          }
        ],
        "pollDivisionIds": [
          10137418
        ],
        "postalCode": "N3H3R9",
        "streetName": "CORONATION",
        "streetDirectionId": null,
        "streetTypeId": "BLVD",
        "placeName": "CAMBRIDGE",
        "streetNameDisplayText": "CORONATION BLVD, CAMBRIDGE"
      }
    ]
  },
  {
    "postal": "N3H7L8",
    "result": []
  },
  {
    "postal": "N3H6T6",
    "result": []
  },
  {
    "postal": "N3H7Y7",
    "result": []
  },
  {
    "postal": "N3H3M8",
    "result": [
      {
        "electoralDistricts": [
          {
            "election": null,
            "id": 16,
            "name": "Cambridge"
          }
        ],
        "pollDivisionIds": [
          10137415
        ],
        "postalCode": "N3H3M8",
        "streetName": "KING",
        "streetDirectionId": "E",
        "streetTypeId": "ST",
        "placeName": "CAMBRIDGE",
        "streetNameDisplayText": "KING ST E, CAMBRIDGE"
      }
    ]
  },
  {
    "postal": "N3H2E0",
    "result": []
  },
  {
    "postal": "N3H4B5",
    "result": [
      {
        "electoralDistricts": [
          {
            "election": null,
            "id": 16,
            "name": "Cambridge"
          }
        ],
        "pollDivisionIds": [
          10137414
        ],
        "postalCode": "N3H4B5",
        "streetName": "SCHLUETER",
        "streetDirectionId": null,
        "streetTypeId": "ST",
        "placeName": "CAMBRIDGE",
        "streetNameDisplayText": "SCHLUETER ST, CAMBRIDGE"
      }
    ]
  },
  {
    "postal": "N3H1J3",
    "result": [
      {
        "electoralDistricts": [
          {
            "election": null,
            "id": 16,
            "name": "Cambridge"
          }
        ],
        "pollDivisionIds": [
          10137413
        ],
        "postalCode": "N3H1J3",
        "streetName": "FOUNTAIN",
        "streetDirectionId": "S",
        "streetTypeId": "ST",
        "placeName": "CAMBRIDGE",
        "streetNameDisplayText": "FOUNTAIN ST S, CAMBRIDGE"
      }
    ]
  },
  {
    "postal": "N3H5S6",
    "result": [
      {
        "electoralDistricts": [
          {
            "election": null,
            "id": 16,
            "name": "Cambridge"
          }
        ],
        "pollDivisionIds": [
          10137416
        ],
        "postalCode": "N3H5S6",
        "streetName": "CHRYSLER",
        "streetDirectionId": null,
        "streetTypeId": "CRES",
        "placeName": "CAMBRIDGE",
        "streetNameDisplayText": "CHRYSLER CRES, CAMBRIDGE"
      },
      {
        "electoralDistricts": [
          {
            "election": null,
            "id": 16,
            "name": "Cambridge"
          }
        ],
        "pollDivisionIds": [
          10137416
        ],
        "postalCode": "N3H5S6",
        "streetName": "NEWPORT",
        "streetDirectionId": null,
        "streetTypeId": "DR",
        "placeName": "CAMBRIDGE",
        "streetNameDisplayText": "NEWPORT DR, CAMBRIDGE"
      }
    ]
  },
  {
    "postal": "N3H8P7",
    "result": []
  },
  {
    "postal": "N3H7S7",
    "result": []
  },
  {
    "postal": "N3H4C2",
    "result": []
  },
  {
    "postal": "N3H5Y0",
    "result": []
  },
  {
    "postal": "N3H2V7",
    "result": [
      {
        "electoralDistricts": [
          {
            "election": null,
            "id": 16,
            "name": "Cambridge"
          }
        ],
        "pollDivisionIds": [
          10137415
        ],
        "postalCode": "N3H2V7",
        "streetName": "BEAVER",
        "streetDirectionId": null,
        "streetTypeId": "ST",
        "placeName": "CAMBRIDGE",
        "streetNameDisplayText": "BEAVER ST, CAMBRIDGE"
      }
    ]
  },
  {
    "postal": "N3H8P5",
    "result": []
  },
  {
    "postal": "N3H5P5",
    "result": [
      {
        "electoralDistricts": [
          {
            "election": null,
            "id": 16,
            "name": "Cambridge"
          }
        ],
        "pollDivisionIds": [
          10137416
        ],
        "postalCode": "N3H5P5",
        "streetName": "OLD NEWBURY",
        "streetDirectionId": null,
        "streetTypeId": "LANE",
        "placeName": "CAMBRIDGE",
        "streetNameDisplayText": "OLD NEWBURY LANE, CAMBRIDGE"
      }
    ]
  },
  {
    "postal": "N3H5Z0",
    "result": []
  },
  {
    "postal": "N3H9B0",
    "result": []
  },
  {
    "postal": "N3H1L0",
    "result": []
  },
  {
    "postal": "N3H0B5",
    "result": [
      {
        "electoralDistricts": [
          {
            "election": null,
            "id": 16,
            "name": "Cambridge"
          }
        ],
        "pollDivisionIds": [
          10137413,
          10137411
        ],
        "postalCode": "N3H0B5",
        "streetName": "CHERRY TAYLOR",
        "streetDirectionId": null,
        "streetTypeId": "AVE",
        "placeName": "CAMBRIDGE",
        "streetNameDisplayText": "CHERRY TAYLOR AVE, CAMBRIDGE"
      },
      {
        "electoralDistricts": [
          {
            "election": null,
            "id": 16,
            "name": "Cambridge"
          }
        ],
        "pollDivisionIds": [
          10137411
        ],
        "postalCode": "N3H0B5",
        "streetName": "LIMERICK",
        "streetDirectionId": null,
        "streetTypeId": "RD",
        "placeName": "CAMBRIDGE",
        "streetNameDisplayText": "LIMERICK RD, CAMBRIDGE"
      },
      {
        "electoralDistricts": [
          {
            "election": null,
            "id": 16,
            "name": "Cambridge"
          }
        ],
        "pollDivisionIds": [
          10137411
        ],
        "postalCode": "N3H0B5",
        "streetName": "LINDEN",
        "streetDirectionId": null,
        "streetTypeId": "DR",
        "placeName": "CAMBRIDGE",
        "streetNameDisplayText": "LINDEN DR, CAMBRIDGE"
      },
      {
        "electoralDistricts": [
          {
            "election": null,
            "id": 16,
            "name": "Cambridge"
          }
        ],
        "pollDivisionIds": [
          10137411
        ],
        "postalCode": "N3H0B5",
        "streetName": "ROSEBRUGH",
        "streetDirectionId": null,
        "streetTypeId": "AVE",
        "placeName": "CAMBRIDGE",
        "streetNameDisplayText": "ROSEBRUGH AVE, CAMBRIDGE"
      }
    ]
  },
  {
    "postal": "N3H3L2",
    "result": [
      {
        "electoralDistricts": [
          {
            "election": null,
            "id": 16,
            "name": "Cambridge"
          }
        ],
        "pollDivisionIds": [
          10137418
        ],
        "postalCode": "N3H3L2",
        "streetName": "QUEENSTON",
        "streetDirectionId": null,
        "streetTypeId": "RD",
        "placeName": "CAMBRIDGE",
        "streetNameDisplayText": "QUEENSTON RD, CAMBRIDGE"
      }
    ]
  },
  {
    "postal": "N3H3B7",
    "result": [
      {
        "electoralDistricts": [
          {
            "election": null,
            "id": 16,
            "name": "Cambridge"
          }
        ],
        "pollDivisionIds": [
          10137415
        ],
        "postalCode": "N3H3B7",
        "streetName": "MOORE",
        "streetDirectionId": null,
        "streetTypeId": "ST",
        "placeName": "CAMBRIDGE",
        "streetNameDisplayText": "MOORE ST, CAMBRIDGE"
      }
    ]
  },
  {
    "postal": "N3H8L1",
    "result": []
  },
  {
    "postal": "N3H5M4",
    "result": [
      {
        "electoralDistricts": [
          {
            "election": null,
            "id": 16,
            "name": "Cambridge"
          }
        ],
        "pollDivisionIds": [
          10137416
        ],
        "postalCode": "N3H5M4",
        "streetName": "HADFIELD",
        "streetDirectionId": null,
        "streetTypeId": "CRT",
        "placeName": "CAMBRIDGE",
        "streetNameDisplayText": "HADFIELD CRT, CAMBRIDGE"
      },
      {
        "electoralDistricts": [
          {
            "election": null,
            "id": 16,
            "name": "Cambridge"
          }
        ],
        "pollDivisionIds": [
          10137416
        ],
        "postalCode": "N3H5M4",
        "streetName": "OLD NEWBURY",
        "streetDirectionId": null,
        "streetTypeId": "LANE",
        "placeName": "CAMBRIDGE",
        "streetNameDisplayText": "OLD NEWBURY LANE, CAMBRIDGE"
      },
      {
        "electoralDistricts": [
          {
            "election": null,
            "id": 16,
            "name": "Cambridge"
          }
        ],
        "pollDivisionIds": [
          10137416
        ],
        "postalCode": "N3H5M4",
        "streetName": "TRICO",
        "streetDirectionId": null,
        "streetTypeId": "DR",
        "placeName": "CAMBRIDGE",
        "streetNameDisplayText": "TRICO DR, CAMBRIDGE"
      }
    ]
  },
  {
    "postal": "N3H4G9",
    "result": [
      {
        "electoralDistricts": [
          {
            "election": null,
            "id": 16,
            "name": "Cambridge"
          }
        ],
        "pollDivisionIds": [
          10137418
        ],
        "postalCode": "N3H4G9",
        "streetName": "TIFFANY",
        "streetDirectionId": null,
        "streetTypeId": "ST",
        "placeName": "CAMBRIDGE",
        "streetNameDisplayText": "TIFFANY ST, CAMBRIDGE"
      }
    ]
  },
  {
    "postal": "N3H0P0",
    "result": []
  },
  {
    "postal": "N3H8G2",
    "result": []
  },
  {
    "postal": "N3H1V9",
    "result": [
      {
        "electoralDistricts": [
          {
            "election": null,
            "id": 16,
            "name": "Cambridge"
          }
        ],
        "pollDivisionIds": [
          10137414
        ],
        "postalCode": "N3H1V9",
        "streetName": "CHURCH",
        "streetDirectionId": "N",
        "streetTypeId": "ST",
        "placeName": "CAMBRIDGE",
        "streetNameDisplayText": "CHURCH ST N, CAMBRIDGE"
      }
    ]
  },
  {
    "postal": "N3H8N8",
    "result": []
  },
  {
    "postal": "N3H6S8",
    "result": []
  },
  {
    "postal": "N3H8H2",
    "result": []
  },
  {
    "postal": "N3H5R8",
    "result": [
      {
        "electoralDistricts": [
          {
            "election": null,
            "id": 16,
            "name": "Cambridge"
          }
        ],
        "pollDivisionIds": [
          10137418
        ],
        "postalCode": "N3H5R8",
        "streetName": "LANG'S",
        "streetDirectionId": null,
        "streetTypeId": "DR",
        "placeName": "CAMBRIDGE",
        "streetNameDisplayText": "LANG'S DR, CAMBRIDGE"
      }
    ]
  },
  {
    "postal": "N3H5L4",
    "result": [
      {
        "electoralDistricts": [
          {
            "election": null,
            "id": 16,
            "name": "Cambridge"
          }
        ],
        "pollDivisionIds": [
          10137411
        ],
        "postalCode": "N3H5L4",
        "streetName": "LINDEN",
        "streetDirectionId": null,
        "streetTypeId": "DR",
        "placeName": "CAMBRIDGE",
        "streetNameDisplayText": "LINDEN DR, CAMBRIDGE"
      }
    ]
  },
  {
    "postal": "N3H9E1",
    "result": []
  },
  {
    "postal": "N3H1C4",
    "result": [
      {
        "electoralDistricts": [
          {
            "election": null,
            "id": 16,
            "name": "Cambridge"
          }
        ],
        "pollDivisionIds": [
          10137415,
          10137416,
          10137414
        ],
        "postalCode": "N3H1C4",
        "streetName": "EAGLE",
        "streetDirectionId": "N",
        "streetTypeId": "ST",
        "placeName": "CAMBRIDGE",
        "streetNameDisplayText": "EAGLE ST N, CAMBRIDGE"
      }
    ]
  },
  {
    "postal": "N3H8W5",
    "result": []
  },
  {
    "postal": "N3H1Y4",
    "result": [
      {
        "electoralDistricts": [
          {
            "election": null,
            "id": 16,
            "name": "Cambridge"
          }
        ],
        "pollDivisionIds": [
          10137418
        ],
        "postalCode": "N3H1Y4",
        "streetName": "LOWTHER",
        "streetDirectionId": "S",
        "streetTypeId": "ST",
        "placeName": "CAMBRIDGE",
        "streetNameDisplayText": "LOWTHER ST S, CAMBRIDGE"
      }
    ]
  },
  {
    "postal": "N3H1C0",
    "result": []
  },
  {
    "postal": "N3H2J2",
    "result": [
      {
        "electoralDistricts": [
          {
            "election": null,
            "id": 16,
            "name": "Cambridge"
          }
        ],
        "pollDivisionIds": [
          10137418
        ],
        "postalCode": "N3H2J2",
        "streetName": "MONTROSE",
        "streetDirectionId": "S",
        "streetTypeId": "ST",
        "placeName": "CAMBRIDGE",
        "streetNameDisplayText": "MONTROSE ST S, CAMBRIDGE"
      }
    ]
  },
  {
    "postal": "N3H2J0",
    "result": []
  },
  {
    "postal": "N3H7A3",
    "result": []
  },
  {
    "postal": "N3H8M1",
    "result": []
  },
  {
    "postal": "N3H7T9",
    "result": []
  },
  {
    "postal": "N3H6C0",
    "result": []
  },
  {
    "postal": "N3H7X1",
    "result": []
  },
  {
    "postal": "N3H0G1",
    "result": []
  },
  {
    "postal": "N3H4X2",
    "result": []
  },
  {
    "postal": "N3H0N6",
    "result": []
  },
  {
    "postal": "N3H8E3",
    "result": []
  },
  {
    "postal": "N3H5S8",
    "result": [
      {
        "electoralDistricts": [
          {
            "election": null,
            "id": 16,
            "name": "Cambridge"
          }
        ],
        "pollDivisionIds": [
          10137416
        ],
        "postalCode": "N3H5S8",
        "streetName": "LIVINGSTONE",
        "streetDirectionId": null,
        "streetTypeId": "CRES",
        "placeName": "CAMBRIDGE",
        "streetNameDisplayText": "LIVINGSTONE CRES, CAMBRIDGE"
      },
      {
        "electoralDistricts": [
          {
            "election": null,
            "id": 16,
            "name": "Cambridge"
          }
        ],
        "pollDivisionIds": [
          10137416
        ],
        "postalCode": "N3H5S8",
        "streetName": "NEWPORT",
        "streetDirectionId": null,
        "streetTypeId": "DR",
        "placeName": "CAMBRIDGE",
        "streetNameDisplayText": "NEWPORT DR, CAMBRIDGE"
      },
      {
        "electoralDistricts": [
          {
            "election": null,
            "id": 16,
            "name": "Cambridge"
          }
        ],
        "pollDivisionIds": [
          10137416
        ],
        "postalCode": "N3H5S8",
        "streetName": "VIVIAN BAULK",
        "streetDirectionId": null,
        "streetTypeId": "ST",
        "placeName": "CAMBRIDGE",
        "streetNameDisplayText": "VIVIAN BAULK ST, CAMBRIDGE"
      }
    ]
  },
  {
    "postal": "N3H0R0",
    "result": []
  },
  {
    "postal": "N3H6J6",
    "result": []
  },
  {
    "postal": "N3H4B4",
    "result": [
      {
        "electoralDistricts": [
          {
            "election": null,
            "id": 16,
            "name": "Cambridge"
          }
        ],
        "pollDivisionIds": [
          10137414
        ],
        "postalCode": "N3H4B4",
        "streetName": "SCHLUETER",
        "streetDirectionId": null,
        "streetTypeId": "ST",
        "placeName": "CAMBRIDGE",
        "streetNameDisplayText": "SCHLUETER ST, CAMBRIDGE"
      }
    ]
  },
  {
    "postal": "N3H7E3",
    "result": []
  },
  {
    "postal": "N3H3N6",
    "result": [
      {
        "electoralDistricts": [
          {
            "election": null,
            "id": 16,
            "name": "Cambridge"
          }
        ],
        "pollDivisionIds": [
          10137415
        ],
        "postalCode": "N3H3N6",
        "streetName": "KING",
        "streetDirectionId": "E",
        "streetTypeId": "ST",
        "placeName": "CAMBRIDGE",
        "streetNameDisplayText": "KING ST E, CAMBRIDGE"
      }
    ]
  },
  {
    "postal": "N3H3X6",
    "result": [
      {
        "electoralDistricts": [
          {
            "election": null,
            "id": 16,
            "name": "Cambridge"
          }
        ],
        "pollDivisionIds": [
          10137414
        ],
        "postalCode": "N3H3X6",
        "streetName": "MARGARET",
        "streetDirectionId": null,
        "streetTypeId": "ST",
        "placeName": "CAMBRIDGE",
        "streetNameDisplayText": "MARGARET ST, CAMBRIDGE"
      }
    ]
  },
  {
    "postal": "N3H8L0",
    "result": []
  },
  {
    "postal": "N3H8N1",
    "result": []
  },
  {
    "postal": "N3H4J0",
    "result": []
  },
  {
    "postal": "N3H0X7",
    "result": []
  },
  {
    "postal": "N3H6S4",
    "result": []
  },
  {
    "postal": "N3H0Z0",
    "result": []
  },
  {
    "postal": "N3H9X8",
    "result": []
  },
  {
    "postal": "N3H3H3",
    "result": [
      {
        "electoralDistricts": [
          {
            "election": null,
            "id": 16,
            "name": "Cambridge"
          }
        ],
        "pollDivisionIds": [
          10137418
        ],
        "postalCode": "N3H3H3",
        "streetName": "BLUE HERON",
        "streetDirectionId": null,
        "streetTypeId": "RIDGE",
        "placeName": "CAMBRIDGE",
        "streetNameDisplayText": "BLUE HERON RIDGE, CAMBRIDGE"
      }
    ]
  },
  {
    "postal": "N3H7S2",
    "result": []
  },
  {
    "postal": "N3H3T3",
    "result": [
      {
        "electoralDistricts": [
          {
            "election": null,
            "id": 16,
            "name": "Cambridge"
          }
        ],
        "pollDivisionIds": [
          10137414
        ],
        "postalCode": "N3H3T3",
        "streetName": "DUKE",
        "streetDirectionId": null,
        "streetTypeId": "ST",
        "placeName": "CAMBRIDGE",
        "streetNameDisplayText": "DUKE ST, CAMBRIDGE"
      }
    ]
  },
  {
    "postal": "N3H9P3",
    "result": []
  },
  {
    "postal": "N3H4H8",
    "result": [
      {
        "electoralDistricts": [
          {
            "election": null,
            "id": 16,
            "name": "Cambridge"
          }
        ],
        "pollDivisionIds": [
          10137416
        ],
        "postalCode": "N3H4H8",
        "streetName": "EDGAR",
        "streetDirectionId": null,
        "streetTypeId": "ST",
        "placeName": "CAMBRIDGE",
        "streetNameDisplayText": "EDGAR ST, CAMBRIDGE"
      }
    ]
  },
  {
    "postal": "N3H6R1",
    "result": []
  },
  {
    "postal": "N3H1S0",
    "result": []
  },
  {
    "postal": "N3H3W8",
    "result": [
      {
        "electoralDistricts": [
          {
            "election": null,
            "id": 16,
            "name": "Cambridge"
          }
        ],
        "pollDivisionIds": [
          10137414
        ],
        "postalCode": "N3H3W8",
        "streetName": "WILLIAM",
        "streetDirectionId": null,
        "streetTypeId": "ST",
        "placeName": "CAMBRIDGE",
        "streetNameDisplayText": "WILLIAM ST, CAMBRIDGE"
      }
    ]
  },
  {
    "postal": "N3H4S3",
    "result": []
  },
  {
    "postal": "N3H1B6",
    "result": [
      {
        "electoralDistricts": [
          {
            "election": null,
            "id": 16,
            "name": "Cambridge"
          }
        ],
        "pollDivisionIds": [
          10137414
        ],
        "postalCode": "N3H1B6",
        "streetName": "KING",
        "streetDirectionId": "W",
        "streetTypeId": "ST",
        "placeName": "CAMBRIDGE",
        "streetNameDisplayText": "KING ST W, CAMBRIDGE"
      }
    ]
  },
  {
    "postal": "N3H8R3",
    "result": []
  },
  {
    "postal": "N3H4V9",
    "result": [
      {
        "electoralDistricts": [
          {
            "election": null,
            "id": 16,
            "name": "Cambridge"
          }
        ],
        "pollDivisionIds": [
          10137416
        ],
        "postalCode": "N3H4V9",
        "streetName": "INDUSTRIAL",
        "streetDirectionId": null,
        "streetTypeId": "RD",
        "placeName": "CAMBRIDGE",
        "streetNameDisplayText": "INDUSTRIAL RD, CAMBRIDGE"
      }
    ]
  },
  {
    "postal": "N3H9W4",
    "result": []
  },
  {
    "postal": "N3H3T4",
    "result": [
      {
        "electoralDistricts": [
          {
            "election": null,
            "id": 16,
            "name": "Cambridge"
          }
        ],
        "pollDivisionIds": [
          10137414
        ],
        "postalCode": "N3H3T4",
        "streetName": "DUKE",
        "streetDirectionId": null,
        "streetTypeId": "ST",
        "placeName": "CAMBRIDGE",
        "streetNameDisplayText": "DUKE ST, CAMBRIDGE"
      }
    ]
  },
  {
    "postal": "N3H5C7",
    "result": [
      {
        "electoralDistricts": [
          {
            "election": null,
            "id": 16,
            "name": "Cambridge"
          }
        ],
        "pollDivisionIds": [
          10137413
        ],
        "postalCode": "N3H5C7",
        "streetName": "PRESTON",
        "streetDirectionId": null,
        "streetTypeId": "PKY",
        "placeName": "CAMBRIDGE",
        "streetNameDisplayText": "PRESTON PKY, CAMBRIDGE"
      }
    ]
  },
  {
    "postal": "N3H3Y1",
    "result": [
      {
        "electoralDistricts": [
          {
            "election": null,
            "id": 16,
            "name": "Cambridge"
          }
        ],
        "pollDivisionIds": [
          10137414
        ],
        "postalCode": "N3H3Y1",
        "streetName": "HEDLEY",
        "streetDirectionId": null,
        "streetTypeId": "ST",
        "placeName": "CAMBRIDGE",
        "streetNameDisplayText": "HEDLEY ST, CAMBRIDGE"
      }
    ]
  },
  {
    "postal": "N3H5V0",
    "result": []
  },
  {
    "postal": "N3H8G8",
    "result": []
  },
  {
    "postal": "N3H8B1",
    "result": []
  },
  {
    "postal": "N3H4P5",
    "result": [
      {
        "electoralDistricts": [
          {
            "election": null,
            "id": 16,
            "name": "Cambridge"
          }
        ],
        "pollDivisionIds": [
          10137417
        ],
        "postalCode": "N3H4P5",
        "streetName": "WALTER",
        "streetDirectionId": null,
        "streetTypeId": "ST",
        "placeName": "CAMBRIDGE",
        "streetNameDisplayText": "WALTER ST, CAMBRIDGE"
      }
    ]
  },
  {
    "postal": "N3H7B2",
    "result": []
  },
  {
    "postal": "N3H0R2",
    "result": []
  },
  {
    "postal": "N3H4M4",
    "result": [
      {
        "electoralDistricts": [
          {
            "election": null,
            "id": 16,
            "name": "Cambridge"
          }
        ],
        "pollDivisionIds": [
          10137418
        ],
        "postalCode": "N3H4M4",
        "streetName": "FAIRVIEW",
        "streetDirectionId": null,
        "streetTypeId": "RD",
        "placeName": "CAMBRIDGE",
        "streetNameDisplayText": "FAIRVIEW RD, CAMBRIDGE"
      }
    ]
  },
  {
    "postal": "N3H7M4",
    "result": []
  },
  {
    "postal": "N3H9S7",
    "result": []
  },
  {
    "postal": "N3H5Z7",
    "result": []
  },
  {
    "postal": "N3H7J7",
    "result": []
  },
  {
    "postal": "N3H8R8",
    "result": []
  },
  {
    "postal": "N3H9X1",
    "result": []
  },
  {
    "postal": "N3H5M9",
    "result": [
      {
        "electoralDistricts": [
          {
            "election": null,
            "id": 16,
            "name": "Cambridge"
          }
        ],
        "pollDivisionIds": [
          10137418
        ],
        "postalCode": "N3H5M9",
        "streetName": "DUKE",
        "streetDirectionId": null,
        "streetTypeId": "ST",
        "placeName": "CAMBRIDGE",
        "streetNameDisplayText": "DUKE ST, CAMBRIDGE"
      }
    ]
  },
  {
    "postal": "N3H9B4",
    "result": []
  },
  {
    "postal": "N3H0L9",
    "result": []
  },
  {
    "postal": "N3H9G4",
    "result": []
  },
  {
    "postal": "N3H1J4",
    "result": [
      {
        "electoralDistricts": [
          {
            "election": null,
            "id": 16,
            "name": "Cambridge"
          }
        ],
        "pollDivisionIds": [
          10137414
        ],
        "postalCode": "N3H1J4",
        "streetName": "CHOPIN",
        "streetDirectionId": null,
        "streetTypeId": "DR",
        "placeName": "CAMBRIDGE",
        "streetNameDisplayText": "CHOPIN DR, CAMBRIDGE"
      }
    ]
  },
  {
    "postal": "N3H0W6",
    "result": []
  }
]
