[
  {
    "postal": "K1L9J6",
    "result": []
  },
  {
    "postal": "K1L9Z5",
    "result": []
  },
  {
    "postal": "K1L7H8",
    "result": [
      {
        "electoralDistricts": [
          {
            "election": null,
            "id": 80,
            "name": "Ottawa—Vanier"
          }
        ],
        "pollDivisionIds": [
          10140722
        ],
        "postalCode": "K1L7H8",
        "streetName": "DUPUIS",
        "streetDirectionId": null,
        "streetTypeId": "ST",
        "placeName": "VANIER",
        "streetNameDisplayText": "DUPUIS ST, VANIER"
      }
    ]
  },
  {
    "postal": "K1L0P6",
    "result": []
  },
  {
    "postal": "K1L0S7",
    "result": []
  },
  {
    "postal": "K1L8B9",
    "result": [
      {
        "electoralDistricts": [
          {
            "election": null,
            "id": 80,
            "name": "Ottawa—Vanier"
          }
        ],
        "pollDivisionIds": [
          10140724
        ],
        "postalCode": "K1L8B9",
        "streetName": "NORTH RIVER",
        "streetDirectionId": null,
        "streetTypeId": "RD",
        "placeName": "VANIER",
        "streetNameDisplayText": "NORTH RIVER RD, VANIER"
      }
    ]
  },
  {
    "postal": "K1L2A6",
    "result": []
  },
  {
    "postal": "K1L7V2",
    "result": []
  },
  {
    "postal": "K1L9P4",
    "result": []
  },
  {
    "postal": "K1L6G0",
    "result": []
  },
  {
    "postal": "K1L2K0",
    "result": []
  },
  {
    "postal": "K1L7N6",
    "result": [
      {
        "electoralDistricts": [
          {
            "election": null,
            "id": 80,
            "name": "Ottawa—Vanier"
          }
        ],
        "pollDivisionIds": [
          10140722
        ],
        "postalCode": "K1L7N6",
        "streetName": "CYR",
        "streetDirectionId": null,
        "streetTypeId": "AVE",
        "placeName": "VANIER",
        "streetNameDisplayText": "CYR AVE, VANIER"
      }
    ]
  },
  {
    "postal": "K1L5R3",
    "result": [
      {
        "electoralDistricts": [
          {
            "election": null,
            "id": 80,
            "name": "Ottawa—Vanier"
          }
        ],
        "pollDivisionIds": [
          10144284
        ],
        "postalCode": "K1L5R3",
        "streetName": "MARIER",
        "streetDirectionId": null,
        "streetTypeId": "AVE",
        "placeName": "VANIER",
        "streetNameDisplayText": "MARIER AVE, VANIER"
      }
    ]
  },
  {
    "postal": "K1L7K0",
    "result": []
  },
  {
    "postal": "K1L3R2",
    "result": []
  },
  {
    "postal": "K1L0J1",
    "result": []
  },
  {
    "postal": "K1L0B0",
    "result": []
  },
  {
    "postal": "K1L5Z2",
    "result": [
      {
        "electoralDistricts": [
          {
            "election": null,
            "id": 80,
            "name": "Ottawa—Vanier"
          }
        ],
        "pollDivisionIds": [
          10144284
        ],
        "postalCode": "K1L5Z2",
        "streetName": "DESCHAMPS",
        "streetDirectionId": null,
        "streetTypeId": "AVE",
        "placeName": "VANIER",
        "streetNameDisplayText": "DESCHAMPS AVE, VANIER"
      }
    ]
  },
  {
    "postal": "K1L7P3",
    "result": [
      {
        "electoralDistricts": [
          {
            "election": null,
            "id": 80,
            "name": "Ottawa—Vanier"
          }
        ],
        "pollDivisionIds": [
          10140723
        ],
        "postalCode": "K1L7P3",
        "streetName": "MICHEL",
        "streetDirectionId": null,
        "streetTypeId": "CIR",
        "placeName": "VANIER",
        "streetNameDisplayText": "MICHEL CIR, VANIER"
      }
    ]
  },
  {
    "postal": "K1L2K3",
    "result": []
  },
  {
    "postal": "K1L7Y6",
    "result": [
      {
        "electoralDistricts": [
          {
            "election": null,
            "id": 80,
            "name": "Ottawa—Vanier"
          }
        ],
        "pollDivisionIds": [
          10140719
        ],
        "postalCode": "K1L7Y6",
        "streetName": "GENEST",
        "streetDirectionId": null,
        "streetTypeId": "ST",
        "placeName": "VANIER",
        "streetNameDisplayText": "GENEST ST, VANIER"
      }
    ]
  },
  {
    "postal": "K1L1L9",
    "result": []
  },
  {
    "postal": "K1L8T0",
    "result": []
  },
  {
    "postal": "K1L3K8",
    "result": []
  },
  {
    "postal": "K1L5W9",
    "result": [
      {
        "electoralDistricts": [
          {
            "election": null,
            "id": 80,
            "name": "Ottawa—Vanier"
          }
        ],
        "pollDivisionIds": [
          10144284
        ],
        "postalCode": "K1L5W9",
        "streetName": "ETHEL",
        "streetDirectionId": null,
        "streetTypeId": "ST",
        "placeName": "VANIER",
        "streetNameDisplayText": "ETHEL ST, VANIER"
      }
    ]
  },
  {
    "postal": "K1L6T9",
    "result": [
      {
        "electoralDistricts": [
          {
            "election": null,
            "id": 80,
            "name": "Ottawa—Vanier"
          }
        ],
        "pollDivisionIds": [
          10140726
        ],
        "postalCode": "K1L6T9",
        "streetName": "JEAN TALON",
        "streetDirectionId": null,
        "streetTypeId": "ST",
        "placeName": "VANIER",
        "streetNameDisplayText": "JEAN TALON ST, VANIER"
      },
      {
        "electoralDistricts": [
          {
            "election": null,
            "id": 80,
            "name": "Ottawa—Vanier"
          }
        ],
        "pollDivisionIds": [
          10140726
        ],
        "postalCode": "K1L6T9",
        "streetName": "JEAN-TALON",
        "streetDirectionId": null,
        "streetTypeId": "ST",
        "placeName": "VANIER",
        "streetNameDisplayText": "JEAN-TALON ST, VANIER"
      }
    ]
  },
  {
    "postal": "K1L4H1",
    "result": []
  },
  {
    "postal": "K1L7A2",
    "result": [
      {
        "electoralDistricts": [
          {
            "election": null,
            "id": 80,
            "name": "Ottawa—Vanier"
          }
        ],
        "pollDivisionIds": [
          10140727
        ],
        "postalCode": "K1L7A2",
        "streetName": "MONA",
        "streetDirectionId": null,
        "streetTypeId": "AVE",
        "placeName": "VANIER",
        "streetNameDisplayText": "MONA AVE, VANIER"
      }
    ]
  },
  {
    "postal": "K1L5G0",
    "result": []
  },
  {
    "postal": "K1L8V5",
    "result": []
  },
  {
    "postal": "K1L2Y8",
    "result": []
  },
  {
    "postal": "K1L2B6",
    "result": []
  },
  {
    "postal": "K1L4W8",
    "result": []
  },
  {
    "postal": "K1L8H7",
    "result": []
  },
  {
    "postal": "K1L5P1",
    "result": [
      {
        "electoralDistricts": [
          {
            "election": null,
            "id": 80,
            "name": "Ottawa—Vanier"
          }
        ],
        "pollDivisionIds": [
          10140723
        ],
        "postalCode": "K1L5P1",
        "streetName": "MONTFORT",
        "streetDirectionId": null,
        "streetTypeId": "ST",
        "placeName": "VANIER",
        "streetNameDisplayText": "MONTFORT ST, VANIER"
      }
    ]
  },
  {
    "postal": "K1L2B8",
    "result": []
  },
  {
    "postal": "K1L0P2",
    "result": []
  },
  {
    "postal": "K1L9M1",
    "result": []
  },
  {
    "postal": "K1L3G0",
    "result": []
  },
  {
    "postal": "K1L9Z2",
    "result": []
  },
  {
    "postal": "K1L2A0",
    "result": []
  },
  {
    "postal": "K1L6Y0",
    "result": []
  },
  {
    "postal": "K1L2Z8",
    "result": []
  },
  {
    "postal": "K1L7Y3",
    "result": [
      {
        "electoralDistricts": [
          {
            "election": null,
            "id": 80,
            "name": "Ottawa—Vanier"
          }
        ],
        "pollDivisionIds": [
          10140723
        ],
        "postalCode": "K1L7Y3",
        "streetName": "GENEST",
        "streetDirectionId": null,
        "streetTypeId": "AVE",
        "placeName": "VANIER",
        "streetNameDisplayText": "GENEST AVE, VANIER"
      },
      {
        "electoralDistricts": [
          {
            "election": null,
            "id": 80,
            "name": "Ottawa—Vanier"
          }
        ],
        "pollDivisionIds": [
          10140723
        ],
        "postalCode": "K1L7Y3",
        "streetName": "HECTOR-HOTTE",
        "streetDirectionId": null,
        "streetTypeId": "WAY",
        "placeName": "VANIER",
        "streetNameDisplayText": "HECTOR-HOTTE WAY, VANIER"
      }
    ]
  },
  {
    "postal": "K1L6Z5",
    "result": [
      {
        "electoralDistricts": [
          {
            "election": null,
            "id": 80,
            "name": "Ottawa—Vanier"
          }
        ],
        "pollDivisionIds": [
          10140723
        ],
        "postalCode": "K1L6Z5",
        "streetName": "DUFORD",
        "streetDirectionId": null,
        "streetTypeId": "ST",
        "placeName": "VANIER",
        "streetNameDisplayText": "DUFORD ST, VANIER"
      }
    ]
  },
  {
    "postal": "K1L6E0",
    "result": []
  },
  {
    "postal": "K1L9B7",
    "result": []
  },
  {
    "postal": "K1L9S5",
    "result": []
  },
  {
    "postal": "K1L3X3",
    "result": []
  },
  {
    "postal": "K1L7R5",
    "result": [
      {
        "electoralDistricts": [
          {
            "election": null,
            "id": 80,
            "name": "Ottawa—Vanier"
          }
        ],
        "pollDivisionIds": [
          10144284
        ],
        "postalCode": "K1L7R5",
        "streetName": "BARIBEAU",
        "streetDirectionId": null,
        "streetTypeId": "ST",
        "placeName": "VANIER",
        "streetNameDisplayText": "BARIBEAU ST, VANIER"
      }
    ]
  },
  {
    "postal": "K1L2X3",
    "result": []
  },
  {
    "postal": "K1L8Z9",
    "result": []
  },
  {
    "postal": "K1L0N4",
    "result": []
  },
  {
    "postal": "K1L1K1",
    "result": []
  },
  {
    "postal": "K1L1S3",
    "result": []
  },
  {
    "postal": "K1L6M4",
    "result": [
      {
        "electoralDistricts": [
          {
            "election": null,
            "id": 80,
            "name": "Ottawa—Vanier"
          }
        ],
        "pollDivisionIds": [
          10140722
        ],
        "postalCode": "K1L6M4",
        "streetName": "HERITAGE MAPLE",
        "streetDirectionId": null,
        "streetTypeId": "WAY",
        "placeName": "VANIER",
        "streetNameDisplayText": "HERITAGE MAPLE WAY, VANIER"
      }
    ]
  },
  {
    "postal": "K1L9A9",
    "result": []
  },
  {
    "postal": "K1L9Z9",
    "result": []
  },
  {
    "postal": "K1L6T4",
    "result": [
      {
        "electoralDistricts": [
          {
            "election": null,
            "id": 80,
            "name": "Ottawa—Vanier"
          }
        ],
        "pollDivisionIds": [
          10140726
        ],
        "postalCode": "K1L6T4",
        "streetName": "DUCHARME",
        "streetDirectionId": null,
        "streetTypeId": "BLVD",
        "placeName": "VANIER",
        "streetNameDisplayText": "DUCHARME BLVD, VANIER"
      }
    ]
  },
  {
    "postal": "K1L0B2",
    "result": []
  },
  {
    "postal": "K1L2L9",
    "result": []
  },
  {
    "postal": "K1L8K9",
    "result": [
      {
        "electoralDistricts": [
          {
            "election": null,
            "id": 80,
            "name": "Ottawa—Vanier"
          }
        ],
        "pollDivisionIds": [
          10140714
        ],
        "postalCode": "K1L8K9",
        "streetName": "BITTERN",
        "streetDirectionId": null,
        "streetTypeId": "CRT",
        "placeName": "ROCKCLIFFE",
        "streetNameDisplayText": "BITTERN CRT, ROCKCLIFFE"
      }
    ]
  },
  {
    "postal": "K1L2H9",
    "result": []
  },
  {
    "postal": "K1L3Z6",
    "result": []
  },
  {
    "postal": "K1L3B0",
    "result": []
  },
  {
    "postal": "K1L2H8",
    "result": []
  },
  {
    "postal": "K1L3X2",
    "result": []
  },
  {
    "postal": "K1L2E9",
    "result": []
  },
  {
    "postal": "K1L9P6",
    "result": []
  },
  {
    "postal": "K1L9E2",
    "result": []
  },
  {
    "postal": "K1L9H2",
    "result": []
  },
  {
    "postal": "K1L1S8",
    "result": []
  },
  {
    "postal": "K1L3M6",
    "result": []
  },
  {
    "postal": "K1L6Z8",
    "result": [
      {
        "electoralDistricts": [
          {
            "election": null,
            "id": 80,
            "name": "Ottawa—Vanier"
          }
        ],
        "pollDivisionIds": [
          10140723
        ],
        "postalCode": "K1L6Z8",
        "streetName": "DUFORD",
        "streetDirectionId": null,
        "streetTypeId": "ST",
        "placeName": "VANIER",
        "streetNameDisplayText": "DUFORD ST, VANIER"
      }
    ]
  },
  {
    "postal": "K1L4J2",
    "result": []
  },
  {
    "postal": "K1L9Y1",
    "result": []
  },
  {
    "postal": "K1L8V6",
    "result": []
  },
  {
    "postal": "K1L6B2",
    "result": [
      {
        "electoralDistricts": [
          {
            "election": null,
            "id": 80,
            "name": "Ottawa—Vanier"
          }
        ],
        "pollDivisionIds": [
          10140727
        ],
        "postalCode": "K1L6B2",
        "streetName": "MONTREAL",
        "streetDirectionId": null,
        "streetTypeId": "RD",
        "placeName": "VANIER",
        "streetNameDisplayText": "MONTREAL RD, VANIER"
      }
    ]
  },
  {
    "postal": "K1L1P8",
    "result": []
  },
  {
    "postal": "K1L0V8",
    "result": []
  },
  {
    "postal": "K1L4Y0",
    "result": []
  },
  {
    "postal": "K1L2T4",
    "result": []
  },
  {
    "postal": "K1L2S3",
    "result": []
  },
  {
    "postal": "K1L0K0",
    "result": []
  },
  {
    "postal": "K1L5N1",
    "result": [
      {
        "electoralDistricts": [
          {
            "election": null,
            "id": 80,
            "name": "Ottawa—Vanier"
          }
        ],
        "pollDivisionIds": [
          10140727
        ],
        "postalCode": "K1L5N1",
        "streetName": "MONTFORT",
        "streetDirectionId": null,
        "streetTypeId": "ST",
        "placeName": "VANIER",
        "streetNameDisplayText": "MONTFORT ST, VANIER"
      }
    ]
  },
  {
    "postal": "K1L7T0",
    "result": []
  },
  {
    "postal": "K1L9N2",
    "result": []
  },
  {
    "postal": "K1L5L1",
    "result": [
      {
        "electoralDistricts": [
          {
            "election": null,
            "id": 80,
            "name": "Ottawa—Vanier"
          }
        ],
        "pollDivisionIds": [
          10140719
        ],
        "postalCode": "K1L5L1",
        "streetName": "ACADIE",
        "streetDirectionId": null,
        "streetTypeId": "CRT",
        "placeName": "VANIER",
        "streetNameDisplayText": "ACADIE CRT, VANIER"
      }
    ]
  },
  {
    "postal": "K1L7G5",
    "result": [
      {
        "electoralDistricts": [
          {
            "election": null,
            "id": 80,
            "name": "Ottawa—Vanier"
          }
        ],
        "pollDivisionIds": [
          10144284
        ],
        "postalCode": "K1L7G5",
        "streetName": "PARK",
        "streetDirectionId": null,
        "streetTypeId": "ST",
        "placeName": "VANIER",
        "streetNameDisplayText": "PARK ST, VANIER"
      }
    ]
  },
  {
    "postal": "K1L6K2",
    "result": [
      {
        "electoralDistricts": [
          {
            "election": null,
            "id": 80,
            "name": "Ottawa—Vanier"
          }
        ],
        "pollDivisionIds": [
          10140722
        ],
        "postalCode": "K1L6K2",
        "streetName": "RICHELIEU",
        "streetDirectionId": null,
        "streetTypeId": "AVE",
        "placeName": "VANIER",
        "streetNameDisplayText": "RICHELIEU AVE, VANIER"
      }
    ]
  },
  {
    "postal": "K1L6P9",
    "result": [
      {
        "electoralDistricts": [
          {
            "election": null,
            "id": 80,
            "name": "Ottawa—Vanier"
          }
        ],
        "pollDivisionIds": [
          10140724
        ],
        "postalCode": "K1L6P9",
        "streetName": "MCARTHUR",
        "streetDirectionId": null,
        "streetTypeId": "AVE",
        "placeName": "VANIER",
        "streetNameDisplayText": "MCARTHUR AVE, VANIER"
      }
    ]
  },
  {
    "postal": "K1L0E6",
    "result": []
  },
  {
    "postal": "K1L8R9",
    "result": []
  },
  {
    "postal": "K1L3G9",
    "result": []
  },
  {
    "postal": "K1L0V7",
    "result": []
  },
  {
    "postal": "K1L2Z1",
    "result": []
  },
  {
    "postal": "K1L7N1",
    "result": [
      {
        "electoralDistricts": [
          {
            "election": null,
            "id": 80,
            "name": "Ottawa—Vanier"
          }
        ],
        "pollDivisionIds": [
          10144284
        ],
        "postalCode": "K1L7N1",
        "streetName": "HANNAH",
        "streetDirectionId": null,
        "streetTypeId": "ST",
        "placeName": "VANIER",
        "streetNameDisplayText": "HANNAH ST, VANIER"
      }
    ]
  },
  {
    "postal": "K1L3C6",
    "result": []
  },
  {
    "postal": "K1L4M1",
    "result": []
  },
  {
    "postal": "K1L9K2",
    "result": []
  },
  {
    "postal": "K1L9S6",
    "result": []
  },
  {
    "postal": "K1L4X1",
    "result": []
  },
  {
    "postal": "K1L8W2",
    "result": []
  },
  {
    "postal": "K1L7N2",
    "result": [
      {
        "electoralDistricts": [
          {
            "election": null,
            "id": 80,
            "name": "Ottawa—Vanier"
          }
        ],
        "pollDivisionIds": [
          10144284
        ],
        "postalCode": "K1L7N2",
        "streetName": "HANNAH",
        "streetDirectionId": null,
        "streetTypeId": "ST",
        "placeName": "VANIER",
        "streetNameDisplayText": "HANNAH ST, VANIER"
      }
    ]
  },
  {
    "postal": "K1L8S3",
    "result": []
  },
  {
    "postal": "K1L4V0",
    "result": []
  },
  {
    "postal": "K1L6W4",
    "result": [
      {
        "electoralDistricts": [
          {
            "election": null,
            "id": 80,
            "name": "Ottawa—Vanier"
          }
        ],
        "pollDivisionIds": [
          10140727
        ],
        "postalCode": "K1L6W4",
        "streetName": "ALFRED",
        "streetDirectionId": null,
        "streetTypeId": "ST",
        "placeName": "VANIER",
        "streetNameDisplayText": "ALFRED ST, VANIER"
      }
    ]
  },
  {
    "postal": "K1L5M1",
    "result": [
      {
        "electoralDistricts": [
          {
            "election": null,
            "id": 80,
            "name": "Ottawa—Vanier"
          }
        ],
        "pollDivisionIds": [
          10140723
        ],
        "postalCode": "K1L5M1",
        "streetName": "SHAKESPEARE",
        "streetDirectionId": null,
        "streetTypeId": "ST",
        "placeName": "VANIER",
        "streetNameDisplayText": "SHAKESPEARE ST, VANIER"
      }
    ]
  },
  {
    "postal": "K1L0S4",
    "result": []
  },
  {
    "postal": "K1L5X6",
    "result": [
      {
        "electoralDistricts": [
          {
            "election": null,
            "id": 80,
            "name": "Ottawa—Vanier"
          }
        ],
        "pollDivisionIds": [
          10144284
        ],
        "postalCode": "K1L5X6",
        "streetName": "CARILLON",
        "streetDirectionId": null,
        "streetTypeId": "ST",
        "placeName": "VANIER",
        "streetNameDisplayText": "CARILLON ST, VANIER"
      }
    ]
  },
  {
    "postal": "K1L8L5",
    "result": [
      {
        "electoralDistricts": [
          {
            "election": null,
            "id": 80,
            "name": "Ottawa—Vanier"
          }
        ],
        "pollDivisionIds": [
          10140723
        ],
        "postalCode": "K1L8L5",
        "streetName": "IDA ROCHELEAU",
        "streetDirectionId": null,
        "streetTypeId": "PL",
        "placeName": "VANIER",
        "streetNameDisplayText": "IDA ROCHELEAU PL, VANIER"
      }
    ]
  },
  {
    "postal": "K1L5M8",
    "result": [
      {
        "electoralDistricts": [
          {
            "election": null,
            "id": 80,
            "name": "Ottawa—Vanier"
          }
        ],
        "pollDivisionIds": [
          10140723
        ],
        "postalCode": "K1L5M8",
        "streetName": "SHAKESPEARE",
        "streetDirectionId": null,
        "streetTypeId": "ST",
        "placeName": "VANIER",
        "streetNameDisplayText": "SHAKESPEARE ST, VANIER"
      }
    ]
  },
  {
    "postal": "K1L2G3",
    "result": []
  },
  {
    "postal": "K1L8E4",
    "result": []
  },
  {
    "postal": "K1L7S9",
    "result": [
      {
        "electoralDistricts": [
          {
            "election": null,
            "id": 80,
            "name": "Ottawa—Vanier"
          }
        ],
        "pollDivisionIds": [
          10144284
        ],
        "postalCode": "K1L7S9",
        "streetName": "DESROSIERS",
        "streetDirectionId": null,
        "streetTypeId": "ST",
        "placeName": "VANIER",
        "streetNameDisplayText": "DESROSIERS ST, VANIER"
      }
    ]
  },
  {
    "postal": "K1L1K3",
    "result": []
  },
  {
    "postal": "K1L4E1",
    "result": []
  },
  {
    "postal": "K1L4R2",
    "result": []
  },
  {
    "postal": "K1L6T0",
    "result": []
  },
  {
    "postal": "K1L3K5",
    "result": []
  },
  {
    "postal": "K1L3S3",
    "result": []
  },
  {
    "postal": "K1L3L4",
    "result": []
  },
  {
    "postal": "K1L9Y2",
    "result": []
  },
  {
    "postal": "K1L1E0",
    "result": []
  },
  {
    "postal": "K1L9A4",
    "result": []
  },
  {
    "postal": "K1L1L3",
    "result": []
  },
  {
    "postal": "K1L6N1",
    "result": [
      {
        "electoralDistricts": [
          {
            "election": null,
            "id": 80,
            "name": "Ottawa—Vanier"
          }
        ],
        "pollDivisionIds": [
          10140724
        ],
        "postalCode": "K1L6N1",
        "streetName": "SELKIRK",
        "streetDirectionId": null,
        "streetTypeId": "ST",
        "placeName": "VANIER",
        "streetNameDisplayText": "SELKIRK ST, VANIER"
      }
    ]
  },
  {
    "postal": "K1L6G7",
    "result": [
      {
        "electoralDistricts": [
          {
            "election": null,
            "id": 80,
            "name": "Ottawa—Vanier"
          }
        ],
        "pollDivisionIds": [
          10140726
        ],
        "postalCode": "K1L6G7",
        "streetName": "LEVIS",
        "streetDirectionId": null,
        "streetTypeId": "AVE",
        "placeName": "VANIER",
        "streetNameDisplayText": "LEVIS AVE, VANIER"
      },
      {
        "electoralDistricts": [
          {
            "election": null,
            "id": 80,
            "name": "Ottawa—Vanier"
          }
        ],
        "pollDivisionIds": [
          10140726
        ],
        "postalCode": "K1L6G7",
        "streetName": "LEVIS",
        "streetDirectionId": null,
        "streetTypeId": "ST",
        "placeName": "VANIER",
        "streetNameDisplayText": "LEVIS ST, VANIER"
      }
    ]
  },
  {
    "postal": "K1L7W1",
    "result": [
      {
        "electoralDistricts": [
          {
            "election": null,
            "id": 80,
            "name": "Ottawa—Vanier"
          }
        ],
        "pollDivisionIds": [
          10140724
        ],
        "postalCode": "K1L7W1",
        "streetName": "MAYFIELD",
        "streetDirectionId": null,
        "streetTypeId": "AVE",
        "placeName": "VANIER",
        "streetNameDisplayText": "MAYFIELD AVE, VANIER"
      }
    ]
  },
  {
    "postal": "K1L4M6",
    "result": []
  },
  {
    "postal": "K1L1K0",
    "result": []
  },
  {
    "postal": "K1L3E2",
    "result": []
  },
  {
    "postal": "K1L5H4",
    "result": [
      {
        "electoralDistricts": [
          {
            "election": null,
            "id": 80,
            "name": "Ottawa—Vanier"
          }
        ],
        "pollDivisionIds": [
          10140723
        ],
        "postalCode": "K1L5H4",
        "streetName": "JOLLIET",
        "streetDirectionId": null,
        "streetTypeId": "AVE",
        "placeName": "VANIER",
        "streetNameDisplayText": "JOLLIET AVE, VANIER"
      }
    ]
  },
  {
    "postal": "K1L1K7",
    "result": []
  },
  {
    "postal": "K1L0H0",
    "result": []
  },
  {
    "postal": "K1L0J3",
    "result": []
  },
  {
    "postal": "K1L1X6",
    "result": []
  },
  {
    "postal": "K1L2Z6",
    "result": []
  },
  {
    "postal": "K1L4R9",
    "result": []
  },
  {
    "postal": "K1L0W8",
    "result": []
  },
  {
    "postal": "K1L1L4",
    "result": []
  },
  {
    "postal": "K1L0C8",
    "result": []
  },
  {
    "postal": "K1L9X7",
    "result": []
  },
  {
    "postal": "K1L4T1",
    "result": []
  },
  {
    "postal": "K1L0M0",
    "result": []
  },
  {
    "postal": "K1L6A2",
    "result": [
      {
        "electoralDistricts": [
          {
            "election": null,
            "id": 80,
            "name": "Ottawa—Vanier"
          }
        ],
        "pollDivisionIds": [
          10140722
        ],
        "postalCode": "K1L6A2",
        "streetName": "COUPAL",
        "streetDirectionId": null,
        "streetTypeId": "ST",
        "placeName": "VANIER",
        "streetNameDisplayText": "COUPAL ST, VANIER"
      }
    ]
  },
  {
    "postal": "K1L9S8",
    "result": []
  },
  {
    "postal": "K1L9T4",
    "result": []
  },
  {
    "postal": "K1L9Y4",
    "result": []
  },
  {
    "postal": "K1L6G5",
    "result": [
      {
        "electoralDistricts": [
          {
            "election": null,
            "id": 80,
            "name": "Ottawa—Vanier"
          }
        ],
        "pollDivisionIds": [
          10140726
        ],
        "postalCode": "K1L6G5",
        "streetName": "LEVIS",
        "streetDirectionId": null,
        "streetTypeId": "AVE",
        "placeName": "VANIER",
        "streetNameDisplayText": "LEVIS AVE, VANIER"
      }
    ]
  },
  {
    "postal": "K1L6H9",
    "result": [
      {
        "electoralDistricts": [
          {
            "election": null,
            "id": 80,
            "name": "Ottawa—Vanier"
          }
        ],
        "pollDivisionIds": [
          10140722
        ],
        "postalCode": "K1L6H9",
        "streetName": "LEVIS",
        "streetDirectionId": null,
        "streetTypeId": "AVE",
        "placeName": "VANIER",
        "streetNameDisplayText": "LEVIS AVE, VANIER"
      },
      {
        "electoralDistricts": [
          {
            "election": null,
            "id": 80,
            "name": "Ottawa—Vanier"
          }
        ],
        "pollDivisionIds": [
          10140722
        ],
        "postalCode": "K1L6H9",
        "streetName": "LEVIS",
        "streetDirectionId": null,
        "streetTypeId": "ST",
        "placeName": "VANIER",
        "streetNameDisplayText": "LEVIS ST, VANIER"
      }
    ]
  },
  {
    "postal": "K1L2P3",
    "result": []
  },
  {
    "postal": "K1L1T6",
    "result": []
  },
  {
    "postal": "K1L4P6",
    "result": []
  },
  {
    "postal": "K1L3K1",
    "result": []
  },
  {
    "postal": "K1L6X4",
    "result": [
      {
        "electoralDistricts": [
          {
            "election": null,
            "id": 80,
            "name": "Ottawa—Vanier"
          }
        ],
        "pollDivisionIds": [
          10140726,
          10140722
        ],
        "postalCode": "K1L6X4",
        "streetName": "LAFONTAINE",
        "streetDirectionId": null,
        "streetTypeId": "AVE",
        "placeName": "VANIER",
        "streetNameDisplayText": "LAFONTAINE AVE, VANIER"
      }
    ]
  },
  {
    "postal": "K1L4M8",
    "result": []
  },
  {
    "postal": "K1L2Y1",
    "result": []
  },
  {
    "postal": "K1L6M1",
    "result": [
      {
        "electoralDistricts": [
          {
            "election": null,
            "id": 80,
            "name": "Ottawa—Vanier"
          }
        ],
        "pollDivisionIds": [
          10140722
        ],
        "postalCode": "K1L6M1",
        "streetName": "JEANNE-MANCE",
        "streetDirectionId": null,
        "streetTypeId": "ST",
        "placeName": "VANIER",
        "streetNameDisplayText": "JEANNE-MANCE ST, VANIER"
      }
    ]
  },
  {
    "postal": "K1L5L8",
    "result": [
      {
        "electoralDistricts": [
          {
            "election": null,
            "id": 80,
            "name": "Ottawa—Vanier"
          }
        ],
        "pollDivisionIds": [
          10140727
        ],
        "postalCode": "K1L5L8",
        "streetName": "SHAKESPEARE",
        "streetDirectionId": null,
        "streetTypeId": "ST",
        "placeName": "VANIER",
        "streetNameDisplayText": "SHAKESPEARE ST, VANIER"
      }
    ]
  },
  {
    "postal": "K1L3P6",
    "result": []
  },
  {
    "postal": "K1L9A5",
    "result": []
  },
  {
    "postal": "K1L7K1",
    "result": [
      {
        "electoralDistricts": [
          {
            "election": null,
            "id": 80,
            "name": "Ottawa—Vanier"
          }
        ],
        "pollDivisionIds": [
          10140722
        ],
        "postalCode": "K1L7K1",
        "streetName": "OLMSTEAD",
        "streetDirectionId": null,
        "streetTypeId": "ST",
        "placeName": "VANIER",
        "streetNameDisplayText": "OLMSTEAD ST, VANIER"
      }
    ]
  },
  {
    "postal": "K1L3J4",
    "result": []
  },
  {
    "postal": "K1L5E7",
    "result": [
      {
        "electoralDistricts": [
          {
            "election": null,
            "id": 80,
            "name": "Ottawa—Vanier"
          }
        ],
        "pollDivisionIds": [
          10140723
        ],
        "postalCode": "K1L5E7",
        "streetName": "LAVERGNE",
        "streetDirectionId": null,
        "streetTypeId": "ST",
        "placeName": "VANIER",
        "streetNameDisplayText": "LAVERGNE ST, VANIER"
      }
    ]
  },
  {
    "postal": "K1L3A7",
    "result": []
  },
  {
    "postal": "K1L1B9",
    "result": []
  },
  {
    "postal": "K1L9E8",
    "result": []
  },
  {
    "postal": "K1L1C9",
    "result": []
  },
  {
    "postal": "K1L3B5",
    "result": []
  },
  {
    "postal": "K1L8R0",
    "result": []
  },
  {
    "postal": "K1L3P2",
    "result": []
  },
  {
    "postal": "K1L5V4",
    "result": [
      {
        "electoralDistricts": [
          {
            "election": null,
            "id": 80,
            "name": "Ottawa—Vanier"
          }
        ],
        "pollDivisionIds": [
          10140709
        ],
        "postalCode": "K1L5V4",
        "streetName": "CHARLES",
        "streetDirectionId": null,
        "streetTypeId": "ST",
        "placeName": "OTTAWA",
        "streetNameDisplayText": "CHARLES ST, OTTAWA"
      },
      {
        "electoralDistricts": [
          {
            "election": null,
            "id": 80,
            "name": "Ottawa—Vanier"
          }
        ],
        "pollDivisionIds": [
          10140709
        ],
        "postalCode": "K1L5V4",
        "streetName": "CHARLES",
        "streetDirectionId": null,
        "streetTypeId": "ST",
        "placeName": "VANIER",
        "streetNameDisplayText": "CHARLES ST, VANIER"
      },
      {
        "electoralDistricts": [
          {
            "election": null,
            "id": 80,
            "name": "Ottawa—Vanier"
          }
        ],
        "pollDivisionIds": [
          10140719
        ],
        "postalCode": "K1L5V4",
        "streetName": "ST CHARLES",
        "streetDirectionId": null,
        "streetTypeId": "ST",
        "placeName": "VANIER",
        "streetNameDisplayText": "ST CHARLES ST, VANIER"
      }
    ]
  },
  {
    "postal": "K1L4H0",
    "result": []
  },
  {
    "postal": "K1L4S7",
    "result": []
  },
  {
    "postal": "K1L6C2",
    "result": [
      {
        "electoralDistricts": [
          {
            "election": null,
            "id": 80,
            "name": "Ottawa—Vanier"
          }
        ],
        "pollDivisionIds": [
          10144284
        ],
        "postalCode": "K1L6C2",
        "streetName": "MONTREAL",
        "streetDirectionId": null,
        "streetTypeId": "RD",
        "placeName": "VANIER",
        "streetNameDisplayText": "MONTREAL RD, VANIER"
      },
      {
        "electoralDistricts": [
          {
            "election": null,
            "id": 80,
            "name": "Ottawa—Vanier"
          }
        ],
        "pollDivisionIds": [
          10144284
        ],
        "postalCode": "K1L6C2",
        "streetName": "MONTRÉAL",
        "streetDirectionId": null,
        "streetTypeId": "RD",
        "placeName": "VANIER",
        "streetNameDisplayText": "MONTRÉAL RD, VANIER"
      }
    ]
  },
  {
    "postal": "K1L8W3",
    "result": []
  },
  {
    "postal": "K1L4M5",
    "result": []
  },
  {
    "postal": "K1L5T1",
    "result": [
      {
        "electoralDistricts": [
          {
            "election": null,
            "id": 80,
            "name": "Ottawa—Vanier"
          }
        ],
        "pollDivisionIds": [
          10140719
        ],
        "postalCode": "K1L5T1",
        "streetName": "DAGMAR",
        "streetDirectionId": null,
        "streetTypeId": "AVE",
        "placeName": "VANIER",
        "streetNameDisplayText": "DAGMAR AVE, VANIER"
      }
    ]
  },
  {
    "postal": "K1L3B3",
    "result": []
  },
  {
    "postal": "K1L6C6",
    "result": [
      {
        "electoralDistricts": [
          {
            "election": null,
            "id": 80,
            "name": "Ottawa—Vanier"
          }
        ],
        "pollDivisionIds": [
          10140722
        ],
        "postalCode": "K1L6C6",
        "streetName": "MONTREAL",
        "streetDirectionId": null,
        "streetTypeId": "RD",
        "placeName": "VANIER",
        "streetNameDisplayText": "MONTREAL RD, VANIER"
      },
      {
        "electoralDistricts": [
          {
            "election": null,
            "id": 80,
            "name": "Ottawa—Vanier"
          }
        ],
        "pollDivisionIds": [
          10140722
        ],
        "postalCode": "K1L6C6",
        "streetName": "MONTRÉAL",
        "streetDirectionId": null,
        "streetTypeId": "RD",
        "placeName": "VANIER",
        "streetNameDisplayText": "MONTRÉAL RD, VANIER"
      }
    ]
  },
  {
    "postal": "K1L7N8",
    "result": [
      {
        "electoralDistricts": [
          {
            "election": null,
            "id": 80,
            "name": "Ottawa—Vanier"
          }
        ],
        "pollDivisionIds": [
          10140722
        ],
        "postalCode": "K1L7N8",
        "streetName": "CYR",
        "streetDirectionId": null,
        "streetTypeId": "AVE",
        "placeName": "VANIER",
        "streetNameDisplayText": "CYR AVE, VANIER"
      }
    ]
  },
  {
    "postal": "K1L2Y3",
    "result": []
  },
  {
    "postal": "K1L2R6",
    "result": []
  },
  {
    "postal": "K1L7N3",
    "result": [
      {
        "electoralDistricts": [
          {
            "election": null,
            "id": 80,
            "name": "Ottawa—Vanier"
          }
        ],
        "pollDivisionIds": [
          10140722
        ],
        "postalCode": "K1L7N3",
        "streetName": "CODY",
        "streetDirectionId": null,
        "streetTypeId": "AVE",
        "placeName": "VANIER",
        "streetNameDisplayText": "CODY AVE, VANIER"
      }
    ]
  },
  {
    "postal": "K1L8J2",
    "result": []
  },
  {
    "postal": "K1L6A9",
    "result": [
      {
        "electoralDistricts": [
          {
            "election": null,
            "id": 80,
            "name": "Ottawa—Vanier"
          }
        ],
        "pollDivisionIds": [
          10140769,
          10140726
        ],
        "postalCode": "K1L6A9",
        "streetName": "MONTREAL",
        "streetDirectionId": null,
        "streetTypeId": "RD",
        "placeName": "VANIER",
        "streetNameDisplayText": "MONTREAL RD, VANIER"
      }
    ]
  },
  {
    "postal": "K1L3V2",
    "result": []
  },
  {
    "postal": "K1L2N3",
    "result": []
  },
  {
    "postal": "K1L1S5",
    "result": []
  },
  {
    "postal": "K1L4T7",
    "result": []
  },
  {
    "postal": "K1L6Y7",
    "result": [
      {
        "electoralDistricts": [
          {
            "election": null,
            "id": 80,
            "name": "Ottawa—Vanier"
          }
        ],
        "pollDivisionIds": [
          10140727
        ],
        "postalCode": "K1L6Y7",
        "streetName": "GRANVILLE",
        "streetDirectionId": null,
        "streetTypeId": "ST",
        "placeName": "VANIER",
        "streetNameDisplayText": "GRANVILLE ST, VANIER"
      }
    ]
  },
  {
    "postal": "K1L0W7",
    "result": []
  },
  {
    "postal": "K1L2W9",
    "result": []
  },
  {
    "postal": "K1L8V0",
    "result": []
  },
  {
    "postal": "K1L0H4",
    "result": []
  },
  {
    "postal": "K1L2T1",
    "result": []
  },
  {
    "postal": "K1L1B1",
    "result": [
      {
        "electoralDistricts": [
          {
            "election": null,
            "id": 80,
            "name": "Ottawa—Vanier"
          }
        ],
        "pollDivisionIds": [
          10140722
        ],
        "postalCode": "K1L1B1",
        "streetName": "OLMSTEAD",
        "streetDirectionId": null,
        "streetTypeId": "ST",
        "placeName": "VANIER",
        "streetNameDisplayText": "OLMSTEAD ST, VANIER"
      }
    ]
  },
  {
    "postal": "K1L8B6",
    "result": [
      {
        "electoralDistricts": [
          {
            "election": null,
            "id": 80,
            "name": "Ottawa—Vanier"
          }
        ],
        "pollDivisionIds": [
          10140722
        ],
        "postalCode": "K1L8B6",
        "streetName": "NORTH RIVER",
        "streetDirectionId": null,
        "streetTypeId": "RD",
        "placeName": "VANIER",
        "streetNameDisplayText": "NORTH RIVER RD, VANIER"
      }
    ]
  },
  {
    "postal": "K1L6H1",
    "result": [
      {
        "electoralDistricts": [
          {
            "election": null,
            "id": 80,
            "name": "Ottawa—Vanier"
          }
        ],
        "pollDivisionIds": [
          10140727
        ],
        "postalCode": "K1L6H1",
        "streetName": "LEVIS",
        "streetDirectionId": null,
        "streetTypeId": "AVE",
        "placeName": "VANIER",
        "streetNameDisplayText": "LEVIS AVE, VANIER"
      }
    ]
  },
  {
    "postal": "K1L8T8",
    "result": []
  },
  {
    "postal": "K1L0T4",
    "result": []
  },
  {
    "postal": "K1L2C4",
    "result": []
  },
  {
    "postal": "K1L8N3",
    "result": []
  },
  {
    "postal": "K1L4L8",
    "result": []
  },
  {
    "postal": "K1L2B5",
    "result": []
  },
  {
    "postal": "K1L3H1",
    "result": []
  },
  {
    "postal": "K1L4Y1",
    "result": []
  },
  {
    "postal": "K1L7E2",
    "result": [
      {
        "electoralDistricts": [
          {
            "election": null,
            "id": 80,
            "name": "Ottawa—Vanier"
          }
        ],
        "pollDivisionIds": [
          10140723
        ],
        "postalCode": "K1L7E2",
        "streetName": "BRADLEY",
        "streetDirectionId": null,
        "streetTypeId": "AVE",
        "placeName": "VANIER",
        "streetNameDisplayText": "BRADLEY AVE, VANIER"
      }
    ]
  },
  {
    "postal": "K1L2P5",
    "result": []
  },
  {
    "postal": "K1L8R7",
    "result": []
  },
  {
    "postal": "K1L9P1",
    "result": []
  },
  {
    "postal": "K1L3B8",
    "result": []
  },
  {
    "postal": "K1L3P7",
    "result": []
  },
  {
    "postal": "K1L9B2",
    "result": []
  },
  {
    "postal": "K1L6Z3",
    "result": [
      {
        "electoralDistricts": [
          {
            "election": null,
            "id": 80,
            "name": "Ottawa—Vanier"
          }
        ],
        "pollDivisionIds": [
          10140727
        ],
        "postalCode": "K1L6Z3",
        "streetName": "GRANVILLE",
        "streetDirectionId": null,
        "streetTypeId": "ST",
        "placeName": "VANIER",
        "streetNameDisplayText": "GRANVILLE ST, VANIER"
      }
    ]
  },
  {
    "postal": "K1L4N5",
    "result": []
  },
  {
    "postal": "K1L8T3",
    "result": []
  },
  {
    "postal": "K1L1V2",
    "result": []
  },
  {
    "postal": "K1L1Y0",
    "result": []
  },
  {
    "postal": "K1L3G6",
    "result": []
  },
  {
    "postal": "K1L3H7",
    "result": []
  },
  {
    "postal": "K1L7X8",
    "result": [
      {
        "electoralDistricts": [
          {
            "election": null,
            "id": 80,
            "name": "Ottawa—Vanier"
          }
        ],
        "pollDivisionIds": [
          10140722
        ],
        "postalCode": "K1L7X8",
        "streetName": "LENORE",
        "streetDirectionId": null,
        "streetTypeId": "PL",
        "placeName": "VANIER",
        "streetNameDisplayText": "LENORE PL, VANIER"
      }
    ]
  },
  {
    "postal": "K1L0C7",
    "result": []
  },
  {
    "postal": "K1L0W9",
    "result": []
  },
  {
    "postal": "K1L8E6",
    "result": [
      {
        "electoralDistricts": [
          {
            "election": null,
            "id": 80,
            "name": "Ottawa—Vanier"
          }
        ],
        "pollDivisionIds": [
          10140719
        ],
        "postalCode": "K1L8E6",
        "streetName": "LANDRY",
        "streetDirectionId": null,
        "streetTypeId": "ST",
        "placeName": "VANIER",
        "streetNameDisplayText": "LANDRY ST, VANIER"
      }
    ]
  },
  {
    "postal": "K1L9Z8",
    "result": []
  },
  {
    "postal": "K1L3P4",
    "result": []
  },
  {
    "postal": "K1L6L8",
    "result": [
      {
        "electoralDistricts": [
          {
            "election": null,
            "id": 80,
            "name": "Ottawa—Vanier"
          }
        ],
        "pollDivisionIds": [
          10140722
        ],
        "postalCode": "K1L6L8",
        "streetName": "JEANNE-MANCE",
        "streetDirectionId": null,
        "streetTypeId": "ST",
        "placeName": "VANIER",
        "streetNameDisplayText": "JEANNE-MANCE ST, VANIER"
      }
    ]
  },
  {
    "postal": "K1L2R4",
    "result": []
  },
  {
    "postal": "K1L2W1",
    "result": []
  },
  {
    "postal": "K1L9H8",
    "result": []
  },
  {
    "postal": "K1L8X9",
    "result": []
  },
  {
    "postal": "K1L7H4",
    "result": [
      {
        "electoralDistricts": [
          {
            "election": null,
            "id": 80,
            "name": "Ottawa—Vanier"
          }
        ],
        "pollDivisionIds": [
          10140722
        ],
        "postalCode": "K1L7H4",
        "streetName": "LAJOIE",
        "streetDirectionId": null,
        "streetTypeId": "ST",
        "placeName": "VANIER",
        "streetNameDisplayText": "LAJOIE ST, VANIER"
      }
    ]
  },
  {
    "postal": "K1L3J1",
    "result": []
  },
  {
    "postal": "K1L1P4",
    "result": []
  },
  {
    "postal": "K1L2A3",
    "result": []
  },
  {
    "postal": "K1L0Z1",
    "result": []
  },
  {
    "postal": "K1L1C1",
    "result": []
  },
  {
    "postal": "K1L0H3",
    "result": []
  },
  {
    "postal": "K1L7B0",
    "result": []
  },
  {
    "postal": "K1L5K2",
    "result": []
  },
  {
    "postal": "K1L1E9",
    "result": []
  },
  {
    "postal": "K1L9W7",
    "result": []
  },
  {
    "postal": "K1L5W6",
    "result": [
      {
        "electoralDistricts": [
          {
            "election": null,
            "id": 80,
            "name": "Ottawa—Vanier"
          }
        ],
        "pollDivisionIds": [
          10140719
        ],
        "postalCode": "K1L5W6",
        "streetName": "LANDRY",
        "streetDirectionId": null,
        "streetTypeId": "ST",
        "placeName": "VANIER",
        "streetNameDisplayText": "LANDRY ST, VANIER"
      }
    ]
  },
  {
    "postal": "K1L6S6",
    "result": [
      {
        "electoralDistricts": [
          {
            "election": null,
            "id": 80,
            "name": "Ottawa—Vanier"
          }
        ],
        "pollDivisionIds": [
          10140724
        ],
        "postalCode": "K1L6S6",
        "streetName": "CARLOTTA",
        "streetDirectionId": null,
        "streetTypeId": "AVE",
        "placeName": "VANIER",
        "streetNameDisplayText": "CARLOTTA AVE, VANIER"
      }
    ]
  },
  {
    "postal": "K1L2P8",
    "result": []
  },
  {
    "postal": "K1L4P8",
    "result": []
  },
  {
    "postal": "K1L0V9",
    "result": []
  },
  {
    "postal": "K1L5Y2",
    "result": [
      {
        "electoralDistricts": [
          {
            "election": null,
            "id": 80,
            "name": "Ottawa—Vanier"
          }
        ],
        "pollDivisionIds": [
          10144284
        ],
        "postalCode": "K1L5Y2",
        "streetName": "CARILLON",
        "streetDirectionId": null,
        "streetTypeId": "ST",
        "placeName": "VANIER",
        "streetNameDisplayText": "CARILLON ST, VANIER"
      }
    ]
  },
  {
    "postal": "K1L7Z7",
    "result": [
      {
        "electoralDistricts": [
          {
            "election": null,
            "id": 80,
            "name": "Ottawa—Vanier"
          }
        ],
        "pollDivisionIds": [
          10140719
        ],
        "postalCode": "K1L7Z7",
        "streetName": "LAVAL",
        "streetDirectionId": null,
        "streetTypeId": "ST",
        "placeName": "VANIER",
        "streetNameDisplayText": "LAVAL ST, VANIER"
      }
    ]
  },
  {
    "postal": "K1L6Y8",
    "result": [
      {
        "electoralDistricts": [
          {
            "election": null,
            "id": 80,
            "name": "Ottawa—Vanier"
          }
        ],
        "pollDivisionIds": [
          10140723
        ],
        "postalCode": "K1L6Y8",
        "streetName": "GRANVILLE",
        "streetDirectionId": null,
        "streetTypeId": "ST",
        "placeName": "VANIER",
        "streetNameDisplayText": "GRANVILLE ST, VANIER"
      }
    ]
  },
  {
    "postal": "K1L2G7",
    "result": []
  },
  {
    "postal": "K1L8C1",
    "result": [
      {
        "electoralDistricts": [
          {
            "election": null,
            "id": 80,
            "name": "Ottawa—Vanier"
          }
        ],
        "pollDivisionIds": [
          10140724
        ],
        "postalCode": "K1L8C1",
        "streetName": "NORTH RIVER",
        "streetDirectionId": null,
        "streetTypeId": "RD",
        "placeName": "VANIER",
        "streetNameDisplayText": "NORTH RIVER RD, VANIER"
      }
    ]
  },
  {
    "postal": "K1L5C5",
    "result": [
      {
        "electoralDistricts": [
          {
            "election": null,
            "id": 80,
            "name": "Ottawa—Vanier"
          }
        ],
        "pollDivisionIds": [
          10140723
        ],
        "postalCode": "K1L5C5",
        "streetName": "PERRIER",
        "streetDirectionId": null,
        "streetTypeId": "AVE",
        "placeName": "VANIER",
        "streetNameDisplayText": "PERRIER AVE, VANIER"
      }
    ]
  },
  {
    "postal": "K1L2X8",
    "result": []
  },
  {
    "postal": "K1L1W5",
    "result": []
  },
  {
    "postal": "K1L7G0",
    "result": []
  },
  {
    "postal": "K1L8J8",
    "result": [
      {
        "electoralDistricts": [
          {
            "election": null,
            "id": 80,
            "name": "Ottawa—Vanier"
          }
        ],
        "pollDivisionIds": [
          10140714
        ],
        "postalCode": "K1L8J8",
        "streetName": "BITTERN",
        "streetDirectionId": null,
        "streetTypeId": "CRT",
        "placeName": "ROCKCLIFFE",
        "streetNameDisplayText": "BITTERN CRT, ROCKCLIFFE"
      }
    ]
  },
  {
    "postal": "K1L3Y0",
    "result": []
  },
  {
    "postal": "K1L9T7",
    "result": []
  },
  {
    "postal": "K1L5P4",
    "result": [
      {
        "electoralDistricts": [
          {
            "election": null,
            "id": 80,
            "name": "Ottawa—Vanier"
          }
        ],
        "pollDivisionIds": [
          10144284
        ],
        "postalCode": "K1L5P4",
        "streetName": "MONTFORT",
        "streetDirectionId": null,
        "streetTypeId": "ST",
        "placeName": "VANIER",
        "streetNameDisplayText": "MONTFORT ST, VANIER"
      }
    ]
  },
  {
    "postal": "K1L4B0",
    "result": []
  },
  {
    "postal": "K1L9N8",
    "result": []
  },
  {
    "postal": "K1L4A7",
    "result": []
  },
  {
    "postal": "K1L4H9",
    "result": []
  },
  {
    "postal": "K1L6X1",
    "result": [
      {
        "electoralDistricts": [
          {
            "election": null,
            "id": 80,
            "name": "Ottawa—Vanier"
          }
        ],
        "pollDivisionIds": [
          10140726
        ],
        "postalCode": "K1L6X1",
        "streetName": "EASTWOOD",
        "streetDirectionId": null,
        "streetTypeId": "PL",
        "placeName": "VANIER",
        "streetNameDisplayText": "EASTWOOD PL, VANIER"
      }
    ]
  },
  {
    "postal": "K1L9Y7",
    "result": []
  },
  {
    "postal": "K1L2Y5",
    "result": []
  },
  {
    "postal": "K1L8L7",
    "result": [
      {
        "electoralDistricts": [
          {
            "election": null,
            "id": 80,
            "name": "Ottawa—Vanier"
          }
        ],
        "pollDivisionIds": [
          10140724
        ],
        "postalCode": "K1L8L7",
        "streetName": "MCARTHUR",
        "streetDirectionId": null,
        "streetTypeId": "AVE",
        "placeName": "OTTAWA",
        "streetNameDisplayText": "MCARTHUR AVE, OTTAWA"
      }
    ]
  },
  {
    "postal": "K1L2A8",
    "result": []
  },
  {
    "postal": "K1L2K9",
    "result": []
  },
  {
    "postal": "K1L3E5",
    "result": []
  },
  {
    "postal": "K1L8N6",
    "result": []
  },
  {
    "postal": "K1L8J4",
    "result": [
      {
        "electoralDistricts": [
          {
            "election": null,
            "id": 80,
            "name": "Ottawa—Vanier"
          }
        ],
        "pollDivisionIds": [
          10140728
        ],
        "postalCode": "K1L8J4",
        "streetName": "MACNABB",
        "streetDirectionId": null,
        "streetTypeId": "PL",
        "placeName": "ROCKCLIFFE",
        "streetNameDisplayText": "MACNABB PL, ROCKCLIFFE"
      }
    ]
  },
  {
    "postal": "K1L4R7",
    "result": []
  },
  {
    "postal": "K1L9K1",
    "result": []
  },
  {
    "postal": "K1L8E1",
    "result": []
  },
  {
    "postal": "K1L0R1",
    "result": []
  },
  {
    "postal": "K1L4J3",
    "result": []
  },
  {
    "postal": "K1L7E7",
    "result": [
      {
        "electoralDistricts": [
          {
            "election": null,
            "id": 80,
            "name": "Ottawa—Vanier"
          }
        ],
        "pollDivisionIds": [
          10140763
        ],
        "postalCode": "K1L7E7",
        "streetName": "MCARTHUR",
        "streetDirectionId": null,
        "streetTypeId": "AVE",
        "placeName": "VANIER",
        "streetNameDisplayText": "MCARTHUR AVE, VANIER"
      }
    ]
  },
  {
    "postal": "K1L0J0",
    "result": []
  },
  {
    "postal": "K1L7R8",
    "result": [
      {
        "electoralDistricts": [
          {
            "election": null,
            "id": 80,
            "name": "Ottawa—Vanier"
          }
        ],
        "pollDivisionIds": [
          10144284
        ],
        "postalCode": "K1L7R8",
        "streetName": "EMOND",
        "streetDirectionId": null,
        "streetTypeId": "ST",
        "placeName": "VANIER",
        "streetNameDisplayText": "EMOND ST, VANIER"
      },
      {
        "electoralDistricts": [
          {
            "election": null,
            "id": 80,
            "name": "Ottawa—Vanier"
          }
        ],
        "pollDivisionIds": [
          10144284
        ],
        "postalCode": "K1L7R8",
        "streetName": "ÉMOND",
        "streetDirectionId": null,
        "streetTypeId": "ST",
        "placeName": "VANIER",
        "streetNameDisplayText": "ÉMOND ST, VANIER"
      }
    ]
  },
  {
    "postal": "K1L9X0",
    "result": []
  },
  {
    "postal": "K1L7P6",
    "result": [
      {
        "electoralDistricts": [
          {
            "election": null,
            "id": 80,
            "name": "Ottawa—Vanier"
          }
        ],
        "pollDivisionIds": [
          10140723
        ],
        "postalCode": "K1L7P6",
        "streetName": "STE MONIQUE",
        "streetDirectionId": null,
        "streetTypeId": "ST",
        "placeName": "VANIER",
        "streetNameDisplayText": "STE MONIQUE ST, VANIER"
      },
      {
        "electoralDistricts": [
          {
            "election": null,
            "id": 80,
            "name": "Ottawa—Vanier"
          }
        ],
        "pollDivisionIds": [
          10140723
        ],
        "postalCode": "K1L7P6",
        "streetName": "STE-MONIQUE",
        "streetDirectionId": null,
        "streetTypeId": "ST",
        "placeName": "VANIER",
        "streetNameDisplayText": "STE-MONIQUE ST, VANIER"
      }
    ]
  },
  {
    "postal": "K1L0R7",
    "result": []
  },
  {
    "postal": "K1L5W1",
    "result": [
      {
        "electoralDistricts": [
          {
            "election": null,
            "id": 80,
            "name": "Ottawa—Vanier"
          }
        ],
        "pollDivisionIds": [
          10140719
        ],
        "postalCode": "K1L5W1",
        "streetName": "LOYER",
        "streetDirectionId": null,
        "streetTypeId": "ST",
        "placeName": "VANIER",
        "streetNameDisplayText": "LOYER ST, VANIER"
      }
    ]
  },
  {
    "postal": "K1L0K4",
    "result": []
  },
  {
    "postal": "K1L7N9",
    "result": [
      {
        "electoralDistricts": [
          {
            "election": null,
            "id": 80,
            "name": "Ottawa—Vanier"
          }
        ],
        "pollDivisionIds": [
          10140722
        ],
        "postalCode": "K1L7N9",
        "streetName": "CYR",
        "streetDirectionId": null,
        "streetTypeId": "AVE",
        "placeName": "VANIER",
        "streetNameDisplayText": "CYR AVE, VANIER"
      }
    ]
  },
  {
    "postal": "K1L1N0",
    "result": []
  },
  {
    "postal": "K1L6P3",
    "result": [
      {
        "electoralDistricts": [
          {
            "election": null,
            "id": 80,
            "name": "Ottawa—Vanier"
          }
        ],
        "pollDivisionIds": [
          10140722
        ],
        "postalCode": "K1L6P3",
        "streetName": "MCARTHUR",
        "streetDirectionId": null,
        "streetTypeId": "AVE",
        "placeName": "VANIER",
        "streetNameDisplayText": "MCARTHUR AVE, VANIER"
      }
    ]
  },
  {
    "postal": "K1L5A1",
    "result": [
      {
        "electoralDistricts": [
          {
            "election": null,
            "id": 80,
            "name": "Ottawa—Vanier"
          }
        ],
        "pollDivisionIds": [
          10140714
        ],
        "postalCode": "K1L5A1",
        "streetName": "SANDRIDGE",
        "streetDirectionId": null,
        "streetTypeId": "RD",
        "placeName": "ROCKCLIFFE",
        "streetNameDisplayText": "SANDRIDGE RD, ROCKCLIFFE"
      }
    ]
  },
  {
    "postal": "K1L9M9",
    "result": []
  },
  {
    "postal": "K1L7T6",
    "result": [
      {
        "electoralDistricts": [
          {
            "election": null,
            "id": 80,
            "name": "Ottawa—Vanier"
          }
        ],
        "pollDivisionIds": [
          10140723
        ],
        "postalCode": "K1L7T6",
        "streetName": "FERLAND",
        "streetDirectionId": null,
        "streetTypeId": "ST",
        "placeName": "VANIER",
        "streetNameDisplayText": "FERLAND ST, VANIER"
      }
    ]
  },
  {
    "postal": "K1L3X0",
    "result": []
  },
  {
    "postal": "K1L2T0",
    "result": []
  },
  {
    "postal": "K1L5X9",
    "result": [
      {
        "electoralDistricts": [
          {
            "election": null,
            "id": 80,
            "name": "Ottawa—Vanier"
          }
        ],
        "pollDivisionIds": [
          10144284
        ],
        "postalCode": "K1L5X9",
        "streetName": "CARILLON",
        "streetDirectionId": null,
        "streetTypeId": "ST",
        "placeName": "VANIER",
        "streetNameDisplayText": "CARILLON ST, VANIER"
      }
    ]
  },
  {
    "postal": "K1L2R3",
    "result": []
  },
  {
    "postal": "K1L5N2",
    "result": [
      {
        "electoralDistricts": [
          {
            "election": null,
            "id": 80,
            "name": "Ottawa—Vanier"
          }
        ],
        "pollDivisionIds": [
          10140727
        ],
        "postalCode": "K1L5N2",
        "streetName": "MONTFORT",
        "streetDirectionId": null,
        "streetTypeId": "ST",
        "placeName": "VANIER",
        "streetNameDisplayText": "MONTFORT ST, VANIER"
      }
    ]
  },
  {
    "postal": "K1L4Y7",
    "result": []
  },
  {
    "postal": "K1L7M0",
    "result": []
  },
  {
    "postal": "K1L8P3",
    "result": []
  },
  {
    "postal": "K1L3N3",
    "result": []
  },
  {
    "postal": "K1L7S3",
    "result": [
      {
        "electoralDistricts": [
          {
            "election": null,
            "id": 80,
            "name": "Ottawa—Vanier"
          }
        ],
        "pollDivisionIds": [
          10140722,
          10144284
        ],
        "postalCode": "K1L7S3",
        "streetName": "DUROCHER",
        "streetDirectionId": null,
        "streetTypeId": "ST",
        "placeName": "VANIER",
        "streetNameDisplayText": "DUROCHER ST, VANIER"
      }
    ]
  },
  {
    "postal": "K1L3V9",
    "result": []
  },
  {
    "postal": "K1L9N7",
    "result": []
  },
  {
    "postal": "K1L0G4",
    "result": []
  },
  {
    "postal": "K1L2E2",
    "result": []
  },
  {
    "postal": "K1L7W8",
    "result": [
      {
        "electoralDistricts": [
          {
            "election": null,
            "id": 80,
            "name": "Ottawa—Vanier"
          }
        ],
        "pollDivisionIds": [
          10140722
        ],
        "postalCode": "K1L7W8",
        "streetName": "MONTGOMERY",
        "streetDirectionId": null,
        "streetTypeId": "ST",
        "placeName": "VANIER",
        "streetNameDisplayText": "MONTGOMERY ST, VANIER"
      }
    ]
  },
  {
    "postal": "K1L7M5",
    "result": [
      {
        "electoralDistricts": [
          {
            "election": null,
            "id": 80,
            "name": "Ottawa—Vanier"
          }
        ],
        "pollDivisionIds": [
          10144284
        ],
        "postalCode": "K1L7M5",
        "streetName": "HANNAH",
        "streetDirectionId": null,
        "streetTypeId": "ST",
        "placeName": "VANIER",
        "streetNameDisplayText": "HANNAH ST, VANIER"
      }
    ]
  },
  {
    "postal": "K1L5W8",
    "result": [
      {
        "electoralDistricts": [
          {
            "election": null,
            "id": 80,
            "name": "Ottawa—Vanier"
          }
        ],
        "pollDivisionIds": [
          10144284
        ],
        "postalCode": "K1L5W8",
        "streetName": "ETHEL",
        "streetDirectionId": null,
        "streetTypeId": "ST",
        "placeName": "VANIER",
        "streetNameDisplayText": "ETHEL ST, VANIER"
      }
    ]
  },
  {
    "postal": "K1L5E5",
    "result": [
      {
        "electoralDistricts": [
          {
            "election": null,
            "id": 80,
            "name": "Ottawa—Vanier"
          }
        ],
        "pollDivisionIds": [
          10140723
        ],
        "postalCode": "K1L5E5",
        "streetName": "LAVERGNE",
        "streetDirectionId": null,
        "streetTypeId": "ST",
        "placeName": "VANIER",
        "streetNameDisplayText": "LAVERGNE ST, VANIER"
      }
    ]
  },
  {
    "postal": "K1L1P9",
    "result": []
  },
  {
    "postal": "K1L8V8",
    "result": []
  },
  {
    "postal": "K1L9G8",
    "result": []
  },
  {
    "postal": "K1L8H9",
    "result": []
  },
  {
    "postal": "K1L1Z1",
    "result": []
  },
  {
    "postal": "K1L8M3",
    "result": [
      {
        "electoralDistricts": [
          {
            "election": null,
            "id": 80,
            "name": "Ottawa—Vanier"
          }
        ],
        "pollDivisionIds": [
          10140722
        ],
        "postalCode": "K1L8M3",
        "streetName": "MCARTHUR",
        "streetDirectionId": null,
        "streetTypeId": "AVE",
        "placeName": "VANIER",
        "streetNameDisplayText": "MCARTHUR AVE, VANIER"
      }
    ]
  },
  {
    "postal": "K1L5H6",
    "result": [
      {
        "electoralDistricts": [
          {
            "election": null,
            "id": 80,
            "name": "Ottawa—Vanier"
          }
        ],
        "pollDivisionIds": [
          10140717
        ],
        "postalCode": "K1L5H6",
        "streetName": "JOLLIET",
        "streetDirectionId": null,
        "streetTypeId": "AVE",
        "placeName": "VANIER",
        "streetNameDisplayText": "JOLLIET AVE, VANIER"
      }
    ]
  },
  {
    "postal": "K1L7W7",
    "result": [
      {
        "electoralDistricts": [
          {
            "election": null,
            "id": 80,
            "name": "Ottawa—Vanier"
          }
        ],
        "pollDivisionIds": [
          10140724
        ],
        "postalCode": "K1L7W7",
        "streetName": "DUNDAS",
        "streetDirectionId": null,
        "streetTypeId": "ST",
        "placeName": "VANIER",
        "streetNameDisplayText": "DUNDAS ST, VANIER"
      }
    ]
  },
  {
    "postal": "K1L4L0",
    "result": []
  },
  {
    "postal": "K1L2N1",
    "result": []
  },
  {
    "postal": "K1L2H4",
    "result": []
  },
  {
    "postal": "K1L5C8",
    "result": [
      {
        "electoralDistricts": [
          {
            "election": null,
            "id": 80,
            "name": "Ottawa—Vanier"
          }
        ],
        "pollDivisionIds": [
          10140723
        ],
        "postalCode": "K1L5C8",
        "streetName": "LEBRUN",
        "streetDirectionId": null,
        "streetTypeId": "ST",
        "placeName": "VANIER",
        "streetNameDisplayText": "LEBRUN ST, VANIER"
      }
    ]
  },
  {
    "postal": "K1L8B0",
    "result": []
  },
  {
    "postal": "K1L1T4",
    "result": []
  },
  {
    "postal": "K1L7N7",
    "result": [
      {
        "electoralDistricts": [
          {
            "election": null,
            "id": 80,
            "name": "Ottawa—Vanier"
          }
        ],
        "pollDivisionIds": [
          10140722
        ],
        "postalCode": "K1L7N7",
        "streetName": "CYR",
        "streetDirectionId": null,
        "streetTypeId": "AVE",
        "placeName": "VANIER",
        "streetNameDisplayText": "CYR AVE, VANIER"
      }
    ]
  },
  {
    "postal": "K1L4L3",
    "result": []
  },
  {
    "postal": "K1L2N2",
    "result": []
  },
  {
    "postal": "K1L4N8",
    "result": []
  },
  {
    "postal": "K1L3M5",
    "result": []
  },
  {
    "postal": "K1L6H7",
    "result": []
  },
  {
    "postal": "K1L8Y8",
    "result": []
  },
  {
    "postal": "K1L5R9",
    "result": [
      {
        "electoralDistricts": [
          {
            "election": null,
            "id": 80,
            "name": "Ottawa—Vanier"
          }
        ],
        "pollDivisionIds": [
          10140719
        ],
        "postalCode": "K1L5R9",
        "streetName": "MARIER",
        "streetDirectionId": null,
        "streetTypeId": "AVE",
        "placeName": "VANIER",
        "streetNameDisplayText": "MARIER AVE, VANIER"
      }
    ]
  },
  {
    "postal": "K1L8G3",
    "result": [
      {
        "electoralDistricts": [
          {
            "election": null,
            "id": 80,
            "name": "Ottawa—Vanier"
          }
        ],
        "pollDivisionIds": [
          10140766
        ],
        "postalCode": "K1L8G3",
        "streetName": "LACASSE",
        "streetDirectionId": null,
        "streetTypeId": "AVE",
        "placeName": "VANIER",
        "streetNameDisplayText": "LACASSE AVE, VANIER"
      }
    ]
  },
  {
    "postal": "K1L4N7",
    "result": []
  },
  {
    "postal": "K1L0B9",
    "result": []
  },
  {
    "postal": "K1L9K7",
    "result": []
  },
  {
    "postal": "K1L9K9",
    "result": []
  },
  {
    "postal": "K1L3Z2",
    "result": []
  },
  {
    "postal": "K1L6W7",
    "result": [
      {
        "electoralDistricts": [
          {
            "election": null,
            "id": 80,
            "name": "Ottawa—Vanier"
          }
        ],
        "pollDivisionIds": [
          10140726
        ],
        "postalCode": "K1L6W7",
        "streetName": "EASTVIEW",
        "streetDirectionId": null,
        "streetTypeId": "ST",
        "placeName": "VANIER",
        "streetNameDisplayText": "EASTVIEW ST, VANIER"
      }
    ]
  },
  {
    "postal": "K1L0P1",
    "result": []
  },
  {
    "postal": "K1L3A0",
    "result": []
  },
  {
    "postal": "K1L8L9",
    "result": [
      {
        "electoralDistricts": [
          {
            "election": null,
            "id": 80,
            "name": "Ottawa—Vanier"
          }
        ],
        "pollDivisionIds": [
          10140719
        ],
        "postalCode": "K1L8L9",
        "streetName": "BEECHWOOD",
        "streetDirectionId": null,
        "streetTypeId": "AVE",
        "placeName": "VANIER",
        "streetNameDisplayText": "BEECHWOOD AVE, VANIER"
      },
      {
        "electoralDistricts": [
          {
            "election": null,
            "id": 80,
            "name": "Ottawa—Vanier"
          }
        ],
        "pollDivisionIds": [
          10140719
        ],
        "postalCode": "K1L8L9",
        "streetName": "CHARLEVOIX",
        "streetDirectionId": null,
        "streetTypeId": "ST",
        "placeName": "VANIER",
        "streetNameDisplayText": "CHARLEVOIX ST, VANIER"
      }
    ]
  },
  {
    "postal": "K1L6X0",
    "result": []
  },
  {
    "postal": "K1L3E9",
    "result": []
  },
  {
    "postal": "K1L0S5",
    "result": []
  },
  {
    "postal": "K1L1A2",
    "result": [
      {
        "electoralDistricts": [
          {
            "election": null,
            "id": 80,
            "name": "Ottawa—Vanier"
          }
        ],
        "pollDivisionIds": [
          10140722
        ],
        "postalCode": "K1L1A2",
        "streetName": "DUPUIS",
        "streetDirectionId": null,
        "streetTypeId": "ST",
        "placeName": "VANIER",
        "streetNameDisplayText": "DUPUIS ST, VANIER"
      }
    ]
  },
  {
    "postal": "K1L5V8",
    "result": [
      {
        "electoralDistricts": [
          {
            "election": null,
            "id": 80,
            "name": "Ottawa—Vanier"
          }
        ],
        "pollDivisionIds": [
          10140719
        ],
        "postalCode": "K1L5V8",
        "streetName": "LOYER",
        "streetDirectionId": null,
        "streetTypeId": "ST",
        "placeName": "VANIER",
        "streetNameDisplayText": "LOYER ST, VANIER"
      }
    ]
  },
  {
    "postal": "K1L8C5",
    "result": []
  },
  {
    "postal": "K1L6N0",
    "result": []
  },
  {
    "postal": "K1L9E6",
    "result": []
  },
  {
    "postal": "K1L5J7",
    "result": [
      {
        "electoralDistricts": [
          {
            "election": null,
            "id": 80,
            "name": "Ottawa—Vanier"
          }
        ],
        "pollDivisionIds": [
          10140723
        ],
        "postalCode": "K1L5J7",
        "streetName": "MARQUETTE",
        "streetDirectionId": null,
        "streetTypeId": "AVE",
        "placeName": "VANIER",
        "streetNameDisplayText": "MARQUETTE AVE, VANIER"
      }
    ]
  },
  {
    "postal": "K1L2R2",
    "result": []
  },
  {
    "postal": "K1L0P5",
    "result": []
  },
  {
    "postal": "K1L5A7",
    "result": [
      {
        "electoralDistricts": [
          {
            "election": null,
            "id": 80,
            "name": "Ottawa—Vanier"
          }
        ],
        "pollDivisionIds": [
          10140714
        ],
        "postalCode": "K1L5A7",
        "streetName": "WESTWARD",
        "streetDirectionId": null,
        "streetTypeId": "WAY",
        "placeName": "ROCKCLIFFE",
        "streetNameDisplayText": "WESTWARD WAY, ROCKCLIFFE"
      }
    ]
  },
  {
    "postal": "K1L1G1",
    "result": []
  },
  {
    "postal": "K1L9R6",
    "result": []
  },
  {
    "postal": "K1L4Z9",
    "result": []
  },
  {
    "postal": "K1L1V5",
    "result": []
  },
  {
    "postal": "K1L9Y5",
    "result": []
  },
  {
    "postal": "K1L1P2",
    "result": []
  },
  {
    "postal": "K1L5X0",
    "result": []
  },
  {
    "postal": "K1L7B8",
    "result": [
      {
        "electoralDistricts": [
          {
            "election": null,
            "id": 80,
            "name": "Ottawa—Vanier"
          }
        ],
        "pollDivisionIds": [
          10140723
        ],
        "postalCode": "K1L7B8",
        "streetName": "STE ANNE",
        "streetDirectionId": null,
        "streetTypeId": "AVE",
        "placeName": "VANIER",
        "streetNameDisplayText": "STE ANNE AVE, VANIER"
      }
    ]
  },
  {
    "postal": "K1L0C6",
    "result": []
  },
  {
    "postal": "K1L6G1",
    "result": [
      {
        "electoralDistricts": [
          {
            "election": null,
            "id": 80,
            "name": "Ottawa—Vanier"
          }
        ],
        "pollDivisionIds": [
          10140726
        ],
        "postalCode": "K1L6G1",
        "streetName": "IBERVILLE",
        "streetDirectionId": null,
        "streetTypeId": "ST",
        "placeName": "VANIER",
        "streetNameDisplayText": "IBERVILLE ST, VANIER"
      }
    ]
  },
  {
    "postal": "K1L3K3",
    "result": []
  },
  {
    "postal": "K1L9R0",
    "result": []
  },
  {
    "postal": "K1L4R8",
    "result": []
  },
  {
    "postal": "K1L5P9",
    "result": [
      {
        "electoralDistricts": [
          {
            "election": null,
            "id": 80,
            "name": "Ottawa—Vanier"
          }
        ],
        "pollDivisionIds": [
          10144284
        ],
        "postalCode": "K1L5P9",
        "streetName": "MARIER",
        "streetDirectionId": null,
        "streetTypeId": "AVE",
        "placeName": "VANIER",
        "streetNameDisplayText": "MARIER AVE, VANIER"
      }
    ]
  },
  {
    "postal": "K1L8N4",
    "result": []
  },
  {
    "postal": "K1L8H4",
    "result": []
  },
  {
    "postal": "K1L4V1",
    "result": []
  },
  {
    "postal": "K1L1K5",
    "result": []
  },
  {
    "postal": "K1L1Z5",
    "result": []
  },
  {
    "postal": "K1L9L9",
    "result": []
  },
  {
    "postal": "K1L5L2",
    "result": [
      {
        "electoralDistricts": [
          {
            "election": null,
            "id": 80,
            "name": "Ottawa—Vanier"
          }
        ],
        "pollDivisionIds": [
          10140719
        ],
        "postalCode": "K1L5L2",
        "streetName": "STE. CECILE",
        "streetDirectionId": null,
        "streetTypeId": "ST",
        "placeName": "VANIER",
        "streetNameDisplayText": "STE. CECILE ST, VANIER"
      },
      {
        "electoralDistricts": [
          {
            "election": null,
            "id": 80,
            "name": "Ottawa—Vanier"
          }
        ],
        "pollDivisionIds": [
          10140719
        ],
        "postalCode": "K1L5L2",
        "streetName": "STE-CECILE",
        "streetDirectionId": null,
        "streetTypeId": "ST",
        "placeName": "VANIER",
        "streetNameDisplayText": "STE-CECILE ST, VANIER"
      },
      {
        "electoralDistricts": [
          {
            "election": null,
            "id": 80,
            "name": "Ottawa—Vanier"
          }
        ],
        "pollDivisionIds": [
          10140719
        ],
        "postalCode": "K1L5L2",
        "streetName": "STE-CÉCILE",
        "streetDirectionId": null,
        "streetTypeId": "ST",
        "placeName": "VANIER",
        "streetNameDisplayText": "STE-CÉCILE ST, VANIER"
      }
    ]
  },
  {
    "postal": "K1L0M2",
    "result": []
  },
  {
    "postal": "K1L1K8",
    "result": []
  },
  {
    "postal": "K1L3M7",
    "result": []
  },
  {
    "postal": "K1L1B2",
    "result": [
      {
        "electoralDistricts": [
          {
            "election": null,
            "id": 80,
            "name": "Ottawa—Vanier"
          }
        ],
        "pollDivisionIds": [
          10140722
        ],
        "postalCode": "K1L1B2",
        "streetName": "JEANNE-MANCE",
        "streetDirectionId": null,
        "streetTypeId": "ST",
        "placeName": "VANIER",
        "streetNameDisplayText": "JEANNE-MANCE ST, VANIER"
      }
    ]
  },
  {
    "postal": "K1L0H9",
    "result": []
  },
  {
    "postal": "K1L8M4",
    "result": []
  },
  {
    "postal": "K1L2M5",
    "result": []
  },
  {
    "postal": "K1L0T9",
    "result": []
  },
  {
    "postal": "K1L3P1",
    "result": []
  },
  {
    "postal": "K1L1R6",
    "result": []
  },
  {
    "postal": "K1L9V5",
    "result": []
  },
  {
    "postal": "K1L9T0",
    "result": []
  },
  {
    "postal": "K1L0A9",
    "result": [
      {
        "electoralDistricts": [
          {
            "election": null,
            "id": 80,
            "name": "Ottawa—Vanier"
          }
        ],
        "pollDivisionIds": [
          10140762
        ],
        "postalCode": "K1L0A9",
        "streetName": "LANDRY",
        "streetDirectionId": null,
        "streetTypeId": "ST",
        "placeName": "VANIER",
        "streetNameDisplayText": "LANDRY ST, VANIER"
      }
    ]
  },
  {
    "postal": "K1L1M3",
    "result": []
  },
  {
    "postal": "K1L1W8",
    "result": []
  },
  {
    "postal": "K1L9J1",
    "result": []
  },
  {
    "postal": "K1L8N5",
    "result": []
  },
  {
    "postal": "K1L5X1",
    "result": [
      {
        "electoralDistricts": [
          {
            "election": null,
            "id": 80,
            "name": "Ottawa—Vanier"
          }
        ],
        "pollDivisionIds": [
          10144284
        ],
        "postalCode": "K1L5X1",
        "streetName": "ETHEL",
        "streetDirectionId": null,
        "streetTypeId": "ST",
        "placeName": "VANIER",
        "streetNameDisplayText": "ETHEL ST, VANIER"
      }
    ]
  },
  {
    "postal": "K1L6S2",
    "result": [
      {
        "electoralDistricts": [
          {
            "election": null,
            "id": 80,
            "name": "Ottawa—Vanier"
          }
        ],
        "pollDivisionIds": [
          10140724
        ],
        "postalCode": "K1L6S2",
        "streetName": "GRANT-TOOLE",
        "streetDirectionId": null,
        "streetTypeId": "WAY",
        "placeName": "VANIER",
        "streetNameDisplayText": "GRANT-TOOLE WAY, VANIER"
      }
    ]
  },
  {
    "postal": "K1L2A2",
    "result": []
  },
  {
    "postal": "K1L6A6",
    "result": [
      {
        "electoralDistricts": [
          {
            "election": null,
            "id": 80,
            "name": "Ottawa—Vanier"
          }
        ],
        "pollDivisionIds": [
          10140722
        ],
        "postalCode": "K1L6A6",
        "streetName": "MARK",
        "streetDirectionId": null,
        "streetTypeId": "AVE",
        "placeName": "VANIER",
        "streetNameDisplayText": "MARK AVE, VANIER"
      }
    ]
  },
  {
    "postal": "K1L0S3",
    "result": []
  },
  {
    "postal": "K1L3E7",
    "result": []
  },
  {
    "postal": "K1L5R7",
    "result": [
      {
        "electoralDistricts": [
          {
            "election": null,
            "id": 80,
            "name": "Ottawa—Vanier"
          }
        ],
        "pollDivisionIds": [
          10144284
        ],
        "postalCode": "K1L5R7",
        "streetName": "MARIER",
        "streetDirectionId": null,
        "streetTypeId": "AVE",
        "placeName": "VANIER",
        "streetNameDisplayText": "MARIER AVE, VANIER"
      }
    ]
  },
  {
    "postal": "K1L3R6",
    "result": []
  },
  {
    "postal": "K1L6K4",
    "result": [
      {
        "electoralDistricts": [
          {
            "election": null,
            "id": 80,
            "name": "Ottawa—Vanier"
          }
        ],
        "pollDivisionIds": [
          10140726
        ],
        "postalCode": "K1L6K4",
        "streetName": "PIE XII",
        "streetDirectionId": null,
        "streetTypeId": "ST",
        "placeName": "VANIER",
        "streetNameDisplayText": "PIE XII ST, VANIER"
      }
    ]
  },
  {
    "postal": "K1L2W5",
    "result": []
  },
  {
    "postal": "K1L8W4",
    "result": []
  },
  {
    "postal": "K1L9C2",
    "result": []
  },
  {
    "postal": "K1L2C0",
    "result": []
  },
  {
    "postal": "K1L0E1",
    "result": []
  },
  {
    "postal": "K1L1K9",
    "result": []
  },
  {
    "postal": "K1L1G7",
    "result": []
  },
  {
    "postal": "K1L4E9",
    "result": []
  },
  {
    "postal": "K1L9P0",
    "result": []
  },
  {
    "postal": "K1L5H3",
    "result": [
      {
        "electoralDistricts": [
          {
            "election": null,
            "id": 80,
            "name": "Ottawa—Vanier"
          }
        ],
        "pollDivisionIds": [
          10140723
        ],
        "postalCode": "K1L5H3",
        "streetName": "JOLLIET",
        "streetDirectionId": null,
        "streetTypeId": "AVE",
        "placeName": "VANIER",
        "streetNameDisplayText": "JOLLIET AVE, VANIER"
      }
    ]
  },
  {
    "postal": "K1L9X6",
    "result": []
  },
  {
    "postal": "K1L5N7",
    "result": [
      {
        "electoralDistricts": [
          {
            "election": null,
            "id": 80,
            "name": "Ottawa—Vanier"
          }
        ],
        "pollDivisionIds": [
          10140723
        ],
        "postalCode": "K1L5N7",
        "streetName": "BRADLEY",
        "streetDirectionId": null,
        "streetTypeId": "AVE",
        "placeName": "VANIER",
        "streetNameDisplayText": "BRADLEY AVE, VANIER"
      },
      {
        "electoralDistricts": [
          {
            "election": null,
            "id": 80,
            "name": "Ottawa—Vanier"
          }
        ],
        "pollDivisionIds": [
          10140723
        ],
        "postalCode": "K1L5N7",
        "streetName": "MONTFORT",
        "streetDirectionId": null,
        "streetTypeId": "ST",
        "placeName": "VANIER",
        "streetNameDisplayText": "MONTFORT ST, VANIER"
      }
    ]
  },
  {
    "postal": "K1L5A6",
    "result": [
      {
        "electoralDistricts": [
          {
            "election": null,
            "id": 80,
            "name": "Ottawa—Vanier"
          }
        ],
        "pollDivisionIds": [
          10140714
        ],
        "postalCode": "K1L5A6",
        "streetName": "LYTTLETON",
        "streetDirectionId": null,
        "streetTypeId": "GDNS",
        "placeName": "ROCKCLIFFE",
        "streetNameDisplayText": "LYTTLETON GDNS, ROCKCLIFFE"
      }
    ]
  },
  {
    "postal": "K1L4M0",
    "result": []
  },
  {
    "postal": "K1L3V6",
    "result": []
  },
  {
    "postal": "K1L1L7",
    "result": []
  },
  {
    "postal": "K1L2P9",
    "result": []
  },
  {
    "postal": "K1L5T4",
    "result": [
      {
        "electoralDistricts": [
          {
            "election": null,
            "id": 80,
            "name": "Ottawa—Vanier"
          }
        ],
        "pollDivisionIds": [
          10140719
        ],
        "postalCode": "K1L5T4",
        "streetName": "DAGMAR",
        "streetDirectionId": null,
        "streetTypeId": "AVE",
        "placeName": "VANIER",
        "streetNameDisplayText": "DAGMAR AVE, VANIER"
      }
    ]
  },
  {
    "postal": "K1L5Z1",
    "result": [
      {
        "electoralDistricts": [
          {
            "election": null,
            "id": 80,
            "name": "Ottawa—Vanier"
          }
        ],
        "pollDivisionIds": [
          10144284
        ],
        "postalCode": "K1L5Z1",
        "streetName": "DESCHAMPS",
        "streetDirectionId": null,
        "streetTypeId": "AVE",
        "placeName": "VANIER",
        "streetNameDisplayText": "DESCHAMPS AVE, VANIER"
      }
    ]
  },
  {
    "postal": "K1L2X0",
    "result": []
  },
  {
    "postal": "K1L6Z2",
    "result": [
      {
        "electoralDistricts": [
          {
            "election": null,
            "id": 80,
            "name": "Ottawa—Vanier"
          }
        ],
        "pollDivisionIds": [
          10140727
        ],
        "postalCode": "K1L6Z2",
        "streetName": "GRANVILLE",
        "streetDirectionId": null,
        "streetTypeId": "ST",
        "placeName": "VANIER",
        "streetNameDisplayText": "GRANVILLE ST, VANIER"
      }
    ]
  },
  {
    "postal": "K1L0E0",
    "result": []
  },
  {
    "postal": "K1L3Z5",
    "result": []
  },
  {
    "postal": "K1L8H3",
    "result": []
  },
  {
    "postal": "K1L7S6",
    "result": [
      {
        "electoralDistricts": [
          {
            "election": null,
            "id": 80,
            "name": "Ottawa—Vanier"
          }
        ],
        "pollDivisionIds": [
          10144284
        ],
        "postalCode": "K1L7S6",
        "streetName": "DUROCHER",
        "streetDirectionId": null,
        "streetTypeId": "ST",
        "placeName": "VANIER",
        "streetNameDisplayText": "DUROCHER ST, VANIER"
      }
    ]
  },
  {
    "postal": "K1L4C1",
    "result": []
  },
  {
    "postal": "K1L3K2",
    "result": []
  },
  {
    "postal": "K1L1Y5",
    "result": []
  },
  {
    "postal": "K1L6P6",
    "result": [
      {
        "electoralDistricts": [
          {
            "election": null,
            "id": 80,
            "name": "Ottawa—Vanier"
          }
        ],
        "pollDivisionIds": [
          10140722
        ],
        "postalCode": "K1L6P6",
        "streetName": "MCARTHUR",
        "streetDirectionId": null,
        "streetTypeId": "AVE",
        "placeName": "VANIER",
        "streetNameDisplayText": "MCARTHUR AVE, VANIER"
      }
    ]
  },
  {
    "postal": "K1L3N9",
    "result": []
  },
  {
    "postal": "K1L3W2",
    "result": []
  },
  {
    "postal": "K1L6H8",
    "result": [
      {
        "electoralDistricts": [
          {
            "election": null,
            "id": 80,
            "name": "Ottawa—Vanier"
          }
        ],
        "pollDivisionIds": [
          10140722
        ],
        "postalCode": "K1L6H8",
        "streetName": "LEVIS",
        "streetDirectionId": null,
        "streetTypeId": "AVE",
        "placeName": "VANIER",
        "streetNameDisplayText": "LEVIS AVE, VANIER"
      }
    ]
  },
  {
    "postal": "K1L9T3",
    "result": []
  },
  {
    "postal": "K1L5L9",
    "result": [
      {
        "electoralDistricts": [
          {
            "election": null,
            "id": 80,
            "name": "Ottawa—Vanier"
          }
        ],
        "pollDivisionIds": [
          10140727
        ],
        "postalCode": "K1L5L9",
        "streetName": "SHAKESPEARE",
        "streetDirectionId": null,
        "streetTypeId": "ST",
        "placeName": "VANIER",
        "streetNameDisplayText": "SHAKESPEARE ST, VANIER"
      }
    ]
  },
  {
    "postal": "K1L7X7",
    "result": [
      {
        "electoralDistricts": [
          {
            "election": null,
            "id": 80,
            "name": "Ottawa—Vanier"
          }
        ],
        "pollDivisionIds": [
          10140719
        ],
        "postalCode": "K1L7X7",
        "streetName": "ALICE",
        "streetDirectionId": null,
        "streetTypeId": "ST",
        "placeName": "VANIER",
        "streetNameDisplayText": "ALICE ST, VANIER"
      }
    ]
  },
  {
    "postal": "K1L3J5",
    "result": []
  },
  {
    "postal": "K1L4J5",
    "result": []
  },
  {
    "postal": "K1L6J2",
    "result": [
      {
        "electoralDistricts": [
          {
            "election": null,
            "id": 80,
            "name": "Ottawa—Vanier"
          }
        ],
        "pollDivisionIds": [
          10140722
        ],
        "postalCode": "K1L6J2",
        "streetName": "LEVIS",
        "streetDirectionId": null,
        "streetTypeId": "AVE",
        "placeName": "VANIER",
        "streetNameDisplayText": "LEVIS AVE, VANIER"
      }
    ]
  },
  {
    "postal": "K1L5V6",
    "result": [
      {
        "electoralDistricts": [
          {
            "election": null,
            "id": 80,
            "name": "Ottawa—Vanier"
          }
        ],
        "pollDivisionIds": [
          10140719
        ],
        "postalCode": "K1L5V6",
        "streetName": "ST CHARLES",
        "streetDirectionId": null,
        "streetTypeId": "ST",
        "placeName": "VANIER",
        "streetNameDisplayText": "ST CHARLES ST, VANIER"
      },
      {
        "electoralDistricts": [
          {
            "election": null,
            "id": 80,
            "name": "Ottawa—Vanier"
          }
        ],
        "pollDivisionIds": [
          10140719
        ],
        "postalCode": "K1L5V6",
        "streetName": "ST-CHARLES",
        "streetDirectionId": null,
        "streetTypeId": "ST",
        "placeName": "VANIER",
        "streetNameDisplayText": "ST-CHARLES ST, VANIER"
      }
    ]
  },
  {
    "postal": "K1L3N2",
    "result": []
  },
  {
    "postal": "K1L3B1",
    "result": []
  },
  {
    "postal": "K1L8B5",
    "result": [
      {
        "electoralDistricts": [
          {
            "election": null,
            "id": 52,
            "name": "Leeds—Grenville—Thousand Islands and Rideau Lakes"
          }
        ],
        "pollDivisionIds": [
          10139533
        ],
        "postalCode": "K1L8B5",
        "streetName": "NORTH RIVER",
        "streetDirectionId": null,
        "streetTypeId": "RD",
        "placeName": "KEMPTVILLE",
        "streetNameDisplayText": "NORTH RIVER RD, KEMPTVILLE"
      },
      {
        "electoralDistricts": [
          {
            "election": null,
            "id": 80,
            "name": "Ottawa—Vanier"
          }
        ],
        "pollDivisionIds": [
          10140722
        ],
        "postalCode": "K1L8B5",
        "streetName": "NORTH RIVER",
        "streetDirectionId": null,
        "streetTypeId": "RD",
        "placeName": "VANIER",
        "streetNameDisplayText": "NORTH RIVER RD, VANIER"
      }
    ]
  },
  {
    "postal": "K1L0K1",
    "result": []
  },
  {
    "postal": "K1L7M7",
    "result": [
      {
        "electoralDistricts": [
          {
            "election": null,
            "id": 80,
            "name": "Ottawa—Vanier"
          }
        ],
        "pollDivisionIds": [
          10144284
        ],
        "postalCode": "K1L7M7",
        "streetName": "HANNAH",
        "streetDirectionId": null,
        "streetTypeId": "ST",
        "placeName": "VANIER",
        "streetNameDisplayText": "HANNAH ST, VANIER"
      }
    ]
  },
  {
    "postal": "K1L2M2",
    "result": []
  },
  {
    "postal": "K1L9N3",
    "result": []
  },
  {
    "postal": "K1L4Y8",
    "result": []
  },
  {
    "postal": "K1L3V7",
    "result": []
  },
  {
    "postal": "K1L8Z1",
    "result": []
  },
  {
    "postal": "K1L7B3",
    "result": [
      {
        "electoralDistricts": [
          {
            "election": null,
            "id": 80,
            "name": "Ottawa—Vanier"
          }
        ],
        "pollDivisionIds": [
          10140724
        ],
        "postalCode": "K1L7B3",
        "streetName": "DOLLARD",
        "streetDirectionId": null,
        "streetTypeId": "ST",
        "placeName": "VANIER",
        "streetNameDisplayText": "DOLLARD ST, VANIER"
      }
    ]
  },
  {
    "postal": "K1L3A8",
    "result": []
  },
  {
    "postal": "K1L7V5",
    "result": [
      {
        "electoralDistricts": [
          {
            "election": null,
            "id": 80,
            "name": "Ottawa—Vanier"
          }
        ],
        "pollDivisionIds": [
          10140722
        ],
        "postalCode": "K1L7V5",
        "streetName": "PALACE",
        "streetDirectionId": null,
        "streetTypeId": "ST",
        "placeName": "VANIER",
        "streetNameDisplayText": "PALACE ST, VANIER"
      }
    ]
  },
  {
    "postal": "K1L2T2",
    "result": []
  },
  {
    "postal": "K1L6L3",
    "result": [
      {
        "electoralDistricts": [
          {
            "election": null,
            "id": 80,
            "name": "Ottawa—Vanier"
          }
        ],
        "pollDivisionIds": [
          10140726
        ],
        "postalCode": "K1L6L3",
        "streetName": "BLAKE",
        "streetDirectionId": null,
        "streetTypeId": "BLVD",
        "placeName": "VANIER",
        "streetNameDisplayText": "BLAKE BLVD, VANIER"
      }
    ]
  },
  {
    "postal": "K1L0L2",
    "result": []
  },
  {
    "postal": "K1L5Y8",
    "result": [
      {
        "electoralDistricts": [
          {
            "election": null,
            "id": 80,
            "name": "Ottawa—Vanier"
          }
        ],
        "pollDivisionIds": [
          10144284
        ],
        "postalCode": "K1L5Y8",
        "streetName": "DESCHAMPS",
        "streetDirectionId": null,
        "streetTypeId": "AVE",
        "placeName": "OTTAWA",
        "streetNameDisplayText": "DESCHAMPS AVE, OTTAWA"
      },
      {
        "electoralDistricts": [
          {
            "election": null,
            "id": 80,
            "name": "Ottawa—Vanier"
          }
        ],
        "pollDivisionIds": [
          10144284
        ],
        "postalCode": "K1L5Y8",
        "streetName": "DESCHAMPS",
        "streetDirectionId": null,
        "streetTypeId": "AVE",
        "placeName": "VANIER",
        "streetNameDisplayText": "DESCHAMPS AVE, VANIER"
      }
    ]
  },
  {
    "postal": "K1L0B8",
    "result": []
  },
  {
    "postal": "K1L6R5",
    "result": [
      {
        "electoralDistricts": [
          {
            "election": null,
            "id": 80,
            "name": "Ottawa—Vanier"
          }
        ],
        "pollDivisionIds": [
          10140726
        ],
        "postalCode": "K1L6R5",
        "streetName": "MILLCRAFT",
        "streetDirectionId": null,
        "streetTypeId": "CRES",
        "placeName": "VANIER",
        "streetNameDisplayText": "MILLCRAFT CRES, VANIER"
      }
    ]
  },
  {
    "postal": "K1L8W6",
    "result": []
  },
  {
    "postal": "K1L8G6",
    "result": [
      {
        "electoralDistricts": [
          {
            "election": null,
            "id": 80,
            "name": "Ottawa—Vanier"
          }
        ],
        "pollDivisionIds": [
          10140770
        ],
        "postalCode": "K1L8G6",
        "streetName": "MONTFORT",
        "streetDirectionId": null,
        "streetTypeId": "ST",
        "placeName": "VANIER",
        "streetNameDisplayText": "MONTFORT ST, VANIER"
      }
    ]
  },
  {
    "postal": "K1L6X3",
    "result": [
      {
        "electoralDistricts": [
          {
            "election": null,
            "id": 80,
            "name": "Ottawa—Vanier"
          }
        ],
        "pollDivisionIds": [
          10140726
        ],
        "postalCode": "K1L6X3",
        "streetName": "LAFONTAINE",
        "streetDirectionId": null,
        "streetTypeId": "AVE",
        "placeName": "VANIER",
        "streetNameDisplayText": "LAFONTAINE AVE, VANIER"
      }
    ]
  },
  {
    "postal": "K1L7R7",
    "result": [
      {
        "electoralDistricts": [
          {
            "election": null,
            "id": 80,
            "name": "Ottawa—Vanier"
          }
        ],
        "pollDivisionIds": [
          10144284
        ],
        "postalCode": "K1L7R7",
        "streetName": "BARIBEAU",
        "streetDirectionId": null,
        "streetTypeId": "ST",
        "placeName": "VANIER",
        "streetNameDisplayText": "BARIBEAU ST, VANIER"
      }
    ]
  },
  {
    "postal": "K1L4B6",
    "result": []
  },
  {
    "postal": "K1L3P9",
    "result": []
  },
  {
    "postal": "K1L2T3",
    "result": []
  },
  {
    "postal": "K1L1M4",
    "result": []
  },
  {
    "postal": "K1L0H1",
    "result": []
  },
  {
    "postal": "K1L9W3",
    "result": []
  },
  {
    "postal": "K1L6P1",
    "result": [
      {
        "electoralDistricts": [
          {
            "election": null,
            "id": 80,
            "name": "Ottawa—Vanier"
          }
        ],
        "pollDivisionIds": [
          10140722
        ],
        "postalCode": "K1L6P1",
        "streetName": "MCARTHUR",
        "streetDirectionId": null,
        "streetTypeId": "AVE",
        "placeName": "VANIER",
        "streetNameDisplayText": "MCARTHUR AVE, VANIER"
      }
    ]
  },
  {
    "postal": "K1L7G2",
    "result": [
      {
        "electoralDistricts": [
          {
            "election": null,
            "id": 80,
            "name": "Ottawa—Vanier"
          }
        ],
        "pollDivisionIds": [
          10144284
        ],
        "postalCode": "K1L7G2",
        "streetName": "LALEMANT",
        "streetDirectionId": null,
        "streetTypeId": "ST",
        "placeName": "VANIER",
        "streetNameDisplayText": "LALEMANT ST, VANIER"
      }
    ]
  },
  {
    "postal": "K1L4J9",
    "result": []
  },
  {
    "postal": "K1L9E4",
    "result": []
  },
  {
    "postal": "K1L8H0",
    "result": []
  },
  {
    "postal": "K1L4M7",
    "result": []
  },
  {
    "postal": "K1L2G9",
    "result": []
  },
  {
    "postal": "K1L8T2",
    "result": []
  },
  {
    "postal": "K1L7G7",
    "result": [
      {
        "electoralDistricts": [
          {
            "election": null,
            "id": 80,
            "name": "Ottawa—Vanier"
          }
        ],
        "pollDivisionIds": [
          10144284
        ],
        "postalCode": "K1L7G7",
        "streetName": "PARK",
        "streetDirectionId": null,
        "streetTypeId": "ST",
        "placeName": "VANIER",
        "streetNameDisplayText": "PARK ST, VANIER"
      }
    ]
  },
  {
    "postal": "K1L4Z3",
    "result": []
  },
  {
    "postal": "K1L5B3",
    "result": [
      {
        "electoralDistricts": [
          {
            "election": null,
            "id": 80,
            "name": "Ottawa—Vanier"
          }
        ],
        "pollDivisionIds": [
          10140714
        ],
        "postalCode": "K1L5B3",
        "streetName": "LAKEWAY",
        "streetDirectionId": null,
        "streetTypeId": "DR",
        "placeName": "ROCKCLIFFE",
        "streetNameDisplayText": "LAKEWAY DR, ROCKCLIFFE"
      }
    ]
  },
  {
    "postal": "K1L1S7",
    "result": []
  },
  {
    "postal": "K1L2N7",
    "result": []
  },
  {
    "postal": "K1L0H8",
    "result": []
  },
  {
    "postal": "K1L7Z4",
    "result": [
      {
        "electoralDistricts": [
          {
            "election": null,
            "id": 80,
            "name": "Ottawa—Vanier"
          }
        ],
        "pollDivisionIds": [
          10140719
        ],
        "postalCode": "K1L7Z4",
        "streetName": "LAVAL",
        "streetDirectionId": null,
        "streetTypeId": "ST",
        "placeName": "VANIER",
        "streetNameDisplayText": "LAVAL ST, VANIER"
      }
    ]
  },
  {
    "postal": "K1L7B1",
    "result": [
      {
        "electoralDistricts": [
          {
            "election": null,
            "id": 80,
            "name": "Ottawa—Vanier"
          }
        ],
        "pollDivisionIds": [
          10140722
        ],
        "postalCode": "K1L7B1",
        "streetName": "LACASSE",
        "streetDirectionId": null,
        "streetTypeId": "AVE",
        "placeName": "VANIER",
        "streetNameDisplayText": "LACASSE AVE, VANIER"
      }
    ]
  },
  {
    "postal": "K1L7P8",
    "result": [
      {
        "electoralDistricts": [
          {
            "election": null,
            "id": 80,
            "name": "Ottawa—Vanier"
          }
        ],
        "pollDivisionIds": [
          10140723
        ],
        "postalCode": "K1L7P8",
        "streetName": "STE MONIQUE",
        "streetDirectionId": null,
        "streetTypeId": "ST",
        "placeName": "VANIER",
        "streetNameDisplayText": "STE MONIQUE ST, VANIER"
      }
    ]
  },
  {
    "postal": "K1L7N0",
    "result": []
  },
  {
    "postal": "K1L3Y5",
    "result": []
  },
  {
    "postal": "K1L6K1",
    "result": [
      {
        "electoralDistricts": [
          {
            "election": null,
            "id": 80,
            "name": "Ottawa—Vanier"
          }
        ],
        "pollDivisionIds": [
          10140722
        ],
        "postalCode": "K1L6K1",
        "streetName": "RICHELIEU",
        "streetDirectionId": null,
        "streetTypeId": "AVE",
        "placeName": "VANIER",
        "streetNameDisplayText": "RICHELIEU AVE, VANIER"
      }
    ]
  },
  {
    "postal": "K1L9X5",
    "result": []
  },
  {
    "postal": "K1L7S5",
    "result": [
      {
        "electoralDistricts": [
          {
            "election": null,
            "id": 80,
            "name": "Ottawa—Vanier"
          }
        ],
        "pollDivisionIds": [
          10144284
        ],
        "postalCode": "K1L7S5",
        "streetName": "DUROCHER",
        "streetDirectionId": null,
        "streetTypeId": "ST",
        "placeName": "VANIER",
        "streetNameDisplayText": "DUROCHER ST, VANIER"
      }
    ]
  },
  {
    "postal": "K1L0A4",
    "result": [
      {
        "electoralDistricts": [
          {
            "election": null,
            "id": 80,
            "name": "Ottawa—Vanier"
          }
        ],
        "pollDivisionIds": [
          10140724
        ],
        "postalCode": "K1L0A4",
        "streetName": "SELKIRK",
        "streetDirectionId": null,
        "streetTypeId": "ST",
        "placeName": "VANIER",
        "streetNameDisplayText": "SELKIRK ST, VANIER"
      }
    ]
  },
  {
    "postal": "K1L4T5",
    "result": []
  },
  {
    "postal": "K1L5K1",
    "result": [
      {
        "electoralDistricts": [
          {
            "election": null,
            "id": 80,
            "name": "Ottawa—Vanier"
          }
        ],
        "pollDivisionIds": [
          10140719
        ],
        "postalCode": "K1L5K1",
        "streetName": "MARQUETTE",
        "streetDirectionId": null,
        "streetTypeId": "AVE",
        "placeName": "VANIER",
        "streetNameDisplayText": "MARQUETTE AVE, VANIER"
      }
    ]
  },
  {
    "postal": "K1L0Z9",
    "result": []
  },
  {
    "postal": "K1L7T2",
    "result": [
      {
        "electoralDistricts": [
          {
            "election": null,
            "id": 80,
            "name": "Ottawa—Vanier"
          }
        ],
        "pollDivisionIds": [
          10144284
        ],
        "postalCode": "K1L7T2",
        "streetName": "DESROSIER",
        "streetDirectionId": null,
        "streetTypeId": "ST",
        "placeName": "VANIER",
        "streetNameDisplayText": "DESROSIER ST, VANIER"
      },
      {
        "electoralDistricts": [
          {
            "election": null,
            "id": 80,
            "name": "Ottawa—Vanier"
          }
        ],
        "pollDivisionIds": [
          10144284
        ],
        "postalCode": "K1L7T2",
        "streetName": "DESROSIERS",
        "streetDirectionId": null,
        "streetTypeId": "ST",
        "placeName": "VANIER",
        "streetNameDisplayText": "DESROSIERS ST, VANIER"
      }
    ]
  },
  {
    "postal": "K1L1L5",
    "result": []
  },
  {
    "postal": "K1L3N5",
    "result": []
  },
  {
    "postal": "K1L6H4",
    "result": [
      {
        "electoralDistricts": [
          {
            "election": null,
            "id": 80,
            "name": "Ottawa—Vanier"
          }
        ],
        "pollDivisionIds": [
          10140722
        ],
        "postalCode": "K1L6H4",
        "streetName": "LEVIS",
        "streetDirectionId": null,
        "streetTypeId": "AVE",
        "placeName": "VANIER",
        "streetNameDisplayText": "LEVIS AVE, VANIER"
      }
    ]
  },
  {
    "postal": "K1L5A5",
    "result": []
  },
  {
    "postal": "K1L3R9",
    "result": []
  },
  {
    "postal": "K1L7L8",
    "result": [
      {
        "electoralDistricts": [
          {
            "election": null,
            "id": 80,
            "name": "Ottawa—Vanier"
          }
        ],
        "pollDivisionIds": [
          10140723
        ],
        "postalCode": "K1L7L8",
        "streetName": "DES PÈRES BLANCS",
        "streetDirectionId": null,
        "streetTypeId": "AVE",
        "placeName": "VANIER",
        "streetNameDisplayText": "DES PÈRES BLANCS AVE, VANIER"
      }
    ]
  },
  {
    "postal": "K1L6T6",
    "result": [
      {
        "electoralDistricts": [
          {
            "election": null,
            "id": 80,
            "name": "Ottawa—Vanier"
          }
        ],
        "pollDivisionIds": [
          10140726
        ],
        "postalCode": "K1L6T6",
        "streetName": "DUCHARME",
        "streetDirectionId": null,
        "streetTypeId": "BLVD",
        "placeName": "VANIER",
        "streetNameDisplayText": "DUCHARME BLVD, VANIER"
      }
    ]
  },
  {
    "postal": "K1L7Y7",
    "result": [
      {
        "electoralDistricts": [
          {
            "election": null,
            "id": 80,
            "name": "Ottawa—Vanier"
          }
        ],
        "pollDivisionIds": [
          10140719
        ],
        "postalCode": "K1L7Y7",
        "streetName": "GENEST",
        "streetDirectionId": null,
        "streetTypeId": "ST",
        "placeName": "VANIER",
        "streetNameDisplayText": "GENEST ST, VANIER"
      }
    ]
  },
  {
    "postal": "K1L3M8",
    "result": []
  },
  {
    "postal": "K1L2E0",
    "result": []
  },
  {
    "postal": "K1L4B5",
    "result": []
  },
  {
    "postal": "K1L1J3",
    "result": []
  },
  {
    "postal": "K1L5S6",
    "result": [
      {
        "electoralDistricts": [
          {
            "election": null,
            "id": 80,
            "name": "Ottawa—Vanier"
          }
        ],
        "pollDivisionIds": [
          10140719
        ],
        "postalCode": "K1L5S6",
        "streetName": "MARIER",
        "streetDirectionId": null,
        "streetTypeId": "AVE",
        "placeName": "VANIER",
        "streetNameDisplayText": "MARIER AVE, VANIER"
      }
    ]
  },
  {
    "postal": "K1L8P7",
    "result": []
  },
  {
    "postal": "K1L7S7",
    "result": [
      {
        "electoralDistricts": [
          {
            "election": null,
            "id": 80,
            "name": "Ottawa—Vanier"
          }
        ],
        "pollDivisionIds": [
          10140722
        ],
        "postalCode": "K1L7S7",
        "streetName": "KENDALL",
        "streetDirectionId": null,
        "streetTypeId": "AVE",
        "placeName": "VANIER",
        "streetNameDisplayText": "KENDALL AVE, VANIER"
      }
    ]
  },
  {
    "postal": "K1L4C2",
    "result": []
  },
  {
    "postal": "K1L5Y0",
    "result": []
  },
  {
    "postal": "K1L2V7",
    "result": []
  },
  {
    "postal": "K1L8P5",
    "result": []
  },
  {
    "postal": "K1L5P5",
    "result": [
      {
        "electoralDistricts": [
          {
            "election": null,
            "id": 80,
            "name": "Ottawa—Vanier"
          }
        ],
        "pollDivisionIds": [
          10144284
        ],
        "postalCode": "K1L5P5",
        "streetName": "MONTFORT",
        "streetDirectionId": null,
        "streetTypeId": "ST",
        "placeName": "VANIER",
        "streetNameDisplayText": "MONTFORT ST, VANIER"
      }
    ]
  },
  {
    "postal": "K1L5Z0",
    "result": []
  },
  {
    "postal": "K1L9B0",
    "result": []
  },
  {
    "postal": "K1L1L0",
    "result": []
  },
  {
    "postal": "K1L0B5",
    "result": []
  },
  {
    "postal": "K1L3L2",
    "result": []
  },
  {
    "postal": "K1L3B7",
    "result": []
  },
  {
    "postal": "K1L8L1",
    "result": [
      {
        "electoralDistricts": [
          {
            "election": null,
            "id": 80,
            "name": "Ottawa—Vanier"
          }
        ],
        "pollDivisionIds": [
          10140723
        ],
        "postalCode": "K1L8L1",
        "streetName": "BRADLEY",
        "streetDirectionId": null,
        "streetTypeId": "AVE",
        "placeName": "OTTAWA",
        "streetNameDisplayText": "BRADLEY AVE, OTTAWA"
      },
      {
        "electoralDistricts": [
          {
            "election": null,
            "id": 80,
            "name": "Ottawa—Vanier"
          }
        ],
        "pollDivisionIds": [
          10140723
        ],
        "postalCode": "K1L8L1",
        "streetName": "BRADLEY",
        "streetDirectionId": null,
        "streetTypeId": "AVE",
        "placeName": "VANIER",
        "streetNameDisplayText": "BRADLEY AVE, VANIER"
      }
    ]
  },
  {
    "postal": "K1L5M4",
    "result": [
      {
        "electoralDistricts": [
          {
            "election": null,
            "id": 80,
            "name": "Ottawa—Vanier"
          }
        ],
        "pollDivisionIds": [
          10140727
        ],
        "postalCode": "K1L5M4",
        "streetName": "SHAKESPEARE",
        "streetDirectionId": null,
        "streetTypeId": "ST",
        "placeName": "OTTAWA",
        "streetNameDisplayText": "SHAKESPEARE ST, OTTAWA"
      },
      {
        "electoralDistricts": [
          {
            "election": null,
            "id": 80,
            "name": "Ottawa—Vanier"
          }
        ],
        "pollDivisionIds": [
          10140727,
          10140723
        ],
        "postalCode": "K1L5M4",
        "streetName": "SHAKESPEARE",
        "streetDirectionId": null,
        "streetTypeId": "ST",
        "placeName": "VANIER",
        "streetNameDisplayText": "SHAKESPEARE ST, VANIER"
      }
    ]
  },
  {
    "postal": "K1L4G9",
    "result": []
  },
  {
    "postal": "K1L0P0",
    "result": []
  },
  {
    "postal": "K1L8G2",
    "result": []
  },
  {
    "postal": "K1L1V9",
    "result": []
  },
  {
    "postal": "K1L8N8",
    "result": []
  },
  {
    "postal": "K1L6S8",
    "result": [
      {
        "electoralDistricts": [
          {
            "election": null,
            "id": 80,
            "name": "Ottawa—Vanier"
          }
        ],
        "pollDivisionIds": [
          10140724
        ],
        "postalCode": "K1L6S8",
        "streetName": "WASHINGTON",
        "streetDirectionId": null,
        "streetTypeId": "AVE",
        "placeName": "VANIER",
        "streetNameDisplayText": "WASHINGTON AVE, VANIER"
      }
    ]
  },
  {
    "postal": "K1L8H2",
    "result": [
      {
        "electoralDistricts": [
          {
            "election": null,
            "id": 80,
            "name": "Ottawa—Vanier"
          }
        ],
        "pollDivisionIds": [
          10140722
        ],
        "postalCode": "K1L8H2",
        "streetName": "MONTREAL",
        "streetDirectionId": null,
        "streetTypeId": "RD",
        "placeName": "VANIER",
        "streetNameDisplayText": "MONTREAL RD, VANIER"
      }
    ]
  },
  {
    "postal": "K1L5R8",
    "result": [
      {
        "electoralDistricts": [
          {
            "election": null,
            "id": 80,
            "name": "Ottawa—Vanier"
          }
        ],
        "pollDivisionIds": [
          10140719
        ],
        "postalCode": "K1L5R8",
        "streetName": "MARIER",
        "streetDirectionId": null,
        "streetTypeId": "AVE",
        "placeName": "VANIER",
        "streetNameDisplayText": "MARIER AVE, VANIER"
      }
    ]
  },
  {
    "postal": "K1L5L4",
    "result": [
      {
        "electoralDistricts": [
          {
            "election": null,
            "id": 80,
            "name": "Ottawa—Vanier"
          }
        ],
        "pollDivisionIds": [
          10140719
        ],
        "postalCode": "K1L5L4",
        "streetName": "STE-CECILE",
        "streetDirectionId": null,
        "streetTypeId": "ST",
        "placeName": "VANIER",
        "streetNameDisplayText": "STE-CECILE ST, VANIER"
      },
      {
        "electoralDistricts": [
          {
            "election": null,
            "id": 80,
            "name": "Ottawa—Vanier"
          }
        ],
        "pollDivisionIds": [
          10140719
        ],
        "postalCode": "K1L5L4",
        "streetName": "STE-CÉCILE",
        "streetDirectionId": null,
        "streetTypeId": "ST",
        "placeName": "VANIER",
        "streetNameDisplayText": "STE-CÉCILE ST, VANIER"
      }
    ]
  },
  {
    "postal": "K1L9E1",
    "result": []
  },
  {
    "postal": "K1L1C4",
    "result": []
  },
  {
    "postal": "K1L8W5",
    "result": []
  },
  {
    "postal": "K1L1Y4",
    "result": []
  },
  {
    "postal": "K1L1C0",
    "result": []
  },
  {
    "postal": "K1L2J2",
    "result": []
  },
  {
    "postal": "K1L2J0",
    "result": []
  },
  {
    "postal": "K1L7A3",
    "result": [
      {
        "electoralDistricts": [
          {
            "election": null,
            "id": 80,
            "name": "Ottawa—Vanier"
          }
        ],
        "pollDivisionIds": [
          10140722
        ],
        "postalCode": "K1L7A3",
        "streetName": "MONA",
        "streetDirectionId": null,
        "streetTypeId": "AVE",
        "placeName": "VANIER",
        "streetNameDisplayText": "MONA AVE, VANIER"
      }
    ]
  },
  {
    "postal": "K1L8M1",
    "result": []
  },
  {
    "postal": "K1L7T9",
    "result": [
      {
        "electoralDistricts": [
          {
            "election": null,
            "id": 80,
            "name": "Ottawa—Vanier"
          }
        ],
        "pollDivisionIds": [
          10144284
        ],
        "postalCode": "K1L7T9",
        "streetName": "KIPP",
        "streetDirectionId": null,
        "streetTypeId": "ST",
        "placeName": "VANIER",
        "streetNameDisplayText": "KIPP ST, VANIER"
      }
    ]
  },
  {
    "postal": "K1L6C0",
    "result": []
  },
  {
    "postal": "K1L7X1",
    "result": [
      {
        "electoralDistricts": [
          {
            "election": null,
            "id": 80,
            "name": "Ottawa—Vanier"
          }
        ],
        "pollDivisionIds": [
          10140722
        ],
        "postalCode": "K1L7X1",
        "streetName": "MONTGOMERY",
        "streetDirectionId": null,
        "streetTypeId": "ST",
        "placeName": "VANIER",
        "streetNameDisplayText": "MONTGOMERY ST, VANIER"
      }
    ]
  },
  {
    "postal": "K1L0G1",
    "result": []
  },
  {
    "postal": "K1L4X2",
    "result": []
  },
  {
    "postal": "K1L0N6",
    "result": []
  },
  {
    "postal": "K1L8E3",
    "result": [
      {
        "electoralDistricts": [
          {
            "election": null,
            "id": 80,
            "name": "Ottawa—Vanier"
          }
        ],
        "pollDivisionIds": [
          10144284
        ],
        "postalCode": "K1L8E3",
        "streetName": "DUROCHER",
        "streetDirectionId": null,
        "streetTypeId": "ST",
        "placeName": "VANIER",
        "streetNameDisplayText": "DUROCHER ST, VANIER"
      }
    ]
  },
  {
    "postal": "K1L5S8",
    "result": [
      {
        "electoralDistricts": [
          {
            "election": null,
            "id": 80,
            "name": "Ottawa—Vanier"
          }
        ],
        "pollDivisionIds": [
          10140719
        ],
        "postalCode": "K1L5S8",
        "streetName": "VACHON",
        "streetDirectionId": null,
        "streetTypeId": "AVE",
        "placeName": "VANIER",
        "streetNameDisplayText": "VACHON AVE, VANIER"
      }
    ]
  },
  {
    "postal": "K1L0R0",
    "result": []
  },
  {
    "postal": "K1L6J6",
    "result": [
      {
        "electoralDistricts": [
          {
            "election": null,
            "id": 80,
            "name": "Ottawa—Vanier"
          }
        ],
        "pollDivisionIds": [
          10140726
        ],
        "postalCode": "K1L6J6",
        "streetName": "RICHELIEU",
        "streetDirectionId": null,
        "streetTypeId": "AVE",
        "placeName": "VANIER",
        "streetNameDisplayText": "RICHELIEU AVE, VANIER"
      }
    ]
  },
  {
    "postal": "K1L4B4",
    "result": []
  },
  {
    "postal": "K1L7E3",
    "result": []
  },
  {
    "postal": "K1L3N6",
    "result": []
  },
  {
    "postal": "K1L3X6",
    "result": []
  },
  {
    "postal": "K1L8L0",
    "result": []
  },
  {
    "postal": "K1L8N1",
    "result": []
  },
  {
    "postal": "K1L4J0",
    "result": []
  },
  {
    "postal": "K1L0X7",
    "result": []
  },
  {
    "postal": "K1L6S4",
    "result": [
      {
        "electoralDistricts": [
          {
            "election": null,
            "id": 80,
            "name": "Ottawa—Vanier"
          }
        ],
        "pollDivisionIds": [
          10140724
        ],
        "postalCode": "K1L6S4",
        "streetName": "MARIA GORETTI",
        "streetDirectionId": null,
        "streetTypeId": "CIR",
        "placeName": "VANIER",
        "streetNameDisplayText": "MARIA GORETTI CIR, VANIER"
      }
    ]
  },
  {
    "postal": "K1L0Z0",
    "result": []
  },
  {
    "postal": "K1L9X8",
    "result": []
  },
  {
    "postal": "K1L3H3",
    "result": []
  },
  {
    "postal": "K1L7S2",
    "result": [
      {
        "electoralDistricts": [
          {
            "election": null,
            "id": 80,
            "name": "Ottawa—Vanier"
          }
        ],
        "pollDivisionIds": [
          10140722
        ],
        "postalCode": "K1L7S2",
        "streetName": "SAVARD",
        "streetDirectionId": null,
        "streetTypeId": "AVE",
        "placeName": "VANIER",
        "streetNameDisplayText": "SAVARD AVE, VANIER"
      }
    ]
  },
  {
    "postal": "K1L3T3",
    "result": []
  },
  {
    "postal": "K1L9P3",
    "result": []
  },
  {
    "postal": "K1L4H8",
    "result": []
  },
  {
    "postal": "K1L6R1",
    "result": [
      {
        "electoralDistricts": [
          {
            "election": null,
            "id": 80,
            "name": "Ottawa—Vanier"
          }
        ],
        "pollDivisionIds": [
          10140724
        ],
        "postalCode": "K1L6R1",
        "streetName": "MCARTHUR",
        "streetDirectionId": null,
        "streetTypeId": "AVE",
        "placeName": "VANIER",
        "streetNameDisplayText": "MCARTHUR AVE, VANIER"
      }
    ]
  },
  {
    "postal": "K1L1S0",
    "result": []
  },
  {
    "postal": "K1L3W8",
    "result": []
  },
  {
    "postal": "K1L4S3",
    "result": []
  },
  {
    "postal": "K1L1B6",
    "result": []
  },
  {
    "postal": "K1L8R3",
    "result": []
  },
  {
    "postal": "K1L4V9",
    "result": []
  },
  {
    "postal": "K1L9W4",
    "result": []
  },
  {
    "postal": "K1L3T4",
    "result": []
  },
  {
    "postal": "K1L5C7",
    "result": [
      {
        "electoralDistricts": [
          {
            "election": null,
            "id": 80,
            "name": "Ottawa—Vanier"
          }
        ],
        "pollDivisionIds": [
          10140723
        ],
        "postalCode": "K1L5C7",
        "streetName": "PERRIER",
        "streetDirectionId": null,
        "streetTypeId": "AVE",
        "placeName": "VANIER",
        "streetNameDisplayText": "PERRIER AVE, VANIER"
      }
    ]
  },
  {
    "postal": "K1L3Y1",
    "result": []
  },
  {
    "postal": "K1L5V0",
    "result": []
  },
  {
    "postal": "K1L8G8",
    "result": [
      {
        "electoralDistricts": [
          {
            "election": null,
            "id": 80,
            "name": "Ottawa—Vanier"
          }
        ],
        "pollDivisionIds": [
          10140727
        ],
        "postalCode": "K1L8G8",
        "streetName": "MONTFORT",
        "streetDirectionId": null,
        "streetTypeId": "ST",
        "placeName": "VANIER",
        "streetNameDisplayText": "MONTFORT ST, VANIER"
      }
    ]
  },
  {
    "postal": "K1L8B1",
    "result": []
  },
  {
    "postal": "K1L4P5",
    "result": []
  },
  {
    "postal": "K1L7B2",
    "result": [
      {
        "electoralDistricts": [
          {
            "election": null,
            "id": 80,
            "name": "Ottawa—Vanier"
          }
        ],
        "pollDivisionIds": [
          10140724
        ],
        "postalCode": "K1L7B2",
        "streetName": "DOLLARD",
        "streetDirectionId": null,
        "streetTypeId": "ST",
        "placeName": "VANIER",
        "streetNameDisplayText": "DOLLARD ST, VANIER"
      }
    ]
  },
  {
    "postal": "K1L0R2",
    "result": []
  },
  {
    "postal": "K1L4M4",
    "result": []
  },
  {
    "postal": "K1L7M4",
    "result": [
      {
        "electoralDistricts": [
          {
            "election": null,
            "id": 80,
            "name": "Ottawa—Vanier"
          }
        ],
        "pollDivisionIds": [
          10144284
        ],
        "postalCode": "K1L7M4",
        "streetName": "HANNAH",
        "streetDirectionId": null,
        "streetTypeId": "ST",
        "placeName": "VANIER",
        "streetNameDisplayText": "HANNAH ST, VANIER"
      }
    ]
  },
  {
    "postal": "K1L9S7",
    "result": []
  },
  {
    "postal": "K1L5Z7",
    "result": [
      {
        "electoralDistricts": [
          {
            "election": null,
            "id": 80,
            "name": "Ottawa—Vanier"
          }
        ],
        "pollDivisionIds": [
          10144284
        ],
        "postalCode": "K1L5Z7",
        "streetName": "DESCHAMPS",
        "streetDirectionId": null,
        "streetTypeId": "AVE",
        "placeName": "VANIER",
        "streetNameDisplayText": "DESCHAMPS AVE, VANIER"
      }
    ]
  },
  {
    "postal": "K1L7J7",
    "result": [
      {
        "electoralDistricts": [
          {
            "election": null,
            "id": 80,
            "name": "Ottawa—Vanier"
          }
        ],
        "pollDivisionIds": [
          10144284
        ],
        "postalCode": "K1L7J7",
        "streetName": "OLMSTEAD",
        "streetDirectionId": null,
        "streetTypeId": "ST",
        "placeName": "VANIER",
        "streetNameDisplayText": "OLMSTEAD ST, VANIER"
      }
    ]
  },
  {
    "postal": "K1L8R8",
    "result": []
  },
  {
    "postal": "K1L9X1",
    "result": []
  },
  {
    "postal": "K1L5M9",
    "result": [
      {
        "electoralDistricts": [
          {
            "election": null,
            "id": 80,
            "name": "Ottawa—Vanier"
          }
        ],
        "pollDivisionIds": [
          10140727
        ],
        "postalCode": "K1L5M9",
        "streetName": "MONTFORT",
        "streetDirectionId": null,
        "streetTypeId": "ST",
        "placeName": "VANIER",
        "streetNameDisplayText": "MONTFORT ST, VANIER"
      }
    ]
  },
  {
    "postal": "K1L9B4",
    "result": []
  },
  {
    "postal": "K1L0L9",
    "result": []
  },
  {
    "postal": "K1L9G4",
    "result": []
  },
  {
    "postal": "K1L1J4",
    "result": []
  },
  {
    "postal": "K1L0W6",
    "result": []
  },
  {
    "postal": "K1L4C5",
    "result": []
  },
  {
    "postal": "K1L7E4",
    "result": [
      {
        "electoralDistricts": [
          {
            "election": null,
            "id": 80,
            "name": "Ottawa—Vanier"
          }
        ],
        "pollDivisionIds": [
          10140723
        ],
        "postalCode": "K1L7E4",
        "streetName": "BRADLEY",
        "streetDirectionId": null,
        "streetTypeId": "AVE",
        "placeName": "VANIER",
        "streetNameDisplayText": "BRADLEY AVE, VANIER"
      }
    ]
  },
  {
    "postal": "K1L1R9",
    "result": []
  },
  {
    "postal": "K1L2P0",
    "result": []
  },
  {
    "postal": "K1L5S4",
    "result": [
      {
        "electoralDistricts": [
          {
            "election": null,
            "id": 80,
            "name": "Ottawa—Vanier"
          }
        ],
        "pollDivisionIds": [
          10140719
        ],
        "postalCode": "K1L5S4",
        "streetName": "MARIER",
        "streetDirectionId": null,
        "streetTypeId": "AVE",
        "placeName": "VANIER",
        "streetNameDisplayText": "MARIER AVE, VANIER"
      }
    ]
  },
  {
    "postal": "K1L5K8",
    "result": [
      {
        "electoralDistricts": [
          {
            "election": null,
            "id": 80,
            "name": "Ottawa—Vanier"
          }
        ],
        "pollDivisionIds": [
          10140723
        ],
        "postalCode": "K1L5K8",
        "streetName": "JOFFRE-BÉLANGER",
        "streetDirectionId": null,
        "streetTypeId": "WAY",
        "placeName": "VANIER",
        "streetNameDisplayText": "JOFFRE-BÉLANGER WAY, VANIER"
      }
    ]
  },
  {
    "postal": "K1L8K4",
    "result": [
      {
        "electoralDistricts": [
          {
            "election": null,
            "id": 80,
            "name": "Ottawa—Vanier"
          }
        ],
        "pollDivisionIds": [
          10140759
        ],
        "postalCode": "K1L8K4",
        "streetName": "LANDRY",
        "streetDirectionId": null,
        "streetTypeId": "ST",
        "placeName": "VANIER",
        "streetNameDisplayText": "LANDRY ST, VANIER"
      }
    ]
  },
  {
    "postal": "K1L7C1",
    "result": [
      {
        "electoralDistricts": [
          {
            "election": null,
            "id": 80,
            "name": "Ottawa—Vanier"
          }
        ],
        "pollDivisionIds": [
          10140723
        ],
        "postalCode": "K1L7C1",
        "streetName": "STE ANNE",
        "streetDirectionId": null,
        "streetTypeId": "AVE",
        "placeName": "VANIER",
        "streetNameDisplayText": "STE ANNE AVE, VANIER"
      }
    ]
  },
  {
    "postal": "K1L7K9",
    "result": [
      {
        "electoralDistricts": [
          {
            "election": null,
            "id": 80,
            "name": "Ottawa—Vanier"
          }
        ],
        "pollDivisionIds": [
          10140724
        ],
        "postalCode": "K1L7K9",
        "streetName": "MARIA GORETTI",
        "streetDirectionId": null,
        "streetTypeId": "CIR",
        "placeName": "VANIER",
        "streetNameDisplayText": "MARIA GORETTI CIR, VANIER"
      }
    ]
  },
  {
    "postal": "K1L5J1",
    "result": [
      {
        "electoralDistricts": [
          {
            "election": null,
            "id": 80,
            "name": "Ottawa—Vanier"
          }
        ],
        "pollDivisionIds": [
          10140723
        ],
        "postalCode": "K1L5J1",
        "streetName": "ST DENIS",
        "streetDirectionId": null,
        "streetTypeId": "ST",
        "placeName": "VANIER",
        "streetNameDisplayText": "ST DENIS ST, VANIER"
      }
    ]
  },
  {
    "postal": "K1L4P9",
    "result": []
  },
  {
    "postal": "K1L0N2",
    "result": []
  },
  {
    "postal": "K1L2G6",
    "result": []
  },
  {
    "postal": "K1L6P4",
    "result": [
      {
        "electoralDistricts": [
          {
            "election": null,
            "id": 80,
            "name": "Ottawa—Vanier"
          }
        ],
        "pollDivisionIds": [
          10140724
        ],
        "postalCode": "K1L6P4",
        "streetName": "MCARTHUR",
        "streetDirectionId": null,
        "streetTypeId": "AVE",
        "placeName": "VANIER",
        "streetNameDisplayText": "MCARTHUR AVE, VANIER"
      }
    ]
  },
  {
    "postal": "K1L3J0",
    "result": []
  },
  {
    "postal": "K1L8X4",
    "result": []
  },
  {
    "postal": "K1L1Y3",
    "result": []
  },
  {
    "postal": "K1L1A8",
    "result": []
  },
  {
    "postal": "K1L6Y5",
    "result": [
      {
        "electoralDistricts": [
          {
            "election": null,
            "id": 80,
            "name": "Ottawa—Vanier"
          }
        ],
        "pollDivisionIds": [
          10140723
        ],
        "postalCode": "K1L6Y5",
        "streetName": "GRANVILLE",
        "streetDirectionId": null,
        "streetTypeId": "ST",
        "placeName": "VANIER",
        "streetNameDisplayText": "GRANVILLE ST, VANIER"
      }
    ]
  },
  {
    "postal": "K1L0J6",
    "result": []
  },
  {
    "postal": "K1L2C9",
    "result": []
  },
  {
    "postal": "K1L8J6",
    "result": [
      {
        "electoralDistricts": [
          {
            "election": null,
            "id": 80,
            "name": "Ottawa—Vanier"
          }
        ],
        "pollDivisionIds": [
          10140728
        ],
        "postalCode": "K1L8J6",
        "streetName": "WHITEMARL",
        "streetDirectionId": null,
        "streetTypeId": "DR",
        "placeName": "ROCKCLIFFE",
        "streetNameDisplayText": "WHITEMARL DR, ROCKCLIFFE"
      }
    ]
  },
  {
    "postal": "K1L8T4",
    "result": []
  },
  {
    "postal": "K1L1P7",
    "result": []
  },
  {
    "postal": "K1L9V9",
    "result": []
  },
  {
    "postal": "K1L0M1",
    "result": []
  },
  {
    "postal": "K1L6K5",
    "result": [
      {
        "electoralDistricts": [
          {
            "election": null,
            "id": 80,
            "name": "Ottawa—Vanier"
          }
        ],
        "pollDivisionIds": [
          10140726
        ],
        "postalCode": "K1L6K5",
        "streetName": "PIE XII",
        "streetDirectionId": null,
        "streetTypeId": "AVE",
        "placeName": "VANIER",
        "streetNameDisplayText": "PIE XII AVE, VANIER"
      },
      {
        "electoralDistricts": [
          {
            "election": null,
            "id": 80,
            "name": "Ottawa—Vanier"
          }
        ],
        "pollDivisionIds": [
          10140726
        ],
        "postalCode": "K1L6K5",
        "streetName": "PIE XII",
        "streetDirectionId": null,
        "streetTypeId": "ST",
        "placeName": "VANIER",
        "streetNameDisplayText": "PIE XII ST, VANIER"
      }
    ]
  },
  {
    "postal": "K1L2T5",
    "result": []
  },
  {
    "postal": "K1L7E9",
    "result": [
      {
        "electoralDistricts": [
          {
            "election": null,
            "id": 80,
            "name": "Ottawa—Vanier"
          }
        ],
        "pollDivisionIds": [
          10144284
        ],
        "postalCode": "K1L7E9",
        "streetName": "BRADLEY",
        "streetDirectionId": null,
        "streetTypeId": "AVE",
        "placeName": "VANIER",
        "streetNameDisplayText": "BRADLEY AVE, VANIER"
      }
    ]
  },
  {
    "postal": "K1L5K5",
    "result": [
      {
        "electoralDistricts": [
          {
            "election": null,
            "id": 80,
            "name": "Ottawa—Vanier"
          }
        ],
        "pollDivisionIds": [
          10140723
        ],
        "postalCode": "K1L5K5",
        "streetName": "JOFFRE-BÉLANGER",
        "streetDirectionId": null,
        "streetTypeId": "WAY",
        "placeName": "VANIER",
        "streetNameDisplayText": "JOFFRE-BÉLANGER WAY, VANIER"
      }
    ]
  },
  {
    "postal": "K1L3R5",
    "result": []
  },
  {
    "postal": "K1L5B1",
    "result": [
      {
        "electoralDistricts": [
          {
            "election": null,
            "id": 80,
            "name": "Ottawa—Vanier"
          }
        ],
        "pollDivisionIds": [
          10140714
        ],
        "postalCode": "K1L5B1",
        "streetName": "LAKEWAY",
        "streetDirectionId": null,
        "streetTypeId": "DR",
        "placeName": "ROCKCLIFFE",
        "streetNameDisplayText": "LAKEWAY DR, ROCKCLIFFE"
      }
    ]
  },
  {
    "postal": "K1L2P1",
    "result": []
  },
  {
    "postal": "K1L7L0",
    "result": []
  },
  {
    "postal": "K1L3L6",
    "result": []
  },
  {
    "postal": "K1L2A4",
    "result": []
  },
  {
    "postal": "K1L8S0",
    "result": []
  },
  {
    "postal": "K1L3L5",
    "result": []
  },
  {
    "postal": "K1L2R5",
    "result": []
  },
  {
    "postal": "K1L9T6",
    "result": []
  },
  {
    "postal": "K1L8Z2",
    "result": []
  },
  {
    "postal": "K1L0E9",
    "result": []
  },
  {
    "postal": "K1L8C0",
    "result": []
  },
  {
    "postal": "K1L3K7",
    "result": []
  },
  {
    "postal": "K1L2H3",
    "result": []
  },
  {
    "postal": "K1L2Y6",
    "result": []
  },
  {
    "postal": "K1L7M2",
    "result": [
      {
        "electoralDistricts": [
          {
            "election": null,
            "id": 80,
            "name": "Ottawa—Vanier"
          }
        ],
        "pollDivisionIds": [
          10140719
        ],
        "postalCode": "K1L7M2",
        "streetName": "DES PÈRES BLANCS",
        "streetDirectionId": null,
        "streetTypeId": "AVE",
        "placeName": "VANIER",
        "streetNameDisplayText": "DES PÈRES BLANCS AVE, VANIER"
      }
    ]
  },
  {
    "postal": "K1L6E2",
    "result": [
      {
        "electoralDistricts": [
          {
            "election": null,
            "id": 80,
            "name": "Ottawa—Vanier"
          }
        ],
        "pollDivisionIds": [
          10144284
        ],
        "postalCode": "K1L6E2",
        "streetName": "MONTREAL",
        "streetDirectionId": null,
        "streetTypeId": "RD",
        "placeName": "VANIER",
        "streetNameDisplayText": "MONTREAL RD, VANIER"
      }
    ]
  },
  {
    "postal": "K1L3R0",
    "result": []
  },
  {
    "postal": "K1L4J7",
    "result": []
  },
  {
    "postal": "K1L6N8",
    "result": [
      {
        "electoralDistricts": [
          {
            "election": null,
            "id": 80,
            "name": "Ottawa—Vanier"
          }
        ],
        "pollDivisionIds": [
          10140729
        ],
        "postalCode": "K1L6N8",
        "streetName": "MCARTHUR",
        "streetDirectionId": null,
        "streetTypeId": "AVE",
        "placeName": "OTTAWA",
        "streetNameDisplayText": "MCARTHUR AVE, OTTAWA"
      },
      {
        "electoralDistricts": [
          {
            "election": null,
            "id": 80,
            "name": "Ottawa—Vanier"
          }
        ],
        "pollDivisionIds": [
          10140724
        ],
        "postalCode": "K1L6N8",
        "streetName": "MCARTHUR",
        "streetDirectionId": null,
        "streetTypeId": "AVE",
        "placeName": "VANIER",
        "streetNameDisplayText": "MCARTHUR AVE, VANIER"
      }
    ]
  },
  {
    "postal": "K1L0J7",
    "result": []
  },
  {
    "postal": "K1L7P2",
    "result": []
  },
  {
    "postal": "K1L3T8",
    "result": []
  },
  {
    "postal": "K1L3S7",
    "result": []
  },
  {
    "postal": "K1L2S7",
    "result": []
  },
  {
    "postal": "K1L1S4",
    "result": []
  },
  {
    "postal": "K1L1L8",
    "result": []
  },
  {
    "postal": "K1L8E9",
    "result": []
  },
  {
    "postal": "K1L0T0",
    "result": []
  },
  {
    "postal": "K1L3G4",
    "result": []
  },
  {
    "postal": "K1L0V6",
    "result": []
  },
  {
    "postal": "K1L4W1",
    "result": []
  },
  {
    "postal": "K1L9G9",
    "result": []
  },
  {
    "postal": "K1L5W4",
    "result": []
  },
  {
    "postal": "K1L7M8",
    "result": [
      {
        "electoralDistricts": [
          {
            "election": null,
            "id": 80,
            "name": "Ottawa—Vanier"
          }
        ],
        "pollDivisionIds": [
          10144284
        ],
        "postalCode": "K1L7M8",
        "streetName": "HANNAH",
        "streetDirectionId": null,
        "streetTypeId": "ST",
        "placeName": "VANIER",
        "streetNameDisplayText": "HANNAH ST, VANIER"
      }
    ]
  },
  {
    "postal": "K1L2C2",
    "result": []
  },
  {
    "postal": "K1L4Y2",
    "result": []
  },
  {
    "postal": "K1L9X9",
    "result": []
  },
  {
    "postal": "K1L3T0",
    "result": []
  },
  {
    "postal": "K1L4T8",
    "result": []
  },
  {
    "postal": "K1L9C4",
    "result": []
  },
  {
    "postal": "K1L8P2",
    "result": []
  },
  {
    "postal": "K1L0Y8",
    "result": []
  },
  {
    "postal": "K1L1G8",
    "result": []
  },
  {
    "postal": "K1L2T6",
    "result": []
  },
  {
    "postal": "K1L1N7",
    "result": []
  },
  {
    "postal": "K1L0L6",
    "result": []
  },
  {
    "postal": "K1L9V4",
    "result": []
  },
  {
    "postal": "K1L2V1",
    "result": []
  },
  {
    "postal": "K1L3L8",
    "result": []
  },
  {
    "postal": "K1L2R8",
    "result": []
  },
  {
    "postal": "K1L5C1",
    "result": [
      {
        "electoralDistricts": [
          {
            "election": null,
            "id": 80,
            "name": "Ottawa—Vanier"
          }
        ],
        "pollDivisionIds": [
          10140714
        ],
        "postalCode": "K1L5C1",
        "streetName": "PLACEL",
        "streetDirectionId": null,
        "streetTypeId": "RD",
        "placeName": "ROCKCLIFFE",
        "streetNameDisplayText": "PLACEL RD, ROCKCLIFFE"
      }
    ]
  },
  {
    "postal": "K1L4W3",
    "result": []
  },
  {
    "postal": "K1L5X5",
    "result": [
      {
        "electoralDistricts": [
          {
            "election": null,
            "id": 80,
            "name": "Ottawa—Vanier"
          }
        ],
        "pollDivisionIds": [
          10144284
        ],
        "postalCode": "K1L5X5",
        "streetName": "CARILLON",
        "streetDirectionId": null,
        "streetTypeId": "ST",
        "placeName": "VANIER",
        "streetNameDisplayText": "CARILLON ST, VANIER"
      }
    ]
  },
  {
    "postal": "K1L9W5",
    "result": []
  },
  {
    "postal": "K1L3C4",
    "result": []
  },
  {
    "postal": "K1L1N6",
    "result": []
  },
  {
    "postal": "K1L9S9",
    "result": []
  },
  {
    "postal": "K1L9M2",
    "result": []
  },
  {
    "postal": "K1L8Y4",
    "result": []
  },
  {
    "postal": "K1L7S4",
    "result": [
      {
        "electoralDistricts": [
          {
            "election": null,
            "id": 80,
            "name": "Ottawa—Vanier"
          }
        ],
        "pollDivisionIds": [
          10144284
        ],
        "postalCode": "K1L7S4",
        "streetName": "DUROCHER",
        "streetDirectionId": null,
        "streetTypeId": "ST",
        "placeName": "VANIER",
        "streetNameDisplayText": "DUROCHER ST, VANIER"
      }
    ]
  },
  {
    "postal": "K1L0K6",
    "result": []
  },
  {
    "postal": "K1L1W3",
    "result": []
  },
  {
    "postal": "K1L7R2",
    "result": [
      {
        "electoralDistricts": [
          {
            "election": null,
            "id": 80,
            "name": "Ottawa—Vanier"
          }
        ],
        "pollDivisionIds": [
          10140719
        ],
        "postalCode": "K1L7R2",
        "streetName": "STE MONIQUE",
        "streetDirectionId": null,
        "streetTypeId": "ST",
        "placeName": "VANIER",
        "streetNameDisplayText": "STE MONIQUE ST, VANIER"
      },
      {
        "electoralDistricts": [
          {
            "election": null,
            "id": 80,
            "name": "Ottawa—Vanier"
          }
        ],
        "pollDivisionIds": [
          10140719
        ],
        "postalCode": "K1L7R2",
        "streetName": "STE-CÉCILE",
        "streetDirectionId": null,
        "streetTypeId": "ST",
        "placeName": "VANIER",
        "streetNameDisplayText": "STE-CÉCILE ST, VANIER"
      }
    ]
  },
  {
    "postal": "K1L2Y9",
    "result": []
  },
  {
    "postal": "K1L7G4",
    "result": [
      {
        "electoralDistricts": [
          {
            "election": null,
            "id": 80,
            "name": "Ottawa—Vanier"
          }
        ],
        "pollDivisionIds": [
          10140723
        ],
        "postalCode": "K1L7G4",
        "streetName": "PARK",
        "streetDirectionId": null,
        "streetTypeId": "ST",
        "placeName": "VANIER",
        "streetNameDisplayText": "PARK ST, VANIER"
      }
    ]
  },
  {
    "postal": "K1L7E5",
    "result": [
      {
        "electoralDistricts": [
          {
            "election": null,
            "id": 80,
            "name": "Ottawa—Vanier"
          }
        ],
        "pollDivisionIds": [
          10140723
        ],
        "postalCode": "K1L7E5",
        "streetName": "BRADLEY",
        "streetDirectionId": null,
        "streetTypeId": "AVE",
        "placeName": "VANIER",
        "streetNameDisplayText": "BRADLEY AVE, VANIER"
      },
      {
        "electoralDistricts": [
          {
            "election": null,
            "id": 80,
            "name": "Ottawa—Vanier"
          }
        ],
        "pollDivisionIds": [
          10140723
        ],
        "postalCode": "K1L7E5",
        "streetName": "SHAKESPEARE",
        "streetDirectionId": null,
        "streetTypeId": "ST",
        "placeName": "OTTAWA",
        "streetNameDisplayText": "SHAKESPEARE ST, OTTAWA"
      }
    ]
  },
  {
    "postal": "K1L9G2",
    "result": []
  },
  {
    "postal": "K1L7Y8",
    "result": [
      {
        "electoralDistricts": [
          {
            "election": null,
            "id": 80,
            "name": "Ottawa—Vanier"
          }
        ],
        "pollDivisionIds": [
          10140719
        ],
        "postalCode": "K1L7Y8",
        "streetName": "GENEST",
        "streetDirectionId": null,
        "streetTypeId": "ST",
        "placeName": "VANIER",
        "streetNameDisplayText": "GENEST ST, VANIER"
      }
    ]
  },
  {
    "postal": "K1L9V2",
    "result": []
  },
  {
    "postal": "K1L3T7",
    "result": []
  },
  {
    "postal": "K1L1H0",
    "result": []
  },
  {
    "postal": "K1L1M7",
    "result": []
  },
  {
    "postal": "K1L8V4",
    "result": []
  },
  {
    "postal": "K1L4M2",
    "result": []
  },
  {
    "postal": "K1L0X2",
    "result": []
  },
  {
    "postal": "K1L5Z4",
    "result": [
      {
        "electoralDistricts": [
          {
            "election": null,
            "id": 80,
            "name": "Ottawa—Vanier"
          }
        ],
        "pollDivisionIds": [
          10144284
        ],
        "postalCode": "K1L5Z4",
        "streetName": "DESCHAMPS",
        "streetDirectionId": null,
        "streetTypeId": "AVE",
        "placeName": "VANIER",
        "streetNameDisplayText": "DESCHAMPS AVE, VANIER"
      }
    ]
  },
  {
    "postal": "K1L6V4",
    "result": [
      {
        "electoralDistricts": [
          {
            "election": null,
            "id": 80,
            "name": "Ottawa—Vanier"
          }
        ],
        "pollDivisionIds": [
          10140726
        ],
        "postalCode": "K1L6V4",
        "streetName": "DIEPPE",
        "streetDirectionId": null,
        "streetTypeId": "ST",
        "placeName": "VANIER",
        "streetNameDisplayText": "DIEPPE ST, VANIER"
      }
    ]
  },
  {
    "postal": "K1L8J3",
    "result": [
      {
        "electoralDistricts": [
          {
            "election": null,
            "id": 80,
            "name": "Ottawa—Vanier"
          }
        ],
        "pollDivisionIds": [
          10140714
        ],
        "postalCode": "K1L8J3",
        "streetName": "POND",
        "streetDirectionId": null,
        "streetTypeId": "ST",
        "placeName": "ROCKCLIFFE",
        "streetNameDisplayText": "POND ST, ROCKCLIFFE"
      }
    ]
  },
  {
    "postal": "K1L8E5",
    "result": [
      {
        "electoralDistricts": [
          {
            "election": null,
            "id": 80,
            "name": "Ottawa—Vanier"
          }
        ],
        "pollDivisionIds": [
          10140723
        ],
        "postalCode": "K1L8E5",
        "streetName": "GRANDMAITRE",
        "streetDirectionId": null,
        "streetTypeId": "AVE",
        "placeName": "VANIER",
        "streetNameDisplayText": "GRANDMAITRE AVE, VANIER"
      }
    ]
  },
  {
    "postal": "K1L2V5",
    "result": []
  },
  {
    "postal": "K1L7S1",
    "result": [
      {
        "electoralDistricts": [
          {
            "election": null,
            "id": 80,
            "name": "Ottawa—Vanier"
          }
        ],
        "pollDivisionIds": [
          10140722
        ],
        "postalCode": "K1L7S1",
        "streetName": "SAVARD",
        "streetDirectionId": null,
        "streetTypeId": "AVE",
        "placeName": "VANIER",
        "streetNameDisplayText": "SAVARD AVE, VANIER"
      }
    ]
  },
  {
    "postal": "K1L6V3",
    "result": [
      {
        "electoralDistricts": [
          {
            "election": null,
            "id": 80,
            "name": "Ottawa—Vanier"
          }
        ],
        "pollDivisionIds": [
          10140726
        ],
        "postalCode": "K1L6V3",
        "streetName": "DIEPPE",
        "streetDirectionId": null,
        "streetTypeId": "ST",
        "placeName": "VANIER",
        "streetNameDisplayText": "DIEPPE ST, VANIER"
      }
    ]
  },
  {
    "postal": "K1L2L8",
    "result": []
  },
  {
    "postal": "K1L9V0",
    "result": []
  },
  {
    "postal": "K1L3M4",
    "result": []
  },
  {
    "postal": "K1L5B2",
    "result": [
      {
        "electoralDistricts": [
          {
            "election": null,
            "id": 80,
            "name": "Ottawa—Vanier"
          }
        ],
        "pollDivisionIds": [
          10140714
        ],
        "postalCode": "K1L5B2",
        "streetName": "LAKEWAY",
        "streetDirectionId": null,
        "streetTypeId": "DR",
        "placeName": "ROCKCLIFFE",
        "streetNameDisplayText": "LAKEWAY DR, ROCKCLIFFE"
      }
    ]
  },
  {
    "postal": "K1L3X5",
    "result": []
  },
  {
    "postal": "K1L9R7",
    "result": []
  },
  {
    "postal": "K1L2X2",
    "result": []
  },
  {
    "postal": "K1L8Z6",
    "result": []
  },
  {
    "postal": "K1L4R4",
    "result": []
  },
  {
    "postal": "K1L2R1",
    "result": []
  },
  {
    "postal": "K1L3R8",
    "result": []
  },
  {
    "postal": "K1L9A1",
    "result": []
  },
  {
    "postal": "K1L8L3",
    "result": [
      {
        "electoralDistricts": [
          {
            "election": null,
            "id": 80,
            "name": "Ottawa—Vanier"
          }
        ],
        "pollDivisionIds": [
          10140723
        ],
        "postalCode": "K1L8L3",
        "streetName": "PAULINE CHARRON",
        "streetDirectionId": null,
        "streetTypeId": "PL",
        "placeName": "VANIER",
        "streetNameDisplayText": "PAULINE CHARRON PL, VANIER"
      }
    ]
  },
  {
    "postal": "K1L9K4",
    "result": []
  },
  {
    "postal": "K1L9S3",
    "result": []
  },
  {
    "postal": "K1L8N7",
    "result": []
  },
  {
    "postal": "K1L1C6",
    "result": []
  },
  {
    "postal": "K1L3Z8",
    "result": []
  },
  {
    "postal": "K1L8G5",
    "result": [
      {
        "electoralDistricts": [
          {
            "election": null,
            "id": 80,
            "name": "Ottawa—Vanier"
          }
        ],
        "pollDivisionIds": [
          10140722
        ],
        "postalCode": "K1L8G5",
        "streetName": "WAYLING",
        "streetDirectionId": null,
        "streetTypeId": "AVE",
        "placeName": "VANIER",
        "streetNameDisplayText": "WAYLING AVE, VANIER"
      }
    ]
  },
  {
    "postal": "K1L5R6",
    "result": [
      {
        "electoralDistricts": [
          {
            "election": null,
            "id": 80,
            "name": "Ottawa—Vanier"
          }
        ],
        "pollDivisionIds": [
          10140723
        ],
        "postalCode": "K1L5R6",
        "streetName": "MARIER",
        "streetDirectionId": null,
        "streetTypeId": "AVE",
        "placeName": "VANIER",
        "streetNameDisplayText": "MARIER AVE, VANIER"
      }
    ]
  },
  {
    "postal": "K1L2W3",
    "result": []
  },
  {
    "postal": "K1L0A0",
    "result": []
  },
  {
    "postal": "K1L6P8",
    "result": [
      {
        "electoralDistricts": [
          {
            "election": null,
            "id": 80,
            "name": "Ottawa—Vanier"
          }
        ],
        "pollDivisionIds": [
          10140722
        ],
        "postalCode": "K1L6P8",
        "streetName": "MCARTHUR",
        "streetDirectionId": null,
        "streetTypeId": "AVE",
        "placeName": "VANIER",
        "streetNameDisplayText": "MCARTHUR AVE, VANIER"
      }
    ]
  },
  {
    "postal": "K1L8N9",
    "result": []
  },
  {
    "postal": "K1L0S9",
    "result": []
  },
  {
    "postal": "K1L8G0",
    "result": []
  },
  {
    "postal": "K1L8C7",
    "result": [
      {
        "electoralDistricts": [
          {
            "election": null,
            "id": 80,
            "name": "Ottawa—Vanier"
          }
        ],
        "pollDivisionIds": [
          10144284
        ],
        "postalCode": "K1L8C7",
        "streetName": "MONTREAL",
        "streetDirectionId": null,
        "streetTypeId": "RD",
        "placeName": "VANIER",
        "streetNameDisplayText": "MONTREAL RD, VANIER"
      }
    ]
  },
  {
    "postal": "K1L5X8",
    "result": [
      {
        "electoralDistricts": [
          {
            "election": null,
            "id": 80,
            "name": "Ottawa—Vanier"
          }
        ],
        "pollDivisionIds": [
          10144284
        ],
        "postalCode": "K1L5X8",
        "streetName": "CARILLON",
        "streetDirectionId": null,
        "streetTypeId": "ST",
        "placeName": "VANIER",
        "streetNameDisplayText": "CARILLON ST, VANIER"
      }
    ]
  },
  {
    "postal": "K1L7E8",
    "result": [
      {
        "electoralDistricts": [
          {
            "election": null,
            "id": 80,
            "name": "Ottawa—Vanier"
          }
        ],
        "pollDivisionIds": [
          10144284
        ],
        "postalCode": "K1L7E8",
        "streetName": "BRADLEY",
        "streetDirectionId": null,
        "streetTypeId": "AVE",
        "placeName": "VANIER",
        "streetNameDisplayText": "BRADLEY AVE, VANIER"
      }
    ]
  },
  {
    "postal": "K1L6X2",
    "result": [
      {
        "electoralDistricts": [
          {
            "election": null,
            "id": 76,
            "name": "Orléans"
          }
        ],
        "pollDivisionIds": [
          10140461
        ],
        "postalCode": "K1L6X2",
        "streetName": "HUNTERS RUN",
        "streetDirectionId": null,
        "streetTypeId": null,
        "placeName": "ORLÉANS",
        "streetNameDisplayText": "HUNTERS RUN, ORLÉANS"
      },
      {
        "electoralDistricts": [
          {
            "election": null,
            "id": 80,
            "name": "Ottawa—Vanier"
          }
        ],
        "pollDivisionIds": [
          10140722
        ],
        "postalCode": "K1L6X2",
        "streetName": "LAFONTAINE",
        "streetDirectionId": null,
        "streetTypeId": "AVE",
        "placeName": "VANIER",
        "streetNameDisplayText": "LAFONTAINE AVE, VANIER"
      }
    ]
  },
  {
    "postal": "K1L4C6",
    "result": []
  },
  {
    "postal": "K1L7H2",
    "result": [
      {
        "electoralDistricts": [
          {
            "election": null,
            "id": 80,
            "name": "Ottawa—Vanier"
          }
        ],
        "pollDivisionIds": [
          10140722
        ],
        "postalCode": "K1L7H2",
        "streetName": "LAJOIE",
        "streetDirectionId": null,
        "streetTypeId": "ST",
        "placeName": "VANIER",
        "streetNameDisplayText": "LAJOIE ST, VANIER"
      }
    ]
  },
  {
    "postal": "K1L4R0",
    "result": []
  },
  {
    "postal": "K1L6J3",
    "result": [
      {
        "electoralDistricts": [
          {
            "election": null,
            "id": 80,
            "name": "Ottawa—Vanier"
          }
        ],
        "pollDivisionIds": [
          10140726
        ],
        "postalCode": "K1L6J3",
        "streetName": "RICHELIEU",
        "streetDirectionId": null,
        "streetTypeId": "AVE",
        "placeName": "VANIER",
        "streetNameDisplayText": "RICHELIEU AVE, VANIER"
      }
    ]
  },
  {
    "postal": "K1L4B8",
    "result": []
  },
  {
    "postal": "K1L6H6",
    "result": [
      {
        "electoralDistricts": [
          {
            "election": null,
            "id": 80,
            "name": "Ottawa—Vanier"
          }
        ],
        "pollDivisionIds": [
          10140722
        ],
        "postalCode": "K1L6H6",
        "streetName": "LEVIS",
        "streetDirectionId": null,
        "streetTypeId": "AVE",
        "placeName": "VANIER",
        "streetNameDisplayText": "LEVIS AVE, VANIER"
      },
      {
        "electoralDistricts": [
          {
            "election": null,
            "id": 80,
            "name": "Ottawa—Vanier"
          }
        ],
        "pollDivisionIds": [
          10140722
        ],
        "postalCode": "K1L6H6",
        "streetName": "LEVIS",
        "streetDirectionId": null,
        "streetTypeId": "ST",
        "placeName": "VANIER",
        "streetNameDisplayText": "LEVIS ST, VANIER"
      }
    ]
  },
  {
    "postal": "K1L0S1",
    "result": []
  },
  {
    "postal": "K1L4E3",
    "result": []
  },
  {
    "postal": "K1L7K2",
    "result": [
      {
        "electoralDistricts": [
          {
            "election": null,
            "id": 80,
            "name": "Ottawa—Vanier"
          }
        ],
        "pollDivisionIds": [
          10140722
        ],
        "postalCode": "K1L7K2",
        "streetName": "OLMSTEAD",
        "streetDirectionId": null,
        "streetTypeId": "ST",
        "placeName": "VANIER",
        "streetNameDisplayText": "OLMSTEAD ST, VANIER"
      }
    ]
  },
  {
    "postal": "K1L7T8",
    "result": [
      {
        "electoralDistricts": [
          {
            "election": null,
            "id": 80,
            "name": "Ottawa—Vanier"
          }
        ],
        "pollDivisionIds": [
          10140723
        ],
        "postalCode": "K1L7T8",
        "streetName": "GARNEAU",
        "streetDirectionId": null,
        "streetTypeId": "ST",
        "placeName": "VANIER",
        "streetNameDisplayText": "GARNEAU ST, VANIER"
      }
    ]
  },
  {
    "postal": "K1L0J9",
    "result": []
  },
  {
    "postal": "K1L5J9",
    "result": [
      {
        "electoralDistricts": [
          {
            "election": null,
            "id": 80,
            "name": "Ottawa—Vanier"
          }
        ],
        "pollDivisionIds": [
          10140723
        ],
        "postalCode": "K1L5J9",
        "streetName": "MARQUETTE",
        "streetDirectionId": null,
        "streetTypeId": "AVE",
        "placeName": "VANIER",
        "streetNameDisplayText": "MARQUETTE AVE, VANIER"
      }
    ]
  },
  {
    "postal": "K1L5S7",
    "result": [
      {
        "electoralDistricts": [
          {
            "election": null,
            "id": 80,
            "name": "Ottawa—Vanier"
          }
        ],
        "pollDivisionIds": [
          10140719
        ],
        "postalCode": "K1L5S7",
        "streetName": "VACHON",
        "streetDirectionId": null,
        "streetTypeId": "AVE",
        "placeName": "VANIER",
        "streetNameDisplayText": "VACHON AVE, VANIER"
      }
    ]
  },
  {
    "postal": "K1L0G9",
    "result": []
  },
  {
    "postal": "K1L3J9",
    "result": []
  },
  {
    "postal": "K1L2Y0",
    "result": []
  },
  {
    "postal": "K1L8X5",
    "result": []
  },
  {
    "postal": "K1L2M7",
    "result": []
  },
  {
    "postal": "K1L9Z3",
    "result": []
  },
  {
    "postal": "K1L7W2",
    "result": [
      {
        "electoralDistricts": [
          {
            "election": null,
            "id": 80,
            "name": "Ottawa—Vanier"
          }
        ],
        "pollDivisionIds": [
          10140724
        ],
        "postalCode": "K1L7W2",
        "streetName": "MAYFIELD",
        "streetDirectionId": null,
        "streetTypeId": "AVE",
        "placeName": "VANIER",
        "streetNameDisplayText": "MAYFIELD AVE, VANIER"
      }
    ]
  },
  {
    "postal": "K1L3W0",
    "result": []
  },
  {
    "postal": "K1L3M1",
    "result": []
  },
  {
    "postal": "K1L6A5",
    "result": [
      {
        "electoralDistricts": [
          {
            "election": null,
            "id": 80,
            "name": "Ottawa—Vanier"
          }
        ],
        "pollDivisionIds": [
          10140722
        ],
        "postalCode": "K1L6A5",
        "streetName": "WAYLING",
        "streetDirectionId": null,
        "streetTypeId": "AVE",
        "placeName": "VANIER",
        "streetNameDisplayText": "WAYLING AVE, VANIER"
      }
    ]
  },
  {
    "postal": "K1L2M9",
    "result": []
  },
  {
    "postal": "K1L5C3",
    "result": [
      {
        "electoralDistricts": [
          {
            "election": null,
            "id": 80,
            "name": "Ottawa—Vanier"
          }
        ],
        "pollDivisionIds": [
          10140723
        ],
        "postalCode": "K1L5C3",
        "streetName": "BEDARD",
        "streetDirectionId": null,
        "streetTypeId": "AVE",
        "placeName": "VANIER",
        "streetNameDisplayText": "BEDARD AVE, VANIER"
      }
    ]
  },
  {
    "postal": "K1L0Y6",
    "result": []
  },
  {
    "postal": "K1L9H7",
    "result": []
  },
  {
    "postal": "K1L3L0",
    "result": []
  },
  {
    "postal": "K1L5N9",
    "result": [
      {
        "electoralDistricts": [
          {
            "election": null,
            "id": 80,
            "name": "Ottawa—Vanier"
          }
        ],
        "pollDivisionIds": [
          10144284
        ],
        "postalCode": "K1L5N9",
        "streetName": "MONTFORT",
        "streetDirectionId": null,
        "streetTypeId": "ST",
        "placeName": "VANIER",
        "streetNameDisplayText": "MONTFORT ST, VANIER"
      }
    ]
  },
  {
    "postal": "K1L5E3",
    "result": [
      {
        "electoralDistricts": [
          {
            "election": null,
            "id": 80,
            "name": "Ottawa—Vanier"
          }
        ],
        "pollDivisionIds": [
          10140723
        ],
        "postalCode": "K1L5E3",
        "streetName": "LAVERGNE",
        "streetDirectionId": null,
        "streetTypeId": "ST",
        "placeName": "VANIER",
        "streetNameDisplayText": "LAVERGNE ST, VANIER"
      }
    ]
  },
  {
    "postal": "K1L7M9",
    "result": [
      {
        "electoralDistricts": [
          {
            "election": null,
            "id": 80,
            "name": "Ottawa—Vanier"
          }
        ],
        "pollDivisionIds": [
          10144284
        ],
        "postalCode": "K1L7M9",
        "streetName": "HANNAH",
        "streetDirectionId": null,
        "streetTypeId": "ST",
        "placeName": "VANIER",
        "streetNameDisplayText": "HANNAH ST, VANIER"
      }
    ]
  },
  {
    "postal": "K1L8N2",
    "result": []
  },
  {
    "postal": "K1L9H3",
    "result": []
  },
  {
    "postal": "K1L2K8",
    "result": []
  },
  {
    "postal": "K1L9L0",
    "result": []
  },
  {
    "postal": "K1L6L9",
    "result": []
  },
  {
    "postal": "K1L6A8",
    "result": [
      {
        "electoralDistricts": [
          {
            "election": null,
            "id": 80,
            "name": "Ottawa—Vanier"
          }
        ],
        "pollDivisionIds": [
          10140722,
          10140727
        ],
        "postalCode": "K1L6A8",
        "streetName": "MONTREAL",
        "streetDirectionId": null,
        "streetTypeId": "RD",
        "placeName": "VANIER",
        "streetNameDisplayText": "MONTREAL RD, VANIER"
      }
    ]
  },
  {
    "postal": "K1L2K6",
    "result": []
  },
  {
    "postal": "K1L2M0",
    "result": []
  },
  {
    "postal": "K1L5X7",
    "result": [
      {
        "electoralDistricts": [
          {
            "election": null,
            "id": 80,
            "name": "Ottawa—Vanier"
          }
        ],
        "pollDivisionIds": [
          10144284
        ],
        "postalCode": "K1L5X7",
        "streetName": "CARILLON",
        "streetDirectionId": null,
        "streetTypeId": "ST",
        "placeName": "VANIER",
        "streetNameDisplayText": "CARILLON ST, VANIER"
      }
    ]
  },
  {
    "postal": "K1L0M7",
    "result": []
  },
  {
    "postal": "K1L7A6",
    "result": [
      {
        "electoralDistricts": [
          {
            "election": null,
            "id": 80,
            "name": "Ottawa—Vanier"
          }
        ],
        "pollDivisionIds": [
          10140722
        ],
        "postalCode": "K1L7A6",
        "streetName": "LACASSE",
        "streetDirectionId": null,
        "streetTypeId": "AVE",
        "placeName": "VANIER",
        "streetNameDisplayText": "LACASSE AVE, VANIER"
      }
    ]
  },
  {
    "postal": "K1L3C5",
    "result": []
  },
  {
    "postal": "K1L2P2",
    "result": []
  },
  {
    "postal": "K1L9N4",
    "result": []
  },
  {
    "postal": "K1L3M9",
    "result": []
  },
  {
    "postal": "K1L8K6",
    "result": [
      {
        "electoralDistricts": [
          {
            "election": null,
            "id": 80,
            "name": "Ottawa—Vanier"
          }
        ],
        "pollDivisionIds": [
          10140722
        ],
        "postalCode": "K1L8K6",
        "streetName": "GARDNER",
        "streetDirectionId": null,
        "streetTypeId": "ST",
        "placeName": "VANIER",
        "streetNameDisplayText": "GARDNER ST, VANIER"
      }
    ]
  },
  {
    "postal": "K1L1L2",
    "result": []
  },
  {
    "postal": "K1L2Z9",
    "result": []
  },
  {
    "postal": "K1L2S2",
    "result": []
  },
  {
    "postal": "K1L2W2",
    "result": []
  },
  {
    "postal": "K1L2C3",
    "result": []
  },
  {
    "postal": "K1L6L7",
    "result": [
      {
        "electoralDistricts": [
          {
            "election": null,
            "id": 80,
            "name": "Ottawa—Vanier"
          }
        ],
        "pollDivisionIds": [
          10140722
        ],
        "postalCode": "K1L6L7",
        "streetName": "BLAKE",
        "streetDirectionId": null,
        "streetTypeId": "BLVD",
        "placeName": "VANIER",
        "streetNameDisplayText": "BLAKE BLVD, VANIER"
      },
      {
        "electoralDistricts": [
          {
            "election": null,
            "id": 80,
            "name": "Ottawa—Vanier"
          }
        ],
        "pollDivisionIds": [
          10140722
        ],
        "postalCode": "K1L6L7",
        "streetName": "BLAKE",
        "streetDirectionId": null,
        "streetTypeId": "RD",
        "placeName": "VANIER",
        "streetNameDisplayText": "BLAKE RD, VANIER"
      }
    ]
  },
  {
    "postal": "K1L3K0",
    "result": []
  },
  {
    "postal": "K1L3C1",
    "result": []
  },
  {
    "postal": "K1L6M9",
    "result": [
      {
        "electoralDistricts": [
          {
            "election": null,
            "id": 80,
            "name": "Ottawa—Vanier"
          }
        ],
        "pollDivisionIds": [
          10140724
        ],
        "postalCode": "K1L6M9",
        "streetName": "SELKIRK",
        "streetDirectionId": null,
        "streetTypeId": "ST",
        "placeName": "VANIER",
        "streetNameDisplayText": "SELKIRK ST, VANIER"
      }
    ]
  },
  {
    "postal": "K1L4N9",
    "result": []
  },
  {
    "postal": "K1L3Y7",
    "result": []
  },
  {
    "postal": "K1L2A9",
    "result": []
  },
  {
    "postal": "K1L6H5",
    "result": [
      {
        "electoralDistricts": [
          {
            "election": null,
            "id": 80,
            "name": "Ottawa—Vanier"
          }
        ],
        "pollDivisionIds": [
          10140722
        ],
        "postalCode": "K1L6H5",
        "streetName": "LEVIS",
        "streetDirectionId": null,
        "streetTypeId": "AVE",
        "placeName": "VANIER",
        "streetNameDisplayText": "LEVIS AVE, VANIER"
      },
      {
        "electoralDistricts": [
          {
            "election": null,
            "id": 80,
            "name": "Ottawa—Vanier"
          }
        ],
        "pollDivisionIds": [
          10140722
        ],
        "postalCode": "K1L6H5",
        "streetName": "LEVIS",
        "streetDirectionId": null,
        "streetTypeId": "ST",
        "placeName": "VANIER",
        "streetNameDisplayText": "LEVIS ST, VANIER"
      }
    ]
  },
  {
    "postal": "K1L8B4",
    "result": [
      {
        "electoralDistricts": [
          {
            "election": null,
            "id": 80,
            "name": "Ottawa—Vanier"
          }
        ],
        "pollDivisionIds": [
          10140719
        ],
        "postalCode": "K1L8B4",
        "streetName": "BEECHWOOD",
        "streetDirectionId": null,
        "streetTypeId": "AVE",
        "placeName": "VANIER",
        "streetNameDisplayText": "BEECHWOOD AVE, VANIER"
      }
    ]
  },
  {
    "postal": "K1L4Z2",
    "result": []
  },
  {
    "postal": "K1L9J0",
    "result": []
  },
  {
    "postal": "K1L7V7",
    "result": [
      {
        "electoralDistricts": [
          {
            "election": null,
            "id": 80,
            "name": "Ottawa—Vanier"
          }
        ],
        "pollDivisionIds": [
          10140722
        ],
        "postalCode": "K1L7V7",
        "streetName": "GARDNER",
        "streetDirectionId": null,
        "streetTypeId": "ST",
        "placeName": "VANIER",
        "streetNameDisplayText": "GARDNER ST, VANIER"
      }
    ]
  },
  {
    "postal": "K1L5T5",
    "result": [
      {
        "electoralDistricts": [
          {
            "election": null,
            "id": 80,
            "name": "Ottawa—Vanier"
          }
        ],
        "pollDivisionIds": [
          10140719
        ],
        "postalCode": "K1L5T5",
        "streetName": "ST AMBROISE",
        "streetDirectionId": null,
        "streetTypeId": "AVE",
        "placeName": "VANIER",
        "streetNameDisplayText": "ST AMBROISE AVE, VANIER"
      }
    ]
  },
  {
    "postal": "K1L4W5",
    "result": []
  },
  {
    "postal": "K1L1T8",
    "result": []
  },
  {
    "postal": "K1L9G6",
    "result": []
  },
  {
    "postal": "K1L1H3",
    "result": []
  },
  {
    "postal": "K1L5R5",
    "result": [
      {
        "electoralDistricts": [
          {
            "election": null,
            "id": 80,
            "name": "Ottawa—Vanier"
          }
        ],
        "pollDivisionIds": [
          10144284
        ],
        "postalCode": "K1L5R5",
        "streetName": "MARIER",
        "streetDirectionId": null,
        "streetTypeId": "AVE",
        "placeName": "VANIER",
        "streetNameDisplayText": "MARIER AVE, VANIER"
      }
    ]
  },
  {
    "postal": "K1L8A4",
    "result": []
  },
  {
    "postal": "K1L3T6",
    "result": []
  },
  {
    "postal": "K1L9W8",
    "result": []
  },
  {
    "postal": "K1L0N3",
    "result": []
  },
  {
    "postal": "K1L7V0",
    "result": []
  },
  {
    "postal": "K1L8T5",
    "result": []
  },
  {
    "postal": "K1L5N3",
    "result": [
      {
        "electoralDistricts": [
          {
            "election": null,
            "id": 80,
            "name": "Ottawa—Vanier"
          }
        ],
        "pollDivisionIds": [
          10140727
        ],
        "postalCode": "K1L5N3",
        "streetName": "MONTFORT",
        "streetDirectionId": null,
        "streetTypeId": "ST",
        "placeName": "VANIER",
        "streetNameDisplayText": "MONTFORT ST, VANIER"
      }
    ]
  },
  {
    "postal": "K1L5G9",
    "result": [
      {
        "electoralDistricts": [
          {
            "election": null,
            "id": 80,
            "name": "Ottawa—Vanier"
          }
        ],
        "pollDivisionIds": [
          10140723
        ],
        "postalCode": "K1L5G9",
        "streetName": "JOLLIET",
        "streetDirectionId": null,
        "streetTypeId": "AVE",
        "placeName": "VANIER",
        "streetNameDisplayText": "JOLLIET AVE, VANIER"
      }
    ]
  },
  {
    "postal": "K1L3X8",
    "result": []
  },
  {
    "postal": "K1L9R3",
    "result": []
  },
  {
    "postal": "K1L2S1",
    "result": []
  },
  {
    "postal": "K1L9J7",
    "result": []
  },
  {
    "postal": "K1L2J3",
    "result": []
  },
  {
    "postal": "K1L3B6",
    "result": []
  },
  {
    "postal": "K1L8J0",
    "result": []
  },
  {
    "postal": "K1L7R4",
    "result": [
      {
        "electoralDistricts": [
          {
            "election": null,
            "id": 80,
            "name": "Ottawa—Vanier"
          }
        ],
        "pollDivisionIds": [
          10144284
        ],
        "postalCode": "K1L7R4",
        "streetName": "BARIBEAU",
        "streetDirectionId": null,
        "streetTypeId": "ST",
        "placeName": "VANIER",
        "streetNameDisplayText": "BARIBEAU ST, VANIER"
      }
    ]
  },
  {
    "postal": "K1L8K8",
    "result": [
      {
        "electoralDistricts": [
          {
            "election": null,
            "id": 80,
            "name": "Ottawa—Vanier"
          }
        ],
        "pollDivisionIds": [
          10140767
        ],
        "postalCode": "K1L8K8",
        "streetName": "LAFONTAINE",
        "streetDirectionId": null,
        "streetTypeId": "AVE",
        "placeName": "VANIER",
        "streetNameDisplayText": "LAFONTAINE AVE, VANIER"
      }
    ]
  },
  {
    "postal": "K1L4P3",
    "result": []
  },
  {
    "postal": "K1L0A2",
    "result": [
      {
        "electoralDistricts": [
          {
            "election": null,
            "id": 80,
            "name": "Ottawa—Vanier"
          }
        ],
        "pollDivisionIds": [
          10144284
        ],
        "postalCode": "K1L0A2",
        "streetName": "MEILLEUR",
        "streetDirectionId": null,
        "streetTypeId": "PVT",
        "placeName": "VANIER",
        "streetNameDisplayText": "MEILLEUR PVT, VANIER"
      }
    ]
  },
  {
    "postal": "K1L2G2",
    "result": []
  },
  {
    "postal": "K1L5Y9",
    "result": [
      {
        "electoralDistricts": [
          {
            "election": null,
            "id": 80,
            "name": "Ottawa—Vanier"
          }
        ],
        "pollDivisionIds": [
          10144284
        ],
        "postalCode": "K1L5Y9",
        "streetName": "DESCHAMPS",
        "streetDirectionId": null,
        "streetTypeId": "AVE",
        "placeName": "VANIER",
        "streetNameDisplayText": "DESCHAMPS AVE, VANIER"
      }
    ]
  },
  {
    "postal": "K1L7X0",
    "result": []
  },
  {
    "postal": "K1L7W3",
    "result": [
      {
        "electoralDistricts": [
          {
            "election": null,
            "id": 80,
            "name": "Ottawa—Vanier"
          }
        ],
        "pollDivisionIds": [
          10140724
        ],
        "postalCode": "K1L7W3",
        "streetName": "MARGUERITE",
        "streetDirectionId": null,
        "streetTypeId": "AVE",
        "placeName": "VANIER",
        "streetNameDisplayText": "MARGUERITE AVE, VANIER"
      }
    ]
  },
  {
    "postal": "K1L7X5",
    "result": [
      {
        "electoralDistricts": [
          {
            "election": null,
            "id": 80,
            "name": "Ottawa—Vanier"
          }
        ],
        "pollDivisionIds": [
          10140719
        ],
        "postalCode": "K1L7X5",
        "streetName": "ALICE",
        "streetDirectionId": null,
        "streetTypeId": "ST",
        "placeName": "VANIER",
        "streetNameDisplayText": "ALICE ST, VANIER"
      }
    ]
  },
  {
    "postal": "K1L5K6",
    "result": [
      {
        "electoralDistricts": [
          {
            "election": null,
            "id": 80,
            "name": "Ottawa—Vanier"
          }
        ],
        "pollDivisionIds": [
          10140723
        ],
        "postalCode": "K1L5K6",
        "streetName": "JOFFRE-BÉLANGER",
        "streetDirectionId": null,
        "streetTypeId": "WAY",
        "placeName": "VANIER",
        "streetNameDisplayText": "JOFFRE-BÉLANGER WAY, VANIER"
      }
    ]
  },
  {
    "postal": "K1L5B6",
    "result": [
      {
        "electoralDistricts": [
          {
            "election": null,
            "id": 80,
            "name": "Ottawa—Vanier"
          }
        ],
        "pollDivisionIds": [
          10140714
        ],
        "postalCode": "K1L5B6",
        "streetName": "BLENHEIM",
        "streetDirectionId": null,
        "streetTypeId": "DR",
        "placeName": "ROCKCLIFFE",
        "streetNameDisplayText": "BLENHEIM DR, ROCKCLIFFE"
      }
    ]
  },
  {
    "postal": "K1L7Z0",
    "result": []
  },
  {
    "postal": "K1L9H6",
    "result": []
  },
  {
    "postal": "K1L1B4",
    "result": [
      {
        "electoralDistricts": [
          {
            "election": null,
            "id": 80,
            "name": "Ottawa—Vanier"
          }
        ],
        "pollDivisionIds": [
          10140722
        ],
        "postalCode": "K1L1B4",
        "streetName": "MONTREAL",
        "streetDirectionId": null,
        "streetTypeId": "RD",
        "placeName": "VANIER",
        "streetNameDisplayText": "MONTREAL RD, VANIER"
      }
    ]
  },
  {
    "postal": "K1L1A0",
    "result": []
  },
  {
    "postal": "K1L9A0",
    "result": []
  },
  {
    "postal": "K1L1M6",
    "result": []
  },
  {
    "postal": "K1L5H0",
    "result": []
  },
  {
    "postal": "K1L1K6",
    "result": []
  },
  {
    "postal": "K1L5E1",
    "result": [
      {
        "electoralDistricts": [
          {
            "election": null,
            "id": 80,
            "name": "Ottawa—Vanier"
          }
        ],
        "pollDivisionIds": [
          10140723
        ],
        "postalCode": "K1L5E1",
        "streetName": "BOUDREAU",
        "streetDirectionId": null,
        "streetTypeId": "ST",
        "placeName": "VANIER",
        "streetNameDisplayText": "BOUDREAU ST, VANIER"
      }
    ]
  },
  {
    "postal": "K1L3T9",
    "result": []
  },
  {
    "postal": "K1L2M6",
    "result": []
  },
  {
    "postal": "K1L0G5",
    "result": []
  },
  {
    "postal": "K1L0Y2",
    "result": []
  },
  {
    "postal": "K1L2Y7",
    "result": []
  },
  {
    "postal": "K1L2J7",
    "result": []
  },
  {
    "postal": "K1L4K7",
    "result": []
  },
  {
    "postal": "K1L7P9",
    "result": [
      {
        "electoralDistricts": [
          {
            "election": null,
            "id": 80,
            "name": "Ottawa—Vanier"
          }
        ],
        "pollDivisionIds": [
          10140719
        ],
        "postalCode": "K1L7P9",
        "streetName": "STE MONIQUE",
        "streetDirectionId": null,
        "streetTypeId": "ST",
        "placeName": "VANIER",
        "streetNameDisplayText": "STE MONIQUE ST, VANIER"
      }
    ]
  },
  {
    "postal": "K1L8X0",
    "result": []
  },
  {
    "postal": "K1L3X1",
    "result": []
  },
  {
    "postal": "K1L1R5",
    "result": []
  },
  {
    "postal": "K1L6X6",
    "result": [
      {
        "electoralDistricts": [
          {
            "election": null,
            "id": 80,
            "name": "Ottawa—Vanier"
          }
        ],
        "pollDivisionIds": [
          10140726
        ],
        "postalCode": "K1L6X6",
        "streetName": "LAFONTAINE",
        "streetDirectionId": null,
        "streetTypeId": "AVE",
        "placeName": "VANIER",
        "streetNameDisplayText": "LAFONTAINE AVE, VANIER"
      }
    ]
  },
  {
    "postal": "K1L0Y1",
    "result": []
  },
  {
    "postal": "K1L8G1",
    "result": []
  },
  {
    "postal": "K1L3J3",
    "result": []
  },
  {
    "postal": "K1L8C2",
    "result": [
      {
        "electoralDistricts": [
          {
            "election": null,
            "id": 80,
            "name": "Ottawa—Vanier"
          }
        ],
        "pollDivisionIds": [
          10140724
        ],
        "postalCode": "K1L8C2",
        "streetName": "NORTH RIVER",
        "streetDirectionId": null,
        "streetTypeId": "RD",
        "placeName": "VANIER",
        "streetNameDisplayText": "NORTH RIVER RD, VANIER"
      }
    ]
  },
  {
    "postal": "K1L4X9",
    "result": []
  },
  {
    "postal": "K1L6G9",
    "result": [
      {
        "electoralDistricts": [
          {
            "election": null,
            "id": 80,
            "name": "Ottawa—Vanier"
          }
        ],
        "pollDivisionIds": [
          10140722
        ],
        "postalCode": "K1L6G9",
        "streetName": "LEVIS",
        "streetDirectionId": null,
        "streetTypeId": "AVE",
        "placeName": "VANIER",
        "streetNameDisplayText": "LEVIS AVE, VANIER"
      }
    ]
  },
  {
    "postal": "K1L4M3",
    "result": []
  },
  {
    "postal": "K1L9P7",
    "result": []
  },
  {
    "postal": "K1L4E5",
    "result": []
  },
  {
    "postal": "K1L5K9",
    "result": [
      {
        "electoralDistricts": [
          {
            "election": null,
            "id": 80,
            "name": "Ottawa—Vanier"
          }
        ],
        "pollDivisionIds": [
          10140723
        ],
        "postalCode": "K1L5K9",
        "streetName": "JOFFRE-BÉLANGER",
        "streetDirectionId": null,
        "streetTypeId": "WAY",
        "placeName": "VANIER",
        "streetNameDisplayText": "JOFFRE-BÉLANGER WAY, VANIER"
      }
    ]
  },
  {
    "postal": "K1L2V2",
    "result": []
  },
  {
    "postal": "K1L2N9",
    "result": []
  },
  {
    "postal": "K1L6L4",
    "result": [
      {
        "electoralDistricts": [
          {
            "election": null,
            "id": 80,
            "name": "Ottawa—Vanier"
          }
        ],
        "pollDivisionIds": [
          10140722
        ],
        "postalCode": "K1L6L4",
        "streetName": "BLAKE",
        "streetDirectionId": null,
        "streetTypeId": "BLVD",
        "placeName": "VANIER",
        "streetNameDisplayText": "BLAKE BLVD, VANIER"
      }
    ]
  },
  {
    "postal": "K1L8E0",
    "result": []
  },
  {
    "postal": "K1L0N0",
    "result": []
  },
  {
    "postal": "K1L6R0",
    "result": []
  },
  {
    "postal": "K1L9C1",
    "result": []
  },
  {
    "postal": "K1L4H4",
    "result": []
  },
  {
    "postal": "K1L5W3",
    "result": [
      {
        "electoralDistricts": [
          {
            "election": null,
            "id": 80,
            "name": "Ottawa—Vanier"
          }
        ],
        "pollDivisionIds": [
          10140719
        ],
        "postalCode": "K1L5W3",
        "streetName": "CHARLEVOIX",
        "streetDirectionId": null,
        "streetTypeId": "ST",
        "placeName": "VANIER",
        "streetNameDisplayText": "CHARLEVOIX ST, VANIER"
      }
    ]
  },
  {
    "postal": "K1L9N9",
    "result": []
  },
  {
    "postal": "K1L1V7",
    "result": []
  },
  {
    "postal": "K1L8J1",
    "result": [
      {
        "electoralDistricts": [
          {
            "election": null,
            "id": 80,
            "name": "Ottawa—Vanier"
          }
        ],
        "pollDivisionIds": [
          10140714
        ],
        "postalCode": "K1L8J1",
        "streetName": "POND",
        "streetDirectionId": null,
        "streetTypeId": "ST",
        "placeName": "ROCKCLIFFE",
        "streetNameDisplayText": "POND ST, ROCKCLIFFE"
      }
    ]
  },
  {
    "postal": "K1L5V9",
    "result": [
      {
        "electoralDistricts": [
          {
            "election": null,
            "id": 80,
            "name": "Ottawa—Vanier"
          }
        ],
        "pollDivisionIds": [
          10140719
        ],
        "postalCode": "K1L5V9",
        "streetName": "LOYER",
        "streetDirectionId": null,
        "streetTypeId": "ST",
        "placeName": "VANIER",
        "streetNameDisplayText": "LOYER ST, VANIER"
      }
    ]
  },
  {
    "postal": "K1L2S8",
    "result": []
  },
  {
    "postal": "K1L6P0",
    "result": []
  },
  {
    "postal": "K1L4J8",
    "result": []
  },
  {
    "postal": "K1L0N1",
    "result": []
  },
  {
    "postal": "K1L1Y7",
    "result": []
  },
  {
    "postal": "K1L7W5",
    "result": [
      {
        "electoralDistricts": [
          {
            "election": null,
            "id": 80,
            "name": "Ottawa—Vanier"
          }
        ],
        "pollDivisionIds": [
          10140724
        ],
        "postalCode": "K1L7W5",
        "streetName": "MARGUERITE",
        "streetDirectionId": null,
        "streetTypeId": "AVE",
        "placeName": "VANIER",
        "streetNameDisplayText": "MARGUERITE AVE, VANIER"
      }
    ]
  },
  {
    "postal": "K1L3Z1",
    "result": []
  },
  {
    "postal": "K1L7M6",
    "result": [
      {
        "electoralDistricts": [
          {
            "election": null,
            "id": 80,
            "name": "Ottawa—Vanier"
          }
        ],
        "pollDivisionIds": [
          10144284
        ],
        "postalCode": "K1L7M6",
        "streetName": "HANNAH",
        "streetDirectionId": null,
        "streetTypeId": "ST",
        "placeName": "VANIER",
        "streetNameDisplayText": "HANNAH ST, VANIER"
      }
    ]
  },
  {
    "postal": "K1L1W7",
    "result": []
  },
  {
    "postal": "K1L1X1",
    "result": []
  },
  {
    "postal": "K1L0C1",
    "result": []
  },
  {
    "postal": "K1L4N3",
    "result": []
  },
  {
    "postal": "K1L4S8",
    "result": []
  },
  {
    "postal": "K1L1H6",
    "result": []
  },
  {
    "postal": "K1L2Z4",
    "result": []
  },
  {
    "postal": "K1L7K3",
    "result": [
      {
        "electoralDistricts": [
          {
            "election": null,
            "id": 80,
            "name": "Ottawa—Vanier"
          }
        ],
        "pollDivisionIds": [
          10140722
        ],
        "postalCode": "K1L7K3",
        "streetName": "OLMSTEAD",
        "streetDirectionId": null,
        "streetTypeId": "ST",
        "placeName": "VANIER",
        "streetNameDisplayText": "OLMSTEAD ST, VANIER"
      }
    ]
  },
  {
    "postal": "K1L8A2",
    "result": [
      {
        "electoralDistricts": [
          {
            "election": null,
            "id": 80,
            "name": "Ottawa—Vanier"
          }
        ],
        "pollDivisionIds": [
          10140719
        ],
        "postalCode": "K1L8A2",
        "streetName": "BARRETTE",
        "streetDirectionId": null,
        "streetTypeId": "ST",
        "placeName": "OTTAWA",
        "streetNameDisplayText": "BARRETTE ST, OTTAWA"
      },
      {
        "electoralDistricts": [
          {
            "election": null,
            "id": 80,
            "name": "Ottawa—Vanier"
          }
        ],
        "pollDivisionIds": [
          10140719
        ],
        "postalCode": "K1L8A2",
        "streetName": "BARRETTE",
        "streetDirectionId": null,
        "streetTypeId": "ST",
        "placeName": "VANIER",
        "streetNameDisplayText": "BARRETTE ST, VANIER"
      }
    ]
  },
  {
    "postal": "K1L6J1",
    "result": [
      {
        "electoralDistricts": [
          {
            "election": null,
            "id": 80,
            "name": "Ottawa—Vanier"
          }
        ],
        "pollDivisionIds": [
          10140722
        ],
        "postalCode": "K1L6J1",
        "streetName": "LEVIS",
        "streetDirectionId": null,
        "streetTypeId": "AVE",
        "placeName": "VANIER",
        "streetNameDisplayText": "LEVIS AVE, VANIER"
      }
    ]
  },
  {
    "postal": "K1L5Z6",
    "result": [
      {
        "electoralDistricts": [
          {
            "election": null,
            "id": 80,
            "name": "Ottawa—Vanier"
          }
        ],
        "pollDivisionIds": [
          10144284
        ],
        "postalCode": "K1L5Z6",
        "streetName": "DESCHAMPS",
        "streetDirectionId": null,
        "streetTypeId": "AVE",
        "placeName": "VANIER",
        "streetNameDisplayText": "DESCHAMPS AVE, VANIER"
      },
      {
        "electoralDistricts": [
          {
            "election": null,
            "id": 80,
            "name": "Ottawa—Vanier"
          }
        ],
        "pollDivisionIds": [
          10144284
        ],
        "postalCode": "K1L5Z6",
        "streetName": "DESCHAMPS",
        "streetDirectionId": null,
        "streetTypeId": "ST",
        "placeName": "VANIER",
        "streetNameDisplayText": "DESCHAMPS ST, VANIER"
      }
    ]
  },
  {
    "postal": "K1L3Z0",
    "result": []
  },
  {
    "postal": "K1L8M0",
    "result": []
  },
  {
    "postal": "K1L1Z6",
    "result": []
  },
  {
    "postal": "K1L8K7",
    "result": [
      {
        "electoralDistricts": [
          {
            "election": null,
            "id": 80,
            "name": "Ottawa—Vanier"
          }
        ],
        "pollDivisionIds": [
          10140727
        ],
        "postalCode": "K1L8K7",
        "streetName": "MONTREAL",
        "streetDirectionId": null,
        "streetTypeId": "RD",
        "placeName": "VANIER",
        "streetNameDisplayText": "MONTREAL RD, VANIER"
      }
    ]
  },
  {
    "postal": "K1L1N3",
    "result": []
  },
  {
    "postal": "K1L9S2",
    "result": []
  },
  {
    "postal": "K1L2K1",
    "result": []
  },
  {
    "postal": "K1L1E8",
    "result": []
  },
  {
    "postal": "K1L9B8",
    "result": []
  },
  {
    "postal": "K1L7X4",
    "result": [
      {
        "electoralDistricts": [
          {
            "election": null,
            "id": 80,
            "name": "Ottawa—Vanier"
          }
        ],
        "pollDivisionIds": [
          10140719
        ],
        "postalCode": "K1L7X4",
        "streetName": "ALICE",
        "streetDirectionId": null,
        "streetTypeId": "ST",
        "placeName": "VANIER",
        "streetNameDisplayText": "ALICE ST, VANIER"
      }
    ]
  },
  {
    "postal": "K1L1Z4",
    "result": []
  },
  {
    "postal": "K1L2C7",
    "result": []
  },
  {
    "postal": "K1L2E7",
    "result": []
  },
  {
    "postal": "K1L3R1",
    "result": []
  },
  {
    "postal": "K1L4K4",
    "result": []
  },
  {
    "postal": "K1L9G3",
    "result": []
  },
  {
    "postal": "K1L6C9",
    "result": [
      {
        "electoralDistricts": [
          {
            "election": null,
            "id": 80,
            "name": "Ottawa—Vanier"
          }
        ],
        "pollDivisionIds": [
          10140722
        ],
        "postalCode": "K1L6C9",
        "streetName": "MONTREAL",
        "streetDirectionId": null,
        "streetTypeId": "RD",
        "placeName": "VANIER",
        "streetNameDisplayText": "MONTREAL RD, VANIER"
      }
    ]
  },
  {
    "postal": "K1L9H5",
    "result": []
  },
  {
    "postal": "K1L1P5",
    "result": []
  },
  {
    "postal": "K1L2J5",
    "result": []
  },
  {
    "postal": "K1L4W6",
    "result": []
  },
  {
    "postal": "K1L8M8",
    "result": []
  },
  {
    "postal": "K1L6C5",
    "result": []
  },
  {
    "postal": "K1L9H0",
    "result": []
  },
  {
    "postal": "K1L1X8",
    "result": []
  },
  {
    "postal": "K1L3H4",
    "result": []
  },
  {
    "postal": "K1L4E7",
    "result": []
  },
  {
    "postal": "K1L8A0",
    "result": []
  },
  {
    "postal": "K1L1Z7",
    "result": []
  },
  {
    "postal": "K1L7Z3",
    "result": [
      {
        "electoralDistricts": [
          {
            "election": null,
            "id": 80,
            "name": "Ottawa—Vanier"
          }
        ],
        "pollDivisionIds": [
          10140719
        ],
        "postalCode": "K1L7Z3",
        "streetName": "LAVAL",
        "streetDirectionId": null,
        "streetTypeId": "ST",
        "placeName": "OTTAWA",
        "streetNameDisplayText": "LAVAL ST, OTTAWA"
      },
      {
        "electoralDistricts": [
          {
            "election": null,
            "id": 80,
            "name": "Ottawa—Vanier"
          }
        ],
        "pollDivisionIds": [
          10140719
        ],
        "postalCode": "K1L7Z3",
        "streetName": "LAVAL",
        "streetDirectionId": null,
        "streetTypeId": "ST",
        "placeName": "VANIER",
        "streetNameDisplayText": "LAVAL ST, VANIER"
      }
    ]
  },
  {
    "postal": "K1L0L7",
    "result": []
  },
  {
    "postal": "K1L2C6",
    "result": []
  },
  {
    "postal": "K1L6M3",
    "result": [
      {
        "electoralDistricts": [
          {
            "election": null,
            "id": 80,
            "name": "Ottawa—Vanier"
          }
        ],
        "pollDivisionIds": [
          10140722
        ],
        "postalCode": "K1L6M3",
        "streetName": "JEANNE-MANCE",
        "streetDirectionId": null,
        "streetTypeId": "ST",
        "placeName": "VANIER",
        "streetNameDisplayText": "JEANNE-MANCE ST, VANIER"
      }
    ]
  },
  {
    "postal": "K1L2J1",
    "result": []
  },
  {
    "postal": "K1L3E3",
    "result": []
  },
  {
    "postal": "K1L6Z9",
    "result": [
      {
        "electoralDistricts": [
          {
            "election": null,
            "id": 80,
            "name": "Ottawa—Vanier"
          }
        ],
        "pollDivisionIds": [
          10140722
        ],
        "postalCode": "K1L6Z9",
        "streetName": "MONA",
        "streetDirectionId": null,
        "streetTypeId": "AVE",
        "placeName": "VANIER",
        "streetNameDisplayText": "MONA AVE, VANIER"
      }
    ]
  },
  {
    "postal": "K1L3M3",
    "result": []
  },
  {
    "postal": "K1L9B1",
    "result": []
  },
  {
    "postal": "K1L9J5",
    "result": []
  },
  {
    "postal": "K1L4V8",
    "result": []
  },
  {
    "postal": "K1L6W2",
    "result": [
      {
        "electoralDistricts": [
          {
            "election": null,
            "id": 80,
            "name": "Ottawa—Vanier"
          }
        ],
        "pollDivisionIds": [
          10140726
        ],
        "postalCode": "K1L6W2",
        "streetName": "RICHARD",
        "streetDirectionId": null,
        "streetTypeId": "CIR",
        "placeName": "VANIER",
        "streetNameDisplayText": "RICHARD CIR, VANIER"
      }
    ]
  },
  {
    "postal": "K1L0V5",
    "result": []
  },
  {
    "postal": "K1L0Z8",
    "result": []
  },
  {
    "postal": "K1L5G2",
    "result": [
      {
        "electoralDistricts": [
          {
            "election": null,
            "id": 80,
            "name": "Ottawa—Vanier"
          }
        ],
        "pollDivisionIds": [
          10140724
        ],
        "postalCode": "K1L5G2",
        "streetName": "MCARTHUR",
        "streetDirectionId": null,
        "streetTypeId": "AVE",
        "placeName": "VANIER",
        "streetNameDisplayText": "MCARTHUR AVE, VANIER"
      }
    ]
  },
  {
    "postal": "K1L4N4",
    "result": []
  },
  {
    "postal": "K1L8G7",
    "result": [
      {
        "electoralDistricts": [
          {
            "election": null,
            "id": 80,
            "name": "Ottawa—Vanier"
          }
        ],
        "pollDivisionIds": [
          10140727
        ],
        "postalCode": "K1L8G7",
        "streetName": "MONTFORT",
        "streetDirectionId": null,
        "streetTypeId": "ST",
        "placeName": "VANIER",
        "streetNameDisplayText": "MONTFORT ST, VANIER"
      }
    ]
  },
  {
    "postal": "K1L8W1",
    "result": []
  },
  {
    "postal": "K1L1S6",
    "result": []
  },
  {
    "postal": "K1L4E0",
    "result": []
  },
  {
    "postal": "K1L4L9",
    "result": []
  },
  {
    "postal": "K1L5Z9",
    "result": [
      {
        "electoralDistricts": [
          {
            "election": null,
            "id": 80,
            "name": "Ottawa—Vanier"
          }
        ],
        "pollDivisionIds": [
          10140722
        ],
        "postalCode": "K1L5Z9",
        "streetName": "COUPAL",
        "streetDirectionId": null,
        "streetTypeId": "ST",
        "placeName": "VANIER",
        "streetNameDisplayText": "COUPAL ST, VANIER"
      }
    ]
  },
  {
    "postal": "K1L5V3",
    "result": [
      {
        "electoralDistricts": [
          {
            "election": null,
            "id": 80,
            "name": "Ottawa—Vanier"
          }
        ],
        "pollDivisionIds": [
          10140719
        ],
        "postalCode": "K1L5V3",
        "streetName": "ST CHARLES",
        "streetDirectionId": null,
        "streetTypeId": "ST",
        "placeName": "VANIER",
        "streetNameDisplayText": "ST CHARLES ST, VANIER"
      }
    ]
  },
  {
    "postal": "K1L4V2",
    "result": []
  },
  {
    "postal": "K1L7C0",
    "result": []
  },
  {
    "postal": "K1L6L0",
    "result": []
  },
  {
    "postal": "K1L1S9",
    "result": []
  },
  {
    "postal": "K1L7R6",
    "result": [
      {
        "electoralDistricts": [
          {
            "election": null,
            "id": 80,
            "name": "Ottawa—Vanier"
          }
        ],
        "pollDivisionIds": [
          10144284
        ],
        "postalCode": "K1L7R6",
        "streetName": "BARIBEAU",
        "streetDirectionId": null,
        "streetTypeId": "ST",
        "placeName": "VANIER",
        "streetNameDisplayText": "BARIBEAU ST, VANIER"
      }
    ]
  },
  {
    "postal": "K1L7J0",
    "result": []
  },
  {
    "postal": "K1L5M0",
    "result": []
  },
  {
    "postal": "K1L2E5",
    "result": []
  },
  {
    "postal": "K1L7C7",
    "result": [
      {
        "electoralDistricts": [
          {
            "election": null,
            "id": 80,
            "name": "Ottawa—Vanier"
          }
        ],
        "pollDivisionIds": [
          10140722
        ],
        "postalCode": "K1L7C7",
        "streetName": "ALTHA",
        "streetDirectionId": null,
        "streetTypeId": "AVE",
        "placeName": "VANIER",
        "streetNameDisplayText": "ALTHA AVE, VANIER"
      }
    ]
  },
  {
    "postal": "K1L5C0",
    "result": []
  },
  {
    "postal": "K1L8V9",
    "result": []
  },
  {
    "postal": "K1L7E0",
    "result": []
  },
  {
    "postal": "K1L6R4",
    "result": [
      {
        "electoralDistricts": [
          {
            "election": null,
            "id": 80,
            "name": "Ottawa—Vanier"
          }
        ],
        "pollDivisionIds": [
          10140726
        ],
        "postalCode": "K1L6R4",
        "streetName": "MILLCRAFT",
        "streetDirectionId": null,
        "streetTypeId": "CRES",
        "placeName": "VANIER",
        "streetNameDisplayText": "MILLCRAFT CRES, VANIER"
      }
    ]
  },
  {
    "postal": "K1L3Z7",
    "result": []
  },
  {
    "postal": "K1L1J9",
    "result": []
  },
  {
    "postal": "K1L7K6",
    "result": [
      {
        "electoralDistricts": [
          {
            "election": null,
            "id": 80,
            "name": "Ottawa—Vanier"
          }
        ],
        "pollDivisionIds": [
          10140722
        ],
        "postalCode": "K1L7K6",
        "streetName": "OLMSTEAD",
        "streetDirectionId": null,
        "streetTypeId": "ST",
        "placeName": "VANIER",
        "streetNameDisplayText": "OLMSTEAD ST, VANIER"
      }
    ]
  },
  {
    "postal": "K1L7Y5",
    "result": []
  },
  {
    "postal": "K1L1B7",
    "result": []
  },
  {
    "postal": "K1L4S9",
    "result": []
  },
  {
    "postal": "K1L9R9",
    "result": []
  },
  {
    "postal": "K1L5K7",
    "result": [
      {
        "electoralDistricts": [
          {
            "election": null,
            "id": 80,
            "name": "Ottawa—Vanier"
          }
        ],
        "pollDivisionIds": [
          10140723
        ],
        "postalCode": "K1L5K7",
        "streetName": "JOFFRE-BÉLANGER",
        "streetDirectionId": null,
        "streetTypeId": "WAY",
        "placeName": "VANIER",
        "streetNameDisplayText": "JOFFRE-BÉLANGER WAY, VANIER"
      }
    ]
  },
  {
    "postal": "K1L6P2",
    "result": [
      {
        "electoralDistricts": [
          {
            "election": null,
            "id": 80,
            "name": "Ottawa—Vanier"
          }
        ],
        "pollDivisionIds": [
          10140724
        ],
        "postalCode": "K1L6P2",
        "streetName": "MCARTHUR",
        "streetDirectionId": null,
        "streetTypeId": "AVE",
        "placeName": "VANIER",
        "streetNameDisplayText": "MCARTHUR AVE, VANIER"
      }
    ]
  },
  {
    "postal": "K1L2C5",
    "result": []
  },
  {
    "postal": "K1L2N0",
    "result": []
  },
  {
    "postal": "K1L1G0",
    "result": []
  },
  {
    "postal": "K1L4K5",
    "result": []
  },
  {
    "postal": "K1L9B5",
    "result": []
  },
  {
    "postal": "K1L6T5",
    "result": [
      {
        "electoralDistricts": [
          {
            "election": null,
            "id": 80,
            "name": "Ottawa—Vanier"
          }
        ],
        "pollDivisionIds": [
          10140726
        ],
        "postalCode": "K1L6T5",
        "streetName": "DUCHARME",
        "streetDirectionId": null,
        "streetTypeId": "BLVD",
        "placeName": "OTTAWA",
        "streetNameDisplayText": "DUCHARME BLVD, OTTAWA"
      }
    ]
  },
  {
    "postal": "K1L1N8",
    "result": []
  },
  {
    "postal": "K1L0C0",
    "result": []
  },
  {
    "postal": "K1L0R9",
    "result": []
  },
  {
    "postal": "K1L7L1",
    "result": [
      {
        "electoralDistricts": [
          {
            "election": null,
            "id": 80,
            "name": "Ottawa—Vanier"
          }
        ],
        "pollDivisionIds": [
          10140724
        ],
        "postalCode": "K1L7L1",
        "streetName": "LAROUCHE",
        "streetDirectionId": null,
        "streetTypeId": "ST",
        "placeName": "VANIER",
        "streetNameDisplayText": "LAROUCHE ST, VANIER"
      }
    ]
  },
  {
    "postal": "K1L3Y8",
    "result": []
  },
  {
    "postal": "K1L7X9",
    "result": [
      {
        "electoralDistricts": [
          {
            "election": null,
            "id": 80,
            "name": "Ottawa—Vanier"
          }
        ],
        "pollDivisionIds": [
          10140722
        ],
        "postalCode": "K1L7X9",
        "streetName": "LENORE",
        "streetDirectionId": null,
        "streetTypeId": "PL",
        "placeName": "VANIER",
        "streetNameDisplayText": "LENORE PL, VANIER"
      }
    ]
  },
  {
    "postal": "K1L1A7",
    "result": [
      {
        "electoralDistricts": [
          {
            "election": null,
            "id": 80,
            "name": "Ottawa—Vanier"
          }
        ],
        "pollDivisionIds": [
          10144284
        ],
        "postalCode": "K1L1A7",
        "streetName": "DESCHAMPS",
        "streetDirectionId": null,
        "streetTypeId": "AVE",
        "placeName": "VANIER",
        "streetNameDisplayText": "DESCHAMPS AVE, VANIER"
      }
    ]
  },
  {
    "postal": "K1L2T9",
    "result": []
  },
  {
    "postal": "K1L2E6",
    "result": []
  },
  {
    "postal": "K1L8Y1",
    "result": []
  },
  {
    "postal": "K1L0J5",
    "result": []
  },
  {
    "postal": "K1L4J1",
    "result": []
  },
  {
    "postal": "K1L1A5",
    "result": [
      {
        "electoralDistricts": [
          {
            "election": null,
            "id": 80,
            "name": "Ottawa—Vanier"
          }
        ],
        "pollDivisionIds": [
          10140723
        ],
        "postalCode": "K1L1A5",
        "streetName": "LEBRUN",
        "streetDirectionId": null,
        "streetTypeId": "ST",
        "placeName": "VANIER",
        "streetNameDisplayText": "LEBRUN ST, VANIER"
      }
    ]
  },
  {
    "postal": "K1L6Z6",
    "result": [
      {
        "electoralDistricts": [
          {
            "election": null,
            "id": 80,
            "name": "Ottawa—Vanier"
          }
        ],
        "pollDivisionIds": [
          10140723
        ],
        "postalCode": "K1L6Z6",
        "streetName": "DUFORD",
        "streetDirectionId": null,
        "streetTypeId": "ST",
        "placeName": "VANIER",
        "streetNameDisplayText": "DUFORD ST, VANIER"
      }
    ]
  },
  {
    "postal": "K1L5K4",
    "result": [
      {
        "electoralDistricts": [
          {
            "election": null,
            "id": 80,
            "name": "Ottawa—Vanier"
          }
        ],
        "pollDivisionIds": [
          10140723
        ],
        "postalCode": "K1L5K4",
        "streetName": "JOFFRE-BÉLANGER",
        "streetDirectionId": null,
        "streetTypeId": "WAY",
        "placeName": "VANIER",
        "streetNameDisplayText": "JOFFRE-BÉLANGER WAY, VANIER"
      }
    ]
  },
  {
    "postal": "K1L7R9",
    "result": [
      {
        "electoralDistricts": [
          {
            "election": null,
            "id": 80,
            "name": "Ottawa—Vanier"
          }
        ],
        "pollDivisionIds": [
          10144284
        ],
        "postalCode": "K1L7R9",
        "streetName": "EMOND",
        "streetDirectionId": null,
        "streetTypeId": "ST",
        "placeName": "VANIER",
        "streetNameDisplayText": "EMOND ST, VANIER"
      }
    ]
  },
  {
    "postal": "K1L6G4",
    "result": [
      {
        "electoralDistricts": [
          {
            "election": null,
            "id": 80,
            "name": "Ottawa—Vanier"
          }
        ],
        "pollDivisionIds": [
          10140727
        ],
        "postalCode": "K1L6G4",
        "streetName": "PATTON",
        "streetDirectionId": null,
        "streetTypeId": "ST",
        "placeName": "VANIER",
        "streetNameDisplayText": "PATTON ST, VANIER"
      }
    ]
  }
]
