[
  {
    "postal": "L8L9J6",
    "result": []
  },
  {
    "postal": "L8L9Z5",
    "result": []
  },
  {
    "postal": "L8L7H8",
    "result": [
      {
        "electoralDistricts": [
          {
            "election": null,
            "id": 36,
            "name": "Hamilton Centre"
          }
        ],
        "pollDivisionIds": [
          10138616
        ],
        "postalCode": "L8L7H8",
        "streetName": "DEPEW",
        "streetDirectionId": null,
        "streetTypeId": "ST",
        "placeName": "HAMILTON",
        "streetNameDisplayText": "DEPEW ST, HAMILTON"
      }
    ]
  },
  {
    "postal": "L8L0P6",
    "result": []
  },
  {
    "postal": "L8L0S7",
    "result": []
  },
  {
    "postal": "L8L8B9",
    "result": []
  },
  {
    "postal": "L8L2A6",
    "result": [
      {
        "electoralDistricts": [
          {
            "election": null,
            "id": 36,
            "name": "Hamilton Centre"
          }
        ],
        "pollDivisionIds": [
          10138600
        ],
        "postalCode": "L8L2A6",
        "streetName": "CANNON",
        "streetDirectionId": "E",
        "streetTypeId": "ST",
        "placeName": "HAMILTON",
        "streetNameDisplayText": "CANNON ST E, HAMILTON"
      }
    ]
  },
  {
    "postal": "L8L7V2",
    "result": []
  },
  {
    "postal": "L8L9P4",
    "result": []
  },
  {
    "postal": "L8L6G0",
    "result": []
  },
  {
    "postal": "L8L2K0",
    "result": []
  },
  {
    "postal": "L8L7N6",
    "result": [
      {
        "electoralDistricts": [
          {
            "election": null,
            "id": 36,
            "name": "Hamilton Centre"
          }
        ],
        "pollDivisionIds": [
          10138614
        ],
        "postalCode": "L8L7N6",
        "streetName": "KENSINGTON",
        "streetDirectionId": "N",
        "streetTypeId": "AVE",
        "placeName": "HAMILTON",
        "streetNameDisplayText": "KENSINGTON AVE N, HAMILTON"
      }
    ]
  },
  {
    "postal": "L8L5R3",
    "result": [
      {
        "electoralDistricts": [
          {
            "election": null,
            "id": 36,
            "name": "Hamilton Centre"
          }
        ],
        "pollDivisionIds": [
          10138609
        ],
        "postalCode": "L8L5R3",
        "streetName": "DOUGLAS",
        "streetDirectionId": null,
        "streetTypeId": "AVE",
        "placeName": "HAMILTON",
        "streetNameDisplayText": "DOUGLAS AVE, HAMILTON"
      }
    ]
  },
  {
    "postal": "L8L7K0",
    "result": []
  },
  {
    "postal": "L8L3R2",
    "result": [
      {
        "electoralDistricts": [
          {
            "election": null,
            "id": 36,
            "name": "Hamilton Centre"
          }
        ],
        "pollDivisionIds": [
          10138609
        ],
        "postalCode": "L8L3R2",
        "streetName": "BURTON",
        "streetDirectionId": null,
        "streetTypeId": "ST",
        "placeName": "HAMILTON",
        "streetNameDisplayText": "BURTON ST, HAMILTON"
      }
    ]
  },
  {
    "postal": "L8L0J1",
    "result": []
  },
  {
    "postal": "L8L0B0",
    "result": []
  },
  {
    "postal": "L8L5Z2",
    "result": [
      {
        "electoralDistricts": [
          {
            "election": null,
            "id": 36,
            "name": "Hamilton Centre"
          }
        ],
        "pollDivisionIds": [
          10138610
        ],
        "postalCode": "L8L5Z2",
        "streetName": "SANFORD",
        "streetDirectionId": "N",
        "streetTypeId": "AVE",
        "placeName": "HAMILTON",
        "streetNameDisplayText": "SANFORD AVE N, HAMILTON"
      }
    ]
  },
  {
    "postal": "L8L7P3",
    "result": [
      {
        "electoralDistricts": [
          {
            "election": null,
            "id": 36,
            "name": "Hamilton Centre"
          }
        ],
        "pollDivisionIds": [
          10138614
        ],
        "postalCode": "L8L7P3",
        "streetName": "ROSSLYN",
        "streetDirectionId": "N",
        "streetTypeId": "AVE",
        "placeName": "HAMILTON",
        "streetNameDisplayText": "ROSSLYN AVE N, HAMILTON"
      }
    ]
  },
  {
    "postal": "L8L2K3",
    "result": [
      {
        "electoralDistricts": [
          {
            "election": null,
            "id": 36,
            "name": "Hamilton Centre"
          }
        ],
        "pollDivisionIds": [
          10138614
        ],
        "postalCode": "L8L2K3",
        "streetName": "CANNON",
        "streetDirectionId": "E",
        "streetTypeId": "ST",
        "placeName": "HAMILTON",
        "streetNameDisplayText": "CANNON ST E, HAMILTON"
      }
    ]
  },
  {
    "postal": "L8L7Y6",
    "result": []
  },
  {
    "postal": "L8L1L9",
    "result": [
      {
        "electoralDistricts": [
          {
            "election": null,
            "id": 36,
            "name": "Hamilton Centre"
          }
        ],
        "pollDivisionIds": [
          10138599
        ],
        "postalCode": "L8L1L9",
        "streetName": "PARK",
        "streetDirectionId": "N",
        "streetTypeId": "ST",
        "placeName": "HAMILTON",
        "streetNameDisplayText": "PARK ST N, HAMILTON"
      }
    ]
  },
  {
    "postal": "L8L8T0",
    "result": []
  },
  {
    "postal": "L8L3K8",
    "result": [
      {
        "electoralDistricts": [
          {
            "election": null,
            "id": 36,
            "name": "Hamilton Centre"
          }
        ],
        "pollDivisionIds": [
          10138609
        ],
        "postalCode": "L8L3K8",
        "streetName": "PRINCESS",
        "streetDirectionId": null,
        "streetTypeId": "ST",
        "placeName": "HAMILTON",
        "streetNameDisplayText": "PRINCESS ST, HAMILTON"
      }
    ]
  },
  {
    "postal": "L8L5W9",
    "result": [
      {
        "electoralDistricts": [
          {
            "election": null,
            "id": 36,
            "name": "Hamilton Centre"
          }
        ],
        "pollDivisionIds": [
          10138609
        ],
        "postalCode": "L8L5W9",
        "streetName": "WENTWORTH",
        "streetDirectionId": "N",
        "streetTypeId": "ST",
        "placeName": "HAMILTON",
        "streetNameDisplayText": "WENTWORTH ST N, HAMILTON"
      }
    ]
  },
  {
    "postal": "L8L6T9",
    "result": [
      {
        "electoralDistricts": [
          {
            "election": null,
            "id": 36,
            "name": "Hamilton Centre"
          }
        ],
        "pollDivisionIds": [
          10138612
        ],
        "postalCode": "L8L6T9",
        "streetName": "LOTTRIDGE",
        "streetDirectionId": null,
        "streetTypeId": "ST",
        "placeName": "HAMILTON",
        "streetNameDisplayText": "LOTTRIDGE ST, HAMILTON"
      }
    ]
  },
  {
    "postal": "L8L4H1",
    "result": [
      {
        "electoralDistricts": [
          {
            "election": null,
            "id": 36,
            "name": "Hamilton Centre"
          }
        ],
        "pollDivisionIds": [
          10138609
        ],
        "postalCode": "L8L4H1",
        "streetName": "BURLINGTON",
        "streetDirectionId": "E",
        "streetTypeId": "ST",
        "placeName": "HAMILTON",
        "streetNameDisplayText": "BURLINGTON ST E, HAMILTON"
      }
    ]
  },
  {
    "postal": "L8L7A2",
    "result": [
      {
        "electoralDistricts": [
          {
            "election": null,
            "id": 36,
            "name": "Hamilton Centre"
          }
        ],
        "pollDivisionIds": [
          10138614
        ],
        "postalCode": "L8L7A2",
        "streetName": "GAGE",
        "streetDirectionId": "N",
        "streetTypeId": "AVE",
        "placeName": "HAMILTON",
        "streetNameDisplayText": "GAGE AVE N, HAMILTON"
      },
      {
        "electoralDistricts": [
          {
            "election": null,
            "id": 36,
            "name": "Hamilton Centre"
          }
        ],
        "pollDivisionIds": [
          10138611
        ],
        "postalCode": "L8L7A2",
        "streetName": "GAGE",
        "streetDirectionId": "S",
        "streetTypeId": "AVE",
        "placeName": "HAMILTON",
        "streetNameDisplayText": "GAGE AVE S, HAMILTON"
      }
    ]
  },
  {
    "postal": "L8L5G0",
    "result": []
  },
  {
    "postal": "L8L8V5",
    "result": []
  },
  {
    "postal": "L8L2Y8",
    "result": [
      {
        "electoralDistricts": [
          {
            "election": null,
            "id": 36,
            "name": "Hamilton Centre"
          }
        ],
        "pollDivisionIds": [
          10138607
        ],
        "postalCode": "L8L2Y8",
        "streetName": "BARTON",
        "streetDirectionId": "E",
        "streetTypeId": "ST",
        "placeName": "HAMILTON",
        "streetNameDisplayText": "BARTON ST E, HAMILTON"
      }
    ]
  },
  {
    "postal": "L8L2B6",
    "result": [
      {
        "electoralDistricts": [
          {
            "election": null,
            "id": 36,
            "name": "Hamilton Centre"
          }
        ],
        "pollDivisionIds": [
          10138609
        ],
        "postalCode": "L8L2B6",
        "streetName": "CANNON",
        "streetDirectionId": "E",
        "streetTypeId": "ST",
        "placeName": "HAMILTON",
        "streetNameDisplayText": "CANNON ST E, HAMILTON"
      }
    ]
  },
  {
    "postal": "L8L4W8",
    "result": [
      {
        "electoralDistricts": [
          {
            "election": null,
            "id": 36,
            "name": "Hamilton Centre"
          }
        ],
        "pollDivisionIds": [
          10138605
        ],
        "postalCode": "L8L4W8",
        "streetName": "MARY",
        "streetDirectionId": null,
        "streetTypeId": "ST",
        "placeName": "HAMILTON",
        "streetNameDisplayText": "MARY ST, HAMILTON"
      }
    ]
  },
  {
    "postal": "L8L8H7",
    "result": []
  },
  {
    "postal": "L8L5P1",
    "result": [
      {
        "electoralDistricts": [
          {
            "election": null,
            "id": 36,
            "name": "Hamilton Centre"
          }
        ],
        "pollDivisionIds": [
          10138609
        ],
        "postalCode": "L8L5P1",
        "streetName": "SMITH",
        "streetDirectionId": null,
        "streetTypeId": "AVE",
        "placeName": "HAMILTON",
        "streetNameDisplayText": "SMITH AVE, HAMILTON"
      }
    ]
  },
  {
    "postal": "L8L2B8",
    "result": [
      {
        "electoralDistricts": [
          {
            "election": null,
            "id": 36,
            "name": "Hamilton Centre"
          }
        ],
        "pollDivisionIds": [
          10138609
        ],
        "postalCode": "L8L2B8",
        "streetName": "CANNON",
        "streetDirectionId": "E",
        "streetTypeId": "ST",
        "placeName": "HAMILTON",
        "streetNameDisplayText": "CANNON ST E, HAMILTON"
      }
    ]
  },
  {
    "postal": "L8L0P2",
    "result": []
  },
  {
    "postal": "L8L9M1",
    "result": []
  },
  {
    "postal": "L8L3G0",
    "result": []
  },
  {
    "postal": "L8L9Z2",
    "result": []
  },
  {
    "postal": "L8L2A0",
    "result": []
  },
  {
    "postal": "L8L6Y0",
    "result": []
  },
  {
    "postal": "L8L2Z8",
    "result": [
      {
        "electoralDistricts": [
          {
            "election": null,
            "id": 36,
            "name": "Hamilton Centre"
          }
        ],
        "pollDivisionIds": [
          10138609
        ],
        "postalCode": "L8L2Z8",
        "streetName": "BARTON",
        "streetDirectionId": "E",
        "streetTypeId": "ST",
        "placeName": "HAMILTON",
        "streetNameDisplayText": "BARTON ST E, HAMILTON"
      }
    ]
  },
  {
    "postal": "L8L7Y3",
    "result": []
  },
  {
    "postal": "L8L6Z5",
    "result": [
      {
        "electoralDistricts": [
          {
            "election": null,
            "id": 36,
            "name": "Hamilton Centre"
          }
        ],
        "pollDivisionIds": [
          10138612
        ],
        "postalCode": "L8L6Z5",
        "streetName": "GAGE",
        "streetDirectionId": "N",
        "streetTypeId": "AVE",
        "placeName": "HAMILTON",
        "streetNameDisplayText": "GAGE AVE N, HAMILTON"
      }
    ]
  },
  {
    "postal": "L8L6E0",
    "result": []
  },
  {
    "postal": "L8L9B7",
    "result": []
  },
  {
    "postal": "L8L9S5",
    "result": []
  },
  {
    "postal": "L8L3X3",
    "result": [
      {
        "electoralDistricts": [
          {
            "election": null,
            "id": 36,
            "name": "Hamilton Centre"
          }
        ],
        "pollDivisionIds": [
          10138599
        ],
        "postalCode": "L8L3X3",
        "streetName": "MACAULEY",
        "streetDirectionId": "E",
        "streetTypeId": "ST",
        "placeName": "HAMILTON",
        "streetNameDisplayText": "MACAULEY ST E, HAMILTON"
      }
    ]
  },
  {
    "postal": "L8L7R5",
    "result": [
      {
        "electoralDistricts": [
          {
            "election": null,
            "id": 36,
            "name": "Hamilton Centre"
          }
        ],
        "pollDivisionIds": [
          10138614
        ],
        "postalCode": "L8L7R5",
        "streetName": "BALMORAL",
        "streetDirectionId": "N",
        "streetTypeId": "AVE",
        "placeName": "HAMILTON",
        "streetNameDisplayText": "BALMORAL AVE N, HAMILTON"
      }
    ]
  },
  {
    "postal": "L8L2X3",
    "result": [
      {
        "electoralDistricts": [
          {
            "election": null,
            "id": 36,
            "name": "Hamilton Centre"
          }
        ],
        "pollDivisionIds": [
          10138609
        ],
        "postalCode": "L8L2X3",
        "streetName": "BARTON",
        "streetDirectionId": "E",
        "streetTypeId": "ST",
        "placeName": "HAMILTON",
        "streetNameDisplayText": "BARTON ST E, HAMILTON"
      }
    ]
  },
  {
    "postal": "L8L8Z9",
    "result": []
  },
  {
    "postal": "L8L0N4",
    "result": []
  },
  {
    "postal": "L8L1K1",
    "result": [
      {
        "electoralDistricts": [
          {
            "election": null,
            "id": 36,
            "name": "Hamilton Centre"
          }
        ],
        "pollDivisionIds": [
          10138599
        ],
        "postalCode": "L8L1K1",
        "streetName": "JAMES",
        "streetDirectionId": "N",
        "streetTypeId": "ST",
        "placeName": "HAMILTON",
        "streetNameDisplayText": "JAMES ST N, HAMILTON"
      }
    ]
  },
  {
    "postal": "L8L1S3",
    "result": [
      {
        "electoralDistricts": [
          {
            "election": null,
            "id": 36,
            "name": "Hamilton Centre"
          }
        ],
        "pollDivisionIds": [
          10138603
        ],
        "postalCode": "L8L1S3",
        "streetName": "WILSON",
        "streetDirectionId": null,
        "streetTypeId": "ST",
        "placeName": "HAMILTON",
        "streetNameDisplayText": "WILSON ST, HAMILTON"
      }
    ]
  },
  {
    "postal": "L8L6M4",
    "result": [
      {
        "electoralDistricts": [
          {
            "election": null,
            "id": 36,
            "name": "Hamilton Centre"
          }
        ],
        "pollDivisionIds": [
          10138612
        ],
        "postalCode": "L8L6M4",
        "streetName": "SHERMAN",
        "streetDirectionId": "N",
        "streetTypeId": "AVE",
        "placeName": "HAMILTON",
        "streetNameDisplayText": "SHERMAN AVE N, HAMILTON"
      }
    ]
  },
  {
    "postal": "L8L9A9",
    "result": []
  },
  {
    "postal": "L8L9Z9",
    "result": []
  },
  {
    "postal": "L8L6T4",
    "result": [
      {
        "electoralDistricts": [
          {
            "election": null,
            "id": 36,
            "name": "Hamilton Centre"
          }
        ],
        "pollDivisionIds": [
          10138616
        ],
        "postalCode": "L8L6T4",
        "streetName": "BARNESDALE",
        "streetDirectionId": "N",
        "streetTypeId": "AVE",
        "placeName": "HAMILTON",
        "streetNameDisplayText": "BARNESDALE AVE N, HAMILTON"
      }
    ]
  },
  {
    "postal": "L8L0B2",
    "result": []
  },
  {
    "postal": "L8L2L9",
    "result": [
      {
        "electoralDistricts": [
          {
            "election": null,
            "id": 36,
            "name": "Hamilton Centre"
          }
        ],
        "pollDivisionIds": [
          10138607
        ],
        "postalCode": "L8L2L9",
        "streetName": "HARVEY",
        "streetDirectionId": null,
        "streetTypeId": "ST",
        "placeName": "HAMILTON",
        "streetNameDisplayText": "HARVEY ST, HAMILTON"
      }
    ]
  },
  {
    "postal": "L8L8K9",
    "result": []
  },
  {
    "postal": "L8L2H9",
    "result": [
      {
        "electoralDistricts": [
          {
            "election": null,
            "id": 36,
            "name": "Hamilton Centre"
          }
        ],
        "pollDivisionIds": [
          10138614
        ],
        "postalCode": "L8L2H9",
        "streetName": "CANNON",
        "streetDirectionId": "E",
        "streetTypeId": "ST",
        "placeName": "HAMILTON",
        "streetNameDisplayText": "CANNON ST E, HAMILTON"
      }
    ]
  },
  {
    "postal": "L8L3Z6",
    "result": [
      {
        "electoralDistricts": [
          {
            "election": null,
            "id": 37,
            "name": "Hamilton East—Stoney Creek"
          }
        ],
        "pollDivisionIds": [
          10138640
        ],
        "postalCode": "L8L3Z6",
        "streetName": "BEACH",
        "streetDirectionId": null,
        "streetTypeId": "BLVD",
        "placeName": "HAMILTON",
        "streetNameDisplayText": "BEACH BLVD, HAMILTON"
      },
      {
        "electoralDistricts": [
          {
            "election": null,
            "id": 36,
            "name": "Hamilton Centre"
          }
        ],
        "pollDivisionIds": [
          10138616
        ],
        "postalCode": "L8L3Z6",
        "streetName": "BEACH",
        "streetDirectionId": null,
        "streetTypeId": "RD",
        "placeName": "HAMILTON",
        "streetNameDisplayText": "BEACH RD, HAMILTON"
      }
    ]
  },
  {
    "postal": "L8L3B0",
    "result": []
  },
  {
    "postal": "L8L2H8",
    "result": [
      {
        "electoralDistricts": [
          {
            "election": null,
            "id": 36,
            "name": "Hamilton Centre"
          }
        ],
        "pollDivisionIds": [
          10138614
        ],
        "postalCode": "L8L2H8",
        "streetName": "CANNON",
        "streetDirectionId": "E",
        "streetTypeId": "ST",
        "placeName": "HAMILTON",
        "streetNameDisplayText": "CANNON ST E, HAMILTON"
      }
    ]
  },
  {
    "postal": "L8L3X2",
    "result": [
      {
        "electoralDistricts": [
          {
            "election": null,
            "id": 36,
            "name": "Hamilton Centre"
          }
        ],
        "pollDivisionIds": [
          10138599
        ],
        "postalCode": "L8L3X2",
        "streetName": "MACAULEY",
        "streetDirectionId": "E",
        "streetTypeId": "ST",
        "placeName": "HAMILTON",
        "streetNameDisplayText": "MACAULEY ST E, HAMILTON"
      }
    ]
  },
  {
    "postal": "L8L2E9",
    "result": [
      {
        "electoralDistricts": [
          {
            "election": null,
            "id": 36,
            "name": "Hamilton Centre"
          }
        ],
        "pollDivisionIds": [
          10138610
        ],
        "postalCode": "L8L2E9",
        "streetName": "CANNON",
        "streetDirectionId": "E",
        "streetTypeId": "ST",
        "placeName": "HAMILTON",
        "streetNameDisplayText": "CANNON ST E, HAMILTON"
      }
    ]
  },
  {
    "postal": "L8L9P6",
    "result": []
  },
  {
    "postal": "L8L9E2",
    "result": []
  },
  {
    "postal": "L8L9H2",
    "result": []
  },
  {
    "postal": "L8L1S8",
    "result": [
      {
        "electoralDistricts": [
          {
            "election": null,
            "id": 36,
            "name": "Hamilton Centre"
          }
        ],
        "pollDivisionIds": [
          10138607
        ],
        "postalCode": "L8L1S8",
        "streetName": "WILSON",
        "streetDirectionId": null,
        "streetTypeId": "ST",
        "placeName": "HAMILTON",
        "streetNameDisplayText": "WILSON ST, HAMILTON"
      }
    ]
  },
  {
    "postal": "L8L3M6",
    "result": [
      {
        "electoralDistricts": [
          {
            "election": null,
            "id": 36,
            "name": "Hamilton Centre"
          }
        ],
        "pollDivisionIds": [
          10138605
        ],
        "postalCode": "L8L3M6",
        "streetName": "STRACHAN",
        "streetDirectionId": "E",
        "streetTypeId": "ST",
        "placeName": "HAMILTON",
        "streetNameDisplayText": "STRACHAN ST E, HAMILTON"
      }
    ]
  },
  {
    "postal": "L8L6Z8",
    "result": [
      {
        "electoralDistricts": [
          {
            "election": null,
            "id": 36,
            "name": "Hamilton Centre"
          }
        ],
        "pollDivisionIds": [
          10138612
        ],
        "postalCode": "L8L6Z8",
        "streetName": "GAGE",
        "streetDirectionId": "N",
        "streetTypeId": "AVE",
        "placeName": "HAMILTON",
        "streetNameDisplayText": "GAGE AVE N, HAMILTON"
      }
    ]
  },
  {
    "postal": "L8L4J2",
    "result": [
      {
        "electoralDistricts": [
          {
            "election": null,
            "id": 36,
            "name": "Hamilton Centre"
          }
        ],
        "pollDivisionIds": [
          10138609
        ],
        "postalCode": "L8L4J2",
        "streetName": "BURLINGTON",
        "streetDirectionId": "E",
        "streetTypeId": "ST",
        "placeName": "HAMILTON",
        "streetNameDisplayText": "BURLINGTON ST E, HAMILTON"
      }
    ]
  },
  {
    "postal": "L8L9Y1",
    "result": []
  },
  {
    "postal": "L8L8V6",
    "result": []
  },
  {
    "postal": "L8L6B2",
    "result": [
      {
        "electoralDistricts": [
          {
            "election": null,
            "id": 36,
            "name": "Hamilton Centre"
          }
        ],
        "pollDivisionIds": [
          10138609
        ],
        "postalCode": "L8L6B2",
        "streetName": "HILLYARD",
        "streetDirectionId": null,
        "streetTypeId": "ST",
        "placeName": "HAMILTON",
        "streetNameDisplayText": "HILLYARD ST, HAMILTON"
      }
    ]
  },
  {
    "postal": "L8L1P8",
    "result": [
      {
        "electoralDistricts": [
          {
            "election": null,
            "id": 36,
            "name": "Hamilton Centre"
          }
        ],
        "pollDivisionIds": [
          10138607
        ],
        "postalCode": "L8L1P8",
        "streetName": "KING WILLIAM",
        "streetDirectionId": null,
        "streetTypeId": "ST",
        "placeName": "HAMILTON",
        "streetNameDisplayText": "KING WILLIAM ST, HAMILTON"
      }
    ]
  },
  {
    "postal": "L8L0V8",
    "result": []
  },
  {
    "postal": "L8L4Y0",
    "result": []
  },
  {
    "postal": "L8L2T4",
    "result": [
      {
        "electoralDistricts": [
          {
            "election": null,
            "id": 36,
            "name": "Hamilton Centre"
          }
        ],
        "pollDivisionIds": [
          10138614
        ],
        "postalCode": "L8L2T4",
        "streetName": "BEECHWOOD",
        "streetDirectionId": null,
        "streetTypeId": "AVE",
        "placeName": "HAMILTON",
        "streetNameDisplayText": "BEECHWOOD AVE, HAMILTON"
      }
    ]
  },
  {
    "postal": "L8L2S3",
    "result": [
      {
        "electoralDistricts": [
          {
            "election": null,
            "id": 36,
            "name": "Hamilton Centre"
          }
        ],
        "pollDivisionIds": [
          10138607
        ],
        "postalCode": "L8L2S3",
        "streetName": "HURON",
        "streetDirectionId": null,
        "streetTypeId": "ST",
        "placeName": "HAMILTON",
        "streetNameDisplayText": "HURON ST, HAMILTON"
      }
    ]
  },
  {
    "postal": "L8L0K0",
    "result": []
  },
  {
    "postal": "L8L5N1",
    "result": [
      {
        "electoralDistricts": [
          {
            "election": null,
            "id": 36,
            "name": "Hamilton Centre"
          }
        ],
        "pollDivisionIds": [
          10138609
        ],
        "postalCode": "L8L5N1",
        "streetName": "OAK",
        "streetDirectionId": null,
        "streetTypeId": "AVE",
        "placeName": "HAMILTON",
        "streetNameDisplayText": "OAK AVE, HAMILTON"
      }
    ]
  },
  {
    "postal": "L8L7T0",
    "result": []
  },
  {
    "postal": "L8L9N2",
    "result": []
  },
  {
    "postal": "L8L5L1",
    "result": [
      {
        "electoralDistricts": [
          {
            "election": null,
            "id": 36,
            "name": "Hamilton Centre"
          }
        ],
        "pollDivisionIds": [
          10138609
        ],
        "postalCode": "L8L5L1",
        "streetName": "EMERALD",
        "streetDirectionId": "N",
        "streetTypeId": "ST",
        "placeName": "HAMILTON",
        "streetNameDisplayText": "EMERALD ST N, HAMILTON"
      }
    ]
  },
  {
    "postal": "L8L7G5",
    "result": [
      {
        "electoralDistricts": [
          {
            "election": null,
            "id": 36,
            "name": "Hamilton Centre"
          }
        ],
        "pollDivisionIds": [
          10138616
        ],
        "postalCode": "L8L7G5",
        "streetName": "ALBEMARLE",
        "streetDirectionId": null,
        "streetTypeId": "ST",
        "placeName": "HAMILTON",
        "streetNameDisplayText": "ALBEMARLE ST, HAMILTON"
      }
    ]
  },
  {
    "postal": "L8L6K2",
    "result": [
      {
        "electoralDistricts": [
          {
            "election": null,
            "id": 36,
            "name": "Hamilton Centre"
          }
        ],
        "pollDivisionIds": [
          10138609
        ],
        "postalCode": "L8L6K2",
        "streetName": "GIBSON",
        "streetDirectionId": null,
        "streetTypeId": "AVE",
        "placeName": "HAMILTON",
        "streetNameDisplayText": "GIBSON AVE, HAMILTON"
      }
    ]
  },
  {
    "postal": "L8L6P9",
    "result": [
      {
        "electoralDistricts": [
          {
            "election": null,
            "id": 36,
            "name": "Hamilton Centre"
          }
        ],
        "pollDivisionIds": [
          10138616
        ],
        "postalCode": "L8L6P9",
        "streetName": "RUTH",
        "streetDirectionId": null,
        "streetTypeId": "ST",
        "placeName": "HAMILTON",
        "streetNameDisplayText": "RUTH ST, HAMILTON"
      }
    ]
  },
  {
    "postal": "L8L0E6",
    "result": []
  },
  {
    "postal": "L8L8R9",
    "result": []
  },
  {
    "postal": "L8L3G9",
    "result": [
      {
        "electoralDistricts": [
          {
            "election": null,
            "id": 36,
            "name": "Hamilton Centre"
          }
        ],
        "pollDivisionIds": [
          10138616
        ],
        "postalCode": "L8L3G9",
        "streetName": "CASE",
        "streetDirectionId": null,
        "streetTypeId": "ST",
        "placeName": "HAMILTON",
        "streetNameDisplayText": "CASE ST, HAMILTON"
      }
    ]
  },
  {
    "postal": "L8L0V7",
    "result": []
  },
  {
    "postal": "L8L2Z1",
    "result": [
      {
        "electoralDistricts": [
          {
            "election": null,
            "id": 36,
            "name": "Hamilton Centre"
          }
        ],
        "pollDivisionIds": [
          10138607
        ],
        "postalCode": "L8L2Z1",
        "streetName": "BARTON",
        "streetDirectionId": "E",
        "streetTypeId": "ST",
        "placeName": "HAMILTON",
        "streetNameDisplayText": "BARTON ST E, HAMILTON"
      }
    ]
  },
  {
    "postal": "L8L7N1",
    "result": [
      {
        "electoralDistricts": [
          {
            "election": null,
            "id": 36,
            "name": "Hamilton Centre"
          }
        ],
        "pollDivisionIds": [
          10138614
        ],
        "postalCode": "L8L7N1",
        "streetName": "KENSINGTON",
        "streetDirectionId": "N",
        "streetTypeId": "AVE",
        "placeName": "HAMILTON",
        "streetNameDisplayText": "KENSINGTON AVE N, HAMILTON"
      }
    ]
  },
  {
    "postal": "L8L3C6",
    "result": []
  },
  {
    "postal": "L8L4M1",
    "result": []
  },
  {
    "postal": "L8L9K2",
    "result": []
  },
  {
    "postal": "L8L9S6",
    "result": []
  },
  {
    "postal": "L8L4X1",
    "result": [
      {
        "electoralDistricts": [
          {
            "election": null,
            "id": 36,
            "name": "Hamilton Centre"
          }
        ],
        "pollDivisionIds": [
          10138599
        ],
        "postalCode": "L8L4X1",
        "streetName": "MARY",
        "streetDirectionId": null,
        "streetTypeId": "ST",
        "placeName": "HAMILTON",
        "streetNameDisplayText": "MARY ST, HAMILTON"
      }
    ]
  },
  {
    "postal": "L8L8W2",
    "result": []
  },
  {
    "postal": "L8L7N2",
    "result": [
      {
        "electoralDistricts": [
          {
            "election": null,
            "id": 36,
            "name": "Hamilton Centre"
          }
        ],
        "pollDivisionIds": [
          10138614
        ],
        "postalCode": "L8L7N2",
        "streetName": "KENSINGTON",
        "streetDirectionId": "N",
        "streetTypeId": "AVE",
        "placeName": "HAMILTON",
        "streetNameDisplayText": "KENSINGTON AVE N, HAMILTON"
      }
    ]
  },
  {
    "postal": "L8L8S3",
    "result": []
  },
  {
    "postal": "L8L4V0",
    "result": []
  },
  {
    "postal": "L8L6W4",
    "result": [
      {
        "electoralDistricts": [
          {
            "election": null,
            "id": 36,
            "name": "Hamilton Centre"
          }
        ],
        "pollDivisionIds": [
          10138616
        ],
        "postalCode": "L8L6W4",
        "streetName": "BIRMINGHAM",
        "streetDirectionId": null,
        "streetTypeId": "ST",
        "placeName": "HAMILTON",
        "streetNameDisplayText": "BIRMINGHAM ST, HAMILTON"
      }
    ]
  },
  {
    "postal": "L8L5M1",
    "result": [
      {
        "electoralDistricts": [
          {
            "election": null,
            "id": 36,
            "name": "Hamilton Centre"
          }
        ],
        "pollDivisionIds": [
          10138609
        ],
        "postalCode": "L8L5M1",
        "streetName": "EMERALD",
        "streetDirectionId": "N",
        "streetTypeId": "ST",
        "placeName": "HAMILTON",
        "streetNameDisplayText": "EMERALD ST N, HAMILTON"
      }
    ]
  },
  {
    "postal": "L8L0S4",
    "result": []
  },
  {
    "postal": "L8L5X6",
    "result": [
      {
        "electoralDistricts": [
          {
            "election": null,
            "id": 36,
            "name": "Hamilton Centre"
          }
        ],
        "pollDivisionIds": [
          10138609
        ],
        "postalCode": "L8L5X6",
        "streetName": "WENTWORTH",
        "streetDirectionId": "N",
        "streetTypeId": "ST",
        "placeName": "HAMILTON",
        "streetNameDisplayText": "WENTWORTH ST N, HAMILTON"
      }
    ]
  },
  {
    "postal": "L8L8L5",
    "result": []
  },
  {
    "postal": "L8L5M8",
    "result": [
      {
        "electoralDistricts": [
          {
            "election": null,
            "id": 36,
            "name": "Hamilton Centre"
          }
        ],
        "pollDivisionIds": [
          10138609
        ],
        "postalCode": "L8L5M8",
        "streetName": "OAK",
        "streetDirectionId": null,
        "streetTypeId": "AVE",
        "placeName": "HAMILTON",
        "streetNameDisplayText": "OAK AVE, HAMILTON"
      }
    ]
  },
  {
    "postal": "L8L2G3",
    "result": [
      {
        "electoralDistricts": [
          {
            "election": null,
            "id": 36,
            "name": "Hamilton Centre"
          }
        ],
        "pollDivisionIds": [
          10138610
        ],
        "postalCode": "L8L2G3",
        "streetName": "CANNON",
        "streetDirectionId": "E",
        "streetTypeId": "ST",
        "placeName": "HAMILTON",
        "streetNameDisplayText": "CANNON ST E, HAMILTON"
      }
    ]
  },
  {
    "postal": "L8L8E4",
    "result": [
      {
        "electoralDistricts": [
          {
            "election": null,
            "id": 36,
            "name": "Hamilton Centre"
          }
        ],
        "pollDivisionIds": [
          10138602
        ],
        "postalCode": "L8L8E4",
        "streetName": "FERGUSON",
        "streetDirectionId": "S",
        "streetTypeId": "AVE",
        "placeName": "HAMILTON",
        "streetNameDisplayText": "FERGUSON AVE S, HAMILTON"
      }
    ]
  },
  {
    "postal": "L8L7S9",
    "result": [
      {
        "electoralDistricts": [
          {
            "election": null,
            "id": 36,
            "name": "Hamilton Centre"
          }
        ],
        "pollDivisionIds": [
          10138615
        ],
        "postalCode": "L8L7S9",
        "streetName": "GROSVENOR",
        "streetDirectionId": "N",
        "streetTypeId": "AVE",
        "placeName": "HAMILTON",
        "streetNameDisplayText": "GROSVENOR AVE N, HAMILTON"
      }
    ]
  },
  {
    "postal": "L8L1K3",
    "result": [
      {
        "electoralDistricts": [
          {
            "election": null,
            "id": 36,
            "name": "Hamilton Centre"
          }
        ],
        "pollDivisionIds": [
          10138599
        ],
        "postalCode": "L8L1K3",
        "streetName": "MACNAB",
        "streetDirectionId": "N",
        "streetTypeId": "ST",
        "placeName": "HAMILTON",
        "streetNameDisplayText": "MACNAB ST N, HAMILTON"
      },
      {
        "electoralDistricts": [
          {
            "election": null,
            "id": 39,
            "name": "Hamilton West—Ancaster—Dundas"
          }
        ],
        "pollDivisionIds": [
          10135261
        ],
        "postalCode": "L8L1K3",
        "streetName": "MCNAB",
        "streetDirectionId": "N",
        "streetTypeId": "ST",
        "placeName": "HAMILTON",
        "streetNameDisplayText": "MCNAB ST N, HAMILTON"
      }
    ]
  },
  {
    "postal": "L8L4E1",
    "result": [
      {
        "electoralDistricts": [
          {
            "election": null,
            "id": 36,
            "name": "Hamilton Centre"
          }
        ],
        "pollDivisionIds": [
          10138609
        ],
        "postalCode": "L8L4E1",
        "streetName": "BRANT",
        "streetDirectionId": null,
        "streetTypeId": "ST",
        "placeName": "HAMILTON",
        "streetNameDisplayText": "BRANT ST, HAMILTON"
      }
    ]
  },
  {
    "postal": "L8L4R2",
    "result": [
      {
        "electoralDistricts": [
          {
            "election": null,
            "id": 36,
            "name": "Hamilton Centre"
          }
        ],
        "pollDivisionIds": [
          10138599
        ],
        "postalCode": "L8L4R2",
        "streetName": "JOHN",
        "streetDirectionId": "N",
        "streetTypeId": "ST",
        "placeName": "HAMILTON",
        "streetNameDisplayText": "JOHN ST N, HAMILTON"
      }
    ]
  },
  {
    "postal": "L8L6T0",
    "result": []
  },
  {
    "postal": "L8L3K5",
    "result": [
      {
        "electoralDistricts": [
          {
            "election": null,
            "id": 36,
            "name": "Hamilton Centre"
          }
        ],
        "pollDivisionIds": [
          10138609
        ],
        "postalCode": "L8L3K5",
        "streetName": "PRINCESS",
        "streetDirectionId": null,
        "streetTypeId": "ST",
        "placeName": "HAMILTON",
        "streetNameDisplayText": "PRINCESS ST, HAMILTON"
      }
    ]
  },
  {
    "postal": "L8L3S3",
    "result": [
      {
        "electoralDistricts": [
          {
            "election": null,
            "id": 36,
            "name": "Hamilton Centre"
          }
        ],
        "pollDivisionIds": [
          10138609
        ],
        "postalCode": "L8L3S3",
        "streetName": "KEITH",
        "streetDirectionId": null,
        "streetTypeId": "ST",
        "placeName": "HAMILTON",
        "streetNameDisplayText": "KEITH ST, HAMILTON"
      }
    ]
  },
  {
    "postal": "L8L3L4",
    "result": [
      {
        "electoralDistricts": [
          {
            "election": null,
            "id": 36,
            "name": "Hamilton Centre"
          }
        ],
        "pollDivisionIds": [
          10138609
        ],
        "postalCode": "L8L3L4",
        "streetName": "BIRGE",
        "streetDirectionId": null,
        "streetTypeId": "ST",
        "placeName": "HAMILTON",
        "streetNameDisplayText": "BIRGE ST, HAMILTON"
      }
    ]
  },
  {
    "postal": "L8L9Y2",
    "result": []
  },
  {
    "postal": "L8L1E0",
    "result": []
  },
  {
    "postal": "L8L9A4",
    "result": []
  },
  {
    "postal": "L8L1L3",
    "result": [
      {
        "electoralDistricts": [
          {
            "election": null,
            "id": 36,
            "name": "Hamilton Centre"
          }
        ],
        "pollDivisionIds": [
          10138599
        ],
        "postalCode": "L8L1L3",
        "streetName": "MACNAB",
        "streetDirectionId": "N",
        "streetTypeId": "ST",
        "placeName": "HAMILTON",
        "streetNameDisplayText": "MACNAB ST N, HAMILTON"
      }
    ]
  },
  {
    "postal": "L8L6N1",
    "result": [
      {
        "electoralDistricts": [
          {
            "election": null,
            "id": 36,
            "name": "Hamilton Centre"
          }
        ],
        "pollDivisionIds": [
          10138616
        ],
        "postalCode": "L8L6N1",
        "streetName": "SHERMAN",
        "streetDirectionId": "N",
        "streetTypeId": "AVE",
        "placeName": "HAMILTON",
        "streetNameDisplayText": "SHERMAN AVE N, HAMILTON"
      }
    ]
  },
  {
    "postal": "L8L6G7",
    "result": [
      {
        "electoralDistricts": [
          {
            "election": null,
            "id": 36,
            "name": "Hamilton Centre"
          }
        ],
        "pollDivisionIds": [
          10138607
        ],
        "postalCode": "L8L6G7",
        "streetName": "STIRTON",
        "streetDirectionId": null,
        "streetTypeId": "ST",
        "placeName": "HAMILTON",
        "streetNameDisplayText": "STIRTON ST, HAMILTON"
      }
    ]
  },
  {
    "postal": "L8L7W1",
    "result": []
  },
  {
    "postal": "L8L4M6",
    "result": [
      {
        "electoralDistricts": [
          {
            "election": null,
            "id": 36,
            "name": "Hamilton Centre"
          }
        ],
        "pollDivisionIds": [
          10138605
        ],
        "postalCode": "L8L4M6",
        "streetName": "HUGHSON",
        "streetDirectionId": "N",
        "streetTypeId": "ST",
        "placeName": "HAMILTON",
        "streetNameDisplayText": "HUGHSON ST N, HAMILTON"
      }
    ]
  },
  {
    "postal": "L8L1K0",
    "result": []
  },
  {
    "postal": "L8L3E2",
    "result": [
      {
        "electoralDistricts": [
          {
            "election": null,
            "id": 36,
            "name": "Hamilton Centre"
          }
        ],
        "pollDivisionIds": [
          10138615
        ],
        "postalCode": "L8L3E2",
        "streetName": "BARTON",
        "streetDirectionId": "E",
        "streetTypeId": "ST",
        "placeName": "HAMILTON",
        "streetNameDisplayText": "BARTON ST E, HAMILTON"
      }
    ]
  },
  {
    "postal": "L8L5H4",
    "result": [
      {
        "electoralDistricts": [
          {
            "election": null,
            "id": 36,
            "name": "Hamilton Centre"
          }
        ],
        "pollDivisionIds": [
          10138607
        ],
        "postalCode": "L8L5H4",
        "streetName": "EAST",
        "streetDirectionId": "N",
        "streetTypeId": "AVE",
        "placeName": "HAMILTON",
        "streetNameDisplayText": "EAST AVE N, HAMILTON"
      }
    ]
  },
  {
    "postal": "L8L1K7",
    "result": [
      {
        "electoralDistricts": [
          {
            "election": null,
            "id": 36,
            "name": "Hamilton Centre"
          }
        ],
        "pollDivisionIds": [
          10138599
        ],
        "postalCode": "L8L1K7",
        "streetName": "MACNAB",
        "streetDirectionId": "N",
        "streetTypeId": "ST",
        "placeName": "HAMILTON",
        "streetNameDisplayText": "MACNAB ST N, HAMILTON"
      }
    ]
  },
  {
    "postal": "L8L0H0",
    "result": []
  },
  {
    "postal": "L8L0J3",
    "result": []
  },
  {
    "postal": "L8L1X6",
    "result": [
      {
        "electoralDistricts": [
          {
            "election": null,
            "id": 36,
            "name": "Hamilton Centre"
          }
        ],
        "pollDivisionIds": [
          10138614
        ],
        "postalCode": "L8L1X6",
        "streetName": "MORRIS",
        "streetDirectionId": null,
        "streetTypeId": "AVE",
        "placeName": "HAMILTON",
        "streetNameDisplayText": "MORRIS AVE, HAMILTON"
      }
    ]
  },
  {
    "postal": "L8L2Z6",
    "result": [
      {
        "electoralDistricts": [
          {
            "election": null,
            "id": 36,
            "name": "Hamilton Centre"
          },
          {
            "election": null,
            "id": 37,
            "name": "Hamilton East—Stoney Creek"
          }
        ],
        "pollDivisionIds": [
          10138609,
          10138663
        ],
        "postalCode": "L8L2Z6",
        "streetName": "BARTON",
        "streetDirectionId": "E",
        "streetTypeId": "ST",
        "placeName": "HAMILTON",
        "streetNameDisplayText": "BARTON ST E, HAMILTON"
      }
    ]
  },
  {
    "postal": "L8L4R9",
    "result": [
      {
        "electoralDistricts": [
          {
            "election": null,
            "id": 36,
            "name": "Hamilton Centre"
          }
        ],
        "pollDivisionIds": [
          10138599
        ],
        "postalCode": "L8L4R9",
        "streetName": "JOHN",
        "streetDirectionId": "N",
        "streetTypeId": "ST",
        "placeName": "HAMILTON",
        "streetNameDisplayText": "JOHN ST N, HAMILTON"
      }
    ]
  },
  {
    "postal": "L8L0W8",
    "result": []
  },
  {
    "postal": "L8L1L4",
    "result": [
      {
        "electoralDistricts": [
          {
            "election": null,
            "id": 36,
            "name": "Hamilton Centre"
          }
        ],
        "pollDivisionIds": [
          10138599
        ],
        "postalCode": "L8L1L4",
        "streetName": "MACNAB",
        "streetDirectionId": "N",
        "streetTypeId": "ST",
        "placeName": "HAMILTON",
        "streetNameDisplayText": "MACNAB ST N, HAMILTON"
      }
    ]
  },
  {
    "postal": "L8L0C8",
    "result": []
  },
  {
    "postal": "L8L9X7",
    "result": []
  },
  {
    "postal": "L8L4T1",
    "result": [
      {
        "electoralDistricts": [
          {
            "election": null,
            "id": 36,
            "name": "Hamilton Centre"
          }
        ],
        "pollDivisionIds": [
          10138605
        ],
        "postalCode": "L8L4T1",
        "streetName": "CATHARINE",
        "streetDirectionId": "N",
        "streetTypeId": "ST",
        "placeName": "HAMILTON",
        "streetNameDisplayText": "CATHARINE ST N, HAMILTON"
      }
    ]
  },
  {
    "postal": "L8L0M0",
    "result": []
  },
  {
    "postal": "L8L6A2",
    "result": [
      {
        "electoralDistricts": [
          {
            "election": null,
            "id": 36,
            "name": "Hamilton Centre"
          }
        ],
        "pollDivisionIds": [
          10138609
        ],
        "postalCode": "L8L6A2",
        "streetName": "NIAGARA",
        "streetDirectionId": null,
        "streetTypeId": "ST",
        "placeName": "HAMILTON",
        "streetNameDisplayText": "NIAGARA ST, HAMILTON"
      }
    ]
  },
  {
    "postal": "L8L9S8",
    "result": []
  },
  {
    "postal": "L8L9T4",
    "result": []
  },
  {
    "postal": "L8L9Y4",
    "result": []
  },
  {
    "postal": "L8L6G5",
    "result": [
      {
        "electoralDistricts": [
          {
            "election": null,
            "id": 36,
            "name": "Hamilton Centre"
          }
        ],
        "pollDivisionIds": [
          10138607
        ],
        "postalCode": "L8L6G5",
        "streetName": "STIRTON",
        "streetDirectionId": null,
        "streetTypeId": "ST",
        "placeName": "HAMILTON",
        "streetNameDisplayText": "STIRTON ST, HAMILTON"
      }
    ]
  },
  {
    "postal": "L8L6H9",
    "result": [
      {
        "electoralDistricts": [
          {
            "election": null,
            "id": 36,
            "name": "Hamilton Centre"
          }
        ],
        "pollDivisionIds": [
          10138609
        ],
        "postalCode": "L8L6H9",
        "streetName": "BIRCH",
        "streetDirectionId": null,
        "streetTypeId": "AVE",
        "placeName": "HAMILTON",
        "streetNameDisplayText": "BIRCH AVE, HAMILTON"
      }
    ]
  },
  {
    "postal": "L8L2P3",
    "result": [
      {
        "electoralDistricts": [
          {
            "election": null,
            "id": 36,
            "name": "Hamilton Centre"
          }
        ],
        "pollDivisionIds": [
          10138603
        ],
        "postalCode": "L8L2P3",
        "streetName": "ROBERT",
        "streetDirectionId": null,
        "streetTypeId": "ST",
        "placeName": "HAMILTON",
        "streetNameDisplayText": "ROBERT ST, HAMILTON"
      }
    ]
  },
  {
    "postal": "L8L1T6",
    "result": [
      {
        "electoralDistricts": [
          {
            "election": null,
            "id": 36,
            "name": "Hamilton Centre"
          }
        ],
        "pollDivisionIds": [
          10138610
        ],
        "postalCode": "L8L1T6",
        "streetName": "WILSON",
        "streetDirectionId": null,
        "streetTypeId": "ST",
        "placeName": "HAMILTON",
        "streetNameDisplayText": "WILSON ST, HAMILTON"
      }
    ]
  },
  {
    "postal": "L8L4P6",
    "result": [
      {
        "electoralDistricts": [
          {
            "election": null,
            "id": 36,
            "name": "Hamilton Centre"
          }
        ],
        "pollDivisionIds": [
          10138605
        ],
        "postalCode": "L8L4P6",
        "streetName": "JOHN",
        "streetDirectionId": "N",
        "streetTypeId": "ST",
        "placeName": "HAMILTON",
        "streetNameDisplayText": "JOHN ST N, HAMILTON"
      }
    ]
  },
  {
    "postal": "L8L3K1",
    "result": [
      {
        "electoralDistricts": [
          {
            "election": null,
            "id": 36,
            "name": "Hamilton Centre"
          }
        ],
        "pollDivisionIds": [
          10138616
        ],
        "postalCode": "L8L3K1",
        "streetName": "CLINTON",
        "streetDirectionId": null,
        "streetTypeId": "ST",
        "placeName": "HAMILTON",
        "streetNameDisplayText": "CLINTON ST, HAMILTON"
      }
    ]
  },
  {
    "postal": "L8L6X4",
    "result": [
      {
        "electoralDistricts": [
          {
            "election": null,
            "id": 36,
            "name": "Hamilton Centre"
          }
        ],
        "pollDivisionIds": [
          10138612
        ],
        "postalCode": "L8L6X4",
        "streetName": "MELROSE",
        "streetDirectionId": "N",
        "streetTypeId": "AVE",
        "placeName": "HAMILTON",
        "streetNameDisplayText": "MELROSE AVE N, HAMILTON"
      }
    ]
  },
  {
    "postal": "L8L4M8",
    "result": []
  },
  {
    "postal": "L8L2Y1",
    "result": [
      {
        "electoralDistricts": [
          {
            "election": null,
            "id": 36,
            "name": "Hamilton Centre"
          }
        ],
        "pollDivisionIds": [
          10138609
        ],
        "postalCode": "L8L2Y1",
        "streetName": "BARTON",
        "streetDirectionId": "E",
        "streetTypeId": "ST",
        "placeName": "HAMILTON",
        "streetNameDisplayText": "BARTON ST E, HAMILTON"
      }
    ]
  },
  {
    "postal": "L8L6M1",
    "result": [
      {
        "electoralDistricts": [
          {
            "election": null,
            "id": 36,
            "name": "Hamilton Centre"
          }
        ],
        "pollDivisionIds": [
          10138610
        ],
        "postalCode": "L8L6M1",
        "streetName": "SHERMAN",
        "streetDirectionId": "N",
        "streetTypeId": "AVE",
        "placeName": "HAMILTON",
        "streetNameDisplayText": "SHERMAN AVE N, HAMILTON"
      }
    ]
  },
  {
    "postal": "L8L5L8",
    "result": [
      {
        "electoralDistricts": [
          {
            "election": null,
            "id": 36,
            "name": "Hamilton Centre"
          }
        ],
        "pollDivisionIds": [
          10138609
        ],
        "postalCode": "L8L5L8",
        "streetName": "EMERALD",
        "streetDirectionId": "N",
        "streetTypeId": "ST",
        "placeName": "HAMILTON",
        "streetNameDisplayText": "EMERALD ST N, HAMILTON"
      }
    ]
  },
  {
    "postal": "L8L3P6",
    "result": [
      {
        "electoralDistricts": [
          {
            "election": null,
            "id": 36,
            "name": "Hamilton Centre"
          }
        ],
        "pollDivisionIds": [
          10138609
        ],
        "postalCode": "L8L3P6",
        "streetName": "SHAW",
        "streetDirectionId": null,
        "streetTypeId": "ST",
        "placeName": "HAMILTON",
        "streetNameDisplayText": "SHAW ST, HAMILTON"
      }
    ]
  },
  {
    "postal": "L8L9A5",
    "result": []
  },
  {
    "postal": "L8L7K1",
    "result": [
      {
        "electoralDistricts": [
          {
            "election": null,
            "id": 36,
            "name": "Hamilton Centre"
          }
        ],
        "pollDivisionIds": [
          10138614
        ],
        "postalCode": "L8L7K1",
        "streetName": "GLENDALE",
        "streetDirectionId": "N",
        "streetTypeId": "AVE",
        "placeName": "HAMILTON",
        "streetNameDisplayText": "GLENDALE AVE N, HAMILTON"
      }
    ]
  },
  {
    "postal": "L8L3J4",
    "result": [
      {
        "electoralDistricts": [
          {
            "election": null,
            "id": 36,
            "name": "Hamilton Centre"
          }
        ],
        "pollDivisionIds": [
          10138615
        ],
        "postalCode": "L8L3J4",
        "streetName": "DALHOUSIE",
        "streetDirectionId": null,
        "streetTypeId": "AVE",
        "placeName": "HAMILTON",
        "streetNameDisplayText": "DALHOUSIE AVE, HAMILTON"
      }
    ]
  },
  {
    "postal": "L8L5E7",
    "result": [
      {
        "electoralDistricts": [
          {
            "election": null,
            "id": 36,
            "name": "Hamilton Centre"
          }
        ],
        "pollDivisionIds": [
          10138609
        ],
        "postalCode": "L8L5E7",
        "streetName": "VICTORIA",
        "streetDirectionId": "N",
        "streetTypeId": "AVE",
        "placeName": "HAMILTON",
        "streetNameDisplayText": "VICTORIA AVE N, HAMILTON"
      }
    ]
  },
  {
    "postal": "L8L3A7",
    "result": [
      {
        "electoralDistricts": [
          {
            "election": null,
            "id": 36,
            "name": "Hamilton Centre"
          },
          {
            "election": null,
            "id": 37,
            "name": "Hamilton East—Stoney Creek"
          }
        ],
        "pollDivisionIds": [
          10138616,
          10138663
        ],
        "postalCode": "L8L3A7",
        "streetName": "BARTON",
        "streetDirectionId": "E",
        "streetTypeId": "ST",
        "placeName": "HAMILTON",
        "streetNameDisplayText": "BARTON ST E, HAMILTON"
      }
    ]
  },
  {
    "postal": "L8L1B9",
    "result": [
      {
        "electoralDistricts": [
          {
            "election": null,
            "id": 36,
            "name": "Hamilton Centre"
          }
        ],
        "pollDivisionIds": [
          10138599
        ],
        "postalCode": "L8L1B9",
        "streetName": "SIMCOE",
        "streetDirectionId": "W",
        "streetTypeId": "ST",
        "placeName": "HAMILTON",
        "streetNameDisplayText": "SIMCOE ST W, HAMILTON"
      }
    ]
  },
  {
    "postal": "L8L9E8",
    "result": []
  },
  {
    "postal": "L8L1C9",
    "result": [
      {
        "electoralDistricts": [
          {
            "election": null,
            "id": 36,
            "name": "Hamilton Centre"
          }
        ],
        "pollDivisionIds": [
          10138599
        ],
        "postalCode": "L8L1C9",
        "streetName": "FERRIE",
        "streetDirectionId": "W",
        "streetTypeId": "ST",
        "placeName": "HAMILTON",
        "streetNameDisplayText": "FERRIE ST W, HAMILTON"
      }
    ]
  },
  {
    "postal": "L8L3B5",
    "result": [
      {
        "electoralDistricts": [
          {
            "election": null,
            "id": 36,
            "name": "Hamilton Centre"
          }
        ],
        "pollDivisionIds": [
          10138612
        ],
        "postalCode": "L8L3B5",
        "streetName": "BARTON",
        "streetDirectionId": "E",
        "streetTypeId": "ST",
        "placeName": "HAMILTON",
        "streetNameDisplayText": "BARTON ST E, HAMILTON"
      }
    ]
  },
  {
    "postal": "L8L8R0",
    "result": []
  },
  {
    "postal": "L8L3P2",
    "result": [
      {
        "electoralDistricts": [
          {
            "election": null,
            "id": 36,
            "name": "Hamilton Centre"
          }
        ],
        "pollDivisionIds": [
          10138609
        ],
        "postalCode": "L8L3P2",
        "streetName": "SHAW",
        "streetDirectionId": null,
        "streetTypeId": "ST",
        "placeName": "HAMILTON",
        "streetNameDisplayText": "SHAW ST, HAMILTON"
      }
    ]
  },
  {
    "postal": "L8L5V4",
    "result": [
      {
        "electoralDistricts": [
          {
            "election": null,
            "id": 36,
            "name": "Hamilton Centre"
          }
        ],
        "pollDivisionIds": [
          10138607
        ],
        "postalCode": "L8L5V4",
        "streetName": "WENTWORTH",
        "streetDirectionId": "N",
        "streetTypeId": "ST",
        "placeName": "HAMILTON",
        "streetNameDisplayText": "WENTWORTH ST N, HAMILTON"
      }
    ]
  },
  {
    "postal": "L8L4H0",
    "result": []
  },
  {
    "postal": "L8L4S7",
    "result": [
      {
        "electoralDistricts": [
          {
            "election": null,
            "id": 36,
            "name": "Hamilton Centre"
          }
        ],
        "pollDivisionIds": [
          10138600
        ],
        "postalCode": "L8L4S7",
        "streetName": "CATHARINE",
        "streetDirectionId": "N",
        "streetTypeId": "ST",
        "placeName": "HAMILTON",
        "streetNameDisplayText": "CATHARINE ST N, HAMILTON"
      }
    ]
  },
  {
    "postal": "L8L6C2",
    "result": [
      {
        "electoralDistricts": [
          {
            "election": null,
            "id": 36,
            "name": "Hamilton Centre"
          }
        ],
        "pollDivisionIds": [
          10138609
        ],
        "postalCode": "L8L6C2",
        "streetName": "MCKINSTRY",
        "streetDirectionId": null,
        "streetTypeId": "ST",
        "placeName": "HAMILTON",
        "streetNameDisplayText": "MCKINSTRY ST, HAMILTON"
      }
    ]
  },
  {
    "postal": "L8L8W3",
    "result": []
  },
  {
    "postal": "L8L4M5",
    "result": [
      {
        "electoralDistricts": [
          {
            "election": null,
            "id": 36,
            "name": "Hamilton Centre"
          }
        ],
        "pollDivisionIds": [
          10138605
        ],
        "postalCode": "L8L4M5",
        "streetName": "HUGHSON",
        "streetDirectionId": "N",
        "streetTypeId": "ST",
        "placeName": "HAMILTON",
        "streetNameDisplayText": "HUGHSON ST N, HAMILTON"
      }
    ]
  },
  {
    "postal": "L8L5T1",
    "result": [
      {
        "electoralDistricts": [
          {
            "election": null,
            "id": 36,
            "name": "Hamilton Centre"
          }
        ],
        "pollDivisionIds": [
          10138607
        ],
        "postalCode": "L8L5T1",
        "streetName": "ASHLEY",
        "streetDirectionId": null,
        "streetTypeId": "ST",
        "placeName": "HAMILTON",
        "streetNameDisplayText": "ASHLEY ST, HAMILTON"
      },
      {
        "electoralDistricts": [
          {
            "election": null,
            "id": 39,
            "name": "Hamilton West—Ancaster—Dundas"
          }
        ],
        "pollDivisionIds": [
          10135261
        ],
        "postalCode": "L8L5T1",
        "streetName": "JOHN",
        "streetDirectionId": null,
        "streetTypeId": "ST",
        "placeName": "DUNDAS",
        "streetNameDisplayText": "JOHN ST, DUNDAS"
      }
    ]
  },
  {
    "postal": "L8L3B3",
    "result": [
      {
        "electoralDistricts": [
          {
            "election": null,
            "id": 36,
            "name": "Hamilton Centre"
          }
        ],
        "pollDivisionIds": [
          10138616
        ],
        "postalCode": "L8L3B3",
        "streetName": "BARTON",
        "streetDirectionId": "E",
        "streetTypeId": "ST",
        "placeName": "HAMILTON",
        "streetNameDisplayText": "BARTON ST E, HAMILTON"
      }
    ]
  },
  {
    "postal": "L8L6C6",
    "result": [
      {
        "electoralDistricts": [
          {
            "election": null,
            "id": 36,
            "name": "Hamilton Centre"
          }
        ],
        "pollDivisionIds": [
          10138610
        ],
        "postalCode": "L8L6C6",
        "streetName": "ARTHUR",
        "streetDirectionId": "N",
        "streetTypeId": "AVE",
        "placeName": "HAMILTON",
        "streetNameDisplayText": "ARTHUR AVE N, HAMILTON"
      }
    ]
  },
  {
    "postal": "L8L7N8",
    "result": [
      {
        "electoralDistricts": [
          {
            "election": null,
            "id": 36,
            "name": "Hamilton Centre"
          }
        ],
        "pollDivisionIds": [
          10138614
        ],
        "postalCode": "L8L7N8",
        "streetName": "KENSINGTON",
        "streetDirectionId": "N",
        "streetTypeId": "AVE",
        "placeName": "HAMILTON",
        "streetNameDisplayText": "KENSINGTON AVE N, HAMILTON"
      }
    ]
  },
  {
    "postal": "L8L2Y3",
    "result": [
      {
        "electoralDistricts": [
          {
            "election": null,
            "id": 36,
            "name": "Hamilton Centre"
          }
        ],
        "pollDivisionIds": [
          10138607,
          10138609
        ],
        "postalCode": "L8L2Y3",
        "streetName": "BARTON",
        "streetDirectionId": "E",
        "streetTypeId": "ST",
        "placeName": "HAMILTON",
        "streetNameDisplayText": "BARTON ST E, HAMILTON"
      }
    ]
  },
  {
    "postal": "L8L2R6",
    "result": [
      {
        "electoralDistricts": [
          {
            "election": null,
            "id": 36,
            "name": "Hamilton Centre"
          }
        ],
        "pollDivisionIds": [
          10138609
        ],
        "postalCode": "L8L2R6",
        "streetName": "ROBERT",
        "streetDirectionId": null,
        "streetTypeId": "ST",
        "placeName": "HAMILTON",
        "streetNameDisplayText": "ROBERT ST, HAMILTON"
      }
    ]
  },
  {
    "postal": "L8L7N3",
    "result": [
      {
        "electoralDistricts": [
          {
            "election": null,
            "id": 36,
            "name": "Hamilton Centre"
          }
        ],
        "pollDivisionIds": [
          10138614
        ],
        "postalCode": "L8L7N3",
        "streetName": "KENSINGTON",
        "streetDirectionId": "N",
        "streetTypeId": "AVE",
        "placeName": "HAMILTON",
        "streetNameDisplayText": "KENSINGTON AVE N, HAMILTON"
      }
    ]
  },
  {
    "postal": "L8L8J2",
    "result": []
  },
  {
    "postal": "L8L6A9",
    "result": [
      {
        "electoralDistricts": [
          {
            "election": null,
            "id": 36,
            "name": "Hamilton Centre"
          }
        ],
        "pollDivisionIds": [
          10138609
        ],
        "postalCode": "L8L6A9",
        "streetName": "HILLYARD",
        "streetDirectionId": null,
        "streetTypeId": "ST",
        "placeName": "HAMILTON",
        "streetNameDisplayText": "HILLYARD ST, HAMILTON"
      }
    ]
  },
  {
    "postal": "L8L3V2",
    "result": [
      {
        "electoralDistricts": [
          {
            "election": null,
            "id": 36,
            "name": "Hamilton Centre"
          }
        ],
        "pollDivisionIds": [
          10138609
        ],
        "postalCode": "L8L3V2",
        "streetName": "FRANCIS",
        "streetDirectionId": null,
        "streetTypeId": "ST",
        "placeName": "HAMILTON",
        "streetNameDisplayText": "FRANCIS ST, HAMILTON"
      }
    ]
  },
  {
    "postal": "L8L2N3",
    "result": [
      {
        "electoralDistricts": [
          {
            "election": null,
            "id": 36,
            "name": "Hamilton Centre"
          }
        ],
        "pollDivisionIds": [
          10138615
        ],
        "postalCode": "L8L2N3",
        "streetName": "CAMPBELL",
        "streetDirectionId": null,
        "streetTypeId": "AVE",
        "placeName": "HAMILTON",
        "streetNameDisplayText": "CAMPBELL AVE, HAMILTON"
      }
    ]
  },
  {
    "postal": "L8L1S5",
    "result": []
  },
  {
    "postal": "L8L4T7",
    "result": [
      {
        "electoralDistricts": [
          {
            "election": null,
            "id": 36,
            "name": "Hamilton Centre"
          }
        ],
        "pollDivisionIds": [
          10138599
        ],
        "postalCode": "L8L4T7",
        "streetName": "CATHARINE",
        "streetDirectionId": "N",
        "streetTypeId": "ST",
        "placeName": "HAMILTON",
        "streetNameDisplayText": "CATHARINE ST N, HAMILTON"
      }
    ]
  },
  {
    "postal": "L8L6Y7",
    "result": [
      {
        "electoralDistricts": [
          {
            "election": null,
            "id": 36,
            "name": "Hamilton Centre"
          }
        ],
        "pollDivisionIds": [
          10138612
        ],
        "postalCode": "L8L6Y7",
        "streetName": "CONNAUGHT",
        "streetDirectionId": "N",
        "streetTypeId": "AVE",
        "placeName": "HAMILTON",
        "streetNameDisplayText": "CONNAUGHT AVE N, HAMILTON"
      }
    ]
  },
  {
    "postal": "L8L0W7",
    "result": []
  },
  {
    "postal": "L8L2W9",
    "result": []
  },
  {
    "postal": "L8L8V0",
    "result": []
  },
  {
    "postal": "L8L0H4",
    "result": []
  },
  {
    "postal": "L8L2T1",
    "result": [
      {
        "electoralDistricts": [
          {
            "election": null,
            "id": 36,
            "name": "Hamilton Centre"
          }
        ],
        "pollDivisionIds": [
          10138614
        ],
        "postalCode": "L8L2T1",
        "streetName": "BEECHWOOD",
        "streetDirectionId": null,
        "streetTypeId": "AVE",
        "placeName": "HAMILTON",
        "streetNameDisplayText": "BEECHWOOD AVE, HAMILTON"
      }
    ]
  },
  {
    "postal": "L8L1B1",
    "result": [
      {
        "electoralDistricts": [
          {
            "election": null,
            "id": 36,
            "name": "Hamilton Centre"
          }
        ],
        "pollDivisionIds": [
          10138599
        ],
        "postalCode": "L8L1B1",
        "streetName": "MURRAY",
        "streetDirectionId": "W",
        "streetTypeId": "ST",
        "placeName": "HAMILTON",
        "streetNameDisplayText": "MURRAY ST W, HAMILTON"
      }
    ]
  },
  {
    "postal": "L8L8B6",
    "result": []
  },
  {
    "postal": "L8L6H1",
    "result": [
      {
        "electoralDistricts": [
          {
            "election": null,
            "id": 36,
            "name": "Hamilton Centre"
          }
        ],
        "pollDivisionIds": [
          10138610
        ],
        "postalCode": "L8L6H1",
        "streetName": "FAIRLEIGH",
        "streetDirectionId": "N",
        "streetTypeId": "AVE",
        "placeName": "HAMILTON",
        "streetNameDisplayText": "FAIRLEIGH AVE N, HAMILTON"
      }
    ]
  },
  {
    "postal": "L8L8T8",
    "result": []
  },
  {
    "postal": "L8L0T4",
    "result": []
  },
  {
    "postal": "L8L2C4",
    "result": [
      {
        "electoralDistricts": [
          {
            "election": null,
            "id": 36,
            "name": "Hamilton Centre"
          }
        ],
        "pollDivisionIds": [
          10138607
        ],
        "postalCode": "L8L2C4",
        "streetName": "CANNON",
        "streetDirectionId": "E",
        "streetTypeId": "ST",
        "placeName": "HAMILTON",
        "streetNameDisplayText": "CANNON ST E, HAMILTON"
      }
    ]
  },
  {
    "postal": "L8L8N3",
    "result": []
  },
  {
    "postal": "L8L4L8",
    "result": [
      {
        "electoralDistricts": [
          {
            "election": null,
            "id": 36,
            "name": "Hamilton Centre"
          }
        ],
        "pollDivisionIds": [
          10138599
        ],
        "postalCode": "L8L4L8",
        "streetName": "GUISE",
        "streetDirectionId": "E",
        "streetTypeId": "ST",
        "placeName": "HAMILTON",
        "streetNameDisplayText": "GUISE ST E, HAMILTON"
      }
    ]
  },
  {
    "postal": "L8L2B5",
    "result": [
      {
        "electoralDistricts": [
          {
            "election": null,
            "id": 36,
            "name": "Hamilton Centre"
          }
        ],
        "pollDivisionIds": [
          10138609
        ],
        "postalCode": "L8L2B5",
        "streetName": "CANNON",
        "streetDirectionId": "E",
        "streetTypeId": "ST",
        "placeName": "HAMILTON",
        "streetNameDisplayText": "CANNON ST E, HAMILTON"
      }
    ]
  },
  {
    "postal": "L8L3H1",
    "result": [
      {
        "electoralDistricts": [
          {
            "election": null,
            "id": 36,
            "name": "Hamilton Centre"
          }
        ],
        "pollDivisionIds": [
          10138615
        ],
        "postalCode": "L8L3H1",
        "streetName": "GORDON",
        "streetDirectionId": null,
        "streetTypeId": "ST",
        "placeName": "HAMILTON",
        "streetNameDisplayText": "GORDON ST, HAMILTON"
      }
    ]
  },
  {
    "postal": "L8L4Y1",
    "result": [
      {
        "electoralDistricts": [
          {
            "election": null,
            "id": 36,
            "name": "Hamilton Centre"
          }
        ],
        "pollDivisionIds": [
          10138600
        ],
        "postalCode": "L8L4Y1",
        "streetName": "ELGIN",
        "streetDirectionId": null,
        "streetTypeId": "ST",
        "placeName": "HAMILTON",
        "streetNameDisplayText": "ELGIN ST, HAMILTON"
      }
    ]
  },
  {
    "postal": "L8L7E2",
    "result": [
      {
        "electoralDistricts": [
          {
            "election": null,
            "id": 36,
            "name": "Hamilton Centre"
          }
        ],
        "pollDivisionIds": [
          10138614
        ],
        "postalCode": "L8L7E2",
        "streetName": "EAST BEND",
        "streetDirectionId": "N",
        "streetTypeId": "AVE",
        "placeName": "HAMILTON",
        "streetNameDisplayText": "EAST BEND AVE N, HAMILTON"
      }
    ]
  },
  {
    "postal": "L8L2P5",
    "result": [
      {
        "electoralDistricts": [
          {
            "election": null,
            "id": 36,
            "name": "Hamilton Centre"
          }
        ],
        "pollDivisionIds": [
          10138600
        ],
        "postalCode": "L8L2P5",
        "streetName": "ROBERT",
        "streetDirectionId": null,
        "streetTypeId": "ST",
        "placeName": "HAMILTON",
        "streetNameDisplayText": "ROBERT ST, HAMILTON"
      }
    ]
  },
  {
    "postal": "L8L8R7",
    "result": []
  },
  {
    "postal": "L8L9P1",
    "result": []
  },
  {
    "postal": "L8L3B8",
    "result": [
      {
        "electoralDistricts": [
          {
            "election": null,
            "id": 36,
            "name": "Hamilton Centre"
          },
          {
            "election": null,
            "id": 37,
            "name": "Hamilton East—Stoney Creek"
          }
        ],
        "pollDivisionIds": [
          10138615,
          10138663
        ],
        "postalCode": "L8L3B8",
        "streetName": "BARTON",
        "streetDirectionId": "E",
        "streetTypeId": "ST",
        "placeName": "HAMILTON",
        "streetNameDisplayText": "BARTON ST E, HAMILTON"
      }
    ]
  },
  {
    "postal": "L8L3P7",
    "result": [
      {
        "electoralDistricts": [
          {
            "election": null,
            "id": 36,
            "name": "Hamilton Centre"
          }
        ],
        "pollDivisionIds": [
          10138609
        ],
        "postalCode": "L8L3P7",
        "streetName": "SHAW",
        "streetDirectionId": null,
        "streetTypeId": "ST",
        "placeName": "HAMILTON",
        "streetNameDisplayText": "SHAW ST, HAMILTON"
      }
    ]
  },
  {
    "postal": "L8L9B2",
    "result": []
  },
  {
    "postal": "L8L6Z3",
    "result": [
      {
        "electoralDistricts": [
          {
            "election": null,
            "id": 36,
            "name": "Hamilton Centre"
          }
        ],
        "pollDivisionIds": [
          10138612
        ],
        "postalCode": "L8L6Z3",
        "streetName": "CONNAUGHT",
        "streetDirectionId": "N",
        "streetTypeId": "AVE",
        "placeName": "HAMILTON",
        "streetNameDisplayText": "CONNAUGHT AVE N, HAMILTON"
      }
    ]
  },
  {
    "postal": "L8L4N5",
    "result": [
      {
        "electoralDistricts": [
          {
            "election": null,
            "id": 36,
            "name": "Hamilton Centre"
          }
        ],
        "pollDivisionIds": [
          10138599
        ],
        "postalCode": "L8L4N5",
        "streetName": "HUGHSON",
        "streetDirectionId": "N",
        "streetTypeId": "ST",
        "placeName": "HAMILTON",
        "streetNameDisplayText": "HUGHSON ST N, HAMILTON"
      }
    ]
  },
  {
    "postal": "L8L8T3",
    "result": []
  },
  {
    "postal": "L8L1V2",
    "result": [
      {
        "electoralDistricts": [
          {
            "election": null,
            "id": 36,
            "name": "Hamilton Centre"
          }
        ],
        "pollDivisionIds": [
          10138610
        ],
        "postalCode": "L8L1V2",
        "streetName": "WILSON",
        "streetDirectionId": null,
        "streetTypeId": "ST",
        "placeName": "HAMILTON",
        "streetNameDisplayText": "WILSON ST, HAMILTON"
      }
    ]
  },
  {
    "postal": "L8L1Y0",
    "result": []
  },
  {
    "postal": "L8L3G6",
    "result": [
      {
        "electoralDistricts": [
          {
            "election": null,
            "id": 36,
            "name": "Hamilton Centre"
          }
        ],
        "pollDivisionIds": [
          10138616
        ],
        "postalCode": "L8L3G6",
        "streetName": "CASE",
        "streetDirectionId": null,
        "streetTypeId": "ST",
        "placeName": "HAMILTON",
        "streetNameDisplayText": "CASE ST, HAMILTON"
      }
    ]
  },
  {
    "postal": "L8L3H7",
    "result": [
      {
        "electoralDistricts": [
          {
            "election": null,
            "id": 36,
            "name": "Hamilton Centre"
          }
        ],
        "pollDivisionIds": [
          10138615
        ],
        "postalCode": "L8L3H7",
        "streetName": "CLUNY",
        "streetDirectionId": null,
        "streetTypeId": "AVE",
        "placeName": "HAMILTON",
        "streetNameDisplayText": "CLUNY AVE, HAMILTON"
      }
    ]
  },
  {
    "postal": "L8L7X8",
    "result": []
  },
  {
    "postal": "L8L0C7",
    "result": [
      {
        "electoralDistricts": [
          {
            "election": null,
            "id": 36,
            "name": "Hamilton Centre"
          }
        ],
        "pollDivisionIds": [
          10138599
        ],
        "postalCode": "L8L0C7",
        "streetName": "BROCK",
        "streetDirectionId": null,
        "streetTypeId": "ST",
        "placeName": "HAMILTON",
        "streetNameDisplayText": "BROCK ST, HAMILTON"
      }
    ]
  },
  {
    "postal": "L8L0W9",
    "result": []
  },
  {
    "postal": "L8L8E6",
    "result": []
  },
  {
    "postal": "L8L9Z8",
    "result": []
  },
  {
    "postal": "L8L3P4",
    "result": [
      {
        "electoralDistricts": [
          {
            "election": null,
            "id": 36,
            "name": "Hamilton Centre"
          }
        ],
        "pollDivisionIds": [
          10138609
        ],
        "postalCode": "L8L3P4",
        "streetName": "SHAW",
        "streetDirectionId": null,
        "streetTypeId": "ST",
        "placeName": "HAMILTON",
        "streetNameDisplayText": "SHAW ST, HAMILTON"
      }
    ]
  },
  {
    "postal": "L8L6L8",
    "result": [
      {
        "electoralDistricts": [
          {
            "election": null,
            "id": 36,
            "name": "Hamilton Centre"
          }
        ],
        "pollDivisionIds": [
          10138612
        ],
        "postalCode": "L8L6L8",
        "streetName": "SHERMAN",
        "streetDirectionId": "N",
        "streetTypeId": "AVE",
        "placeName": "HAMILTON",
        "streetNameDisplayText": "SHERMAN AVE N, HAMILTON"
      }
    ]
  },
  {
    "postal": "L8L2R4",
    "result": [
      {
        "electoralDistricts": [
          {
            "election": null,
            "id": 36,
            "name": "Hamilton Centre"
          }
        ],
        "pollDivisionIds": [
          10138609
        ],
        "postalCode": "L8L2R4",
        "streetName": "ROBERT",
        "streetDirectionId": null,
        "streetTypeId": "ST",
        "placeName": "HAMILTON",
        "streetNameDisplayText": "ROBERT ST, HAMILTON"
      }
    ]
  },
  {
    "postal": "L8L2W1",
    "result": [
      {
        "electoralDistricts": [
          {
            "election": null,
            "id": 36,
            "name": "Hamilton Centre"
          }
        ],
        "pollDivisionIds": [
          10138605
        ],
        "postalCode": "L8L2W1",
        "streetName": "BARTON",
        "streetDirectionId": "E",
        "streetTypeId": "ST",
        "placeName": "HAMILTON",
        "streetNameDisplayText": "BARTON ST E, HAMILTON"
      }
    ]
  },
  {
    "postal": "L8L9H8",
    "result": []
  },
  {
    "postal": "L8L8X9",
    "result": []
  },
  {
    "postal": "L8L7H4",
    "result": [
      {
        "electoralDistricts": [
          {
            "election": null,
            "id": 36,
            "name": "Hamilton Centre"
          }
        ],
        "pollDivisionIds": [
          10138616
        ],
        "postalCode": "L8L7H4",
        "streetName": "ROWANWOOD",
        "streetDirectionId": null,
        "streetTypeId": "ST",
        "placeName": "HAMILTON",
        "streetNameDisplayText": "ROWANWOOD ST, HAMILTON"
      }
    ]
  },
  {
    "postal": "L8L3J1",
    "result": [
      {
        "electoralDistricts": [
          {
            "election": null,
            "id": 36,
            "name": "Hamilton Centre"
          }
        ],
        "pollDivisionIds": [
          10138615
        ],
        "postalCode": "L8L3J1",
        "streetName": "CRAIGMILLER",
        "streetDirectionId": null,
        "streetTypeId": "AVE",
        "placeName": "HAMILTON",
        "streetNameDisplayText": "CRAIGMILLER AVE, HAMILTON"
      }
    ]
  },
  {
    "postal": "L8L1P4",
    "result": [
      {
        "electoralDistricts": [
          {
            "election": null,
            "id": 36,
            "name": "Hamilton Centre"
          }
        ],
        "pollDivisionIds": [
          10138607
        ],
        "postalCode": "L8L1P4",
        "streetName": "KING WILLIAM",
        "streetDirectionId": null,
        "streetTypeId": "ST",
        "placeName": "HAMILTON",
        "streetNameDisplayText": "KING WILLIAM ST, HAMILTON"
      }
    ]
  },
  {
    "postal": "L8L2A3",
    "result": [
      {
        "electoralDistricts": [
          {
            "election": null,
            "id": 36,
            "name": "Hamilton Centre"
          }
        ],
        "pollDivisionIds": [
          10138603
        ],
        "postalCode": "L8L2A3",
        "streetName": "CANNON",
        "streetDirectionId": "E",
        "streetTypeId": "ST",
        "placeName": "HAMILTON",
        "streetNameDisplayText": "CANNON ST E, HAMILTON"
      }
    ]
  },
  {
    "postal": "L8L0Z1",
    "result": []
  },
  {
    "postal": "L8L1C1",
    "result": [
      {
        "electoralDistricts": [
          {
            "election": null,
            "id": 36,
            "name": "Hamilton Centre"
          }
        ],
        "pollDivisionIds": [
          10138599
        ],
        "postalCode": "L8L1C1",
        "streetName": "SIMCOE",
        "streetDirectionId": "W",
        "streetTypeId": "ST",
        "placeName": "HAMILTON",
        "streetNameDisplayText": "SIMCOE ST W, HAMILTON"
      }
    ]
  },
  {
    "postal": "L8L0H3",
    "result": []
  },
  {
    "postal": "L8L7B0",
    "result": []
  },
  {
    "postal": "L8L5K2",
    "result": [
      {
        "electoralDistricts": [
          {
            "election": null,
            "id": 36,
            "name": "Hamilton Centre"
          }
        ],
        "pollDivisionIds": [
          10138607
        ],
        "postalCode": "L8L5K2",
        "streetName": "EMERALD",
        "streetDirectionId": "N",
        "streetTypeId": "ST",
        "placeName": "HAMILTON",
        "streetNameDisplayText": "EMERALD ST N, HAMILTON"
      },
      {
        "electoralDistricts": [
          {
            "election": null,
            "id": 36,
            "name": "Hamilton Centre"
          }
        ],
        "pollDivisionIds": [
          10138607
        ],
        "postalCode": "L8L5K2",
        "streetName": "EMERALD",
        "streetDirectionId": "S",
        "streetTypeId": "ST",
        "placeName": "HAMILTON",
        "streetNameDisplayText": "EMERALD ST S, HAMILTON"
      }
    ]
  },
  {
    "postal": "L8L1E9",
    "result": [
      {
        "electoralDistricts": [
          {
            "election": null,
            "id": 36,
            "name": "Hamilton Centre"
          }
        ],
        "pollDivisionIds": [
          10138599
        ],
        "postalCode": "L8L1E9",
        "streetName": "WOOD",
        "streetDirectionId": "W",
        "streetTypeId": "ST",
        "placeName": "HAMILTON",
        "streetNameDisplayText": "WOOD ST W, HAMILTON"
      }
    ]
  },
  {
    "postal": "L8L9W7",
    "result": []
  },
  {
    "postal": "L8L5W6",
    "result": [
      {
        "electoralDistricts": [
          {
            "election": null,
            "id": 36,
            "name": "Hamilton Centre"
          }
        ],
        "pollDivisionIds": [
          10138609
        ],
        "postalCode": "L8L5W6",
        "streetName": "WENTWORTH",
        "streetDirectionId": "N",
        "streetTypeId": "ST",
        "placeName": "HAMILTON",
        "streetNameDisplayText": "WENTWORTH ST N, HAMILTON"
      }
    ]
  },
  {
    "postal": "L8L6S6",
    "result": []
  },
  {
    "postal": "L8L2P8",
    "result": [
      {
        "electoralDistricts": [
          {
            "election": null,
            "id": 36,
            "name": "Hamilton Centre"
          }
        ],
        "pollDivisionIds": [
          10138609
        ],
        "postalCode": "L8L2P8",
        "streetName": "ROBERT",
        "streetDirectionId": null,
        "streetTypeId": "ST",
        "placeName": "HAMILTON",
        "streetNameDisplayText": "ROBERT ST, HAMILTON"
      }
    ]
  },
  {
    "postal": "L8L4P8",
    "result": [
      {
        "electoralDistricts": [
          {
            "election": null,
            "id": 36,
            "name": "Hamilton Centre"
          }
        ],
        "pollDivisionIds": [
          10138605
        ],
        "postalCode": "L8L4P8",
        "streetName": "JOHN",
        "streetDirectionId": "N",
        "streetTypeId": "ST",
        "placeName": "HAMILTON",
        "streetNameDisplayText": "JOHN ST N, HAMILTON"
      }
    ]
  },
  {
    "postal": "L8L0V9",
    "result": []
  },
  {
    "postal": "L8L5Y2",
    "result": [
      {
        "electoralDistricts": [
          {
            "election": null,
            "id": 36,
            "name": "Hamilton Centre"
          }
        ],
        "pollDivisionIds": [
          10138607
        ],
        "postalCode": "L8L5Y2",
        "streetName": "MADISON",
        "streetDirectionId": null,
        "streetTypeId": "AVE",
        "placeName": "HAMILTON",
        "streetNameDisplayText": "MADISON AVE, HAMILTON"
      }
    ]
  },
  {
    "postal": "L8L7Z7",
    "result": [
      {
        "electoralDistricts": [
          {
            "election": null,
            "id": 36,
            "name": "Hamilton Centre"
          }
        ],
        "pollDivisionIds": [
          10138603
        ],
        "postalCode": "L8L7Z7",
        "streetName": "JOHN",
        "streetDirectionId": "N",
        "streetTypeId": "ST",
        "placeName": "HAMILTON",
        "streetNameDisplayText": "JOHN ST N, HAMILTON"
      }
    ]
  },
  {
    "postal": "L8L6Y8",
    "result": [
      {
        "electoralDistricts": [
          {
            "election": null,
            "id": 36,
            "name": "Hamilton Centre"
          }
        ],
        "pollDivisionIds": [
          10138612
        ],
        "postalCode": "L8L6Y8",
        "streetName": "CONNAUGHT",
        "streetDirectionId": "N",
        "streetTypeId": "AVE",
        "placeName": "HAMILTON",
        "streetNameDisplayText": "CONNAUGHT AVE N, HAMILTON"
      }
    ]
  },
  {
    "postal": "L8L2G7",
    "result": [
      {
        "electoralDistricts": [
          {
            "election": null,
            "id": 36,
            "name": "Hamilton Centre"
          }
        ],
        "pollDivisionIds": [
          10138610
        ],
        "postalCode": "L8L2G7",
        "streetName": "CANNON",
        "streetDirectionId": "E",
        "streetTypeId": "ST",
        "placeName": "HAMILTON",
        "streetNameDisplayText": "CANNON ST E, HAMILTON"
      }
    ]
  },
  {
    "postal": "L8L8C1",
    "result": []
  },
  {
    "postal": "L8L5C5",
    "result": [
      {
        "electoralDistricts": [
          {
            "election": null,
            "id": 36,
            "name": "Hamilton Centre"
          }
        ],
        "pollDivisionIds": [
          10138609
        ],
        "postalCode": "L8L5C5",
        "streetName": "WEST",
        "streetDirectionId": "N",
        "streetTypeId": "AVE",
        "placeName": "HAMILTON",
        "streetNameDisplayText": "WEST AVE N, HAMILTON"
      }
    ]
  },
  {
    "postal": "L8L2X8",
    "result": [
      {
        "electoralDistricts": [
          {
            "election": null,
            "id": 36,
            "name": "Hamilton Centre"
          }
        ],
        "pollDivisionIds": [
          10138609
        ],
        "postalCode": "L8L2X8",
        "streetName": "BARTON",
        "streetDirectionId": "E",
        "streetTypeId": "ST",
        "placeName": "HAMILTON",
        "streetNameDisplayText": "BARTON ST E, HAMILTON"
      }
    ]
  },
  {
    "postal": "L8L1W5",
    "result": [
      {
        "electoralDistricts": [
          {
            "election": null,
            "id": 36,
            "name": "Hamilton Centre"
          }
        ],
        "pollDivisionIds": [
          10138609
        ],
        "postalCode": "L8L1W5",
        "streetName": "EVANS",
        "streetDirectionId": null,
        "streetTypeId": "ST",
        "placeName": "HAMILTON",
        "streetNameDisplayText": "EVANS ST, HAMILTON"
      }
    ]
  },
  {
    "postal": "L8L7G0",
    "result": []
  },
  {
    "postal": "L8L8J8",
    "result": []
  },
  {
    "postal": "L8L3Y0",
    "result": []
  },
  {
    "postal": "L8L9T7",
    "result": []
  },
  {
    "postal": "L8L5P4",
    "result": [
      {
        "electoralDistricts": [
          {
            "election": null,
            "id": 36,
            "name": "Hamilton Centre"
          }
        ],
        "pollDivisionIds": [
          10138609
        ],
        "postalCode": "L8L5P4",
        "streetName": "ST MATTHEWS",
        "streetDirectionId": null,
        "streetTypeId": "AVE",
        "placeName": "HAMILTON",
        "streetNameDisplayText": "ST MATTHEWS AVE, HAMILTON"
      },
      {
        "electoralDistricts": [
          {
            "election": null,
            "id": 36,
            "name": "Hamilton Centre"
          }
        ],
        "pollDivisionIds": [
          10138609
        ],
        "postalCode": "L8L5P4",
        "streetName": "ST MATTHEW'S",
        "streetDirectionId": null,
        "streetTypeId": "AVE",
        "placeName": "HAMILTON",
        "streetNameDisplayText": "ST MATTHEW'S AVE, HAMILTON"
      }
    ]
  },
  {
    "postal": "L8L4B0",
    "result": []
  },
  {
    "postal": "L8L9N8",
    "result": []
  },
  {
    "postal": "L8L4A7",
    "result": [
      {
        "electoralDistricts": [
          {
            "election": null,
            "id": 36,
            "name": "Hamilton Centre"
          }
        ],
        "pollDivisionIds": [
          10138616
        ],
        "postalCode": "L8L4A7",
        "streetName": "BEACH",
        "streetDirectionId": null,
        "streetTypeId": "RD",
        "placeName": "HAMILTON",
        "streetNameDisplayText": "BEACH RD, HAMILTON"
      }
    ]
  },
  {
    "postal": "L8L4H9",
    "result": []
  },
  {
    "postal": "L8L6X1",
    "result": [
      {
        "electoralDistricts": [
          {
            "election": null,
            "id": 36,
            "name": "Hamilton Centre"
          }
        ],
        "pollDivisionIds": [
          10138616
        ],
        "postalCode": "L8L6X1",
        "streetName": "LANCASTER",
        "streetDirectionId": null,
        "streetTypeId": "ST",
        "placeName": "HAMILTON",
        "streetNameDisplayText": "LANCASTER ST, HAMILTON"
      }
    ]
  },
  {
    "postal": "L8L9Y7",
    "result": []
  },
  {
    "postal": "L8L2Y5",
    "result": [
      {
        "electoralDistricts": [
          {
            "election": null,
            "id": 36,
            "name": "Hamilton Centre"
          }
        ],
        "pollDivisionIds": [
          10138609
        ],
        "postalCode": "L8L2Y5",
        "streetName": "BARTON",
        "streetDirectionId": "E",
        "streetTypeId": "ST",
        "placeName": "HAMILTON",
        "streetNameDisplayText": "BARTON ST E, HAMILTON"
      }
    ]
  },
  {
    "postal": "L8L8L7",
    "result": []
  },
  {
    "postal": "L8L2A8",
    "result": [
      {
        "electoralDistricts": [
          {
            "election": null,
            "id": 36,
            "name": "Hamilton Centre"
          }
        ],
        "pollDivisionIds": [
          10138603
        ],
        "postalCode": "L8L2A8",
        "streetName": "CANNON",
        "streetDirectionId": "E",
        "streetTypeId": "ST",
        "placeName": "HAMILTON",
        "streetNameDisplayText": "CANNON ST E, HAMILTON"
      }
    ]
  },
  {
    "postal": "L8L2K9",
    "result": [
      {
        "electoralDistricts": [
          {
            "election": null,
            "id": 36,
            "name": "Hamilton Centre"
          }
        ],
        "pollDivisionIds": [
          10138614
        ],
        "postalCode": "L8L2K9",
        "streetName": "PRIMROSE",
        "streetDirectionId": null,
        "streetTypeId": "AVE",
        "placeName": "HAMILTON",
        "streetNameDisplayText": "PRIMROSE AVE, HAMILTON"
      }
    ]
  },
  {
    "postal": "L8L3E5",
    "result": [
      {
        "electoralDistricts": [
          {
            "election": null,
            "id": 37,
            "name": "Hamilton East—Stoney Creek"
          },
          {
            "election": null,
            "id": 36,
            "name": "Hamilton Centre"
          }
        ],
        "pollDivisionIds": [
          10138669,
          10138615,
          10138605
        ],
        "postalCode": "L8L3E5",
        "streetName": "BARTON",
        "streetDirectionId": "E",
        "streetTypeId": "ST",
        "placeName": "HAMILTON",
        "streetNameDisplayText": "BARTON ST E, HAMILTON"
      }
    ]
  },
  {
    "postal": "L8L8N6",
    "result": []
  },
  {
    "postal": "L8L8J4",
    "result": []
  },
  {
    "postal": "L8L4R7",
    "result": [
      {
        "electoralDistricts": [
          {
            "election": null,
            "id": 36,
            "name": "Hamilton Centre"
          }
        ],
        "pollDivisionIds": [
          10138605
        ],
        "postalCode": "L8L4R7",
        "streetName": "JOHN",
        "streetDirectionId": "N",
        "streetTypeId": "ST",
        "placeName": "HAMILTON",
        "streetNameDisplayText": "JOHN ST N, HAMILTON"
      }
    ]
  },
  {
    "postal": "L8L9K1",
    "result": []
  },
  {
    "postal": "L8L8E1",
    "result": [
      {
        "electoralDistricts": [
          {
            "election": null,
            "id": 36,
            "name": "Hamilton Centre"
          }
        ],
        "pollDivisionIds": [
          10138615
        ],
        "postalCode": "L8L8E1",
        "streetName": "LINDEN",
        "streetDirectionId": null,
        "streetTypeId": "ST",
        "placeName": "HAMILTON",
        "streetNameDisplayText": "LINDEN ST, HAMILTON"
      }
    ]
  },
  {
    "postal": "L8L0R1",
    "result": []
  },
  {
    "postal": "L8L4J3",
    "result": [
      {
        "electoralDistricts": [
          {
            "election": null,
            "id": 36,
            "name": "Hamilton Centre"
          }
        ],
        "pollDivisionIds": [
          10138609
        ],
        "postalCode": "L8L4J3",
        "streetName": "BURLINGTON",
        "streetDirectionId": "E",
        "streetTypeId": "ST",
        "placeName": "HAMILTON",
        "streetNameDisplayText": "BURLINGTON ST E, HAMILTON"
      }
    ]
  },
  {
    "postal": "L8L7E7",
    "result": [
      {
        "electoralDistricts": [
          {
            "election": null,
            "id": 36,
            "name": "Hamilton Centre"
          }
        ],
        "pollDivisionIds": [
          10138614
        ],
        "postalCode": "L8L7E7",
        "streetName": "CAVELL",
        "streetDirectionId": null,
        "streetTypeId": "AVE",
        "placeName": "HAMILTON",
        "streetNameDisplayText": "CAVELL AVE, HAMILTON"
      }
    ]
  },
  {
    "postal": "L8L0J0",
    "result": []
  },
  {
    "postal": "L8L7R8",
    "result": [
      {
        "electoralDistricts": [
          {
            "election": null,
            "id": 36,
            "name": "Hamilton Centre"
          }
        ],
        "pollDivisionIds": [
          10138614
        ],
        "postalCode": "L8L7R8",
        "streetName": "BALMORAL",
        "streetDirectionId": "N",
        "streetTypeId": "AVE",
        "placeName": "HAMILTON",
        "streetNameDisplayText": "BALMORAL AVE N, HAMILTON"
      }
    ]
  },
  {
    "postal": "L8L9X0",
    "result": []
  },
  {
    "postal": "L8L7P6",
    "result": [
      {
        "electoralDistricts": [
          {
            "election": null,
            "id": 36,
            "name": "Hamilton Centre"
          }
        ],
        "pollDivisionIds": [
          10138614
        ],
        "postalCode": "L8L7P6",
        "streetName": "ROSSLYN",
        "streetDirectionId": "N",
        "streetTypeId": "AVE",
        "placeName": "HAMILTON",
        "streetNameDisplayText": "ROSSLYN AVE N, HAMILTON"
      }
    ]
  },
  {
    "postal": "L8L0R7",
    "result": []
  },
  {
    "postal": "L8L5W1",
    "result": [
      {
        "electoralDistricts": [
          {
            "election": null,
            "id": 36,
            "name": "Hamilton Centre"
          }
        ],
        "pollDivisionIds": [
          10138609
        ],
        "postalCode": "L8L5W1",
        "streetName": "WENTWORTH",
        "streetDirectionId": "N",
        "streetTypeId": "ST",
        "placeName": "HAMILTON",
        "streetNameDisplayText": "WENTWORTH ST N, HAMILTON"
      }
    ]
  },
  {
    "postal": "L8L0K4",
    "result": []
  },
  {
    "postal": "L8L7N9",
    "result": [
      {
        "electoralDistricts": [
          {
            "election": null,
            "id": 36,
            "name": "Hamilton Centre"
          }
        ],
        "pollDivisionIds": [
          10138614
        ],
        "postalCode": "L8L7N9",
        "streetName": "KENSINGTON",
        "streetDirectionId": "N",
        "streetTypeId": "AVE",
        "placeName": "HAMILTON",
        "streetNameDisplayText": "KENSINGTON AVE N, HAMILTON"
      }
    ]
  },
  {
    "postal": "L8L1N0",
    "result": []
  },
  {
    "postal": "L8L6P3",
    "result": []
  },
  {
    "postal": "L8L5A1",
    "result": [
      {
        "electoralDistricts": [
          {
            "election": null,
            "id": 36,
            "name": "Hamilton Centre"
          }
        ],
        "pollDivisionIds": [
          10138609
        ],
        "postalCode": "L8L5A1",
        "streetName": "CATHCART",
        "streetDirectionId": null,
        "streetTypeId": "ST",
        "placeName": "HAMILTON",
        "streetNameDisplayText": "CATHCART ST, HAMILTON"
      }
    ]
  },
  {
    "postal": "L8L9M9",
    "result": []
  },
  {
    "postal": "L8L7T6",
    "result": []
  },
  {
    "postal": "L8L3X0",
    "result": []
  },
  {
    "postal": "L8L2T0",
    "result": []
  },
  {
    "postal": "L8L5X9",
    "result": [
      {
        "electoralDistricts": [
          {
            "election": null,
            "id": 36,
            "name": "Hamilton Centre"
          }
        ],
        "pollDivisionIds": [
          10138607
        ],
        "postalCode": "L8L5X9",
        "streetName": "ADAMS",
        "streetDirectionId": null,
        "streetTypeId": "ST",
        "placeName": "HAMILTON",
        "streetNameDisplayText": "ADAMS ST, HAMILTON"
      }
    ]
  },
  {
    "postal": "L8L2R3",
    "result": [
      {
        "electoralDistricts": [
          {
            "election": null,
            "id": 36,
            "name": "Hamilton Centre"
          }
        ],
        "pollDivisionIds": [
          10138609
        ],
        "postalCode": "L8L2R3",
        "streetName": "ROBERT",
        "streetDirectionId": null,
        "streetTypeId": "ST",
        "placeName": "HAMILTON",
        "streetNameDisplayText": "ROBERT ST, HAMILTON"
      }
    ]
  },
  {
    "postal": "L8L5N2",
    "result": [
      {
        "electoralDistricts": [
          {
            "election": null,
            "id": 37,
            "name": "Hamilton East—Stoney Creek"
          }
        ],
        "pollDivisionIds": [
          10138656
        ],
        "postalCode": "L8L5N2",
        "streetName": "ST STEVEN",
        "streetDirectionId": null,
        "streetTypeId": "ST",
        "placeName": "HAMILTON",
        "streetNameDisplayText": "ST STEVEN ST, HAMILTON"
      },
      {
        "electoralDistricts": [
          {
            "election": null,
            "id": 36,
            "name": "Hamilton Centre"
          }
        ],
        "pollDivisionIds": [
          10138607
        ],
        "postalCode": "L8L5N2",
        "streetName": "STEVEN",
        "streetDirectionId": null,
        "streetTypeId": "ST",
        "placeName": "HAMILTON",
        "streetNameDisplayText": "STEVEN ST, HAMILTON"
      }
    ]
  },
  {
    "postal": "L8L4Y7",
    "result": [
      {
        "electoralDistricts": [
          {
            "election": null,
            "id": 36,
            "name": "Hamilton Centre"
          }
        ],
        "pollDivisionIds": [
          10138605
        ],
        "postalCode": "L8L4Y7",
        "streetName": "FERGUSON",
        "streetDirectionId": "N",
        "streetTypeId": "AVE",
        "placeName": "HAMILTON",
        "streetNameDisplayText": "FERGUSON AVE N, HAMILTON"
      }
    ]
  },
  {
    "postal": "L8L7M0",
    "result": []
  },
  {
    "postal": "L8L8P3",
    "result": []
  },
  {
    "postal": "L8L3N3",
    "result": [
      {
        "electoralDistricts": [
          {
            "election": null,
            "id": 36,
            "name": "Hamilton Centre"
          }
        ],
        "pollDivisionIds": [
          10138599
        ],
        "postalCode": "L8L3N3",
        "streetName": "SIMCOE",
        "streetDirectionId": "E",
        "streetTypeId": "ST",
        "placeName": "HAMILTON",
        "streetNameDisplayText": "SIMCOE ST E, HAMILTON"
      }
    ]
  },
  {
    "postal": "L8L7S3",
    "result": [
      {
        "electoralDistricts": [
          {
            "election": null,
            "id": 36,
            "name": "Hamilton Centre"
          }
        ],
        "pollDivisionIds": [
          10138615
        ],
        "postalCode": "L8L7S3",
        "streetName": "BALMORAL",
        "streetDirectionId": "N",
        "streetTypeId": "AVE",
        "placeName": "HAMILTON",
        "streetNameDisplayText": "BALMORAL AVE N, HAMILTON"
      }
    ]
  },
  {
    "postal": "L8L3V9",
    "result": [
      {
        "electoralDistricts": [
          {
            "election": null,
            "id": 36,
            "name": "Hamilton Centre"
          }
        ],
        "pollDivisionIds": [
          10138609
        ],
        "postalCode": "L8L3V9",
        "streetName": "MARS",
        "streetDirectionId": null,
        "streetTypeId": "AVE",
        "placeName": "HAMILTON",
        "streetNameDisplayText": "MARS AVE, HAMILTON"
      }
    ]
  },
  {
    "postal": "L8L9N7",
    "result": []
  },
  {
    "postal": "L8L0G4",
    "result": []
  },
  {
    "postal": "L8L2E2",
    "result": [
      {
        "electoralDistricts": [
          {
            "election": null,
            "id": 36,
            "name": "Hamilton Centre"
          }
        ],
        "pollDivisionIds": [
          10138607
        ],
        "postalCode": "L8L2E2",
        "streetName": "CANNON",
        "streetDirectionId": "E",
        "streetTypeId": "ST",
        "placeName": "HAMILTON",
        "streetNameDisplayText": "CANNON ST E, HAMILTON"
      }
    ]
  },
  {
    "postal": "L8L7W8",
    "result": []
  },
  {
    "postal": "L8L7M5",
    "result": [
      {
        "electoralDistricts": [
          {
            "election": null,
            "id": 36,
            "name": "Hamilton Centre"
          }
        ],
        "pollDivisionIds": [
          10138614
        ],
        "postalCode": "L8L7M5",
        "streetName": "BELMONT",
        "streetDirectionId": null,
        "streetTypeId": "AVE",
        "placeName": "HAMILTON",
        "streetNameDisplayText": "BELMONT AVE, HAMILTON"
      }
    ]
  },
  {
    "postal": "L8L5W8",
    "result": [
      {
        "electoralDistricts": [
          {
            "election": null,
            "id": 36,
            "name": "Hamilton Centre"
          }
        ],
        "pollDivisionIds": [
          10138609
        ],
        "postalCode": "L8L5W8",
        "streetName": "WENTWORTH",
        "streetDirectionId": "N",
        "streetTypeId": "ST",
        "placeName": "HAMILTON",
        "streetNameDisplayText": "WENTWORTH ST N, HAMILTON"
      }
    ]
  },
  {
    "postal": "L8L5E5",
    "result": [
      {
        "electoralDistricts": [
          {
            "election": null,
            "id": 36,
            "name": "Hamilton Centre"
          }
        ],
        "pollDivisionIds": [
          10138609
        ],
        "postalCode": "L8L5E5",
        "streetName": "VICTORIA",
        "streetDirectionId": "N",
        "streetTypeId": "AVE",
        "placeName": "HAMILTON",
        "streetNameDisplayText": "VICTORIA AVE N, HAMILTON"
      },
      {
        "electoralDistricts": [
          {
            "election": null,
            "id": 39,
            "name": "Hamilton West—Ancaster—Dundas"
          }
        ],
        "pollDivisionIds": [
          10135262
        ],
        "postalCode": "L8L5E5",
        "streetName": "VICTORIA",
        "streetDirectionId": "N",
        "streetTypeId": "ST",
        "placeName": "HAMILTON",
        "streetNameDisplayText": "VICTORIA ST N, HAMILTON"
      }
    ]
  },
  {
    "postal": "L8L1P9",
    "result": [
      {
        "electoralDistricts": [
          {
            "election": null,
            "id": 36,
            "name": "Hamilton Centre"
          }
        ],
        "pollDivisionIds": [
          10138607
        ],
        "postalCode": "L8L1P9",
        "streetName": "KING WILLIAM",
        "streetDirectionId": null,
        "streetTypeId": "ST",
        "placeName": "HAMILTON",
        "streetNameDisplayText": "KING WILLIAM ST, HAMILTON"
      }
    ]
  },
  {
    "postal": "L8L8V8",
    "result": []
  },
  {
    "postal": "L8L9G8",
    "result": []
  },
  {
    "postal": "L8L8H9",
    "result": [
      {
        "electoralDistricts": [
          {
            "election": null,
            "id": 36,
            "name": "Hamilton Centre"
          }
        ],
        "pollDivisionIds": [
          10138600
        ],
        "postalCode": "L8L8H9",
        "streetName": "FERGUSON",
        "streetDirectionId": "N",
        "streetTypeId": "AVE",
        "placeName": "HAMILTON",
        "streetNameDisplayText": "FERGUSON AVE N, HAMILTON"
      },
      {
        "electoralDistricts": [
          {
            "election": null,
            "id": 36,
            "name": "Hamilton Centre"
          }
        ],
        "pollDivisionIds": [
          10138600
        ],
        "postalCode": "L8L8H9",
        "streetName": "FERGUSON S.",
        "streetDirectionId": "N",
        "streetTypeId": "AVE",
        "placeName": "HAMILTON",
        "streetNameDisplayText": "FERGUSON S. AVE N, HAMILTON"
      }
    ]
  },
  {
    "postal": "L8L1Z1",
    "result": [
      {
        "electoralDistricts": [
          {
            "election": null,
            "id": 36,
            "name": "Hamilton Centre"
          }
        ],
        "pollDivisionIds": [
          10138614
        ],
        "postalCode": "L8L1Z1",
        "streetName": "HIGHLAND",
        "streetDirectionId": null,
        "streetTypeId": "AVE",
        "placeName": "HAMILTON",
        "streetNameDisplayText": "HIGHLAND AVE, HAMILTON"
      }
    ]
  },
  {
    "postal": "L8L8M3",
    "result": []
  },
  {
    "postal": "L8L5H6",
    "result": [
      {
        "electoralDistricts": [
          {
            "election": null,
            "id": 36,
            "name": "Hamilton Centre"
          }
        ],
        "pollDivisionIds": [
          10138609
        ],
        "postalCode": "L8L5H6",
        "streetName": "EAST",
        "streetDirectionId": "N",
        "streetTypeId": "AVE",
        "placeName": "HAMILTON",
        "streetNameDisplayText": "EAST AVE N, HAMILTON"
      }
    ]
  },
  {
    "postal": "L8L7W7",
    "result": []
  },
  {
    "postal": "L8L4L0",
    "result": []
  },
  {
    "postal": "L8L2N1",
    "result": [
      {
        "electoralDistricts": [
          {
            "election": null,
            "id": 36,
            "name": "Hamilton Centre"
          }
        ],
        "pollDivisionIds": [
          10138614
        ],
        "postalCode": "L8L2N1",
        "streetName": "CAMPBELL",
        "streetDirectionId": null,
        "streetTypeId": "AVE",
        "placeName": "HAMILTON",
        "streetNameDisplayText": "CAMPBELL AVE, HAMILTON"
      }
    ]
  },
  {
    "postal": "L8L2H4",
    "result": [
      {
        "electoralDistricts": [
          {
            "election": null,
            "id": 36,
            "name": "Hamilton Centre"
          }
        ],
        "pollDivisionIds": [
          10138614
        ],
        "postalCode": "L8L2H4",
        "streetName": "CANNON",
        "streetDirectionId": "E",
        "streetTypeId": "ST",
        "placeName": "HAMILTON",
        "streetNameDisplayText": "CANNON ST E, HAMILTON"
      }
    ]
  },
  {
    "postal": "L8L5C8",
    "result": [
      {
        "electoralDistricts": [
          {
            "election": null,
            "id": 36,
            "name": "Hamilton Centre"
          }
        ],
        "pollDivisionIds": [
          10138609,
          10138607
        ],
        "postalCode": "L8L5C8",
        "streetName": "WEST",
        "streetDirectionId": "N",
        "streetTypeId": "AVE",
        "placeName": "HAMILTON",
        "streetNameDisplayText": "WEST AVE N, HAMILTON"
      }
    ]
  },
  {
    "postal": "L8L8B0",
    "result": []
  },
  {
    "postal": "L8L1T4",
    "result": [
      {
        "electoralDistricts": [
          {
            "election": null,
            "id": 36,
            "name": "Hamilton Centre"
          }
        ],
        "pollDivisionIds": [
          10138607
        ],
        "postalCode": "L8L1T4",
        "streetName": "WILSON",
        "streetDirectionId": null,
        "streetTypeId": "ST",
        "placeName": "HAMILTON",
        "streetNameDisplayText": "WILSON ST, HAMILTON"
      }
    ]
  },
  {
    "postal": "L8L7N7",
    "result": [
      {
        "electoralDistricts": [
          {
            "election": null,
            "id": 36,
            "name": "Hamilton Centre"
          }
        ],
        "pollDivisionIds": [
          10138614
        ],
        "postalCode": "L8L7N7",
        "streetName": "KENSINGTON",
        "streetDirectionId": "N",
        "streetTypeId": "AVE",
        "placeName": "HAMILTON",
        "streetNameDisplayText": "KENSINGTON AVE N, HAMILTON"
      }
    ]
  },
  {
    "postal": "L8L4L3",
    "result": [
      {
        "electoralDistricts": [
          {
            "election": null,
            "id": 36,
            "name": "Hamilton Centre"
          }
        ],
        "pollDivisionIds": [
          10138609
        ],
        "postalCode": "L8L4L3",
        "streetName": "LAND",
        "streetDirectionId": null,
        "streetTypeId": "ST",
        "placeName": "HAMILTON",
        "streetNameDisplayText": "LAND ST, HAMILTON"
      }
    ]
  },
  {
    "postal": "L8L2N2",
    "result": [
      {
        "electoralDistricts": [
          {
            "election": null,
            "id": 36,
            "name": "Hamilton Centre"
          }
        ],
        "pollDivisionIds": [
          10138615
        ],
        "postalCode": "L8L2N2",
        "streetName": "CAMPBELL",
        "streetDirectionId": null,
        "streetTypeId": "AVE",
        "placeName": "HAMILTON",
        "streetNameDisplayText": "CAMPBELL AVE, HAMILTON"
      }
    ]
  },
  {
    "postal": "L8L4N8",
    "result": [
      {
        "electoralDistricts": [
          {
            "election": null,
            "id": 36,
            "name": "Hamilton Centre"
          }
        ],
        "pollDivisionIds": [
          10138599,
          10138603
        ],
        "postalCode": "L8L4N8",
        "streetName": "HUGHSON",
        "streetDirectionId": "N",
        "streetTypeId": "ST",
        "placeName": "HAMILTON",
        "streetNameDisplayText": "HUGHSON ST N, HAMILTON"
      }
    ]
  },
  {
    "postal": "L8L3M5",
    "result": [
      {
        "electoralDistricts": [
          {
            "election": null,
            "id": 36,
            "name": "Hamilton Centre"
          }
        ],
        "pollDivisionIds": [
          10138599
        ],
        "postalCode": "L8L3M5",
        "streetName": "STRACHAN",
        "streetDirectionId": "E",
        "streetTypeId": "ST",
        "placeName": "HAMILTON",
        "streetNameDisplayText": "STRACHAN ST E, HAMILTON"
      }
    ]
  },
  {
    "postal": "L8L6H7",
    "result": [
      {
        "electoralDistricts": [
          {
            "election": null,
            "id": 36,
            "name": "Hamilton Centre"
          }
        ],
        "pollDivisionIds": [
          10138607
        ],
        "postalCode": "L8L6H7",
        "streetName": "BIRCH",
        "streetDirectionId": null,
        "streetTypeId": "AVE",
        "placeName": "HAMILTON",
        "streetNameDisplayText": "BIRCH AVE, HAMILTON"
      }
    ]
  },
  {
    "postal": "L8L8Y8",
    "result": []
  },
  {
    "postal": "L8L5R9",
    "result": [
      {
        "electoralDistricts": [
          {
            "election": null,
            "id": 36,
            "name": "Hamilton Centre"
          }
        ],
        "pollDivisionIds": [
          10138609
        ],
        "postalCode": "L8L5R9",
        "streetName": "CHEEVER",
        "streetDirectionId": null,
        "streetTypeId": "ST",
        "placeName": "HAMILTON",
        "streetNameDisplayText": "CHEEVER ST, HAMILTON"
      }
    ]
  },
  {
    "postal": "L8L8G3",
    "result": []
  },
  {
    "postal": "L8L4N7",
    "result": [
      {
        "electoralDistricts": [
          {
            "election": null,
            "id": 36,
            "name": "Hamilton Centre"
          }
        ],
        "pollDivisionIds": [
          10138605
        ],
        "postalCode": "L8L4N7",
        "streetName": "HUGHSON",
        "streetDirectionId": "N",
        "streetTypeId": "ST",
        "placeName": "HAMILTON",
        "streetNameDisplayText": "HUGHSON ST N, HAMILTON"
      }
    ]
  },
  {
    "postal": "L8L0B9",
    "result": []
  },
  {
    "postal": "L8L9K7",
    "result": []
  },
  {
    "postal": "L8L9K9",
    "result": []
  },
  {
    "postal": "L8L3Z2",
    "result": [
      {
        "electoralDistricts": [
          {
            "election": null,
            "id": 36,
            "name": "Hamilton Centre"
          }
        ],
        "pollDivisionIds": [
          10138609
        ],
        "postalCode": "L8L3Z2",
        "streetName": "WOOD",
        "streetDirectionId": "E",
        "streetTypeId": "ST",
        "placeName": "HAMILTON",
        "streetNameDisplayText": "WOOD ST E, HAMILTON"
      }
    ]
  },
  {
    "postal": "L8L6W7",
    "result": [
      {
        "electoralDistricts": [
          {
            "election": null,
            "id": 36,
            "name": "Hamilton Centre"
          }
        ],
        "pollDivisionIds": [
          10138616
        ],
        "postalCode": "L8L6W7",
        "streetName": "NORTON",
        "streetDirectionId": null,
        "streetTypeId": "ST",
        "placeName": "HAMILTON",
        "streetNameDisplayText": "NORTON ST, HAMILTON"
      }
    ]
  },
  {
    "postal": "L8L0P1",
    "result": []
  },
  {
    "postal": "L8L3A0",
    "result": []
  },
  {
    "postal": "L8L8L9",
    "result": []
  },
  {
    "postal": "L8L6X0",
    "result": []
  },
  {
    "postal": "L8L3E9",
    "result": [
      {
        "electoralDistricts": [
          {
            "election": null,
            "id": 36,
            "name": "Hamilton Centre"
          }
        ],
        "pollDivisionIds": [
          10138605
        ],
        "postalCode": "L8L3E9",
        "streetName": "MURRAY",
        "streetDirectionId": "E",
        "streetTypeId": "ST",
        "placeName": "HAMILTON",
        "streetNameDisplayText": "MURRAY ST E, HAMILTON"
      }
    ]
  },
  {
    "postal": "L8L0S5",
    "result": []
  },
  {
    "postal": "L8L1A2",
    "result": [
      {
        "electoralDistricts": [
          {
            "election": null,
            "id": 36,
            "name": "Hamilton Centre"
          }
        ],
        "pollDivisionIds": [
          10138600
        ],
        "postalCode": "L8L1A2",
        "streetName": "BARTON",
        "streetDirectionId": "W",
        "streetTypeId": "ST",
        "placeName": "HAMILTON",
        "streetNameDisplayText": "BARTON ST W, HAMILTON"
      }
    ]
  },
  {
    "postal": "L8L5V8",
    "result": [
      {
        "electoralDistricts": [
          {
            "election": null,
            "id": 36,
            "name": "Hamilton Centre"
          }
        ],
        "pollDivisionIds": [
          10138607
        ],
        "postalCode": "L8L5V8",
        "streetName": "WENTWORTH",
        "streetDirectionId": "N",
        "streetTypeId": "ST",
        "placeName": "HAMILTON",
        "streetNameDisplayText": "WENTWORTH ST N, HAMILTON"
      }
    ]
  },
  {
    "postal": "L8L8C5",
    "result": [
      {
        "electoralDistricts": [
          {
            "election": null,
            "id": 36,
            "name": "Hamilton Centre"
          }
        ],
        "pollDivisionIds": [
          10138599
        ],
        "postalCode": "L8L8C5",
        "streetName": "GUISE",
        "streetDirectionId": "E",
        "streetTypeId": "ST",
        "placeName": "HAMILTON",
        "streetNameDisplayText": "GUISE ST E, HAMILTON"
      }
    ]
  },
  {
    "postal": "L8L6N0",
    "result": []
  },
  {
    "postal": "L8L9E6",
    "result": []
  },
  {
    "postal": "L8L5J7",
    "result": [
      {
        "electoralDistricts": [
          {
            "election": null,
            "id": 36,
            "name": "Hamilton Centre"
          }
        ],
        "pollDivisionIds": [
          10138609
        ],
        "postalCode": "L8L5J7",
        "streetName": "CLARK",
        "streetDirectionId": null,
        "streetTypeId": "AVE",
        "placeName": "HAMILTON",
        "streetNameDisplayText": "CLARK AVE, HAMILTON"
      }
    ]
  },
  {
    "postal": "L8L2R2",
    "result": [
      {
        "electoralDistricts": [
          {
            "election": null,
            "id": 36,
            "name": "Hamilton Centre"
          }
        ],
        "pollDivisionIds": [
          10138609
        ],
        "postalCode": "L8L2R2",
        "streetName": "ROBERT",
        "streetDirectionId": null,
        "streetTypeId": "ST",
        "placeName": "HAMILTON",
        "streetNameDisplayText": "ROBERT ST, HAMILTON"
      }
    ]
  },
  {
    "postal": "L8L0P5",
    "result": []
  },
  {
    "postal": "L8L5A7",
    "result": [
      {
        "electoralDistricts": [
          {
            "election": null,
            "id": 36,
            "name": "Hamilton Centre"
          }
        ],
        "pollDivisionIds": [
          10138609
        ],
        "postalCode": "L8L5A7",
        "streetName": "WELLINGTON",
        "streetDirectionId": "N",
        "streetTypeId": "ST",
        "placeName": "HAMILTON",
        "streetNameDisplayText": "WELLINGTON ST N, HAMILTON"
      }
    ]
  },
  {
    "postal": "L8L1G1",
    "result": [
      {
        "electoralDistricts": [
          {
            "election": null,
            "id": 36,
            "name": "Hamilton Centre"
          }
        ],
        "pollDivisionIds": [
          10138599
        ],
        "postalCode": "L8L1G1",
        "streetName": "WOOD",
        "streetDirectionId": "W",
        "streetTypeId": "ST",
        "placeName": "HAMILTON",
        "streetNameDisplayText": "WOOD ST W, HAMILTON"
      }
    ]
  },
  {
    "postal": "L8L9R6",
    "result": []
  },
  {
    "postal": "L8L4Z9",
    "result": [
      {
        "electoralDistricts": [
          {
            "election": null,
            "id": 36,
            "name": "Hamilton Centre"
          }
        ],
        "pollDivisionIds": [
          10138609
        ],
        "postalCode": "L8L4Z9",
        "streetName": "FERGUSON",
        "streetDirectionId": "N",
        "streetTypeId": "AVE",
        "placeName": "HAMILTON",
        "streetNameDisplayText": "FERGUSON AVE N, HAMILTON"
      }
    ]
  },
  {
    "postal": "L8L1V5",
    "result": [
      {
        "electoralDistricts": [
          {
            "election": null,
            "id": 36,
            "name": "Hamilton Centre"
          }
        ],
        "pollDivisionIds": [
          10138610
        ],
        "postalCode": "L8L1V5",
        "streetName": "WILSON",
        "streetDirectionId": null,
        "streetTypeId": "ST",
        "placeName": "HAMILTON",
        "streetNameDisplayText": "WILSON ST, HAMILTON"
      }
    ]
  },
  {
    "postal": "L8L9Y5",
    "result": []
  },
  {
    "postal": "L8L1P2",
    "result": [
      {
        "electoralDistricts": [
          {
            "election": null,
            "id": 36,
            "name": "Hamilton Centre"
          }
        ],
        "pollDivisionIds": [
          10138603
        ],
        "postalCode": "L8L1P2",
        "streetName": "KING WILLIAM",
        "streetDirectionId": null,
        "streetTypeId": "ST",
        "placeName": "HAMILTON",
        "streetNameDisplayText": "KING WILLIAM ST, HAMILTON"
      }
    ]
  },
  {
    "postal": "L8L5X0",
    "result": []
  },
  {
    "postal": "L8L7B8",
    "result": [
      {
        "electoralDistricts": [
          {
            "election": null,
            "id": 36,
            "name": "Hamilton Centre"
          }
        ],
        "pollDivisionIds": [
          10138614
        ],
        "postalCode": "L8L7B8",
        "streetName": "AVONDALE",
        "streetDirectionId": null,
        "streetTypeId": "ST",
        "placeName": "HAMILTON",
        "streetNameDisplayText": "AVONDALE ST, HAMILTON"
      }
    ]
  },
  {
    "postal": "L8L0C6",
    "result": []
  },
  {
    "postal": "L8L6G1",
    "result": [
      {
        "electoralDistricts": [
          {
            "election": null,
            "id": 36,
            "name": "Hamilton Centre"
          }
        ],
        "pollDivisionIds": [
          10138610
        ],
        "postalCode": "L8L6G1",
        "streetName": "STIRTON",
        "streetDirectionId": null,
        "streetTypeId": "ST",
        "placeName": "HAMILTON",
        "streetNameDisplayText": "STIRTON ST, HAMILTON"
      }
    ]
  },
  {
    "postal": "L8L3K3",
    "result": [
      {
        "electoralDistricts": [
          {
            "election": null,
            "id": 36,
            "name": "Hamilton Centre"
          }
        ],
        "pollDivisionIds": [
          10138609
        ],
        "postalCode": "L8L3K3",
        "streetName": "PRINCESS",
        "streetDirectionId": null,
        "streetTypeId": "ST",
        "placeName": "HAMILTON",
        "streetNameDisplayText": "PRINCESS ST, HAMILTON"
      }
    ]
  },
  {
    "postal": "L8L9R0",
    "result": []
  },
  {
    "postal": "L8L4R8",
    "result": [
      {
        "electoralDistricts": [
          {
            "election": null,
            "id": 36,
            "name": "Hamilton Centre"
          }
        ],
        "pollDivisionIds": [
          10138605
        ],
        "postalCode": "L8L4R8",
        "streetName": "JOHN",
        "streetDirectionId": "N",
        "streetTypeId": "ST",
        "placeName": "HAMILTON",
        "streetNameDisplayText": "JOHN ST N, HAMILTON"
      }
    ]
  },
  {
    "postal": "L8L5P9",
    "result": [
      {
        "electoralDistricts": [
          {
            "election": null,
            "id": 36,
            "name": "Hamilton Centre"
          }
        ],
        "pollDivisionIds": [
          10138609
        ],
        "postalCode": "L8L5P9",
        "streetName": "DOUGLAS",
        "streetDirectionId": null,
        "streetTypeId": "AVE",
        "placeName": "HAMILTON",
        "streetNameDisplayText": "DOUGLAS AVE, HAMILTON"
      }
    ]
  },
  {
    "postal": "L8L8N4",
    "result": []
  },
  {
    "postal": "L8L8H4",
    "result": []
  },
  {
    "postal": "L8L4V1",
    "result": [
      {
        "electoralDistricts": [
          {
            "election": null,
            "id": 36,
            "name": "Hamilton Centre"
          }
        ],
        "pollDivisionIds": [
          10138605
        ],
        "postalCode": "L8L4V1",
        "streetName": "CATHARINE",
        "streetDirectionId": "N",
        "streetTypeId": "ST",
        "placeName": "HAMILTON",
        "streetNameDisplayText": "CATHARINE ST N, HAMILTON"
      }
    ]
  },
  {
    "postal": "L8L1K5",
    "result": [
      {
        "electoralDistricts": [
          {
            "election": null,
            "id": 36,
            "name": "Hamilton Centre"
          }
        ],
        "pollDivisionIds": [
          10138599
        ],
        "postalCode": "L8L1K5",
        "streetName": "MACNAB",
        "streetDirectionId": "N",
        "streetTypeId": "ST",
        "placeName": "HAMILTON",
        "streetNameDisplayText": "MACNAB ST N, HAMILTON"
      },
      {
        "electoralDistricts": [
          {
            "election": null,
            "id": 39,
            "name": "Hamilton West—Ancaster—Dundas"
          }
        ],
        "pollDivisionIds": [
          10135261
        ],
        "postalCode": "L8L1K5",
        "streetName": "MCNAB",
        "streetDirectionId": "N",
        "streetTypeId": "ST",
        "placeName": "HAMILTON",
        "streetNameDisplayText": "MCNAB ST N, HAMILTON"
      }
    ]
  },
  {
    "postal": "L8L1Z5",
    "result": [
      {
        "electoralDistricts": [
          {
            "election": null,
            "id": 36,
            "name": "Hamilton Centre"
          }
        ],
        "pollDivisionIds": [
          10138603
        ],
        "postalCode": "L8L1Z5",
        "streetName": "CANNON",
        "streetDirectionId": "E",
        "streetTypeId": "ST",
        "placeName": "HAMILTON",
        "streetNameDisplayText": "CANNON ST E, HAMILTON"
      }
    ]
  },
  {
    "postal": "L8L9L9",
    "result": []
  },
  {
    "postal": "L8L5L2",
    "result": [
      {
        "electoralDistricts": [
          {
            "election": null,
            "id": 36,
            "name": "Hamilton Centre"
          }
        ],
        "pollDivisionIds": [
          10138609
        ],
        "postalCode": "L8L5L2",
        "streetName": "EMERALD",
        "streetDirectionId": "N",
        "streetTypeId": "ST",
        "placeName": "HAMILTON",
        "streetNameDisplayText": "EMERALD ST N, HAMILTON"
      }
    ]
  },
  {
    "postal": "L8L0M2",
    "result": []
  },
  {
    "postal": "L8L1K8",
    "result": [
      {
        "electoralDistricts": [
          {
            "election": null,
            "id": 36,
            "name": "Hamilton Centre"
          }
        ],
        "pollDivisionIds": [
          10138599
        ],
        "postalCode": "L8L1K8",
        "streetName": "MACNAB",
        "streetDirectionId": "N",
        "streetTypeId": "ST",
        "placeName": "HAMILTON",
        "streetNameDisplayText": "MACNAB ST N, HAMILTON"
      }
    ]
  },
  {
    "postal": "L8L3M7",
    "result": [
      {
        "electoralDistricts": [
          {
            "election": null,
            "id": 36,
            "name": "Hamilton Centre"
          }
        ],
        "pollDivisionIds": [
          10138605
        ],
        "postalCode": "L8L3M7",
        "streetName": "STRACHAN",
        "streetDirectionId": "E",
        "streetTypeId": "ST",
        "placeName": "HAMILTON",
        "streetNameDisplayText": "STRACHAN ST E, HAMILTON"
      }
    ]
  },
  {
    "postal": "L8L1B2",
    "result": [
      {
        "electoralDistricts": [
          {
            "election": null,
            "id": 36,
            "name": "Hamilton Centre"
          }
        ],
        "pollDivisionIds": [
          10138599
        ],
        "postalCode": "L8L1B2",
        "streetName": "MURRAY",
        "streetDirectionId": "W",
        "streetTypeId": "ST",
        "placeName": "HAMILTON",
        "streetNameDisplayText": "MURRAY ST W, HAMILTON"
      }
    ]
  },
  {
    "postal": "L8L0H9",
    "result": []
  },
  {
    "postal": "L8L8M4",
    "result": []
  },
  {
    "postal": "L8L2M5",
    "result": [
      {
        "electoralDistricts": [
          {
            "election": null,
            "id": 36,
            "name": "Hamilton Centre"
          }
        ],
        "pollDivisionIds": [
          10138612
        ],
        "postalCode": "L8L2M5",
        "streetName": "ROSEMONT",
        "streetDirectionId": null,
        "streetTypeId": "AVE",
        "placeName": "HAMILTON",
        "streetNameDisplayText": "ROSEMONT AVE, HAMILTON"
      }
    ]
  },
  {
    "postal": "L8L0T9",
    "result": []
  },
  {
    "postal": "L8L3P1",
    "result": [
      {
        "electoralDistricts": [
          {
            "election": null,
            "id": 36,
            "name": "Hamilton Centre"
          }
        ],
        "pollDivisionIds": [
          10138605
        ],
        "postalCode": "L8L3P1",
        "streetName": "SIMCOE",
        "streetDirectionId": "E",
        "streetTypeId": "ST",
        "placeName": "HAMILTON",
        "streetNameDisplayText": "SIMCOE ST E, HAMILTON"
      }
    ]
  },
  {
    "postal": "L8L1R6",
    "result": [
      {
        "electoralDistricts": [
          {
            "election": null,
            "id": 36,
            "name": "Hamilton Centre"
          }
        ],
        "pollDivisionIds": [
          10138607
        ],
        "postalCode": "L8L1R6",
        "streetName": "NIGHTINGALE",
        "streetDirectionId": null,
        "streetTypeId": "ST",
        "placeName": "HAMILTON",
        "streetNameDisplayText": "NIGHTINGALE ST, HAMILTON"
      }
    ]
  },
  {
    "postal": "L8L9V5",
    "result": []
  },
  {
    "postal": "L8L9T0",
    "result": []
  },
  {
    "postal": "L8L0A9",
    "result": [
      {
        "electoralDistricts": [
          {
            "election": null,
            "id": 36,
            "name": "Hamilton Centre"
          }
        ],
        "pollDivisionIds": [
          10138609
        ],
        "postalCode": "L8L0A9",
        "streetName": "CANNON",
        "streetDirectionId": "E",
        "streetTypeId": "ST",
        "placeName": "HAMILTON",
        "streetNameDisplayText": "CANNON ST E, HAMILTON"
      }
    ]
  },
  {
    "postal": "L8L1M3",
    "result": [
      {
        "electoralDistricts": [
          {
            "election": null,
            "id": 36,
            "name": "Hamilton Centre"
          }
        ],
        "pollDivisionIds": [
          10138599
        ],
        "postalCode": "L8L1M3",
        "streetName": "BAY",
        "streetDirectionId": "N",
        "streetTypeId": "ST",
        "placeName": "HAMILTON",
        "streetNameDisplayText": "BAY ST N, HAMILTON"
      }
    ]
  },
  {
    "postal": "L8L1W8",
    "result": [
      {
        "electoralDistricts": [
          {
            "election": null,
            "id": 36,
            "name": "Hamilton Centre"
          }
        ],
        "pollDivisionIds": [
          10138610
        ],
        "postalCode": "L8L1W8",
        "streetName": "FIFE",
        "streetDirectionId": null,
        "streetTypeId": "ST",
        "placeName": "HAMILTON",
        "streetNameDisplayText": "FIFE ST, HAMILTON"
      }
    ]
  },
  {
    "postal": "L8L9J1",
    "result": []
  },
  {
    "postal": "L8L8N5",
    "result": []
  },
  {
    "postal": "L8L5X1",
    "result": [
      {
        "electoralDistricts": [
          {
            "election": null,
            "id": 36,
            "name": "Hamilton Centre"
          }
        ],
        "pollDivisionIds": [
          10138609
        ],
        "postalCode": "L8L5X1",
        "streetName": "WENTWORTH",
        "streetDirectionId": "N",
        "streetTypeId": "ST",
        "placeName": "HAMILTON",
        "streetNameDisplayText": "WENTWORTH ST N, HAMILTON"
      }
    ]
  },
  {
    "postal": "L8L6S2",
    "result": [
      {
        "electoralDistricts": [
          {
            "election": null,
            "id": 36,
            "name": "Hamilton Centre"
          }
        ],
        "pollDivisionIds": [
          10138612
        ],
        "postalCode": "L8L6S2",
        "streetName": "BARNESDALE",
        "streetDirectionId": "N",
        "streetTypeId": "AVE",
        "placeName": "HAMILTON",
        "streetNameDisplayText": "BARNESDALE AVE N, HAMILTON"
      }
    ]
  },
  {
    "postal": "L8L2A2",
    "result": [
      {
        "electoralDistricts": [
          {
            "election": null,
            "id": 36,
            "name": "Hamilton Centre"
          }
        ],
        "pollDivisionIds": [
          10138600
        ],
        "postalCode": "L8L2A2",
        "streetName": "CANNON",
        "streetDirectionId": "E",
        "streetTypeId": "ST",
        "placeName": "HAMILTON",
        "streetNameDisplayText": "CANNON ST E, HAMILTON"
      }
    ]
  },
  {
    "postal": "L8L6A6",
    "result": [
      {
        "electoralDistricts": [
          {
            "election": null,
            "id": 36,
            "name": "Hamilton Centre"
          }
        ],
        "pollDivisionIds": [
          10138609
        ],
        "postalCode": "L8L6A6",
        "streetName": "NIAGARA",
        "streetDirectionId": null,
        "streetTypeId": "ST",
        "placeName": "HAMILTON",
        "streetNameDisplayText": "NIAGARA ST, HAMILTON"
      }
    ]
  },
  {
    "postal": "L8L0S3",
    "result": []
  },
  {
    "postal": "L8L3E7",
    "result": [
      {
        "electoralDistricts": [
          {
            "election": null,
            "id": 36,
            "name": "Hamilton Centre"
          }
        ],
        "pollDivisionIds": [
          10138605
        ],
        "postalCode": "L8L3E7",
        "streetName": "MURRAY",
        "streetDirectionId": "E",
        "streetTypeId": "ST",
        "placeName": "HAMILTON",
        "streetNameDisplayText": "MURRAY ST E, HAMILTON"
      }
    ]
  },
  {
    "postal": "L8L5R7",
    "result": [
      {
        "electoralDistricts": [
          {
            "election": null,
            "id": 36,
            "name": "Hamilton Centre"
          }
        ],
        "pollDivisionIds": [
          10138609
        ],
        "postalCode": "L8L5R7",
        "streetName": "CHEEVER",
        "streetDirectionId": null,
        "streetTypeId": "ST",
        "placeName": "HAMILTON",
        "streetNameDisplayText": "CHEEVER ST, HAMILTON"
      }
    ]
  },
  {
    "postal": "L8L3R6",
    "result": [
      {
        "electoralDistricts": [
          {
            "election": null,
            "id": 36,
            "name": "Hamilton Centre"
          }
        ],
        "pollDivisionIds": [
          10138609
        ],
        "postalCode": "L8L3R6",
        "streetName": "BURTON",
        "streetDirectionId": null,
        "streetTypeId": "ST",
        "placeName": "HAMILTON",
        "streetNameDisplayText": "BURTON ST, HAMILTON"
      }
    ]
  },
  {
    "postal": "L8L6K4",
    "result": [
      {
        "electoralDistricts": [
          {
            "election": null,
            "id": 36,
            "name": "Hamilton Centre"
          }
        ],
        "pollDivisionIds": [
          10138609
        ],
        "postalCode": "L8L6K4",
        "streetName": "GIBSON",
        "streetDirectionId": null,
        "streetTypeId": "AVE",
        "placeName": "HAMILTON",
        "streetNameDisplayText": "GIBSON AVE, HAMILTON"
      }
    ]
  },
  {
    "postal": "L8L2W5",
    "result": [
      {
        "electoralDistricts": [
          {
            "election": null,
            "id": 36,
            "name": "Hamilton Centre"
          }
        ],
        "pollDivisionIds": [
          10138600
        ],
        "postalCode": "L8L2W5",
        "streetName": "BARTON",
        "streetDirectionId": "E",
        "streetTypeId": "ST",
        "placeName": "HAMILTON",
        "streetNameDisplayText": "BARTON ST E, HAMILTON"
      },
      {
        "electoralDistricts": [
          {
            "election": null,
            "id": 36,
            "name": "Hamilton Centre"
          }
        ],
        "pollDivisionIds": [
          10138599
        ],
        "postalCode": "L8L2W5",
        "streetName": "BARTON",
        "streetDirectionId": "W",
        "streetTypeId": "ST",
        "placeName": "HAMILTON",
        "streetNameDisplayText": "BARTON ST W, HAMILTON"
      }
    ]
  },
  {
    "postal": "L8L8W4",
    "result": []
  },
  {
    "postal": "L8L9C2",
    "result": []
  },
  {
    "postal": "L8L2C0",
    "result": []
  },
  {
    "postal": "L8L0E1",
    "result": []
  },
  {
    "postal": "L8L1K9",
    "result": [
      {
        "electoralDistricts": [
          {
            "election": null,
            "id": 36,
            "name": "Hamilton Centre"
          }
        ],
        "pollDivisionIds": [
          10138599
        ],
        "postalCode": "L8L1K9",
        "streetName": "MACNAB",
        "streetDirectionId": "N",
        "streetTypeId": "ST",
        "placeName": "HAMILTON",
        "streetNameDisplayText": "MACNAB ST N, HAMILTON"
      }
    ]
  },
  {
    "postal": "L8L1G7",
    "result": [
      {
        "electoralDistricts": [
          {
            "election": null,
            "id": 36,
            "name": "Hamilton Centre"
          }
        ],
        "pollDivisionIds": [
          10138599
        ],
        "postalCode": "L8L1G7",
        "streetName": "BURLINGTON",
        "streetDirectionId": "W",
        "streetTypeId": "ST",
        "placeName": "HAMILTON",
        "streetNameDisplayText": "BURLINGTON ST W, HAMILTON"
      }
    ]
  },
  {
    "postal": "L8L4E9",
    "result": [
      {
        "electoralDistricts": [
          {
            "election": null,
            "id": 36,
            "name": "Hamilton Centre"
          }
        ],
        "pollDivisionIds": [
          10138609
        ],
        "postalCode": "L8L4E9",
        "streetName": "MACALLUM",
        "streetDirectionId": null,
        "streetTypeId": "ST",
        "placeName": "HAMILTON",
        "streetNameDisplayText": "MACALLUM ST, HAMILTON"
      }
    ]
  },
  {
    "postal": "L8L9P0",
    "result": []
  },
  {
    "postal": "L8L5H3",
    "result": [
      {
        "electoralDistricts": [
          {
            "election": null,
            "id": 36,
            "name": "Hamilton Centre"
          }
        ],
        "pollDivisionIds": [
          10138604
        ],
        "postalCode": "L8L5H3",
        "streetName": "EAST",
        "streetDirectionId": "N",
        "streetTypeId": "AVE",
        "placeName": "HAMILTON",
        "streetNameDisplayText": "EAST AVE N, HAMILTON"
      }
    ]
  },
  {
    "postal": "L8L9X6",
    "result": []
  },
  {
    "postal": "L8L5N7",
    "result": [
      {
        "electoralDistricts": [
          {
            "election": null,
            "id": 36,
            "name": "Hamilton Centre"
          }
        ],
        "pollDivisionIds": [
          10138607
        ],
        "postalCode": "L8L5N7",
        "streetName": "STEVEN",
        "streetDirectionId": null,
        "streetTypeId": "ST",
        "placeName": "HAMILTON",
        "streetNameDisplayText": "STEVEN ST, HAMILTON"
      }
    ]
  },
  {
    "postal": "L8L5A6",
    "result": [
      {
        "electoralDistricts": [
          {
            "election": null,
            "id": 36,
            "name": "Hamilton Centre"
          }
        ],
        "pollDivisionIds": [
          10138609
        ],
        "postalCode": "L8L5A6",
        "streetName": "WELLINGTON",
        "streetDirectionId": "N",
        "streetTypeId": "ST",
        "placeName": "HAMILTON",
        "streetNameDisplayText": "WELLINGTON ST N, HAMILTON"
      }
    ]
  },
  {
    "postal": "L8L4M0",
    "result": []
  },
  {
    "postal": "L8L3V6",
    "result": [
      {
        "electoralDistricts": [
          {
            "election": null,
            "id": 36,
            "name": "Hamilton Centre"
          }
        ],
        "pollDivisionIds": [
          10138609
        ],
        "postalCode": "L8L3V6",
        "streetName": "MUNROE",
        "streetDirectionId": null,
        "streetTypeId": "ST",
        "placeName": "HAMILTON",
        "streetNameDisplayText": "MUNROE ST, HAMILTON"
      }
    ]
  },
  {
    "postal": "L8L1L7",
    "result": [
      {
        "electoralDistricts": [
          {
            "election": null,
            "id": 36,
            "name": "Hamilton Centre"
          }
        ],
        "pollDivisionIds": [
          10138599
        ],
        "postalCode": "L8L1L7",
        "streetName": "MACNAB",
        "streetDirectionId": "N",
        "streetTypeId": "ST",
        "placeName": "HAMILTON",
        "streetNameDisplayText": "MACNAB ST N, HAMILTON"
      }
    ]
  },
  {
    "postal": "L8L2P9",
    "result": [
      {
        "electoralDistricts": [
          {
            "election": null,
            "id": 36,
            "name": "Hamilton Centre"
          }
        ],
        "pollDivisionIds": [
          10138609
        ],
        "postalCode": "L8L2P9",
        "streetName": "ROBERT",
        "streetDirectionId": null,
        "streetTypeId": "ST",
        "placeName": "HAMILTON",
        "streetNameDisplayText": "ROBERT ST, HAMILTON"
      }
    ]
  },
  {
    "postal": "L8L5T4",
    "result": [
      {
        "electoralDistricts": [
          {
            "election": null,
            "id": 36,
            "name": "Hamilton Centre"
          }
        ],
        "pollDivisionIds": [
          10138607
        ],
        "postalCode": "L8L5T4",
        "streetName": "LEEMING",
        "streetDirectionId": null,
        "streetTypeId": "ST",
        "placeName": "HAMILTON",
        "streetNameDisplayText": "LEEMING ST, HAMILTON"
      }
    ]
  },
  {
    "postal": "L8L5Z1",
    "result": [
      {
        "electoralDistricts": [
          {
            "election": null,
            "id": 36,
            "name": "Hamilton Centre"
          }
        ],
        "pollDivisionIds": [
          10138607,
          10138610
        ],
        "postalCode": "L8L5Z1",
        "streetName": "SANFORD",
        "streetDirectionId": "N",
        "streetTypeId": "AVE",
        "placeName": "HAMILTON",
        "streetNameDisplayText": "SANFORD AVE N, HAMILTON"
      }
    ]
  },
  {
    "postal": "L8L2X0",
    "result": []
  },
  {
    "postal": "L8L6Z2",
    "result": [
      {
        "electoralDistricts": [
          {
            "election": null,
            "id": 36,
            "name": "Hamilton Centre"
          }
        ],
        "pollDivisionIds": [
          10138612
        ],
        "postalCode": "L8L6Z2",
        "streetName": "CONNAUGHT",
        "streetDirectionId": "N",
        "streetTypeId": "AVE",
        "placeName": "HAMILTON",
        "streetNameDisplayText": "CONNAUGHT AVE N, HAMILTON"
      }
    ]
  },
  {
    "postal": "L8L0E0",
    "result": []
  },
  {
    "postal": "L8L3Z5",
    "result": []
  },
  {
    "postal": "L8L8H3",
    "result": []
  },
  {
    "postal": "L8L7S6",
    "result": [
      {
        "electoralDistricts": [
          {
            "election": null,
            "id": 36,
            "name": "Hamilton Centre"
          }
        ],
        "pollDivisionIds": [
          10138614
        ],
        "postalCode": "L8L7S6",
        "streetName": "GROSVENOR",
        "streetDirectionId": "N",
        "streetTypeId": "AVE",
        "placeName": "HAMILTON",
        "streetNameDisplayText": "GROSVENOR AVE N, HAMILTON"
      }
    ]
  },
  {
    "postal": "L8L4C1",
    "result": [
      {
        "electoralDistricts": [
          {
            "election": null,
            "id": 36,
            "name": "Hamilton Centre"
          }
        ],
        "pollDivisionIds": [
          10138616
        ],
        "postalCode": "L8L4C1",
        "streetName": "GERTRUDE",
        "streetDirectionId": null,
        "streetTypeId": "ST",
        "placeName": "HAMILTON",
        "streetNameDisplayText": "GERTRUDE ST, HAMILTON"
      }
    ]
  },
  {
    "postal": "L8L3K2",
    "result": [
      {
        "electoralDistricts": [
          {
            "election": null,
            "id": 36,
            "name": "Hamilton Centre"
          }
        ],
        "pollDivisionIds": [
          10138616
        ],
        "postalCode": "L8L3K2",
        "streetName": "CLINTON",
        "streetDirectionId": null,
        "streetTypeId": "ST",
        "placeName": "HAMILTON",
        "streetNameDisplayText": "CLINTON ST, HAMILTON"
      }
    ]
  },
  {
    "postal": "L8L1Y5",
    "result": [
      {
        "electoralDistricts": [
          {
            "election": null,
            "id": 36,
            "name": "Hamilton Centre"
          }
        ],
        "pollDivisionIds": [
          10138614
        ],
        "postalCode": "L8L1Y5",
        "streetName": "ROXBOROUGH",
        "streetDirectionId": null,
        "streetTypeId": "AVE",
        "placeName": "HAMILTON",
        "streetNameDisplayText": "ROXBOROUGH AVE, HAMILTON"
      }
    ]
  },
  {
    "postal": "L8L6P6",
    "result": []
  },
  {
    "postal": "L8L3N9",
    "result": [
      {
        "electoralDistricts": [
          {
            "election": null,
            "id": 36,
            "name": "Hamilton Centre"
          }
        ],
        "pollDivisionIds": [
          10138605
        ],
        "postalCode": "L8L3N9",
        "streetName": "SIMCOE",
        "streetDirectionId": "E",
        "streetTypeId": "ST",
        "placeName": "HAMILTON",
        "streetNameDisplayText": "SIMCOE ST E, HAMILTON"
      }
    ]
  },
  {
    "postal": "L8L3W2",
    "result": []
  },
  {
    "postal": "L8L6H8",
    "result": [
      {
        "electoralDistricts": [
          {
            "election": null,
            "id": 36,
            "name": "Hamilton Centre"
          }
        ],
        "pollDivisionIds": [
          10138607
        ],
        "postalCode": "L8L6H8",
        "streetName": "BIRCH",
        "streetDirectionId": null,
        "streetTypeId": "AVE",
        "placeName": "HAMILTON",
        "streetNameDisplayText": "BIRCH AVE, HAMILTON"
      }
    ]
  },
  {
    "postal": "L8L9T3",
    "result": []
  },
  {
    "postal": "L8L5L9",
    "result": [
      {
        "electoralDistricts": [
          {
            "election": null,
            "id": 36,
            "name": "Hamilton Centre"
          }
        ],
        "pollDivisionIds": [
          10138609
        ],
        "postalCode": "L8L5L9",
        "streetName": "EMERALD",
        "streetDirectionId": "N",
        "streetTypeId": "ST",
        "placeName": "HAMILTON",
        "streetNameDisplayText": "EMERALD ST N, HAMILTON"
      }
    ]
  },
  {
    "postal": "L8L7X7",
    "result": []
  },
  {
    "postal": "L8L3J5",
    "result": [
      {
        "electoralDistricts": [
          {
            "election": null,
            "id": 36,
            "name": "Hamilton Centre"
          }
        ],
        "pollDivisionIds": [
          10138615
        ],
        "postalCode": "L8L3J5",
        "streetName": "DALHOUSIE",
        "streetDirectionId": null,
        "streetTypeId": "AVE",
        "placeName": "HAMILTON",
        "streetNameDisplayText": "DALHOUSIE AVE, HAMILTON"
      }
    ]
  },
  {
    "postal": "L8L4J5",
    "result": [
      {
        "electoralDistricts": [
          {
            "election": null,
            "id": 36,
            "name": "Hamilton Centre"
          }
        ],
        "pollDivisionIds": [
          10138609
        ],
        "postalCode": "L8L4J5",
        "streetName": "BURLINGTON",
        "streetDirectionId": "E",
        "streetTypeId": "ST",
        "placeName": "HAMILTON",
        "streetNameDisplayText": "BURLINGTON ST E, HAMILTON"
      }
    ]
  },
  {
    "postal": "L8L6J2",
    "result": []
  },
  {
    "postal": "L8L5V6",
    "result": [
      {
        "electoralDistricts": [
          {
            "election": null,
            "id": 36,
            "name": "Hamilton Centre"
          }
        ],
        "pollDivisionIds": [
          10138607
        ],
        "postalCode": "L8L5V6",
        "streetName": "WENTWORTH",
        "streetDirectionId": "N",
        "streetTypeId": "ST",
        "placeName": "HAMILTON",
        "streetNameDisplayText": "WENTWORTH ST N, HAMILTON"
      }
    ]
  },
  {
    "postal": "L8L3N2",
    "result": []
  },
  {
    "postal": "L8L3B1",
    "result": [
      {
        "electoralDistricts": [
          {
            "election": null,
            "id": 36,
            "name": "Hamilton Centre"
          }
        ],
        "pollDivisionIds": [
          10138616
        ],
        "postalCode": "L8L3B1",
        "streetName": "BARTON",
        "streetDirectionId": "E",
        "streetTypeId": "ST",
        "placeName": "HAMILTON",
        "streetNameDisplayText": "BARTON ST E, HAMILTON"
      }
    ]
  },
  {
    "postal": "L8L8B5",
    "result": [
      {
        "electoralDistricts": [
          {
            "election": null,
            "id": 36,
            "name": "Hamilton Centre"
          }
        ],
        "pollDivisionIds": [
          10138599
        ],
        "postalCode": "L8L8B5",
        "streetName": "JAMES",
        "streetDirectionId": "N",
        "streetTypeId": "ST",
        "placeName": "HAMILTON",
        "streetNameDisplayText": "JAMES ST N, HAMILTON"
      }
    ]
  },
  {
    "postal": "L8L0K1",
    "result": []
  },
  {
    "postal": "L8L7M7",
    "result": [
      {
        "electoralDistricts": [
          {
            "election": null,
            "id": 36,
            "name": "Hamilton Centre"
          }
        ],
        "pollDivisionIds": [
          10138614
        ],
        "postalCode": "L8L7M7",
        "streetName": "BELMONT",
        "streetDirectionId": null,
        "streetTypeId": "AVE",
        "placeName": "HAMILTON",
        "streetNameDisplayText": "BELMONT AVE, HAMILTON"
      }
    ]
  },
  {
    "postal": "L8L2M2",
    "result": [
      {
        "electoralDistricts": [
          {
            "election": null,
            "id": 36,
            "name": "Hamilton Centre"
          }
        ],
        "pollDivisionIds": [
          10138607
        ],
        "postalCode": "L8L2M2",
        "streetName": "HARVEY",
        "streetDirectionId": null,
        "streetTypeId": "ST",
        "placeName": "HAMILTON",
        "streetNameDisplayText": "HARVEY ST, HAMILTON"
      }
    ]
  },
  {
    "postal": "L8L9N3",
    "result": []
  },
  {
    "postal": "L8L4Y8",
    "result": [
      {
        "electoralDistricts": [
          {
            "election": null,
            "id": 36,
            "name": "Hamilton Centre"
          }
        ],
        "pollDivisionIds": [
          10138605
        ],
        "postalCode": "L8L4Y8",
        "streetName": "FERGUSON",
        "streetDirectionId": "N",
        "streetTypeId": "AVE",
        "placeName": "HAMILTON",
        "streetNameDisplayText": "FERGUSON AVE N, HAMILTON"
      }
    ]
  },
  {
    "postal": "L8L3V7",
    "result": [
      {
        "electoralDistricts": [
          {
            "election": null,
            "id": 36,
            "name": "Hamilton Centre"
          }
        ],
        "pollDivisionIds": [
          10138609
        ],
        "postalCode": "L8L3V7",
        "streetName": "MUNROE",
        "streetDirectionId": null,
        "streetTypeId": "ST",
        "placeName": "HAMILTON",
        "streetNameDisplayText": "MUNROE ST, HAMILTON"
      }
    ]
  },
  {
    "postal": "L8L8Z1",
    "result": []
  },
  {
    "postal": "L8L7B3",
    "result": []
  },
  {
    "postal": "L8L3A8",
    "result": [
      {
        "electoralDistricts": [
          {
            "election": null,
            "id": 36,
            "name": "Hamilton Centre"
          }
        ],
        "pollDivisionIds": [
          10138616
        ],
        "postalCode": "L8L3A8",
        "streetName": "BARTON",
        "streetDirectionId": "E",
        "streetTypeId": "ST",
        "placeName": "HAMILTON",
        "streetNameDisplayText": "BARTON ST E, HAMILTON"
      }
    ]
  },
  {
    "postal": "L8L7V5",
    "result": []
  },
  {
    "postal": "L8L2T2",
    "result": [
      {
        "electoralDistricts": [
          {
            "election": null,
            "id": 36,
            "name": "Hamilton Centre"
          }
        ],
        "pollDivisionIds": [
          10138612
        ],
        "postalCode": "L8L2T2",
        "streetName": "BEECHWOOD",
        "streetDirectionId": null,
        "streetTypeId": "AVE",
        "placeName": "HAMILTON",
        "streetNameDisplayText": "BEECHWOOD AVE, HAMILTON"
      }
    ]
  },
  {
    "postal": "L8L6L3",
    "result": [
      {
        "electoralDistricts": [
          {
            "election": null,
            "id": 36,
            "name": "Hamilton Centre"
          }
        ],
        "pollDivisionIds": [
          10138609
        ],
        "postalCode": "L8L6L3",
        "streetName": "EARL",
        "streetDirectionId": null,
        "streetTypeId": "ST",
        "placeName": "HAMILTON",
        "streetNameDisplayText": "EARL ST, HAMILTON"
      }
    ]
  },
  {
    "postal": "L8L0L2",
    "result": []
  },
  {
    "postal": "L8L5Y8",
    "result": []
  },
  {
    "postal": "L8L0B8",
    "result": []
  },
  {
    "postal": "L8L6R5",
    "result": [
      {
        "electoralDistricts": [
          {
            "election": null,
            "id": 36,
            "name": "Hamilton Centre"
          }
        ],
        "pollDivisionIds": [
          10138612
        ],
        "postalCode": "L8L6R5",
        "streetName": "BARNESDALE",
        "streetDirectionId": "N",
        "streetTypeId": "AVE",
        "placeName": "HAMILTON",
        "streetNameDisplayText": "BARNESDALE AVE N, HAMILTON"
      }
    ]
  },
  {
    "postal": "L8L8W6",
    "result": []
  },
  {
    "postal": "L8L8G6",
    "result": [
      {
        "electoralDistricts": [
          {
            "election": null,
            "id": 36,
            "name": "Hamilton Centre"
          }
        ],
        "pollDivisionIds": [
          10138607
        ],
        "postalCode": "L8L8G6",
        "streetName": "SANFORD",
        "streetDirectionId": "N",
        "streetTypeId": "AVE",
        "placeName": "HAMILTON",
        "streetNameDisplayText": "SANFORD AVE N, HAMILTON"
      }
    ]
  },
  {
    "postal": "L8L6X3",
    "result": [
      {
        "electoralDistricts": [
          {
            "election": null,
            "id": 36,
            "name": "Hamilton Centre"
          }
        ],
        "pollDivisionIds": [
          10138612
        ],
        "postalCode": "L8L6X3",
        "streetName": "MELROSE",
        "streetDirectionId": "N",
        "streetTypeId": "AVE",
        "placeName": "HAMILTON",
        "streetNameDisplayText": "MELROSE AVE N, HAMILTON"
      }
    ]
  },
  {
    "postal": "L8L7R7",
    "result": [
      {
        "electoralDistricts": [
          {
            "election": null,
            "id": 36,
            "name": "Hamilton Centre"
          }
        ],
        "pollDivisionIds": [
          10138614
        ],
        "postalCode": "L8L7R7",
        "streetName": "BALMORAL",
        "streetDirectionId": "N",
        "streetTypeId": "AVE",
        "placeName": "HAMILTON",
        "streetNameDisplayText": "BALMORAL AVE N, HAMILTON"
      }
    ]
  },
  {
    "postal": "L8L4B6",
    "result": [
      {
        "electoralDistricts": [
          {
            "election": null,
            "id": 36,
            "name": "Hamilton Centre"
          }
        ],
        "pollDivisionIds": [
          10138616
        ],
        "postalCode": "L8L4B6",
        "streetName": "WHITFIELD",
        "streetDirectionId": null,
        "streetTypeId": "AVE",
        "placeName": "HAMILTON",
        "streetNameDisplayText": "WHITFIELD AVE, HAMILTON"
      }
    ]
  },
  {
    "postal": "L8L3P9",
    "result": [
      {
        "electoralDistricts": [
          {
            "election": null,
            "id": 36,
            "name": "Hamilton Centre"
          }
        ],
        "pollDivisionIds": [
          10138609
        ],
        "postalCode": "L8L3P9",
        "streetName": "BURTON",
        "streetDirectionId": null,
        "streetTypeId": "ST",
        "placeName": "HAMILTON",
        "streetNameDisplayText": "BURTON ST, HAMILTON"
      }
    ]
  },
  {
    "postal": "L8L2T3",
    "result": [
      {
        "electoralDistricts": [
          {
            "election": null,
            "id": 36,
            "name": "Hamilton Centre"
          }
        ],
        "pollDivisionIds": [
          10138614
        ],
        "postalCode": "L8L2T3",
        "streetName": "BEECHWOOD",
        "streetDirectionId": null,
        "streetTypeId": "AVE",
        "placeName": "HAMILTON",
        "streetNameDisplayText": "BEECHWOOD AVE, HAMILTON"
      }
    ]
  },
  {
    "postal": "L8L1M4",
    "result": [
      {
        "electoralDistricts": [
          {
            "election": null,
            "id": 36,
            "name": "Hamilton Centre"
          }
        ],
        "pollDivisionIds": [
          10138599
        ],
        "postalCode": "L8L1M4",
        "streetName": "BAY",
        "streetDirectionId": "N",
        "streetTypeId": "ST",
        "placeName": "HAMILTON",
        "streetNameDisplayText": "BAY ST N, HAMILTON"
      },
      {
        "electoralDistricts": [
          {
            "election": null,
            "id": 36,
            "name": "Hamilton Centre"
          }
        ],
        "pollDivisionIds": [
          10138595
        ],
        "postalCode": "L8L1M4",
        "streetName": "BAY",
        "streetDirectionId": "S",
        "streetTypeId": "ST",
        "placeName": "HAMILTON",
        "streetNameDisplayText": "BAY ST S, HAMILTON"
      }
    ]
  },
  {
    "postal": "L8L0H1",
    "result": []
  },
  {
    "postal": "L8L9W3",
    "result": []
  },
  {
    "postal": "L8L6P1",
    "result": [
      {
        "electoralDistricts": [
          {
            "election": null,
            "id": 36,
            "name": "Hamilton Centre"
          }
        ],
        "pollDivisionIds": [
          10138609
        ],
        "postalCode": "L8L6P1",
        "streetName": "SHERMAN",
        "streetDirectionId": "N",
        "streetTypeId": "AVE",
        "placeName": "HAMILTON",
        "streetNameDisplayText": "SHERMAN AVE N, HAMILTON"
      }
    ]
  },
  {
    "postal": "L8L7G2",
    "result": [
      {
        "electoralDistricts": [
          {
            "election": null,
            "id": 36,
            "name": "Hamilton Centre"
          }
        ],
        "pollDivisionIds": [
          10138615
        ],
        "postalCode": "L8L7G2",
        "streetName": "ALBEMARLE",
        "streetDirectionId": null,
        "streetTypeId": "ST",
        "placeName": "HAMILTON",
        "streetNameDisplayText": "ALBEMARLE ST, HAMILTON"
      }
    ]
  },
  {
    "postal": "L8L4J9",
    "result": []
  },
  {
    "postal": "L8L9E4",
    "result": []
  },
  {
    "postal": "L8L8H0",
    "result": []
  },
  {
    "postal": "L8L4M7",
    "result": [
      {
        "electoralDistricts": [
          {
            "election": null,
            "id": 36,
            "name": "Hamilton Centre"
          }
        ],
        "pollDivisionIds": [
          10138605
        ],
        "postalCode": "L8L4M7",
        "streetName": "HUGHSON",
        "streetDirectionId": "N",
        "streetTypeId": "ST",
        "placeName": "HAMILTON",
        "streetNameDisplayText": "HUGHSON ST N, HAMILTON"
      }
    ]
  },
  {
    "postal": "L8L2G9",
    "result": [
      {
        "electoralDistricts": [
          {
            "election": null,
            "id": 36,
            "name": "Hamilton Centre"
          }
        ],
        "pollDivisionIds": [
          10138612
        ],
        "postalCode": "L8L2G9",
        "streetName": "CANNON",
        "streetDirectionId": "E",
        "streetTypeId": "ST",
        "placeName": "HAMILTON",
        "streetNameDisplayText": "CANNON ST E, HAMILTON"
      }
    ]
  },
  {
    "postal": "L8L8T2",
    "result": []
  },
  {
    "postal": "L8L7G7",
    "result": [
      {
        "electoralDistricts": [
          {
            "election": null,
            "id": 36,
            "name": "Hamilton Centre"
          }
        ],
        "pollDivisionIds": [
          10138616
        ],
        "postalCode": "L8L7G7",
        "streetName": "LYNDHURST",
        "streetDirectionId": null,
        "streetTypeId": "ST",
        "placeName": "HAMILTON",
        "streetNameDisplayText": "LYNDHURST ST, HAMILTON"
      }
    ]
  },
  {
    "postal": "L8L4Z3",
    "result": [
      {
        "electoralDistricts": [
          {
            "election": null,
            "id": 36,
            "name": "Hamilton Centre"
          }
        ],
        "pollDivisionIds": [
          10138605
        ],
        "postalCode": "L8L4Z3",
        "streetName": "FERGUSON",
        "streetDirectionId": "N",
        "streetTypeId": "AVE",
        "placeName": "HAMILTON",
        "streetNameDisplayText": "FERGUSON AVE N, HAMILTON"
      }
    ]
  },
  {
    "postal": "L8L5B3",
    "result": [
      {
        "electoralDistricts": [
          {
            "election": null,
            "id": 36,
            "name": "Hamilton Centre"
          }
        ],
        "pollDivisionIds": [
          10138609
        ],
        "postalCode": "L8L5B3",
        "streetName": "WELLINGTON",
        "streetDirectionId": "N",
        "streetTypeId": "ST",
        "placeName": "HAMILTON",
        "streetNameDisplayText": "WELLINGTON ST N, HAMILTON"
      }
    ]
  },
  {
    "postal": "L8L1S7",
    "result": [
      {
        "electoralDistricts": [
          {
            "election": null,
            "id": 36,
            "name": "Hamilton Centre"
          }
        ],
        "pollDivisionIds": [
          10138607
        ],
        "postalCode": "L8L1S7",
        "streetName": "WILSON",
        "streetDirectionId": null,
        "streetTypeId": "ST",
        "placeName": "HAMILTON",
        "streetNameDisplayText": "WILSON ST, HAMILTON"
      }
    ]
  },
  {
    "postal": "L8L2N7",
    "result": [
      {
        "electoralDistricts": [
          {
            "election": null,
            "id": 36,
            "name": "Hamilton Centre"
          }
        ],
        "pollDivisionIds": [
          10138615
        ],
        "postalCode": "L8L2N7",
        "streetName": "CAMPBELL",
        "streetDirectionId": null,
        "streetTypeId": "AVE",
        "placeName": "HAMILTON",
        "streetNameDisplayText": "CAMPBELL AVE, HAMILTON"
      }
    ]
  },
  {
    "postal": "L8L0H8",
    "result": []
  },
  {
    "postal": "L8L7Z4",
    "result": []
  },
  {
    "postal": "L8L7B1",
    "result": [
      {
        "electoralDistricts": [
          {
            "election": null,
            "id": 36,
            "name": "Hamilton Centre"
          }
        ],
        "pollDivisionIds": [
          10138616
        ],
        "postalCode": "L8L7B1",
        "streetName": "GAGE",
        "streetDirectionId": "N",
        "streetTypeId": "AVE",
        "placeName": "HAMILTON",
        "streetNameDisplayText": "GAGE AVE N, HAMILTON"
      }
    ]
  },
  {
    "postal": "L8L7P8",
    "result": [
      {
        "electoralDistricts": [
          {
            "election": null,
            "id": 36,
            "name": "Hamilton Centre"
          }
        ],
        "pollDivisionIds": [
          10138614
        ],
        "postalCode": "L8L7P8",
        "streetName": "ROSSLYN",
        "streetDirectionId": "N",
        "streetTypeId": "AVE",
        "placeName": "HAMILTON",
        "streetNameDisplayText": "ROSSLYN AVE N, HAMILTON"
      }
    ]
  },
  {
    "postal": "L8L7N0",
    "result": []
  },
  {
    "postal": "L8L3Y5",
    "result": [
      {
        "electoralDistricts": [
          {
            "election": null,
            "id": 36,
            "name": "Hamilton Centre"
          }
        ],
        "pollDivisionIds": [
          10138605
        ],
        "postalCode": "L8L3Y5",
        "streetName": "WOOD",
        "streetDirectionId": "E",
        "streetTypeId": "ST",
        "placeName": "HAMILTON",
        "streetNameDisplayText": "WOOD ST E, HAMILTON"
      }
    ]
  },
  {
    "postal": "L8L6K1",
    "result": [
      {
        "electoralDistricts": [
          {
            "election": null,
            "id": 36,
            "name": "Hamilton Centre"
          }
        ],
        "pollDivisionIds": [
          10138609
        ],
        "postalCode": "L8L6K1",
        "streetName": "GIBSON",
        "streetDirectionId": null,
        "streetTypeId": "AVE",
        "placeName": "HAMILTON",
        "streetNameDisplayText": "GIBSON AVE, HAMILTON"
      }
    ]
  },
  {
    "postal": "L8L9X5",
    "result": []
  },
  {
    "postal": "L8L7S5",
    "result": [
      {
        "electoralDistricts": [
          {
            "election": null,
            "id": 36,
            "name": "Hamilton Centre"
          }
        ],
        "pollDivisionIds": [
          10138614
        ],
        "postalCode": "L8L7S5",
        "streetName": "GROSVENOR",
        "streetDirectionId": "N",
        "streetTypeId": "AVE",
        "placeName": "HAMILTON",
        "streetNameDisplayText": "GROSVENOR AVE N, HAMILTON"
      }
    ]
  },
  {
    "postal": "L8L0A4",
    "result": []
  },
  {
    "postal": "L8L4T5",
    "result": [
      {
        "electoralDistricts": [
          {
            "election": null,
            "id": 36,
            "name": "Hamilton Centre"
          }
        ],
        "pollDivisionIds": [
          10138599
        ],
        "postalCode": "L8L4T5",
        "streetName": "CATHARINE",
        "streetDirectionId": "N",
        "streetTypeId": "ST",
        "placeName": "HAMILTON",
        "streetNameDisplayText": "CATHARINE ST N, HAMILTON"
      }
    ]
  },
  {
    "postal": "L8L5K1",
    "result": []
  },
  {
    "postal": "L8L0Z9",
    "result": []
  },
  {
    "postal": "L8L7T2",
    "result": [
      {
        "electoralDistricts": [
          {
            "election": null,
            "id": 36,
            "name": "Hamilton Centre"
          }
        ],
        "pollDivisionIds": [
          10138615
        ],
        "postalCode": "L8L7T2",
        "streetName": "GROSVENOR",
        "streetDirectionId": "N",
        "streetTypeId": "AVE",
        "placeName": "HAMILTON",
        "streetNameDisplayText": "GROSVENOR AVE N, HAMILTON"
      }
    ]
  },
  {
    "postal": "L8L1L5",
    "result": [
      {
        "electoralDistricts": [
          {
            "election": null,
            "id": 36,
            "name": "Hamilton Centre"
          }
        ],
        "pollDivisionIds": [
          10138599
        ],
        "postalCode": "L8L1L5",
        "streetName": "MACNAB",
        "streetDirectionId": "N",
        "streetTypeId": "ST",
        "placeName": "HAMILTON",
        "streetNameDisplayText": "MACNAB ST N, HAMILTON"
      }
    ]
  },
  {
    "postal": "L8L3N5",
    "result": [
      {
        "electoralDistricts": [
          {
            "election": null,
            "id": 36,
            "name": "Hamilton Centre"
          }
        ],
        "pollDivisionIds": [
          10138605
        ],
        "postalCode": "L8L3N5",
        "streetName": "SIMCOE",
        "streetDirectionId": "E",
        "streetTypeId": "ST",
        "placeName": "HAMILTON",
        "streetNameDisplayText": "SIMCOE ST E, HAMILTON"
      }
    ]
  },
  {
    "postal": "L8L6H4",
    "result": [
      {
        "electoralDistricts": [
          {
            "election": null,
            "id": 36,
            "name": "Hamilton Centre"
          }
        ],
        "pollDivisionIds": [
          10138610
        ],
        "postalCode": "L8L6H4",
        "streetName": "HOLTON",
        "streetDirectionId": "N",
        "streetTypeId": "AVE",
        "placeName": "HAMILTON",
        "streetNameDisplayText": "HOLTON AVE N, HAMILTON"
      }
    ]
  },
  {
    "postal": "L8L5A5",
    "result": [
      {
        "electoralDistricts": [
          {
            "election": null,
            "id": 36,
            "name": "Hamilton Centre"
          }
        ],
        "pollDivisionIds": [
          10138609
        ],
        "postalCode": "L8L5A5",
        "streetName": "WELLINGTON",
        "streetDirectionId": "N",
        "streetTypeId": "ST",
        "placeName": "HAMILTON",
        "streetNameDisplayText": "WELLINGTON ST N, HAMILTON"
      },
      {
        "electoralDistricts": [
          {
            "election": null,
            "id": 36,
            "name": "Hamilton Centre"
          }
        ],
        "pollDivisionIds": [
          10138602
        ],
        "postalCode": "L8L5A5",
        "streetName": "WELLINGTON",
        "streetDirectionId": "S",
        "streetTypeId": "ST",
        "placeName": "HAMILTON",
        "streetNameDisplayText": "WELLINGTON ST S, HAMILTON"
      }
    ]
  },
  {
    "postal": "L8L3R9",
    "result": [
      {
        "electoralDistricts": [
          {
            "election": null,
            "id": 36,
            "name": "Hamilton Centre"
          }
        ],
        "pollDivisionIds": [
          10138609
        ],
        "postalCode": "L8L3R9",
        "streetName": "KEITH",
        "streetDirectionId": null,
        "streetTypeId": "ST",
        "placeName": "HAMILTON",
        "streetNameDisplayText": "KEITH ST, HAMILTON"
      },
      {
        "electoralDistricts": [
          {
            "election": null,
            "id": 36,
            "name": "Hamilton Centre"
          }
        ],
        "pollDivisionIds": [
          10138609
        ],
        "postalCode": "L8L3R9",
        "streetName": "KEITH ST.",
        "streetDirectionId": null,
        "streetTypeId": "ST",
        "placeName": "HAMILTON",
        "streetNameDisplayText": "KEITH ST. ST, HAMILTON"
      }
    ]
  },
  {
    "postal": "L8L7L8",
    "result": [
      {
        "electoralDistricts": [
          {
            "election": null,
            "id": 36,
            "name": "Hamilton Centre"
          }
        ],
        "pollDivisionIds": [
          10138614
        ],
        "postalCode": "L8L7L8",
        "streetName": "BELMONT",
        "streetDirectionId": null,
        "streetTypeId": "AVE",
        "placeName": "HAMILTON",
        "streetNameDisplayText": "BELMONT AVE, HAMILTON"
      }
    ]
  },
  {
    "postal": "L8L6T6",
    "result": [
      {
        "electoralDistricts": [
          {
            "election": null,
            "id": 36,
            "name": "Hamilton Centre"
          }
        ],
        "pollDivisionIds": [
          10138612
        ],
        "postalCode": "L8L6T6",
        "streetName": "LOTTRIDGE",
        "streetDirectionId": null,
        "streetTypeId": "ST",
        "placeName": "HAMILTON",
        "streetNameDisplayText": "LOTTRIDGE ST, HAMILTON"
      }
    ]
  },
  {
    "postal": "L8L7Y7",
    "result": []
  },
  {
    "postal": "L8L3M8",
    "result": [
      {
        "electoralDistricts": [
          {
            "election": null,
            "id": 36,
            "name": "Hamilton Centre"
          }
        ],
        "pollDivisionIds": [
          10138599
        ],
        "postalCode": "L8L3M8",
        "streetName": "SIMCOE",
        "streetDirectionId": "E",
        "streetTypeId": "ST",
        "placeName": "HAMILTON",
        "streetNameDisplayText": "SIMCOE ST E, HAMILTON"
      }
    ]
  },
  {
    "postal": "L8L2E0",
    "result": []
  },
  {
    "postal": "L8L4B5",
    "result": [
      {
        "electoralDistricts": [
          {
            "election": null,
            "id": 36,
            "name": "Hamilton Centre"
          }
        ],
        "pollDivisionIds": [
          10138616
        ],
        "postalCode": "L8L4B5",
        "streetName": "WHITFIELD",
        "streetDirectionId": null,
        "streetTypeId": "AVE",
        "placeName": "HAMILTON",
        "streetNameDisplayText": "WHITFIELD AVE, HAMILTON"
      }
    ]
  },
  {
    "postal": "L8L1J3",
    "result": [
      {
        "electoralDistricts": [
          {
            "election": null,
            "id": 36,
            "name": "Hamilton Centre"
          }
        ],
        "pollDivisionIds": [
          10138599
        ],
        "postalCode": "L8L1J3",
        "streetName": "JAMES",
        "streetDirectionId": "N",
        "streetTypeId": "ST",
        "placeName": "HAMILTON",
        "streetNameDisplayText": "JAMES ST N, HAMILTON"
      }
    ]
  },
  {
    "postal": "L8L5S6",
    "result": [
      {
        "electoralDistricts": [
          {
            "election": null,
            "id": 36,
            "name": "Hamilton Centre"
          }
        ],
        "pollDivisionIds": [
          10138607
        ],
        "postalCode": "L8L5S6",
        "streetName": "ASHLEY",
        "streetDirectionId": null,
        "streetTypeId": "ST",
        "placeName": "HAMILTON",
        "streetNameDisplayText": "ASHLEY ST, HAMILTON"
      }
    ]
  },
  {
    "postal": "L8L8P7",
    "result": []
  },
  {
    "postal": "L8L7S7",
    "result": [
      {
        "electoralDistricts": [
          {
            "election": null,
            "id": 36,
            "name": "Hamilton Centre"
          }
        ],
        "pollDivisionIds": [
          10138614
        ],
        "postalCode": "L8L7S7",
        "streetName": "GROSVENOR",
        "streetDirectionId": "N",
        "streetTypeId": "AVE",
        "placeName": "HAMILTON",
        "streetNameDisplayText": "GROSVENOR AVE N, HAMILTON"
      }
    ]
  },
  {
    "postal": "L8L4C2",
    "result": [
      {
        "electoralDistricts": [
          {
            "election": null,
            "id": 36,
            "name": "Hamilton Centre"
          }
        ],
        "pollDivisionIds": [
          10138616
        ],
        "postalCode": "L8L4C2",
        "streetName": "GERTRUDE",
        "streetDirectionId": null,
        "streetTypeId": "ST",
        "placeName": "HAMILTON",
        "streetNameDisplayText": "GERTRUDE ST, HAMILTON"
      }
    ]
  },
  {
    "postal": "L8L5Y0",
    "result": []
  },
  {
    "postal": "L8L2V7",
    "result": [
      {
        "electoralDistricts": [
          {
            "election": null,
            "id": 36,
            "name": "Hamilton Centre"
          }
        ],
        "pollDivisionIds": [
          10138605
        ],
        "postalCode": "L8L2V7",
        "streetName": "BARTON",
        "streetDirectionId": "E",
        "streetTypeId": "ST",
        "placeName": "HAMILTON",
        "streetNameDisplayText": "BARTON ST E, HAMILTON"
      }
    ]
  },
  {
    "postal": "L8L8P5",
    "result": []
  },
  {
    "postal": "L8L5P5",
    "result": []
  },
  {
    "postal": "L8L5Z0",
    "result": []
  },
  {
    "postal": "L8L9B0",
    "result": []
  },
  {
    "postal": "L8L1L0",
    "result": []
  },
  {
    "postal": "L8L0B5",
    "result": [
      {
        "electoralDistricts": [
          {
            "election": null,
            "id": 36,
            "name": "Hamilton Centre"
          }
        ],
        "pollDivisionIds": [
          10138609
        ],
        "postalCode": "L8L0B5",
        "streetName": "BRANT",
        "streetDirectionId": null,
        "streetTypeId": "ST",
        "placeName": "HAMILTON",
        "streetNameDisplayText": "BRANT ST, HAMILTON"
      }
    ]
  },
  {
    "postal": "L8L3L2",
    "result": [
      {
        "electoralDistricts": [
          {
            "election": null,
            "id": 36,
            "name": "Hamilton Centre"
          }
        ],
        "pollDivisionIds": [
          10138609
        ],
        "postalCode": "L8L3L2",
        "streetName": "PRINCESS",
        "streetDirectionId": null,
        "streetTypeId": "ST",
        "placeName": "HAMILTON",
        "streetNameDisplayText": "PRINCESS ST, HAMILTON"
      }
    ]
  },
  {
    "postal": "L8L3B7",
    "result": [
      {
        "electoralDistricts": [
          {
            "election": null,
            "id": 36,
            "name": "Hamilton Centre"
          }
        ],
        "pollDivisionIds": [
          10138612
        ],
        "postalCode": "L8L3B7",
        "streetName": "BARTON",
        "streetDirectionId": "E",
        "streetTypeId": "ST",
        "placeName": "HAMILTON",
        "streetNameDisplayText": "BARTON ST E, HAMILTON"
      }
    ]
  },
  {
    "postal": "L8L8L1",
    "result": []
  },
  {
    "postal": "L8L5M4",
    "result": [
      {
        "electoralDistricts": [
          {
            "election": null,
            "id": 36,
            "name": "Hamilton Centre"
          }
        ],
        "pollDivisionIds": [
          10138607
        ],
        "postalCode": "L8L5M4",
        "streetName": "TISDALE",
        "streetDirectionId": "N",
        "streetTypeId": "ST",
        "placeName": "HAMILTON",
        "streetNameDisplayText": "TISDALE ST N, HAMILTON"
      }
    ]
  },
  {
    "postal": "L8L4G9",
    "result": [
      {
        "electoralDistricts": [
          {
            "election": null,
            "id": 36,
            "name": "Hamilton Centre"
          }
        ],
        "pollDivisionIds": [
          10138609
        ],
        "postalCode": "L8L4G9",
        "streetName": "BURLINGTON",
        "streetDirectionId": "E",
        "streetTypeId": "ST",
        "placeName": "HAMILTON",
        "streetNameDisplayText": "BURLINGTON ST E, HAMILTON"
      }
    ]
  },
  {
    "postal": "L8L0P0",
    "result": []
  },
  {
    "postal": "L8L8G2",
    "result": [
      {
        "electoralDistricts": [
          {
            "election": null,
            "id": 36,
            "name": "Hamilton Centre"
          }
        ],
        "pollDivisionIds": [
          10138604
        ],
        "postalCode": "L8L8G2",
        "streetName": "KING WILLIAM",
        "streetDirectionId": null,
        "streetTypeId": "ST",
        "placeName": "HAMILTON",
        "streetNameDisplayText": "KING WILLIAM ST, HAMILTON"
      }
    ]
  },
  {
    "postal": "L8L1V9",
    "result": [
      {
        "electoralDistricts": [
          {
            "election": null,
            "id": 36,
            "name": "Hamilton Centre"
          }
        ],
        "pollDivisionIds": [
          10138607
        ],
        "postalCode": "L8L1V9",
        "streetName": "CENTURY",
        "streetDirectionId": null,
        "streetTypeId": "ST",
        "placeName": "HAMILTON",
        "streetNameDisplayText": "CENTURY ST, HAMILTON"
      }
    ]
  },
  {
    "postal": "L8L8N8",
    "result": []
  },
  {
    "postal": "L8L6S8",
    "result": [
      {
        "electoralDistricts": [
          {
            "election": null,
            "id": 36,
            "name": "Hamilton Centre"
          }
        ],
        "pollDivisionIds": [
          10138616
        ],
        "postalCode": "L8L6S8",
        "streetName": "BARNESDALE",
        "streetDirectionId": "N",
        "streetTypeId": "AVE",
        "placeName": "HAMILTON",
        "streetNameDisplayText": "BARNESDALE AVE N, HAMILTON"
      }
    ]
  },
  {
    "postal": "L8L8H2",
    "result": []
  },
  {
    "postal": "L8L5R8",
    "result": [
      {
        "electoralDistricts": [
          {
            "election": null,
            "id": 36,
            "name": "Hamilton Centre"
          }
        ],
        "pollDivisionIds": [
          10138609
        ],
        "postalCode": "L8L5R8",
        "streetName": "CHEEVER",
        "streetDirectionId": null,
        "streetTypeId": "ST",
        "placeName": "HAMILTON",
        "streetNameDisplayText": "CHEEVER ST, HAMILTON"
      }
    ]
  },
  {
    "postal": "L8L5L4",
    "result": [
      {
        "electoralDistricts": [
          {
            "election": null,
            "id": 36,
            "name": "Hamilton Centre"
          }
        ],
        "pollDivisionIds": [
          10138609
        ],
        "postalCode": "L8L5L4",
        "streetName": "EMERALD",
        "streetDirectionId": "N",
        "streetTypeId": "ST",
        "placeName": "HAMILTON",
        "streetNameDisplayText": "EMERALD ST N, HAMILTON"
      }
    ]
  },
  {
    "postal": "L8L9E1",
    "result": []
  },
  {
    "postal": "L8L1C4",
    "result": [
      {
        "electoralDistricts": [
          {
            "election": null,
            "id": 36,
            "name": "Hamilton Centre"
          }
        ],
        "pollDivisionIds": [
          10138599
        ],
        "postalCode": "L8L1C4",
        "streetName": "FERRIE",
        "streetDirectionId": "W",
        "streetTypeId": "ST",
        "placeName": "HAMILTON",
        "streetNameDisplayText": "FERRIE ST W, HAMILTON"
      }
    ]
  },
  {
    "postal": "L8L8W5",
    "result": []
  },
  {
    "postal": "L8L1Y4",
    "result": [
      {
        "electoralDistricts": [
          {
            "election": null,
            "id": 36,
            "name": "Hamilton Centre"
          }
        ],
        "pollDivisionIds": [
          10138614
        ],
        "postalCode": "L8L1Y4",
        "streetName": "ROXBOROUGH",
        "streetDirectionId": null,
        "streetTypeId": "AVE",
        "placeName": "HAMILTON",
        "streetNameDisplayText": "ROXBOROUGH AVE, HAMILTON"
      }
    ]
  },
  {
    "postal": "L8L1C0",
    "result": []
  },
  {
    "postal": "L8L2J2",
    "result": [
      {
        "electoralDistricts": [
          {
            "election": null,
            "id": 36,
            "name": "Hamilton Centre"
          }
        ],
        "pollDivisionIds": [
          10138614
        ],
        "postalCode": "L8L2J2",
        "streetName": "CANNON",
        "streetDirectionId": "E",
        "streetTypeId": "ST",
        "placeName": "HAMILTON",
        "streetNameDisplayText": "CANNON ST E, HAMILTON"
      }
    ]
  },
  {
    "postal": "L8L2J0",
    "result": []
  },
  {
    "postal": "L8L7A3",
    "result": [
      {
        "electoralDistricts": [
          {
            "election": null,
            "id": 36,
            "name": "Hamilton Centre"
          }
        ],
        "pollDivisionIds": [
          10138612
        ],
        "postalCode": "L8L7A3",
        "streetName": "GAGE",
        "streetDirectionId": "N",
        "streetTypeId": "AVE",
        "placeName": "HAMILTON",
        "streetNameDisplayText": "GAGE AVE N, HAMILTON"
      }
    ]
  },
  {
    "postal": "L8L8M1",
    "result": []
  },
  {
    "postal": "L8L7T9",
    "result": []
  },
  {
    "postal": "L8L6C0",
    "result": []
  },
  {
    "postal": "L8L7X1",
    "result": []
  },
  {
    "postal": "L8L0G1",
    "result": []
  },
  {
    "postal": "L8L4X2",
    "result": [
      {
        "electoralDistricts": [
          {
            "election": null,
            "id": 36,
            "name": "Hamilton Centre"
          }
        ],
        "pollDivisionIds": [
          10138605
        ],
        "postalCode": "L8L4X2",
        "streetName": "MARY",
        "streetDirectionId": null,
        "streetTypeId": "ST",
        "placeName": "HAMILTON",
        "streetNameDisplayText": "MARY ST, HAMILTON"
      }
    ]
  },
  {
    "postal": "L8L0N6",
    "result": []
  },
  {
    "postal": "L8L8E3",
    "result": []
  },
  {
    "postal": "L8L5S8",
    "result": [
      {
        "electoralDistricts": [
          {
            "election": null,
            "id": 36,
            "name": "Hamilton Centre"
          }
        ],
        "pollDivisionIds": [
          10138607
        ],
        "postalCode": "L8L5S8",
        "streetName": "ASHLEY",
        "streetDirectionId": null,
        "streetTypeId": "ST",
        "placeName": "HAMILTON",
        "streetNameDisplayText": "ASHLEY ST, HAMILTON"
      }
    ]
  },
  {
    "postal": "L8L0R0",
    "result": []
  },
  {
    "postal": "L8L6J6",
    "result": [
      {
        "electoralDistricts": [
          {
            "election": null,
            "id": 36,
            "name": "Hamilton Centre"
          }
        ],
        "pollDivisionIds": [
          10138610
        ],
        "postalCode": "L8L6J6",
        "streetName": "GIBSON",
        "streetDirectionId": null,
        "streetTypeId": "AVE",
        "placeName": "HAMILTON",
        "streetNameDisplayText": "GIBSON AVE, HAMILTON"
      }
    ]
  },
  {
    "postal": "L8L4B4",
    "result": [
      {
        "electoralDistricts": [
          {
            "election": null,
            "id": 36,
            "name": "Hamilton Centre"
          }
        ],
        "pollDivisionIds": [
          10138616
        ],
        "postalCode": "L8L4B4",
        "streetName": "WHITFIELD",
        "streetDirectionId": null,
        "streetTypeId": "AVE",
        "placeName": "HAMILTON",
        "streetNameDisplayText": "WHITFIELD AVE, HAMILTON"
      }
    ]
  },
  {
    "postal": "L8L7E3",
    "result": [
      {
        "electoralDistricts": [
          {
            "election": null,
            "id": 36,
            "name": "Hamilton Centre"
          }
        ],
        "pollDivisionIds": [
          10138614
        ],
        "postalCode": "L8L7E3",
        "streetName": "EAST BEND",
        "streetDirectionId": "N",
        "streetTypeId": "AVE",
        "placeName": "HAMILTON",
        "streetNameDisplayText": "EAST BEND AVE N, HAMILTON"
      }
    ]
  },
  {
    "postal": "L8L3N6",
    "result": [
      {
        "electoralDistricts": [
          {
            "election": null,
            "id": 36,
            "name": "Hamilton Centre"
          }
        ],
        "pollDivisionIds": [
          10138605
        ],
        "postalCode": "L8L3N6",
        "streetName": "SIMCOE",
        "streetDirectionId": "E",
        "streetTypeId": "ST",
        "placeName": "HAMILTON",
        "streetNameDisplayText": "SIMCOE ST E, HAMILTON"
      }
    ]
  },
  {
    "postal": "L8L3X6",
    "result": [
      {
        "electoralDistricts": [
          {
            "election": null,
            "id": 36,
            "name": "Hamilton Centre"
          }
        ],
        "pollDivisionIds": [
          10138605
        ],
        "postalCode": "L8L3X6",
        "streetName": "MACAULEY",
        "streetDirectionId": "E",
        "streetTypeId": "ST",
        "placeName": "HAMILTON",
        "streetNameDisplayText": "MACAULEY ST E, HAMILTON"
      }
    ]
  },
  {
    "postal": "L8L8L0",
    "result": []
  },
  {
    "postal": "L8L8N1",
    "result": []
  },
  {
    "postal": "L8L4J0",
    "result": []
  },
  {
    "postal": "L8L0X7",
    "result": []
  },
  {
    "postal": "L8L6S4",
    "result": [
      {
        "electoralDistricts": [
          {
            "election": null,
            "id": 36,
            "name": "Hamilton Centre"
          }
        ],
        "pollDivisionIds": [
          10138610,
          10138616
        ],
        "postalCode": "L8L6S4",
        "streetName": "BARNESDALE",
        "streetDirectionId": "N",
        "streetTypeId": "AVE",
        "placeName": "HAMILTON",
        "streetNameDisplayText": "BARNESDALE AVE N, HAMILTON"
      }
    ]
  },
  {
    "postal": "L8L0Z0",
    "result": []
  },
  {
    "postal": "L8L9X8",
    "result": []
  },
  {
    "postal": "L8L3H3",
    "result": [
      {
        "electoralDistricts": [
          {
            "election": null,
            "id": 36,
            "name": "Hamilton Centre"
          }
        ],
        "pollDivisionIds": [
          10138616
        ],
        "postalCode": "L8L3H3",
        "streetName": "LLOYD",
        "streetDirectionId": null,
        "streetTypeId": "ST",
        "placeName": "HAMILTON",
        "streetNameDisplayText": "LLOYD ST, HAMILTON"
      }
    ]
  },
  {
    "postal": "L8L7S2",
    "result": [
      {
        "electoralDistricts": [
          {
            "election": null,
            "id": 36,
            "name": "Hamilton Centre"
          }
        ],
        "pollDivisionIds": [
          10138615
        ],
        "postalCode": "L8L7S2",
        "streetName": "BALMORAL",
        "streetDirectionId": "N",
        "streetTypeId": "AVE",
        "placeName": "HAMILTON",
        "streetNameDisplayText": "BALMORAL AVE N, HAMILTON"
      }
    ]
  },
  {
    "postal": "L8L3T3",
    "result": [
      {
        "electoralDistricts": [
          {
            "election": null,
            "id": 36,
            "name": "Hamilton Centre"
          }
        ],
        "pollDivisionIds": [
          10138605
        ],
        "postalCode": "L8L3T3",
        "streetName": "FERRIE",
        "streetDirectionId": "E",
        "streetTypeId": "ST",
        "placeName": "HAMILTON",
        "streetNameDisplayText": "FERRIE ST E, HAMILTON"
      }
    ]
  },
  {
    "postal": "L8L9P3",
    "result": []
  },
  {
    "postal": "L8L4H8",
    "result": []
  },
  {
    "postal": "L8L6R1",
    "result": [
      {
        "electoralDistricts": [
          {
            "election": null,
            "id": 36,
            "name": "Hamilton Centre"
          }
        ],
        "pollDivisionIds": [
          10138616
        ],
        "postalCode": "L8L6R1",
        "streetName": "RUTH",
        "streetDirectionId": null,
        "streetTypeId": "ST",
        "placeName": "HAMILTON",
        "streetNameDisplayText": "RUTH ST, HAMILTON"
      }
    ]
  },
  {
    "postal": "L8L1S0",
    "result": []
  },
  {
    "postal": "L8L3W8",
    "result": [
      {
        "electoralDistricts": [
          {
            "election": null,
            "id": 36,
            "name": "Hamilton Centre"
          }
        ],
        "pollDivisionIds": [
          10138605
        ],
        "postalCode": "L8L3W8",
        "streetName": "PICTON",
        "streetDirectionId": "E",
        "streetTypeId": "ST",
        "placeName": "HAMILTON",
        "streetNameDisplayText": "PICTON ST E, HAMILTON"
      }
    ]
  },
  {
    "postal": "L8L4S3",
    "result": [
      {
        "electoralDistricts": [
          {
            "election": null,
            "id": 36,
            "name": "Hamilton Centre"
          }
        ],
        "pollDivisionIds": [
          10138599
        ],
        "postalCode": "L8L4S3",
        "streetName": "JOHN",
        "streetDirectionId": "N",
        "streetTypeId": "ST",
        "placeName": "HAMILTON",
        "streetNameDisplayText": "JOHN ST N, HAMILTON"
      }
    ]
  },
  {
    "postal": "L8L1B6",
    "result": [
      {
        "electoralDistricts": [
          {
            "election": null,
            "id": 36,
            "name": "Hamilton Centre"
          }
        ],
        "pollDivisionIds": [
          10138599
        ],
        "postalCode": "L8L1B6",
        "streetName": "STUART",
        "streetDirectionId": null,
        "streetTypeId": "ST",
        "placeName": "HAMILTON",
        "streetNameDisplayText": "STUART ST, HAMILTON"
      }
    ]
  },
  {
    "postal": "L8L8R3",
    "result": []
  },
  {
    "postal": "L8L4V9",
    "result": [
      {
        "electoralDistricts": [
          {
            "election": null,
            "id": 36,
            "name": "Hamilton Centre"
          }
        ],
        "pollDivisionIds": [
          10138600
        ],
        "postalCode": "L8L4V9",
        "streetName": "MARY",
        "streetDirectionId": null,
        "streetTypeId": "ST",
        "placeName": "HAMILTON",
        "streetNameDisplayText": "MARY ST, HAMILTON"
      }
    ]
  },
  {
    "postal": "L8L9W4",
    "result": []
  },
  {
    "postal": "L8L3T4",
    "result": [
      {
        "electoralDistricts": [
          {
            "election": null,
            "id": 36,
            "name": "Hamilton Centre"
          }
        ],
        "pollDivisionIds": [
          10138605
        ],
        "postalCode": "L8L3T4",
        "streetName": "FERRIE",
        "streetDirectionId": "E",
        "streetTypeId": "ST",
        "placeName": "HAMILTON",
        "streetNameDisplayText": "FERRIE ST E, HAMILTON"
      }
    ]
  },
  {
    "postal": "L8L5C7",
    "result": [
      {
        "electoralDistricts": [
          {
            "election": null,
            "id": 36,
            "name": "Hamilton Centre"
          }
        ],
        "pollDivisionIds": [
          10138609
        ],
        "postalCode": "L8L5C7",
        "streetName": "WEST",
        "streetDirectionId": "N",
        "streetTypeId": "AVE",
        "placeName": "HAMILTON",
        "streetNameDisplayText": "WEST AVE N, HAMILTON"
      }
    ]
  },
  {
    "postal": "L8L3Y1",
    "result": [
      {
        "electoralDistricts": [
          {
            "election": null,
            "id": 36,
            "name": "Hamilton Centre"
          }
        ],
        "pollDivisionIds": [
          10138599
        ],
        "postalCode": "L8L3Y1",
        "streetName": "WOOD",
        "streetDirectionId": "E",
        "streetTypeId": "ST",
        "placeName": "HAMILTON",
        "streetNameDisplayText": "WOOD ST E, HAMILTON"
      }
    ]
  },
  {
    "postal": "L8L5V0",
    "result": []
  },
  {
    "postal": "L8L8G8",
    "result": []
  },
  {
    "postal": "L8L8B1",
    "result": []
  },
  {
    "postal": "L8L4P5",
    "result": [
      {
        "electoralDistricts": [
          {
            "election": null,
            "id": 36,
            "name": "Hamilton Centre"
          }
        ],
        "pollDivisionIds": [
          10138600
        ],
        "postalCode": "L8L4P5",
        "streetName": "JOHN",
        "streetDirectionId": "N",
        "streetTypeId": "ST",
        "placeName": "HAMILTON",
        "streetNameDisplayText": "JOHN ST N, HAMILTON"
      }
    ]
  },
  {
    "postal": "L8L7B2",
    "result": [
      {
        "electoralDistricts": [
          {
            "election": null,
            "id": 36,
            "name": "Hamilton Centre"
          }
        ],
        "pollDivisionIds": [
          10138616
        ],
        "postalCode": "L8L7B2",
        "streetName": "GAGE",
        "streetDirectionId": "N",
        "streetTypeId": "AVE",
        "placeName": "HAMILTON",
        "streetNameDisplayText": "GAGE AVE N, HAMILTON"
      }
    ]
  },
  {
    "postal": "L8L0R2",
    "result": []
  },
  {
    "postal": "L8L4M4",
    "result": [
      {
        "electoralDistricts": [
          {
            "election": null,
            "id": 36,
            "name": "Hamilton Centre"
          }
        ],
        "pollDivisionIds": [
          10138600
        ],
        "postalCode": "L8L4M4",
        "streetName": "HUGHSON",
        "streetDirectionId": "N",
        "streetTypeId": "ST",
        "placeName": "HAMILTON",
        "streetNameDisplayText": "HUGHSON ST N, HAMILTON"
      }
    ]
  },
  {
    "postal": "L8L7M4",
    "result": [
      {
        "electoralDistricts": [
          {
            "election": null,
            "id": 36,
            "name": "Hamilton Centre"
          }
        ],
        "pollDivisionIds": [
          10138614
        ],
        "postalCode": "L8L7M4",
        "streetName": "BELMONT",
        "streetDirectionId": null,
        "streetTypeId": "AVE",
        "placeName": "HAMILTON",
        "streetNameDisplayText": "BELMONT AVE, HAMILTON"
      }
    ]
  },
  {
    "postal": "L8L9S7",
    "result": []
  },
  {
    "postal": "L8L5Z7",
    "result": [
      {
        "electoralDistricts": [
          {
            "election": null,
            "id": 36,
            "name": "Hamilton Centre"
          }
        ],
        "pollDivisionIds": [
          10138607
        ],
        "postalCode": "L8L5Z7",
        "streetName": "SANFORD",
        "streetDirectionId": "N",
        "streetTypeId": "AVE",
        "placeName": "HAMILTON",
        "streetNameDisplayText": "SANFORD AVE N, HAMILTON"
      }
    ]
  },
  {
    "postal": "L8L7J7",
    "result": [
      {
        "electoralDistricts": [
          {
            "election": null,
            "id": 36,
            "name": "Hamilton Centre"
          }
        ],
        "pollDivisionIds": [
          10138614
        ],
        "postalCode": "L8L7J7",
        "streetName": "GLENDALE",
        "streetDirectionId": "N",
        "streetTypeId": "AVE",
        "placeName": "HAMILTON",
        "streetNameDisplayText": "GLENDALE AVE N, HAMILTON"
      }
    ]
  },
  {
    "postal": "L8L8R8",
    "result": []
  },
  {
    "postal": "L8L9X1",
    "result": []
  },
  {
    "postal": "L8L5M9",
    "result": [
      {
        "electoralDistricts": [
          {
            "election": null,
            "id": 36,
            "name": "Hamilton Centre"
          }
        ],
        "pollDivisionIds": [
          10138609
        ],
        "postalCode": "L8L5M9",
        "streetName": "OAK",
        "streetDirectionId": null,
        "streetTypeId": "AVE",
        "placeName": "HAMILTON",
        "streetNameDisplayText": "OAK AVE, HAMILTON"
      }
    ]
  },
  {
    "postal": "L8L9B4",
    "result": []
  },
  {
    "postal": "L8L0L9",
    "result": []
  },
  {
    "postal": "L8L9G4",
    "result": []
  },
  {
    "postal": "L8L1J4",
    "result": [
      {
        "electoralDistricts": [
          {
            "election": null,
            "id": 36,
            "name": "Hamilton Centre"
          }
        ],
        "pollDivisionIds": [
          10138599
        ],
        "postalCode": "L8L1J4",
        "streetName": "JAMES",
        "streetDirectionId": "N",
        "streetTypeId": "ST",
        "placeName": "HAMILTON",
        "streetNameDisplayText": "JAMES ST N, HAMILTON"
      }
    ]
  },
  {
    "postal": "L8L0W6",
    "result": []
  }
]
