[
  {
    "postal": "L9S9J6",
    "result": []
  },
  {
    "postal": "L9S9Z5",
    "result": []
  },
  {
    "postal": "L9S7H8",
    "result": []
  },
  {
    "postal": "L9S0P6",
    "result": []
  },
  {
    "postal": "L9S0S7",
    "result": []
  },
  {
    "postal": "L9S8B9",
    "result": []
  },
  {
    "postal": "L9S2A6",
    "result": [
      {
        "electoralDistricts": [
          {
            "election": null,
            "id": 4,
            "name": "Barrie—Innisfil"
          }
        ],
        "pollDivisionIds": [
          10136878
        ],
        "postalCode": "L9S2A6",
        "streetName": "WEBSTER",
        "streetDirectionId": null,
        "streetTypeId": "BLVD",
        "placeName": "INNISFIL",
        "streetNameDisplayText": "WEBSTER BLVD, INNISFIL"
      }
    ]
  },
  {
    "postal": "L9S7V2",
    "result": []
  },
  {
    "postal": "L9S9P4",
    "result": []
  },
  {
    "postal": "L9S6G0",
    "result": []
  },
  {
    "postal": "L9S2K0",
    "result": []
  },
  {
    "postal": "L9S7N6",
    "result": []
  },
  {
    "postal": "L9S5R3",
    "result": []
  },
  {
    "postal": "L9S7K0",
    "result": []
  },
  {
    "postal": "L9S3R2",
    "result": [
      {
        "electoralDistricts": [
          {
            "election": null,
            "id": 4,
            "name": "Barrie—Innisfil"
          }
        ],
        "pollDivisionIds": [
          10136874
        ],
        "postalCode": "L9S3R2",
        "streetName": "10TH",
        "streetDirectionId": null,
        "streetTypeId": "LINE",
        "placeName": "INNISFIL",
        "streetNameDisplayText": "10TH LINE, INNISFIL"
      }
    ]
  },
  {
    "postal": "L9S0J1",
    "result": []
  },
  {
    "postal": "L9S0B0",
    "result": []
  },
  {
    "postal": "L9S5Z2",
    "result": []
  },
  {
    "postal": "L9S7P3",
    "result": []
  },
  {
    "postal": "L9S2K3",
    "result": [
      {
        "electoralDistricts": [
          {
            "election": null,
            "id": 4,
            "name": "Barrie—Innisfil"
          }
        ],
        "pollDivisionIds": [
          10136865
        ],
        "postalCode": "L9S2K3",
        "streetName": "OAK",
        "streetDirectionId": null,
        "streetTypeId": "ST",
        "placeName": "INNISFIL",
        "streetNameDisplayText": "OAK ST, INNISFIL"
      },
      {
        "electoralDistricts": [
          {
            "election": null,
            "id": 4,
            "name": "Barrie—Innisfil"
          }
        ],
        "pollDivisionIds": [
          10136865
        ],
        "postalCode": "L9S2K3",
        "streetName": "PINE GROVE",
        "streetDirectionId": null,
        "streetTypeId": "AVE",
        "placeName": "INNISFIL",
        "streetNameDisplayText": "PINE GROVE AVE, INNISFIL"
      },
      {
        "electoralDistricts": [
          {
            "election": null,
            "id": 4,
            "name": "Barrie—Innisfil"
          }
        ],
        "pollDivisionIds": [
          10136865
        ],
        "postalCode": "L9S2K3",
        "streetName": "PINEGROVE",
        "streetDirectionId": null,
        "streetTypeId": "AVE",
        "placeName": "INNISFIL",
        "streetNameDisplayText": "PINEGROVE AVE, INNISFIL"
      }
    ]
  },
  {
    "postal": "L9S7Y6",
    "result": []
  },
  {
    "postal": "L9S1L9",
    "result": [
      {
        "electoralDistricts": [
          {
            "election": null,
            "id": 4,
            "name": "Barrie—Innisfil"
          }
        ],
        "pollDivisionIds": [
          10136865
        ],
        "postalCode": "L9S1L9",
        "streetName": "MAIN",
        "streetDirectionId": null,
        "streetTypeId": "ST",
        "placeName": "INNISFIL",
        "streetNameDisplayText": "MAIN ST, INNISFIL"
      },
      {
        "electoralDistricts": [
          {
            "election": null,
            "id": 4,
            "name": "Barrie—Innisfil"
          }
        ],
        "pollDivisionIds": [
          10136865
        ],
        "postalCode": "L9S1L9",
        "streetName": "WESTERN",
        "streetDirectionId": null,
        "streetTypeId": "AVE",
        "placeName": "INNISFIL",
        "streetNameDisplayText": "WESTERN AVE, INNISFIL"
      }
    ]
  },
  {
    "postal": "L9S8T0",
    "result": []
  },
  {
    "postal": "L9S3K8",
    "result": [
      {
        "electoralDistricts": [
          {
            "election": null,
            "id": 4,
            "name": "Barrie—Innisfil"
          }
        ],
        "pollDivisionIds": [
          10136874
        ],
        "postalCode": "L9S3K8",
        "streetName": "10",
        "streetDirectionId": null,
        "streetTypeId": "SIDERD",
        "placeName": "INNISFIL",
        "streetNameDisplayText": "10 SIDERD, INNISFIL"
      },
      {
        "electoralDistricts": [
          {
            "election": null,
            "id": 4,
            "name": "Barrie—Innisfil"
          }
        ],
        "pollDivisionIds": [
          10136874
        ],
        "postalCode": "L9S3K8",
        "streetName": "10 SIDEROAD",
        "streetDirectionId": null,
        "streetTypeId": "SIDERD",
        "placeName": "INNISFIL",
        "streetNameDisplayText": "10 SIDEROAD SIDERD, INNISFIL"
      }
    ]
  },
  {
    "postal": "L9S5W9",
    "result": []
  },
  {
    "postal": "L9S6T9",
    "result": []
  },
  {
    "postal": "L9S4H1",
    "result": [
      {
        "electoralDistricts": [
          {
            "election": null,
            "id": 4,
            "name": "Barrie—Innisfil"
          }
        ],
        "pollDivisionIds": [
          10136865
        ],
        "postalCode": "L9S4H1",
        "streetName": "GLAZEBROOK",
        "streetDirectionId": null,
        "streetTypeId": "PL",
        "placeName": "INNISFIL",
        "streetNameDisplayText": "GLAZEBROOK PL, INNISFIL"
      }
    ]
  },
  {
    "postal": "L9S7A2",
    "result": []
  },
  {
    "postal": "L9S5G0",
    "result": []
  },
  {
    "postal": "L9S8V5",
    "result": []
  },
  {
    "postal": "L9S2Y8",
    "result": [
      {
        "electoralDistricts": [
          {
            "election": null,
            "id": 4,
            "name": "Barrie—Innisfil"
          }
        ],
        "pollDivisionIds": [
          10136865
        ],
        "postalCode": "L9S2Y8",
        "streetName": "CRESCENT HARBOUR",
        "streetDirectionId": null,
        "streetTypeId": "RD",
        "placeName": "INNISFIL",
        "streetNameDisplayText": "CRESCENT HARBOUR RD, INNISFIL"
      }
    ]
  },
  {
    "postal": "L9S2B6",
    "result": [
      {
        "electoralDistricts": [
          {
            "election": null,
            "id": 4,
            "name": "Barrie—Innisfil"
          }
        ],
        "pollDivisionIds": [
          10136876
        ],
        "postalCode": "L9S2B6",
        "streetName": "LEBANON",
        "streetDirectionId": null,
        "streetTypeId": "DR",
        "placeName": "INNISFIL",
        "streetNameDisplayText": "LEBANON DR, INNISFIL"
      },
      {
        "electoralDistricts": [
          {
            "election": null,
            "id": 4,
            "name": "Barrie—Innisfil"
          }
        ],
        "pollDivisionIds": [
          10136876
        ],
        "postalCode": "L9S2B6",
        "streetName": "SPRING",
        "streetDirectionId": null,
        "streetTypeId": "ST",
        "placeName": "INNISFIL",
        "streetNameDisplayText": "SPRING ST, INNISFIL"
      }
    ]
  },
  {
    "postal": "L9S4W8",
    "result": [
      {
        "electoralDistricts": [
          {
            "election": null,
            "id": 4,
            "name": "Barrie—Innisfil"
          }
        ],
        "pollDivisionIds": [
          10136878
        ],
        "postalCode": "L9S4W8",
        "streetName": "QUARRY",
        "streetDirectionId": null,
        "streetTypeId": "DR",
        "placeName": "INNISFIL",
        "streetNameDisplayText": "QUARRY DR, INNISFIL"
      }
    ]
  },
  {
    "postal": "L9S8H7",
    "result": []
  },
  {
    "postal": "L9S5P1",
    "result": []
  },
  {
    "postal": "L9S2B8",
    "result": [
      {
        "electoralDistricts": [
          {
            "election": null,
            "id": 4,
            "name": "Barrie—Innisfil"
          }
        ],
        "pollDivisionIds": [
          10136876
        ],
        "postalCode": "L9S2B8",
        "streetName": "LESLIE",
        "streetDirectionId": null,
        "streetTypeId": "DR",
        "placeName": "INNISFIL",
        "streetNameDisplayText": "LESLIE DR, INNISFIL"
      },
      {
        "electoralDistricts": [
          {
            "election": null,
            "id": 4,
            "name": "Barrie—Innisfil"
          }
        ],
        "pollDivisionIds": [
          10136876
        ],
        "postalCode": "L9S2B8",
        "streetName": "MILDRED",
        "streetDirectionId": null,
        "streetTypeId": "AVE",
        "placeName": "INNISFIL",
        "streetNameDisplayText": "MILDRED AVE, INNISFIL"
      },
      {
        "electoralDistricts": [
          {
            "election": null,
            "id": 4,
            "name": "Barrie—Innisfil"
          }
        ],
        "pollDivisionIds": [
          10136876
        ],
        "postalCode": "L9S2B8",
        "streetName": "WILLARD",
        "streetDirectionId": null,
        "streetTypeId": "AVE",
        "placeName": "INNISFIL",
        "streetNameDisplayText": "WILLARD AVE, INNISFIL"
      }
    ]
  },
  {
    "postal": "L9S0P2",
    "result": []
  },
  {
    "postal": "L9S9M1",
    "result": []
  },
  {
    "postal": "L9S3G0",
    "result": []
  },
  {
    "postal": "L9S9Z2",
    "result": []
  },
  {
    "postal": "L9S2A0",
    "result": []
  },
  {
    "postal": "L9S6Y0",
    "result": []
  },
  {
    "postal": "L9S2Z8",
    "result": [
      {
        "electoralDistricts": [
          {
            "election": null,
            "id": 4,
            "name": "Barrie—Innisfil"
          }
        ],
        "pollDivisionIds": [
          10136865
        ],
        "postalCode": "L9S2Z8",
        "streetName": "MAPLEVIEW",
        "streetDirectionId": "E",
        "streetTypeId": "DR",
        "placeName": "INNISFIL",
        "streetNameDisplayText": "MAPLEVIEW DR E, INNISFIL"
      }
    ]
  },
  {
    "postal": "L9S7Y3",
    "result": []
  },
  {
    "postal": "L9S6Z5",
    "result": []
  },
  {
    "postal": "L9S6E0",
    "result": []
  },
  {
    "postal": "L9S9B7",
    "result": []
  },
  {
    "postal": "L9S9S5",
    "result": []
  },
  {
    "postal": "L9S3X3",
    "result": [
      {
        "electoralDistricts": [
          {
            "election": null,
            "id": 4,
            "name": "Barrie—Innisfil"
          }
        ],
        "pollDivisionIds": [
          10136876
        ],
        "postalCode": "L9S3X3",
        "streetName": "GOODFELLOW",
        "streetDirectionId": null,
        "streetTypeId": "AVE",
        "placeName": "INNISFIL",
        "streetNameDisplayText": "GOODFELLOW AVE, INNISFIL"
      }
    ]
  },
  {
    "postal": "L9S7R5",
    "result": []
  },
  {
    "postal": "L9S2X3",
    "result": [
      {
        "electoralDistricts": [
          {
            "election": null,
            "id": 4,
            "name": "Barrie—Innisfil"
          }
        ],
        "pollDivisionIds": [
          10136865
        ],
        "postalCode": "L9S2X3",
        "streetName": "STRATHALLAN WOODS",
        "streetDirectionId": "S",
        "streetTypeId": "LANE",
        "placeName": "INNISFIL",
        "streetNameDisplayText": "STRATHALLAN WOODS LANE S, INNISFIL"
      }
    ]
  },
  {
    "postal": "L9S8Z9",
    "result": []
  },
  {
    "postal": "L9S0N4",
    "result": [
      {
        "electoralDistricts": [
          {
            "election": null,
            "id": 4,
            "name": "Barrie—Innisfil"
          }
        ],
        "pollDivisionIds": [
          10136878
        ],
        "postalCode": "L9S0N4",
        "streetName": "EMBERTON",
        "streetDirectionId": null,
        "streetTypeId": "WAY",
        "placeName": "INNISFIL",
        "streetNameDisplayText": "EMBERTON WAY, INNISFIL"
      },
      {
        "electoralDistricts": [
          {
            "election": null,
            "id": 4,
            "name": "Barrie—Innisfil"
          }
        ],
        "pollDivisionIds": [
          10136878
        ],
        "postalCode": "L9S0N4",
        "streetName": "LARTER",
        "streetDirectionId": null,
        "streetTypeId": "ST",
        "placeName": "INNISFIL",
        "streetNameDisplayText": "LARTER ST, INNISFIL"
      }
    ]
  },
  {
    "postal": "L9S1K1",
    "result": [
      {
        "electoralDistricts": [
          {
            "election": null,
            "id": 4,
            "name": "Barrie—Innisfil"
          }
        ],
        "pollDivisionIds": [
          10136874
        ],
        "postalCode": "L9S1K1",
        "streetName": "VICTORIA",
        "streetDirectionId": "W",
        "streetTypeId": "ST",
        "placeName": "INNISFIL",
        "streetNameDisplayText": "VICTORIA ST W, INNISFIL"
      }
    ]
  },
  {
    "postal": "L9S1S3",
    "result": [
      {
        "electoralDistricts": [
          {
            "election": null,
            "id": 4,
            "name": "Barrie—Innisfil"
          }
        ],
        "pollDivisionIds": [
          10136865
        ],
        "postalCode": "L9S1S3",
        "streetName": "COME BY CHANCE",
        "streetDirectionId": null,
        "streetTypeId": null,
        "placeName": "INNISFIL",
        "streetNameDisplayText": "COME BY CHANCE, INNISFIL"
      },
      {
        "electoralDistricts": [
          {
            "election": null,
            "id": 4,
            "name": "Barrie—Innisfil"
          }
        ],
        "pollDivisionIds": [
          10136865
        ],
        "postalCode": "L9S1S3",
        "streetName": "COMFORST",
        "streetDirectionId": null,
        "streetTypeId": "COVE",
        "placeName": "INNISFIL",
        "streetNameDisplayText": "COMFORST COVE, INNISFIL"
      },
      {
        "electoralDistricts": [
          {
            "election": null,
            "id": 4,
            "name": "Barrie—Innisfil"
          }
        ],
        "pollDivisionIds": [
          10136865
        ],
        "postalCode": "L9S1S3",
        "streetName": "COMFORTS",
        "streetDirectionId": null,
        "streetTypeId": "COVE",
        "placeName": "INNISFIL",
        "streetNameDisplayText": "COMFORTS COVE, INNISFIL"
      }
    ]
  },
  {
    "postal": "L9S6M4",
    "result": []
  },
  {
    "postal": "L9S9A9",
    "result": []
  },
  {
    "postal": "L9S9Z9",
    "result": []
  },
  {
    "postal": "L9S6T4",
    "result": []
  },
  {
    "postal": "L9S0B2",
    "result": [
      {
        "electoralDistricts": [
          {
            "election": null,
            "id": 4,
            "name": "Barrie—Innisfil"
          }
        ],
        "pollDivisionIds": [
          10136877
        ],
        "postalCode": "L9S0B2",
        "streetName": "CORM",
        "streetDirectionId": null,
        "streetTypeId": "ST",
        "placeName": "INNISFIL",
        "streetNameDisplayText": "CORM ST, INNISFIL"
      },
      {
        "electoralDistricts": [
          {
            "election": null,
            "id": 4,
            "name": "Barrie—Innisfil"
          }
        ],
        "pollDivisionIds": [
          10136877
        ],
        "postalCode": "L9S0B2",
        "streetName": "OSBOND",
        "streetDirectionId": null,
        "streetTypeId": "RD",
        "placeName": "INNISFIL",
        "streetNameDisplayText": "OSBOND RD, INNISFIL"
      },
      {
        "electoralDistricts": [
          {
            "election": null,
            "id": 4,
            "name": "Barrie—Innisfil"
          }
        ],
        "pollDivisionIds": [
          10136877
        ],
        "postalCode": "L9S0B2",
        "streetName": "SWAN",
        "streetDirectionId": null,
        "streetTypeId": "ST",
        "placeName": "INNISFIL",
        "streetNameDisplayText": "SWAN ST, INNISFIL"
      }
    ]
  },
  {
    "postal": "L9S2L9",
    "result": [
      {
        "electoralDistricts": [
          {
            "election": null,
            "id": 4,
            "name": "Barrie—Innisfil"
          }
        ],
        "pollDivisionIds": [
          10136865
        ],
        "postalCode": "L9S2L9",
        "streetName": "EAST",
        "streetDirectionId": null,
        "streetTypeId": "ST",
        "placeName": "INNISFIL",
        "streetNameDisplayText": "EAST ST, INNISFIL"
      },
      {
        "electoralDistricts": [
          {
            "election": null,
            "id": 4,
            "name": "Barrie—Innisfil"
          }
        ],
        "pollDivisionIds": [
          10136865
        ],
        "postalCode": "L9S2L9",
        "streetName": "SOUTH",
        "streetDirectionId": null,
        "streetTypeId": "ST",
        "placeName": "INNISFIL",
        "streetNameDisplayText": "SOUTH ST, INNISFIL"
      },
      {
        "electoralDistricts": [
          {
            "election": null,
            "id": 4,
            "name": "Barrie—Innisfil"
          }
        ],
        "pollDivisionIds": [
          10136865
        ],
        "postalCode": "L9S2L9",
        "streetName": "WEST",
        "streetDirectionId": null,
        "streetTypeId": "ST",
        "placeName": "INNISFIL",
        "streetNameDisplayText": "WEST ST, INNISFIL"
      }
    ]
  },
  {
    "postal": "L9S8K9",
    "result": []
  },
  {
    "postal": "L9S2H9",
    "result": [
      {
        "electoralDistricts": [
          {
            "election": null,
            "id": 4,
            "name": "Barrie—Innisfil"
          }
        ],
        "pollDivisionIds": [
          10136876
        ],
        "postalCode": "L9S2H9",
        "streetName": "CHESTNUT",
        "streetDirectionId": null,
        "streetTypeId": "ST",
        "placeName": "INNISFIL",
        "streetNameDisplayText": "CHESTNUT ST, INNISFIL"
      }
    ]
  },
  {
    "postal": "L9S3Z6",
    "result": [
      {
        "electoralDistricts": [
          {
            "election": null,
            "id": 4,
            "name": "Barrie—Innisfil"
          }
        ],
        "pollDivisionIds": [
          10136874
        ],
        "postalCode": "L9S3Z6",
        "streetName": "9TH",
        "streetDirectionId": null,
        "streetTypeId": "LINE",
        "placeName": "INNISFIL",
        "streetNameDisplayText": "9TH LINE, INNISFIL"
      }
    ]
  },
  {
    "postal": "L9S3B0",
    "result": []
  },
  {
    "postal": "L9S2H8",
    "result": [
      {
        "electoralDistricts": [
          {
            "election": null,
            "id": 4,
            "name": "Barrie—Innisfil"
          }
        ],
        "pollDivisionIds": [
          10136876
        ],
        "postalCode": "L9S2H8",
        "streetName": "CHESTNUT",
        "streetDirectionId": null,
        "streetTypeId": "ST",
        "placeName": "INNISFIL",
        "streetNameDisplayText": "CHESTNUT ST, INNISFIL"
      }
    ]
  },
  {
    "postal": "L9S3X2",
    "result": [
      {
        "electoralDistricts": [
          {
            "election": null,
            "id": 4,
            "name": "Barrie—Innisfil"
          }
        ],
        "pollDivisionIds": [
          10136876
        ],
        "postalCode": "L9S3X2",
        "streetName": "GOODFELLOW",
        "streetDirectionId": null,
        "streetTypeId": "AVE",
        "placeName": "INNISFIL",
        "streetNameDisplayText": "GOODFELLOW AVE, INNISFIL"
      }
    ]
  },
  {
    "postal": "L9S2E9",
    "result": [
      {
        "electoralDistricts": [
          {
            "election": null,
            "id": 4,
            "name": "Barrie—Innisfil"
          }
        ],
        "pollDivisionIds": [
          10136876
        ],
        "postalCode": "L9S2E9",
        "streetName": "REID",
        "streetDirectionId": null,
        "streetTypeId": "ST",
        "placeName": "INNISFIL",
        "streetNameDisplayText": "REID ST, INNISFIL"
      },
      {
        "electoralDistricts": [
          {
            "election": null,
            "id": 4,
            "name": "Barrie—Innisfil"
          }
        ],
        "pollDivisionIds": [
          10136876
        ],
        "postalCode": "L9S2E9",
        "streetName": "SOMERS",
        "streetDirectionId": null,
        "streetTypeId": "BLVD",
        "placeName": "INNISFIL",
        "streetNameDisplayText": "SOMERS BLVD, INNISFIL"
      }
    ]
  },
  {
    "postal": "L9S9P6",
    "result": []
  },
  {
    "postal": "L9S9E2",
    "result": []
  },
  {
    "postal": "L9S9H2",
    "result": []
  },
  {
    "postal": "L9S1S8",
    "result": [
      {
        "electoralDistricts": [
          {
            "election": null,
            "id": 4,
            "name": "Barrie—Innisfil"
          }
        ],
        "pollDivisionIds": [
          10136878
        ],
        "postalCode": "L9S1S8",
        "streetName": "BLACKWOODS",
        "streetDirectionId": null,
        "streetTypeId": "AVE",
        "placeName": "INNISFIL",
        "streetNameDisplayText": "BLACKWOODS AVE, INNISFIL"
      },
      {
        "electoralDistricts": [
          {
            "election": null,
            "id": 4,
            "name": "Barrie—Innisfil"
          }
        ],
        "pollDivisionIds": [
          10136878
        ],
        "postalCode": "L9S1S8",
        "streetName": "MOYER",
        "streetDirectionId": null,
        "streetTypeId": "AVE",
        "placeName": "INNISFIL",
        "streetNameDisplayText": "MOYER AVE, INNISFIL"
      },
      {
        "electoralDistricts": [
          {
            "election": null,
            "id": 4,
            "name": "Barrie—Innisfil"
          }
        ],
        "pollDivisionIds": [
          10136878
        ],
        "postalCode": "L9S1S8",
        "streetName": "NANTYR",
        "streetDirectionId": null,
        "streetTypeId": "DR",
        "placeName": "INNISFIL",
        "streetNameDisplayText": "NANTYR DR, INNISFIL"
      },
      {
        "electoralDistricts": [
          {
            "election": null,
            "id": 4,
            "name": "Barrie—Innisfil"
          }
        ],
        "pollDivisionIds": [
          10136878
        ],
        "postalCode": "L9S1S8",
        "streetName": "ST JOHNS",
        "streetDirectionId": null,
        "streetTypeId": "RD",
        "placeName": "INNISFIL",
        "streetNameDisplayText": "ST JOHNS RD, INNISFIL"
      },
      {
        "electoralDistricts": [
          {
            "election": null,
            "id": 4,
            "name": "Barrie—Innisfil"
          }
        ],
        "pollDivisionIds": [
          10136878
        ],
        "postalCode": "L9S1S8",
        "streetName": "TIMMINS",
        "streetDirectionId": null,
        "streetTypeId": "AVE",
        "placeName": "INNISFIL",
        "streetNameDisplayText": "TIMMINS AVE, INNISFIL"
      }
    ]
  },
  {
    "postal": "L9S3M6",
    "result": [
      {
        "electoralDistricts": [
          {
            "election": null,
            "id": 4,
            "name": "Barrie—Innisfil"
          }
        ],
        "pollDivisionIds": [
          10136873
        ],
        "postalCode": "L9S3M6",
        "streetName": "7TH",
        "streetDirectionId": null,
        "streetTypeId": "LINE",
        "placeName": "INNISFIL",
        "streetNameDisplayText": "7TH LINE, INNISFIL"
      }
    ]
  },
  {
    "postal": "L9S6Z8",
    "result": []
  },
  {
    "postal": "L9S4J2",
    "result": [
      {
        "electoralDistricts": [
          {
            "election": null,
            "id": 4,
            "name": "Barrie—Innisfil"
          }
        ],
        "pollDivisionIds": [
          10136865
        ],
        "postalCode": "L9S4J2",
        "streetName": "20 SIDEROAD",
        "streetDirectionId": null,
        "streetTypeId": "SIDERD",
        "placeName": "INNISFIL",
        "streetNameDisplayText": "20 SIDEROAD SIDERD, INNISFIL"
      }
    ]
  },
  {
    "postal": "L9S9Y1",
    "result": []
  },
  {
    "postal": "L9S8V6",
    "result": []
  },
  {
    "postal": "L9S6B2",
    "result": []
  },
  {
    "postal": "L9S1P8",
    "result": [
      {
        "electoralDistricts": [
          {
            "election": null,
            "id": 4,
            "name": "Barrie—Innisfil"
          }
        ],
        "pollDivisionIds": [
          10136865
        ],
        "postalCode": "L9S1P8",
        "streetName": "CORNER BROOK",
        "streetDirectionId": null,
        "streetTypeId": "TRAIL",
        "placeName": "INNISFIL",
        "streetNameDisplayText": "CORNER BROOK TRAIL, INNISFIL"
      },
      {
        "electoralDistricts": [
          {
            "election": null,
            "id": 4,
            "name": "Barrie—Innisfil"
          }
        ],
        "pollDivisionIds": [
          10136865
        ],
        "postalCode": "L9S1P8",
        "streetName": "MIMOSA",
        "streetDirectionId": null,
        "streetTypeId": "CRES",
        "placeName": "INNISFIL",
        "streetNameDisplayText": "MIMOSA CRES, INNISFIL"
      },
      {
        "electoralDistricts": [
          {
            "election": null,
            "id": 4,
            "name": "Barrie—Innisfil"
          }
        ],
        "pollDivisionIds": [
          10136865
        ],
        "postalCode": "L9S1P8",
        "streetName": "MIMOSA",
        "streetDirectionId": null,
        "streetTypeId": "DR",
        "placeName": "INNISFIL",
        "streetNameDisplayText": "MIMOSA DR, INNISFIL"
      },
      {
        "electoralDistricts": [
          {
            "election": null,
            "id": 4,
            "name": "Barrie—Innisfil"
          }
        ],
        "pollDivisionIds": [
          10136865
        ],
        "postalCode": "L9S1P8",
        "streetName": "TREFOIL",
        "streetDirectionId": null,
        "streetTypeId": "DR",
        "placeName": "INNISFIL",
        "streetNameDisplayText": "TREFOIL DR, INNISFIL"
      }
    ]
  },
  {
    "postal": "L9S0V8",
    "result": []
  },
  {
    "postal": "L9S4Y0",
    "result": []
  },
  {
    "postal": "L9S2T4",
    "result": [
      {
        "electoralDistricts": [
          {
            "election": null,
            "id": 4,
            "name": "Barrie—Innisfil"
          }
        ],
        "pollDivisionIds": [
          10136865
        ],
        "postalCode": "L9S2T4",
        "streetName": "GUEST",
        "streetDirectionId": null,
        "streetTypeId": "RD",
        "placeName": "INNISFIL",
        "streetNameDisplayText": "GUEST RD, INNISFIL"
      }
    ]
  },
  {
    "postal": "L9S2S3",
    "result": [
      {
        "electoralDistricts": [
          {
            "election": null,
            "id": 4,
            "name": "Barrie—Innisfil"
          }
        ],
        "pollDivisionIds": [
          10136865
        ],
        "postalCode": "L9S2S3",
        "streetName": "EDWARD",
        "streetDirectionId": null,
        "streetTypeId": "ST",
        "placeName": "INNISFIL",
        "streetNameDisplayText": "EDWARD ST, INNISFIL"
      }
    ]
  },
  {
    "postal": "L9S0K0",
    "result": []
  },
  {
    "postal": "L9S5N1",
    "result": []
  },
  {
    "postal": "L9S7T0",
    "result": []
  },
  {
    "postal": "L9S9N2",
    "result": []
  },
  {
    "postal": "L9S5L1",
    "result": []
  },
  {
    "postal": "L9S7G5",
    "result": []
  },
  {
    "postal": "L9S6K2",
    "result": []
  },
  {
    "postal": "L9S6P9",
    "result": []
  },
  {
    "postal": "L9S0E6",
    "result": [
      {
        "electoralDistricts": [
          {
            "election": null,
            "id": 4,
            "name": "Barrie—Innisfil"
          }
        ],
        "pollDivisionIds": [
          10136877
        ],
        "postalCode": "L9S0E6",
        "streetName": "LAURAND",
        "streetDirectionId": null,
        "streetTypeId": "ST",
        "placeName": "INNISFIL",
        "streetNameDisplayText": "LAURAND ST, INNISFIL"
      },
      {
        "electoralDistricts": [
          {
            "election": null,
            "id": 4,
            "name": "Barrie—Innisfil"
          }
        ],
        "pollDivisionIds": [
          10136877
        ],
        "postalCode": "L9S0E6",
        "streetName": "LOWRIE",
        "streetDirectionId": null,
        "streetTypeId": "ST",
        "placeName": "INNISFIL",
        "streetNameDisplayText": "LOWRIE ST, INNISFIL"
      }
    ]
  },
  {
    "postal": "L9S8R9",
    "result": []
  },
  {
    "postal": "L9S3G9",
    "result": [
      {
        "electoralDistricts": [
          {
            "election": null,
            "id": 4,
            "name": "Barrie—Innisfil"
          }
        ],
        "pollDivisionIds": [
          10136874
        ],
        "postalCode": "L9S3G9",
        "streetName": "LOCKHART",
        "streetDirectionId": null,
        "streetTypeId": "RD",
        "placeName": "INNISFIL",
        "streetNameDisplayText": "LOCKHART RD, INNISFIL"
      }
    ]
  },
  {
    "postal": "L9S0V7",
    "result": []
  },
  {
    "postal": "L9S2Z1",
    "result": [
      {
        "electoralDistricts": [
          {
            "election": null,
            "id": 4,
            "name": "Barrie—Innisfil"
          }
        ],
        "pollDivisionIds": [
          10136865
        ],
        "postalCode": "L9S2Z1",
        "streetName": "FLEMING",
        "streetDirectionId": null,
        "streetTypeId": "BLVD",
        "placeName": "INNISFIL",
        "streetNameDisplayText": "FLEMING BLVD, INNISFIL"
      }
    ]
  },
  {
    "postal": "L9S7N1",
    "result": []
  },
  {
    "postal": "L9S3C6",
    "result": [
      {
        "electoralDistricts": [
          {
            "election": null,
            "id": 4,
            "name": "Barrie—Innisfil"
          }
        ],
        "pollDivisionIds": [
          10136865
        ],
        "postalCode": "L9S3C6",
        "streetName": "13TH",
        "streetDirectionId": null,
        "streetTypeId": "LINE",
        "placeName": "INNISFIL",
        "streetNameDisplayText": "13TH LINE, INNISFIL"
      }
    ]
  },
  {
    "postal": "L9S4M1",
    "result": [
      {
        "electoralDistricts": [
          {
            "election": null,
            "id": 4,
            "name": "Barrie—Innisfil"
          }
        ],
        "pollDivisionIds": [
          10136878
        ],
        "postalCode": "L9S4M1",
        "streetName": "CROSS",
        "streetDirectionId": null,
        "streetTypeId": "ST",
        "placeName": "INNISFIL",
        "streetNameDisplayText": "CROSS ST, INNISFIL"
      }
    ]
  },
  {
    "postal": "L9S9K2",
    "result": []
  },
  {
    "postal": "L9S9S6",
    "result": []
  },
  {
    "postal": "L9S4X1",
    "result": [
      {
        "electoralDistricts": [
          {
            "election": null,
            "id": 4,
            "name": "Barrie—Innisfil"
          }
        ],
        "pollDivisionIds": [
          10136878
        ],
        "postalCode": "L9S4X1",
        "streetName": "QUARRY",
        "streetDirectionId": null,
        "streetTypeId": "DR",
        "placeName": "INNISFIL",
        "streetNameDisplayText": "QUARRY DR, INNISFIL"
      },
      {
        "electoralDistricts": [
          {
            "election": null,
            "id": 4,
            "name": "Barrie—Innisfil"
          }
        ],
        "pollDivisionIds": [
          10136878
        ],
        "postalCode": "L9S4X1",
        "streetName": "WESLEY",
        "streetDirectionId": null,
        "streetTypeId": "ST",
        "placeName": "INNISFIL",
        "streetNameDisplayText": "WESLEY ST, INNISFIL"
      }
    ]
  },
  {
    "postal": "L9S8W2",
    "result": []
  },
  {
    "postal": "L9S7N2",
    "result": []
  },
  {
    "postal": "L9S8S3",
    "result": []
  },
  {
    "postal": "L9S4V0",
    "result": []
  },
  {
    "postal": "L9S6W4",
    "result": []
  },
  {
    "postal": "L9S5M1",
    "result": []
  },
  {
    "postal": "L9S0S4",
    "result": []
  },
  {
    "postal": "L9S5X6",
    "result": []
  },
  {
    "postal": "L9S8L5",
    "result": []
  },
  {
    "postal": "L9S5M8",
    "result": []
  },
  {
    "postal": "L9S2G3",
    "result": [
      {
        "electoralDistricts": [
          {
            "election": null,
            "id": 4,
            "name": "Barrie—Innisfil"
          }
        ],
        "pollDivisionIds": [
          10136876
        ],
        "postalCode": "L9S2G3",
        "streetName": "25",
        "streetDirectionId": null,
        "streetTypeId": "SIDERD",
        "placeName": "INNISFIL",
        "streetNameDisplayText": "25 SIDERD, INNISFIL"
      },
      {
        "electoralDistricts": [
          {
            "election": null,
            "id": 4,
            "name": "Barrie—Innisfil"
          }
        ],
        "pollDivisionIds": [
          10136876
        ],
        "postalCode": "L9S2G3",
        "streetName": "SANDY",
        "streetDirectionId": null,
        "streetTypeId": "TRAIL",
        "placeName": "INNISFIL",
        "streetNameDisplayText": "SANDY TRAIL, INNISFIL"
      },
      {
        "electoralDistricts": [
          {
            "election": null,
            "id": 4,
            "name": "Barrie—Innisfil"
          }
        ],
        "pollDivisionIds": [
          10136876
        ],
        "postalCode": "L9S2G3",
        "streetName": "WILLIAM",
        "streetDirectionId": null,
        "streetTypeId": "ST",
        "placeName": "INNISFIL",
        "streetNameDisplayText": "WILLIAM ST, INNISFIL"
      }
    ]
  },
  {
    "postal": "L9S8E4",
    "result": []
  },
  {
    "postal": "L9S7S9",
    "result": []
  },
  {
    "postal": "L9S1K3",
    "result": [
      {
        "electoralDistricts": [
          {
            "election": null,
            "id": 4,
            "name": "Barrie—Innisfil"
          }
        ],
        "pollDivisionIds": [
          10136874
        ],
        "postalCode": "L9S1K3",
        "streetName": "VICTORIA",
        "streetDirectionId": "E",
        "streetTypeId": "ST",
        "placeName": "INNISFIL",
        "streetNameDisplayText": "VICTORIA ST E, INNISFIL"
      }
    ]
  },
  {
    "postal": "L9S4E1",
    "result": [
      {
        "electoralDistricts": [
          {
            "election": null,
            "id": 4,
            "name": "Barrie—Innisfil"
          }
        ],
        "pollDivisionIds": [
          10136877
        ],
        "postalCode": "L9S4E1",
        "streetName": "ADAMS",
        "streetDirectionId": null,
        "streetTypeId": "RD",
        "placeName": "INNISFIL",
        "streetNameDisplayText": "ADAMS RD, INNISFIL"
      },
      {
        "electoralDistricts": [
          {
            "election": null,
            "id": 4,
            "name": "Barrie—Innisfil"
          }
        ],
        "pollDivisionIds": [
          10136877
        ],
        "postalCode": "L9S4E1",
        "streetName": "MAPLEWOOD",
        "streetDirectionId": null,
        "streetTypeId": "DR",
        "placeName": "INNISFIL",
        "streetNameDisplayText": "MAPLEWOOD DR, INNISFIL"
      }
    ]
  },
  {
    "postal": "L9S4R2",
    "result": [
      {
        "electoralDistricts": [
          {
            "election": null,
            "id": 4,
            "name": "Barrie—Innisfil"
          }
        ],
        "pollDivisionIds": [
          10136878
        ],
        "postalCode": "L9S4R2",
        "streetName": "6TH",
        "streetDirectionId": null,
        "streetTypeId": "LINE",
        "placeName": "INNISFIL",
        "streetNameDisplayText": "6TH LINE, INNISFIL"
      }
    ]
  },
  {
    "postal": "L9S6T0",
    "result": []
  },
  {
    "postal": "L9S3K5",
    "result": [
      {
        "electoralDistricts": [
          {
            "election": null,
            "id": 4,
            "name": "Barrie—Innisfil"
          }
        ],
        "pollDivisionIds": [
          10136876
        ],
        "postalCode": "L9S3K5",
        "streetName": "PLUM",
        "streetDirectionId": null,
        "streetTypeId": "DR",
        "placeName": "INNISFIL",
        "streetNameDisplayText": "PLUM DR, INNISFIL"
      }
    ]
  },
  {
    "postal": "L9S3S3",
    "result": [
      {
        "electoralDistricts": [
          {
            "election": null,
            "id": 4,
            "name": "Barrie—Innisfil"
          }
        ],
        "pollDivisionIds": [
          10136873
        ],
        "postalCode": "L9S3S3",
        "streetName": "5",
        "streetDirectionId": null,
        "streetTypeId": "SIDERD",
        "placeName": "INNISFIL",
        "streetNameDisplayText": "5 SIDERD, INNISFIL"
      }
    ]
  },
  {
    "postal": "L9S3L4",
    "result": [
      {
        "electoralDistricts": [
          {
            "election": null,
            "id": 4,
            "name": "Barrie—Innisfil"
          }
        ],
        "pollDivisionIds": [
          10136873
        ],
        "postalCode": "L9S3L4",
        "streetName": "5TH",
        "streetDirectionId": null,
        "streetTypeId": "LINE",
        "placeName": "INNISFIL",
        "streetNameDisplayText": "5TH LINE, INNISFIL"
      }
    ]
  },
  {
    "postal": "L9S9Y2",
    "result": []
  },
  {
    "postal": "L9S1E0",
    "result": []
  },
  {
    "postal": "L9S9A4",
    "result": []
  },
  {
    "postal": "L9S1L3",
    "result": [
      {
        "electoralDistricts": [
          {
            "election": null,
            "id": 4,
            "name": "Barrie—Innisfil"
          }
        ],
        "pollDivisionIds": [
          10136874
        ],
        "postalCode": "L9S1L3",
        "streetName": "YONGE",
        "streetDirectionId": null,
        "streetTypeId": "ST",
        "placeName": "INNISFIL",
        "streetNameDisplayText": "YONGE ST, INNISFIL"
      }
    ]
  },
  {
    "postal": "L9S6N1",
    "result": []
  },
  {
    "postal": "L9S6G7",
    "result": []
  },
  {
    "postal": "L9S7W1",
    "result": []
  },
  {
    "postal": "L9S4M6",
    "result": [
      {
        "electoralDistricts": [
          {
            "election": null,
            "id": 4,
            "name": "Barrie—Innisfil"
          }
        ],
        "pollDivisionIds": [
          10136878
        ],
        "postalCode": "L9S4M6",
        "streetName": "HOUSTON",
        "streetDirectionId": null,
        "streetTypeId": "AVE",
        "placeName": "INNISFIL",
        "streetNameDisplayText": "HOUSTON AVE, INNISFIL"
      }
    ]
  },
  {
    "postal": "L9S1K0",
    "result": []
  },
  {
    "postal": "L9S3E2",
    "result": [
      {
        "electoralDistricts": [
          {
            "election": null,
            "id": 4,
            "name": "Barrie—Innisfil"
          }
        ],
        "pollDivisionIds": [
          10136865
        ],
        "postalCode": "L9S3E2",
        "streetName": "EARL",
        "streetDirectionId": null,
        "streetTypeId": "ST",
        "placeName": "INNISFIL",
        "streetNameDisplayText": "EARL ST, INNISFIL"
      }
    ]
  },
  {
    "postal": "L9S5H4",
    "result": []
  },
  {
    "postal": "L9S1K7",
    "result": [
      {
        "electoralDistricts": [
          {
            "election": null,
            "id": 4,
            "name": "Barrie—Innisfil"
          }
        ],
        "pollDivisionIds": [
          10136874
        ],
        "postalCode": "L9S1K7",
        "streetName": "WEBB",
        "streetDirectionId": null,
        "streetTypeId": "ST",
        "placeName": "INNISFIL",
        "streetNameDisplayText": "WEBB ST, INNISFIL"
      }
    ]
  },
  {
    "postal": "L9S0H0",
    "result": []
  },
  {
    "postal": "L9S0J3",
    "result": [
      {
        "electoralDistricts": [
          {
            "election": null,
            "id": 4,
            "name": "Barrie—Innisfil"
          }
        ],
        "pollDivisionIds": [
          10136875
        ],
        "postalCode": "L9S0J3",
        "streetName": "YONGE",
        "streetDirectionId": null,
        "streetTypeId": "ST",
        "placeName": "INNISFIL",
        "streetNameDisplayText": "YONGE ST, INNISFIL"
      }
    ]
  },
  {
    "postal": "L9S1X6",
    "result": [
      {
        "electoralDistricts": [
          {
            "election": null,
            "id": 4,
            "name": "Barrie—Innisfil"
          }
        ],
        "pollDivisionIds": [
          10136875
        ],
        "postalCode": "L9S1X6",
        "streetName": "FERGUSON",
        "streetDirectionId": null,
        "streetTypeId": "ST",
        "placeName": "INNISFIL",
        "streetNameDisplayText": "FERGUSON ST, INNISFIL"
      }
    ]
  },
  {
    "postal": "L9S2Z6",
    "result": [
      {
        "electoralDistricts": [
          {
            "election": null,
            "id": 4,
            "name": "Barrie—Innisfil"
          }
        ],
        "pollDivisionIds": [
          10136865
        ],
        "postalCode": "L9S2Z6",
        "streetName": "MAPLEVIEW",
        "streetDirectionId": "E",
        "streetTypeId": "DR",
        "placeName": "BARRIE",
        "streetNameDisplayText": "MAPLEVIEW DR E, BARRIE"
      },
      {
        "electoralDistricts": [
          {
            "election": null,
            "id": 4,
            "name": "Barrie—Innisfil"
          }
        ],
        "pollDivisionIds": [
          10136865,
          10136874
        ],
        "postalCode": "L9S2Z6",
        "streetName": "MAPLEVIEW",
        "streetDirectionId": "E",
        "streetTypeId": "DR",
        "placeName": "INNISFIL",
        "streetNameDisplayText": "MAPLEVIEW DR E, INNISFIL"
      }
    ]
  },
  {
    "postal": "L9S4R9",
    "result": [
      {
        "electoralDistricts": [
          {
            "election": null,
            "id": 4,
            "name": "Barrie—Innisfil"
          }
        ],
        "pollDivisionIds": [
          10136875
        ],
        "postalCode": "L9S4R9",
        "streetName": "6TH",
        "streetDirectionId": null,
        "streetTypeId": "LINE",
        "placeName": "INNISFIL",
        "streetNameDisplayText": "6TH LINE, INNISFIL"
      }
    ]
  },
  {
    "postal": "L9S0W8",
    "result": []
  },
  {
    "postal": "L9S1L4",
    "result": [
      {
        "electoralDistricts": [
          {
            "election": null,
            "id": 4,
            "name": "Barrie—Innisfil"
          }
        ],
        "pollDivisionIds": [
          10136874
        ],
        "postalCode": "L9S1L4",
        "streetName": "YONGE",
        "streetDirectionId": null,
        "streetTypeId": "ST",
        "placeName": "INNISFIL",
        "streetNameDisplayText": "YONGE ST, INNISFIL"
      }
    ]
  },
  {
    "postal": "L9S0C8",
    "result": [
      {
        "electoralDistricts": [
          {
            "election": null,
            "id": 4,
            "name": "Barrie—Innisfil"
          }
        ],
        "pollDivisionIds": [
          10136875
        ],
        "postalCode": "L9S0C8",
        "streetName": "BATTERS",
        "streetDirectionId": null,
        "streetTypeId": "LOOP",
        "placeName": "INNISFIL",
        "streetNameDisplayText": "BATTERS LOOP, INNISFIL"
      },
      {
        "electoralDistricts": [
          {
            "election": null,
            "id": 4,
            "name": "Barrie—Innisfil"
          }
        ],
        "pollDivisionIds": [
          10136875
        ],
        "postalCode": "L9S0C8",
        "streetName": "BENSON",
        "streetDirectionId": null,
        "streetTypeId": "ST",
        "placeName": "INNISFIL",
        "streetNameDisplayText": "BENSON ST, INNISFIL"
      }
    ]
  },
  {
    "postal": "L9S9X7",
    "result": []
  },
  {
    "postal": "L9S4T1",
    "result": [
      {
        "electoralDistricts": [
          {
            "election": null,
            "id": 4,
            "name": "Barrie—Innisfil"
          }
        ],
        "pollDivisionIds": [
          10136875
        ],
        "postalCode": "L9S4T1",
        "streetName": "10 SIDEROAD",
        "streetDirectionId": null,
        "streetTypeId": "SIDERD",
        "placeName": "INNISFIL",
        "streetNameDisplayText": "10 SIDEROAD SIDERD, INNISFIL"
      }
    ]
  },
  {
    "postal": "L9S0M0",
    "result": []
  },
  {
    "postal": "L9S6A2",
    "result": []
  },
  {
    "postal": "L9S9S8",
    "result": []
  },
  {
    "postal": "L9S9T4",
    "result": []
  },
  {
    "postal": "L9S9Y4",
    "result": []
  },
  {
    "postal": "L9S6G5",
    "result": []
  },
  {
    "postal": "L9S6H9",
    "result": []
  },
  {
    "postal": "L9S2P3",
    "result": [
      {
        "electoralDistricts": [
          {
            "election": null,
            "id": 4,
            "name": "Barrie—Innisfil"
          }
        ],
        "pollDivisionIds": [
          10136865
        ],
        "postalCode": "L9S2P3",
        "streetName": "BIG BAY POINT",
        "streetDirectionId": null,
        "streetTypeId": "RD",
        "placeName": "INNISFIL",
        "streetNameDisplayText": "BIG BAY POINT RD, INNISFIL"
      }
    ]
  },
  {
    "postal": "L9S1T6",
    "result": [
      {
        "electoralDistricts": [
          {
            "election": null,
            "id": 4,
            "name": "Barrie—Innisfil"
          }
        ],
        "pollDivisionIds": [
          10136877
        ],
        "postalCode": "L9S1T6",
        "streetName": "MOUNTBATTEN",
        "streetDirectionId": null,
        "streetTypeId": "AVE",
        "placeName": "INNISFIL",
        "streetNameDisplayText": "MOUNTBATTEN AVE, INNISFIL"
      },
      {
        "electoralDistricts": [
          {
            "election": null,
            "id": 4,
            "name": "Barrie—Innisfil"
          }
        ],
        "pollDivisionIds": [
          10136877
        ],
        "postalCode": "L9S1T6",
        "streetName": "SAINT PAUL",
        "streetDirectionId": null,
        "streetTypeId": "RD",
        "placeName": "INNISFIL",
        "streetNameDisplayText": "SAINT PAUL RD, INNISFIL"
      },
      {
        "electoralDistricts": [
          {
            "election": null,
            "id": 4,
            "name": "Barrie—Innisfil"
          }
        ],
        "pollDivisionIds": [
          10136877
        ],
        "postalCode": "L9S1T6",
        "streetName": "ST PAUL",
        "streetDirectionId": null,
        "streetTypeId": "RD",
        "placeName": "INNISFIL",
        "streetNameDisplayText": "ST PAUL RD, INNISFIL"
      },
      {
        "electoralDistricts": [
          {
            "election": null,
            "id": 4,
            "name": "Barrie—Innisfil"
          }
        ],
        "pollDivisionIds": [
          10136877
        ],
        "postalCode": "L9S1T6",
        "streetName": "ST. PAUL",
        "streetDirectionId": null,
        "streetTypeId": "RD",
        "placeName": "INNISFIL",
        "streetNameDisplayText": "ST. PAUL RD, INNISFIL"
      },
      {
        "electoralDistricts": [
          {
            "election": null,
            "id": 4,
            "name": "Barrie—Innisfil"
          }
        ],
        "pollDivisionIds": [
          10136877
        ],
        "postalCode": "L9S1T6",
        "streetName": "WESTMOUNT",
        "streetDirectionId": null,
        "streetTypeId": "AVE",
        "placeName": "INNISFIL",
        "streetNameDisplayText": "WESTMOUNT AVE, INNISFIL"
      },
      {
        "electoralDistricts": [
          {
            "election": null,
            "id": 4,
            "name": "Barrie—Innisfil"
          }
        ],
        "pollDivisionIds": [
          10136877
        ],
        "postalCode": "L9S1T6",
        "streetName": "WINDSOR",
        "streetDirectionId": null,
        "streetTypeId": "ST",
        "placeName": "INNISFIL",
        "streetNameDisplayText": "WINDSOR ST, INNISFIL"
      }
    ]
  },
  {
    "postal": "L9S4P6",
    "result": [
      {
        "electoralDistricts": [
          {
            "election": null,
            "id": 4,
            "name": "Barrie—Innisfil"
          }
        ],
        "pollDivisionIds": [
          10136873,
          10136879
        ],
        "postalCode": "L9S4P6",
        "streetName": "5TH",
        "streetDirectionId": null,
        "streetTypeId": "LINE",
        "placeName": "INNISFIL",
        "streetNameDisplayText": "5TH LINE, INNISFIL"
      }
    ]
  },
  {
    "postal": "L9S3K1",
    "result": [
      {
        "electoralDistricts": [
          {
            "election": null,
            "id": 4,
            "name": "Barrie—Innisfil"
          }
        ],
        "pollDivisionIds": [
          10136873
        ],
        "postalCode": "L9S3K1",
        "streetName": "INNISFIL BEACH",
        "streetDirectionId": null,
        "streetTypeId": "RD",
        "placeName": "INNISFIL",
        "streetNameDisplayText": "INNISFIL BEACH RD, INNISFIL"
      }
    ]
  },
  {
    "postal": "L9S6X4",
    "result": []
  },
  {
    "postal": "L9S4M8",
    "result": [
      {
        "electoralDistricts": [
          {
            "election": null,
            "id": 4,
            "name": "Barrie—Innisfil"
          }
        ],
        "pollDivisionIds": [
          10136884
        ],
        "postalCode": "L9S4M8",
        "streetName": "INNISFIL BEACH",
        "streetDirectionId": null,
        "streetTypeId": "RD",
        "placeName": "INNISFIL",
        "streetNameDisplayText": "INNISFIL BEACH RD, INNISFIL"
      }
    ]
  },
  {
    "postal": "L9S2Y1",
    "result": [
      {
        "electoralDistricts": [
          {
            "election": null,
            "id": 4,
            "name": "Barrie—Innisfil"
          }
        ],
        "pollDivisionIds": [
          10136865
        ],
        "postalCode": "L9S2Y1",
        "streetName": "20 SIDEROAD",
        "streetDirectionId": null,
        "streetTypeId": "SIDERD",
        "placeName": "INNISFIL",
        "streetNameDisplayText": "20 SIDEROAD SIDERD, INNISFIL"
      }
    ]
  },
  {
    "postal": "L9S6M1",
    "result": []
  },
  {
    "postal": "L9S5L8",
    "result": []
  },
  {
    "postal": "L9S3P6",
    "result": [
      {
        "electoralDistricts": [
          {
            "election": null,
            "id": 4,
            "name": "Barrie—Innisfil"
          }
        ],
        "pollDivisionIds": [
          10136874
        ],
        "postalCode": "L9S3P6",
        "streetName": "10TH",
        "streetDirectionId": null,
        "streetTypeId": "LINE",
        "placeName": "INNISFIL",
        "streetNameDisplayText": "10TH LINE, INNISFIL"
      }
    ]
  },
  {
    "postal": "L9S9A5",
    "result": []
  },
  {
    "postal": "L9S7K1",
    "result": []
  },
  {
    "postal": "L9S3J4",
    "result": [
      {
        "electoralDistricts": [
          {
            "election": null,
            "id": 4,
            "name": "Barrie—Innisfil"
          }
        ],
        "pollDivisionIds": [
          10136873
        ],
        "postalCode": "L9S3J4",
        "streetName": "COUNTY 27",
        "streetDirectionId": null,
        "streetTypeId": null,
        "placeName": "INNISFIL",
        "streetNameDisplayText": "COUNTY 27, INNISFIL"
      },
      {
        "electoralDistricts": [
          {
            "election": null,
            "id": 4,
            "name": "Barrie—Innisfil"
          }
        ],
        "pollDivisionIds": [
          10136873
        ],
        "postalCode": "L9S3J4",
        "streetName": "COUNTY ROAD 27",
        "streetDirectionId": null,
        "streetTypeId": null,
        "placeName": "INNISFIL",
        "streetNameDisplayText": "COUNTY ROAD 27, INNISFIL"
      }
    ]
  },
  {
    "postal": "L9S5E7",
    "result": []
  },
  {
    "postal": "L9S3A7",
    "result": [
      {
        "electoralDistricts": [
          {
            "election": null,
            "id": 4,
            "name": "Barrie—Innisfil"
          }
        ],
        "pollDivisionIds": [
          10136865
        ],
        "postalCode": "L9S3A7",
        "streetName": "MAPLEVIEW",
        "streetDirectionId": "E",
        "streetTypeId": "DR",
        "placeName": "INNISFIL",
        "streetNameDisplayText": "MAPLEVIEW DR E, INNISFIL"
      }
    ]
  },
  {
    "postal": "L9S1B9",
    "result": [
      {
        "electoralDistricts": [
          {
            "election": null,
            "id": 4,
            "name": "Barrie—Innisfil"
          }
        ],
        "pollDivisionIds": [
          10136874
        ],
        "postalCode": "L9S1B9",
        "streetName": "DEMPSTER",
        "streetDirectionId": null,
        "streetTypeId": "AVE",
        "placeName": "INNISFIL",
        "streetNameDisplayText": "DEMPSTER AVE, INNISFIL"
      }
    ]
  },
  {
    "postal": "L9S9E8",
    "result": []
  },
  {
    "postal": "L9S1C9",
    "result": [
      {
        "electoralDistricts": [
          {
            "election": null,
            "id": 4,
            "name": "Barrie—Innisfil"
          }
        ],
        "pollDivisionIds": [
          10136874
        ],
        "postalCode": "L9S1C9",
        "streetName": "LAWRENCE",
        "streetDirectionId": null,
        "streetTypeId": "AVE",
        "placeName": "INNISFIL",
        "streetNameDisplayText": "LAWRENCE AVE, INNISFIL"
      }
    ]
  },
  {
    "postal": "L9S3B5",
    "result": [
      {
        "electoralDistricts": [
          {
            "election": null,
            "id": 4,
            "name": "Barrie—Innisfil"
          }
        ],
        "pollDivisionIds": [
          10136865
        ],
        "postalCode": "L9S3B5",
        "streetName": "MARTIN",
        "streetDirectionId": null,
        "streetTypeId": "CRES",
        "placeName": "INNISFIL",
        "streetNameDisplayText": "MARTIN CRES, INNISFIL"
      }
    ]
  },
  {
    "postal": "L9S8R0",
    "result": []
  },
  {
    "postal": "L9S3P2",
    "result": [
      {
        "electoralDistricts": [
          {
            "election": null,
            "id": 4,
            "name": "Barrie—Innisfil"
          }
        ],
        "pollDivisionIds": [
          10136865
        ],
        "postalCode": "L9S3P2",
        "streetName": "10TH",
        "streetDirectionId": null,
        "streetTypeId": "LINE",
        "placeName": "INNISFIL",
        "streetNameDisplayText": "10TH LINE, INNISFIL"
      }
    ]
  },
  {
    "postal": "L9S5V4",
    "result": []
  },
  {
    "postal": "L9S4H0",
    "result": []
  },
  {
    "postal": "L9S4S7",
    "result": [
      {
        "electoralDistricts": [
          {
            "election": null,
            "id": 4,
            "name": "Barrie—Innisfil"
          }
        ],
        "pollDivisionIds": [
          10136879,
          10136875
        ],
        "postalCode": "L9S4S7",
        "streetName": "10",
        "streetDirectionId": null,
        "streetTypeId": "SIDERD",
        "placeName": "INNISFIL",
        "streetNameDisplayText": "10 SIDERD, INNISFIL"
      },
      {
        "electoralDistricts": [
          {
            "election": null,
            "id": 4,
            "name": "Barrie—Innisfil"
          }
        ],
        "pollDivisionIds": [
          10136875
        ],
        "postalCode": "L9S4S7",
        "streetName": "10 SIDEROAD",
        "streetDirectionId": null,
        "streetTypeId": "SIDERD",
        "placeName": "INNISFIL",
        "streetNameDisplayText": "10 SIDEROAD SIDERD, INNISFIL"
      },
      {
        "electoralDistricts": [
          {
            "election": null,
            "id": 4,
            "name": "Barrie—Innisfil"
          }
        ],
        "pollDivisionIds": [
          10136875
        ],
        "postalCode": "L9S4S7",
        "streetName": "10TH",
        "streetDirectionId": null,
        "streetTypeId": "SIDERD",
        "placeName": "INNISFIL",
        "streetNameDisplayText": "10TH SIDERD, INNISFIL"
      }
    ]
  },
  {
    "postal": "L9S6C2",
    "result": []
  },
  {
    "postal": "L9S8W3",
    "result": []
  },
  {
    "postal": "L9S4M5",
    "result": [
      {
        "electoralDistricts": [
          {
            "election": null,
            "id": 4,
            "name": "Barrie—Innisfil"
          }
        ],
        "pollDivisionIds": [
          10136878
        ],
        "postalCode": "L9S4M5",
        "streetName": "KENNEDY",
        "streetDirectionId": null,
        "streetTypeId": "RD",
        "placeName": "INNISFIL",
        "streetNameDisplayText": "KENNEDY RD, INNISFIL"
      }
    ]
  },
  {
    "postal": "L9S5T1",
    "result": []
  },
  {
    "postal": "L9S3B3",
    "result": [
      {
        "electoralDistricts": [
          {
            "election": null,
            "id": 4,
            "name": "Barrie—Innisfil"
          }
        ],
        "pollDivisionIds": [
          10136879
        ],
        "postalCode": "L9S3B3",
        "streetName": "MAPLE GROVE",
        "streetDirectionId": null,
        "streetTypeId": "RD",
        "placeName": "INNISFIL",
        "streetNameDisplayText": "MAPLE GROVE RD, INNISFIL"
      }
    ]
  },
  {
    "postal": "L9S6C6",
    "result": []
  },
  {
    "postal": "L9S7N8",
    "result": []
  },
  {
    "postal": "L9S2Y3",
    "result": [
      {
        "electoralDistricts": [
          {
            "election": null,
            "id": 4,
            "name": "Barrie—Innisfil"
          }
        ],
        "pollDivisionIds": [
          10136865
        ],
        "postalCode": "L9S2Y3",
        "streetName": "30 SIDEROAD",
        "streetDirectionId": null,
        "streetTypeId": "SIDERD",
        "placeName": "INNISFIL",
        "streetNameDisplayText": "30 SIDEROAD SIDERD, INNISFIL"
      }
    ]
  },
  {
    "postal": "L9S2R6",
    "result": [
      {
        "electoralDistricts": [
          {
            "election": null,
            "id": 4,
            "name": "Barrie—Innisfil"
          }
        ],
        "pollDivisionIds": [
          10136865
        ],
        "postalCode": "L9S2R6",
        "streetName": "BRIDLE",
        "streetDirectionId": null,
        "streetTypeId": "PATH",
        "placeName": "INNISFIL",
        "streetNameDisplayText": "BRIDLE PATH, INNISFIL"
      }
    ]
  },
  {
    "postal": "L9S7N3",
    "result": []
  },
  {
    "postal": "L9S8J2",
    "result": []
  },
  {
    "postal": "L9S6A9",
    "result": []
  },
  {
    "postal": "L9S3V2",
    "result": [
      {
        "electoralDistricts": [
          {
            "election": null,
            "id": 4,
            "name": "Barrie—Innisfil"
          }
        ],
        "pollDivisionIds": [
          10136876
        ],
        "postalCode": "L9S3V2",
        "streetName": "WILSON",
        "streetDirectionId": null,
        "streetTypeId": "PL",
        "placeName": "INNISFIL",
        "streetNameDisplayText": "WILSON PL, INNISFIL"
      }
    ]
  },
  {
    "postal": "L9S2N3",
    "result": [
      {
        "electoralDistricts": [
          {
            "election": null,
            "id": 4,
            "name": "Barrie—Innisfil"
          }
        ],
        "pollDivisionIds": [
          10136865
        ],
        "postalCode": "L9S2N3",
        "streetName": "BIG BAY POINT",
        "streetDirectionId": null,
        "streetTypeId": "RD",
        "placeName": "INNISFIL",
        "streetNameDisplayText": "BIG BAY POINT RD, INNISFIL"
      }
    ]
  },
  {
    "postal": "L9S1S5",
    "result": [
      {
        "electoralDistricts": [
          {
            "election": null,
            "id": 4,
            "name": "Barrie—Innisfil"
          }
        ],
        "pollDivisionIds": [
          10136878
        ],
        "postalCode": "L9S1S5",
        "streetName": "BLACKWOODS",
        "streetDirectionId": null,
        "streetTypeId": "AVE",
        "placeName": "INNISFIL",
        "streetNameDisplayText": "BLACKWOODS AVE, INNISFIL"
      },
      {
        "electoralDistricts": [
          {
            "election": null,
            "id": 4,
            "name": "Barrie—Innisfil"
          }
        ],
        "pollDivisionIds": [
          10136878
        ],
        "postalCode": "L9S1S5",
        "streetName": "ST JOHNS",
        "streetDirectionId": null,
        "streetTypeId": "RD",
        "placeName": "INNISFIL",
        "streetNameDisplayText": "ST JOHNS RD, INNISFIL"
      },
      {
        "electoralDistricts": [
          {
            "election": null,
            "id": 4,
            "name": "Barrie—Innisfil"
          }
        ],
        "pollDivisionIds": [
          10136878
        ],
        "postalCode": "L9S1S5",
        "streetName": "ST JOHN'S",
        "streetDirectionId": null,
        "streetTypeId": "RD",
        "placeName": "INNISFIL",
        "streetNameDisplayText": "ST JOHN'S RD, INNISFIL"
      },
      {
        "electoralDistricts": [
          {
            "election": null,
            "id": 4,
            "name": "Barrie—Innisfil"
          }
        ],
        "pollDivisionIds": [
          10136878
        ],
        "postalCode": "L9S1S5",
        "streetName": "WINGROVE",
        "streetDirectionId": null,
        "streetTypeId": "AVE",
        "placeName": "INNISFIL",
        "streetNameDisplayText": "WINGROVE AVE, INNISFIL"
      }
    ]
  },
  {
    "postal": "L9S4T7",
    "result": [
      {
        "electoralDistricts": [
          {
            "election": null,
            "id": 4,
            "name": "Barrie—Innisfil"
          }
        ],
        "pollDivisionIds": [
          10136865
        ],
        "postalCode": "L9S4T7",
        "streetName": "STRATHALLAN WOODS",
        "streetDirectionId": null,
        "streetTypeId": "PL",
        "placeName": "INNISFIL",
        "streetNameDisplayText": "STRATHALLAN WOODS PL, INNISFIL"
      }
    ]
  },
  {
    "postal": "L9S6Y7",
    "result": []
  },
  {
    "postal": "L9S0W7",
    "result": []
  },
  {
    "postal": "L9S2W9",
    "result": [
      {
        "electoralDistricts": [
          {
            "election": null,
            "id": 4,
            "name": "Barrie—Innisfil"
          }
        ],
        "pollDivisionIds": [
          10136865
        ],
        "postalCode": "L9S2W9",
        "streetName": "SHADYLANE",
        "streetDirectionId": null,
        "streetTypeId": "PL",
        "placeName": "INNISFIL",
        "streetNameDisplayText": "SHADYLANE PL, INNISFIL"
      }
    ]
  },
  {
    "postal": "L9S8V0",
    "result": []
  },
  {
    "postal": "L9S0H4",
    "result": [
      {
        "electoralDistricts": [
          {
            "election": null,
            "id": 4,
            "name": "Barrie—Innisfil"
          }
        ],
        "pollDivisionIds": [
          10136875
        ],
        "postalCode": "L9S0H4",
        "streetName": "GALLOWAY",
        "streetDirectionId": null,
        "streetTypeId": "ST",
        "placeName": "INNISFIL",
        "streetNameDisplayText": "GALLOWAY ST, INNISFIL"
      },
      {
        "electoralDistricts": [
          {
            "election": null,
            "id": 4,
            "name": "Barrie—Innisfil"
          }
        ],
        "pollDivisionIds": [
          10136875
        ],
        "postalCode": "L9S0H4",
        "streetName": "GIBSON",
        "streetDirectionId": null,
        "streetTypeId": "ST",
        "placeName": "INNISFIL",
        "streetNameDisplayText": "GIBSON ST, INNISFIL"
      },
      {
        "electoralDistricts": [
          {
            "election": null,
            "id": 4,
            "name": "Barrie—Innisfil"
          }
        ],
        "pollDivisionIds": [
          10136875
        ],
        "postalCode": "L9S0H4",
        "streetName": "HUNTER",
        "streetDirectionId": null,
        "streetTypeId": "ST",
        "placeName": "INNISFIL",
        "streetNameDisplayText": "HUNTER ST, INNISFIL"
      }
    ]
  },
  {
    "postal": "L9S2T1",
    "result": [
      {
        "electoralDistricts": [
          {
            "election": null,
            "id": 4,
            "name": "Barrie—Innisfil"
          }
        ],
        "pollDivisionIds": [
          10136865
        ],
        "postalCode": "L9S2T1",
        "streetName": "GUEST",
        "streetDirectionId": null,
        "streetTypeId": "RD",
        "placeName": "INNISFIL",
        "streetNameDisplayText": "GUEST RD, INNISFIL"
      }
    ]
  },
  {
    "postal": "L9S1B1",
    "result": []
  },
  {
    "postal": "L9S8B6",
    "result": []
  },
  {
    "postal": "L9S6H1",
    "result": []
  },
  {
    "postal": "L9S8T8",
    "result": []
  },
  {
    "postal": "L9S0T4",
    "result": []
  },
  {
    "postal": "L9S2C4",
    "result": [
      {
        "electoralDistricts": [
          {
            "election": null,
            "id": 4,
            "name": "Barrie—Innisfil"
          }
        ],
        "pollDivisionIds": [
          10136876
        ],
        "postalCode": "L9S2C4",
        "streetName": "25",
        "streetDirectionId": null,
        "streetTypeId": "SIDERD",
        "placeName": "INNISFIL",
        "streetNameDisplayText": "25 SIDERD, INNISFIL"
      },
      {
        "electoralDistricts": [
          {
            "election": null,
            "id": 4,
            "name": "Barrie—Innisfil"
          }
        ],
        "pollDivisionIds": [
          10136876
        ],
        "postalCode": "L9S2C4",
        "streetName": "LEBANON",
        "streetDirectionId": null,
        "streetTypeId": "DR",
        "placeName": "INNISFIL",
        "streetNameDisplayText": "LEBANON DR, INNISFIL"
      },
      {
        "electoralDistricts": [
          {
            "election": null,
            "id": 4,
            "name": "Barrie—Innisfil"
          }
        ],
        "pollDivisionIds": [
          10136876
        ],
        "postalCode": "L9S2C4",
        "streetName": "RAYNOR",
        "streetDirectionId": null,
        "streetTypeId": "CRT",
        "placeName": "INNISFIL",
        "streetNameDisplayText": "RAYNOR CRT, INNISFIL"
      },
      {
        "electoralDistricts": [
          {
            "election": null,
            "id": 4,
            "name": "Barrie—Innisfil"
          }
        ],
        "pollDivisionIds": [
          10136876
        ],
        "postalCode": "L9S2C4",
        "streetName": "RICHARD",
        "streetDirectionId": null,
        "streetTypeId": "ST",
        "placeName": "INNISFIL",
        "streetNameDisplayText": "RICHARD ST, INNISFIL"
      }
    ]
  },
  {
    "postal": "L9S8N3",
    "result": []
  },
  {
    "postal": "L9S4L8",
    "result": [
      {
        "electoralDistricts": [
          {
            "election": null,
            "id": 4,
            "name": "Barrie—Innisfil"
          }
        ],
        "pollDivisionIds": [
          10136878
        ],
        "postalCode": "L9S4L8",
        "streetName": "CLIFTON",
        "streetDirectionId": null,
        "streetTypeId": "BLVD",
        "placeName": "INNISFIL",
        "streetNameDisplayText": "CLIFTON BLVD, INNISFIL"
      }
    ]
  },
  {
    "postal": "L9S2B5",
    "result": [
      {
        "electoralDistricts": [
          {
            "election": null,
            "id": 4,
            "name": "Barrie—Innisfil"
          }
        ],
        "pollDivisionIds": [
          10136876
        ],
        "postalCode": "L9S2B5",
        "streetName": "GOSHEN",
        "streetDirectionId": null,
        "streetTypeId": "RD",
        "placeName": "INNISFIL",
        "streetNameDisplayText": "GOSHEN RD, INNISFIL"
      },
      {
        "electoralDistricts": [
          {
            "election": null,
            "id": 4,
            "name": "Barrie—Innisfil"
          }
        ],
        "pollDivisionIds": [
          10136876
        ],
        "postalCode": "L9S2B5",
        "streetName": "INNISFIL BEACH",
        "streetDirectionId": null,
        "streetTypeId": "RD",
        "placeName": "INNISFIL",
        "streetNameDisplayText": "INNISFIL BEACH RD, INNISFIL"
      },
      {
        "electoralDistricts": [
          {
            "election": null,
            "id": 4,
            "name": "Barrie—Innisfil"
          }
        ],
        "pollDivisionIds": [
          10136876
        ],
        "postalCode": "L9S2B5",
        "streetName": "SPRING",
        "streetDirectionId": null,
        "streetTypeId": "ST",
        "placeName": "INNISFIL",
        "streetNameDisplayText": "SPRING ST, INNISFIL"
      }
    ]
  },
  {
    "postal": "L9S3H1",
    "result": [
      {
        "electoralDistricts": [
          {
            "election": null,
            "id": 4,
            "name": "Barrie—Innisfil"
          }
        ],
        "pollDivisionIds": [
          10136874
        ],
        "postalCode": "L9S3H1",
        "streetName": "LOCKHART",
        "streetDirectionId": null,
        "streetTypeId": "RD",
        "placeName": "INNISFIL",
        "streetNameDisplayText": "LOCKHART RD, INNISFIL"
      }
    ]
  },
  {
    "postal": "L9S4Y1",
    "result": [
      {
        "electoralDistricts": [
          {
            "election": null,
            "id": 4,
            "name": "Barrie—Innisfil"
          }
        ],
        "pollDivisionIds": [
          10136878
        ],
        "postalCode": "L9S4Y1",
        "streetName": "ROMINA",
        "streetDirectionId": null,
        "streetTypeId": "CRT",
        "placeName": "INNISFIL",
        "streetNameDisplayText": "ROMINA CRT, INNISFIL"
      }
    ]
  },
  {
    "postal": "L9S7E2",
    "result": []
  },
  {
    "postal": "L9S2P5",
    "result": [
      {
        "electoralDistricts": [
          {
            "election": null,
            "id": 4,
            "name": "Barrie—Innisfil"
          }
        ],
        "pollDivisionIds": [
          10136865
        ],
        "postalCode": "L9S2P5",
        "streetName": "BIG BAY POINT",
        "streetDirectionId": null,
        "streetTypeId": "RD",
        "placeName": "INNISFIL",
        "streetNameDisplayText": "BIG BAY POINT RD, INNISFIL"
      }
    ]
  },
  {
    "postal": "L9S8R7",
    "result": []
  },
  {
    "postal": "L9S9P1",
    "result": []
  },
  {
    "postal": "L9S3B8",
    "result": [
      {
        "electoralDistricts": [
          {
            "election": null,
            "id": 4,
            "name": "Barrie—Innisfil"
          }
        ],
        "pollDivisionIds": [
          10136865
        ],
        "postalCode": "L9S3B8",
        "streetName": "SUMMER",
        "streetDirectionId": null,
        "streetTypeId": "PL",
        "placeName": "INNISFIL",
        "streetNameDisplayText": "SUMMER PL, INNISFIL"
      }
    ]
  },
  {
    "postal": "L9S3P7",
    "result": [
      {
        "electoralDistricts": [
          {
            "election": null,
            "id": 4,
            "name": "Barrie—Innisfil"
          }
        ],
        "pollDivisionIds": [
          10136874
        ],
        "postalCode": "L9S3P7",
        "streetName": "10TH",
        "streetDirectionId": null,
        "streetTypeId": "LINE",
        "placeName": "INNISFIL",
        "streetNameDisplayText": "10TH LINE, INNISFIL"
      }
    ]
  },
  {
    "postal": "L9S9B2",
    "result": []
  },
  {
    "postal": "L9S6Z3",
    "result": []
  },
  {
    "postal": "L9S4N5",
    "result": [
      {
        "electoralDistricts": [
          {
            "election": null,
            "id": 4,
            "name": "Barrie—Innisfil"
          }
        ],
        "pollDivisionIds": [
          10136878
        ],
        "postalCode": "L9S4N5",
        "streetName": "ST JOHNS",
        "streetDirectionId": null,
        "streetTypeId": "RD",
        "placeName": "INNISFIL",
        "streetNameDisplayText": "ST JOHNS RD, INNISFIL"
      }
    ]
  },
  {
    "postal": "L9S8T3",
    "result": []
  },
  {
    "postal": "L9S1V2",
    "result": [
      {
        "electoralDistricts": [
          {
            "election": null,
            "id": 4,
            "name": "Barrie—Innisfil"
          }
        ],
        "pollDivisionIds": [
          10136877
        ],
        "postalCode": "L9S1V2",
        "streetName": "EDGAR",
        "streetDirectionId": null,
        "streetTypeId": "ST",
        "placeName": "INNISFIL",
        "streetNameDisplayText": "EDGAR ST, INNISFIL"
      },
      {
        "electoralDistricts": [
          {
            "election": null,
            "id": 4,
            "name": "Barrie—Innisfil"
          }
        ],
        "pollDivisionIds": [
          10136877
        ],
        "postalCode": "L9S1V2",
        "streetName": "SAINT PAUL",
        "streetDirectionId": null,
        "streetTypeId": "RD",
        "placeName": "INNISFIL",
        "streetNameDisplayText": "SAINT PAUL RD, INNISFIL"
      },
      {
        "electoralDistricts": [
          {
            "election": null,
            "id": 4,
            "name": "Barrie—Innisfil"
          }
        ],
        "pollDivisionIds": [
          10136877
        ],
        "postalCode": "L9S1V2",
        "streetName": "ST PAUL",
        "streetDirectionId": null,
        "streetTypeId": "RD",
        "placeName": "INNISFIL",
        "streetNameDisplayText": "ST PAUL RD, INNISFIL"
      },
      {
        "electoralDistricts": [
          {
            "election": null,
            "id": 4,
            "name": "Barrie—Innisfil"
          }
        ],
        "pollDivisionIds": [
          10136877
        ],
        "postalCode": "L9S1V2",
        "streetName": "ST. PAUL",
        "streetDirectionId": null,
        "streetTypeId": "RD",
        "placeName": "INNISFIL",
        "streetNameDisplayText": "ST. PAUL RD, INNISFIL"
      }
    ]
  },
  {
    "postal": "L9S1Y0",
    "result": []
  },
  {
    "postal": "L9S3G6",
    "result": [
      {
        "electoralDistricts": [
          {
            "election": null,
            "id": 4,
            "name": "Barrie—Innisfil"
          }
        ],
        "pollDivisionIds": [
          10136874,
          10136865
        ],
        "postalCode": "L9S3G6",
        "streetName": "LOCKHART",
        "streetDirectionId": null,
        "streetTypeId": "RD",
        "placeName": "INNISFIL",
        "streetNameDisplayText": "LOCKHART RD, INNISFIL"
      }
    ]
  },
  {
    "postal": "L9S3H7",
    "result": [
      {
        "electoralDistricts": [
          {
            "election": null,
            "id": 4,
            "name": "Barrie—Innisfil"
          }
        ],
        "pollDivisionIds": [
          10136873
        ],
        "postalCode": "L9S3H7",
        "streetName": "COUNTY ROAD 27",
        "streetDirectionId": null,
        "streetTypeId": null,
        "placeName": "INNISFIL",
        "streetNameDisplayText": "COUNTY ROAD 27, INNISFIL"
      }
    ]
  },
  {
    "postal": "L9S7X8",
    "result": []
  },
  {
    "postal": "L9S0C7",
    "result": [
      {
        "electoralDistricts": [
          {
            "election": null,
            "id": 4,
            "name": "Barrie—Innisfil"
          }
        ],
        "pollDivisionIds": [
          10136875
        ],
        "postalCode": "L9S0C7",
        "streetName": "BATTERS",
        "streetDirectionId": null,
        "streetTypeId": "LOOP",
        "placeName": "INNISFIL",
        "streetNameDisplayText": "BATTERS LOOP, INNISFIL"
      },
      {
        "electoralDistricts": [
          {
            "election": null,
            "id": 4,
            "name": "Barrie—Innisfil"
          }
        ],
        "pollDivisionIds": [
          10136875
        ],
        "postalCode": "L9S0C7",
        "streetName": "BENSON",
        "streetDirectionId": null,
        "streetTypeId": "ST",
        "placeName": "INNISFIL",
        "streetNameDisplayText": "BENSON ST, INNISFIL"
      }
    ]
  },
  {
    "postal": "L9S0W9",
    "result": []
  },
  {
    "postal": "L9S8E6",
    "result": []
  },
  {
    "postal": "L9S9Z8",
    "result": []
  },
  {
    "postal": "L9S3P4",
    "result": [
      {
        "electoralDistricts": [
          {
            "election": null,
            "id": 4,
            "name": "Barrie—Innisfil"
          }
        ],
        "pollDivisionIds": [
          10136874
        ],
        "postalCode": "L9S3P4",
        "streetName": "10TH",
        "streetDirectionId": null,
        "streetTypeId": "LINE",
        "placeName": "INNISFIL",
        "streetNameDisplayText": "10TH LINE, INNISFIL"
      }
    ]
  },
  {
    "postal": "L9S6L8",
    "result": []
  },
  {
    "postal": "L9S2R4",
    "result": [
      {
        "electoralDistricts": [
          {
            "election": null,
            "id": 4,
            "name": "Barrie—Innisfil"
          }
        ],
        "pollDivisionIds": [
          10136865
        ],
        "postalCode": "L9S2R4",
        "streetName": "BIG BAY POINT",
        "streetDirectionId": null,
        "streetTypeId": "RD",
        "placeName": "INNISFIL",
        "streetNameDisplayText": "BIG BAY POINT RD, INNISFIL"
      }
    ]
  },
  {
    "postal": "L9S2W1",
    "result": [
      {
        "electoralDistricts": [
          {
            "election": null,
            "id": 4,
            "name": "Barrie—Innisfil"
          }
        ],
        "pollDivisionIds": [
          10136865
        ],
        "postalCode": "L9S2W1",
        "streetName": "OAKWOOD",
        "streetDirectionId": null,
        "streetTypeId": "RD",
        "placeName": "INNISFIL",
        "streetNameDisplayText": "OAKWOOD RD, INNISFIL"
      }
    ]
  },
  {
    "postal": "L9S9H8",
    "result": []
  },
  {
    "postal": "L9S8X9",
    "result": []
  },
  {
    "postal": "L9S7H4",
    "result": []
  },
  {
    "postal": "L9S3J1",
    "result": [
      {
        "electoralDistricts": [
          {
            "election": null,
            "id": 4,
            "name": "Barrie—Innisfil"
          }
        ],
        "pollDivisionIds": [
          10136873
        ],
        "postalCode": "L9S3J1",
        "streetName": "COUNTY ROAD 27",
        "streetDirectionId": null,
        "streetTypeId": null,
        "placeName": "INNISFIL",
        "streetNameDisplayText": "COUNTY ROAD 27, INNISFIL"
      }
    ]
  },
  {
    "postal": "L9S1P4",
    "result": [
      {
        "electoralDistricts": [
          {
            "election": null,
            "id": 4,
            "name": "Barrie—Innisfil"
          }
        ],
        "pollDivisionIds": [
          10136865
        ],
        "postalCode": "L9S1P4",
        "streetName": "BONAVISTA ARM",
        "streetDirectionId": null,
        "streetTypeId": null,
        "placeName": "INNISFIL",
        "streetNameDisplayText": "BONAVISTA ARM, INNISFIL"
      },
      {
        "electoralDistricts": [
          {
            "election": null,
            "id": 4,
            "name": "Barrie—Innisfil"
          }
        ],
        "pollDivisionIds": [
          10136865
        ],
        "postalCode": "L9S1P4",
        "streetName": "LINDEN",
        "streetDirectionId": null,
        "streetTypeId": "LANE",
        "placeName": "INNISFIL",
        "streetNameDisplayText": "LINDEN LANE, INNISFIL"
      }
    ]
  },
  {
    "postal": "L9S2A3",
    "result": [
      {
        "electoralDistricts": [
          {
            "election": null,
            "id": 4,
            "name": "Barrie—Innisfil"
          }
        ],
        "pollDivisionIds": [
          10136878
        ],
        "postalCode": "L9S2A3",
        "streetName": "MILL",
        "streetDirectionId": null,
        "streetTypeId": "ST",
        "placeName": "INNISFIL",
        "streetNameDisplayText": "MILL ST, INNISFIL"
      },
      {
        "electoralDistricts": [
          {
            "election": null,
            "id": 4,
            "name": "Barrie—Innisfil"
          }
        ],
        "pollDivisionIds": [
          10136878
        ],
        "postalCode": "L9S2A3",
        "streetName": "WEBSTER",
        "streetDirectionId": null,
        "streetTypeId": "BLVD",
        "placeName": "INNISFIL",
        "streetNameDisplayText": "WEBSTER BLVD, INNISFIL"
      }
    ]
  },
  {
    "postal": "L9S0Z1",
    "result": []
  },
  {
    "postal": "L9S1C1",
    "result": [
      {
        "electoralDistricts": [
          {
            "election": null,
            "id": 4,
            "name": "Barrie—Innisfil"
          }
        ],
        "pollDivisionIds": [
          10136874
        ],
        "postalCode": "L9S1C1",
        "streetName": "DEMPSTER",
        "streetDirectionId": null,
        "streetTypeId": "AVE",
        "placeName": "INNISFIL",
        "streetNameDisplayText": "DEMPSTER AVE, INNISFIL"
      }
    ]
  },
  {
    "postal": "L9S0H3",
    "result": [
      {
        "electoralDistricts": [
          {
            "election": null,
            "id": 4,
            "name": "Barrie—Innisfil"
          }
        ],
        "pollDivisionIds": [
          10136875
        ],
        "postalCode": "L9S0H3",
        "streetName": "BUTLER",
        "streetDirectionId": null,
        "streetTypeId": "ST",
        "placeName": "INNISFIL",
        "streetNameDisplayText": "BUTLER ST, INNISFIL"
      },
      {
        "electoralDistricts": [
          {
            "election": null,
            "id": 4,
            "name": "Barrie—Innisfil"
          }
        ],
        "pollDivisionIds": [
          10136875
        ],
        "postalCode": "L9S0H3",
        "streetName": "GALLOWAY",
        "streetDirectionId": null,
        "streetTypeId": "ST",
        "placeName": "INNISFIL",
        "streetNameDisplayText": "GALLOWAY ST, INNISFIL"
      },
      {
        "electoralDistricts": [
          {
            "election": null,
            "id": 4,
            "name": "Barrie—Innisfil"
          }
        ],
        "pollDivisionIds": [
          10136875
        ],
        "postalCode": "L9S0H3",
        "streetName": "SHELDON",
        "streetDirectionId": null,
        "streetTypeId": "ST",
        "placeName": "INNISFIL",
        "streetNameDisplayText": "SHELDON ST, INNISFIL"
      }
    ]
  },
  {
    "postal": "L9S7B0",
    "result": []
  },
  {
    "postal": "L9S5K2",
    "result": []
  },
  {
    "postal": "L9S1E9",
    "result": [
      {
        "electoralDistricts": [
          {
            "election": null,
            "id": 4,
            "name": "Barrie—Innisfil"
          }
        ],
        "pollDivisionIds": [
          10136874
        ],
        "postalCode": "L9S1E9",
        "streetName": "NEWHOLME",
        "streetDirectionId": null,
        "streetTypeId": "CIR",
        "placeName": "INNISFIL",
        "streetNameDisplayText": "NEWHOLME CIR, INNISFIL"
      }
    ]
  },
  {
    "postal": "L9S9W7",
    "result": []
  },
  {
    "postal": "L9S5W6",
    "result": []
  },
  {
    "postal": "L9S6S6",
    "result": []
  },
  {
    "postal": "L9S2P8",
    "result": [
      {
        "electoralDistricts": [
          {
            "election": null,
            "id": 4,
            "name": "Barrie—Innisfil"
          }
        ],
        "pollDivisionIds": [
          10136865
        ],
        "postalCode": "L9S2P8",
        "streetName": "BIG BAY POINT",
        "streetDirectionId": null,
        "streetTypeId": "RD",
        "placeName": "INNISFIL",
        "streetNameDisplayText": "BIG BAY POINT RD, INNISFIL"
      }
    ]
  },
  {
    "postal": "L9S4P8",
    "result": [
      {
        "electoralDistricts": [
          {
            "election": null,
            "id": 4,
            "name": "Barrie—Innisfil"
          }
        ],
        "pollDivisionIds": [
          10136873
        ],
        "postalCode": "L9S4P8",
        "streetName": "5TH",
        "streetDirectionId": null,
        "streetTypeId": "LINE",
        "placeName": "INNISFIL",
        "streetNameDisplayText": "5TH LINE, INNISFIL"
      }
    ]
  },
  {
    "postal": "L9S0V9",
    "result": []
  },
  {
    "postal": "L9S5Y2",
    "result": []
  },
  {
    "postal": "L9S7Z7",
    "result": []
  },
  {
    "postal": "L9S6Y8",
    "result": []
  },
  {
    "postal": "L9S2G7",
    "result": [
      {
        "electoralDistricts": [
          {
            "election": null,
            "id": 4,
            "name": "Barrie—Innisfil"
          }
        ],
        "pollDivisionIds": [
          10136876
        ],
        "postalCode": "L9S2G7",
        "streetName": "JAMES",
        "streetDirectionId": null,
        "streetTypeId": "ST",
        "placeName": "INNISFIL",
        "streetNameDisplayText": "JAMES ST, INNISFIL"
      },
      {
        "electoralDistricts": [
          {
            "election": null,
            "id": 4,
            "name": "Barrie—Innisfil"
          }
        ],
        "pollDivisionIds": [
          10136876
        ],
        "postalCode": "L9S2G7",
        "streetName": "KILDARE",
        "streetDirectionId": null,
        "streetTypeId": "AVE",
        "placeName": "INNISFIL",
        "streetNameDisplayText": "KILDARE AVE, INNISFIL"
      },
      {
        "electoralDistricts": [
          {
            "election": null,
            "id": 4,
            "name": "Barrie—Innisfil"
          }
        ],
        "pollDivisionIds": [
          10136876
        ],
        "postalCode": "L9S2G7",
        "streetName": "TRINITY",
        "streetDirectionId": null,
        "streetTypeId": "ST",
        "placeName": "INNISFIL",
        "streetNameDisplayText": "TRINITY ST, INNISFIL"
      }
    ]
  },
  {
    "postal": "L9S8C1",
    "result": []
  },
  {
    "postal": "L9S5C5",
    "result": []
  },
  {
    "postal": "L9S2X8",
    "result": [
      {
        "electoralDistricts": [
          {
            "election": null,
            "id": 4,
            "name": "Barrie—Innisfil"
          }
        ],
        "pollDivisionIds": [
          10136865
        ],
        "postalCode": "L9S2X8",
        "streetName": "20",
        "streetDirectionId": null,
        "streetTypeId": "SIDERD",
        "placeName": "INNISFIL",
        "streetNameDisplayText": "20 SIDERD, INNISFIL"
      },
      {
        "electoralDistricts": [
          {
            "election": null,
            "id": 4,
            "name": "Barrie—Innisfil"
          }
        ],
        "pollDivisionIds": [
          10136865
        ],
        "postalCode": "L9S2X8",
        "streetName": "20 SIDEROAD",
        "streetDirectionId": null,
        "streetTypeId": "SIDERD",
        "placeName": "INNISFIL",
        "streetNameDisplayText": "20 SIDEROAD SIDERD, INNISFIL"
      }
    ]
  },
  {
    "postal": "L9S1W5",
    "result": [
      {
        "electoralDistricts": [
          {
            "election": null,
            "id": 4,
            "name": "Barrie—Innisfil"
          }
        ],
        "pollDivisionIds": [
          10136877
        ],
        "postalCode": "L9S1W5",
        "streetName": "GARDEN",
        "streetDirectionId": null,
        "streetTypeId": "AVE",
        "placeName": "INNISFIL",
        "streetNameDisplayText": "GARDEN AVE, INNISFIL"
      },
      {
        "electoralDistricts": [
          {
            "election": null,
            "id": 4,
            "name": "Barrie—Innisfil"
          }
        ],
        "pollDivisionIds": [
          10136877
        ],
        "postalCode": "L9S1W5",
        "streetName": "LINDEN",
        "streetDirectionId": null,
        "streetTypeId": "ST",
        "placeName": "INNISFIL",
        "streetNameDisplayText": "LINDEN ST, INNISFIL"
      }
    ]
  },
  {
    "postal": "L9S7G0",
    "result": []
  },
  {
    "postal": "L9S8J8",
    "result": []
  },
  {
    "postal": "L9S3Y0",
    "result": []
  },
  {
    "postal": "L9S9T7",
    "result": []
  },
  {
    "postal": "L9S5P4",
    "result": []
  },
  {
    "postal": "L9S4B0",
    "result": []
  },
  {
    "postal": "L9S9N8",
    "result": []
  },
  {
    "postal": "L9S4A7",
    "result": [
      {
        "electoralDistricts": [
          {
            "election": null,
            "id": 4,
            "name": "Barrie—Innisfil"
          }
        ],
        "pollDivisionIds": [
          10136874
        ],
        "postalCode": "L9S4A7",
        "streetName": "INNISFIL HEIGHTS",
        "streetDirectionId": null,
        "streetTypeId": "CRES",
        "placeName": "INNISFIL",
        "streetNameDisplayText": "INNISFIL HEIGHTS CRES, INNISFIL"
      }
    ]
  },
  {
    "postal": "L9S4H9",
    "result": [
      {
        "electoralDistricts": [
          {
            "election": null,
            "id": 4,
            "name": "Barrie—Innisfil"
          }
        ],
        "pollDivisionIds": [
          10136875
        ],
        "postalCode": "L9S4H9",
        "streetName": "20 SIDEROAD",
        "streetDirectionId": null,
        "streetTypeId": "SIDERD",
        "placeName": "INNISFIL",
        "streetNameDisplayText": "20 SIDEROAD SIDERD, INNISFIL"
      }
    ]
  },
  {
    "postal": "L9S6X1",
    "result": []
  },
  {
    "postal": "L9S9Y7",
    "result": []
  },
  {
    "postal": "L9S2Y5",
    "result": [
      {
        "electoralDistricts": [
          {
            "election": null,
            "id": 4,
            "name": "Barrie—Innisfil"
          }
        ],
        "pollDivisionIds": [
          10136865
        ],
        "postalCode": "L9S2Y5",
        "streetName": "30 SIDEROAD",
        "streetDirectionId": null,
        "streetTypeId": "SIDERD",
        "placeName": "INNISFIL",
        "streetNameDisplayText": "30 SIDEROAD SIDERD, INNISFIL"
      },
      {
        "electoralDistricts": [
          {
            "election": null,
            "id": 4,
            "name": "Barrie—Innisfil"
          }
        ],
        "pollDivisionIds": [
          10136865
        ],
        "postalCode": "L9S2Y5",
        "streetName": "30TH",
        "streetDirectionId": null,
        "streetTypeId": "SIDERD",
        "placeName": "INNISFIL",
        "streetNameDisplayText": "30TH SIDERD, INNISFIL"
      }
    ]
  },
  {
    "postal": "L9S8L7",
    "result": []
  },
  {
    "postal": "L9S2A8",
    "result": [
      {
        "electoralDistricts": [
          {
            "election": null,
            "id": 4,
            "name": "Barrie—Innisfil"
          }
        ],
        "pollDivisionIds": [
          10136875
        ],
        "postalCode": "L9S2A8",
        "streetName": "JANS",
        "streetDirectionId": null,
        "streetTypeId": "BLVD",
        "placeName": "INNISFIL",
        "streetNameDisplayText": "JANS BLVD, INNISFIL"
      },
      {
        "electoralDistricts": [
          {
            "election": null,
            "id": 4,
            "name": "Barrie—Innisfil"
          }
        ],
        "pollDivisionIds": [
          10136875
        ],
        "postalCode": "L9S2A8",
        "streetName": "LESLIE",
        "streetDirectionId": null,
        "streetTypeId": "DR",
        "placeName": "INNISFIL",
        "streetNameDisplayText": "LESLIE DR, INNISFIL"
      },
      {
        "electoralDistricts": [
          {
            "election": null,
            "id": 4,
            "name": "Barrie—Innisfil"
          }
        ],
        "pollDivisionIds": [
          10136875
        ],
        "postalCode": "L9S2A8",
        "streetName": "ORIOLE",
        "streetDirectionId": null,
        "streetTypeId": "CRES",
        "placeName": "INNISFIL",
        "streetNameDisplayText": "ORIOLE CRES, INNISFIL"
      }
    ]
  },
  {
    "postal": "L9S2K9",
    "result": [
      {
        "electoralDistricts": [
          {
            "election": null,
            "id": 4,
            "name": "Barrie—Innisfil"
          }
        ],
        "pollDivisionIds": [
          10136865
        ],
        "postalCode": "L9S2K9",
        "streetName": "ORCHARD",
        "streetDirectionId": null,
        "streetTypeId": "AVE",
        "placeName": "INNISFIL",
        "streetNameDisplayText": "ORCHARD AVE, INNISFIL"
      },
      {
        "electoralDistricts": [
          {
            "election": null,
            "id": 4,
            "name": "Barrie—Innisfil"
          }
        ],
        "pollDivisionIds": [
          10136865
        ],
        "postalCode": "L9S2K9",
        "streetName": "WARNICA",
        "streetDirectionId": null,
        "streetTypeId": "AVE",
        "placeName": "INNISFIL",
        "streetNameDisplayText": "WARNICA AVE, INNISFIL"
      }
    ]
  },
  {
    "postal": "L9S3E5",
    "result": [
      {
        "electoralDistricts": [
          {
            "election": null,
            "id": 4,
            "name": "Barrie—Innisfil"
          }
        ],
        "pollDivisionIds": [
          10136865
        ],
        "postalCode": "L9S3E5",
        "streetName": "LOCKHART",
        "streetDirectionId": null,
        "streetTypeId": "RD",
        "placeName": "INNISFIL",
        "streetNameDisplayText": "LOCKHART RD, INNISFIL"
      }
    ]
  },
  {
    "postal": "L9S8N6",
    "result": []
  },
  {
    "postal": "L9S8J4",
    "result": []
  },
  {
    "postal": "L9S4R7",
    "result": [
      {
        "electoralDistricts": [
          {
            "election": null,
            "id": 4,
            "name": "Barrie—Innisfil"
          }
        ],
        "pollDivisionIds": [
          10136878
        ],
        "postalCode": "L9S4R7",
        "streetName": "6TH",
        "streetDirectionId": null,
        "streetTypeId": "LINE",
        "placeName": "INNISFIL",
        "streetNameDisplayText": "6TH LINE, INNISFIL"
      }
    ]
  },
  {
    "postal": "L9S9K1",
    "result": []
  },
  {
    "postal": "L9S8E1",
    "result": []
  },
  {
    "postal": "L9S0R1",
    "result": []
  },
  {
    "postal": "L9S4J3",
    "result": [
      {
        "electoralDistricts": [
          {
            "election": null,
            "id": 4,
            "name": "Barrie—Innisfil"
          }
        ],
        "pollDivisionIds": [
          10136865
        ],
        "postalCode": "L9S4J3",
        "streetName": "20 SIDEROAD",
        "streetDirectionId": null,
        "streetTypeId": "SIDERD",
        "placeName": "INNISFIL",
        "streetNameDisplayText": "20 SIDEROAD SIDERD, INNISFIL"
      }
    ]
  },
  {
    "postal": "L9S7E7",
    "result": []
  },
  {
    "postal": "L9S0J0",
    "result": []
  },
  {
    "postal": "L9S7R8",
    "result": []
  },
  {
    "postal": "L9S9X0",
    "result": []
  },
  {
    "postal": "L9S7P6",
    "result": []
  },
  {
    "postal": "L9S0R7",
    "result": []
  },
  {
    "postal": "L9S5W1",
    "result": []
  },
  {
    "postal": "L9S0K4",
    "result": [
      {
        "electoralDistricts": [
          {
            "election": null,
            "id": 4,
            "name": "Barrie—Innisfil"
          }
        ],
        "pollDivisionIds": [
          10136876
        ],
        "postalCode": "L9S0K4",
        "streetName": "CHAPPELL",
        "streetDirectionId": null,
        "streetTypeId": "CRT",
        "placeName": "INNISFIL",
        "streetNameDisplayText": "CHAPPELL CRT, INNISFIL"
      },
      {
        "electoralDistricts": [
          {
            "election": null,
            "id": 4,
            "name": "Barrie—Innisfil"
          }
        ],
        "pollDivisionIds": [
          10136876
        ],
        "postalCode": "L9S0K4",
        "streetName": "FREEMONT",
        "streetDirectionId": null,
        "streetTypeId": "CRT",
        "placeName": "INNISFIL",
        "streetNameDisplayText": "FREEMONT CRT, INNISFIL"
      }
    ]
  },
  {
    "postal": "L9S7N9",
    "result": []
  },
  {
    "postal": "L9S1N0",
    "result": []
  },
  {
    "postal": "L9S6P3",
    "result": []
  },
  {
    "postal": "L9S5A1",
    "result": [
      {
        "electoralDistricts": [
          {
            "election": null,
            "id": 4,
            "name": "Barrie—Innisfil"
          }
        ],
        "pollDivisionIds": [
          10136878
        ],
        "postalCode": "L9S5A1",
        "streetName": "LAMSTONE",
        "streetDirectionId": null,
        "streetTypeId": "ST",
        "placeName": "INNISFIL",
        "streetNameDisplayText": "LAMSTONE ST, INNISFIL"
      }
    ]
  },
  {
    "postal": "L9S9M9",
    "result": []
  },
  {
    "postal": "L9S7T6",
    "result": []
  },
  {
    "postal": "L9S3X0",
    "result": []
  },
  {
    "postal": "L9S2T0",
    "result": []
  },
  {
    "postal": "L9S5X9",
    "result": []
  },
  {
    "postal": "L9S2R3",
    "result": [
      {
        "electoralDistricts": [
          {
            "election": null,
            "id": 4,
            "name": "Barrie—Innisfil"
          }
        ],
        "pollDivisionIds": [
          10136865
        ],
        "postalCode": "L9S2R3",
        "streetName": "BIG BAY POINT",
        "streetDirectionId": null,
        "streetTypeId": "RD",
        "placeName": "INNISFIL",
        "streetNameDisplayText": "BIG BAY POINT RD, INNISFIL"
      }
    ]
  },
  {
    "postal": "L9S5N2",
    "result": []
  },
  {
    "postal": "L9S4Y7",
    "result": []
  },
  {
    "postal": "L9S7M0",
    "result": []
  },
  {
    "postal": "L9S8P3",
    "result": []
  },
  {
    "postal": "L9S3N3",
    "result": [
      {
        "electoralDistricts": [
          {
            "election": null,
            "id": 4,
            "name": "Barrie—Innisfil"
          }
        ],
        "pollDivisionIds": [
          10136876
        ],
        "postalCode": "L9S3N3",
        "streetName": "10TH",
        "streetDirectionId": null,
        "streetTypeId": "LINE",
        "placeName": "INNISFIL",
        "streetNameDisplayText": "10TH LINE, INNISFIL"
      }
    ]
  },
  {
    "postal": "L9S7S3",
    "result": []
  },
  {
    "postal": "L9S3V9",
    "result": [
      {
        "electoralDistricts": [
          {
            "election": null,
            "id": 4,
            "name": "Barrie—Innisfil"
          }
        ],
        "pollDivisionIds": [
          10136874
        ],
        "postalCode": "L9S3V9",
        "streetName": "INDUSTRIAL PARK",
        "streetDirectionId": null,
        "streetTypeId": "RD",
        "placeName": "INNISFIL",
        "streetNameDisplayText": "INDUSTRIAL PARK RD, INNISFIL"
      }
    ]
  },
  {
    "postal": "L9S9N7",
    "result": []
  },
  {
    "postal": "L9S0G4",
    "result": [
      {
        "electoralDistricts": [
          {
            "election": null,
            "id": 4,
            "name": "Barrie—Innisfil"
          }
        ],
        "pollDivisionIds": [
          10136875
        ],
        "postalCode": "L9S0G4",
        "streetName": "BENSON",
        "streetDirectionId": null,
        "streetTypeId": "ST",
        "placeName": "INNISFIL",
        "streetNameDisplayText": "BENSON ST, INNISFIL"
      }
    ]
  },
  {
    "postal": "L9S2E2",
    "result": [
      {
        "electoralDistricts": [
          {
            "election": null,
            "id": 4,
            "name": "Barrie—Innisfil"
          }
        ],
        "pollDivisionIds": [
          10136876
        ],
        "postalCode": "L9S2E2",
        "streetName": "ARTHUR",
        "streetDirectionId": null,
        "streetTypeId": "PL",
        "placeName": "INNISFIL",
        "streetNameDisplayText": "ARTHUR PL, INNISFIL"
      },
      {
        "electoralDistricts": [
          {
            "election": null,
            "id": 4,
            "name": "Barrie—Innisfil"
          }
        ],
        "pollDivisionIds": [
          10136876
        ],
        "postalCode": "L9S2E2",
        "streetName": "FLORENCE",
        "streetDirectionId": null,
        "streetTypeId": "RD",
        "placeName": "INNISFIL",
        "streetNameDisplayText": "FLORENCE RD, INNISFIL"
      },
      {
        "electoralDistricts": [
          {
            "election": null,
            "id": 4,
            "name": "Barrie—Innisfil"
          }
        ],
        "pollDivisionIds": [
          10136876
        ],
        "postalCode": "L9S2E2",
        "streetName": "MARGS",
        "streetDirectionId": null,
        "streetTypeId": "LANE",
        "placeName": "INNISFIL",
        "streetNameDisplayText": "MARGS LANE, INNISFIL"
      },
      {
        "electoralDistricts": [
          {
            "election": null,
            "id": 4,
            "name": "Barrie—Innisfil"
          }
        ],
        "pollDivisionIds": [
          10136876
        ],
        "postalCode": "L9S2E2",
        "streetName": "MERRETT",
        "streetDirectionId": null,
        "streetTypeId": "ST",
        "placeName": "INNISFIL",
        "streetNameDisplayText": "MERRETT ST, INNISFIL"
      },
      {
        "electoralDistricts": [
          {
            "election": null,
            "id": 4,
            "name": "Barrie—Innisfil"
          }
        ],
        "pollDivisionIds": [
          10136876
        ],
        "postalCode": "L9S2E2",
        "streetName": "WARDS",
        "streetDirectionId": null,
        "streetTypeId": "LANE",
        "placeName": "INNISFIL",
        "streetNameDisplayText": "WARDS LANE, INNISFIL"
      }
    ]
  },
  {
    "postal": "L9S7W8",
    "result": []
  },
  {
    "postal": "L9S7M5",
    "result": []
  },
  {
    "postal": "L9S5W8",
    "result": []
  },
  {
    "postal": "L9S5E5",
    "result": []
  },
  {
    "postal": "L9S1P9",
    "result": [
      {
        "electoralDistricts": [
          {
            "election": null,
            "id": 4,
            "name": "Barrie—Innisfil"
          }
        ],
        "pollDivisionIds": [
          10136865
        ],
        "postalCode": "L9S1P9",
        "streetName": "MIMOSA",
        "streetDirectionId": null,
        "streetTypeId": "CRES",
        "placeName": "INNISFIL",
        "streetNameDisplayText": "MIMOSA CRES, INNISFIL"
      },
      {
        "electoralDistricts": [
          {
            "election": null,
            "id": 4,
            "name": "Barrie—Innisfil"
          }
        ],
        "pollDivisionIds": [
          10136865
        ],
        "postalCode": "L9S1P9",
        "streetName": "MIMOSA",
        "streetDirectionId": null,
        "streetTypeId": "DR",
        "placeName": "INNISFIL",
        "streetNameDisplayText": "MIMOSA DR, INNISFIL"
      }
    ]
  },
  {
    "postal": "L9S8V8",
    "result": []
  },
  {
    "postal": "L9S9G8",
    "result": []
  },
  {
    "postal": "L9S8H9",
    "result": []
  },
  {
    "postal": "L9S1Z1",
    "result": [
      {
        "electoralDistricts": [
          {
            "election": null,
            "id": 4,
            "name": "Barrie—Innisfil"
          }
        ],
        "pollDivisionIds": [
          10136877
        ],
        "postalCode": "L9S1Z1",
        "streetName": "CENTRAL",
        "streetDirectionId": null,
        "streetTypeId": "AVE",
        "placeName": "INNISFIL",
        "streetNameDisplayText": "CENTRAL AVE, INNISFIL"
      },
      {
        "electoralDistricts": [
          {
            "election": null,
            "id": 4,
            "name": "Barrie—Innisfil"
          }
        ],
        "pollDivisionIds": [
          10136877
        ],
        "postalCode": "L9S1Z1",
        "streetName": "INGLEWOOD",
        "streetDirectionId": null,
        "streetTypeId": "DR",
        "placeName": "INNISFIL",
        "streetNameDisplayText": "INGLEWOOD DR, INNISFIL"
      },
      {
        "electoralDistricts": [
          {
            "election": null,
            "id": 4,
            "name": "Barrie—Innisfil"
          }
        ],
        "pollDivisionIds": [
          10136877
        ],
        "postalCode": "L9S1Z1",
        "streetName": "LILAC",
        "streetDirectionId": null,
        "streetTypeId": "DR",
        "placeName": "INNISFIL",
        "streetNameDisplayText": "LILAC DR, INNISFIL"
      }
    ]
  },
  {
    "postal": "L9S8M3",
    "result": []
  },
  {
    "postal": "L9S5H6",
    "result": []
  },
  {
    "postal": "L9S7W7",
    "result": []
  },
  {
    "postal": "L9S4L0",
    "result": []
  },
  {
    "postal": "L9S2N1",
    "result": [
      {
        "electoralDistricts": [
          {
            "election": null,
            "id": 4,
            "name": "Barrie—Innisfil"
          }
        ],
        "pollDivisionIds": [
          10136865
        ],
        "postalCode": "L9S2N1",
        "streetName": "BIG BAY POINT",
        "streetDirectionId": null,
        "streetTypeId": "RD",
        "placeName": "INNISFIL",
        "streetNameDisplayText": "BIG BAY POINT RD, INNISFIL"
      }
    ]
  },
  {
    "postal": "L9S2H4",
    "result": [
      {
        "electoralDistricts": [
          {
            "election": null,
            "id": 4,
            "name": "Barrie—Innisfil"
          }
        ],
        "pollDivisionIds": [
          10136876
        ],
        "postalCode": "L9S2H4",
        "streetName": "BURTON",
        "streetDirectionId": null,
        "streetTypeId": "DR",
        "placeName": "INNISFIL",
        "streetNameDisplayText": "BURTON DR, INNISFIL"
      },
      {
        "electoralDistricts": [
          {
            "election": null,
            "id": 4,
            "name": "Barrie—Innisfil"
          }
        ],
        "pollDivisionIds": [
          10136876
        ],
        "postalCode": "L9S2H4",
        "streetName": "CEDAR",
        "streetDirectionId": null,
        "streetTypeId": "PATH",
        "placeName": "INNISFIL",
        "streetNameDisplayText": "CEDAR PATH, INNISFIL"
      },
      {
        "electoralDistricts": [
          {
            "election": null,
            "id": 4,
            "name": "Barrie—Innisfil"
          }
        ],
        "pollDivisionIds": [
          10136876
        ],
        "postalCode": "L9S2H4",
        "streetName": "HOLIDAY",
        "streetDirectionId": null,
        "streetTypeId": "WAY",
        "placeName": "INNISFIL",
        "streetNameDisplayText": "HOLIDAY WAY, INNISFIL"
      },
      {
        "electoralDistricts": [
          {
            "election": null,
            "id": 4,
            "name": "Barrie—Innisfil"
          }
        ],
        "pollDivisionIds": [
          10136876
        ],
        "postalCode": "L9S2H4",
        "streetName": "ROSE",
        "streetDirectionId": null,
        "streetTypeId": "LANE",
        "placeName": "INNISFIL",
        "streetNameDisplayText": "ROSE LANE, INNISFIL"
      }
    ]
  },
  {
    "postal": "L9S5C8",
    "result": []
  },
  {
    "postal": "L9S8B0",
    "result": []
  },
  {
    "postal": "L9S1T4",
    "result": [
      {
        "electoralDistricts": [
          {
            "election": null,
            "id": 4,
            "name": "Barrie—Innisfil"
          }
        ],
        "pollDivisionIds": [
          10136877
        ],
        "postalCode": "L9S1T4",
        "streetName": "SAINT JOHNS",
        "streetDirectionId": null,
        "streetTypeId": "RD",
        "placeName": "INNISFIL",
        "streetNameDisplayText": "SAINT JOHNS RD, INNISFIL"
      },
      {
        "electoralDistricts": [
          {
            "election": null,
            "id": 4,
            "name": "Barrie—Innisfil"
          }
        ],
        "pollDivisionIds": [
          10136877
        ],
        "postalCode": "L9S1T4",
        "streetName": "ST JOHNS",
        "streetDirectionId": null,
        "streetTypeId": "RD",
        "placeName": "INNISFIL",
        "streetNameDisplayText": "ST JOHNS RD, INNISFIL"
      }
    ]
  },
  {
    "postal": "L9S7N7",
    "result": []
  },
  {
    "postal": "L9S4L3",
    "result": [
      {
        "electoralDistricts": [
          {
            "election": null,
            "id": 4,
            "name": "Barrie—Innisfil"
          }
        ],
        "pollDivisionIds": [
          10136878
        ],
        "postalCode": "L9S4L3",
        "streetName": "CEDARVALE",
        "streetDirectionId": null,
        "streetTypeId": "DR",
        "placeName": "INNISFIL",
        "streetNameDisplayText": "CEDARVALE DR, INNISFIL"
      }
    ]
  },
  {
    "postal": "L9S2N2",
    "result": [
      {
        "electoralDistricts": [
          {
            "election": null,
            "id": 4,
            "name": "Barrie—Innisfil"
          }
        ],
        "pollDivisionIds": [
          10136865
        ],
        "postalCode": "L9S2N2",
        "streetName": "BIG BAY POINT",
        "streetDirectionId": null,
        "streetTypeId": "RD",
        "placeName": "INNISFIL",
        "streetNameDisplayText": "BIG BAY POINT RD, INNISFIL"
      }
    ]
  },
  {
    "postal": "L9S4N8",
    "result": [
      {
        "electoralDistricts": [
          {
            "election": null,
            "id": 4,
            "name": "Barrie—Innisfil"
          }
        ],
        "pollDivisionIds": [
          10136874
        ],
        "postalCode": "L9S4N8",
        "streetName": "10 SIDEROAD",
        "streetDirectionId": null,
        "streetTypeId": null,
        "placeName": "INNISFIL",
        "streetNameDisplayText": "10 SIDEROAD, INNISFIL"
      }
    ]
  },
  {
    "postal": "L9S3M5",
    "result": [
      {
        "electoralDistricts": [
          {
            "election": null,
            "id": 4,
            "name": "Barrie—Innisfil"
          }
        ],
        "pollDivisionIds": [
          10136873
        ],
        "postalCode": "L9S3M5",
        "streetName": "7TH",
        "streetDirectionId": null,
        "streetTypeId": "LINE",
        "placeName": "INNISFIL",
        "streetNameDisplayText": "7TH LINE, INNISFIL"
      }
    ]
  },
  {
    "postal": "L9S6H7",
    "result": []
  },
  {
    "postal": "L9S8Y8",
    "result": []
  },
  {
    "postal": "L9S5R9",
    "result": []
  },
  {
    "postal": "L9S8G3",
    "result": []
  },
  {
    "postal": "L9S4N7",
    "result": [
      {
        "electoralDistricts": [
          {
            "election": null,
            "id": 4,
            "name": "Barrie—Innisfil"
          }
        ],
        "pollDivisionIds": [
          10136875
        ],
        "postalCode": "L9S4N7",
        "streetName": "YONGE",
        "streetDirectionId": null,
        "streetTypeId": "ST",
        "placeName": "INNISFIL",
        "streetNameDisplayText": "YONGE ST, INNISFIL"
      }
    ]
  },
  {
    "postal": "L9S0B9",
    "result": []
  },
  {
    "postal": "L9S9K7",
    "result": []
  },
  {
    "postal": "L9S9K9",
    "result": []
  },
  {
    "postal": "L9S3Z2",
    "result": [
      {
        "electoralDistricts": [
          {
            "election": null,
            "id": 4,
            "name": "Barrie—Innisfil"
          },
          {
            "election": null,
            "id": 99,
            "name": "Simcoe—Grey"
          }
        ],
        "pollDivisionIds": [
          10136874,
          10141846
        ],
        "postalCode": "L9S3Z2",
        "streetName": "9TH",
        "streetDirectionId": null,
        "streetTypeId": "LINE",
        "placeName": "INNISFIL",
        "streetNameDisplayText": "9TH LINE, INNISFIL"
      }
    ]
  },
  {
    "postal": "L9S6W7",
    "result": []
  },
  {
    "postal": "L9S0P1",
    "result": []
  },
  {
    "postal": "L9S3A0",
    "result": []
  },
  {
    "postal": "L9S8L9",
    "result": []
  },
  {
    "postal": "L9S6X0",
    "result": []
  },
  {
    "postal": "L9S3E9",
    "result": [
      {
        "electoralDistricts": [
          {
            "election": null,
            "id": 4,
            "name": "Barrie—Innisfil"
          }
        ],
        "pollDivisionIds": [
          10136874
        ],
        "postalCode": "L9S3E9",
        "streetName": "LOCKHART",
        "streetDirectionId": null,
        "streetTypeId": "RD",
        "placeName": "INNISFIL",
        "streetNameDisplayText": "LOCKHART RD, INNISFIL"
      }
    ]
  },
  {
    "postal": "L9S0S5",
    "result": []
  },
  {
    "postal": "L9S1A2",
    "result": [
      {
        "electoralDistricts": [
          {
            "election": null,
            "id": 4,
            "name": "Barrie—Innisfil"
          }
        ],
        "pollDivisionIds": [
          10136875
        ],
        "postalCode": "L9S1A2",
        "streetName": "INNISFIL BEACH",
        "streetDirectionId": null,
        "streetTypeId": "RD",
        "placeName": "INNISFIL",
        "streetNameDisplayText": "INNISFIL BEACH RD, INNISFIL"
      }
    ]
  },
  {
    "postal": "L9S5V8",
    "result": []
  },
  {
    "postal": "L9S8C5",
    "result": []
  },
  {
    "postal": "L9S6N0",
    "result": []
  },
  {
    "postal": "L9S9E6",
    "result": []
  },
  {
    "postal": "L9S5J7",
    "result": []
  },
  {
    "postal": "L9S2R2",
    "result": [
      {
        "electoralDistricts": [
          {
            "election": null,
            "id": 4,
            "name": "Barrie—Innisfil"
          }
        ],
        "pollDivisionIds": [
          10136865
        ],
        "postalCode": "L9S2R2",
        "streetName": "BIG BAY POINT",
        "streetDirectionId": null,
        "streetTypeId": "RD",
        "placeName": "INNISFIL",
        "streetNameDisplayText": "BIG BAY POINT RD, INNISFIL"
      }
    ]
  },
  {
    "postal": "L9S0P5",
    "result": []
  },
  {
    "postal": "L9S5A7",
    "result": [
      {
        "electoralDistricts": [
          {
            "election": null,
            "id": 4,
            "name": "Barrie—Innisfil"
          }
        ],
        "pollDivisionIds": [
          10136865
        ],
        "postalCode": "L9S5A7",
        "streetName": "DALKAB",
        "streetDirectionId": null,
        "streetTypeId": "CRES",
        "placeName": "INNISFIL",
        "streetNameDisplayText": "DALKAB CRES, INNISFIL"
      },
      {
        "electoralDistricts": [
          {
            "election": null,
            "id": 4,
            "name": "Barrie—Innisfil"
          }
        ],
        "pollDivisionIds": [
          10136865
        ],
        "postalCode": "L9S5A7",
        "streetName": "SHOREVIEW",
        "streetDirectionId": null,
        "streetTypeId": "DR",
        "placeName": "INNISFIL",
        "streetNameDisplayText": "SHOREVIEW DR, INNISFIL"
      }
    ]
  },
  {
    "postal": "L9S1G1",
    "result": [
      {
        "electoralDistricts": [
          {
            "election": null,
            "id": 4,
            "name": "Barrie—Innisfil"
          }
        ],
        "pollDivisionIds": [
          10136874
        ],
        "postalCode": "L9S1G1",
        "streetName": "NEWHOLME",
        "streetDirectionId": null,
        "streetTypeId": "CIR",
        "placeName": "INNISFIL",
        "streetNameDisplayText": "NEWHOLME CIR, INNISFIL"
      }
    ]
  },
  {
    "postal": "L9S9R6",
    "result": []
  },
  {
    "postal": "L9S4Z9",
    "result": [
      {
        "electoralDistricts": [
          {
            "election": null,
            "id": 4,
            "name": "Barrie—Innisfil"
          }
        ],
        "pollDivisionIds": [
          10136878
        ],
        "postalCode": "L9S4Z9",
        "streetName": "LAMSTONE",
        "streetDirectionId": null,
        "streetTypeId": "ST",
        "placeName": "INNISFIL",
        "streetNameDisplayText": "LAMSTONE ST, INNISFIL"
      }
    ]
  },
  {
    "postal": "L9S1V5",
    "result": [
      {
        "electoralDistricts": [
          {
            "election": null,
            "id": 4,
            "name": "Barrie—Innisfil"
          }
        ],
        "pollDivisionIds": [
          10136877
        ],
        "postalCode": "L9S1V5",
        "streetName": "ANNA MARIA",
        "streetDirectionId": null,
        "streetTypeId": "AVE",
        "placeName": "INNISFIL",
        "streetNameDisplayText": "ANNA MARIA AVE, INNISFIL"
      },
      {
        "electoralDistricts": [
          {
            "election": null,
            "id": 4,
            "name": "Barrie—Innisfil"
          }
        ],
        "pollDivisionIds": [
          10136877
        ],
        "postalCode": "L9S1V5",
        "streetName": "VANCE",
        "streetDirectionId": null,
        "streetTypeId": "CRES",
        "placeName": "INNISFIL",
        "streetNameDisplayText": "VANCE CRES, INNISFIL"
      }
    ]
  },
  {
    "postal": "L9S9Y5",
    "result": []
  },
  {
    "postal": "L9S1P2",
    "result": [
      {
        "electoralDistricts": [
          {
            "election": null,
            "id": 4,
            "name": "Barrie—Innisfil"
          }
        ],
        "pollDivisionIds": [
          10136865
        ],
        "postalCode": "L9S1P2",
        "streetName": "LINDEN",
        "streetDirectionId": null,
        "streetTypeId": "LANE",
        "placeName": "INNISFIL",
        "streetNameDisplayText": "LINDEN LANE, INNISFIL"
      },
      {
        "electoralDistricts": [
          {
            "election": null,
            "id": 4,
            "name": "Barrie—Innisfil"
          }
        ],
        "pollDivisionIds": [
          10136865
        ],
        "postalCode": "L9S1P2",
        "streetName": "WEEPING WILLOW",
        "streetDirectionId": null,
        "streetTypeId": "DR",
        "placeName": "INNISFIL",
        "streetNameDisplayText": "WEEPING WILLOW DR, INNISFIL"
      }
    ]
  },
  {
    "postal": "L9S5X0",
    "result": []
  },
  {
    "postal": "L9S7B8",
    "result": []
  },
  {
    "postal": "L9S0C6",
    "result": [
      {
        "electoralDistricts": [
          {
            "election": null,
            "id": 4,
            "name": "Barrie—Innisfil"
          }
        ],
        "pollDivisionIds": [
          10136875
        ],
        "postalCode": "L9S0C6",
        "streetName": "RANKIN",
        "streetDirectionId": null,
        "streetTypeId": "WAY",
        "placeName": "INNISFIL",
        "streetNameDisplayText": "RANKIN WAY, INNISFIL"
      }
    ]
  },
  {
    "postal": "L9S6G1",
    "result": []
  },
  {
    "postal": "L9S3K3",
    "result": [
      {
        "electoralDistricts": [
          {
            "election": null,
            "id": 4,
            "name": "Barrie—Innisfil"
          }
        ],
        "pollDivisionIds": [
          10136873
        ],
        "postalCode": "L9S3K3",
        "streetName": "INNISFIL BEACH",
        "streetDirectionId": null,
        "streetTypeId": "RD",
        "placeName": "INNISFIL",
        "streetNameDisplayText": "INNISFIL BEACH RD, INNISFIL"
      }
    ]
  },
  {
    "postal": "L9S9R0",
    "result": []
  },
  {
    "postal": "L9S4R8",
    "result": [
      {
        "electoralDistricts": [
          {
            "election": null,
            "id": 4,
            "name": "Barrie—Innisfil"
          }
        ],
        "pollDivisionIds": [
          10136878,
          10136875
        ],
        "postalCode": "L9S4R8",
        "streetName": "6TH",
        "streetDirectionId": null,
        "streetTypeId": "LINE",
        "placeName": "INNISFIL",
        "streetNameDisplayText": "6TH LINE, INNISFIL"
      }
    ]
  },
  {
    "postal": "L9S5P9",
    "result": []
  },
  {
    "postal": "L9S8N4",
    "result": []
  },
  {
    "postal": "L9S8H4",
    "result": []
  },
  {
    "postal": "L9S4V1",
    "result": [
      {
        "electoralDistricts": [
          {
            "election": null,
            "id": 4,
            "name": "Barrie—Innisfil"
          }
        ],
        "pollDivisionIds": [
          10136876
        ],
        "postalCode": "L9S4V1",
        "streetName": "WARRINGTON",
        "streetDirectionId": null,
        "streetTypeId": "WAY",
        "placeName": "INNISFIL",
        "streetNameDisplayText": "WARRINGTON WAY, INNISFIL"
      }
    ]
  },
  {
    "postal": "L9S1K5",
    "result": [
      {
        "electoralDistricts": [
          {
            "election": null,
            "id": 4,
            "name": "Barrie—Innisfil"
          }
        ],
        "pollDivisionIds": [
          10136874
        ],
        "postalCode": "L9S1K5",
        "streetName": "VICTORIA",
        "streetDirectionId": "W",
        "streetTypeId": "ST",
        "placeName": "INNISFIL",
        "streetNameDisplayText": "VICTORIA ST W, INNISFIL"
      }
    ]
  },
  {
    "postal": "L9S1Z5",
    "result": [
      {
        "electoralDistricts": [
          {
            "election": null,
            "id": 4,
            "name": "Barrie—Innisfil"
          }
        ],
        "pollDivisionIds": [
          10136878
        ],
        "postalCode": "L9S1Z5",
        "streetName": "FOREST",
        "streetDirectionId": null,
        "streetTypeId": "ST",
        "placeName": "INNISFIL",
        "streetNameDisplayText": "FOREST ST, INNISFIL"
      }
    ]
  },
  {
    "postal": "L9S9L9",
    "result": []
  },
  {
    "postal": "L9S5L2",
    "result": []
  },
  {
    "postal": "L9S0M2",
    "result": [
      {
        "electoralDistricts": [
          {
            "election": null,
            "id": 4,
            "name": "Barrie—Innisfil"
          }
        ],
        "pollDivisionIds": [
          10136865
        ],
        "postalCode": "L9S0M2",
        "streetName": "BROWARD",
        "streetDirectionId": null,
        "streetTypeId": "WAY",
        "placeName": "INNISFIL",
        "streetNameDisplayText": "BROWARD WAY, INNISFIL"
      }
    ]
  },
  {
    "postal": "L9S1K8",
    "result": [
      {
        "electoralDistricts": [
          {
            "election": null,
            "id": 4,
            "name": "Barrie—Innisfil"
          }
        ],
        "pollDivisionIds": [
          10136874
        ],
        "postalCode": "L9S1K8",
        "streetName": "YONGE",
        "streetDirectionId": null,
        "streetTypeId": "ST",
        "placeName": "INNISFIL",
        "streetNameDisplayText": "YONGE ST, INNISFIL"
      }
    ]
  },
  {
    "postal": "L9S3M7",
    "result": [
      {
        "electoralDistricts": [
          {
            "election": null,
            "id": 4,
            "name": "Barrie—Innisfil"
          }
        ],
        "pollDivisionIds": [
          10136873
        ],
        "postalCode": "L9S3M7",
        "streetName": "7TH",
        "streetDirectionId": null,
        "streetTypeId": "LINE",
        "placeName": "INNISFIL",
        "streetNameDisplayText": "7TH LINE, INNISFIL"
      }
    ]
  },
  {
    "postal": "L9S1B2",
    "result": [
      {
        "electoralDistricts": [
          {
            "election": null,
            "id": 4,
            "name": "Barrie—Innisfil"
          }
        ],
        "pollDivisionIds": [
          10136874
        ],
        "postalCode": "L9S1B2",
        "streetName": "AGNES",
        "streetDirectionId": null,
        "streetTypeId": "ST",
        "placeName": "INNISFIL",
        "streetNameDisplayText": "AGNES ST, INNISFIL"
      }
    ]
  },
  {
    "postal": "L9S0H9",
    "result": [
      {
        "electoralDistricts": [
          {
            "election": null,
            "id": 4,
            "name": "Barrie—Innisfil"
          }
        ],
        "pollDivisionIds": [
          10136874
        ],
        "postalCode": "L9S0H9",
        "streetName": "BOWMAN",
        "streetDirectionId": null,
        "streetTypeId": "ST",
        "placeName": "INNISFIL",
        "streetNameDisplayText": "BOWMAN ST, INNISFIL"
      }
    ]
  },
  {
    "postal": "L9S8M4",
    "result": []
  },
  {
    "postal": "L9S2M5",
    "result": [
      {
        "electoralDistricts": [
          {
            "election": null,
            "id": 4,
            "name": "Barrie—Innisfil"
          }
        ],
        "pollDivisionIds": [
          10136876
        ],
        "postalCode": "L9S2M5",
        "streetName": "GOSHEN",
        "streetDirectionId": null,
        "streetTypeId": "RD",
        "placeName": "INNISFIL",
        "streetNameDisplayText": "GOSHEN RD, INNISFIL"
      },
      {
        "electoralDistricts": [
          {
            "election": null,
            "id": 4,
            "name": "Barrie—Innisfil"
          }
        ],
        "pollDivisionIds": [
          10136876
        ],
        "postalCode": "L9S2M5",
        "streetName": "INNISFIL BEACH",
        "streetDirectionId": null,
        "streetTypeId": "RD",
        "placeName": "INNISFIL",
        "streetNameDisplayText": "INNISFIL BEACH RD, INNISFIL"
      }
    ]
  },
  {
    "postal": "L9S0T9",
    "result": []
  },
  {
    "postal": "L9S3P1",
    "result": [
      {
        "electoralDistricts": [
          {
            "election": null,
            "id": 4,
            "name": "Barrie—Innisfil"
          }
        ],
        "pollDivisionIds": [
          10136865
        ],
        "postalCode": "L9S3P1",
        "streetName": "10TH",
        "streetDirectionId": null,
        "streetTypeId": "LINE",
        "placeName": "INNISFIL",
        "streetNameDisplayText": "10TH LINE, INNISFIL"
      }
    ]
  },
  {
    "postal": "L9S1R6",
    "result": [
      {
        "electoralDistricts": [
          {
            "election": null,
            "id": 4,
            "name": "Barrie—Innisfil"
          }
        ],
        "pollDivisionIds": [
          10136865
        ],
        "postalCode": "L9S1R6",
        "streetName": "MALL",
        "streetDirectionId": null,
        "streetTypeId": "SQ",
        "placeName": "INNISFIL",
        "streetNameDisplayText": "MALL SQ, INNISFIL"
      },
      {
        "electoralDistricts": [
          {
            "election": null,
            "id": 4,
            "name": "Barrie—Innisfil"
          }
        ],
        "pollDivisionIds": [
          10136865
        ],
        "postalCode": "L9S1R6",
        "streetName": "NATURE TRAIL",
        "streetDirectionId": null,
        "streetTypeId": "CRT",
        "placeName": "INNISFIL",
        "streetNameDisplayText": "NATURE TRAIL CRT, INNISFIL"
      },
      {
        "electoralDistricts": [
          {
            "election": null,
            "id": 4,
            "name": "Barrie—Innisfil"
          }
        ],
        "pollDivisionIds": [
          10136865
        ],
        "postalCode": "L9S1R6",
        "streetName": "NATURE TRAIL",
        "streetDirectionId": null,
        "streetTypeId": "RD",
        "placeName": "INNISFIL",
        "streetNameDisplayText": "NATURE TRAIL RD, INNISFIL"
      },
      {
        "electoralDistricts": [
          {
            "election": null,
            "id": 4,
            "name": "Barrie—Innisfil"
          }
        ],
        "pollDivisionIds": [
          10136865
        ],
        "postalCode": "L9S1R6",
        "streetName": "RECREATION",
        "streetDirectionId": null,
        "streetTypeId": "DR",
        "placeName": "INNISFIL",
        "streetNameDisplayText": "RECREATION DR, INNISFIL"
      },
      {
        "electoralDistricts": [
          {
            "election": null,
            "id": 4,
            "name": "Barrie—Innisfil"
          }
        ],
        "pollDivisionIds": [
          10136865
        ],
        "postalCode": "L9S1R6",
        "streetName": "WEEPING WILLOW",
        "streetDirectionId": null,
        "streetTypeId": "DR",
        "placeName": "INNISFIL",
        "streetNameDisplayText": "WEEPING WILLOW DR, INNISFIL"
      }
    ]
  },
  {
    "postal": "L9S9V5",
    "result": []
  },
  {
    "postal": "L9S9T0",
    "result": []
  },
  {
    "postal": "L9S0A9",
    "result": [
      {
        "electoralDistricts": [
          {
            "election": null,
            "id": 4,
            "name": "Barrie—Innisfil"
          }
        ],
        "pollDivisionIds": [
          10136877
        ],
        "postalCode": "L9S0A9",
        "streetName": "OSBOND",
        "streetDirectionId": null,
        "streetTypeId": "RD",
        "placeName": "INNISFIL",
        "streetNameDisplayText": "OSBOND RD, INNISFIL"
      },
      {
        "electoralDistricts": [
          {
            "election": null,
            "id": 4,
            "name": "Barrie—Innisfil"
          }
        ],
        "pollDivisionIds": [
          10136877
        ],
        "postalCode": "L9S0A9",
        "streetName": "SWAN",
        "streetDirectionId": null,
        "streetTypeId": "ST",
        "placeName": "INNISFIL",
        "streetNameDisplayText": "SWAN ST, INNISFIL"
      }
    ]
  },
  {
    "postal": "L9S1M3",
    "result": [
      {
        "electoralDistricts": [
          {
            "election": null,
            "id": 4,
            "name": "Barrie—Innisfil"
          }
        ],
        "pollDivisionIds": [
          10136865
        ],
        "postalCode": "L9S1M3",
        "streetName": "RIVERVIEW",
        "streetDirectionId": null,
        "streetTypeId": "CIR",
        "placeName": "INNISFIL",
        "streetNameDisplayText": "RIVERVIEW CIR, INNISFIL"
      },
      {
        "electoralDistricts": [
          {
            "election": null,
            "id": 4,
            "name": "Barrie—Innisfil"
          }
        ],
        "pollDivisionIds": [
          10136865
        ],
        "postalCode": "L9S1M3",
        "streetName": "ROSEWOOD",
        "streetDirectionId": null,
        "streetTypeId": "CRT",
        "placeName": "INNISFIL",
        "streetNameDisplayText": "ROSEWOOD CRT, INNISFIL"
      }
    ]
  },
  {
    "postal": "L9S1W8",
    "result": [
      {
        "electoralDistricts": [
          {
            "election": null,
            "id": 4,
            "name": "Barrie—Innisfil"
          }
        ],
        "pollDivisionIds": [
          10136877
        ],
        "postalCode": "L9S1W8",
        "streetName": "ANNECCA",
        "streetDirectionId": null,
        "streetTypeId": "ST",
        "placeName": "INNISFIL",
        "streetNameDisplayText": "ANNECCA ST, INNISFIL"
      },
      {
        "electoralDistricts": [
          {
            "election": null,
            "id": 4,
            "name": "Barrie—Innisfil"
          }
        ],
        "pollDivisionIds": [
          10136877
        ],
        "postalCode": "L9S1W8",
        "streetName": "ASHWOOD",
        "streetDirectionId": null,
        "streetTypeId": "AVE",
        "placeName": "INNISFIL",
        "streetNameDisplayText": "ASHWOOD AVE, INNISFIL"
      },
      {
        "electoralDistricts": [
          {
            "election": null,
            "id": 4,
            "name": "Barrie—Innisfil"
          }
        ],
        "pollDivisionIds": [
          10136877
        ],
        "postalCode": "L9S1W8",
        "streetName": "CRAIG",
        "streetDirectionId": null,
        "streetTypeId": "RD",
        "placeName": "INNISFIL",
        "streetNameDisplayText": "CRAIG RD, INNISFIL"
      }
    ]
  },
  {
    "postal": "L9S9J1",
    "result": []
  },
  {
    "postal": "L9S8N5",
    "result": []
  },
  {
    "postal": "L9S5X1",
    "result": []
  },
  {
    "postal": "L9S6S2",
    "result": []
  },
  {
    "postal": "L9S2A2",
    "result": [
      {
        "electoralDistricts": [
          {
            "election": null,
            "id": 4,
            "name": "Barrie—Innisfil"
          }
        ],
        "pollDivisionIds": [
          10136878
        ],
        "postalCode": "L9S2A2",
        "streetName": "EMERALD",
        "streetDirectionId": null,
        "streetTypeId": "CRT",
        "placeName": "INNISFIL",
        "streetNameDisplayText": "EMERALD CRT, INNISFIL"
      },
      {
        "electoralDistricts": [
          {
            "election": null,
            "id": 4,
            "name": "Barrie—Innisfil"
          }
        ],
        "pollDivisionIds": [
          10136878
        ],
        "postalCode": "L9S2A2",
        "streetName": "MILL",
        "streetDirectionId": null,
        "streetTypeId": "ST",
        "placeName": "INNISFIL",
        "streetNameDisplayText": "MILL ST, INNISFIL"
      }
    ]
  },
  {
    "postal": "L9S6A6",
    "result": []
  },
  {
    "postal": "L9S0S3",
    "result": []
  },
  {
    "postal": "L9S3E7",
    "result": [
      {
        "electoralDistricts": [
          {
            "election": null,
            "id": 4,
            "name": "Barrie—Innisfil"
          }
        ],
        "pollDivisionIds": [
          10136865
        ],
        "postalCode": "L9S3E7",
        "streetName": "LOCKHART",
        "streetDirectionId": null,
        "streetTypeId": "RD",
        "placeName": "INNISFIL",
        "streetNameDisplayText": "LOCKHART RD, INNISFIL"
      }
    ]
  },
  {
    "postal": "L9S5R7",
    "result": []
  },
  {
    "postal": "L9S3R6",
    "result": []
  },
  {
    "postal": "L9S6K4",
    "result": []
  },
  {
    "postal": "L9S2W5",
    "result": [
      {
        "electoralDistricts": [
          {
            "election": null,
            "id": 4,
            "name": "Barrie—Innisfil"
          }
        ],
        "pollDivisionIds": [
          10136865
        ],
        "postalCode": "L9S2W5",
        "streetName": "PITT",
        "streetDirectionId": null,
        "streetTypeId": "ST",
        "placeName": "INNISFIL",
        "streetNameDisplayText": "PITT ST, INNISFIL"
      }
    ]
  },
  {
    "postal": "L9S8W4",
    "result": []
  },
  {
    "postal": "L9S9C2",
    "result": []
  },
  {
    "postal": "L9S2C0",
    "result": []
  },
  {
    "postal": "L9S0E1",
    "result": [
      {
        "electoralDistricts": [
          {
            "election": null,
            "id": 4,
            "name": "Barrie—Innisfil"
          }
        ],
        "pollDivisionIds": [
          10136875
        ],
        "postalCode": "L9S0E1",
        "streetName": "BASSINGTHWAITE",
        "streetDirectionId": null,
        "streetTypeId": "CRT",
        "placeName": "INNISFIL",
        "streetNameDisplayText": "BASSINGTHWAITE CRT, INNISFIL"
      },
      {
        "electoralDistricts": [
          {
            "election": null,
            "id": 4,
            "name": "Barrie—Innisfil"
          }
        ],
        "pollDivisionIds": [
          10136875
        ],
        "postalCode": "L9S0E1",
        "streetName": "NEVILS",
        "streetDirectionId": null,
        "streetTypeId": "ST",
        "placeName": "INNISFIL",
        "streetNameDisplayText": "NEVILS ST, INNISFIL"
      }
    ]
  },
  {
    "postal": "L9S1K9",
    "result": [
      {
        "electoralDistricts": [
          {
            "election": null,
            "id": 4,
            "name": "Barrie—Innisfil"
          }
        ],
        "pollDivisionIds": [
          10136874
        ],
        "postalCode": "L9S1K9",
        "streetName": "YONGE",
        "streetDirectionId": null,
        "streetTypeId": "ST",
        "placeName": "INNISFIL",
        "streetNameDisplayText": "YONGE ST, INNISFIL"
      }
    ]
  },
  {
    "postal": "L9S1G7",
    "result": [
      {
        "electoralDistricts": [
          {
            "election": null,
            "id": 4,
            "name": "Barrie—Innisfil"
          }
        ],
        "pollDivisionIds": [
          10136874
        ],
        "postalCode": "L9S1G7",
        "streetName": "SCYTHES",
        "streetDirectionId": null,
        "streetTypeId": "ST",
        "placeName": "INNISFIL",
        "streetNameDisplayText": "SCYTHES ST, INNISFIL"
      }
    ]
  },
  {
    "postal": "L9S4E9",
    "result": [
      {
        "electoralDistricts": [
          {
            "election": null,
            "id": 4,
            "name": "Barrie—Innisfil"
          }
        ],
        "pollDivisionIds": [
          10136878
        ],
        "postalCode": "L9S4E9",
        "streetName": "7TH",
        "streetDirectionId": null,
        "streetTypeId": "LINE",
        "placeName": "INNISFIL",
        "streetNameDisplayText": "7TH LINE, INNISFIL"
      }
    ]
  },
  {
    "postal": "L9S9P0",
    "result": []
  },
  {
    "postal": "L9S5H3",
    "result": []
  },
  {
    "postal": "L9S9X6",
    "result": []
  },
  {
    "postal": "L9S5N7",
    "result": []
  },
  {
    "postal": "L9S5A6",
    "result": []
  },
  {
    "postal": "L9S4M0",
    "result": []
  },
  {
    "postal": "L9S3V6",
    "result": [
      {
        "electoralDistricts": [
          {
            "election": null,
            "id": 4,
            "name": "Barrie—Innisfil"
          }
        ],
        "pollDivisionIds": [
          10136874
        ],
        "postalCode": "L9S3V6",
        "streetName": "BOWMAN",
        "streetDirectionId": null,
        "streetTypeId": "ST",
        "placeName": "INNISFIL",
        "streetNameDisplayText": "BOWMAN ST, INNISFIL"
      }
    ]
  },
  {
    "postal": "L9S1L7",
    "result": [
      {
        "electoralDistricts": [
          {
            "election": null,
            "id": 4,
            "name": "Barrie—Innisfil"
          }
        ],
        "pollDivisionIds": [
          10136865
        ],
        "postalCode": "L9S1L7",
        "streetName": "ASPEN",
        "streetDirectionId": null,
        "streetTypeId": "CRT",
        "placeName": "INNISFIL",
        "streetNameDisplayText": "ASPEN CRT, INNISFIL"
      },
      {
        "electoralDistricts": [
          {
            "election": null,
            "id": 4,
            "name": "Barrie—Innisfil"
          }
        ],
        "pollDivisionIds": [
          10136865
        ],
        "postalCode": "L9S1L7",
        "streetName": "BIRCH",
        "streetDirectionId": null,
        "streetTypeId": "CRT",
        "placeName": "INNISFIL",
        "streetNameDisplayText": "BIRCH CRT, INNISFIL"
      },
      {
        "electoralDistricts": [
          {
            "election": null,
            "id": 4,
            "name": "Barrie—Innisfil"
          }
        ],
        "pollDivisionIds": [
          10136865
        ],
        "postalCode": "L9S1L7",
        "streetName": "SOUTH",
        "streetDirectionId": null,
        "streetTypeId": "BLVD",
        "placeName": "INNISFIL",
        "streetNameDisplayText": "SOUTH BLVD, INNISFIL"
      },
      {
        "electoralDistricts": [
          {
            "election": null,
            "id": 4,
            "name": "Barrie—Innisfil"
          }
        ],
        "pollDivisionIds": [
          10136865
        ],
        "postalCode": "L9S1L7",
        "streetName": "WESTERN",
        "streetDirectionId": null,
        "streetTypeId": "AVE",
        "placeName": "INNISFIL",
        "streetNameDisplayText": "WESTERN AVE, INNISFIL"
      }
    ]
  },
  {
    "postal": "L9S2P9",
    "result": [
      {
        "electoralDistricts": [
          {
            "election": null,
            "id": 4,
            "name": "Barrie—Innisfil"
          }
        ],
        "pollDivisionIds": [
          10136865
        ],
        "postalCode": "L9S2P9",
        "streetName": "BIG BAY POINT",
        "streetDirectionId": null,
        "streetTypeId": "RD",
        "placeName": "INNISFIL",
        "streetNameDisplayText": "BIG BAY POINT RD, INNISFIL"
      }
    ]
  },
  {
    "postal": "L9S5T4",
    "result": []
  },
  {
    "postal": "L9S5Z1",
    "result": []
  },
  {
    "postal": "L9S2X0",
    "result": []
  },
  {
    "postal": "L9S6Z2",
    "result": []
  },
  {
    "postal": "L9S0E0",
    "result": []
  },
  {
    "postal": "L9S3Z5",
    "result": [
      {
        "electoralDistricts": [
          {
            "election": null,
            "id": 4,
            "name": "Barrie—Innisfil"
          }
        ],
        "pollDivisionIds": [
          10136874
        ],
        "postalCode": "L9S3Z5",
        "streetName": "9TH",
        "streetDirectionId": null,
        "streetTypeId": "LINE",
        "placeName": "INNISFIL",
        "streetNameDisplayText": "9TH LINE, INNISFIL"
      }
    ]
  },
  {
    "postal": "L9S8H3",
    "result": []
  },
  {
    "postal": "L9S7S6",
    "result": []
  },
  {
    "postal": "L9S4C1",
    "result": [
      {
        "electoralDistricts": [
          {
            "election": null,
            "id": 4,
            "name": "Barrie—Innisfil"
          }
        ],
        "pollDivisionIds": [
          10136875
        ],
        "postalCode": "L9S4C1",
        "streetName": "INNISFIL BEACH",
        "streetDirectionId": null,
        "streetTypeId": "RD",
        "placeName": "INNISFIL",
        "streetNameDisplayText": "INNISFIL BEACH RD, INNISFIL"
      }
    ]
  },
  {
    "postal": "L9S3K2",
    "result": [
      {
        "electoralDistricts": [
          {
            "election": null,
            "id": 4,
            "name": "Barrie—Innisfil"
          }
        ],
        "pollDivisionIds": [
          10136873
        ],
        "postalCode": "L9S3K2",
        "streetName": "INNISFIL BEACH",
        "streetDirectionId": null,
        "streetTypeId": "RD",
        "placeName": "INNISFIL",
        "streetNameDisplayText": "INNISFIL BEACH RD, INNISFIL"
      }
    ]
  },
  {
    "postal": "L9S1Y5",
    "result": [
      {
        "electoralDistricts": [
          {
            "election": null,
            "id": 4,
            "name": "Barrie—Innisfil"
          }
        ],
        "pollDivisionIds": [
          10136875
        ],
        "postalCode": "L9S1Y5",
        "streetName": "BENSON",
        "streetDirectionId": null,
        "streetTypeId": "ST",
        "placeName": "INNISFIL",
        "streetNameDisplayText": "BENSON ST, INNISFIL"
      },
      {
        "electoralDistricts": [
          {
            "election": null,
            "id": 4,
            "name": "Barrie—Innisfil"
          }
        ],
        "pollDivisionIds": [
          10136875
        ],
        "postalCode": "L9S1Y5",
        "streetName": "CHALMERS",
        "streetDirectionId": null,
        "streetTypeId": "CRES",
        "placeName": "INNISFIL",
        "streetNameDisplayText": "CHALMERS CRES, INNISFIL"
      }
    ]
  },
  {
    "postal": "L9S6P6",
    "result": []
  },
  {
    "postal": "L9S3N9",
    "result": [
      {
        "electoralDistricts": [
          {
            "election": null,
            "id": 4,
            "name": "Barrie—Innisfil"
          }
        ],
        "pollDivisionIds": [
          10136865
        ],
        "postalCode": "L9S3N9",
        "streetName": "10TH",
        "streetDirectionId": null,
        "streetTypeId": "LINE",
        "placeName": "INNISFIL",
        "streetNameDisplayText": "10TH LINE, INNISFIL"
      }
    ]
  },
  {
    "postal": "L9S3W2",
    "result": [
      {
        "electoralDistricts": [
          {
            "election": null,
            "id": 4,
            "name": "Barrie—Innisfil"
          }
        ],
        "pollDivisionIds": [
          10136874
        ],
        "postalCode": "L9S3W2",
        "streetName": "THOMAS",
        "streetDirectionId": null,
        "streetTypeId": "ST",
        "placeName": "INNISFIL",
        "streetNameDisplayText": "THOMAS ST, INNISFIL"
      }
    ]
  },
  {
    "postal": "L9S6H8",
    "result": []
  },
  {
    "postal": "L9S9T3",
    "result": []
  },
  {
    "postal": "L9S5L9",
    "result": []
  },
  {
    "postal": "L9S7X7",
    "result": []
  },
  {
    "postal": "L9S3J5",
    "result": [
      {
        "electoralDistricts": [
          {
            "election": null,
            "id": 4,
            "name": "Barrie—Innisfil"
          }
        ],
        "pollDivisionIds": [
          10136873
        ],
        "postalCode": "L9S3J5",
        "streetName": "ESSA",
        "streetDirectionId": null,
        "streetTypeId": "RD",
        "placeName": "INNISFIL",
        "streetNameDisplayText": "ESSA RD, INNISFIL"
      }
    ]
  },
  {
    "postal": "L9S4J5",
    "result": [
      {
        "electoralDistricts": [
          {
            "election": null,
            "id": 4,
            "name": "Barrie—Innisfil"
          }
        ],
        "pollDivisionIds": [
          10136865
        ],
        "postalCode": "L9S4J5",
        "streetName": "20",
        "streetDirectionId": null,
        "streetTypeId": "SIDERD",
        "placeName": "INNISFIL",
        "streetNameDisplayText": "20 SIDERD, INNISFIL"
      },
      {
        "electoralDistricts": [
          {
            "election": null,
            "id": 4,
            "name": "Barrie—Innisfil"
          }
        ],
        "pollDivisionIds": [
          10136865
        ],
        "postalCode": "L9S4J5",
        "streetName": "20 SIDEROAD",
        "streetDirectionId": null,
        "streetTypeId": "SIDERD",
        "placeName": "INNISFIL",
        "streetNameDisplayText": "20 SIDEROAD SIDERD, INNISFIL"
      }
    ]
  },
  {
    "postal": "L9S6J2",
    "result": []
  },
  {
    "postal": "L9S5V6",
    "result": []
  },
  {
    "postal": "L9S3N2",
    "result": [
      {
        "electoralDistricts": [
          {
            "election": null,
            "id": 4,
            "name": "Barrie—Innisfil"
          }
        ],
        "pollDivisionIds": [
          10136876
        ],
        "postalCode": "L9S3N2",
        "streetName": "10TH",
        "streetDirectionId": null,
        "streetTypeId": "LINE",
        "placeName": "INNISFIL",
        "streetNameDisplayText": "10TH LINE, INNISFIL"
      }
    ]
  },
  {
    "postal": "L9S3B1",
    "result": [
      {
        "electoralDistricts": [
          {
            "election": null,
            "id": 4,
            "name": "Barrie—Innisfil"
          }
        ],
        "pollDivisionIds": [
          10136865,
          10136879
        ],
        "postalCode": "L9S3B1",
        "streetName": "MAPLE GROVE",
        "streetDirectionId": null,
        "streetTypeId": "RD",
        "placeName": "INNISFIL",
        "streetNameDisplayText": "MAPLE GROVE RD, INNISFIL"
      },
      {
        "electoralDistricts": [
          {
            "election": null,
            "id": 4,
            "name": "Barrie—Innisfil"
          }
        ],
        "pollDivisionIds": [
          10136865
        ],
        "postalCode": "L9S3B1",
        "streetName": "MAPLEGROVE",
        "streetDirectionId": null,
        "streetTypeId": "RD",
        "placeName": "INNISFIL",
        "streetNameDisplayText": "MAPLEGROVE RD, INNISFIL"
      }
    ]
  },
  {
    "postal": "L9S8B5",
    "result": []
  },
  {
    "postal": "L9S0K1",
    "result": []
  },
  {
    "postal": "L9S7M7",
    "result": []
  },
  {
    "postal": "L9S2M2",
    "result": [
      {
        "electoralDistricts": [
          {
            "election": null,
            "id": 4,
            "name": "Barrie—Innisfil"
          }
        ],
        "pollDivisionIds": [
          10136865
        ],
        "postalCode": "L9S2M2",
        "streetName": "ALDERLY",
        "streetDirectionId": null,
        "streetTypeId": "AVE",
        "placeName": "INNISFIL",
        "streetNameDisplayText": "ALDERLY AVE, INNISFIL"
      },
      {
        "electoralDistricts": [
          {
            "election": null,
            "id": 4,
            "name": "Barrie—Innisfil"
          }
        ],
        "pollDivisionIds": [
          10136865
        ],
        "postalCode": "L9S2M2",
        "streetName": "HEWSON",
        "streetDirectionId": null,
        "streetTypeId": "ST",
        "placeName": "INNISFIL",
        "streetNameDisplayText": "HEWSON ST, INNISFIL"
      }
    ]
  },
  {
    "postal": "L9S9N3",
    "result": []
  },
  {
    "postal": "L9S4Y8",
    "result": [
      {
        "electoralDistricts": [
          {
            "election": null,
            "id": 4,
            "name": "Barrie—Innisfil"
          }
        ],
        "pollDivisionIds": [
          10136877
        ],
        "postalCode": "L9S4Y8",
        "streetName": "INNISFIL BEACH",
        "streetDirectionId": null,
        "streetTypeId": "RD",
        "placeName": "INNISFIL",
        "streetNameDisplayText": "INNISFIL BEACH RD, INNISFIL"
      },
      {
        "electoralDistricts": [
          {
            "election": null,
            "id": 4,
            "name": "Barrie—Innisfil"
          }
        ],
        "pollDivisionIds": [
          10136877
        ],
        "postalCode": "L9S4Y8",
        "streetName": "JANS",
        "streetDirectionId": null,
        "streetTypeId": "BLVD",
        "placeName": "INNISFIL",
        "streetNameDisplayText": "JANS BLVD, INNISFIL"
      }
    ]
  },
  {
    "postal": "L9S3V7",
    "result": [
      {
        "electoralDistricts": [
          {
            "election": null,
            "id": 4,
            "name": "Barrie—Innisfil"
          }
        ],
        "pollDivisionIds": [
          10136874
        ],
        "postalCode": "L9S3V7",
        "streetName": "BOWMAN",
        "streetDirectionId": null,
        "streetTypeId": "ST",
        "placeName": "INNISFIL",
        "streetNameDisplayText": "BOWMAN ST, INNISFIL"
      }
    ]
  },
  {
    "postal": "L9S8Z1",
    "result": []
  },
  {
    "postal": "L9S7B3",
    "result": []
  },
  {
    "postal": "L9S3A8",
    "result": [
      {
        "electoralDistricts": [
          {
            "election": null,
            "id": 4,
            "name": "Barrie—Innisfil"
          }
        ],
        "pollDivisionIds": [
          10136865
        ],
        "postalCode": "L9S3A8",
        "streetName": "MAPLEVIEW",
        "streetDirectionId": "E",
        "streetTypeId": "DR",
        "placeName": "INNISFIL",
        "streetNameDisplayText": "MAPLEVIEW DR E, INNISFIL"
      },
      {
        "electoralDistricts": [
          {
            "election": null,
            "id": 4,
            "name": "Barrie—Innisfil"
          }
        ],
        "pollDivisionIds": [
          10136865
        ],
        "postalCode": "L9S3A8",
        "streetName": "MAPLEVIEW",
        "streetDirectionId": null,
        "streetTypeId": "DR",
        "placeName": "INNISFIL",
        "streetNameDisplayText": "MAPLEVIEW DR, INNISFIL"
      }
    ]
  },
  {
    "postal": "L9S7V5",
    "result": []
  },
  {
    "postal": "L9S2T2",
    "result": [
      {
        "electoralDistricts": [
          {
            "election": null,
            "id": 4,
            "name": "Barrie—Innisfil"
          }
        ],
        "pollDivisionIds": [
          10136865
        ],
        "postalCode": "L9S2T2",
        "streetName": "GUEST",
        "streetDirectionId": null,
        "streetTypeId": "RD",
        "placeName": "INNISFIL",
        "streetNameDisplayText": "GUEST RD, INNISFIL"
      }
    ]
  },
  {
    "postal": "L9S6L3",
    "result": []
  },
  {
    "postal": "L9S0L2",
    "result": [
      {
        "electoralDistricts": [
          {
            "election": null,
            "id": 4,
            "name": "Barrie—Innisfil"
          }
        ],
        "pollDivisionIds": [
          10136875
        ],
        "postalCode": "L9S0L2",
        "streetName": "LESLIE",
        "streetDirectionId": null,
        "streetTypeId": "DR",
        "placeName": "INNISFIL",
        "streetNameDisplayText": "LESLIE DR, INNISFIL"
      },
      {
        "electoralDistricts": [
          {
            "election": null,
            "id": 4,
            "name": "Barrie—Innisfil"
          }
        ],
        "pollDivisionIds": [
          10136875
        ],
        "postalCode": "L9S0L2",
        "streetName": "WHITEWOOD",
        "streetDirectionId": null,
        "streetTypeId": "CRES",
        "placeName": "INNISFIL",
        "streetNameDisplayText": "WHITEWOOD CRES, INNISFIL"
      }
    ]
  },
  {
    "postal": "L9S5Y8",
    "result": []
  },
  {
    "postal": "L9S0B8",
    "result": [
      {
        "electoralDistricts": [
          {
            "election": null,
            "id": 4,
            "name": "Barrie—Innisfil"
          }
        ],
        "pollDivisionIds": [
          10136878
        ],
        "postalCode": "L9S0B8",
        "streetName": "CERESINO",
        "streetDirectionId": null,
        "streetTypeId": "CRES",
        "placeName": "INNISFIL",
        "streetNameDisplayText": "CERESINO CRES, INNISFIL"
      }
    ]
  },
  {
    "postal": "L9S6R5",
    "result": []
  },
  {
    "postal": "L9S8W6",
    "result": []
  },
  {
    "postal": "L9S8G6",
    "result": []
  },
  {
    "postal": "L9S6X3",
    "result": []
  },
  {
    "postal": "L9S7R7",
    "result": []
  },
  {
    "postal": "L9S4B6",
    "result": []
  },
  {
    "postal": "L9S3P9",
    "result": []
  },
  {
    "postal": "L9S2T3",
    "result": [
      {
        "electoralDistricts": [
          {
            "election": null,
            "id": 4,
            "name": "Barrie—Innisfil"
          }
        ],
        "pollDivisionIds": [
          10136865
        ],
        "postalCode": "L9S2T3",
        "streetName": "GUEST",
        "streetDirectionId": null,
        "streetTypeId": "RD",
        "placeName": "INNISFIL",
        "streetNameDisplayText": "GUEST RD, INNISFIL"
      }
    ]
  },
  {
    "postal": "L9S1M4",
    "result": [
      {
        "electoralDistricts": [
          {
            "election": null,
            "id": 4,
            "name": "Barrie—Innisfil"
          }
        ],
        "pollDivisionIds": [
          10136865
        ],
        "postalCode": "L9S1M4",
        "streetName": "MAIN",
        "streetDirectionId": null,
        "streetTypeId": "ST",
        "placeName": "INNISFIL",
        "streetNameDisplayText": "MAIN ST, INNISFIL"
      },
      {
        "electoralDistricts": [
          {
            "election": null,
            "id": 4,
            "name": "Barrie—Innisfil"
          }
        ],
        "pollDivisionIds": [
          10136865
        ],
        "postalCode": "L9S1M4",
        "streetName": "NECTARINE",
        "streetDirectionId": null,
        "streetTypeId": "CRT",
        "placeName": "INNISFIL",
        "streetNameDisplayText": "NECTARINE CRT, INNISFIL"
      },
      {
        "electoralDistricts": [
          {
            "election": null,
            "id": 4,
            "name": "Barrie—Innisfil"
          }
        ],
        "pollDivisionIds": [
          10136865
        ],
        "postalCode": "L9S1M4",
        "streetName": "OAK",
        "streetDirectionId": null,
        "streetTypeId": "CRT",
        "placeName": "INNISFIL",
        "streetNameDisplayText": "OAK CRT, INNISFIL"
      },
      {
        "electoralDistricts": [
          {
            "election": null,
            "id": 4,
            "name": "Barrie—Innisfil"
          }
        ],
        "pollDivisionIds": [
          10136865
        ],
        "postalCode": "L9S1M4",
        "streetName": "REDWOOD",
        "streetDirectionId": null,
        "streetTypeId": "CRT",
        "placeName": "INNISFIL",
        "streetNameDisplayText": "REDWOOD CRT, INNISFIL"
      },
      {
        "electoralDistricts": [
          {
            "election": null,
            "id": 4,
            "name": "Barrie—Innisfil"
          }
        ],
        "pollDivisionIds": [
          10136865
        ],
        "postalCode": "L9S1M4",
        "streetName": "SUNSET",
        "streetDirectionId": null,
        "streetTypeId": "COVE",
        "placeName": "INNISFIL",
        "streetNameDisplayText": "SUNSET COVE, INNISFIL"
      }
    ]
  },
  {
    "postal": "L9S0H1",
    "result": [
      {
        "electoralDistricts": [
          {
            "election": null,
            "id": 4,
            "name": "Barrie—Innisfil"
          }
        ],
        "pollDivisionIds": [
          10136877,
          10136875
        ],
        "postalCode": "L9S0H1",
        "streetName": "DALE",
        "streetDirectionId": null,
        "streetTypeId": "RD",
        "placeName": "INNISFIL",
        "streetNameDisplayText": "DALE RD, INNISFIL"
      },
      {
        "electoralDistricts": [
          {
            "election": null,
            "id": 4,
            "name": "Barrie—Innisfil"
          }
        ],
        "pollDivisionIds": [
          10136877
        ],
        "postalCode": "L9S0H1",
        "streetName": "DAWSON",
        "streetDirectionId": null,
        "streetTypeId": "CRES",
        "placeName": "INNISFIL",
        "streetNameDisplayText": "DAWSON CRES, INNISFIL"
      },
      {
        "electoralDistricts": [
          {
            "election": null,
            "id": 4,
            "name": "Barrie—Innisfil"
          }
        ],
        "pollDivisionIds": [
          10136877
        ],
        "postalCode": "L9S0H1",
        "streetName": "HUNTER",
        "streetDirectionId": null,
        "streetTypeId": "ST",
        "placeName": "INNISFIL",
        "streetNameDisplayText": "HUNTER ST, INNISFIL"
      }
    ]
  },
  {
    "postal": "L9S9W3",
    "result": []
  },
  {
    "postal": "L9S6P1",
    "result": []
  },
  {
    "postal": "L9S7G2",
    "result": []
  },
  {
    "postal": "L9S4J9",
    "result": [
      {
        "electoralDistricts": [
          {
            "election": null,
            "id": 4,
            "name": "Barrie—Innisfil"
          }
        ],
        "pollDivisionIds": [
          10136874
        ],
        "postalCode": "L9S4J9",
        "streetName": "20 SIDEROAD",
        "streetDirectionId": null,
        "streetTypeId": "SIDERD",
        "placeName": "INNISFIL",
        "streetNameDisplayText": "20 SIDEROAD SIDERD, INNISFIL"
      }
    ]
  },
  {
    "postal": "L9S9E4",
    "result": []
  },
  {
    "postal": "L9S8H0",
    "result": []
  },
  {
    "postal": "L9S4M7",
    "result": [
      {
        "electoralDistricts": [
          {
            "election": null,
            "id": 4,
            "name": "Barrie—Innisfil"
          }
        ],
        "pollDivisionIds": [
          10136878
        ],
        "postalCode": "L9S4M7",
        "streetName": "HOUSTON",
        "streetDirectionId": null,
        "streetTypeId": "AVE",
        "placeName": "INNISFIL",
        "streetNameDisplayText": "HOUSTON AVE, INNISFIL"
      }
    ]
  },
  {
    "postal": "L9S2G9",
    "result": [
      {
        "electoralDistricts": [
          {
            "election": null,
            "id": 4,
            "name": "Barrie—Innisfil"
          }
        ],
        "pollDivisionIds": [
          10136876
        ],
        "postalCode": "L9S2G9",
        "streetName": "CANDARAS",
        "streetDirectionId": null,
        "streetTypeId": "ST",
        "placeName": "INNISFIL",
        "streetNameDisplayText": "CANDARAS ST, INNISFIL"
      }
    ]
  },
  {
    "postal": "L9S8T2",
    "result": []
  },
  {
    "postal": "L9S7G7",
    "result": []
  },
  {
    "postal": "L9S4Z3",
    "result": [
      {
        "electoralDistricts": [
          {
            "election": null,
            "id": 4,
            "name": "Barrie—Innisfil"
          }
        ],
        "pollDivisionIds": [
          10136877
        ],
        "postalCode": "L9S4Z3",
        "streetName": "CELESTE",
        "streetDirectionId": null,
        "streetTypeId": "ST",
        "placeName": "INNISFIL",
        "streetNameDisplayText": "CELESTE ST, INNISFIL"
      },
      {
        "electoralDistricts": [
          {
            "election": null,
            "id": 4,
            "name": "Barrie—Innisfil"
          }
        ],
        "pollDivisionIds": [
          10136877
        ],
        "postalCode": "L9S4Z3",
        "streetName": "GINA",
        "streetDirectionId": null,
        "streetTypeId": "ST",
        "placeName": "INNISFIL",
        "streetNameDisplayText": "GINA ST, INNISFIL"
      }
    ]
  },
  {
    "postal": "L9S5B3",
    "result": []
  },
  {
    "postal": "L9S1S7",
    "result": [
      {
        "electoralDistricts": [
          {
            "election": null,
            "id": 4,
            "name": "Barrie—Innisfil"
          }
        ],
        "pollDivisionIds": [
          10136878
        ],
        "postalCode": "L9S1S7",
        "streetName": "NANTYR",
        "streetDirectionId": null,
        "streetTypeId": "DR",
        "placeName": "INNISFIL",
        "streetNameDisplayText": "NANTYR DR, INNISFIL"
      },
      {
        "electoralDistricts": [
          {
            "election": null,
            "id": 4,
            "name": "Barrie—Innisfil"
          }
        ],
        "pollDivisionIds": [
          10136878
        ],
        "postalCode": "L9S1S7",
        "streetName": "SOUTH PORCUPINE",
        "streetDirectionId": null,
        "streetTypeId": "AVE",
        "placeName": "INNISFIL",
        "streetNameDisplayText": "SOUTH PORCUPINE AVE, INNISFIL"
      },
      {
        "electoralDistricts": [
          {
            "election": null,
            "id": 4,
            "name": "Barrie—Innisfil"
          }
        ],
        "pollDivisionIds": [
          10136878
        ],
        "postalCode": "L9S1S7",
        "streetName": "ST JOHNS",
        "streetDirectionId": null,
        "streetTypeId": "RD",
        "placeName": "INNISFIL",
        "streetNameDisplayText": "ST JOHNS RD, INNISFIL"
      }
    ]
  },
  {
    "postal": "L9S2N7",
    "result": [
      {
        "electoralDistricts": [
          {
            "election": null,
            "id": 4,
            "name": "Barrie—Innisfil"
          }
        ],
        "pollDivisionIds": [
          10136865
        ],
        "postalCode": "L9S2N7",
        "streetName": "BIG BAY POINT",
        "streetDirectionId": null,
        "streetTypeId": "RD",
        "placeName": "INNISFIL",
        "streetNameDisplayText": "BIG BAY POINT RD, INNISFIL"
      }
    ]
  },
  {
    "postal": "L9S0H8",
    "result": [
      {
        "electoralDistricts": [
          {
            "election": null,
            "id": 4,
            "name": "Barrie—Innisfil"
          }
        ],
        "pollDivisionIds": [
          10136875
        ],
        "postalCode": "L9S0H8",
        "streetName": "KELLOUGH",
        "streetDirectionId": null,
        "streetTypeId": "ST",
        "placeName": "INNISFIL",
        "streetNameDisplayText": "KELLOUGH ST, INNISFIL"
      },
      {
        "electoralDistricts": [
          {
            "election": null,
            "id": 4,
            "name": "Barrie—Innisfil"
          }
        ],
        "pollDivisionIds": [
          10136875
        ],
        "postalCode": "L9S0H8",
        "streetName": "MCNEIL",
        "streetDirectionId": null,
        "streetTypeId": "ST",
        "placeName": "INNISFIL",
        "streetNameDisplayText": "MCNEIL ST, INNISFIL"
      },
      {
        "electoralDistricts": [
          {
            "election": null,
            "id": 4,
            "name": "Barrie—Innisfil"
          }
        ],
        "pollDivisionIds": [
          10136875
        ],
        "postalCode": "L9S0H8",
        "streetName": "SHELDON",
        "streetDirectionId": null,
        "streetTypeId": "ST",
        "placeName": "INNISFIL",
        "streetNameDisplayText": "SHELDON ST, INNISFIL"
      }
    ]
  },
  {
    "postal": "L9S7Z4",
    "result": []
  },
  {
    "postal": "L9S7B1",
    "result": []
  },
  {
    "postal": "L9S7P8",
    "result": []
  },
  {
    "postal": "L9S7N0",
    "result": []
  },
  {
    "postal": "L9S3Y5",
    "result": [
      {
        "electoralDistricts": [
          {
            "election": null,
            "id": 4,
            "name": "Barrie—Innisfil"
          }
        ],
        "pollDivisionIds": [
          10136876
        ],
        "postalCode": "L9S3Y5",
        "streetName": "9TH",
        "streetDirectionId": null,
        "streetTypeId": "LINE",
        "placeName": "INNISFIL",
        "streetNameDisplayText": "9TH LINE, INNISFIL"
      }
    ]
  },
  {
    "postal": "L9S6K1",
    "result": []
  },
  {
    "postal": "L9S9X5",
    "result": []
  },
  {
    "postal": "L9S7S5",
    "result": []
  },
  {
    "postal": "L9S0A4",
    "result": [
      {
        "electoralDistricts": [
          {
            "election": null,
            "id": 4,
            "name": "Barrie—Innisfil"
          }
        ],
        "pollDivisionIds": [
          10136878
        ],
        "postalCode": "L9S0A4",
        "streetName": "BOOTH",
        "streetDirectionId": null,
        "streetTypeId": "AVE",
        "placeName": "INNISFIL",
        "streetNameDisplayText": "BOOTH AVE, INNISFIL"
      },
      {
        "electoralDistricts": [
          {
            "election": null,
            "id": 4,
            "name": "Barrie—Innisfil"
          }
        ],
        "pollDivisionIds": [
          10136878
        ],
        "postalCode": "L9S0A4",
        "streetName": "GRIGGS",
        "streetDirectionId": null,
        "streetTypeId": "RD",
        "placeName": "INNISFIL",
        "streetNameDisplayText": "GRIGGS RD, INNISFIL"
      }
    ]
  },
  {
    "postal": "L9S4T5",
    "result": [
      {
        "electoralDistricts": [
          {
            "election": null,
            "id": 4,
            "name": "Barrie—Innisfil"
          }
        ],
        "pollDivisionIds": [
          10136879
        ],
        "postalCode": "L9S4T5",
        "streetName": "10",
        "streetDirectionId": null,
        "streetTypeId": "SIDERD",
        "placeName": "INNISFIL",
        "streetNameDisplayText": "10 SIDERD, INNISFIL"
      },
      {
        "electoralDistricts": [
          {
            "election": null,
            "id": 4,
            "name": "Barrie—Innisfil"
          }
        ],
        "pollDivisionIds": [
          10136875
        ],
        "postalCode": "L9S4T5",
        "streetName": "10 SIDEROAD",
        "streetDirectionId": null,
        "streetTypeId": "SIDERD",
        "placeName": "INNISFIL",
        "streetNameDisplayText": "10 SIDEROAD SIDERD, INNISFIL"
      }
    ]
  },
  {
    "postal": "L9S5K1",
    "result": []
  },
  {
    "postal": "L9S0Z9",
    "result": []
  },
  {
    "postal": "L9S7T2",
    "result": []
  },
  {
    "postal": "L9S1L5",
    "result": [
      {
        "electoralDistricts": [
          {
            "election": null,
            "id": 4,
            "name": "Barrie—Innisfil"
          }
        ],
        "pollDivisionIds": [
          10136874
        ],
        "postalCode": "L9S1L5",
        "streetName": "YONGE",
        "streetDirectionId": null,
        "streetTypeId": "ST",
        "placeName": "INNISFIL",
        "streetNameDisplayText": "YONGE ST, INNISFIL"
      }
    ]
  },
  {
    "postal": "L9S3N5",
    "result": [
      {
        "electoralDistricts": [
          {
            "election": null,
            "id": 4,
            "name": "Barrie—Innisfil"
          }
        ],
        "pollDivisionIds": [
          10136865
        ],
        "postalCode": "L9S3N5",
        "streetName": "10TH",
        "streetDirectionId": null,
        "streetTypeId": "LINE",
        "placeName": "INNISFIL",
        "streetNameDisplayText": "10TH LINE, INNISFIL"
      }
    ]
  },
  {
    "postal": "L9S6H4",
    "result": []
  },
  {
    "postal": "L9S5A5",
    "result": [
      {
        "electoralDistricts": [
          {
            "election": null,
            "id": 4,
            "name": "Barrie—Innisfil"
          }
        ],
        "pollDivisionIds": [
          10136877
        ],
        "postalCode": "L9S5A5",
        "streetName": "JANS",
        "streetDirectionId": null,
        "streetTypeId": "BLVD",
        "placeName": "INNISFIL",
        "streetNameDisplayText": "JANS BLVD, INNISFIL"
      },
      {
        "electoralDistricts": [
          {
            "election": null,
            "id": 4,
            "name": "Barrie—Innisfil"
          }
        ],
        "pollDivisionIds": [
          10136877
        ],
        "postalCode": "L9S5A5",
        "streetName": "MITCHELL",
        "streetDirectionId": null,
        "streetTypeId": "CRT",
        "placeName": "INNISFIL",
        "streetNameDisplayText": "MITCHELL CRT, INNISFIL"
      }
    ]
  },
  {
    "postal": "L9S3R9",
    "result": [
      {
        "electoralDistricts": [
          {
            "election": null,
            "id": 4,
            "name": "Barrie—Innisfil"
          }
        ],
        "pollDivisionIds": [
          10136873
        ],
        "postalCode": "L9S3R9",
        "streetName": "5 SIDEROAD",
        "streetDirectionId": null,
        "streetTypeId": "SIDERD",
        "placeName": "INNISFIL",
        "streetNameDisplayText": "5 SIDEROAD SIDERD, INNISFIL"
      }
    ]
  },
  {
    "postal": "L9S7L8",
    "result": []
  },
  {
    "postal": "L9S6T6",
    "result": []
  },
  {
    "postal": "L9S7Y7",
    "result": []
  },
  {
    "postal": "L9S3M8",
    "result": [
      {
        "electoralDistricts": [
          {
            "election": null,
            "id": 4,
            "name": "Barrie—Innisfil"
          }
        ],
        "pollDivisionIds": [
          10136873
        ],
        "postalCode": "L9S3M8",
        "streetName": "9TH",
        "streetDirectionId": null,
        "streetTypeId": "LINE",
        "placeName": "INNISFIL",
        "streetNameDisplayText": "9TH LINE, INNISFIL"
      }
    ]
  },
  {
    "postal": "L9S2E0",
    "result": []
  },
  {
    "postal": "L9S4B5",
    "result": []
  },
  {
    "postal": "L9S1J3",
    "result": [
      {
        "electoralDistricts": [
          {
            "election": null,
            "id": 4,
            "name": "Barrie—Innisfil"
          }
        ],
        "pollDivisionIds": [
          10136874
        ],
        "postalCode": "L9S1J3",
        "streetName": "SUNSET",
        "streetDirectionId": null,
        "streetTypeId": "CRES",
        "placeName": "INNISFIL",
        "streetNameDisplayText": "SUNSET CRES, INNISFIL"
      }
    ]
  },
  {
    "postal": "L9S5S6",
    "result": []
  },
  {
    "postal": "L9S8P7",
    "result": []
  },
  {
    "postal": "L9S7S7",
    "result": []
  },
  {
    "postal": "L9S4C2",
    "result": [
      {
        "electoralDistricts": [
          {
            "election": null,
            "id": 4,
            "name": "Barrie—Innisfil"
          }
        ],
        "pollDivisionIds": [
          10136875
        ],
        "postalCode": "L9S4C2",
        "streetName": "INNISFIL BEACH",
        "streetDirectionId": null,
        "streetTypeId": "RD",
        "placeName": "INNISFIL",
        "streetNameDisplayText": "INNISFIL BEACH RD, INNISFIL"
      }
    ]
  },
  {
    "postal": "L9S5Y0",
    "result": []
  },
  {
    "postal": "L9S2V7",
    "result": [
      {
        "electoralDistricts": [
          {
            "election": null,
            "id": 4,
            "name": "Barrie—Innisfil"
          }
        ],
        "pollDivisionIds": [
          10136865
        ],
        "postalCode": "L9S2V7",
        "streetName": "MILLER",
        "streetDirectionId": null,
        "streetTypeId": "PL",
        "placeName": "INNISFIL",
        "streetNameDisplayText": "MILLER PL, INNISFIL"
      }
    ]
  },
  {
    "postal": "L9S8P5",
    "result": []
  },
  {
    "postal": "L9S5P5",
    "result": []
  },
  {
    "postal": "L9S5Z0",
    "result": []
  },
  {
    "postal": "L9S9B0",
    "result": []
  },
  {
    "postal": "L9S1L0",
    "result": []
  },
  {
    "postal": "L9S0B5",
    "result": [
      {
        "electoralDistricts": [
          {
            "election": null,
            "id": 4,
            "name": "Barrie—Innisfil"
          }
        ],
        "pollDivisionIds": [
          10136877
        ],
        "postalCode": "L9S0B5",
        "streetName": "PERNIEGIE",
        "streetDirectionId": null,
        "streetTypeId": "CRES",
        "placeName": "INNISFIL",
        "streetNameDisplayText": "PERNIEGIE CRES, INNISFIL"
      },
      {
        "electoralDistricts": [
          {
            "election": null,
            "id": 4,
            "name": "Barrie—Innisfil"
          }
        ],
        "pollDivisionIds": [
          10136877
        ],
        "postalCode": "L9S0B5",
        "streetName": "PERNIGIE",
        "streetDirectionId": null,
        "streetTypeId": "CRES",
        "placeName": "INNISFIL",
        "streetNameDisplayText": "PERNIGIE CRES, INNISFIL"
      },
      {
        "electoralDistricts": [
          {
            "election": null,
            "id": 4,
            "name": "Barrie—Innisfil"
          }
        ],
        "pollDivisionIds": [
          10136877
        ],
        "postalCode": "L9S0B5",
        "streetName": "SWAN",
        "streetDirectionId": null,
        "streetTypeId": "ST",
        "placeName": "INNISFIL",
        "streetNameDisplayText": "SWAN ST, INNISFIL"
      }
    ]
  },
  {
    "postal": "L9S3L2",
    "result": [
      {
        "electoralDistricts": [
          {
            "election": null,
            "id": 4,
            "name": "Barrie—Innisfil"
          }
        ],
        "pollDivisionIds": [
          10136865
        ],
        "postalCode": "L9S3L2",
        "streetName": "WILDWOOD",
        "streetDirectionId": null,
        "streetTypeId": "PL",
        "placeName": "INNISFIL",
        "streetNameDisplayText": "WILDWOOD PL, INNISFIL"
      }
    ]
  },
  {
    "postal": "L9S3B7",
    "result": [
      {
        "electoralDistricts": [
          {
            "election": null,
            "id": 4,
            "name": "Barrie—Innisfil"
          }
        ],
        "pollDivisionIds": [
          10136874
        ],
        "postalCode": "L9S3B7",
        "streetName": "ST PAUL'S",
        "streetDirectionId": null,
        "streetTypeId": "CRES",
        "placeName": "INNISFIL",
        "streetNameDisplayText": "ST PAUL'S CRES, INNISFIL"
      }
    ]
  },
  {
    "postal": "L9S8L1",
    "result": []
  },
  {
    "postal": "L9S5M4",
    "result": []
  },
  {
    "postal": "L9S4G9",
    "result": [
      {
        "electoralDistricts": [
          {
            "election": null,
            "id": 4,
            "name": "Barrie—Innisfil"
          }
        ],
        "pollDivisionIds": [
          10136877
        ],
        "postalCode": "L9S4G9",
        "streetName": "7TH",
        "streetDirectionId": null,
        "streetTypeId": "LINE",
        "placeName": "INNISFIL",
        "streetNameDisplayText": "7TH LINE, INNISFIL"
      }
    ]
  },
  {
    "postal": "L9S0P0",
    "result": []
  },
  {
    "postal": "L9S8G2",
    "result": []
  },
  {
    "postal": "L9S1V9",
    "result": [
      {
        "electoralDistricts": [
          {
            "election": null,
            "id": 4,
            "name": "Barrie—Innisfil"
          }
        ],
        "pollDivisionIds": [
          10136877
        ],
        "postalCode": "L9S1V9",
        "streetName": "MACLEAN",
        "streetDirectionId": null,
        "streetTypeId": "ST",
        "placeName": "INNISFIL",
        "streetNameDisplayText": "MACLEAN ST, INNISFIL"
      },
      {
        "electoralDistricts": [
          {
            "election": null,
            "id": 4,
            "name": "Barrie—Innisfil"
          }
        ],
        "pollDivisionIds": [
          10136877
        ],
        "postalCode": "L9S1V9",
        "streetName": "MCLEAN",
        "streetDirectionId": null,
        "streetTypeId": "ST",
        "placeName": "INNISFIL",
        "streetNameDisplayText": "MCLEAN ST, INNISFIL"
      }
    ]
  },
  {
    "postal": "L9S8N8",
    "result": []
  },
  {
    "postal": "L9S6S8",
    "result": []
  },
  {
    "postal": "L9S8H2",
    "result": []
  },
  {
    "postal": "L9S5R8",
    "result": []
  },
  {
    "postal": "L9S5L4",
    "result": []
  },
  {
    "postal": "L9S9E1",
    "result": []
  },
  {
    "postal": "L9S1C4",
    "result": [
      {
        "electoralDistricts": [
          {
            "election": null,
            "id": 4,
            "name": "Barrie—Innisfil"
          }
        ],
        "pollDivisionIds": [
          10136874
        ],
        "postalCode": "L9S1C4",
        "streetName": "GLENN",
        "streetDirectionId": null,
        "streetTypeId": "AVE",
        "placeName": "INNISFIL",
        "streetNameDisplayText": "GLENN AVE, INNISFIL"
      }
    ]
  },
  {
    "postal": "L9S8W5",
    "result": []
  },
  {
    "postal": "L9S1Y4",
    "result": [
      {
        "electoralDistricts": [
          {
            "election": null,
            "id": 4,
            "name": "Barrie—Innisfil"
          }
        ],
        "pollDivisionIds": [
          10136875
        ],
        "postalCode": "L9S1Y4",
        "streetName": "BENSON",
        "streetDirectionId": null,
        "streetTypeId": "ST",
        "placeName": "INNISFIL",
        "streetNameDisplayText": "BENSON ST, INNISFIL"
      },
      {
        "electoralDistricts": [
          {
            "election": null,
            "id": 4,
            "name": "Barrie—Innisfil"
          }
        ],
        "pollDivisionIds": [
          10136876,
          10136875
        ],
        "postalCode": "L9S1Y4",
        "streetName": "JANS",
        "streetDirectionId": null,
        "streetTypeId": "BLVD",
        "placeName": "INNISFIL",
        "streetNameDisplayText": "JANS BLVD, INNISFIL"
      }
    ]
  },
  {
    "postal": "L9S1C0",
    "result": []
  },
  {
    "postal": "L9S2J2",
    "result": [
      {
        "electoralDistricts": [
          {
            "election": null,
            "id": 4,
            "name": "Barrie—Innisfil"
          }
        ],
        "pollDivisionIds": [
          10136876
        ],
        "postalCode": "L9S2J2",
        "streetName": "IRETON",
        "streetDirectionId": null,
        "streetTypeId": "ST",
        "placeName": "INNISFIL",
        "streetNameDisplayText": "IRETON ST, INNISFIL"
      }
    ]
  },
  {
    "postal": "L9S2J0",
    "result": []
  },
  {
    "postal": "L9S7A3",
    "result": []
  },
  {
    "postal": "L9S8M1",
    "result": []
  },
  {
    "postal": "L9S7T9",
    "result": []
  },
  {
    "postal": "L9S6C0",
    "result": []
  },
  {
    "postal": "L9S7X1",
    "result": []
  },
  {
    "postal": "L9S0G1",
    "result": [
      {
        "electoralDistricts": [
          {
            "election": null,
            "id": 4,
            "name": "Barrie—Innisfil"
          }
        ],
        "pollDivisionIds": [
          10136874
        ],
        "postalCode": "L9S0G1",
        "streetName": "BOWMAN",
        "streetDirectionId": null,
        "streetTypeId": "ST",
        "placeName": "INNISFIL",
        "streetNameDisplayText": "BOWMAN ST, INNISFIL"
      }
    ]
  },
  {
    "postal": "L9S4X2",
    "result": [
      {
        "electoralDistricts": [
          {
            "election": null,
            "id": 4,
            "name": "Barrie—Innisfil"
          }
        ],
        "pollDivisionIds": [
          10136878,
          10136877
        ],
        "postalCode": "L9S4X2",
        "streetName": "ANGUS",
        "streetDirectionId": null,
        "streetTypeId": "ST",
        "placeName": "INNISFIL",
        "streetNameDisplayText": "ANGUS ST, INNISFIL"
      },
      {
        "electoralDistricts": [
          {
            "election": null,
            "id": 4,
            "name": "Barrie—Innisfil"
          }
        ],
        "pollDivisionIds": [
          10136878
        ],
        "postalCode": "L9S4X2",
        "streetName": "BOOTH",
        "streetDirectionId": null,
        "streetTypeId": "AVE",
        "placeName": "INNISFIL",
        "streetNameDisplayText": "BOOTH AVE, INNISFIL"
      }
    ]
  },
  {
    "postal": "L9S0N6",
    "result": [
      {
        "electoralDistricts": [
          {
            "election": null,
            "id": 4,
            "name": "Barrie—Innisfil"
          }
        ],
        "pollDivisionIds": [
          10136865
        ],
        "postalCode": "L9S0N6",
        "streetName": "FERRETTI",
        "streetDirectionId": null,
        "streetTypeId": "CRT",
        "placeName": "INNISFIL",
        "streetNameDisplayText": "FERRETTI CRT, INNISFIL"
      }
    ]
  },
  {
    "postal": "L9S8E3",
    "result": []
  },
  {
    "postal": "L9S5S8",
    "result": []
  },
  {
    "postal": "L9S0R0",
    "result": []
  },
  {
    "postal": "L9S6J6",
    "result": []
  },
  {
    "postal": "L9S4B4",
    "result": [
      {
        "electoralDistricts": [
          {
            "election": null,
            "id": 4,
            "name": "Barrie—Innisfil"
          }
        ],
        "pollDivisionIds": [
          10136875
        ],
        "postalCode": "L9S4B4",
        "streetName": "INNISFIL BEACH",
        "streetDirectionId": null,
        "streetTypeId": "RD",
        "placeName": "INNISFIL",
        "streetNameDisplayText": "INNISFIL BEACH RD, INNISFIL"
      }
    ]
  },
  {
    "postal": "L9S7E3",
    "result": []
  },
  {
    "postal": "L9S3N6",
    "result": [
      {
        "electoralDistricts": [
          {
            "election": null,
            "id": 4,
            "name": "Barrie—Innisfil"
          }
        ],
        "pollDivisionIds": [
          10136874
        ],
        "postalCode": "L9S3N6",
        "streetName": "10TH",
        "streetDirectionId": null,
        "streetTypeId": "LINE",
        "placeName": "INNISFIL",
        "streetNameDisplayText": "10TH LINE, INNISFIL"
      }
    ]
  },
  {
    "postal": "L9S3X6",
    "result": [
      {
        "electoralDistricts": [
          {
            "election": null,
            "id": 4,
            "name": "Barrie—Innisfil"
          }
        ],
        "pollDivisionIds": [
          10136876
        ],
        "postalCode": "L9S3X6",
        "streetName": "9TH",
        "streetDirectionId": null,
        "streetTypeId": "LINE",
        "placeName": "INNISFIL",
        "streetNameDisplayText": "9TH LINE, INNISFIL"
      }
    ]
  },
  {
    "postal": "L9S8L0",
    "result": []
  },
  {
    "postal": "L9S8N1",
    "result": []
  },
  {
    "postal": "L9S4J0",
    "result": []
  },
  {
    "postal": "L9S0X7",
    "result": []
  },
  {
    "postal": "L9S6S4",
    "result": []
  },
  {
    "postal": "L9S0Z0",
    "result": []
  },
  {
    "postal": "L9S9X8",
    "result": []
  },
  {
    "postal": "L9S3H3",
    "result": [
      {
        "electoralDistricts": [
          {
            "election": null,
            "id": 4,
            "name": "Barrie—Innisfil"
          }
        ],
        "pollDivisionIds": [
          10136876
        ],
        "postalCode": "L9S3H3",
        "streetName": "MOOSENLANKA",
        "streetDirectionId": null,
        "streetTypeId": "ST",
        "placeName": "INNISFIL",
        "streetNameDisplayText": "MOOSENLANKA ST, INNISFIL"
      }
    ]
  },
  {
    "postal": "L9S7S2",
    "result": []
  },
  {
    "postal": "L9S3T3",
    "result": [
      {
        "electoralDistricts": [
          {
            "election": null,
            "id": 4,
            "name": "Barrie—Innisfil"
          }
        ],
        "pollDivisionIds": [
          10136865
        ],
        "postalCode": "L9S3T3",
        "streetName": "25",
        "streetDirectionId": null,
        "streetTypeId": "SIDERD",
        "placeName": "INNISFIL",
        "streetNameDisplayText": "25 SIDERD, INNISFIL"
      }
    ]
  },
  {
    "postal": "L9S9P3",
    "result": []
  },
  {
    "postal": "L9S4H8",
    "result": [
      {
        "electoralDistricts": [
          {
            "election": null,
            "id": 4,
            "name": "Barrie—Innisfil"
          }
        ],
        "pollDivisionIds": [
          10136878
        ],
        "postalCode": "L9S4H8",
        "streetName": "20 SIDEROAD",
        "streetDirectionId": null,
        "streetTypeId": "SIDERD",
        "placeName": "INNISFIL",
        "streetNameDisplayText": "20 SIDEROAD SIDERD, INNISFIL"
      }
    ]
  },
  {
    "postal": "L9S6R1",
    "result": []
  },
  {
    "postal": "L9S1S0",
    "result": []
  },
  {
    "postal": "L9S3W8",
    "result": [
      {
        "electoralDistricts": [
          {
            "election": null,
            "id": 4,
            "name": "Barrie—Innisfil"
          }
        ],
        "pollDivisionIds": [
          10136876
        ],
        "postalCode": "L9S3W8",
        "streetName": "CRYSTAL BEACH",
        "streetDirectionId": null,
        "streetTypeId": "RD",
        "placeName": "INNISFIL",
        "streetNameDisplayText": "CRYSTAL BEACH RD, INNISFIL"
      }
    ]
  },
  {
    "postal": "L9S4S3",
    "result": [
      {
        "electoralDistricts": [
          {
            "election": null,
            "id": 4,
            "name": "Barrie—Innisfil"
          }
        ],
        "pollDivisionIds": [
          10136875
        ],
        "postalCode": "L9S4S3",
        "streetName": "6TH",
        "streetDirectionId": null,
        "streetTypeId": "LINE",
        "placeName": "INNISFIL",
        "streetNameDisplayText": "6TH LINE, INNISFIL"
      }
    ]
  },
  {
    "postal": "L9S1B6",
    "result": [
      {
        "electoralDistricts": [
          {
            "election": null,
            "id": 4,
            "name": "Barrie—Innisfil"
          }
        ],
        "pollDivisionIds": [
          10136874
        ],
        "postalCode": "L9S1B6",
        "streetName": "CHANTLER",
        "streetDirectionId": null,
        "streetTypeId": "ST",
        "placeName": "INNISFIL",
        "streetNameDisplayText": "CHANTLER ST, INNISFIL"
      }
    ]
  },
  {
    "postal": "L9S8R3",
    "result": []
  },
  {
    "postal": "L9S4V9",
    "result": [
      {
        "electoralDistricts": [
          {
            "election": null,
            "id": 4,
            "name": "Barrie—Innisfil"
          }
        ],
        "pollDivisionIds": [
          10136874
        ],
        "postalCode": "L9S4V9",
        "streetName": "9TH",
        "streetDirectionId": null,
        "streetTypeId": "LINE",
        "placeName": "INNISFIL",
        "streetNameDisplayText": "9TH LINE, INNISFIL"
      }
    ]
  },
  {
    "postal": "L9S9W4",
    "result": []
  },
  {
    "postal": "L9S3T4",
    "result": [
      {
        "electoralDistricts": [
          {
            "election": null,
            "id": 4,
            "name": "Barrie—Innisfil"
          }
        ],
        "pollDivisionIds": [
          10136876
        ],
        "postalCode": "L9S3T4",
        "streetName": "25 SIDERD",
        "streetDirectionId": null,
        "streetTypeId": "SIDERD",
        "placeName": "INNISFIL",
        "streetNameDisplayText": "25 SIDERD SIDERD, INNISFIL"
      },
      {
        "electoralDistricts": [
          {
            "election": null,
            "id": 4,
            "name": "Barrie—Innisfil"
          }
        ],
        "pollDivisionIds": [
          10136876
        ],
        "postalCode": "L9S3T4",
        "streetName": "25",
        "streetDirectionId": null,
        "streetTypeId": "SIDERD",
        "placeName": "INNISFIL",
        "streetNameDisplayText": "25 SIDERD, INNISFIL"
      }
    ]
  },
  {
    "postal": "L9S5C7",
    "result": []
  },
  {
    "postal": "L9S3Y1",
    "result": [
      {
        "electoralDistricts": [
          {
            "election": null,
            "id": 4,
            "name": "Barrie—Innisfil"
          }
        ],
        "pollDivisionIds": [
          10136876
        ],
        "postalCode": "L9S3Y1",
        "streetName": "9TH",
        "streetDirectionId": null,
        "streetTypeId": "LINE",
        "placeName": "INNISFIL",
        "streetNameDisplayText": "9TH LINE, INNISFIL"
      }
    ]
  },
  {
    "postal": "L9S5V0",
    "result": []
  },
  {
    "postal": "L9S8G8",
    "result": []
  },
  {
    "postal": "L9S8B1",
    "result": []
  },
  {
    "postal": "L9S4P5",
    "result": [
      {
        "electoralDistricts": [
          {
            "election": null,
            "id": 4,
            "name": "Barrie—Innisfil"
          }
        ],
        "pollDivisionIds": [
          10136874
        ],
        "postalCode": "L9S4P5",
        "streetName": "YONGE",
        "streetDirectionId": null,
        "streetTypeId": "ST",
        "placeName": "INNISFIL",
        "streetNameDisplayText": "YONGE ST, INNISFIL"
      }
    ]
  },
  {
    "postal": "L9S7B2",
    "result": []
  },
  {
    "postal": "L9S0R2",
    "result": []
  },
  {
    "postal": "L9S4M4",
    "result": [
      {
        "electoralDistricts": [
          {
            "election": null,
            "id": 4,
            "name": "Barrie—Innisfil"
          }
        ],
        "pollDivisionIds": [
          10136878
        ],
        "postalCode": "L9S4M4",
        "streetName": "KENNEDY",
        "streetDirectionId": null,
        "streetTypeId": "RD",
        "placeName": "INNISFIL",
        "streetNameDisplayText": "KENNEDY RD, INNISFIL"
      }
    ]
  },
  {
    "postal": "L9S7M4",
    "result": []
  },
  {
    "postal": "L9S9S7",
    "result": []
  },
  {
    "postal": "L9S5Z7",
    "result": []
  },
  {
    "postal": "L9S7J7",
    "result": []
  },
  {
    "postal": "L9S8R8",
    "result": []
  },
  {
    "postal": "L9S9X1",
    "result": []
  },
  {
    "postal": "L9S5M9",
    "result": []
  },
  {
    "postal": "L9S9B4",
    "result": []
  },
  {
    "postal": "L9S0L9",
    "result": [
      {
        "electoralDistricts": [
          {
            "election": null,
            "id": 4,
            "name": "Barrie—Innisfil"
          }
        ],
        "pollDivisionIds": [
          10136865
        ],
        "postalCode": "L9S0L9",
        "streetName": "SEA RAY",
        "streetDirectionId": null,
        "streetTypeId": "AVE",
        "placeName": "INNISFIL",
        "streetNameDisplayText": "SEA RAY AVE, INNISFIL"
      }
    ]
  },
  {
    "postal": "L9S9G4",
    "result": []
  },
  {
    "postal": "L9S1J4",
    "result": [
      {
        "electoralDistricts": [
          {
            "election": null,
            "id": 4,
            "name": "Barrie—Innisfil"
          }
        ],
        "pollDivisionIds": [
          10136874
        ],
        "postalCode": "L9S1J4",
        "streetName": "VICTORIA",
        "streetDirectionId": "E",
        "streetTypeId": "ST",
        "placeName": "INNISFIL",
        "streetNameDisplayText": "VICTORIA ST E, INNISFIL"
      },
      {
        "electoralDistricts": [
          {
            "election": null,
            "id": 4,
            "name": "Barrie—Innisfil"
          }
        ],
        "pollDivisionIds": [
          10136874
        ],
        "postalCode": "L9S1J4",
        "streetName": "VICTORIA",
        "streetDirectionId": null,
        "streetTypeId": "ST",
        "placeName": "INNISFIL",
        "streetNameDisplayText": "VICTORIA ST, INNISFIL"
      }
    ]
  },
  {
    "postal": "L9S0W6",
    "result": []
  }
]
