[
  {
    "postal": "N6A9J6",
    "result": []
  },
  {
    "postal": "N6A9Z5",
    "result": []
  },
  {
    "postal": "N6A7H8",
    "result": []
  },
  {
    "postal": "N6A0P6",
    "result": []
  },
  {
    "postal": "N6A0S7",
    "result": []
  },
  {
    "postal": "N6A8B9",
    "result": []
  },
  {
    "postal": "N6A2A6",
    "result": [
      {
        "electoralDistricts": [
          {
            "election": null,
            "id": 54,
            "name": "London North Centre"
          }
        ],
        "pollDivisionIds": [
          10135366
        ],
        "postalCode": "N6A2A6",
        "streetName": "CHEAPSIDE",
        "streetDirectionId": null,
        "streetTypeId": "ST",
        "placeName": "LONDON",
        "streetNameDisplayText": "CHEAPSIDE ST, LONDON"
      }
    ]
  },
  {
    "postal": "N6A7V2",
    "result": []
  },
  {
    "postal": "N6A9P4",
    "result": []
  },
  {
    "postal": "N6A6G0",
    "result": []
  },
  {
    "postal": "N6A2K0",
    "result": []
  },
  {
    "postal": "N6A7N6",
    "result": []
  },
  {
    "postal": "N6A5R3",
    "result": []
  },
  {
    "postal": "N6A7K0",
    "result": []
  },
  {
    "postal": "N6A3R2",
    "result": [
      {
        "electoralDistricts": [
          {
            "election": null,
            "id": 54,
            "name": "London North Centre"
          }
        ],
        "pollDivisionIds": [
          10135386
        ],
        "postalCode": "N6A3R2",
        "streetName": "WELLINGTON",
        "streetDirectionId": null,
        "streetTypeId": "ST",
        "placeName": "LONDON",
        "streetNameDisplayText": "WELLINGTON ST, LONDON"
      }
    ]
  },
  {
    "postal": "N6A0J1",
    "result": []
  },
  {
    "postal": "N6A0B0",
    "result": []
  },
  {
    "postal": "N6A5Z2",
    "result": [
      {
        "electoralDistricts": [
          {
            "election": null,
            "id": 54,
            "name": "London North Centre"
          }
        ],
        "pollDivisionIds": [
          10135366
        ],
        "postalCode": "N6A5Z2",
        "streetName": "WELLINGTON",
        "streetDirectionId": null,
        "streetTypeId": "GDNS",
        "placeName": "LONDON",
        "streetNameDisplayText": "WELLINGTON GDNS, LONDON"
      },
      {
        "electoralDistricts": [
          {
            "election": null,
            "id": 53,
            "name": "Londonâ€”Fanshawe"
          }
        ],
        "pollDivisionIds": [
          10139582
        ],
        "postalCode": "N6A5Z2",
        "streetName": "WELLINGTON",
        "streetDirectionId": "S",
        "streetTypeId": "RD",
        "placeName": "LONDON",
        "streetNameDisplayText": "WELLINGTON RD S, LONDON"
      }
    ]
  },
  {
    "postal": "N6A7P3",
    "result": []
  },
  {
    "postal": "N6A2K3",
    "result": [
      {
        "electoralDistricts": [
          {
            "election": null,
            "id": 54,
            "name": "London North Centre"
          }
        ],
        "pollDivisionIds": [
          10135359
        ],
        "postalCode": "N6A2K3",
        "streetName": "HURON",
        "streetDirectionId": null,
        "streetTypeId": "ST",
        "placeName": "LONDON",
        "streetNameDisplayText": "HURON ST, LONDON"
      }
    ]
  },
  {
    "postal": "N6A7Y6",
    "result": []
  },
  {
    "postal": "N6A1L9",
    "result": [
      {
        "electoralDistricts": [
          {
            "election": null,
            "id": 54,
            "name": "London North Centre"
          }
        ],
        "pollDivisionIds": [
          10135379
        ],
        "postalCode": "N6A1L9",
        "streetName": "ALBERT",
        "streetDirectionId": null,
        "streetTypeId": "ST",
        "placeName": "LONDON",
        "streetNameDisplayText": "ALBERT ST, LONDON"
      }
    ]
  },
  {
    "postal": "N6A8T0",
    "result": []
  },
  {
    "postal": "N6A3K8",
    "result": [
      {
        "electoralDistricts": [
          {
            "election": null,
            "id": 54,
            "name": "London North Centre"
          }
        ],
        "pollDivisionIds": [
          10135359
        ],
        "postalCode": "N6A3K8",
        "streetName": "RICHMOND",
        "streetDirectionId": null,
        "streetTypeId": "ST",
        "placeName": "LONDON",
        "streetNameDisplayText": "RICHMOND ST, LONDON"
      }
    ]
  },
  {
    "postal": "N6A5W9",
    "result": [
      {
        "electoralDistricts": [
          {
            "election": null,
            "id": 55,
            "name": "London West"
          }
        ],
        "pollDivisionIds": [
          10139635
        ],
        "postalCode": "N6A5W9",
        "streetName": "COMMISSIONERS",
        "streetDirectionId": "E",
        "streetTypeId": "RD",
        "placeName": "LONDON",
        "streetNameDisplayText": "COMMISSIONERS RD E, LONDON"
      }
    ]
  },
  {
    "postal": "N6A6T9",
    "result": []
  },
  {
    "postal": "N6A4H1",
    "result": []
  },
  {
    "postal": "N6A7A2",
    "result": []
  },
  {
    "postal": "N6A5G0",
    "result": []
  },
  {
    "postal": "N6A8V5",
    "result": []
  },
  {
    "postal": "N6A2Y8",
    "result": [
      {
        "electoralDistricts": [
          {
            "election": null,
            "id": 54,
            "name": "London North Centre"
          }
        ],
        "pollDivisionIds": [
          10135359
        ],
        "postalCode": "N6A2Y8",
        "streetName": "AUDREY",
        "streetDirectionId": null,
        "streetTypeId": "AVE",
        "placeName": "LONDON",
        "streetNameDisplayText": "AUDREY AVE, LONDON"
      }
    ]
  },
  {
    "postal": "N6A2B6",
    "result": [
      {
        "electoralDistricts": [
          {
            "election": null,
            "id": 54,
            "name": "London North Centre"
          }
        ],
        "pollDivisionIds": [
          10135374
        ],
        "postalCode": "N6A2B6",
        "streetName": "VICTORIA",
        "streetDirectionId": null,
        "streetTypeId": "ST",
        "placeName": "LONDON",
        "streetNameDisplayText": "VICTORIA ST, LONDON"
      }
    ]
  },
  {
    "postal": "N6A4W8",
    "result": []
  },
  {
    "postal": "N6A8H7",
    "result": []
  },
  {
    "postal": "N6A5P1",
    "result": []
  },
  {
    "postal": "N6A2B8",
    "result": [
      {
        "electoralDistricts": [
          {
            "election": null,
            "id": 54,
            "name": "London North Centre"
          }
        ],
        "pollDivisionIds": [
          10135366,
          66670
        ],
        "postalCode": "N6A2B8",
        "streetName": "VICTORIA",
        "streetDirectionId": null,
        "streetTypeId": "ST",
        "placeName": "LONDON",
        "streetNameDisplayText": "VICTORIA ST, LONDON"
      }
    ]
  },
  {
    "postal": "N6A0P2",
    "result": []
  },
  {
    "postal": "N6A9M1",
    "result": []
  },
  {
    "postal": "N6A3G0",
    "result": []
  },
  {
    "postal": "N6A9Z2",
    "result": []
  },
  {
    "postal": "N6A2A0",
    "result": []
  },
  {
    "postal": "N6A6Y0",
    "result": []
  },
  {
    "postal": "N6A2Z8",
    "result": [
      {
        "electoralDistricts": [
          {
            "election": null,
            "id": 54,
            "name": "London North Centre"
          }
        ],
        "pollDivisionIds": [
          10135379
        ],
        "postalCode": "N6A2Z8",
        "streetName": "ST GEORGE",
        "streetDirectionId": null,
        "streetTypeId": "ST",
        "placeName": "LONDON",
        "streetNameDisplayText": "ST GEORGE ST, LONDON"
      }
    ]
  },
  {
    "postal": "N6A7Y3",
    "result": []
  },
  {
    "postal": "N6A6Z5",
    "result": []
  },
  {
    "postal": "N6A6E0",
    "result": []
  },
  {
    "postal": "N6A9B7",
    "result": []
  },
  {
    "postal": "N6A9S5",
    "result": []
  },
  {
    "postal": "N6A3X3",
    "result": [
      {
        "electoralDistricts": [
          {
            "election": null,
            "id": 54,
            "name": "London North Centre"
          }
        ],
        "pollDivisionIds": [
          10135366
        ],
        "postalCode": "N6A3X3",
        "streetName": "WATERLOO",
        "streetDirectionId": null,
        "streetTypeId": "ST",
        "placeName": "LONDON",
        "streetNameDisplayText": "WATERLOO ST, LONDON"
      }
    ]
  },
  {
    "postal": "N6A7R5",
    "result": []
  },
  {
    "postal": "N6A2X3",
    "result": [
      {
        "electoralDistricts": [
          {
            "election": null,
            "id": 54,
            "name": "London North Centre"
          }
        ],
        "pollDivisionIds": [
          10135359
        ],
        "postalCode": "N6A2X3",
        "streetName": "THE PARKWAY",
        "streetDirectionId": null,
        "streetTypeId": null,
        "placeName": "LONDON",
        "streetNameDisplayText": "THE PARKWAY, LONDON"
      }
    ]
  },
  {
    "postal": "N6A8Z9",
    "result": []
  },
  {
    "postal": "N6A0N4",
    "result": []
  },
  {
    "postal": "N6A1K1",
    "result": [
      {
        "electoralDistricts": [
          {
            "election": null,
            "id": 54,
            "name": "London North Centre"
          }
        ],
        "pollDivisionIds": [
          10135385
        ],
        "postalCode": "N6A1K1",
        "streetName": "FULLARTON",
        "streetDirectionId": null,
        "streetTypeId": "ST",
        "placeName": "LONDON",
        "streetNameDisplayText": "FULLARTON ST, LONDON"
      }
    ]
  },
  {
    "postal": "N6A1S3",
    "result": [
      {
        "electoralDistricts": [
          {
            "election": null,
            "id": 54,
            "name": "London North Centre"
          }
        ],
        "pollDivisionIds": [
          10135379
        ],
        "postalCode": "N6A1S3",
        "streetName": "PICCADILLY",
        "streetDirectionId": null,
        "streetTypeId": "ST",
        "placeName": "LONDON",
        "streetNameDisplayText": "PICCADILLY ST, LONDON"
      }
    ]
  },
  {
    "postal": "N6A6M4",
    "result": []
  },
  {
    "postal": "N6A9A9",
    "result": []
  },
  {
    "postal": "N6A9Z9",
    "result": []
  },
  {
    "postal": "N6A6T4",
    "result": []
  },
  {
    "postal": "N6A0B2",
    "result": [
      {
        "electoralDistricts": [
          {
            "election": null,
            "id": 54,
            "name": "London North Centre"
          }
        ],
        "pollDivisionIds": [
          10135379
        ],
        "postalCode": "N6A0B2",
        "streetName": "MILL",
        "streetDirectionId": null,
        "streetTypeId": "ST",
        "placeName": "LONDON",
        "streetNameDisplayText": "MILL ST, LONDON"
      }
    ]
  },
  {
    "postal": "N6A2L9",
    "result": [
      {
        "electoralDistricts": [
          {
            "election": null,
            "id": 54,
            "name": "London North Centre"
          }
        ],
        "pollDivisionIds": [
          10135359
        ],
        "postalCode": "N6A2L9",
        "streetName": "TOWER",
        "streetDirectionId": null,
        "streetTypeId": "LANE",
        "placeName": "LONDON",
        "streetNameDisplayText": "TOWER LANE, LONDON"
      }
    ]
  },
  {
    "postal": "N6A8K9",
    "result": []
  },
  {
    "postal": "N6A2H9",
    "result": [
      {
        "electoralDistricts": [
          {
            "election": null,
            "id": 54,
            "name": "London North Centre"
          }
        ],
        "pollDivisionIds": [
          10135359
        ],
        "postalCode": "N6A2H9",
        "streetName": "HURON",
        "streetDirectionId": null,
        "streetTypeId": "ST",
        "placeName": "LONDON",
        "streetNameDisplayText": "HURON ST, LONDON"
      }
    ]
  },
  {
    "postal": "N6A3Z6",
    "result": []
  },
  {
    "postal": "N6A3B0",
    "result": []
  },
  {
    "postal": "N6A2H8",
    "result": []
  },
  {
    "postal": "N6A3X2",
    "result": [
      {
        "electoralDistricts": [
          {
            "election": null,
            "id": 54,
            "name": "London North Centre"
          }
        ],
        "pollDivisionIds": [
          10135366
        ],
        "postalCode": "N6A3X2",
        "streetName": "WATERLOO",
        "streetDirectionId": null,
        "streetTypeId": "ST",
        "placeName": "LONDON",
        "streetNameDisplayText": "WATERLOO ST, LONDON"
      }
    ]
  },
  {
    "postal": "N6A2E9",
    "result": [
      {
        "electoralDistricts": [
          {
            "election": null,
            "id": 54,
            "name": "London North Centre"
          }
        ],
        "pollDivisionIds": [
          10135366
        ],
        "postalCode": "N6A2E9",
        "streetName": "SHERWOOD",
        "streetDirectionId": null,
        "streetTypeId": "AVE",
        "placeName": "LONDON",
        "streetNameDisplayText": "SHERWOOD AVE, LONDON"
      }
    ]
  },
  {
    "postal": "N6A9P6",
    "result": []
  },
  {
    "postal": "N6A9E2",
    "result": []
  },
  {
    "postal": "N6A9H2",
    "result": []
  },
  {
    "postal": "N6A1S8",
    "result": [
      {
        "electoralDistricts": [
          {
            "election": null,
            "id": 54,
            "name": "London North Centre"
          }
        ],
        "pollDivisionIds": [
          10135375
        ],
        "postalCode": "N6A1S8",
        "streetName": "PICCADILLY",
        "streetDirectionId": null,
        "streetTypeId": "ST",
        "placeName": "LONDON",
        "streetNameDisplayText": "PICCADILLY ST, LONDON"
      }
    ]
  },
  {
    "postal": "N6A3M6",
    "result": [
      {
        "electoralDistricts": [
          {
            "election": null,
            "id": 54,
            "name": "London North Centre"
          }
        ],
        "pollDivisionIds": [
          10135388,
          10135379
        ],
        "postalCode": "N6A3M6",
        "streetName": "CLARENCE",
        "streetDirectionId": null,
        "streetTypeId": "ST",
        "placeName": "LONDON",
        "streetNameDisplayText": "CLARENCE ST, LONDON"
      }
    ]
  },
  {
    "postal": "N6A6Z8",
    "result": []
  },
  {
    "postal": "N6A4J2",
    "result": []
  },
  {
    "postal": "N6A9Y1",
    "result": []
  },
  {
    "postal": "N6A8V6",
    "result": []
  },
  {
    "postal": "N6A6B2",
    "result": [
      {
        "electoralDistricts": [
          {
            "election": null,
            "id": 54,
            "name": "London North Centre"
          }
        ],
        "pollDivisionIds": [
          10135385
        ],
        "postalCode": "N6A6B2",
        "streetName": "DUNDAS",
        "streetDirectionId": null,
        "streetTypeId": "ST",
        "placeName": "LONDON",
        "streetNameDisplayText": "DUNDAS ST, LONDON"
      }
    ]
  },
  {
    "postal": "N6A1P8",
    "result": [
      {
        "electoralDistricts": [
          {
            "election": null,
            "id": 54,
            "name": "London North Centre"
          }
        ],
        "pollDivisionIds": [
          10135379
        ],
        "postalCode": "N6A1P8",
        "streetName": "MILL",
        "streetDirectionId": null,
        "streetTypeId": "ST",
        "placeName": "LONDON",
        "streetNameDisplayText": "MILL ST, LONDON"
      }
    ]
  },
  {
    "postal": "N6A0V8",
    "result": []
  },
  {
    "postal": "N6A4Y0",
    "result": []
  },
  {
    "postal": "N6A2T4",
    "result": [
      {
        "electoralDistricts": [
          {
            "election": null,
            "id": 54,
            "name": "London North Centre"
          }
        ],
        "pollDivisionIds": [
          10135379
        ],
        "postalCode": "N6A2T4",
        "streetName": "TALBOT",
        "streetDirectionId": null,
        "streetTypeId": "ST",
        "placeName": "LONDON",
        "streetNameDisplayText": "TALBOT ST, LONDON"
      }
    ]
  },
  {
    "postal": "N6A2S3",
    "result": [
      {
        "electoralDistricts": [
          {
            "election": null,
            "id": 54,
            "name": "London North Centre"
          }
        ],
        "pollDivisionIds": [
          10135386
        ],
        "postalCode": "N6A2S3",
        "streetName": "TALBOT",
        "streetDirectionId": null,
        "streetTypeId": "ST",
        "placeName": "LONDON",
        "streetNameDisplayText": "TALBOT ST, LONDON"
      }
    ]
  },
  {
    "postal": "N6A0K0",
    "result": []
  },
  {
    "postal": "N6A5N1",
    "result": []
  },
  {
    "postal": "N6A7T0",
    "result": []
  },
  {
    "postal": "N6A9N2",
    "result": []
  },
  {
    "postal": "N6A5L1",
    "result": []
  },
  {
    "postal": "N6A7G5",
    "result": []
  },
  {
    "postal": "N6A6K2",
    "result": [
      {
        "electoralDistricts": [
          {
            "election": null,
            "id": 54,
            "name": "London North Centre"
          }
        ],
        "pollDivisionIds": [
          10135388
        ],
        "postalCode": "N6A6K2",
        "streetName": "YORK",
        "streetDirectionId": null,
        "streetTypeId": "ST",
        "placeName": "LONDON",
        "streetNameDisplayText": "YORK ST, LONDON"
      }
    ]
  },
  {
    "postal": "N6A6P9",
    "result": []
  },
  {
    "postal": "N6A0E6",
    "result": []
  },
  {
    "postal": "N6A8R9",
    "result": []
  },
  {
    "postal": "N6A3G9",
    "result": []
  },
  {
    "postal": "N6A0V7",
    "result": []
  },
  {
    "postal": "N6A2Z1",
    "result": [
      {
        "electoralDistricts": [
          {
            "election": null,
            "id": 54,
            "name": "London North Centre"
          }
        ],
        "pollDivisionIds": [
          10135379
        ],
        "postalCode": "N6A2Z1",
        "streetName": "ST GEORGE",
        "streetDirectionId": null,
        "streetTypeId": "ST",
        "placeName": "LONDON",
        "streetNameDisplayText": "ST GEORGE ST, LONDON"
      }
    ]
  },
  {
    "postal": "N6A7N1",
    "result": []
  },
  {
    "postal": "N6A3C6",
    "result": []
  },
  {
    "postal": "N6A4M1",
    "result": []
  },
  {
    "postal": "N6A9K2",
    "result": []
  },
  {
    "postal": "N6A9S6",
    "result": []
  },
  {
    "postal": "N6A4X1",
    "result": []
  },
  {
    "postal": "N6A8W2",
    "result": []
  },
  {
    "postal": "N6A7N2",
    "result": []
  },
  {
    "postal": "N6A8S3",
    "result": []
  },
  {
    "postal": "N6A4V0",
    "result": []
  },
  {
    "postal": "N6A6W4",
    "result": []
  },
  {
    "postal": "N6A5M1",
    "result": [
      {
        "electoralDistricts": [
          {
            "election": null,
            "id": 54,
            "name": "London North Centre"
          }
        ],
        "pollDivisionIds": [
          10135379,
          10135401
        ],
        "postalCode": "N6A5M1",
        "streetName": "RICHMOND",
        "streetDirectionId": null,
        "streetTypeId": "ST",
        "placeName": "LONDON",
        "streetNameDisplayText": "RICHMOND ST, LONDON"
      },
      {
        "electoralDistricts": [
          {
            "election": null,
            "id": 54,
            "name": "London North Centre"
          }
        ],
        "pollDivisionIds": [
          10135379
        ],
        "postalCode": "N6A5M1",
        "streetName": "RICHMOND",
        "streetDirectionId": null,
        "streetTypeId": "ST",
        "placeName": "LONDON,ON",
        "streetNameDisplayText": "RICHMOND ST, LONDON,ON"
      }
    ]
  },
  {
    "postal": "N6A0S4",
    "result": []
  },
  {
    "postal": "N6A5X6",
    "result": []
  },
  {
    "postal": "N6A8L5",
    "result": []
  },
  {
    "postal": "N6A5M8",
    "result": [
      {
        "electoralDistricts": [
          {
            "election": null,
            "id": 54,
            "name": "London North Centre"
          }
        ],
        "pollDivisionIds": [
          10135401
        ],
        "postalCode": "N6A5M8",
        "streetName": "RICHMOND 1308",
        "streetDirectionId": null,
        "streetTypeId": "ST",
        "placeName": "LONDON",
        "streetNameDisplayText": "RICHMOND 1308 ST, LONDON"
      },
      {
        "electoralDistricts": [
          {
            "election": null,
            "id": 54,
            "name": "London North Centre"
          }
        ],
        "pollDivisionIds": [
          10135401
        ],
        "postalCode": "N6A5M8",
        "streetName": "RICHMOND 1309",
        "streetDirectionId": null,
        "streetTypeId": "ST",
        "placeName": "LONDON",
        "streetNameDisplayText": "RICHMOND 1309 ST, LONDON"
      },
      {
        "electoralDistricts": [
          {
            "election": null,
            "id": 54,
            "name": "London North Centre"
          }
        ],
        "pollDivisionIds": [
          10135401
        ],
        "postalCode": "N6A5M8",
        "streetName": "RICHMOND 1311",
        "streetDirectionId": null,
        "streetTypeId": "ST",
        "placeName": "LONDON",
        "streetNameDisplayText": "RICHMOND 1311 ST, LONDON"
      },
      {
        "electoralDistricts": [
          {
            "election": null,
            "id": 54,
            "name": "London North Centre"
          }
        ],
        "pollDivisionIds": [
          10135401
        ],
        "postalCode": "N6A5M8",
        "streetName": "RICHMOND 1402",
        "streetDirectionId": null,
        "streetTypeId": "ST",
        "placeName": "LONDON",
        "streetNameDisplayText": "RICHMOND 1402 ST, LONDON"
      },
      {
        "electoralDistricts": [
          {
            "election": null,
            "id": 54,
            "name": "London North Centre"
          }
        ],
        "pollDivisionIds": [
          10135401
        ],
        "postalCode": "N6A5M8",
        "streetName": "RICHMOND 1604",
        "streetDirectionId": null,
        "streetTypeId": "ST",
        "placeName": "LONDON",
        "streetNameDisplayText": "RICHMOND 1604 ST, LONDON"
      },
      {
        "electoralDistricts": [
          {
            "election": null,
            "id": 54,
            "name": "London North Centre"
          }
        ],
        "pollDivisionIds": [
          10135401
        ],
        "postalCode": "N6A5M8",
        "streetName": "RICHMOND 307",
        "streetDirectionId": null,
        "streetTypeId": "ST",
        "placeName": "LONDON",
        "streetNameDisplayText": "RICHMOND 307 ST, LONDON"
      },
      {
        "electoralDistricts": [
          {
            "election": null,
            "id": 54,
            "name": "London North Centre"
          }
        ],
        "pollDivisionIds": [
          10135401
        ],
        "postalCode": "N6A5M8",
        "streetName": "RICHMOND 308",
        "streetDirectionId": null,
        "streetTypeId": "ST",
        "placeName": "LONDON",
        "streetNameDisplayText": "RICHMOND 308 ST, LONDON"
      },
      {
        "electoralDistricts": [
          {
            "election": null,
            "id": 54,
            "name": "London North Centre"
          }
        ],
        "pollDivisionIds": [
          10135401
        ],
        "postalCode": "N6A5M8",
        "streetName": "RICHMOND 311",
        "streetDirectionId": null,
        "streetTypeId": "ST",
        "placeName": "LONDON",
        "streetNameDisplayText": "RICHMOND 311 ST, LONDON"
      },
      {
        "electoralDistricts": [
          {
            "election": null,
            "id": 54,
            "name": "London North Centre"
          }
        ],
        "pollDivisionIds": [
          10135401
        ],
        "postalCode": "N6A5M8",
        "streetName": "RICHMOND 607",
        "streetDirectionId": null,
        "streetTypeId": "ST",
        "placeName": "LONDON",
        "streetNameDisplayText": "RICHMOND 607 ST, LONDON"
      },
      {
        "electoralDistricts": [
          {
            "election": null,
            "id": 54,
            "name": "London North Centre"
          }
        ],
        "pollDivisionIds": [
          10135401
        ],
        "postalCode": "N6A5M8",
        "streetName": "RICHMOND 712",
        "streetDirectionId": null,
        "streetTypeId": "ST",
        "placeName": "LONDON",
        "streetNameDisplayText": "RICHMOND 712 ST, LONDON"
      },
      {
        "electoralDistricts": [
          {
            "election": null,
            "id": 54,
            "name": "London North Centre"
          }
        ],
        "pollDivisionIds": [
          10135401
        ],
        "postalCode": "N6A5M8",
        "streetName": "RICHMOND",
        "streetDirectionId": null,
        "streetTypeId": "ST",
        "placeName": "LONDON",
        "streetNameDisplayText": "RICHMOND ST, LONDON"
      }
    ]
  },
  {
    "postal": "N6A2G3",
    "result": [
      {
        "electoralDistricts": [
          {
            "election": null,
            "id": 54,
            "name": "London North Centre"
          }
        ],
        "pollDivisionIds": [
          10135366
        ],
        "postalCode": "N6A2G3",
        "streetName": "REGENT",
        "streetDirectionId": null,
        "streetTypeId": "ST",
        "placeName": "LONDON",
        "streetNameDisplayText": "REGENT ST, LONDON"
      }
    ]
  },
  {
    "postal": "N6A8E4",
    "result": []
  },
  {
    "postal": "N6A7S9",
    "result": []
  },
  {
    "postal": "N6A1K3",
    "result": [
      {
        "electoralDistricts": [
          {
            "election": null,
            "id": 54,
            "name": "London North Centre"
          }
        ],
        "pollDivisionIds": [
          10135385
        ],
        "postalCode": "N6A1K3",
        "streetName": "DUFFERIN",
        "streetDirectionId": null,
        "streetTypeId": "AVE",
        "placeName": "LONDON",
        "streetNameDisplayText": "DUFFERIN AVE, LONDON"
      }
    ]
  },
  {
    "postal": "N6A4E1",
    "result": []
  },
  {
    "postal": "N6A4R2",
    "result": []
  },
  {
    "postal": "N6A6T0",
    "result": []
  },
  {
    "postal": "N6A3K5",
    "result": [
      {
        "electoralDistricts": [
          {
            "election": null,
            "id": 54,
            "name": "London North Centre"
          }
        ],
        "pollDivisionIds": [
          10135359
        ],
        "postalCode": "N6A3K5",
        "streetName": "RICHMOND",
        "streetDirectionId": null,
        "streetTypeId": "ST",
        "placeName": "LONDON",
        "streetNameDisplayText": "RICHMOND ST, LONDON"
      }
    ]
  },
  {
    "postal": "N6A3S3",
    "result": [
      {
        "electoralDistricts": [
          {
            "election": null,
            "id": 54,
            "name": "London North Centre"
          }
        ],
        "pollDivisionIds": [
          10135374
        ],
        "postalCode": "N6A3S3",
        "streetName": "WELLINGTON",
        "streetDirectionId": null,
        "streetTypeId": "ST",
        "placeName": "LONDON",
        "streetNameDisplayText": "WELLINGTON ST, LONDON"
      }
    ]
  },
  {
    "postal": "N6A3L4",
    "result": [
      {
        "electoralDistricts": [
          {
            "election": null,
            "id": 54,
            "name": "London North Centre"
          }
        ],
        "pollDivisionIds": [
          10135359
        ],
        "postalCode": "N6A3L4",
        "streetName": "RICHMOND",
        "streetDirectionId": null,
        "streetTypeId": "ST",
        "placeName": "LONDON",
        "streetNameDisplayText": "RICHMOND ST, LONDON"
      }
    ]
  },
  {
    "postal": "N6A9Y2",
    "result": []
  },
  {
    "postal": "N6A1E0",
    "result": []
  },
  {
    "postal": "N6A9A4",
    "result": []
  },
  {
    "postal": "N6A1L3",
    "result": [
      {
        "electoralDistricts": [
          {
            "election": null,
            "id": 54,
            "name": "London North Centre"
          }
        ],
        "pollDivisionIds": [
          10135379
        ],
        "postalCode": "N6A1L3",
        "streetName": "KENT",
        "streetDirectionId": null,
        "streetTypeId": "ST",
        "placeName": "LONDON",
        "streetNameDisplayText": "KENT ST, LONDON"
      }
    ]
  },
  {
    "postal": "N6A6N1",
    "result": []
  },
  {
    "postal": "N6A6G7",
    "result": []
  },
  {
    "postal": "N6A7W1",
    "result": []
  },
  {
    "postal": "N6A4M6",
    "result": []
  },
  {
    "postal": "N6A1K0",
    "result": []
  },
  {
    "postal": "N6A3E2",
    "result": []
  },
  {
    "postal": "N6A5H4",
    "result": [
      {
        "electoralDistricts": [
          {
            "election": null,
            "id": 54,
            "name": "London North Centre"
          }
        ],
        "pollDivisionIds": [
          10135385
        ],
        "postalCode": "N6A5H4",
        "streetName": "RIDOUT",
        "streetDirectionId": "N",
        "streetTypeId": "ST",
        "placeName": "LONDON",
        "streetNameDisplayText": "RIDOUT ST N, LONDON"
      }
    ]
  },
  {
    "postal": "N6A1K7",
    "result": [
      {
        "electoralDistricts": [
          {
            "election": null,
            "id": 54,
            "name": "London North Centre"
          }
        ],
        "pollDivisionIds": [
          10135386
        ],
        "postalCode": "N6A1K7",
        "streetName": "DUFFERIN",
        "streetDirectionId": null,
        "streetTypeId": "AVE",
        "placeName": "LONDON",
        "streetNameDisplayText": "DUFFERIN AVE, LONDON"
      }
    ]
  },
  {
    "postal": "N6A0H0",
    "result": []
  },
  {
    "postal": "N6A0J3",
    "result": []
  },
  {
    "postal": "N6A1X6",
    "result": [
      {
        "electoralDistricts": [
          {
            "election": null,
            "id": 54,
            "name": "London North Centre"
          }
        ],
        "pollDivisionIds": [
          10135374
        ],
        "postalCode": "N6A1X6",
        "streetName": "ST JAMES",
        "streetDirectionId": null,
        "streetTypeId": "ST",
        "placeName": "LONDON",
        "streetNameDisplayText": "ST JAMES ST, LONDON"
      }
    ]
  },
  {
    "postal": "N6A2Z6",
    "result": [
      {
        "electoralDistricts": [
          {
            "election": null,
            "id": 54,
            "name": "London North Centre"
          }
        ],
        "pollDivisionIds": [
          10135379
        ],
        "postalCode": "N6A2Z6",
        "streetName": "GEORGE",
        "streetDirectionId": null,
        "streetTypeId": "ST",
        "placeName": "LONDON",
        "streetNameDisplayText": "GEORGE ST, LONDON"
      },
      {
        "electoralDistricts": [
          {
            "election": null,
            "id": 54,
            "name": "London North Centre"
          }
        ],
        "pollDivisionIds": [
          10135379
        ],
        "postalCode": "N6A2Z6",
        "streetName": "ST GEORGE",
        "streetDirectionId": null,
        "streetTypeId": "ST",
        "placeName": "LONDON",
        "streetNameDisplayText": "ST GEORGE ST, LONDON"
      },
      {
        "electoralDistricts": [
          {
            "election": null,
            "id": 54,
            "name": "London North Centre"
          }
        ],
        "pollDivisionIds": [
          10135379
        ],
        "postalCode": "N6A2Z6",
        "streetName": "ST. GEORGE",
        "streetDirectionId": null,
        "streetTypeId": "ST",
        "placeName": "LONDON",
        "streetNameDisplayText": "ST. GEORGE ST, LONDON"
      }
    ]
  },
  {
    "postal": "N6A4R9",
    "result": []
  },
  {
    "postal": "N6A0W8",
    "result": []
  },
  {
    "postal": "N6A1L4",
    "result": [
      {
        "electoralDistricts": [
          {
            "election": null,
            "id": 54,
            "name": "London North Centre"
          }
        ],
        "pollDivisionIds": [
          10135403,
          10135379
        ],
        "postalCode": "N6A1L4",
        "streetName": "KENT",
        "streetDirectionId": null,
        "streetTypeId": "ST",
        "placeName": "LONDON",
        "streetNameDisplayText": "KENT ST, LONDON"
      }
    ]
  },
  {
    "postal": "N6A0C8",
    "result": []
  },
  {
    "postal": "N6A9X7",
    "result": []
  },
  {
    "postal": "N6A4T1",
    "result": []
  },
  {
    "postal": "N6A0M0",
    "result": []
  },
  {
    "postal": "N6A6A2",
    "result": [
      {
        "electoralDistricts": [
          {
            "election": null,
            "id": 54,
            "name": "London North Centre"
          }
        ],
        "pollDivisionIds": [
          10135385
        ],
        "postalCode": "N6A6A2",
        "streetName": "DUNDAS",
        "streetDirectionId": null,
        "streetTypeId": "ST",
        "placeName": "LONDON",
        "streetNameDisplayText": "DUNDAS ST, LONDON"
      }
    ]
  },
  {
    "postal": "N6A9S8",
    "result": []
  },
  {
    "postal": "N6A9T4",
    "result": []
  },
  {
    "postal": "N6A9Y4",
    "result": []
  },
  {
    "postal": "N6A6G5",
    "result": []
  },
  {
    "postal": "N6A6H9",
    "result": [
      {
        "electoralDistricts": [
          {
            "election": null,
            "id": 54,
            "name": "London North Centre"
          }
        ],
        "pollDivisionIds": [
          10135388
        ],
        "postalCode": "N6A6H9",
        "streetName": "DUNDAS",
        "streetDirectionId": null,
        "streetTypeId": "ST",
        "placeName": "LONDON",
        "streetNameDisplayText": "DUNDAS ST, LONDON"
      }
    ]
  },
  {
    "postal": "N6A2P3",
    "result": []
  },
  {
    "postal": "N6A1T6",
    "result": [
      {
        "electoralDistricts": [
          {
            "election": null,
            "id": 54,
            "name": "London North Centre"
          }
        ],
        "pollDivisionIds": [
          10135374
        ],
        "postalCode": "N6A1T6",
        "streetName": "OXFORD",
        "streetDirectionId": "E",
        "streetTypeId": "ST",
        "placeName": "LONDON",
        "streetNameDisplayText": "OXFORD ST E, LONDON"
      }
    ]
  },
  {
    "postal": "N6A4P6",
    "result": []
  },
  {
    "postal": "N6A3K1",
    "result": [
      {
        "electoralDistricts": [
          {
            "election": null,
            "id": 54,
            "name": "London North Centre"
          }
        ],
        "pollDivisionIds": [
          10135366
        ],
        "postalCode": "N6A3K1",
        "streetName": "RICHMOND",
        "streetDirectionId": null,
        "streetTypeId": "ST",
        "placeName": "LONDON",
        "streetNameDisplayText": "RICHMOND ST, LONDON"
      }
    ]
  },
  {
    "postal": "N6A6X4",
    "result": []
  },
  {
    "postal": "N6A4M8",
    "result": []
  },
  {
    "postal": "N6A2Y1",
    "result": [
      {
        "electoralDistricts": [
          {
            "election": null,
            "id": 54,
            "name": "London North Centre"
          }
        ],
        "pollDivisionIds": [
          10135366
        ],
        "postalCode": "N6A2Y1",
        "streetName": "LOMBARDO",
        "streetDirectionId": null,
        "streetTypeId": "AVE",
        "placeName": "LONDON",
        "streetNameDisplayText": "LOMBARDO AVE, LONDON"
      }
    ]
  },
  {
    "postal": "N6A6M1",
    "result": []
  },
  {
    "postal": "N6A5L8",
    "result": [
      {
        "electoralDistricts": [
          {
            "election": null,
            "id": 54,
            "name": "London North Centre"
          }
        ],
        "pollDivisionIds": [
          10135379
        ],
        "postalCode": "N6A5L8",
        "streetName": "TALBOT",
        "streetDirectionId": null,
        "streetTypeId": "ST",
        "placeName": "LONDON",
        "streetNameDisplayText": "TALBOT ST, LONDON"
      }
    ]
  },
  {
    "postal": "N6A3P6",
    "result": []
  },
  {
    "postal": "N6A9A5",
    "result": []
  },
  {
    "postal": "N6A7K1",
    "result": []
  },
  {
    "postal": "N6A3J4",
    "result": []
  },
  {
    "postal": "N6A5E7",
    "result": []
  },
  {
    "postal": "N6A3A7",
    "result": [
      {
        "electoralDistricts": [
          {
            "election": null,
            "id": 54,
            "name": "London North Centre"
          }
        ],
        "pollDivisionIds": [
          10135374
        ],
        "postalCode": "N6A3A7",
        "streetName": "ST GEORGE",
        "streetDirectionId": null,
        "streetTypeId": "ST",
        "placeName": "LONDON",
        "streetNameDisplayText": "ST GEORGE ST, LONDON"
      }
    ]
  },
  {
    "postal": "N6A1B9",
    "result": []
  },
  {
    "postal": "N6A9E8",
    "result": []
  },
  {
    "postal": "N6A1C9",
    "result": [
      {
        "electoralDistricts": [
          {
            "election": null,
            "id": 54,
            "name": "London North Centre"
          }
        ],
        "pollDivisionIds": [
          10135388
        ],
        "postalCode": "N6A1C9",
        "streetName": "KING",
        "streetDirectionId": null,
        "streetTypeId": "ST",
        "placeName": "LONDON",
        "streetNameDisplayText": "KING ST, LONDON"
      }
    ]
  },
  {
    "postal": "N6A3B5",
    "result": [
      {
        "electoralDistricts": [
          {
            "election": null,
            "id": 54,
            "name": "London North Centre"
          }
        ],
        "pollDivisionIds": [
          10135366
        ],
        "postalCode": "N6A3B5",
        "streetName": "ST GEORGE",
        "streetDirectionId": null,
        "streetTypeId": "ST",
        "placeName": "LONDON",
        "streetNameDisplayText": "ST GEORGE ST, LONDON"
      }
    ]
  },
  {
    "postal": "N6A8R0",
    "result": []
  },
  {
    "postal": "N6A3P2",
    "result": [
      {
        "electoralDistricts": [
          {
            "election": null,
            "id": 54,
            "name": "London North Centre"
          }
        ],
        "pollDivisionIds": [
          10135388,
          10135385
        ],
        "postalCode": "N6A3P2",
        "streetName": "WELLINGTON",
        "streetDirectionId": null,
        "streetTypeId": "ST",
        "placeName": "LONDON",
        "streetNameDisplayText": "WELLINGTON ST, LONDON"
      }
    ]
  },
  {
    "postal": "N6A5V4",
    "result": []
  },
  {
    "postal": "N6A4H0",
    "result": []
  },
  {
    "postal": "N6A4S7",
    "result": []
  },
  {
    "postal": "N6A6C2",
    "result": []
  },
  {
    "postal": "N6A8W3",
    "result": []
  },
  {
    "postal": "N6A4M5",
    "result": []
  },
  {
    "postal": "N6A5T1",
    "result": []
  },
  {
    "postal": "N6A3B3",
    "result": [
      {
        "electoralDistricts": [
          {
            "election": null,
            "id": 54,
            "name": "London North Centre"
          }
        ],
        "pollDivisionIds": [
          10135374
        ],
        "postalCode": "N6A3B3",
        "streetName": "ST GEORGE",
        "streetDirectionId": null,
        "streetTypeId": "ST",
        "placeName": "LONDON",
        "streetNameDisplayText": "ST GEORGE ST, LONDON"
      }
    ]
  },
  {
    "postal": "N6A6C6",
    "result": []
  },
  {
    "postal": "N6A7N8",
    "result": []
  },
  {
    "postal": "N6A2Y3",
    "result": [
      {
        "electoralDistricts": [
          {
            "election": null,
            "id": 54,
            "name": "London North Centre"
          }
        ],
        "pollDivisionIds": [
          10135359
        ],
        "postalCode": "N6A2Y3",
        "streetName": "WESTVIEW",
        "streetDirectionId": null,
        "streetTypeId": "DR",
        "placeName": "LONDON",
        "streetNameDisplayText": "WESTVIEW DR, LONDON"
      }
    ]
  },
  {
    "postal": "N6A2R6",
    "result": [
      {
        "electoralDistricts": [
          {
            "election": null,
            "id": 54,
            "name": "London North Centre"
          }
        ],
        "pollDivisionIds": [
          10135388,
          10135385
        ],
        "postalCode": "N6A2R6",
        "streetName": "TALBOT",
        "streetDirectionId": null,
        "streetTypeId": "ST",
        "placeName": "LONDON",
        "streetNameDisplayText": "TALBOT ST, LONDON"
      }
    ]
  },
  {
    "postal": "N6A7N3",
    "result": []
  },
  {
    "postal": "N6A8J2",
    "result": []
  },
  {
    "postal": "N6A6A9",
    "result": []
  },
  {
    "postal": "N6A3V2",
    "result": [
      {
        "electoralDistricts": [
          {
            "election": null,
            "id": 54,
            "name": "London North Centre"
          }
        ],
        "pollDivisionIds": [
          10135366
        ],
        "postalCode": "N6A3V2",
        "streetName": "RENWICK",
        "streetDirectionId": null,
        "streetTypeId": "AVE",
        "placeName": "LONDON",
        "streetNameDisplayText": "RENWICK AVE, LONDON"
      }
    ]
  },
  {
    "postal": "N6A2N3",
    "result": [
      {
        "electoralDistricts": [
          {
            "election": null,
            "id": 54,
            "name": "London North Centre"
          }
        ],
        "pollDivisionIds": [
          10135385
        ],
        "postalCode": "N6A2N3",
        "streetName": "THAMES",
        "streetDirectionId": null,
        "streetTypeId": "ST",
        "placeName": "LONDON",
        "streetNameDisplayText": "THAMES ST, LONDON"
      }
    ]
  },
  {
    "postal": "N6A1S5",
    "result": [
      {
        "electoralDistricts": [
          {
            "election": null,
            "id": 54,
            "name": "London North Centre"
          }
        ],
        "pollDivisionIds": [
          10135379
        ],
        "postalCode": "N6A1S5",
        "streetName": "PICCADILLY",
        "streetDirectionId": null,
        "streetTypeId": "ST",
        "placeName": "LONDON",
        "streetNameDisplayText": "PICCADILLY ST, LONDON"
      }
    ]
  },
  {
    "postal": "N6A4T7",
    "result": []
  },
  {
    "postal": "N6A6Y7",
    "result": []
  },
  {
    "postal": "N6A0W7",
    "result": []
  },
  {
    "postal": "N6A2W9",
    "result": [
      {
        "electoralDistricts": [
          {
            "election": null,
            "id": 54,
            "name": "London North Centre"
          }
        ],
        "pollDivisionIds": [
          10135366
        ],
        "postalCode": "N6A2W9",
        "streetName": "THE PARKWAY",
        "streetDirectionId": null,
        "streetTypeId": null,
        "placeName": "LONDON",
        "streetNameDisplayText": "THE PARKWAY, LONDON"
      }
    ]
  },
  {
    "postal": "N6A8V0",
    "result": []
  },
  {
    "postal": "N6A0H4",
    "result": []
  },
  {
    "postal": "N6A2T1",
    "result": [
      {
        "electoralDistricts": [
          {
            "election": null,
            "id": 54,
            "name": "London North Centre"
          }
        ],
        "pollDivisionIds": [
          10135379
        ],
        "postalCode": "N6A2T1",
        "streetName": "TALBOT",
        "streetDirectionId": null,
        "streetTypeId": "ST",
        "placeName": "LONDON",
        "streetNameDisplayText": "TALBOT ST, LONDON"
      }
    ]
  },
  {
    "postal": "N6A1B1",
    "result": [
      {
        "electoralDistricts": [
          {
            "election": null,
            "id": 54,
            "name": "London North Centre"
          }
        ],
        "pollDivisionIds": [
          10135388
        ],
        "postalCode": "N6A1B1",
        "streetName": "YORK",
        "streetDirectionId": null,
        "streetTypeId": "ST",
        "placeName": "LONDON",
        "streetNameDisplayText": "YORK ST, LONDON"
      }
    ]
  },
  {
    "postal": "N6A8B6",
    "result": []
  },
  {
    "postal": "N6A6H1",
    "result": []
  },
  {
    "postal": "N6A8T8",
    "result": []
  },
  {
    "postal": "N6A0T4",
    "result": []
  },
  {
    "postal": "N6A2C4",
    "result": [
      {
        "electoralDistricts": [
          {
            "election": null,
            "id": 54,
            "name": "London North Centre"
          }
        ],
        "pollDivisionIds": [
          10135366
        ],
        "postalCode": "N6A2C4",
        "streetName": "VICTORIA",
        "streetDirectionId": null,
        "streetTypeId": "ST",
        "placeName": "LONDON",
        "streetNameDisplayText": "VICTORIA ST, LONDON"
      }
    ]
  },
  {
    "postal": "N6A8N3",
    "result": []
  },
  {
    "postal": "N6A4L8",
    "result": []
  },
  {
    "postal": "N6A2B5",
    "result": [
      {
        "electoralDistricts": [
          {
            "election": null,
            "id": 54,
            "name": "London North Centre"
          }
        ],
        "pollDivisionIds": [
          10135366
        ],
        "postalCode": "N6A2B5",
        "streetName": "VICTORIA",
        "streetDirectionId": null,
        "streetTypeId": "ST",
        "placeName": "LONDON",
        "streetNameDisplayText": "VICTORIA ST, LONDON"
      }
    ]
  },
  {
    "postal": "N6A3H1",
    "result": [
      {
        "electoralDistricts": [
          {
            "election": null,
            "id": 54,
            "name": "London North Centre"
          }
        ],
        "pollDivisionIds": [
          10135379
        ],
        "postalCode": "N6A3H1",
        "streetName": "RICHMOND",
        "streetDirectionId": null,
        "streetTypeId": "ST",
        "placeName": "LONDON",
        "streetNameDisplayText": "RICHMOND ST, LONDON"
      }
    ]
  },
  {
    "postal": "N6A4Y1",
    "result": []
  },
  {
    "postal": "N6A7E2",
    "result": []
  },
  {
    "postal": "N6A2P5",
    "result": []
  },
  {
    "postal": "N6A8R7",
    "result": []
  },
  {
    "postal": "N6A9P1",
    "result": []
  },
  {
    "postal": "N6A3B8",
    "result": [
      {
        "electoralDistricts": [
          {
            "election": null,
            "id": 54,
            "name": "London North Centre"
          }
        ],
        "pollDivisionIds": [
          10135366
        ],
        "postalCode": "N6A3B8",
        "streetName": "ST GEORGE",
        "streetDirectionId": null,
        "streetTypeId": "ST",
        "placeName": "LONDON",
        "streetNameDisplayText": "ST GEORGE ST, LONDON"
      }
    ]
  },
  {
    "postal": "N6A3P7",
    "result": []
  },
  {
    "postal": "N6A9B2",
    "result": []
  },
  {
    "postal": "N6A6Z3",
    "result": []
  },
  {
    "postal": "N6A4N5",
    "result": []
  },
  {
    "postal": "N6A8T3",
    "result": []
  },
  {
    "postal": "N6A1V2",
    "result": [
      {
        "electoralDistricts": [
          {
            "election": null,
            "id": 54,
            "name": "London North Centre"
          }
        ],
        "pollDivisionIds": [
          10135379
        ],
        "postalCode": "N6A1V2",
        "streetName": "OXFORD",
        "streetDirectionId": "E",
        "streetTypeId": "ST",
        "placeName": "LONDON",
        "streetNameDisplayText": "OXFORD ST E, LONDON"
      }
    ]
  },
  {
    "postal": "N6A1Y0",
    "result": []
  },
  {
    "postal": "N6A3G6",
    "result": [
      {
        "electoralDistricts": [
          {
            "election": null,
            "id": 54,
            "name": "London North Centre"
          }
        ],
        "pollDivisionIds": [
          10135379
        ],
        "postalCode": "N6A3G6",
        "streetName": "RICHMOND",
        "streetDirectionId": null,
        "streetTypeId": "ST",
        "placeName": "LONDON",
        "streetNameDisplayText": "RICHMOND ST, LONDON"
      }
    ]
  },
  {
    "postal": "N6A3H7",
    "result": [
      {
        "electoralDistricts": [
          {
            "election": null,
            "id": 54,
            "name": "London North Centre"
          }
        ],
        "pollDivisionIds": [
          10135374
        ],
        "postalCode": "N6A3H7",
        "streetName": "RICHMOND",
        "streetDirectionId": null,
        "streetTypeId": "ST",
        "placeName": "LONDON",
        "streetNameDisplayText": "RICHMOND ST, LONDON"
      }
    ]
  },
  {
    "postal": "N6A7X8",
    "result": []
  },
  {
    "postal": "N6A0C7",
    "result": []
  },
  {
    "postal": "N6A0W9",
    "result": []
  },
  {
    "postal": "N6A8E6",
    "result": []
  },
  {
    "postal": "N6A9Z8",
    "result": []
  },
  {
    "postal": "N6A3P4",
    "result": []
  },
  {
    "postal": "N6A6L8",
    "result": []
  },
  {
    "postal": "N6A2R4",
    "result": [
      {
        "electoralDistricts": [
          {
            "election": null,
            "id": 54,
            "name": "London North Centre"
          }
        ],
        "pollDivisionIds": [
          10135388
        ],
        "postalCode": "N6A2R4",
        "streetName": "TALBOT",
        "streetDirectionId": null,
        "streetTypeId": "ST",
        "placeName": "LONDON",
        "streetNameDisplayText": "TALBOT ST, LONDON"
      }
    ]
  },
  {
    "postal": "N6A2W1",
    "result": [
      {
        "electoralDistricts": [
          {
            "election": null,
            "id": 54,
            "name": "London North Centre"
          }
        ],
        "pollDivisionIds": [
          10135366
        ],
        "postalCode": "N6A2W1",
        "streetName": "TALBOT",
        "streetDirectionId": null,
        "streetTypeId": "ST",
        "placeName": "LONDON",
        "streetNameDisplayText": "TALBOT ST, LONDON"
      }
    ]
  },
  {
    "postal": "N6A9H8",
    "result": []
  },
  {
    "postal": "N6A8X9",
    "result": []
  },
  {
    "postal": "N6A7H4",
    "result": []
  },
  {
    "postal": "N6A3J1",
    "result": [
      {
        "electoralDistricts": [
          {
            "election": null,
            "id": 54,
            "name": "London North Centre"
          }
        ],
        "pollDivisionIds": [
          10135343,
          10135374
        ],
        "postalCode": "N6A3J1",
        "streetName": "RICHMOND",
        "streetDirectionId": null,
        "streetTypeId": "ST",
        "placeName": "LONDON",
        "streetNameDisplayText": "RICHMOND ST, LONDON"
      }
    ]
  },
  {
    "postal": "N6A1P4",
    "result": [
      {
        "electoralDistricts": [
          {
            "election": null,
            "id": 54,
            "name": "London North Centre"
          }
        ],
        "pollDivisionIds": [
          10135379
        ],
        "postalCode": "N6A1P4",
        "streetName": "PALL MALL",
        "streetDirectionId": null,
        "streetTypeId": "ST",
        "placeName": "LONDON",
        "streetNameDisplayText": "PALL MALL ST, LONDON"
      }
    ]
  },
  {
    "postal": "N6A2A3",
    "result": [
      {
        "electoralDistricts": [
          {
            "election": null,
            "id": 54,
            "name": "London North Centre"
          }
        ],
        "pollDivisionIds": [
          10135366
        ],
        "postalCode": "N6A2A3",
        "streetName": "CHEAPSIDE",
        "streetDirectionId": null,
        "streetTypeId": "ST",
        "placeName": "LONDON",
        "streetNameDisplayText": "CHEAPSIDE ST, LONDON"
      }
    ]
  },
  {
    "postal": "N6A0Z1",
    "result": []
  },
  {
    "postal": "N6A1C1",
    "result": [
      {
        "electoralDistricts": [
          {
            "election": null,
            "id": 54,
            "name": "London North Centre"
          }
        ],
        "pollDivisionIds": [
          10135385
        ],
        "postalCode": "N6A1C1",
        "streetName": "KING",
        "streetDirectionId": null,
        "streetTypeId": "ST",
        "placeName": "LONDON",
        "streetNameDisplayText": "KING ST, LONDON"
      }
    ]
  },
  {
    "postal": "N6A0H3",
    "result": []
  },
  {
    "postal": "N6A7B0",
    "result": []
  },
  {
    "postal": "N6A5K2",
    "result": []
  },
  {
    "postal": "N6A1E9",
    "result": [
      {
        "electoralDistricts": [
          {
            "election": null,
            "id": 54,
            "name": "London North Centre"
          }
        ],
        "pollDivisionIds": [
          10135388
        ],
        "postalCode": "N6A1E9",
        "streetName": "DUNDAS",
        "streetDirectionId": null,
        "streetTypeId": "ST",
        "placeName": "LONDON",
        "streetNameDisplayText": "DUNDAS ST, LONDON"
      }
    ]
  },
  {
    "postal": "N6A9W7",
    "result": []
  },
  {
    "postal": "N6A5W6",
    "result": []
  },
  {
    "postal": "N6A6S6",
    "result": []
  },
  {
    "postal": "N6A2P8",
    "result": [
      {
        "electoralDistricts": [
          {
            "election": null,
            "id": 54,
            "name": "London North Centre"
          }
        ],
        "pollDivisionIds": [
          10135379
        ],
        "postalCode": "N6A2P8",
        "streetName": "RIDOUT",
        "streetDirectionId": "N",
        "streetTypeId": "ST",
        "placeName": "LONDON",
        "streetNameDisplayText": "RIDOUT ST N, LONDON"
      }
    ]
  },
  {
    "postal": "N6A4P8",
    "result": []
  },
  {
    "postal": "N6A0V9",
    "result": []
  },
  {
    "postal": "N6A5Y2",
    "result": []
  },
  {
    "postal": "N6A7Z7",
    "result": []
  },
  {
    "postal": "N6A6Y8",
    "result": []
  },
  {
    "postal": "N6A2G7",
    "result": [
      {
        "electoralDistricts": [
          {
            "election": null,
            "id": 54,
            "name": "London North Centre"
          }
        ],
        "pollDivisionIds": [
          10135366
        ],
        "postalCode": "N6A2G7",
        "streetName": "REGENT",
        "streetDirectionId": null,
        "streetTypeId": "ST",
        "placeName": "LONDON",
        "streetNameDisplayText": "REGENT ST, LONDON"
      }
    ]
  },
  {
    "postal": "N6A8C1",
    "result": []
  },
  {
    "postal": "N6A5C5",
    "result": []
  },
  {
    "postal": "N6A2X8",
    "result": [
      {
        "electoralDistricts": [
          {
            "election": null,
            "id": 54,
            "name": "London North Centre"
          }
        ],
        "pollDivisionIds": [
          10135366
        ],
        "postalCode": "N6A2X8",
        "streetName": "LOMBARDO",
        "streetDirectionId": null,
        "streetTypeId": "AVE",
        "placeName": "LONDON",
        "streetNameDisplayText": "LOMBARDO AVE, LONDON"
      }
    ]
  },
  {
    "postal": "N6A1W5",
    "result": [
      {
        "electoralDistricts": [
          {
            "election": null,
            "id": 54,
            "name": "London North Centre"
          }
        ],
        "pollDivisionIds": [
          10135374
        ],
        "postalCode": "N6A1W5",
        "streetName": "SYDENHAM",
        "streetDirectionId": null,
        "streetTypeId": "ST",
        "placeName": "LONDON",
        "streetNameDisplayText": "SYDENHAM ST, LONDON"
      }
    ]
  },
  {
    "postal": "N6A7G0",
    "result": []
  },
  {
    "postal": "N6A8J8",
    "result": []
  },
  {
    "postal": "N6A3Y0",
    "result": []
  },
  {
    "postal": "N6A9T7",
    "result": []
  },
  {
    "postal": "N6A5P4",
    "result": [
      {
        "electoralDistricts": [
          {
            "election": null,
            "id": 54,
            "name": "London North Centre"
          }
        ],
        "pollDivisionIds": [
          10135386
        ],
        "postalCode": "N6A5P4",
        "streetName": "RICHMOND",
        "streetDirectionId": null,
        "streetTypeId": "ST",
        "placeName": "LONDON",
        "streetNameDisplayText": "RICHMOND ST, LONDON"
      }
    ]
  },
  {
    "postal": "N6A4B0",
    "result": []
  },
  {
    "postal": "N6A9N8",
    "result": []
  },
  {
    "postal": "N6A4A7",
    "result": [
      {
        "electoralDistricts": [
          {
            "election": null,
            "id": 54,
            "name": "London North Centre"
          }
        ],
        "pollDivisionIds": [
          10135366
        ],
        "postalCode": "N6A4A7",
        "streetName": "COLBORNE",
        "streetDirectionId": null,
        "streetTypeId": "ST",
        "placeName": "LONDON",
        "streetNameDisplayText": "COLBORNE ST, LONDON"
      }
    ]
  },
  {
    "postal": "N6A4H9",
    "result": []
  },
  {
    "postal": "N6A6X1",
    "result": []
  },
  {
    "postal": "N6A9Y7",
    "result": []
  },
  {
    "postal": "N6A2Y5",
    "result": [
      {
        "electoralDistricts": [
          {
            "election": null,
            "id": 54,
            "name": "London North Centre"
          }
        ],
        "pollDivisionIds": [
          10135359
        ],
        "postalCode": "N6A2Y5",
        "streetName": "SUNSET",
        "streetDirectionId": null,
        "streetTypeId": "DR",
        "placeName": "LONDON",
        "streetNameDisplayText": "SUNSET DR, LONDON"
      },
      {
        "electoralDistricts": [
          {
            "election": null,
            "id": 54,
            "name": "London North Centre"
          }
        ],
        "pollDivisionIds": [
          10135359
        ],
        "postalCode": "N6A2Y5",
        "streetName": "SUNSET",
        "streetDirectionId": null,
        "streetTypeId": "ST",
        "placeName": "LONDON",
        "streetNameDisplayText": "SUNSET ST, LONDON"
      },
      {
        "electoralDistricts": [
          {
            "election": null,
            "id": 54,
            "name": "London North Centre"
          }
        ],
        "pollDivisionIds": [
          10135359
        ],
        "postalCode": "N6A2Y5",
        "streetName": "SUNSET",
        "streetDirectionId": null,
        "streetTypeId": "ST",
        "placeName": "LONDON,ON",
        "streetNameDisplayText": "SUNSET ST, LONDON,ON"
      }
    ]
  },
  {
    "postal": "N6A8L7",
    "result": []
  },
  {
    "postal": "N6A2A8",
    "result": [
      {
        "electoralDistricts": [
          {
            "election": null,
            "id": 54,
            "name": "London North Centre"
          }
        ],
        "pollDivisionIds": [
          10135374
        ],
        "postalCode": "N6A2A8",
        "streetName": "BRIDPORT",
        "streetDirectionId": null,
        "streetTypeId": "ST",
        "placeName": "LONDON",
        "streetNameDisplayText": "BRIDPORT ST, LONDON"
      }
    ]
  },
  {
    "postal": "N6A2K9",
    "result": [
      {
        "electoralDistricts": [
          {
            "election": null,
            "id": 54,
            "name": "London North Centre"
          }
        ],
        "pollDivisionIds": [
          10135359
        ],
        "postalCode": "N6A2K9",
        "streetName": "BROUGHDALE",
        "streetDirectionId": null,
        "streetTypeId": "AVE",
        "placeName": "LONDON",
        "streetNameDisplayText": "BROUGHDALE AVE, LONDON"
      }
    ]
  },
  {
    "postal": "N6A3E5",
    "result": []
  },
  {
    "postal": "N6A8N6",
    "result": []
  },
  {
    "postal": "N6A8J4",
    "result": []
  },
  {
    "postal": "N6A4R7",
    "result": []
  },
  {
    "postal": "N6A9K1",
    "result": []
  },
  {
    "postal": "N6A8E1",
    "result": []
  },
  {
    "postal": "N6A0R1",
    "result": []
  },
  {
    "postal": "N6A4J3",
    "result": []
  },
  {
    "postal": "N6A7E7",
    "result": []
  },
  {
    "postal": "N6A0J0",
    "result": []
  },
  {
    "postal": "N6A7R8",
    "result": []
  },
  {
    "postal": "N6A9X0",
    "result": []
  },
  {
    "postal": "N6A7P6",
    "result": []
  },
  {
    "postal": "N6A0R7",
    "result": []
  },
  {
    "postal": "N6A5W1",
    "result": []
  },
  {
    "postal": "N6A0K4",
    "result": []
  },
  {
    "postal": "N6A7N9",
    "result": []
  },
  {
    "postal": "N6A1N0",
    "result": []
  },
  {
    "postal": "N6A6P3",
    "result": []
  },
  {
    "postal": "N6A5A1",
    "result": [
      {
        "electoralDistricts": [
          {
            "election": null,
            "id": 54,
            "name": "London North Centre"
          }
        ],
        "pollDivisionIds": [
          10135375
        ],
        "postalCode": "N6A5A1",
        "streetName": "COLBORNE",
        "streetDirectionId": null,
        "streetTypeId": "ST",
        "placeName": "LONDON",
        "streetNameDisplayText": "COLBORNE ST, LONDON"
      }
    ]
  },
  {
    "postal": "N6A9M9",
    "result": []
  },
  {
    "postal": "N6A7T6",
    "result": []
  },
  {
    "postal": "N6A3X0",
    "result": []
  },
  {
    "postal": "N6A2T0",
    "result": []
  },
  {
    "postal": "N6A5X9",
    "result": []
  },
  {
    "postal": "N6A2R3",
    "result": []
  },
  {
    "postal": "N6A5N2",
    "result": []
  },
  {
    "postal": "N6A4Y7",
    "result": []
  },
  {
    "postal": "N6A7M0",
    "result": []
  },
  {
    "postal": "N6A8P3",
    "result": []
  },
  {
    "postal": "N6A3N3",
    "result": [
      {
        "electoralDistricts": [
          {
            "election": null,
            "id": 54,
            "name": "London North Centre"
          }
        ],
        "pollDivisionIds": [
          10135374
        ],
        "postalCode": "N6A3N3",
        "streetName": "ALMA",
        "streetDirectionId": null,
        "streetTypeId": "ST",
        "placeName": "LONDON",
        "streetNameDisplayText": "ALMA ST, LONDON"
      }
    ]
  },
  {
    "postal": "N6A7S3",
    "result": []
  },
  {
    "postal": "N6A3V9",
    "result": [
      {
        "electoralDistricts": [
          {
            "election": null,
            "id": 54,
            "name": "London North Centre"
          }
        ],
        "pollDivisionIds": [
          10135375
        ],
        "postalCode": "N6A3V9",
        "streetName": "WATERLOO",
        "streetDirectionId": null,
        "streetTypeId": "ST",
        "placeName": "LONDON",
        "streetNameDisplayText": "WATERLOO ST, LONDON"
      }
    ]
  },
  {
    "postal": "N6A9N7",
    "result": []
  },
  {
    "postal": "N6A0G4",
    "result": []
  },
  {
    "postal": "N6A2E2",
    "result": [
      {
        "electoralDistricts": [
          {
            "election": null,
            "id": 54,
            "name": "London North Centre"
          }
        ],
        "pollDivisionIds": [
          10135366
        ],
        "postalCode": "N6A2E2",
        "streetName": "SHERWOOD",
        "streetDirectionId": null,
        "streetTypeId": "AVE",
        "placeName": "LONDON",
        "streetNameDisplayText": "SHERWOOD AVE, LONDON"
      }
    ]
  },
  {
    "postal": "N6A7W8",
    "result": []
  },
  {
    "postal": "N6A7M5",
    "result": []
  },
  {
    "postal": "N6A5W8",
    "result": []
  },
  {
    "postal": "N6A5E5",
    "result": [
      {
        "electoralDistricts": [
          {
            "election": null,
            "id": 54,
            "name": "London North Centre"
          }
        ],
        "pollDivisionIds": [
          10135385
        ],
        "postalCode": "N6A5E5",
        "streetName": "TALBOT",
        "streetDirectionId": null,
        "streetTypeId": "ST",
        "placeName": "LONDON",
        "streetNameDisplayText": "TALBOT ST, LONDON"
      }
    ]
  },
  {
    "postal": "N6A1P9",
    "result": [
      {
        "electoralDistricts": [
          {
            "election": null,
            "id": 54,
            "name": "London North Centre"
          }
        ],
        "pollDivisionIds": [
          10135379
        ],
        "postalCode": "N6A1P9",
        "streetName": "ANN",
        "streetDirectionId": null,
        "streetTypeId": "ST",
        "placeName": "LONDON",
        "streetNameDisplayText": "ANN ST, LONDON"
      },
      {
        "electoralDistricts": [
          {
            "election": null,
            "id": 54,
            "name": "London North Centre"
          }
        ],
        "pollDivisionIds": [
          10135379
        ],
        "postalCode": "N6A1P9",
        "streetName": "ANN",
        "streetDirectionId": null,
        "streetTypeId": "ST",
        "placeName": "LONDON,ON",
        "streetNameDisplayText": "ANN ST, LONDON,ON"
      }
    ]
  },
  {
    "postal": "N6A8V8",
    "result": []
  },
  {
    "postal": "N6A9G8",
    "result": []
  },
  {
    "postal": "N6A8H9",
    "result": []
  },
  {
    "postal": "N6A1Z1",
    "result": [
      {
        "electoralDistricts": [
          {
            "election": null,
            "id": 54,
            "name": "London North Centre"
          }
        ],
        "pollDivisionIds": [
          10135366
        ],
        "postalCode": "N6A1Z1",
        "streetName": "GROSVENOR",
        "streetDirectionId": null,
        "streetTypeId": "ST",
        "placeName": "LONDON",
        "streetNameDisplayText": "GROSVENOR ST, LONDON"
      }
    ]
  },
  {
    "postal": "N6A8M3",
    "result": []
  },
  {
    "postal": "N6A5H6",
    "result": []
  },
  {
    "postal": "N6A7W7",
    "result": []
  },
  {
    "postal": "N6A4L0",
    "result": []
  },
  {
    "postal": "N6A2N1",
    "result": [
      {
        "electoralDistricts": [
          {
            "election": null,
            "id": 54,
            "name": "London North Centre"
          }
        ],
        "pollDivisionIds": [
          10135359
        ],
        "postalCode": "N6A2N1",
        "streetName": "RAYMOND",
        "streetDirectionId": null,
        "streetTypeId": "AVE",
        "placeName": "LONDON",
        "streetNameDisplayText": "RAYMOND AVE, LONDON"
      }
    ]
  },
  {
    "postal": "N6A2H4",
    "result": [
      {
        "electoralDistricts": [
          {
            "election": null,
            "id": 54,
            "name": "London North Centre"
          }
        ],
        "pollDivisionIds": [
          10135359
        ],
        "postalCode": "N6A2H4",
        "streetName": "REGENT",
        "streetDirectionId": null,
        "streetTypeId": "ST",
        "placeName": "LONDON",
        "streetNameDisplayText": "REGENT ST, LONDON"
      }
    ]
  },
  {
    "postal": "N6A5C8",
    "result": []
  },
  {
    "postal": "N6A8B0",
    "result": []
  },
  {
    "postal": "N6A1T4",
    "result": [
      {
        "electoralDistricts": [
          {
            "election": null,
            "id": 54,
            "name": "London North Centre"
          }
        ],
        "pollDivisionIds": [
          10135379
        ],
        "postalCode": "N6A1T4",
        "streetName": "OXFORD",
        "streetDirectionId": "E",
        "streetTypeId": "ST",
        "placeName": "LONDON",
        "streetNameDisplayText": "OXFORD ST E, LONDON"
      }
    ]
  },
  {
    "postal": "N6A7N7",
    "result": []
  },
  {
    "postal": "N6A4L3",
    "result": []
  },
  {
    "postal": "N6A2N2",
    "result": [
      {
        "electoralDistricts": [
          {
            "election": null,
            "id": 54,
            "name": "London North Centre"
          }
        ],
        "pollDivisionIds": [
          10135359
        ],
        "postalCode": "N6A2N2",
        "streetName": "RAYMOND",
        "streetDirectionId": null,
        "streetTypeId": "AVE",
        "placeName": "LONDON",
        "streetNameDisplayText": "RAYMOND AVE, LONDON"
      }
    ]
  },
  {
    "postal": "N6A4N8",
    "result": []
  },
  {
    "postal": "N6A3M5",
    "result": []
  },
  {
    "postal": "N6A6H7",
    "result": [
      {
        "electoralDistricts": [
          {
            "election": null,
            "id": 54,
            "name": "London North Centre"
          }
        ],
        "pollDivisionIds": [
          10135386
        ],
        "postalCode": "N6A6H7",
        "streetName": "QUEENS",
        "streetDirectionId": null,
        "streetTypeId": "AVE",
        "placeName": "LONDON",
        "streetNameDisplayText": "QUEENS AVE, LONDON"
      }
    ]
  },
  {
    "postal": "N6A8Y8",
    "result": []
  },
  {
    "postal": "N6A5R9",
    "result": [
      {
        "electoralDistricts": [
          {
            "election": null,
            "id": 54,
            "name": "London North Centre"
          }
        ],
        "pollDivisionIds": [
          10135374
        ],
        "postalCode": "N6A5R9",
        "streetName": "OXFORD",
        "streetDirectionId": "E",
        "streetTypeId": "ST",
        "placeName": "LONDON",
        "streetNameDisplayText": "OXFORD ST E, LONDON"
      }
    ]
  },
  {
    "postal": "N6A8G3",
    "result": []
  },
  {
    "postal": "N6A4N7",
    "result": []
  },
  {
    "postal": "N6A0B9",
    "result": [
      {
        "electoralDistricts": [
          {
            "election": null,
            "id": 54,
            "name": "London North Centre"
          }
        ],
        "pollDivisionIds": [
          10135375
        ],
        "postalCode": "N6A0B9",
        "streetName": "COLBORNE",
        "streetDirectionId": null,
        "streetTypeId": "ST",
        "placeName": "LONDON",
        "streetNameDisplayText": "COLBORNE ST, LONDON"
      }
    ]
  },
  {
    "postal": "N6A9K7",
    "result": []
  },
  {
    "postal": "N6A9K9",
    "result": []
  },
  {
    "postal": "N6A3Z2",
    "result": [
      {
        "electoralDistricts": [
          {
            "election": null,
            "id": 54,
            "name": "London North Centre"
          }
        ],
        "pollDivisionIds": [
          10135380
        ],
        "postalCode": "N6A3Z2",
        "streetName": "COLBORNE",
        "streetDirectionId": null,
        "streetTypeId": "ST",
        "placeName": "LONDON",
        "streetNameDisplayText": "COLBORNE ST, LONDON"
      }
    ]
  },
  {
    "postal": "N6A6W7",
    "result": []
  },
  {
    "postal": "N6A0P1",
    "result": []
  },
  {
    "postal": "N6A3A0",
    "result": []
  },
  {
    "postal": "N6A8L9",
    "result": []
  },
  {
    "postal": "N6A6X0",
    "result": []
  },
  {
    "postal": "N6A3E9",
    "result": [
      {
        "electoralDistricts": [
          {
            "election": null,
            "id": 54,
            "name": "London North Centre"
          }
        ],
        "pollDivisionIds": [
          10135379
        ],
        "postalCode": "N6A3E9",
        "streetName": "RICHMOND",
        "streetDirectionId": null,
        "streetTypeId": "ST",
        "placeName": "LONDON",
        "streetNameDisplayText": "RICHMOND ST, LONDON"
      }
    ]
  },
  {
    "postal": "N6A0S5",
    "result": []
  },
  {
    "postal": "N6A1A2",
    "result": []
  },
  {
    "postal": "N6A5V8",
    "result": []
  },
  {
    "postal": "N6A8C5",
    "result": []
  },
  {
    "postal": "N6A6N0",
    "result": []
  },
  {
    "postal": "N6A9E6",
    "result": []
  },
  {
    "postal": "N6A5J7",
    "result": [
      {
        "electoralDistricts": [
          {
            "election": null,
            "id": 54,
            "name": "London North Centre"
          }
        ],
        "pollDivisionIds": [
          10135388
        ],
        "postalCode": "N6A5J7",
        "streetName": "QUEENS",
        "streetDirectionId": null,
        "streetTypeId": "AVE",
        "placeName": "LONDON",
        "streetNameDisplayText": "QUEENS AVE, LONDON"
      }
    ]
  },
  {
    "postal": "N6A2R2",
    "result": [
      {
        "electoralDistricts": [
          {
            "election": null,
            "id": 54,
            "name": "London North Centre"
          }
        ],
        "pollDivisionIds": [
          10135379
        ],
        "postalCode": "N6A2R2",
        "streetName": "RIDOUT",
        "streetDirectionId": "N",
        "streetTypeId": "ST",
        "placeName": "LONDON",
        "streetNameDisplayText": "RIDOUT ST N, LONDON"
      }
    ]
  },
  {
    "postal": "N6A0P5",
    "result": []
  },
  {
    "postal": "N6A5A7",
    "result": []
  },
  {
    "postal": "N6A1G1",
    "result": [
      {
        "electoralDistricts": [
          {
            "election": null,
            "id": 54,
            "name": "London North Centre"
          }
        ],
        "pollDivisionIds": [
          10135388
        ],
        "postalCode": "N6A1G1",
        "streetName": "DUNDAS",
        "streetDirectionId": null,
        "streetTypeId": "ST",
        "placeName": "LONDON",
        "streetNameDisplayText": "DUNDAS ST, LONDON"
      }
    ]
  },
  {
    "postal": "N6A9R6",
    "result": []
  },
  {
    "postal": "N6A4Z9",
    "result": []
  },
  {
    "postal": "N6A1V5",
    "result": [
      {
        "electoralDistricts": [
          {
            "election": null,
            "id": 54,
            "name": "London North Centre"
          }
        ],
        "pollDivisionIds": [
          10135374
        ],
        "postalCode": "N6A1V5",
        "streetName": "OXFORD",
        "streetDirectionId": "E",
        "streetTypeId": "ST",
        "placeName": "LONDON",
        "streetNameDisplayText": "OXFORD ST E, LONDON"
      }
    ]
  },
  {
    "postal": "N6A9Y5",
    "result": []
  },
  {
    "postal": "N6A1P2",
    "result": []
  },
  {
    "postal": "N6A5X0",
    "result": []
  },
  {
    "postal": "N6A7B8",
    "result": []
  },
  {
    "postal": "N6A0C6",
    "result": []
  },
  {
    "postal": "N6A6G1",
    "result": []
  },
  {
    "postal": "N6A3K3",
    "result": [
      {
        "electoralDistricts": [
          {
            "election": null,
            "id": 54,
            "name": "London North Centre"
          }
        ],
        "pollDivisionIds": [
          10135359
        ],
        "postalCode": "N6A3K3",
        "streetName": "RICHMOND",
        "streetDirectionId": null,
        "streetTypeId": "ST",
        "placeName": "LONDON",
        "streetNameDisplayText": "RICHMOND ST, LONDON"
      }
    ]
  },
  {
    "postal": "N6A9R0",
    "result": []
  },
  {
    "postal": "N6A4R8",
    "result": []
  },
  {
    "postal": "N6A5P9",
    "result": [
      {
        "electoralDistricts": [
          {
            "election": null,
            "id": 54,
            "name": "London North Centre"
          }
        ],
        "pollDivisionIds": [
          10135388
        ],
        "postalCode": "N6A5P9",
        "streetName": "YORK",
        "streetDirectionId": null,
        "streetTypeId": "ST",
        "placeName": "LONDON",
        "streetNameDisplayText": "YORK ST, LONDON"
      }
    ]
  },
  {
    "postal": "N6A8N4",
    "result": []
  },
  {
    "postal": "N6A8H4",
    "result": []
  },
  {
    "postal": "N6A4V1",
    "result": []
  },
  {
    "postal": "N6A1K5",
    "result": []
  },
  {
    "postal": "N6A1Z5",
    "result": [
      {
        "electoralDistricts": [
          {
            "election": null,
            "id": 54,
            "name": "London North Centre"
          }
        ],
        "pollDivisionIds": [
          10135374
        ],
        "postalCode": "N6A1Z5",
        "streetName": "CROMWELL",
        "streetDirectionId": null,
        "streetTypeId": "ST",
        "placeName": "LONDON",
        "streetNameDisplayText": "CROMWELL ST, LONDON"
      }
    ]
  },
  {
    "postal": "N6A9L9",
    "result": []
  },
  {
    "postal": "N6A5L2",
    "result": []
  },
  {
    "postal": "N6A0M2",
    "result": []
  },
  {
    "postal": "N6A1K8",
    "result": []
  },
  {
    "postal": "N6A3M7",
    "result": [
      {
        "electoralDistricts": [
          {
            "election": null,
            "id": 54,
            "name": "London North Centre"
          }
        ],
        "pollDivisionIds": [
          10135388
        ],
        "postalCode": "N6A3M7",
        "streetName": "CLARENCE",
        "streetDirectionId": null,
        "streetTypeId": "ST",
        "placeName": "LONDON",
        "streetNameDisplayText": "CLARENCE ST, LONDON"
      }
    ]
  },
  {
    "postal": "N6A1B2",
    "result": []
  },
  {
    "postal": "N6A0H9",
    "result": []
  },
  {
    "postal": "N6A8M4",
    "result": []
  },
  {
    "postal": "N6A2M5",
    "result": [
      {
        "electoralDistricts": [
          {
            "election": null,
            "id": 54,
            "name": "London North Centre"
          }
        ],
        "pollDivisionIds": [
          10135359
        ],
        "postalCode": "N6A2M5",
        "streetName": "PARKDALE",
        "streetDirectionId": null,
        "streetTypeId": "CRES",
        "placeName": "LONDON",
        "streetNameDisplayText": "PARKDALE CRES, LONDON"
      }
    ]
  },
  {
    "postal": "N6A0T9",
    "result": []
  },
  {
    "postal": "N6A3P1",
    "result": []
  },
  {
    "postal": "N6A1R6",
    "result": [
      {
        "electoralDistricts": [
          {
            "election": null,
            "id": 54,
            "name": "London North Centre"
          }
        ],
        "pollDivisionIds": [
          10135379
        ],
        "postalCode": "N6A1R6",
        "streetName": "KENNETH",
        "streetDirectionId": null,
        "streetTypeId": "AVE",
        "placeName": "LONDON",
        "streetNameDisplayText": "KENNETH AVE, LONDON"
      }
    ]
  },
  {
    "postal": "N6A9V5",
    "result": []
  },
  {
    "postal": "N6A9T0",
    "result": []
  },
  {
    "postal": "N6A0A9",
    "result": []
  },
  {
    "postal": "N6A1M3",
    "result": []
  },
  {
    "postal": "N6A1W8",
    "result": [
      {
        "electoralDistricts": [
          {
            "election": null,
            "id": 54,
            "name": "London North Centre"
          }
        ],
        "pollDivisionIds": [
          10135374
        ],
        "postalCode": "N6A1W8",
        "streetName": "ST JAMES",
        "streetDirectionId": null,
        "streetTypeId": "ST",
        "placeName": "LONDON",
        "streetNameDisplayText": "ST JAMES ST, LONDON"
      }
    ]
  },
  {
    "postal": "N6A9J1",
    "result": []
  },
  {
    "postal": "N6A8N5",
    "result": []
  },
  {
    "postal": "N6A5X1",
    "result": []
  },
  {
    "postal": "N6A6S2",
    "result": []
  },
  {
    "postal": "N6A2A2",
    "result": [
      {
        "electoralDistricts": [
          {
            "election": null,
            "id": 54,
            "name": "London North Centre"
          }
        ],
        "pollDivisionIds": [
          10135366
        ],
        "postalCode": "N6A2A2",
        "streetName": "CHEAPSIDE",
        "streetDirectionId": null,
        "streetTypeId": "ST",
        "placeName": "LONDON",
        "streetNameDisplayText": "CHEAPSIDE ST, LONDON"
      }
    ]
  },
  {
    "postal": "N6A6A6",
    "result": []
  },
  {
    "postal": "N6A0S3",
    "result": []
  },
  {
    "postal": "N6A3E7",
    "result": []
  },
  {
    "postal": "N6A5R7",
    "result": [
      {
        "electoralDistricts": [
          {
            "election": null,
            "id": 54,
            "name": "London North Centre"
          }
        ],
        "pollDivisionIds": [
          10135388
        ],
        "postalCode": "N6A5R7",
        "streetName": "DUNDAS",
        "streetDirectionId": null,
        "streetTypeId": "ST",
        "placeName": "LONDON",
        "streetNameDisplayText": "DUNDAS ST, LONDON"
      }
    ]
  },
  {
    "postal": "N6A3R6",
    "result": [
      {
        "electoralDistricts": [
          {
            "election": null,
            "id": 54,
            "name": "London North Centre"
          }
        ],
        "pollDivisionIds": [
          10135388
        ],
        "postalCode": "N6A3R6",
        "streetName": "DUNDAS",
        "streetDirectionId": null,
        "streetTypeId": "ST",
        "placeName": "LONDON,ON",
        "streetNameDisplayText": "DUNDAS ST, LONDON,ON"
      },
      {
        "electoralDistricts": [
          {
            "election": null,
            "id": 54,
            "name": "London North Centre"
          }
        ],
        "pollDivisionIds": [
          10135380
        ],
        "postalCode": "N6A3R6",
        "streetName": "WELLINGTON",
        "streetDirectionId": null,
        "streetTypeId": "ST",
        "placeName": "LONDON",
        "streetNameDisplayText": "WELLINGTON ST, LONDON"
      }
    ]
  },
  {
    "postal": "N6A6K4",
    "result": [
      {
        "electoralDistricts": [
          {
            "election": null,
            "id": 54,
            "name": "London North Centre"
          }
        ],
        "pollDivisionIds": [
          10135379
        ],
        "postalCode": "N6A6K4",
        "streetName": "TALBOT",
        "streetDirectionId": null,
        "streetTypeId": "ST",
        "placeName": "LONDON",
        "streetNameDisplayText": "TALBOT ST, LONDON"
      }
    ]
  },
  {
    "postal": "N6A2W5",
    "result": [
      {
        "electoralDistricts": [
          {
            "election": null,
            "id": 54,
            "name": "London North Centre"
          }
        ],
        "pollDivisionIds": [
          10135359
        ],
        "postalCode": "N6A2W5",
        "streetName": "TALBOT",
        "streetDirectionId": null,
        "streetTypeId": "ST",
        "placeName": "LONDON",
        "streetNameDisplayText": "TALBOT ST, LONDON"
      }
    ]
  },
  {
    "postal": "N6A8W4",
    "result": []
  },
  {
    "postal": "N6A9C2",
    "result": []
  },
  {
    "postal": "N6A2C0",
    "result": []
  },
  {
    "postal": "N6A0E1",
    "result": [
      {
        "electoralDistricts": [
          {
            "election": null,
            "id": 54,
            "name": "London North Centre"
          }
        ],
        "pollDivisionIds": [
          10135385
        ],
        "postalCode": "N6A0E1",
        "streetName": "THAMES",
        "streetDirectionId": null,
        "streetTypeId": "ST",
        "placeName": "LONDON",
        "streetNameDisplayText": "THAMES ST, LONDON"
      }
    ]
  },
  {
    "postal": "N6A1K9",
    "result": []
  },
  {
    "postal": "N6A1G7",
    "result": [
      {
        "electoralDistricts": [
          {
            "election": null,
            "id": 54,
            "name": "London North Centre"
          }
        ],
        "pollDivisionIds": [
          10135385,
          10135388
        ],
        "postalCode": "N6A1G7",
        "streetName": "DUNDAS",
        "streetDirectionId": null,
        "streetTypeId": "ST",
        "placeName": "LONDON",
        "streetNameDisplayText": "DUNDAS ST, LONDON"
      }
    ]
  },
  {
    "postal": "N6A4E9",
    "result": []
  },
  {
    "postal": "N6A9P0",
    "result": []
  },
  {
    "postal": "N6A5H3",
    "result": [
      {
        "electoralDistricts": [
          {
            "election": null,
            "id": 54,
            "name": "London North Centre"
          }
        ],
        "pollDivisionIds": [
          10135385
        ],
        "postalCode": "N6A5H3",
        "streetName": "KING",
        "streetDirectionId": null,
        "streetTypeId": "ST",
        "placeName": "LONDON",
        "streetNameDisplayText": "KING ST, LONDON"
      }
    ]
  },
  {
    "postal": "N6A9X6",
    "result": []
  },
  {
    "postal": "N6A5N7",
    "result": [
      {
        "electoralDistricts": [
          {
            "election": null,
            "id": 54,
            "name": "London North Centre"
          }
        ],
        "pollDivisionIds": [
          10135404
        ],
        "postalCode": "N6A5N7",
        "streetName": "KENT",
        "streetDirectionId": null,
        "streetTypeId": "ST",
        "placeName": "LONDON",
        "streetNameDisplayText": "KENT ST, LONDON"
      }
    ]
  },
  {
    "postal": "N6A5A6",
    "result": []
  },
  {
    "postal": "N6A4M0",
    "result": []
  },
  {
    "postal": "N6A3V6",
    "result": [
      {
        "electoralDistricts": [
          {
            "election": null,
            "id": 54,
            "name": "London North Centre"
          }
        ],
        "pollDivisionIds": [
          10135359
        ],
        "postalCode": "N6A3V6",
        "streetName": "PATRICIA",
        "streetDirectionId": null,
        "streetTypeId": "ST",
        "placeName": "LONDON",
        "streetNameDisplayText": "PATRICIA ST, LONDON"
      }
    ]
  },
  {
    "postal": "N6A1L7",
    "result": [
      {
        "electoralDistricts": [
          {
            "election": null,
            "id": 54,
            "name": "London North Centre"
          }
        ],
        "pollDivisionIds": [
          10135379
        ],
        "postalCode": "N6A1L7",
        "streetName": "ALBERT",
        "streetDirectionId": null,
        "streetTypeId": "ST",
        "placeName": "LONDON",
        "streetNameDisplayText": "ALBERT ST, LONDON"
      }
    ]
  },
  {
    "postal": "N6A2P9",
    "result": [
      {
        "electoralDistricts": [
          {
            "election": null,
            "id": 54,
            "name": "London North Centre"
          }
        ],
        "pollDivisionIds": [
          10135379
        ],
        "postalCode": "N6A2P9",
        "streetName": "RIDOUT",
        "streetDirectionId": "N",
        "streetTypeId": "ST",
        "placeName": "LONDON",
        "streetNameDisplayText": "RIDOUT ST N, LONDON"
      }
    ]
  },
  {
    "postal": "N6A5T4",
    "result": []
  },
  {
    "postal": "N6A5Z1",
    "result": []
  },
  {
    "postal": "N6A2X0",
    "result": []
  },
  {
    "postal": "N6A6Z2",
    "result": []
  },
  {
    "postal": "N6A0E0",
    "result": []
  },
  {
    "postal": "N6A3Z5",
    "result": [
      {
        "electoralDistricts": [
          {
            "election": null,
            "id": 54,
            "name": "London North Centre"
          }
        ],
        "pollDivisionIds": [
          10135375
        ],
        "postalCode": "N6A3Z5",
        "streetName": "COLBORNE",
        "streetDirectionId": null,
        "streetTypeId": "ST",
        "placeName": "LONDON",
        "streetNameDisplayText": "COLBORNE ST, LONDON"
      }
    ]
  },
  {
    "postal": "N6A8H3",
    "result": []
  },
  {
    "postal": "N6A7S6",
    "result": []
  },
  {
    "postal": "N6A4C1",
    "result": []
  },
  {
    "postal": "N6A3K2",
    "result": [
      {
        "electoralDistricts": [
          {
            "election": null,
            "id": 54,
            "name": "London North Centre"
          }
        ],
        "pollDivisionIds": [
          10135359
        ],
        "postalCode": "N6A3K2",
        "streetName": "RICHMOND",
        "streetDirectionId": null,
        "streetTypeId": "ST",
        "placeName": "LONDON",
        "streetNameDisplayText": "RICHMOND ST, LONDON"
      }
    ]
  },
  {
    "postal": "N6A1Y5",
    "result": [
      {
        "electoralDistricts": [
          {
            "election": null,
            "id": 54,
            "name": "London North Centre"
          }
        ],
        "pollDivisionIds": [
          10135374
        ],
        "postalCode": "N6A1Y5",
        "streetName": "GROSVENOR",
        "streetDirectionId": null,
        "streetTypeId": "ST",
        "placeName": "LONDON",
        "streetNameDisplayText": "GROSVENOR ST, LONDON"
      }
    ]
  },
  {
    "postal": "N6A6P6",
    "result": []
  },
  {
    "postal": "N6A3N9",
    "result": []
  },
  {
    "postal": "N6A3W2",
    "result": [
      {
        "electoralDistricts": [
          {
            "election": null,
            "id": 54,
            "name": "London North Centre"
          }
        ],
        "pollDivisionIds": [
          10135379,
          10135417
        ],
        "postalCode": "N6A3W2",
        "streetName": "WATERLOO",
        "streetDirectionId": null,
        "streetTypeId": "ST",
        "placeName": "LONDON",
        "streetNameDisplayText": "WATERLOO ST, LONDON"
      }
    ]
  },
  {
    "postal": "N6A6H8",
    "result": []
  },
  {
    "postal": "N6A9T3",
    "result": []
  },
  {
    "postal": "N6A5L9",
    "result": [
      {
        "electoralDistricts": [
          {
            "election": null,
            "id": 54,
            "name": "London North Centre"
          }
        ],
        "pollDivisionIds": [
          10135402
        ],
        "postalCode": "N6A5L9",
        "streetName": "TALBOT",
        "streetDirectionId": null,
        "streetTypeId": "ST",
        "placeName": "LONDON",
        "streetNameDisplayText": "TALBOT ST, LONDON"
      }
    ]
  },
  {
    "postal": "N6A7X7",
    "result": []
  },
  {
    "postal": "N6A3J5",
    "result": [
      {
        "electoralDistricts": [
          {
            "election": null,
            "id": 54,
            "name": "London North Centre"
          }
        ],
        "pollDivisionIds": [
          10135374
        ],
        "postalCode": "N6A3J5",
        "streetName": "RICHMOND",
        "streetDirectionId": null,
        "streetTypeId": "ST",
        "placeName": "LONDON",
        "streetNameDisplayText": "RICHMOND ST, LONDON"
      }
    ]
  },
  {
    "postal": "N6A4J5",
    "result": []
  },
  {
    "postal": "N6A6J2",
    "result": []
  },
  {
    "postal": "N6A5V6",
    "result": []
  },
  {
    "postal": "N6A3N2",
    "result": [
      {
        "electoralDistricts": [
          {
            "election": null,
            "id": 54,
            "name": "London North Centre"
          }
        ],
        "pollDivisionIds": [
          10135374
        ],
        "postalCode": "N6A3N2",
        "streetName": "ALMA",
        "streetDirectionId": null,
        "streetTypeId": "ST",
        "placeName": "LONDON",
        "streetNameDisplayText": "ALMA ST, LONDON"
      }
    ]
  },
  {
    "postal": "N6A3B1",
    "result": [
      {
        "electoralDistricts": [
          {
            "election": null,
            "id": 54,
            "name": "London North Centre"
          }
        ],
        "pollDivisionIds": [
          10135374
        ],
        "postalCode": "N6A3B1",
        "streetName": "ST GEORGE",
        "streetDirectionId": null,
        "streetTypeId": "ST",
        "placeName": "LONDON",
        "streetNameDisplayText": "ST GEORGE ST, LONDON"
      }
    ]
  },
  {
    "postal": "N6A8B5",
    "result": []
  },
  {
    "postal": "N6A0K1",
    "result": []
  },
  {
    "postal": "N6A7M7",
    "result": []
  },
  {
    "postal": "N6A2M2",
    "result": [
      {
        "electoralDistricts": [
          {
            "election": null,
            "id": 54,
            "name": "London North Centre"
          }
        ],
        "pollDivisionIds": [
          10135359
        ],
        "postalCode": "N6A2M2",
        "streetName": "EPWORTH",
        "streetDirectionId": null,
        "streetTypeId": "AVE",
        "placeName": "LONDON",
        "streetNameDisplayText": "EPWORTH AVE, LONDON"
      }
    ]
  },
  {
    "postal": "N6A9N3",
    "result": []
  },
  {
    "postal": "N6A4Y8",
    "result": []
  },
  {
    "postal": "N6A3V7",
    "result": [
      {
        "electoralDistricts": [
          {
            "election": null,
            "id": 54,
            "name": "London North Centre"
          }
        ],
        "pollDivisionIds": [
          10135359
        ],
        "postalCode": "N6A3V7",
        "streetName": "MEADOWDOWN",
        "streetDirectionId": null,
        "streetTypeId": "DR",
        "placeName": "LONDON",
        "streetNameDisplayText": "MEADOWDOWN DR, LONDON"
      }
    ]
  },
  {
    "postal": "N6A8Z1",
    "result": []
  },
  {
    "postal": "N6A7B3",
    "result": []
  },
  {
    "postal": "N6A3A8",
    "result": [
      {
        "electoralDistricts": [
          {
            "election": null,
            "id": 54,
            "name": "London North Centre"
          }
        ],
        "pollDivisionIds": [
          10135374
        ],
        "postalCode": "N6A3A8",
        "streetName": "ST GEORGE",
        "streetDirectionId": null,
        "streetTypeId": "ST",
        "placeName": "LONDON",
        "streetNameDisplayText": "ST GEORGE ST, LONDON"
      }
    ]
  },
  {
    "postal": "N6A7V5",
    "result": []
  },
  {
    "postal": "N6A2T2",
    "result": [
      {
        "electoralDistricts": [
          {
            "election": null,
            "id": 54,
            "name": "London North Centre"
          }
        ],
        "pollDivisionIds": [
          10135359,
          10135379
        ],
        "postalCode": "N6A2T2",
        "streetName": "TALBOT",
        "streetDirectionId": null,
        "streetTypeId": "ST",
        "placeName": "LONDON",
        "streetNameDisplayText": "TALBOT ST, LONDON"
      }
    ]
  },
  {
    "postal": "N6A6L3",
    "result": []
  },
  {
    "postal": "N6A0L2",
    "result": []
  },
  {
    "postal": "N6A5Y8",
    "result": []
  },
  {
    "postal": "N6A0B8",
    "result": [
      {
        "electoralDistricts": [
          {
            "election": null,
            "id": 54,
            "name": "London North Centre"
          }
        ],
        "pollDivisionIds": [
          10135386
        ],
        "postalCode": "N6A0B8",
        "streetName": "CLARENCE",
        "streetDirectionId": null,
        "streetTypeId": "ST",
        "placeName": "LONDON",
        "streetNameDisplayText": "CLARENCE ST, LONDON"
      }
    ]
  },
  {
    "postal": "N6A6R5",
    "result": []
  },
  {
    "postal": "N6A8W6",
    "result": []
  },
  {
    "postal": "N6A8G6",
    "result": []
  },
  {
    "postal": "N6A6X3",
    "result": []
  },
  {
    "postal": "N6A7R7",
    "result": []
  },
  {
    "postal": "N6A4B6",
    "result": []
  },
  {
    "postal": "N6A3P9",
    "result": [
      {
        "electoralDistricts": [
          {
            "election": null,
            "id": 54,
            "name": "London North Centre"
          }
        ],
        "pollDivisionIds": [
          10135386
        ],
        "postalCode": "N6A3P9",
        "streetName": "WELLINGTON",
        "streetDirectionId": null,
        "streetTypeId": "ST",
        "placeName": "LONDON",
        "streetNameDisplayText": "WELLINGTON ST, LONDON"
      }
    ]
  },
  {
    "postal": "N6A2T3",
    "result": [
      {
        "electoralDistricts": [
          {
            "election": null,
            "id": 54,
            "name": "London North Centre"
          }
        ],
        "pollDivisionIds": [
          10135379
        ],
        "postalCode": "N6A2T3",
        "streetName": "TALBOT",
        "streetDirectionId": null,
        "streetTypeId": "ST",
        "placeName": "LONDON",
        "streetNameDisplayText": "TALBOT ST, LONDON"
      }
    ]
  },
  {
    "postal": "N6A1M4",
    "result": [
      {
        "electoralDistricts": [
          {
            "election": null,
            "id": 54,
            "name": "London North Centre"
          }
        ],
        "pollDivisionIds": [
          10135379
        ],
        "postalCode": "N6A1M4",
        "streetName": "CENTRAL",
        "streetDirectionId": null,
        "streetTypeId": "AVE",
        "placeName": "LONDON",
        "streetNameDisplayText": "CENTRAL AVE, LONDON"
      }
    ]
  },
  {
    "postal": "N6A0H1",
    "result": []
  },
  {
    "postal": "N6A9W3",
    "result": []
  },
  {
    "postal": "N6A6P1",
    "result": []
  },
  {
    "postal": "N6A7G2",
    "result": []
  },
  {
    "postal": "N6A4J9",
    "result": []
  },
  {
    "postal": "N6A9E4",
    "result": []
  },
  {
    "postal": "N6A8H0",
    "result": []
  },
  {
    "postal": "N6A4M7",
    "result": []
  },
  {
    "postal": "N6A2G9",
    "result": [
      {
        "electoralDistricts": [
          {
            "election": null,
            "id": 54,
            "name": "London North Centre"
          }
        ],
        "pollDivisionIds": [
          10135366
        ],
        "postalCode": "N6A2G9",
        "streetName": "REGENT",
        "streetDirectionId": null,
        "streetTypeId": "ST",
        "placeName": "LONDON",
        "streetNameDisplayText": "REGENT ST, LONDON"
      }
    ]
  },
  {
    "postal": "N6A8T2",
    "result": []
  },
  {
    "postal": "N6A7G7",
    "result": []
  },
  {
    "postal": "N6A4Z3",
    "result": []
  },
  {
    "postal": "N6A5B3",
    "result": []
  },
  {
    "postal": "N6A1S7",
    "result": [
      {
        "electoralDistricts": [
          {
            "election": null,
            "id": 54,
            "name": "London North Centre"
          }
        ],
        "pollDivisionIds": [
          10135375,
          10135379
        ],
        "postalCode": "N6A1S7",
        "streetName": "PICCADILLY",
        "streetDirectionId": null,
        "streetTypeId": "ST",
        "placeName": "LONDON",
        "streetNameDisplayText": "PICCADILLY ST, LONDON"
      },
      {
        "electoralDistricts": [
          {
            "election": null,
            "id": 54,
            "name": "London North Centre"
          }
        ],
        "pollDivisionIds": [
          10135359
        ],
        "postalCode": "N6A1S7",
        "streetName": "UNIVERSITY",
        "streetDirectionId": null,
        "streetTypeId": "DR",
        "placeName": "LONDON",
        "streetNameDisplayText": "UNIVERSITY DR, LONDON"
      }
    ]
  },
  {
    "postal": "N6A2N7",
    "result": []
  },
  {
    "postal": "N6A0H8",
    "result": []
  },
  {
    "postal": "N6A7Z4",
    "result": []
  },
  {
    "postal": "N6A7B1",
    "result": []
  },
  {
    "postal": "N6A7P8",
    "result": []
  },
  {
    "postal": "N6A7N0",
    "result": []
  },
  {
    "postal": "N6A3Y5",
    "result": [
      {
        "electoralDistricts": [
          {
            "election": null,
            "id": 54,
            "name": "London North Centre"
          }
        ],
        "pollDivisionIds": [
          10135366
        ],
        "postalCode": "N6A3Y5",
        "streetName": "WILLINGDON",
        "streetDirectionId": null,
        "streetTypeId": "AVE",
        "placeName": "LONDON",
        "streetNameDisplayText": "WILLINGDON AVE, LONDON"
      }
    ]
  },
  {
    "postal": "N6A6K1",
    "result": [
      {
        "electoralDistricts": [
          {
            "election": null,
            "id": 54,
            "name": "London North Centre"
          }
        ],
        "pollDivisionIds": [
          10135388,
          10135385
        ],
        "postalCode": "N6A6K1",
        "streetName": "DUNDAS",
        "streetDirectionId": null,
        "streetTypeId": "ST",
        "placeName": "LONDON",
        "streetNameDisplayText": "DUNDAS ST, LONDON"
      }
    ]
  },
  {
    "postal": "N6A9X5",
    "result": []
  },
  {
    "postal": "N6A7S5",
    "result": []
  },
  {
    "postal": "N6A0A4",
    "result": [
      {
        "electoralDistricts": [
          {
            "election": null,
            "id": 54,
            "name": "London North Centre"
          }
        ],
        "pollDivisionIds": [
          10135386
        ],
        "postalCode": "N6A0A4",
        "streetName": "FULLARTON",
        "streetDirectionId": null,
        "streetTypeId": "ST",
        "placeName": "LONDON",
        "streetNameDisplayText": "FULLARTON ST, LONDON"
      }
    ]
  },
  {
    "postal": "N6A4T5",
    "result": []
  },
  {
    "postal": "N6A5K1",
    "result": []
  },
  {
    "postal": "N6A0Z9",
    "result": []
  },
  {
    "postal": "N6A7T2",
    "result": []
  },
  {
    "postal": "N6A1L5",
    "result": [
      {
        "electoralDistricts": [
          {
            "election": null,
            "id": 54,
            "name": "London North Centre"
          }
        ],
        "pollDivisionIds": [
          10135379,
          10135404
        ],
        "postalCode": "N6A1L5",
        "streetName": "KENT",
        "streetDirectionId": null,
        "streetTypeId": "ST",
        "placeName": "LONDON",
        "streetNameDisplayText": "KENT ST, LONDON"
      }
    ]
  },
  {
    "postal": "N6A3N5",
    "result": [
      {
        "electoralDistricts": [
          {
            "election": null,
            "id": 54,
            "name": "London North Centre"
          }
        ],
        "pollDivisionIds": [
          10135359
        ],
        "postalCode": "N6A3N5",
        "streetName": "BROUGH",
        "streetDirectionId": null,
        "streetTypeId": "ST",
        "placeName": "LONDON",
        "streetNameDisplayText": "BROUGH ST, LONDON"
      }
    ]
  },
  {
    "postal": "N6A6H4",
    "result": []
  },
  {
    "postal": "N6A5A5",
    "result": [
      {
        "electoralDistricts": [
          {
            "election": null,
            "id": 54,
            "name": "London North Centre"
          }
        ],
        "pollDivisionIds": [
          10135359
        ],
        "postalCode": "N6A5A5",
        "streetName": "WINDERMERE",
        "streetDirectionId": null,
        "streetTypeId": "RD",
        "placeName": "LONDON",
        "streetNameDisplayText": "WINDERMERE RD, LONDON"
      }
    ]
  },
  {
    "postal": "N6A3R9",
    "result": [
      {
        "electoralDistricts": [
          {
            "election": null,
            "id": 54,
            "name": "London North Centre"
          }
        ],
        "pollDivisionIds": [
          10135379
        ],
        "postalCode": "N6A3R9",
        "streetName": "WELLINGTON",
        "streetDirectionId": null,
        "streetTypeId": "ST",
        "placeName": "LONDON",
        "streetNameDisplayText": "WELLINGTON ST, LONDON"
      }
    ]
  },
  {
    "postal": "N6A7L8",
    "result": []
  },
  {
    "postal": "N6A6T6",
    "result": []
  },
  {
    "postal": "N6A7Y7",
    "result": []
  },
  {
    "postal": "N6A3M8",
    "result": [
      {
        "electoralDistricts": [
          {
            "election": null,
            "id": 54,
            "name": "London North Centre"
          }
        ],
        "pollDivisionIds": [
          10135388
        ],
        "postalCode": "N6A3M8",
        "streetName": "CLARENCE",
        "streetDirectionId": null,
        "streetTypeId": "ST",
        "placeName": "LONDON",
        "streetNameDisplayText": "CLARENCE ST, LONDON"
      }
    ]
  },
  {
    "postal": "N6A2E0",
    "result": []
  },
  {
    "postal": "N6A4B5",
    "result": []
  },
  {
    "postal": "N6A1J3",
    "result": [
      {
        "electoralDistricts": [
          {
            "election": null,
            "id": 54,
            "name": "London North Centre"
          }
        ],
        "pollDivisionIds": [
          10135386
        ],
        "postalCode": "N6A1J3",
        "streetName": "QUEENS",
        "streetDirectionId": null,
        "streetTypeId": "AVE",
        "placeName": "LONDON",
        "streetNameDisplayText": "QUEENS AVE, LONDON"
      }
    ]
  },
  {
    "postal": "N6A5S6",
    "result": []
  },
  {
    "postal": "N6A8P7",
    "result": []
  },
  {
    "postal": "N6A7S7",
    "result": []
  },
  {
    "postal": "N6A4C2",
    "result": []
  },
  {
    "postal": "N6A5Y0",
    "result": []
  },
  {
    "postal": "N6A2V7",
    "result": [
      {
        "electoralDistricts": [
          {
            "election": null,
            "id": 54,
            "name": "London North Centre"
          }
        ],
        "pollDivisionIds": [
          10135374
        ],
        "postalCode": "N6A2V7",
        "streetName": "TALBOT",
        "streetDirectionId": null,
        "streetTypeId": "ST",
        "placeName": "LONDON",
        "streetNameDisplayText": "TALBOT ST, LONDON"
      }
    ]
  },
  {
    "postal": "N6A8P5",
    "result": []
  },
  {
    "postal": "N6A5P5",
    "result": []
  },
  {
    "postal": "N6A5Z0",
    "result": []
  },
  {
    "postal": "N6A9B0",
    "result": []
  },
  {
    "postal": "N6A1L0",
    "result": []
  },
  {
    "postal": "N6A0B5",
    "result": []
  },
  {
    "postal": "N6A3L2",
    "result": [
      {
        "electoralDistricts": [
          {
            "election": null,
            "id": 54,
            "name": "London North Centre"
          }
        ],
        "pollDivisionIds": [
          10135359
        ],
        "postalCode": "N6A3L2",
        "streetName": "RICHMOND",
        "streetDirectionId": null,
        "streetTypeId": "ST",
        "placeName": "LONDON",
        "streetNameDisplayText": "RICHMOND ST, LONDON"
      }
    ]
  },
  {
    "postal": "N6A3B7",
    "result": [
      {
        "electoralDistricts": [
          {
            "election": null,
            "id": 54,
            "name": "London North Centre"
          }
        ],
        "pollDivisionIds": [
          10135366
        ],
        "postalCode": "N6A3B7",
        "streetName": "ST GEORGE",
        "streetDirectionId": null,
        "streetTypeId": "ST",
        "placeName": "LONDON",
        "streetNameDisplayText": "ST GEORGE ST, LONDON"
      }
    ]
  },
  {
    "postal": "N6A8L1",
    "result": []
  },
  {
    "postal": "N6A5M4",
    "result": []
  },
  {
    "postal": "N6A4G9",
    "result": []
  },
  {
    "postal": "N6A0P0",
    "result": []
  },
  {
    "postal": "N6A8G2",
    "result": []
  },
  {
    "postal": "N6A1V9",
    "result": [
      {
        "electoralDistricts": [
          {
            "election": null,
            "id": 54,
            "name": "London North Centre"
          }
        ],
        "pollDivisionIds": [
          10135374
        ],
        "postalCode": "N6A1V9",
        "streetName": "SYDENHAM",
        "streetDirectionId": null,
        "streetTypeId": "ST",
        "placeName": "LONDON",
        "streetNameDisplayText": "SYDENHAM ST, LONDON"
      }
    ]
  },
  {
    "postal": "N6A8N8",
    "result": []
  },
  {
    "postal": "N6A6S8",
    "result": []
  },
  {
    "postal": "N6A8H2",
    "result": []
  },
  {
    "postal": "N6A5R8",
    "result": [
      {
        "electoralDistricts": [
          {
            "election": null,
            "id": 54,
            "name": "London North Centre"
          }
        ],
        "pollDivisionIds": [
          10135388
        ],
        "postalCode": "N6A5R8",
        "streetName": "QUEENS",
        "streetDirectionId": null,
        "streetTypeId": "AVE",
        "placeName": "LONDON",
        "streetNameDisplayText": "QUEENS AVE, LONDON"
      }
    ]
  },
  {
    "postal": "N6A5L4",
    "result": [
      {
        "electoralDistricts": [
          {
            "election": null,
            "id": 54,
            "name": "London North Centre"
          }
        ],
        "pollDivisionIds": [
          10135385
        ],
        "postalCode": "N6A5L4",
        "streetName": "RIDOUT",
        "streetDirectionId": "N",
        "streetTypeId": "ST",
        "placeName": "LONDON",
        "streetNameDisplayText": "RIDOUT ST N, LONDON"
      }
    ]
  },
  {
    "postal": "N6A9E1",
    "result": []
  },
  {
    "postal": "N6A1C4",
    "result": []
  },
  {
    "postal": "N6A8W5",
    "result": []
  },
  {
    "postal": "N6A1Y4",
    "result": [
      {
        "electoralDistricts": [
          {
            "election": null,
            "id": 54,
            "name": "London North Centre"
          }
        ],
        "pollDivisionIds": [
          10135374
        ],
        "postalCode": "N6A1Y4",
        "streetName": "GROSVENOR",
        "streetDirectionId": null,
        "streetTypeId": "ST",
        "placeName": "LONDON",
        "streetNameDisplayText": "GROSVENOR ST, LONDON"
      }
    ]
  },
  {
    "postal": "N6A1C0",
    "result": []
  },
  {
    "postal": "N6A2J2",
    "result": [
      {
        "electoralDistricts": [
          {
            "election": null,
            "id": 54,
            "name": "London North Centre"
          }
        ],
        "pollDivisionIds": [
          10135359
        ],
        "postalCode": "N6A2J2",
        "streetName": "HURON",
        "streetDirectionId": null,
        "streetTypeId": "ST",
        "placeName": "LONDON",
        "streetNameDisplayText": "HURON ST, LONDON"
      }
    ]
  },
  {
    "postal": "N6A2J0",
    "result": []
  },
  {
    "postal": "N6A7A3",
    "result": []
  },
  {
    "postal": "N6A8M1",
    "result": []
  },
  {
    "postal": "N6A7T9",
    "result": []
  },
  {
    "postal": "N6A6C0",
    "result": []
  },
  {
    "postal": "N6A7X1",
    "result": []
  },
  {
    "postal": "N6A0G1",
    "result": []
  },
  {
    "postal": "N6A4X2",
    "result": []
  },
  {
    "postal": "N6A0N6",
    "result": []
  },
  {
    "postal": "N6A8E3",
    "result": []
  },
  {
    "postal": "N6A5S8",
    "result": []
  },
  {
    "postal": "N6A0R0",
    "result": []
  },
  {
    "postal": "N6A6J6",
    "result": []
  },
  {
    "postal": "N6A4B4",
    "result": [
      {
        "electoralDistricts": [
          {
            "election": null,
            "id": 54,
            "name": "London North Centre"
          }
        ],
        "pollDivisionIds": [
          10135359
        ],
        "postalCode": "N6A4B4",
        "streetName": "COLBORNE",
        "streetDirectionId": null,
        "streetTypeId": "ST",
        "placeName": "LONDON",
        "streetNameDisplayText": "COLBORNE ST, LONDON"
      }
    ]
  },
  {
    "postal": "N6A7E3",
    "result": []
  },
  {
    "postal": "N6A3N6",
    "result": [
      {
        "electoralDistricts": [
          {
            "election": null,
            "id": 54,
            "name": "London North Centre"
          }
        ],
        "pollDivisionIds": [
          10135359
        ],
        "postalCode": "N6A3N6",
        "streetName": "BROUGH",
        "streetDirectionId": null,
        "streetTypeId": "ST",
        "placeName": "LONDON",
        "streetNameDisplayText": "BROUGH ST, LONDON"
      }
    ]
  },
  {
    "postal": "N6A3X6",
    "result": [
      {
        "electoralDistricts": [
          {
            "election": null,
            "id": 54,
            "name": "London North Centre"
          }
        ],
        "pollDivisionIds": [
          10135359
        ],
        "postalCode": "N6A3X6",
        "streetName": "WATERLOO",
        "streetDirectionId": null,
        "streetTypeId": "ST",
        "placeName": "LONDON",
        "streetNameDisplayText": "WATERLOO ST, LONDON"
      }
    ]
  },
  {
    "postal": "N6A8L0",
    "result": []
  },
  {
    "postal": "N6A8N1",
    "result": []
  },
  {
    "postal": "N6A4J0",
    "result": []
  },
  {
    "postal": "N6A0X7",
    "result": []
  },
  {
    "postal": "N6A6S4",
    "result": []
  },
  {
    "postal": "N6A0Z0",
    "result": []
  },
  {
    "postal": "N6A9X8",
    "result": []
  },
  {
    "postal": "N6A3H3",
    "result": [
      {
        "electoralDistricts": [
          {
            "election": null,
            "id": 54,
            "name": "London North Centre"
          }
        ],
        "pollDivisionIds": [
          10135379
        ],
        "postalCode": "N6A3H3",
        "streetName": "RICHMOND",
        "streetDirectionId": null,
        "streetTypeId": "ST",
        "placeName": "LONDON",
        "streetNameDisplayText": "RICHMOND ST, LONDON"
      }
    ]
  },
  {
    "postal": "N6A7S2",
    "result": []
  },
  {
    "postal": "N6A3T3",
    "result": [
      {
        "electoralDistricts": [
          {
            "election": null,
            "id": 54,
            "name": "London North Centre"
          }
        ],
        "pollDivisionIds": [
          10135366
        ],
        "postalCode": "N6A3T3",
        "streetName": "WELLINGTON",
        "streetDirectionId": null,
        "streetTypeId": "ST",
        "placeName": "LONDON",
        "streetNameDisplayText": "WELLINGTON ST, LONDON"
      }
    ]
  },
  {
    "postal": "N6A9P3",
    "result": []
  },
  {
    "postal": "N6A4H8",
    "result": []
  },
  {
    "postal": "N6A6R1",
    "result": []
  },
  {
    "postal": "N6A1S0",
    "result": []
  },
  {
    "postal": "N6A3W8",
    "result": [
      {
        "electoralDistricts": [
          {
            "election": null,
            "id": 54,
            "name": "London North Centre"
          }
        ],
        "pollDivisionIds": [
          10135366
        ],
        "postalCode": "N6A3W8",
        "streetName": "WATERLOO",
        "streetDirectionId": null,
        "streetTypeId": "ST",
        "placeName": "LONDON",
        "streetNameDisplayText": "WATERLOO ST, LONDON"
      }
    ]
  },
  {
    "postal": "N6A4S3",
    "result": []
  },
  {
    "postal": "N6A1B6",
    "result": []
  },
  {
    "postal": "N6A8R3",
    "result": []
  },
  {
    "postal": "N6A4V9",
    "result": []
  },
  {
    "postal": "N6A9W4",
    "result": []
  },
  {
    "postal": "N6A3T4",
    "result": [
      {
        "electoralDistricts": [
          {
            "election": null,
            "id": 54,
            "name": "London North Centre"
          }
        ],
        "pollDivisionIds": [
          10135359
        ],
        "postalCode": "N6A3T4",
        "streetName": "WELLINGTON",
        "streetDirectionId": null,
        "streetTypeId": "ST",
        "placeName": "LONDON",
        "streetNameDisplayText": "WELLINGTON ST, LONDON"
      }
    ]
  },
  {
    "postal": "N6A5C7",
    "result": [
      {
        "electoralDistricts": [
          {
            "election": null,
            "id": 54,
            "name": "London North Centre"
          }
        ],
        "pollDivisionIds": [
          10135379
        ],
        "postalCode": "N6A5C7",
        "streetName": "RICHMOND",
        "streetDirectionId": null,
        "streetTypeId": "ST",
        "placeName": "LONDON",
        "streetNameDisplayText": "RICHMOND ST, LONDON"
      }
    ]
  },
  {
    "postal": "N6A3Y1",
    "result": [
      {
        "electoralDistricts": [
          {
            "election": null,
            "id": 54,
            "name": "London North Centre"
          }
        ],
        "pollDivisionIds": [
          10135359
        ],
        "postalCode": "N6A3Y1",
        "streetName": "WATERLOO",
        "streetDirectionId": null,
        "streetTypeId": "ST",
        "placeName": "LONDON",
        "streetNameDisplayText": "WATERLOO ST, LONDON"
      }
    ]
  },
  {
    "postal": "N6A5V0",
    "result": []
  },
  {
    "postal": "N6A8G8",
    "result": []
  },
  {
    "postal": "N6A8B1",
    "result": []
  },
  {
    "postal": "N6A4P5",
    "result": []
  },
  {
    "postal": "N6A7B2",
    "result": []
  },
  {
    "postal": "N6A0R2",
    "result": []
  },
  {
    "postal": "N6A4M4",
    "result": []
  },
  {
    "postal": "N6A7M4",
    "result": []
  },
  {
    "postal": "N6A9S7",
    "result": []
  },
  {
    "postal": "N6A5Z7",
    "result": []
  },
  {
    "postal": "N6A7J7",
    "result": []
  },
  {
    "postal": "N6A8R8",
    "result": []
  },
  {
    "postal": "N6A9X1",
    "result": []
  },
  {
    "postal": "N6A5M9",
    "result": []
  },
  {
    "postal": "N6A9B4",
    "result": []
  },
  {
    "postal": "N6A0L9",
    "result": []
  },
  {
    "postal": "N6A9G4",
    "result": []
  },
  {
    "postal": "N6A1J4",
    "result": []
  },
  {
    "postal": "N6A0W6",
    "result": []
  }
]
