[
  {
    "postal": "N7M9J6",
    "result": []
  },
  {
    "postal": "N7M9Z5",
    "result": []
  },
  {
    "postal": "N7M7H8",
    "result": []
  },
  {
    "postal": "N7M0P6",
    "result": [
      {
        "electoralDistricts": [
          {
            "election": null,
            "id": 18,
            "name": "Chatham-Kent—Leamington"
          }
        ],
        "pollDivisionIds": [
          10137548,
          10137547
        ],
        "postalCode": "N7M0P6",
        "streetName": "INDIAN CREEK",
        "streetDirectionId": "W",
        "streetTypeId": "RD",
        "placeName": "CHATHAM",
        "streetNameDisplayText": "INDIAN CREEK RD W, CHATHAM"
      }
    ]
  },
  {
    "postal": "N7M0S7",
    "result": []
  },
  {
    "postal": "N7M8B9",
    "result": []
  },
  {
    "postal": "N7M2A6",
    "result": [
      {
        "electoralDistricts": [
          {
            "election": null,
            "id": 18,
            "name": "Chatham-Kent—Leamington"
          }
        ],
        "pollDivisionIds": [
          10137548
        ],
        "postalCode": "N7M2A6",
        "streetName": "TWEEDSMUIR",
        "streetDirectionId": "W",
        "streetTypeId": "AVE",
        "placeName": "CHATHAM",
        "streetNameDisplayText": "TWEEDSMUIR AVE W, CHATHAM"
      }
    ]
  },
  {
    "postal": "N7M7V2",
    "result": []
  },
  {
    "postal": "N7M9P4",
    "result": []
  },
  {
    "postal": "N7M6G0",
    "result": []
  },
  {
    "postal": "N7M2K0",
    "result": []
  },
  {
    "postal": "N7M7N6",
    "result": []
  },
  {
    "postal": "N7M5R3",
    "result": [
      {
        "electoralDistricts": [
          {
            "election": null,
            "id": 18,
            "name": "Chatham-Kent—Leamington"
          }
        ],
        "pollDivisionIds": [
          10137547
        ],
        "postalCode": "N7M5R3",
        "streetName": "GOLDMERE",
        "streetDirectionId": null,
        "streetTypeId": "DR",
        "placeName": "CHATHAM",
        "streetNameDisplayText": "GOLDMERE DR, CHATHAM"
      }
    ]
  },
  {
    "postal": "N7M7K0",
    "result": []
  },
  {
    "postal": "N7M3R2",
    "result": [
      {
        "electoralDistricts": [
          {
            "election": null,
            "id": 18,
            "name": "Chatham-Kent—Leamington"
          }
        ],
        "pollDivisionIds": [
          10137545
        ],
        "postalCode": "N7M3R2",
        "streetName": "PARK",
        "streetDirectionId": null,
        "streetTypeId": "ST",
        "placeName": "CHATHAM",
        "streetNameDisplayText": "PARK ST, CHATHAM"
      }
    ]
  },
  {
    "postal": "N7M0J1",
    "result": []
  },
  {
    "postal": "N7M0B0",
    "result": []
  },
  {
    "postal": "N7M5Z2",
    "result": [
      {
        "electoralDistricts": [
          {
            "election": null,
            "id": 18,
            "name": "Chatham-Kent—Leamington"
          }
        ],
        "pollDivisionIds": [
          10137544
        ],
        "postalCode": "N7M5Z2",
        "streetName": "EARL",
        "streetDirectionId": null,
        "streetTypeId": "DR",
        "placeName": "CHATHAM",
        "streetNameDisplayText": "EARL DR, CHATHAM"
      }
    ]
  },
  {
    "postal": "N7M7P3",
    "result": []
  },
  {
    "postal": "N7M2K3",
    "result": [
      {
        "electoralDistricts": [
          {
            "election": null,
            "id": 18,
            "name": "Chatham-Kent—Leamington"
          }
        ],
        "pollDivisionIds": [
          10137550
        ],
        "postalCode": "N7M2K3",
        "streetName": "QUEEN",
        "streetDirectionId": null,
        "streetTypeId": "ST",
        "placeName": "CHATHAM",
        "streetNameDisplayText": "QUEEN ST, CHATHAM"
      }
    ]
  },
  {
    "postal": "N7M7Y6",
    "result": []
  },
  {
    "postal": "N7M1L9",
    "result": [
      {
        "electoralDistricts": [
          {
            "election": null,
            "id": 18,
            "name": "Chatham-Kent—Leamington"
          }
        ],
        "pollDivisionIds": [
          10137546
        ],
        "postalCode": "N7M1L9",
        "streetName": "HARVEY",
        "streetDirectionId": null,
        "streetTypeId": "ST",
        "placeName": "CHATHAM",
        "streetNameDisplayText": "HARVEY ST, CHATHAM"
      }
    ]
  },
  {
    "postal": "N7M8T0",
    "result": []
  },
  {
    "postal": "N7M3K8",
    "result": [
      {
        "electoralDistricts": [
          {
            "election": null,
            "id": 18,
            "name": "Chatham-Kent—Leamington"
          }
        ],
        "pollDivisionIds": [
          10137546
        ],
        "postalCode": "N7M3K8",
        "streetName": "MURRAY",
        "streetDirectionId": null,
        "streetTypeId": "ST",
        "placeName": "CHATHAM",
        "streetNameDisplayText": "MURRAY ST, CHATHAM"
      }
    ]
  },
  {
    "postal": "N7M5W9",
    "result": [
      {
        "electoralDistricts": [
          {
            "election": null,
            "id": 18,
            "name": "Chatham-Kent—Leamington"
          }
        ],
        "pollDivisionIds": [
          10137548
        ],
        "postalCode": "N7M5W9",
        "streetName": "CECILE",
        "streetDirectionId": null,
        "streetTypeId": "AVE",
        "placeName": "CHATHAM",
        "streetNameDisplayText": "CECILE AVE, CHATHAM"
      }
    ]
  },
  {
    "postal": "N7M6T9",
    "result": []
  },
  {
    "postal": "N7M4H1",
    "result": [
      {
        "electoralDistricts": [
          {
            "election": null,
            "id": 18,
            "name": "Chatham-Kent—Leamington"
          }
        ],
        "pollDivisionIds": [
          10137553
        ],
        "postalCode": "N7M4H1",
        "streetName": "INDIAN CREEK",
        "streetDirectionId": "E",
        "streetTypeId": "RD",
        "placeName": "CHATHAM",
        "streetNameDisplayText": "INDIAN CREEK RD E, CHATHAM"
      }
    ]
  },
  {
    "postal": "N7M7A2",
    "result": []
  },
  {
    "postal": "N7M5G0",
    "result": []
  },
  {
    "postal": "N7M8V5",
    "result": []
  },
  {
    "postal": "N7M2Y8",
    "result": [
      {
        "electoralDistricts": [
          {
            "election": null,
            "id": 18,
            "name": "Chatham-Kent—Leamington"
          }
        ],
        "pollDivisionIds": [
          10137544
        ],
        "postalCode": "N7M2Y8",
        "streetName": "INSHES",
        "streetDirectionId": null,
        "streetTypeId": "AVE",
        "placeName": "CHATHAM",
        "streetNameDisplayText": "INSHES AVE, CHATHAM"
      },
      {
        "electoralDistricts": [
          {
            "election": null,
            "id": 18,
            "name": "Chatham-Kent—Leamington"
          }
        ],
        "pollDivisionIds": [
          10137544
        ],
        "postalCode": "N7M2Y8",
        "streetName": "INSHES",
        "streetDirectionId": null,
        "streetTypeId": "AVE",
        "placeName": "CHATHAM-KENT",
        "streetNameDisplayText": "INSHES AVE, CHATHAM-KENT"
      }
    ]
  },
  {
    "postal": "N7M2B6",
    "result": [
      {
        "electoralDistricts": [
          {
            "election": null,
            "id": 18,
            "name": "Chatham-Kent—Leamington"
          }
        ],
        "pollDivisionIds": [
          10137548
        ],
        "postalCode": "N7M2B6",
        "streetName": "CHIPPEWA",
        "streetDirectionId": null,
        "streetTypeId": "DR",
        "placeName": "CHATHAM",
        "streetNameDisplayText": "CHIPPEWA DR, CHATHAM"
      }
    ]
  },
  {
    "postal": "N7M4W8",
    "result": [
      {
        "electoralDistricts": [
          {
            "election": null,
            "id": 18,
            "name": "Chatham-Kent—Leamington"
          }
        ],
        "pollDivisionIds": [
          10137545
        ],
        "postalCode": "N7M4W8",
        "streetName": "COLLEGE",
        "streetDirectionId": null,
        "streetTypeId": "ST",
        "placeName": "CHATHAM",
        "streetNameDisplayText": "COLLEGE ST, CHATHAM"
      }
    ]
  },
  {
    "postal": "N7M8H7",
    "result": []
  },
  {
    "postal": "N7M5P1",
    "result": [
      {
        "electoralDistricts": [
          {
            "election": null,
            "id": 18,
            "name": "Chatham-Kent—Leamington"
          }
        ],
        "pollDivisionIds": [
          10137548
        ],
        "postalCode": "N7M5P1",
        "streetName": "SYLVESTER",
        "streetDirectionId": null,
        "streetTypeId": "DR",
        "placeName": "CHATHAM",
        "streetNameDisplayText": "SYLVESTER DR, CHATHAM"
      }
    ]
  },
  {
    "postal": "N7M2B8",
    "result": [
      {
        "electoralDistricts": [
          {
            "election": null,
            "id": 18,
            "name": "Chatham-Kent—Leamington"
          }
        ],
        "pollDivisionIds": [
          10137548
        ],
        "postalCode": "N7M2B8",
        "streetName": "SYLVESTER",
        "streetDirectionId": null,
        "streetTypeId": "DR",
        "placeName": "CHATHAM",
        "streetNameDisplayText": "SYLVESTER DR, CHATHAM"
      }
    ]
  },
  {
    "postal": "N7M0P2",
    "result": [
      {
        "electoralDistricts": [
          {
            "election": null,
            "id": 18,
            "name": "Chatham-Kent—Leamington"
          }
        ],
        "pollDivisionIds": [
          10137547
        ],
        "postalCode": "N7M0P2",
        "streetName": "SIXTH",
        "streetDirectionId": "E",
        "streetTypeId": "LINE",
        "placeName": "CHATHAM",
        "streetNameDisplayText": "SIXTH LINE E, CHATHAM"
      }
    ]
  },
  {
    "postal": "N7M9M1",
    "result": []
  },
  {
    "postal": "N7M3G0",
    "result": []
  },
  {
    "postal": "N7M9Z2",
    "result": []
  },
  {
    "postal": "N7M2A0",
    "result": []
  },
  {
    "postal": "N7M6Y0",
    "result": []
  },
  {
    "postal": "N7M2Z8",
    "result": [
      {
        "electoralDistricts": [
          {
            "election": null,
            "id": 18,
            "name": "Chatham-Kent—Leamington"
          }
        ],
        "pollDivisionIds": [
          10137547
        ],
        "postalCode": "N7M2Z8",
        "streetName": "HOUSTON",
        "streetDirectionId": null,
        "streetTypeId": "ST",
        "placeName": "CHATHAM",
        "streetNameDisplayText": "HOUSTON ST, CHATHAM"
      }
    ]
  },
  {
    "postal": "N7M7Y3",
    "result": []
  },
  {
    "postal": "N7M6Z5",
    "result": []
  },
  {
    "postal": "N7M6E0",
    "result": []
  },
  {
    "postal": "N7M9B7",
    "result": []
  },
  {
    "postal": "N7M9S5",
    "result": []
  },
  {
    "postal": "N7M3X3",
    "result": [
      {
        "electoralDistricts": [
          {
            "election": null,
            "id": 18,
            "name": "Chatham-Kent—Leamington"
          }
        ],
        "pollDivisionIds": [
          10137549
        ],
        "postalCode": "N7M3X3",
        "streetName": "ELM",
        "streetDirectionId": null,
        "streetTypeId": "ST",
        "placeName": "CHATHAM",
        "streetNameDisplayText": "ELM ST, CHATHAM"
      }
    ]
  },
  {
    "postal": "N7M7R5",
    "result": []
  },
  {
    "postal": "N7M2X3",
    "result": [
      {
        "electoralDistricts": [
          {
            "election": null,
            "id": 18,
            "name": "Chatham-Kent—Leamington"
          }
        ],
        "pollDivisionIds": [
          10137548
        ],
        "postalCode": "N7M2X3",
        "streetName": "LACROIX",
        "streetDirectionId": null,
        "streetTypeId": "ST",
        "placeName": "CHATHAM",
        "streetNameDisplayText": "LACROIX ST, CHATHAM"
      }
    ]
  },
  {
    "postal": "N7M8Z9",
    "result": []
  },
  {
    "postal": "N7M0N4",
    "result": []
  },
  {
    "postal": "N7M1K1",
    "result": [
      {
        "electoralDistricts": [
          {
            "election": null,
            "id": 18,
            "name": "Chatham-Kent—Leamington"
          }
        ],
        "pollDivisionIds": [
          10137540,
          10137543
        ],
        "postalCode": "N7M1K1",
        "streetName": "WELLINGTON",
        "streetDirectionId": "W",
        "streetTypeId": "ST",
        "placeName": "CHATHAM",
        "streetNameDisplayText": "WELLINGTON ST W, CHATHAM"
      }
    ]
  },
  {
    "postal": "N7M1S3",
    "result": [
      {
        "electoralDistricts": [
          {
            "election": null,
            "id": 18,
            "name": "Chatham-Kent—Leamington"
          }
        ],
        "pollDivisionIds": [
          10137545
        ],
        "postalCode": "N7M1S3",
        "streetName": "LORNE",
        "streetDirectionId": null,
        "streetTypeId": "AVE",
        "placeName": "CHATHAM",
        "streetNameDisplayText": "LORNE AVE, CHATHAM"
      }
    ]
  },
  {
    "postal": "N7M6M4",
    "result": [
      {
        "electoralDistricts": [
          {
            "election": null,
            "id": 18,
            "name": "Chatham-Kent—Leamington"
          }
        ],
        "pollDivisionIds": [
          10137547
        ],
        "postalCode": "N7M6M4",
        "streetName": "KEIL",
        "streetDirectionId": "S",
        "streetTypeId": "DR",
        "placeName": "CHATHAM",
        "streetNameDisplayText": "KEIL DR S, CHATHAM"
      }
    ]
  },
  {
    "postal": "N7M9A9",
    "result": []
  },
  {
    "postal": "N7M9Z9",
    "result": []
  },
  {
    "postal": "N7M6T4",
    "result": []
  },
  {
    "postal": "N7M0B2",
    "result": []
  },
  {
    "postal": "N7M2L9",
    "result": [
      {
        "electoralDistricts": [
          {
            "election": null,
            "id": 18,
            "name": "Chatham-Kent—Leamington"
          }
        ],
        "pollDivisionIds": [
          10137552
        ],
        "postalCode": "N7M2L9",
        "streetName": "DETROIT",
        "streetDirectionId": null,
        "streetTypeId": "DR",
        "placeName": "CHATHAM",
        "streetNameDisplayText": "DETROIT DR, CHATHAM"
      }
    ]
  },
  {
    "postal": "N7M8K9",
    "result": []
  },
  {
    "postal": "N7M2H9",
    "result": [
      {
        "electoralDistricts": [
          {
            "election": null,
            "id": 18,
            "name": "Chatham-Kent—Leamington"
          }
        ],
        "pollDivisionIds": [
          10137545
        ],
        "postalCode": "N7M2H9",
        "streetName": "QUEEN",
        "streetDirectionId": null,
        "streetTypeId": "ST",
        "placeName": "CHATHAM",
        "streetNameDisplayText": "QUEEN ST, CHATHAM"
      }
    ]
  },
  {
    "postal": "N7M3Z6",
    "result": [
      {
        "electoralDistricts": [
          {
            "election": null,
            "id": 18,
            "name": "Chatham-Kent—Leamington"
          }
        ],
        "pollDivisionIds": [
          10137550
        ],
        "postalCode": "N7M3Z6",
        "streetName": "TWEEDSMUIR",
        "streetDirectionId": "E",
        "streetTypeId": "AVE",
        "placeName": "CHATHAM",
        "streetNameDisplayText": "TWEEDSMUIR AVE E, CHATHAM"
      }
    ]
  },
  {
    "postal": "N7M3B0",
    "result": []
  },
  {
    "postal": "N7M2H8",
    "result": [
      {
        "electoralDistricts": [
          {
            "election": null,
            "id": 18,
            "name": "Chatham-Kent—Leamington"
          }
        ],
        "pollDivisionIds": [
          10137545
        ],
        "postalCode": "N7M2H8",
        "streetName": "QUEEN",
        "streetDirectionId": null,
        "streetTypeId": "ST",
        "placeName": "CHATHAM",
        "streetNameDisplayText": "QUEEN ST, CHATHAM"
      }
    ]
  },
  {
    "postal": "N7M3X2",
    "result": [
      {
        "electoralDistricts": [
          {
            "election": null,
            "id": 18,
            "name": "Chatham-Kent—Leamington"
          }
        ],
        "pollDivisionIds": [
          10137549
        ],
        "postalCode": "N7M3X2",
        "streetName": "ELM",
        "streetDirectionId": null,
        "streetTypeId": "ST",
        "placeName": "CHATHAM",
        "streetNameDisplayText": "ELM ST, CHATHAM"
      }
    ]
  },
  {
    "postal": "N7M2E9",
    "result": [
      {
        "electoralDistricts": [
          {
            "election": null,
            "id": 18,
            "name": "Chatham-Kent—Leamington"
          }
        ],
        "pollDivisionIds": [
          10137552
        ],
        "postalCode": "N7M2E9",
        "streetName": "WINDSOR",
        "streetDirectionId": null,
        "streetTypeId": "DR",
        "placeName": "CHATHAM",
        "streetNameDisplayText": "WINDSOR DR, CHATHAM"
      }
    ]
  },
  {
    "postal": "N7M9P6",
    "result": []
  },
  {
    "postal": "N7M9E2",
    "result": []
  },
  {
    "postal": "N7M9H2",
    "result": []
  },
  {
    "postal": "N7M1S8",
    "result": [
      {
        "electoralDistricts": [
          {
            "election": null,
            "id": 18,
            "name": "Chatham-Kent—Leamington"
          }
        ],
        "pollDivisionIds": [
          10137545
        ],
        "postalCode": "N7M1S8",
        "streetName": "GRAY",
        "streetDirectionId": null,
        "streetTypeId": "ST",
        "placeName": "CHATHAM",
        "streetNameDisplayText": "GRAY ST, CHATHAM"
      }
    ]
  },
  {
    "postal": "N7M3M6",
    "result": [
      {
        "electoralDistricts": [
          {
            "election": null,
            "id": 18,
            "name": "Chatham-Kent—Leamington"
          }
        ],
        "pollDivisionIds": [
          10137546
        ],
        "postalCode": "N7M3M6",
        "streetName": "KING",
        "streetDirectionId": "E",
        "streetTypeId": "ST",
        "placeName": "CHATHAM",
        "streetNameDisplayText": "KING ST E, CHATHAM"
      }
    ]
  },
  {
    "postal": "N7M6Z8",
    "result": []
  },
  {
    "postal": "N7M4J2",
    "result": [
      {
        "electoralDistricts": [
          {
            "election": null,
            "id": 18,
            "name": "Chatham-Kent—Leamington"
          }
        ],
        "pollDivisionIds": [
          10137546
        ],
        "postalCode": "N7M4J2",
        "streetName": "LANSDOWNE",
        "streetDirectionId": null,
        "streetTypeId": "AVE",
        "placeName": "CHATHAM",
        "streetNameDisplayText": "LANSDOWNE AVE, CHATHAM"
      }
    ]
  },
  {
    "postal": "N7M9Y1",
    "result": []
  },
  {
    "postal": "N7M8V6",
    "result": []
  },
  {
    "postal": "N7M6B2",
    "result": []
  },
  {
    "postal": "N7M1P8",
    "result": [
      {
        "electoralDistricts": [
          {
            "election": null,
            "id": 18,
            "name": "Chatham-Kent—Leamington"
          }
        ],
        "pollDivisionIds": [
          10137547
        ],
        "postalCode": "N7M1P8",
        "streetName": "RICHMOND",
        "streetDirectionId": null,
        "streetTypeId": "ST",
        "placeName": "CHATHAM",
        "streetNameDisplayText": "RICHMOND ST, CHATHAM"
      }
    ]
  },
  {
    "postal": "N7M0V8",
    "result": []
  },
  {
    "postal": "N7M4Y0",
    "result": []
  },
  {
    "postal": "N7M2T4",
    "result": [
      {
        "electoralDistricts": [
          {
            "election": null,
            "id": 18,
            "name": "Chatham-Kent—Leamington"
          }
        ],
        "pollDivisionIds": [
          10137548
        ],
        "postalCode": "N7M2T4",
        "streetName": "WYANDOTT",
        "streetDirectionId": null,
        "streetTypeId": "ST",
        "placeName": "CHATHAM",
        "streetNameDisplayText": "WYANDOTT ST, CHATHAM"
      }
    ]
  },
  {
    "postal": "N7M2S3",
    "result": [
      {
        "electoralDistricts": [
          {
            "election": null,
            "id": 18,
            "name": "Chatham-Kent—Leamington"
          }
        ],
        "pollDivisionIds": [
          10137545
        ],
        "postalCode": "N7M2S3",
        "streetName": "WEST",
        "streetDirectionId": null,
        "streetTypeId": "ST",
        "placeName": "CHATHAM",
        "streetNameDisplayText": "WEST ST, CHATHAM"
      }
    ]
  },
  {
    "postal": "N7M0K0",
    "result": []
  },
  {
    "postal": "N7M5N1",
    "result": [
      {
        "electoralDistricts": [
          {
            "election": null,
            "id": 18,
            "name": "Chatham-Kent—Leamington"
          }
        ],
        "pollDivisionIds": [
          10137547
        ],
        "postalCode": "N7M5N1",
        "streetName": "MARION",
        "streetDirectionId": null,
        "streetTypeId": "AVE",
        "placeName": "CHATHAM",
        "streetNameDisplayText": "MARION AVE, CHATHAM"
      }
    ]
  },
  {
    "postal": "N7M7T0",
    "result": []
  },
  {
    "postal": "N7M9N2",
    "result": []
  },
  {
    "postal": "N7M5L1",
    "result": []
  },
  {
    "postal": "N7M7G5",
    "result": []
  },
  {
    "postal": "N7M6K2",
    "result": [
      {
        "electoralDistricts": [
          {
            "election": null,
            "id": 18,
            "name": "Chatham-Kent—Leamington"
          }
        ],
        "pollDivisionIds": [
          10137548
        ],
        "postalCode": "N7M6K2",
        "streetName": "BRAEMAR",
        "streetDirectionId": null,
        "streetTypeId": "BLVD",
        "placeName": "CHATHAM",
        "streetNameDisplayText": "BRAEMAR BLVD, CHATHAM"
      },
      {
        "electoralDistricts": [
          {
            "election": null,
            "id": 18,
            "name": "Chatham-Kent—Leamington"
          }
        ],
        "pollDivisionIds": [
          10137548
        ],
        "postalCode": "N7M6K2",
        "streetName": "ST ANDREWS",
        "streetDirectionId": null,
        "streetTypeId": "PL",
        "placeName": "CHATHAM",
        "streetNameDisplayText": "ST ANDREWS PL, CHATHAM"
      }
    ]
  },
  {
    "postal": "N7M6P9",
    "result": []
  },
  {
    "postal": "N7M0E6",
    "result": []
  },
  {
    "postal": "N7M8R9",
    "result": []
  },
  {
    "postal": "N7M3G9",
    "result": [
      {
        "electoralDistricts": [
          {
            "election": null,
            "id": 18,
            "name": "Chatham-Kent—Leamington"
          }
        ],
        "pollDivisionIds": [
          10137544
        ],
        "postalCode": "N7M3G9",
        "streetName": "KEIL",
        "streetDirectionId": "S",
        "streetTypeId": "DR",
        "placeName": "CHATHAM",
        "streetNameDisplayText": "KEIL DR S, CHATHAM"
      }
    ]
  },
  {
    "postal": "N7M0V7",
    "result": []
  },
  {
    "postal": "N7M2Z1",
    "result": [
      {
        "electoralDistricts": [
          {
            "election": null,
            "id": 18,
            "name": "Chatham-Kent—Leamington"
          }
        ],
        "pollDivisionIds": [
          10137544,
          10137545
        ],
        "postalCode": "N7M2Z1",
        "streetName": "INSHES",
        "streetDirectionId": null,
        "streetTypeId": "AVE",
        "placeName": "CHATHAM",
        "streetNameDisplayText": "INSHES AVE, CHATHAM"
      }
    ]
  },
  {
    "postal": "N7M7N1",
    "result": []
  },
  {
    "postal": "N7M3C6",
    "result": [
      {
        "electoralDistricts": [
          {
            "election": null,
            "id": 18,
            "name": "Chatham-Kent—Leamington"
          }
        ],
        "pollDivisionIds": [
          10137544
        ],
        "postalCode": "N7M3C6",
        "streetName": "CRYSTAL",
        "streetDirectionId": null,
        "streetTypeId": "DR",
        "placeName": "CHATHAM",
        "streetNameDisplayText": "CRYSTAL DR, CHATHAM"
      }
    ]
  },
  {
    "postal": "N7M4M1",
    "result": [
      {
        "electoralDistricts": [
          {
            "election": null,
            "id": 18,
            "name": "Chatham-Kent—Leamington"
          }
        ],
        "pollDivisionIds": [
          10137546
        ],
        "postalCode": "N7M4M1",
        "streetName": "DUKE",
        "streetDirectionId": "S",
        "streetTypeId": "ST",
        "placeName": "CHATHAM",
        "streetNameDisplayText": "DUKE ST S, CHATHAM"
      }
    ]
  },
  {
    "postal": "N7M9K2",
    "result": []
  },
  {
    "postal": "N7M9S6",
    "result": []
  },
  {
    "postal": "N7M4X1",
    "result": [
      {
        "electoralDistricts": [
          {
            "election": null,
            "id": 18,
            "name": "Chatham-Kent—Leamington"
          }
        ],
        "pollDivisionIds": [
          10137546
        ],
        "postalCode": "N7M4X1",
        "streetName": "HYSLOP",
        "streetDirectionId": null,
        "streetTypeId": "ST",
        "placeName": "CHATHAM",
        "streetNameDisplayText": "HYSLOP ST, CHATHAM"
      }
    ]
  },
  {
    "postal": "N7M8W2",
    "result": []
  },
  {
    "postal": "N7M7N2",
    "result": []
  },
  {
    "postal": "N7M8S3",
    "result": []
  },
  {
    "postal": "N7M4V0",
    "result": []
  },
  {
    "postal": "N7M6W4",
    "result": []
  },
  {
    "postal": "N7M5M1",
    "result": []
  },
  {
    "postal": "N7M0S4",
    "result": []
  },
  {
    "postal": "N7M5X6",
    "result": [
      {
        "electoralDistricts": [
          {
            "election": null,
            "id": 18,
            "name": "Chatham-Kent—Leamington"
          }
        ],
        "pollDivisionIds": [
          10137547
        ],
        "postalCode": "N7M5X6",
        "streetName": "COPPERFIELD",
        "streetDirectionId": null,
        "streetTypeId": "CRES",
        "placeName": "CHATHAM",
        "streetNameDisplayText": "COPPERFIELD CRES, CHATHAM"
      }
    ]
  },
  {
    "postal": "N7M8L5",
    "result": []
  },
  {
    "postal": "N7M5M8",
    "result": [
      {
        "electoralDistricts": [
          {
            "election": null,
            "id": 18,
            "name": "Chatham-Kent—Leamington"
          }
        ],
        "pollDivisionIds": [
          10137547
        ],
        "postalCode": "N7M5M8",
        "streetName": "PATTESON",
        "streetDirectionId": null,
        "streetTypeId": "AVE",
        "placeName": "CHATHAM",
        "streetNameDisplayText": "PATTESON AVE, CHATHAM"
      }
    ]
  },
  {
    "postal": "N7M2G3",
    "result": [
      {
        "electoralDistricts": [
          {
            "election": null,
            "id": 18,
            "name": "Chatham-Kent—Leamington"
          }
        ],
        "pollDivisionIds": [
          10137546
        ],
        "postalCode": "N7M2G3",
        "streetName": "FOURTH",
        "streetDirectionId": null,
        "streetTypeId": "ST",
        "placeName": "CHATHAM",
        "streetNameDisplayText": "FOURTH ST, CHATHAM"
      }
    ]
  },
  {
    "postal": "N7M8E4",
    "result": []
  },
  {
    "postal": "N7M7S9",
    "result": []
  },
  {
    "postal": "N7M1K3",
    "result": [
      {
        "electoralDistricts": [
          {
            "election": null,
            "id": 18,
            "name": "Chatham-Kent—Leamington"
          }
        ],
        "pollDivisionIds": [
          10137540
        ],
        "postalCode": "N7M1K3",
        "streetName": "WELLINGTON",
        "streetDirectionId": "E",
        "streetTypeId": "ST",
        "placeName": "CHATHAM",
        "streetNameDisplayText": "WELLINGTON ST E, CHATHAM"
      },
      {
        "electoralDistricts": [
          {
            "election": null,
            "id": 18,
            "name": "Chatham-Kent—Leamington"
          }
        ],
        "pollDivisionIds": [
          10137540
        ],
        "postalCode": "N7M1K3",
        "streetName": "WELLINGTON",
        "streetDirectionId": "W",
        "streetTypeId": "ST",
        "placeName": "CHATHAM",
        "streetNameDisplayText": "WELLINGTON ST W, CHATHAM"
      }
    ]
  },
  {
    "postal": "N7M4E1",
    "result": [
      {
        "electoralDistricts": [
          {
            "election": null,
            "id": 18,
            "name": "Chatham-Kent—Leamington"
          }
        ],
        "pollDivisionIds": [
          10137550
        ],
        "postalCode": "N7M4E1",
        "streetName": "FREELAND",
        "streetDirectionId": null,
        "streetTypeId": "AVE",
        "placeName": "CHATHAM",
        "streetNameDisplayText": "FREELAND AVE, CHATHAM"
      }
    ]
  },
  {
    "postal": "N7M4R2",
    "result": [
      {
        "electoralDistricts": [
          {
            "election": null,
            "id": 18,
            "name": "Chatham-Kent—Leamington"
          }
        ],
        "pollDivisionIds": [
          10137545
        ],
        "postalCode": "N7M4R2",
        "streetName": "ADELAIDE",
        "streetDirectionId": "S",
        "streetTypeId": "ST",
        "placeName": "CHATHAM",
        "streetNameDisplayText": "ADELAIDE ST S, CHATHAM"
      }
    ]
  },
  {
    "postal": "N7M6T0",
    "result": []
  },
  {
    "postal": "N7M3K5",
    "result": []
  },
  {
    "postal": "N7M3S3",
    "result": [
      {
        "electoralDistricts": [
          {
            "election": null,
            "id": 18,
            "name": "Chatham-Kent—Leamington"
          }
        ],
        "pollDivisionIds": [
          10137546,
          10137545
        ],
        "postalCode": "N7M3S3",
        "streetName": "PARK",
        "streetDirectionId": null,
        "streetTypeId": "ST",
        "placeName": "CHATHAM",
        "streetNameDisplayText": "PARK ST, CHATHAM"
      }
    ]
  },
  {
    "postal": "N7M3L4",
    "result": []
  },
  {
    "postal": "N7M9Y2",
    "result": []
  },
  {
    "postal": "N7M1E0",
    "result": []
  },
  {
    "postal": "N7M9A4",
    "result": []
  },
  {
    "postal": "N7M1L3",
    "result": [
      {
        "electoralDistricts": [
          {
            "election": null,
            "id": 18,
            "name": "Chatham-Kent—Leamington"
          }
        ],
        "pollDivisionIds": [
          10137544
        ],
        "postalCode": "N7M1L3",
        "streetName": "THELMA",
        "streetDirectionId": null,
        "streetTypeId": "AVE",
        "placeName": "CHATHAM",
        "streetNameDisplayText": "THELMA AVE, CHATHAM"
      }
    ]
  },
  {
    "postal": "N7M6N1",
    "result": []
  },
  {
    "postal": "N7M6G7",
    "result": [
      {
        "electoralDistricts": [
          {
            "election": null,
            "id": 18,
            "name": "Chatham-Kent—Leamington"
          }
        ],
        "pollDivisionIds": [
          10137544
        ],
        "postalCode": "N7M6G7",
        "streetName": "PLANTATION",
        "streetDirectionId": null,
        "streetTypeId": "PL",
        "placeName": "CHATHAM",
        "streetNameDisplayText": "PLANTATION PL, CHATHAM"
      }
    ]
  },
  {
    "postal": "N7M7W1",
    "result": []
  },
  {
    "postal": "N7M4M6",
    "result": [
      {
        "electoralDistricts": [
          {
            "election": null,
            "id": 18,
            "name": "Chatham-Kent—Leamington"
          }
        ],
        "pollDivisionIds": [
          10137546
        ],
        "postalCode": "N7M4M6",
        "streetName": "PRINCESS",
        "streetDirectionId": "S",
        "streetTypeId": "ST",
        "placeName": "CHATHAM",
        "streetNameDisplayText": "PRINCESS ST S, CHATHAM"
      }
    ]
  },
  {
    "postal": "N7M1K0",
    "result": []
  },
  {
    "postal": "N7M3E2",
    "result": [
      {
        "electoralDistricts": [
          {
            "election": null,
            "id": 18,
            "name": "Chatham-Kent—Leamington"
          }
        ],
        "pollDivisionIds": [
          10137547
        ],
        "postalCode": "N7M3E2",
        "streetName": "BYNG",
        "streetDirectionId": null,
        "streetTypeId": "AVE",
        "placeName": "CHATHAM",
        "streetNameDisplayText": "BYNG AVE, CHATHAM"
      }
    ]
  },
  {
    "postal": "N7M5H4",
    "result": [
      {
        "electoralDistricts": [
          {
            "election": null,
            "id": 18,
            "name": "Chatham-Kent—Leamington"
          }
        ],
        "pollDivisionIds": [
          10137552
        ],
        "postalCode": "N7M5H4",
        "streetName": "CHARING CROSS",
        "streetDirectionId": null,
        "streetTypeId": "RD",
        "placeName": "CHATHAM",
        "streetNameDisplayText": "CHARING CROSS RD, CHATHAM"
      }
    ]
  },
  {
    "postal": "N7M1K7",
    "result": [
      {
        "electoralDistricts": [
          {
            "election": null,
            "id": 18,
            "name": "Chatham-Kent—Leamington"
          }
        ],
        "pollDivisionIds": [
          10137546
        ],
        "postalCode": "N7M1K7",
        "streetName": "CROSS",
        "streetDirectionId": null,
        "streetTypeId": "ST",
        "placeName": "CHATHAM",
        "streetNameDisplayText": "CROSS ST, CHATHAM"
      }
    ]
  },
  {
    "postal": "N7M0H0",
    "result": []
  },
  {
    "postal": "N7M0J3",
    "result": []
  },
  {
    "postal": "N7M1X6",
    "result": [
      {
        "electoralDistricts": [
          {
            "election": null,
            "id": 18,
            "name": "Chatham-Kent—Leamington"
          }
        ],
        "pollDivisionIds": [
          10137547
        ],
        "postalCode": "N7M1X6",
        "streetName": "PRINCE ARTHUR",
        "streetDirectionId": null,
        "streetTypeId": "AVE",
        "placeName": "CHATHAM",
        "streetNameDisplayText": "PRINCE ARTHUR AVE, CHATHAM"
      }
    ]
  },
  {
    "postal": "N7M2Z6",
    "result": [
      {
        "electoralDistricts": [
          {
            "election": null,
            "id": 18,
            "name": "Chatham-Kent—Leamington"
          }
        ],
        "pollDivisionIds": [
          10137545
        ],
        "postalCode": "N7M2Z6",
        "streetName": "INSHES",
        "streetDirectionId": null,
        "streetTypeId": "AVE",
        "placeName": "CHATHAM",
        "streetNameDisplayText": "INSHES AVE, CHATHAM"
      }
    ]
  },
  {
    "postal": "N7M4R9",
    "result": [
      {
        "electoralDistricts": [
          {
            "election": null,
            "id": 18,
            "name": "Chatham-Kent—Leamington"
          }
        ],
        "pollDivisionIds": [
          10137545
        ],
        "postalCode": "N7M4R9",
        "streetName": "ADELAIDE",
        "streetDirectionId": "S",
        "streetTypeId": "ST",
        "placeName": "CHATHAM",
        "streetNameDisplayText": "ADELAIDE ST S, CHATHAM"
      }
    ]
  },
  {
    "postal": "N7M0W8",
    "result": []
  },
  {
    "postal": "N7M1L4",
    "result": [
      {
        "electoralDistricts": [
          {
            "election": null,
            "id": 18,
            "name": "Chatham-Kent—Leamington"
          }
        ],
        "pollDivisionIds": [
          10137544
        ],
        "postalCode": "N7M1L4",
        "streetName": "THELMA",
        "streetDirectionId": null,
        "streetTypeId": "AVE",
        "placeName": "CHATHAM",
        "streetNameDisplayText": "THELMA AVE, CHATHAM"
      }
    ]
  },
  {
    "postal": "N7M0C8",
    "result": []
  },
  {
    "postal": "N7M9X7",
    "result": []
  },
  {
    "postal": "N7M4T1",
    "result": [
      {
        "electoralDistricts": [
          {
            "election": null,
            "id": 18,
            "name": "Chatham-Kent—Leamington"
          }
        ],
        "pollDivisionIds": [
          10137545
        ],
        "postalCode": "N7M4T1",
        "streetName": "WILLIAM",
        "streetDirectionId": "N",
        "streetTypeId": "ST",
        "placeName": "CHATHAM",
        "streetNameDisplayText": "WILLIAM ST N, CHATHAM"
      },
      {
        "electoralDistricts": [
          {
            "election": null,
            "id": 18,
            "name": "Chatham-Kent—Leamington"
          }
        ],
        "pollDivisionIds": [
          10137545
        ],
        "postalCode": "N7M4T1",
        "streetName": "WILLIAM",
        "streetDirectionId": "S",
        "streetTypeId": "ST",
        "placeName": "CHATHAM",
        "streetNameDisplayText": "WILLIAM ST S, CHATHAM"
      }
    ]
  },
  {
    "postal": "N7M0M0",
    "result": []
  },
  {
    "postal": "N7M6A2",
    "result": []
  },
  {
    "postal": "N7M9S8",
    "result": []
  },
  {
    "postal": "N7M9T4",
    "result": []
  },
  {
    "postal": "N7M9Y4",
    "result": []
  },
  {
    "postal": "N7M6G5",
    "result": [
      {
        "electoralDistricts": [
          {
            "election": null,
            "id": 18,
            "name": "Chatham-Kent—Leamington"
          }
        ],
        "pollDivisionIds": [
          10137544
        ],
        "postalCode": "N7M6G5",
        "streetName": "RIVERVIEW",
        "streetDirectionId": null,
        "streetTypeId": "DR",
        "placeName": "CHATHAM",
        "streetNameDisplayText": "RIVERVIEW DR, CHATHAM"
      },
      {
        "electoralDistricts": [
          {
            "election": null,
            "id": 18,
            "name": "Chatham-Kent—Leamington"
          }
        ],
        "pollDivisionIds": [
          10137544
        ],
        "postalCode": "N7M6G5",
        "streetName": "RIVERVIEW",
        "streetDirectionId": null,
        "streetTypeId": "LINE",
        "placeName": "CHATHAM",
        "streetNameDisplayText": "RIVERVIEW LINE, CHATHAM"
      }
    ]
  },
  {
    "postal": "N7M6H9",
    "result": [
      {
        "electoralDistricts": [
          {
            "election": null,
            "id": 18,
            "name": "Chatham-Kent—Leamington"
          }
        ],
        "pollDivisionIds": [
          10137548
        ],
        "postalCode": "N7M6H9",
        "streetName": "PARKVIEW",
        "streetDirectionId": null,
        "streetTypeId": "CRT",
        "placeName": "CHATHAM",
        "streetNameDisplayText": "PARKVIEW CRT, CHATHAM"
      }
    ]
  },
  {
    "postal": "N7M2P3",
    "result": [
      {
        "electoralDistricts": [
          {
            "election": null,
            "id": 18,
            "name": "Chatham-Kent—Leamington"
          }
        ],
        "pollDivisionIds": [
          10137547
        ],
        "postalCode": "N7M2P3",
        "streetName": "DUNN",
        "streetDirectionId": null,
        "streetTypeId": "AVE",
        "placeName": "CHATHAM",
        "streetNameDisplayText": "DUNN AVE, CHATHAM"
      }
    ]
  },
  {
    "postal": "N7M1T6",
    "result": [
      {
        "electoralDistricts": [
          {
            "election": null,
            "id": 18,
            "name": "Chatham-Kent—Leamington"
          }
        ],
        "pollDivisionIds": [
          10137545
        ],
        "postalCode": "N7M1T6",
        "streetName": "PATTESON",
        "streetDirectionId": null,
        "streetTypeId": "AVE",
        "placeName": "CHATHAM",
        "streetNameDisplayText": "PATTESON AVE, CHATHAM"
      }
    ]
  },
  {
    "postal": "N7M4P6",
    "result": [
      {
        "electoralDistricts": [
          {
            "election": null,
            "id": 18,
            "name": "Chatham-Kent—Leamington"
          }
        ],
        "pollDivisionIds": [
          10137545
        ],
        "postalCode": "N7M4P6",
        "streetName": "BAXTER",
        "streetDirectionId": null,
        "streetTypeId": "ST",
        "placeName": "CHATHAM",
        "streetNameDisplayText": "BAXTER ST, CHATHAM"
      }
    ]
  },
  {
    "postal": "N7M3K1",
    "result": [
      {
        "electoralDistricts": [
          {
            "election": null,
            "id": 18,
            "name": "Chatham-Kent—Leamington"
          }
        ],
        "pollDivisionIds": [
          10137546
        ],
        "postalCode": "N7M3K1",
        "streetName": "STANLEY",
        "streetDirectionId": null,
        "streetTypeId": "AVE",
        "placeName": "CHATHAM",
        "streetNameDisplayText": "STANLEY AVE, CHATHAM"
      }
    ]
  },
  {
    "postal": "N7M6X4",
    "result": []
  },
  {
    "postal": "N7M4M8",
    "result": [
      {
        "electoralDistricts": [
          {
            "election": null,
            "id": 18,
            "name": "Chatham-Kent—Leamington"
          }
        ],
        "pollDivisionIds": [
          10137546
        ],
        "postalCode": "N7M4M8",
        "streetName": "PRINCESS",
        "streetDirectionId": "S",
        "streetTypeId": "ST",
        "placeName": "CHATHAM",
        "streetNameDisplayText": "PRINCESS ST S, CHATHAM"
      }
    ]
  },
  {
    "postal": "N7M2Y1",
    "result": [
      {
        "electoralDistricts": [
          {
            "election": null,
            "id": 18,
            "name": "Chatham-Kent—Leamington"
          }
        ],
        "pollDivisionIds": [
          10137548
        ],
        "postalCode": "N7M2Y1",
        "streetName": "FAUBERT",
        "streetDirectionId": null,
        "streetTypeId": "DR",
        "placeName": "CHATHAM",
        "streetNameDisplayText": "FAUBERT DR, CHATHAM"
      }
    ]
  },
  {
    "postal": "N7M6M1",
    "result": [
      {
        "electoralDistricts": [
          {
            "election": null,
            "id": 18,
            "name": "Chatham-Kent—Leamington"
          }
        ],
        "pollDivisionIds": [
          10137547
        ],
        "postalCode": "N7M6M1",
        "streetName": "JOHNATHON",
        "streetDirectionId": null,
        "streetTypeId": "ST",
        "placeName": "CHATHAM",
        "streetNameDisplayText": "JOHNATHON ST, CHATHAM"
      },
      {
        "electoralDistricts": [
          {
            "election": null,
            "id": 18,
            "name": "Chatham-Kent—Leamington"
          }
        ],
        "pollDivisionIds": [
          10137547
        ],
        "postalCode": "N7M6M1",
        "streetName": "MCINTOSH",
        "streetDirectionId": null,
        "streetTypeId": "AVE",
        "placeName": "CHATHAM",
        "streetNameDisplayText": "MCINTOSH AVE, CHATHAM"
      }
    ]
  },
  {
    "postal": "N7M5L8",
    "result": []
  },
  {
    "postal": "N7M3P6",
    "result": [
      {
        "electoralDistricts": [
          {
            "election": null,
            "id": 18,
            "name": "Chatham-Kent—Leamington"
          }
        ],
        "pollDivisionIds": [
          10137546
        ],
        "postalCode": "N7M3P6",
        "streetName": "WELLINGTON",
        "streetDirectionId": "E",
        "streetTypeId": "ST",
        "placeName": "CHATHAM",
        "streetNameDisplayText": "WELLINGTON ST E, CHATHAM"
      }
    ]
  },
  {
    "postal": "N7M9A5",
    "result": []
  },
  {
    "postal": "N7M7K1",
    "result": []
  },
  {
    "postal": "N7M3J4",
    "result": [
      {
        "electoralDistricts": [
          {
            "election": null,
            "id": 18,
            "name": "Chatham-Kent—Leamington"
          }
        ],
        "pollDivisionIds": [
          10137546
        ],
        "postalCode": "N7M3J4",
        "streetName": "STANLEY",
        "streetDirectionId": null,
        "streetTypeId": "AVE",
        "placeName": "CHATHAM",
        "streetNameDisplayText": "STANLEY AVE, CHATHAM"
      }
    ]
  },
  {
    "postal": "N7M5E7",
    "result": [
      {
        "electoralDistricts": [
          {
            "election": null,
            "id": 18,
            "name": "Chatham-Kent—Leamington"
          }
        ],
        "pollDivisionIds": [
          10137550
        ],
        "postalCode": "N7M5E7",
        "streetName": "ALLEN",
        "streetDirectionId": null,
        "streetTypeId": "ST",
        "placeName": "CHATHAM",
        "streetNameDisplayText": "ALLEN ST, CHATHAM"
      }
    ]
  },
  {
    "postal": "N7M3A7",
    "result": [
      {
        "electoralDistricts": [
          {
            "election": null,
            "id": 18,
            "name": "Chatham-Kent—Leamington"
          }
        ],
        "pollDivisionIds": [
          10137544
        ],
        "postalCode": "N7M3A7",
        "streetName": "ROBERTSON",
        "streetDirectionId": null,
        "streetTypeId": "AVE",
        "placeName": "CHATHAM",
        "streetNameDisplayText": "ROBERTSON AVE, CHATHAM"
      }
    ]
  },
  {
    "postal": "N7M1B9",
    "result": [
      {
        "electoralDistricts": [
          {
            "election": null,
            "id": 18,
            "name": "Chatham-Kent—Leamington"
          }
        ],
        "pollDivisionIds": [
          10137544
        ],
        "postalCode": "N7M1B9",
        "streetName": "KERR",
        "streetDirectionId": null,
        "streetTypeId": "AVE",
        "placeName": "CHATHAM",
        "streetNameDisplayText": "KERR AVE, CHATHAM"
      }
    ]
  },
  {
    "postal": "N7M9E8",
    "result": []
  },
  {
    "postal": "N7M1C9",
    "result": []
  },
  {
    "postal": "N7M3B5",
    "result": [
      {
        "electoralDistricts": [
          {
            "election": null,
            "id": 18,
            "name": "Chatham-Kent—Leamington"
          }
        ],
        "pollDivisionIds": [
          10137544
        ],
        "postalCode": "N7M3B5",
        "streetName": "BUCKINGHAM",
        "streetDirectionId": null,
        "streetTypeId": "AVE",
        "placeName": "CHATHAM",
        "streetNameDisplayText": "BUCKINGHAM AVE, CHATHAM"
      }
    ]
  },
  {
    "postal": "N7M8R0",
    "result": []
  },
  {
    "postal": "N7M3P2",
    "result": [
      {
        "electoralDistricts": [
          {
            "election": null,
            "id": 18,
            "name": "Chatham-Kent—Leamington"
          }
        ],
        "pollDivisionIds": [
          10137546
        ],
        "postalCode": "N7M3P2",
        "streetName": "WELLINGTON",
        "streetDirectionId": "E",
        "streetTypeId": "ST",
        "placeName": "CHATHAM",
        "streetNameDisplayText": "WELLINGTON ST E, CHATHAM"
      },
      {
        "electoralDistricts": [
          {
            "election": null,
            "id": 18,
            "name": "Chatham-Kent—Leamington"
          }
        ],
        "pollDivisionIds": [
          10137546
        ],
        "postalCode": "N7M3P2",
        "streetName": "WELLINGTON",
        "streetDirectionId": "W",
        "streetTypeId": "ST",
        "placeName": "CHATHAM",
        "streetNameDisplayText": "WELLINGTON ST W, CHATHAM"
      }
    ]
  },
  {
    "postal": "N7M5V4",
    "result": [
      {
        "electoralDistricts": [
          {
            "election": null,
            "id": 18,
            "name": "Chatham-Kent—Leamington"
          }
        ],
        "pollDivisionIds": [
          10137544
        ],
        "postalCode": "N7M5V4",
        "streetName": "DIAMOND",
        "streetDirectionId": null,
        "streetTypeId": "DR",
        "placeName": "CHATHAM",
        "streetNameDisplayText": "DIAMOND DR, CHATHAM"
      }
    ]
  },
  {
    "postal": "N7M4H0",
    "result": []
  },
  {
    "postal": "N7M4S7",
    "result": [
      {
        "electoralDistricts": [
          {
            "election": null,
            "id": 18,
            "name": "Chatham-Kent—Leamington"
          }
        ],
        "pollDivisionIds": [
          10137545
        ],
        "postalCode": "N7M4S7",
        "streetName": "WILLIAM",
        "streetDirectionId": "S",
        "streetTypeId": "ST",
        "placeName": "CHATHAM",
        "streetNameDisplayText": "WILLIAM ST S, CHATHAM"
      }
    ]
  },
  {
    "postal": "N7M6C2",
    "result": [
      {
        "electoralDistricts": [
          {
            "election": null,
            "id": 18,
            "name": "Chatham-Kent—Leamington"
          }
        ],
        "pollDivisionIds": [
          10137550
        ],
        "postalCode": "N7M6C2",
        "streetName": "BRUINSMA",
        "streetDirectionId": null,
        "streetTypeId": "AVE",
        "placeName": "CHATHAM",
        "streetNameDisplayText": "BRUINSMA AVE, CHATHAM"
      }
    ]
  },
  {
    "postal": "N7M8W3",
    "result": []
  },
  {
    "postal": "N7M4M5",
    "result": [
      {
        "electoralDistricts": [
          {
            "election": null,
            "id": 18,
            "name": "Chatham-Kent—Leamington"
          }
        ],
        "pollDivisionIds": [
          10137546
        ],
        "postalCode": "N7M4M5",
        "streetName": "PRINCESS",
        "streetDirectionId": "N",
        "streetTypeId": "ST",
        "placeName": "CHATHAM",
        "streetNameDisplayText": "PRINCESS ST N, CHATHAM"
      },
      {
        "electoralDistricts": [
          {
            "election": null,
            "id": 18,
            "name": "Chatham-Kent—Leamington"
          }
        ],
        "pollDivisionIds": [
          10137546
        ],
        "postalCode": "N7M4M5",
        "streetName": "PRINCESS",
        "streetDirectionId": "S",
        "streetTypeId": "ST",
        "placeName": "CHATHAM",
        "streetNameDisplayText": "PRINCESS ST S, CHATHAM"
      }
    ]
  },
  {
    "postal": "N7M5T1",
    "result": [
      {
        "electoralDistricts": [
          {
            "election": null,
            "id": 18,
            "name": "Chatham-Kent—Leamington"
          }
        ],
        "pollDivisionIds": [
          10137526
        ],
        "postalCode": "N7M5T1",
        "streetName": "3RD",
        "streetDirectionId": null,
        "streetTypeId": "LINE",
        "placeName": "CHATHAM",
        "streetNameDisplayText": "3RD LINE, CHATHAM"
      },
      {
        "electoralDistricts": [
          {
            "election": null,
            "id": 18,
            "name": "Chatham-Kent—Leamington"
          }
        ],
        "pollDivisionIds": [
          10137526
        ],
        "postalCode": "N7M5T1",
        "streetName": "CENTRE",
        "streetDirectionId": null,
        "streetTypeId": "RD",
        "placeName": "CHATHAM",
        "streetNameDisplayText": "CENTRE RD, CHATHAM"
      },
      {
        "electoralDistricts": [
          {
            "election": null,
            "id": 18,
            "name": "Chatham-Kent—Leamington"
          }
        ],
        "pollDivisionIds": [
          10137526
        ],
        "postalCode": "N7M5T1",
        "streetName": "DILLON",
        "streetDirectionId": null,
        "streetTypeId": "RD",
        "placeName": "CHATHAM",
        "streetNameDisplayText": "DILLON RD, CHATHAM"
      },
      {
        "electoralDistricts": [
          {
            "election": null,
            "id": 18,
            "name": "Chatham-Kent—Leamington"
          }
        ],
        "pollDivisionIds": [
          10137526
        ],
        "postalCode": "N7M5T1",
        "streetName": "DRAKE",
        "streetDirectionId": null,
        "streetTypeId": "RD",
        "placeName": "CHATHAM",
        "streetNameDisplayText": "DRAKE RD, CHATHAM"
      },
      {
        "electoralDistricts": [
          {
            "election": null,
            "id": 18,
            "name": "Chatham-Kent—Leamington"
          }
        ],
        "pollDivisionIds": [
          10137526
        ],
        "postalCode": "N7M5T1",
        "streetName": "FIFTH",
        "streetDirectionId": "E",
        "streetTypeId": "LINE",
        "placeName": "CHATHAM",
        "streetNameDisplayText": "FIFTH LINE E, CHATHAM"
      },
      {
        "electoralDistricts": [
          {
            "election": null,
            "id": 18,
            "name": "Chatham-Kent—Leamington"
          }
        ],
        "pollDivisionIds": [
          10137547
        ],
        "postalCode": "N7M5T1",
        "streetName": "QUEENS LINE RR9",
        "streetDirectionId": null,
        "streetTypeId": "LINE",
        "placeName": "CHATHAM",
        "streetNameDisplayText": "QUEENS LINE RR9 LINE, CHATHAM"
      },
      {
        "electoralDistricts": [
          {
            "election": null,
            "id": 18,
            "name": "Chatham-Kent—Leamington"
          }
        ],
        "pollDivisionIds": [
          10137547,
          10137526
        ],
        "postalCode": "N7M5T1",
        "streetName": "QUEENS",
        "streetDirectionId": null,
        "streetTypeId": "LINE",
        "placeName": "CHATHAM",
        "streetNameDisplayText": "QUEENS LINE, CHATHAM"
      },
      {
        "electoralDistricts": [
          {
            "election": null,
            "id": 18,
            "name": "Chatham-Kent—Leamington"
          }
        ],
        "pollDivisionIds": [
          10137547,
          10137526
        ],
        "postalCode": "N7M5T1",
        "streetName": "QUEEN'S",
        "streetDirectionId": null,
        "streetTypeId": "LINE",
        "placeName": "CHATHAM",
        "streetNameDisplayText": "QUEEN'S LINE, CHATHAM"
      },
      {
        "electoralDistricts": [
          {
            "election": null,
            "id": 18,
            "name": "Chatham-Kent—Leamington"
          }
        ],
        "pollDivisionIds": [
          10137547
        ],
        "postalCode": "N7M5T1",
        "streetName": "RICHMOND",
        "streetDirectionId": null,
        "streetTypeId": "ST",
        "placeName": "CHATHAM",
        "streetNameDisplayText": "RICHMOND ST, CHATHAM"
      },
      {
        "electoralDistricts": [
          {
            "election": null,
            "id": 18,
            "name": "Chatham-Kent—Leamington"
          }
        ],
        "pollDivisionIds": [
          10137547,
          10137526
        ],
        "postalCode": "N7M5T1",
        "streetName": "RIVER VIEW",
        "streetDirectionId": null,
        "streetTypeId": "LINE",
        "placeName": "CHATHAM",
        "streetNameDisplayText": "RIVER VIEW LINE, CHATHAM"
      },
      {
        "electoralDistricts": [
          {
            "election": null,
            "id": 18,
            "name": "Chatham-Kent—Leamington"
          }
        ],
        "pollDivisionIds": [
          10137547
        ],
        "postalCode": "N7M5T1",
        "streetName": "RIVERVIEW",
        "streetDirectionId": null,
        "streetTypeId": "DR",
        "placeName": "CHATHAM",
        "streetNameDisplayText": "RIVERVIEW DR, CHATHAM"
      },
      {
        "electoralDistricts": [
          {
            "election": null,
            "id": 18,
            "name": "Chatham-Kent—Leamington"
          }
        ],
        "pollDivisionIds": [
          10137526,
          10137547
        ],
        "postalCode": "N7M5T1",
        "streetName": "RIVERVIEW",
        "streetDirectionId": null,
        "streetTypeId": "LINE",
        "placeName": "CHATHAM",
        "streetNameDisplayText": "RIVERVIEW LINE, CHATHAM"
      },
      {
        "electoralDistricts": [
          {
            "election": null,
            "id": 18,
            "name": "Chatham-Kent—Leamington"
          }
        ],
        "pollDivisionIds": [
          10137526
        ],
        "postalCode": "N7M5T1",
        "streetName": "SIXTH",
        "streetDirectionId": "E",
        "streetTypeId": "LINE",
        "placeName": "CHATHAM",
        "streetNameDisplayText": "SIXTH LINE E, CHATHAM"
      },
      {
        "electoralDistricts": [
          {
            "election": null,
            "id": 18,
            "name": "Chatham-Kent—Leamington"
          }
        ],
        "pollDivisionIds": [
          10137526
        ],
        "postalCode": "N7M5T1",
        "streetName": "SIXTH",
        "streetDirectionId": "E",
        "streetTypeId": "LINE",
        "placeName": "MERLIN",
        "streetNameDisplayText": "SIXTH LINE E, MERLIN"
      },
      {
        "electoralDistricts": [
          {
            "election": null,
            "id": 18,
            "name": "Chatham-Kent—Leamington"
          }
        ],
        "pollDivisionIds": [
          10137526
        ],
        "postalCode": "N7M5T1",
        "streetName": "THIRD",
        "streetDirectionId": null,
        "streetTypeId": "LINE",
        "placeName": "CHATHAM",
        "streetNameDisplayText": "THIRD LINE, CHATHAM"
      }
    ]
  },
  {
    "postal": "N7M3B3",
    "result": [
      {
        "electoralDistricts": [
          {
            "election": null,
            "id": 18,
            "name": "Chatham-Kent—Leamington"
          }
        ],
        "pollDivisionIds": [
          10137547
        ],
        "postalCode": "N7M3B3",
        "streetName": "BERRY",
        "streetDirectionId": null,
        "streetTypeId": "ST",
        "placeName": "CHATHAM",
        "streetNameDisplayText": "BERRY ST, CHATHAM"
      }
    ]
  },
  {
    "postal": "N7M6C6",
    "result": [
      {
        "electoralDistricts": [
          {
            "election": null,
            "id": 18,
            "name": "Chatham-Kent—Leamington"
          }
        ],
        "pollDivisionIds": [
          10137547
        ],
        "postalCode": "N7M6C6",
        "streetName": "BYNG",
        "streetDirectionId": null,
        "streetTypeId": "AVE",
        "placeName": "CHATHAM",
        "streetNameDisplayText": "BYNG AVE, CHATHAM"
      }
    ]
  },
  {
    "postal": "N7M7N8",
    "result": []
  },
  {
    "postal": "N7M2Y3",
    "result": [
      {
        "electoralDistricts": [
          {
            "election": null,
            "id": 18,
            "name": "Chatham-Kent—Leamington"
          }
        ],
        "pollDivisionIds": [
          10137548
        ],
        "postalCode": "N7M2Y3",
        "streetName": "FAUBERT",
        "streetDirectionId": null,
        "streetTypeId": "DR",
        "placeName": "CHATHAM",
        "streetNameDisplayText": "FAUBERT DR, CHATHAM"
      }
    ]
  },
  {
    "postal": "N7M2R6",
    "result": [
      {
        "electoralDistricts": [
          {
            "election": null,
            "id": 18,
            "name": "Chatham-Kent—Leamington"
          }
        ],
        "pollDivisionIds": [
          10137545
        ],
        "postalCode": "N7M2R6",
        "streetName": "WEST",
        "streetDirectionId": null,
        "streetTypeId": "ST",
        "placeName": "CHATHAM",
        "streetNameDisplayText": "WEST ST, CHATHAM"
      }
    ]
  },
  {
    "postal": "N7M7N3",
    "result": []
  },
  {
    "postal": "N7M8J2",
    "result": []
  },
  {
    "postal": "N7M6A9",
    "result": [
      {
        "electoralDistricts": [
          {
            "election": null,
            "id": 18,
            "name": "Chatham-Kent—Leamington"
          }
        ],
        "pollDivisionIds": [
          10137546
        ],
        "postalCode": "N7M6A9",
        "streetName": "KING",
        "streetDirectionId": "W",
        "streetTypeId": "ST",
        "placeName": "CHATHAM",
        "streetNameDisplayText": "KING ST W, CHATHAM"
      }
    ]
  },
  {
    "postal": "N7M3V2",
    "result": [
      {
        "electoralDistricts": [
          {
            "election": null,
            "id": 18,
            "name": "Chatham-Kent—Leamington"
          }
        ],
        "pollDivisionIds": [
          10137549
        ],
        "postalCode": "N7M3V2",
        "streetName": "PARK",
        "streetDirectionId": "E",
        "streetTypeId": "AVE",
        "placeName": "CHATHAM",
        "streetNameDisplayText": "PARK AVE E, CHATHAM"
      }
    ]
  },
  {
    "postal": "N7M2N3",
    "result": [
      {
        "electoralDistricts": [
          {
            "election": null,
            "id": 18,
            "name": "Chatham-Kent—Leamington"
          }
        ],
        "pollDivisionIds": [
          10137545
        ],
        "postalCode": "N7M2N3",
        "streetName": "RALEIGH",
        "streetDirectionId": null,
        "streetTypeId": "ST",
        "placeName": "CHATHAM",
        "streetNameDisplayText": "RALEIGH ST, CHATHAM"
      }
    ]
  },
  {
    "postal": "N7M1S5",
    "result": [
      {
        "electoralDistricts": [
          {
            "election": null,
            "id": 18,
            "name": "Chatham-Kent—Leamington"
          }
        ],
        "pollDivisionIds": [
          10137547
        ],
        "postalCode": "N7M1S5",
        "streetName": "LORNE",
        "streetDirectionId": null,
        "streetTypeId": "AVE",
        "placeName": "CHATHAM",
        "streetNameDisplayText": "LORNE AVE, CHATHAM"
      }
    ]
  },
  {
    "postal": "N7M4T7",
    "result": []
  },
  {
    "postal": "N7M6Y7",
    "result": []
  },
  {
    "postal": "N7M0W7",
    "result": []
  },
  {
    "postal": "N7M2W9",
    "result": [
      {
        "electoralDistricts": [
          {
            "election": null,
            "id": 18,
            "name": "Chatham-Kent—Leamington"
          }
        ],
        "pollDivisionIds": [
          10137548
        ],
        "postalCode": "N7M2W9",
        "streetName": "LACROIX",
        "streetDirectionId": null,
        "streetTypeId": "ST",
        "placeName": "CHATHAM",
        "streetNameDisplayText": "LACROIX ST, CHATHAM"
      }
    ]
  },
  {
    "postal": "N7M8V0",
    "result": []
  },
  {
    "postal": "N7M0H4",
    "result": []
  },
  {
    "postal": "N7M2T1",
    "result": [
      {
        "electoralDistricts": [
          {
            "election": null,
            "id": 18,
            "name": "Chatham-Kent—Leamington"
          }
        ],
        "pollDivisionIds": [
          10137548
        ],
        "postalCode": "N7M2T1",
        "streetName": "SOURIQUOIS",
        "streetDirectionId": null,
        "streetTypeId": "ST",
        "placeName": "CHATHAM",
        "streetNameDisplayText": "SOURIQUOIS ST, CHATHAM"
      }
    ]
  },
  {
    "postal": "N7M1B1",
    "result": [
      {
        "electoralDistricts": [
          {
            "election": null,
            "id": 18,
            "name": "Chatham-Kent—Leamington"
          }
        ],
        "pollDivisionIds": [
          10137544
        ],
        "postalCode": "N7M1B1",
        "streetName": "TECUMSEH",
        "streetDirectionId": null,
        "streetTypeId": "RD",
        "placeName": "CHATHAM",
        "streetNameDisplayText": "TECUMSEH RD, CHATHAM"
      }
    ]
  },
  {
    "postal": "N7M8B6",
    "result": []
  },
  {
    "postal": "N7M6H1",
    "result": [
      {
        "electoralDistricts": [
          {
            "election": null,
            "id": 18,
            "name": "Chatham-Kent—Leamington"
          }
        ],
        "pollDivisionIds": [
          10137546
        ],
        "postalCode": "N7M6H1",
        "streetName": "KING",
        "streetDirectionId": "E",
        "streetTypeId": "ST",
        "placeName": "CHATHAM",
        "streetNameDisplayText": "KING ST E, CHATHAM"
      },
      {
        "electoralDistricts": [
          {
            "election": null,
            "id": 18,
            "name": "Chatham-Kent—Leamington"
          }
        ],
        "pollDivisionIds": [
          10137546
        ],
        "postalCode": "N7M6H1",
        "streetName": "KING",
        "streetDirectionId": "W",
        "streetTypeId": "ST",
        "placeName": "CHATHAM",
        "streetNameDisplayText": "KING ST W, CHATHAM"
      }
    ]
  },
  {
    "postal": "N7M8T8",
    "result": []
  },
  {
    "postal": "N7M0T4",
    "result": []
  },
  {
    "postal": "N7M2C4",
    "result": [
      {
        "electoralDistricts": [
          {
            "election": null,
            "id": 18,
            "name": "Chatham-Kent—Leamington"
          }
        ],
        "pollDivisionIds": [
          10137548
        ],
        "postalCode": "N7M2C4",
        "streetName": "CECILE",
        "streetDirectionId": null,
        "streetTypeId": "AVE",
        "placeName": "CHATHAM",
        "streetNameDisplayText": "CECILE AVE, CHATHAM"
      }
    ]
  },
  {
    "postal": "N7M8N3",
    "result": []
  },
  {
    "postal": "N7M4L8",
    "result": [
      {
        "electoralDistricts": [
          {
            "election": null,
            "id": 18,
            "name": "Chatham-Kent—Leamington"
          }
        ],
        "pollDivisionIds": [
          10137546
        ],
        "postalCode": "N7M4L8",
        "streetName": "DUKE",
        "streetDirectionId": "S",
        "streetTypeId": "ST",
        "placeName": "CHATHAM",
        "streetNameDisplayText": "DUKE ST S, CHATHAM"
      }
    ]
  },
  {
    "postal": "N7M2B5",
    "result": [
      {
        "electoralDistricts": [
          {
            "election": null,
            "id": 18,
            "name": "Chatham-Kent—Leamington"
          }
        ],
        "pollDivisionIds": [
          10137548
        ],
        "postalCode": "N7M2B5",
        "streetName": "CHIPPEWA",
        "streetDirectionId": null,
        "streetTypeId": "DR",
        "placeName": "CHATHAM",
        "streetNameDisplayText": "CHIPPEWA DR, CHATHAM"
      }
    ]
  },
  {
    "postal": "N7M3H1",
    "result": [
      {
        "electoralDistricts": [
          {
            "election": null,
            "id": 18,
            "name": "Chatham-Kent—Leamington"
          }
        ],
        "pollDivisionIds": [
          10137544
        ],
        "postalCode": "N7M3H1",
        "streetName": "KEIL",
        "streetDirectionId": "S",
        "streetTypeId": "DR",
        "placeName": "CHATHAM",
        "streetNameDisplayText": "KEIL DR S, CHATHAM"
      }
    ]
  },
  {
    "postal": "N7M4Y1",
    "result": [
      {
        "electoralDistricts": [
          {
            "election": null,
            "id": 18,
            "name": "Chatham-Kent—Leamington"
          }
        ],
        "pollDivisionIds": [
          10137549
        ],
        "postalCode": "N7M4Y1",
        "streetName": "PARK",
        "streetDirectionId": null,
        "streetTypeId": "LANE",
        "placeName": "CHATHAM",
        "streetNameDisplayText": "PARK LANE, CHATHAM"
      }
    ]
  },
  {
    "postal": "N7M7E2",
    "result": []
  },
  {
    "postal": "N7M2P5",
    "result": [
      {
        "electoralDistricts": [
          {
            "election": null,
            "id": 18,
            "name": "Chatham-Kent—Leamington"
          }
        ],
        "pollDivisionIds": [
          10137547
        ],
        "postalCode": "N7M2P5",
        "streetName": "DUNN",
        "streetDirectionId": null,
        "streetTypeId": "AVE",
        "placeName": "CHATHAM",
        "streetNameDisplayText": "DUNN AVE, CHATHAM"
      }
    ]
  },
  {
    "postal": "N7M8R7",
    "result": []
  },
  {
    "postal": "N7M9P1",
    "result": []
  },
  {
    "postal": "N7M3B8",
    "result": [
      {
        "electoralDistricts": [
          {
            "election": null,
            "id": 18,
            "name": "Chatham-Kent—Leamington"
          }
        ],
        "pollDivisionIds": [
          10137544
        ],
        "postalCode": "N7M3B8",
        "streetName": "PHYLLIS",
        "streetDirectionId": null,
        "streetTypeId": "AVE",
        "placeName": "CHATHAM",
        "streetNameDisplayText": "PHYLLIS AVE, CHATHAM"
      }
    ]
  },
  {
    "postal": "N7M3P7",
    "result": [
      {
        "electoralDistricts": [
          {
            "election": null,
            "id": 18,
            "name": "Chatham-Kent—Leamington"
          }
        ],
        "pollDivisionIds": [
          10137545
        ],
        "postalCode": "N7M3P7",
        "streetName": "KIRK",
        "streetDirectionId": null,
        "streetTypeId": "ST",
        "placeName": "CHATHAM",
        "streetNameDisplayText": "KIRK ST, CHATHAM"
      }
    ]
  },
  {
    "postal": "N7M9B2",
    "result": []
  },
  {
    "postal": "N7M6Z3",
    "result": []
  },
  {
    "postal": "N7M4N5",
    "result": [
      {
        "electoralDistricts": [
          {
            "election": null,
            "id": 18,
            "name": "Chatham-Kent—Leamington"
          }
        ],
        "pollDivisionIds": [
          10137545
        ],
        "postalCode": "N7M4N5",
        "streetName": "FOSTER",
        "streetDirectionId": null,
        "streetTypeId": "ST",
        "placeName": "CHATHAM",
        "streetNameDisplayText": "FOSTER ST, CHATHAM"
      }
    ]
  },
  {
    "postal": "N7M8T3",
    "result": []
  },
  {
    "postal": "N7M1V2",
    "result": [
      {
        "electoralDistricts": [
          {
            "election": null,
            "id": 18,
            "name": "Chatham-Kent—Leamington"
          }
        ],
        "pollDivisionIds": [
          10137545
        ],
        "postalCode": "N7M1V2",
        "streetName": "PATTESON",
        "streetDirectionId": null,
        "streetTypeId": "AVE",
        "placeName": "CHATHAM",
        "streetNameDisplayText": "PATTESON AVE, CHATHAM"
      }
    ]
  },
  {
    "postal": "N7M1Y0",
    "result": []
  },
  {
    "postal": "N7M3G6",
    "result": [
      {
        "electoralDistricts": [
          {
            "election": null,
            "id": 18,
            "name": "Chatham-Kent—Leamington"
          }
        ],
        "pollDivisionIds": [
          10137544
        ],
        "postalCode": "N7M3G6",
        "streetName": "ORCHARD HEIGHTS",
        "streetDirectionId": null,
        "streetTypeId": "DR",
        "placeName": "CHATHAM",
        "streetNameDisplayText": "ORCHARD HEIGHTS DR, CHATHAM"
      }
    ]
  },
  {
    "postal": "N7M3H7",
    "result": [
      {
        "electoralDistricts": [
          {
            "election": null,
            "id": 18,
            "name": "Chatham-Kent—Leamington"
          }
        ],
        "pollDivisionIds": [
          10137546
        ],
        "postalCode": "N7M3H7",
        "streetName": "WATER",
        "streetDirectionId": null,
        "streetTypeId": "ST",
        "placeName": "CHATHAM",
        "streetNameDisplayText": "WATER ST, CHATHAM"
      }
    ]
  },
  {
    "postal": "N7M7X8",
    "result": []
  },
  {
    "postal": "N7M0C7",
    "result": []
  },
  {
    "postal": "N7M0W9",
    "result": []
  },
  {
    "postal": "N7M8E6",
    "result": []
  },
  {
    "postal": "N7M9Z8",
    "result": []
  },
  {
    "postal": "N7M3P4",
    "result": [
      {
        "electoralDistricts": [
          {
            "election": null,
            "id": 18,
            "name": "Chatham-Kent—Leamington"
          }
        ],
        "pollDivisionIds": [
          10137546
        ],
        "postalCode": "N7M3P4",
        "streetName": "WELLINGTON",
        "streetDirectionId": "E",
        "streetTypeId": "ST",
        "placeName": "CHATHAM",
        "streetNameDisplayText": "WELLINGTON ST E, CHATHAM"
      }
    ]
  },
  {
    "postal": "N7M6L8",
    "result": [
      {
        "electoralDistricts": [
          {
            "election": null,
            "id": 18,
            "name": "Chatham-Kent—Leamington"
          }
        ],
        "pollDivisionIds": [
          10137547
        ],
        "postalCode": "N7M6L8",
        "streetName": "KEIL",
        "streetDirectionId": "S",
        "streetTypeId": "DR",
        "placeName": "CHATHAM",
        "streetNameDisplayText": "KEIL DR S, CHATHAM"
      }
    ]
  },
  {
    "postal": "N7M2R4",
    "result": [
      {
        "electoralDistricts": [
          {
            "election": null,
            "id": 18,
            "name": "Chatham-Kent—Leamington"
          }
        ],
        "pollDivisionIds": [
          10137546
        ],
        "postalCode": "N7M2R4",
        "streetName": "WEST",
        "streetDirectionId": null,
        "streetTypeId": "ST",
        "placeName": "CHATHAM",
        "streetNameDisplayText": "WEST ST, CHATHAM"
      }
    ]
  },
  {
    "postal": "N7M2W1",
    "result": []
  },
  {
    "postal": "N7M9H8",
    "result": []
  },
  {
    "postal": "N7M8X9",
    "result": []
  },
  {
    "postal": "N7M7H4",
    "result": []
  },
  {
    "postal": "N7M3J1",
    "result": [
      {
        "electoralDistricts": [
          {
            "election": null,
            "id": 18,
            "name": "Chatham-Kent—Leamington"
          }
        ],
        "pollDivisionIds": [
          10137546
        ],
        "postalCode": "N7M3J1",
        "streetName": "STANLEY",
        "streetDirectionId": null,
        "streetTypeId": "AVE",
        "placeName": "CHATHAM",
        "streetNameDisplayText": "STANLEY AVE, CHATHAM"
      }
    ]
  },
  {
    "postal": "N7M1P4",
    "result": [
      {
        "electoralDistricts": [
          {
            "election": null,
            "id": 18,
            "name": "Chatham-Kent—Leamington"
          }
        ],
        "pollDivisionIds": [
          10137547,
          10137545
        ],
        "postalCode": "N7M1P4",
        "streetName": "RICHMOND",
        "streetDirectionId": null,
        "streetTypeId": "ST",
        "placeName": "CHATHAM",
        "streetNameDisplayText": "RICHMOND ST, CHATHAM"
      }
    ]
  },
  {
    "postal": "N7M2A3",
    "result": [
      {
        "electoralDistricts": [
          {
            "election": null,
            "id": 18,
            "name": "Chatham-Kent—Leamington"
          }
        ],
        "pollDivisionIds": [
          10137547
        ],
        "postalCode": "N7M2A3",
        "streetName": "TWEEDSMUIR",
        "streetDirectionId": "W",
        "streetTypeId": "AVE",
        "placeName": "CHATHAM",
        "streetNameDisplayText": "TWEEDSMUIR AVE W, CHATHAM"
      }
    ]
  },
  {
    "postal": "N7M0Z1",
    "result": []
  },
  {
    "postal": "N7M1C1",
    "result": [
      {
        "electoralDistricts": [
          {
            "election": null,
            "id": 18,
            "name": "Chatham-Kent—Leamington"
          }
        ],
        "pollDivisionIds": [
          10137544
        ],
        "postalCode": "N7M1C1",
        "streetName": "KERR",
        "streetDirectionId": null,
        "streetTypeId": "AVE",
        "placeName": "CHATHAM",
        "streetNameDisplayText": "KERR AVE, CHATHAM"
      }
    ]
  },
  {
    "postal": "N7M0H3",
    "result": []
  },
  {
    "postal": "N7M7B0",
    "result": []
  },
  {
    "postal": "N7M5K2",
    "result": []
  },
  {
    "postal": "N7M1E9",
    "result": [
      {
        "electoralDistricts": [
          {
            "election": null,
            "id": 18,
            "name": "Chatham-Kent—Leamington"
          }
        ],
        "pollDivisionIds": [
          10137540
        ],
        "postalCode": "N7M1E9",
        "streetName": "KING",
        "streetDirectionId": "W",
        "streetTypeId": "ST",
        "placeName": "CHATHAM",
        "streetNameDisplayText": "KING ST W, CHATHAM"
      }
    ]
  },
  {
    "postal": "N7M9W7",
    "result": []
  },
  {
    "postal": "N7M5W6",
    "result": [
      {
        "electoralDistricts": [
          {
            "election": null,
            "id": 18,
            "name": "Chatham-Kent—Leamington"
          }
        ],
        "pollDivisionIds": [
          10137545
        ],
        "postalCode": "N7M5W6",
        "streetName": "MASSEY",
        "streetDirectionId": null,
        "streetTypeId": "LANE",
        "placeName": "CHATHAM",
        "streetNameDisplayText": "MASSEY LANE, CHATHAM"
      }
    ]
  },
  {
    "postal": "N7M6S6",
    "result": []
  },
  {
    "postal": "N7M2P8",
    "result": [
      {
        "electoralDistricts": [
          {
            "election": null,
            "id": 18,
            "name": "Chatham-Kent—Leamington"
          }
        ],
        "pollDivisionIds": [
          10137540
        ],
        "postalCode": "N7M2P8",
        "streetName": "FIRST",
        "streetDirectionId": null,
        "streetTypeId": "ST",
        "placeName": "CHATHAM",
        "streetNameDisplayText": "FIRST ST, CHATHAM"
      }
    ]
  },
  {
    "postal": "N7M4P8",
    "result": [
      {
        "electoralDistricts": [
          {
            "election": null,
            "id": 18,
            "name": "Chatham-Kent—Leamington"
          }
        ],
        "pollDivisionIds": [
          10137546
        ],
        "postalCode": "N7M4P8",
        "streetName": "ADELAIDE",
        "streetDirectionId": "S",
        "streetTypeId": "ST",
        "placeName": "CHATHAM",
        "streetNameDisplayText": "ADELAIDE ST S, CHATHAM"
      }
    ]
  },
  {
    "postal": "N7M0V9",
    "result": []
  },
  {
    "postal": "N7M5Y2",
    "result": [
      {
        "electoralDistricts": [
          {
            "election": null,
            "id": 18,
            "name": "Chatham-Kent—Leamington"
          }
        ],
        "pollDivisionIds": [
          10137548
        ],
        "postalCode": "N7M5Y2",
        "streetName": "ALGONQUIAN",
        "streetDirectionId": null,
        "streetTypeId": "DR",
        "placeName": "CHATHAM",
        "streetNameDisplayText": "ALGONQUIAN DR, CHATHAM"
      }
    ]
  },
  {
    "postal": "N7M7Z7",
    "result": []
  },
  {
    "postal": "N7M6Y8",
    "result": []
  },
  {
    "postal": "N7M2G7",
    "result": [
      {
        "electoralDistricts": [
          {
            "election": null,
            "id": 18,
            "name": "Chatham-Kent—Leamington"
          }
        ],
        "pollDivisionIds": [
          10137546
        ],
        "postalCode": "N7M2G7",
        "streetName": "QUEEN",
        "streetDirectionId": null,
        "streetTypeId": "ST",
        "placeName": "CHATHAM",
        "streetNameDisplayText": "QUEEN ST, CHATHAM"
      }
    ]
  },
  {
    "postal": "N7M8C1",
    "result": []
  },
  {
    "postal": "N7M5C5",
    "result": [
      {
        "electoralDistricts": [
          {
            "election": null,
            "id": 18,
            "name": "Chatham-Kent—Leamington"
          }
        ],
        "pollDivisionIds": [
          10137550
        ],
        "postalCode": "N7M5C5",
        "streetName": "SIMONTON",
        "streetDirectionId": null,
        "streetTypeId": "DR",
        "placeName": "CHATHAM",
        "streetNameDisplayText": "SIMONTON DR, CHATHAM"
      }
    ]
  },
  {
    "postal": "N7M2X8",
    "result": [
      {
        "electoralDistricts": [
          {
            "election": null,
            "id": 18,
            "name": "Chatham-Kent—Leamington"
          }
        ],
        "pollDivisionIds": [
          10137544
        ],
        "postalCode": "N7M2X8",
        "streetName": "KENSINGTON",
        "streetDirectionId": null,
        "streetTypeId": "PL",
        "placeName": "CHATHAM",
        "streetNameDisplayText": "KENSINGTON PL, CHATHAM"
      }
    ]
  },
  {
    "postal": "N7M1W5",
    "result": [
      {
        "electoralDistricts": [
          {
            "election": null,
            "id": 18,
            "name": "Chatham-Kent—Leamington"
          }
        ],
        "pollDivisionIds": [
          10137547
        ],
        "postalCode": "N7M1W5",
        "streetName": "PARK",
        "streetDirectionId": "W",
        "streetTypeId": "AVE",
        "placeName": "CHATHAM",
        "streetNameDisplayText": "PARK AVE W, CHATHAM"
      }
    ]
  },
  {
    "postal": "N7M7G0",
    "result": []
  },
  {
    "postal": "N7M8J8",
    "result": []
  },
  {
    "postal": "N7M3Y0",
    "result": []
  },
  {
    "postal": "N7M9T7",
    "result": []
  },
  {
    "postal": "N7M5P4",
    "result": [
      {
        "electoralDistricts": [
          {
            "election": null,
            "id": 18,
            "name": "Chatham-Kent—Leamington"
          }
        ],
        "pollDivisionIds": [
          10137548
        ],
        "postalCode": "N7M5P4",
        "streetName": "SYLVESTER",
        "streetDirectionId": null,
        "streetTypeId": "DR",
        "placeName": "CHATHAM",
        "streetNameDisplayText": "SYLVESTER DR, CHATHAM"
      }
    ]
  },
  {
    "postal": "N7M4B0",
    "result": []
  },
  {
    "postal": "N7M9N8",
    "result": []
  },
  {
    "postal": "N7M4A7",
    "result": [
      {
        "electoralDistricts": [
          {
            "election": null,
            "id": 18,
            "name": "Chatham-Kent—Leamington"
          }
        ],
        "pollDivisionIds": [
          10137550
        ],
        "postalCode": "N7M4A7",
        "streetName": "MERCER",
        "streetDirectionId": null,
        "streetTypeId": "ST",
        "placeName": "CHATHAM",
        "streetNameDisplayText": "MERCER ST, CHATHAM"
      }
    ]
  },
  {
    "postal": "N7M4H9",
    "result": [
      {
        "electoralDistricts": [
          {
            "election": null,
            "id": 18,
            "name": "Chatham-Kent—Leamington"
          }
        ],
        "pollDivisionIds": [
          10137546
        ],
        "postalCode": "N7M4H9",
        "streetName": "SPARKS",
        "streetDirectionId": null,
        "streetTypeId": "DR",
        "placeName": "CHATHAM",
        "streetNameDisplayText": "SPARKS DR, CHATHAM"
      }
    ]
  },
  {
    "postal": "N7M6X1",
    "result": []
  },
  {
    "postal": "N7M9Y7",
    "result": []
  },
  {
    "postal": "N7M2Y5",
    "result": [
      {
        "electoralDistricts": [
          {
            "election": null,
            "id": 18,
            "name": "Chatham-Kent—Leamington"
          }
        ],
        "pollDivisionIds": [
          10137548
        ],
        "postalCode": "N7M2Y5",
        "streetName": "FAUBERT",
        "streetDirectionId": null,
        "streetTypeId": "DR",
        "placeName": "CHATHAM",
        "streetNameDisplayText": "FAUBERT DR, CHATHAM"
      }
    ]
  },
  {
    "postal": "N7M8L7",
    "result": []
  },
  {
    "postal": "N7M2A8",
    "result": [
      {
        "electoralDistricts": [
          {
            "election": null,
            "id": 18,
            "name": "Chatham-Kent—Leamington"
          }
        ],
        "pollDivisionIds": [
          10137548
        ],
        "postalCode": "N7M2A8",
        "streetName": "TWEEDSMUIR",
        "streetDirectionId": "W",
        "streetTypeId": "AVE",
        "placeName": "CHATHAM",
        "streetNameDisplayText": "TWEEDSMUIR AVE W, CHATHAM"
      }
    ]
  },
  {
    "postal": "N7M2K9",
    "result": []
  },
  {
    "postal": "N7M3E5",
    "result": [
      {
        "electoralDistricts": [
          {
            "election": null,
            "id": 18,
            "name": "Chatham-Kent—Leamington"
          }
        ],
        "pollDivisionIds": [
          10137548
        ],
        "postalCode": "N7M3E5",
        "streetName": "VANDERPARK",
        "streetDirectionId": null,
        "streetTypeId": "DR",
        "placeName": "CHATHAM",
        "streetNameDisplayText": "VANDERPARK DR, CHATHAM"
      }
    ]
  },
  {
    "postal": "N7M8N6",
    "result": []
  },
  {
    "postal": "N7M8J4",
    "result": []
  },
  {
    "postal": "N7M4R7",
    "result": [
      {
        "electoralDistricts": [
          {
            "election": null,
            "id": 18,
            "name": "Chatham-Kent—Leamington"
          }
        ],
        "pollDivisionIds": [
          10137545
        ],
        "postalCode": "N7M4R7",
        "streetName": "ADELAIDE",
        "streetDirectionId": "S",
        "streetTypeId": "ST",
        "placeName": "CHATHAM",
        "streetNameDisplayText": "ADELAIDE ST S, CHATHAM"
      }
    ]
  },
  {
    "postal": "N7M9K1",
    "result": []
  },
  {
    "postal": "N7M8E1",
    "result": []
  },
  {
    "postal": "N7M0R1",
    "result": [
      {
        "electoralDistricts": [
          {
            "election": null,
            "id": 50,
            "name": "Lambton—Kent—Middlesex"
          }
        ],
        "pollDivisionIds": [
          10143353
        ],
        "postalCode": "N7M0R1",
        "streetName": "PRINCE ALBERT",
        "streetDirectionId": null,
        "streetTypeId": "RD",
        "placeName": "CHATHAM",
        "streetNameDisplayText": "PRINCE ALBERT RD, CHATHAM"
      }
    ]
  },
  {
    "postal": "N7M4J3",
    "result": [
      {
        "electoralDistricts": [
          {
            "election": null,
            "id": 18,
            "name": "Chatham-Kent—Leamington"
          }
        ],
        "pollDivisionIds": [
          10137546
        ],
        "postalCode": "N7M4J3",
        "streetName": "LANSDOWNE",
        "streetDirectionId": null,
        "streetTypeId": "AVE",
        "placeName": "CHATHAM",
        "streetNameDisplayText": "LANSDOWNE AVE, CHATHAM"
      }
    ]
  },
  {
    "postal": "N7M7E7",
    "result": []
  },
  {
    "postal": "N7M0J0",
    "result": []
  },
  {
    "postal": "N7M7R8",
    "result": []
  },
  {
    "postal": "N7M9X0",
    "result": []
  },
  {
    "postal": "N7M7P6",
    "result": []
  },
  {
    "postal": "N7M0R7",
    "result": []
  },
  {
    "postal": "N7M5W1",
    "result": [
      {
        "electoralDistricts": [
          {
            "election": null,
            "id": 18,
            "name": "Chatham-Kent—Leamington"
          }
        ],
        "pollDivisionIds": [
          10137548
        ],
        "postalCode": "N7M5W1",
        "streetName": "DALEVIEW",
        "streetDirectionId": null,
        "streetTypeId": "CRES",
        "placeName": "CHATHAM",
        "streetNameDisplayText": "DALEVIEW CRES, CHATHAM"
      }
    ]
  },
  {
    "postal": "N7M0K4",
    "result": []
  },
  {
    "postal": "N7M7N9",
    "result": []
  },
  {
    "postal": "N7M1N0",
    "result": []
  },
  {
    "postal": "N7M6P3",
    "result": []
  },
  {
    "postal": "N7M5A1",
    "result": [
      {
        "electoralDistricts": [
          {
            "election": null,
            "id": 18,
            "name": "Chatham-Kent—Leamington"
          }
        ],
        "pollDivisionIds": [
          10137550
        ],
        "postalCode": "N7M5A1",
        "streetName": "DUNVEGAN",
        "streetDirectionId": null,
        "streetTypeId": "DR",
        "placeName": "CHATHAM",
        "streetNameDisplayText": "DUNVEGAN DR, CHATHAM"
      }
    ]
  },
  {
    "postal": "N7M9M9",
    "result": []
  },
  {
    "postal": "N7M7T6",
    "result": []
  },
  {
    "postal": "N7M3X0",
    "result": []
  },
  {
    "postal": "N7M2T0",
    "result": []
  },
  {
    "postal": "N7M5X9",
    "result": [
      {
        "electoralDistricts": [
          {
            "election": null,
            "id": 18,
            "name": "Chatham-Kent—Leamington"
          }
        ],
        "pollDivisionIds": [
          10137548
        ],
        "postalCode": "N7M5X9",
        "streetName": "SYLVESTER",
        "streetDirectionId": null,
        "streetTypeId": "DR",
        "placeName": "CHATHAM",
        "streetNameDisplayText": "SYLVESTER DR, CHATHAM"
      }
    ]
  },
  {
    "postal": "N7M2R3",
    "result": [
      {
        "electoralDistricts": [
          {
            "election": null,
            "id": 18,
            "name": "Chatham-Kent—Leamington"
          }
        ],
        "pollDivisionIds": [
          10137546
        ],
        "postalCode": "N7M2R3",
        "streetName": "WEST",
        "streetDirectionId": null,
        "streetTypeId": "ST",
        "placeName": "CHATHAM",
        "streetNameDisplayText": "WEST ST, CHATHAM"
      }
    ]
  },
  {
    "postal": "N7M5N2",
    "result": [
      {
        "electoralDistricts": [
          {
            "election": null,
            "id": 18,
            "name": "Chatham-Kent—Leamington"
          }
        ],
        "pollDivisionIds": [
          10137547
        ],
        "postalCode": "N7M5N2",
        "streetName": "MARION",
        "streetDirectionId": null,
        "streetTypeId": "AVE",
        "placeName": "CHATHAM",
        "streetNameDisplayText": "MARION AVE, CHATHAM"
      }
    ]
  },
  {
    "postal": "N7M4Y7",
    "result": [
      {
        "electoralDistricts": [
          {
            "election": null,
            "id": 18,
            "name": "Chatham-Kent—Leamington"
          }
        ],
        "pollDivisionIds": [
          10137550
        ],
        "postalCode": "N7M4Y7",
        "streetName": "LINCOLN",
        "streetDirectionId": null,
        "streetTypeId": "RD",
        "placeName": "CHATHAM",
        "streetNameDisplayText": "LINCOLN RD, CHATHAM"
      }
    ]
  },
  {
    "postal": "N7M7M0",
    "result": []
  },
  {
    "postal": "N7M8P3",
    "result": []
  },
  {
    "postal": "N7M3N3",
    "result": [
      {
        "electoralDistricts": [
          {
            "election": null,
            "id": 18,
            "name": "Chatham-Kent—Leamington"
          }
        ],
        "pollDivisionIds": [
          10137546
        ],
        "postalCode": "N7M3N3",
        "streetName": "KING",
        "streetDirectionId": "E",
        "streetTypeId": "ST",
        "placeName": "CHATHAM",
        "streetNameDisplayText": "KING ST E, CHATHAM"
      }
    ]
  },
  {
    "postal": "N7M7S3",
    "result": []
  },
  {
    "postal": "N7M3V9",
    "result": [
      {
        "electoralDistricts": [
          {
            "election": null,
            "id": 18,
            "name": "Chatham-Kent—Leamington"
          }
        ],
        "pollDivisionIds": [
          10137549
        ],
        "postalCode": "N7M3V9",
        "streetName": "PARK",
        "streetDirectionId": "E",
        "streetTypeId": "AVE",
        "placeName": "CHATHAM",
        "streetNameDisplayText": "PARK AVE E, CHATHAM"
      }
    ]
  },
  {
    "postal": "N7M9N7",
    "result": []
  },
  {
    "postal": "N7M0G4",
    "result": []
  },
  {
    "postal": "N7M2E2",
    "result": [
      {
        "electoralDistricts": [
          {
            "election": null,
            "id": 18,
            "name": "Chatham-Kent—Leamington"
          }
        ],
        "pollDivisionIds": [
          10137552,
          10137551,
          10137548
        ],
        "postalCode": "N7M2E2",
        "streetName": "INDIAN CREEK",
        "streetDirectionId": "W",
        "streetTypeId": "RD",
        "placeName": "CHATHAM",
        "streetNameDisplayText": "INDIAN CREEK RD W, CHATHAM"
      }
    ]
  },
  {
    "postal": "N7M7W8",
    "result": []
  },
  {
    "postal": "N7M7M5",
    "result": []
  },
  {
    "postal": "N7M5W8",
    "result": []
  },
  {
    "postal": "N7M5E5",
    "result": [
      {
        "electoralDistricts": [
          {
            "election": null,
            "id": 18,
            "name": "Chatham-Kent—Leamington"
          }
        ],
        "pollDivisionIds": [
          10137550
        ],
        "postalCode": "N7M5E5",
        "streetName": "BROWN",
        "streetDirectionId": null,
        "streetTypeId": "CRT",
        "placeName": "CHATHAM",
        "streetNameDisplayText": "BROWN CRT, CHATHAM"
      }
    ]
  },
  {
    "postal": "N7M1P9",
    "result": [
      {
        "electoralDistricts": [
          {
            "election": null,
            "id": 18,
            "name": "Chatham-Kent—Leamington"
          }
        ],
        "pollDivisionIds": [
          10137547
        ],
        "postalCode": "N7M1P9",
        "streetName": "RICHMOND",
        "streetDirectionId": null,
        "streetTypeId": "ST",
        "placeName": "CHATHAM",
        "streetNameDisplayText": "RICHMOND ST, CHATHAM"
      }
    ]
  },
  {
    "postal": "N7M8V8",
    "result": []
  },
  {
    "postal": "N7M9G8",
    "result": []
  },
  {
    "postal": "N7M8H9",
    "result": []
  },
  {
    "postal": "N7M1Z1",
    "result": [
      {
        "electoralDistricts": [
          {
            "election": null,
            "id": 18,
            "name": "Chatham-Kent—Leamington"
          }
        ],
        "pollDivisionIds": [
          10137547
        ],
        "postalCode": "N7M1Z1",
        "streetName": "WILLOWMAC",
        "streetDirectionId": null,
        "streetTypeId": "AVE",
        "placeName": "CHATHAM",
        "streetNameDisplayText": "WILLOWMAC AVE, CHATHAM"
      }
    ]
  },
  {
    "postal": "N7M8M3",
    "result": []
  },
  {
    "postal": "N7M5H6",
    "result": [
      {
        "electoralDistricts": [
          {
            "election": null,
            "id": 18,
            "name": "Chatham-Kent—Leamington"
          }
        ],
        "pollDivisionIds": [
          10137552,
          10137551
        ],
        "postalCode": "N7M5H6",
        "streetName": "CHARING CROSS",
        "streetDirectionId": null,
        "streetTypeId": "RD",
        "placeName": "CHATHAM",
        "streetNameDisplayText": "CHARING CROSS RD, CHATHAM"
      }
    ]
  },
  {
    "postal": "N7M7W7",
    "result": []
  },
  {
    "postal": "N7M4L0",
    "result": []
  },
  {
    "postal": "N7M2N1",
    "result": [
      {
        "electoralDistricts": [
          {
            "election": null,
            "id": 18,
            "name": "Chatham-Kent—Leamington"
          }
        ],
        "pollDivisionIds": [
          10137545,
          10137546
        ],
        "postalCode": "N7M2N1",
        "streetName": "RALEIGH",
        "streetDirectionId": null,
        "streetTypeId": "ST",
        "placeName": "CHATHAM",
        "streetNameDisplayText": "RALEIGH ST, CHATHAM"
      }
    ]
  },
  {
    "postal": "N7M2H4",
    "result": [
      {
        "electoralDistricts": [
          {
            "election": null,
            "id": 18,
            "name": "Chatham-Kent—Leamington"
          }
        ],
        "pollDivisionIds": [
          10137545
        ],
        "postalCode": "N7M2H4",
        "streetName": "QUEEN",
        "streetDirectionId": null,
        "streetTypeId": "ST",
        "placeName": "CHATHAM",
        "streetNameDisplayText": "QUEEN ST, CHATHAM"
      }
    ]
  },
  {
    "postal": "N7M5C8",
    "result": [
      {
        "electoralDistricts": [
          {
            "election": null,
            "id": 18,
            "name": "Chatham-Kent—Leamington"
          }
        ],
        "pollDivisionIds": [
          10137550
        ],
        "postalCode": "N7M5C8",
        "streetName": "DOLSEN",
        "streetDirectionId": null,
        "streetTypeId": "RD",
        "placeName": "CHATHAM",
        "streetNameDisplayText": "DOLSEN RD, CHATHAM"
      }
    ]
  },
  {
    "postal": "N7M8B0",
    "result": []
  },
  {
    "postal": "N7M1T4",
    "result": [
      {
        "electoralDistricts": [
          {
            "election": null,
            "id": 18,
            "name": "Chatham-Kent—Leamington"
          }
        ],
        "pollDivisionIds": [
          10137545
        ],
        "postalCode": "N7M1T4",
        "streetName": "PATTESON",
        "streetDirectionId": null,
        "streetTypeId": "AVE",
        "placeName": "CHATHAM",
        "streetNameDisplayText": "PATTESON AVE, CHATHAM"
      }
    ]
  },
  {
    "postal": "N7M7N7",
    "result": []
  },
  {
    "postal": "N7M4L3",
    "result": [
      {
        "electoralDistricts": [
          {
            "election": null,
            "id": 18,
            "name": "Chatham-Kent—Leamington"
          }
        ],
        "pollDivisionIds": [
          10137546
        ],
        "postalCode": "N7M4L3",
        "streetName": "WILLIAM",
        "streetDirectionId": "N",
        "streetTypeId": "ST",
        "placeName": "CHATHAM",
        "streetNameDisplayText": "WILLIAM ST N, CHATHAM"
      }
    ]
  },
  {
    "postal": "N7M2N2",
    "result": [
      {
        "electoralDistricts": [
          {
            "election": null,
            "id": 18,
            "name": "Chatham-Kent—Leamington"
          }
        ],
        "pollDivisionIds": [
          10137546
        ],
        "postalCode": "N7M2N2",
        "streetName": "RALEIGH",
        "streetDirectionId": null,
        "streetTypeId": "ST",
        "placeName": "CHATHAM",
        "streetNameDisplayText": "RALEIGH ST, CHATHAM"
      }
    ]
  },
  {
    "postal": "N7M4N8",
    "result": [
      {
        "electoralDistricts": [
          {
            "election": null,
            "id": 18,
            "name": "Chatham-Kent—Leamington"
          }
        ],
        "pollDivisionIds": [
          10137546
        ],
        "postalCode": "N7M4N8",
        "streetName": "PRINCE",
        "streetDirectionId": "S",
        "streetTypeId": "ST",
        "placeName": "CHATHAM",
        "streetNameDisplayText": "PRINCE ST S, CHATHAM"
      }
    ]
  },
  {
    "postal": "N7M3M5",
    "result": [
      {
        "electoralDistricts": [
          {
            "election": null,
            "id": 18,
            "name": "Chatham-Kent—Leamington"
          }
        ],
        "pollDivisionIds": [
          10137546
        ],
        "postalCode": "N7M3M5",
        "streetName": "SCHOOL",
        "streetDirectionId": null,
        "streetTypeId": "ST",
        "placeName": "CHATHAM",
        "streetNameDisplayText": "SCHOOL ST, CHATHAM"
      },
      {
        "electoralDistricts": [
          {
            "election": null,
            "id": 18,
            "name": "Chatham-Kent—Leamington"
          }
        ],
        "pollDivisionIds": [
          10137546
        ],
        "postalCode": "N7M3M5",
        "streetName": "SCHOOOL",
        "streetDirectionId": null,
        "streetTypeId": "ST",
        "placeName": "CHATHAM",
        "streetNameDisplayText": "SCHOOOL ST, CHATHAM"
      }
    ]
  },
  {
    "postal": "N7M6H7",
    "result": [
      {
        "electoralDistricts": [
          {
            "election": null,
            "id": 18,
            "name": "Chatham-Kent—Leamington"
          }
        ],
        "pollDivisionIds": [
          10137544
        ],
        "postalCode": "N7M6H7",
        "streetName": "RIVERVIEW",
        "streetDirectionId": null,
        "streetTypeId": "DR",
        "placeName": "CHATHAM",
        "streetNameDisplayText": "RIVERVIEW DR, CHATHAM"
      }
    ]
  },
  {
    "postal": "N7M8Y8",
    "result": []
  },
  {
    "postal": "N7M5R9",
    "result": [
      {
        "electoralDistricts": [
          {
            "election": null,
            "id": 18,
            "name": "Chatham-Kent—Leamington"
          }
        ],
        "pollDivisionIds": [
          10137546
        ],
        "postalCode": "N7M5R9",
        "streetName": "PRINCESS",
        "streetDirectionId": "S",
        "streetTypeId": "ST",
        "placeName": "CHATHAM",
        "streetNameDisplayText": "PRINCESS ST S, CHATHAM"
      }
    ]
  },
  {
    "postal": "N7M8G3",
    "result": []
  },
  {
    "postal": "N7M4N7",
    "result": [
      {
        "electoralDistricts": [
          {
            "election": null,
            "id": 18,
            "name": "Chatham-Kent—Leamington"
          }
        ],
        "pollDivisionIds": [
          10137546
        ],
        "postalCode": "N7M4N7",
        "streetName": "PRINCE",
        "streetDirectionId": "S",
        "streetTypeId": "ST",
        "placeName": "CHATHAM",
        "streetNameDisplayText": "PRINCE ST S, CHATHAM"
      },
      {
        "electoralDistricts": [
          {
            "election": null,
            "id": 18,
            "name": "Chatham-Kent—Leamington"
          }
        ],
        "pollDivisionIds": [
          10137546
        ],
        "postalCode": "N7M4N7",
        "streetName": "WELLINGTON",
        "streetDirectionId": "E",
        "streetTypeId": "ST",
        "placeName": "CHATHAM",
        "streetNameDisplayText": "WELLINGTON ST E, CHATHAM"
      }
    ]
  },
  {
    "postal": "N7M0B9",
    "result": []
  },
  {
    "postal": "N7M9K7",
    "result": []
  },
  {
    "postal": "N7M9K9",
    "result": []
  },
  {
    "postal": "N7M3Z2",
    "result": [
      {
        "electoralDistricts": [
          {
            "election": null,
            "id": 18,
            "name": "Chatham-Kent—Leamington"
          }
        ],
        "pollDivisionIds": [
          10137550
        ],
        "postalCode": "N7M3Z2",
        "streetName": "EUGENIE",
        "streetDirectionId": null,
        "streetTypeId": "ST",
        "placeName": "CHATHAM",
        "streetNameDisplayText": "EUGENIE ST, CHATHAM"
      }
    ]
  },
  {
    "postal": "N7M6W7",
    "result": []
  },
  {
    "postal": "N7M0P1",
    "result": [
      {
        "electoralDistricts": [
          {
            "election": null,
            "id": 18,
            "name": "Chatham-Kent—Leamington"
          }
        ],
        "pollDivisionIds": [
          10137547
        ],
        "postalCode": "N7M0P1",
        "streetName": "SIXTH",
        "streetDirectionId": "E",
        "streetTypeId": "LINE",
        "placeName": "CHATHAM",
        "streetNameDisplayText": "SIXTH LINE E, CHATHAM"
      }
    ]
  },
  {
    "postal": "N7M3A0",
    "result": []
  },
  {
    "postal": "N7M8L9",
    "result": []
  },
  {
    "postal": "N7M6X0",
    "result": []
  },
  {
    "postal": "N7M3E9",
    "result": [
      {
        "electoralDistricts": [
          {
            "election": null,
            "id": 18,
            "name": "Chatham-Kent—Leamington"
          }
        ],
        "pollDivisionIds": [
          10137548
        ],
        "postalCode": "N7M3E9",
        "streetName": "HEATHER",
        "streetDirectionId": null,
        "streetTypeId": "DR",
        "placeName": "CHATHAM",
        "streetNameDisplayText": "HEATHER DR, CHATHAM"
      }
    ]
  },
  {
    "postal": "N7M0S5",
    "result": []
  },
  {
    "postal": "N7M1A2",
    "result": [
      {
        "electoralDistricts": [
          {
            "election": null,
            "id": 18,
            "name": "Chatham-Kent—Leamington"
          }
        ],
        "pollDivisionIds": [
          10137544
        ],
        "postalCode": "N7M1A2",
        "streetName": "JORDAN",
        "streetDirectionId": null,
        "streetTypeId": "AVE",
        "placeName": "CHATHAM",
        "streetNameDisplayText": "JORDAN AVE, CHATHAM"
      }
    ]
  },
  {
    "postal": "N7M5V8",
    "result": [
      {
        "electoralDistricts": [
          {
            "election": null,
            "id": 18,
            "name": "Chatham-Kent—Leamington"
          }
        ],
        "pollDivisionIds": [
          10137551
        ],
        "postalCode": "N7M5V8",
        "streetName": "CHARING CROSS",
        "streetDirectionId": null,
        "streetTypeId": "RD",
        "placeName": "CHATHAM",
        "streetNameDisplayText": "CHARING CROSS RD, CHATHAM"
      }
    ]
  },
  {
    "postal": "N7M8C5",
    "result": []
  },
  {
    "postal": "N7M6N0",
    "result": []
  },
  {
    "postal": "N7M9E6",
    "result": []
  },
  {
    "postal": "N7M5J7",
    "result": [
      {
        "electoralDistricts": [
          {
            "election": null,
            "id": 50,
            "name": "Lambton—Kent—Middlesex"
          }
        ],
        "pollDivisionIds": [
          10143353
        ],
        "postalCode": "N7M5J7",
        "streetName": "ARKWOOD",
        "streetDirectionId": null,
        "streetTypeId": "RD",
        "placeName": "CHATHAM",
        "streetNameDisplayText": "ARKWOOD RD, CHATHAM"
      },
      {
        "electoralDistricts": [
          {
            "election": null,
            "id": 18,
            "name": "Chatham-Kent—Leamington"
          },
          {
            "election": null,
            "id": 50,
            "name": "Lambton—Kent—Middlesex"
          }
        ],
        "pollDivisionIds": [
          10137530,
          10143354
        ],
        "postalCode": "N7M5J7",
        "streetName": "BALDOON",
        "streetDirectionId": null,
        "streetTypeId": "RD",
        "placeName": "CHATHAM",
        "streetNameDisplayText": "BALDOON RD, CHATHAM"
      },
      {
        "electoralDistricts": [
          {
            "election": null,
            "id": 50,
            "name": "Lambton—Kent—Middlesex"
          },
          {
            "election": null,
            "id": 18,
            "name": "Chatham-Kent—Leamington"
          }
        ],
        "pollDivisionIds": [
          10143354,
          10137529
        ],
        "postalCode": "N7M5J7",
        "streetName": "BEAR LINE",
        "streetDirectionId": null,
        "streetTypeId": "RD",
        "placeName": "CHATHAM",
        "streetNameDisplayText": "BEAR LINE RD, CHATHAM"
      },
      {
        "electoralDistricts": [
          {
            "election": null,
            "id": 50,
            "name": "Lambton—Kent—Middlesex"
          }
        ],
        "pollDivisionIds": [
          10143353
        ],
        "postalCode": "N7M5J7",
        "streetName": "BROOK",
        "streetDirectionId": null,
        "streetTypeId": "LINE",
        "placeName": "CHATHAM",
        "streetNameDisplayText": "BROOK LINE, CHATHAM"
      },
      {
        "electoralDistricts": [
          {
            "election": null,
            "id": 50,
            "name": "Lambton—Kent—Middlesex"
          }
        ],
        "pollDivisionIds": [
          10143353
        ],
        "postalCode": "N7M5J7",
        "streetName": "CALEDONIA",
        "streetDirectionId": null,
        "streetTypeId": "RD",
        "placeName": "CHATHAM",
        "streetNameDisplayText": "CALEDONIA RD, CHATHAM"
      },
      {
        "electoralDistricts": [
          {
            "election": null,
            "id": 50,
            "name": "Lambton—Kent—Middlesex"
          }
        ],
        "pollDivisionIds": [
          10143353
        ],
        "postalCode": "N7M5J7",
        "streetName": "CENTRE SIDE",
        "streetDirectionId": null,
        "streetTypeId": "RD",
        "placeName": "CHATHAM",
        "streetNameDisplayText": "CENTRE SIDE RD, CHATHAM"
      },
      {
        "electoralDistricts": [
          {
            "election": null,
            "id": 50,
            "name": "Lambton—Kent—Middlesex"
          }
        ],
        "pollDivisionIds": [
          10143354
        ],
        "postalCode": "N7M5J7",
        "streetName": "CREEK",
        "streetDirectionId": "E",
        "streetTypeId": "LINE",
        "placeName": "CHATHAM",
        "streetNameDisplayText": "CREEK LINE E, CHATHAM"
      },
      {
        "electoralDistricts": [
          {
            "election": null,
            "id": 50,
            "name": "Lambton—Kent—Middlesex"
          }
        ],
        "pollDivisionIds": [
          10143354
        ],
        "postalCode": "N7M5J7",
        "streetName": "CREEK",
        "streetDirectionId": null,
        "streetTypeId": "LINE",
        "placeName": "CHATHAM",
        "streetNameDisplayText": "CREEK LINE, CHATHAM"
      },
      {
        "electoralDistricts": [
          {
            "election": null,
            "id": 18,
            "name": "Chatham-Kent—Leamington"
          }
        ],
        "pollDivisionIds": [
          10143126
        ],
        "postalCode": "N7M5J7",
        "streetName": "GIVEN",
        "streetDirectionId": null,
        "streetTypeId": "RD",
        "placeName": "CHATHAM",
        "streetNameDisplayText": "GIVEN RD, CHATHAM"
      },
      {
        "electoralDistricts": [
          {
            "election": null,
            "id": 50,
            "name": "Lambton—Kent—Middlesex"
          }
        ],
        "pollDivisionIds": [
          10143354
        ],
        "postalCode": "N7M5J7",
        "streetName": "GIVEN",
        "streetDirectionId": null,
        "streetTypeId": "RD",
        "placeName": "PAIN COURT",
        "streetNameDisplayText": "GIVEN RD, PAIN COURT"
      },
      {
        "electoralDistricts": [
          {
            "election": null,
            "id": 50,
            "name": "Lambton—Kent—Middlesex"
          }
        ],
        "pollDivisionIds": [
          10143354
        ],
        "postalCode": "N7M5J7",
        "streetName": "GRAND RIVER",
        "streetDirectionId": null,
        "streetTypeId": "LINE",
        "placeName": "CHATHAM",
        "streetNameDisplayText": "GRAND RIVER LINE, CHATHAM"
      },
      {
        "electoralDistricts": [
          {
            "election": null,
            "id": 50,
            "name": "Lambton—Kent—Middlesex"
          }
        ],
        "pollDivisionIds": [
          10143354
        ],
        "postalCode": "N7M5J7",
        "streetName": "GRANDE RIVER",
        "streetDirectionId": null,
        "streetTypeId": "LINE",
        "placeName": "CHATHAM",
        "streetNameDisplayText": "GRANDE RIVER LINE, CHATHAM"
      },
      {
        "electoralDistricts": [
          {
            "election": null,
            "id": 50,
            "name": "Lambton—Kent—Middlesex"
          }
        ],
        "pollDivisionIds": [
          10143354
        ],
        "postalCode": "N7M5J7",
        "streetName": "GRANDE RIVER",
        "streetDirectionId": null,
        "streetTypeId": "LINE",
        "placeName": "PAIN COURT",
        "streetNameDisplayText": "GRANDE RIVER LINE, PAIN COURT"
      },
      {
        "electoralDistricts": [
          {
            "election": null,
            "id": 50,
            "name": "Lambton—Kent—Middlesex"
          },
          {
            "election": null,
            "id": 18,
            "name": "Chatham-Kent—Leamington"
          }
        ],
        "pollDivisionIds": [
          10143353,
          10137539,
          10143126
        ],
        "postalCode": "N7M5J7",
        "streetName": "GREGORY",
        "streetDirectionId": "E",
        "streetTypeId": "DR",
        "placeName": "CHATHAM",
        "streetNameDisplayText": "GREGORY DR E, CHATHAM"
      },
      {
        "electoralDistricts": [
          {
            "election": null,
            "id": 50,
            "name": "Lambton—Kent—Middlesex"
          }
        ],
        "pollDivisionIds": [
          10143354
        ],
        "postalCode": "N7M5J7",
        "streetName": "GREGORY",
        "streetDirectionId": "W",
        "streetTypeId": "DR",
        "placeName": "CHATHAM",
        "streetNameDisplayText": "GREGORY DR W, CHATHAM"
      },
      {
        "electoralDistricts": [
          {
            "election": null,
            "id": 50,
            "name": "Lambton—Kent—Middlesex"
          }
        ],
        "pollDivisionIds": [
          10143353
        ],
        "postalCode": "N7M5J7",
        "streetName": "GREGORY",
        "streetDirectionId": null,
        "streetTypeId": "LINE",
        "placeName": "CHATHAM",
        "streetNameDisplayText": "GREGORY LINE, CHATHAM"
      },
      {
        "electoralDistricts": [
          {
            "election": null,
            "id": 50,
            "name": "Lambton—Kent—Middlesex"
          }
        ],
        "pollDivisionIds": [
          10143353
        ],
        "postalCode": "N7M5J7",
        "streetName": "JAMES",
        "streetDirectionId": null,
        "streetTypeId": "ST",
        "placeName": "CHATHAM",
        "streetNameDisplayText": "JAMES ST, CHATHAM"
      },
      {
        "electoralDistricts": [
          {
            "election": null,
            "id": 50,
            "name": "Lambton—Kent—Middlesex"
          }
        ],
        "pollDivisionIds": [
          10143353,
          10143150
        ],
        "postalCode": "N7M5J7",
        "streetName": "LONGWOODS",
        "streetDirectionId": null,
        "streetTypeId": "DR",
        "placeName": "CHATHAM",
        "streetNameDisplayText": "LONGWOODS DR, CHATHAM"
      },
      {
        "electoralDistricts": [
          {
            "election": null,
            "id": 50,
            "name": "Lambton—Kent—Middlesex"
          }
        ],
        "pollDivisionIds": [
          10143353
        ],
        "postalCode": "N7M5J7",
        "streetName": "LONGWOODS",
        "streetDirectionId": null,
        "streetTypeId": "RD",
        "placeName": "CHATHAM",
        "streetNameDisplayText": "LONGWOODS RD, CHATHAM"
      },
      {
        "electoralDistricts": [
          {
            "election": null,
            "id": 50,
            "name": "Lambton—Kent—Middlesex"
          }
        ],
        "pollDivisionIds": [
          10143353
        ],
        "postalCode": "N7M5J7",
        "streetName": "LONGWOODS",
        "streetDirectionId": null,
        "streetTypeId": "RD",
        "placeName": "THAMESVILLE",
        "streetNameDisplayText": "LONGWOODS RD, THAMESVILLE"
      },
      {
        "electoralDistricts": [
          {
            "election": null,
            "id": 50,
            "name": "Lambton—Kent—Middlesex"
          }
        ],
        "pollDivisionIds": [
          10143353
        ],
        "postalCode": "N7M5J7",
        "streetName": "MCNAUGHTON",
        "streetDirectionId": null,
        "streetTypeId": "LINE",
        "placeName": "CHATHAM",
        "streetNameDisplayText": "MCNAUGHTON LINE, CHATHAM"
      },
      {
        "electoralDistricts": [
          {
            "election": null,
            "id": 50,
            "name": "Lambton—Kent—Middlesex"
          }
        ],
        "pollDivisionIds": [
          10143353
        ],
        "postalCode": "N7M5J7",
        "streetName": "MULBERRY",
        "streetDirectionId": null,
        "streetTypeId": "ST",
        "placeName": "CHATHAM",
        "streetNameDisplayText": "MULBERRY ST, CHATHAM"
      },
      {
        "electoralDistricts": [
          {
            "election": null,
            "id": 50,
            "name": "Lambton—Kent—Middlesex"
          }
        ],
        "pollDivisionIds": [
          10143354
        ],
        "postalCode": "N7M5J7",
        "streetName": "PAIN COURT",
        "streetDirectionId": null,
        "streetTypeId": "LINE",
        "placeName": "CHATHAM",
        "streetNameDisplayText": "PAIN COURT LINE, CHATHAM"
      },
      {
        "electoralDistricts": [
          {
            "election": null,
            "id": 50,
            "name": "Lambton—Kent—Middlesex"
          }
        ],
        "pollDivisionIds": [
          10143354,
          10143353
        ],
        "postalCode": "N7M5J7",
        "streetName": "PIONEER",
        "streetDirectionId": null,
        "streetTypeId": "LINE",
        "placeName": "CHATHAM",
        "streetNameDisplayText": "PIONEER LINE, CHATHAM"
      },
      {
        "electoralDistricts": [
          {
            "election": null,
            "id": 50,
            "name": "Lambton—Kent—Middlesex"
          }
        ],
        "pollDivisionIds": [
          10143353
        ],
        "postalCode": "N7M5J7",
        "streetName": "PRINCE ALBERT",
        "streetDirectionId": null,
        "streetTypeId": "RD",
        "placeName": "CHATHAM",
        "streetNameDisplayText": "PRINCE ALBERT RD, CHATHAM"
      },
      {
        "electoralDistricts": [
          {
            "election": null,
            "id": 50,
            "name": "Lambton—Kent—Middlesex"
          }
        ],
        "pollDivisionIds": [
          10143353
        ],
        "postalCode": "N7M5J7",
        "streetName": "SPRING",
        "streetDirectionId": null,
        "streetTypeId": "ST",
        "placeName": "CHATHAM",
        "streetNameDisplayText": "SPRING ST, CHATHAM"
      },
      {
        "electoralDistricts": [
          {
            "election": null,
            "id": 50,
            "name": "Lambton—Kent—Middlesex"
          }
        ],
        "pollDivisionIds": [
          10143354
        ],
        "postalCode": "N7M5J7",
        "streetName": "ST JOSEPH",
        "streetDirectionId": null,
        "streetTypeId": "AVE",
        "placeName": "PAIN COURT",
        "streetNameDisplayText": "ST JOSEPH AVE, PAIN COURT"
      },
      {
        "electoralDistricts": [
          {
            "election": null,
            "id": 50,
            "name": "Lambton—Kent—Middlesex"
          }
        ],
        "pollDivisionIds": [
          10143353
        ],
        "postalCode": "N7M5J7",
        "streetName": "STANDAERT",
        "streetDirectionId": null,
        "streetTypeId": "RD",
        "placeName": "CHATHAM",
        "streetNameDisplayText": "STANDAERT RD, CHATHAM"
      },
      {
        "electoralDistricts": [
          {
            "election": null,
            "id": 50,
            "name": "Lambton—Kent—Middlesex"
          }
        ],
        "pollDivisionIds": [
          10143354
        ],
        "postalCode": "N7M5J7",
        "streetName": "WESTGATE",
        "streetDirectionId": null,
        "streetTypeId": "WALK",
        "placeName": "CHATHAM",
        "streetNameDisplayText": "WESTGATE WALK, CHATHAM"
      }
    ]
  },
  {
    "postal": "N7M2R2",
    "result": [
      {
        "electoralDistricts": [
          {
            "election": null,
            "id": 18,
            "name": "Chatham-Kent—Leamington"
          }
        ],
        "pollDivisionIds": [
          10137540,
          10137546
        ],
        "postalCode": "N7M2R2",
        "streetName": "WEST",
        "streetDirectionId": null,
        "streetTypeId": "ST",
        "placeName": "CHATHAM",
        "streetNameDisplayText": "WEST ST, CHATHAM"
      },
      {
        "electoralDistricts": [
          {
            "election": null,
            "id": 50,
            "name": "Lambton—Kent—Middlesex"
          }
        ],
        "pollDivisionIds": [
          10143352
        ],
        "postalCode": "N7M2R2",
        "streetName": "WEST",
        "streetDirectionId": null,
        "streetTypeId": "ST",
        "placeName": "DRESDEN",
        "streetNameDisplayText": "WEST ST, DRESDEN"
      }
    ]
  },
  {
    "postal": "N7M0P5",
    "result": [
      {
        "electoralDistricts": [
          {
            "election": null,
            "id": 18,
            "name": "Chatham-Kent—Leamington"
          }
        ],
        "pollDivisionIds": [
          10137548
        ],
        "postalCode": "N7M0P5",
        "streetName": "INDIAN CREEK",
        "streetDirectionId": "W",
        "streetTypeId": "RD",
        "placeName": "CHATHAM",
        "streetNameDisplayText": "INDIAN CREEK RD W, CHATHAM"
      }
    ]
  },
  {
    "postal": "N7M5A7",
    "result": [
      {
        "electoralDistricts": [
          {
            "election": null,
            "id": 18,
            "name": "Chatham-Kent—Leamington"
          }
        ],
        "pollDivisionIds": [
          10137549
        ],
        "postalCode": "N7M5A7",
        "streetName": "BEECHWOOD",
        "streetDirectionId": null,
        "streetTypeId": "CRES",
        "placeName": "CHATHAM",
        "streetNameDisplayText": "BEECHWOOD CRES, CHATHAM"
      }
    ]
  },
  {
    "postal": "N7M1G1",
    "result": [
      {
        "electoralDistricts": [
          {
            "election": null,
            "id": 18,
            "name": "Chatham-Kent—Leamington"
          }
        ],
        "pollDivisionIds": [
          10137546
        ],
        "postalCode": "N7M1G1",
        "streetName": "KING",
        "streetDirectionId": "E",
        "streetTypeId": "ST",
        "placeName": "CHATHAM",
        "streetNameDisplayText": "KING ST E, CHATHAM"
      },
      {
        "electoralDistricts": [
          {
            "election": null,
            "id": 18,
            "name": "Chatham-Kent—Leamington"
          }
        ],
        "pollDivisionIds": [
          10137540
        ],
        "postalCode": "N7M1G1",
        "streetName": "KING",
        "streetDirectionId": "W",
        "streetTypeId": "ST",
        "placeName": "CHATHAM",
        "streetNameDisplayText": "KING ST W, CHATHAM"
      }
    ]
  },
  {
    "postal": "N7M9R6",
    "result": []
  },
  {
    "postal": "N7M4Z9",
    "result": [
      {
        "electoralDistricts": [
          {
            "election": null,
            "id": 18,
            "name": "Chatham-Kent—Leamington"
          }
        ],
        "pollDivisionIds": [
          10137550
        ],
        "postalCode": "N7M4Z9",
        "streetName": "DUNVEGAN",
        "streetDirectionId": null,
        "streetTypeId": "DR",
        "placeName": "CHATHAM",
        "streetNameDisplayText": "DUNVEGAN DR, CHATHAM"
      }
    ]
  },
  {
    "postal": "N7M1V5",
    "result": [
      {
        "electoralDistricts": [
          {
            "election": null,
            "id": 18,
            "name": "Chatham-Kent—Leamington"
          }
        ],
        "pollDivisionIds": [
          10137545
        ],
        "postalCode": "N7M1V5",
        "streetName": "SPENCER",
        "streetDirectionId": null,
        "streetTypeId": "AVE",
        "placeName": "CHATHAM",
        "streetNameDisplayText": "SPENCER AVE, CHATHAM"
      }
    ]
  },
  {
    "postal": "N7M9Y5",
    "result": []
  },
  {
    "postal": "N7M1P2",
    "result": [
      {
        "electoralDistricts": [
          {
            "election": null,
            "id": 18,
            "name": "Chatham-Kent—Leamington"
          }
        ],
        "pollDivisionIds": [
          10137545
        ],
        "postalCode": "N7M1P2",
        "streetName": "RICHMOND",
        "streetDirectionId": null,
        "streetTypeId": "ST",
        "placeName": "CHATHAM",
        "streetNameDisplayText": "RICHMOND ST, CHATHAM"
      }
    ]
  },
  {
    "postal": "N7M5X0",
    "result": []
  },
  {
    "postal": "N7M7B8",
    "result": []
  },
  {
    "postal": "N7M0C6",
    "result": []
  },
  {
    "postal": "N7M6G1",
    "result": [
      {
        "electoralDistricts": [
          {
            "election": null,
            "id": 18,
            "name": "Chatham-Kent—Leamington"
          }
        ],
        "pollDivisionIds": [
          10137547
        ],
        "postalCode": "N7M6G1",
        "streetName": "PARK",
        "streetDirectionId": "W",
        "streetTypeId": "AVE",
        "placeName": "CHATHAM",
        "streetNameDisplayText": "PARK AVE W, CHATHAM"
      }
    ]
  },
  {
    "postal": "N7M3K3",
    "result": [
      {
        "electoralDistricts": [
          {
            "election": null,
            "id": 18,
            "name": "Chatham-Kent—Leamington"
          }
        ],
        "pollDivisionIds": [
          10137546
        ],
        "postalCode": "N7M3K3",
        "streetName": "ELLWOOD",
        "streetDirectionId": null,
        "streetTypeId": "AVE",
        "placeName": "CHATHAM",
        "streetNameDisplayText": "ELLWOOD AVE, CHATHAM"
      }
    ]
  },
  {
    "postal": "N7M9R0",
    "result": []
  },
  {
    "postal": "N7M4R8",
    "result": [
      {
        "electoralDistricts": [
          {
            "election": null,
            "id": 18,
            "name": "Chatham-Kent—Leamington"
          }
        ],
        "pollDivisionIds": [
          10137545
        ],
        "postalCode": "N7M4R8",
        "streetName": "ADELAIDE",
        "streetDirectionId": "S",
        "streetTypeId": "ST",
        "placeName": "CHATHAM",
        "streetNameDisplayText": "ADELAIDE ST S, CHATHAM"
      }
    ]
  },
  {
    "postal": "N7M5P9",
    "result": [
      {
        "electoralDistricts": [
          {
            "election": null,
            "id": 18,
            "name": "Chatham-Kent—Leamington"
          }
        ],
        "pollDivisionIds": [
          10137544
        ],
        "postalCode": "N7M5P9",
        "streetName": "SARAH",
        "streetDirectionId": null,
        "streetTypeId": "CRES",
        "placeName": "CHATHAM",
        "streetNameDisplayText": "SARAH CRES, CHATHAM"
      }
    ]
  },
  {
    "postal": "N7M8N4",
    "result": []
  },
  {
    "postal": "N7M8H4",
    "result": []
  },
  {
    "postal": "N7M4V1",
    "result": [
      {
        "electoralDistricts": [
          {
            "election": null,
            "id": 18,
            "name": "Chatham-Kent—Leamington"
          }
        ],
        "pollDivisionIds": [
          10137546
        ],
        "postalCode": "N7M4V1",
        "streetName": "SIXTH",
        "streetDirectionId": null,
        "streetTypeId": "ST",
        "placeName": "CHATHAM",
        "streetNameDisplayText": "SIXTH ST, CHATHAM"
      }
    ]
  },
  {
    "postal": "N7M1K5",
    "result": [
      {
        "electoralDistricts": [
          {
            "election": null,
            "id": 18,
            "name": "Chatham-Kent—Leamington"
          }
        ],
        "pollDivisionIds": [
          10137546
        ],
        "postalCode": "N7M1K5",
        "streetName": "CROSS",
        "streetDirectionId": null,
        "streetTypeId": "ST",
        "placeName": "CHATHAM",
        "streetNameDisplayText": "CROSS ST, CHATHAM"
      }
    ]
  },
  {
    "postal": "N7M1Z5",
    "result": [
      {
        "electoralDistricts": [
          {
            "election": null,
            "id": 18,
            "name": "Chatham-Kent—Leamington"
          }
        ],
        "pollDivisionIds": [
          10137547
        ],
        "postalCode": "N7M1Z5",
        "streetName": "SUNNYSIDE",
        "streetDirectionId": null,
        "streetTypeId": "AVE",
        "placeName": "CHATHAM",
        "streetNameDisplayText": "SUNNYSIDE AVE, CHATHAM"
      }
    ]
  },
  {
    "postal": "N7M9L9",
    "result": []
  },
  {
    "postal": "N7M5L2",
    "result": []
  },
  {
    "postal": "N7M0M2",
    "result": [
      {
        "electoralDistricts": [
          {
            "election": null,
            "id": 18,
            "name": "Chatham-Kent—Leamington"
          }
        ],
        "pollDivisionIds": [
          10137553
        ],
        "postalCode": "N7M0M2",
        "streetName": "ENGLISH",
        "streetDirectionId": null,
        "streetTypeId": "LINE",
        "placeName": "CHATHAM",
        "streetNameDisplayText": "ENGLISH LINE, CHATHAM"
      }
    ]
  },
  {
    "postal": "N7M1K8",
    "result": [
      {
        "electoralDistricts": [
          {
            "election": null,
            "id": 18,
            "name": "Chatham-Kent—Leamington"
          }
        ],
        "pollDivisionIds": [
          10137546
        ],
        "postalCode": "N7M1K8",
        "streetName": "CROSS",
        "streetDirectionId": null,
        "streetTypeId": "ST",
        "placeName": "CHATHAM",
        "streetNameDisplayText": "CROSS ST, CHATHAM"
      }
    ]
  },
  {
    "postal": "N7M3M7",
    "result": [
      {
        "electoralDistricts": [
          {
            "election": null,
            "id": 18,
            "name": "Chatham-Kent—Leamington"
          }
        ],
        "pollDivisionIds": [
          10137545,
          10137546
        ],
        "postalCode": "N7M3M7",
        "streetName": "KING",
        "streetDirectionId": "E",
        "streetTypeId": "ST",
        "placeName": "CHATHAM",
        "streetNameDisplayText": "KING ST E, CHATHAM"
      }
    ]
  },
  {
    "postal": "N7M1B2",
    "result": [
      {
        "electoralDistricts": [
          {
            "election": null,
            "id": 18,
            "name": "Chatham-Kent—Leamington"
          }
        ],
        "pollDivisionIds": [
          10137544
        ],
        "postalCode": "N7M1B2",
        "streetName": "TECUMSEH",
        "streetDirectionId": null,
        "streetTypeId": "RD",
        "placeName": "CHATHAM",
        "streetNameDisplayText": "TECUMSEH RD, CHATHAM"
      }
    ]
  },
  {
    "postal": "N7M0H9",
    "result": []
  },
  {
    "postal": "N7M8M4",
    "result": []
  },
  {
    "postal": "N7M2M5",
    "result": [
      {
        "electoralDistricts": [
          {
            "election": null,
            "id": 18,
            "name": "Chatham-Kent—Leamington"
          }
        ],
        "pollDivisionIds": [
          10137540
        ],
        "postalCode": "N7M2M5",
        "streetName": "THIRD",
        "streetDirectionId": "S",
        "streetTypeId": "ST",
        "placeName": "CHATHAM",
        "streetNameDisplayText": "THIRD ST S, CHATHAM"
      }
    ]
  },
  {
    "postal": "N7M0T9",
    "result": []
  },
  {
    "postal": "N7M3P1",
    "result": [
      {
        "electoralDistricts": [
          {
            "election": null,
            "id": 18,
            "name": "Chatham-Kent—Leamington"
          }
        ],
        "pollDivisionIds": [
          10137545,
          10137561
        ],
        "postalCode": "N7M3P1",
        "streetName": "WELLINGTON",
        "streetDirectionId": "E",
        "streetTypeId": "ST",
        "placeName": "CHATHAM",
        "streetNameDisplayText": "WELLINGTON ST E, CHATHAM"
      }
    ]
  },
  {
    "postal": "N7M1R6",
    "result": [
      {
        "electoralDistricts": [
          {
            "election": null,
            "id": 18,
            "name": "Chatham-Kent—Leamington"
          }
        ],
        "pollDivisionIds": [
          10137545
        ],
        "postalCode": "N7M1R6",
        "streetName": "LORNE",
        "streetDirectionId": null,
        "streetTypeId": "AVE",
        "placeName": "CHATHAM",
        "streetNameDisplayText": "LORNE AVE, CHATHAM"
      }
    ]
  },
  {
    "postal": "N7M9V5",
    "result": []
  },
  {
    "postal": "N7M9T0",
    "result": []
  },
  {
    "postal": "N7M0A9",
    "result": []
  },
  {
    "postal": "N7M1M3",
    "result": [
      {
        "electoralDistricts": [
          {
            "election": null,
            "id": 18,
            "name": "Chatham-Kent—Leamington"
          }
        ],
        "pollDivisionIds": [
          10137546
        ],
        "postalCode": "N7M1M3",
        "streetName": "HARVEY",
        "streetDirectionId": null,
        "streetTypeId": "ST",
        "placeName": "CHATHAM",
        "streetNameDisplayText": "HARVEY ST, CHATHAM"
      }
    ]
  },
  {
    "postal": "N7M1W8",
    "result": [
      {
        "electoralDistricts": [
          {
            "election": null,
            "id": 18,
            "name": "Chatham-Kent—Leamington"
          }
        ],
        "pollDivisionIds": [
          10137549
        ],
        "postalCode": "N7M1W8",
        "streetName": "PARK",
        "streetDirectionId": "E",
        "streetTypeId": "AVE",
        "placeName": "CHATHAM",
        "streetNameDisplayText": "PARK AVE E, CHATHAM"
      },
      {
        "electoralDistricts": [
          {
            "election": null,
            "id": 18,
            "name": "Chatham-Kent—Leamington"
          }
        ],
        "pollDivisionIds": [
          10137547
        ],
        "postalCode": "N7M1W8",
        "streetName": "PARK",
        "streetDirectionId": "W",
        "streetTypeId": "AVE",
        "placeName": "CHATHAM",
        "streetNameDisplayText": "PARK AVE W, CHATHAM"
      }
    ]
  },
  {
    "postal": "N7M9J1",
    "result": []
  },
  {
    "postal": "N7M8N5",
    "result": []
  },
  {
    "postal": "N7M5X1",
    "result": [
      {
        "electoralDistricts": [
          {
            "election": null,
            "id": 18,
            "name": "Chatham-Kent—Leamington"
          }
        ],
        "pollDivisionIds": [
          10137548
        ],
        "postalCode": "N7M5X1",
        "streetName": "MOHAWK",
        "streetDirectionId": null,
        "streetTypeId": "CRT",
        "placeName": "CHATHAM",
        "streetNameDisplayText": "MOHAWK CRT, CHATHAM"
      }
    ]
  },
  {
    "postal": "N7M6S2",
    "result": []
  },
  {
    "postal": "N7M2A2",
    "result": [
      {
        "electoralDistricts": [
          {
            "election": null,
            "id": 18,
            "name": "Chatham-Kent—Leamington"
          }
        ],
        "pollDivisionIds": [
          10137547
        ],
        "postalCode": "N7M2A2",
        "streetName": "TWEEDSMUIR",
        "streetDirectionId": "W",
        "streetTypeId": "AVE",
        "placeName": "CHATHAM",
        "streetNameDisplayText": "TWEEDSMUIR AVE W, CHATHAM"
      }
    ]
  },
  {
    "postal": "N7M6A6",
    "result": [
      {
        "electoralDistricts": [
          {
            "election": null,
            "id": 18,
            "name": "Chatham-Kent—Leamington"
          }
        ],
        "pollDivisionIds": [
          10137544
        ],
        "postalCode": "N7M6A6",
        "streetName": "MERRITT",
        "streetDirectionId": null,
        "streetTypeId": "AVE",
        "placeName": "CHATHAM",
        "streetNameDisplayText": "MERRITT AVE, CHATHAM"
      }
    ]
  },
  {
    "postal": "N7M0S3",
    "result": []
  },
  {
    "postal": "N7M3E7",
    "result": [
      {
        "electoralDistricts": [
          {
            "election": null,
            "id": 18,
            "name": "Chatham-Kent—Leamington"
          }
        ],
        "pollDivisionIds": [
          10137548
        ],
        "postalCode": "N7M3E7",
        "streetName": "ST MICHAEL",
        "streetDirectionId": null,
        "streetTypeId": "AVE",
        "placeName": "CHATHAM",
        "streetNameDisplayText": "ST MICHAEL AVE, CHATHAM"
      }
    ]
  },
  {
    "postal": "N7M5R7",
    "result": [
      {
        "electoralDistricts": [
          {
            "election": null,
            "id": 18,
            "name": "Chatham-Kent—Leamington"
          }
        ],
        "pollDivisionIds": [
          10137544
        ],
        "postalCode": "N7M5R7",
        "streetName": "PEARL",
        "streetDirectionId": null,
        "streetTypeId": "CRES",
        "placeName": "CHATHAM",
        "streetNameDisplayText": "PEARL CRES, CHATHAM"
      }
    ]
  },
  {
    "postal": "N7M3R6",
    "result": [
      {
        "electoralDistricts": [
          {
            "election": null,
            "id": 18,
            "name": "Chatham-Kent—Leamington"
          }
        ],
        "pollDivisionIds": [
          10137545
        ],
        "postalCode": "N7M3R6",
        "streetName": "PARK",
        "streetDirectionId": null,
        "streetTypeId": "ST",
        "placeName": "CHATHAM",
        "streetNameDisplayText": "PARK ST, CHATHAM"
      }
    ]
  },
  {
    "postal": "N7M6K4",
    "result": [
      {
        "electoralDistricts": [
          {
            "election": null,
            "id": 18,
            "name": "Chatham-Kent—Leamington"
          }
        ],
        "pollDivisionIds": [
          10137550
        ],
        "postalCode": "N7M6K4",
        "streetName": "SHAWNEE",
        "streetDirectionId": null,
        "streetTypeId": "TRAIL",
        "placeName": "CHATHAM",
        "streetNameDisplayText": "SHAWNEE TRAIL, CHATHAM"
      }
    ]
  },
  {
    "postal": "N7M2W5",
    "result": [
      {
        "electoralDistricts": [
          {
            "election": null,
            "id": 18,
            "name": "Chatham-Kent—Leamington"
          }
        ],
        "pollDivisionIds": [
          10137547
        ],
        "postalCode": "N7M2W5",
        "streetName": "LACROIX",
        "streetDirectionId": null,
        "streetTypeId": "ST",
        "placeName": "CHATHAM",
        "streetNameDisplayText": "LACROIX ST, CHATHAM"
      }
    ]
  },
  {
    "postal": "N7M8W4",
    "result": []
  },
  {
    "postal": "N7M9C2",
    "result": []
  },
  {
    "postal": "N7M2C0",
    "result": []
  },
  {
    "postal": "N7M0E1",
    "result": []
  },
  {
    "postal": "N7M1K9",
    "result": [
      {
        "electoralDistricts": [
          {
            "election": null,
            "id": 18,
            "name": "Chatham-Kent—Leamington"
          }
        ],
        "pollDivisionIds": [
          10137546
        ],
        "postalCode": "N7M1K9",
        "streetName": "CROSS",
        "streetDirectionId": null,
        "streetTypeId": "ST",
        "placeName": "CHATHAM",
        "streetNameDisplayText": "CROSS ST, CHATHAM"
      }
    ]
  },
  {
    "postal": "N7M1G7",
    "result": [
      {
        "electoralDistricts": [
          {
            "election": null,
            "id": 18,
            "name": "Chatham-Kent—Leamington"
          }
        ],
        "pollDivisionIds": [
          10137544
        ],
        "postalCode": "N7M1G7",
        "streetName": "KING",
        "streetDirectionId": "W",
        "streetTypeId": "ST",
        "placeName": "CHATHAM",
        "streetNameDisplayText": "KING ST W, CHATHAM"
      }
    ]
  },
  {
    "postal": "N7M4E9",
    "result": [
      {
        "electoralDistricts": [
          {
            "election": null,
            "id": 18,
            "name": "Chatham-Kent—Leamington"
          }
        ],
        "pollDivisionIds": [
          10137550
        ],
        "postalCode": "N7M4E9",
        "streetName": "HILLCREST",
        "streetDirectionId": null,
        "streetTypeId": "AVE",
        "placeName": "CHATHAM",
        "streetNameDisplayText": "HILLCREST AVE, CHATHAM"
      }
    ]
  },
  {
    "postal": "N7M9P0",
    "result": []
  },
  {
    "postal": "N7M5H3",
    "result": [
      {
        "electoralDistricts": [
          {
            "election": null,
            "id": 18,
            "name": "Chatham-Kent—Leamington"
          }
        ],
        "pollDivisionIds": [
          10137553
        ],
        "postalCode": "N7M5H3",
        "streetName": "CHARING CROSS",
        "streetDirectionId": null,
        "streetTypeId": "RD",
        "placeName": "CHATHAM",
        "streetNameDisplayText": "CHARING CROSS RD, CHATHAM"
      }
    ]
  },
  {
    "postal": "N7M9X6",
    "result": []
  },
  {
    "postal": "N7M5N7",
    "result": [
      {
        "electoralDistricts": [
          {
            "election": null,
            "id": 18,
            "name": "Chatham-Kent—Leamington"
          }
        ],
        "pollDivisionIds": [
          10137547
        ],
        "postalCode": "N7M5N7",
        "streetName": "MARION",
        "streetDirectionId": null,
        "streetTypeId": "AVE",
        "placeName": "CHATHAM",
        "streetNameDisplayText": "MARION AVE, CHATHAM"
      }
    ]
  },
  {
    "postal": "N7M5A6",
    "result": [
      {
        "electoralDistricts": [
          {
            "election": null,
            "id": 18,
            "name": "Chatham-Kent—Leamington"
          }
        ],
        "pollDivisionIds": [
          10137549
        ],
        "postalCode": "N7M5A6",
        "streetName": "BEECHWOOD",
        "streetDirectionId": null,
        "streetTypeId": "CRES",
        "placeName": "CHATHAM",
        "streetNameDisplayText": "BEECHWOOD CRES, CHATHAM"
      }
    ]
  },
  {
    "postal": "N7M4M0",
    "result": []
  },
  {
    "postal": "N7M3V6",
    "result": [
      {
        "electoralDistricts": [
          {
            "election": null,
            "id": 18,
            "name": "Chatham-Kent—Leamington"
          }
        ],
        "pollDivisionIds": [
          10137549
        ],
        "postalCode": "N7M3V6",
        "streetName": "PARK",
        "streetDirectionId": "E",
        "streetTypeId": "AVE",
        "placeName": "CHATHAM",
        "streetNameDisplayText": "PARK AVE E, CHATHAM"
      }
    ]
  },
  {
    "postal": "N7M1L7",
    "result": []
  },
  {
    "postal": "N7M2P9",
    "result": [
      {
        "electoralDistricts": [
          {
            "election": null,
            "id": 18,
            "name": "Chatham-Kent—Leamington"
          }
        ],
        "pollDivisionIds": [
          10137540
        ],
        "postalCode": "N7M2P9",
        "streetName": "FIRST",
        "streetDirectionId": null,
        "streetTypeId": "ST",
        "placeName": "CHATHAM",
        "streetNameDisplayText": "FIRST ST, CHATHAM"
      }
    ]
  },
  {
    "postal": "N7M5T4",
    "result": [
      {
        "electoralDistricts": [
          {
            "election": null,
            "id": 18,
            "name": "Chatham-Kent—Leamington"
          }
        ],
        "pollDivisionIds": [
          10137547
        ],
        "postalCode": "N7M5T4",
        "streetName": "WEDGEWOOD",
        "streetDirectionId": null,
        "streetTypeId": "AVE",
        "placeName": "CHATHAM",
        "streetNameDisplayText": "WEDGEWOOD AVE, CHATHAM"
      }
    ]
  },
  {
    "postal": "N7M5Z1",
    "result": [
      {
        "electoralDistricts": [
          {
            "election": null,
            "id": 18,
            "name": "Chatham-Kent—Leamington"
          }
        ],
        "pollDivisionIds": [
          10137544
        ],
        "postalCode": "N7M5Z1",
        "streetName": "TECUMSEH",
        "streetDirectionId": null,
        "streetTypeId": "RD",
        "placeName": "CHATHAM",
        "streetNameDisplayText": "TECUMSEH RD, CHATHAM"
      }
    ]
  },
  {
    "postal": "N7M2X0",
    "result": []
  },
  {
    "postal": "N7M6Z2",
    "result": []
  },
  {
    "postal": "N7M0E0",
    "result": []
  },
  {
    "postal": "N7M3Z5",
    "result": [
      {
        "electoralDistricts": [
          {
            "election": null,
            "id": 18,
            "name": "Chatham-Kent—Leamington"
          }
        ],
        "pollDivisionIds": [
          10137550
        ],
        "postalCode": "N7M3Z5",
        "streetName": "TWEEDSMUIR",
        "streetDirectionId": "E",
        "streetTypeId": "AVE",
        "placeName": "CHATHAM",
        "streetNameDisplayText": "TWEEDSMUIR AVE E, CHATHAM"
      }
    ]
  },
  {
    "postal": "N7M8H3",
    "result": []
  },
  {
    "postal": "N7M7S6",
    "result": []
  },
  {
    "postal": "N7M4C1",
    "result": [
      {
        "electoralDistricts": [
          {
            "election": null,
            "id": 18,
            "name": "Chatham-Kent—Leamington"
          }
        ],
        "pollDivisionIds": [
          10137550
        ],
        "postalCode": "N7M4C1",
        "streetName": "JASPER",
        "streetDirectionId": null,
        "streetTypeId": "AVE",
        "placeName": "CHATHAM",
        "streetNameDisplayText": "JASPER AVE, CHATHAM"
      }
    ]
  },
  {
    "postal": "N7M3K2",
    "result": [
      {
        "electoralDistricts": [
          {
            "election": null,
            "id": 18,
            "name": "Chatham-Kent—Leamington"
          }
        ],
        "pollDivisionIds": [
          10137546
        ],
        "postalCode": "N7M3K2",
        "streetName": "ELLWOOD",
        "streetDirectionId": null,
        "streetTypeId": "AVE",
        "placeName": "CHATHAM",
        "streetNameDisplayText": "ELLWOOD AVE, CHATHAM"
      }
    ]
  },
  {
    "postal": "N7M1Y5",
    "result": [
      {
        "electoralDistricts": [
          {
            "election": null,
            "id": 18,
            "name": "Chatham-Kent—Leamington"
          }
        ],
        "pollDivisionIds": [
          10137547
        ],
        "postalCode": "N7M1Y5",
        "streetName": "MCFADDEN",
        "streetDirectionId": null,
        "streetTypeId": "AVE",
        "placeName": "CHATHAM",
        "streetNameDisplayText": "MCFADDEN AVE, CHATHAM"
      }
    ]
  },
  {
    "postal": "N7M6P6",
    "result": []
  },
  {
    "postal": "N7M3N9",
    "result": [
      {
        "electoralDistricts": [
          {
            "election": null,
            "id": 18,
            "name": "Chatham-Kent—Leamington"
          }
        ],
        "pollDivisionIds": [
          10137547,
          10137546,
          10137545
        ],
        "postalCode": "N7M3N9",
        "streetName": "WELLINGTON",
        "streetDirectionId": "E",
        "streetTypeId": "ST",
        "placeName": "CHATHAM",
        "streetNameDisplayText": "WELLINGTON ST E, CHATHAM"
      },
      {
        "electoralDistricts": [
          {
            "election": null,
            "id": 18,
            "name": "Chatham-Kent—Leamington"
          }
        ],
        "pollDivisionIds": [
          10137546
        ],
        "postalCode": "N7M3N9",
        "streetName": "WELLINGTON",
        "streetDirectionId": "W",
        "streetTypeId": "ST",
        "placeName": "CHATHAM",
        "streetNameDisplayText": "WELLINGTON ST W, CHATHAM"
      }
    ]
  },
  {
    "postal": "N7M3W2",
    "result": [
      {
        "electoralDistricts": [
          {
            "election": null,
            "id": 18,
            "name": "Chatham-Kent—Leamington"
          }
        ],
        "pollDivisionIds": [
          10137546,
          10137549
        ],
        "postalCode": "N7M3W2",
        "streetName": "PARK",
        "streetDirectionId": "E",
        "streetTypeId": "AVE",
        "placeName": "CHATHAM",
        "streetNameDisplayText": "PARK AVE E, CHATHAM"
      }
    ]
  },
  {
    "postal": "N7M6H8",
    "result": [
      {
        "electoralDistricts": [
          {
            "election": null,
            "id": 18,
            "name": "Chatham-Kent—Leamington"
          }
        ],
        "pollDivisionIds": [
          10137547
        ],
        "postalCode": "N7M6H8",
        "streetName": "MULBERRY",
        "streetDirectionId": null,
        "streetTypeId": "CRT",
        "placeName": "CHATHAM",
        "streetNameDisplayText": "MULBERRY CRT, CHATHAM"
      }
    ]
  },
  {
    "postal": "N7M9T3",
    "result": []
  },
  {
    "postal": "N7M5L9",
    "result": [
      {
        "electoralDistricts": [
          {
            "election": null,
            "id": 18,
            "name": "Chatham-Kent—Leamington"
          }
        ],
        "pollDivisionIds": [
          10137540
        ],
        "postalCode": "N7M5L9",
        "streetName": "EMMA",
        "streetDirectionId": null,
        "streetTypeId": "ST",
        "placeName": "CHATHAM",
        "streetNameDisplayText": "EMMA ST, CHATHAM"
      }
    ]
  },
  {
    "postal": "N7M7X7",
    "result": []
  },
  {
    "postal": "N7M3J5",
    "result": [
      {
        "electoralDistricts": [
          {
            "election": null,
            "id": 18,
            "name": "Chatham-Kent—Leamington"
          }
        ],
        "pollDivisionIds": [
          10137546
        ],
        "postalCode": "N7M3J5",
        "streetName": "STANLEY",
        "streetDirectionId": null,
        "streetTypeId": "AVE",
        "placeName": "CHATHAM",
        "streetNameDisplayText": "STANLEY AVE, CHATHAM"
      }
    ]
  },
  {
    "postal": "N7M4J5",
    "result": [
      {
        "electoralDistricts": [
          {
            "election": null,
            "id": 18,
            "name": "Chatham-Kent—Leamington"
          }
        ],
        "pollDivisionIds": [
          10137546
        ],
        "postalCode": "N7M4J5",
        "streetName": "PRINCE",
        "streetDirectionId": "N",
        "streetTypeId": "ST",
        "placeName": "CHATHAM",
        "streetNameDisplayText": "PRINCE ST N, CHATHAM"
      }
    ]
  },
  {
    "postal": "N7M6J2",
    "result": []
  },
  {
    "postal": "N7M5V6",
    "result": [
      {
        "electoralDistricts": [
          {
            "election": null,
            "id": 18,
            "name": "Chatham-Kent—Leamington"
          }
        ],
        "pollDivisionIds": [
          10137544
        ],
        "postalCode": "N7M5V6",
        "streetName": "OPAL",
        "streetDirectionId": null,
        "streetTypeId": "CRT",
        "placeName": "CHATHAM",
        "streetNameDisplayText": "OPAL CRT, CHATHAM"
      }
    ]
  },
  {
    "postal": "N7M3N2",
    "result": [
      {
        "electoralDistricts": [
          {
            "election": null,
            "id": 18,
            "name": "Chatham-Kent—Leamington"
          }
        ],
        "pollDivisionIds": [
          10137546
        ],
        "postalCode": "N7M3N2",
        "streetName": "KING",
        "streetDirectionId": "E",
        "streetTypeId": "ST",
        "placeName": "CHATHAM",
        "streetNameDisplayText": "KING ST E, CHATHAM"
      }
    ]
  },
  {
    "postal": "N7M3B1",
    "result": [
      {
        "electoralDistricts": [
          {
            "election": null,
            "id": 18,
            "name": "Chatham-Kent—Leamington"
          }
        ],
        "pollDivisionIds": [
          10137547
        ],
        "postalCode": "N7M3B1",
        "streetName": "BERRY",
        "streetDirectionId": null,
        "streetTypeId": "ST",
        "placeName": "CHATHAM",
        "streetNameDisplayText": "BERRY ST, CHATHAM"
      }
    ]
  },
  {
    "postal": "N7M8B5",
    "result": []
  },
  {
    "postal": "N7M0K1",
    "result": []
  },
  {
    "postal": "N7M7M7",
    "result": []
  },
  {
    "postal": "N7M2M2",
    "result": [
      {
        "electoralDistricts": [
          {
            "election": null,
            "id": 18,
            "name": "Chatham-Kent—Leamington"
          }
        ],
        "pollDivisionIds": [
          10137552
        ],
        "postalCode": "N7M2M2",
        "streetName": "DETROIT",
        "streetDirectionId": null,
        "streetTypeId": "DR",
        "placeName": "CHATHAM",
        "streetNameDisplayText": "DETROIT DR, CHATHAM"
      }
    ]
  },
  {
    "postal": "N7M9N3",
    "result": []
  },
  {
    "postal": "N7M4Y8",
    "result": [
      {
        "electoralDistricts": [
          {
            "election": null,
            "id": 18,
            "name": "Chatham-Kent—Leamington"
          }
        ],
        "pollDivisionIds": [
          10137550
        ],
        "postalCode": "N7M4Y8",
        "streetName": "LINCOLN",
        "streetDirectionId": null,
        "streetTypeId": "RD",
        "placeName": "CHATHAM",
        "streetNameDisplayText": "LINCOLN RD, CHATHAM"
      }
    ]
  },
  {
    "postal": "N7M3V7",
    "result": [
      {
        "electoralDistricts": [
          {
            "election": null,
            "id": 18,
            "name": "Chatham-Kent—Leamington"
          }
        ],
        "pollDivisionIds": [
          10137545,
          10137546
        ],
        "postalCode": "N7M3V7",
        "streetName": "PARK",
        "streetDirectionId": "E",
        "streetTypeId": "AVE",
        "placeName": "CHATHAM",
        "streetNameDisplayText": "PARK AVE E, CHATHAM"
      }
    ]
  },
  {
    "postal": "N7M8Z1",
    "result": []
  },
  {
    "postal": "N7M7B3",
    "result": []
  },
  {
    "postal": "N7M3A8",
    "result": [
      {
        "electoralDistricts": [
          {
            "election": null,
            "id": 18,
            "name": "Chatham-Kent—Leamington"
          }
        ],
        "pollDivisionIds": [
          10137544
        ],
        "postalCode": "N7M3A8",
        "streetName": "ROBERTSON",
        "streetDirectionId": null,
        "streetTypeId": "AVE",
        "placeName": "CHATHAM",
        "streetNameDisplayText": "ROBERTSON AVE, CHATHAM"
      }
    ]
  },
  {
    "postal": "N7M7V5",
    "result": []
  },
  {
    "postal": "N7M2T2",
    "result": [
      {
        "electoralDistricts": [
          {
            "election": null,
            "id": 18,
            "name": "Chatham-Kent—Leamington"
          }
        ],
        "pollDivisionIds": [
          10137548
        ],
        "postalCode": "N7M2T2",
        "streetName": "SOURIQUOIS",
        "streetDirectionId": null,
        "streetTypeId": "ST",
        "placeName": "CHATHAM",
        "streetNameDisplayText": "SOURIQUOIS ST, CHATHAM"
      }
    ]
  },
  {
    "postal": "N7M6L3",
    "result": [
      {
        "electoralDistricts": [
          {
            "election": null,
            "id": 18,
            "name": "Chatham-Kent—Leamington"
          }
        ],
        "pollDivisionIds": [
          10137547
        ],
        "postalCode": "N7M6L3",
        "streetName": "SHERWOOD",
        "streetDirectionId": null,
        "streetTypeId": "CRT",
        "placeName": "CHATHAM",
        "streetNameDisplayText": "SHERWOOD CRT, CHATHAM"
      },
      {
        "electoralDistricts": [
          {
            "election": null,
            "id": 18,
            "name": "Chatham-Kent—Leamington"
          }
        ],
        "pollDivisionIds": [
          10137547,
          10137548
        ],
        "postalCode": "N7M6L3",
        "streetName": "TWEEDSMUIR",
        "streetDirectionId": "W",
        "streetTypeId": "AVE",
        "placeName": "CHATHAM",
        "streetNameDisplayText": "TWEEDSMUIR AVE W, CHATHAM"
      }
    ]
  },
  {
    "postal": "N7M0L2",
    "result": [
      {
        "electoralDistricts": [
          {
            "election": null,
            "id": 18,
            "name": "Chatham-Kent—Leamington"
          }
        ],
        "pollDivisionIds": [
          10137553
        ],
        "postalCode": "N7M0L2",
        "streetName": "CREEK",
        "streetDirectionId": null,
        "streetTypeId": "RD",
        "placeName": "CHATHAM",
        "streetNameDisplayText": "CREEK RD, CHATHAM"
      }
    ]
  },
  {
    "postal": "N7M5Y8",
    "result": [
      {
        "electoralDistricts": [
          {
            "election": null,
            "id": 18,
            "name": "Chatham-Kent—Leamington"
          },
          {
            "election": null,
            "id": 50,
            "name": "Lambton—Kent—Middlesex"
          }
        ],
        "pollDivisionIds": [
          10137544,
          10143161
        ],
        "postalCode": "N7M5Y8",
        "streetName": "TECUMSEH",
        "streetDirectionId": null,
        "streetTypeId": "RD",
        "placeName": "CHATHAM",
        "streetNameDisplayText": "TECUMSEH RD, CHATHAM"
      }
    ]
  },
  {
    "postal": "N7M0B8",
    "result": []
  },
  {
    "postal": "N7M6R5",
    "result": []
  },
  {
    "postal": "N7M8W6",
    "result": []
  },
  {
    "postal": "N7M8G6",
    "result": []
  },
  {
    "postal": "N7M6X3",
    "result": []
  },
  {
    "postal": "N7M7R7",
    "result": []
  },
  {
    "postal": "N7M4B6",
    "result": [
      {
        "electoralDistricts": [
          {
            "election": null,
            "id": 18,
            "name": "Chatham-Kent—Leamington"
          }
        ],
        "pollDivisionIds": [
          10137550
        ],
        "postalCode": "N7M4B6",
        "streetName": "MERCER",
        "streetDirectionId": null,
        "streetTypeId": "ST",
        "placeName": "CHATHAM",
        "streetNameDisplayText": "MERCER ST, CHATHAM"
      }
    ]
  },
  {
    "postal": "N7M3P9",
    "result": [
      {
        "electoralDistricts": [
          {
            "election": null,
            "id": 18,
            "name": "Chatham-Kent—Leamington"
          }
        ],
        "pollDivisionIds": [
          10137545
        ],
        "postalCode": "N7M3P9",
        "streetName": "PARK",
        "streetDirectionId": null,
        "streetTypeId": "ST",
        "placeName": "CHATHAM",
        "streetNameDisplayText": "PARK ST, CHATHAM"
      }
    ]
  },
  {
    "postal": "N7M2T3",
    "result": [
      {
        "electoralDistricts": [
          {
            "election": null,
            "id": 18,
            "name": "Chatham-Kent—Leamington"
          }
        ],
        "pollDivisionIds": [
          10137548
        ],
        "postalCode": "N7M2T3",
        "streetName": "WYANDOTT",
        "streetDirectionId": null,
        "streetTypeId": "ST",
        "placeName": "CHATHAM",
        "streetNameDisplayText": "WYANDOTT ST, CHATHAM"
      }
    ]
  },
  {
    "postal": "N7M1M4",
    "result": [
      {
        "electoralDistricts": [
          {
            "election": null,
            "id": 18,
            "name": "Chatham-Kent—Leamington"
          }
        ],
        "pollDivisionIds": [
          10137546
        ],
        "postalCode": "N7M1M4",
        "streetName": "HARVEY",
        "streetDirectionId": null,
        "streetTypeId": "ST",
        "placeName": "CHATHAM",
        "streetNameDisplayText": "HARVEY ST, CHATHAM"
      }
    ]
  },
  {
    "postal": "N7M0H1",
    "result": []
  },
  {
    "postal": "N7M9W3",
    "result": []
  },
  {
    "postal": "N7M6P1",
    "result": []
  },
  {
    "postal": "N7M7G2",
    "result": []
  },
  {
    "postal": "N7M4J9",
    "result": [
      {
        "electoralDistricts": [
          {
            "election": null,
            "id": 18,
            "name": "Chatham-Kent—Leamington"
          }
        ],
        "pollDivisionIds": [
          10137546
        ],
        "postalCode": "N7M4J9",
        "streetName": "SEVENTH",
        "streetDirectionId": null,
        "streetTypeId": "ST",
        "placeName": "CHATHAM",
        "streetNameDisplayText": "SEVENTH ST, CHATHAM"
      }
    ]
  },
  {
    "postal": "N7M9E4",
    "result": []
  },
  {
    "postal": "N7M8H0",
    "result": []
  },
  {
    "postal": "N7M4M7",
    "result": [
      {
        "electoralDistricts": [
          {
            "election": null,
            "id": 18,
            "name": "Chatham-Kent—Leamington"
          }
        ],
        "pollDivisionIds": [
          10137546
        ],
        "postalCode": "N7M4M7",
        "streetName": "PRINCESS",
        "streetDirectionId": "S",
        "streetTypeId": "ST",
        "placeName": "CHATHAM",
        "streetNameDisplayText": "PRINCESS ST S, CHATHAM"
      }
    ]
  },
  {
    "postal": "N7M2G9",
    "result": [
      {
        "electoralDistricts": [
          {
            "election": null,
            "id": 18,
            "name": "Chatham-Kent—Leamington"
          }
        ],
        "pollDivisionIds": [
          10137566,
          10137546,
          10137545
        ],
        "postalCode": "N7M2G9",
        "streetName": "QUEEN",
        "streetDirectionId": null,
        "streetTypeId": "ST",
        "placeName": "CHATHAM",
        "streetNameDisplayText": "QUEEN ST, CHATHAM"
      }
    ]
  },
  {
    "postal": "N7M8T2",
    "result": []
  },
  {
    "postal": "N7M7G7",
    "result": []
  },
  {
    "postal": "N7M4Z3",
    "result": [
      {
        "electoralDistricts": [
          {
            "election": null,
            "id": 18,
            "name": "Chatham-Kent—Leamington"
          }
        ],
        "pollDivisionIds": [
          10137549
        ],
        "postalCode": "N7M4Z3",
        "streetName": "REDWOOD",
        "streetDirectionId": null,
        "streetTypeId": "CRES",
        "placeName": "CHATHAM",
        "streetNameDisplayText": "REDWOOD CRES, CHATHAM"
      }
    ]
  },
  {
    "postal": "N7M5B3",
    "result": [
      {
        "electoralDistricts": [
          {
            "election": null,
            "id": 18,
            "name": "Chatham-Kent—Leamington"
          }
        ],
        "pollDivisionIds": [
          10137549
        ],
        "postalCode": "N7M5B3",
        "streetName": "PETER",
        "streetDirectionId": null,
        "streetTypeId": "ST",
        "placeName": "CHATHAM",
        "streetNameDisplayText": "PETER ST, CHATHAM"
      }
    ]
  },
  {
    "postal": "N7M1S7",
    "result": [
      {
        "electoralDistricts": [
          {
            "election": null,
            "id": 18,
            "name": "Chatham-Kent—Leamington"
          }
        ],
        "pollDivisionIds": [
          10137545
        ],
        "postalCode": "N7M1S7",
        "streetName": "GRAY",
        "streetDirectionId": null,
        "streetTypeId": "ST",
        "placeName": "CHATHAM",
        "streetNameDisplayText": "GRAY ST, CHATHAM"
      }
    ]
  },
  {
    "postal": "N7M2N7",
    "result": [
      {
        "electoralDistricts": [
          {
            "election": null,
            "id": 18,
            "name": "Chatham-Kent—Leamington"
          }
        ],
        "pollDivisionIds": [
          10137545
        ],
        "postalCode": "N7M2N7",
        "streetName": "RALEIGH",
        "streetDirectionId": null,
        "streetTypeId": "ST",
        "placeName": "CHATHAM",
        "streetNameDisplayText": "RALEIGH ST, CHATHAM"
      }
    ]
  },
  {
    "postal": "N7M0H8",
    "result": []
  },
  {
    "postal": "N7M7Z4",
    "result": []
  },
  {
    "postal": "N7M7B1",
    "result": []
  },
  {
    "postal": "N7M7P8",
    "result": []
  },
  {
    "postal": "N7M7N0",
    "result": []
  },
  {
    "postal": "N7M3Y5",
    "result": [
      {
        "electoralDistricts": [
          {
            "election": null,
            "id": 18,
            "name": "Chatham-Kent—Leamington"
          }
        ],
        "pollDivisionIds": [
          10137549
        ],
        "postalCode": "N7M3Y5",
        "streetName": "ARTHUR",
        "streetDirectionId": null,
        "streetTypeId": "DR",
        "placeName": "CHATHAM",
        "streetNameDisplayText": "ARTHUR DR, CHATHAM"
      }
    ]
  },
  {
    "postal": "N7M6K1",
    "result": [
      {
        "electoralDistricts": [
          {
            "election": null,
            "id": 18,
            "name": "Chatham-Kent—Leamington"
          }
        ],
        "pollDivisionIds": [
          10137547
        ],
        "postalCode": "N7M6K1",
        "streetName": "BRISTOL",
        "streetDirectionId": null,
        "streetTypeId": "DR",
        "placeName": "CHATHAM",
        "streetNameDisplayText": "BRISTOL DR, CHATHAM"
      },
      {
        "electoralDistricts": [
          {
            "election": null,
            "id": 18,
            "name": "Chatham-Kent—Leamington"
          }
        ],
        "pollDivisionIds": [
          10137547
        ],
        "postalCode": "N7M6K1",
        "streetName": "CALAIS",
        "streetDirectionId": null,
        "streetTypeId": "CRT",
        "placeName": "CHATHAM",
        "streetNameDisplayText": "CALAIS CRT, CHATHAM"
      }
    ]
  },
  {
    "postal": "N7M9X5",
    "result": []
  },
  {
    "postal": "N7M7S5",
    "result": []
  },
  {
    "postal": "N7M0A4",
    "result": [
      {
        "electoralDistricts": [
          {
            "election": null,
            "id": 18,
            "name": "Chatham-Kent—Leamington"
          }
        ],
        "pollDivisionIds": [
          10137547
        ],
        "postalCode": "N7M0A4",
        "streetName": "MANNING",
        "streetDirectionId": null,
        "streetTypeId": "DR",
        "placeName": "CHATHAM",
        "streetNameDisplayText": "MANNING DR, CHATHAM"
      }
    ]
  },
  {
    "postal": "N7M4T5",
    "result": []
  },
  {
    "postal": "N7M5K1",
    "result": [
      {
        "electoralDistricts": [
          {
            "election": null,
            "id": 18,
            "name": "Chatham-Kent—Leamington"
          }
        ],
        "pollDivisionIds": [
          10137539
        ],
        "postalCode": "N7M5K1",
        "streetName": "HENRY O'WAY",
        "streetDirectionId": null,
        "streetTypeId": null,
        "placeName": "CHATHAM",
        "streetNameDisplayText": "HENRY O'WAY, CHATHAM"
      }
    ]
  },
  {
    "postal": "N7M0Z9",
    "result": []
  },
  {
    "postal": "N7M7T2",
    "result": []
  },
  {
    "postal": "N7M1L5",
    "result": [
      {
        "electoralDistricts": [
          {
            "election": null,
            "id": 18,
            "name": "Chatham-Kent—Leamington"
          }
        ],
        "pollDivisionIds": [
          10137546
        ],
        "postalCode": "N7M1L5",
        "streetName": "HARVEY",
        "streetDirectionId": null,
        "streetTypeId": "ST",
        "placeName": "CHATHAM",
        "streetNameDisplayText": "HARVEY ST, CHATHAM"
      }
    ]
  },
  {
    "postal": "N7M3N5",
    "result": [
      {
        "electoralDistricts": [
          {
            "election": null,
            "id": 18,
            "name": "Chatham-Kent—Leamington"
          }
        ],
        "pollDivisionIds": [
          10137546
        ],
        "postalCode": "N7M3N5",
        "streetName": "KING",
        "streetDirectionId": "E",
        "streetTypeId": "ST",
        "placeName": "CHATHAM",
        "streetNameDisplayText": "KING ST E, CHATHAM"
      }
    ]
  },
  {
    "postal": "N7M6H4",
    "result": [
      {
        "electoralDistricts": [
          {
            "election": null,
            "id": 18,
            "name": "Chatham-Kent—Leamington"
          }
        ],
        "pollDivisionIds": [
          10137547
        ],
        "postalCode": "N7M6H4",
        "streetName": "TWEEDSMUIR",
        "streetDirectionId": "W",
        "streetTypeId": "AVE",
        "placeName": "CHATHAM",
        "streetNameDisplayText": "TWEEDSMUIR AVE W, CHATHAM"
      }
    ]
  },
  {
    "postal": "N7M5A5",
    "result": [
      {
        "electoralDistricts": [
          {
            "election": null,
            "id": 18,
            "name": "Chatham-Kent—Leamington"
          }
        ],
        "pollDivisionIds": [
          10137549
        ],
        "postalCode": "N7M5A5",
        "streetName": "BEECHWOOD",
        "streetDirectionId": null,
        "streetTypeId": "CRES",
        "placeName": "CHATHAM",
        "streetNameDisplayText": "BEECHWOOD CRES, CHATHAM"
      }
    ]
  },
  {
    "postal": "N7M3R9",
    "result": [
      {
        "electoralDistricts": [
          {
            "election": null,
            "id": 18,
            "name": "Chatham-Kent—Leamington"
          }
        ],
        "pollDivisionIds": [
          10137545
        ],
        "postalCode": "N7M3R9",
        "streetName": "PARK",
        "streetDirectionId": null,
        "streetTypeId": "ST",
        "placeName": "CHATHAM",
        "streetNameDisplayText": "PARK ST, CHATHAM"
      }
    ]
  },
  {
    "postal": "N7M7L8",
    "result": []
  },
  {
    "postal": "N7M6T6",
    "result": []
  },
  {
    "postal": "N7M7Y7",
    "result": []
  },
  {
    "postal": "N7M3M8",
    "result": [
      {
        "electoralDistricts": [
          {
            "election": null,
            "id": 18,
            "name": "Chatham-Kent—Leamington"
          }
        ],
        "pollDivisionIds": [
          10137546
        ],
        "postalCode": "N7M3M8",
        "streetName": "KING",
        "streetDirectionId": "E",
        "streetTypeId": "ST",
        "placeName": "CHATHAM",
        "streetNameDisplayText": "KING ST E, CHATHAM"
      }
    ]
  },
  {
    "postal": "N7M2E0",
    "result": []
  },
  {
    "postal": "N7M4B5",
    "result": [
      {
        "electoralDistricts": [
          {
            "election": null,
            "id": 18,
            "name": "Chatham-Kent—Leamington"
          }
        ],
        "pollDivisionIds": [
          10137550
        ],
        "postalCode": "N7M4B5",
        "streetName": "MERCER",
        "streetDirectionId": null,
        "streetTypeId": "ST",
        "placeName": "CHATHAM",
        "streetNameDisplayText": "MERCER ST, CHATHAM"
      }
    ]
  },
  {
    "postal": "N7M1J3",
    "result": [
      {
        "electoralDistricts": [
          {
            "election": null,
            "id": 18,
            "name": "Chatham-Kent—Leamington"
          }
        ],
        "pollDivisionIds": [
          10137546
        ],
        "postalCode": "N7M1J3",
        "streetName": "WELLINGTON",
        "streetDirectionId": "W",
        "streetTypeId": "ST",
        "placeName": "CHATHAM",
        "streetNameDisplayText": "WELLINGTON ST W, CHATHAM"
      }
    ]
  },
  {
    "postal": "N7M5S6",
    "result": [
      {
        "electoralDistricts": [
          {
            "election": null,
            "id": 18,
            "name": "Chatham-Kent—Leamington"
          }
        ],
        "pollDivisionIds": [
          10137548
        ],
        "postalCode": "N7M5S6",
        "streetName": "SOURIQUOIS",
        "streetDirectionId": null,
        "streetTypeId": "ST",
        "placeName": "CHATHAM",
        "streetNameDisplayText": "SOURIQUOIS ST, CHATHAM"
      }
    ]
  },
  {
    "postal": "N7M8P7",
    "result": []
  },
  {
    "postal": "N7M7S7",
    "result": []
  },
  {
    "postal": "N7M4C2",
    "result": [
      {
        "electoralDistricts": [
          {
            "election": null,
            "id": 18,
            "name": "Chatham-Kent—Leamington"
          }
        ],
        "pollDivisionIds": [
          10137550
        ],
        "postalCode": "N7M4C2",
        "streetName": "HIGHLAND",
        "streetDirectionId": null,
        "streetTypeId": "DR",
        "placeName": "CHATHAM",
        "streetNameDisplayText": "HIGHLAND DR, CHATHAM"
      }
    ]
  },
  {
    "postal": "N7M5Y0",
    "result": []
  },
  {
    "postal": "N7M2V7",
    "result": [
      {
        "electoralDistricts": [
          {
            "election": null,
            "id": 18,
            "name": "Chatham-Kent—Leamington"
          }
        ],
        "pollDivisionIds": [
          10137545
        ],
        "postalCode": "N7M2V7",
        "streetName": "LACROIX",
        "streetDirectionId": null,
        "streetTypeId": "ST",
        "placeName": "CHATHAM",
        "streetNameDisplayText": "LACROIX ST, CHATHAM"
      }
    ]
  },
  {
    "postal": "N7M8P5",
    "result": []
  },
  {
    "postal": "N7M5P5",
    "result": [
      {
        "electoralDistricts": [
          {
            "election": null,
            "id": 18,
            "name": "Chatham-Kent—Leamington"
          }
        ],
        "pollDivisionIds": [
          10143124
        ],
        "postalCode": "N7M5P5",
        "streetName": "REGAL",
        "streetDirectionId": null,
        "streetTypeId": "DR",
        "placeName": "CHATHAM",
        "streetNameDisplayText": "REGAL DR, CHATHAM"
      },
      {
        "electoralDistricts": [
          {
            "election": null,
            "id": 18,
            "name": "Chatham-Kent—Leamington"
          }
        ],
        "pollDivisionIds": [
          10137548
        ],
        "postalCode": "N7M5P5",
        "streetName": "REGAL",
        "streetDirectionId": null,
        "streetTypeId": "PL",
        "placeName": "CHATHAM",
        "streetNameDisplayText": "REGAL PL, CHATHAM"
      }
    ]
  },
  {
    "postal": "N7M5Z0",
    "result": []
  },
  {
    "postal": "N7M9B0",
    "result": []
  },
  {
    "postal": "N7M1L0",
    "result": []
  },
  {
    "postal": "N7M0B5",
    "result": []
  },
  {
    "postal": "N7M3L2",
    "result": [
      {
        "electoralDistricts": [
          {
            "election": null,
            "id": 18,
            "name": "Chatham-Kent—Leamington"
          }
        ],
        "pollDivisionIds": [
          10137546
        ],
        "postalCode": "N7M3L2",
        "streetName": "MURRAY",
        "streetDirectionId": null,
        "streetTypeId": "ST",
        "placeName": "CHATHAM",
        "streetNameDisplayText": "MURRAY ST, CHATHAM"
      }
    ]
  },
  {
    "postal": "N7M3B7",
    "result": [
      {
        "electoralDistricts": [
          {
            "election": null,
            "id": 18,
            "name": "Chatham-Kent—Leamington"
          }
        ],
        "pollDivisionIds": [
          10137544
        ],
        "postalCode": "N7M3B7",
        "streetName": "BUCKINGHAM",
        "streetDirectionId": null,
        "streetTypeId": "AVE",
        "placeName": "CHATHAM",
        "streetNameDisplayText": "BUCKINGHAM AVE, CHATHAM"
      }
    ]
  },
  {
    "postal": "N7M8L1",
    "result": []
  },
  {
    "postal": "N7M5M4",
    "result": []
  },
  {
    "postal": "N7M4G9",
    "result": [
      {
        "electoralDistricts": [
          {
            "election": null,
            "id": 18,
            "name": "Chatham-Kent—Leamington"
          }
        ],
        "pollDivisionIds": [
          10137550
        ],
        "postalCode": "N7M4G9",
        "streetName": "TISSIMAN",
        "streetDirectionId": null,
        "streetTypeId": "AVE",
        "placeName": "CHATHAM",
        "streetNameDisplayText": "TISSIMAN AVE, CHATHAM"
      }
    ]
  },
  {
    "postal": "N7M0P0",
    "result": []
  },
  {
    "postal": "N7M8G2",
    "result": []
  },
  {
    "postal": "N7M1V9",
    "result": [
      {
        "electoralDistricts": [
          {
            "election": null,
            "id": 18,
            "name": "Chatham-Kent—Leamington"
          }
        ],
        "pollDivisionIds": [
          10137547
        ],
        "postalCode": "N7M1V9",
        "streetName": "PARK",
        "streetDirectionId": "W",
        "streetTypeId": "AVE",
        "placeName": "CHATHAM",
        "streetNameDisplayText": "PARK AVE W, CHATHAM"
      }
    ]
  },
  {
    "postal": "N7M8N8",
    "result": []
  },
  {
    "postal": "N7M6S8",
    "result": []
  },
  {
    "postal": "N7M8H2",
    "result": []
  },
  {
    "postal": "N7M5R8",
    "result": [
      {
        "electoralDistricts": [
          {
            "election": null,
            "id": 18,
            "name": "Chatham-Kent—Leamington"
          }
        ],
        "pollDivisionIds": [
          10137544
        ],
        "postalCode": "N7M5R8",
        "streetName": "PEARL",
        "streetDirectionId": null,
        "streetTypeId": "CRES",
        "placeName": "CHATHAM",
        "streetNameDisplayText": "PEARL CRES, CHATHAM"
      }
    ]
  },
  {
    "postal": "N7M5L4",
    "result": []
  },
  {
    "postal": "N7M9E1",
    "result": []
  },
  {
    "postal": "N7M1C4",
    "result": [
      {
        "electoralDistricts": [
          {
            "election": null,
            "id": 18,
            "name": "Chatham-Kent—Leamington"
          }
        ],
        "pollDivisionIds": [
          10137544
        ],
        "postalCode": "N7M1C4",
        "streetName": "WARWICK",
        "streetDirectionId": null,
        "streetTypeId": "DR",
        "placeName": "CHATHAM",
        "streetNameDisplayText": "WARWICK DR, CHATHAM"
      }
    ]
  },
  {
    "postal": "N7M8W5",
    "result": []
  },
  {
    "postal": "N7M1Y4",
    "result": [
      {
        "electoralDistricts": [
          {
            "election": null,
            "id": 18,
            "name": "Chatham-Kent—Leamington"
          }
        ],
        "pollDivisionIds": [
          10137547
        ],
        "postalCode": "N7M1Y4",
        "streetName": "ALEXANDRA",
        "streetDirectionId": null,
        "streetTypeId": "AVE",
        "placeName": "CHATHAM",
        "streetNameDisplayText": "ALEXANDRA AVE, CHATHAM"
      }
    ]
  },
  {
    "postal": "N7M1C0",
    "result": []
  },
  {
    "postal": "N7M2J2",
    "result": [
      {
        "electoralDistricts": [
          {
            "election": null,
            "id": 18,
            "name": "Chatham-Kent—Leamington"
          }
        ],
        "pollDivisionIds": [
          10137547
        ],
        "postalCode": "N7M2J2",
        "streetName": "QUEEN ST BX 21027",
        "streetDirectionId": null,
        "streetTypeId": "ST",
        "placeName": "CHATHAM",
        "streetNameDisplayText": "QUEEN ST BX 21027 ST, CHATHAM"
      },
      {
        "electoralDistricts": [
          {
            "election": null,
            "id": 18,
            "name": "Chatham-Kent—Leamington"
          }
        ],
        "pollDivisionIds": [
          10137547
        ],
        "postalCode": "N7M2J2",
        "streetName": "QUEEN",
        "streetDirectionId": null,
        "streetTypeId": "ST",
        "placeName": "CHATHAM",
        "streetNameDisplayText": "QUEEN ST, CHATHAM"
      }
    ]
  },
  {
    "postal": "N7M2J0",
    "result": []
  },
  {
    "postal": "N7M7A3",
    "result": []
  },
  {
    "postal": "N7M8M1",
    "result": []
  },
  {
    "postal": "N7M7T9",
    "result": []
  },
  {
    "postal": "N7M6C0",
    "result": []
  },
  {
    "postal": "N7M7X1",
    "result": []
  },
  {
    "postal": "N7M0G1",
    "result": []
  },
  {
    "postal": "N7M4X2",
    "result": [
      {
        "electoralDistricts": [
          {
            "election": null,
            "id": 18,
            "name": "Chatham-Kent—Leamington"
          }
        ],
        "pollDivisionIds": [
          10137546
        ],
        "postalCode": "N7M4X2",
        "streetName": "DEGGE",
        "streetDirectionId": null,
        "streetTypeId": "ST",
        "placeName": "CHATHAM",
        "streetNameDisplayText": "DEGGE ST, CHATHAM"
      }
    ]
  },
  {
    "postal": "N7M0N6",
    "result": []
  },
  {
    "postal": "N7M8E3",
    "result": []
  },
  {
    "postal": "N7M5S8",
    "result": [
      {
        "electoralDistricts": [
          {
            "election": null,
            "id": 18,
            "name": "Chatham-Kent—Leamington"
          }
        ],
        "pollDivisionIds": [
          10137548
        ],
        "postalCode": "N7M5S8",
        "streetName": "SAUGEEN",
        "streetDirectionId": null,
        "streetTypeId": "AVE",
        "placeName": "CHATHAM",
        "streetNameDisplayText": "SAUGEEN AVE, CHATHAM"
      }
    ]
  },
  {
    "postal": "N7M0R0",
    "result": []
  },
  {
    "postal": "N7M6J6",
    "result": [
      {
        "electoralDistricts": [
          {
            "election": null,
            "id": 18,
            "name": "Chatham-Kent—Leamington"
          }
        ],
        "pollDivisionIds": [
          10137547
        ],
        "postalCode": "N7M6J6",
        "streetName": "LORNE",
        "streetDirectionId": null,
        "streetTypeId": "AVE",
        "placeName": "CHATHAM",
        "streetNameDisplayText": "LORNE AVE, CHATHAM"
      }
    ]
  },
  {
    "postal": "N7M4B4",
    "result": [
      {
        "electoralDistricts": [
          {
            "election": null,
            "id": 18,
            "name": "Chatham-Kent—Leamington"
          }
        ],
        "pollDivisionIds": [
          10137550
        ],
        "postalCode": "N7M4B4",
        "streetName": "MERCER",
        "streetDirectionId": null,
        "streetTypeId": "ST",
        "placeName": "CHATHAM",
        "streetNameDisplayText": "MERCER ST, CHATHAM"
      }
    ]
  },
  {
    "postal": "N7M7E3",
    "result": []
  },
  {
    "postal": "N7M3N6",
    "result": [
      {
        "electoralDistricts": [
          {
            "election": null,
            "id": 18,
            "name": "Chatham-Kent—Leamington"
          }
        ],
        "pollDivisionIds": [
          10137546
        ],
        "postalCode": "N7M3N6",
        "streetName": "KING",
        "streetDirectionId": "E",
        "streetTypeId": "ST",
        "placeName": "CHATHAM",
        "streetNameDisplayText": "KING ST E, CHATHAM"
      }
    ]
  },
  {
    "postal": "N7M3X6",
    "result": [
      {
        "electoralDistricts": [
          {
            "election": null,
            "id": 18,
            "name": "Chatham-Kent—Leamington"
          }
        ],
        "pollDivisionIds": [
          10137549
        ],
        "postalCode": "N7M3X6",
        "streetName": "HARWICH",
        "streetDirectionId": null,
        "streetTypeId": "ST",
        "placeName": "CHATHAM",
        "streetNameDisplayText": "HARWICH ST, CHATHAM"
      }
    ]
  },
  {
    "postal": "N7M8L0",
    "result": []
  },
  {
    "postal": "N7M8N1",
    "result": []
  },
  {
    "postal": "N7M4J0",
    "result": []
  },
  {
    "postal": "N7M0X7",
    "result": []
  },
  {
    "postal": "N7M6S4",
    "result": []
  },
  {
    "postal": "N7M0Z0",
    "result": []
  },
  {
    "postal": "N7M9X8",
    "result": []
  },
  {
    "postal": "N7M3H3",
    "result": [
      {
        "electoralDistricts": [
          {
            "election": null,
            "id": 18,
            "name": "Chatham-Kent—Leamington"
          }
        ],
        "pollDivisionIds": [
          10137544,
          10137547
        ],
        "postalCode": "N7M3H3",
        "streetName": "KEIL",
        "streetDirectionId": "S",
        "streetTypeId": "DR",
        "placeName": "CHATHAM",
        "streetNameDisplayText": "KEIL DR S, CHATHAM"
      }
    ]
  },
  {
    "postal": "N7M7S2",
    "result": []
  },
  {
    "postal": "N7M3T3",
    "result": [
      {
        "electoralDistricts": [
          {
            "election": null,
            "id": 18,
            "name": "Chatham-Kent—Leamington"
          }
        ],
        "pollDivisionIds": [
          10137545
        ],
        "postalCode": "N7M3T3",
        "streetName": "WITHERSPOON",
        "streetDirectionId": null,
        "streetTypeId": "ST",
        "placeName": "CHATHAM",
        "streetNameDisplayText": "WITHERSPOON ST, CHATHAM"
      }
    ]
  },
  {
    "postal": "N7M9P3",
    "result": []
  },
  {
    "postal": "N7M4H8",
    "result": [
      {
        "electoralDistricts": [
          {
            "election": null,
            "id": 18,
            "name": "Chatham-Kent—Leamington"
          }
        ],
        "pollDivisionIds": [
          10137546
        ],
        "postalCode": "N7M4H8",
        "streetName": "NINTH",
        "streetDirectionId": null,
        "streetTypeId": "ST",
        "placeName": "CHATHAM",
        "streetNameDisplayText": "NINTH ST, CHATHAM"
      }
    ]
  },
  {
    "postal": "N7M6R1",
    "result": []
  },
  {
    "postal": "N7M1S0",
    "result": []
  },
  {
    "postal": "N7M3W8",
    "result": [
      {
        "electoralDistricts": [
          {
            "election": null,
            "id": 18,
            "name": "Chatham-Kent—Leamington"
          }
        ],
        "pollDivisionIds": [
          10137549
        ],
        "postalCode": "N7M3W8",
        "streetName": "CAMPBELL",
        "streetDirectionId": null,
        "streetTypeId": "ST",
        "placeName": "CHATHAM",
        "streetNameDisplayText": "CAMPBELL ST, CHATHAM"
      }
    ]
  },
  {
    "postal": "N7M4S3",
    "result": [
      {
        "electoralDistricts": [
          {
            "election": null,
            "id": 18,
            "name": "Chatham-Kent—Leamington"
          }
        ],
        "pollDivisionIds": [
          10137546
        ],
        "postalCode": "N7M4S3",
        "streetName": "WILLIAM",
        "streetDirectionId": "S",
        "streetTypeId": "ST",
        "placeName": "CHATHAM",
        "streetNameDisplayText": "WILLIAM ST S, CHATHAM"
      }
    ]
  },
  {
    "postal": "N7M1B6",
    "result": [
      {
        "electoralDistricts": [
          {
            "election": null,
            "id": 18,
            "name": "Chatham-Kent—Leamington"
          }
        ],
        "pollDivisionIds": [
          10137544
        ],
        "postalCode": "N7M1B6",
        "streetName": "EMERALD",
        "streetDirectionId": null,
        "streetTypeId": "PL",
        "placeName": "CHATHAM",
        "streetNameDisplayText": "EMERALD PL, CHATHAM"
      }
    ]
  },
  {
    "postal": "N7M8R3",
    "result": []
  },
  {
    "postal": "N7M4V9",
    "result": [
      {
        "electoralDistricts": [
          {
            "election": null,
            "id": 18,
            "name": "Chatham-Kent—Leamington"
          }
        ],
        "pollDivisionIds": [
          10137546
        ],
        "postalCode": "N7M4V9",
        "streetName": "WELLINGTON",
        "streetDirectionId": "W",
        "streetTypeId": "ST",
        "placeName": "CHATHAM",
        "streetNameDisplayText": "WELLINGTON ST W, CHATHAM"
      }
    ]
  },
  {
    "postal": "N7M9W4",
    "result": []
  },
  {
    "postal": "N7M3T4",
    "result": [
      {
        "electoralDistricts": [
          {
            "election": null,
            "id": 18,
            "name": "Chatham-Kent—Leamington"
          }
        ],
        "pollDivisionIds": [
          10137545
        ],
        "postalCode": "N7M3T4",
        "streetName": "WITHERSPOON",
        "streetDirectionId": null,
        "streetTypeId": "ST",
        "placeName": "CHATHAM",
        "streetNameDisplayText": "WITHERSPOON ST, CHATHAM"
      }
    ]
  },
  {
    "postal": "N7M5C7",
    "result": [
      {
        "electoralDistricts": [
          {
            "election": null,
            "id": 18,
            "name": "Chatham-Kent—Leamington"
          }
        ],
        "pollDivisionIds": [
          10137549
        ],
        "postalCode": "N7M5C7",
        "streetName": "LISGAR",
        "streetDirectionId": null,
        "streetTypeId": "ST",
        "placeName": "CHATHAM",
        "streetNameDisplayText": "LISGAR ST, CHATHAM"
      }
    ]
  },
  {
    "postal": "N7M3Y1",
    "result": [
      {
        "electoralDistricts": [
          {
            "election": null,
            "id": 18,
            "name": "Chatham-Kent—Leamington"
          }
        ],
        "pollDivisionIds": [
          10137549
        ],
        "postalCode": "N7M3Y1",
        "streetName": "ST ANTHONY",
        "streetDirectionId": null,
        "streetTypeId": "ST",
        "placeName": "CHATHAM",
        "streetNameDisplayText": "ST ANTHONY ST, CHATHAM"
      }
    ]
  },
  {
    "postal": "N7M5V0",
    "result": []
  },
  {
    "postal": "N7M8G8",
    "result": []
  },
  {
    "postal": "N7M8B1",
    "result": []
  },
  {
    "postal": "N7M4P5",
    "result": [
      {
        "electoralDistricts": [
          {
            "election": null,
            "id": 18,
            "name": "Chatham-Kent—Leamington"
          }
        ],
        "pollDivisionIds": [
          10137546
        ],
        "postalCode": "N7M4P5",
        "streetName": "DANIEL'S",
        "streetDirectionId": null,
        "streetTypeId": "PL",
        "placeName": "CHATHAM",
        "streetNameDisplayText": "DANIEL'S PL, CHATHAM"
      }
    ]
  },
  {
    "postal": "N7M7B2",
    "result": []
  },
  {
    "postal": "N7M0R2",
    "result": [
      {
        "electoralDistricts": [
          {
            "election": null,
            "id": 50,
            "name": "Lambton—Kent—Middlesex"
          }
        ],
        "pollDivisionIds": [
          10143353
        ],
        "postalCode": "N7M0R2",
        "streetName": "PRINCE ALBERT",
        "streetDirectionId": null,
        "streetTypeId": "RD",
        "placeName": "CHATHAM",
        "streetNameDisplayText": "PRINCE ALBERT RD, CHATHAM"
      }
    ]
  },
  {
    "postal": "N7M4M4",
    "result": []
  },
  {
    "postal": "N7M7M4",
    "result": []
  },
  {
    "postal": "N7M9S7",
    "result": []
  },
  {
    "postal": "N7M5Z7",
    "result": [
      {
        "electoralDistricts": [
          {
            "election": null,
            "id": 18,
            "name": "Chatham-Kent—Leamington"
          }
        ],
        "pollDivisionIds": [
          10137548
        ],
        "postalCode": "N7M5Z7",
        "streetName": "ST MICHAEL",
        "streetDirectionId": null,
        "streetTypeId": "AVE",
        "placeName": "CHATHAM",
        "streetNameDisplayText": "ST MICHAEL AVE, CHATHAM"
      }
    ]
  },
  {
    "postal": "N7M7J7",
    "result": []
  },
  {
    "postal": "N7M8R8",
    "result": []
  },
  {
    "postal": "N7M9X1",
    "result": []
  },
  {
    "postal": "N7M5M9",
    "result": [
      {
        "electoralDistricts": [
          {
            "election": null,
            "id": 18,
            "name": "Chatham-Kent—Leamington"
          }
        ],
        "pollDivisionIds": [
          10137544
        ],
        "postalCode": "N7M5M9",
        "streetName": "EMERALD",
        "streetDirectionId": null,
        "streetTypeId": "PL",
        "placeName": "CHATHAM",
        "streetNameDisplayText": "EMERALD PL, CHATHAM"
      }
    ]
  },
  {
    "postal": "N7M9B4",
    "result": []
  },
  {
    "postal": "N7M0L9",
    "result": [
      {
        "electoralDistricts": [
          {
            "election": null,
            "id": 18,
            "name": "Chatham-Kent—Leamington"
          }
        ],
        "pollDivisionIds": [
          10137551
        ],
        "postalCode": "N7M0L9",
        "streetName": "SEVENTH",
        "streetDirectionId": "E",
        "streetTypeId": "LINE",
        "placeName": "CHATHAM",
        "streetNameDisplayText": "SEVENTH LINE E, CHATHAM"
      }
    ]
  },
  {
    "postal": "N7M9G4",
    "result": []
  },
  {
    "postal": "N7M1J4",
    "result": []
  },
  {
    "postal": "N7M0W6",
    "result": []
  }
]
