[
  {
    "postal": "N6E9J6",
    "result": []
  },
  {
    "postal": "N6E9Z5",
    "result": []
  },
  {
    "postal": "N6E7H8",
    "result": []
  },
  {
    "postal": "N6E0P6",
    "result": []
  },
  {
    "postal": "N6E0S7",
    "result": []
  },
  {
    "postal": "N6E8B9",
    "result": []
  },
  {
    "postal": "N6E2A6",
    "result": [
      {
        "electoralDistricts": [
          {
            "election": null,
            "id": 53,
            "name": "London—Fanshawe"
          }
        ],
        "pollDivisionIds": [
          10139580
        ],
        "postalCode": "N6E2A6",
        "streetName": "JALNA",
        "streetDirectionId": null,
        "streetTypeId": "BLVD",
        "placeName": "LONDON",
        "streetNameDisplayText": "JALNA BLVD, LONDON"
      }
    ]
  },
  {
    "postal": "N6E7V2",
    "result": []
  },
  {
    "postal": "N6E9P4",
    "result": []
  },
  {
    "postal": "N6E6G0",
    "result": []
  },
  {
    "postal": "N6E2K0",
    "result": []
  },
  {
    "postal": "N6E7N6",
    "result": []
  },
  {
    "postal": "N6E5R3",
    "result": []
  },
  {
    "postal": "N6E7K0",
    "result": []
  },
  {
    "postal": "N6E3R2",
    "result": [
      {
        "electoralDistricts": [
          {
            "election": null,
            "id": 53,
            "name": "London—Fanshawe"
          }
        ],
        "pollDivisionIds": [
          10139587
        ],
        "postalCode": "N6E3R2",
        "streetName": "COLETTE",
        "streetDirectionId": null,
        "streetTypeId": "DR",
        "placeName": "LONDON",
        "streetNameDisplayText": "COLETTE DR, LONDON"
      },
      {
        "electoralDistricts": [
          {
            "election": null,
            "id": 53,
            "name": "London—Fanshawe"
          }
        ],
        "pollDivisionIds": [
          10139587
        ],
        "postalCode": "N6E3R2",
        "streetName": "JUTTA",
        "streetDirectionId": null,
        "streetTypeId": "CRES",
        "placeName": "LONDON",
        "streetNameDisplayText": "JUTTA CRES, LONDON"
      }
    ]
  },
  {
    "postal": "N6E0J1",
    "result": []
  },
  {
    "postal": "N6E0B0",
    "result": []
  },
  {
    "postal": "N6E5Z2",
    "result": []
  },
  {
    "postal": "N6E7P3",
    "result": []
  },
  {
    "postal": "N6E2K3",
    "result": [
      {
        "electoralDistricts": [
          {
            "election": null,
            "id": 53,
            "name": "London—Fanshawe"
          }
        ],
        "pollDivisionIds": [
          10139588
        ],
        "postalCode": "N6E2K3",
        "streetName": "MURIEL",
        "streetDirectionId": null,
        "streetTypeId": "CRES",
        "placeName": "LONDON",
        "streetNameDisplayText": "MURIEL CRES, LONDON"
      }
    ]
  },
  {
    "postal": "N6E7Y6",
    "result": []
  },
  {
    "postal": "N6E1L9",
    "result": [
      {
        "electoralDistricts": [
          {
            "election": null,
            "id": 53,
            "name": "London—Fanshawe"
          }
        ],
        "pollDivisionIds": [
          10139582
        ],
        "postalCode": "N6E1L9",
        "streetName": "WELLINGTON",
        "streetDirectionId": "S",
        "streetTypeId": "RD",
        "placeName": "LONDON",
        "streetNameDisplayText": "WELLINGTON RD S, LONDON"
      }
    ]
  },
  {
    "postal": "N6E8T0",
    "result": []
  },
  {
    "postal": "N6E3K8",
    "result": [
      {
        "electoralDistricts": [
          {
            "election": null,
            "id": 53,
            "name": "London—Fanshawe"
          }
        ],
        "pollDivisionIds": [
          10139589
        ],
        "postalCode": "N6E3K8",
        "streetName": "CHESWICK",
        "streetDirectionId": null,
        "streetTypeId": "CIR",
        "placeName": "LONDON",
        "streetNameDisplayText": "CHESWICK CIR, LONDON"
      },
      {
        "electoralDistricts": [
          {
            "election": null,
            "id": 53,
            "name": "London—Fanshawe"
          }
        ],
        "pollDivisionIds": [
          10139589
        ],
        "postalCode": "N6E3K8",
        "streetName": "JALNA",
        "streetDirectionId": null,
        "streetTypeId": "BLVD",
        "placeName": "LONDON",
        "streetNameDisplayText": "JALNA BLVD, LONDON"
      }
    ]
  },
  {
    "postal": "N6E5W9",
    "result": []
  },
  {
    "postal": "N6E6T9",
    "result": []
  },
  {
    "postal": "N6E4H1",
    "result": []
  },
  {
    "postal": "N6E7A2",
    "result": []
  },
  {
    "postal": "N6E5G0",
    "result": []
  },
  {
    "postal": "N6E8V5",
    "result": []
  },
  {
    "postal": "N6E2Y8",
    "result": [
      {
        "electoralDistricts": [
          {
            "election": null,
            "id": 53,
            "name": "London—Fanshawe"
          }
        ],
        "pollDivisionIds": [
          10139589
        ],
        "postalCode": "N6E2Y8",
        "streetName": "CONWAY",
        "streetDirectionId": null,
        "streetTypeId": "DR",
        "placeName": "LONDON",
        "streetNameDisplayText": "CONWAY DR, LONDON"
      }
    ]
  },
  {
    "postal": "N6E2B6",
    "result": [
      {
        "electoralDistricts": [
          {
            "election": null,
            "id": 53,
            "name": "London—Fanshawe"
          }
        ],
        "pollDivisionIds": [
          10139580
        ],
        "postalCode": "N6E2B6",
        "streetName": "ERNEST",
        "streetDirectionId": null,
        "streetTypeId": "AVE",
        "placeName": "LONDON",
        "streetNameDisplayText": "ERNEST AVE, LONDON"
      }
    ]
  },
  {
    "postal": "N6E4W8",
    "result": []
  },
  {
    "postal": "N6E8H7",
    "result": []
  },
  {
    "postal": "N6E5P1",
    "result": []
  },
  {
    "postal": "N6E2B8",
    "result": [
      {
        "electoralDistricts": [
          {
            "election": null,
            "id": 53,
            "name": "London—Fanshawe"
          }
        ],
        "pollDivisionIds": [
          10139580
        ],
        "postalCode": "N6E2B8",
        "streetName": "ERNEST",
        "streetDirectionId": null,
        "streetTypeId": "AVE",
        "placeName": "LONDON",
        "streetNameDisplayText": "ERNEST AVE, LONDON"
      }
    ]
  },
  {
    "postal": "N6E0P2",
    "result": []
  },
  {
    "postal": "N6E9M1",
    "result": []
  },
  {
    "postal": "N6E3G0",
    "result": []
  },
  {
    "postal": "N6E9Z2",
    "result": []
  },
  {
    "postal": "N6E2A0",
    "result": []
  },
  {
    "postal": "N6E6Y0",
    "result": []
  },
  {
    "postal": "N6E2Z8",
    "result": [
      {
        "electoralDistricts": [
          {
            "election": null,
            "id": 26,
            "name": "Elgin—Middlesex—London"
          }
        ],
        "pollDivisionIds": [
          10137962
        ],
        "postalCode": "N6E2Z8",
        "streetName": "WELLINGTON",
        "streetDirectionId": "S",
        "streetTypeId": "RD",
        "placeName": "LONDON",
        "streetNameDisplayText": "WELLINGTON RD S, LONDON"
      }
    ]
  },
  {
    "postal": "N6E7Y3",
    "result": []
  },
  {
    "postal": "N6E6Z5",
    "result": []
  },
  {
    "postal": "N6E6E0",
    "result": []
  },
  {
    "postal": "N6E9B7",
    "result": []
  },
  {
    "postal": "N6E9S5",
    "result": []
  },
  {
    "postal": "N6E3X3",
    "result": [
      {
        "electoralDistricts": [
          {
            "election": null,
            "id": 26,
            "name": "Elgin—Middlesex—London"
          }
        ],
        "pollDivisionIds": [
          10137962
        ],
        "postalCode": "N6E3X3",
        "streetName": "HARPER",
        "streetDirectionId": null,
        "streetTypeId": "ST",
        "placeName": "LONDON",
        "streetNameDisplayText": "HARPER ST, LONDON"
      }
    ]
  },
  {
    "postal": "N6E7R5",
    "result": []
  },
  {
    "postal": "N6E2X3",
    "result": []
  },
  {
    "postal": "N6E8Z9",
    "result": []
  },
  {
    "postal": "N6E0N4",
    "result": []
  },
  {
    "postal": "N6E1K1",
    "result": [
      {
        "electoralDistricts": [
          {
            "election": null,
            "id": 53,
            "name": "London—Fanshawe"
          }
        ],
        "pollDivisionIds": [
          10139580
        ],
        "postalCode": "N6E1K1",
        "streetName": "NEWBOLD",
        "streetDirectionId": null,
        "streetTypeId": "ST",
        "placeName": "LONDON",
        "streetNameDisplayText": "NEWBOLD ST, LONDON"
      }
    ]
  },
  {
    "postal": "N6E1S3",
    "result": [
      {
        "electoralDistricts": [
          {
            "election": null,
            "id": 53,
            "name": "London—Fanshawe"
          }
        ],
        "pollDivisionIds": [
          10139581
        ],
        "postalCode": "N6E1S3",
        "streetName": "DUDLEY",
        "streetDirectionId": null,
        "streetTypeId": "CRES",
        "placeName": "LONDON",
        "streetNameDisplayText": "DUDLEY CRES, LONDON"
      }
    ]
  },
  {
    "postal": "N6E6M4",
    "result": []
  },
  {
    "postal": "N6E9A9",
    "result": []
  },
  {
    "postal": "N6E9Z9",
    "result": []
  },
  {
    "postal": "N6E6T4",
    "result": []
  },
  {
    "postal": "N6E0B2",
    "result": [
      {
        "electoralDistricts": [
          {
            "election": null,
            "id": 53,
            "name": "London—Fanshawe"
          }
        ],
        "pollDivisionIds": [
          10139584
        ],
        "postalCode": "N6E0B2",
        "streetName": "SOUTHDALE",
        "streetDirectionId": "E",
        "streetTypeId": "RD",
        "placeName": "LONDON",
        "streetNameDisplayText": "SOUTHDALE RD E, LONDON"
      }
    ]
  },
  {
    "postal": "N6E2L9",
    "result": [
      {
        "electoralDistricts": [
          {
            "election": null,
            "id": 53,
            "name": "London—Fanshawe"
          }
        ],
        "pollDivisionIds": [
          10139582
        ],
        "postalCode": "N6E2L9",
        "streetName": "ST STEPHEN'S",
        "streetDirectionId": null,
        "streetTypeId": "DR",
        "placeName": "LONDON",
        "streetNameDisplayText": "ST STEPHEN'S DR, LONDON"
      }
    ]
  },
  {
    "postal": "N6E8K9",
    "result": []
  },
  {
    "postal": "N6E2H9",
    "result": [
      {
        "electoralDistricts": [
          {
            "election": null,
            "id": 53,
            "name": "London—Fanshawe"
          }
        ],
        "pollDivisionIds": [
          10139580
        ],
        "postalCode": "N6E2H9",
        "streetName": "SHOLTO",
        "streetDirectionId": null,
        "streetTypeId": "DR",
        "placeName": "LONDON",
        "streetNameDisplayText": "SHOLTO DR, LONDON"
      }
    ]
  },
  {
    "postal": "N6E3Z6",
    "result": [
      {
        "electoralDistricts": [
          {
            "election": null,
            "id": 53,
            "name": "London—Fanshawe"
          }
        ],
        "pollDivisionIds": [
          10139580
        ],
        "postalCode": "N6E3Z6",
        "streetName": "BRADLEY",
        "streetDirectionId": null,
        "streetTypeId": "AVE",
        "placeName": "LONDON",
        "streetNameDisplayText": "BRADLEY AVE, LONDON"
      }
    ]
  },
  {
    "postal": "N6E3B0",
    "result": []
  },
  {
    "postal": "N6E2H8",
    "result": [
      {
        "electoralDistricts": [
          {
            "election": null,
            "id": 53,
            "name": "London—Fanshawe"
          }
        ],
        "pollDivisionIds": [
          10139580
        ],
        "postalCode": "N6E2H8",
        "streetName": "ERNEST",
        "streetDirectionId": null,
        "streetTypeId": "AVE",
        "placeName": "LONDON",
        "streetNameDisplayText": "ERNEST AVE, LONDON"
      }
    ]
  },
  {
    "postal": "N6E3X2",
    "result": [
      {
        "electoralDistricts": [
          {
            "election": null,
            "id": 26,
            "name": "Elgin—Middlesex—London"
          }
        ],
        "pollDivisionIds": [
          10143310
        ],
        "postalCode": "N6E3X2",
        "streetName": "DINGMAN",
        "streetDirectionId": null,
        "streetTypeId": "DR",
        "placeName": "LONDON",
        "streetNameDisplayText": "DINGMAN DR, LONDON"
      }
    ]
  },
  {
    "postal": "N6E2E9",
    "result": [
      {
        "electoralDistricts": [
          {
            "election": null,
            "id": 53,
            "name": "London—Fanshawe"
          }
        ],
        "pollDivisionIds": [
          10139580
        ],
        "postalCode": "N6E2E9",
        "streetName": "NICHOLAS",
        "streetDirectionId": null,
        "streetTypeId": "CRES",
        "placeName": "LONDON",
        "streetNameDisplayText": "NICHOLAS CRES, LONDON"
      }
    ]
  },
  {
    "postal": "N6E9P6",
    "result": []
  },
  {
    "postal": "N6E9E2",
    "result": []
  },
  {
    "postal": "N6E9H2",
    "result": []
  },
  {
    "postal": "N6E1S8",
    "result": [
      {
        "electoralDistricts": [
          {
            "election": null,
            "id": 53,
            "name": "London—Fanshawe"
          }
        ],
        "pollDivisionIds": [
          10139581
        ],
        "postalCode": "N6E1S8",
        "streetName": "ASHBURY",
        "streetDirectionId": null,
        "streetTypeId": "AVE",
        "placeName": "LONDON",
        "streetNameDisplayText": "ASHBURY AVE, LONDON"
      }
    ]
  },
  {
    "postal": "N6E3M6",
    "result": [
      {
        "electoralDistricts": [
          {
            "election": null,
            "id": 53,
            "name": "London—Fanshawe"
          }
        ],
        "pollDivisionIds": [
          10139589
        ],
        "postalCode": "N6E3M6",
        "streetName": "CONWAY",
        "streetDirectionId": null,
        "streetTypeId": "DR",
        "placeName": "LONDON",
        "streetNameDisplayText": "CONWAY DR, LONDON"
      }
    ]
  },
  {
    "postal": "N6E6Z8",
    "result": []
  },
  {
    "postal": "N6E4J2",
    "result": []
  },
  {
    "postal": "N6E9Y1",
    "result": []
  },
  {
    "postal": "N6E8V6",
    "result": []
  },
  {
    "postal": "N6E6B2",
    "result": []
  },
  {
    "postal": "N6E1P8",
    "result": [
      {
        "electoralDistricts": [
          {
            "election": null,
            "id": 53,
            "name": "London—Fanshawe"
          }
        ],
        "pollDivisionIds": [
          10139580
        ],
        "postalCode": "N6E1P8",
        "streetName": "BESSEMER",
        "streetDirectionId": null,
        "streetTypeId": "RD",
        "placeName": "LONDON",
        "streetNameDisplayText": "BESSEMER RD, LONDON"
      }
    ]
  },
  {
    "postal": "N6E0V8",
    "result": []
  },
  {
    "postal": "N6E4Y0",
    "result": []
  },
  {
    "postal": "N6E2T4",
    "result": [
      {
        "electoralDistricts": [
          {
            "election": null,
            "id": 53,
            "name": "London—Fanshawe"
          }
        ],
        "pollDivisionIds": [
          10139580
        ],
        "postalCode": "N6E2T4",
        "streetName": "INVICTA",
        "streetDirectionId": null,
        "streetTypeId": "CRT",
        "placeName": "LONDON",
        "streetNameDisplayText": "INVICTA CRT, LONDON"
      }
    ]
  },
  {
    "postal": "N6E2S3",
    "result": [
      {
        "electoralDistricts": [
          {
            "election": null,
            "id": 53,
            "name": "London—Fanshawe"
          }
        ],
        "pollDivisionIds": [
          10139588
        ],
        "postalCode": "N6E2S3",
        "streetName": "ERNEST",
        "streetDirectionId": null,
        "streetTypeId": "AVE",
        "placeName": "LONDON",
        "streetNameDisplayText": "ERNEST AVE, LONDON"
      }
    ]
  },
  {
    "postal": "N6E0K0",
    "result": []
  },
  {
    "postal": "N6E5N1",
    "result": []
  },
  {
    "postal": "N6E7T0",
    "result": []
  },
  {
    "postal": "N6E9N2",
    "result": []
  },
  {
    "postal": "N6E5L1",
    "result": []
  },
  {
    "postal": "N6E7G5",
    "result": []
  },
  {
    "postal": "N6E6K2",
    "result": []
  },
  {
    "postal": "N6E6P9",
    "result": []
  },
  {
    "postal": "N6E0E6",
    "result": []
  },
  {
    "postal": "N6E8R9",
    "result": []
  },
  {
    "postal": "N6E3G9",
    "result": [
      {
        "electoralDistricts": [
          {
            "election": null,
            "id": 53,
            "name": "London—Fanshawe"
          }
        ],
        "pollDivisionIds": [
          10139589
        ],
        "postalCode": "N6E3G9",
        "streetName": "CLARA",
        "streetDirectionId": null,
        "streetTypeId": "CRES",
        "placeName": "LONDON",
        "streetNameDisplayText": "CLARA CRES, LONDON"
      }
    ]
  },
  {
    "postal": "N6E0V7",
    "result": []
  },
  {
    "postal": "N6E2Z1",
    "result": []
  },
  {
    "postal": "N6E7N1",
    "result": []
  },
  {
    "postal": "N6E3C6",
    "result": [
      {
        "electoralDistricts": [
          {
            "election": null,
            "id": 53,
            "name": "London—Fanshawe"
          }
        ],
        "pollDivisionIds": [
          10139589
        ],
        "postalCode": "N6E3C6",
        "streetName": "JALNA",
        "streetDirectionId": null,
        "streetTypeId": "BLVD",
        "placeName": "LONDON",
        "streetNameDisplayText": "JALNA BLVD, LONDON"
      }
    ]
  },
  {
    "postal": "N6E4M1",
    "result": []
  },
  {
    "postal": "N6E9K2",
    "result": []
  },
  {
    "postal": "N6E9S6",
    "result": []
  },
  {
    "postal": "N6E4X1",
    "result": []
  },
  {
    "postal": "N6E8W2",
    "result": []
  },
  {
    "postal": "N6E7N2",
    "result": []
  },
  {
    "postal": "N6E8S3",
    "result": []
  },
  {
    "postal": "N6E4V0",
    "result": []
  },
  {
    "postal": "N6E6W4",
    "result": []
  },
  {
    "postal": "N6E5M1",
    "result": []
  },
  {
    "postal": "N6E0S4",
    "result": []
  },
  {
    "postal": "N6E5X6",
    "result": []
  },
  {
    "postal": "N6E8L5",
    "result": []
  },
  {
    "postal": "N6E5M8",
    "result": []
  },
  {
    "postal": "N6E2G3",
    "result": [
      {
        "electoralDistricts": [
          {
            "election": null,
            "id": 53,
            "name": "London—Fanshawe"
          }
        ],
        "pollDivisionIds": [
          10139580
        ],
        "postalCode": "N6E2G3",
        "streetName": "JALNA",
        "streetDirectionId": null,
        "streetTypeId": "BLVD",
        "placeName": "LONDON",
        "streetNameDisplayText": "JALNA BLVD, LONDON"
      }
    ]
  },
  {
    "postal": "N6E8E4",
    "result": []
  },
  {
    "postal": "N6E7S9",
    "result": []
  },
  {
    "postal": "N6E1K3",
    "result": [
      {
        "electoralDistricts": [
          {
            "election": null,
            "id": 53,
            "name": "London—Fanshawe"
          }
        ],
        "pollDivisionIds": [
          10139580
        ],
        "postalCode": "N6E1K3",
        "streetName": "NEWBOLD",
        "streetDirectionId": null,
        "streetTypeId": "ST",
        "placeName": "LONDON",
        "streetNameDisplayText": "NEWBOLD ST, LONDON"
      }
    ]
  },
  {
    "postal": "N6E4E1",
    "result": []
  },
  {
    "postal": "N6E4R2",
    "result": []
  },
  {
    "postal": "N6E6T0",
    "result": []
  },
  {
    "postal": "N6E3K5",
    "result": [
      {
        "electoralDistricts": [
          {
            "election": null,
            "id": 53,
            "name": "London—Fanshawe"
          }
        ],
        "pollDivisionIds": [
          10139589
        ],
        "postalCode": "N6E3K5",
        "streetName": "CONWAY",
        "streetDirectionId": null,
        "streetTypeId": "DR",
        "placeName": "LONDON",
        "streetNameDisplayText": "CONWAY DR, LONDON"
      }
    ]
  },
  {
    "postal": "N6E3S3",
    "result": [
      {
        "electoralDistricts": [
          {
            "election": null,
            "id": 53,
            "name": "London—Fanshawe"
          }
        ],
        "pollDivisionIds": [
          10139587
        ],
        "postalCode": "N6E3S3",
        "streetName": "JALNA",
        "streetDirectionId": null,
        "streetTypeId": "BLVD",
        "placeName": "LONDON",
        "streetNameDisplayText": "JALNA BLVD, LONDON"
      }
    ]
  },
  {
    "postal": "N6E3L4",
    "result": [
      {
        "electoralDistricts": [
          {
            "election": null,
            "id": 53,
            "name": "London—Fanshawe"
          }
        ],
        "pollDivisionIds": [
          10139589
        ],
        "postalCode": "N6E3L4",
        "streetName": "SARAH",
        "streetDirectionId": null,
        "streetTypeId": "CRES",
        "placeName": "LONDON",
        "streetNameDisplayText": "SARAH CRES, LONDON"
      },
      {
        "electoralDistricts": [
          {
            "election": null,
            "id": 53,
            "name": "London—Fanshawe"
          }
        ],
        "pollDivisionIds": [
          10139589
        ],
        "postalCode": "N6E3L4",
        "streetName": "SARAH",
        "streetDirectionId": null,
        "streetTypeId": "CRT",
        "placeName": "LONDON",
        "streetNameDisplayText": "SARAH CRT, LONDON"
      }
    ]
  },
  {
    "postal": "N6E9Y2",
    "result": []
  },
  {
    "postal": "N6E1E0",
    "result": []
  },
  {
    "postal": "N6E9A4",
    "result": []
  },
  {
    "postal": "N6E1L3",
    "result": [
      {
        "electoralDistricts": [
          {
            "election": null,
            "id": 26,
            "name": "Elgin—Middlesex—London"
          }
        ],
        "pollDivisionIds": [
          10143310
        ],
        "postalCode": "N6E1L3",
        "streetName": "EXETER",
        "streetDirectionId": null,
        "streetTypeId": "RD",
        "placeName": "LONDON",
        "streetNameDisplayText": "EXETER RD, LONDON"
      }
    ]
  },
  {
    "postal": "N6E6N1",
    "result": []
  },
  {
    "postal": "N6E6G7",
    "result": []
  },
  {
    "postal": "N6E7W1",
    "result": []
  },
  {
    "postal": "N6E4M6",
    "result": []
  },
  {
    "postal": "N6E1K0",
    "result": []
  },
  {
    "postal": "N6E3E2",
    "result": [
      {
        "electoralDistricts": [
          {
            "election": null,
            "id": 53,
            "name": "London—Fanshawe"
          }
        ],
        "pollDivisionIds": [
          10139589
        ],
        "postalCode": "N6E3E2",
        "streetName": "FAIRCHILD",
        "streetDirectionId": null,
        "streetTypeId": "CRES",
        "placeName": "LONDON",
        "streetNameDisplayText": "FAIRCHILD CRES, LONDON"
      }
    ]
  },
  {
    "postal": "N6E5H4",
    "result": []
  },
  {
    "postal": "N6E1K7",
    "result": [
      {
        "electoralDistricts": [
          {
            "election": null,
            "id": 53,
            "name": "London—Fanshawe"
          }
        ],
        "pollDivisionIds": [
          10139580
        ],
        "postalCode": "N6E1K7",
        "streetName": "BESSEMER",
        "streetDirectionId": null,
        "streetTypeId": "CRT",
        "placeName": "LONDON",
        "streetNameDisplayText": "BESSEMER CRT, LONDON"
      }
    ]
  },
  {
    "postal": "N6E0H0",
    "result": []
  },
  {
    "postal": "N6E0J3",
    "result": []
  },
  {
    "postal": "N6E1X6",
    "result": [
      {
        "electoralDistricts": [
          {
            "election": null,
            "id": 53,
            "name": "London—Fanshawe"
          }
        ],
        "pollDivisionIds": [
          10139578
        ],
        "postalCode": "N6E1X6",
        "streetName": "BRIDLINGTON",
        "streetDirectionId": null,
        "streetTypeId": "RD",
        "placeName": "LONDON",
        "streetNameDisplayText": "BRIDLINGTON RD, LONDON"
      }
    ]
  },
  {
    "postal": "N6E2Z6",
    "result": [
      {
        "electoralDistricts": [
          {
            "election": null,
            "id": 26,
            "name": "Elgin—Middlesex—London"
          }
        ],
        "pollDivisionIds": [
          10137962
        ],
        "postalCode": "N6E2Z6",
        "streetName": "WELLINGTON",
        "streetDirectionId": "S",
        "streetTypeId": "RD",
        "placeName": "LONDON",
        "streetNameDisplayText": "WELLINGTON RD S, LONDON"
      }
    ]
  },
  {
    "postal": "N6E4R9",
    "result": []
  },
  {
    "postal": "N6E0W8",
    "result": []
  },
  {
    "postal": "N6E1L4",
    "result": [
      {
        "electoralDistricts": [
          {
            "election": null,
            "id": 53,
            "name": "London—Fanshawe"
          },
          {
            "election": null,
            "id": 26,
            "name": "Elgin—Middlesex—London"
          }
        ],
        "pollDivisionIds": [
          10139580,
          10143310
        ],
        "postalCode": "N6E1L4",
        "streetName": "EXETER",
        "streetDirectionId": null,
        "streetTypeId": "RD",
        "placeName": "LONDON",
        "streetNameDisplayText": "EXETER RD, LONDON"
      }
    ]
  },
  {
    "postal": "N6E0C8",
    "result": []
  },
  {
    "postal": "N6E9X7",
    "result": []
  },
  {
    "postal": "N6E4T1",
    "result": []
  },
  {
    "postal": "N6E0M0",
    "result": []
  },
  {
    "postal": "N6E6A2",
    "result": []
  },
  {
    "postal": "N6E9S8",
    "result": []
  },
  {
    "postal": "N6E9T4",
    "result": []
  },
  {
    "postal": "N6E9Y4",
    "result": []
  },
  {
    "postal": "N6E6G5",
    "result": []
  },
  {
    "postal": "N6E6H9",
    "result": []
  },
  {
    "postal": "N6E2P3",
    "result": [
      {
        "electoralDistricts": [
          {
            "election": null,
            "id": 53,
            "name": "London—Fanshawe"
          }
        ],
        "pollDivisionIds": [
          10139583
        ],
        "postalCode": "N6E2P3",
        "streetName": "BEECHBANK",
        "streetDirectionId": null,
        "streetTypeId": "CRES",
        "placeName": "LONDON",
        "streetNameDisplayText": "BEECHBANK CRES, LONDON"
      }
    ]
  },
  {
    "postal": "N6E1T6",
    "result": [
      {
        "electoralDistricts": [
          {
            "election": null,
            "id": 53,
            "name": "London—Fanshawe"
          }
        ],
        "pollDivisionIds": [
          10139581
        ],
        "postalCode": "N6E1T6",
        "streetName": "SURREY",
        "streetDirectionId": null,
        "streetTypeId": "CRES",
        "placeName": "LONDON",
        "streetNameDisplayText": "SURREY CRES, LONDON"
      }
    ]
  },
  {
    "postal": "N6E4P6",
    "result": []
  },
  {
    "postal": "N6E3K1",
    "result": [
      {
        "electoralDistricts": [
          {
            "election": null,
            "id": 53,
            "name": "London—Fanshawe"
          }
        ],
        "pollDivisionIds": [
          10139589
        ],
        "postalCode": "N6E3K1",
        "streetName": "CONWAY",
        "streetDirectionId": null,
        "streetTypeId": "LANE",
        "placeName": "LONDON",
        "streetNameDisplayText": "CONWAY LANE, LONDON"
      }
    ]
  },
  {
    "postal": "N6E6X4",
    "result": []
  },
  {
    "postal": "N6E4M8",
    "result": []
  },
  {
    "postal": "N6E2Y1",
    "result": [
      {
        "electoralDistricts": [
          {
            "election": null,
            "id": 53,
            "name": "London—Fanshawe"
          }
        ],
        "pollDivisionIds": [
          10139581
        ],
        "postalCode": "N6E2Y1",
        "streetName": "MILLBANK",
        "streetDirectionId": null,
        "streetTypeId": "DR",
        "placeName": "LONDON",
        "streetNameDisplayText": "MILLBANK DR, LONDON"
      }
    ]
  },
  {
    "postal": "N6E6M1",
    "result": []
  },
  {
    "postal": "N6E5L8",
    "result": []
  },
  {
    "postal": "N6E3P6",
    "result": [
      {
        "electoralDistricts": [
          {
            "election": null,
            "id": 53,
            "name": "London—Fanshawe"
          }
        ],
        "pollDivisionIds": [
          10139587
        ],
        "postalCode": "N6E3P6",
        "streetName": "JALNA",
        "streetDirectionId": null,
        "streetTypeId": "BLVD",
        "placeName": "LONDON",
        "streetNameDisplayText": "JALNA BLVD, LONDON"
      }
    ]
  },
  {
    "postal": "N6E9A5",
    "result": []
  },
  {
    "postal": "N6E7K1",
    "result": []
  },
  {
    "postal": "N6E3J4",
    "result": [
      {
        "electoralDistricts": [
          {
            "election": null,
            "id": 53,
            "name": "London—Fanshawe"
          }
        ],
        "pollDivisionIds": [
          10139589
        ],
        "postalCode": "N6E3J4",
        "streetName": "CONWAY",
        "streetDirectionId": null,
        "streetTypeId": "DR",
        "placeName": "LONDON",
        "streetNameDisplayText": "CONWAY DR, LONDON"
      }
    ]
  },
  {
    "postal": "N6E5E7",
    "result": []
  },
  {
    "postal": "N6E3A7",
    "result": [
      {
        "electoralDistricts": [
          {
            "election": null,
            "id": 53,
            "name": "London—Fanshawe"
          }
        ],
        "pollDivisionIds": [
          10139581
        ],
        "postalCode": "N6E3A7",
        "streetName": "SLOANE",
        "streetDirectionId": null,
        "streetTypeId": "CRES",
        "placeName": "LONDON",
        "streetNameDisplayText": "SLOANE CRES, LONDON"
      }
    ]
  },
  {
    "postal": "N6E1B9",
    "result": [
      {
        "electoralDistricts": [
          {
            "election": null,
            "id": 53,
            "name": "London—Fanshawe"
          }
        ],
        "pollDivisionIds": [
          10139581
        ],
        "postalCode": "N6E1B9",
        "streetName": "OSGOODE",
        "streetDirectionId": null,
        "streetTypeId": "DR",
        "placeName": "LONDON",
        "streetNameDisplayText": "OSGOODE DR, LONDON"
      }
    ]
  },
  {
    "postal": "N6E9E8",
    "result": []
  },
  {
    "postal": "N6E1C9",
    "result": [
      {
        "electoralDistricts": [
          {
            "election": null,
            "id": 53,
            "name": "London—Fanshawe"
          }
        ],
        "pollDivisionIds": [
          10139582
        ],
        "postalCode": "N6E1C9",
        "streetName": "OSGOODE",
        "streetDirectionId": null,
        "streetTypeId": "DR",
        "placeName": "LONDON",
        "streetNameDisplayText": "OSGOODE DR, LONDON"
      }
    ]
  },
  {
    "postal": "N6E3B5",
    "result": []
  },
  {
    "postal": "N6E8R0",
    "result": []
  },
  {
    "postal": "N6E3P2",
    "result": [
      {
        "electoralDistricts": [
          {
            "election": null,
            "id": 53,
            "name": "London—Fanshawe"
          }
        ],
        "pollDivisionIds": [
          10139589
        ],
        "postalCode": "N6E3P2",
        "streetName": "JALNA",
        "streetDirectionId": null,
        "streetTypeId": "BLVD",
        "placeName": "LONDON",
        "streetNameDisplayText": "JALNA BLVD, LONDON"
      }
    ]
  },
  {
    "postal": "N6E5V4",
    "result": []
  },
  {
    "postal": "N6E4H0",
    "result": []
  },
  {
    "postal": "N6E4S7",
    "result": []
  },
  {
    "postal": "N6E6C2",
    "result": []
  },
  {
    "postal": "N6E8W3",
    "result": []
  },
  {
    "postal": "N6E4M5",
    "result": []
  },
  {
    "postal": "N6E5T1",
    "result": []
  },
  {
    "postal": "N6E3B3",
    "result": [
      {
        "electoralDistricts": [
          {
            "election": null,
            "id": 53,
            "name": "London—Fanshawe"
          }
        ],
        "pollDivisionIds": [
          10139580
        ],
        "postalCode": "N6E3B3",
        "streetName": "JALNA",
        "streetDirectionId": null,
        "streetTypeId": "BLVD",
        "placeName": "LONDON",
        "streetNameDisplayText": "JALNA BLVD, LONDON"
      }
    ]
  },
  {
    "postal": "N6E6C6",
    "result": []
  },
  {
    "postal": "N6E7N8",
    "result": []
  },
  {
    "postal": "N6E2Y3",
    "result": [
      {
        "electoralDistricts": [
          {
            "election": null,
            "id": 53,
            "name": "London—Fanshawe"
          }
        ],
        "pollDivisionIds": [
          10139589
        ],
        "postalCode": "N6E2Y3",
        "streetName": "CONWAY",
        "streetDirectionId": null,
        "streetTypeId": "DR",
        "placeName": "LONDON",
        "streetNameDisplayText": "CONWAY DR, LONDON"
      }
    ]
  },
  {
    "postal": "N6E2R6",
    "result": [
      {
        "electoralDistricts": [
          {
            "election": null,
            "id": 53,
            "name": "London—Fanshawe"
          }
        ],
        "pollDivisionIds": [
          10139580
        ],
        "postalCode": "N6E2R6",
        "streetName": "JALNA",
        "streetDirectionId": null,
        "streetTypeId": "BLVD",
        "placeName": "LONDON",
        "streetNameDisplayText": "JALNA BLVD, LONDON"
      }
    ]
  },
  {
    "postal": "N6E7N3",
    "result": []
  },
  {
    "postal": "N6E8J2",
    "result": []
  },
  {
    "postal": "N6E6A9",
    "result": []
  },
  {
    "postal": "N6E3V2",
    "result": [
      {
        "electoralDistricts": [
          {
            "election": null,
            "id": 53,
            "name": "London—Fanshawe"
          }
        ],
        "pollDivisionIds": [
          10139587
        ],
        "postalCode": "N6E3V2",
        "streetName": "JOSSELYN",
        "streetDirectionId": null,
        "streetTypeId": "DR",
        "placeName": "LONDON",
        "streetNameDisplayText": "JOSSELYN DR, LONDON"
      },
      {
        "electoralDistricts": [
          {
            "election": null,
            "id": 53,
            "name": "London—Fanshawe"
          }
        ],
        "pollDivisionIds": [
          10139587
        ],
        "postalCode": "N6E3V2",
        "streetName": "JOSSELYN",
        "streetDirectionId": null,
        "streetTypeId": "PL",
        "placeName": "LONDON",
        "streetNameDisplayText": "JOSSELYN PL, LONDON"
      }
    ]
  },
  {
    "postal": "N6E2N3",
    "result": [
      {
        "electoralDistricts": [
          {
            "election": null,
            "id": 53,
            "name": "London—Fanshawe"
          }
        ],
        "pollDivisionIds": [
          10139583
        ],
        "postalCode": "N6E2N3",
        "streetName": "POPLAR",
        "streetDirectionId": null,
        "streetTypeId": "CRES",
        "placeName": "LONDON",
        "streetNameDisplayText": "POPLAR CRES, LONDON"
      }
    ]
  },
  {
    "postal": "N6E1S5",
    "result": [
      {
        "electoralDistricts": [
          {
            "election": null,
            "id": 53,
            "name": "London—Fanshawe"
          }
        ],
        "pollDivisionIds": [
          10139581
        ],
        "postalCode": "N6E1S5",
        "streetName": "DUDLEY",
        "streetDirectionId": null,
        "streetTypeId": "CRES",
        "placeName": "LONDON",
        "streetNameDisplayText": "DUDLEY CRES, LONDON"
      }
    ]
  },
  {
    "postal": "N6E4T7",
    "result": []
  },
  {
    "postal": "N6E6Y7",
    "result": []
  },
  {
    "postal": "N6E0W7",
    "result": []
  },
  {
    "postal": "N6E2W9",
    "result": [
      {
        "electoralDistricts": [
          {
            "election": null,
            "id": 53,
            "name": "London—Fanshawe"
          }
        ],
        "pollDivisionIds": [
          10139580
        ],
        "postalCode": "N6E2W9",
        "streetName": "NEWBOLD",
        "streetDirectionId": null,
        "streetTypeId": "ST",
        "placeName": "LONDON",
        "streetNameDisplayText": "NEWBOLD ST, LONDON"
      }
    ]
  },
  {
    "postal": "N6E8V0",
    "result": []
  },
  {
    "postal": "N6E0H4",
    "result": []
  },
  {
    "postal": "N6E2T1",
    "result": [
      {
        "electoralDistricts": [
          {
            "election": null,
            "id": 53,
            "name": "London—Fanshawe"
          }
        ],
        "pollDivisionIds": [
          10139580
        ],
        "postalCode": "N6E2T1",
        "streetName": "TOWERLINE",
        "streetDirectionId": null,
        "streetTypeId": "PL",
        "placeName": "LONDON",
        "streetNameDisplayText": "TOWERLINE PL, LONDON"
      }
    ]
  },
  {
    "postal": "N6E1B1",
    "result": [
      {
        "electoralDistricts": [
          {
            "election": null,
            "id": 53,
            "name": "London—Fanshawe"
          }
        ],
        "pollDivisionIds": [
          10139582
        ],
        "postalCode": "N6E1B1",
        "streetName": "SOUTHDALE",
        "streetDirectionId": "E",
        "streetTypeId": "RD",
        "placeName": "LONDON",
        "streetNameDisplayText": "SOUTHDALE RD E, LONDON"
      }
    ]
  },
  {
    "postal": "N6E8B6",
    "result": []
  },
  {
    "postal": "N6E6H1",
    "result": []
  },
  {
    "postal": "N6E8T8",
    "result": []
  },
  {
    "postal": "N6E0T4",
    "result": []
  },
  {
    "postal": "N6E2C4",
    "result": [
      {
        "electoralDistricts": [
          {
            "election": null,
            "id": 53,
            "name": "London—Fanshawe"
          }
        ],
        "pollDivisionIds": [
          10139580
        ],
        "postalCode": "N6E2C4",
        "streetName": "RENNY",
        "streetDirectionId": null,
        "streetTypeId": "CRES",
        "placeName": "LONDON",
        "streetNameDisplayText": "RENNY CRES, LONDON"
      }
    ]
  },
  {
    "postal": "N6E8N3",
    "result": []
  },
  {
    "postal": "N6E4L8",
    "result": []
  },
  {
    "postal": "N6E2B5",
    "result": [
      {
        "electoralDistricts": [
          {
            "election": null,
            "id": 53,
            "name": "London—Fanshawe"
          }
        ],
        "pollDivisionIds": [
          10139589
        ],
        "postalCode": "N6E2B5",
        "streetName": "ERNEST",
        "streetDirectionId": null,
        "streetTypeId": "AVE",
        "placeName": "LONDON",
        "streetNameDisplayText": "ERNEST AVE, LONDON"
      }
    ]
  },
  {
    "postal": "N6E3H1",
    "result": [
      {
        "electoralDistricts": [
          {
            "election": null,
            "id": 53,
            "name": "London—Fanshawe"
          }
        ],
        "pollDivisionIds": [
          10139589
        ],
        "postalCode": "N6E3H1",
        "streetName": "CLARA",
        "streetDirectionId": null,
        "streetTypeId": "CRES",
        "placeName": "LONDON",
        "streetNameDisplayText": "CLARA CRES, LONDON"
      }
    ]
  },
  {
    "postal": "N6E4Y1",
    "result": []
  },
  {
    "postal": "N6E7E2",
    "result": []
  },
  {
    "postal": "N6E2P5",
    "result": [
      {
        "electoralDistricts": [
          {
            "election": null,
            "id": 53,
            "name": "London—Fanshawe"
          }
        ],
        "pollDivisionIds": [
          10139588
        ],
        "postalCode": "N6E2P5",
        "streetName": "ELVIRA",
        "streetDirectionId": null,
        "streetTypeId": "CRES",
        "placeName": "LONDON",
        "streetNameDisplayText": "ELVIRA CRES, LONDON"
      }
    ]
  },
  {
    "postal": "N6E8R7",
    "result": []
  },
  {
    "postal": "N6E9P1",
    "result": []
  },
  {
    "postal": "N6E3B8",
    "result": [
      {
        "electoralDistricts": [
          {
            "election": null,
            "id": 53,
            "name": "London—Fanshawe"
          }
        ],
        "pollDivisionIds": [
          10139583
        ],
        "postalCode": "N6E3B8",
        "streetName": "JALNA",
        "streetDirectionId": null,
        "streetTypeId": "BLVD",
        "placeName": "LONDON",
        "streetNameDisplayText": "JALNA BLVD, LONDON"
      }
    ]
  },
  {
    "postal": "N6E3P7",
    "result": [
      {
        "electoralDistricts": [
          {
            "election": null,
            "id": 53,
            "name": "London—Fanshawe"
          }
        ],
        "pollDivisionIds": [
          10139587
        ],
        "postalCode": "N6E3P7",
        "streetName": "ASHLEY",
        "streetDirectionId": null,
        "streetTypeId": "CRES",
        "placeName": "LONDON",
        "streetNameDisplayText": "ASHLEY CRES, LONDON"
      },
      {
        "electoralDistricts": [
          {
            "election": null,
            "id": 53,
            "name": "London—Fanshawe"
          }
        ],
        "pollDivisionIds": [
          10139587
        ],
        "postalCode": "N6E3P7",
        "streetName": "ASHLEY",
        "streetDirectionId": null,
        "streetTypeId": "PL",
        "placeName": "LONDON",
        "streetNameDisplayText": "ASHLEY PL, LONDON"
      }
    ]
  },
  {
    "postal": "N6E9B2",
    "result": []
  },
  {
    "postal": "N6E6Z3",
    "result": []
  },
  {
    "postal": "N6E4N5",
    "result": []
  },
  {
    "postal": "N6E8T3",
    "result": []
  },
  {
    "postal": "N6E1V2",
    "result": []
  },
  {
    "postal": "N6E1Y0",
    "result": []
  },
  {
    "postal": "N6E3G6",
    "result": [
      {
        "electoralDistricts": [
          {
            "election": null,
            "id": 53,
            "name": "London—Fanshawe"
          }
        ],
        "pollDivisionIds": [
          10139589
        ],
        "postalCode": "N6E3G6",
        "streetName": "CLARA",
        "streetDirectionId": null,
        "streetTypeId": "CRES",
        "placeName": "LONDON",
        "streetNameDisplayText": "CLARA CRES, LONDON"
      }
    ]
  },
  {
    "postal": "N6E3H7",
    "result": [
      {
        "electoralDistricts": [
          {
            "election": null,
            "id": 53,
            "name": "London—Fanshawe"
          }
        ],
        "pollDivisionIds": [
          10139589
        ],
        "postalCode": "N6E3H7",
        "streetName": "JALNA",
        "streetDirectionId": null,
        "streetTypeId": "BLVD",
        "placeName": "LONDON",
        "streetNameDisplayText": "JALNA BLVD, LONDON"
      }
    ]
  },
  {
    "postal": "N6E7X8",
    "result": []
  },
  {
    "postal": "N6E0C7",
    "result": []
  },
  {
    "postal": "N6E0W9",
    "result": []
  },
  {
    "postal": "N6E8E6",
    "result": []
  },
  {
    "postal": "N6E9Z8",
    "result": []
  },
  {
    "postal": "N6E3P4",
    "result": [
      {
        "electoralDistricts": [
          {
            "election": null,
            "id": 53,
            "name": "London—Fanshawe"
          }
        ],
        "pollDivisionIds": [
          10139587
        ],
        "postalCode": "N6E3P4",
        "streetName": "ERICA",
        "streetDirectionId": null,
        "streetTypeId": "CRES",
        "placeName": "LONDON",
        "streetNameDisplayText": "ERICA CRES, LONDON"
      }
    ]
  },
  {
    "postal": "N6E6L8",
    "result": []
  },
  {
    "postal": "N6E2R4",
    "result": [
      {
        "electoralDistricts": [
          {
            "election": null,
            "id": 53,
            "name": "London—Fanshawe"
          }
        ],
        "pollDivisionIds": [
          10139583
        ],
        "postalCode": "N6E2R4",
        "streetName": "JALNA",
        "streetDirectionId": null,
        "streetTypeId": "BLVD",
        "placeName": "LONDON",
        "streetNameDisplayText": "JALNA BLVD, LONDON"
      }
    ]
  },
  {
    "postal": "N6E2W1",
    "result": [
      {
        "electoralDistricts": [
          {
            "election": null,
            "id": 53,
            "name": "London—Fanshawe"
          }
        ],
        "pollDivisionIds": [
          10139578
        ],
        "postalCode": "N6E2W1",
        "streetName": "ADSWOOD",
        "streetDirectionId": null,
        "streetTypeId": "RD",
        "placeName": "LONDON",
        "streetNameDisplayText": "ADSWOOD RD, LONDON"
      }
    ]
  },
  {
    "postal": "N6E9H8",
    "result": []
  },
  {
    "postal": "N6E8X9",
    "result": []
  },
  {
    "postal": "N6E7H4",
    "result": []
  },
  {
    "postal": "N6E3J1",
    "result": [
      {
        "electoralDistricts": [
          {
            "election": null,
            "id": 53,
            "name": "London—Fanshawe"
          }
        ],
        "pollDivisionIds": [
          10139578
        ],
        "postalCode": "N6E3J1",
        "streetName": "KORU",
        "streetDirectionId": null,
        "streetTypeId": "CRT",
        "placeName": "LONDON",
        "streetNameDisplayText": "KORU CRT, LONDON"
      }
    ]
  },
  {
    "postal": "N6E1P4",
    "result": [
      {
        "electoralDistricts": [
          {
            "election": null,
            "id": 53,
            "name": "London—Fanshawe"
          }
        ],
        "pollDivisionIds": [
          10139582
        ],
        "postalCode": "N6E1P4",
        "streetName": "WILLOW",
        "streetDirectionId": null,
        "streetTypeId": "DR",
        "placeName": "LONDON",
        "streetNameDisplayText": "WILLOW DR, LONDON"
      }
    ]
  },
  {
    "postal": "N6E2A3",
    "result": [
      {
        "electoralDistricts": [
          {
            "election": null,
            "id": 53,
            "name": "London—Fanshawe"
          }
        ],
        "pollDivisionIds": [
          10139580
        ],
        "postalCode": "N6E2A3",
        "streetName": "ALAYNE",
        "streetDirectionId": null,
        "streetTypeId": "CRES",
        "placeName": "LONDON",
        "streetNameDisplayText": "ALAYNE CRES, LONDON"
      }
    ]
  },
  {
    "postal": "N6E0Z1",
    "result": []
  },
  {
    "postal": "N6E1C1",
    "result": [
      {
        "electoralDistricts": [
          {
            "election": null,
            "id": 53,
            "name": "London—Fanshawe"
          }
        ],
        "pollDivisionIds": [
          10139581
        ],
        "postalCode": "N6E1C1",
        "streetName": "OSGOODE",
        "streetDirectionId": null,
        "streetTypeId": "DR",
        "placeName": "LONDON",
        "streetNameDisplayText": "OSGOODE DR, LONDON"
      }
    ]
  },
  {
    "postal": "N6E0H3",
    "result": []
  },
  {
    "postal": "N6E7B0",
    "result": []
  },
  {
    "postal": "N6E5K2",
    "result": []
  },
  {
    "postal": "N6E1E9",
    "result": [
      {
        "electoralDistricts": [
          {
            "election": null,
            "id": 53,
            "name": "London—Fanshawe"
          }
        ],
        "pollDivisionIds": [
          10139581
        ],
        "postalCode": "N6E1E9",
        "streetName": "DOW",
        "streetDirectionId": null,
        "streetTypeId": "RD",
        "placeName": "LONDON",
        "streetNameDisplayText": "DOW RD, LONDON"
      }
    ]
  },
  {
    "postal": "N6E9W7",
    "result": []
  },
  {
    "postal": "N6E5W6",
    "result": []
  },
  {
    "postal": "N6E6S6",
    "result": []
  },
  {
    "postal": "N6E2P8",
    "result": [
      {
        "electoralDistricts": [
          {
            "election": null,
            "id": 53,
            "name": "London—Fanshawe"
          }
        ],
        "pollDivisionIds": [
          10139578
        ],
        "postalCode": "N6E2P8",
        "streetName": "HILLHEAD",
        "streetDirectionId": null,
        "streetTypeId": "RD",
        "placeName": "LONDON",
        "streetNameDisplayText": "HILLHEAD RD, LONDON"
      }
    ]
  },
  {
    "postal": "N6E4P8",
    "result": []
  },
  {
    "postal": "N6E0V9",
    "result": []
  },
  {
    "postal": "N6E5Y2",
    "result": []
  },
  {
    "postal": "N6E7Z7",
    "result": []
  },
  {
    "postal": "N6E6Y8",
    "result": []
  },
  {
    "postal": "N6E2G7",
    "result": [
      {
        "electoralDistricts": [
          {
            "election": null,
            "id": 53,
            "name": "London—Fanshawe"
          }
        ],
        "pollDivisionIds": [
          10139578
        ],
        "postalCode": "N6E2G7",
        "streetName": "BRIDLINGTON",
        "streetDirectionId": null,
        "streetTypeId": "RD",
        "placeName": "LONDON",
        "streetNameDisplayText": "BRIDLINGTON RD, LONDON"
      }
    ]
  },
  {
    "postal": "N6E8C1",
    "result": []
  },
  {
    "postal": "N6E5C5",
    "result": []
  },
  {
    "postal": "N6E2X8",
    "result": [
      {
        "electoralDistricts": [
          {
            "election": null,
            "id": 53,
            "name": "London—Fanshawe"
          }
        ],
        "pollDivisionIds": [
          10139588
        ],
        "postalCode": "N6E2X8",
        "streetName": "POPLAR",
        "streetDirectionId": null,
        "streetTypeId": "PL",
        "placeName": "LONDON",
        "streetNameDisplayText": "POPLAR PL, LONDON"
      }
    ]
  },
  {
    "postal": "N6E1W5",
    "result": [
      {
        "electoralDistricts": [
          {
            "election": null,
            "id": 53,
            "name": "London—Fanshawe"
          }
        ],
        "pollDivisionIds": [
          10139578
        ],
        "postalCode": "N6E1W5",
        "streetName": "ACTON",
        "streetDirectionId": null,
        "streetTypeId": "CRES",
        "placeName": "LONDON",
        "streetNameDisplayText": "ACTON CRES, LONDON"
      }
    ]
  },
  {
    "postal": "N6E7G0",
    "result": []
  },
  {
    "postal": "N6E8J8",
    "result": []
  },
  {
    "postal": "N6E3Y0",
    "result": []
  },
  {
    "postal": "N6E9T7",
    "result": []
  },
  {
    "postal": "N6E5P4",
    "result": []
  },
  {
    "postal": "N6E4B0",
    "result": []
  },
  {
    "postal": "N6E9N8",
    "result": []
  },
  {
    "postal": "N6E4A7",
    "result": []
  },
  {
    "postal": "N6E4H9",
    "result": []
  },
  {
    "postal": "N6E6X1",
    "result": []
  },
  {
    "postal": "N6E9Y7",
    "result": []
  },
  {
    "postal": "N6E2Y5",
    "result": [
      {
        "electoralDistricts": [
          {
            "election": null,
            "id": 53,
            "name": "London—Fanshawe"
          }
        ],
        "pollDivisionIds": [
          10139581
        ],
        "postalCode": "N6E2Y5",
        "streetName": "CHANCTON",
        "streetDirectionId": null,
        "streetTypeId": "CRES",
        "placeName": "LONDON",
        "streetNameDisplayText": "CHANCTON CRES, LONDON"
      }
    ]
  },
  {
    "postal": "N6E8L7",
    "result": []
  },
  {
    "postal": "N6E2A8",
    "result": [
      {
        "electoralDistricts": [
          {
            "election": null,
            "id": 53,
            "name": "London—Fanshawe"
          }
        ],
        "pollDivisionIds": [
          10139580
        ],
        "postalCode": "N6E2A8",
        "streetName": "JALNA",
        "streetDirectionId": null,
        "streetTypeId": "BLVD",
        "placeName": "LONDON",
        "streetNameDisplayText": "JALNA BLVD, LONDON"
      }
    ]
  },
  {
    "postal": "N6E2K9",
    "result": [
      {
        "electoralDistricts": [
          {
            "election": null,
            "id": 53,
            "name": "London—Fanshawe"
          }
        ],
        "pollDivisionIds": [
          10139588
        ],
        "postalCode": "N6E2K9",
        "streetName": "PATIENCE",
        "streetDirectionId": null,
        "streetTypeId": "CRES",
        "placeName": "LONDON",
        "streetNameDisplayText": "PATIENCE CRES, LONDON"
      }
    ]
  },
  {
    "postal": "N6E3E5",
    "result": [
      {
        "electoralDistricts": [
          {
            "election": null,
            "id": 53,
            "name": "London—Fanshawe"
          }
        ],
        "pollDivisionIds": [
          10139589
        ],
        "postalCode": "N6E3E5",
        "streetName": "FAIRCHILD",
        "streetDirectionId": null,
        "streetTypeId": "CRES",
        "placeName": "LONDON",
        "streetNameDisplayText": "FAIRCHILD CRES, LONDON"
      },
      {
        "electoralDistricts": [
          {
            "election": null,
            "id": 53,
            "name": "London—Fanshawe"
          }
        ],
        "pollDivisionIds": [
          10139589
        ],
        "postalCode": "N6E3E5",
        "streetName": "FAIRCHILD",
        "streetDirectionId": null,
        "streetTypeId": "PL",
        "placeName": "LONDON",
        "streetNameDisplayText": "FAIRCHILD PL, LONDON"
      }
    ]
  },
  {
    "postal": "N6E8N6",
    "result": []
  },
  {
    "postal": "N6E8J4",
    "result": []
  },
  {
    "postal": "N6E4R7",
    "result": []
  },
  {
    "postal": "N6E9K1",
    "result": []
  },
  {
    "postal": "N6E8E1",
    "result": []
  },
  {
    "postal": "N6E0R1",
    "result": []
  },
  {
    "postal": "N6E4J3",
    "result": []
  },
  {
    "postal": "N6E7E7",
    "result": []
  },
  {
    "postal": "N6E0J0",
    "result": []
  },
  {
    "postal": "N6E7R8",
    "result": []
  },
  {
    "postal": "N6E9X0",
    "result": []
  },
  {
    "postal": "N6E7P6",
    "result": []
  },
  {
    "postal": "N6E0R7",
    "result": []
  },
  {
    "postal": "N6E5W1",
    "result": []
  },
  {
    "postal": "N6E0K4",
    "result": []
  },
  {
    "postal": "N6E7N9",
    "result": []
  },
  {
    "postal": "N6E1N0",
    "result": []
  },
  {
    "postal": "N6E6P3",
    "result": []
  },
  {
    "postal": "N6E5A1",
    "result": []
  },
  {
    "postal": "N6E9M9",
    "result": []
  },
  {
    "postal": "N6E7T6",
    "result": []
  },
  {
    "postal": "N6E3X0",
    "result": []
  },
  {
    "postal": "N6E2T0",
    "result": []
  },
  {
    "postal": "N6E5X9",
    "result": []
  },
  {
    "postal": "N6E2R3",
    "result": [
      {
        "electoralDistricts": [
          {
            "election": null,
            "id": 53,
            "name": "London—Fanshawe"
          }
        ],
        "pollDivisionIds": [
          10139583
        ],
        "postalCode": "N6E2R3",
        "streetName": "JALNA",
        "streetDirectionId": null,
        "streetTypeId": "BLVD",
        "placeName": "LONDON",
        "streetNameDisplayText": "JALNA BLVD, LONDON"
      }
    ]
  },
  {
    "postal": "N6E5N2",
    "result": []
  },
  {
    "postal": "N6E4Y7",
    "result": []
  },
  {
    "postal": "N6E7M0",
    "result": []
  },
  {
    "postal": "N6E8P3",
    "result": []
  },
  {
    "postal": "N6E3N3",
    "result": [
      {
        "electoralDistricts": [
          {
            "election": null,
            "id": 53,
            "name": "London—Fanshawe"
          }
        ],
        "pollDivisionIds": [
          10139589
        ],
        "postalCode": "N6E3N3",
        "streetName": "CONWAY",
        "streetDirectionId": null,
        "streetTypeId": "DR",
        "placeName": "LONDON",
        "streetNameDisplayText": "CONWAY DR, LONDON"
      }
    ]
  },
  {
    "postal": "N6E7S3",
    "result": []
  },
  {
    "postal": "N6E3V9",
    "result": [
      {
        "electoralDistricts": [
          {
            "election": null,
            "id": 53,
            "name": "London—Fanshawe"
          }
        ],
        "pollDivisionIds": [
          10139588
        ],
        "postalCode": "N6E3V9",
        "streetName": "JALNA",
        "streetDirectionId": null,
        "streetTypeId": "BLVD",
        "placeName": "LONDON",
        "streetNameDisplayText": "JALNA BLVD, LONDON"
      }
    ]
  },
  {
    "postal": "N6E9N7",
    "result": []
  },
  {
    "postal": "N6E0G4",
    "result": []
  },
  {
    "postal": "N6E2E2",
    "result": [
      {
        "electoralDistricts": [
          {
            "election": null,
            "id": 53,
            "name": "London—Fanshawe"
          }
        ],
        "pollDivisionIds": [
          10139580
        ],
        "postalCode": "N6E2E2",
        "streetName": "FENNELL",
        "streetDirectionId": null,
        "streetTypeId": "CRES",
        "placeName": "LONDON",
        "streetNameDisplayText": "FENNELL CRES, LONDON"
      }
    ]
  },
  {
    "postal": "N6E7W8",
    "result": []
  },
  {
    "postal": "N6E7M5",
    "result": []
  },
  {
    "postal": "N6E5W8",
    "result": []
  },
  {
    "postal": "N6E5E5",
    "result": []
  },
  {
    "postal": "N6E1P9",
    "result": [
      {
        "electoralDistricts": [
          {
            "election": null,
            "id": 53,
            "name": "London—Fanshawe"
          }
        ],
        "pollDivisionIds": [
          10139580
        ],
        "postalCode": "N6E1P9",
        "streetName": "BESSEMER",
        "streetDirectionId": null,
        "streetTypeId": "RD",
        "placeName": "LONDON",
        "streetNameDisplayText": "BESSEMER RD, LONDON"
      }
    ]
  },
  {
    "postal": "N6E8V8",
    "result": []
  },
  {
    "postal": "N6E9G8",
    "result": []
  },
  {
    "postal": "N6E8H9",
    "result": []
  },
  {
    "postal": "N6E1Z1",
    "result": [
      {
        "electoralDistricts": [
          {
            "election": null,
            "id": 53,
            "name": "London—Fanshawe"
          }
        ],
        "pollDivisionIds": [
          10139580
        ],
        "postalCode": "N6E1Z1",
        "streetName": "PIERS",
        "streetDirectionId": null,
        "streetTypeId": "CRES",
        "placeName": "LONDON",
        "streetNameDisplayText": "PIERS CRES, LONDON"
      }
    ]
  },
  {
    "postal": "N6E8M3",
    "result": []
  },
  {
    "postal": "N6E5H6",
    "result": []
  },
  {
    "postal": "N6E7W7",
    "result": []
  },
  {
    "postal": "N6E4L0",
    "result": []
  },
  {
    "postal": "N6E2N1",
    "result": [
      {
        "electoralDistricts": [
          {
            "election": null,
            "id": 53,
            "name": "London—Fanshawe"
          }
        ],
        "pollDivisionIds": [
          10139588
        ],
        "postalCode": "N6E2N1",
        "streetName": "ELVIRA",
        "streetDirectionId": null,
        "streetTypeId": "CRES",
        "placeName": "LONDON",
        "streetNameDisplayText": "ELVIRA CRES, LONDON"
      }
    ]
  },
  {
    "postal": "N6E2H4",
    "result": [
      {
        "electoralDistricts": [
          {
            "election": null,
            "id": 53,
            "name": "London—Fanshawe"
          }
        ],
        "pollDivisionIds": [
          10139589
        ],
        "postalCode": "N6E2H4",
        "streetName": "CONWAY",
        "streetDirectionId": null,
        "streetTypeId": "DR",
        "placeName": "LONDON",
        "streetNameDisplayText": "CONWAY DR, LONDON"
      }
    ]
  },
  {
    "postal": "N6E5C8",
    "result": []
  },
  {
    "postal": "N6E8B0",
    "result": []
  },
  {
    "postal": "N6E1T4",
    "result": [
      {
        "electoralDistricts": [
          {
            "election": null,
            "id": 53,
            "name": "London—Fanshawe"
          }
        ],
        "pollDivisionIds": [
          10139581
        ],
        "postalCode": "N6E1T4",
        "streetName": "BARRETT",
        "streetDirectionId": null,
        "streetTypeId": "CRES",
        "placeName": "LONDON",
        "streetNameDisplayText": "BARRETT CRES, LONDON"
      }
    ]
  },
  {
    "postal": "N6E7N7",
    "result": []
  },
  {
    "postal": "N6E4L3",
    "result": []
  },
  {
    "postal": "N6E2N2",
    "result": []
  },
  {
    "postal": "N6E4N8",
    "result": []
  },
  {
    "postal": "N6E3M5",
    "result": [
      {
        "electoralDistricts": [
          {
            "election": null,
            "id": 53,
            "name": "London—Fanshawe"
          }
        ],
        "pollDivisionIds": [
          10139589
        ],
        "postalCode": "N6E3M5",
        "streetName": "CONWAY",
        "streetDirectionId": null,
        "streetTypeId": "DR",
        "placeName": "LONDON",
        "streetNameDisplayText": "CONWAY DR, LONDON"
      }
    ]
  },
  {
    "postal": "N6E6H7",
    "result": []
  },
  {
    "postal": "N6E8Y8",
    "result": []
  },
  {
    "postal": "N6E5R9",
    "result": []
  },
  {
    "postal": "N6E8G3",
    "result": []
  },
  {
    "postal": "N6E4N7",
    "result": []
  },
  {
    "postal": "N6E0B9",
    "result": []
  },
  {
    "postal": "N6E9K7",
    "result": []
  },
  {
    "postal": "N6E9K9",
    "result": []
  },
  {
    "postal": "N6E3Z2",
    "result": [
      {
        "electoralDistricts": [
          {
            "election": null,
            "id": 26,
            "name": "Elgin—Middlesex—London"
          }
        ],
        "pollDivisionIds": [
          10143310
        ],
        "postalCode": "N6E3Z2",
        "streetName": "WHITE OAK",
        "streetDirectionId": null,
        "streetTypeId": "RD",
        "placeName": "LONDON",
        "streetNameDisplayText": "WHITE OAK RD, LONDON"
      }
    ]
  },
  {
    "postal": "N6E6W7",
    "result": []
  },
  {
    "postal": "N6E0P1",
    "result": []
  },
  {
    "postal": "N6E3A0",
    "result": []
  },
  {
    "postal": "N6E8L9",
    "result": []
  },
  {
    "postal": "N6E6X0",
    "result": []
  },
  {
    "postal": "N6E3E9",
    "result": [
      {
        "electoralDistricts": [
          {
            "election": null,
            "id": 53,
            "name": "London—Fanshawe"
          }
        ],
        "pollDivisionIds": [
          10139589
        ],
        "postalCode": "N6E3E9",
        "streetName": "CHALK",
        "streetDirectionId": null,
        "streetTypeId": "CRT",
        "placeName": "LONDON",
        "streetNameDisplayText": "CHALK CRT, LONDON"
      },
      {
        "electoralDistricts": [
          {
            "election": null,
            "id": 53,
            "name": "London—Fanshawe"
          }
        ],
        "pollDivisionIds": [
          10139589
        ],
        "postalCode": "N6E3E9",
        "streetName": "JALNA",
        "streetDirectionId": null,
        "streetTypeId": "BLVD",
        "placeName": "LONDON",
        "streetNameDisplayText": "JALNA BLVD, LONDON"
      }
    ]
  },
  {
    "postal": "N6E0S5",
    "result": []
  },
  {
    "postal": "N6E1A2",
    "result": [
      {
        "electoralDistricts": [
          {
            "election": null,
            "id": 53,
            "name": "London—Fanshawe"
          }
        ],
        "pollDivisionIds": [
          10139588,
          10139587
        ],
        "postalCode": "N6E1A2",
        "streetName": "SOUTHDALE",
        "streetDirectionId": "E",
        "streetTypeId": "RD",
        "placeName": "LONDON",
        "streetNameDisplayText": "SOUTHDALE RD E, LONDON"
      }
    ]
  },
  {
    "postal": "N6E5V8",
    "result": []
  },
  {
    "postal": "N6E8C5",
    "result": []
  },
  {
    "postal": "N6E6N0",
    "result": []
  },
  {
    "postal": "N6E9E6",
    "result": []
  },
  {
    "postal": "N6E5J7",
    "result": []
  },
  {
    "postal": "N6E2R2",
    "result": [
      {
        "electoralDistricts": [
          {
            "election": null,
            "id": 53,
            "name": "London—Fanshawe"
          }
        ],
        "pollDivisionIds": [
          10139583
        ],
        "postalCode": "N6E2R2",
        "streetName": "JALNA",
        "streetDirectionId": null,
        "streetTypeId": "BLVD",
        "placeName": "LONDON",
        "streetNameDisplayText": "JALNA BLVD, LONDON"
      }
    ]
  },
  {
    "postal": "N6E0P5",
    "result": []
  },
  {
    "postal": "N6E5A7",
    "result": []
  },
  {
    "postal": "N6E1G1",
    "result": [
      {
        "electoralDistricts": [
          {
            "election": null,
            "id": 53,
            "name": "London—Fanshawe"
          }
        ],
        "pollDivisionIds": [
          10139581
        ],
        "postalCode": "N6E1G1",
        "streetName": "DOW",
        "streetDirectionId": null,
        "streetTypeId": "RD",
        "placeName": "LONDON",
        "streetNameDisplayText": "DOW RD, LONDON"
      }
    ]
  },
  {
    "postal": "N6E9R6",
    "result": []
  },
  {
    "postal": "N6E4Z9",
    "result": []
  },
  {
    "postal": "N6E1V5",
    "result": [
      {
        "electoralDistricts": [
          {
            "election": null,
            "id": 53,
            "name": "London—Fanshawe"
          }
        ],
        "pollDivisionIds": [
          10139580
        ],
        "postalCode": "N6E1V5",
        "streetName": "NEWBOLD",
        "streetDirectionId": null,
        "streetTypeId": "ST",
        "placeName": "LONDON",
        "streetNameDisplayText": "NEWBOLD ST, LONDON"
      }
    ]
  },
  {
    "postal": "N6E9Y5",
    "result": []
  },
  {
    "postal": "N6E1P2",
    "result": [
      {
        "electoralDistricts": [
          {
            "election": null,
            "id": 53,
            "name": "London—Fanshawe"
          }
        ],
        "pollDivisionIds": [
          10139582
        ],
        "postalCode": "N6E1P2",
        "streetName": "WILLOW",
        "streetDirectionId": null,
        "streetTypeId": "DR",
        "placeName": "LONDON",
        "streetNameDisplayText": "WILLOW DR, LONDON"
      }
    ]
  },
  {
    "postal": "N6E5X0",
    "result": []
  },
  {
    "postal": "N6E7B8",
    "result": []
  },
  {
    "postal": "N6E0C6",
    "result": []
  },
  {
    "postal": "N6E6G1",
    "result": []
  },
  {
    "postal": "N6E3K3",
    "result": [
      {
        "electoralDistricts": [
          {
            "election": null,
            "id": 53,
            "name": "London—Fanshawe"
          }
        ],
        "pollDivisionIds": [
          10139589
        ],
        "postalCode": "N6E3K3",
        "streetName": "CONWAY",
        "streetDirectionId": null,
        "streetTypeId": "LANE",
        "placeName": "LONDON",
        "streetNameDisplayText": "CONWAY LANE, LONDON"
      }
    ]
  },
  {
    "postal": "N6E9R0",
    "result": []
  },
  {
    "postal": "N6E4R8",
    "result": []
  },
  {
    "postal": "N6E5P9",
    "result": []
  },
  {
    "postal": "N6E8N4",
    "result": []
  },
  {
    "postal": "N6E8H4",
    "result": []
  },
  {
    "postal": "N6E4V1",
    "result": []
  },
  {
    "postal": "N6E1K5",
    "result": []
  },
  {
    "postal": "N6E1Z5",
    "result": [
      {
        "electoralDistricts": [
          {
            "election": null,
            "id": 53,
            "name": "London—Fanshawe"
          }
        ],
        "pollDivisionIds": [
          10139580
        ],
        "postalCode": "N6E1Z5",
        "streetName": "STROUD",
        "streetDirectionId": null,
        "streetTypeId": "CRES",
        "placeName": "LONDON",
        "streetNameDisplayText": "STROUD CRES, LONDON"
      }
    ]
  },
  {
    "postal": "N6E9L9",
    "result": []
  },
  {
    "postal": "N6E5L2",
    "result": []
  },
  {
    "postal": "N6E0M2",
    "result": []
  },
  {
    "postal": "N6E1K8",
    "result": [
      {
        "electoralDistricts": [
          {
            "election": null,
            "id": 53,
            "name": "London—Fanshawe"
          }
        ],
        "pollDivisionIds": [
          10139580
        ],
        "postalCode": "N6E1K8",
        "streetName": "GREENFIELD",
        "streetDirectionId": null,
        "streetTypeId": "CRT",
        "placeName": "LONDON",
        "streetNameDisplayText": "GREENFIELD CRT, LONDON"
      }
    ]
  },
  {
    "postal": "N6E3M7",
    "result": [
      {
        "electoralDistricts": [
          {
            "election": null,
            "id": 53,
            "name": "London—Fanshawe"
          }
        ],
        "pollDivisionIds": [
          10139588
        ],
        "postalCode": "N6E3M7",
        "streetName": "SOUTHDALE",
        "streetDirectionId": "E",
        "streetTypeId": "RD",
        "placeName": "LONDON",
        "streetNameDisplayText": "SOUTHDALE RD E, LONDON"
      }
    ]
  },
  {
    "postal": "N6E1B2",
    "result": [
      {
        "electoralDistricts": [
          {
            "election": null,
            "id": 53,
            "name": "London—Fanshawe"
          }
        ],
        "pollDivisionIds": [
          10139579
        ],
        "postalCode": "N6E1B2",
        "streetName": "SOUTHDALE",
        "streetDirectionId": "E",
        "streetTypeId": "RD",
        "placeName": "LONDON",
        "streetNameDisplayText": "SOUTHDALE RD E, LONDON"
      },
      {
        "electoralDistricts": [
          {
            "election": null,
            "id": 55,
            "name": "London West"
          }
        ],
        "pollDivisionIds": [
          10139638
        ],
        "postalCode": "N6E1B2",
        "streetName": "SOUTHDALE",
        "streetDirectionId": "W",
        "streetTypeId": "RD",
        "placeName": "LONDON",
        "streetNameDisplayText": "SOUTHDALE RD W, LONDON"
      }
    ]
  },
  {
    "postal": "N6E0H9",
    "result": []
  },
  {
    "postal": "N6E8M4",
    "result": []
  },
  {
    "postal": "N6E2M5",
    "result": [
      {
        "electoralDistricts": [
          {
            "election": null,
            "id": 53,
            "name": "London—Fanshawe"
          }
        ],
        "pollDivisionIds": [
          10139588
        ],
        "postalCode": "N6E2M5",
        "streetName": "SASHA",
        "streetDirectionId": null,
        "streetTypeId": "CRES",
        "placeName": "LONDON",
        "streetNameDisplayText": "SASHA CRES, LONDON"
      }
    ]
  },
  {
    "postal": "N6E0T9",
    "result": []
  },
  {
    "postal": "N6E3P1",
    "result": []
  },
  {
    "postal": "N6E1R6",
    "result": [
      {
        "electoralDistricts": [
          {
            "election": null,
            "id": 53,
            "name": "London—Fanshawe"
          }
        ],
        "pollDivisionIds": [
          10139580
        ],
        "postalCode": "N6E1R6",
        "streetName": "ADELAIDE",
        "streetDirectionId": "S",
        "streetTypeId": "ST",
        "placeName": "LONDON",
        "streetNameDisplayText": "ADELAIDE ST S, LONDON"
      }
    ]
  },
  {
    "postal": "N6E9V5",
    "result": []
  },
  {
    "postal": "N6E9T0",
    "result": []
  },
  {
    "postal": "N6E0A9",
    "result": []
  },
  {
    "postal": "N6E1M3",
    "result": [
      {
        "electoralDistricts": [
          {
            "election": null,
            "id": 53,
            "name": "London—Fanshawe"
          }
        ],
        "pollDivisionIds": [
          10139580
        ],
        "postalCode": "N6E1M3",
        "streetName": "WELLINGTON",
        "streetDirectionId": null,
        "streetTypeId": "RD",
        "placeName": "LONDON",
        "streetNameDisplayText": "WELLINGTON RD, LONDON"
      }
    ]
  },
  {
    "postal": "N6E1W8",
    "result": [
      {
        "electoralDistricts": [
          {
            "election": null,
            "id": 53,
            "name": "London—Fanshawe"
          }
        ],
        "pollDivisionIds": [
          10139578
        ],
        "postalCode": "N6E1W8",
        "streetName": "ADSWOOD",
        "streetDirectionId": null,
        "streetTypeId": "PL",
        "placeName": "LONDON",
        "streetNameDisplayText": "ADSWOOD PL, LONDON"
      }
    ]
  },
  {
    "postal": "N6E9J1",
    "result": []
  },
  {
    "postal": "N6E8N5",
    "result": []
  },
  {
    "postal": "N6E5X1",
    "result": []
  },
  {
    "postal": "N6E6S2",
    "result": []
  },
  {
    "postal": "N6E2A2",
    "result": [
      {
        "electoralDistricts": [
          {
            "election": null,
            "id": 53,
            "name": "London—Fanshawe"
          }
        ],
        "pollDivisionIds": [
          10139580
        ],
        "postalCode": "N6E2A2",
        "streetName": "ALAYNE",
        "streetDirectionId": null,
        "streetTypeId": "CRES",
        "placeName": "LONDON",
        "streetNameDisplayText": "ALAYNE CRES, LONDON"
      }
    ]
  },
  {
    "postal": "N6E6A6",
    "result": []
  },
  {
    "postal": "N6E0S3",
    "result": []
  },
  {
    "postal": "N6E3E7",
    "result": [
      {
        "electoralDistricts": [
          {
            "election": null,
            "id": 53,
            "name": "London—Fanshawe"
          }
        ],
        "pollDivisionIds": [
          10139589
        ],
        "postalCode": "N6E3E7",
        "streetName": "FAIRCHILD",
        "streetDirectionId": null,
        "streetTypeId": "CRES",
        "placeName": "LONDON",
        "streetNameDisplayText": "FAIRCHILD CRES, LONDON"
      }
    ]
  },
  {
    "postal": "N6E5R7",
    "result": []
  },
  {
    "postal": "N6E3R6",
    "result": [
      {
        "electoralDistricts": [
          {
            "election": null,
            "id": 53,
            "name": "London—Fanshawe"
          }
        ],
        "pollDivisionIds": [
          10139587
        ],
        "postalCode": "N6E3R6",
        "streetName": "ERICA",
        "streetDirectionId": null,
        "streetTypeId": "CRES",
        "placeName": "LONDON",
        "streetNameDisplayText": "ERICA CRES, LONDON"
      }
    ]
  },
  {
    "postal": "N6E6K4",
    "result": []
  },
  {
    "postal": "N6E2W5",
    "result": []
  },
  {
    "postal": "N6E8W4",
    "result": []
  },
  {
    "postal": "N6E9C2",
    "result": []
  },
  {
    "postal": "N6E2C0",
    "result": []
  },
  {
    "postal": "N6E0E1",
    "result": []
  },
  {
    "postal": "N6E1K9",
    "result": [
      {
        "electoralDistricts": [
          {
            "election": null,
            "id": 53,
            "name": "London—Fanshawe"
          }
        ],
        "pollDivisionIds": [
          10139580
        ],
        "postalCode": "N6E1K9",
        "streetName": "GREENFIELD",
        "streetDirectionId": null,
        "streetTypeId": "CRT",
        "placeName": "LONDON",
        "streetNameDisplayText": "GREENFIELD CRT, LONDON"
      }
    ]
  },
  {
    "postal": "N6E1G7",
    "result": [
      {
        "electoralDistricts": [
          {
            "election": null,
            "id": 53,
            "name": "London—Fanshawe"
          }
        ],
        "pollDivisionIds": [
          10139582
        ],
        "postalCode": "N6E1G7",
        "streetName": "CANTLEY",
        "streetDirectionId": null,
        "streetTypeId": "CRES",
        "placeName": "LONDON",
        "streetNameDisplayText": "CANTLEY CRES, LONDON"
      }
    ]
  },
  {
    "postal": "N6E4E9",
    "result": []
  },
  {
    "postal": "N6E9P0",
    "result": []
  },
  {
    "postal": "N6E5H3",
    "result": []
  },
  {
    "postal": "N6E9X6",
    "result": []
  },
  {
    "postal": "N6E5N7",
    "result": []
  },
  {
    "postal": "N6E5A6",
    "result": []
  },
  {
    "postal": "N6E4M0",
    "result": []
  },
  {
    "postal": "N6E3V6",
    "result": [
      {
        "electoralDistricts": [
          {
            "election": null,
            "id": 53,
            "name": "London—Fanshawe"
          }
        ],
        "pollDivisionIds": [
          10139587
        ],
        "postalCode": "N6E3V6",
        "streetName": "JOSSELYN",
        "streetDirectionId": null,
        "streetTypeId": "DR",
        "placeName": "LONDON",
        "streetNameDisplayText": "JOSSELYN DR, LONDON"
      }
    ]
  },
  {
    "postal": "N6E1L7",
    "result": [
      {
        "electoralDistricts": [
          {
            "election": null,
            "id": 26,
            "name": "Elgin—Middlesex—London"
          }
        ],
        "pollDivisionIds": [
          10143310
        ],
        "postalCode": "N6E1L7",
        "streetName": "WHITE OAK",
        "streetDirectionId": null,
        "streetTypeId": "RD",
        "placeName": "LONDON",
        "streetNameDisplayText": "WHITE OAK RD, LONDON"
      }
    ]
  },
  {
    "postal": "N6E2P9",
    "result": [
      {
        "electoralDistricts": [
          {
            "election": null,
            "id": 53,
            "name": "London—Fanshawe"
          }
        ],
        "pollDivisionIds": [
          10139588
        ],
        "postalCode": "N6E2P9",
        "streetName": "ERNEST",
        "streetDirectionId": null,
        "streetTypeId": "AVE",
        "placeName": "LONDON",
        "streetNameDisplayText": "ERNEST AVE, LONDON"
      }
    ]
  },
  {
    "postal": "N6E5T4",
    "result": []
  },
  {
    "postal": "N6E5Z1",
    "result": []
  },
  {
    "postal": "N6E2X0",
    "result": []
  },
  {
    "postal": "N6E6Z2",
    "result": []
  },
  {
    "postal": "N6E0E0",
    "result": []
  },
  {
    "postal": "N6E3Z5",
    "result": []
  },
  {
    "postal": "N6E8H3",
    "result": []
  },
  {
    "postal": "N6E7S6",
    "result": []
  },
  {
    "postal": "N6E4C1",
    "result": []
  },
  {
    "postal": "N6E3K2",
    "result": [
      {
        "electoralDistricts": [
          {
            "election": null,
            "id": 53,
            "name": "London—Fanshawe"
          }
        ],
        "pollDivisionIds": [
          10139589
        ],
        "postalCode": "N6E3K2",
        "streetName": "CONWAY",
        "streetDirectionId": null,
        "streetTypeId": "DR",
        "placeName": "LONDON",
        "streetNameDisplayText": "CONWAY DR, LONDON"
      },
      {
        "electoralDistricts": [
          {
            "election": null,
            "id": 53,
            "name": "London—Fanshawe"
          }
        ],
        "pollDivisionIds": [
          10139589
        ],
        "postalCode": "N6E3K2",
        "streetName": "CONWAY",
        "streetDirectionId": null,
        "streetTypeId": "LANE",
        "placeName": "LONDON",
        "streetNameDisplayText": "CONWAY LANE, LONDON"
      }
    ]
  },
  {
    "postal": "N6E1Y5",
    "result": [
      {
        "electoralDistricts": [
          {
            "election": null,
            "id": 53,
            "name": "London—Fanshawe"
          }
        ],
        "pollDivisionIds": [
          10139582
        ],
        "postalCode": "N6E1Y5",
        "streetName": "WELLINGSBORO",
        "streetDirectionId": null,
        "streetTypeId": "RD",
        "placeName": "LONDON",
        "streetNameDisplayText": "WELLINGSBORO RD, LONDON"
      }
    ]
  },
  {
    "postal": "N6E6P6",
    "result": []
  },
  {
    "postal": "N6E3N9",
    "result": [
      {
        "electoralDistricts": [
          {
            "election": null,
            "id": 53,
            "name": "London—Fanshawe"
          }
        ],
        "pollDivisionIds": [
          10139589
        ],
        "postalCode": "N6E3N9",
        "streetName": "CONWAY",
        "streetDirectionId": null,
        "streetTypeId": "DR",
        "placeName": "LONDON",
        "streetNameDisplayText": "CONWAY DR, LONDON"
      }
    ]
  },
  {
    "postal": "N6E3W2",
    "result": [
      {
        "electoralDistricts": [
          {
            "election": null,
            "id": 53,
            "name": "London—Fanshawe"
          }
        ],
        "pollDivisionIds": [
          10139587
        ],
        "postalCode": "N6E3W2",
        "streetName": "ASHLEY",
        "streetDirectionId": null,
        "streetTypeId": "CRES",
        "placeName": "LONDON",
        "streetNameDisplayText": "ASHLEY CRES, LONDON"
      }
    ]
  },
  {
    "postal": "N6E6H8",
    "result": []
  },
  {
    "postal": "N6E9T3",
    "result": []
  },
  {
    "postal": "N6E5L9",
    "result": []
  },
  {
    "postal": "N6E7X7",
    "result": []
  },
  {
    "postal": "N6E3J5",
    "result": [
      {
        "electoralDistricts": [
          {
            "election": null,
            "id": 53,
            "name": "London—Fanshawe"
          }
        ],
        "pollDivisionIds": [
          10139589
        ],
        "postalCode": "N6E3J5",
        "streetName": "CONWAY",
        "streetDirectionId": null,
        "streetTypeId": "DR",
        "placeName": "LONDON",
        "streetNameDisplayText": "CONWAY DR, LONDON"
      }
    ]
  },
  {
    "postal": "N6E4J5",
    "result": []
  },
  {
    "postal": "N6E6J2",
    "result": []
  },
  {
    "postal": "N6E5V6",
    "result": []
  },
  {
    "postal": "N6E3N2",
    "result": [
      {
        "electoralDistricts": [
          {
            "election": null,
            "id": 53,
            "name": "London—Fanshawe"
          }
        ],
        "pollDivisionIds": [
          10139589
        ],
        "postalCode": "N6E3N2",
        "streetName": "CONWAY",
        "streetDirectionId": null,
        "streetTypeId": "DR",
        "placeName": "LONDON",
        "streetNameDisplayText": "CONWAY DR, LONDON"
      }
    ]
  },
  {
    "postal": "N6E3B1",
    "result": [
      {
        "electoralDistricts": [
          {
            "election": null,
            "id": 53,
            "name": "London—Fanshawe"
          }
        ],
        "pollDivisionIds": [
          10139578
        ],
        "postalCode": "N6E3B1",
        "streetName": "BEXHILL",
        "streetDirectionId": null,
        "streetTypeId": "CLOSE",
        "placeName": "LONDON",
        "streetNameDisplayText": "BEXHILL CLOSE, LONDON"
      }
    ]
  },
  {
    "postal": "N6E8B5",
    "result": []
  },
  {
    "postal": "N6E0K1",
    "result": []
  },
  {
    "postal": "N6E7M7",
    "result": []
  },
  {
    "postal": "N6E2M2",
    "result": [
      {
        "electoralDistricts": [
          {
            "election": null,
            "id": 53,
            "name": "London—Fanshawe"
          }
        ],
        "pollDivisionIds": [
          10139580
        ],
        "postalCode": "N6E2M2",
        "streetName": "JALNA",
        "streetDirectionId": null,
        "streetTypeId": "BLVD",
        "placeName": "LONDON",
        "streetNameDisplayText": "JALNA BLVD, LONDON"
      }
    ]
  },
  {
    "postal": "N6E9N3",
    "result": []
  },
  {
    "postal": "N6E4Y8",
    "result": []
  },
  {
    "postal": "N6E3V7",
    "result": [
      {
        "electoralDistricts": [
          {
            "election": null,
            "id": 53,
            "name": "London—Fanshawe"
          }
        ],
        "pollDivisionIds": [
          10139587
        ],
        "postalCode": "N6E3V7",
        "streetName": "JOSSELYN",
        "streetDirectionId": null,
        "streetTypeId": "DR",
        "placeName": "LONDON",
        "streetNameDisplayText": "JOSSELYN DR, LONDON"
      }
    ]
  },
  {
    "postal": "N6E8Z1",
    "result": []
  },
  {
    "postal": "N6E7B3",
    "result": []
  },
  {
    "postal": "N6E3A8",
    "result": []
  },
  {
    "postal": "N6E7V5",
    "result": []
  },
  {
    "postal": "N6E2T2",
    "result": []
  },
  {
    "postal": "N6E6L3",
    "result": []
  },
  {
    "postal": "N6E0L2",
    "result": []
  },
  {
    "postal": "N6E5Y8",
    "result": []
  },
  {
    "postal": "N6E0B8",
    "result": []
  },
  {
    "postal": "N6E6R5",
    "result": []
  },
  {
    "postal": "N6E8W6",
    "result": []
  },
  {
    "postal": "N6E8G6",
    "result": []
  },
  {
    "postal": "N6E6X3",
    "result": []
  },
  {
    "postal": "N6E7R7",
    "result": []
  },
  {
    "postal": "N6E4B6",
    "result": []
  },
  {
    "postal": "N6E3P9",
    "result": [
      {
        "electoralDistricts": [
          {
            "election": null,
            "id": 53,
            "name": "London—Fanshawe"
          }
        ],
        "pollDivisionIds": [
          10139587
        ],
        "postalCode": "N6E3P9",
        "streetName": "ASHLEY",
        "streetDirectionId": null,
        "streetTypeId": "CRES",
        "placeName": "LONDON",
        "streetNameDisplayText": "ASHLEY CRES, LONDON"
      }
    ]
  },
  {
    "postal": "N6E2T3",
    "result": [
      {
        "electoralDistricts": [
          {
            "election": null,
            "id": 53,
            "name": "London—Fanshawe"
          }
        ],
        "pollDivisionIds": [
          10139580
        ],
        "postalCode": "N6E2T3",
        "streetName": "TOWERLINE",
        "streetDirectionId": null,
        "streetTypeId": "PL",
        "placeName": "LONDON",
        "streetNameDisplayText": "TOWERLINE PL, LONDON"
      }
    ]
  },
  {
    "postal": "N6E1M4",
    "result": [
      {
        "electoralDistricts": [
          {
            "election": null,
            "id": 53,
            "name": "London—Fanshawe"
          }
        ],
        "pollDivisionIds": [
          10139580
        ],
        "postalCode": "N6E1M4",
        "streetName": "WELLINGTON",
        "streetDirectionId": null,
        "streetTypeId": "RD",
        "placeName": "LONDON",
        "streetNameDisplayText": "WELLINGTON RD, LONDON"
      }
    ]
  },
  {
    "postal": "N6E0H1",
    "result": []
  },
  {
    "postal": "N6E9W3",
    "result": []
  },
  {
    "postal": "N6E6P1",
    "result": []
  },
  {
    "postal": "N6E7G2",
    "result": []
  },
  {
    "postal": "N6E4J9",
    "result": []
  },
  {
    "postal": "N6E9E4",
    "result": []
  },
  {
    "postal": "N6E8H0",
    "result": []
  },
  {
    "postal": "N6E4M7",
    "result": []
  },
  {
    "postal": "N6E2G9",
    "result": [
      {
        "electoralDistricts": [
          {
            "election": null,
            "id": 53,
            "name": "London—Fanshawe"
          }
        ],
        "pollDivisionIds": [
          10139562,
          10139581
        ],
        "postalCode": "N6E2G9",
        "streetName": "OSGOODE",
        "streetDirectionId": null,
        "streetTypeId": "DR",
        "placeName": "LONDON",
        "streetNameDisplayText": "OSGOODE DR, LONDON"
      }
    ]
  },
  {
    "postal": "N6E8T2",
    "result": []
  },
  {
    "postal": "N6E7G7",
    "result": []
  },
  {
    "postal": "N6E4Z3",
    "result": []
  },
  {
    "postal": "N6E5B3",
    "result": []
  },
  {
    "postal": "N6E1S7",
    "result": [
      {
        "electoralDistricts": [
          {
            "election": null,
            "id": 53,
            "name": "London—Fanshawe"
          }
        ],
        "pollDivisionIds": [
          10139581
        ],
        "postalCode": "N6E1S7",
        "streetName": "UPCOTT",
        "streetDirectionId": null,
        "streetTypeId": "CRES",
        "placeName": "LONDON",
        "streetNameDisplayText": "UPCOTT CRES, LONDON"
      }
    ]
  },
  {
    "postal": "N6E2N7",
    "result": [
      {
        "electoralDistricts": [
          {
            "election": null,
            "id": 53,
            "name": "London—Fanshawe"
          }
        ],
        "pollDivisionIds": [
          10139583
        ],
        "postalCode": "N6E2N7",
        "streetName": "TUMBLEWEED",
        "streetDirectionId": null,
        "streetTypeId": "CRES",
        "placeName": "LONDON",
        "streetNameDisplayText": "TUMBLEWEED CRES, LONDON"
      }
    ]
  },
  {
    "postal": "N6E0H8",
    "result": []
  },
  {
    "postal": "N6E7Z4",
    "result": []
  },
  {
    "postal": "N6E7B1",
    "result": []
  },
  {
    "postal": "N6E7P8",
    "result": []
  },
  {
    "postal": "N6E7N0",
    "result": []
  },
  {
    "postal": "N6E3Y5",
    "result": [
      {
        "electoralDistricts": [
          {
            "election": null,
            "id": 26,
            "name": "Elgin—Middlesex—London"
          }
        ],
        "pollDivisionIds": [
          10137962
        ],
        "postalCode": "N6E3Y5",
        "streetName": "WESTMINSTER",
        "streetDirectionId": null,
        "streetTypeId": "DR",
        "placeName": "LONDON",
        "streetNameDisplayText": "WESTMINSTER DR, LONDON"
      }
    ]
  },
  {
    "postal": "N6E6K1",
    "result": []
  },
  {
    "postal": "N6E9X5",
    "result": []
  },
  {
    "postal": "N6E7S5",
    "result": []
  },
  {
    "postal": "N6E0A4",
    "result": [
      {
        "electoralDistricts": [
          {
            "election": null,
            "id": 53,
            "name": "London—Fanshawe"
          }
        ],
        "pollDivisionIds": [
          10139587
        ],
        "postalCode": "N6E0A4",
        "streetName": "DEVON",
        "streetDirectionId": null,
        "streetTypeId": "RD",
        "placeName": "LONDON",
        "streetNameDisplayText": "DEVON RD, LONDON"
      }
    ]
  },
  {
    "postal": "N6E4T5",
    "result": []
  },
  {
    "postal": "N6E5K1",
    "result": []
  },
  {
    "postal": "N6E0Z9",
    "result": []
  },
  {
    "postal": "N6E7T2",
    "result": []
  },
  {
    "postal": "N6E1L5",
    "result": [
      {
        "electoralDistricts": [
          {
            "election": null,
            "id": 53,
            "name": "London—Fanshawe"
          }
        ],
        "pollDivisionIds": [
          10139580
        ],
        "postalCode": "N6E1L5",
        "streetName": "EXETER",
        "streetDirectionId": null,
        "streetTypeId": "RD",
        "placeName": "LONDON",
        "streetNameDisplayText": "EXETER RD, LONDON"
      }
    ]
  },
  {
    "postal": "N6E3N5",
    "result": [
      {
        "electoralDistricts": [
          {
            "election": null,
            "id": 53,
            "name": "London—Fanshawe"
          }
        ],
        "pollDivisionIds": [
          10139582
        ],
        "postalCode": "N6E3N5",
        "streetName": "WELLINGTON",
        "streetDirectionId": "S",
        "streetTypeId": "RD",
        "placeName": "LONDON",
        "streetNameDisplayText": "WELLINGTON RD S, LONDON"
      }
    ]
  },
  {
    "postal": "N6E6H4",
    "result": []
  },
  {
    "postal": "N6E5A5",
    "result": []
  },
  {
    "postal": "N6E3R9",
    "result": [
      {
        "electoralDistricts": [
          {
            "election": null,
            "id": 53,
            "name": "London—Fanshawe"
          }
        ],
        "pollDivisionIds": [
          10139587
        ],
        "postalCode": "N6E3R9",
        "streetName": "ASHLEY",
        "streetDirectionId": null,
        "streetTypeId": "CRES",
        "placeName": "LONDON",
        "streetNameDisplayText": "ASHLEY CRES, LONDON"
      }
    ]
  },
  {
    "postal": "N6E7L8",
    "result": []
  },
  {
    "postal": "N6E6T6",
    "result": []
  },
  {
    "postal": "N6E7Y7",
    "result": []
  },
  {
    "postal": "N6E3M8",
    "result": [
      {
        "electoralDistricts": [
          {
            "election": null,
            "id": 53,
            "name": "London—Fanshawe"
          }
        ],
        "pollDivisionIds": [
          10139588
        ],
        "postalCode": "N6E3M8",
        "streetName": "JALNA",
        "streetDirectionId": null,
        "streetTypeId": "BLVD",
        "placeName": "LONDON",
        "streetNameDisplayText": "JALNA BLVD, LONDON"
      }
    ]
  },
  {
    "postal": "N6E2E0",
    "result": []
  },
  {
    "postal": "N6E4B5",
    "result": []
  },
  {
    "postal": "N6E1J3",
    "result": [
      {
        "electoralDistricts": [
          {
            "election": null,
            "id": 53,
            "name": "London—Fanshawe"
          }
        ],
        "pollDivisionIds": [
          10139582
        ],
        "postalCode": "N6E1J3",
        "streetName": "KINBURN",
        "streetDirectionId": null,
        "streetTypeId": "CRES",
        "placeName": "LONDON",
        "streetNameDisplayText": "KINBURN CRES, LONDON"
      }
    ]
  },
  {
    "postal": "N6E5S6",
    "result": []
  },
  {
    "postal": "N6E8P7",
    "result": []
  },
  {
    "postal": "N6E7S7",
    "result": []
  },
  {
    "postal": "N6E4C2",
    "result": []
  },
  {
    "postal": "N6E5Y0",
    "result": []
  },
  {
    "postal": "N6E2V7",
    "result": [
      {
        "electoralDistricts": [
          {
            "election": null,
            "id": 53,
            "name": "London—Fanshawe"
          }
        ],
        "pollDivisionIds": [
          10139588
        ],
        "postalCode": "N6E2V7",
        "streetName": "ERNEST",
        "streetDirectionId": null,
        "streetTypeId": "AVE",
        "placeName": "LONDON",
        "streetNameDisplayText": "ERNEST AVE, LONDON"
      }
    ]
  },
  {
    "postal": "N6E8P5",
    "result": []
  },
  {
    "postal": "N6E5P5",
    "result": []
  },
  {
    "postal": "N6E5Z0",
    "result": []
  },
  {
    "postal": "N6E9B0",
    "result": []
  },
  {
    "postal": "N6E1L0",
    "result": []
  },
  {
    "postal": "N6E0B5",
    "result": []
  },
  {
    "postal": "N6E3L2",
    "result": [
      {
        "electoralDistricts": [
          {
            "election": null,
            "id": 53,
            "name": "London—Fanshawe"
          }
        ],
        "pollDivisionIds": [
          10139589
        ],
        "postalCode": "N6E3L2",
        "streetName": "CHESWICK",
        "streetDirectionId": null,
        "streetTypeId": "CIR",
        "placeName": "LONDON",
        "streetNameDisplayText": "CHESWICK CIR, LONDON"
      }
    ]
  },
  {
    "postal": "N6E3B7",
    "result": [
      {
        "electoralDistricts": [
          {
            "election": null,
            "id": 53,
            "name": "London—Fanshawe"
          }
        ],
        "pollDivisionIds": [
          10139589
        ],
        "postalCode": "N6E3B7",
        "streetName": "JALNA",
        "streetDirectionId": null,
        "streetTypeId": "BLVD",
        "placeName": "LONDON",
        "streetNameDisplayText": "JALNA BLVD, LONDON"
      }
    ]
  },
  {
    "postal": "N6E8L1",
    "result": []
  },
  {
    "postal": "N6E5M4",
    "result": []
  },
  {
    "postal": "N6E4G9",
    "result": []
  },
  {
    "postal": "N6E0P0",
    "result": []
  },
  {
    "postal": "N6E8G2",
    "result": []
  },
  {
    "postal": "N6E1V9",
    "result": [
      {
        "electoralDistricts": [
          {
            "election": null,
            "id": 53,
            "name": "London—Fanshawe"
          }
        ],
        "pollDivisionIds": [
          10139586
        ],
        "postalCode": "N6E1V9",
        "streetName": "SOUTHDALE",
        "streetDirectionId": "E",
        "streetTypeId": "RD",
        "placeName": "LONDON",
        "streetNameDisplayText": "SOUTHDALE RD E, LONDON"
      }
    ]
  },
  {
    "postal": "N6E8N8",
    "result": []
  },
  {
    "postal": "N6E6S8",
    "result": []
  },
  {
    "postal": "N6E8H2",
    "result": []
  },
  {
    "postal": "N6E5R8",
    "result": []
  },
  {
    "postal": "N6E5L4",
    "result": []
  },
  {
    "postal": "N6E9E1",
    "result": []
  },
  {
    "postal": "N6E1C4",
    "result": [
      {
        "electoralDistricts": [
          {
            "election": null,
            "id": 53,
            "name": "London—Fanshawe"
          }
        ],
        "pollDivisionIds": [
          10139582
        ],
        "postalCode": "N6E1C4",
        "streetName": "OSGOODE",
        "streetDirectionId": null,
        "streetTypeId": "DR",
        "placeName": "LONDON",
        "streetNameDisplayText": "OSGOODE DR, LONDON"
      }
    ]
  },
  {
    "postal": "N6E8W5",
    "result": []
  },
  {
    "postal": "N6E1Y4",
    "result": [
      {
        "electoralDistricts": [
          {
            "election": null,
            "id": 53,
            "name": "London—Fanshawe"
          }
        ],
        "pollDivisionIds": [
          10139582
        ],
        "postalCode": "N6E1Y4",
        "streetName": "DEARNESS",
        "streetDirectionId": null,
        "streetTypeId": "DR",
        "placeName": "LONDON",
        "streetNameDisplayText": "DEARNESS DR, LONDON"
      }
    ]
  },
  {
    "postal": "N6E1C0",
    "result": []
  },
  {
    "postal": "N6E2J2",
    "result": [
      {
        "electoralDistricts": [
          {
            "election": null,
            "id": 53,
            "name": "London—Fanshawe"
          }
        ],
        "pollDivisionIds": [
          10139583
        ],
        "postalCode": "N6E2J2",
        "streetName": "BEECHMOUNT",
        "streetDirectionId": null,
        "streetTypeId": "CRES",
        "placeName": "LONDON",
        "streetNameDisplayText": "BEECHMOUNT CRES, LONDON"
      }
    ]
  },
  {
    "postal": "N6E2J0",
    "result": []
  },
  {
    "postal": "N6E7A3",
    "result": []
  },
  {
    "postal": "N6E8M1",
    "result": []
  },
  {
    "postal": "N6E7T9",
    "result": []
  },
  {
    "postal": "N6E6C0",
    "result": []
  },
  {
    "postal": "N6E7X1",
    "result": []
  },
  {
    "postal": "N6E0G1",
    "result": []
  },
  {
    "postal": "N6E4X2",
    "result": []
  },
  {
    "postal": "N6E0N6",
    "result": []
  },
  {
    "postal": "N6E8E3",
    "result": []
  },
  {
    "postal": "N6E5S8",
    "result": []
  },
  {
    "postal": "N6E0R0",
    "result": []
  },
  {
    "postal": "N6E6J6",
    "result": []
  },
  {
    "postal": "N6E4B4",
    "result": []
  },
  {
    "postal": "N6E7E3",
    "result": []
  },
  {
    "postal": "N6E3N6",
    "result": []
  },
  {
    "postal": "N6E3X6",
    "result": [
      {
        "electoralDistricts": [
          {
            "election": null,
            "id": 26,
            "name": "Elgin—Middlesex—London"
          }
        ],
        "pollDivisionIds": [
          10137962
        ],
        "postalCode": "N6E3X6",
        "streetName": "SHAVER",
        "streetDirectionId": null,
        "streetTypeId": "ST",
        "placeName": "LONDON",
        "streetNameDisplayText": "SHAVER ST, LONDON"
      }
    ]
  },
  {
    "postal": "N6E8L0",
    "result": []
  },
  {
    "postal": "N6E8N1",
    "result": []
  },
  {
    "postal": "N6E4J0",
    "result": []
  },
  {
    "postal": "N6E0X7",
    "result": []
  },
  {
    "postal": "N6E6S4",
    "result": []
  },
  {
    "postal": "N6E0Z0",
    "result": []
  },
  {
    "postal": "N6E9X8",
    "result": []
  },
  {
    "postal": "N6E3H3",
    "result": [
      {
        "electoralDistricts": [
          {
            "election": null,
            "id": 53,
            "name": "London—Fanshawe"
          }
        ],
        "pollDivisionIds": [
          10139588
        ],
        "postalCode": "N6E3H3",
        "streetName": "ERNEST",
        "streetDirectionId": null,
        "streetTypeId": "AVE",
        "placeName": "LONDON",
        "streetNameDisplayText": "ERNEST AVE, LONDON"
      }
    ]
  },
  {
    "postal": "N6E7S2",
    "result": []
  },
  {
    "postal": "N6E3T3",
    "result": []
  },
  {
    "postal": "N6E9P3",
    "result": []
  },
  {
    "postal": "N6E4H8",
    "result": []
  },
  {
    "postal": "N6E6R1",
    "result": []
  },
  {
    "postal": "N6E1S0",
    "result": []
  },
  {
    "postal": "N6E3W8",
    "result": [
      {
        "electoralDistricts": [
          {
            "election": null,
            "id": 26,
            "name": "Elgin—Middlesex—London"
          }
        ],
        "pollDivisionIds": [
          10137962
        ],
        "postalCode": "N6E3W8",
        "streetName": "DINGMAN",
        "streetDirectionId": null,
        "streetTypeId": "DR",
        "placeName": "LONDON",
        "streetNameDisplayText": "DINGMAN DR, LONDON"
      }
    ]
  },
  {
    "postal": "N6E4S3",
    "result": []
  },
  {
    "postal": "N6E1B6",
    "result": [
      {
        "electoralDistricts": [
          {
            "election": null,
            "id": 53,
            "name": "London—Fanshawe"
          }
        ],
        "pollDivisionIds": [
          10139581
        ],
        "postalCode": "N6E1B6",
        "streetName": "OSGOODE",
        "streetDirectionId": null,
        "streetTypeId": "DR",
        "placeName": "LONDON",
        "streetNameDisplayText": "OSGOODE DR, LONDON"
      }
    ]
  },
  {
    "postal": "N6E8R3",
    "result": []
  },
  {
    "postal": "N6E4V9",
    "result": []
  },
  {
    "postal": "N6E9W4",
    "result": []
  },
  {
    "postal": "N6E3T4",
    "result": []
  },
  {
    "postal": "N6E5C7",
    "result": []
  },
  {
    "postal": "N6E3Y1",
    "result": [
      {
        "electoralDistricts": [
          {
            "election": null,
            "id": 26,
            "name": "Elgin—Middlesex—London"
          }
        ],
        "pollDivisionIds": [
          10137962
        ],
        "postalCode": "N6E3Y1",
        "streetName": "WELLINGTON",
        "streetDirectionId": "S",
        "streetTypeId": "RD",
        "placeName": "LONDON",
        "streetNameDisplayText": "WELLINGTON RD S, LONDON"
      }
    ]
  },
  {
    "postal": "N6E5V0",
    "result": []
  },
  {
    "postal": "N6E8G8",
    "result": []
  },
  {
    "postal": "N6E8B1",
    "result": []
  },
  {
    "postal": "N6E4P5",
    "result": []
  },
  {
    "postal": "N6E7B2",
    "result": []
  },
  {
    "postal": "N6E0R2",
    "result": []
  },
  {
    "postal": "N6E4M4",
    "result": []
  },
  {
    "postal": "N6E7M4",
    "result": []
  },
  {
    "postal": "N6E9S7",
    "result": []
  },
  {
    "postal": "N6E5Z7",
    "result": []
  },
  {
    "postal": "N6E7J7",
    "result": []
  },
  {
    "postal": "N6E8R8",
    "result": []
  },
  {
    "postal": "N6E9X1",
    "result": []
  },
  {
    "postal": "N6E5M9",
    "result": []
  },
  {
    "postal": "N6E9B4",
    "result": []
  },
  {
    "postal": "N6E0L9",
    "result": []
  },
  {
    "postal": "N6E9G4",
    "result": []
  },
  {
    "postal": "N6E1J4",
    "result": [
      {
        "electoralDistricts": [
          {
            "election": null,
            "id": 53,
            "name": "London—Fanshawe"
          }
        ],
        "pollDivisionIds": [
          10139582
        ],
        "postalCode": "N6E1J4",
        "streetName": "KINTAIL",
        "streetDirectionId": null,
        "streetTypeId": "CRES",
        "placeName": "LONDON",
        "streetNameDisplayText": "KINTAIL CRES, LONDON"
      }
    ]
  },
  {
    "postal": "N6E0W6",
    "result": []
  },
  {
    "postal": "N6E4C5",
    "result": []
  },
  {
    "postal": "N6E7E4",
    "result": []
  },
  {
    "postal": "N6E1R9",
    "result": [
      {
        "electoralDistricts": [
          {
            "election": null,
            "id": 53,
            "setId": 0,
            "name": "London—Fanshawe"
          }
        ],
        "pollDivisionIds": [
          10139579
        ],
        "postalCode": "N6E1R9",
        "streetName": "SOUTHDALE",
        "streetDirectionId": "E",
        "streetTypeId": "RD",
        "placeName": "LONDON",
        "streetNameDisplayText": "SOUTHDALE RD E, LONDON"
      }
    ]
  },
  {
    "postal": "N6E2P0",
    "result": []
  },
  {
    "postal": "N6E5S4",
    "result": []
  },
  {
    "postal": "N6E5K8",
    "result": []
  },
  {
    "postal": "N6E8K4",
    "result": []
  },
  {
    "postal": "N6E7C1",
    "result": []
  },
  {
    "postal": "N6E7K9",
    "result": []
  },
  {
    "postal": "N6E5J1",
    "result": []
  },
  {
    "postal": "N6E4P9",
    "result": []
  },
  {
    "postal": "N6E0N2",
    "result": []
  },
  {
    "postal": "N6E2G6",
    "result": [
      {
        "electoralDistricts": [
          {
            "election": null,
            "id": 53,
            "setId": 0,
            "name": "London—Fanshawe"
          }
        ],
        "pollDivisionIds": [
          10139578
        ],
        "postalCode": "N6E2G6",
        "streetName": "BRIDLINGTON",
        "streetDirectionId": null,
        "streetTypeId": "RD",
        "placeName": "LONDON",
        "streetNameDisplayText": "BRIDLINGTON RD, LONDON"
      }
    ]
  },
  {
    "postal": "N6E6P4",
    "result": []
  },
  {
    "postal": "N6E3J0",
    "result": []
  },
  {
    "postal": "N6E8X4",
    "result": []
  },
  {
    "postal": "N6E1Y3",
    "result": [
      {
        "electoralDistricts": [
          {
            "election": null,
            "id": 53,
            "setId": 0,
            "name": "London—Fanshawe"
          }
        ],
        "pollDivisionIds": [
          10139581
        ],
        "postalCode": "N6E1Y3",
        "streetName": "ROSTHERNE",
        "streetDirectionId": null,
        "streetTypeId": "CRES",
        "placeName": "LONDON",
        "streetNameDisplayText": "ROSTHERNE CRES, LONDON"
      }
    ]
  },
  {
    "postal": "N6E1A8",
    "result": [
      {
        "electoralDistricts": [
          {
            "election": null,
            "id": 53,
            "setId": 0,
            "name": "London—Fanshawe"
          }
        ],
        "pollDivisionIds": [
          10139579
        ],
        "postalCode": "N6E1A8",
        "streetName": "SOUTHDALE",
        "streetDirectionId": "E",
        "streetTypeId": "RD",
        "placeName": "LONDON",
        "streetNameDisplayText": "SOUTHDALE RD E, LONDON"
      }
    ]
  },
  {
    "postal": "N6E6Y5",
    "result": []
  },
  {
    "postal": "N6E0J6",
    "result": []
  },
  {
    "postal": "N6E2C9",
    "result": [
      {
        "electoralDistricts": [
          {
            "election": null,
            "id": 53,
            "setId": 0,
            "name": "London—Fanshawe"
          }
        ],
        "pollDivisionIds": [
          10139589
        ],
        "postalCode": "N6E2C9",
        "streetName": "AUGUSTA",
        "streetDirectionId": null,
        "streetTypeId": "CRES",
        "placeName": "LONDON",
        "streetNameDisplayText": "AUGUSTA CRES, LONDON"
      }
    ]
  },
  {
    "postal": "N6E8J6",
    "result": []
  },
  {
    "postal": "N6E8T4",
    "result": []
  },
  {
    "postal": "N6E1P7",
    "result": [
      {
        "electoralDistricts": [
          {
            "election": null,
            "id": 53,
            "setId": 0,
            "name": "London—Fanshawe"
          }
        ],
        "pollDivisionIds": [
          10139580
        ],
        "postalCode": "N6E1P7",
        "streetName": "HARGRIEVE",
        "streetDirectionId": null,
        "streetTypeId": "RD",
        "placeName": "LONDON",
        "streetNameDisplayText": "HARGRIEVE RD, LONDON"
      }
    ]
  },
  {
    "postal": "N6E9V9",
    "result": []
  },
  {
    "postal": "N6E0M1",
    "result": []
  },
  {
    "postal": "N6E6K5",
    "result": []
  },
  {
    "postal": "N6E2T5",
    "result": [
      {
        "electoralDistricts": [
          {
            "election": null,
            "id": 53,
            "setId": 0,
            "name": "London—Fanshawe"
          }
        ],
        "pollDivisionIds": [
          10139580
        ],
        "postalCode": "N6E2T5",
        "streetName": "MICRO",
        "streetDirectionId": null,
        "streetTypeId": "CRT",
        "placeName": "LONDON",
        "streetNameDisplayText": "MICRO CRT, LONDON"
      }
    ]
  },
  {
    "postal": "N6E7E9",
    "result": []
  },
  {
    "postal": "N6E5K5",
    "result": []
  },
  {
    "postal": "N6E3R5",
    "result": [
      {
        "electoralDistricts": [
          {
            "election": null,
            "id": 53,
            "setId": 0,
            "name": "London—Fanshawe"
          }
        ],
        "pollDivisionIds": [
          10139582
        ],
        "postalCode": "N6E3R5",
        "streetName": "WELLINGTON",
        "streetDirectionId": "S",
        "streetTypeId": "RD",
        "placeName": "LONDON",
        "streetNameDisplayText": "WELLINGTON RD S, LONDON"
      }
    ]
  },
  {
    "postal": "N6E5B1",
    "result": []
  },
  {
    "postal": "N6E2P1",
    "result": [
      {
        "electoralDistricts": [
          {
            "election": null,
            "id": 53,
            "setId": 0,
            "name": "London—Fanshawe"
          }
        ],
        "pollDivisionIds": [
          10139583
        ],
        "postalCode": "N6E2P1",
        "streetName": "BEECHBANK",
        "streetDirectionId": null,
        "streetTypeId": "CRES",
        "placeName": "LONDON",
        "streetNameDisplayText": "BEECHBANK CRES, LONDON"
      }
    ]
  },
  {
    "postal": "N6E7L0",
    "result": []
  },
  {
    "postal": "N6E3L6",
    "result": [
      {
        "electoralDistricts": [
          {
            "election": null,
            "id": 53,
            "setId": 0,
            "name": "London—Fanshawe"
          }
        ],
        "pollDivisionIds": [
          10139589
        ],
        "postalCode": "N6E3L6",
        "streetName": "CHESWICK",
        "streetDirectionId": null,
        "streetTypeId": "CIR",
        "placeName": "LONDON",
        "streetNameDisplayText": "CHESWICK CIR, LONDON"
      }
    ]
  },
  {
    "postal": "N6E2A4",
    "result": [
      {
        "electoralDistricts": [
          {
            "election": null,
            "id": 53,
            "setId": 0,
            "name": "London—Fanshawe"
          }
        ],
        "pollDivisionIds": [
          10139580
        ],
        "postalCode": "N6E2A4",
        "streetName": "ARCHER",
        "streetDirectionId": null,
        "streetTypeId": "CRES",
        "placeName": "LONDON",
        "streetNameDisplayText": "ARCHER CRES, LONDON"
      }
    ]
  },
  {
    "postal": "N6E8S0",
    "result": []
  },
  {
    "postal": "N6E3L5",
    "result": [
      {
        "electoralDistricts": [
          {
            "election": null,
            "id": 53,
            "setId": 0,
            "name": "London—Fanshawe"
          }
        ],
        "pollDivisionIds": [
          10139589
        ],
        "postalCode": "N6E3L5",
        "streetName": "CHESWICK",
        "streetDirectionId": null,
        "streetTypeId": "CIR",
        "placeName": "LONDON",
        "streetNameDisplayText": "CHESWICK CIR, LONDON"
      }
    ]
  },
  {
    "postal": "N6E2R5",
    "result": []
  },
  {
    "postal": "N6E9T6",
    "result": []
  },
  {
    "postal": "N6E8Z2",
    "result": []
  },
  {
    "postal": "N6E0E9",
    "result": []
  },
  {
    "postal": "N6E8C0",
    "result": []
  },
  {
    "postal": "N6E3K7",
    "result": [
      {
        "electoralDistricts": [
          {
            "election": null,
            "id": 53,
            "setId": 0,
            "name": "London—Fanshawe"
          }
        ],
        "pollDivisionIds": [
          10139589
        ],
        "postalCode": "N6E3K7",
        "streetName": "JALNA",
        "streetDirectionId": null,
        "streetTypeId": "BLVD",
        "placeName": "LONDON",
        "streetNameDisplayText": "JALNA BLVD, LONDON"
      }
    ]
  },
  {
    "postal": "N6E2H3",
    "result": [
      {
        "electoralDistricts": [
          {
            "election": null,
            "id": 53,
            "setId": 0,
            "name": "London—Fanshawe"
          }
        ],
        "pollDivisionIds": [
          10139582
        ],
        "postalCode": "N6E2H3",
        "streetName": "ADELAIDE",
        "streetDirectionId": "S",
        "streetTypeId": "ST",
        "placeName": "LONDON",
        "streetNameDisplayText": "ADELAIDE ST S, LONDON"
      }
    ]
  },
  {
    "postal": "N6E2Y6",
    "result": [
      {
        "electoralDistricts": [
          {
            "election": null,
            "id": 53,
            "setId": 0,
            "name": "London—Fanshawe"
          }
        ],
        "pollDivisionIds": [
          10139581
        ],
        "postalCode": "N6E2Y6",
        "streetName": "CHANCTON",
        "streetDirectionId": null,
        "streetTypeId": "CRES",
        "placeName": "LONDON",
        "streetNameDisplayText": "CHANCTON CRES, LONDON"
      }
    ]
  },
  {
    "postal": "N6E7M2",
    "result": []
  },
  {
    "postal": "N6E6E2",
    "result": []
  },
  {
    "postal": "N6E3R0",
    "result": []
  },
  {
    "postal": "N6E4J7",
    "result": []
  },
  {
    "postal": "N6E6N8",
    "result": []
  },
  {
    "postal": "N6E0J7",
    "result": []
  },
  {
    "postal": "N6E7P2",
    "result": []
  },
  {
    "postal": "N6E3T8",
    "result": []
  },
  {
    "postal": "N6E3S7",
    "result": [
      {
        "electoralDistricts": [
          {
            "election": null,
            "id": 53,
            "setId": 0,
            "name": "London—Fanshawe"
          }
        ],
        "pollDivisionIds": [
          10139587
        ],
        "postalCode": "N6E3S7",
        "streetName": "COLETTE",
        "streetDirectionId": null,
        "streetTypeId": "DR",
        "placeName": "LONDON",
        "streetNameDisplayText": "COLETTE DR, LONDON"
      }
    ]
  },
  {
    "postal": "N6E2S7",
    "result": [
      {
        "electoralDistricts": [
          {
            "election": null,
            "id": 53,
            "setId": 0,
            "name": "London—Fanshawe"
          }
        ],
        "pollDivisionIds": [
          10139588
        ],
        "postalCode": "N6E2S7",
        "streetName": "ERNEST",
        "streetDirectionId": null,
        "streetTypeId": "AVE",
        "placeName": "LONDON",
        "streetNameDisplayText": "ERNEST AVE, LONDON"
      }
    ]
  },
  {
    "postal": "N6E1S4",
    "result": [
      {
        "electoralDistricts": [
          {
            "election": null,
            "id": 53,
            "setId": 0,
            "name": "London—Fanshawe"
          }
        ],
        "pollDivisionIds": [
          10139581
        ],
        "postalCode": "N6E1S4",
        "streetName": "DUDLEY",
        "streetDirectionId": null,
        "streetTypeId": "CRES",
        "placeName": "LONDON",
        "streetNameDisplayText": "DUDLEY CRES, LONDON"
      }
    ]
  },
  {
    "postal": "N6E1L8",
    "result": [
      {
        "electoralDistricts": [
          {
            "election": null,
            "id": 53,
            "setId": 0,
            "name": "London—Fanshawe"
          }
        ],
        "pollDivisionIds": [
          10139587
        ],
        "postalCode": "N6E1L8",
        "streetName": "WHITE OAK",
        "streetDirectionId": null,
        "streetTypeId": "RD",
        "placeName": "LONDON",
        "streetNameDisplayText": "WHITE OAK RD, LONDON"
      }
    ]
  },
  {
    "postal": "N6E8E9",
    "result": []
  },
  {
    "postal": "N6E0T0",
    "result": []
  },
  {
    "postal": "N6E3G4",
    "result": [
      {
        "electoralDistricts": [
          {
            "election": null,
            "id": 53,
            "setId": 0,
            "name": "London—Fanshawe"
          }
        ],
        "pollDivisionIds": [
          10139589
        ],
        "postalCode": "N6E3G4",
        "streetName": "CLARA",
        "streetDirectionId": null,
        "streetTypeId": "CRES",
        "placeName": "LONDON",
        "streetNameDisplayText": "CLARA CRES, LONDON"
      }
    ]
  },
  {
    "postal": "N6E0V6",
    "result": []
  },
  {
    "postal": "N6E4W1",
    "result": []
  },
  {
    "postal": "N6E9G9",
    "result": []
  },
  {
    "postal": "N6E5W4",
    "result": []
  },
  {
    "postal": "N6E7M8",
    "result": []
  },
  {
    "postal": "N6E2C2",
    "result": [
      {
        "electoralDistricts": [
          {
            "election": null,
            "id": 53,
            "setId": 0,
            "name": "London—Fanshawe"
          }
        ],
        "pollDivisionIds": [
          10139580
        ],
        "postalCode": "N6E2C2",
        "streetName": "ERNEST",
        "streetDirectionId": null,
        "streetTypeId": "AVE",
        "placeName": "LONDON",
        "streetNameDisplayText": "ERNEST AVE, LONDON"
      }
    ]
  },
  {
    "postal": "N6E4Y2",
    "result": []
  },
  {
    "postal": "N6E9X9",
    "result": []
  },
  {
    "postal": "N6E3T0",
    "result": []
  },
  {
    "postal": "N6E4T8",
    "result": []
  },
  {
    "postal": "N6E9C4",
    "result": []
  },
  {
    "postal": "N6E8P2",
    "result": []
  },
  {
    "postal": "N6E0Y8",
    "result": []
  },
  {
    "postal": "N6E1G8",
    "result": [
      {
        "electoralDistricts": [
          {
            "election": null,
            "id": 53,
            "setId": 0,
            "name": "London—Fanshawe"
          }
        ],
        "pollDivisionIds": [
          10139582
        ],
        "postalCode": "N6E1G8",
        "streetName": "ANTRIM",
        "streetDirectionId": null,
        "streetTypeId": "CRES",
        "placeName": "LONDON",
        "streetNameDisplayText": "ANTRIM CRES, LONDON"
      }
    ]
  },
  {
    "postal": "N6E2T6",
    "result": [
      {
        "electoralDistricts": [
          {
            "election": null,
            "id": 53,
            "setId": 0,
            "name": "London—Fanshawe"
          }
        ],
        "pollDivisionIds": [
          10139580
        ],
        "postalCode": "N6E2T6",
        "streetName": "NEWBOLD",
        "streetDirectionId": null,
        "streetTypeId": "ST",
        "placeName": "LONDON",
        "streetNameDisplayText": "NEWBOLD ST, LONDON"
      }
    ]
  },
  {
    "postal": "N6E1N7",
    "result": [
      {
        "electoralDistricts": [
          {
            "election": null,
            "id": 53,
            "setId": 0,
            "name": "London—Fanshawe"
          }
        ],
        "pollDivisionIds": [
          10139582
        ],
        "postalCode": "N6E1N7",
        "streetName": "DEARNESS",
        "streetDirectionId": null,
        "streetTypeId": "DR",
        "placeName": "LONDON",
        "streetNameDisplayText": "DEARNESS DR, LONDON"
      }
    ]
  },
  {
    "postal": "N6E0L6",
    "result": []
  },
  {
    "postal": "N6E9V4",
    "result": []
  },
  {
    "postal": "N6E2V1",
    "result": [
      {
        "electoralDistricts": [
          {
            "election": null,
            "id": 26,
            "setId": 0,
            "name": "Elgin—Middlesex—London"
          }
        ],
        "pollDivisionIds": [
          10143310
        ],
        "postalCode": "N6E2V1",
        "streetName": "MEG",
        "streetDirectionId": null,
        "streetTypeId": "DR",
        "placeName": "LONDON",
        "streetNameDisplayText": "MEG DR, LONDON"
      },
      {
        "electoralDistricts": [
          {
            "election": null,
            "id": 53,
            "setId": 0,
            "name": "London—Fanshawe"
          }
        ],
        "pollDivisionIds": [
          10139580
        ],
        "postalCode": "N6E2V1",
        "streetName": "NEWBOLD",
        "streetDirectionId": null,
        "streetTypeId": "ST",
        "placeName": "LONDON",
        "streetNameDisplayText": "NEWBOLD ST, LONDON"
      }
    ]
  },
  {
    "postal": "N6E3L8",
    "result": [
      {
        "electoralDistricts": [
          {
            "election": null,
            "id": 53,
            "setId": 0,
            "name": "London—Fanshawe"
          }
        ],
        "pollDivisionIds": [
          10139589
        ],
        "postalCode": "N6E3L8",
        "streetName": "CHESWICK",
        "streetDirectionId": null,
        "streetTypeId": "CIR",
        "placeName": "LONDON",
        "streetNameDisplayText": "CHESWICK CIR, LONDON"
      }
    ]
  },
  {
    "postal": "N6E2R8",
    "result": [
      {
        "electoralDistricts": [
          {
            "election": null,
            "id": 53,
            "setId": 0,
            "name": "London—Fanshawe"
          }
        ],
        "pollDivisionIds": [
          10139582
        ],
        "postalCode": "N6E2R8",
        "streetName": "DEARNESS",
        "streetDirectionId": null,
        "streetTypeId": "DR",
        "placeName": "LONDON",
        "streetNameDisplayText": "DEARNESS DR, LONDON"
      }
    ]
  },
  {
    "postal": "N6E5C1",
    "result": []
  },
  {
    "postal": "N6E4W3",
    "result": []
  },
  {
    "postal": "N6E5X5",
    "result": []
  },
  {
    "postal": "N6E9W5",
    "result": []
  },
  {
    "postal": "N6E3C4",
    "result": [
      {
        "electoralDistricts": [
          {
            "election": null,
            "id": 53,
            "setId": 0,
            "name": "London—Fanshawe"
          }
        ],
        "pollDivisionIds": [
          10139589
        ],
        "postalCode": "N6E3C4",
        "streetName": "JALNA",
        "streetDirectionId": null,
        "streetTypeId": "BLVD",
        "placeName": "LONDON",
        "streetNameDisplayText": "JALNA BLVD, LONDON"
      }
    ]
  },
  {
    "postal": "N6E1N6",
    "result": [
      {
        "electoralDistricts": [
          {
            "election": null,
            "id": 53,
            "setId": 0,
            "name": "London—Fanshawe"
          }
        ],
        "pollDivisionIds": [
          10139582
        ],
        "postalCode": "N6E1N6",
        "streetName": "DEARNESS",
        "streetDirectionId": null,
        "streetTypeId": "DR",
        "placeName": "LONDON",
        "streetNameDisplayText": "DEARNESS DR, LONDON"
      }
    ]
  },
  {
    "postal": "N6E9S9",
    "result": []
  },
  {
    "postal": "N6E9M2",
    "result": []
  },
  {
    "postal": "N6E8Y4",
    "result": []
  },
  {
    "postal": "N6E7S4",
    "result": []
  },
  {
    "postal": "N6E0K6",
    "result": []
  },
  {
    "postal": "N6E1W3",
    "result": [
      {
        "electoralDistricts": [
          {
            "election": null,
            "id": 53,
            "setId": 0,
            "name": "London—Fanshawe"
          }
        ],
        "pollDivisionIds": [
          10139582
        ],
        "postalCode": "N6E1W3",
        "streetName": "BRADLEY",
        "streetDirectionId": null,
        "streetTypeId": "AVE",
        "placeName": "LONDON",
        "streetNameDisplayText": "BRADLEY AVE, LONDON"
      }
    ]
  },
  {
    "postal": "N6E7R2",
    "result": []
  },
  {
    "postal": "N6E2Y9",
    "result": [
      {
        "electoralDistricts": [
          {
            "election": null,
            "id": 53,
            "setId": 0,
            "name": "London—Fanshawe"
          }
        ],
        "pollDivisionIds": [
          10139589
        ],
        "postalCode": "N6E2Y9",
        "streetName": "CONWAY",
        "streetDirectionId": null,
        "streetTypeId": "DR",
        "placeName": "LONDON",
        "streetNameDisplayText": "CONWAY DR, LONDON"
      }
    ]
  },
  {
    "postal": "N6E7G4",
    "result": []
  },
  {
    "postal": "N6E7E5",
    "result": []
  },
  {
    "postal": "N6E9G2",
    "result": []
  },
  {
    "postal": "N6E7Y8",
    "result": []
  },
  {
    "postal": "N6E9V2",
    "result": []
  },
  {
    "postal": "N6E3T7",
    "result": [
      {
        "electoralDistricts": [
          {
            "election": null,
            "id": 26,
            "setId": 0,
            "name": "Elgin—Middlesex—London"
          }
        ],
        "pollDivisionIds": [
          10143310
        ],
        "postalCode": "N6E3T7",
        "streetName": "MEG",
        "streetDirectionId": null,
        "streetTypeId": "DR",
        "placeName": "LONDON",
        "streetNameDisplayText": "MEG DR, LONDON"
      }
    ]
  },
  {
    "postal": "N6E1H0",
    "result": []
  },
  {
    "postal": "N6E1M7",
    "result": [
      {
        "electoralDistricts": [
          {
            "election": null,
            "id": 53,
            "setId": 0,
            "name": "London—Fanshawe"
          }
        ],
        "pollDivisionIds": [
          10139580
        ],
        "postalCode": "N6E1M7",
        "streetName": "GREENFIELD",
        "streetDirectionId": null,
        "streetTypeId": "DR",
        "placeName": "LONDON",
        "streetNameDisplayText": "GREENFIELD DR, LONDON"
      }
    ]
  },
  {
    "postal": "N6E8V4",
    "result": []
  },
  {
    "postal": "N6E4M2",
    "result": []
  },
  {
    "postal": "N6E0X2",
    "result": []
  },
  {
    "postal": "N6E5Z4",
    "result": []
  },
  {
    "postal": "N6E6V4",
    "result": []
  },
  {
    "postal": "N6E8J3",
    "result": []
  },
  {
    "postal": "N6E8E5",
    "result": []
  },
  {
    "postal": "N6E2V5",
    "result": [
      {
        "electoralDistricts": [
          {
            "election": null,
            "id": 53,
            "setId": 0,
            "name": "London—Fanshawe"
          }
        ],
        "pollDivisionIds": [
          10139588
        ],
        "postalCode": "N6E2V5",
        "streetName": "ERNEST",
        "streetDirectionId": null,
        "streetTypeId": "AVE",
        "placeName": "LONDON",
        "streetNameDisplayText": "ERNEST AVE, LONDON"
      }
    ]
  },
  {
    "postal": "N6E7S1",
    "result": []
  },
  {
    "postal": "N6E6V3",
    "result": []
  },
  {
    "postal": "N6E2L8",
    "result": [
      {
        "electoralDistricts": [
          {
            "election": null,
            "id": 53,
            "setId": 0,
            "name": "London—Fanshawe"
          }
        ],
        "pollDivisionIds": [
          10139582
        ],
        "postalCode": "N6E2L8",
        "streetName": "DUNELM",
        "streetDirectionId": null,
        "streetTypeId": "LANE",
        "placeName": "LONDON",
        "streetNameDisplayText": "DUNELM LANE, LONDON"
      }
    ]
  },
  {
    "postal": "N6E9V0",
    "result": []
  },
  {
    "postal": "N6E3M4",
    "result": [
      {
        "electoralDistricts": [
          {
            "election": null,
            "id": 53,
            "setId": 0,
            "name": "London—Fanshawe"
          }
        ],
        "pollDivisionIds": [
          10139589
        ],
        "postalCode": "N6E3M4",
        "streetName": "CONWAY",
        "streetDirectionId": null,
        "streetTypeId": "DR",
        "placeName": "LONDON",
        "streetNameDisplayText": "CONWAY DR, LONDON"
      }
    ]
  },
  {
    "postal": "N6E5B2",
    "result": []
  },
  {
    "postal": "N6E3X5",
    "result": [
      {
        "electoralDistricts": [
          {
            "election": null,
            "id": 26,
            "setId": 0,
            "name": "Elgin—Middlesex—London"
          }
        ],
        "pollDivisionIds": [
          10137962
        ],
        "postalCode": "N6E3X5",
        "streetName": "SHAVER",
        "streetDirectionId": null,
        "streetTypeId": "ST",
        "placeName": "LONDON",
        "streetNameDisplayText": "SHAVER ST, LONDON"
      }
    ]
  },
  {
    "postal": "N6E9R7",
    "result": []
  },
  {
    "postal": "N6E2X2",
    "result": [
      {
        "electoralDistricts": [
          {
            "election": null,
            "id": 53,
            "setId": 0,
            "name": "London—Fanshawe"
          }
        ],
        "pollDivisionIds": [
          10139589
        ],
        "postalCode": "N6E2X2",
        "streetName": "CONWAY",
        "streetDirectionId": null,
        "streetTypeId": "DR",
        "placeName": "LONDON",
        "streetNameDisplayText": "CONWAY DR, LONDON"
      }
    ]
  },
  {
    "postal": "N6E8Z6",
    "result": []
  },
  {
    "postal": "N6E4R4",
    "result": []
  },
  {
    "postal": "N6E2R1",
    "result": [
      {
        "electoralDistricts": [
          {
            "election": null,
            "id": 53,
            "setId": 0,
            "name": "London—Fanshawe"
          }
        ],
        "pollDivisionIds": [
          10139588
        ],
        "postalCode": "N6E2R1",
        "streetName": "ERNEST",
        "streetDirectionId": null,
        "streetTypeId": "AVE",
        "placeName": "LONDON",
        "streetNameDisplayText": "ERNEST AVE, LONDON"
      }
    ]
  },
  {
    "postal": "N6E3R8",
    "result": [
      {
        "electoralDistricts": [
          {
            "election": null,
            "id": 53,
            "setId": 0,
            "name": "London—Fanshawe"
          }
        ],
        "pollDivisionIds": [
          10139587
        ],
        "postalCode": "N6E3R8",
        "streetName": "ASHLEY",
        "streetDirectionId": null,
        "streetTypeId": "CRES",
        "placeName": "LONDON",
        "streetNameDisplayText": "ASHLEY CRES, LONDON"
      }
    ]
  },
  {
    "postal": "N6E9A1",
    "result": []
  },
  {
    "postal": "N6E8L3",
    "result": []
  },
  {
    "postal": "N6E9K4",
    "result": []
  },
  {
    "postal": "N6E9S3",
    "result": []
  },
  {
    "postal": "N6E8N7",
    "result": []
  },
  {
    "postal": "N6E1C6",
    "result": [
      {
        "electoralDistricts": [
          {
            "election": null,
            "id": 53,
            "setId": 0,
            "name": "London—Fanshawe"
          }
        ],
        "pollDivisionIds": [
          10139582
        ],
        "postalCode": "N6E1C6",
        "streetName": "OSGOODE",
        "streetDirectionId": null,
        "streetTypeId": "DR",
        "placeName": "LONDON",
        "streetNameDisplayText": "OSGOODE DR, LONDON"
      }
    ]
  },
  {
    "postal": "N6E3Z8",
    "result": [
      {
        "electoralDistricts": [
          {
            "election": null,
            "id": 53,
            "setId": 0,
            "name": "London—Fanshawe"
          }
        ],
        "pollDivisionIds": [
          10139580
        ],
        "postalCode": "N6E3Z8",
        "streetName": "BRADLEY",
        "streetDirectionId": null,
        "streetTypeId": "AVE",
        "placeName": "LONDON",
        "streetNameDisplayText": "BRADLEY AVE, LONDON"
      }
    ]
  },
  {
    "postal": "N6E8G5",
    "result": []
  },
  {
    "postal": "N6E5R6",
    "result": []
  },
  {
    "postal": "N6E2W3",
    "result": [
      {
        "electoralDistricts": [
          {
            "election": null,
            "id": 53,
            "setId": 0,
            "name": "London—Fanshawe"
          }
        ],
        "pollDivisionIds": [
          10139588
        ],
        "postalCode": "N6E2W3",
        "streetName": "ERNEST",
        "streetDirectionId": null,
        "streetTypeId": "AVE",
        "placeName": "LONDON",
        "streetNameDisplayText": "ERNEST AVE, LONDON"
      }
    ]
  },
  {
    "postal": "N6E0A0",
    "result": []
  },
  {
    "postal": "N6E6P8",
    "result": []
  },
  {
    "postal": "N6E8N9",
    "result": []
  },
  {
    "postal": "N6E0S9",
    "result": []
  },
  {
    "postal": "N6E8G0",
    "result": []
  },
  {
    "postal": "N6E8C7",
    "result": []
  },
  {
    "postal": "N6E5X8",
    "result": []
  },
  {
    "postal": "N6E7E8",
    "result": []
  },
  {
    "postal": "N6E6X2",
    "result": []
  },
  {
    "postal": "N6E4C6",
    "result": []
  },
  {
    "postal": "N6E7H2",
    "result": []
  },
  {
    "postal": "N6E4R0",
    "result": []
  },
  {
    "postal": "N6E6J3",
    "result": []
  },
  {
    "postal": "N6E4B8",
    "result": []
  },
  {
    "postal": "N6E6H6",
    "result": []
  },
  {
    "postal": "N6E0S1",
    "result": []
  },
  {
    "postal": "N6E4E3",
    "result": []
  },
  {
    "postal": "N6E7K2",
    "result": []
  },
  {
    "postal": "N6E7T8",
    "result": []
  },
  {
    "postal": "N6E0J9",
    "result": []
  },
  {
    "postal": "N6E5J9",
    "result": []
  },
  {
    "postal": "N6E5S7",
    "result": []
  },
  {
    "postal": "N6E0G9",
    "result": []
  },
  {
    "postal": "N6E3J9",
    "result": [
      {
        "electoralDistricts": [
          {
            "election": null,
            "id": 53,
            "setId": 0,
            "name": "London—Fanshawe"
          }
        ],
        "pollDivisionIds": [
          10139589
        ],
        "postalCode": "N6E3J9",
        "streetName": "CONWAY",
        "streetDirectionId": null,
        "streetTypeId": "DR",
        "placeName": "LONDON",
        "streetNameDisplayText": "CONWAY DR, LONDON"
      },
      {
        "electoralDistricts": [
          {
            "election": null,
            "id": 53,
            "setId": 0,
            "name": "London—Fanshawe"
          }
        ],
        "pollDivisionIds": [
          10139589
        ],
        "postalCode": "N6E3J9",
        "streetName": "CONWAY",
        "streetDirectionId": null,
        "streetTypeId": "LANE",
        "placeName": "LONDON",
        "streetNameDisplayText": "CONWAY LANE, LONDON"
      }
    ]
  },
  {
    "postal": "N6E2Y0",
    "result": []
  },
  {
    "postal": "N6E8X5",
    "result": []
  },
  {
    "postal": "N6E2M7",
    "result": [
      {
        "electoralDistricts": [
          {
            "election": null,
            "id": 53,
            "setId": 0,
            "name": "London—Fanshawe"
          }
        ],
        "pollDivisionIds": [
          10139588
        ],
        "postalCode": "N6E2M7",
        "streetName": "ROSAMOND",
        "streetDirectionId": null,
        "streetTypeId": "CRES",
        "placeName": "LONDON",
        "streetNameDisplayText": "ROSAMOND CRES, LONDON"
      }
    ]
  },
  {
    "postal": "N6E9Z3",
    "result": []
  },
  {
    "postal": "N6E7W2",
    "result": []
  },
  {
    "postal": "N6E3W0",
    "result": []
  },
  {
    "postal": "N6E3M1",
    "result": [
      {
        "electoralDistricts": [
          {
            "election": null,
            "id": 53,
            "setId": 0,
            "name": "London—Fanshawe"
          }
        ],
        "pollDivisionIds": [
          10139589
        ],
        "postalCode": "N6E3M1",
        "streetName": "SARAH",
        "streetDirectionId": null,
        "streetTypeId": "CRES",
        "placeName": "LONDON",
        "streetNameDisplayText": "SARAH CRES, LONDON"
      }
    ]
  },
  {
    "postal": "N6E6A5",
    "result": []
  },
  {
    "postal": "N6E2M9",
    "result": [
      {
        "electoralDistricts": [
          {
            "election": null,
            "id": 53,
            "setId": 0,
            "name": "London—Fanshawe"
          }
        ],
        "pollDivisionIds": [
          10139588
        ],
        "postalCode": "N6E2M9",
        "streetName": "ROSAMOND",
        "streetDirectionId": null,
        "streetTypeId": "CRES",
        "placeName": "LONDON",
        "streetNameDisplayText": "ROSAMOND CRES, LONDON"
      }
    ]
  },
  {
    "postal": "N6E5C3",
    "result": []
  },
  {
    "postal": "N6E0Y6",
    "result": []
  },
  {
    "postal": "N6E9H7",
    "result": []
  },
  {
    "postal": "N6E3L0",
    "result": []
  },
  {
    "postal": "N6E5N9",
    "result": []
  },
  {
    "postal": "N6E5E3",
    "result": []
  },
  {
    "postal": "N6E7M9",
    "result": []
  },
  {
    "postal": "N6E8N2",
    "result": []
  },
  {
    "postal": "N6E9H3",
    "result": []
  },
  {
    "postal": "N6E2K8",
    "result": [
      {
        "electoralDistricts": [
          {
            "election": null,
            "id": 53,
            "setId": 0,
            "name": "London—Fanshawe"
          }
        ],
        "pollDivisionIds": [
          10139588
        ],
        "postalCode": "N6E2K8",
        "streetName": "PATIENCE",
        "streetDirectionId": null,
        "streetTypeId": "CRES",
        "placeName": "LONDON",
        "streetNameDisplayText": "PATIENCE CRES, LONDON"
      }
    ]
  },
  {
    "postal": "N6E9L0",
    "result": []
  },
  {
    "postal": "N6E6L9",
    "result": []
  },
  {
    "postal": "N6E6A8",
    "result": []
  },
  {
    "postal": "N6E2K6",
    "result": [
      {
        "electoralDistricts": [
          {
            "election": null,
            "id": 53,
            "setId": 0,
            "name": "London—Fanshawe"
          }
        ],
        "pollDivisionIds": [
          10139588
        ],
        "postalCode": "N6E2K6",
        "streetName": "MURIEL",
        "streetDirectionId": null,
        "streetTypeId": "CRES",
        "placeName": "LONDON",
        "streetNameDisplayText": "MURIEL CRES, LONDON"
      }
    ]
  },
  {
    "postal": "N6E2M0",
    "result": []
  },
  {
    "postal": "N6E5X7",
    "result": []
  },
  {
    "postal": "N6E0M7",
    "result": []
  },
  {
    "postal": "N6E7A6",
    "result": []
  },
  {
    "postal": "N6E3C5",
    "result": [
      {
        "electoralDistricts": [
          {
            "election": null,
            "id": 53,
            "setId": 0,
            "name": "London—Fanshawe"
          }
        ],
        "pollDivisionIds": [
          10139589
        ],
        "postalCode": "N6E3C5",
        "streetName": "JALNA",
        "streetDirectionId": null,
        "streetTypeId": "BLVD",
        "placeName": "LONDON",
        "streetNameDisplayText": "JALNA BLVD, LONDON"
      }
    ]
  },
  {
    "postal": "N6E2P2",
    "result": [
      {
        "electoralDistricts": [
          {
            "election": null,
            "id": 53,
            "setId": 0,
            "name": "London—Fanshawe"
          }
        ],
        "pollDivisionIds": [
          10139583
        ],
        "postalCode": "N6E2P2",
        "streetName": "BEECHBANK",
        "streetDirectionId": null,
        "streetTypeId": "CRES",
        "placeName": "LONDON",
        "streetNameDisplayText": "BEECHBANK CRES, LONDON"
      }
    ]
  },
  {
    "postal": "N6E9N4",
    "result": []
  },
  {
    "postal": "N6E3M9",
    "result": [
      {
        "electoralDistricts": [
          {
            "election": null,
            "id": 53,
            "setId": 0,
            "name": "London—Fanshawe"
          }
        ],
        "pollDivisionIds": [
          10139589
        ],
        "postalCode": "N6E3M9",
        "streetName": "CONWAY",
        "streetDirectionId": null,
        "streetTypeId": "DR",
        "placeName": "LONDON",
        "streetNameDisplayText": "CONWAY DR, LONDON"
      }
    ]
  },
  {
    "postal": "N6E8K6",
    "result": []
  },
  {
    "postal": "N6E1L2",
    "result": [
      {
        "electoralDistricts": [
          {
            "election": null,
            "id": 53,
            "setId": 0,
            "name": "London—Fanshawe"
          },
          {
            "election": null,
            "id": 26,
            "setId": 0,
            "name": "Elgin—Middlesex—London"
          }
        ],
        "pollDivisionIds": [
          10139580,
          10143310
        ],
        "postalCode": "N6E1L2",
        "streetName": "EXETER",
        "streetDirectionId": null,
        "streetTypeId": "RD",
        "placeName": "LONDON",
        "streetNameDisplayText": "EXETER RD, LONDON"
      }
    ]
  },
  {
    "postal": "N6E2Z9",
    "result": [
      {
        "electoralDistricts": [
          {
            "election": null,
            "id": 53,
            "setId": 0,
            "name": "London—Fanshawe"
          }
        ],
        "pollDivisionIds": [
          10139589
        ],
        "postalCode": "N6E2Z9",
        "streetName": "WHITE OAK",
        "streetDirectionId": null,
        "streetTypeId": "RD",
        "placeName": "LONDON",
        "streetNameDisplayText": "WHITE OAK RD, LONDON"
      }
    ]
  },
  {
    "postal": "N6E2S2",
    "result": [
      {
        "electoralDistricts": [
          {
            "election": null,
            "id": 53,
            "setId": 0,
            "name": "London—Fanshawe"
          }
        ],
        "pollDivisionIds": [
          10139588
        ],
        "postalCode": "N6E2S2",
        "streetName": "JALNA",
        "streetDirectionId": null,
        "streetTypeId": "BLVD",
        "placeName": "LONDON",
        "streetNameDisplayText": "JALNA BLVD, LONDON"
      }
    ]
  },
  {
    "postal": "N6E2W2",
    "result": [
      {
        "electoralDistricts": [
          {
            "election": null,
            "id": 53,
            "setId": 0,
            "name": "London—Fanshawe"
          }
        ],
        "pollDivisionIds": [
          10139578
        ],
        "postalCode": "N6E2W2",
        "streetName": "ADSWOOD",
        "streetDirectionId": null,
        "streetTypeId": "RD",
        "placeName": "LONDON",
        "streetNameDisplayText": "ADSWOOD RD, LONDON"
      }
    ]
  },
  {
    "postal": "N6E2C3",
    "result": [
      {
        "electoralDistricts": [
          {
            "election": null,
            "id": 53,
            "setId": 0,
            "name": "London—Fanshawe"
          }
        ],
        "pollDivisionIds": [
          10139580
        ],
        "postalCode": "N6E2C3",
        "streetName": "JALNA",
        "streetDirectionId": null,
        "streetTypeId": "BLVD",
        "placeName": "LONDON",
        "streetNameDisplayText": "JALNA BLVD, LONDON"
      }
    ]
  },
  {
    "postal": "N6E6L7",
    "result": []
  },
  {
    "postal": "N6E3K0",
    "result": []
  },
  {
    "postal": "N6E3C1",
    "result": [
      {
        "electoralDistricts": [
          {
            "election": null,
            "id": 53,
            "setId": 0,
            "name": "London—Fanshawe"
          }
        ],
        "pollDivisionIds": [
          10139589
        ],
        "postalCode": "N6E3C1",
        "streetName": "JALNA",
        "streetDirectionId": null,
        "streetTypeId": "BLVD",
        "placeName": "LONDON",
        "streetNameDisplayText": "JALNA BLVD, LONDON"
      }
    ]
  },
  {
    "postal": "N6E6M9",
    "result": []
  },
  {
    "postal": "N6E4N9",
    "result": []
  },
  {
    "postal": "N6E3Y7",
    "result": [
      {
        "electoralDistricts": [
          {
            "election": null,
            "id": 26,
            "setId": 0,
            "name": "Elgin—Middlesex—London"
          }
        ],
        "pollDivisionIds": [
          10143310
        ],
        "postalCode": "N6E3Y7",
        "streetName": "WHITE OAK",
        "streetDirectionId": null,
        "streetTypeId": "RD",
        "placeName": "LONDON",
        "streetNameDisplayText": "WHITE OAK RD, LONDON"
      }
    ]
  },
  {
    "postal": "N6E2A9",
    "result": [
      {
        "electoralDistricts": [
          {
            "election": null,
            "id": 53,
            "setId": 0,
            "name": "London—Fanshawe"
          }
        ],
        "pollDivisionIds": [
          10139580
        ],
        "postalCode": "N6E2A9",
        "streetName": "JALNA",
        "streetDirectionId": null,
        "streetTypeId": "BLVD",
        "placeName": "LONDON",
        "streetNameDisplayText": "JALNA BLVD, LONDON"
      }
    ]
  },
  {
    "postal": "N6E6H5",
    "result": []
  },
  {
    "postal": "N6E8B4",
    "result": []
  },
  {
    "postal": "N6E4Z2",
    "result": []
  },
  {
    "postal": "N6E9J0",
    "result": []
  },
  {
    "postal": "N6E7V7",
    "result": []
  },
  {
    "postal": "N6E5T5",
    "result": []
  },
  {
    "postal": "N6E4W5",
    "result": []
  },
  {
    "postal": "N6E1T8",
    "result": [
      {
        "electoralDistricts": [
          {
            "election": null,
            "id": 53,
            "setId": 0,
            "name": "London—Fanshawe"
          }
        ],
        "pollDivisionIds": [
          10139581
        ],
        "postalCode": "N6E1T8",
        "streetName": "SURREY",
        "streetDirectionId": null,
        "streetTypeId": "CRES",
        "placeName": "LONDON",
        "streetNameDisplayText": "SURREY CRES, LONDON"
      }
    ]
  },
  {
    "postal": "N6E9G6",
    "result": []
  },
  {
    "postal": "N6E1H3",
    "result": [
      {
        "electoralDistricts": [
          {
            "election": null,
            "id": 53,
            "setId": 0,
            "name": "London—Fanshawe"
          }
        ],
        "pollDivisionIds": [
          10139582
        ],
        "postalCode": "N6E1H3",
        "streetName": "MASSON",
        "streetDirectionId": null,
        "streetTypeId": "CRT",
        "placeName": "LONDON",
        "streetNameDisplayText": "MASSON CRT, LONDON"
      }
    ]
  },
  {
    "postal": "N6E5R5",
    "result": []
  },
  {
    "postal": "N6E8A4",
    "result": []
  },
  {
    "postal": "N6E3T6",
    "result": [
      {
        "electoralDistricts": [
          {
            "election": null,
            "id": 26,
            "setId": 0,
            "name": "Elgin—Middlesex—London"
          }
        ],
        "pollDivisionIds": [
          10143310
        ],
        "postalCode": "N6E3T6",
        "streetName": "MEG",
        "streetDirectionId": null,
        "streetTypeId": "DR",
        "placeName": "LONDON",
        "streetNameDisplayText": "MEG DR, LONDON"
      }
    ]
  },
  {
    "postal": "N6E9W8",
    "result": []
  },
  {
    "postal": "N6E0N3",
    "result": []
  },
  {
    "postal": "N6E7V0",
    "result": []
  },
  {
    "postal": "N6E8T5",
    "result": []
  },
  {
    "postal": "N6E5N3",
    "result": []
  },
  {
    "postal": "N6E5G9",
    "result": []
  },
  {
    "postal": "N6E3X8",
    "result": [
      {
        "electoralDistricts": [
          {
            "election": null,
            "id": 26,
            "setId": 0,
            "name": "Elgin—Middlesex—London"
          }
        ],
        "pollDivisionIds": [
          10137962
        ],
        "postalCode": "N6E3X8",
        "streetName": "WELLINGTON",
        "streetDirectionId": "S",
        "streetTypeId": "RD",
        "placeName": "LONDON",
        "streetNameDisplayText": "WELLINGTON RD S, LONDON"
      }
    ]
  },
  {
    "postal": "N6E9R3",
    "result": []
  },
  {
    "postal": "N6E2S1",
    "result": [
      {
        "electoralDistricts": [
          {
            "election": null,
            "id": 53,
            "setId": 0,
            "name": "London—Fanshawe"
          }
        ],
        "pollDivisionIds": [
          10139588
        ],
        "postalCode": "N6E2S1",
        "streetName": "JALNA",
        "streetDirectionId": null,
        "streetTypeId": "BLVD",
        "placeName": "LONDON",
        "streetNameDisplayText": "JALNA BLVD, LONDON"
      }
    ]
  },
  {
    "postal": "N6E9J7",
    "result": []
  },
  {
    "postal": "N6E2J3",
    "result": [
      {
        "electoralDistricts": [
          {
            "election": null,
            "id": 53,
            "setId": 0,
            "name": "London—Fanshawe"
          }
        ],
        "pollDivisionIds": [
          10139583
        ],
        "postalCode": "N6E2J3",
        "streetName": "BEECHMOUNT",
        "streetDirectionId": null,
        "streetTypeId": "CRES",
        "placeName": "LONDON",
        "streetNameDisplayText": "BEECHMOUNT CRES, LONDON"
      }
    ]
  },
  {
    "postal": "N6E3B6",
    "result": []
  },
  {
    "postal": "N6E8J0",
    "result": []
  },
  {
    "postal": "N6E7R4",
    "result": []
  },
  {
    "postal": "N6E8K8",
    "result": []
  },
  {
    "postal": "N6E4P3",
    "result": []
  },
  {
    "postal": "N6E0A2",
    "result": [
      {
        "electoralDistricts": [
          {
            "election": null,
            "id": 53,
            "setId": 0,
            "name": "London—Fanshawe"
          }
        ],
        "pollDivisionIds": [
          10139580
        ],
        "postalCode": "N6E0A2",
        "streetName": "BESSEMER",
        "streetDirectionId": null,
        "streetTypeId": "RD",
        "placeName": "LONDON",
        "streetNameDisplayText": "BESSEMER RD, LONDON"
      }
    ]
  },
  {
    "postal": "N6E2G2",
    "result": [
      {
        "electoralDistricts": [
          {
            "election": null,
            "id": 53,
            "setId": 0,
            "name": "London—Fanshawe"
          }
        ],
        "pollDivisionIds": [
          10139581
        ],
        "postalCode": "N6E2G2",
        "streetName": "OSGOODE",
        "streetDirectionId": null,
        "streetTypeId": "DR",
        "placeName": "LONDON",
        "streetNameDisplayText": "OSGOODE DR, LONDON"
      }
    ]
  },
  {
    "postal": "N6E5Y9",
    "result": []
  },
  {
    "postal": "N6E7X0",
    "result": []
  },
  {
    "postal": "N6E7W3",
    "result": []
  },
  {
    "postal": "N6E7X5",
    "result": []
  },
  {
    "postal": "N6E5K6",
    "result": []
  },
  {
    "postal": "N6E5B6",
    "result": []
  },
  {
    "postal": "N6E7Z0",
    "result": []
  },
  {
    "postal": "N6E9H6",
    "result": []
  },
  {
    "postal": "N6E1B4",
    "result": [
      {
        "electoralDistricts": [
          {
            "election": null,
            "id": 53,
            "setId": 0,
            "name": "London—Fanshawe"
          }
        ],
        "pollDivisionIds": [
          10139578,
          66006
        ],
        "postalCode": "N6E1B4",
        "streetName": "SOUTHDALE",
        "streetDirectionId": "E",
        "streetTypeId": "RD",
        "placeName": "LONDON",
        "streetNameDisplayText": "SOUTHDALE RD E, LONDON"
      }
    ]
  },
  {
    "postal": "N6E1A0",
    "result": []
  },
  {
    "postal": "N6E9A0",
    "result": []
  },
  {
    "postal": "N6E1M6",
    "result": [
      {
        "electoralDistricts": [
          {
            "election": null,
            "id": 53,
            "setId": 0,
            "name": "London—Fanshawe"
          }
        ],
        "pollDivisionIds": [
          10139580
        ],
        "postalCode": "N6E1M6",
        "streetName": "GREENFIELD",
        "streetDirectionId": null,
        "streetTypeId": "DR",
        "placeName": "LONDON",
        "streetNameDisplayText": "GREENFIELD DR, LONDON"
      }
    ]
  },
  {
    "postal": "N6E5H0",
    "result": []
  },
  {
    "postal": "N6E1K6",
    "result": [
      {
        "electoralDistricts": [
          {
            "election": null,
            "id": 53,
            "setId": 0,
            "name": "London—Fanshawe"
          }
        ],
        "pollDivisionIds": [
          10139580
        ],
        "postalCode": "N6E1K6",
        "streetName": "NEWBOLD",
        "streetDirectionId": null,
        "streetTypeId": "ST",
        "placeName": "LONDON",
        "streetNameDisplayText": "NEWBOLD ST, LONDON"
      }
    ]
  },
  {
    "postal": "N6E5E1",
    "result": []
  },
  {
    "postal": "N6E3T9",
    "result": [
      {
        "electoralDistricts": [
          {
            "election": null,
            "id": 53,
            "setId": 0,
            "name": "London—Fanshawe"
          }
        ],
        "pollDivisionIds": [
          10139582
        ],
        "postalCode": "N6E3T9",
        "streetName": "ADELAIDE",
        "streetDirectionId": "S",
        "streetTypeId": "ST",
        "placeName": "LONDON",
        "streetNameDisplayText": "ADELAIDE ST S, LONDON"
      }
    ]
  },
  {
    "postal": "N6E2M6",
    "result": [
      {
        "electoralDistricts": [
          {
            "election": null,
            "id": 53,
            "setId": 0,
            "name": "London—Fanshawe"
          }
        ],
        "pollDivisionIds": [
          10139588
        ],
        "postalCode": "N6E2M6",
        "streetName": "ROSAMOND",
        "streetDirectionId": null,
        "streetTypeId": "CRES",
        "placeName": "LONDON",
        "streetNameDisplayText": "ROSAMOND CRES, LONDON"
      }
    ]
  },
  {
    "postal": "N6E0G5",
    "result": []
  },
  {
    "postal": "N6E0Y2",
    "result": []
  },
  {
    "postal": "N6E2Y7",
    "result": [
      {
        "electoralDistricts": [
          {
            "election": null,
            "id": 53,
            "setId": 0,
            "name": "London—Fanshawe"
          }
        ],
        "pollDivisionIds": [
          10139583
        ],
        "postalCode": "N6E2Y7",
        "streetName": "JALNA",
        "streetDirectionId": null,
        "streetTypeId": "BLVD",
        "placeName": "LONDON",
        "streetNameDisplayText": "JALNA BLVD, LONDON"
      }
    ]
  },
  {
    "postal": "N6E2J7",
    "result": [
      {
        "electoralDistricts": [
          {
            "election": null,
            "id": 53,
            "setId": 0,
            "name": "London—Fanshawe"
          }
        ],
        "pollDivisionIds": [
          10139588
        ],
        "postalCode": "N6E2J7",
        "streetName": "ERNEST",
        "streetDirectionId": null,
        "streetTypeId": "AVE",
        "placeName": "LONDON",
        "streetNameDisplayText": "ERNEST AVE, LONDON"
      }
    ]
  },
  {
    "postal": "N6E4K7",
    "result": []
  },
  {
    "postal": "N6E7P9",
    "result": []
  },
  {
    "postal": "N6E8X0",
    "result": []
  },
  {
    "postal": "N6E3X1",
    "result": [
      {
        "electoralDistricts": [
          {
            "election": null,
            "id": 26,
            "setId": 0,
            "name": "Elgin—Middlesex—London"
          }
        ],
        "pollDivisionIds": [
          10143310
        ],
        "postalCode": "N6E3X1",
        "streetName": "DINGMAN",
        "streetDirectionId": null,
        "streetTypeId": "DR",
        "placeName": "LONDON",
        "streetNameDisplayText": "DINGMAN DR, LONDON"
      }
    ]
  },
  {
    "postal": "N6E1R5",
    "result": [
      {
        "electoralDistricts": [
          {
            "election": null,
            "id": 53,
            "setId": 0,
            "name": "London—Fanshawe"
          }
        ],
        "pollDivisionIds": [
          10139580
        ],
        "postalCode": "N6E1R5",
        "streetName": "ADELAIDE",
        "streetDirectionId": "S",
        "streetTypeId": "ST",
        "placeName": "LONDON",
        "streetNameDisplayText": "ADELAIDE ST S, LONDON"
      }
    ]
  },
  {
    "postal": "N6E6X6",
    "result": []
  },
  {
    "postal": "N6E0Y1",
    "result": []
  },
  {
    "postal": "N6E8G1",
    "result": []
  },
  {
    "postal": "N6E3J3",
    "result": [
      {
        "electoralDistricts": [
          {
            "election": null,
            "id": 53,
            "setId": 0,
            "name": "London—Fanshawe"
          }
        ],
        "pollDivisionIds": [
          10139589
        ],
        "postalCode": "N6E3J3",
        "streetName": "CONWAY",
        "streetDirectionId": null,
        "streetTypeId": "CRT",
        "placeName": "LONDON",
        "streetNameDisplayText": "CONWAY CRT, LONDON"
      },
      {
        "electoralDistricts": [
          {
            "election": null,
            "id": 53,
            "setId": 0,
            "name": "London—Fanshawe"
          }
        ],
        "pollDivisionIds": [
          10139589
        ],
        "postalCode": "N6E3J3",
        "streetName": "CONWAY",
        "streetDirectionId": null,
        "streetTypeId": "DR",
        "placeName": "LONDON",
        "streetNameDisplayText": "CONWAY DR, LONDON"
      }
    ]
  },
  {
    "postal": "N6E8C2",
    "result": []
  },
  {
    "postal": "N6E4X9",
    "result": []
  },
  {
    "postal": "N6E6G9",
    "result": []
  },
  {
    "postal": "N6E4M3",
    "result": []
  },
  {
    "postal": "N6E9P7",
    "result": []
  },
  {
    "postal": "N6E4E5",
    "result": []
  },
  {
    "postal": "N6E5K9",
    "result": []
  },
  {
    "postal": "N6E2V2",
    "result": [
      {
        "electoralDistricts": [
          {
            "election": null,
            "id": 26,
            "setId": 0,
            "name": "Elgin—Middlesex—London"
          }
        ],
        "pollDivisionIds": [
          10143310
        ],
        "postalCode": "N6E2V2",
        "streetName": "MEG",
        "streetDirectionId": null,
        "streetTypeId": "DR",
        "placeName": "LONDON",
        "streetNameDisplayText": "MEG DR, LONDON"
      }
    ]
  },
  {
    "postal": "N6E2N9",
    "result": [
      {
        "electoralDistricts": [
          {
            "election": null,
            "id": 53,
            "setId": 0,
            "name": "London—Fanshawe"
          }
        ],
        "pollDivisionIds": [
          10139583
        ],
        "postalCode": "N6E2N9",
        "streetName": "BEECHBANK",
        "streetDirectionId": null,
        "streetTypeId": "CRES",
        "placeName": "LONDON",
        "streetNameDisplayText": "BEECHBANK CRES, LONDON"
      }
    ]
  },
  {
    "postal": "N6E6L4",
    "result": []
  },
  {
    "postal": "N6E8E0",
    "result": []
  },
  {
    "postal": "N6E0N0",
    "result": []
  },
  {
    "postal": "N6E6R0",
    "result": []
  },
  {
    "postal": "N6E9C1",
    "result": []
  },
  {
    "postal": "N6E4H4",
    "result": []
  },
  {
    "postal": "N6E5W3",
    "result": []
  },
  {
    "postal": "N6E9N9",
    "result": []
  },
  {
    "postal": "N6E1V7",
    "result": [
      {
        "electoralDistricts": [
          {
            "election": null,
            "id": 53,
            "setId": 0,
            "name": "London—Fanshawe"
          }
        ],
        "pollDivisionIds": [
          10139581
        ],
        "postalCode": "N6E1V7",
        "streetName": "SOUTHDALE",
        "streetDirectionId": "E",
        "streetTypeId": "RD",
        "placeName": "LONDON",
        "streetNameDisplayText": "SOUTHDALE RD E, LONDON"
      }
    ]
  },
  {
    "postal": "N6E8J1",
    "result": []
  },
  {
    "postal": "N6E5V9",
    "result": []
  },
  {
    "postal": "N6E2S8",
    "result": [
      {
        "electoralDistricts": [
          {
            "election": null,
            "id": 53,
            "setId": 0,
            "name": "London—Fanshawe"
          }
        ],
        "pollDivisionIds": [
          10139580
        ],
        "postalCode": "N6E2S8",
        "streetName": "CONSORTIUM",
        "streetDirectionId": null,
        "streetTypeId": "CRT",
        "placeName": "LONDON",
        "streetNameDisplayText": "CONSORTIUM CRT, LONDON"
      }
    ]
  },
  {
    "postal": "N6E6P0",
    "result": []
  },
  {
    "postal": "N6E4J8",
    "result": []
  },
  {
    "postal": "N6E0N1",
    "result": []
  },
  {
    "postal": "N6E1Y7",
    "result": [
      {
        "electoralDistricts": [
          {
            "election": null,
            "id": 53,
            "setId": 0,
            "name": "London—Fanshawe"
          }
        ],
        "pollDivisionIds": [
          10139581
        ],
        "postalCode": "N6E1Y7",
        "streetName": "MILLBANK",
        "streetDirectionId": null,
        "streetTypeId": "DR",
        "placeName": "LONDON",
        "streetNameDisplayText": "MILLBANK DR, LONDON"
      }
    ]
  },
  {
    "postal": "N6E7W5",
    "result": []
  },
  {
    "postal": "N6E3Z1",
    "result": [
      {
        "electoralDistricts": [
          {
            "election": null,
            "id": 26,
            "setId": 0,
            "name": "Elgin—Middlesex—London"
          }
        ],
        "pollDivisionIds": [
          10143310
        ],
        "postalCode": "N6E3Z1",
        "streetName": "WHITE OAK",
        "streetDirectionId": null,
        "streetTypeId": "RD",
        "placeName": "LONDON",
        "streetNameDisplayText": "WHITE OAK RD, LONDON"
      }
    ]
  },
  {
    "postal": "N6E7M6",
    "result": []
  },
  {
    "postal": "N6E1W7",
    "result": [
      {
        "electoralDistricts": [
          {
            "election": null,
            "id": 53,
            "setId": 0,
            "name": "London—Fanshawe"
          }
        ],
        "pollDivisionIds": [
          10139578
        ],
        "postalCode": "N6E1W7",
        "streetName": "ADSWOOD",
        "streetDirectionId": null,
        "streetTypeId": "PL",
        "placeName": "LONDON",
        "streetNameDisplayText": "ADSWOOD PL, LONDON"
      }
    ]
  },
  {
    "postal": "N6E1X1",
    "result": [
      {
        "electoralDistricts": [
          {
            "election": null,
            "id": 53,
            "setId": 0,
            "name": "London—Fanshawe"
          }
        ],
        "pollDivisionIds": [
          10139578
        ],
        "postalCode": "N6E1X1",
        "streetName": "BEXHILL",
        "streetDirectionId": null,
        "streetTypeId": "DR",
        "placeName": "LONDON",
        "streetNameDisplayText": "BEXHILL DR, LONDON"
      }
    ]
  },
  {
    "postal": "N6E0C1",
    "result": []
  },
  {
    "postal": "N6E4N3",
    "result": []
  },
  {
    "postal": "N6E4S8",
    "result": []
  },
  {
    "postal": "N6E1H6",
    "result": [
      {
        "electoralDistricts": [
          {
            "election": null,
            "id": 53,
            "setId": 0,
            "name": "London—Fanshawe"
          }
        ],
        "pollDivisionIds": [
          10139582
        ],
        "postalCode": "N6E1H6",
        "streetName": "BRECKENRIDGE",
        "streetDirectionId": null,
        "streetTypeId": "CRES",
        "placeName": "LONDON",
        "streetNameDisplayText": "BRECKENRIDGE CRES, LONDON"
      }
    ]
  },
  {
    "postal": "N6E2Z4",
    "result": [
      {
        "electoralDistricts": [
          {
            "election": null,
            "id": 53,
            "setId": 0,
            "name": "London—Fanshawe"
          }
        ],
        "pollDivisionIds": [
          10139589
        ],
        "postalCode": "N6E2Z4",
        "streetName": "EXETER",
        "streetDirectionId": null,
        "streetTypeId": "RD",
        "placeName": "LONDON",
        "streetNameDisplayText": "EXETER RD, LONDON"
      }
    ]
  },
  {
    "postal": "N6E7K3",
    "result": []
  },
  {
    "postal": "N6E8A2",
    "result": []
  },
  {
    "postal": "N6E6J1",
    "result": []
  },
  {
    "postal": "N6E5Z6",
    "result": []
  },
  {
    "postal": "N6E3Z0",
    "result": []
  },
  {
    "postal": "N6E8M0",
    "result": []
  },
  {
    "postal": "N6E1Z6",
    "result": [
      {
        "electoralDistricts": [
          {
            "election": null,
            "id": 53,
            "setId": 0,
            "name": "London—Fanshawe"
          }
        ],
        "pollDivisionIds": [
          10139580
        ],
        "postalCode": "N6E1Z6",
        "streetName": "STROUD",
        "streetDirectionId": null,
        "streetTypeId": "CRES",
        "placeName": "LONDON",
        "streetNameDisplayText": "STROUD CRES, LONDON"
      }
    ]
  },
  {
    "postal": "N6E8K7",
    "result": []
  },
  {
    "postal": "N6E1N3",
    "result": [
      {
        "electoralDistricts": [
          {
            "election": null,
            "id": 53,
            "setId": 0,
            "name": "London—Fanshawe"
          }
        ],
        "pollDivisionIds": [
          10139582
        ],
        "postalCode": "N6E1N3",
        "streetName": "WELLINGSBORO",
        "streetDirectionId": null,
        "streetTypeId": "RD",
        "placeName": "LONDON",
        "streetNameDisplayText": "WELLINGSBORO RD, LONDON"
      }
    ]
  },
  {
    "postal": "N6E9S2",
    "result": []
  },
  {
    "postal": "N6E2K1",
    "result": [
      {
        "electoralDistricts": [
          {
            "election": null,
            "id": 53,
            "setId": 0,
            "name": "London—Fanshawe"
          }
        ],
        "pollDivisionIds": [
          10139583
        ],
        "postalCode": "N6E2K1",
        "streetName": "LOCUST",
        "streetDirectionId": null,
        "streetTypeId": "CRES",
        "placeName": "LONDON",
        "streetNameDisplayText": "LOCUST CRES, LONDON"
      }
    ]
  },
  {
    "postal": "N6E1E8",
    "result": [
      {
        "electoralDistricts": [
          {
            "election": null,
            "id": 53,
            "setId": 0,
            "name": "London—Fanshawe"
          }
        ],
        "pollDivisionIds": [
          10139581
        ],
        "postalCode": "N6E1E8",
        "streetName": "WOODROW",
        "streetDirectionId": null,
        "streetTypeId": "CRES",
        "placeName": "LONDON",
        "streetNameDisplayText": "WOODROW CRES, LONDON"
      }
    ]
  },
  {
    "postal": "N6E9B8",
    "result": []
  },
  {
    "postal": "N6E7X4",
    "result": []
  },
  {
    "postal": "N6E1Z4",
    "result": [
      {
        "electoralDistricts": [
          {
            "election": null,
            "id": 53,
            "setId": 0,
            "name": "London—Fanshawe"
          }
        ],
        "pollDivisionIds": [
          10139580
        ],
        "postalCode": "N6E1Z4",
        "streetName": "PIERS",
        "streetDirectionId": null,
        "streetTypeId": "PL",
        "placeName": "LONDON",
        "streetNameDisplayText": "PIERS PL, LONDON"
      }
    ]
  },
  {
    "postal": "N6E2C7",
    "result": [
      {
        "electoralDistricts": [
          {
            "election": null,
            "id": 53,
            "setId": 0,
            "name": "London—Fanshawe"
          }
        ],
        "pollDivisionIds": [
          10139581
        ],
        "postalCode": "N6E2C7",
        "streetName": "OSGOODE",
        "streetDirectionId": null,
        "streetTypeId": "DR",
        "placeName": "LONDON",
        "streetNameDisplayText": "OSGOODE DR, LONDON"
      }
    ]
  },
  {
    "postal": "N6E2E7",
    "result": [
      {
        "electoralDistricts": [
          {
            "election": null,
            "id": 53,
            "setId": 0,
            "name": "London—Fanshawe"
          }
        ],
        "pollDivisionIds": [
          10139589
        ],
        "postalCode": "N6E2E7",
        "streetName": "LACEY",
        "streetDirectionId": null,
        "streetTypeId": "CRES",
        "placeName": "LONDON",
        "streetNameDisplayText": "LACEY CRES, LONDON"
      }
    ]
  },
  {
    "postal": "N6E3R1",
    "result": [
      {
        "electoralDistricts": [
          {
            "election": null,
            "id": 53,
            "setId": 0,
            "name": "London—Fanshawe"
          }
        ],
        "pollDivisionIds": [
          10139587
        ],
        "postalCode": "N6E3R1",
        "streetName": "ASHLEY",
        "streetDirectionId": null,
        "streetTypeId": "CRES",
        "placeName": "LONDON",
        "streetNameDisplayText": "ASHLEY CRES, LONDON"
      },
      {
        "electoralDistricts": [
          {
            "election": null,
            "id": 53,
            "setId": 0,
            "name": "London—Fanshawe"
          }
        ],
        "pollDivisionIds": [
          10139587
        ],
        "postalCode": "N6E3R1",
        "streetName": "COLETTE",
        "streetDirectionId": null,
        "streetTypeId": "DR",
        "placeName": "LONDON",
        "streetNameDisplayText": "COLETTE DR, LONDON"
      },
      {
        "electoralDistricts": [
          {
            "election": null,
            "id": 53,
            "setId": 0,
            "name": "London—Fanshawe"
          }
        ],
        "pollDivisionIds": [
          10139587
        ],
        "postalCode": "N6E3R1",
        "streetName": "JALNA",
        "streetDirectionId": null,
        "streetTypeId": "BLVD",
        "placeName": "LONDON",
        "streetNameDisplayText": "JALNA BLVD, LONDON"
      }
    ]
  },
  {
    "postal": "N6E4K4",
    "result": []
  },
  {
    "postal": "N6E9G3",
    "result": []
  },
  {
    "postal": "N6E6C9",
    "result": []
  },
  {
    "postal": "N6E9H5",
    "result": []
  },
  {
    "postal": "N6E1P5",
    "result": [
      {
        "electoralDistricts": [
          {
            "election": null,
            "id": 53,
            "setId": 0,
            "name": "London—Fanshawe"
          }
        ],
        "pollDivisionIds": [
          10139580
        ],
        "postalCode": "N6E1P5",
        "streetName": "HARGRIEVE",
        "streetDirectionId": null,
        "streetTypeId": "RD",
        "placeName": "LONDON",
        "streetNameDisplayText": "HARGRIEVE RD, LONDON"
      }
    ]
  },
  {
    "postal": "N6E2J5",
    "result": [
      {
        "electoralDistricts": [
          {
            "election": null,
            "id": 53,
            "setId": 0,
            "name": "London—Fanshawe"
          }
        ],
        "pollDivisionIds": [
          10139583
        ],
        "postalCode": "N6E2J5",
        "streetName": "JALNA",
        "streetDirectionId": null,
        "streetTypeId": "BLVD",
        "placeName": "LONDON",
        "streetNameDisplayText": "JALNA BLVD, LONDON"
      }
    ]
  },
  {
    "postal": "N6E4W6",
    "result": []
  },
  {
    "postal": "N6E8M8",
    "result": []
  },
  {
    "postal": "N6E6C5",
    "result": []
  },
  {
    "postal": "N6E9H0",
    "result": []
  },
  {
    "postal": "N6E1X8",
    "result": [
      {
        "electoralDistricts": [
          {
            "election": null,
            "id": 53,
            "setId": 0,
            "name": "London—Fanshawe"
          }
        ],
        "pollDivisionIds": [
          10139580
        ],
        "postalCode": "N6E1X8",
        "streetName": "JALNA",
        "streetDirectionId": null,
        "streetTypeId": "BLVD",
        "placeName": "LONDON",
        "streetNameDisplayText": "JALNA BLVD, LONDON"
      }
    ]
  },
  {
    "postal": "N6E3H4",
    "result": [
      {
        "electoralDistricts": [
          {
            "election": null,
            "id": 53,
            "setId": 0,
            "name": "London—Fanshawe"
          }
        ],
        "pollDivisionIds": [
          10139589
        ],
        "postalCode": "N6E3H4",
        "streetName": "JALNA",
        "streetDirectionId": null,
        "streetTypeId": "BLVD",
        "placeName": "LONDON",
        "streetNameDisplayText": "JALNA BLVD, LONDON"
      }
    ]
  },
  {
    "postal": "N6E4E7",
    "result": []
  },
  {
    "postal": "N6E8A0",
    "result": []
  },
  {
    "postal": "N6E1Z7",
    "result": [
      {
        "electoralDistricts": [
          {
            "election": null,
            "id": 53,
            "setId": 0,
            "name": "London—Fanshawe"
          }
        ],
        "pollDivisionIds": [
          10139580
        ],
        "postalCode": "N6E1Z7",
        "streetName": "NEWBOLD",
        "streetDirectionId": null,
        "streetTypeId": "CRT",
        "placeName": "LONDON",
        "streetNameDisplayText": "NEWBOLD CRT, LONDON"
      }
    ]
  },
  {
    "postal": "N6E7Z3",
    "result": []
  },
  {
    "postal": "N6E0L7",
    "result": []
  },
  {
    "postal": "N6E2C6",
    "result": [
      {
        "electoralDistricts": [
          {
            "election": null,
            "id": 53,
            "setId": 0,
            "name": "London—Fanshawe"
          }
        ],
        "pollDivisionIds": [
          10139581
        ],
        "postalCode": "N6E2C6",
        "streetName": "SOUTHDALE",
        "streetDirectionId": "E",
        "streetTypeId": "RD",
        "placeName": "LONDON",
        "streetNameDisplayText": "SOUTHDALE RD E, LONDON"
      }
    ]
  },
  {
    "postal": "N6E6M3",
    "result": []
  },
  {
    "postal": "N6E2J1",
    "result": [
      {
        "electoralDistricts": [
          {
            "election": null,
            "id": 53,
            "setId": 0,
            "name": "London—Fanshawe"
          }
        ],
        "pollDivisionIds": [
          10139583
        ],
        "postalCode": "N6E2J1",
        "streetName": "BEECHMOUNT",
        "streetDirectionId": null,
        "streetTypeId": "CRES",
        "placeName": "LONDON",
        "streetNameDisplayText": "BEECHMOUNT CRES, LONDON"
      }
    ]
  },
  {
    "postal": "N6E3E3",
    "result": [
      {
        "electoralDistricts": [
          {
            "election": null,
            "id": 53,
            "setId": 0,
            "name": "London—Fanshawe"
          }
        ],
        "pollDivisionIds": [
          10139589
        ],
        "postalCode": "N6E3E3",
        "streetName": "FAIRCHILD",
        "streetDirectionId": null,
        "streetTypeId": "CRES",
        "placeName": "LONDON",
        "streetNameDisplayText": "FAIRCHILD CRES, LONDON"
      },
      {
        "electoralDistricts": [
          {
            "election": null,
            "id": 53,
            "setId": 0,
            "name": "London—Fanshawe"
          }
        ],
        "pollDivisionIds": [
          10139589
        ],
        "postalCode": "N6E3E3",
        "streetName": "FAIRCHILD",
        "streetDirectionId": null,
        "streetTypeId": "CRT",
        "placeName": "LONDON",
        "streetNameDisplayText": "FAIRCHILD CRT, LONDON"
      }
    ]
  },
  {
    "postal": "N6E6Z9",
    "result": []
  },
  {
    "postal": "N6E3M3",
    "result": [
      {
        "electoralDistricts": [
          {
            "election": null,
            "id": 53,
            "setId": 0,
            "name": "London—Fanshawe"
          }
        ],
        "pollDivisionIds": [
          10139582
        ],
        "postalCode": "N6E3M3",
        "streetName": "OSGOODE",
        "streetDirectionId": null,
        "streetTypeId": "DR",
        "placeName": "LONDON",
        "streetNameDisplayText": "OSGOODE DR, LONDON"
      }
    ]
  },
  {
    "postal": "N6E9B1",
    "result": []
  },
  {
    "postal": "N6E9J5",
    "result": []
  },
  {
    "postal": "N6E4V8",
    "result": []
  },
  {
    "postal": "N6E6W2",
    "result": []
  },
  {
    "postal": "N6E0V5",
    "result": []
  },
  {
    "postal": "N6E0Z8",
    "result": []
  },
  {
    "postal": "N6E5G2",
    "result": []
  },
  {
    "postal": "N6E4N4",
    "result": []
  },
  {
    "postal": "N6E8G7",
    "result": []
  },
  {
    "postal": "N6E8W1",
    "result": []
  },
  {
    "postal": "N6E1S6",
    "result": [
      {
        "electoralDistricts": [
          {
            "election": null,
            "id": 53,
            "setId": 0,
            "name": "London—Fanshawe"
          }
        ],
        "pollDivisionIds": [
          10139581
        ],
        "postalCode": "N6E1S6",
        "streetName": "UPCOTT",
        "streetDirectionId": null,
        "streetTypeId": "CRES",
        "placeName": "LONDON",
        "streetNameDisplayText": "UPCOTT CRES, LONDON"
      }
    ]
  },
  {
    "postal": "N6E4E0",
    "result": []
  },
  {
    "postal": "N6E4L9",
    "result": []
  },
  {
    "postal": "N6E5Z9",
    "result": []
  },
  {
    "postal": "N6E5V3",
    "result": []
  },
  {
    "postal": "N6E4V2",
    "result": []
  },
  {
    "postal": "N6E7C0",
    "result": []
  },
  {
    "postal": "N6E6L0",
    "result": []
  },
  {
    "postal": "N6E1S9",
    "result": [
      {
        "electoralDistricts": [
          {
            "election": null,
            "id": 53,
            "setId": 0,
            "name": "London—Fanshawe"
          }
        ],
        "pollDivisionIds": [
          10139581
        ],
        "postalCode": "N6E1S9",
        "streetName": "ASHBURY",
        "streetDirectionId": null,
        "streetTypeId": "AVE",
        "placeName": "LONDON",
        "streetNameDisplayText": "ASHBURY AVE, LONDON"
      }
    ]
  },
  {
    "postal": "N6E7R6",
    "result": []
  },
  {
    "postal": "N6E7J0",
    "result": []
  },
  {
    "postal": "N6E5M0",
    "result": []
  },
  {
    "postal": "N6E2E5",
    "result": [
      {
        "electoralDistricts": [
          {
            "election": null,
            "id": 53,
            "setId": 0,
            "name": "London—Fanshawe"
          }
        ],
        "pollDivisionIds": [
          10139589
        ],
        "postalCode": "N6E2E5",
        "streetName": "FINCH",
        "streetDirectionId": null,
        "streetTypeId": "CRES",
        "placeName": "LONDON",
        "streetNameDisplayText": "FINCH CRES, LONDON"
      }
    ]
  },
  {
    "postal": "N6E7C7",
    "result": []
  },
  {
    "postal": "N6E5C0",
    "result": []
  },
  {
    "postal": "N6E8V9",
    "result": []
  },
  {
    "postal": "N6E7E0",
    "result": []
  },
  {
    "postal": "N6E6R4",
    "result": []
  },
  {
    "postal": "N6E3Z7",
    "result": [
      {
        "electoralDistricts": [
          {
            "election": null,
            "id": 26,
            "setId": 0,
            "name": "Elgin—Middlesex—London"
          }
        ],
        "pollDivisionIds": [
          10143310
        ],
        "postalCode": "N6E3Z7",
        "streetName": "MEG",
        "streetDirectionId": null,
        "streetTypeId": "DR",
        "placeName": "LONDON",
        "streetNameDisplayText": "MEG DR, LONDON"
      }
    ]
  },
  {
    "postal": "N6E1J9",
    "result": [
      {
        "electoralDistricts": [
          {
            "election": null,
            "id": 53,
            "setId": 0,
            "name": "London—Fanshawe"
          }
        ],
        "pollDivisionIds": [
          10139582
        ],
        "postalCode": "N6E1J9",
        "streetName": "BRADLEY",
        "streetDirectionId": null,
        "streetTypeId": "AVE",
        "placeName": "LONDON",
        "streetNameDisplayText": "BRADLEY AVE, LONDON"
      }
    ]
  },
  {
    "postal": "N6E7K6",
    "result": []
  },
  {
    "postal": "N6E7Y5",
    "result": []
  },
  {
    "postal": "N6E1B7",
    "result": [
      {
        "electoralDistricts": [
          {
            "election": null,
            "id": 53,
            "setId": 0,
            "name": "London—Fanshawe"
          }
        ],
        "pollDivisionIds": [
          10139581
        ],
        "postalCode": "N6E1B7",
        "streetName": "OSGOODE",
        "streetDirectionId": null,
        "streetTypeId": "DR",
        "placeName": "LONDON",
        "streetNameDisplayText": "OSGOODE DR, LONDON"
      }
    ]
  },
  {
    "postal": "N6E4S9",
    "result": []
  },
  {
    "postal": "N6E9R9",
    "result": []
  },
  {
    "postal": "N6E5K7",
    "result": []
  },
  {
    "postal": "N6E6P2",
    "result": []
  },
  {
    "postal": "N6E2C5",
    "result": [
      {
        "electoralDistricts": [
          {
            "election": null,
            "id": 53,
            "setId": 0,
            "name": "London—Fanshawe"
          }
        ],
        "pollDivisionIds": [
          10139580
        ],
        "postalCode": "N6E2C5",
        "streetName": "RENNY",
        "streetDirectionId": null,
        "streetTypeId": "CRES",
        "placeName": "LONDON",
        "streetNameDisplayText": "RENNY CRES, LONDON"
      }
    ]
  },
  {
    "postal": "N6E2N0",
    "result": []
  },
  {
    "postal": "N6E1G0",
    "result": []
  },
  {
    "postal": "N6E4K5",
    "result": []
  },
  {
    "postal": "N6E9B5",
    "result": []
  },
  {
    "postal": "N6E6T5",
    "result": []
  },
  {
    "postal": "N6E1N8",
    "result": [
      {
        "electoralDistricts": [
          {
            "election": null,
            "id": 53,
            "setId": 0,
            "name": "London—Fanshawe"
          }
        ],
        "pollDivisionIds": [
          10139582
        ],
        "postalCode": "N6E1N8",
        "streetName": "DEARNESS",
        "streetDirectionId": null,
        "streetTypeId": "DR",
        "placeName": "LONDON",
        "streetNameDisplayText": "DEARNESS DR, LONDON"
      }
    ]
  },
  {
    "postal": "N6E0C0",
    "result": []
  },
  {
    "postal": "N6E0R9",
    "result": []
  },
  {
    "postal": "N6E7L1",
    "result": []
  },
  {
    "postal": "N6E3Y8",
    "result": [
      {
        "electoralDistricts": [
          {
            "election": null,
            "id": 26,
            "setId": 0,
            "name": "Elgin—Middlesex—London"
          }
        ],
        "pollDivisionIds": [
          10143310
        ],
        "postalCode": "N6E3Y8",
        "streetName": "WHITE OAK",
        "streetDirectionId": null,
        "streetTypeId": "RD",
        "placeName": "LONDON",
        "streetNameDisplayText": "WHITE OAK RD, LONDON"
      }
    ]
  },
  {
    "postal": "N6E7X9",
    "result": []
  },
  {
    "postal": "N6E1A7",
    "result": [
      {
        "electoralDistricts": [
          {
            "election": null,
            "id": 53,
            "setId": 0,
            "name": "London—Fanshawe"
          }
        ],
        "pollDivisionIds": [
          10139583
        ],
        "postalCode": "N6E1A7",
        "streetName": "SOUTHDALE",
        "streetDirectionId": "E",
        "streetTypeId": "RD",
        "placeName": "LONDON",
        "streetNameDisplayText": "SOUTHDALE RD E, LONDON"
      }
    ]
  },
  {
    "postal": "N6E2T9",
    "result": [
      {
        "electoralDistricts": [
          {
            "election": null,
            "id": 53,
            "setId": 0,
            "name": "London—Fanshawe"
          }
        ],
        "pollDivisionIds": [
          10139588
        ],
        "postalCode": "N6E2T9",
        "streetName": "ERNEST",
        "streetDirectionId": null,
        "streetTypeId": "AVE",
        "placeName": "LONDON",
        "streetNameDisplayText": "ERNEST AVE, LONDON"
      }
    ]
  },
  {
    "postal": "N6E2E6",
    "result": [
      {
        "electoralDistricts": [
          {
            "election": null,
            "id": 53,
            "setId": 0,
            "name": "London—Fanshawe"
          }
        ],
        "pollDivisionIds": [
          10139589
        ],
        "postalCode": "N6E2E6",
        "streetName": "LACEY",
        "streetDirectionId": null,
        "streetTypeId": "CRES",
        "placeName": "LONDON",
        "streetNameDisplayText": "LACEY CRES, LONDON"
      }
    ]
  },
  {
    "postal": "N6E8Y1",
    "result": []
  },
  {
    "postal": "N6E0J5",
    "result": []
  },
  {
    "postal": "N6E4J1",
    "result": []
  },
  {
    "postal": "N6E1A5",
    "result": [
      {
        "electoralDistricts": [
          {
            "election": null,
            "id": 53,
            "setId": 0,
            "name": "London—Fanshawe"
          }
        ],
        "pollDivisionIds": [
          10139584
        ],
        "postalCode": "N6E1A5",
        "streetName": "SOUTHDALE",
        "streetDirectionId": "E",
        "streetTypeId": "RD",
        "placeName": "LONDON",
        "streetNameDisplayText": "SOUTHDALE RD E, LONDON"
      }
    ]
  },
  {
    "postal": "N6E6Z6",
    "result": []
  },
  {
    "postal": "N6E5K4",
    "result": []
  },
  {
    "postal": "N6E7R9",
    "result": []
  },
  {
    "postal": "N6E6G4",
    "result": []
  }
]
