[
  {
    "postal": "L8V9J6",
    "result": []
  },
  {
    "postal": "L8V9Z5",
    "result": []
  },
  {
    "postal": "L8V7H8",
    "result": []
  },
  {
    "postal": "L8V0P6",
    "result": []
  },
  {
    "postal": "L8V0S7",
    "result": []
  },
  {
    "postal": "L8V8B9",
    "result": []
  },
  {
    "postal": "L8V2A6",
    "result": [
      {
        "electoralDistricts": [
          {
            "election": null,
            "id": 38,
            "name": "Hamilton Mountain"
          }
        ],
        "pollDivisionIds": [
          10138696
        ],
        "postalCode": "L8V2A6",
        "streetName": "MACASSA",
        "streetDirectionId": null,
        "streetTypeId": "AVE",
        "placeName": "HAMILTON",
        "streetNameDisplayText": "MACASSA AVE, HAMILTON"
      }
    ]
  },
  {
    "postal": "L8V7V2",
    "result": []
  },
  {
    "postal": "L8V9P4",
    "result": []
  },
  {
    "postal": "L8V6G0",
    "result": []
  },
  {
    "postal": "L8V2K0",
    "result": []
  },
  {
    "postal": "L8V7N6",
    "result": []
  },
  {
    "postal": "L8V5R3",
    "result": []
  },
  {
    "postal": "L8V7K0",
    "result": []
  },
  {
    "postal": "L8V3R2",
    "result": [
      {
        "electoralDistricts": [
          {
            "election": null,
            "id": 38,
            "name": "Hamilton Mountain"
          }
        ],
        "pollDivisionIds": [
          10138700
        ],
        "postalCode": "L8V3R2",
        "streetName": "BELLINGHAM",
        "streetDirectionId": null,
        "streetTypeId": "DR",
        "placeName": "HAMILTON",
        "streetNameDisplayText": "BELLINGHAM DR, HAMILTON"
      }
    ]
  },
  {
    "postal": "L8V0J1",
    "result": []
  },
  {
    "postal": "L8V0B0",
    "result": []
  },
  {
    "postal": "L8V5Z2",
    "result": []
  },
  {
    "postal": "L8V7P3",
    "result": []
  },
  {
    "postal": "L8V2K3",
    "result": [
      {
        "electoralDistricts": [
          {
            "election": null,
            "id": 38,
            "name": "Hamilton Mountain"
          }
        ],
        "pollDivisionIds": [
          10138700
        ],
        "postalCode": "L8V2K3",
        "streetName": "MOHAWK",
        "streetDirectionId": "E",
        "streetTypeId": "RD",
        "placeName": "HAMILTON",
        "streetNameDisplayText": "MOHAWK RD E, HAMILTON"
      }
    ]
  },
  {
    "postal": "L8V7Y6",
    "result": []
  },
  {
    "postal": "L8V1L9",
    "result": [
      {
        "electoralDistricts": [
          {
            "election": null,
            "id": 38,
            "name": "Hamilton Mountain"
          }
        ],
        "pollDivisionIds": [
          10143886
        ],
        "postalCode": "L8V1L9",
        "streetName": "QUEENSDALE",
        "streetDirectionId": "E",
        "streetTypeId": "AVE",
        "placeName": "HAMILTON",
        "streetNameDisplayText": "QUEENSDALE AVE E, HAMILTON"
      }
    ]
  },
  {
    "postal": "L8V8T0",
    "result": []
  },
  {
    "postal": "L8V3K8",
    "result": [
      {
        "electoralDistricts": [
          {
            "election": null,
            "id": 38,
            "name": "Hamilton Mountain"
          }
        ],
        "pollDivisionIds": [
          10138690
        ],
        "postalCode": "L8V3K8",
        "streetName": "DEERBORN",
        "streetDirectionId": null,
        "streetTypeId": "DR",
        "placeName": "HAMILTON",
        "streetNameDisplayText": "DEERBORN DR, HAMILTON"
      }
    ]
  },
  {
    "postal": "L8V5W9",
    "result": []
  },
  {
    "postal": "L8V6T9",
    "result": []
  },
  {
    "postal": "L8V4H1",
    "result": [
      {
        "electoralDistricts": [
          {
            "election": null,
            "id": 38,
            "name": "Hamilton Mountain"
          }
        ],
        "pollDivisionIds": [
          10143886
        ],
        "postalCode": "L8V4H1",
        "streetName": "EAST 39TH",
        "streetDirectionId": null,
        "streetTypeId": "ST",
        "placeName": "HAMILTON",
        "streetNameDisplayText": "EAST 39TH ST, HAMILTON"
      }
    ]
  },
  {
    "postal": "L8V7A2",
    "result": []
  },
  {
    "postal": "L8V5G0",
    "result": []
  },
  {
    "postal": "L8V8V5",
    "result": []
  },
  {
    "postal": "L8V2Y8",
    "result": []
  },
  {
    "postal": "L8V2B6",
    "result": [
      {
        "electoralDistricts": [
          {
            "election": null,
            "id": 38,
            "name": "Hamilton Mountain"
          }
        ],
        "pollDivisionIds": [
          10138696
        ],
        "postalCode": "L8V2B6",
        "streetName": "MACASSA",
        "streetDirectionId": null,
        "streetTypeId": "AVE",
        "placeName": "HAMILTON",
        "streetNameDisplayText": "MACASSA AVE, HAMILTON"
      }
    ]
  },
  {
    "postal": "L8V4W8",
    "result": [
      {
        "electoralDistricts": [
          {
            "election": null,
            "id": 38,
            "name": "Hamilton Mountain"
          }
        ],
        "pollDivisionIds": [
          10138691
        ],
        "postalCode": "L8V4W8",
        "streetName": "EAST 24TH",
        "streetDirectionId": null,
        "streetTypeId": "ST",
        "placeName": "HAMILTON",
        "streetNameDisplayText": "EAST 24TH ST, HAMILTON"
      }
    ]
  },
  {
    "postal": "L8V8H7",
    "result": []
  },
  {
    "postal": "L8V5P1",
    "result": []
  },
  {
    "postal": "L8V2B8",
    "result": []
  },
  {
    "postal": "L8V0P2",
    "result": []
  },
  {
    "postal": "L8V9M1",
    "result": []
  },
  {
    "postal": "L8V3G0",
    "result": []
  },
  {
    "postal": "L8V9Z2",
    "result": []
  },
  {
    "postal": "L8V2A0",
    "result": []
  },
  {
    "postal": "L8V6Y0",
    "result": []
  },
  {
    "postal": "L8V2Z8",
    "result": []
  },
  {
    "postal": "L8V7Y3",
    "result": []
  },
  {
    "postal": "L8V6Z5",
    "result": []
  },
  {
    "postal": "L8V6E0",
    "result": []
  },
  {
    "postal": "L8V9B7",
    "result": []
  },
  {
    "postal": "L8V9S5",
    "result": []
  },
  {
    "postal": "L8V3X3",
    "result": [
      {
        "electoralDistricts": [
          {
            "election": null,
            "id": 38,
            "name": "Hamilton Mountain"
          }
        ],
        "pollDivisionIds": [
          10138696
        ],
        "postalCode": "L8V3X3",
        "streetName": "EAST 34TH",
        "streetDirectionId": null,
        "streetTypeId": "ST",
        "placeName": "HAMILTON",
        "streetNameDisplayText": "EAST 34TH ST, HAMILTON"
      }
    ]
  },
  {
    "postal": "L8V7R5",
    "result": []
  },
  {
    "postal": "L8V2X3",
    "result": [
      {
        "electoralDistricts": [
          {
            "election": null,
            "id": 38,
            "name": "Hamilton Mountain"
          }
        ],
        "pollDivisionIds": [
          10138691
        ],
        "postalCode": "L8V2X3",
        "streetName": "EAST 23RD",
        "streetDirectionId": null,
        "streetTypeId": "ST",
        "placeName": "HAMILTON",
        "streetNameDisplayText": "EAST 23RD ST, HAMILTON"
      }
    ]
  },
  {
    "postal": "L8V8Z9",
    "result": []
  },
  {
    "postal": "L8V0N4",
    "result": []
  },
  {
    "postal": "L8V1K1",
    "result": [
      {
        "electoralDistricts": [
          {
            "election": null,
            "id": 38,
            "name": "Hamilton Mountain"
          }
        ],
        "pollDivisionIds": [
          10143886
        ],
        "postalCode": "L8V1K1",
        "streetName": "MUNN",
        "streetDirectionId": null,
        "streetTypeId": "ST",
        "placeName": "HAMILTON",
        "streetNameDisplayText": "MUNN ST, HAMILTON"
      }
    ]
  },
  {
    "postal": "L8V1S3",
    "result": [
      {
        "electoralDistricts": [
          {
            "election": null,
            "id": 38,
            "name": "Hamilton Mountain"
          }
        ],
        "pollDivisionIds": [
          10143886
        ],
        "postalCode": "L8V1S3",
        "streetName": "BRUCEDALE",
        "streetDirectionId": "E",
        "streetTypeId": "AVE",
        "placeName": "HAMILTON",
        "streetNameDisplayText": "BRUCEDALE AVE E, HAMILTON"
      }
    ]
  },
  {
    "postal": "L8V6M4",
    "result": []
  },
  {
    "postal": "L8V9A9",
    "result": []
  },
  {
    "postal": "L8V9Z9",
    "result": []
  },
  {
    "postal": "L8V6T4",
    "result": []
  },
  {
    "postal": "L8V0B2",
    "result": []
  },
  {
    "postal": "L8V2L9",
    "result": [
      {
        "electoralDistricts": [
          {
            "election": null,
            "id": 38,
            "name": "Hamilton Mountain"
          }
        ],
        "pollDivisionIds": [
          10138690
        ],
        "postalCode": "L8V2L9",
        "streetName": "RANCHDALE",
        "streetDirectionId": null,
        "streetTypeId": "DR",
        "placeName": "HAMILTON",
        "streetNameDisplayText": "RANCHDALE DR, HAMILTON"
      }
    ]
  },
  {
    "postal": "L8V8K9",
    "result": []
  },
  {
    "postal": "L8V2H9",
    "result": [
      {
        "electoralDistricts": [
          {
            "election": null,
            "id": 38,
            "name": "Hamilton Mountain"
          }
        ],
        "pollDivisionIds": [
          10138691
        ],
        "postalCode": "L8V2H9",
        "streetName": "MOHAWK",
        "streetDirectionId": "E",
        "streetTypeId": "RD",
        "placeName": "HAMILTON",
        "streetNameDisplayText": "MOHAWK RD E, HAMILTON"
      }
    ]
  },
  {
    "postal": "L8V3Z6",
    "result": [
      {
        "electoralDistricts": [
          {
            "election": null,
            "id": 38,
            "name": "Hamilton Mountain"
          }
        ],
        "pollDivisionIds": [
          10143886
        ],
        "postalCode": "L8V3Z6",
        "streetName": "EAST 36TH",
        "streetDirectionId": null,
        "streetTypeId": "ST",
        "placeName": "HAMILTON",
        "streetNameDisplayText": "EAST 36TH ST, HAMILTON"
      }
    ]
  },
  {
    "postal": "L8V3B0",
    "result": []
  },
  {
    "postal": "L8V2H8",
    "result": []
  },
  {
    "postal": "L8V3X2",
    "result": [
      {
        "electoralDistricts": [
          {
            "election": null,
            "id": 38,
            "name": "Hamilton Mountain"
          }
        ],
        "pollDivisionIds": [
          10138696
        ],
        "postalCode": "L8V3X2",
        "streetName": "EAST 34TH",
        "streetDirectionId": null,
        "streetTypeId": "ST",
        "placeName": "HAMILTON",
        "streetNameDisplayText": "EAST 34TH ST, HAMILTON"
      }
    ]
  },
  {
    "postal": "L8V2E9",
    "result": [
      {
        "electoralDistricts": [
          {
            "election": null,
            "id": 38,
            "name": "Hamilton Mountain"
          }
        ],
        "pollDivisionIds": [
          10138696
        ],
        "postalCode": "L8V2E9",
        "streetName": "DALLAS",
        "streetDirectionId": null,
        "streetTypeId": "AVE",
        "placeName": "HAMILTON",
        "streetNameDisplayText": "DALLAS AVE, HAMILTON"
      }
    ]
  },
  {
    "postal": "L8V9P6",
    "result": []
  },
  {
    "postal": "L8V9E2",
    "result": []
  },
  {
    "postal": "L8V9H2",
    "result": []
  },
  {
    "postal": "L8V1S8",
    "result": [
      {
        "electoralDistricts": [
          {
            "election": null,
            "id": 38,
            "name": "Hamilton Mountain"
          }
        ],
        "pollDivisionIds": [
          10138691
        ],
        "postalCode": "L8V1S8",
        "streetName": "FENNELL",
        "streetDirectionId": "E",
        "streetTypeId": "AVE",
        "placeName": "HAMILTON",
        "streetNameDisplayText": "FENNELL AVE E, HAMILTON"
      }
    ]
  },
  {
    "postal": "L8V3M6",
    "result": [
      {
        "electoralDistricts": [
          {
            "election": null,
            "id": 38,
            "name": "Hamilton Mountain"
          }
        ],
        "pollDivisionIds": [
          10138691
        ],
        "postalCode": "L8V3M6",
        "streetName": "UPPER SHERMAN",
        "streetDirectionId": null,
        "streetTypeId": "AVE",
        "placeName": "HAMILTON",
        "streetNameDisplayText": "UPPER SHERMAN AVE, HAMILTON"
      }
    ]
  },
  {
    "postal": "L8V6Z8",
    "result": []
  },
  {
    "postal": "L8V4J2",
    "result": [
      {
        "electoralDistricts": [
          {
            "election": null,
            "id": 38,
            "name": "Hamilton Mountain"
          }
        ],
        "pollDivisionIds": [
          10138694
        ],
        "postalCode": "L8V4J2",
        "streetName": "UPPER GAGE",
        "streetDirectionId": null,
        "streetTypeId": "AVE",
        "placeName": "HAMILTON",
        "streetNameDisplayText": "UPPER GAGE AVE, HAMILTON"
      }
    ]
  },
  {
    "postal": "L8V9Y1",
    "result": []
  },
  {
    "postal": "L8V8V6",
    "result": []
  },
  {
    "postal": "L8V6B2",
    "result": []
  },
  {
    "postal": "L8V1P8",
    "result": []
  },
  {
    "postal": "L8V0V8",
    "result": []
  },
  {
    "postal": "L8V4Y0",
    "result": []
  },
  {
    "postal": "L8V2T4",
    "result": [
      {
        "electoralDistricts": [
          {
            "election": null,
            "id": 38,
            "name": "Hamilton Mountain"
          }
        ],
        "pollDivisionIds": [
          10143886
        ],
        "postalCode": "L8V2T4",
        "streetName": "EAST 21ST",
        "streetDirectionId": null,
        "streetTypeId": "ST",
        "placeName": "HAMILTON",
        "streetNameDisplayText": "EAST 21ST ST, HAMILTON"
      }
    ]
  },
  {
    "postal": "L8V2S3",
    "result": [
      {
        "electoralDistricts": [
          {
            "election": null,
            "id": 38,
            "name": "Hamilton Mountain"
          }
        ],
        "pollDivisionIds": [
          10143886
        ],
        "postalCode": "L8V2S3",
        "streetName": "HAMILTON",
        "streetDirectionId": null,
        "streetTypeId": "AVE",
        "placeName": "HAMILTON",
        "streetNameDisplayText": "HAMILTON AVE, HAMILTON"
      },
      {
        "electoralDistricts": [
          {
            "election": null,
            "id": 31,
            "name": "Flamborough—Glanbrook"
          }
        ],
        "pollDivisionIds": [
          10138247
        ],
        "postalCode": "L8V2S3",
        "streetName": "HAMILTON",
        "streetDirectionId": "N",
        "streetTypeId": "ST",
        "placeName": "HAMILTON",
        "streetNameDisplayText": "HAMILTON ST N, HAMILTON"
      }
    ]
  },
  {
    "postal": "L8V0K0",
    "result": []
  },
  {
    "postal": "L8V5N1",
    "result": []
  },
  {
    "postal": "L8V7T0",
    "result": []
  },
  {
    "postal": "L8V9N2",
    "result": []
  },
  {
    "postal": "L8V5L1",
    "result": []
  },
  {
    "postal": "L8V7G5",
    "result": []
  },
  {
    "postal": "L8V6K2",
    "result": []
  },
  {
    "postal": "L8V6P9",
    "result": []
  },
  {
    "postal": "L8V0E6",
    "result": []
  },
  {
    "postal": "L8V8R9",
    "result": []
  },
  {
    "postal": "L8V3G9",
    "result": [
      {
        "electoralDistricts": [
          {
            "election": null,
            "id": 38,
            "name": "Hamilton Mountain"
          }
        ],
        "pollDivisionIds": [
          10138691
        ],
        "postalCode": "L8V3G9",
        "streetName": "EAST 27TH",
        "streetDirectionId": null,
        "streetTypeId": "ST",
        "placeName": "HAMILTON",
        "streetNameDisplayText": "EAST 27TH ST, HAMILTON"
      }
    ]
  },
  {
    "postal": "L8V0V7",
    "result": []
  },
  {
    "postal": "L8V2Z1",
    "result": []
  },
  {
    "postal": "L8V7N1",
    "result": []
  },
  {
    "postal": "L8V3C6",
    "result": [
      {
        "electoralDistricts": [
          {
            "election": null,
            "id": 38,
            "name": "Hamilton Mountain"
          }
        ],
        "pollDivisionIds": [
          10143886
        ],
        "postalCode": "L8V3C6",
        "streetName": "EAST 26TH",
        "streetDirectionId": null,
        "streetTypeId": "ST",
        "placeName": "HAMILTON",
        "streetNameDisplayText": "EAST 26TH ST, HAMILTON"
      }
    ]
  },
  {
    "postal": "L8V4M1",
    "result": [
      {
        "electoralDistricts": [
          {
            "election": null,
            "id": 38,
            "name": "Hamilton Mountain"
          }
        ],
        "pollDivisionIds": [
          10138700
        ],
        "postalCode": "L8V4M1",
        "streetName": "EDWINA",
        "streetDirectionId": null,
        "streetTypeId": "PL",
        "placeName": "HAMILTON",
        "streetNameDisplayText": "EDWINA PL, HAMILTON"
      }
    ]
  },
  {
    "postal": "L8V9K2",
    "result": []
  },
  {
    "postal": "L8V9S6",
    "result": []
  },
  {
    "postal": "L8V4X1",
    "result": [
      {
        "electoralDistricts": [
          {
            "election": null,
            "id": 38,
            "name": "Hamilton Mountain"
          }
        ],
        "pollDivisionIds": [
          10138691
        ],
        "postalCode": "L8V4X1",
        "streetName": "ABBOT",
        "streetDirectionId": null,
        "streetTypeId": "DR",
        "placeName": "HAMILTON",
        "streetNameDisplayText": "ABBOT DR, HAMILTON"
      }
    ]
  },
  {
    "postal": "L8V8W2",
    "result": []
  },
  {
    "postal": "L8V7N2",
    "result": []
  },
  {
    "postal": "L8V8S3",
    "result": []
  },
  {
    "postal": "L8V4V0",
    "result": []
  },
  {
    "postal": "L8V6W4",
    "result": []
  },
  {
    "postal": "L8V5M1",
    "result": []
  },
  {
    "postal": "L8V0S4",
    "result": []
  },
  {
    "postal": "L8V5X6",
    "result": []
  },
  {
    "postal": "L8V8L5",
    "result": []
  },
  {
    "postal": "L8V5M8",
    "result": []
  },
  {
    "postal": "L8V2G3",
    "result": []
  },
  {
    "postal": "L8V8E4",
    "result": []
  },
  {
    "postal": "L8V7S9",
    "result": []
  },
  {
    "postal": "L8V1K3",
    "result": [
      {
        "electoralDistricts": [
          {
            "election": null,
            "id": 38,
            "name": "Hamilton Mountain"
          }
        ],
        "pollDivisionIds": [
          10143886
        ],
        "postalCode": "L8V1K3",
        "streetName": "MUNN",
        "streetDirectionId": null,
        "streetTypeId": "ST",
        "placeName": "HAMILTON",
        "streetNameDisplayText": "MUNN ST, HAMILTON"
      }
    ]
  },
  {
    "postal": "L8V4E1",
    "result": [
      {
        "electoralDistricts": [
          {
            "election": null,
            "id": 38,
            "name": "Hamilton Mountain"
          }
        ],
        "pollDivisionIds": [
          10138700
        ],
        "postalCode": "L8V4E1",
        "streetName": "EDWINA",
        "streetDirectionId": null,
        "streetTypeId": "PL",
        "placeName": "HAMILTON",
        "streetNameDisplayText": "EDWINA PL, HAMILTON"
      }
    ]
  },
  {
    "postal": "L8V4R2",
    "result": [
      {
        "electoralDistricts": [
          {
            "election": null,
            "id": 38,
            "name": "Hamilton Mountain"
          }
        ],
        "pollDivisionIds": [
          10138700
        ],
        "postalCode": "L8V4R2",
        "streetName": "LAWNHURST",
        "streetDirectionId": null,
        "streetTypeId": "DR",
        "placeName": "HAMILTON",
        "streetNameDisplayText": "LAWNHURST DR, HAMILTON"
      }
    ]
  },
  {
    "postal": "L8V6T0",
    "result": []
  },
  {
    "postal": "L8V3K5",
    "result": [
      {
        "electoralDistricts": [
          {
            "election": null,
            "id": 38,
            "name": "Hamilton Mountain"
          }
        ],
        "pollDivisionIds": [
          10138690
        ],
        "postalCode": "L8V3K5",
        "streetName": "BISHOPSGATE",
        "streetDirectionId": null,
        "streetTypeId": "AVE",
        "placeName": "HAMILTON",
        "streetNameDisplayText": "BISHOPSGATE AVE, HAMILTON"
      }
    ]
  },
  {
    "postal": "L8V3S3",
    "result": [
      {
        "electoralDistricts": [
          {
            "election": null,
            "id": 38,
            "name": "Hamilton Mountain"
          }
        ],
        "pollDivisionIds": [
          10143886
        ],
        "postalCode": "L8V3S3",
        "streetName": "EAST 32ND",
        "streetDirectionId": null,
        "streetTypeId": "ST",
        "placeName": "HAMILTON",
        "streetNameDisplayText": "EAST 32ND ST, HAMILTON"
      }
    ]
  },
  {
    "postal": "L8V3L4",
    "result": [
      {
        "electoralDistricts": [
          {
            "election": null,
            "id": 38,
            "name": "Hamilton Mountain"
          }
        ],
        "pollDivisionIds": [
          10143886
        ],
        "postalCode": "L8V3L4",
        "streetName": "UPPER SHERMAN",
        "streetDirectionId": null,
        "streetTypeId": "AVE",
        "placeName": "HAMILTON",
        "streetNameDisplayText": "UPPER SHERMAN AVE, HAMILTON"
      }
    ]
  },
  {
    "postal": "L8V9Y2",
    "result": []
  },
  {
    "postal": "L8V1E0",
    "result": []
  },
  {
    "postal": "L8V9A4",
    "result": []
  },
  {
    "postal": "L8V1L3",
    "result": [
      {
        "electoralDistricts": [
          {
            "election": null,
            "id": 38,
            "name": "Hamilton Mountain"
          }
        ],
        "pollDivisionIds": [
          10143886
        ],
        "postalCode": "L8V1L3",
        "streetName": "QUEENSDALE",
        "streetDirectionId": "E",
        "streetTypeId": "AV",
        "placeName": "HAMILTON",
        "streetNameDisplayText": "QUEENSDALE AV E, HAMILTON"
      },
      {
        "electoralDistricts": [
          {
            "election": null,
            "id": 38,
            "name": "Hamilton Mountain"
          }
        ],
        "pollDivisionIds": [
          10143886
        ],
        "postalCode": "L8V1L3",
        "streetName": "QUEENSDALE",
        "streetDirectionId": "E",
        "streetTypeId": "AVE",
        "placeName": "HAMILTON",
        "streetNameDisplayText": "QUEENSDALE AVE E, HAMILTON"
      }
    ]
  },
  {
    "postal": "L8V6N1",
    "result": []
  },
  {
    "postal": "L8V6G7",
    "result": []
  },
  {
    "postal": "L8V7W1",
    "result": []
  },
  {
    "postal": "L8V4M6",
    "result": [
      {
        "electoralDistricts": [
          {
            "election": null,
            "id": 38,
            "name": "Hamilton Mountain"
          }
        ],
        "pollDivisionIds": [
          10138700
        ],
        "postalCode": "L8V4M6",
        "streetName": "BELLINGHAM",
        "streetDirectionId": null,
        "streetTypeId": "DR",
        "placeName": "HAMILTON",
        "streetNameDisplayText": "BELLINGHAM DR, HAMILTON"
      }
    ]
  },
  {
    "postal": "L8V1K0",
    "result": []
  },
  {
    "postal": "L8V3E2",
    "result": [
      {
        "electoralDistricts": [
          {
            "election": null,
            "id": 38,
            "name": "Hamilton Mountain"
          }
        ],
        "pollDivisionIds": [
          10138691
        ],
        "postalCode": "L8V3E2",
        "streetName": "SHADYSIDE",
        "streetDirectionId": null,
        "streetTypeId": "AVE",
        "placeName": "HAMILTON",
        "streetNameDisplayText": "SHADYSIDE AVE, HAMILTON"
      }
    ]
  },
  {
    "postal": "L8V5H4",
    "result": []
  },
  {
    "postal": "L8V1K7",
    "result": [
      {
        "electoralDistricts": [
          {
            "election": null,
            "id": 38,
            "name": "Hamilton Mountain"
          }
        ],
        "pollDivisionIds": [
          10143886
        ],
        "postalCode": "L8V1K7",
        "streetName": "QUEENSDALE",
        "streetDirectionId": "E",
        "streetTypeId": "AVE",
        "placeName": "HAMILTON",
        "streetNameDisplayText": "QUEENSDALE AVE E, HAMILTON"
      }
    ]
  },
  {
    "postal": "L8V0H0",
    "result": []
  },
  {
    "postal": "L8V0J3",
    "result": []
  },
  {
    "postal": "L8V1X6",
    "result": [
      {
        "electoralDistricts": [
          {
            "election": null,
            "id": 38,
            "name": "Hamilton Mountain"
          }
        ],
        "pollDivisionIds": [
          10138691
        ],
        "postalCode": "L8V1X6",
        "streetName": "MACLENNAN",
        "streetDirectionId": null,
        "streetTypeId": "AVE",
        "placeName": "HAMILTON",
        "streetNameDisplayText": "MACLENNAN AVE, HAMILTON"
      }
    ]
  },
  {
    "postal": "L8V2Z6",
    "result": []
  },
  {
    "postal": "L8V4R9",
    "result": [
      {
        "electoralDistricts": [
          {
            "election": null,
            "id": 38,
            "name": "Hamilton Mountain"
          }
        ],
        "pollDivisionIds": [
          10138700
        ],
        "postalCode": "L8V4R9",
        "streetName": "UPPER SHERMAN",
        "streetDirectionId": null,
        "streetTypeId": "AVE",
        "placeName": "HAMILTON",
        "streetNameDisplayText": "UPPER SHERMAN AVE, HAMILTON"
      }
    ]
  },
  {
    "postal": "L8V0W8",
    "result": []
  },
  {
    "postal": "L8V1L4",
    "result": [
      {
        "electoralDistricts": [
          {
            "election": null,
            "id": 38,
            "name": "Hamilton Mountain"
          }
        ],
        "pollDivisionIds": [
          10143886
        ],
        "postalCode": "L8V1L4",
        "streetName": "QUEENSDALE",
        "streetDirectionId": "E",
        "streetTypeId": "AVE",
        "placeName": "HAMILTON",
        "streetNameDisplayText": "QUEENSDALE AVE E, HAMILTON"
      }
    ]
  },
  {
    "postal": "L8V0C8",
    "result": []
  },
  {
    "postal": "L8V9X7",
    "result": []
  },
  {
    "postal": "L8V4T1",
    "result": [
      {
        "electoralDistricts": [
          {
            "election": null,
            "id": 38,
            "name": "Hamilton Mountain"
          }
        ],
        "pollDivisionIds": [
          10143886
        ],
        "postalCode": "L8V4T1",
        "streetName": "CONCESSION",
        "streetDirectionId": null,
        "streetTypeId": "ST",
        "placeName": "HAMILTON",
        "streetNameDisplayText": "CONCESSION ST, HAMILTON"
      }
    ]
  },
  {
    "postal": "L8V0M0",
    "result": []
  },
  {
    "postal": "L8V6A2",
    "result": []
  },
  {
    "postal": "L8V9S8",
    "result": []
  },
  {
    "postal": "L8V9T4",
    "result": []
  },
  {
    "postal": "L8V9Y4",
    "result": []
  },
  {
    "postal": "L8V6G5",
    "result": []
  },
  {
    "postal": "L8V6H9",
    "result": []
  },
  {
    "postal": "L8V2P3",
    "result": [
      {
        "electoralDistricts": [
          {
            "election": null,
            "id": 38,
            "name": "Hamilton Mountain"
          }
        ],
        "pollDivisionIds": [
          10138700
        ],
        "postalCode": "L8V2P3",
        "streetName": "FIELDING",
        "streetDirectionId": null,
        "streetTypeId": "CRES",
        "placeName": "HAMILTON",
        "streetNameDisplayText": "FIELDING CRES, HAMILTON"
      }
    ]
  },
  {
    "postal": "L8V1T6",
    "result": [
      {
        "electoralDistricts": [
          {
            "election": null,
            "id": 38,
            "name": "Hamilton Mountain"
          }
        ],
        "pollDivisionIds": [
          10138691
        ],
        "postalCode": "L8V1T6",
        "streetName": "FENNELL",
        "streetDirectionId": "E",
        "streetTypeId": "AVE",
        "placeName": "HAMILTON",
        "streetNameDisplayText": "FENNELL AVE E, HAMILTON"
      }
    ]
  },
  {
    "postal": "L8V4P6",
    "result": [
      {
        "electoralDistricts": [
          {
            "election": null,
            "id": 38,
            "name": "Hamilton Mountain"
          }
        ],
        "pollDivisionIds": [
          10138700
        ],
        "postalCode": "L8V4P6",
        "streetName": "LING",
        "streetDirectionId": null,
        "streetTypeId": "ST",
        "placeName": "HAMILTON",
        "streetNameDisplayText": "LING ST, HAMILTON"
      }
    ]
  },
  {
    "postal": "L8V3K1",
    "result": [
      {
        "electoralDistricts": [
          {
            "election": null,
            "id": 38,
            "name": "Hamilton Mountain"
          }
        ],
        "pollDivisionIds": [
          10138691
        ],
        "postalCode": "L8V3K1",
        "streetName": "HELGA",
        "streetDirectionId": null,
        "streetTypeId": "CRT",
        "placeName": "HAMILTON",
        "streetNameDisplayText": "HELGA CRT, HAMILTON"
      }
    ]
  },
  {
    "postal": "L8V6X4",
    "result": []
  },
  {
    "postal": "L8V4M8",
    "result": [
      {
        "electoralDistricts": [
          {
            "election": null,
            "id": 38,
            "name": "Hamilton Mountain"
          }
        ],
        "pollDivisionIds": [
          10138700
        ],
        "postalCode": "L8V4M8",
        "streetName": "BELLINGHAM",
        "streetDirectionId": null,
        "streetTypeId": "DR",
        "placeName": "HAMILTON",
        "streetNameDisplayText": "BELLINGHAM DR, HAMILTON"
      }
    ]
  },
  {
    "postal": "L8V2Y1",
    "result": [
      {
        "electoralDistricts": [
          {
            "election": null,
            "id": 38,
            "name": "Hamilton Mountain"
          }
        ],
        "pollDivisionIds": [
          10143886
        ],
        "postalCode": "L8V2Y1",
        "streetName": "EAST 24TH",
        "streetDirectionId": null,
        "streetTypeId": "ST",
        "placeName": "HAMILTON",
        "streetNameDisplayText": "EAST 24TH ST, HAMILTON"
      }
    ]
  },
  {
    "postal": "L8V6M1",
    "result": []
  },
  {
    "postal": "L8V5L8",
    "result": []
  },
  {
    "postal": "L8V3P6",
    "result": [
      {
        "electoralDistricts": [
          {
            "election": null,
            "id": 38,
            "name": "Hamilton Mountain"
          }
        ],
        "pollDivisionIds": [
          10143886
        ],
        "postalCode": "L8V3P6",
        "streetName": "EAST 31ST",
        "streetDirectionId": null,
        "streetTypeId": "ST",
        "placeName": "HAMILTON",
        "streetNameDisplayText": "EAST 31ST ST, HAMILTON"
      }
    ]
  },
  {
    "postal": "L8V9A5",
    "result": []
  },
  {
    "postal": "L8V7K1",
    "result": []
  },
  {
    "postal": "L8V3J4",
    "result": [
      {
        "electoralDistricts": [
          {
            "election": null,
            "id": 38,
            "name": "Hamilton Mountain"
          }
        ],
        "pollDivisionIds": [
          10138691
        ],
        "postalCode": "L8V3J4",
        "streetName": "EAST 28TH",
        "streetDirectionId": null,
        "streetTypeId": "ST",
        "placeName": "HAMILTON",
        "streetNameDisplayText": "EAST 28TH ST, HAMILTON"
      }
    ]
  },
  {
    "postal": "L8V5E7",
    "result": []
  },
  {
    "postal": "L8V3A7",
    "result": [
      {
        "electoralDistricts": [
          {
            "election": null,
            "id": 38,
            "name": "Hamilton Mountain"
          }
        ],
        "pollDivisionIds": [
          10138691
        ],
        "postalCode": "L8V3A7",
        "streetName": "EAST 25TH",
        "streetDirectionId": null,
        "streetTypeId": "ST",
        "placeName": "HAMILTON",
        "streetNameDisplayText": "EAST 25TH ST, HAMILTON"
      }
    ]
  },
  {
    "postal": "L8V1B9",
    "result": []
  },
  {
    "postal": "L8V9E8",
    "result": []
  },
  {
    "postal": "L8V1C9",
    "result": [
      {
        "electoralDistricts": [
          {
            "election": null,
            "id": 38,
            "name": "Hamilton Mountain"
          }
        ],
        "pollDivisionIds": [
          10143886
        ],
        "postalCode": "L8V1C9",
        "streetName": "CONCESSION",
        "streetDirectionId": null,
        "streetTypeId": "ST",
        "placeName": "HAMILTON",
        "streetNameDisplayText": "CONCESSION ST, HAMILTON"
      }
    ]
  },
  {
    "postal": "L8V3B5",
    "result": [
      {
        "electoralDistricts": [
          {
            "election": null,
            "id": 38,
            "name": "Hamilton Mountain"
          }
        ],
        "pollDivisionIds": [
          10138691
        ],
        "postalCode": "L8V3B5",
        "streetName": "EAST 25TH",
        "streetDirectionId": null,
        "streetTypeId": "ST",
        "placeName": "HAMILTON",
        "streetNameDisplayText": "EAST 25TH ST, HAMILTON"
      }
    ]
  },
  {
    "postal": "L8V8R0",
    "result": []
  },
  {
    "postal": "L8V3P2",
    "result": [
      {
        "electoralDistricts": [
          {
            "election": null,
            "id": 38,
            "name": "Hamilton Mountain"
          }
        ],
        "pollDivisionIds": [
          10143886
        ],
        "postalCode": "L8V3P2",
        "streetName": "EAST 31ST",
        "streetDirectionId": null,
        "streetTypeId": "ST",
        "placeName": "HAMILTON",
        "streetNameDisplayText": "EAST 31ST ST, HAMILTON"
      }
    ]
  },
  {
    "postal": "L8V5V4",
    "result": []
  },
  {
    "postal": "L8V4H0",
    "result": []
  },
  {
    "postal": "L8V4S7",
    "result": []
  },
  {
    "postal": "L8V6C2",
    "result": []
  },
  {
    "postal": "L8V8W3",
    "result": []
  },
  {
    "postal": "L8V4M5",
    "result": [
      {
        "electoralDistricts": [
          {
            "election": null,
            "id": 38,
            "name": "Hamilton Mountain"
          }
        ],
        "pollDivisionIds": [
          10138700
        ],
        "postalCode": "L8V4M5",
        "streetName": "BERKO",
        "streetDirectionId": null,
        "streetTypeId": "AVE",
        "placeName": "HAMILTON",
        "streetNameDisplayText": "BERKO AVE, HAMILTON"
      }
    ]
  },
  {
    "postal": "L8V5T1",
    "result": []
  },
  {
    "postal": "L8V3B3",
    "result": [
      {
        "electoralDistricts": [
          {
            "election": null,
            "id": 38,
            "name": "Hamilton Mountain"
          }
        ],
        "pollDivisionIds": [
          10138691
        ],
        "postalCode": "L8V3B3",
        "streetName": "EAST 25TH",
        "streetDirectionId": null,
        "streetTypeId": "ST",
        "placeName": "HAMILTON",
        "streetNameDisplayText": "EAST 25TH ST, HAMILTON"
      }
    ]
  },
  {
    "postal": "L8V6C6",
    "result": []
  },
  {
    "postal": "L8V7N8",
    "result": []
  },
  {
    "postal": "L8V2Y3",
    "result": [
      {
        "electoralDistricts": [
          {
            "election": null,
            "id": 38,
            "name": "Hamilton Mountain"
          }
        ],
        "pollDivisionIds": [
          10143886
        ],
        "postalCode": "L8V2Y3",
        "streetName": "EAST 24TH",
        "streetDirectionId": null,
        "streetTypeId": "ST",
        "placeName": "HAMILTON",
        "streetNameDisplayText": "EAST 24TH ST, HAMILTON"
      }
    ]
  },
  {
    "postal": "L8V2R6",
    "result": [
      {
        "electoralDistricts": [
          {
            "election": null,
            "id": 38,
            "name": "Hamilton Mountain"
          }
        ],
        "pollDivisionIds": [
          10138700
        ],
        "postalCode": "L8V2R6",
        "streetName": "BERKO",
        "streetDirectionId": null,
        "streetTypeId": "AVE",
        "placeName": "HAMILTON",
        "streetNameDisplayText": "BERKO AVE, HAMILTON"
      }
    ]
  },
  {
    "postal": "L8V7N3",
    "result": []
  },
  {
    "postal": "L8V8J2",
    "result": []
  },
  {
    "postal": "L8V6A9",
    "result": []
  },
  {
    "postal": "L8V3V2",
    "result": [
      {
        "electoralDistricts": [
          {
            "election": null,
            "id": 38,
            "name": "Hamilton Mountain"
          }
        ],
        "pollDivisionIds": [
          10138696
        ],
        "postalCode": "L8V3V2",
        "streetName": "CAMDEN",
        "streetDirectionId": null,
        "streetTypeId": "ST",
        "placeName": "HAMILTON",
        "streetNameDisplayText": "CAMDEN ST, HAMILTON"
      }
    ]
  },
  {
    "postal": "L8V2N3",
    "result": [
      {
        "electoralDistricts": [
          {
            "election": null,
            "id": 38,
            "name": "Hamilton Mountain"
          }
        ],
        "pollDivisionIds": [
          10138700
        ],
        "postalCode": "L8V2N3",
        "streetName": "JEANETTE",
        "streetDirectionId": null,
        "streetTypeId": "ST",
        "placeName": "HAMILTON",
        "streetNameDisplayText": "JEANETTE ST, HAMILTON"
      }
    ]
  },
  {
    "postal": "L8V1S5",
    "result": [
      {
        "electoralDistricts": [
          {
            "election": null,
            "id": 38,
            "name": "Hamilton Mountain"
          }
        ],
        "pollDivisionIds": [
          10143886
        ],
        "postalCode": "L8V1S5",
        "streetName": "BRUCEDALE",
        "streetDirectionId": "E",
        "streetTypeId": "AVE",
        "placeName": "HAMILTON",
        "streetNameDisplayText": "BRUCEDALE AVE E, HAMILTON"
      }
    ]
  },
  {
    "postal": "L8V4T7",
    "result": [
      {
        "electoralDistricts": [
          {
            "election": null,
            "id": 38,
            "name": "Hamilton Mountain"
          }
        ],
        "pollDivisionIds": [
          10138691
        ],
        "postalCode": "L8V4T7",
        "streetName": "FRANKLIN RD",
        "streetDirectionId": null,
        "streetTypeId": "RD",
        "placeName": "HAMILTON",
        "streetNameDisplayText": "FRANKLIN RD RD, HAMILTON"
      },
      {
        "electoralDistricts": [
          {
            "election": null,
            "id": 38,
            "name": "Hamilton Mountain"
          }
        ],
        "pollDivisionIds": [
          10138691
        ],
        "postalCode": "L8V4T7",
        "streetName": "FRANKLIN",
        "streetDirectionId": null,
        "streetTypeId": "RD",
        "placeName": "HAMILTON",
        "streetNameDisplayText": "FRANKLIN RD, HAMILTON"
      }
    ]
  },
  {
    "postal": "L8V6Y7",
    "result": []
  },
  {
    "postal": "L8V0W7",
    "result": []
  },
  {
    "postal": "L8V2W9",
    "result": [
      {
        "electoralDistricts": [
          {
            "election": null,
            "id": 38,
            "name": "Hamilton Mountain"
          }
        ],
        "pollDivisionIds": [
          10143886
        ],
        "postalCode": "L8V2W9",
        "streetName": "EAST 23RD",
        "streetDirectionId": null,
        "streetTypeId": "ST",
        "placeName": "HAMILTON",
        "streetNameDisplayText": "EAST 23RD ST, HAMILTON"
      }
    ]
  },
  {
    "postal": "L8V8V0",
    "result": []
  },
  {
    "postal": "L8V0H4",
    "result": []
  },
  {
    "postal": "L8V2T1",
    "result": [
      {
        "electoralDistricts": [
          {
            "election": null,
            "id": 38,
            "name": "Hamilton Mountain"
          }
        ],
        "pollDivisionIds": [
          10143886
        ],
        "postalCode": "L8V2T1",
        "streetName": "BEN LOMOND",
        "streetDirectionId": null,
        "streetTypeId": "PL",
        "placeName": "HAMILTON",
        "streetNameDisplayText": "BEN LOMOND PL, HAMILTON"
      }
    ]
  },
  {
    "postal": "L8V1B1",
    "result": [
      {
        "electoralDistricts": [
          {
            "election": null,
            "id": 38,
            "name": "Hamilton Mountain"
          }
        ],
        "pollDivisionIds": [
          10143886
        ],
        "postalCode": "L8V1B1",
        "streetName": "CONCESSION",
        "streetDirectionId": null,
        "streetTypeId": "ST",
        "placeName": "HAMILTON",
        "streetNameDisplayText": "CONCESSION ST, HAMILTON"
      }
    ]
  },
  {
    "postal": "L8V8B6",
    "result": []
  },
  {
    "postal": "L8V6H1",
    "result": []
  },
  {
    "postal": "L8V8T8",
    "result": []
  },
  {
    "postal": "L8V0T4",
    "result": []
  },
  {
    "postal": "L8V2C4",
    "result": []
  },
  {
    "postal": "L8V8N3",
    "result": []
  },
  {
    "postal": "L8V4L8",
    "result": []
  },
  {
    "postal": "L8V2B5",
    "result": [
      {
        "electoralDistricts": [
          {
            "election": null,
            "id": 38,
            "name": "Hamilton Mountain"
          }
        ],
        "pollDivisionIds": [
          10138696
        ],
        "postalCode": "L8V2B5",
        "streetName": "MACASSA",
        "streetDirectionId": null,
        "streetTypeId": "AVE",
        "placeName": "HAMILTON",
        "streetNameDisplayText": "MACASSA AVE, HAMILTON"
      }
    ]
  },
  {
    "postal": "L8V3H1",
    "result": [
      {
        "electoralDistricts": [
          {
            "election": null,
            "id": 38,
            "name": "Hamilton Mountain"
          }
        ],
        "pollDivisionIds": [
          10138691
        ],
        "postalCode": "L8V3H1",
        "streetName": "EAST 27TH",
        "streetDirectionId": null,
        "streetTypeId": "ST",
        "placeName": "HAMILTON",
        "streetNameDisplayText": "EAST 27TH ST, HAMILTON"
      }
    ]
  },
  {
    "postal": "L8V4Y1",
    "result": []
  },
  {
    "postal": "L8V7E2",
    "result": []
  },
  {
    "postal": "L8V2P5",
    "result": [
      {
        "electoralDistricts": [
          {
            "election": null,
            "id": 38,
            "name": "Hamilton Mountain"
          }
        ],
        "pollDivisionIds": [
          10138700
        ],
        "postalCode": "L8V2P5",
        "streetName": "FIELDING",
        "streetDirectionId": null,
        "streetTypeId": "CRES",
        "placeName": "HAMILTON",
        "streetNameDisplayText": "FIELDING CRES, HAMILTON"
      }
    ]
  },
  {
    "postal": "L8V8R7",
    "result": []
  },
  {
    "postal": "L8V9P1",
    "result": []
  },
  {
    "postal": "L8V3B8",
    "result": [
      {
        "electoralDistricts": [
          {
            "election": null,
            "id": 38,
            "name": "Hamilton Mountain"
          }
        ],
        "pollDivisionIds": [
          10138691
        ],
        "postalCode": "L8V3B8",
        "streetName": "EAST 25TH",
        "streetDirectionId": null,
        "streetTypeId": "ST",
        "placeName": "HAMILTON",
        "streetNameDisplayText": "EAST 25TH ST, HAMILTON"
      }
    ]
  },
  {
    "postal": "L8V3P7",
    "result": [
      {
        "electoralDistricts": [
          {
            "election": null,
            "id": 38,
            "name": "Hamilton Mountain"
          }
        ],
        "pollDivisionIds": [
          10143886
        ],
        "postalCode": "L8V3P7",
        "streetName": "EAST 31ST",
        "streetDirectionId": null,
        "streetTypeId": "ST",
        "placeName": "HAMILTON",
        "streetNameDisplayText": "EAST 31ST ST, HAMILTON"
      }
    ]
  },
  {
    "postal": "L8V9B2",
    "result": []
  },
  {
    "postal": "L8V6Z3",
    "result": []
  },
  {
    "postal": "L8V4N5",
    "result": [
      {
        "electoralDistricts": [
          {
            "election": null,
            "id": 38,
            "name": "Hamilton Mountain"
          }
        ],
        "pollDivisionIds": [
          10138700
        ],
        "postalCode": "L8V4N5",
        "streetName": "FOLKESTONE",
        "streetDirectionId": null,
        "streetTypeId": "AVE",
        "placeName": "HAMILTON",
        "streetNameDisplayText": "FOLKESTONE AVE, HAMILTON"
      },
      {
        "electoralDistricts": [
          {
            "election": null,
            "id": 38,
            "name": "Hamilton Mountain"
          }
        ],
        "pollDivisionIds": [
          10138700
        ],
        "postalCode": "L8V4N5",
        "streetName": "FOLKSTONE",
        "streetDirectionId": null,
        "streetTypeId": "AVE",
        "placeName": "HAMILTON",
        "streetNameDisplayText": "FOLKSTONE AVE, HAMILTON"
      }
    ]
  },
  {
    "postal": "L8V8T3",
    "result": []
  },
  {
    "postal": "L8V1V2",
    "result": [
      {
        "electoralDistricts": [
          {
            "election": null,
            "id": 38,
            "name": "Hamilton Mountain"
          }
        ],
        "pollDivisionIds": [
          10138691
        ],
        "postalCode": "L8V1V2",
        "streetName": "FENNELL",
        "streetDirectionId": "E",
        "streetTypeId": "AVE",
        "placeName": "HAMILTON",
        "streetNameDisplayText": "FENNELL AVE E, HAMILTON"
      },
      {
        "electoralDistricts": [
          {
            "election": null,
            "id": 38,
            "name": "Hamilton Mountain"
          }
        ],
        "pollDivisionIds": [
          10138691
        ],
        "postalCode": "L8V1V2",
        "streetName": "FENNELL",
        "streetDirectionId": "E",
        "streetTypeId": "AVE",
        "placeName": "HAMILTON ONT",
        "streetNameDisplayText": "FENNELL AVE E, HAMILTON ONT"
      }
    ]
  },
  {
    "postal": "L8V1Y0",
    "result": []
  },
  {
    "postal": "L8V3G6",
    "result": [
      {
        "electoralDistricts": [
          {
            "election": null,
            "id": 38,
            "name": "Hamilton Mountain"
          }
        ],
        "pollDivisionIds": [
          10138691
        ],
        "postalCode": "L8V3G6",
        "streetName": "EAST 27TH",
        "streetDirectionId": null,
        "streetTypeId": "ST",
        "placeName": "HAMILTON",
        "streetNameDisplayText": "EAST 27TH ST, HAMILTON"
      }
    ]
  },
  {
    "postal": "L8V3H7",
    "result": [
      {
        "electoralDistricts": [
          {
            "election": null,
            "id": 38,
            "name": "Hamilton Mountain"
          }
        ],
        "pollDivisionIds": [
          10138691
        ],
        "postalCode": "L8V3H7",
        "streetName": "IMELDA",
        "streetDirectionId": null,
        "streetTypeId": "CRT",
        "placeName": "HAMILTON",
        "streetNameDisplayText": "IMELDA CRT, HAMILTON"
      }
    ]
  },
  {
    "postal": "L8V7X8",
    "result": []
  },
  {
    "postal": "L8V0C7",
    "result": []
  },
  {
    "postal": "L8V0W9",
    "result": []
  },
  {
    "postal": "L8V8E6",
    "result": []
  },
  {
    "postal": "L8V9Z8",
    "result": []
  },
  {
    "postal": "L8V3P4",
    "result": [
      {
        "electoralDistricts": [
          {
            "election": null,
            "id": 38,
            "name": "Hamilton Mountain"
          }
        ],
        "pollDivisionIds": [
          10143886
        ],
        "postalCode": "L8V3P4",
        "streetName": "EAST 31ST",
        "streetDirectionId": null,
        "streetTypeId": "ST",
        "placeName": "HAMILTON",
        "streetNameDisplayText": "EAST 31ST ST, HAMILTON"
      }
    ]
  },
  {
    "postal": "L8V6L8",
    "result": []
  },
  {
    "postal": "L8V2R4",
    "result": [
      {
        "electoralDistricts": [
          {
            "election": null,
            "id": 38,
            "name": "Hamilton Mountain"
          }
        ],
        "pollDivisionIds": [
          10138700
        ],
        "postalCode": "L8V2R4",
        "streetName": "BERKO",
        "streetDirectionId": null,
        "streetTypeId": "AVE",
        "placeName": "HAMILTON",
        "streetNameDisplayText": "BERKO AVE, HAMILTON"
      }
    ]
  },
  {
    "postal": "L8V2W1",
    "result": [
      {
        "electoralDistricts": [
          {
            "election": null,
            "id": 39,
            "name": "Hamilton West—Ancaster—Dundas"
          },
          {
            "election": null,
            "id": 38,
            "name": "Hamilton Mountain"
          }
        ],
        "pollDivisionIds": [
          10135276,
          10138691
        ],
        "postalCode": "L8V2W1",
        "streetName": "EAST 22ND",
        "streetDirectionId": null,
        "streetTypeId": "ST",
        "placeName": "HAMILTON",
        "streetNameDisplayText": "EAST 22ND ST, HAMILTON"
      }
    ]
  },
  {
    "postal": "L8V9H8",
    "result": []
  },
  {
    "postal": "L8V8X9",
    "result": []
  },
  {
    "postal": "L8V7H4",
    "result": []
  },
  {
    "postal": "L8V3J1",
    "result": [
      {
        "electoralDistricts": [
          {
            "election": null,
            "id": 38,
            "name": "Hamilton Mountain"
          }
        ],
        "pollDivisionIds": [
          10143886
        ],
        "postalCode": "L8V3J1",
        "streetName": "EAST 28TH",
        "streetDirectionId": null,
        "streetTypeId": "ST",
        "placeName": "HAMILTON",
        "streetNameDisplayText": "EAST 28TH ST, HAMILTON"
      }
    ]
  },
  {
    "postal": "L8V1P4",
    "result": [
      {
        "electoralDistricts": [
          {
            "election": null,
            "id": 38,
            "name": "Hamilton Mountain"
          }
        ],
        "pollDivisionIds": [
          10138691
        ],
        "postalCode": "L8V1P4",
        "streetName": "BRUCEDALE",
        "streetDirectionId": "E",
        "streetTypeId": "AVE",
        "placeName": "HAMILTON",
        "streetNameDisplayText": "BRUCEDALE AVE E, HAMILTON"
      }
    ]
  },
  {
    "postal": "L8V2A3",
    "result": [
      {
        "electoralDistricts": [
          {
            "election": null,
            "id": 38,
            "name": "Hamilton Mountain"
          }
        ],
        "pollDivisionIds": [
          10138691
        ],
        "postalCode": "L8V2A3",
        "streetName": "FRANKLIN",
        "streetDirectionId": null,
        "streetTypeId": "RD",
        "placeName": "HAMILTON",
        "streetNameDisplayText": "FRANKLIN RD, HAMILTON"
      }
    ]
  },
  {
    "postal": "L8V0Z1",
    "result": []
  },
  {
    "postal": "L8V1C1",
    "result": [
      {
        "electoralDistricts": [
          {
            "election": null,
            "id": 38,
            "name": "Hamilton Mountain"
          }
        ],
        "pollDivisionIds": [
          10143886
        ],
        "postalCode": "L8V1C1",
        "streetName": "CONCESSION",
        "streetDirectionId": null,
        "streetTypeId": "ST",
        "placeName": "HAMILTON",
        "streetNameDisplayText": "CONCESSION ST, HAMILTON"
      }
    ]
  },
  {
    "postal": "L8V0H3",
    "result": []
  },
  {
    "postal": "L8V7B0",
    "result": []
  },
  {
    "postal": "L8V5K2",
    "result": []
  },
  {
    "postal": "L8V1E9",
    "result": [
      {
        "electoralDistricts": [
          {
            "election": null,
            "id": 38,
            "name": "Hamilton Mountain"
          }
        ],
        "pollDivisionIds": [
          10143886
        ],
        "postalCode": "L8V1E9",
        "streetName": "CONCESSION",
        "streetDirectionId": null,
        "streetTypeId": "ST",
        "placeName": "HAMILTON",
        "streetNameDisplayText": "CONCESSION ST, HAMILTON"
      }
    ]
  },
  {
    "postal": "L8V9W7",
    "result": []
  },
  {
    "postal": "L8V5W6",
    "result": []
  },
  {
    "postal": "L8V6S6",
    "result": []
  },
  {
    "postal": "L8V2P8",
    "result": [
      {
        "electoralDistricts": [
          {
            "election": null,
            "id": 38,
            "name": "Hamilton Mountain"
          }
        ],
        "pollDivisionIds": [
          10138700
        ],
        "postalCode": "L8V2P8",
        "streetName": "BERKO",
        "streetDirectionId": null,
        "streetTypeId": "AVE",
        "placeName": "HAMILTON",
        "streetNameDisplayText": "BERKO AVE, HAMILTON"
      }
    ]
  },
  {
    "postal": "L8V4P8",
    "result": [
      {
        "electoralDistricts": [
          {
            "election": null,
            "id": 38,
            "name": "Hamilton Mountain"
          }
        ],
        "pollDivisionIds": [
          10138700
        ],
        "postalCode": "L8V4P8",
        "streetName": "LING",
        "streetDirectionId": null,
        "streetTypeId": "ST",
        "placeName": "HAMILTON",
        "streetNameDisplayText": "LING ST, HAMILTON"
      }
    ]
  },
  {
    "postal": "L8V0V9",
    "result": []
  },
  {
    "postal": "L8V5Y2",
    "result": []
  },
  {
    "postal": "L8V7Z7",
    "result": []
  },
  {
    "postal": "L8V6Y8",
    "result": []
  },
  {
    "postal": "L8V2G7",
    "result": [
      {
        "electoralDistricts": [
          {
            "election": null,
            "id": 38,
            "name": "Hamilton Mountain"
          }
        ],
        "pollDivisionIds": [
          10138691
        ],
        "postalCode": "L8V2G7",
        "streetName": "GILDEA",
        "streetDirectionId": null,
        "streetTypeId": "ST",
        "placeName": "HAMILTON",
        "streetNameDisplayText": "GILDEA ST, HAMILTON"
      }
    ]
  },
  {
    "postal": "L8V8C1",
    "result": []
  },
  {
    "postal": "L8V5C5",
    "result": []
  },
  {
    "postal": "L8V2X8",
    "result": [
      {
        "electoralDistricts": [
          {
            "election": null,
            "id": 38,
            "name": "Hamilton Mountain"
          }
        ],
        "pollDivisionIds": [
          10143886
        ],
        "postalCode": "L8V2X8",
        "streetName": "EAST 24TH",
        "streetDirectionId": null,
        "streetTypeId": "ST",
        "placeName": "HAMILTON",
        "streetNameDisplayText": "EAST 24TH ST, HAMILTON"
      }
    ]
  },
  {
    "postal": "L8V1W5",
    "result": [
      {
        "electoralDistricts": [
          {
            "election": null,
            "id": 38,
            "name": "Hamilton Mountain"
          }
        ],
        "pollDivisionIds": [
          10143886
        ],
        "postalCode": "L8V1W5",
        "streetName": "FENNELL",
        "streetDirectionId": "E",
        "streetTypeId": "AVE",
        "placeName": "HAMILTON",
        "streetNameDisplayText": "FENNELL AVE E, HAMILTON"
      }
    ]
  },
  {
    "postal": "L8V7G0",
    "result": []
  },
  {
    "postal": "L8V8J8",
    "result": []
  },
  {
    "postal": "L8V3Y0",
    "result": []
  },
  {
    "postal": "L8V9T7",
    "result": []
  },
  {
    "postal": "L8V5P4",
    "result": []
  },
  {
    "postal": "L8V4B0",
    "result": []
  },
  {
    "postal": "L8V9N8",
    "result": []
  },
  {
    "postal": "L8V4A7",
    "result": [
      {
        "electoralDistricts": [
          {
            "election": null,
            "id": 38,
            "name": "Hamilton Mountain"
          }
        ],
        "pollDivisionIds": [
          10143886
        ],
        "postalCode": "L8V4A7",
        "streetName": "EAST 37TH",
        "streetDirectionId": null,
        "streetTypeId": "ST",
        "placeName": "HAMILTON",
        "streetNameDisplayText": "EAST 37TH ST, HAMILTON"
      }
    ]
  },
  {
    "postal": "L8V4H9",
    "result": [
      {
        "electoralDistricts": [
          {
            "election": null,
            "id": 38,
            "name": "Hamilton Mountain"
          }
        ],
        "pollDivisionIds": [
          10143886
        ],
        "postalCode": "L8V4H9",
        "streetName": "UPPER GAGE",
        "streetDirectionId": null,
        "streetTypeId": "AVE",
        "placeName": "HAMILTON",
        "streetNameDisplayText": "UPPER GAGE AVE, HAMILTON"
      }
    ]
  },
  {
    "postal": "L8V6X1",
    "result": []
  },
  {
    "postal": "L8V9Y7",
    "result": []
  },
  {
    "postal": "L8V2Y5",
    "result": [
      {
        "electoralDistricts": [
          {
            "election": null,
            "id": 38,
            "name": "Hamilton Mountain"
          }
        ],
        "pollDivisionIds": [
          10138691
        ],
        "postalCode": "L8V2Y5",
        "streetName": "EAST 24TH",
        "streetDirectionId": null,
        "streetTypeId": "ST",
        "placeName": "HAMILTON",
        "streetNameDisplayText": "EAST 24TH ST, HAMILTON"
      }
    ]
  },
  {
    "postal": "L8V8L7",
    "result": []
  },
  {
    "postal": "L8V2A8",
    "result": [
      {
        "electoralDistricts": [
          {
            "election": null,
            "id": 38,
            "name": "Hamilton Mountain"
          }
        ],
        "pollDivisionIds": [
          10138696
        ],
        "postalCode": "L8V2A8",
        "streetName": "MACASSA",
        "streetDirectionId": null,
        "streetTypeId": "AVE",
        "placeName": "HAMILTON",
        "streetNameDisplayText": "MACASSA AVE, HAMILTON"
      }
    ]
  },
  {
    "postal": "L8V2K9",
    "result": [
      {
        "electoralDistricts": [
          {
            "election": null,
            "id": 38,
            "name": "Hamilton Mountain"
          }
        ],
        "pollDivisionIds": [
          10138700
        ],
        "postalCode": "L8V2K9",
        "streetName": "WINDRUSH",
        "streetDirectionId": null,
        "streetTypeId": "CRES",
        "placeName": "HAMILTON",
        "streetNameDisplayText": "WINDRUSH CRES, HAMILTON"
      }
    ]
  },
  {
    "postal": "L8V3E5",
    "result": [
      {
        "electoralDistricts": [
          {
            "election": null,
            "id": 38,
            "name": "Hamilton Mountain"
          }
        ],
        "pollDivisionIds": [
          10138691
        ],
        "postalCode": "L8V3E5",
        "streetName": "SHADYSIDE",
        "streetDirectionId": null,
        "streetTypeId": "AVE",
        "placeName": "HAMILTON",
        "streetNameDisplayText": "SHADYSIDE AVE, HAMILTON"
      }
    ]
  },
  {
    "postal": "L8V8N6",
    "result": []
  },
  {
    "postal": "L8V8J4",
    "result": []
  },
  {
    "postal": "L8V4R7",
    "result": [
      {
        "electoralDistricts": [
          {
            "election": null,
            "id": 38,
            "name": "Hamilton Mountain"
          }
        ],
        "pollDivisionIds": [
          10138697
        ],
        "postalCode": "L8V4R7",
        "streetName": "UPPER GAGE",
        "streetDirectionId": null,
        "streetTypeId": "AVE",
        "placeName": "HAMILTON",
        "streetNameDisplayText": "UPPER GAGE AVE, HAMILTON"
      }
    ]
  },
  {
    "postal": "L8V9K1",
    "result": []
  },
  {
    "postal": "L8V8E1",
    "result": []
  },
  {
    "postal": "L8V0R1",
    "result": []
  },
  {
    "postal": "L8V4J3",
    "result": [
      {
        "electoralDistricts": [
          {
            "election": null,
            "id": 38,
            "name": "Hamilton Mountain"
          }
        ],
        "pollDivisionIds": [
          10138694
        ],
        "postalCode": "L8V4J3",
        "streetName": "UPPER GAGE",
        "streetDirectionId": null,
        "streetTypeId": "AVE",
        "placeName": "HAMILTON",
        "streetNameDisplayText": "UPPER GAGE AVE, HAMILTON"
      }
    ]
  },
  {
    "postal": "L8V7E7",
    "result": []
  },
  {
    "postal": "L8V0J0",
    "result": []
  },
  {
    "postal": "L8V7R8",
    "result": []
  },
  {
    "postal": "L8V9X0",
    "result": []
  },
  {
    "postal": "L8V7P6",
    "result": []
  },
  {
    "postal": "L8V0R7",
    "result": []
  },
  {
    "postal": "L8V5W1",
    "result": []
  },
  {
    "postal": "L8V0K4",
    "result": []
  },
  {
    "postal": "L8V7N9",
    "result": []
  },
  {
    "postal": "L8V1N0",
    "result": []
  },
  {
    "postal": "L8V6P3",
    "result": []
  },
  {
    "postal": "L8V5A1",
    "result": [
      {
        "electoralDistricts": [
          {
            "election": null,
            "id": 38,
            "name": "Hamilton Mountain"
          }
        ],
        "pollDivisionIds": [
          10138690
        ],
        "postalCode": "L8V5A1",
        "streetName": "PARKWOOD",
        "streetDirectionId": null,
        "streetTypeId": "CRES",
        "placeName": "HAMILTON",
        "streetNameDisplayText": "PARKWOOD CRES, HAMILTON"
      },
      {
        "electoralDistricts": [
          {
            "election": null,
            "id": 38,
            "name": "Hamilton Mountain"
          }
        ],
        "pollDivisionIds": [
          10138690
        ],
        "postalCode": "L8V5A1",
        "streetName": "WALDORF",
        "streetDirectionId": null,
        "streetTypeId": "CRT",
        "placeName": "HAMILTON",
        "streetNameDisplayText": "WALDORF CRT, HAMILTON"
      }
    ]
  },
  {
    "postal": "L8V9M9",
    "result": []
  },
  {
    "postal": "L8V7T6",
    "result": []
  },
  {
    "postal": "L8V3X0",
    "result": []
  },
  {
    "postal": "L8V2T0",
    "result": []
  },
  {
    "postal": "L8V5X9",
    "result": []
  },
  {
    "postal": "L8V2R3",
    "result": [
      {
        "electoralDistricts": [
          {
            "election": null,
            "id": 38,
            "name": "Hamilton Mountain"
          }
        ],
        "pollDivisionIds": [
          10138700
        ],
        "postalCode": "L8V2R3",
        "streetName": "BERKO",
        "streetDirectionId": null,
        "streetTypeId": "AVE",
        "placeName": "HAMILTON",
        "streetNameDisplayText": "BERKO AVE, HAMILTON"
      }
    ]
  },
  {
    "postal": "L8V5N2",
    "result": []
  },
  {
    "postal": "L8V4Y7",
    "result": []
  },
  {
    "postal": "L8V7M0",
    "result": []
  },
  {
    "postal": "L8V8P3",
    "result": []
  },
  {
    "postal": "L8V3N3",
    "result": [
      {
        "electoralDistricts": [
          {
            "election": null,
            "id": 38,
            "name": "Hamilton Mountain"
          }
        ],
        "pollDivisionIds": [
          10138690
        ],
        "postalCode": "L8V3N3",
        "streetName": "UPPER SHERMAN",
        "streetDirectionId": null,
        "streetTypeId": "AVE",
        "placeName": "HAMILTON",
        "streetNameDisplayText": "UPPER SHERMAN AVE, HAMILTON"
      }
    ]
  },
  {
    "postal": "L8V7S3",
    "result": []
  },
  {
    "postal": "L8V3V9",
    "result": [
      {
        "electoralDistricts": [
          {
            "election": null,
            "id": 38,
            "name": "Hamilton Mountain"
          }
        ],
        "pollDivisionIds": [
          10138700
        ],
        "postalCode": "L8V3V9",
        "streetName": "KIRKLAND",
        "streetDirectionId": null,
        "streetTypeId": "AVE",
        "placeName": "HAMILTON",
        "streetNameDisplayText": "KIRKLAND AVE, HAMILTON"
      }
    ]
  },
  {
    "postal": "L8V9N7",
    "result": []
  },
  {
    "postal": "L8V0G4",
    "result": []
  },
  {
    "postal": "L8V2E2",
    "result": [
      {
        "electoralDistricts": [
          {
            "election": null,
            "id": 38,
            "name": "Hamilton Mountain"
          }
        ],
        "pollDivisionIds": [
          10138696
        ],
        "postalCode": "L8V2E2",
        "streetName": "DALLAS",
        "streetDirectionId": null,
        "streetTypeId": "AVE",
        "placeName": "HAMILTON",
        "streetNameDisplayText": "DALLAS AVE, HAMILTON"
      }
    ]
  },
  {
    "postal": "L8V7W8",
    "result": []
  },
  {
    "postal": "L8V7M5",
    "result": []
  },
  {
    "postal": "L8V5W8",
    "result": []
  },
  {
    "postal": "L8V5E5",
    "result": []
  },
  {
    "postal": "L8V1P9",
    "result": [
      {
        "electoralDistricts": [
          {
            "election": null,
            "id": 38,
            "name": "Hamilton Mountain"
          }
        ],
        "pollDivisionIds": [
          10143886
        ],
        "postalCode": "L8V1P9",
        "streetName": "BRUCEDALE",
        "streetDirectionId": "E",
        "streetTypeId": "AVE",
        "placeName": "HAMILTON",
        "streetNameDisplayText": "BRUCEDALE AVE E, HAMILTON"
      }
    ]
  },
  {
    "postal": "L8V8V8",
    "result": []
  },
  {
    "postal": "L8V9G8",
    "result": []
  },
  {
    "postal": "L8V8H9",
    "result": []
  },
  {
    "postal": "L8V1Z1",
    "result": [
      {
        "electoralDistricts": [
          {
            "election": null,
            "id": 38,
            "name": "Hamilton Mountain"
          }
        ],
        "pollDivisionIds": [
          10138696
        ],
        "postalCode": "L8V1Z1",
        "streetName": "SEVENTH",
        "streetDirectionId": null,
        "streetTypeId": "AVE",
        "placeName": "HAMILTON",
        "streetNameDisplayText": "SEVENTH AVE, HAMILTON"
      }
    ]
  },
  {
    "postal": "L8V8M3",
    "result": []
  },
  {
    "postal": "L8V5H6",
    "result": []
  },
  {
    "postal": "L8V7W7",
    "result": []
  },
  {
    "postal": "L8V4L0",
    "result": []
  },
  {
    "postal": "L8V2N1",
    "result": [
      {
        "electoralDistricts": [
          {
            "election": null,
            "id": 38,
            "name": "Hamilton Mountain"
          }
        ],
        "pollDivisionIds": [
          10138690
        ],
        "postalCode": "L8V2N1",
        "streetName": "JASMINE",
        "streetDirectionId": null,
        "streetTypeId": "ST",
        "placeName": "HAMILTON",
        "streetNameDisplayText": "JASMINE ST, HAMILTON"
      }
    ]
  },
  {
    "postal": "L8V2H4",
    "result": [
      {
        "electoralDistricts": [
          {
            "election": null,
            "id": 38,
            "name": "Hamilton Mountain"
          }
        ],
        "pollDivisionIds": [
          10138696
        ],
        "postalCode": "L8V2H4",
        "streetName": "CAMEO",
        "streetDirectionId": null,
        "streetTypeId": "AVE",
        "placeName": "HAMILTON",
        "streetNameDisplayText": "CAMEO AVE, HAMILTON"
      }
    ]
  },
  {
    "postal": "L8V5C8",
    "result": []
  },
  {
    "postal": "L8V8B0",
    "result": []
  },
  {
    "postal": "L8V1T4",
    "result": [
      {
        "electoralDistricts": [
          {
            "election": null,
            "id": 38,
            "name": "Hamilton Mountain"
          }
        ],
        "pollDivisionIds": [
          10138691
        ],
        "postalCode": "L8V1T4",
        "streetName": "FENNELL",
        "streetDirectionId": "E",
        "streetTypeId": "AVE",
        "placeName": "HAMILTON",
        "streetNameDisplayText": "FENNELL AVE E, HAMILTON"
      }
    ]
  },
  {
    "postal": "L8V7N7",
    "result": []
  },
  {
    "postal": "L8V4L3",
    "result": []
  },
  {
    "postal": "L8V2N2",
    "result": [
      {
        "electoralDistricts": [
          {
            "election": null,
            "id": 38,
            "name": "Hamilton Mountain"
          }
        ],
        "pollDivisionIds": [
          10138700
        ],
        "postalCode": "L8V2N2",
        "streetName": "JEANETTE",
        "streetDirectionId": null,
        "streetTypeId": "ST",
        "placeName": "HAMILTON",
        "streetNameDisplayText": "JEANETTE ST, HAMILTON"
      }
    ]
  },
  {
    "postal": "L8V4N8",
    "result": [
      {
        "electoralDistricts": [
          {
            "election": null,
            "id": 38,
            "name": "Hamilton Mountain"
          }
        ],
        "pollDivisionIds": [
          10138700
        ],
        "postalCode": "L8V4N8",
        "streetName": "LAWNHURST",
        "streetDirectionId": null,
        "streetTypeId": "DR",
        "placeName": "HAMILTON",
        "streetNameDisplayText": "LAWNHURST DR, HAMILTON"
      }
    ]
  },
  {
    "postal": "L8V3M5",
    "result": [
      {
        "electoralDistricts": [
          {
            "election": null,
            "id": 38,
            "name": "Hamilton Mountain"
          }
        ],
        "pollDivisionIds": [
          10138691
        ],
        "postalCode": "L8V3M5",
        "streetName": "UPPER SHERMAN",
        "streetDirectionId": null,
        "streetTypeId": "AVE",
        "placeName": "HAMILTON",
        "streetNameDisplayText": "UPPER SHERMAN AVE, HAMILTON"
      }
    ]
  },
  {
    "postal": "L8V6H7",
    "result": []
  },
  {
    "postal": "L8V8Y8",
    "result": []
  },
  {
    "postal": "L8V5R9",
    "result": []
  },
  {
    "postal": "L8V8G3",
    "result": []
  },
  {
    "postal": "L8V4N7",
    "result": [
      {
        "electoralDistricts": [
          {
            "election": null,
            "id": 38,
            "name": "Hamilton Mountain"
          }
        ],
        "pollDivisionIds": [
          10138700
        ],
        "postalCode": "L8V4N7",
        "streetName": "LAMBERT",
        "streetDirectionId": null,
        "streetTypeId": "ST",
        "placeName": "HAMILTON",
        "streetNameDisplayText": "LAMBERT ST, HAMILTON"
      }
    ]
  },
  {
    "postal": "L8V0B9",
    "result": []
  },
  {
    "postal": "L8V9K7",
    "result": []
  },
  {
    "postal": "L8V9K9",
    "result": []
  },
  {
    "postal": "L8V3Z2",
    "result": [
      {
        "electoralDistricts": [
          {
            "election": null,
            "id": 38,
            "name": "Hamilton Mountain"
          }
        ],
        "pollDivisionIds": [
          10143886
        ],
        "postalCode": "L8V3Z2",
        "streetName": "EAST 36TH",
        "streetDirectionId": null,
        "streetTypeId": "ST",
        "placeName": "HAMILTON",
        "streetNameDisplayText": "EAST 36TH ST, HAMILTON"
      }
    ]
  },
  {
    "postal": "L8V6W7",
    "result": []
  },
  {
    "postal": "L8V0P1",
    "result": []
  },
  {
    "postal": "L8V3A0",
    "result": []
  },
  {
    "postal": "L8V8L9",
    "result": []
  },
  {
    "postal": "L8V6X0",
    "result": []
  },
  {
    "postal": "L8V3E9",
    "result": [
      {
        "electoralDistricts": [
          {
            "election": null,
            "id": 38,
            "name": "Hamilton Mountain"
          }
        ],
        "pollDivisionIds": [
          10143886
        ],
        "postalCode": "L8V3E9",
        "streetName": "EAST 27TH",
        "streetDirectionId": null,
        "streetTypeId": "ST",
        "placeName": "HAMILTON",
        "streetNameDisplayText": "EAST 27TH ST, HAMILTON"
      }
    ]
  },
  {
    "postal": "L8V0S5",
    "result": []
  },
  {
    "postal": "L8V1A2",
    "result": [
      {
        "electoralDistricts": [
          {
            "election": null,
            "id": 38,
            "name": "Hamilton Mountain"
          }
        ],
        "pollDivisionIds": [
          10143886
        ],
        "postalCode": "L8V1A2",
        "streetName": "MOUNTAIN PARK",
        "streetDirectionId": null,
        "streetTypeId": "AVE",
        "placeName": "HAMILTON",
        "streetNameDisplayText": "MOUNTAIN PARK AVE, HAMILTON"
      }
    ]
  },
  {
    "postal": "L8V5V8",
    "result": []
  },
  {
    "postal": "L8V8C5",
    "result": []
  },
  {
    "postal": "L8V6N0",
    "result": []
  },
  {
    "postal": "L8V9E6",
    "result": []
  },
  {
    "postal": "L8V5J7",
    "result": []
  },
  {
    "postal": "L8V2R2",
    "result": [
      {
        "electoralDistricts": [
          {
            "election": null,
            "id": 38,
            "name": "Hamilton Mountain"
          }
        ],
        "pollDivisionIds": [
          10138700
        ],
        "postalCode": "L8V2R2",
        "streetName": "BERKO",
        "streetDirectionId": null,
        "streetTypeId": "AVE",
        "placeName": "HAMILTON",
        "streetNameDisplayText": "BERKO AVE, HAMILTON"
      }
    ]
  },
  {
    "postal": "L8V0P5",
    "result": []
  },
  {
    "postal": "L8V5A7",
    "result": [
      {
        "electoralDistricts": [
          {
            "election": null,
            "id": 38,
            "name": "Hamilton Mountain"
          }
        ],
        "pollDivisionIds": [
          10138690
        ],
        "postalCode": "L8V5A7",
        "streetName": "CARRIAGEGATE",
        "streetDirectionId": null,
        "streetTypeId": "DR",
        "placeName": "HAMILTON",
        "streetNameDisplayText": "CARRIAGEGATE DR, HAMILTON"
      },
      {
        "electoralDistricts": [
          {
            "election": null,
            "id": 38,
            "name": "Hamilton Mountain"
          }
        ],
        "pollDivisionIds": [
          10138690
        ],
        "postalCode": "L8V5A7",
        "streetName": "PARKWOOD",
        "streetDirectionId": null,
        "streetTypeId": "CRES",
        "placeName": "HAMILTON",
        "streetNameDisplayText": "PARKWOOD CRES, HAMILTON"
      }
    ]
  },
  {
    "postal": "L8V1G1",
    "result": [
      {
        "electoralDistricts": [
          {
            "election": null,
            "id": 38,
            "name": "Hamilton Mountain"
          }
        ],
        "pollDivisionIds": [
          10143886
        ],
        "postalCode": "L8V1G1",
        "streetName": "CONCESSION",
        "streetDirectionId": null,
        "streetTypeId": "ST",
        "placeName": "HAMILTON",
        "streetNameDisplayText": "CONCESSION ST, HAMILTON"
      }
    ]
  },
  {
    "postal": "L8V9R6",
    "result": []
  },
  {
    "postal": "L8V4Z9",
    "result": [
      {
        "electoralDistricts": [
          {
            "election": null,
            "id": 38,
            "name": "Hamilton Mountain"
          }
        ],
        "pollDivisionIds": [
          10138690
        ],
        "postalCode": "L8V4Z9",
        "streetName": "PARKWOOD",
        "streetDirectionId": null,
        "streetTypeId": "CRES",
        "placeName": "HAMILTON",
        "streetNameDisplayText": "PARKWOOD CRES, HAMILTON"
      }
    ]
  },
  {
    "postal": "L8V1V5",
    "result": [
      {
        "electoralDistricts": [
          {
            "election": null,
            "id": 38,
            "name": "Hamilton Mountain"
          }
        ],
        "pollDivisionIds": [
          10138691
        ],
        "postalCode": "L8V1V5",
        "streetName": "FENNELL",
        "streetDirectionId": "E",
        "streetTypeId": "AVE",
        "placeName": "HAMILTON",
        "streetNameDisplayText": "FENNELL AVE E, HAMILTON"
      }
    ]
  },
  {
    "postal": "L8V9Y5",
    "result": []
  },
  {
    "postal": "L8V1P2",
    "result": [
      {
        "electoralDistricts": [
          {
            "election": null,
            "id": 38,
            "name": "Hamilton Mountain"
          }
        ],
        "pollDivisionIds": [
          10138691
        ],
        "postalCode": "L8V1P2",
        "streetName": "BRUCEDALE",
        "streetDirectionId": "E",
        "streetTypeId": "AVE",
        "placeName": "HAMILTON",
        "streetNameDisplayText": "BRUCEDALE AVE E, HAMILTON"
      }
    ]
  },
  {
    "postal": "L8V5X0",
    "result": []
  },
  {
    "postal": "L8V7B8",
    "result": []
  },
  {
    "postal": "L8V0C6",
    "result": []
  },
  {
    "postal": "L8V6G1",
    "result": []
  },
  {
    "postal": "L8V3K3",
    "result": [
      {
        "electoralDistricts": [
          {
            "election": null,
            "id": 38,
            "name": "Hamilton Mountain"
          }
        ],
        "pollDivisionIds": [
          10138690
        ],
        "postalCode": "L8V3K3",
        "streetName": "BISHOPSGATE",
        "streetDirectionId": null,
        "streetTypeId": "AVE",
        "placeName": "HAMILTON",
        "streetNameDisplayText": "BISHOPSGATE AVE, HAMILTON"
      }
    ]
  },
  {
    "postal": "L8V9R0",
    "result": []
  },
  {
    "postal": "L8V4R8",
    "result": []
  },
  {
    "postal": "L8V5P9",
    "result": []
  },
  {
    "postal": "L8V8N4",
    "result": []
  },
  {
    "postal": "L8V8H4",
    "result": []
  },
  {
    "postal": "L8V4V1",
    "result": [
      {
        "electoralDistricts": [
          {
            "election": null,
            "id": 38,
            "name": "Hamilton Mountain"
          }
        ],
        "pollDivisionIds": [
          10138691
        ],
        "postalCode": "L8V4V1",
        "streetName": "EAST 24TH",
        "streetDirectionId": null,
        "streetTypeId": "ST",
        "placeName": "HAMILTON",
        "streetNameDisplayText": "EAST 24TH ST, HAMILTON"
      }
    ]
  },
  {
    "postal": "L8V1K5",
    "result": [
      {
        "electoralDistricts": [
          {
            "election": null,
            "id": 38,
            "name": "Hamilton Mountain"
          }
        ],
        "pollDivisionIds": [
          10143886
        ],
        "postalCode": "L8V1K5",
        "streetName": "MUNN",
        "streetDirectionId": null,
        "streetTypeId": "ST",
        "placeName": "HAMILTON",
        "streetNameDisplayText": "MUNN ST, HAMILTON"
      }
    ]
  },
  {
    "postal": "L8V1Z5",
    "result": [
      {
        "electoralDistricts": [
          {
            "election": null,
            "id": 38,
            "name": "Hamilton Mountain"
          }
        ],
        "pollDivisionIds": [
          10138691
        ],
        "postalCode": "L8V1Z5",
        "streetName": "HALAM",
        "streetDirectionId": null,
        "streetTypeId": "AVE",
        "placeName": "HAMILTON",
        "streetNameDisplayText": "HALAM AVE, HAMILTON"
      }
    ]
  },
  {
    "postal": "L8V9L9",
    "result": []
  },
  {
    "postal": "L8V5L2",
    "result": []
  },
  {
    "postal": "L8V0M2",
    "result": []
  },
  {
    "postal": "L8V1K8",
    "result": [
      {
        "electoralDistricts": [
          {
            "election": null,
            "id": 38,
            "name": "Hamilton Mountain"
          }
        ],
        "pollDivisionIds": [
          10143886
        ],
        "postalCode": "L8V1K8",
        "streetName": "QUEENSDALE",
        "streetDirectionId": "E",
        "streetTypeId": "AVE",
        "placeName": "HAMILTON",
        "streetNameDisplayText": "QUEENSDALE AVE E, HAMILTON"
      }
    ]
  },
  {
    "postal": "L8V3M7",
    "result": [
      {
        "electoralDistricts": [
          {
            "election": null,
            "id": 38,
            "name": "Hamilton Mountain"
          }
        ],
        "pollDivisionIds": [
          10138696,
          10138691,
          10138712
        ],
        "postalCode": "L8V3M7",
        "streetName": "UPPER SHERMAN",
        "streetDirectionId": null,
        "streetTypeId": "AVE",
        "placeName": "HAMILTON",
        "streetNameDisplayText": "UPPER SHERMAN AVE, HAMILTON"
      }
    ]
  },
  {
    "postal": "L8V1B2",
    "result": [
      {
        "electoralDistricts": [
          {
            "election": null,
            "id": 38,
            "name": "Hamilton Mountain"
          }
        ],
        "pollDivisionIds": [
          10143886
        ],
        "postalCode": "L8V1B2",
        "streetName": "CONCESSION",
        "streetDirectionId": null,
        "streetTypeId": "ST",
        "placeName": "HAMILTON",
        "streetNameDisplayText": "CONCESSION ST, HAMILTON"
      }
    ]
  },
  {
    "postal": "L8V0H9",
    "result": []
  },
  {
    "postal": "L8V8M4",
    "result": []
  },
  {
    "postal": "L8V2M5",
    "result": [
      {
        "electoralDistricts": [
          {
            "election": null,
            "id": 38,
            "name": "Hamilton Mountain"
          }
        ],
        "pollDivisionIds": [
          10138690
        ],
        "postalCode": "L8V2M5",
        "streetName": "THORNER",
        "streetDirectionId": null,
        "streetTypeId": "DR",
        "placeName": "HAMILTON",
        "streetNameDisplayText": "THORNER DR, HAMILTON"
      }
    ]
  },
  {
    "postal": "L8V0T9",
    "result": []
  },
  {
    "postal": "L8V3P1",
    "result": [
      {
        "electoralDistricts": [
          {
            "election": null,
            "id": 38,
            "name": "Hamilton Mountain"
          }
        ],
        "pollDivisionIds": [
          10143886
        ],
        "postalCode": "L8V3P1",
        "streetName": "EAST 31ST",
        "streetDirectionId": null,
        "streetTypeId": "ST",
        "placeName": "HAMILTON",
        "streetNameDisplayText": "EAST 31ST ST, HAMILTON"
      }
    ]
  },
  {
    "postal": "L8V1R6",
    "result": [
      {
        "electoralDistricts": [
          {
            "election": null,
            "id": 38,
            "name": "Hamilton Mountain"
          }
        ],
        "pollDivisionIds": [
          10143886
        ],
        "postalCode": "L8V1R6",
        "streetName": "BRUCEDALE",
        "streetDirectionId": "E",
        "streetTypeId": "AVE",
        "placeName": "HAMILTON",
        "streetNameDisplayText": "BRUCEDALE AVE E, HAMILTON"
      }
    ]
  },
  {
    "postal": "L8V9V5",
    "result": []
  },
  {
    "postal": "L8V9T0",
    "result": []
  },
  {
    "postal": "L8V0A9",
    "result": []
  },
  {
    "postal": "L8V1M3",
    "result": [
      {
        "electoralDistricts": [
          {
            "election": null,
            "id": 38,
            "name": "Hamilton Mountain"
          }
        ],
        "pollDivisionIds": [
          10143886
        ],
        "postalCode": "L8V1M3",
        "streetName": "QUEENSDALE",
        "streetDirectionId": "E",
        "streetTypeId": "AVE",
        "placeName": "HAMILTON",
        "streetNameDisplayText": "QUEENSDALE AVE E, HAMILTON"
      }
    ]
  },
  {
    "postal": "L8V1W8",
    "result": [
      {
        "electoralDistricts": [
          {
            "election": null,
            "id": 38,
            "name": "Hamilton Mountain"
          }
        ],
        "pollDivisionIds": [
          10143886
        ],
        "postalCode": "L8V1W8",
        "streetName": "FENNELL",
        "streetDirectionId": "E",
        "streetTypeId": "AVE",
        "placeName": "HAMILTON",
        "streetNameDisplayText": "FENNELL AVE E, HAMILTON"
      }
    ]
  },
  {
    "postal": "L8V9J1",
    "result": []
  },
  {
    "postal": "L8V8N5",
    "result": []
  },
  {
    "postal": "L8V5X1",
    "result": []
  },
  {
    "postal": "L8V6S2",
    "result": []
  },
  {
    "postal": "L8V2A2",
    "result": [
      {
        "electoralDistricts": [
          {
            "election": null,
            "id": 38,
            "name": "Hamilton Mountain"
          }
        ],
        "pollDivisionIds": [
          10138691
        ],
        "postalCode": "L8V2A2",
        "streetName": "FRANKLIN",
        "streetDirectionId": null,
        "streetTypeId": "RD",
        "placeName": "HAMILTON",
        "streetNameDisplayText": "FRANKLIN RD, HAMILTON"
      }
    ]
  },
  {
    "postal": "L8V6A6",
    "result": []
  },
  {
    "postal": "L8V0S3",
    "result": []
  },
  {
    "postal": "L8V3E7",
    "result": [
      {
        "electoralDistricts": [
          {
            "election": null,
            "id": 38,
            "name": "Hamilton Mountain"
          }
        ],
        "pollDivisionIds": [
          10143886
        ],
        "postalCode": "L8V3E7",
        "streetName": "EAST 27TH",
        "streetDirectionId": null,
        "streetTypeId": "ST",
        "placeName": "HAMILTON",
        "streetNameDisplayText": "EAST 27TH ST, HAMILTON"
      }
    ]
  },
  {
    "postal": "L8V5R7",
    "result": []
  },
  {
    "postal": "L8V3R6",
    "result": [
      {
        "electoralDistricts": [
          {
            "election": null,
            "id": 38,
            "name": "Hamilton Mountain"
          }
        ],
        "pollDivisionIds": [
          10143886
        ],
        "postalCode": "L8V3R6",
        "streetName": "EAST 32ND",
        "streetDirectionId": null,
        "streetTypeId": "ST",
        "placeName": "HAMILTON",
        "streetNameDisplayText": "EAST 32ND ST, HAMILTON"
      }
    ]
  },
  {
    "postal": "L8V6K4",
    "result": []
  },
  {
    "postal": "L8V2W5",
    "result": [
      {
        "electoralDistricts": [
          {
            "election": null,
            "id": 38,
            "name": "Hamilton Mountain"
          }
        ],
        "pollDivisionIds": [
          10143886
        ],
        "postalCode": "L8V2W5",
        "streetName": "EAST 23RD",
        "streetDirectionId": null,
        "streetTypeId": "ST",
        "placeName": "HAMILTON",
        "streetNameDisplayText": "EAST 23RD ST, HAMILTON"
      }
    ]
  },
  {
    "postal": "L8V8W4",
    "result": []
  },
  {
    "postal": "L8V9C2",
    "result": []
  },
  {
    "postal": "L8V2C0",
    "result": []
  },
  {
    "postal": "L8V0E1",
    "result": []
  },
  {
    "postal": "L8V1K9",
    "result": [
      {
        "electoralDistricts": [
          {
            "election": null,
            "id": 38,
            "name": "Hamilton Mountain"
          }
        ],
        "pollDivisionIds": [
          10143886
        ],
        "postalCode": "L8V1K9",
        "streetName": "QUEENSDALE",
        "streetDirectionId": "E",
        "streetTypeId": "AVE",
        "placeName": "HAMILTON",
        "streetNameDisplayText": "QUEENSDALE AVE E, HAMILTON"
      }
    ]
  },
  {
    "postal": "L8V1G7",
    "result": [
      {
        "electoralDistricts": [
          {
            "election": null,
            "id": 38,
            "name": "Hamilton Mountain"
          }
        ],
        "pollDivisionIds": [
          10143886
        ],
        "postalCode": "L8V1G7",
        "streetName": "CROCKETT",
        "streetDirectionId": null,
        "streetTypeId": "ST",
        "placeName": "HAMILTON",
        "streetNameDisplayText": "CROCKETT ST, HAMILTON"
      }
    ]
  },
  {
    "postal": "L8V4E9",
    "result": [
      {
        "electoralDistricts": [
          {
            "election": null,
            "id": 38,
            "name": "Hamilton Mountain"
          }
        ],
        "pollDivisionIds": [
          10143886
        ],
        "postalCode": "L8V4E9",
        "streetName": "EAST 38TH",
        "streetDirectionId": null,
        "streetTypeId": "ST",
        "placeName": "HAMILTON",
        "streetNameDisplayText": "EAST 38TH ST, HAMILTON"
      }
    ]
  },
  {
    "postal": "L8V9P0",
    "result": []
  },
  {
    "postal": "L8V5H3",
    "result": []
  },
  {
    "postal": "L8V9X6",
    "result": []
  },
  {
    "postal": "L8V5N7",
    "result": []
  },
  {
    "postal": "L8V5A6",
    "result": [
      {
        "electoralDistricts": [
          {
            "election": null,
            "id": 38,
            "name": "Hamilton Mountain"
          }
        ],
        "pollDivisionIds": [
          10138690
        ],
        "postalCode": "L8V5A6",
        "streetName": "CARRIAGEGATE",
        "streetDirectionId": null,
        "streetTypeId": "DR",
        "placeName": "HAMILTON",
        "streetNameDisplayText": "CARRIAGEGATE DR, HAMILTON"
      }
    ]
  },
  {
    "postal": "L8V4M0",
    "result": []
  },
  {
    "postal": "L8V3V6",
    "result": [
      {
        "electoralDistricts": [
          {
            "election": null,
            "id": 38,
            "name": "Hamilton Mountain"
          }
        ],
        "pollDivisionIds": [
          10138700
        ],
        "postalCode": "L8V3V6",
        "streetName": "DARTFORD",
        "streetDirectionId": null,
        "streetTypeId": "PL",
        "placeName": "HAMILTON",
        "streetNameDisplayText": "DARTFORD PL, HAMILTON"
      }
    ]
  },
  {
    "postal": "L8V1L7",
    "result": [
      {
        "electoralDistricts": [
          {
            "election": null,
            "id": 38,
            "name": "Hamilton Mountain"
          }
        ],
        "pollDivisionIds": [
          10143886
        ],
        "postalCode": "L8V1L7",
        "streetName": "QUEENSDALE",
        "streetDirectionId": "E",
        "streetTypeId": "AVE",
        "placeName": "HAMILTON",
        "streetNameDisplayText": "QUEENSDALE AVE E, HAMILTON"
      }
    ]
  },
  {
    "postal": "L8V2P9",
    "result": [
      {
        "electoralDistricts": [
          {
            "election": null,
            "id": 38,
            "name": "Hamilton Mountain"
          }
        ],
        "pollDivisionIds": [
          10138700
        ],
        "postalCode": "L8V2P9",
        "streetName": "BERKO",
        "streetDirectionId": null,
        "streetTypeId": "AVE",
        "placeName": "HAMILTON",
        "streetNameDisplayText": "BERKO AVE, HAMILTON"
      }
    ]
  },
  {
    "postal": "L8V5T4",
    "result": []
  },
  {
    "postal": "L8V5Z1",
    "result": []
  },
  {
    "postal": "L8V2X0",
    "result": []
  },
  {
    "postal": "L8V6Z2",
    "result": []
  },
  {
    "postal": "L8V0E0",
    "result": []
  },
  {
    "postal": "L8V3Z5",
    "result": [
      {
        "electoralDistricts": [
          {
            "election": null,
            "id": 38,
            "name": "Hamilton Mountain"
          }
        ],
        "pollDivisionIds": [
          10143886
        ],
        "postalCode": "L8V3Z5",
        "streetName": "EAST 36TH",
        "streetDirectionId": null,
        "streetTypeId": "ST",
        "placeName": "HAMILTON",
        "streetNameDisplayText": "EAST 36TH ST, HAMILTON"
      }
    ]
  },
  {
    "postal": "L8V8H3",
    "result": []
  },
  {
    "postal": "L8V7S6",
    "result": []
  },
  {
    "postal": "L8V4C1",
    "result": [
      {
        "electoralDistricts": [
          {
            "election": null,
            "id": 38,
            "name": "Hamilton Mountain"
          }
        ],
        "pollDivisionIds": [
          10138696
        ],
        "postalCode": "L8V4C1",
        "streetName": "EAST 37TH",
        "streetDirectionId": null,
        "streetTypeId": "ST",
        "placeName": "HAMILTON",
        "streetNameDisplayText": "EAST 37TH ST, HAMILTON"
      }
    ]
  },
  {
    "postal": "L8V3K2",
    "result": [
      {
        "electoralDistricts": [
          {
            "election": null,
            "id": 38,
            "name": "Hamilton Mountain"
          }
        ],
        "pollDivisionIds": [
          10138691
        ],
        "postalCode": "L8V3K2",
        "streetName": "HELGA",
        "streetDirectionId": null,
        "streetTypeId": "CRT",
        "placeName": "HAMILTON",
        "streetNameDisplayText": "HELGA CRT, HAMILTON"
      }
    ]
  },
  {
    "postal": "L8V1Y5",
    "result": [
      {
        "electoralDistricts": [
          {
            "election": null,
            "id": 38,
            "name": "Hamilton Mountain"
          }
        ],
        "pollDivisionIds": [
          10138691
        ],
        "postalCode": "L8V1Y5",
        "streetName": "MACKENZIE",
        "streetDirectionId": null,
        "streetTypeId": "RD",
        "placeName": "HAMILTON",
        "streetNameDisplayText": "MACKENZIE RD, HAMILTON"
      }
    ]
  },
  {
    "postal": "L8V6P6",
    "result": []
  },
  {
    "postal": "L8V3N9",
    "result": [
      {
        "electoralDistricts": [
          {
            "election": null,
            "id": 38,
            "name": "Hamilton Mountain"
          }
        ],
        "pollDivisionIds": [
          10143886
        ],
        "postalCode": "L8V3N9",
        "streetName": "EAST 31ST",
        "streetDirectionId": null,
        "streetTypeId": "ST",
        "placeName": "HAMILTON",
        "streetNameDisplayText": "EAST 31ST ST, HAMILTON"
      }
    ]
  },
  {
    "postal": "L8V3W2",
    "result": [
      {
        "electoralDistricts": [
          {
            "election": null,
            "id": 38,
            "name": "Hamilton Mountain"
          }
        ],
        "pollDivisionIds": [
          10143886
        ],
        "postalCode": "L8V3W2",
        "streetName": "EAST 34TH",
        "streetDirectionId": null,
        "streetTypeId": "ST",
        "placeName": "HAMILTON",
        "streetNameDisplayText": "EAST 34TH ST, HAMILTON"
      }
    ]
  },
  {
    "postal": "L8V6H8",
    "result": []
  },
  {
    "postal": "L8V9T3",
    "result": []
  },
  {
    "postal": "L8V5L9",
    "result": []
  },
  {
    "postal": "L8V7X7",
    "result": []
  },
  {
    "postal": "L8V3J5",
    "result": [
      {
        "electoralDistricts": [
          {
            "election": null,
            "id": 38,
            "name": "Hamilton Mountain"
          }
        ],
        "pollDivisionIds": [
          10138691
        ],
        "postalCode": "L8V3J5",
        "streetName": "EAST 28TH",
        "streetDirectionId": null,
        "streetTypeId": "ST",
        "placeName": "HAMILTON",
        "streetNameDisplayText": "EAST 28TH ST, HAMILTON"
      }
    ]
  },
  {
    "postal": "L8V4J5",
    "result": [
      {
        "electoralDistricts": [
          {
            "election": null,
            "id": 38,
            "name": "Hamilton Mountain"
          }
        ],
        "pollDivisionIds": [
          10143886
        ],
        "postalCode": "L8V4J5",
        "streetName": "UPPER GAGE",
        "streetDirectionId": null,
        "streetTypeId": "AVE",
        "placeName": "HAMILTON",
        "streetNameDisplayText": "UPPER GAGE AVE, HAMILTON"
      }
    ]
  },
  {
    "postal": "L8V6J2",
    "result": []
  },
  {
    "postal": "L8V5V6",
    "result": []
  },
  {
    "postal": "L8V3N2",
    "result": [
      {
        "electoralDistricts": [
          {
            "election": null,
            "id": 38,
            "name": "Hamilton Mountain"
          }
        ],
        "pollDivisionIds": [
          10138700
        ],
        "postalCode": "L8V3N2",
        "streetName": "UPPER SHERMAN",
        "streetDirectionId": null,
        "streetTypeId": "AVE",
        "placeName": "HAMILTON",
        "streetNameDisplayText": "UPPER SHERMAN AVE, HAMILTON"
      }
    ]
  },
  {
    "postal": "L8V3B1",
    "result": [
      {
        "electoralDistricts": [
          {
            "election": null,
            "id": 38,
            "name": "Hamilton Mountain"
          }
        ],
        "pollDivisionIds": [
          10138691
        ],
        "postalCode": "L8V3B1",
        "streetName": "EAST 25TH",
        "streetDirectionId": null,
        "streetTypeId": "ST",
        "placeName": "HAMILTON",
        "streetNameDisplayText": "EAST 25TH ST, HAMILTON"
      }
    ]
  },
  {
    "postal": "L8V8B5",
    "result": []
  },
  {
    "postal": "L8V0K1",
    "result": []
  },
  {
    "postal": "L8V7M7",
    "result": []
  },
  {
    "postal": "L8V2M2",
    "result": [
      {
        "electoralDistricts": [
          {
            "election": null,
            "id": 38,
            "name": "Hamilton Mountain"
          }
        ],
        "pollDivisionIds": [
          10138690
        ],
        "postalCode": "L8V2M2",
        "streetName": "DORVAL",
        "streetDirectionId": null,
        "streetTypeId": "ST",
        "placeName": "HAMILTON",
        "streetNameDisplayText": "DORVAL ST, HAMILTON"
      }
    ]
  },
  {
    "postal": "L8V9N3",
    "result": []
  },
  {
    "postal": "L8V4Y8",
    "result": []
  },
  {
    "postal": "L8V3V7",
    "result": [
      {
        "electoralDistricts": [
          {
            "election": null,
            "id": 38,
            "name": "Hamilton Mountain"
          }
        ],
        "pollDivisionIds": [
          10138700
        ],
        "postalCode": "L8V3V7",
        "streetName": "DARTFORD",
        "streetDirectionId": null,
        "streetTypeId": "PL",
        "placeName": "HAMILTON",
        "streetNameDisplayText": "DARTFORD PL, HAMILTON"
      }
    ]
  },
  {
    "postal": "L8V8Z1",
    "result": []
  },
  {
    "postal": "L8V7B3",
    "result": []
  },
  {
    "postal": "L8V3A8",
    "result": [
      {
        "electoralDistricts": [
          {
            "election": null,
            "id": 38,
            "name": "Hamilton Mountain"
          }
        ],
        "pollDivisionIds": [
          10138691
        ],
        "postalCode": "L8V3A8",
        "streetName": "EAST 25TH",
        "streetDirectionId": null,
        "streetTypeId": "ST",
        "placeName": "HAMILTON",
        "streetNameDisplayText": "EAST 25TH ST, HAMILTON"
      }
    ]
  },
  {
    "postal": "L8V7V5",
    "result": []
  },
  {
    "postal": "L8V2T2",
    "result": [
      {
        "electoralDistricts": [
          {
            "election": null,
            "id": 38,
            "name": "Hamilton Mountain"
          }
        ],
        "pollDivisionIds": [
          10143886
        ],
        "postalCode": "L8V2T2",
        "streetName": "EAST 21ST",
        "streetDirectionId": null,
        "streetTypeId": "ST",
        "placeName": "HAMILTON",
        "streetNameDisplayText": "EAST 21ST ST, HAMILTON"
      }
    ]
  },
  {
    "postal": "L8V6L3",
    "result": []
  },
  {
    "postal": "L8V0L2",
    "result": []
  },
  {
    "postal": "L8V5Y8",
    "result": []
  },
  {
    "postal": "L8V0B8",
    "result": []
  },
  {
    "postal": "L8V6R5",
    "result": []
  },
  {
    "postal": "L8V8W6",
    "result": []
  },
  {
    "postal": "L8V8G6",
    "result": []
  },
  {
    "postal": "L8V6X3",
    "result": []
  },
  {
    "postal": "L8V7R7",
    "result": []
  },
  {
    "postal": "L8V4B6",
    "result": [
      {
        "electoralDistricts": [
          {
            "election": null,
            "id": 38,
            "name": "Hamilton Mountain"
          }
        ],
        "pollDivisionIds": [
          10138696
        ],
        "postalCode": "L8V4B6",
        "streetName": "EAST 37TH",
        "streetDirectionId": null,
        "streetTypeId": "ST",
        "placeName": "HAMILTON",
        "streetNameDisplayText": "EAST 37TH ST, HAMILTON"
      }
    ]
  },
  {
    "postal": "L8V3P9",
    "result": [
      {
        "electoralDistricts": [
          {
            "election": null,
            "id": 38,
            "name": "Hamilton Mountain"
          }
        ],
        "pollDivisionIds": [
          10138696
        ],
        "postalCode": "L8V3P9",
        "streetName": "EAST 31ST",
        "streetDirectionId": null,
        "streetTypeId": "ST",
        "placeName": "HAMILTON",
        "streetNameDisplayText": "EAST 31ST ST, HAMILTON"
      }
    ]
  },
  {
    "postal": "L8V2T3",
    "result": [
      {
        "electoralDistricts": [
          {
            "election": null,
            "id": 38,
            "name": "Hamilton Mountain"
          }
        ],
        "pollDivisionIds": [
          10143886
        ],
        "postalCode": "L8V2T3",
        "streetName": "EAST 21ST",
        "streetDirectionId": null,
        "streetTypeId": "ST",
        "placeName": "HAMILTON",
        "streetNameDisplayText": "EAST 21ST ST, HAMILTON"
      }
    ]
  },
  {
    "postal": "L8V1M4",
    "result": [
      {
        "electoralDistricts": [
          {
            "election": null,
            "id": 38,
            "name": "Hamilton Mountain"
          }
        ],
        "pollDivisionIds": [
          10143886
        ],
        "postalCode": "L8V1M4",
        "streetName": "QUEENSDALE",
        "streetDirectionId": "E",
        "streetTypeId": "AVE",
        "placeName": "HAMILTON",
        "streetNameDisplayText": "QUEENSDALE AVE E, HAMILTON"
      }
    ]
  },
  {
    "postal": "L8V0H1",
    "result": []
  },
  {
    "postal": "L8V9W3",
    "result": []
  },
  {
    "postal": "L8V6P1",
    "result": []
  },
  {
    "postal": "L8V7G2",
    "result": []
  },
  {
    "postal": "L8V4J9",
    "result": [
      {
        "electoralDistricts": [
          {
            "election": null,
            "id": 38,
            "name": "Hamilton Mountain"
          }
        ],
        "pollDivisionIds": [
          10138696
        ],
        "postalCode": "L8V4J9",
        "streetName": "UPPER GAGE",
        "streetDirectionId": null,
        "streetTypeId": "AVE",
        "placeName": "HAMILTON",
        "streetNameDisplayText": "UPPER GAGE AVE, HAMILTON"
      }
    ]
  },
  {
    "postal": "L8V9E4",
    "result": []
  },
  {
    "postal": "L8V8H0",
    "result": []
  },
  {
    "postal": "L8V4M7",
    "result": [
      {
        "electoralDistricts": [
          {
            "election": null,
            "id": 38,
            "name": "Hamilton Mountain"
          }
        ],
        "pollDivisionIds": [
          10138700
        ],
        "postalCode": "L8V4M7",
        "streetName": "BELLINGHAM",
        "streetDirectionId": null,
        "streetTypeId": "DR",
        "placeName": "HAMILTON",
        "streetNameDisplayText": "BELLINGHAM DR, HAMILTON"
      }
    ]
  },
  {
    "postal": "L8V2G9",
    "result": [
      {
        "electoralDistricts": [
          {
            "election": null,
            "id": 38,
            "name": "Hamilton Mountain"
          }
        ],
        "pollDivisionIds": [
          10138691
        ],
        "postalCode": "L8V2G9",
        "streetName": "SEELEY",
        "streetDirectionId": null,
        "streetTypeId": "AVE",
        "placeName": "HAMILTON",
        "streetNameDisplayText": "SEELEY AVE, HAMILTON"
      }
    ]
  },
  {
    "postal": "L8V8T2",
    "result": []
  },
  {
    "postal": "L8V7G7",
    "result": []
  },
  {
    "postal": "L8V4Z3",
    "result": [
      {
        "electoralDistricts": [
          {
            "election": null,
            "id": 38,
            "name": "Hamilton Mountain"
          }
        ],
        "pollDivisionIds": [
          10138690
        ],
        "postalCode": "L8V4Z3",
        "streetName": "PARKWOOD",
        "streetDirectionId": null,
        "streetTypeId": "CRES",
        "placeName": "HAMILTON",
        "streetNameDisplayText": "PARKWOOD CRES, HAMILTON"
      }
    ]
  },
  {
    "postal": "L8V5B3",
    "result": []
  },
  {
    "postal": "L8V1S7",
    "result": [
      {
        "electoralDistricts": [
          {
            "election": null,
            "id": 38,
            "name": "Hamilton Mountain"
          }
        ],
        "pollDivisionIds": [
          10138696
        ],
        "postalCode": "L8V1S7",
        "streetName": "BOLAN CRT ST.",
        "streetDirectionId": "W",
        "streetTypeId": "CRT",
        "placeName": "HAMILTON",
        "streetNameDisplayText": "BOLAN CRT ST. CRT W, HAMILTON"
      },
      {
        "electoralDistricts": [
          {
            "election": null,
            "id": 38,
            "name": "Hamilton Mountain"
          }
        ],
        "pollDivisionIds": [
          10143886
        ],
        "postalCode": "L8V1S7",
        "streetName": "BOLAN",
        "streetDirectionId": null,
        "streetTypeId": "CRT",
        "placeName": "HAMILTON",
        "streetNameDisplayText": "BOLAN CRT, HAMILTON"
      }
    ]
  },
  {
    "postal": "L8V2N7",
    "result": [
      {
        "electoralDistricts": [
          {
            "election": null,
            "id": 38,
            "name": "Hamilton Mountain"
          }
        ],
        "pollDivisionIds": [
          10138700
        ],
        "postalCode": "L8V2N7",
        "streetName": "CORAL",
        "streetDirectionId": null,
        "streetTypeId": "DR",
        "placeName": "HAMILTON",
        "streetNameDisplayText": "CORAL DR, HAMILTON"
      }
    ]
  },
  {
    "postal": "L8V0H8",
    "result": []
  },
  {
    "postal": "L8V7Z4",
    "result": []
  },
  {
    "postal": "L8V7B1",
    "result": []
  },
  {
    "postal": "L8V7P8",
    "result": []
  },
  {
    "postal": "L8V7N0",
    "result": []
  },
  {
    "postal": "L8V3Y5",
    "result": [
      {
        "electoralDistricts": [
          {
            "election": null,
            "id": 38,
            "name": "Hamilton Mountain"
          }
        ],
        "pollDivisionIds": [
          10143886
        ],
        "postalCode": "L8V3Y5",
        "streetName": "EAST 35TH",
        "streetDirectionId": null,
        "streetTypeId": "ST",
        "placeName": "HAMILTON",
        "streetNameDisplayText": "EAST 35TH ST, HAMILTON"
      }
    ]
  },
  {
    "postal": "L8V6K1",
    "result": []
  },
  {
    "postal": "L8V9X5",
    "result": []
  },
  {
    "postal": "L8V7S5",
    "result": []
  },
  {
    "postal": "L8V0A4",
    "result": [
      {
        "electoralDistricts": [
          {
            "election": null,
            "id": 38,
            "name": "Hamilton Mountain"
          }
        ],
        "pollDivisionIds": [
          10138700
        ],
        "postalCode": "L8V0A4",
        "streetName": "LAWSON",
        "streetDirectionId": null,
        "streetTypeId": "ST",
        "placeName": "HAMILTON",
        "streetNameDisplayText": "LAWSON ST, HAMILTON"
      }
    ]
  },
  {
    "postal": "L8V4T5",
    "result": [
      {
        "electoralDistricts": [
          {
            "election": null,
            "id": 38,
            "name": "Hamilton Mountain"
          }
        ],
        "pollDivisionIds": [
          10138691
        ],
        "postalCode": "L8V4T5",
        "streetName": "FRANKLIN",
        "streetDirectionId": null,
        "streetTypeId": "RD",
        "placeName": "HAMILTON",
        "streetNameDisplayText": "FRANKLIN RD, HAMILTON"
      }
    ]
  },
  {
    "postal": "L8V5K1",
    "result": []
  },
  {
    "postal": "L8V0Z9",
    "result": []
  },
  {
    "postal": "L8V7T2",
    "result": []
  },
  {
    "postal": "L8V1L5",
    "result": [
      {
        "electoralDistricts": [
          {
            "election": null,
            "id": 38,
            "name": "Hamilton Mountain"
          }
        ],
        "pollDivisionIds": [
          10143886
        ],
        "postalCode": "L8V1L5",
        "streetName": "QUEENSDALE",
        "streetDirectionId": "E",
        "streetTypeId": "AVE",
        "placeName": "HAMILTON",
        "streetNameDisplayText": "QUEENSDALE AVE E, HAMILTON"
      }
    ]
  },
  {
    "postal": "L8V3N5",
    "result": [
      {
        "electoralDistricts": [
          {
            "election": null,
            "id": 38,
            "name": "Hamilton Mountain"
          }
        ],
        "pollDivisionIds": [
          10138690
        ],
        "postalCode": "L8V3N5",
        "streetName": "UPPER SHERMAN",
        "streetDirectionId": null,
        "streetTypeId": "AV",
        "placeName": "HAMILTON",
        "streetNameDisplayText": "UPPER SHERMAN AV, HAMILTON"
      },
      {
        "electoralDistricts": [
          {
            "election": null,
            "id": 38,
            "name": "Hamilton Mountain"
          }
        ],
        "pollDivisionIds": [
          10138690
        ],
        "postalCode": "L8V3N5",
        "streetName": "UPPER SHERMAN",
        "streetDirectionId": null,
        "streetTypeId": "AVE",
        "placeName": "HAMILTON",
        "streetNameDisplayText": "UPPER SHERMAN AVE, HAMILTON"
      }
    ]
  },
  {
    "postal": "L8V6H4",
    "result": []
  },
  {
    "postal": "L8V5A5",
    "result": [
      {
        "electoralDistricts": [
          {
            "election": null,
            "id": 38,
            "name": "Hamilton Mountain"
          }
        ],
        "pollDivisionIds": [
          10138690
        ],
        "postalCode": "L8V5A5",
        "streetName": "PARKPLAZA",
        "streetDirectionId": null,
        "streetTypeId": "DR",
        "placeName": "HAMILTON",
        "streetNameDisplayText": "PARKPLAZA DR, HAMILTON"
      }
    ]
  },
  {
    "postal": "L8V3R9",
    "result": [
      {
        "electoralDistricts": [
          {
            "election": null,
            "id": 38,
            "name": "Hamilton Mountain"
          }
        ],
        "pollDivisionIds": [
          10143886
        ],
        "postalCode": "L8V3R9",
        "streetName": "EAST 32ND",
        "streetDirectionId": null,
        "streetTypeId": "ST",
        "placeName": "HAMILTON",
        "streetNameDisplayText": "EAST 32ND ST, HAMILTON"
      }
    ]
  },
  {
    "postal": "L8V7L8",
    "result": []
  },
  {
    "postal": "L8V6T6",
    "result": []
  },
  {
    "postal": "L8V7Y7",
    "result": []
  },
  {
    "postal": "L8V3M8",
    "result": [
      {
        "electoralDistricts": [
          {
            "election": null,
            "id": 38,
            "name": "Hamilton Mountain"
          }
        ],
        "pollDivisionIds": [
          10138691
        ],
        "postalCode": "L8V3M8",
        "streetName": "UPPER SHERMAN",
        "streetDirectionId": null,
        "streetTypeId": "AVE",
        "placeName": "HAMILTON",
        "streetNameDisplayText": "UPPER SHERMAN AVE, HAMILTON"
      }
    ]
  },
  {
    "postal": "L8V2E0",
    "result": []
  },
  {
    "postal": "L8V4B5",
    "result": [
      {
        "electoralDistricts": [
          {
            "election": null,
            "id": 38,
            "name": "Hamilton Mountain"
          }
        ],
        "pollDivisionIds": [
          10138696
        ],
        "postalCode": "L8V4B5",
        "streetName": "EAST 37TH",
        "streetDirectionId": null,
        "streetTypeId": "ST",
        "placeName": "HAMILTON",
        "streetNameDisplayText": "EAST 37TH ST, HAMILTON"
      },
      {
        "electoralDistricts": [
          {
            "election": null,
            "id": 38,
            "name": "Hamilton Mountain"
          }
        ],
        "pollDivisionIds": [
          10138696
        ],
        "postalCode": "L8V4B5",
        "streetName": "FENNELL",
        "streetDirectionId": "E",
        "streetTypeId": "AVE",
        "placeName": "HAMILTON",
        "streetNameDisplayText": "FENNELL AVE E, HAMILTON"
      }
    ]
  },
  {
    "postal": "L8V1J3",
    "result": []
  },
  {
    "postal": "L8V5S6",
    "result": []
  },
  {
    "postal": "L8V8P7",
    "result": []
  },
  {
    "postal": "L8V7S7",
    "result": []
  },
  {
    "postal": "L8V4C2",
    "result": [
      {
        "electoralDistricts": [
          {
            "election": null,
            "id": 38,
            "name": "Hamilton Mountain"
          }
        ],
        "pollDivisionIds": [
          10138700
        ],
        "postalCode": "L8V4C2",
        "streetName": "LAWFIELD",
        "streetDirectionId": null,
        "streetTypeId": "DR",
        "placeName": "HAMILTON",
        "streetNameDisplayText": "LAWFIELD DR, HAMILTON"
      }
    ]
  },
  {
    "postal": "L8V5Y0",
    "result": []
  },
  {
    "postal": "L8V2V7",
    "result": [
      {
        "electoralDistricts": [
          {
            "election": null,
            "id": 38,
            "name": "Hamilton Mountain"
          }
        ],
        "pollDivisionIds": [
          10143886
        ],
        "postalCode": "L8V2V7",
        "streetName": "EAST 22ND",
        "streetDirectionId": null,
        "streetTypeId": "ST",
        "placeName": "HAMILTON",
        "streetNameDisplayText": "EAST 22ND ST, HAMILTON"
      }
    ]
  },
  {
    "postal": "L8V8P5",
    "result": []
  },
  {
    "postal": "L8V5P5",
    "result": []
  },
  {
    "postal": "L8V5Z0",
    "result": []
  },
  {
    "postal": "L8V9B0",
    "result": []
  },
  {
    "postal": "L8V1L0",
    "result": []
  },
  {
    "postal": "L8V0B5",
    "result": []
  },
  {
    "postal": "L8V3L2",
    "result": [
      {
        "electoralDistricts": [
          {
            "election": null,
            "id": 38,
            "name": "Hamilton Mountain"
          }
        ],
        "pollDivisionIds": [
          10143886
        ],
        "postalCode": "L8V3L2",
        "streetName": "UPPER SHERMAN",
        "streetDirectionId": null,
        "streetTypeId": "AVE",
        "placeName": "HAMILTON",
        "streetNameDisplayText": "UPPER SHERMAN AVE, HAMILTON"
      }
    ]
  },
  {
    "postal": "L8V3B7",
    "result": [
      {
        "electoralDistricts": [
          {
            "election": null,
            "id": 38,
            "name": "Hamilton Mountain"
          }
        ],
        "pollDivisionIds": [
          10138691
        ],
        "postalCode": "L8V3B7",
        "streetName": "EAST 25TH",
        "streetDirectionId": null,
        "streetTypeId": "ST",
        "placeName": "HAMILTON",
        "streetNameDisplayText": "EAST 25TH ST, HAMILTON"
      }
    ]
  },
  {
    "postal": "L8V8L1",
    "result": []
  },
  {
    "postal": "L8V5M4",
    "result": []
  },
  {
    "postal": "L8V4G9",
    "result": [
      {
        "electoralDistricts": [
          {
            "election": null,
            "id": 38,
            "name": "Hamilton Mountain"
          }
        ],
        "pollDivisionIds": [
          10143886
        ],
        "postalCode": "L8V4G9",
        "streetName": "EAST 39TH",
        "streetDirectionId": null,
        "streetTypeId": "ST",
        "placeName": "HAMILTON",
        "streetNameDisplayText": "EAST 39TH ST, HAMILTON"
      }
    ]
  },
  {
    "postal": "L8V0P0",
    "result": []
  },
  {
    "postal": "L8V8G2",
    "result": []
  },
  {
    "postal": "L8V1V9",
    "result": [
      {
        "electoralDistricts": [
          {
            "election": null,
            "id": 38,
            "name": "Hamilton Mountain"
          }
        ],
        "pollDivisionIds": [
          10143886
        ],
        "postalCode": "L8V1V9",
        "streetName": "FENNELL",
        "streetDirectionId": "E",
        "streetTypeId": "AVE",
        "placeName": "HAMILTON",
        "streetNameDisplayText": "FENNELL AVE E, HAMILTON"
      }
    ]
  },
  {
    "postal": "L8V8N8",
    "result": []
  },
  {
    "postal": "L8V6S8",
    "result": []
  },
  {
    "postal": "L8V8H2",
    "result": []
  },
  {
    "postal": "L8V5R8",
    "result": []
  },
  {
    "postal": "L8V5L4",
    "result": []
  },
  {
    "postal": "L8V9E1",
    "result": []
  },
  {
    "postal": "L8V1C4",
    "result": [
      {
        "electoralDistricts": [
          {
            "election": null,
            "id": 38,
            "name": "Hamilton Mountain"
          }
        ],
        "pollDivisionIds": [
          10143886
        ],
        "postalCode": "L8V1C4",
        "streetName": "CONCESSION",
        "streetDirectionId": null,
        "streetTypeId": "ST",
        "placeName": "HAMILTON",
        "streetNameDisplayText": "CONCESSION ST, HAMILTON"
      }
    ]
  },
  {
    "postal": "L8V8W5",
    "result": []
  },
  {
    "postal": "L8V1Y4",
    "result": [
      {
        "electoralDistricts": [
          {
            "election": null,
            "id": 38,
            "name": "Hamilton Mountain"
          }
        ],
        "pollDivisionIds": [
          10138696
        ],
        "postalCode": "L8V1Y4",
        "streetName": "CHERYL",
        "streetDirectionId": null,
        "streetTypeId": "AVE",
        "placeName": "HAMILTON",
        "streetNameDisplayText": "CHERYL AVE, HAMILTON"
      }
    ]
  },
  {
    "postal": "L8V1C0",
    "result": []
  },
  {
    "postal": "L8V2J2",
    "result": [
      {
        "electoralDistricts": [
          {
            "election": null,
            "id": 38,
            "name": "Hamilton Mountain"
          }
        ],
        "pollDivisionIds": [
          10138690
        ],
        "postalCode": "L8V2J2",
        "streetName": "MOHAWK",
        "streetDirectionId": "E",
        "streetTypeId": "RD",
        "placeName": "HAMILTON",
        "streetNameDisplayText": "MOHAWK RD E, HAMILTON"
      }
    ]
  },
  {
    "postal": "L8V2J0",
    "result": []
  },
  {
    "postal": "L8V7A3",
    "result": []
  },
  {
    "postal": "L8V8M1",
    "result": []
  },
  {
    "postal": "L8V7T9",
    "result": []
  },
  {
    "postal": "L8V6C0",
    "result": []
  },
  {
    "postal": "L8V7X1",
    "result": []
  },
  {
    "postal": "L8V0G1",
    "result": []
  },
  {
    "postal": "L8V4X2",
    "result": []
  },
  {
    "postal": "L8V0N6",
    "result": []
  },
  {
    "postal": "L8V8E3",
    "result": []
  },
  {
    "postal": "L8V5S8",
    "result": []
  },
  {
    "postal": "L8V0R0",
    "result": []
  },
  {
    "postal": "L8V6J6",
    "result": []
  },
  {
    "postal": "L8V4B4",
    "result": [
      {
        "electoralDistricts": [
          {
            "election": null,
            "id": 38,
            "name": "Hamilton Mountain"
          }
        ],
        "pollDivisionIds": [
          10138696
        ],
        "postalCode": "L8V4B4",
        "streetName": "EAST 37TH",
        "streetDirectionId": null,
        "streetTypeId": "ST",
        "placeName": "HAMILTON",
        "streetNameDisplayText": "EAST 37TH ST, HAMILTON"
      }
    ]
  },
  {
    "postal": "L8V7E3",
    "result": []
  },
  {
    "postal": "L8V3N6",
    "result": [
      {
        "electoralDistricts": [
          {
            "election": null,
            "id": 38,
            "name": "Hamilton Mountain"
          }
        ],
        "pollDivisionIds": [
          10138700
        ],
        "postalCode": "L8V3N6",
        "streetName": "UPPER SHERMAN",
        "streetDirectionId": null,
        "streetTypeId": "AVE",
        "placeName": "HAMILTON",
        "streetNameDisplayText": "UPPER SHERMAN AVE, HAMILTON"
      }
    ]
  },
  {
    "postal": "L8V3X6",
    "result": [
      {
        "electoralDistricts": [
          {
            "election": null,
            "id": 38,
            "name": "Hamilton Mountain"
          }
        ],
        "pollDivisionIds": [
          10143886
        ],
        "postalCode": "L8V3X6",
        "streetName": "EAST 35TH",
        "streetDirectionId": null,
        "streetTypeId": "ST",
        "placeName": "HAMILTON",
        "streetNameDisplayText": "EAST 35TH ST, HAMILTON"
      }
    ]
  },
  {
    "postal": "L8V8L0",
    "result": []
  },
  {
    "postal": "L8V8N1",
    "result": []
  },
  {
    "postal": "L8V4J0",
    "result": []
  },
  {
    "postal": "L8V0X7",
    "result": []
  },
  {
    "postal": "L8V6S4",
    "result": []
  },
  {
    "postal": "L8V0Z0",
    "result": []
  },
  {
    "postal": "L8V9X8",
    "result": []
  },
  {
    "postal": "L8V3H3",
    "result": [
      {
        "electoralDistricts": [
          {
            "election": null,
            "id": 38,
            "name": "Hamilton Mountain"
          }
        ],
        "pollDivisionIds": [
          10138691
        ],
        "postalCode": "L8V3H3",
        "streetName": "EAST 27TH",
        "streetDirectionId": null,
        "streetTypeId": "ST",
        "placeName": "HAMILTON",
        "streetNameDisplayText": "EAST 27TH ST, HAMILTON"
      }
    ]
  },
  {
    "postal": "L8V7S2",
    "result": []
  },
  {
    "postal": "L8V3T3",
    "result": [
      {
        "electoralDistricts": [
          {
            "election": null,
            "id": 38,
            "name": "Hamilton Mountain"
          }
        ],
        "pollDivisionIds": [
          10143886
        ],
        "postalCode": "L8V3T3",
        "streetName": "EAST 33RD",
        "streetDirectionId": null,
        "streetTypeId": "ST",
        "placeName": "HAMILTON",
        "streetNameDisplayText": "EAST 33RD ST, HAMILTON"
      }
    ]
  },
  {
    "postal": "L8V9P3",
    "result": []
  },
  {
    "postal": "L8V4H8",
    "result": [
      {
        "electoralDistricts": [
          {
            "election": null,
            "id": 38,
            "name": "Hamilton Mountain"
          }
        ],
        "pollDivisionIds": [
          10138694
        ],
        "postalCode": "L8V4H8",
        "streetName": "UPPER GAGE",
        "streetDirectionId": null,
        "streetTypeId": "AVE",
        "placeName": "HAMILTON",
        "streetNameDisplayText": "UPPER GAGE AVE, HAMILTON"
      }
    ]
  },
  {
    "postal": "L8V6R1",
    "result": []
  },
  {
    "postal": "L8V1S0",
    "result": []
  },
  {
    "postal": "L8V3W8",
    "result": [
      {
        "electoralDistricts": [
          {
            "election": null,
            "id": 38,
            "name": "Hamilton Mountain"
          }
        ],
        "pollDivisionIds": [
          10143886
        ],
        "postalCode": "L8V3W8",
        "streetName": "EAST 34TH",
        "streetDirectionId": null,
        "streetTypeId": "ST",
        "placeName": "HAMILTON",
        "streetNameDisplayText": "EAST 34TH ST, HAMILTON"
      }
    ]
  },
  {
    "postal": "L8V4S3",
    "result": [
      {
        "electoralDistricts": [
          {
            "election": null,
            "id": 38,
            "name": "Hamilton Mountain"
          }
        ],
        "pollDivisionIds": [
          10138691
        ],
        "postalCode": "L8V4S3",
        "streetName": "FRANKLIN",
        "streetDirectionId": null,
        "streetTypeId": "RD",
        "placeName": "HAMILTON",
        "streetNameDisplayText": "FRANKLIN RD, HAMILTON"
      }
    ]
  },
  {
    "postal": "L8V1B6",
    "result": [
      {
        "electoralDistricts": [
          {
            "election": null,
            "id": 38,
            "name": "Hamilton Mountain"
          }
        ],
        "pollDivisionIds": [
          10143886
        ],
        "postalCode": "L8V1B6",
        "streetName": "CONCESSION",
        "streetDirectionId": null,
        "streetTypeId": "ST",
        "placeName": "HAMILTON",
        "streetNameDisplayText": "CONCESSION ST, HAMILTON"
      }
    ]
  },
  {
    "postal": "L8V8R3",
    "result": []
  },
  {
    "postal": "L8V4V9",
    "result": [
      {
        "electoralDistricts": [
          {
            "election": null,
            "id": 38,
            "name": "Hamilton Mountain"
          }
        ],
        "pollDivisionIds": [
          10138690
        ],
        "postalCode": "L8V4V9",
        "streetName": "SOUTHAMPTON",
        "streetDirectionId": null,
        "streetTypeId": "DR",
        "placeName": "HAMILTON",
        "streetNameDisplayText": "SOUTHAMPTON DR, HAMILTON"
      }
    ]
  },
  {
    "postal": "L8V9W4",
    "result": []
  },
  {
    "postal": "L8V3T4",
    "result": [
      {
        "electoralDistricts": [
          {
            "election": null,
            "id": 38,
            "name": "Hamilton Mountain"
          }
        ],
        "pollDivisionIds": [
          10143886
        ],
        "postalCode": "L8V3T4",
        "streetName": "EAST 33RD",
        "streetDirectionId": null,
        "streetTypeId": "ST",
        "placeName": "HAMILTON",
        "streetNameDisplayText": "EAST 33RD ST, HAMILTON"
      }
    ]
  },
  {
    "postal": "L8V5C7",
    "result": [
      {
        "electoralDistricts": [
          {
            "election": null,
            "id": 38,
            "name": "Hamilton Mountain"
          }
        ],
        "pollDivisionIds": [
          10138700
        ],
        "postalCode": "L8V5C7",
        "streetName": "MEAFORD",
        "streetDirectionId": null,
        "streetTypeId": "RD",
        "placeName": "HAMILTON",
        "streetNameDisplayText": "MEAFORD RD, HAMILTON"
      }
    ]
  },
  {
    "postal": "L8V3Y1",
    "result": [
      {
        "electoralDistricts": [
          {
            "election": null,
            "id": 38,
            "name": "Hamilton Mountain"
          }
        ],
        "pollDivisionIds": [
          10143886
        ],
        "postalCode": "L8V3Y1",
        "streetName": "EAST 35TH",
        "streetDirectionId": null,
        "streetTypeId": "ST",
        "placeName": "HAMILTON",
        "streetNameDisplayText": "EAST 35TH ST, HAMILTON"
      }
    ]
  },
  {
    "postal": "L8V5V0",
    "result": []
  },
  {
    "postal": "L8V8G8",
    "result": []
  },
  {
    "postal": "L8V8B1",
    "result": []
  },
  {
    "postal": "L8V4P5",
    "result": [
      {
        "electoralDistricts": [
          {
            "election": null,
            "id": 38,
            "name": "Hamilton Mountain"
          }
        ],
        "pollDivisionIds": [
          10138700
        ],
        "postalCode": "L8V4P5",
        "streetName": "LESTERWOOD",
        "streetDirectionId": null,
        "streetTypeId": "ST",
        "placeName": "HAMILTON",
        "streetNameDisplayText": "LESTERWOOD ST, HAMILTON"
      }
    ]
  },
  {
    "postal": "L8V7B2",
    "result": []
  },
  {
    "postal": "L8V0R2",
    "result": []
  },
  {
    "postal": "L8V4M4",
    "result": [
      {
        "electoralDistricts": [
          {
            "election": null,
            "id": 38,
            "name": "Hamilton Mountain"
          }
        ],
        "pollDivisionIds": [
          10138700
        ],
        "postalCode": "L8V4M4",
        "streetName": "DARTFORD",
        "streetDirectionId": null,
        "streetTypeId": "PL",
        "placeName": "HAMILTON",
        "streetNameDisplayText": "DARTFORD PL, HAMILTON"
      }
    ]
  },
  {
    "postal": "L8V7M4",
    "result": []
  },
  {
    "postal": "L8V9S7",
    "result": []
  },
  {
    "postal": "L8V5Z7",
    "result": []
  },
  {
    "postal": "L8V7J7",
    "result": []
  },
  {
    "postal": "L8V8R8",
    "result": []
  },
  {
    "postal": "L8V9X1",
    "result": []
  },
  {
    "postal": "L8V5M9",
    "result": []
  },
  {
    "postal": "L8V9B4",
    "result": []
  },
  {
    "postal": "L8V0L9",
    "result": []
  },
  {
    "postal": "L8V9G4",
    "result": []
  },
  {
    "postal": "L8V1J4",
    "result": [
      {
        "electoralDistricts": [
          {
            "election": null,
            "id": 38,
            "name": "Hamilton Mountain"
          }
        ],
        "pollDivisionIds": [
          10143886
        ],
        "postalCode": "L8V1J4",
        "streetName": "RUSSELL",
        "streetDirectionId": null,
        "streetTypeId": "ST",
        "placeName": "HAMILTON",
        "streetNameDisplayText": "RUSSELL ST, HAMILTON"
      }
    ]
  },
  {
    "postal": "L8V0W6",
    "result": []
  }
]
