[
  {
    "postal": "N3Y9J6",
    "result": []
  },
  {
    "postal": "N3Y9Z5",
    "result": []
  },
  {
    "postal": "N3Y7H8",
    "result": []
  },
  {
    "postal": "N3Y0P6",
    "result": []
  },
  {
    "postal": "N3Y0S7",
    "result": []
  },
  {
    "postal": "N3Y8B9",
    "result": []
  },
  {
    "postal": "N3Y2A6",
    "result": [
      {
        "electoralDistricts": [
          {
            "election": null,
            "id": 34,
            "name": "Haldimand—Norfolk"
          }
        ],
        "pollDivisionIds": [
          10138466
        ],
        "postalCode": "N3Y2A6",
        "streetName": "UNION",
        "streetDirectionId": null,
        "streetTypeId": "ST",
        "placeName": "SIMCOE",
        "streetNameDisplayText": "UNION ST, SIMCOE"
      }
    ]
  },
  {
    "postal": "N3Y7V2",
    "result": []
  },
  {
    "postal": "N3Y9P4",
    "result": []
  },
  {
    "postal": "N3Y6G0",
    "result": []
  },
  {
    "postal": "N3Y2K0",
    "result": []
  },
  {
    "postal": "N3Y7N6",
    "result": []
  },
  {
    "postal": "N3Y5R3",
    "result": []
  },
  {
    "postal": "N3Y7K0",
    "result": []
  },
  {
    "postal": "N3Y3R2",
    "result": [
      {
        "electoralDistricts": [
          {
            "election": null,
            "id": 34,
            "name": "Haldimand—Norfolk"
          }
        ],
        "pollDivisionIds": [
          10138465
        ],
        "postalCode": "N3Y3R2",
        "streetName": "NORFOLK",
        "streetDirectionId": "N",
        "streetTypeId": "ST",
        "placeName": "SIMCOE",
        "streetNameDisplayText": "NORFOLK ST N, SIMCOE"
      }
    ]
  },
  {
    "postal": "N3Y0J1",
    "result": []
  },
  {
    "postal": "N3Y0B0",
    "result": []
  },
  {
    "postal": "N3Y5Z2",
    "result": []
  },
  {
    "postal": "N3Y7P3",
    "result": []
  },
  {
    "postal": "N3Y2K3",
    "result": [
      {
        "electoralDistricts": [
          {
            "election": null,
            "id": 34,
            "name": "Haldimand—Norfolk"
          }
        ],
        "pollDivisionIds": [
          10138467
        ],
        "postalCode": "N3Y2K3",
        "streetName": "BERKLEY",
        "streetDirectionId": null,
        "streetTypeId": "CRES",
        "placeName": "SIMCOE",
        "streetNameDisplayText": "BERKLEY CRES, SIMCOE"
      }
    ]
  },
  {
    "postal": "N3Y7Y6",
    "result": []
  },
  {
    "postal": "N3Y1L9",
    "result": [
      {
        "electoralDistricts": [
          {
            "election": null,
            "id": 34,
            "name": "Haldimand—Norfolk"
          }
        ],
        "pollDivisionIds": [
          10138466
        ],
        "postalCode": "N3Y1L9",
        "streetName": "STANLEY",
        "streetDirectionId": null,
        "streetTypeId": "ST",
        "placeName": "SIMCOE",
        "streetNameDisplayText": "STANLEY ST, SIMCOE"
      }
    ]
  },
  {
    "postal": "N3Y8T0",
    "result": []
  },
  {
    "postal": "N3Y3K8",
    "result": [
      {
        "electoralDistricts": [
          {
            "election": null,
            "id": 34,
            "name": "Haldimand—Norfolk"
          }
        ],
        "pollDivisionIds": [
          10138467
        ],
        "postalCode": "N3Y3K8",
        "streetName": "SUMMIT",
        "streetDirectionId": null,
        "streetTypeId": "CIR",
        "placeName": "SIMCOE",
        "streetNameDisplayText": "SUMMIT CIR, SIMCOE"
      }
    ]
  },
  {
    "postal": "N3Y5W9",
    "result": []
  },
  {
    "postal": "N3Y6T9",
    "result": []
  },
  {
    "postal": "N3Y4H1",
    "result": [
      {
        "electoralDistricts": [
          {
            "election": null,
            "id": 34,
            "name": "Haldimand—Norfolk"
          }
        ],
        "pollDivisionIds": [
          10138466
        ],
        "postalCode": "N3Y4H1",
        "streetName": "COLBORNE",
        "streetDirectionId": "S",
        "streetTypeId": "ST",
        "placeName": "SIMCOE",
        "streetNameDisplayText": "COLBORNE ST S, SIMCOE"
      }
    ]
  },
  {
    "postal": "N3Y7A2",
    "result": []
  },
  {
    "postal": "N3Y5G0",
    "result": []
  },
  {
    "postal": "N3Y8V5",
    "result": []
  },
  {
    "postal": "N3Y2Y8",
    "result": [
      {
        "electoralDistricts": [
          {
            "election": null,
            "id": 99,
            "name": "Simcoe—Grey"
          },
          {
            "election": null,
            "id": 34,
            "name": "Haldimand—Norfolk"
          }
        ],
        "pollDivisionIds": [
          10141839,
          10138466
        ],
        "postalCode": "N3Y2Y8",
        "streetName": "JOHN",
        "streetDirectionId": null,
        "streetTypeId": "ST",
        "placeName": "SIMCOE",
        "streetNameDisplayText": "JOHN ST, SIMCOE"
      }
    ]
  },
  {
    "postal": "N3Y2B6",
    "result": [
      {
        "electoralDistricts": [
          {
            "election": null,
            "id": 34,
            "name": "Haldimand—Norfolk"
          }
        ],
        "pollDivisionIds": [
          10138461
        ],
        "postalCode": "N3Y2B6",
        "streetName": "UNION",
        "streetDirectionId": null,
        "streetTypeId": "ST",
        "placeName": "SIMCOE",
        "streetNameDisplayText": "UNION ST, SIMCOE"
      }
    ]
  },
  {
    "postal": "N3Y4W8",
    "result": [
      {
        "electoralDistricts": [
          {
            "election": null,
            "id": 34,
            "name": "Haldimand—Norfolk"
          }
        ],
        "pollDivisionIds": [
          10138463
        ],
        "postalCode": "N3Y4W8",
        "streetName": "DOUGLAS",
        "streetDirectionId": null,
        "streetTypeId": "AVE",
        "placeName": "SIMCOE",
        "streetNameDisplayText": "DOUGLAS AVE, SIMCOE"
      }
    ]
  },
  {
    "postal": "N3Y8H7",
    "result": []
  },
  {
    "postal": "N3Y5P1",
    "result": []
  },
  {
    "postal": "N3Y2B8",
    "result": [
      {
        "electoralDistricts": [
          {
            "election": null,
            "id": 34,
            "name": "Haldimand—Norfolk"
          }
        ],
        "pollDivisionIds": [
          10138461
        ],
        "postalCode": "N3Y2B8",
        "streetName": "UNION",
        "streetDirectionId": null,
        "streetTypeId": "ST",
        "placeName": "SIMCOE",
        "streetNameDisplayText": "UNION ST, SIMCOE"
      }
    ]
  },
  {
    "postal": "N3Y0P2",
    "result": []
  },
  {
    "postal": "N3Y9M1",
    "result": []
  },
  {
    "postal": "N3Y3G0",
    "result": []
  },
  {
    "postal": "N3Y9Z2",
    "result": []
  },
  {
    "postal": "N3Y2A0",
    "result": []
  },
  {
    "postal": "N3Y6Y0",
    "result": []
  },
  {
    "postal": "N3Y2Z8",
    "result": [
      {
        "electoralDistricts": [
          {
            "election": null,
            "id": 34,
            "name": "Haldimand—Norfolk"
          }
        ],
        "pollDivisionIds": [
          10138466
        ],
        "postalCode": "N3Y2Z8",
        "streetName": "TALBOT",
        "streetDirectionId": "S",
        "streetTypeId": "ST",
        "placeName": "SIMCOE",
        "streetNameDisplayText": "TALBOT ST S, SIMCOE"
      }
    ]
  },
  {
    "postal": "N3Y7Y3",
    "result": []
  },
  {
    "postal": "N3Y6Z5",
    "result": []
  },
  {
    "postal": "N3Y6E0",
    "result": []
  },
  {
    "postal": "N3Y9B7",
    "result": []
  },
  {
    "postal": "N3Y9S5",
    "result": []
  },
  {
    "postal": "N3Y3X3",
    "result": [
      {
        "electoralDistricts": [
          {
            "election": null,
            "id": 34,
            "name": "Haldimand—Norfolk"
          }
        ],
        "pollDivisionIds": [
          10138466
        ],
        "postalCode": "N3Y3X3",
        "streetName": "HEAD",
        "streetDirectionId": "N",
        "streetTypeId": "ST",
        "placeName": "SIMCOE",
        "streetNameDisplayText": "HEAD ST N, SIMCOE"
      }
    ]
  },
  {
    "postal": "N3Y7R5",
    "result": []
  },
  {
    "postal": "N3Y2X3",
    "result": [
      {
        "electoralDistricts": [
          {
            "election": null,
            "id": 34,
            "name": "Haldimand—Norfolk"
          }
        ],
        "pollDivisionIds": [
          10138461
        ],
        "postalCode": "N3Y2X3",
        "streetName": "NORFOLK",
        "streetDirectionId": "S",
        "streetTypeId": "ST",
        "placeName": "SIMCOE",
        "streetNameDisplayText": "NORFOLK ST S, SIMCOE"
      }
    ]
  },
  {
    "postal": "N3Y8Z9",
    "result": []
  },
  {
    "postal": "N3Y0N4",
    "result": []
  },
  {
    "postal": "N3Y1K1",
    "result": [
      {
        "electoralDistricts": [
          {
            "election": null,
            "id": 34,
            "name": "Haldimand—Norfolk"
          }
        ],
        "pollDivisionIds": [
          10138466
        ],
        "postalCode": "N3Y1K1",
        "streetName": "GROVE",
        "streetDirectionId": null,
        "streetTypeId": "ST",
        "placeName": "SIMCOE",
        "streetNameDisplayText": "GROVE ST, SIMCOE"
      }
    ]
  },
  {
    "postal": "N3Y1S3",
    "result": [
      {
        "electoralDistricts": [
          {
            "election": null,
            "id": 34,
            "name": "Haldimand—Norfolk"
          }
        ],
        "pollDivisionIds": [
          10138466
        ],
        "postalCode": "N3Y1S3",
        "streetName": "PEEL",
        "streetDirectionId": null,
        "streetTypeId": "ST",
        "placeName": "SIMCOE",
        "streetNameDisplayText": "PEEL ST, SIMCOE"
      }
    ]
  },
  {
    "postal": "N3Y6M4",
    "result": []
  },
  {
    "postal": "N3Y9A9",
    "result": []
  },
  {
    "postal": "N3Y9Z9",
    "result": []
  },
  {
    "postal": "N3Y6T4",
    "result": []
  },
  {
    "postal": "N3Y0B2",
    "result": [
      {
        "electoralDistricts": [
          {
            "election": null,
            "id": 34,
            "name": "Haldimand—Norfolk"
          }
        ],
        "pollDivisionIds": [
          10138467
        ],
        "postalCode": "N3Y0B2",
        "streetName": "DOGWOOD",
        "streetDirectionId": null,
        "streetTypeId": "DR",
        "placeName": "SIMCOE",
        "streetNameDisplayText": "DOGWOOD DR, SIMCOE"
      },
      {
        "electoralDistricts": [
          {
            "election": null,
            "id": 34,
            "name": "Haldimand—Norfolk"
          }
        ],
        "pollDivisionIds": [
          10138467
        ],
        "postalCode": "N3Y0B2",
        "streetName": "ROSS",
        "streetDirectionId": "N",
        "streetTypeId": "AVE",
        "placeName": "SIMCOE",
        "streetNameDisplayText": "ROSS AVE N, SIMCOE"
      }
    ]
  },
  {
    "postal": "N3Y2L9",
    "result": [
      {
        "electoralDistricts": [
          {
            "election": null,
            "id": 34,
            "name": "Haldimand—Norfolk"
          }
        ],
        "pollDivisionIds": [
          10138464
        ],
        "postalCode": "N3Y2L9",
        "streetName": "HAWTHORNE",
        "streetDirectionId": null,
        "streetTypeId": "AVE",
        "placeName": "SIMCOE",
        "streetNameDisplayText": "HAWTHORNE AVE, SIMCOE"
      }
    ]
  },
  {
    "postal": "N3Y8K9",
    "result": []
  },
  {
    "postal": "N3Y2H9",
    "result": [
      {
        "electoralDistricts": [
          {
            "election": null,
            "id": 34,
            "name": "Haldimand—Norfolk"
          }
        ],
        "pollDivisionIds": [
          10138464,
          10138462
        ],
        "postalCode": "N3Y2H9",
        "streetName": "CEDAR",
        "streetDirectionId": null,
        "streetTypeId": "ST",
        "placeName": "SIMCOE",
        "streetNameDisplayText": "CEDAR ST, SIMCOE"
      }
    ]
  },
  {
    "postal": "N3Y3Z6",
    "result": [
      {
        "electoralDistricts": [
          {
            "election": null,
            "id": 34,
            "name": "Haldimand—Norfolk"
          }
        ],
        "pollDivisionIds": [
          10138461
        ],
        "postalCode": "N3Y3Z6",
        "streetName": "KING",
        "streetDirectionId": null,
        "streetTypeId": "LANE",
        "placeName": "SIMCOE",
        "streetNameDisplayText": "KING LANE, SIMCOE"
      },
      {
        "electoralDistricts": [
          {
            "election": null,
            "id": 100,
            "name": "Simcoe North"
          }
        ],
        "pollDivisionIds": [
          10141889
        ],
        "postalCode": "N3Y3Z6",
        "streetName": "KING",
        "streetDirectionId": null,
        "streetTypeId": "RD",
        "placeName": "SIMCOE",
        "streetNameDisplayText": "KING RD, SIMCOE"
      },
      {
        "electoralDistricts": [
          {
            "election": null,
            "id": 100,
            "name": "Simcoe North"
          }
        ],
        "pollDivisionIds": [
          10141889
        ],
        "postalCode": "N3Y3Z6",
        "streetName": "KING",
        "streetDirectionId": null,
        "streetTypeId": "RD",
        "placeName": "WAUBAUSHENE",
        "streetNameDisplayText": "KING RD, WAUBAUSHENE"
      }
    ]
  },
  {
    "postal": "N3Y3B0",
    "result": []
  },
  {
    "postal": "N3Y2H8",
    "result": [
      {
        "electoralDistricts": [
          {
            "election": null,
            "id": 34,
            "name": "Haldimand—Norfolk"
          }
        ],
        "pollDivisionIds": [
          10138464
        ],
        "postalCode": "N3Y2H8",
        "streetName": "CEDAR",
        "streetDirectionId": null,
        "streetTypeId": "ST",
        "placeName": "SIMCOE",
        "streetNameDisplayText": "CEDAR ST, SIMCOE"
      }
    ]
  },
  {
    "postal": "N3Y3X2",
    "result": [
      {
        "electoralDistricts": [
          {
            "election": null,
            "id": 34,
            "name": "Haldimand—Norfolk"
          }
        ],
        "pollDivisionIds": [
          10138464
        ],
        "postalCode": "N3Y3X2",
        "streetName": "TALBOT",
        "streetDirectionId": "N",
        "streetTypeId": "ST",
        "placeName": "SIMCOE",
        "streetNameDisplayText": "TALBOT ST N, SIMCOE"
      }
    ]
  },
  {
    "postal": "N3Y2E9",
    "result": [
      {
        "electoralDistricts": [
          {
            "election": null,
            "id": 34,
            "name": "Haldimand—Norfolk"
          }
        ],
        "pollDivisionIds": [
          10138467
        ],
        "postalCode": "N3Y2E9",
        "streetName": "WILSON",
        "streetDirectionId": null,
        "streetTypeId": "DR",
        "placeName": "SIMCOE",
        "streetNameDisplayText": "WILSON DR, SIMCOE"
      }
    ]
  },
  {
    "postal": "N3Y9P6",
    "result": []
  },
  {
    "postal": "N3Y9E2",
    "result": []
  },
  {
    "postal": "N3Y9H2",
    "result": []
  },
  {
    "postal": "N3Y1S8",
    "result": [
      {
        "electoralDistricts": [
          {
            "election": null,
            "id": 34,
            "name": "Haldimand—Norfolk"
          }
        ],
        "pollDivisionIds": [
          10138466
        ],
        "postalCode": "N3Y1S8",
        "streetName": "WEST",
        "streetDirectionId": null,
        "streetTypeId": "ST",
        "placeName": "SIMCOE",
        "streetNameDisplayText": "WEST ST, SIMCOE"
      }
    ]
  },
  {
    "postal": "N3Y3M6",
    "result": [
      {
        "electoralDistricts": [
          {
            "election": null,
            "id": 34,
            "name": "Haldimand—Norfolk"
          }
        ],
        "pollDivisionIds": [
          10138464
        ],
        "postalCode": "N3Y3M6",
        "streetName": "BERTHA",
        "streetDirectionId": null,
        "streetTypeId": "ST",
        "placeName": "SIMCOE",
        "streetNameDisplayText": "BERTHA ST, SIMCOE"
      }
    ]
  },
  {
    "postal": "N3Y6Z8",
    "result": []
  },
  {
    "postal": "N3Y4J2",
    "result": [
      {
        "electoralDistricts": [
          {
            "election": null,
            "id": 34,
            "name": "Haldimand—Norfolk"
          }
        ],
        "pollDivisionIds": [
          10138466
        ],
        "postalCode": "N3Y4J2",
        "streetName": "DEAN",
        "streetDirectionId": null,
        "streetTypeId": "ST",
        "placeName": "SIMCOE",
        "streetNameDisplayText": "DEAN ST, SIMCOE"
      }
    ]
  },
  {
    "postal": "N3Y9Y1",
    "result": []
  },
  {
    "postal": "N3Y8V6",
    "result": []
  },
  {
    "postal": "N3Y6B2",
    "result": []
  },
  {
    "postal": "N3Y1P8",
    "result": [
      {
        "electoralDistricts": [
          {
            "election": null,
            "id": 100,
            "name": "Simcoe North"
          }
        ],
        "pollDivisionIds": [
          10141880
        ],
        "postalCode": "N3Y1P8",
        "streetName": "WATER",
        "streetDirectionId": null,
        "streetTypeId": "ST",
        "placeName": "PENETANGUISHENE",
        "streetNameDisplayText": "WATER ST, PENETANGUISHENE"
      },
      {
        "electoralDistricts": [
          {
            "election": null,
            "id": 34,
            "name": "Haldimand—Norfolk"
          }
        ],
        "pollDivisionIds": [
          10138467
        ],
        "postalCode": "N3Y1P8",
        "streetName": "WATER",
        "streetDirectionId": null,
        "streetTypeId": "ST",
        "placeName": "SIMCOE",
        "streetNameDisplayText": "WATER ST, SIMCOE"
      }
    ]
  },
  {
    "postal": "N3Y0V8",
    "result": []
  },
  {
    "postal": "N3Y4Y0",
    "result": []
  },
  {
    "postal": "N3Y2T4",
    "result": [
      {
        "electoralDistricts": [
          {
            "election": null,
            "id": 34,
            "name": "Haldimand—Norfolk"
          }
        ],
        "pollDivisionIds": [
          10138467
        ],
        "postalCode": "N3Y2T4",
        "streetName": "POND",
        "streetDirectionId": null,
        "streetTypeId": "ST",
        "placeName": "SIMCOE",
        "streetNameDisplayText": "POND ST, SIMCOE"
      }
    ]
  },
  {
    "postal": "N3Y2S3",
    "result": [
      {
        "electoralDistricts": [
          {
            "election": null,
            "id": 34,
            "name": "Haldimand—Norfolk"
          }
        ],
        "pollDivisionIds": [
          10138467
        ],
        "postalCode": "N3Y2S3",
        "streetName": "ASHTON",
        "streetDirectionId": null,
        "streetTypeId": "DR",
        "placeName": "SIMCOE",
        "streetNameDisplayText": "ASHTON DR, SIMCOE"
      }
    ]
  },
  {
    "postal": "N3Y0K0",
    "result": []
  },
  {
    "postal": "N3Y5N1",
    "result": [
      {
        "electoralDistricts": [
          {
            "election": null,
            "id": 34,
            "name": "Haldimand—Norfolk"
          }
        ],
        "pollDivisionIds": [
          10138461
        ],
        "postalCode": "N3Y5N1",
        "streetName": "DRIFTWOOD",
        "streetDirectionId": null,
        "streetTypeId": "DR",
        "placeName": "SIMCOE",
        "streetNameDisplayText": "DRIFTWOOD DR, SIMCOE"
      },
      {
        "electoralDistricts": [
          {
            "election": null,
            "id": 34,
            "name": "Haldimand—Norfolk"
          }
        ],
        "pollDivisionIds": [
          10138461
        ],
        "postalCode": "N3Y5N1",
        "streetName": "QUEEN",
        "streetDirectionId": "S",
        "streetTypeId": "ST",
        "placeName": "SIMCOE",
        "streetNameDisplayText": "QUEEN ST S, SIMCOE"
      },
      {
        "electoralDistricts": [
          {
            "election": null,
            "id": 34,
            "name": "Haldimand—Norfolk"
          }
        ],
        "pollDivisionIds": [
          10138461
        ],
        "postalCode": "N3Y5N1",
        "streetName": "QUEEN",
        "streetDirectionId": null,
        "streetTypeId": "ST",
        "placeName": "SIMCOE",
        "streetNameDisplayText": "QUEEN ST, SIMCOE"
      }
    ]
  },
  {
    "postal": "N3Y7T0",
    "result": []
  },
  {
    "postal": "N3Y9N2",
    "result": []
  },
  {
    "postal": "N3Y5L1",
    "result": [
      {
        "electoralDistricts": [
          {
            "election": null,
            "id": 34,
            "name": "Haldimand—Norfolk"
          }
        ],
        "pollDivisionIds": [
          10138461
        ],
        "postalCode": "N3Y5L1",
        "streetName": "METCALFE",
        "streetDirectionId": "S",
        "streetTypeId": "ST",
        "placeName": "SIMCOE",
        "streetNameDisplayText": "METCALFE ST S, SIMCOE"
      }
    ]
  },
  {
    "postal": "N3Y7G5",
    "result": []
  },
  {
    "postal": "N3Y6K2",
    "result": []
  },
  {
    "postal": "N3Y6P9",
    "result": []
  },
  {
    "postal": "N3Y0E6",
    "result": [
      {
        "electoralDistricts": [
          {
            "election": null,
            "id": 34,
            "name": "Haldimand—Norfolk"
          }
        ],
        "pollDivisionIds": [
          10138461
        ],
        "postalCode": "N3Y0E6",
        "streetName": "STONEBRIDGE",
        "streetDirectionId": null,
        "streetTypeId": "PL",
        "placeName": "SIMCOE",
        "streetNameDisplayText": "STONEBRIDGE PL, SIMCOE"
      }
    ]
  },
  {
    "postal": "N3Y8R9",
    "result": []
  },
  {
    "postal": "N3Y3G9",
    "result": [
      {
        "electoralDistricts": [
          {
            "election": null,
            "id": 34,
            "name": "Haldimand—Norfolk"
          }
        ],
        "pollDivisionIds": [
          10138461
        ],
        "postalCode": "N3Y3G9",
        "streetName": "BROOK",
        "streetDirectionId": null,
        "streetTypeId": "ST",
        "placeName": "SIMCOE",
        "streetNameDisplayText": "BROOK ST, SIMCOE"
      }
    ]
  },
  {
    "postal": "N3Y0V7",
    "result": []
  },
  {
    "postal": "N3Y2Z1",
    "result": [
      {
        "electoralDistricts": [
          {
            "election": null,
            "id": 34,
            "name": "Haldimand—Norfolk"
          },
          {
            "election": null,
            "id": 99,
            "name": "Simcoe—Grey"
          }
        ],
        "pollDivisionIds": [
          10138461,
          10141839
        ],
        "postalCode": "N3Y2Z1",
        "streetName": "JOHN",
        "streetDirectionId": null,
        "streetTypeId": "ST",
        "placeName": "SIMCOE",
        "streetNameDisplayText": "JOHN ST, SIMCOE"
      }
    ]
  },
  {
    "postal": "N3Y7N1",
    "result": []
  },
  {
    "postal": "N3Y3C6",
    "result": [
      {
        "electoralDistricts": [
          {
            "election": null,
            "id": 34,
            "name": "Haldimand—Norfolk"
          },
          {
            "election": null,
            "id": 99,
            "name": "Simcoe—Grey"
          }
        ],
        "pollDivisionIds": [
          10138461,
          10141858
        ],
        "postalCode": "N3Y3C6",
        "streetName": "QUEEN",
        "streetDirectionId": "S",
        "streetTypeId": "ST",
        "placeName": "SIMCOE",
        "streetNameDisplayText": "QUEEN ST S, SIMCOE"
      }
    ]
  },
  {
    "postal": "N3Y4M1",
    "result": []
  },
  {
    "postal": "N3Y9K2",
    "result": []
  },
  {
    "postal": "N3Y9S6",
    "result": []
  },
  {
    "postal": "N3Y4X1",
    "result": [
      {
        "electoralDistricts": [
          {
            "election": null,
            "id": 34,
            "name": "Haldimand—Norfolk"
          }
        ],
        "pollDivisionIds": [
          10138463
        ],
        "postalCode": "N3Y4X1",
        "streetName": "BROCK",
        "streetDirectionId": null,
        "streetTypeId": "ST",
        "placeName": "SIMCOE",
        "streetNameDisplayText": "BROCK ST, SIMCOE"
      }
    ]
  },
  {
    "postal": "N3Y8W2",
    "result": []
  },
  {
    "postal": "N3Y7N2",
    "result": []
  },
  {
    "postal": "N3Y8S3",
    "result": []
  },
  {
    "postal": "N3Y4V0",
    "result": []
  },
  {
    "postal": "N3Y6W4",
    "result": []
  },
  {
    "postal": "N3Y5M1",
    "result": [
      {
        "electoralDistricts": [
          {
            "election": null,
            "id": 34,
            "name": "Haldimand—Norfolk"
          }
        ],
        "pollDivisionIds": [
          10138465
        ],
        "postalCode": "N3Y5M1",
        "streetName": "NORFOLK",
        "streetDirectionId": "N",
        "streetTypeId": "ST",
        "placeName": "SIMCOE",
        "streetNameDisplayText": "NORFOLK ST N, SIMCOE"
      }
    ]
  },
  {
    "postal": "N3Y0S4",
    "result": []
  },
  {
    "postal": "N3Y5X6",
    "result": []
  },
  {
    "postal": "N3Y8L5",
    "result": []
  },
  {
    "postal": "N3Y5M8",
    "result": [
      {
        "electoralDistricts": [
          {
            "election": null,
            "id": 34,
            "name": "Haldimand—Norfolk"
          }
        ],
        "pollDivisionIds": [
          10138465
        ],
        "postalCode": "N3Y5M8",
        "streetName": "PRESCOTT",
        "streetDirectionId": null,
        "streetTypeId": "ST",
        "placeName": "SIMCOE",
        "streetNameDisplayText": "PRESCOTT ST, SIMCOE"
      }
    ]
  },
  {
    "postal": "N3Y2G3",
    "result": [
      {
        "electoralDistricts": [
          {
            "election": null,
            "id": 34,
            "name": "Haldimand—Norfolk"
          }
        ],
        "pollDivisionIds": [
          10138466
        ],
        "postalCode": "N3Y2G3",
        "streetName": "MAPLE",
        "streetDirectionId": null,
        "streetTypeId": "ST",
        "placeName": "SIMCOE",
        "streetNameDisplayText": "MAPLE ST, SIMCOE"
      }
    ]
  },
  {
    "postal": "N3Y8E4",
    "result": []
  },
  {
    "postal": "N3Y7S9",
    "result": []
  },
  {
    "postal": "N3Y1K3",
    "result": [
      {
        "electoralDistricts": [
          {
            "election": null,
            "id": 34,
            "name": "Haldimand—Norfolk"
          }
        ],
        "pollDivisionIds": [
          10138466
        ],
        "postalCode": "N3Y1K3",
        "streetName": "GROVE",
        "streetDirectionId": null,
        "streetTypeId": "ST",
        "placeName": "SIMCOE",
        "streetNameDisplayText": "GROVE ST, SIMCOE"
      }
    ]
  },
  {
    "postal": "N3Y4E1",
    "result": [
      {
        "electoralDistricts": [
          {
            "election": null,
            "id": 34,
            "name": "Haldimand—Norfolk"
          }
        ],
        "pollDivisionIds": [
          10138463
        ],
        "postalCode": "N3Y4E1",
        "streetName": "HOLDEN",
        "streetDirectionId": null,
        "streetTypeId": "AVE",
        "placeName": "SIMCOE",
        "streetNameDisplayText": "HOLDEN AVE, SIMCOE"
      }
    ]
  },
  {
    "postal": "N3Y4R2",
    "result": [
      {
        "electoralDistricts": [
          {
            "election": null,
            "id": 100,
            "name": "Simcoe North"
          }
        ],
        "pollDivisionIds": [
          10141899
        ],
        "postalCode": "N3Y4R2",
        "streetName": "PARK",
        "streetDirectionId": null,
        "streetTypeId": "DR",
        "placeName": "SIMCOE",
        "streetNameDisplayText": "PARK DR, SIMCOE"
      },
      {
        "electoralDistricts": [
          {
            "election": null,
            "id": 100,
            "name": "Simcoe North"
          }
        ],
        "pollDivisionIds": [
          10141918
        ],
        "postalCode": "N3Y4R2",
        "streetName": "PARK",
        "streetDirectionId": null,
        "streetTypeId": "LANE",
        "placeName": "SIMCOE",
        "streetNameDisplayText": "PARK LANE, SIMCOE"
      },
      {
        "electoralDistricts": [
          {
            "election": null,
            "id": 34,
            "name": "Haldimand—Norfolk"
          }
        ],
        "pollDivisionIds": [
          10138462
        ],
        "postalCode": "N3Y4R2",
        "streetName": "PARK",
        "streetDirectionId": null,
        "streetTypeId": "RD",
        "placeName": "SIMCOE",
        "streetNameDisplayText": "PARK RD, SIMCOE"
      }
    ]
  },
  {
    "postal": "N3Y6T0",
    "result": []
  },
  {
    "postal": "N3Y3K5",
    "result": [
      {
        "electoralDistricts": [
          {
            "election": null,
            "id": 34,
            "name": "Haldimand—Norfolk"
          }
        ],
        "pollDivisionIds": [
          10138463
        ],
        "postalCode": "N3Y3K5",
        "streetName": "LEE",
        "streetDirectionId": null,
        "streetTypeId": "AVE",
        "placeName": "SIMCOE",
        "streetNameDisplayText": "LEE AVE, SIMCOE"
      }
    ]
  },
  {
    "postal": "N3Y3S3",
    "result": [
      {
        "electoralDistricts": [
          {
            "election": null,
            "id": 34,
            "name": "Haldimand—Norfolk"
          }
        ],
        "pollDivisionIds": [
          10138466
        ],
        "postalCode": "N3Y3S3",
        "streetName": "KENT",
        "streetDirectionId": "N",
        "streetTypeId": "ST",
        "placeName": "SIMCOE",
        "streetNameDisplayText": "KENT ST N, SIMCOE"
      }
    ]
  },
  {
    "postal": "N3Y3L4",
    "result": [
      {
        "electoralDistricts": [
          {
            "election": null,
            "id": 34,
            "name": "Haldimand—Norfolk"
          }
        ],
        "pollDivisionIds": [
          10138467
        ],
        "postalCode": "N3Y3L4",
        "streetName": "SIMCOE",
        "streetDirectionId": null,
        "streetTypeId": "BLVD",
        "placeName": "SIMCOE",
        "streetNameDisplayText": "SIMCOE BLVD, SIMCOE"
      }
    ]
  },
  {
    "postal": "N3Y9Y2",
    "result": []
  },
  {
    "postal": "N3Y1E0",
    "result": []
  },
  {
    "postal": "N3Y9A4",
    "result": []
  },
  {
    "postal": "N3Y1L3",
    "result": [
      {
        "electoralDistricts": [
          {
            "election": null,
            "id": 100,
            "name": "Simcoe North"
          }
        ],
        "pollDivisionIds": [
          10141878
        ],
        "postalCode": "N3Y1L3",
        "streetName": "VICTORIA",
        "streetDirectionId": null,
        "streetTypeId": "AVE",
        "placeName": "TINY",
        "streetNameDisplayText": "VICTORIA AVE, TINY"
      },
      {
        "electoralDistricts": [
          {
            "election": null,
            "id": 100,
            "name": "Simcoe North"
          }
        ],
        "pollDivisionIds": [
          10141902
        ],
        "postalCode": "N3Y1L3",
        "streetName": "VICTORIA",
        "streetDirectionId": null,
        "streetTypeId": "CRES",
        "placeName": "ORILLIA",
        "streetNameDisplayText": "VICTORIA CRES, ORILLIA"
      },
      {
        "electoralDistricts": [
          {
            "election": null,
            "id": 34,
            "name": "Haldimand—Norfolk"
          }
        ],
        "pollDivisionIds": [
          10138467
        ],
        "postalCode": "N3Y1L3",
        "streetName": "VICTORIA",
        "streetDirectionId": null,
        "streetTypeId": "ST",
        "placeName": "SIMCOE",
        "streetNameDisplayText": "VICTORIA ST, SIMCOE"
      }
    ]
  },
  {
    "postal": "N3Y6N1",
    "result": []
  },
  {
    "postal": "N3Y6G7",
    "result": []
  },
  {
    "postal": "N3Y7W1",
    "result": []
  },
  {
    "postal": "N3Y4M6",
    "result": [
      {
        "electoralDistricts": [
          {
            "election": null,
            "id": 34,
            "name": "Haldimand—Norfolk"
          }
        ],
        "pollDivisionIds": [
          10138464
        ],
        "postalCode": "N3Y4M6",
        "streetName": "QUEENSWAY",
        "streetDirectionId": "E",
        "streetTypeId": null,
        "placeName": "SIMCOE",
        "streetNameDisplayText": "QUEENSWAY E, SIMCOE"
      }
    ]
  },
  {
    "postal": "N3Y1K0",
    "result": []
  },
  {
    "postal": "N3Y3E2",
    "result": [
      {
        "electoralDistricts": [
          {
            "election": null,
            "id": 34,
            "name": "Haldimand—Norfolk"
          }
        ],
        "pollDivisionIds": [
          10138466
        ],
        "postalCode": "N3Y3E2",
        "streetName": "SHORT",
        "streetDirectionId": null,
        "streetTypeId": "ST",
        "placeName": "SIMCOE",
        "streetNameDisplayText": "SHORT ST, SIMCOE"
      }
    ]
  },
  {
    "postal": "N3Y5H4",
    "result": []
  },
  {
    "postal": "N3Y1K7",
    "result": [
      {
        "electoralDistricts": [
          {
            "election": null,
            "id": 34,
            "name": "Haldimand—Norfolk"
          }
        ],
        "pollDivisionIds": [
          10138466
        ],
        "postalCode": "N3Y1K7",
        "streetName": "GROVE",
        "streetDirectionId": null,
        "streetTypeId": "ST",
        "placeName": "SIMCOE",
        "streetNameDisplayText": "GROVE ST, SIMCOE"
      }
    ]
  },
  {
    "postal": "N3Y0H0",
    "result": []
  },
  {
    "postal": "N3Y0J3",
    "result": []
  },
  {
    "postal": "N3Y1X6",
    "result": [
      {
        "electoralDistricts": [
          {
            "election": null,
            "id": 34,
            "name": "Haldimand—Norfolk"
          }
        ],
        "pollDivisionIds": [
          10138461
        ],
        "postalCode": "N3Y1X6",
        "streetName": "ROBINSON",
        "streetDirectionId": null,
        "streetTypeId": "ST",
        "placeName": "SIMCOE",
        "streetNameDisplayText": "ROBINSON ST, SIMCOE"
      }
    ]
  },
  {
    "postal": "N3Y2Z6",
    "result": [
      {
        "electoralDistricts": [
          {
            "election": null,
            "id": 34,
            "name": "Haldimand—Norfolk"
          }
        ],
        "pollDivisionIds": [
          10138466
        ],
        "postalCode": "N3Y2Z6",
        "streetName": "TALBOT",
        "streetDirectionId": "S",
        "streetTypeId": "ST",
        "placeName": "SIMCOE",
        "streetNameDisplayText": "TALBOT ST S, SIMCOE"
      }
    ]
  },
  {
    "postal": "N3Y4R9",
    "result": [
      {
        "electoralDistricts": [
          {
            "election": null,
            "id": 34,
            "name": "Haldimand—Norfolk"
          }
        ],
        "pollDivisionIds": [
          10138461
        ],
        "postalCode": "N3Y4R9",
        "streetName": "MONTCLAIR",
        "streetDirectionId": null,
        "streetTypeId": "CRES",
        "placeName": "SIMCOE",
        "streetNameDisplayText": "MONTCLAIR CRES, SIMCOE"
      }
    ]
  },
  {
    "postal": "N3Y0W8",
    "result": []
  },
  {
    "postal": "N3Y1L4",
    "result": [
      {
        "electoralDistricts": [
          {
            "election": null,
            "id": 34,
            "name": "Haldimand—Norfolk"
          }
        ],
        "pollDivisionIds": [
          10138467
        ],
        "postalCode": "N3Y1L4",
        "streetName": "VICTORIA",
        "streetDirectionId": null,
        "streetTypeId": "AVE",
        "placeName": "SIMCOE",
        "streetNameDisplayText": "VICTORIA AVE, SIMCOE"
      },
      {
        "electoralDistricts": [
          {
            "election": null,
            "id": 4,
            "name": "Barrie—Innisfil"
          }
        ],
        "pollDivisionIds": [
          10136873
        ],
        "postalCode": "N3Y1L4",
        "streetName": "VICTORIA",
        "streetDirectionId": "W",
        "streetTypeId": "ST",
        "placeName": "COOKSTOWN",
        "streetNameDisplayText": "VICTORIA ST W, COOKSTOWN"
      },
      {
        "electoralDistricts": [
          {
            "election": null,
            "id": 34,
            "name": "Haldimand—Norfolk"
          }
        ],
        "pollDivisionIds": [
          10138467
        ],
        "postalCode": "N3Y1L4",
        "streetName": "VICTORIA",
        "streetDirectionId": null,
        "streetTypeId": "ST",
        "placeName": "SIMCOE",
        "streetNameDisplayText": "VICTORIA ST, SIMCOE"
      }
    ]
  },
  {
    "postal": "N3Y0C8",
    "result": [
      {
        "electoralDistricts": [
          {
            "election": null,
            "id": 34,
            "name": "Haldimand—Norfolk"
          }
        ],
        "pollDivisionIds": [
          10138467,
          10138451,
          10138465
        ],
        "postalCode": "N3Y0C8",
        "streetName": "DONLY",
        "streetDirectionId": "S",
        "streetTypeId": "DR",
        "placeName": "SIMCOE",
        "streetNameDisplayText": "DONLY DR S, SIMCOE"
      }
    ]
  },
  {
    "postal": "N3Y9X7",
    "result": []
  },
  {
    "postal": "N3Y4T1",
    "result": [
      {
        "electoralDistricts": [
          {
            "election": null,
            "id": 34,
            "name": "Haldimand—Norfolk"
          }
        ],
        "pollDivisionIds": [
          10138467
        ],
        "postalCode": "N3Y4T1",
        "streetName": "NORTHGATE",
        "streetDirectionId": null,
        "streetTypeId": "RD",
        "placeName": "SIMCOE",
        "streetNameDisplayText": "NORTHGATE RD, SIMCOE"
      },
      {
        "electoralDistricts": [
          {
            "election": null,
            "id": 34,
            "name": "Haldimand—Norfolk"
          }
        ],
        "pollDivisionIds": [
          10138467
        ],
        "postalCode": "N3Y4T1",
        "streetName": "NORTHGATE",
        "streetDirectionId": null,
        "streetTypeId": "ST",
        "placeName": "SIMCOE",
        "streetNameDisplayText": "NORTHGATE ST, SIMCOE"
      }
    ]
  },
  {
    "postal": "N3Y0M0",
    "result": []
  },
  {
    "postal": "N3Y6A2",
    "result": []
  },
  {
    "postal": "N3Y9S8",
    "result": []
  },
  {
    "postal": "N3Y9T4",
    "result": []
  },
  {
    "postal": "N3Y9Y4",
    "result": []
  },
  {
    "postal": "N3Y6G5",
    "result": []
  },
  {
    "postal": "N3Y6H9",
    "result": []
  },
  {
    "postal": "N3Y2P3",
    "result": [
      {
        "electoralDistricts": [
          {
            "election": null,
            "id": 34,
            "name": "Haldimand—Norfolk"
          }
        ],
        "pollDivisionIds": [
          10138465
        ],
        "postalCode": "N3Y2P3",
        "streetName": "SECOND",
        "streetDirectionId": "W",
        "streetTypeId": "AVE",
        "placeName": "SIMCOE",
        "streetNameDisplayText": "SECOND AVE W, SIMCOE"
      }
    ]
  },
  {
    "postal": "N3Y1T6",
    "result": []
  },
  {
    "postal": "N3Y4P6",
    "result": [
      {
        "electoralDistricts": [
          {
            "election": null,
            "id": 34,
            "name": "Haldimand—Norfolk"
          }
        ],
        "pollDivisionIds": [
          10138467
        ],
        "postalCode": "N3Y4P6",
        "streetName": "THORNCLIFFE",
        "streetDirectionId": null,
        "streetTypeId": "RD",
        "placeName": "SIMCOE",
        "streetNameDisplayText": "THORNCLIFFE RD, SIMCOE"
      }
    ]
  },
  {
    "postal": "N3Y3K1",
    "result": [
      {
        "electoralDistricts": [
          {
            "election": null,
            "id": 34,
            "name": "Haldimand—Norfolk"
          }
        ],
        "pollDivisionIds": [
          10138463
        ],
        "postalCode": "N3Y3K1",
        "streetName": "OAK",
        "streetDirectionId": null,
        "streetTypeId": "ST",
        "placeName": "SIMCOE",
        "streetNameDisplayText": "OAK ST, SIMCOE"
      }
    ]
  },
  {
    "postal": "N3Y6X4",
    "result": []
  },
  {
    "postal": "N3Y4M8",
    "result": [
      {
        "electoralDistricts": [
          {
            "election": null,
            "id": 34,
            "name": "Haldimand—Norfolk"
          }
        ],
        "pollDivisionIds": [
          10138467
        ],
        "postalCode": "N3Y4M8",
        "streetName": "NORTHGATE",
        "streetDirectionId": null,
        "streetTypeId": "RD",
        "placeName": "SIMCOE",
        "streetNameDisplayText": "NORTHGATE RD, SIMCOE"
      },
      {
        "electoralDistricts": [
          {
            "election": null,
            "id": 34,
            "name": "Haldimand—Norfolk"
          }
        ],
        "pollDivisionIds": [
          10138467
        ],
        "postalCode": "N3Y4M8",
        "streetName": "NORTHGATE",
        "streetDirectionId": null,
        "streetTypeId": "ST",
        "placeName": "SIMCOE",
        "streetNameDisplayText": "NORTHGATE ST, SIMCOE"
      }
    ]
  },
  {
    "postal": "N3Y2Y1",
    "result": [
      {
        "electoralDistricts": [
          {
            "election": null,
            "id": 34,
            "name": "Haldimand—Norfolk"
          }
        ],
        "pollDivisionIds": [
          10138467
        ],
        "postalCode": "N3Y2Y1",
        "streetName": "KENT",
        "streetDirectionId": "S",
        "streetTypeId": "ST",
        "placeName": "SIMCOE",
        "streetNameDisplayText": "KENT ST S, SIMCOE"
      }
    ]
  },
  {
    "postal": "N3Y6M1",
    "result": []
  },
  {
    "postal": "N3Y5L8",
    "result": [
      {
        "electoralDistricts": [
          {
            "election": null,
            "id": 34,
            "name": "Haldimand—Norfolk"
          }
        ],
        "pollDivisionIds": [
          10138467
        ],
        "postalCode": "N3Y5L8",
        "streetName": "VICTORIA",
        "streetDirectionId": null,
        "streetTypeId": "ST",
        "placeName": "SIMCOE",
        "streetNameDisplayText": "VICTORIA ST, SIMCOE"
      }
    ]
  },
  {
    "postal": "N3Y3P6",
    "result": [
      {
        "electoralDistricts": [
          {
            "election": null,
            "id": 34,
            "name": "Haldimand—Norfolk"
          }
        ],
        "pollDivisionIds": [
          10138464
        ],
        "postalCode": "N3Y3P6",
        "streetName": "NORFOLK",
        "streetDirectionId": "N",
        "streetTypeId": "ST",
        "placeName": "SIMCOE",
        "streetNameDisplayText": "NORFOLK ST N, SIMCOE"
      }
    ]
  },
  {
    "postal": "N3Y9A5",
    "result": []
  },
  {
    "postal": "N3Y7K1",
    "result": []
  },
  {
    "postal": "N3Y3J4",
    "result": [
      {
        "electoralDistricts": [
          {
            "election": null,
            "id": 34,
            "name": "Haldimand—Norfolk"
          }
        ],
        "pollDivisionIds": [
          10138463
        ],
        "postalCode": "N3Y3J4",
        "streetName": "OAK",
        "streetDirectionId": null,
        "streetTypeId": "ST",
        "placeName": "SIMCOE",
        "streetNameDisplayText": "OAK ST, SIMCOE"
      }
    ]
  },
  {
    "postal": "N3Y5E7",
    "result": [
      {
        "electoralDistricts": [
          {
            "election": null,
            "id": 34,
            "name": "Haldimand—Norfolk"
          }
        ],
        "pollDivisionIds": [
          10138465
        ],
        "postalCode": "N3Y5E7",
        "streetName": "QUEENSWAY",
        "streetDirectionId": "E",
        "streetTypeId": null,
        "placeName": "SIMCOE",
        "streetNameDisplayText": "QUEENSWAY E, SIMCOE"
      }
    ]
  },
  {
    "postal": "N3Y3A7",
    "result": [
      {
        "electoralDistricts": [
          {
            "election": null,
            "id": 34,
            "name": "Haldimand—Norfolk"
          }
        ],
        "pollDivisionIds": [
          10138466
        ],
        "postalCode": "N3Y3A7",
        "streetName": "HEAD",
        "streetDirectionId": "S",
        "streetTypeId": "ST",
        "placeName": "SIMCOE",
        "streetNameDisplayText": "HEAD ST S, SIMCOE"
      }
    ]
  },
  {
    "postal": "N3Y1B9",
    "result": [
      {
        "electoralDistricts": [
          {
            "election": null,
            "id": 34,
            "name": "Haldimand—Norfolk"
          }
        ],
        "pollDivisionIds": [
          10138461
        ],
        "postalCode": "N3Y1B9",
        "streetName": "GARDEN",
        "streetDirectionId": null,
        "streetTypeId": "ST",
        "placeName": "SIMCOE",
        "streetNameDisplayText": "GARDEN ST, SIMCOE"
      }
    ]
  },
  {
    "postal": "N3Y9E8",
    "result": []
  },
  {
    "postal": "N3Y1C9",
    "result": [
      {
        "electoralDistricts": [
          {
            "election": null,
            "id": 34,
            "name": "Haldimand—Norfolk"
          }
        ],
        "pollDivisionIds": [
          10138461
        ],
        "postalCode": "N3Y1C9",
        "streetName": "MACKAY",
        "streetDirectionId": null,
        "streetTypeId": "AVE",
        "placeName": "SIMCOE",
        "streetNameDisplayText": "MACKAY AVE, SIMCOE"
      }
    ]
  },
  {
    "postal": "N3Y3B5",
    "result": [
      {
        "electoralDistricts": [
          {
            "election": null,
            "id": 34,
            "name": "Haldimand—Norfolk"
          }
        ],
        "pollDivisionIds": [
          10138461
        ],
        "postalCode": "N3Y3B5",
        "streetName": "ELM",
        "streetDirectionId": null,
        "streetTypeId": "ST",
        "placeName": "SIMCOE",
        "streetNameDisplayText": "ELM ST, SIMCOE"
      }
    ]
  },
  {
    "postal": "N3Y8R0",
    "result": []
  },
  {
    "postal": "N3Y3P2",
    "result": [
      {
        "electoralDistricts": [
          {
            "election": null,
            "id": 34,
            "name": "Haldimand—Norfolk"
          }
        ],
        "pollDivisionIds": [
          10138464
        ],
        "postalCode": "N3Y3P2",
        "streetName": "NORFOLK",
        "streetDirectionId": "N",
        "streetTypeId": "ST",
        "placeName": "SIMCOE",
        "streetNameDisplayText": "NORFOLK ST N, SIMCOE"
      }
    ]
  },
  {
    "postal": "N3Y5V4",
    "result": []
  },
  {
    "postal": "N3Y4H0",
    "result": []
  },
  {
    "postal": "N3Y4S7",
    "result": [
      {
        "electoralDistricts": [
          {
            "election": null,
            "id": 34,
            "name": "Haldimand—Norfolk"
          }
        ],
        "pollDivisionIds": [
          10138462
        ],
        "postalCode": "N3Y4S7",
        "streetName": "CEDAR",
        "streetDirectionId": null,
        "streetTypeId": "ST",
        "placeName": "SIMCOE",
        "streetNameDisplayText": "CEDAR ST, SIMCOE"
      }
    ]
  },
  {
    "postal": "N3Y6C2",
    "result": []
  },
  {
    "postal": "N3Y8W3",
    "result": []
  },
  {
    "postal": "N3Y4M5",
    "result": [
      {
        "electoralDistricts": [
          {
            "election": null,
            "id": 34,
            "name": "Haldimand—Norfolk"
          }
        ],
        "pollDivisionIds": [
          10138465,
          10138467
        ],
        "postalCode": "N3Y4M5",
        "streetName": "QUEENSWAY",
        "streetDirectionId": "E",
        "streetTypeId": null,
        "placeName": "SIMCOE",
        "streetNameDisplayText": "QUEENSWAY E, SIMCOE"
      }
    ]
  },
  {
    "postal": "N3Y5T1",
    "result": []
  },
  {
    "postal": "N3Y3B3",
    "result": [
      {
        "electoralDistricts": [
          {
            "election": null,
            "id": 34,
            "name": "Haldimand—Norfolk"
          },
          {
            "election": null,
            "id": 100,
            "name": "Simcoe North"
          }
        ],
        "pollDivisionIds": [
          10138461,
          10141889,
          10138463
        ],
        "postalCode": "N3Y3B3",
        "streetName": "ELM",
        "streetDirectionId": null,
        "streetTypeId": "ST",
        "placeName": "SIMCOE",
        "streetNameDisplayText": "ELM ST, SIMCOE"
      },
      {
        "electoralDistricts": [
          {
            "election": null,
            "id": 100,
            "name": "Simcoe North"
          }
        ],
        "pollDivisionIds": [
          10141889
        ],
        "postalCode": "N3Y3B3",
        "streetName": "ELM",
        "streetDirectionId": null,
        "streetTypeId": "ST",
        "placeName": "WAUBAUSHENE",
        "streetNameDisplayText": "ELM ST, WAUBAUSHENE"
      }
    ]
  },
  {
    "postal": "N3Y6C6",
    "result": []
  },
  {
    "postal": "N3Y7N8",
    "result": []
  },
  {
    "postal": "N3Y2Y3",
    "result": []
  },
  {
    "postal": "N3Y2R6",
    "result": [
      {
        "electoralDistricts": [
          {
            "election": null,
            "id": 100,
            "name": "Simcoe North"
          },
          {
            "election": null,
            "id": 34,
            "name": "Haldimand—Norfolk"
          }
        ],
        "pollDivisionIds": [
          10141878,
          10138465
        ],
        "postalCode": "N3Y2R6",
        "streetName": "HIGHLAND",
        "streetDirectionId": null,
        "streetTypeId": "AVE",
        "placeName": "SIMCOE",
        "streetNameDisplayText": "HIGHLAND AVE, SIMCOE"
      }
    ]
  },
  {
    "postal": "N3Y7N3",
    "result": []
  },
  {
    "postal": "N3Y8J2",
    "result": []
  },
  {
    "postal": "N3Y6A9",
    "result": []
  },
  {
    "postal": "N3Y3V2",
    "result": [
      {
        "electoralDistricts": [
          {
            "election": null,
            "id": 34,
            "name": "Haldimand—Norfolk"
          }
        ],
        "pollDivisionIds": [
          10138466
        ],
        "postalCode": "N3Y3V2",
        "streetName": "COLBORNE",
        "streetDirectionId": "N",
        "streetTypeId": "ST",
        "placeName": "SIMCOE",
        "streetNameDisplayText": "COLBORNE ST N, SIMCOE"
      }
    ]
  },
  {
    "postal": "N3Y2N3",
    "result": [
      {
        "electoralDistricts": [
          {
            "election": null,
            "id": 34,
            "name": "Haldimand—Norfolk"
          }
        ],
        "pollDivisionIds": [
          10138464
        ],
        "postalCode": "N3Y2N3",
        "streetName": "QUEENSWAY",
        "streetDirectionId": "W",
        "streetTypeId": null,
        "placeName": "SIMCOE",
        "streetNameDisplayText": "QUEENSWAY W, SIMCOE"
      }
    ]
  },
  {
    "postal": "N3Y1S5",
    "result": []
  },
  {
    "postal": "N3Y4T7",
    "result": [
      {
        "electoralDistricts": [
          {
            "election": null,
            "id": 34,
            "name": "Haldimand—Norfolk"
          }
        ],
        "pollDivisionIds": [
          10138467
        ],
        "postalCode": "N3Y4T7",
        "streetName": "CARRIAGE",
        "streetDirectionId": null,
        "streetTypeId": "RD",
        "placeName": "SIMCOE",
        "streetNameDisplayText": "CARRIAGE RD, SIMCOE"
      }
    ]
  },
  {
    "postal": "N3Y6Y7",
    "result": []
  },
  {
    "postal": "N3Y0W7",
    "result": []
  },
  {
    "postal": "N3Y2W9",
    "result": [
      {
        "electoralDistricts": [
          {
            "election": null,
            "id": 34,
            "name": "Haldimand—Norfolk"
          }
        ],
        "pollDivisionIds": [
          10138464
        ],
        "postalCode": "N3Y2W9",
        "streetName": "NORFOLK",
        "streetDirectionId": "N",
        "streetTypeId": "ST",
        "placeName": "SIMCOE",
        "streetNameDisplayText": "NORFOLK ST N, SIMCOE"
      },
      {
        "electoralDistricts": [
          {
            "election": null,
            "id": 34,
            "name": "Haldimand—Norfolk"
          }
        ],
        "pollDivisionIds": [
          10138461
        ],
        "postalCode": "N3Y2W9",
        "streetName": "NORFOLK",
        "streetDirectionId": "S",
        "streetTypeId": "ST",
        "placeName": "SIMCOE",
        "streetNameDisplayText": "NORFOLK ST S, SIMCOE"
      }
    ]
  },
  {
    "postal": "N3Y8V0",
    "result": []
  },
  {
    "postal": "N3Y0H4",
    "result": []
  },
  {
    "postal": "N3Y2T1",
    "result": [
      {
        "electoralDistricts": [
          {
            "election": null,
            "id": 34,
            "name": "Haldimand—Norfolk"
          }
        ],
        "pollDivisionIds": [
          10138467
        ],
        "postalCode": "N3Y2T1",
        "streetName": "HOMEWOOD",
        "streetDirectionId": null,
        "streetTypeId": "AVE",
        "placeName": "SIMCOE",
        "streetNameDisplayText": "HOMEWOOD AVE, SIMCOE"
      }
    ]
  },
  {
    "postal": "N3Y1B1",
    "result": [
      {
        "electoralDistricts": [
          {
            "election": null,
            "id": 100,
            "name": "Simcoe North"
          }
        ],
        "pollDivisionIds": [
          10141920
        ],
        "postalCode": "N3Y1B1",
        "streetName": "POPLAR",
        "streetDirectionId": null,
        "streetTypeId": "CRES",
        "placeName": "SIMCOE",
        "streetNameDisplayText": "POPLAR CRES, SIMCOE"
      },
      {
        "electoralDistricts": [
          {
            "election": null,
            "id": 34,
            "name": "Haldimand—Norfolk"
          }
        ],
        "pollDivisionIds": [
          10138461
        ],
        "postalCode": "N3Y1B1",
        "streetName": "POPLAR",
        "streetDirectionId": null,
        "streetTypeId": "ST",
        "placeName": "SIMCOE",
        "streetNameDisplayText": "POPLAR ST, SIMCOE"
      }
    ]
  },
  {
    "postal": "N3Y8B6",
    "result": []
  },
  {
    "postal": "N3Y6H1",
    "result": []
  },
  {
    "postal": "N3Y8T8",
    "result": []
  },
  {
    "postal": "N3Y0T4",
    "result": []
  },
  {
    "postal": "N3Y2C4",
    "result": [
      {
        "electoralDistricts": [
          {
            "election": null,
            "id": 34,
            "name": "Haldimand—Norfolk"
          }
        ],
        "pollDivisionIds": [
          10138464
        ],
        "postalCode": "N3Y2C4",
        "streetName": "MCCALL",
        "streetDirectionId": null,
        "streetTypeId": "ST",
        "placeName": "SIMCOE",
        "streetNameDisplayText": "MCCALL ST, SIMCOE"
      }
    ]
  },
  {
    "postal": "N3Y8N3",
    "result": []
  },
  {
    "postal": "N3Y4L8",
    "result": []
  },
  {
    "postal": "N3Y2B5",
    "result": [
      {
        "electoralDistricts": [
          {
            "election": null,
            "id": 34,
            "name": "Haldimand—Norfolk"
          }
        ],
        "pollDivisionIds": [
          10138461
        ],
        "postalCode": "N3Y2B5",
        "streetName": "UNION",
        "streetDirectionId": null,
        "streetTypeId": "ST",
        "placeName": "SIMCOE",
        "streetNameDisplayText": "UNION ST, SIMCOE"
      }
    ]
  },
  {
    "postal": "N3Y3H1",
    "result": [
      {
        "electoralDistricts": [
          {
            "election": null,
            "id": 34,
            "name": "Haldimand—Norfolk"
          }
        ],
        "pollDivisionIds": [
          10138461
        ],
        "postalCode": "N3Y3H1",
        "streetName": "ORCHARD",
        "streetDirectionId": null,
        "streetTypeId": "AVE",
        "placeName": "SIMCOE",
        "streetNameDisplayText": "ORCHARD AVE, SIMCOE"
      }
    ]
  },
  {
    "postal": "N3Y4Y1",
    "result": [
      {
        "electoralDistricts": [
          {
            "election": null,
            "id": 34,
            "name": "Haldimand—Norfolk"
          }
        ],
        "pollDivisionIds": [
          10138463
        ],
        "postalCode": "N3Y4Y1",
        "streetName": "DOUGLAS",
        "streetDirectionId": null,
        "streetTypeId": "AVE",
        "placeName": "SIMCOE",
        "streetNameDisplayText": "DOUGLAS AVE, SIMCOE"
      }
    ]
  },
  {
    "postal": "N3Y7E2",
    "result": []
  },
  {
    "postal": "N3Y2P5",
    "result": [
      {
        "electoralDistricts": [
          {
            "election": null,
            "id": 34,
            "name": "Haldimand—Norfolk"
          }
        ],
        "pollDivisionIds": [
          10138465
        ],
        "postalCode": "N3Y2P5",
        "streetName": "FIRST",
        "streetDirectionId": "E",
        "streetTypeId": "AVE",
        "placeName": "SIMCOE",
        "streetNameDisplayText": "FIRST AVE E, SIMCOE"
      }
    ]
  },
  {
    "postal": "N3Y8R7",
    "result": []
  },
  {
    "postal": "N3Y9P1",
    "result": []
  },
  {
    "postal": "N3Y3B8",
    "result": [
      {
        "electoralDistricts": [
          {
            "election": null,
            "id": 34,
            "name": "Haldimand—Norfolk"
          }
        ],
        "pollDivisionIds": [
          10138466
        ],
        "postalCode": "N3Y3B8",
        "streetName": "METCALFE",
        "streetDirectionId": "S",
        "streetTypeId": "ST",
        "placeName": "SIMCOE",
        "streetNameDisplayText": "METCALFE ST S, SIMCOE"
      }
    ]
  },
  {
    "postal": "N3Y3P7",
    "result": [
      {
        "electoralDistricts": [
          {
            "election": null,
            "id": 34,
            "name": "Haldimand—Norfolk"
          }
        ],
        "pollDivisionIds": [
          10138464
        ],
        "postalCode": "N3Y3P7",
        "streetName": "NORFOLK",
        "streetDirectionId": "N",
        "streetTypeId": "ST",
        "placeName": "SIMCOE",
        "streetNameDisplayText": "NORFOLK ST N, SIMCOE"
      },
      {
        "electoralDistricts": [
          {
            "election": null,
            "id": 34,
            "name": "Haldimand—Norfolk"
          }
        ],
        "pollDivisionIds": [
          10138461
        ],
        "postalCode": "N3Y3P7",
        "streetName": "NORFOLK",
        "streetDirectionId": "S",
        "streetTypeId": "ST",
        "placeName": "SIMCOE",
        "streetNameDisplayText": "NORFOLK ST S, SIMCOE"
      }
    ]
  },
  {
    "postal": "N3Y9B2",
    "result": []
  },
  {
    "postal": "N3Y6Z3",
    "result": []
  },
  {
    "postal": "N3Y4N5",
    "result": [
      {
        "electoralDistricts": [
          {
            "election": null,
            "id": 34,
            "name": "Haldimand—Norfolk"
          }
        ],
        "pollDivisionIds": [
          10138467
        ],
        "postalCode": "N3Y4N5",
        "streetName": "BOSWELL",
        "streetDirectionId": null,
        "streetTypeId": "ST",
        "placeName": "SIMCOE",
        "streetNameDisplayText": "BOSWELL ST, SIMCOE"
      }
    ]
  },
  {
    "postal": "N3Y8T3",
    "result": []
  },
  {
    "postal": "N3Y1V2",
    "result": [
      {
        "electoralDistricts": [
          {
            "election": null,
            "id": 34,
            "name": "Haldimand—Norfolk"
          },
          {
            "election": null,
            "id": 100,
            "name": "Simcoe North"
          }
        ],
        "pollDivisionIds": [
          10138463,
          10141888,
          10138451
        ],
        "postalCode": "N3Y1V2",
        "streetName": "WEST",
        "streetDirectionId": null,
        "streetTypeId": "ST",
        "placeName": "SIMCOE",
        "streetNameDisplayText": "WEST ST, SIMCOE"
      }
    ]
  },
  {
    "postal": "N3Y1Y0",
    "result": []
  },
  {
    "postal": "N3Y3G6",
    "result": [
      {
        "electoralDistricts": [
          {
            "election": null,
            "id": 34,
            "name": "Haldimand—Norfolk"
          }
        ],
        "pollDivisionIds": [
          10138461
        ],
        "postalCode": "N3Y3G6",
        "streetName": "BROOK",
        "streetDirectionId": null,
        "streetTypeId": "ST",
        "placeName": "SIMCOE",
        "streetNameDisplayText": "BROOK ST, SIMCOE"
      }
    ]
  },
  {
    "postal": "N3Y3H7",
    "result": [
      {
        "electoralDistricts": [
          {
            "election": null,
            "id": 34,
            "name": "Haldimand—Norfolk"
          }
        ],
        "pollDivisionIds": [
          10138461
        ],
        "postalCode": "N3Y3H7",
        "streetName": "SCOTT",
        "streetDirectionId": null,
        "streetTypeId": "AVE",
        "placeName": "SIMCOE",
        "streetNameDisplayText": "SCOTT AVE, SIMCOE"
      }
    ]
  },
  {
    "postal": "N3Y7X8",
    "result": []
  },
  {
    "postal": "N3Y0C7",
    "result": [
      {
        "electoralDistricts": [
          {
            "election": null,
            "id": 34,
            "name": "Haldimand—Norfolk"
          }
        ],
        "pollDivisionIds": [
          10138465
        ],
        "postalCode": "N3Y0C7",
        "streetName": "BASSWOOD",
        "streetDirectionId": null,
        "streetTypeId": "RD",
        "placeName": "SIMCOE",
        "streetNameDisplayText": "BASSWOOD RD, SIMCOE"
      },
      {
        "electoralDistricts": [
          {
            "election": null,
            "id": 34,
            "name": "Haldimand—Norfolk"
          }
        ],
        "pollDivisionIds": [
          10138465,
          10138451
        ],
        "postalCode": "N3Y0C7",
        "streetName": "WOODWAY",
        "streetDirectionId": null,
        "streetTypeId": "TRAIL",
        "placeName": "SIMCOE",
        "streetNameDisplayText": "WOODWAY TRAIL, SIMCOE"
      }
    ]
  },
  {
    "postal": "N3Y0W9",
    "result": []
  },
  {
    "postal": "N3Y8E6",
    "result": []
  },
  {
    "postal": "N3Y9Z8",
    "result": []
  },
  {
    "postal": "N3Y3P4",
    "result": [
      {
        "electoralDistricts": [
          {
            "election": null,
            "id": 34,
            "name": "Haldimand—Norfolk"
          }
        ],
        "pollDivisionIds": [
          10138464
        ],
        "postalCode": "N3Y3P4",
        "streetName": "NORFOLK",
        "streetDirectionId": "N",
        "streetTypeId": "ST",
        "placeName": "SIMCOE",
        "streetNameDisplayText": "NORFOLK ST N, SIMCOE"
      }
    ]
  },
  {
    "postal": "N3Y6L8",
    "result": []
  },
  {
    "postal": "N3Y2R4",
    "result": [
      {
        "electoralDistricts": [
          {
            "election": null,
            "id": 34,
            "name": "Haldimand—Norfolk"
          }
        ],
        "pollDivisionIds": [
          10138465
        ],
        "postalCode": "N3Y2R4",
        "streetName": "DAVIS",
        "streetDirectionId": "W",
        "streetTypeId": "ST",
        "placeName": "SIMCOE",
        "streetNameDisplayText": "DAVIS ST W, SIMCOE"
      }
    ]
  },
  {
    "postal": "N3Y2W1",
    "result": [
      {
        "electoralDistricts": [
          {
            "election": null,
            "id": 34,
            "name": "Haldimand—Norfolk"
          }
        ],
        "pollDivisionIds": [
          10138467
        ],
        "postalCode": "N3Y2W1",
        "streetName": "NORFOLK",
        "streetDirectionId": "S",
        "streetTypeId": "ST",
        "placeName": "SIMCOE",
        "streetNameDisplayText": "NORFOLK ST S, SIMCOE"
      }
    ]
  },
  {
    "postal": "N3Y9H8",
    "result": []
  },
  {
    "postal": "N3Y8X9",
    "result": []
  },
  {
    "postal": "N3Y7H4",
    "result": []
  },
  {
    "postal": "N3Y3J1",
    "result": [
      {
        "electoralDistricts": [
          {
            "election": null,
            "id": 34,
            "name": "Haldimand—Norfolk"
          }
        ],
        "pollDivisionIds": [
          10138463
        ],
        "postalCode": "N3Y3J1",
        "streetName": "RICHARD",
        "streetDirectionId": null,
        "streetTypeId": "AVE",
        "placeName": "SIMCOE",
        "streetNameDisplayText": "RICHARD AVE, SIMCOE"
      }
    ]
  },
  {
    "postal": "N3Y1P4",
    "result": [
      {
        "electoralDistricts": [
          {
            "election": null,
            "id": 34,
            "name": "Haldimand—Norfolk"
          }
        ],
        "pollDivisionIds": [
          10138461
        ],
        "postalCode": "N3Y1P4",
        "streetName": "CHAPEL",
        "streetDirectionId": null,
        "streetTypeId": "ST",
        "placeName": "SIMCOE",
        "streetNameDisplayText": "CHAPEL ST, SIMCOE"
      }
    ]
  },
  {
    "postal": "N3Y2A3",
    "result": [
      {
        "electoralDistricts": [
          {
            "election": null,
            "id": 34,
            "name": "Haldimand—Norfolk"
          }
        ],
        "pollDivisionIds": [
          10138466
        ],
        "postalCode": "N3Y2A3",
        "streetName": "UNION",
        "streetDirectionId": null,
        "streetTypeId": "ST",
        "placeName": "SIMCOE",
        "streetNameDisplayText": "UNION ST, SIMCOE"
      }
    ]
  },
  {
    "postal": "N3Y0Z1",
    "result": []
  },
  {
    "postal": "N3Y1C1",
    "result": [
      {
        "electoralDistricts": [
          {
            "election": null,
            "id": 34,
            "name": "Haldimand—Norfolk"
          }
        ],
        "pollDivisionIds": [
          10138461
        ],
        "postalCode": "N3Y1C1",
        "streetName": "GARDEN",
        "streetDirectionId": null,
        "streetTypeId": "ST",
        "placeName": "SIMCOE",
        "streetNameDisplayText": "GARDEN ST, SIMCOE"
      }
    ]
  },
  {
    "postal": "N3Y0H3",
    "result": []
  },
  {
    "postal": "N3Y7B0",
    "result": []
  },
  {
    "postal": "N3Y5K2",
    "result": [
      {
        "electoralDistricts": [
          {
            "election": null,
            "id": 34,
            "name": "Haldimand—Norfolk"
          }
        ],
        "pollDivisionIds": [
          10138465
        ],
        "postalCode": "N3Y5K2",
        "streetName": "QUEENSWAY",
        "streetDirectionId": "E",
        "streetTypeId": null,
        "placeName": "SIMCOE",
        "streetNameDisplayText": "QUEENSWAY E, SIMCOE"
      }
    ]
  },
  {
    "postal": "N3Y1E9",
    "result": [
      {
        "electoralDistricts": [
          {
            "election": null,
            "id": 34,
            "name": "Haldimand—Norfolk"
          }
        ],
        "pollDivisionIds": [
          10138467
        ],
        "postalCode": "N3Y1E9",
        "streetName": "WOODHOUSE",
        "streetDirectionId": null,
        "streetTypeId": "ST",
        "placeName": "SIMCOE",
        "streetNameDisplayText": "WOODHOUSE ST, SIMCOE"
      }
    ]
  },
  {
    "postal": "N3Y9W7",
    "result": []
  },
  {
    "postal": "N3Y5W6",
    "result": []
  },
  {
    "postal": "N3Y6S6",
    "result": []
  },
  {
    "postal": "N3Y2P8",
    "result": [
      {
        "electoralDistricts": [
          {
            "election": null,
            "id": 34,
            "name": "Haldimand—Norfolk"
          }
        ],
        "pollDivisionIds": [
          10138465
        ],
        "postalCode": "N3Y2P8",
        "streetName": "FIRST",
        "streetDirectionId": "W",
        "streetTypeId": "AVE",
        "placeName": "SIMCOE",
        "streetNameDisplayText": "FIRST AVE W, SIMCOE"
      }
    ]
  },
  {
    "postal": "N3Y4P8",
    "result": [
      {
        "electoralDistricts": [
          {
            "election": null,
            "id": 34,
            "name": "Haldimand—Norfolk"
          }
        ],
        "pollDivisionIds": [
          10138467
        ],
        "postalCode": "N3Y4P8",
        "streetName": "THORNCLIFFE",
        "streetDirectionId": null,
        "streetTypeId": "RD",
        "placeName": "SIMCOE",
        "streetNameDisplayText": "THORNCLIFFE RD, SIMCOE"
      }
    ]
  },
  {
    "postal": "N3Y0V9",
    "result": []
  },
  {
    "postal": "N3Y5Y2",
    "result": []
  },
  {
    "postal": "N3Y7Z7",
    "result": []
  },
  {
    "postal": "N3Y6Y8",
    "result": []
  },
  {
    "postal": "N3Y2G7",
    "result": [
      {
        "electoralDistricts": [
          {
            "election": null,
            "id": 34,
            "name": "Haldimand—Norfolk"
          }
        ],
        "pollDivisionIds": [
          10138464
        ],
        "postalCode": "N3Y2G7",
        "streetName": "MAPLE",
        "streetDirectionId": null,
        "streetTypeId": "ST",
        "placeName": "SIMCOE",
        "streetNameDisplayText": "MAPLE ST, SIMCOE"
      }
    ]
  },
  {
    "postal": "N3Y8C1",
    "result": []
  },
  {
    "postal": "N3Y5C5",
    "result": []
  },
  {
    "postal": "N3Y2X8",
    "result": [
      {
        "electoralDistricts": [
          {
            "election": null,
            "id": 34,
            "name": "Haldimand—Norfolk"
          }
        ],
        "pollDivisionIds": [
          10138466
        ],
        "postalCode": "N3Y2X8",
        "streetName": "KENT",
        "streetDirectionId": "S",
        "streetTypeId": "ST",
        "placeName": "SIMCOE",
        "streetNameDisplayText": "KENT ST S, SIMCOE"
      }
    ]
  },
  {
    "postal": "N3Y1W5",
    "result": [
      {
        "electoralDistricts": [
          {
            "election": null,
            "id": 100,
            "name": "Simcoe North"
          }
        ],
        "pollDivisionIds": [
          10141899
        ],
        "postalCode": "N3Y1W5",
        "streetName": "ROBINSON",
        "streetDirectionId": null,
        "streetTypeId": "ST",
        "placeName": "ORO-MEDONTE",
        "streetNameDisplayText": "ROBINSON ST, ORO-MEDONTE"
      },
      {
        "electoralDistricts": [
          {
            "election": null,
            "id": 34,
            "name": "Haldimand—Norfolk"
          }
        ],
        "pollDivisionIds": [
          10138466
        ],
        "postalCode": "N3Y1W5",
        "streetName": "ROBINSON",
        "streetDirectionId": null,
        "streetTypeId": "ST",
        "placeName": "SIMCOE",
        "streetNameDisplayText": "ROBINSON ST, SIMCOE"
      }
    ]
  },
  {
    "postal": "N3Y7G0",
    "result": []
  },
  {
    "postal": "N3Y8J8",
    "result": []
  },
  {
    "postal": "N3Y3Y0",
    "result": []
  },
  {
    "postal": "N3Y9T7",
    "result": []
  },
  {
    "postal": "N3Y5P4",
    "result": []
  },
  {
    "postal": "N3Y4B0",
    "result": []
  },
  {
    "postal": "N3Y9N8",
    "result": []
  },
  {
    "postal": "N3Y4A7",
    "result": []
  },
  {
    "postal": "N3Y4H9",
    "result": [
      {
        "electoralDistricts": [
          {
            "election": null,
            "id": 34,
            "name": "Haldimand—Norfolk"
          }
        ],
        "pollDivisionIds": [
          10138466
        ],
        "postalCode": "N3Y4H9",
        "streetName": "DEAN",
        "streetDirectionId": null,
        "streetTypeId": "ST",
        "placeName": "SIMCOE",
        "streetNameDisplayText": "DEAN ST, SIMCOE"
      }
    ]
  },
  {
    "postal": "N3Y6X1",
    "result": []
  },
  {
    "postal": "N3Y9Y7",
    "result": []
  },
  {
    "postal": "N3Y2Y5",
    "result": [
      {
        "electoralDistricts": [
          {
            "election": null,
            "id": 34,
            "name": "Haldimand—Norfolk"
          },
          {
            "election": null,
            "id": 99,
            "name": "Simcoe—Grey"
          }
        ],
        "pollDivisionIds": [
          10138466,
          10141839
        ],
        "postalCode": "N3Y2Y5",
        "streetName": "JOHN",
        "streetDirectionId": null,
        "streetTypeId": "ST",
        "placeName": "SIMCOE",
        "streetNameDisplayText": "JOHN ST, SIMCOE"
      }
    ]
  },
  {
    "postal": "N3Y8L7",
    "result": []
  },
  {
    "postal": "N3Y2A8",
    "result": [
      {
        "electoralDistricts": [
          {
            "election": null,
            "id": 34,
            "name": "Haldimand—Norfolk"
          }
        ],
        "pollDivisionIds": [
          10138466
        ],
        "postalCode": "N3Y2A8",
        "streetName": "UNION",
        "streetDirectionId": null,
        "streetTypeId": "ST",
        "placeName": "SIMCOE",
        "streetNameDisplayText": "UNION ST, SIMCOE"
      }
    ]
  },
  {
    "postal": "N3Y2K9",
    "result": [
      {
        "electoralDistricts": [
          {
            "election": null,
            "id": 34,
            "name": "Haldimand—Norfolk"
          }
        ],
        "pollDivisionIds": [
          10138464
        ],
        "postalCode": "N3Y2K9",
        "streetName": "CRESCENT",
        "streetDirectionId": null,
        "streetTypeId": "BLVD",
        "placeName": "SIMCOE",
        "streetNameDisplayText": "CRESCENT BLVD, SIMCOE"
      }
    ]
  },
  {
    "postal": "N3Y3E5",
    "result": [
      {
        "electoralDistricts": [
          {
            "election": null,
            "id": 34,
            "name": "Haldimand—Norfolk"
          }
        ],
        "pollDivisionIds": [
          10138461
        ],
        "postalCode": "N3Y3E5",
        "streetName": "NELSON",
        "streetDirectionId": null,
        "streetTypeId": "ST",
        "placeName": "SIMCOE",
        "streetNameDisplayText": "NELSON ST, SIMCOE"
      }
    ]
  },
  {
    "postal": "N3Y8N6",
    "result": []
  },
  {
    "postal": "N3Y8J4",
    "result": []
  },
  {
    "postal": "N3Y4R7",
    "result": []
  },
  {
    "postal": "N3Y9K1",
    "result": []
  },
  {
    "postal": "N3Y8E1",
    "result": []
  },
  {
    "postal": "N3Y0R1",
    "result": []
  },
  {
    "postal": "N3Y4J3",
    "result": [
      {
        "electoralDistricts": [
          {
            "election": null,
            "id": 34,
            "name": "Haldimand—Norfolk"
          }
        ],
        "pollDivisionIds": [
          10138461
        ],
        "postalCode": "N3Y4J3",
        "streetName": "BINT",
        "streetDirectionId": null,
        "streetTypeId": "AVE",
        "placeName": "SIMCOE",
        "streetNameDisplayText": "BINT AVE, SIMCOE"
      }
    ]
  },
  {
    "postal": "N3Y7E7",
    "result": []
  },
  {
    "postal": "N3Y0J0",
    "result": []
  },
  {
    "postal": "N3Y7R8",
    "result": []
  },
  {
    "postal": "N3Y9X0",
    "result": []
  },
  {
    "postal": "N3Y7P6",
    "result": []
  },
  {
    "postal": "N3Y0R7",
    "result": []
  },
  {
    "postal": "N3Y5W1",
    "result": []
  },
  {
    "postal": "N3Y0K4",
    "result": []
  },
  {
    "postal": "N3Y7N9",
    "result": []
  },
  {
    "postal": "N3Y1N0",
    "result": []
  },
  {
    "postal": "N3Y6P3",
    "result": []
  },
  {
    "postal": "N3Y5A1",
    "result": [
      {
        "electoralDistricts": [
          {
            "election": null,
            "id": 34,
            "name": "Haldimand—Norfolk"
          }
        ],
        "pollDivisionIds": [
          10138467
        ],
        "postalCode": "N3Y5A1",
        "streetName": "CRESTLYNN",
        "streetDirectionId": null,
        "streetTypeId": "CRES",
        "placeName": "SIMCOE",
        "streetNameDisplayText": "CRESTLYNN CRES, SIMCOE"
      }
    ]
  },
  {
    "postal": "N3Y9M9",
    "result": []
  },
  {
    "postal": "N3Y7T6",
    "result": []
  },
  {
    "postal": "N3Y3X0",
    "result": []
  },
  {
    "postal": "N3Y2T0",
    "result": []
  },
  {
    "postal": "N3Y5X9",
    "result": []
  },
  {
    "postal": "N3Y2R3",
    "result": [
      {
        "electoralDistricts": [
          {
            "election": null,
            "id": 34,
            "name": "Haldimand—Norfolk"
          }
        ],
        "pollDivisionIds": [
          10138465
        ],
        "postalCode": "N3Y2R3",
        "streetName": "DAVIS",
        "streetDirectionId": "W",
        "streetTypeId": "ST",
        "placeName": "SIMCOE",
        "streetNameDisplayText": "DAVIS ST W, SIMCOE"
      }
    ]
  },
  {
    "postal": "N3Y5N2",
    "result": [
      {
        "electoralDistricts": [
          {
            "election": null,
            "id": 34,
            "name": "Haldimand—Norfolk"
          }
        ],
        "pollDivisionIds": [
          10138461
        ],
        "postalCode": "N3Y5N2",
        "streetName": "ELM",
        "streetDirectionId": null,
        "streetTypeId": "ST",
        "placeName": "SIMCOE",
        "streetNameDisplayText": "ELM ST, SIMCOE"
      }
    ]
  },
  {
    "postal": "N3Y4Y7",
    "result": [
      {
        "electoralDistricts": [
          {
            "election": null,
            "id": 34,
            "name": "Haldimand—Norfolk"
          }
        ],
        "pollDivisionIds": [
          10138467
        ],
        "postalCode": "N3Y4Y7",
        "streetName": "QUEENSWAY",
        "streetDirectionId": "E",
        "streetTypeId": null,
        "placeName": "SIMCOE",
        "streetNameDisplayText": "QUEENSWAY E, SIMCOE"
      }
    ]
  },
  {
    "postal": "N3Y7M0",
    "result": []
  },
  {
    "postal": "N3Y8P3",
    "result": []
  },
  {
    "postal": "N3Y3N3",
    "result": [
      {
        "electoralDistricts": [
          {
            "election": null,
            "id": 34,
            "name": "Haldimand—Norfolk"
          }
        ],
        "pollDivisionIds": [
          10138465
        ],
        "postalCode": "N3Y3N3",
        "streetName": "BANK",
        "streetDirectionId": "N",
        "streetTypeId": "ST",
        "placeName": "SIMCOE",
        "streetNameDisplayText": "BANK ST N, SIMCOE"
      }
    ]
  },
  {
    "postal": "N3Y7S3",
    "result": []
  },
  {
    "postal": "N3Y3V9",
    "result": [
      {
        "electoralDistricts": [
          {
            "election": null,
            "id": 34,
            "name": "Haldimand—Norfolk"
          }
        ],
        "pollDivisionIds": [
          10138464
        ],
        "postalCode": "N3Y3V9",
        "streetName": "COLBORNE",
        "streetDirectionId": "N",
        "streetTypeId": "ST",
        "placeName": "SIMCOE",
        "streetNameDisplayText": "COLBORNE ST N, SIMCOE"
      }
    ]
  },
  {
    "postal": "N3Y9N7",
    "result": []
  },
  {
    "postal": "N3Y0G4",
    "result": [
      {
        "electoralDistricts": [
          {
            "election": null,
            "id": 34,
            "name": "Haldimand—Norfolk"
          }
        ],
        "pollDivisionIds": [
          10138462
        ],
        "postalCode": "N3Y0G4",
        "streetName": "GRIGG",
        "streetDirectionId": null,
        "streetTypeId": "DR",
        "placeName": "SIMCOE",
        "streetNameDisplayText": "GRIGG DR, SIMCOE"
      }
    ]
  },
  {
    "postal": "N3Y2E2",
    "result": [
      {
        "electoralDistricts": [
          {
            "election": null,
            "id": 34,
            "name": "Haldimand—Norfolk"
          }
        ],
        "pollDivisionIds": [
          10138464
        ],
        "postalCode": "N3Y2E2",
        "streetName": "MCCALL",
        "streetDirectionId": null,
        "streetTypeId": "CRES",
        "placeName": "SIMCOE",
        "streetNameDisplayText": "MCCALL CRES, SIMCOE"
      }
    ]
  },
  {
    "postal": "N3Y7W8",
    "result": []
  },
  {
    "postal": "N3Y7M5",
    "result": []
  },
  {
    "postal": "N3Y5W8",
    "result": []
  },
  {
    "postal": "N3Y5E5",
    "result": [
      {
        "electoralDistricts": [
          {
            "election": null,
            "id": 34,
            "name": "Haldimand—Norfolk"
          }
        ],
        "pollDivisionIds": [
          10138467
        ],
        "postalCode": "N3Y5E5",
        "streetName": "LYNNDALE",
        "streetDirectionId": null,
        "streetTypeId": "RD",
        "placeName": "SIMCOE",
        "streetNameDisplayText": "LYNNDALE RD, SIMCOE"
      }
    ]
  },
  {
    "postal": "N3Y1P9",
    "result": [
      {
        "electoralDistricts": [
          {
            "election": null,
            "id": 34,
            "name": "Haldimand—Norfolk"
          }
        ],
        "pollDivisionIds": [
          10138467
        ],
        "postalCode": "N3Y1P9",
        "streetName": "WATER",
        "streetDirectionId": null,
        "streetTypeId": "ST",
        "placeName": "SIMCOE",
        "streetNameDisplayText": "WATER ST, SIMCOE"
      }
    ]
  },
  {
    "postal": "N3Y8V8",
    "result": []
  },
  {
    "postal": "N3Y9G8",
    "result": []
  },
  {
    "postal": "N3Y8H9",
    "result": []
  },
  {
    "postal": "N3Y1Z1",
    "result": [
      {
        "electoralDistricts": [
          {
            "election": null,
            "id": 34,
            "name": "Haldimand—Norfolk"
          }
        ],
        "pollDivisionIds": [
          10138466
        ],
        "postalCode": "N3Y1Z1",
        "streetName": "KARS",
        "streetDirectionId": null,
        "streetTypeId": "ST",
        "placeName": "SIMCOE",
        "streetNameDisplayText": "KARS ST, SIMCOE"
      }
    ]
  },
  {
    "postal": "N3Y8M3",
    "result": []
  },
  {
    "postal": "N3Y5H6",
    "result": [
      {
        "electoralDistricts": [
          {
            "election": null,
            "id": 34,
            "name": "Haldimand—Norfolk"
          }
        ],
        "pollDivisionIds": [
          10138462
        ],
        "postalCode": "N3Y5H6",
        "streetName": "QUEENSWAY",
        "streetDirectionId": "W",
        "streetTypeId": null,
        "placeName": "SIMCOE",
        "streetNameDisplayText": "QUEENSWAY W, SIMCOE"
      }
    ]
  },
  {
    "postal": "N3Y7W7",
    "result": []
  },
  {
    "postal": "N3Y4L0",
    "result": []
  },
  {
    "postal": "N3Y2N1",
    "result": [
      {
        "electoralDistricts": [
          {
            "election": null,
            "id": 34,
            "name": "Haldimand—Norfolk"
          }
        ],
        "pollDivisionIds": [
          10138464
        ],
        "postalCode": "N3Y2N1",
        "streetName": "QUEENSWAY",
        "streetDirectionId": "W",
        "streetTypeId": null,
        "placeName": "SIMCOE",
        "streetNameDisplayText": "QUEENSWAY W, SIMCOE"
      }
    ]
  },
  {
    "postal": "N3Y2H4",
    "result": [
      {
        "electoralDistricts": [
          {
            "election": null,
            "id": 34,
            "name": "Haldimand—Norfolk"
          }
        ],
        "pollDivisionIds": [
          10138463
        ],
        "postalCode": "N3Y2H4",
        "streetName": "TYRELL",
        "streetDirectionId": null,
        "streetTypeId": "ST",
        "placeName": "SIMCOE",
        "streetNameDisplayText": "TYRELL ST, SIMCOE"
      }
    ]
  },
  {
    "postal": "N3Y5C8",
    "result": [
      {
        "electoralDistricts": [
          {
            "election": null,
            "id": 34,
            "name": "Haldimand—Norfolk"
          }
        ],
        "pollDivisionIds": [
          10138465
        ],
        "postalCode": "N3Y5C8",
        "streetName": "CULVER",
        "streetDirectionId": null,
        "streetTypeId": "LANE",
        "placeName": "SIMCOE",
        "streetNameDisplayText": "CULVER LANE, SIMCOE"
      }
    ]
  },
  {
    "postal": "N3Y8B0",
    "result": []
  },
  {
    "postal": "N3Y1T4",
    "result": [
      {
        "electoralDistricts": [
          {
            "election": null,
            "id": 34,
            "name": "Haldimand—Norfolk"
          }
        ],
        "pollDivisionIds": [
          10138461
        ],
        "postalCode": "N3Y1T4",
        "streetName": "WEST",
        "streetDirectionId": null,
        "streetTypeId": "ST",
        "placeName": "SIMCOE",
        "streetNameDisplayText": "WEST ST, SIMCOE"
      }
    ]
  },
  {
    "postal": "N3Y7N7",
    "result": []
  },
  {
    "postal": "N3Y4L3",
    "result": []
  },
  {
    "postal": "N3Y2N2",
    "result": [
      {
        "electoralDistricts": [
          {
            "election": null,
            "id": 34,
            "name": "Haldimand—Norfolk"
          }
        ],
        "pollDivisionIds": [
          10138464
        ],
        "postalCode": "N3Y2N2",
        "streetName": "QUEENSWAY",
        "streetDirectionId": "W",
        "streetTypeId": null,
        "placeName": "SIMCOE",
        "streetNameDisplayText": "QUEENSWAY W, SIMCOE"
      }
    ]
  },
  {
    "postal": "N3Y4N8",
    "result": [
      {
        "electoralDistricts": [
          {
            "election": null,
            "id": 34,
            "name": "Haldimand—Norfolk"
          }
        ],
        "pollDivisionIds": [
          10138461,
          10138463
        ],
        "postalCode": "N3Y4N8",
        "streetName": "BROCK",
        "streetDirectionId": null,
        "streetTypeId": "ST",
        "placeName": "SIMCOE",
        "streetNameDisplayText": "BROCK ST, SIMCOE"
      }
    ]
  },
  {
    "postal": "N3Y3M5",
    "result": [
      {
        "electoralDistricts": [
          {
            "election": null,
            "id": 34,
            "name": "Haldimand—Norfolk"
          }
        ],
        "pollDivisionIds": [
          10138464
        ],
        "postalCode": "N3Y3M5",
        "streetName": "BASIL",
        "streetDirectionId": null,
        "streetTypeId": "AVE",
        "placeName": "SIMCOE",
        "streetNameDisplayText": "BASIL AVE, SIMCOE"
      }
    ]
  },
  {
    "postal": "N3Y6H7",
    "result": []
  },
  {
    "postal": "N3Y8Y8",
    "result": []
  },
  {
    "postal": "N3Y5R9",
    "result": []
  },
  {
    "postal": "N3Y8G3",
    "result": []
  },
  {
    "postal": "N3Y4N7",
    "result": [
      {
        "electoralDistricts": [
          {
            "election": null,
            "id": 34,
            "name": "Haldimand—Norfolk"
          }
        ],
        "pollDivisionIds": [
          10138461
        ],
        "postalCode": "N3Y4N7",
        "streetName": "GRENADA",
        "streetDirectionId": null,
        "streetTypeId": "DR",
        "placeName": "SIMCOE",
        "streetNameDisplayText": "GRENADA DR, SIMCOE"
      }
    ]
  },
  {
    "postal": "N3Y0B9",
    "result": [
      {
        "electoralDistricts": [
          {
            "election": null,
            "id": 34,
            "name": "Haldimand—Norfolk"
          }
        ],
        "pollDivisionIds": [
          10138465
        ],
        "postalCode": "N3Y0B9",
        "streetName": "DONLY",
        "streetDirectionId": "S",
        "streetTypeId": "DR",
        "placeName": "SIMCOE",
        "streetNameDisplayText": "DONLY DR S, SIMCOE"
      },
      {
        "electoralDistricts": [
          {
            "election": null,
            "id": 34,
            "name": "Haldimand—Norfolk"
          }
        ],
        "pollDivisionIds": [
          10138451
        ],
        "postalCode": "N3Y0B9",
        "streetName": "DONLY DR.",
        "streetDirectionId": "S",
        "streetTypeId": "DR",
        "placeName": "SIMCOE",
        "streetNameDisplayText": "DONLY DR. DR S, SIMCOE"
      },
      {
        "electoralDistricts": [
          {
            "election": null,
            "id": 34,
            "name": "Haldimand—Norfolk"
          }
        ],
        "pollDivisionIds": [
          10138465
        ],
        "postalCode": "N3Y0B9",
        "streetName": "HACKBERRY",
        "streetDirectionId": null,
        "streetTypeId": "LANE",
        "placeName": "SIMCOE",
        "streetNameDisplayText": "HACKBERRY LANE, SIMCOE"
      },
      {
        "electoralDistricts": [
          {
            "election": null,
            "id": 34,
            "name": "Haldimand—Norfolk"
          }
        ],
        "pollDivisionIds": [
          10138465,
          10138467
        ],
        "postalCode": "N3Y0B9",
        "streetName": "TRILLIUM",
        "streetDirectionId": null,
        "streetTypeId": "WAY",
        "placeName": "SIMCOE",
        "streetNameDisplayText": "TRILLIUM WAY, SIMCOE"
      },
      {
        "electoralDistricts": [
          {
            "election": null,
            "id": 34,
            "name": "Haldimand—Norfolk"
          }
        ],
        "pollDivisionIds": [
          10138465
        ],
        "postalCode": "N3Y0B9",
        "streetName": "TRILLUMWAY",
        "streetDirectionId": null,
        "streetTypeId": "WAY",
        "placeName": "SIMCOE",
        "streetNameDisplayText": "TRILLUMWAY WAY, SIMCOE"
      }
    ]
  },
  {
    "postal": "N3Y9K7",
    "result": []
  },
  {
    "postal": "N3Y9K9",
    "result": []
  },
  {
    "postal": "N3Y3Z2",
    "result": [
      {
        "electoralDistricts": [
          {
            "election": null,
            "id": 34,
            "name": "Haldimand—Norfolk"
          }
        ],
        "pollDivisionIds": [
          10138464
        ],
        "postalCode": "N3Y3Z2",
        "streetName": "QUEEN",
        "streetDirectionId": "N",
        "streetTypeId": "ST",
        "placeName": "SIMCOE",
        "streetNameDisplayText": "QUEEN ST N, SIMCOE"
      },
      {
        "electoralDistricts": [
          {
            "election": null,
            "id": 34,
            "name": "Haldimand—Norfolk"
          }
        ],
        "pollDivisionIds": [
          10138466
        ],
        "postalCode": "N3Y3Z2",
        "streetName": "QUEEN",
        "streetDirectionId": "N",
        "streetTypeId": "ST",
        "placeName": "ST WILLIAMS",
        "streetNameDisplayText": "QUEEN ST N, ST WILLIAMS"
      }
    ]
  },
  {
    "postal": "N3Y6W7",
    "result": []
  },
  {
    "postal": "N3Y0P1",
    "result": []
  },
  {
    "postal": "N3Y3A0",
    "result": []
  },
  {
    "postal": "N3Y8L9",
    "result": []
  },
  {
    "postal": "N3Y6X0",
    "result": []
  },
  {
    "postal": "N3Y3E9",
    "result": [
      {
        "electoralDistricts": [
          {
            "election": null,
            "id": 34,
            "name": "Haldimand—Norfolk"
          }
        ],
        "pollDivisionIds": [
          10138461
        ],
        "postalCode": "N3Y3E9",
        "streetName": "ELMHURST",
        "streetDirectionId": null,
        "streetTypeId": "AVE",
        "placeName": "SIMCOE",
        "streetNameDisplayText": "ELMHURST AVE, SIMCOE"
      }
    ]
  },
  {
    "postal": "N3Y0S5",
    "result": []
  },
  {
    "postal": "N3Y1A2",
    "result": [
      {
        "electoralDistricts": [
          {
            "election": null,
            "id": 34,
            "name": "Haldimand—Norfolk"
          }
        ],
        "pollDivisionIds": [
          10138461
        ],
        "postalCode": "N3Y1A2",
        "streetName": "PARKER",
        "streetDirectionId": null,
        "streetTypeId": "DR",
        "placeName": "SIMCOE",
        "streetNameDisplayText": "PARKER DR, SIMCOE"
      }
    ]
  },
  {
    "postal": "N3Y5V8",
    "result": []
  },
  {
    "postal": "N3Y8C5",
    "result": []
  },
  {
    "postal": "N3Y6N0",
    "result": []
  },
  {
    "postal": "N3Y9E6",
    "result": []
  },
  {
    "postal": "N3Y5J7",
    "result": [
      {
        "electoralDistricts": [
          {
            "election": null,
            "id": 34,
            "name": "Haldimand—Norfolk"
          }
        ],
        "pollDivisionIds": [
          10138467
        ],
        "postalCode": "N3Y5J7",
        "streetName": "FALLS",
        "streetDirectionId": null,
        "streetTypeId": "CRES",
        "placeName": "SIMCOE",
        "streetNameDisplayText": "FALLS CRES, SIMCOE"
      },
      {
        "electoralDistricts": [
          {
            "election": null,
            "id": 34,
            "name": "Haldimand—Norfolk"
          }
        ],
        "pollDivisionIds": [
          10138467
        ],
        "postalCode": "N3Y5J7",
        "streetName": "JONES",
        "streetDirectionId": null,
        "streetTypeId": "AVE",
        "placeName": "SIMCOE",
        "streetNameDisplayText": "JONES AVE, SIMCOE"
      },
      {
        "electoralDistricts": [
          {
            "election": null,
            "id": 34,
            "name": "Haldimand—Norfolk"
          }
        ],
        "pollDivisionIds": [
          10138467
        ],
        "postalCode": "N3Y5J7",
        "streetName": "RUTHERFORD",
        "streetDirectionId": null,
        "streetTypeId": "DR",
        "placeName": "SIMCOE",
        "streetNameDisplayText": "RUTHERFORD DR, SIMCOE"
      }
    ]
  },
  {
    "postal": "N3Y2R2",
    "result": [
      {
        "electoralDistricts": [
          {
            "election": null,
            "id": 34,
            "name": "Haldimand—Norfolk"
          }
        ],
        "pollDivisionIds": [
          10138465
        ],
        "postalCode": "N3Y2R2",
        "streetName": "DAVIS",
        "streetDirectionId": "W",
        "streetTypeId": "ST",
        "placeName": "SIMCOE",
        "streetNameDisplayText": "DAVIS ST W, SIMCOE"
      }
    ]
  },
  {
    "postal": "N3Y0P5",
    "result": []
  },
  {
    "postal": "N3Y5A7",
    "result": [
      {
        "electoralDistricts": [
          {
            "election": null,
            "id": 34,
            "name": "Haldimand—Norfolk"
          }
        ],
        "pollDivisionIds": [
          10138463
        ],
        "postalCode": "N3Y5A7",
        "streetName": "THOMSON",
        "streetDirectionId": null,
        "streetTypeId": "RD",
        "placeName": "SIMCOE",
        "streetNameDisplayText": "THOMSON RD, SIMCOE"
      }
    ]
  },
  {
    "postal": "N3Y1G1",
    "result": [
      {
        "electoralDistricts": [
          {
            "election": null,
            "id": 34,
            "name": "Haldimand—Norfolk"
          }
        ],
        "pollDivisionIds": [
          10138467
        ],
        "postalCode": "N3Y1G1",
        "streetName": "WOODHOUSE",
        "streetDirectionId": null,
        "streetTypeId": "ST",
        "placeName": "SIMCOE",
        "streetNameDisplayText": "WOODHOUSE ST, SIMCOE"
      }
    ]
  },
  {
    "postal": "N3Y9R6",
    "result": []
  },
  {
    "postal": "N3Y4Z9",
    "result": [
      {
        "electoralDistricts": [
          {
            "election": null,
            "id": 34,
            "name": "Haldimand—Norfolk"
          }
        ],
        "pollDivisionIds": [
          10138467
        ],
        "postalCode": "N3Y4Z9",
        "streetName": "JUDD",
        "streetDirectionId": null,
        "streetTypeId": "DR",
        "placeName": "SIMCOE",
        "streetNameDisplayText": "JUDD DR, SIMCOE"
      }
    ]
  },
  {
    "postal": "N3Y1V5",
    "result": [
      {
        "electoralDistricts": [
          {
            "election": null,
            "id": 34,
            "name": "Haldimand—Norfolk"
          }
        ],
        "pollDivisionIds": [
          10138467
        ],
        "postalCode": "N3Y1V5",
        "streetName": "ARGYLE",
        "streetDirectionId": null,
        "streetTypeId": "ST",
        "placeName": "SIMCOE",
        "streetNameDisplayText": "ARGYLE ST, SIMCOE"
      }
    ]
  },
  {
    "postal": "N3Y9Y5",
    "result": []
  },
  {
    "postal": "N3Y1P2",
    "result": [
      {
        "electoralDistricts": [
          {
            "election": null,
            "id": 34,
            "name": "Haldimand—Norfolk"
          }
        ],
        "pollDivisionIds": [
          10138461
        ],
        "postalCode": "N3Y1P2",
        "streetName": "CHAPEL",
        "streetDirectionId": null,
        "streetTypeId": "ST",
        "placeName": "SIMCOE",
        "streetNameDisplayText": "CHAPEL ST, SIMCOE"
      }
    ]
  },
  {
    "postal": "N3Y5X0",
    "result": []
  },
  {
    "postal": "N3Y7B8",
    "result": []
  },
  {
    "postal": "N3Y0C6",
    "result": [
      {
        "electoralDistricts": [
          {
            "election": null,
            "id": 34,
            "name": "Haldimand—Norfolk"
          }
        ],
        "pollDivisionIds": [
          10138465
        ],
        "postalCode": "N3Y0C6",
        "streetName": "DONLY",
        "streetDirectionId": "S",
        "streetTypeId": "DR",
        "placeName": "SIMCOE",
        "streetNameDisplayText": "DONLY DR S, SIMCOE"
      }
    ]
  },
  {
    "postal": "N3Y6G1",
    "result": []
  },
  {
    "postal": "N3Y3K3",
    "result": [
      {
        "electoralDistricts": [
          {
            "election": null,
            "id": 34,
            "name": "Haldimand—Norfolk"
          }
        ],
        "pollDivisionIds": [
          10138463
        ],
        "postalCode": "N3Y3K3",
        "streetName": "LEE",
        "streetDirectionId": null,
        "streetTypeId": "AVE",
        "placeName": "SIMCOE",
        "streetNameDisplayText": "LEE AVE, SIMCOE"
      }
    ]
  },
  {
    "postal": "N3Y9R0",
    "result": []
  },
  {
    "postal": "N3Y4R8",
    "result": []
  },
  {
    "postal": "N3Y5P9",
    "result": []
  },
  {
    "postal": "N3Y8N4",
    "result": []
  },
  {
    "postal": "N3Y8H4",
    "result": []
  },
  {
    "postal": "N3Y4V1",
    "result": [
      {
        "electoralDistricts": [
          {
            "election": null,
            "id": 34,
            "name": "Haldimand—Norfolk"
          }
        ],
        "pollDivisionIds": [
          10138467
        ],
        "postalCode": "N3Y4V1",
        "streetName": "APPLETREE",
        "streetDirectionId": null,
        "streetTypeId": "CRT",
        "placeName": "SIMCOE",
        "streetNameDisplayText": "APPLETREE CRT, SIMCOE"
      }
    ]
  },
  {
    "postal": "N3Y1K5",
    "result": [
      {
        "electoralDistricts": [
          {
            "election": null,
            "id": 34,
            "name": "Haldimand—Norfolk"
          }
        ],
        "pollDivisionIds": [
          10138466,
          10138463
        ],
        "postalCode": "N3Y1K5",
        "streetName": "GROVE",
        "streetDirectionId": null,
        "streetTypeId": "ST",
        "placeName": "SIMCOE",
        "streetNameDisplayText": "GROVE ST, SIMCOE"
      }
    ]
  },
  {
    "postal": "N3Y1Z5",
    "result": [
      {
        "electoralDistricts": [
          {
            "election": null,
            "id": 34,
            "name": "Haldimand—Norfolk"
          }
        ],
        "pollDivisionIds": [
          10138463
        ],
        "postalCode": "N3Y1Z5",
        "streetName": "CHARLES",
        "streetDirectionId": null,
        "streetTypeId": "ST",
        "placeName": "SIMCOE",
        "streetNameDisplayText": "CHARLES ST, SIMCOE"
      }
    ]
  },
  {
    "postal": "N3Y9L9",
    "result": []
  },
  {
    "postal": "N3Y5L2",
    "result": [
      {
        "electoralDistricts": [
          {
            "election": null,
            "id": 34,
            "name": "Haldimand—Norfolk"
          }
        ],
        "pollDivisionIds": [
          10138467
        ],
        "postalCode": "N3Y5L2",
        "streetName": "DONLY",
        "streetDirectionId": "S",
        "streetTypeId": "DR",
        "placeName": "SIMCOE",
        "streetNameDisplayText": "DONLY DR S, SIMCOE"
      }
    ]
  },
  {
    "postal": "N3Y0M2",
    "result": []
  },
  {
    "postal": "N3Y1K8",
    "result": [
      {
        "electoralDistricts": [
          {
            "election": null,
            "id": 34,
            "name": "Haldimand—Norfolk"
          }
        ],
        "pollDivisionIds": [
          10138461
        ],
        "postalCode": "N3Y1K8",
        "streetName": "GROVE",
        "streetDirectionId": null,
        "streetTypeId": "ST",
        "placeName": "SIMCOE",
        "streetNameDisplayText": "GROVE ST, SIMCOE"
      }
    ]
  },
  {
    "postal": "N3Y3M7",
    "result": [
      {
        "electoralDistricts": [
          {
            "election": null,
            "id": 34,
            "name": "Haldimand—Norfolk"
          }
        ],
        "pollDivisionIds": [
          10138464
        ],
        "postalCode": "N3Y3M7",
        "streetName": "BERTHA",
        "streetDirectionId": null,
        "streetTypeId": "ST",
        "placeName": "SIMCOE",
        "streetNameDisplayText": "BERTHA ST, SIMCOE"
      }
    ]
  },
  {
    "postal": "N3Y1B2",
    "result": [
      {
        "electoralDistricts": [
          {
            "election": null,
            "id": 100,
            "name": "Simcoe North"
          }
        ],
        "pollDivisionIds": [
          10141920
        ],
        "postalCode": "N3Y1B2",
        "streetName": "POPLAR",
        "streetDirectionId": null,
        "streetTypeId": "CRES",
        "placeName": "SIMCOE",
        "streetNameDisplayText": "POPLAR CRES, SIMCOE"
      },
      {
        "electoralDistricts": [
          {
            "election": null,
            "id": 34,
            "name": "Haldimand—Norfolk"
          }
        ],
        "pollDivisionIds": [
          10138461
        ],
        "postalCode": "N3Y1B2",
        "streetName": "POPLAR",
        "streetDirectionId": null,
        "streetTypeId": "ST",
        "placeName": "SIMCOE",
        "streetNameDisplayText": "POPLAR ST, SIMCOE"
      }
    ]
  },
  {
    "postal": "N3Y0H9",
    "result": []
  },
  {
    "postal": "N3Y8M4",
    "result": []
  },
  {
    "postal": "N3Y2M5",
    "result": [
      {
        "electoralDistricts": [
          {
            "election": null,
            "id": 34,
            "name": "Haldimand—Norfolk"
          }
        ],
        "pollDivisionIds": [
          10138464
        ],
        "postalCode": "N3Y2M5",
        "streetName": "PARK",
        "streetDirectionId": null,
        "streetTypeId": "LANE",
        "placeName": "SIMCOE",
        "streetNameDisplayText": "PARK LANE, SIMCOE"
      }
    ]
  },
  {
    "postal": "N3Y0T9",
    "result": []
  },
  {
    "postal": "N3Y3P1",
    "result": [
      {
        "electoralDistricts": [
          {
            "election": null,
            "id": 34,
            "name": "Haldimand—Norfolk"
          }
        ],
        "pollDivisionIds": [
          10138464
        ],
        "postalCode": "N3Y3P1",
        "streetName": "NORFOLK",
        "streetDirectionId": "N",
        "streetTypeId": "ST",
        "placeName": "SIMCOE",
        "streetNameDisplayText": "NORFOLK ST N, SIMCOE"
      }
    ]
  },
  {
    "postal": "N3Y1R6",
    "result": [
      {
        "electoralDistricts": [
          {
            "election": null,
            "id": 34,
            "name": "Haldimand—Norfolk"
          }
        ],
        "pollDivisionIds": [
          10138467
        ],
        "postalCode": "N3Y1R6",
        "streetName": "SYDENHAM",
        "streetDirectionId": null,
        "streetTypeId": "ST",
        "placeName": "SIMCOE",
        "streetNameDisplayText": "SYDENHAM ST, SIMCOE"
      }
    ]
  },
  {
    "postal": "N3Y9V5",
    "result": []
  },
  {
    "postal": "N3Y9T0",
    "result": []
  },
  {
    "postal": "N3Y0A9",
    "result": []
  },
  {
    "postal": "N3Y1M3",
    "result": [
      {
        "electoralDistricts": [
          {
            "election": null,
            "id": 34,
            "name": "Haldimand—Norfolk"
          }
        ],
        "pollDivisionIds": [
          10138466
        ],
        "postalCode": "N3Y1M3",
        "streetName": "STANLEY",
        "streetDirectionId": null,
        "streetTypeId": "ST",
        "placeName": "SIMCOE",
        "streetNameDisplayText": "STANLEY ST, SIMCOE"
      }
    ]
  },
  {
    "postal": "N3Y1W8",
    "result": [
      {
        "electoralDistricts": [
          {
            "election": null,
            "id": 34,
            "name": "Haldimand—Norfolk"
          }
        ],
        "pollDivisionIds": [
          10138466
        ],
        "postalCode": "N3Y1W8",
        "streetName": "ROBINSON",
        "streetDirectionId": null,
        "streetTypeId": "ST",
        "placeName": "SIMCOE",
        "streetNameDisplayText": "ROBINSON ST, SIMCOE"
      }
    ]
  },
  {
    "postal": "N3Y9J1",
    "result": []
  },
  {
    "postal": "N3Y8N5",
    "result": []
  },
  {
    "postal": "N3Y5X1",
    "result": []
  },
  {
    "postal": "N3Y6S2",
    "result": []
  },
  {
    "postal": "N3Y2A2",
    "result": [
      {
        "electoralDistricts": [
          {
            "election": null,
            "id": 34,
            "name": "Haldimand—Norfolk"
          }
        ],
        "pollDivisionIds": [
          10138464
        ],
        "postalCode": "N3Y2A2",
        "streetName": "HELEN",
        "streetDirectionId": null,
        "streetTypeId": "BLVD",
        "placeName": "SIMCOE",
        "streetNameDisplayText": "HELEN BLVD, SIMCOE"
      }
    ]
  },
  {
    "postal": "N3Y6A6",
    "result": []
  },
  {
    "postal": "N3Y0S3",
    "result": []
  },
  {
    "postal": "N3Y3E7",
    "result": [
      {
        "electoralDistricts": [
          {
            "election": null,
            "id": 34,
            "name": "Haldimand—Norfolk"
          }
        ],
        "pollDivisionIds": [
          10138461
        ],
        "postalCode": "N3Y3E7",
        "streetName": "GRENADA",
        "streetDirectionId": null,
        "streetTypeId": "DR",
        "placeName": "SIMCOE",
        "streetNameDisplayText": "GRENADA DR, SIMCOE"
      }
    ]
  },
  {
    "postal": "N3Y5R7",
    "result": []
  },
  {
    "postal": "N3Y3R6",
    "result": [
      {
        "electoralDistricts": [
          {
            "election": null,
            "id": 34,
            "name": "Haldimand—Norfolk"
          }
        ],
        "pollDivisionIds": [
          10138465
        ],
        "postalCode": "N3Y3R6",
        "streetName": "NORFOLK",
        "streetDirectionId": "N",
        "streetTypeId": "ST",
        "placeName": "SIMCOE",
        "streetNameDisplayText": "NORFOLK ST N, SIMCOE"
      }
    ]
  },
  {
    "postal": "N3Y6K4",
    "result": []
  },
  {
    "postal": "N3Y2W5",
    "result": [
      {
        "electoralDistricts": [
          {
            "election": null,
            "id": 34,
            "name": "Haldimand—Norfolk"
          }
        ],
        "pollDivisionIds": [
          10138464
        ],
        "postalCode": "N3Y2W5",
        "streetName": "NORFOLK",
        "streetDirectionId": "N",
        "streetTypeId": "ST",
        "placeName": "SIMCOE",
        "streetNameDisplayText": "NORFOLK ST N, SIMCOE"
      },
      {
        "electoralDistricts": [
          {
            "election": null,
            "id": 34,
            "name": "Haldimand—Norfolk"
          }
        ],
        "pollDivisionIds": [
          10138467
        ],
        "postalCode": "N3Y2W5",
        "streetName": "NORFOLK",
        "streetDirectionId": "S",
        "streetTypeId": "ST",
        "placeName": "SIMCOE",
        "streetNameDisplayText": "NORFOLK ST S, SIMCOE"
      }
    ]
  },
  {
    "postal": "N3Y8W4",
    "result": []
  },
  {
    "postal": "N3Y9C2",
    "result": []
  },
  {
    "postal": "N3Y2C0",
    "result": []
  },
  {
    "postal": "N3Y0E1",
    "result": [
      {
        "electoralDistricts": [
          {
            "election": null,
            "id": 34,
            "name": "Haldimand—Norfolk"
          }
        ],
        "pollDivisionIds": [
          10138464,
          10138465
        ],
        "postalCode": "N3Y0E1",
        "streetName": "BASSWOOD",
        "streetDirectionId": null,
        "streetTypeId": "RD",
        "placeName": "SIMCOE",
        "streetNameDisplayText": "BASSWOOD RD, SIMCOE"
      },
      {
        "electoralDistricts": [
          {
            "election": null,
            "id": 34,
            "name": "Haldimand—Norfolk"
          }
        ],
        "pollDivisionIds": [
          10138465
        ],
        "postalCode": "N3Y0E1",
        "streetName": "HACKBERRY",
        "streetDirectionId": null,
        "streetTypeId": "LANE",
        "placeName": "SIMCOE",
        "streetNameDisplayText": "HACKBERRY LANE, SIMCOE"
      },
      {
        "electoralDistricts": [
          {
            "election": null,
            "id": 34,
            "name": "Haldimand—Norfolk"
          }
        ],
        "pollDivisionIds": [
          10138465
        ],
        "postalCode": "N3Y0E1",
        "streetName": "SEDGE",
        "streetDirectionId": null,
        "streetTypeId": "AVE",
        "placeName": "SIMCOE",
        "streetNameDisplayText": "SEDGE AVE, SIMCOE"
      }
    ]
  },
  {
    "postal": "N3Y1K9",
    "result": [
      {
        "electoralDistricts": [
          {
            "election": null,
            "id": 34,
            "name": "Haldimand—Norfolk"
          }
        ],
        "pollDivisionIds": [
          10138461
        ],
        "postalCode": "N3Y1K9",
        "streetName": "GROVE",
        "streetDirectionId": null,
        "streetTypeId": "ST",
        "placeName": "SIMCOE",
        "streetNameDisplayText": "GROVE ST, SIMCOE"
      }
    ]
  },
  {
    "postal": "N3Y1G7",
    "result": [
      {
        "electoralDistricts": [
          {
            "election": null,
            "id": 34,
            "name": "Haldimand—Norfolk"
          }
        ],
        "pollDivisionIds": [
          10138461
        ],
        "postalCode": "N3Y1G7",
        "streetName": "SOUTH",
        "streetDirectionId": null,
        "streetTypeId": "DR",
        "placeName": "SIMCOE",
        "streetNameDisplayText": "SOUTH DR, SIMCOE"
      }
    ]
  },
  {
    "postal": "N3Y4E9",
    "result": [
      {
        "electoralDistricts": [
          {
            "election": null,
            "id": 34,
            "name": "Haldimand—Norfolk"
          }
        ],
        "pollDivisionIds": [
          10138463
        ],
        "postalCode": "N3Y4E9",
        "streetName": "CALVERT",
        "streetDirectionId": null,
        "streetTypeId": "CRES",
        "placeName": "SIMCOE",
        "streetNameDisplayText": "CALVERT CRES, SIMCOE"
      }
    ]
  },
  {
    "postal": "N3Y9P0",
    "result": []
  },
  {
    "postal": "N3Y5H3",
    "result": []
  },
  {
    "postal": "N3Y9X6",
    "result": []
  },
  {
    "postal": "N3Y5N7",
    "result": []
  },
  {
    "postal": "N3Y5A6",
    "result": [
      {
        "electoralDistricts": [
          {
            "election": null,
            "id": 34,
            "name": "Haldimand—Norfolk"
          }
        ],
        "pollDivisionIds": [
          10138463
        ],
        "postalCode": "N3Y5A6",
        "streetName": "KENNEDY",
        "streetDirectionId": null,
        "streetTypeId": "RD",
        "placeName": "SIMCOE",
        "streetNameDisplayText": "KENNEDY RD, SIMCOE"
      }
    ]
  },
  {
    "postal": "N3Y4M0",
    "result": []
  },
  {
    "postal": "N3Y3V6",
    "result": [
      {
        "electoralDistricts": [
          {
            "election": null,
            "id": 121,
            "name": "York—Simcoe"
          },
          {
            "election": null,
            "id": 34,
            "name": "Haldimand—Norfolk"
          }
        ],
        "pollDivisionIds": [
          10142908,
          10138464
        ],
        "postalCode": "N3Y3V6",
        "streetName": "COLBORNE",
        "streetDirectionId": "N",
        "streetTypeId": "ST",
        "placeName": "SIMCOE",
        "streetNameDisplayText": "COLBORNE ST N, SIMCOE"
      }
    ]
  },
  {
    "postal": "N3Y1L7",
    "result": [
      {
        "electoralDistricts": [
          {
            "election": null,
            "id": 34,
            "name": "Haldimand—Norfolk"
          }
        ],
        "pollDivisionIds": [
          10138467
        ],
        "postalCode": "N3Y1L7",
        "streetName": "VICTORIA",
        "streetDirectionId": null,
        "streetTypeId": "ST",
        "placeName": "SIMCOE",
        "streetNameDisplayText": "VICTORIA ST, SIMCOE"
      }
    ]
  },
  {
    "postal": "N3Y2P9",
    "result": [
      {
        "electoralDistricts": [
          {
            "election": null,
            "id": 34,
            "name": "Haldimand—Norfolk"
          }
        ],
        "pollDivisionIds": [
          10138465
        ],
        "postalCode": "N3Y2P9",
        "streetName": "DAVIS",
        "streetDirectionId": "E",
        "streetTypeId": "ST",
        "placeName": "SIMCOE",
        "streetNameDisplayText": "DAVIS ST E, SIMCOE"
      }
    ]
  },
  {
    "postal": "N3Y5T4",
    "result": []
  },
  {
    "postal": "N3Y5Z1",
    "result": []
  },
  {
    "postal": "N3Y2X0",
    "result": []
  },
  {
    "postal": "N3Y6Z2",
    "result": []
  },
  {
    "postal": "N3Y0E0",
    "result": []
  },
  {
    "postal": "N3Y3Z5",
    "result": [
      {
        "electoralDistricts": [
          {
            "election": null,
            "id": 34,
            "name": "Haldimand—Norfolk"
          }
        ],
        "pollDivisionIds": [
          10138461
        ],
        "postalCode": "N3Y3Z5",
        "streetName": "KING",
        "streetDirectionId": null,
        "streetTypeId": "LANE",
        "placeName": "SIMCOE",
        "streetNameDisplayText": "KING LANE, SIMCOE"
      },
      {
        "electoralDistricts": [
          {
            "election": null,
            "id": 100,
            "name": "Simcoe North"
          }
        ],
        "pollDivisionIds": [
          10141889
        ],
        "postalCode": "N3Y3Z5",
        "streetName": "KING",
        "streetDirectionId": null,
        "streetTypeId": "RD",
        "placeName": "SIMCOE",
        "streetNameDisplayText": "KING RD, SIMCOE"
      }
    ]
  },
  {
    "postal": "N3Y8H3",
    "result": []
  },
  {
    "postal": "N3Y7S6",
    "result": []
  },
  {
    "postal": "N3Y4C1",
    "result": [
      {
        "electoralDistricts": [
          {
            "election": null,
            "id": 34,
            "name": "Haldimand—Norfolk"
          }
        ],
        "pollDivisionIds": [
          10138463
        ],
        "postalCode": "N3Y4C1",
        "streetName": "PAYNE",
        "streetDirectionId": null,
        "streetTypeId": "AVE",
        "placeName": "SIMCOE",
        "streetNameDisplayText": "PAYNE AVE, SIMCOE"
      }
    ]
  },
  {
    "postal": "N3Y3K2",
    "result": [
      {
        "electoralDistricts": [
          {
            "election": null,
            "id": 99,
            "name": "Simcoe—Grey"
          }
        ],
        "pollDivisionIds": [
          10141844
        ],
        "postalCode": "N3Y3K2",
        "streetName": "LEE",
        "streetDirectionId": null,
        "streetTypeId": "AVE",
        "placeName": "ANGUS",
        "streetNameDisplayText": "LEE AVE, ANGUS"
      },
      {
        "electoralDistricts": [
          {
            "election": null,
            "id": 99,
            "name": "Simcoe—Grey"
          },
          {
            "election": null,
            "id": 34,
            "name": "Haldimand—Norfolk"
          }
        ],
        "pollDivisionIds": [
          10141844,
          10138463
        ],
        "postalCode": "N3Y3K2",
        "streetName": "LEE",
        "streetDirectionId": null,
        "streetTypeId": "AVE",
        "placeName": "SIMCOE",
        "streetNameDisplayText": "LEE AVE, SIMCOE"
      }
    ]
  },
  {
    "postal": "N3Y1Y5",
    "result": [
      {
        "electoralDistricts": [
          {
            "election": null,
            "id": 34,
            "name": "Haldimand—Norfolk"
          }
        ],
        "pollDivisionIds": [
          10138466
        ],
        "postalCode": "N3Y1Y5",
        "streetName": "YOUNG",
        "streetDirectionId": null,
        "streetTypeId": "ST",
        "placeName": "SIMCOE",
        "streetNameDisplayText": "YOUNG ST, SIMCOE"
      }
    ]
  },
  {
    "postal": "N3Y6P6",
    "result": []
  },
  {
    "postal": "N3Y3N9",
    "result": [
      {
        "electoralDistricts": [
          {
            "election": null,
            "id": 34,
            "name": "Haldimand—Norfolk"
          }
        ],
        "pollDivisionIds": [
          10138464
        ],
        "postalCode": "N3Y3N9",
        "streetName": "NORFOLK",
        "streetDirectionId": "N",
        "streetTypeId": "ST",
        "placeName": "SIMCOE",
        "streetNameDisplayText": "NORFOLK ST N, SIMCOE"
      }
    ]
  },
  {
    "postal": "N3Y3W2",
    "result": [
      {
        "electoralDistricts": [
          {
            "election": null,
            "id": 34,
            "name": "Haldimand—Norfolk"
          }
        ],
        "pollDivisionIds": [
          10138464
        ],
        "postalCode": "N3Y3W2",
        "streetName": "COLBORNE",
        "streetDirectionId": "N",
        "streetTypeId": "ST",
        "placeName": "SIMCOE",
        "streetNameDisplayText": "COLBORNE ST N, SIMCOE"
      }
    ]
  },
  {
    "postal": "N3Y6H8",
    "result": []
  },
  {
    "postal": "N3Y9T3",
    "result": []
  },
  {
    "postal": "N3Y5L9",
    "result": [
      {
        "electoralDistricts": [
          {
            "election": null,
            "id": 34,
            "name": "Haldimand—Norfolk"
          }
        ],
        "pollDivisionIds": [
          10138465
        ],
        "postalCode": "N3Y5L9",
        "streetName": "WEMBLEY",
        "streetDirectionId": null,
        "streetTypeId": "CRT",
        "placeName": "SIMCOE",
        "streetNameDisplayText": "WEMBLEY CRT, SIMCOE"
      }
    ]
  },
  {
    "postal": "N3Y7X7",
    "result": []
  },
  {
    "postal": "N3Y3J5",
    "result": [
      {
        "electoralDistricts": [
          {
            "election": null,
            "id": 34,
            "name": "Haldimand—Norfolk"
          }
        ],
        "pollDivisionIds": [
          10138463
        ],
        "postalCode": "N3Y3J5",
        "streetName": "OAK",
        "streetDirectionId": null,
        "streetTypeId": "ST",
        "placeName": "SIMCOE",
        "streetNameDisplayText": "OAK ST, SIMCOE"
      }
    ]
  },
  {
    "postal": "N3Y4J5",
    "result": [
      {
        "electoralDistricts": [
          {
            "election": null,
            "id": 34,
            "name": "Haldimand—Norfolk"
          }
        ],
        "pollDivisionIds": [
          10138461,
          10138463
        ],
        "postalCode": "N3Y4J5",
        "streetName": "NORMANDY",
        "streetDirectionId": null,
        "streetTypeId": "CIR",
        "placeName": "SIMCOE",
        "streetNameDisplayText": "NORMANDY CIR, SIMCOE"
      },
      {
        "electoralDistricts": [
          {
            "election": null,
            "id": 34,
            "name": "Haldimand—Norfolk"
          }
        ],
        "pollDivisionIds": [
          10138461
        ],
        "postalCode": "N3Y4J5",
        "streetName": "NORMANDY",
        "streetDirectionId": null,
        "streetTypeId": "CRT",
        "placeName": "SIMCOE",
        "streetNameDisplayText": "NORMANDY CRT, SIMCOE"
      }
    ]
  },
  {
    "postal": "N3Y6J2",
    "result": []
  },
  {
    "postal": "N3Y5V6",
    "result": []
  },
  {
    "postal": "N3Y3N2",
    "result": [
      {
        "electoralDistricts": [
          {
            "election": null,
            "id": 34,
            "name": "Haldimand—Norfolk"
          }
        ],
        "pollDivisionIds": [
          10138465
        ],
        "postalCode": "N3Y3N2",
        "streetName": "BANK",
        "streetDirectionId": "S",
        "streetTypeId": "ST",
        "placeName": "SIMCOE",
        "streetNameDisplayText": "BANK ST S, SIMCOE"
      }
    ]
  },
  {
    "postal": "N3Y3B1",
    "result": [
      {
        "electoralDistricts": [
          {
            "election": null,
            "id": 34,
            "name": "Haldimand—Norfolk"
          }
        ],
        "pollDivisionIds": [
          10138461
        ],
        "postalCode": "N3Y3B1",
        "streetName": "HEAD",
        "streetDirectionId": "S",
        "streetTypeId": "ST",
        "placeName": "SIMCOE",
        "streetNameDisplayText": "HEAD ST S, SIMCOE"
      }
    ]
  },
  {
    "postal": "N3Y8B5",
    "result": []
  },
  {
    "postal": "N3Y0K1",
    "result": []
  },
  {
    "postal": "N3Y7M7",
    "result": []
  },
  {
    "postal": "N3Y2M2",
    "result": [
      {
        "electoralDistricts": [
          {
            "election": null,
            "id": 34,
            "name": "Haldimand—Norfolk"
          }
        ],
        "pollDivisionIds": [
          10138464
        ],
        "postalCode": "N3Y2M2",
        "streetName": "NORTH MAIN",
        "streetDirectionId": null,
        "streetTypeId": "ST",
        "placeName": "SIMCOE",
        "streetNameDisplayText": "NORTH MAIN ST, SIMCOE"
      }
    ]
  },
  {
    "postal": "N3Y9N3",
    "result": []
  },
  {
    "postal": "N3Y4Y8",
    "result": [
      {
        "electoralDistricts": [
          {
            "election": null,
            "id": 34,
            "name": "Haldimand—Norfolk"
          }
        ],
        "pollDivisionIds": [
          10138467
        ],
        "postalCode": "N3Y4Y8",
        "streetName": "JUDD",
        "streetDirectionId": null,
        "streetTypeId": "DR",
        "placeName": "SIMCOE",
        "streetNameDisplayText": "JUDD DR, SIMCOE"
      }
    ]
  },
  {
    "postal": "N3Y3V7",
    "result": [
      {
        "electoralDistricts": [
          {
            "election": null,
            "id": 34,
            "name": "Haldimand—Norfolk"
          }
        ],
        "pollDivisionIds": [
          10138464
        ],
        "postalCode": "N3Y3V7",
        "streetName": "COLBORNE",
        "streetDirectionId": "N",
        "streetTypeId": "ST",
        "placeName": "SIMCOE",
        "streetNameDisplayText": "COLBORNE ST N, SIMCOE"
      }
    ]
  },
  {
    "postal": "N3Y8Z1",
    "result": []
  },
  {
    "postal": "N3Y7B3",
    "result": []
  },
  {
    "postal": "N3Y3A8",
    "result": [
      {
        "electoralDistricts": [
          {
            "election": null,
            "id": 34,
            "name": "Haldimand—Norfolk"
          }
        ],
        "pollDivisionIds": [
          10138466
        ],
        "postalCode": "N3Y3A8",
        "streetName": "HEAD",
        "streetDirectionId": "S",
        "streetTypeId": "ST",
        "placeName": "SIMCOE",
        "streetNameDisplayText": "HEAD ST S, SIMCOE"
      }
    ]
  },
  {
    "postal": "N3Y7V5",
    "result": []
  },
  {
    "postal": "N3Y2T2",
    "result": [
      {
        "electoralDistricts": [
          {
            "election": null,
            "id": 34,
            "name": "Haldimand—Norfolk"
          }
        ],
        "pollDivisionIds": [
          10138467
        ],
        "postalCode": "N3Y2T2",
        "streetName": "SHERMAN",
        "streetDirectionId": null,
        "streetTypeId": "ST",
        "placeName": "SIMCOE",
        "streetNameDisplayText": "SHERMAN ST, SIMCOE"
      }
    ]
  },
  {
    "postal": "N3Y6L3",
    "result": []
  },
  {
    "postal": "N3Y0L2",
    "result": []
  },
  {
    "postal": "N3Y5Y8",
    "result": []
  },
  {
    "postal": "N3Y0B8",
    "result": [
      {
        "electoralDistricts": [
          {
            "election": null,
            "id": 34,
            "name": "Haldimand—Norfolk"
          }
        ],
        "pollDivisionIds": [
          10138465
        ],
        "postalCode": "N3Y0B8",
        "streetName": "REDBUD",
        "streetDirectionId": null,
        "streetTypeId": "CRES",
        "placeName": "SIMCOE",
        "streetNameDisplayText": "REDBUD CRES, SIMCOE"
      },
      {
        "electoralDistricts": [
          {
            "election": null,
            "id": 34,
            "name": "Haldimand—Norfolk"
          }
        ],
        "pollDivisionIds": [
          10138465
        ],
        "postalCode": "N3Y0B8",
        "streetName": "TRILLIUM",
        "streetDirectionId": null,
        "streetTypeId": "WAY",
        "placeName": "SIMCOE",
        "streetNameDisplayText": "TRILLIUM WAY, SIMCOE"
      },
      {
        "electoralDistricts": [
          {
            "election": null,
            "id": 34,
            "name": "Haldimand—Norfolk"
          }
        ],
        "pollDivisionIds": [
          10138465
        ],
        "postalCode": "N3Y0B8",
        "streetName": "WOODWAY",
        "streetDirectionId": null,
        "streetTypeId": "TRAIL",
        "placeName": "SIMCOE",
        "streetNameDisplayText": "WOODWAY TRAIL, SIMCOE"
      }
    ]
  },
  {
    "postal": "N3Y6R5",
    "result": []
  },
  {
    "postal": "N3Y8W6",
    "result": []
  },
  {
    "postal": "N3Y8G6",
    "result": []
  },
  {
    "postal": "N3Y6X3",
    "result": []
  },
  {
    "postal": "N3Y7R7",
    "result": []
  },
  {
    "postal": "N3Y4B6",
    "result": [
      {
        "electoralDistricts": [
          {
            "election": null,
            "id": 34,
            "name": "Haldimand—Norfolk"
          }
        ],
        "pollDivisionIds": [
          10138461
        ],
        "postalCode": "N3Y4B6",
        "streetName": "BELLEVUE",
        "streetDirectionId": null,
        "streetTypeId": "AVE",
        "placeName": "SIMCOE",
        "streetNameDisplayText": "BELLEVUE AVE, SIMCOE"
      }
    ]
  },
  {
    "postal": "N3Y3P9",
    "result": [
      {
        "electoralDistricts": [
          {
            "election": null,
            "id": 34,
            "name": "Haldimand—Norfolk"
          }
        ],
        "pollDivisionIds": [
          10138465,
          10138464
        ],
        "postalCode": "N3Y3P9",
        "streetName": "NORFOLK",
        "streetDirectionId": "N",
        "streetTypeId": "ST",
        "placeName": "SIMCOE",
        "streetNameDisplayText": "NORFOLK ST N, SIMCOE"
      }
    ]
  },
  {
    "postal": "N3Y2T3",
    "result": [
      {
        "electoralDistricts": [
          {
            "election": null,
            "id": 34,
            "name": "Haldimand—Norfolk"
          }
        ],
        "pollDivisionIds": [
          10138467
        ],
        "postalCode": "N3Y2T3",
        "streetName": "POND",
        "streetDirectionId": null,
        "streetTypeId": "ST",
        "placeName": "SIMCOE",
        "streetNameDisplayText": "POND ST, SIMCOE"
      }
    ]
  },
  {
    "postal": "N3Y1M4",
    "result": [
      {
        "electoralDistricts": [
          {
            "election": null,
            "id": 34,
            "name": "Haldimand—Norfolk"
          }
        ],
        "pollDivisionIds": [
          10138466
        ],
        "postalCode": "N3Y1M4",
        "streetName": "STANLEY",
        "streetDirectionId": null,
        "streetTypeId": "ST",
        "placeName": "SIMCOE",
        "streetNameDisplayText": "STANLEY ST, SIMCOE"
      }
    ]
  },
  {
    "postal": "N3Y0H1",
    "result": []
  },
  {
    "postal": "N3Y9W3",
    "result": []
  },
  {
    "postal": "N3Y6P1",
    "result": []
  },
  {
    "postal": "N3Y7G2",
    "result": []
  },
  {
    "postal": "N3Y4J9",
    "result": [
      {
        "electoralDistricts": [
          {
            "election": null,
            "id": 34,
            "name": "Haldimand—Norfolk"
          }
        ],
        "pollDivisionIds": [
          10138459,
          10138457,
          10138462
        ],
        "postalCode": "N3Y4J9",
        "streetName": "3",
        "streetDirectionId": null,
        "streetTypeId": "HWY",
        "placeName": "SIMCOE",
        "streetNameDisplayText": "3 HWY, SIMCOE"
      },
      {
        "electoralDistricts": [
          {
            "election": null,
            "id": 34,
            "name": "Haldimand—Norfolk"
          }
        ],
        "pollDivisionIds": [
          10138453,
          10138457
        ],
        "postalCode": "N3Y4J9",
        "streetName": "CHARLOTTEVILLE QUARTER LINE",
        "streetDirectionId": "W",
        "streetTypeId": "RD",
        "placeName": "SIMCOE",
        "streetNameDisplayText": "CHARLOTTEVILLE QUARTER LINE RD W, SIMCOE"
      },
      {
        "electoralDistricts": [
          {
            "election": null,
            "id": 34,
            "name": "Haldimand—Norfolk"
          }
        ],
        "pollDivisionIds": [
          10138453
        ],
        "postalCode": "N3Y4J9",
        "streetName": "CHARLOTTEVILLE RD 10",
        "streetDirectionId": null,
        "streetTypeId": null,
        "placeName": "SIMCOE",
        "streetNameDisplayText": "CHARLOTTEVILLE RD 10, SIMCOE"
      },
      {
        "electoralDistricts": [
          {
            "election": null,
            "id": 34,
            "name": "Haldimand—Norfolk"
          }
        ],
        "pollDivisionIds": [
          10138457
        ],
        "postalCode": "N3Y4J9",
        "streetName": "CHARLOTTEVILLE RD 18",
        "streetDirectionId": null,
        "streetTypeId": null,
        "placeName": "SIMCOE",
        "streetNameDisplayText": "CHARLOTTEVILLE RD 18, SIMCOE"
      },
      {
        "electoralDistricts": [
          {
            "election": null,
            "id": 34,
            "name": "Haldimand—Norfolk"
          }
        ],
        "pollDivisionIds": [
          10138457
        ],
        "postalCode": "N3Y4J9",
        "streetName": "CHARLOTTEVILLE RD 46",
        "streetDirectionId": null,
        "streetTypeId": null,
        "placeName": "SIMCOE",
        "streetNameDisplayText": "CHARLOTTEVILLE RD 46, SIMCOE"
      },
      {
        "electoralDistricts": [
          {
            "election": null,
            "id": 34,
            "name": "Haldimand—Norfolk"
          }
        ],
        "pollDivisionIds": [
          10138455
        ],
        "postalCode": "N3Y4J9",
        "streetName": "CHARLOTTEVILLE ROAD 1",
        "streetDirectionId": null,
        "streetTypeId": null,
        "placeName": "ST WILLIAMS",
        "streetNameDisplayText": "CHARLOTTEVILLE ROAD 1, ST WILLIAMS"
      },
      {
        "electoralDistricts": [
          {
            "election": null,
            "id": 34,
            "name": "Haldimand—Norfolk"
          }
        ],
        "pollDivisionIds": [
          10138457,
          10138462,
          10138459,
          10138453,
          10138454
        ],
        "postalCode": "N3Y4J9",
        "streetName": "CHARLOTTEVILLE ROAD 10",
        "streetDirectionId": null,
        "streetTypeId": null,
        "placeName": "SIMCOE",
        "streetNameDisplayText": "CHARLOTTEVILLE ROAD 10, SIMCOE"
      },
      {
        "electoralDistricts": [
          {
            "election": null,
            "id": 34,
            "name": "Haldimand—Norfolk"
          }
        ],
        "pollDivisionIds": [
          10138457,
          10138459
        ],
        "postalCode": "N3Y4J9",
        "streetName": "CHARLOTTEVILLE ROAD 11",
        "streetDirectionId": null,
        "streetTypeId": null,
        "placeName": "SIMCOE",
        "streetNameDisplayText": "CHARLOTTEVILLE ROAD 11, SIMCOE"
      },
      {
        "electoralDistricts": [
          {
            "election": null,
            "id": 34,
            "name": "Haldimand—Norfolk"
          }
        ],
        "pollDivisionIds": [
          10138459,
          10138453
        ],
        "postalCode": "N3Y4J9",
        "streetName": "CHARLOTTEVILLE ROAD 8",
        "streetDirectionId": null,
        "streetTypeId": null,
        "placeName": "SIMCOE",
        "streetNameDisplayText": "CHARLOTTEVILLE ROAD 8, SIMCOE"
      },
      {
        "electoralDistricts": [
          {
            "election": null,
            "id": 34,
            "name": "Haldimand—Norfolk"
          }
        ],
        "pollDivisionIds": [
          10138451
        ],
        "postalCode": "N3Y4J9",
        "streetName": "CHARLOTTEVILLE WESST QUARTERLINE",
        "streetDirectionId": null,
        "streetTypeId": null,
        "placeName": "SIMCOE",
        "streetNameDisplayText": "CHARLOTTEVILLE WESST QUARTERLINE, SIMCOE"
      },
      {
        "electoralDistricts": [
          {
            "election": null,
            "id": 34,
            "name": "Haldimand—Norfolk"
          }
        ],
        "pollDivisionIds": [
          10138457,
          10138453
        ],
        "postalCode": "N3Y4J9",
        "streetName": "CHARLOTTEVILLE WEST QUARTER LINE",
        "streetDirectionId": null,
        "streetTypeId": "RD",
        "placeName": "SIMCOE",
        "streetNameDisplayText": "CHARLOTTEVILLE WEST QUARTER LINE RD, SIMCOE"
      },
      {
        "electoralDistricts": [
          {
            "election": null,
            "id": 34,
            "name": "Haldimand—Norfolk"
          }
        ],
        "pollDivisionIds": [
          10138457,
          10138451
        ],
        "postalCode": "N3Y4J9",
        "streetName": "CHARLOTTEVILLE WEST QUARTER",
        "streetDirectionId": null,
        "streetTypeId": "LINE",
        "placeName": "SIMCOE",
        "streetNameDisplayText": "CHARLOTTEVILLE WEST QUARTER LINE, SIMCOE"
      },
      {
        "electoralDistricts": [
          {
            "election": null,
            "id": 34,
            "name": "Haldimand—Norfolk"
          }
        ],
        "pollDivisionIds": [
          10138453,
          10138457
        ],
        "postalCode": "N3Y4J9",
        "streetName": "CHARLTON",
        "streetDirectionId": null,
        "streetTypeId": "ST",
        "placeName": "SIMCOE",
        "streetNameDisplayText": "CHARLTON ST, SIMCOE"
      },
      {
        "electoralDistricts": [
          {
            "election": null,
            "id": 34,
            "name": "Haldimand—Norfolk"
          }
        ],
        "pollDivisionIds": [
          10138457
        ],
        "postalCode": "N3Y4J9",
        "streetName": "CHARLTONROAD",
        "streetDirectionId": null,
        "streetTypeId": null,
        "placeName": "SIMCOE",
        "streetNameDisplayText": "CHARLTONROAD, SIMCOE"
      },
      {
        "electoralDistricts": [
          {
            "election": null,
            "id": 34,
            "name": "Haldimand—Norfolk"
          }
        ],
        "pollDivisionIds": [
          10138453
        ],
        "postalCode": "N3Y4J9",
        "streetName": "EAST QUARTER LINE",
        "streetDirectionId": null,
        "streetTypeId": "RD",
        "placeName": "LANGTON",
        "streetNameDisplayText": "EAST QUARTER LINE RD, LANGTON"
      },
      {
        "electoralDistricts": [
          {
            "election": null,
            "id": 34,
            "name": "Haldimand—Norfolk"
          }
        ],
        "pollDivisionIds": [
          10138458
        ],
        "postalCode": "N3Y4J9",
        "streetName": "FERTILIZER",
        "streetDirectionId": null,
        "streetTypeId": "RD",
        "placeName": "SIMCOE",
        "streetNameDisplayText": "FERTILIZER RD, SIMCOE"
      },
      {
        "electoralDistricts": [
          {
            "election": null,
            "id": 34,
            "name": "Haldimand—Norfolk"
          }
        ],
        "pollDivisionIds": [
          10138453
        ],
        "postalCode": "N3Y4J9",
        "streetName": "FORESTRY FARM",
        "streetDirectionId": null,
        "streetTypeId": "RD",
        "placeName": "SIMCOE",
        "streetNameDisplayText": "FORESTRY FARM RD, SIMCOE"
      },
      {
        "electoralDistricts": [
          {
            "election": null,
            "id": 34,
            "name": "Haldimand—Norfolk"
          }
        ],
        "pollDivisionIds": [
          10138458,
          10138457,
          10138462,
          10138459
        ],
        "postalCode": "N3Y4J9",
        "streetName": "HIGHWAY 3",
        "streetDirectionId": null,
        "streetTypeId": null,
        "placeName": "SIMCOE",
        "streetNameDisplayText": "HIGHWAY 3, SIMCOE"
      },
      {
        "electoralDistricts": [
          {
            "election": null,
            "id": 34,
            "name": "Haldimand—Norfolk"
          }
        ],
        "pollDivisionIds": [
          10138462
        ],
        "postalCode": "N3Y4J9",
        "streetName": "HILLCREST",
        "streetDirectionId": null,
        "streetTypeId": "RD",
        "placeName": "SIMCOE",
        "streetNameDisplayText": "HILLCREST RD, SIMCOE"
      },
      {
        "electoralDistricts": [
          {
            "election": null,
            "id": 34,
            "name": "Haldimand—Norfolk"
          }
        ],
        "pollDivisionIds": [
          10138453
        ],
        "postalCode": "N3Y4J9",
        "streetName": "LYNDHURST",
        "streetDirectionId": null,
        "streetTypeId": "AVE",
        "placeName": "SIMCOE",
        "streetNameDisplayText": "LYNDHURST AVE, SIMCOE"
      },
      {
        "electoralDistricts": [
          {
            "election": null,
            "id": 34,
            "name": "Haldimand—Norfolk"
          }
        ],
        "pollDivisionIds": [
          10138457
        ],
        "postalCode": "N3Y4J9",
        "streetName": "LYNEDOCH",
        "streetDirectionId": null,
        "streetTypeId": "RD",
        "placeName": "SIMCOE",
        "streetNameDisplayText": "LYNEDOCH RD, SIMCOE"
      },
      {
        "electoralDistricts": [
          {
            "election": null,
            "id": 34,
            "name": "Haldimand—Norfolk"
          }
        ],
        "pollDivisionIds": [
          10138453
        ],
        "postalCode": "N3Y4J9",
        "streetName": "MASSECAR",
        "streetDirectionId": null,
        "streetTypeId": "LANE",
        "placeName": "SIMCOE",
        "streetNameDisplayText": "MASSECAR LANE, SIMCOE"
      },
      {
        "electoralDistricts": [
          {
            "election": null,
            "id": 34,
            "name": "Haldimand—Norfolk"
          }
        ],
        "pollDivisionIds": [
          10138459,
          10138457,
          10138453
        ],
        "postalCode": "N3Y4J9",
        "streetName": "MCDOWELL",
        "streetDirectionId": "E",
        "streetTypeId": "RD",
        "placeName": "SIMCOE",
        "streetNameDisplayText": "MCDOWELL RD E, SIMCOE"
      },
      {
        "electoralDistricts": [
          {
            "election": null,
            "id": 34,
            "name": "Haldimand—Norfolk"
          }
        ],
        "pollDivisionIds": [
          10138457
        ],
        "postalCode": "N3Y4J9",
        "streetName": "NIXON",
        "streetDirectionId": null,
        "streetTypeId": "RD",
        "placeName": "SIMCOE",
        "streetNameDisplayText": "NIXON RD, SIMCOE"
      },
      {
        "electoralDistricts": [
          {
            "election": null,
            "id": 34,
            "name": "Haldimand—Norfolk"
          }
        ],
        "pollDivisionIds": [
          10138465,
          10138462
        ],
        "postalCode": "N3Y4J9",
        "streetName": "PARK",
        "streetDirectionId": null,
        "streetTypeId": "RD",
        "placeName": "SIMCOE",
        "streetNameDisplayText": "PARK RD, SIMCOE"
      },
      {
        "electoralDistricts": [
          {
            "election": null,
            "id": 99,
            "name": "Simcoe—Grey"
          }
        ],
        "pollDivisionIds": [
          10141848
        ],
        "postalCode": "N3Y4J9",
        "streetName": "PINEGROVE",
        "streetDirectionId": null,
        "streetTypeId": "CRES",
        "placeName": "SIMCOE",
        "streetNameDisplayText": "PINEGROVE CRES, SIMCOE"
      },
      {
        "electoralDistricts": [
          {
            "election": null,
            "id": 34,
            "name": "Haldimand—Norfolk"
          }
        ],
        "pollDivisionIds": [
          10138457
        ],
        "postalCode": "N3Y4J9",
        "streetName": "PINEGROVE",
        "streetDirectionId": null,
        "streetTypeId": "RD",
        "placeName": "SIMCOE",
        "streetNameDisplayText": "PINEGROVE RD, SIMCOE"
      },
      {
        "electoralDistricts": [
          {
            "election": null,
            "id": 34,
            "name": "Haldimand—Norfolk"
          }
        ],
        "pollDivisionIds": [
          10138456,
          10138453
        ],
        "postalCode": "N3Y4J9",
        "streetName": "PINEGROVE",
        "streetDirectionId": null,
        "streetTypeId": "ST",
        "placeName": "SIMCOE",
        "streetNameDisplayText": "PINEGROVE ST, SIMCOE"
      },
      {
        "electoralDistricts": [
          {
            "election": null,
            "id": 34,
            "name": "Haldimand—Norfolk"
          }
        ],
        "pollDivisionIds": [
          10138462
        ],
        "postalCode": "N3Y4J9",
        "streetName": "QUEENSWAY",
        "streetDirectionId": "W",
        "streetTypeId": null,
        "placeName": "SIMCOE",
        "streetNameDisplayText": "QUEENSWAY W, SIMCOE"
      },
      {
        "electoralDistricts": [
          {
            "election": null,
            "id": 34,
            "name": "Haldimand—Norfolk"
          }
        ],
        "pollDivisionIds": [
          10138459
        ],
        "postalCode": "N3Y4J9",
        "streetName": "RIDGE",
        "streetDirectionId": null,
        "streetTypeId": "WAY",
        "placeName": "VITTORIA",
        "streetNameDisplayText": "RIDGE WAY, VITTORIA"
      },
      {
        "electoralDistricts": [
          {
            "election": null,
            "id": 34,
            "name": "Haldimand—Norfolk"
          }
        ],
        "pollDivisionIds": [
          10138459,
          10138453
        ],
        "postalCode": "N3Y4J9",
        "streetName": "RIDGEWAY",
        "streetDirectionId": null,
        "streetTypeId": "AVE",
        "placeName": "SIMCOE",
        "streetNameDisplayText": "RIDGEWAY AVE, SIMCOE"
      },
      {
        "electoralDistricts": [
          {
            "election": null,
            "id": 34,
            "name": "Haldimand—Norfolk"
          }
        ],
        "pollDivisionIds": [
          10138459,
          10138457
        ],
        "postalCode": "N3Y4J9",
        "streetName": "TURKEY POINT",
        "streetDirectionId": null,
        "streetTypeId": "RD",
        "placeName": "SIMCOE",
        "streetNameDisplayText": "TURKEY POINT RD, SIMCOE"
      },
      {
        "electoralDistricts": [
          {
            "election": null,
            "id": 34,
            "name": "Haldimand—Norfolk"
          }
        ],
        "pollDivisionIds": [
          10138457
        ],
        "postalCode": "N3Y4J9",
        "streetName": "WEST QUARTER LINE",
        "streetDirectionId": null,
        "streetTypeId": "RD",
        "placeName": "SIMCOE",
        "streetNameDisplayText": "WEST QUARTER LINE RD, SIMCOE"
      },
      {
        "electoralDistricts": [
          {
            "election": null,
            "id": 34,
            "name": "Haldimand—Norfolk"
          }
        ],
        "pollDivisionIds": [
          10138453
        ],
        "postalCode": "N3Y4J9",
        "streetName": "WOODLAND",
        "streetDirectionId": null,
        "streetTypeId": "DR",
        "placeName": "SIMCOE",
        "streetNameDisplayText": "WOODLAND DR, SIMCOE"
      },
      {
        "electoralDistricts": [
          {
            "election": null,
            "id": 34,
            "name": "Haldimand—Norfolk"
          }
        ],
        "pollDivisionIds": [
          10138457
        ],
        "postalCode": "N3Y4J9",
        "streetName": "YUELL",
        "streetDirectionId": null,
        "streetTypeId": "RD",
        "placeName": "SIMCOE",
        "streetNameDisplayText": "YUELL RD, SIMCOE"
      }
    ]
  },
  {
    "postal": "N3Y9E4",
    "result": []
  },
  {
    "postal": "N3Y8H0",
    "result": []
  },
  {
    "postal": "N3Y4M7",
    "result": [
      {
        "electoralDistricts": [
          {
            "election": null,
            "id": 34,
            "name": "Haldimand—Norfolk"
          }
        ],
        "pollDivisionIds": [
          10138467
        ],
        "postalCode": "N3Y4M7",
        "streetName": "BERKLEY",
        "streetDirectionId": null,
        "streetTypeId": "CRES",
        "placeName": "SIMCOE",
        "streetNameDisplayText": "BERKLEY CRES, SIMCOE"
      }
    ]
  },
  {
    "postal": "N3Y2G9",
    "result": [
      {
        "electoralDistricts": [
          {
            "election": null,
            "id": 34,
            "name": "Haldimand—Norfolk"
          }
        ],
        "pollDivisionIds": [
          10138462
        ],
        "postalCode": "N3Y2G9",
        "streetName": "TYRELL",
        "streetDirectionId": null,
        "streetTypeId": "ST",
        "placeName": "SIMCOE",
        "streetNameDisplayText": "TYRELL ST, SIMCOE"
      }
    ]
  },
  {
    "postal": "N3Y8T2",
    "result": []
  },
  {
    "postal": "N3Y7G7",
    "result": []
  },
  {
    "postal": "N3Y4Z3",
    "result": [
      {
        "electoralDistricts": [
          {
            "election": null,
            "id": 34,
            "name": "Haldimand—Norfolk"
          }
        ],
        "pollDivisionIds": [
          10138467
        ],
        "postalCode": "N3Y4Z3",
        "streetName": "SHERIDAN",
        "streetDirectionId": null,
        "streetTypeId": "BLVD",
        "placeName": "SIMCOE",
        "streetNameDisplayText": "SHERIDAN BLVD, SIMCOE"
      }
    ]
  },
  {
    "postal": "N3Y5B3",
    "result": []
  },
  {
    "postal": "N3Y1S7",
    "result": [
      {
        "electoralDistricts": [
          {
            "election": null,
            "id": 34,
            "name": "Haldimand—Norfolk"
          }
        ],
        "pollDivisionIds": [
          10138466
        ],
        "postalCode": "N3Y1S7",
        "streetName": "WEST",
        "streetDirectionId": null,
        "streetTypeId": "ST",
        "placeName": "SIMCOE",
        "streetNameDisplayText": "WEST ST, SIMCOE"
      }
    ]
  },
  {
    "postal": "N3Y2N7",
    "result": [
      {
        "electoralDistricts": [
          {
            "election": null,
            "id": 34,
            "name": "Haldimand—Norfolk"
          }
        ],
        "pollDivisionIds": [
          10138464
        ],
        "postalCode": "N3Y2N7",
        "streetName": "RIVERSIDE",
        "streetDirectionId": null,
        "streetTypeId": "RD",
        "placeName": "SIMCOE",
        "streetNameDisplayText": "RIVERSIDE RD, SIMCOE"
      }
    ]
  },
  {
    "postal": "N3Y0H8",
    "result": []
  },
  {
    "postal": "N3Y7Z4",
    "result": []
  },
  {
    "postal": "N3Y7B1",
    "result": []
  },
  {
    "postal": "N3Y7P8",
    "result": []
  },
  {
    "postal": "N3Y7N0",
    "result": []
  },
  {
    "postal": "N3Y3Y5",
    "result": [
      {
        "electoralDistricts": [
          {
            "election": null,
            "id": 34,
            "name": "Haldimand—Norfolk"
          }
        ],
        "pollDivisionIds": [
          10138466
        ],
        "postalCode": "N3Y3Y5",
        "streetName": "QUEEN",
        "streetDirectionId": "N",
        "streetTypeId": "ST",
        "placeName": "SIMCOE",
        "streetNameDisplayText": "QUEEN ST N, SIMCOE"
      }
    ]
  },
  {
    "postal": "N3Y6K1",
    "result": []
  },
  {
    "postal": "N3Y9X5",
    "result": []
  },
  {
    "postal": "N3Y7S5",
    "result": []
  },
  {
    "postal": "N3Y0A4",
    "result": [
      {
        "electoralDistricts": [
          {
            "election": null,
            "id": 34,
            "name": "Haldimand—Norfolk"
          }
        ],
        "pollDivisionIds": [
          10138461
        ],
        "postalCode": "N3Y0A4",
        "streetName": "ASHBURY",
        "streetDirectionId": null,
        "streetTypeId": "LANE",
        "placeName": "SIMCOE",
        "streetNameDisplayText": "ASHBURY LANE, SIMCOE"
      },
      {
        "electoralDistricts": [
          {
            "election": null,
            "id": 34,
            "name": "Haldimand—Norfolk"
          }
        ],
        "pollDivisionIds": [
          10138461
        ],
        "postalCode": "N3Y0A4",
        "streetName": "MILLCROFT",
        "streetDirectionId": null,
        "streetTypeId": "DR",
        "placeName": "SIMCOE",
        "streetNameDisplayText": "MILLCROFT DR, SIMCOE"
      }
    ]
  },
  {
    "postal": "N3Y4T5",
    "result": [
      {
        "electoralDistricts": [
          {
            "election": null,
            "id": 34,
            "name": "Haldimand—Norfolk"
          }
        ],
        "pollDivisionIds": [
          10138467
        ],
        "postalCode": "N3Y4T5",
        "streetName": "DOGWOOD",
        "streetDirectionId": null,
        "streetTypeId": "DR",
        "placeName": "SIMCOE",
        "streetNameDisplayText": "DOGWOOD DR, SIMCOE"
      }
    ]
  },
  {
    "postal": "N3Y5K1",
    "result": [
      {
        "electoralDistricts": [
          {
            "election": null,
            "id": 34,
            "name": "Haldimand—Norfolk"
          }
        ],
        "pollDivisionIds": [
          10138467
        ],
        "postalCode": "N3Y5K1",
        "streetName": "FREEMAN",
        "streetDirectionId": null,
        "streetTypeId": "CRES",
        "placeName": "SIMCOE",
        "streetNameDisplayText": "FREEMAN CRES, SIMCOE"
      }
    ]
  },
  {
    "postal": "N3Y0Z9",
    "result": []
  },
  {
    "postal": "N3Y7T2",
    "result": []
  },
  {
    "postal": "N3Y1L5",
    "result": [
      {
        "electoralDistricts": [
          {
            "election": null,
            "id": 34,
            "name": "Haldimand—Norfolk"
          }
        ],
        "pollDivisionIds": [
          10138467
        ],
        "postalCode": "N3Y1L5",
        "streetName": "VICTORIA",
        "streetDirectionId": null,
        "streetTypeId": "ST",
        "placeName": "SIMCOE",
        "streetNameDisplayText": "VICTORIA ST, SIMCOE"
      }
    ]
  },
  {
    "postal": "N3Y3N5",
    "result": [
      {
        "electoralDistricts": [
          {
            "election": null,
            "id": 34,
            "name": "Haldimand—Norfolk"
          }
        ],
        "pollDivisionIds": [
          10138465
        ],
        "postalCode": "N3Y3N5",
        "streetName": "BANK",
        "streetDirectionId": "N",
        "streetTypeId": "ST",
        "placeName": "SIMCOE",
        "streetNameDisplayText": "BANK ST N, SIMCOE"
      }
    ]
  },
  {
    "postal": "N3Y6H4",
    "result": []
  },
  {
    "postal": "N3Y5A5",
    "result": [
      {
        "electoralDistricts": [
          {
            "election": null,
            "id": 34,
            "name": "Haldimand—Norfolk"
          }
        ],
        "pollDivisionIds": [
          10138467
        ],
        "postalCode": "N3Y5A5",
        "streetName": "DONLY",
        "streetDirectionId": "N",
        "streetTypeId": "DR",
        "placeName": "SIMCOE",
        "streetNameDisplayText": "DONLY DR N, SIMCOE"
      }
    ]
  },
  {
    "postal": "N3Y3R9",
    "result": [
      {
        "electoralDistricts": [
          {
            "election": null,
            "id": 34,
            "name": "Haldimand—Norfolk"
          }
        ],
        "pollDivisionIds": [
          10138465
        ],
        "postalCode": "N3Y3R9",
        "streetName": "NORFOLK",
        "streetDirectionId": "N",
        "streetTypeId": "ST",
        "placeName": "SIMCOE",
        "streetNameDisplayText": "NORFOLK ST N, SIMCOE"
      }
    ]
  },
  {
    "postal": "N3Y7L8",
    "result": []
  },
  {
    "postal": "N3Y6T6",
    "result": []
  },
  {
    "postal": "N3Y7Y7",
    "result": []
  },
  {
    "postal": "N3Y3M8",
    "result": [
      {
        "electoralDistricts": [
          {
            "election": null,
            "id": 34,
            "name": "Haldimand—Norfolk"
          }
        ],
        "pollDivisionIds": [
          10138464
        ],
        "postalCode": "N3Y3M8",
        "streetName": "ARTHUR",
        "streetDirectionId": null,
        "streetTypeId": "ST",
        "placeName": "SIMCOE",
        "streetNameDisplayText": "ARTHUR ST, SIMCOE"
      }
    ]
  },
  {
    "postal": "N3Y2E0",
    "result": []
  },
  {
    "postal": "N3Y4B5",
    "result": [
      {
        "electoralDistricts": [
          {
            "election": null,
            "id": 34,
            "name": "Haldimand—Norfolk"
          }
        ],
        "pollDivisionIds": [
          10138463
        ],
        "postalCode": "N3Y4B5",
        "streetName": "BELLEVUE",
        "streetDirectionId": null,
        "streetTypeId": "AVE",
        "placeName": "SIMCOE",
        "streetNameDisplayText": "BELLEVUE AVE, SIMCOE"
      }
    ]
  },
  {
    "postal": "N3Y1J3",
    "result": [
      {
        "electoralDistricts": [
          {
            "election": null,
            "id": 34,
            "name": "Haldimand—Norfolk"
          }
        ],
        "pollDivisionIds": [
          10138467
        ],
        "postalCode": "N3Y1J3",
        "streetName": "PATTERSON",
        "streetDirectionId": null,
        "streetTypeId": "ST",
        "placeName": "SIMCOE",
        "streetNameDisplayText": "PATTERSON ST, SIMCOE"
      }
    ]
  },
  {
    "postal": "N3Y5S6",
    "result": []
  },
  {
    "postal": "N3Y8P7",
    "result": []
  },
  {
    "postal": "N3Y7S7",
    "result": []
  },
  {
    "postal": "N3Y4C2",
    "result": [
      {
        "electoralDistricts": [
          {
            "election": null,
            "id": 34,
            "name": "Haldimand—Norfolk"
          }
        ],
        "pollDivisionIds": [
          10138463
        ],
        "postalCode": "N3Y4C2",
        "streetName": "PAYNE",
        "streetDirectionId": null,
        "streetTypeId": "AVE",
        "placeName": "SIMCOE",
        "streetNameDisplayText": "PAYNE AVE, SIMCOE"
      }
    ]
  },
  {
    "postal": "N3Y5Y0",
    "result": []
  },
  {
    "postal": "N3Y2V7",
    "result": [
      {
        "electoralDistricts": [
          {
            "election": null,
            "id": 34,
            "name": "Haldimand—Norfolk"
          }
        ],
        "pollDivisionIds": [
          10138466
        ],
        "postalCode": "N3Y2V7",
        "streetName": "LYNNWOOD",
        "streetDirectionId": null,
        "streetTypeId": "AVE",
        "placeName": "SIMCOE",
        "streetNameDisplayText": "LYNNWOOD AVE, SIMCOE"
      }
    ]
  },
  {
    "postal": "N3Y8P5",
    "result": []
  },
  {
    "postal": "N3Y5P5",
    "result": []
  },
  {
    "postal": "N3Y5Z0",
    "result": []
  },
  {
    "postal": "N3Y9B0",
    "result": []
  },
  {
    "postal": "N3Y1L0",
    "result": []
  },
  {
    "postal": "N3Y0B5",
    "result": [
      {
        "electoralDistricts": [
          {
            "election": null,
            "id": 34,
            "name": "Haldimand—Norfolk"
          }
        ],
        "pollDivisionIds": [
          10138461
        ],
        "postalCode": "N3Y0B5",
        "streetName": "DRIFTWOOD",
        "streetDirectionId": null,
        "streetTypeId": "DR",
        "placeName": "SIMCOE",
        "streetNameDisplayText": "DRIFTWOOD DR, SIMCOE"
      },
      {
        "electoralDistricts": [
          {
            "election": null,
            "id": 34,
            "name": "Haldimand—Norfolk"
          }
        ],
        "pollDivisionIds": [
          10138461
        ],
        "postalCode": "N3Y0B5",
        "streetName": "OAK",
        "streetDirectionId": null,
        "streetTypeId": "ST",
        "placeName": "SIMCOE",
        "streetNameDisplayText": "OAK ST, SIMCOE"
      }
    ]
  },
  {
    "postal": "N3Y3L2",
    "result": [
      {
        "electoralDistricts": [
          {
            "election": null,
            "id": 34,
            "name": "Haldimand—Norfolk"
          }
        ],
        "pollDivisionIds": [
          10138464
        ],
        "postalCode": "N3Y3L2",
        "streetName": "GIBSON",
        "streetDirectionId": null,
        "streetTypeId": "DR",
        "placeName": "SIMCOE",
        "streetNameDisplayText": "GIBSON DR, SIMCOE"
      }
    ]
  },
  {
    "postal": "N3Y3B7",
    "result": [
      {
        "electoralDistricts": [
          {
            "election": null,
            "id": 34,
            "name": "Haldimand—Norfolk"
          }
        ],
        "pollDivisionIds": [
          10138461
        ],
        "postalCode": "N3Y3B7",
        "streetName": "ELM",
        "streetDirectionId": null,
        "streetTypeId": "ST",
        "placeName": "SIMCOE",
        "streetNameDisplayText": "ELM ST, SIMCOE"
      }
    ]
  },
  {
    "postal": "N3Y8L1",
    "result": []
  },
  {
    "postal": "N3Y5M4",
    "result": [
      {
        "electoralDistricts": [
          {
            "election": null,
            "id": 34,
            "name": "Haldimand—Norfolk"
          }
        ],
        "pollDivisionIds": [
          10138463
        ],
        "postalCode": "N3Y5M4",
        "streetName": "VIRGINIA",
        "streetDirectionId": null,
        "streetTypeId": "AVE",
        "placeName": "SIMCOE",
        "streetNameDisplayText": "VIRGINIA AVE, SIMCOE"
      }
    ]
  },
  {
    "postal": "N3Y4G9",
    "result": [
      {
        "electoralDistricts": [
          {
            "election": null,
            "id": 34,
            "name": "Haldimand—Norfolk"
          }
        ],
        "pollDivisionIds": [
          10138464
        ],
        "postalCode": "N3Y4G9",
        "streetName": "COLLEGE",
        "streetDirectionId": null,
        "streetTypeId": "AVE",
        "placeName": "SIMCOE",
        "streetNameDisplayText": "COLLEGE AVE, SIMCOE"
      }
    ]
  },
  {
    "postal": "N3Y0P0",
    "result": []
  },
  {
    "postal": "N3Y8G2",
    "result": []
  },
  {
    "postal": "N3Y1V9",
    "result": [
      {
        "electoralDistricts": [
          {
            "election": null,
            "id": 34,
            "name": "Haldimand—Norfolk"
          }
        ],
        "pollDivisionIds": [
          10138464,
          10138467
        ],
        "postalCode": "N3Y1V9",
        "streetName": "ARGYLE",
        "streetDirectionId": null,
        "streetTypeId": "ST",
        "placeName": "SIMCOE",
        "streetNameDisplayText": "ARGYLE ST, SIMCOE"
      }
    ]
  },
  {
    "postal": "N3Y8N8",
    "result": []
  },
  {
    "postal": "N3Y6S8",
    "result": []
  },
  {
    "postal": "N3Y8H2",
    "result": []
  },
  {
    "postal": "N3Y5R8",
    "result": []
  },
  {
    "postal": "N3Y5L4",
    "result": [
      {
        "electoralDistricts": [
          {
            "election": null,
            "id": 34,
            "name": "Haldimand—Norfolk"
          }
        ],
        "pollDivisionIds": [
          10138466
        ],
        "postalCode": "N3Y5L4",
        "streetName": "CHAPEL",
        "streetDirectionId": null,
        "streetTypeId": "ST",
        "placeName": "SIMCOE",
        "streetNameDisplayText": "CHAPEL ST, SIMCOE"
      }
    ]
  },
  {
    "postal": "N3Y9E1",
    "result": []
  },
  {
    "postal": "N3Y1C4",
    "result": [
      {
        "electoralDistricts": [
          {
            "election": null,
            "id": 34,
            "name": "Haldimand—Norfolk"
          }
        ],
        "pollDivisionIds": [
          10138461
        ],
        "postalCode": "N3Y1C4",
        "streetName": "GARDEN",
        "streetDirectionId": null,
        "streetTypeId": "ST",
        "placeName": "SIMCOE",
        "streetNameDisplayText": "GARDEN ST, SIMCOE"
      }
    ]
  },
  {
    "postal": "N3Y8W5",
    "result": []
  },
  {
    "postal": "N3Y1Y4",
    "result": [
      {
        "electoralDistricts": [
          {
            "election": null,
            "id": 34,
            "name": "Haldimand—Norfolk"
          }
        ],
        "pollDivisionIds": [
          10138466
        ],
        "postalCode": "N3Y1Y4",
        "streetName": "YOUNG",
        "streetDirectionId": null,
        "streetTypeId": "ST",
        "placeName": "SIMCOE",
        "streetNameDisplayText": "YOUNG ST, SIMCOE"
      }
    ]
  },
  {
    "postal": "N3Y1C0",
    "result": []
  },
  {
    "postal": "N3Y2J2",
    "result": [
      {
        "electoralDistricts": [
          {
            "election": null,
            "id": 34,
            "name": "Haldimand—Norfolk"
          }
        ],
        "pollDivisionIds": [
          10138462,
          10138505,
          10138464
        ],
        "postalCode": "N3Y2J2",
        "streetName": "CEDAR",
        "streetDirectionId": null,
        "streetTypeId": "ST",
        "placeName": "SIMCOE",
        "streetNameDisplayText": "CEDAR ST, SIMCOE"
      }
    ]
  },
  {
    "postal": "N3Y2J0",
    "result": []
  },
  {
    "postal": "N3Y7A3",
    "result": []
  },
  {
    "postal": "N3Y8M1",
    "result": []
  },
  {
    "postal": "N3Y7T9",
    "result": []
  },
  {
    "postal": "N3Y6C0",
    "result": []
  },
  {
    "postal": "N3Y7X1",
    "result": []
  },
  {
    "postal": "N3Y0G1",
    "result": []
  },
  {
    "postal": "N3Y4X2",
    "result": [
      {
        "electoralDistricts": [
          {
            "election": null,
            "id": 34,
            "name": "Haldimand—Norfolk"
          }
        ],
        "pollDivisionIds": [
          10138467
        ],
        "postalCode": "N3Y4X2",
        "streetName": "CARRIAGE",
        "streetDirectionId": null,
        "streetTypeId": "RD",
        "placeName": "SIMCOE",
        "streetNameDisplayText": "CARRIAGE RD, SIMCOE"
      }
    ]
  },
  {
    "postal": "N3Y0N6",
    "result": []
  },
  {
    "postal": "N3Y8E3",
    "result": []
  },
  {
    "postal": "N3Y5S8",
    "result": []
  },
  {
    "postal": "N3Y0R0",
    "result": []
  },
  {
    "postal": "N3Y6J6",
    "result": []
  },
  {
    "postal": "N3Y4B4",
    "result": [
      {
        "electoralDistricts": [
          {
            "election": null,
            "id": 34,
            "name": "Haldimand—Norfolk"
          }
        ],
        "pollDivisionIds": [
          10138461
        ],
        "postalCode": "N3Y4B4",
        "streetName": "HILL",
        "streetDirectionId": null,
        "streetTypeId": "ST",
        "placeName": "SIMCOE",
        "streetNameDisplayText": "HILL ST, SIMCOE"
      }
    ]
  },
  {
    "postal": "N3Y7E3",
    "result": []
  },
  {
    "postal": "N3Y3N6",
    "result": [
      {
        "electoralDistricts": [
          {
            "election": null,
            "id": 34,
            "name": "Haldimand—Norfolk"
          }
        ],
        "pollDivisionIds": [
          10138466
        ],
        "postalCode": "N3Y3N6",
        "streetName": "NORFOLK",
        "streetDirectionId": "N",
        "streetTypeId": "ST",
        "placeName": "SIMCOE",
        "streetNameDisplayText": "NORFOLK ST N, SIMCOE"
      }
    ]
  },
  {
    "postal": "N3Y3X6",
    "result": [
      {
        "electoralDistricts": [
          {
            "election": null,
            "id": 34,
            "name": "Haldimand—Norfolk"
          }
        ],
        "pollDivisionIds": [
          10138466
        ],
        "postalCode": "N3Y3X6",
        "streetName": "HEAD",
        "streetDirectionId": "N",
        "streetTypeId": "ST",
        "placeName": "SIMCOE",
        "streetNameDisplayText": "HEAD ST N, SIMCOE"
      }
    ]
  },
  {
    "postal": "N3Y8L0",
    "result": []
  },
  {
    "postal": "N3Y8N1",
    "result": []
  },
  {
    "postal": "N3Y4J0",
    "result": []
  },
  {
    "postal": "N3Y0X7",
    "result": []
  },
  {
    "postal": "N3Y6S4",
    "result": []
  },
  {
    "postal": "N3Y0Z0",
    "result": []
  },
  {
    "postal": "N3Y9X8",
    "result": []
  },
  {
    "postal": "N3Y3H3",
    "result": [
      {
        "electoralDistricts": [
          {
            "election": null,
            "id": 34,
            "name": "Haldimand—Norfolk"
          }
        ],
        "pollDivisionIds": [
          10138463
        ],
        "postalCode": "N3Y3H3",
        "streetName": "ORCHARD",
        "streetDirectionId": null,
        "streetTypeId": "AVE",
        "placeName": "SIMCOE",
        "streetNameDisplayText": "ORCHARD AVE, SIMCOE"
      }
    ]
  },
  {
    "postal": "N3Y7S2",
    "result": []
  },
  {
    "postal": "N3Y3T3",
    "result": [
      {
        "electoralDistricts": [
          {
            "election": null,
            "id": 34,
            "name": "Haldimand—Norfolk"
          }
        ],
        "pollDivisionIds": [
          10138465
        ],
        "postalCode": "N3Y3T3",
        "streetName": "SPRUCE",
        "streetDirectionId": null,
        "streetTypeId": "AVE",
        "placeName": "SIMCOE",
        "streetNameDisplayText": "SPRUCE AVE, SIMCOE"
      }
    ]
  },
  {
    "postal": "N3Y9P3",
    "result": []
  },
  {
    "postal": "N3Y4H8",
    "result": [
      {
        "electoralDistricts": [
          {
            "election": null,
            "id": 34,
            "name": "Haldimand—Norfolk"
          }
        ],
        "pollDivisionIds": [
          10138466
        ],
        "postalCode": "N3Y4H8",
        "streetName": "DEAN",
        "streetDirectionId": null,
        "streetTypeId": "ST",
        "placeName": "SIMCOE",
        "streetNameDisplayText": "DEAN ST, SIMCOE"
      }
    ]
  },
  {
    "postal": "N3Y6R1",
    "result": []
  },
  {
    "postal": "N3Y1S0",
    "result": []
  },
  {
    "postal": "N3Y3W8",
    "result": [
      {
        "electoralDistricts": [
          {
            "election": null,
            "id": 34,
            "name": "Haldimand—Norfolk"
          }
        ],
        "pollDivisionIds": [
          10138466,
          10138464
        ],
        "postalCode": "N3Y3W8",
        "streetName": "TALBOT",
        "streetDirectionId": "N",
        "streetTypeId": "ST",
        "placeName": "SIMCOE",
        "streetNameDisplayText": "TALBOT ST N, SIMCOE"
      }
    ]
  },
  {
    "postal": "N3Y4S3",
    "result": [
      {
        "electoralDistricts": [
          {
            "election": null,
            "id": 34,
            "name": "Haldimand—Norfolk"
          }
        ],
        "pollDivisionIds": [
          10138463
        ],
        "postalCode": "N3Y4S3",
        "streetName": "OAK",
        "streetDirectionId": null,
        "streetTypeId": "ST",
        "placeName": "SIMCOE",
        "streetNameDisplayText": "OAK ST, SIMCOE"
      }
    ]
  },
  {
    "postal": "N3Y1B6",
    "result": []
  },
  {
    "postal": "N3Y8R3",
    "result": []
  },
  {
    "postal": "N3Y4V9",
    "result": [
      {
        "electoralDistricts": [
          {
            "election": null,
            "id": 34,
            "name": "Haldimand—Norfolk"
          }
        ],
        "pollDivisionIds": [
          10138467
        ],
        "postalCode": "N3Y4V9",
        "streetName": "DONLY",
        "streetDirectionId": "N",
        "streetTypeId": "DR",
        "placeName": "SIMCOE",
        "streetNameDisplayText": "DONLY DR N, SIMCOE"
      }
    ]
  },
  {
    "postal": "N3Y9W4",
    "result": []
  },
  {
    "postal": "N3Y3T4",
    "result": [
      {
        "electoralDistricts": [
          {
            "election": null,
            "id": 34,
            "name": "Haldimand—Norfolk"
          }
        ],
        "pollDivisionIds": [
          10138465
        ],
        "postalCode": "N3Y3T4",
        "streetName": "PINEHURST",
        "streetDirectionId": null,
        "streetTypeId": "AVE",
        "placeName": "SIMCOE",
        "streetNameDisplayText": "PINEHURST AVE, SIMCOE"
      }
    ]
  },
  {
    "postal": "N3Y5C7",
    "result": [
      {
        "electoralDistricts": [
          {
            "election": null,
            "id": 34,
            "name": "Haldimand—Norfolk"
          }
        ],
        "pollDivisionIds": [
          10138463
        ],
        "postalCode": "N3Y5C7",
        "streetName": "THOMSON",
        "streetDirectionId": null,
        "streetTypeId": "RD",
        "placeName": "SIMCOE",
        "streetNameDisplayText": "THOMSON RD, SIMCOE"
      }
    ]
  },
  {
    "postal": "N3Y3Y1",
    "result": [
      {
        "electoralDistricts": [
          {
            "election": null,
            "id": 34,
            "name": "Haldimand—Norfolk"
          }
        ],
        "pollDivisionIds": [
          10138464,
          10138466
        ],
        "postalCode": "N3Y3Y1",
        "streetName": "METCALFE",
        "streetDirectionId": "N",
        "streetTypeId": "ST",
        "placeName": "SIMCOE",
        "streetNameDisplayText": "METCALFE ST N, SIMCOE"
      },
      {
        "electoralDistricts": [
          {
            "election": null,
            "id": 34,
            "name": "Haldimand—Norfolk"
          }
        ],
        "pollDivisionIds": [
          10138461
        ],
        "postalCode": "N3Y3Y1",
        "streetName": "METCALFE",
        "streetDirectionId": "S",
        "streetTypeId": "ST",
        "placeName": "SIMCOE",
        "streetNameDisplayText": "METCALFE ST S, SIMCOE"
      }
    ]
  },
  {
    "postal": "N3Y5V0",
    "result": []
  },
  {
    "postal": "N3Y8G8",
    "result": []
  },
  {
    "postal": "N3Y8B1",
    "result": []
  },
  {
    "postal": "N3Y4P5",
    "result": [
      {
        "electoralDistricts": [
          {
            "election": null,
            "id": 34,
            "name": "Haldimand—Norfolk"
          }
        ],
        "pollDivisionIds": [
          10138463
        ],
        "postalCode": "N3Y4P5",
        "streetName": "BROCK",
        "streetDirectionId": null,
        "streetTypeId": "ST",
        "placeName": "SIMCOE",
        "streetNameDisplayText": "BROCK ST, SIMCOE"
      }
    ]
  },
  {
    "postal": "N3Y7B2",
    "result": []
  },
  {
    "postal": "N3Y0R2",
    "result": []
  },
  {
    "postal": "N3Y4M4",
    "result": []
  },
  {
    "postal": "N3Y7M4",
    "result": []
  },
  {
    "postal": "N3Y9S7",
    "result": []
  },
  {
    "postal": "N3Y5Z7",
    "result": []
  },
  {
    "postal": "N3Y7J7",
    "result": []
  },
  {
    "postal": "N3Y8R8",
    "result": []
  },
  {
    "postal": "N3Y9X1",
    "result": []
  },
  {
    "postal": "N3Y5M9",
    "result": [
      {
        "electoralDistricts": [
          {
            "election": null,
            "id": 34,
            "name": "Haldimand—Norfolk"
          }
        ],
        "pollDivisionIds": [
          10138461
        ],
        "postalCode": "N3Y5M9",
        "streetName": "MILLCROFT",
        "streetDirectionId": null,
        "streetTypeId": "DR",
        "placeName": "SIMCOE",
        "streetNameDisplayText": "MILLCROFT DR, SIMCOE"
      },
      {
        "electoralDistricts": [
          {
            "election": null,
            "id": 34,
            "name": "Haldimand—Norfolk"
          }
        ],
        "pollDivisionIds": [
          10138461
        ],
        "postalCode": "N3Y5M9",
        "streetName": "QUEEN",
        "streetDirectionId": "S",
        "streetTypeId": "ST",
        "placeName": "SIMCOE",
        "streetNameDisplayText": "QUEEN ST S, SIMCOE"
      },
      {
        "electoralDistricts": [
          {
            "election": null,
            "id": 34,
            "name": "Haldimand—Norfolk"
          }
        ],
        "pollDivisionIds": [
          10138451
        ],
        "postalCode": "N3Y5M9",
        "streetName": "QUEEN ST. SOUTH",
        "streetDirectionId": "S",
        "streetTypeId": "ST",
        "placeName": "SIMCOE",
        "streetNameDisplayText": "QUEEN ST. SOUTH ST S, SIMCOE"
      }
    ]
  },
  {
    "postal": "N3Y9B4",
    "result": []
  },
  {
    "postal": "N3Y0L9",
    "result": []
  },
  {
    "postal": "N3Y9G4",
    "result": []
  },
  {
    "postal": "N3Y1J4",
    "result": [
      {
        "electoralDistricts": [
          {
            "election": null,
            "id": 34,
            "name": "Haldimand—Norfolk"
          }
        ],
        "pollDivisionIds": [
          10138467
        ],
        "postalCode": "N3Y1J4",
        "streetName": "PATTERSON",
        "streetDirectionId": null,
        "streetTypeId": "ST",
        "placeName": "SIMCOE",
        "streetNameDisplayText": "PATTERSON ST, SIMCOE"
      }
    ]
  },
  {
    "postal": "N3Y0W6",
    "result": []
  }
]
