[
  {
    "postal": "L7J9J6",
    "result": []
  },
  {
    "postal": "L7J9Z5",
    "result": []
  },
  {
    "postal": "L7J7H8",
    "result": []
  },
  {
    "postal": "L7J0P6",
    "result": []
  },
  {
    "postal": "L7J0S7",
    "result": []
  },
  {
    "postal": "L7J8B9",
    "result": []
  },
  {
    "postal": "L7J2A6",
    "result": [
      {
        "electoralDistricts": [
          {
            "election": null,
            "id": 115,
            "name": "Wellington—Halton Hills"
          }
        ],
        "pollDivisionIds": [
          10142577
        ],
        "postalCode": "L7J2A6",
        "streetName": "JOHN",
        "streetDirectionId": "S",
        "streetTypeId": "ST",
        "placeName": "ACTON",
        "streetNameDisplayText": "JOHN ST S, ACTON"
      }
    ]
  },
  {
    "postal": "L7J7V2",
    "result": []
  },
  {
    "postal": "L7J9P4",
    "result": []
  },
  {
    "postal": "L7J6G0",
    "result": []
  },
  {
    "postal": "L7J2K0",
    "result": []
  },
  {
    "postal": "L7J7N6",
    "result": []
  },
  {
    "postal": "L7J5R3",
    "result": []
  },
  {
    "postal": "L7J7K0",
    "result": []
  },
  {
    "postal": "L7J3R2",
    "result": []
  },
  {
    "postal": "L7J0J1",
    "result": []
  },
  {
    "postal": "L7J0B0",
    "result": []
  },
  {
    "postal": "L7J5Z2",
    "result": []
  },
  {
    "postal": "L7J7P3",
    "result": []
  },
  {
    "postal": "L7J2K3",
    "result": [
      {
        "electoralDistricts": [
          {
            "election": null,
            "id": 115,
            "name": "Wellington—Halton Hills"
          }
        ],
        "pollDivisionIds": [
          10142578
        ],
        "postalCode": "L7J2K3",
        "streetName": "LONGFIELD",
        "streetDirectionId": null,
        "streetTypeId": "RD",
        "placeName": "ACTON",
        "streetNameDisplayText": "LONGFIELD RD, ACTON"
      }
    ]
  },
  {
    "postal": "L7J7Y6",
    "result": []
  },
  {
    "postal": "L7J1L9",
    "result": [
      {
        "electoralDistricts": [
          {
            "election": null,
            "id": 115,
            "name": "Wellington—Halton Hills"
          }
        ],
        "pollDivisionIds": [
          10142578
        ],
        "postalCode": "L7J1L9",
        "streetName": "ARTHUR",
        "streetDirectionId": null,
        "streetTypeId": "ST",
        "placeName": "ACTON",
        "streetNameDisplayText": "ARTHUR ST, ACTON"
      }
    ]
  },
  {
    "postal": "L7J8T0",
    "result": []
  },
  {
    "postal": "L7J3K8",
    "result": []
  },
  {
    "postal": "L7J5W9",
    "result": []
  },
  {
    "postal": "L7J6T9",
    "result": []
  },
  {
    "postal": "L7J4H1",
    "result": []
  },
  {
    "postal": "L7J7A2",
    "result": []
  },
  {
    "postal": "L7J5G0",
    "result": []
  },
  {
    "postal": "L7J8V5",
    "result": []
  },
  {
    "postal": "L7J2Y8",
    "result": [
      {
        "electoralDistricts": [
          {
            "election": null,
            "id": 115,
            "name": "Wellington—Halton Hills"
          }
        ],
        "pollDivisionIds": [
          10142578
        ],
        "postalCode": "L7J2Y8",
        "streetName": "TANNERS",
        "streetDirectionId": null,
        "streetTypeId": "DR",
        "placeName": "ACTON",
        "streetNameDisplayText": "TANNERS DR, ACTON"
      }
    ]
  },
  {
    "postal": "L7J2B6",
    "result": [
      {
        "electoralDistricts": [
          {
            "election": null,
            "id": 115,
            "name": "Wellington—Halton Hills"
          }
        ],
        "pollDivisionIds": [
          10142577
        ],
        "postalCode": "L7J2B6",
        "streetName": "FREDERICK",
        "streetDirectionId": "N",
        "streetTypeId": "ST",
        "placeName": "ACTON",
        "streetNameDisplayText": "FREDERICK ST N, ACTON"
      }
    ]
  },
  {
    "postal": "L7J4W8",
    "result": []
  },
  {
    "postal": "L7J8H7",
    "result": []
  },
  {
    "postal": "L7J5P1",
    "result": []
  },
  {
    "postal": "L7J2B8",
    "result": [
      {
        "electoralDistricts": [
          {
            "election": null,
            "id": 115,
            "name": "Wellington—Halton Hills"
          }
        ],
        "pollDivisionIds": [
          10142577
        ],
        "postalCode": "L7J2B8",
        "streetName": "FREDERICK",
        "streetDirectionId": "S",
        "streetTypeId": "ST",
        "placeName": "ACTON",
        "streetNameDisplayText": "FREDERICK ST S, ACTON"
      }
    ]
  },
  {
    "postal": "L7J0P2",
    "result": []
  },
  {
    "postal": "L7J9M1",
    "result": []
  },
  {
    "postal": "L7J3G0",
    "result": []
  },
  {
    "postal": "L7J9Z2",
    "result": []
  },
  {
    "postal": "L7J2A0",
    "result": []
  },
  {
    "postal": "L7J6Y0",
    "result": []
  },
  {
    "postal": "L7J2Z8",
    "result": [
      {
        "electoralDistricts": [
          {
            "election": null,
            "id": 115,
            "name": "Wellington—Halton Hills"
          }
        ],
        "pollDivisionIds": [
          10142578
        ],
        "postalCode": "L7J2Z8",
        "streetName": "BONNETTE",
        "streetDirectionId": null,
        "streetTypeId": "ST",
        "placeName": "ACTON",
        "streetNameDisplayText": "BONNETTE ST, ACTON"
      },
      {
        "electoralDistricts": [
          {
            "election": null,
            "id": 115,
            "name": "Wellington—Halton Hills"
          }
        ],
        "pollDivisionIds": [
          10142578
        ],
        "postalCode": "L7J2Z8",
        "streetName": "HURST",
        "streetDirectionId": null,
        "streetTypeId": "ST",
        "placeName": "ACTON",
        "streetNameDisplayText": "HURST ST, ACTON"
      }
    ]
  },
  {
    "postal": "L7J7Y3",
    "result": []
  },
  {
    "postal": "L7J6Z5",
    "result": []
  },
  {
    "postal": "L7J6E0",
    "result": []
  },
  {
    "postal": "L7J9B7",
    "result": []
  },
  {
    "postal": "L7J9S5",
    "result": []
  },
  {
    "postal": "L7J3X3",
    "result": []
  },
  {
    "postal": "L7J7R5",
    "result": []
  },
  {
    "postal": "L7J2X3",
    "result": [
      {
        "electoralDistricts": [
          {
            "election": null,
            "id": 115,
            "name": "Wellington—Halton Hills"
          }
        ],
        "pollDivisionIds": [
          10142578
        ],
        "postalCode": "L7J2X3",
        "streetName": "COMMERCE",
        "streetDirectionId": null,
        "streetTypeId": "CRES",
        "placeName": "ACTON",
        "streetNameDisplayText": "COMMERCE CRES, ACTON"
      }
    ]
  },
  {
    "postal": "L7J8Z9",
    "result": []
  },
  {
    "postal": "L7J0N4",
    "result": []
  },
  {
    "postal": "L7J1K1",
    "result": [
      {
        "electoralDistricts": [
          {
            "election": null,
            "id": 115,
            "name": "Wellington—Halton Hills"
          }
        ],
        "pollDivisionIds": [
          10142577
        ],
        "postalCode": "L7J1K1",
        "streetName": "CHURCH",
        "streetDirectionId": "W",
        "streetTypeId": "ST",
        "placeName": "ACTON",
        "streetNameDisplayText": "CHURCH ST W, ACTON"
      }
    ]
  },
  {
    "postal": "L7J1S3",
    "result": [
      {
        "electoralDistricts": [
          {
            "election": null,
            "id": 115,
            "name": "Wellington—Halton Hills"
          }
        ],
        "pollDivisionIds": [
          10142577
        ],
        "postalCode": "L7J1S3",
        "streetName": "KINGHAM",
        "streetDirectionId": null,
        "streetTypeId": "RD",
        "placeName": "ACTON",
        "streetNameDisplayText": "KINGHAM RD, ACTON"
      }
    ]
  },
  {
    "postal": "L7J6M4",
    "result": []
  },
  {
    "postal": "L7J9A9",
    "result": []
  },
  {
    "postal": "L7J9Z9",
    "result": []
  },
  {
    "postal": "L7J6T4",
    "result": []
  },
  {
    "postal": "L7J0B2",
    "result": [
      {
        "electoralDistricts": [
          {
            "election": null,
            "id": 115,
            "name": "Wellington—Halton Hills"
          }
        ],
        "pollDivisionIds": [
          10142577
        ],
        "postalCode": "L7J0B2",
        "streetName": "CHURCH",
        "streetDirectionId": "E",
        "streetTypeId": "ST",
        "placeName": "ACTON",
        "streetNameDisplayText": "CHURCH ST E, ACTON"
      },
      {
        "electoralDistricts": [
          {
            "election": null,
            "id": 115,
            "name": "Wellington—Halton Hills"
          }
        ],
        "pollDivisionIds": [
          10142577
        ],
        "postalCode": "L7J0B2",
        "streetName": "EASTERN",
        "streetDirectionId": null,
        "streetTypeId": "AVE",
        "placeName": "ACTON",
        "streetNameDisplayText": "EASTERN AVE, ACTON"
      }
    ]
  },
  {
    "postal": "L7J2L9",
    "result": [
      {
        "electoralDistricts": [
          {
            "election": null,
            "id": 115,
            "name": "Wellington—Halton Hills"
          }
        ],
        "pollDivisionIds": [
          10142571
        ],
        "postalCode": "L7J2L9",
        "streetName": "15",
        "streetDirectionId": null,
        "streetTypeId": "SIDERD",
        "placeName": "ACTON",
        "streetNameDisplayText": "15 SIDERD, ACTON"
      },
      {
        "electoralDistricts": [
          {
            "election": null,
            "id": 115,
            "name": "Wellington—Halton Hills"
          }
        ],
        "pollDivisionIds": [
          10142577,
          10142571
        ],
        "postalCode": "L7J2L9",
        "streetName": "17",
        "streetDirectionId": null,
        "streetTypeId": "SIDERD",
        "placeName": "ACTON",
        "streetNameDisplayText": "17 SIDERD, ACTON"
      },
      {
        "electoralDistricts": [
          {
            "election": null,
            "id": 115,
            "name": "Wellington—Halton Hills"
          }
        ],
        "pollDivisionIds": [
          10142578
        ],
        "postalCode": "L7J2L9",
        "streetName": "25",
        "streetDirectionId": null,
        "streetTypeId": "HWY",
        "placeName": "ACTON",
        "streetNameDisplayText": "25 HWY, ACTON"
      },
      {
        "electoralDistricts": [
          {
            "election": null,
            "id": 115,
            "name": "Wellington—Halton Hills"
          }
        ],
        "pollDivisionIds": [
          10142578
        ],
        "postalCode": "L7J2L9",
        "streetName": "25 REGIONAL",
        "streetDirectionId": null,
        "streetTypeId": "RD",
        "placeName": "ACTON",
        "streetNameDisplayText": "25 REGIONAL RD, ACTON"
      },
      {
        "electoralDistricts": [
          {
            "election": null,
            "id": 115,
            "name": "Wellington—Halton Hills"
          }
        ],
        "pollDivisionIds": [
          10142578
        ],
        "postalCode": "L7J2L9",
        "streetName": "25",
        "streetDirectionId": null,
        "streetTypeId": "SIDERD",
        "placeName": "ACTON",
        "streetNameDisplayText": "25 SIDERD, ACTON"
      },
      {
        "electoralDistricts": [
          {
            "election": null,
            "id": 115,
            "name": "Wellington—Halton Hills"
          }
        ],
        "pollDivisionIds": [
          10142571
        ],
        "postalCode": "L7J2L9",
        "streetName": "2ND",
        "streetDirectionId": null,
        "streetTypeId": "LINE",
        "placeName": "ACTON",
        "streetNameDisplayText": "2ND LINE, ACTON"
      },
      {
        "electoralDistricts": [
          {
            "election": null,
            "id": 115,
            "name": "Wellington—Halton Hills"
          }
        ],
        "pollDivisionIds": [
          10142578,
          10142577
        ],
        "postalCode": "L7J2L9",
        "streetName": "32",
        "streetDirectionId": null,
        "streetTypeId": "SIDERD",
        "placeName": "ACTON",
        "streetNameDisplayText": "32 SIDERD, ACTON"
      },
      {
        "electoralDistricts": [
          {
            "election": null,
            "id": 115,
            "name": "Wellington—Halton Hills"
          }
        ],
        "pollDivisionIds": [
          10142577
        ],
        "postalCode": "L7J2L9",
        "streetName": "32ND SIDEROAD",
        "streetDirectionId": null,
        "streetTypeId": null,
        "placeName": "ACTON",
        "streetNameDisplayText": "32ND SIDEROAD, ACTON"
      },
      {
        "electoralDistricts": [
          {
            "election": null,
            "id": 115,
            "name": "Wellington—Halton Hills"
          }
        ],
        "pollDivisionIds": [
          10142577
        ],
        "postalCode": "L7J2L9",
        "streetName": "7",
        "streetDirectionId": null,
        "streetTypeId": "HWY",
        "placeName": "ACTON",
        "streetNameDisplayText": "7 HWY, ACTON"
      },
      {
        "electoralDistricts": [
          {
            "election": null,
            "id": 115,
            "name": "Wellington—Halton Hills"
          }
        ],
        "pollDivisionIds": [
          10142577
        ],
        "postalCode": "L7J2L9",
        "streetName": "7",
        "streetDirectionId": null,
        "streetTypeId": null,
        "placeName": "ACTON",
        "streetNameDisplayText": "7, ACTON"
      },
      {
        "electoralDistricts": [
          {
            "election": null,
            "id": 115,
            "name": "Wellington—Halton Hills"
          }
        ],
        "pollDivisionIds": [
          10142577
        ],
        "postalCode": "L7J2L9",
        "streetName": "CREWSON'S",
        "streetDirectionId": null,
        "streetTypeId": "LINE",
        "placeName": "ACTON",
        "streetNameDisplayText": "CREWSON'S LINE, ACTON"
      },
      {
        "electoralDistricts": [
          {
            "election": null,
            "id": 115,
            "name": "Wellington—Halton Hills"
          }
        ],
        "pollDivisionIds": [
          10142577
        ],
        "postalCode": "L7J2L9",
        "streetName": "DUBLIN",
        "streetDirectionId": null,
        "streetTypeId": "LINE",
        "placeName": "ACTON",
        "streetNameDisplayText": "DUBLIN LINE, ACTON"
      },
      {
        "electoralDistricts": [
          {
            "election": null,
            "id": 115,
            "name": "Wellington—Halton Hills"
          }
        ],
        "pollDivisionIds": [
          10142571
        ],
        "postalCode": "L7J2L9",
        "streetName": "ERIN FIRST LINE",
        "streetDirectionId": null,
        "streetTypeId": "LINE",
        "placeName": "ACTON",
        "streetNameDisplayText": "ERIN FIRST LINE LINE, ACTON"
      },
      {
        "electoralDistricts": [
          {
            "election": null,
            "id": 115,
            "name": "Wellington—Halton Hills"
          }
        ],
        "pollDivisionIds": [
          10142571
        ],
        "postalCode": "L7J2L9",
        "streetName": "ERIN FIRST",
        "streetDirectionId": null,
        "streetTypeId": "LINE",
        "placeName": "ACTON",
        "streetNameDisplayText": "ERIN FIRST LINE, ACTON"
      },
      {
        "electoralDistricts": [
          {
            "election": null,
            "id": 115,
            "name": "Wellington—Halton Hills"
          }
        ],
        "pollDivisionIds": [
          10142571
        ],
        "postalCode": "L7J2L9",
        "streetName": "ERIN-HALTON HILLS",
        "streetDirectionId": null,
        "streetTypeId": "TLINE",
        "placeName": "ACTON",
        "streetNameDisplayText": "ERIN-HALTON HILLS TLINE, ACTON"
      },
      {
        "electoralDistricts": [
          {
            "election": null,
            "id": 115,
            "name": "Wellington—Halton Hills"
          }
        ],
        "pollDivisionIds": [
          10142571
        ],
        "postalCode": "L7J2L9",
        "streetName": "FIRST LINE ERIN TP",
        "streetDirectionId": null,
        "streetTypeId": "LINE",
        "placeName": "ACTON",
        "streetNameDisplayText": "FIRST LINE ERIN TP LINE, ACTON"
      },
      {
        "electoralDistricts": [
          {
            "election": null,
            "id": 115,
            "name": "Wellington—Halton Hills"
          }
        ],
        "pollDivisionIds": [
          10142571
        ],
        "postalCode": "L7J2L9",
        "streetName": "FIRST",
        "streetDirectionId": null,
        "streetTypeId": "LINE",
        "placeName": "ACTON",
        "streetNameDisplayText": "FIRST LINE, ACTON"
      },
      {
        "electoralDistricts": [
          {
            "election": null,
            "id": 115,
            "name": "Wellington—Halton Hills"
          }
        ],
        "pollDivisionIds": [
          10142571
        ],
        "postalCode": "L7J2L9",
        "streetName": "FIRST",
        "streetDirectionId": null,
        "streetTypeId": "LINE",
        "placeName": "ROCKWOOD",
        "streetNameDisplayText": "FIRST LINE, ROCKWOOD"
      },
      {
        "electoralDistricts": [
          {
            "election": null,
            "id": 115,
            "name": "Wellington—Halton Hills"
          }
        ],
        "pollDivisionIds": [
          10142571
        ],
        "postalCode": "L7J2L9",
        "streetName": "HALTON-ERIN",
        "streetDirectionId": null,
        "streetTypeId": "TLINE",
        "placeName": "ACTON",
        "streetNameDisplayText": "HALTON-ERIN TLINE, ACTON"
      },
      {
        "electoralDistricts": [
          {
            "election": null,
            "id": 115,
            "name": "Wellington—Halton Hills"
          }
        ],
        "pollDivisionIds": [
          10142571
        ],
        "postalCode": "L7J2L9",
        "streetName": "HWY 125",
        "streetDirectionId": null,
        "streetTypeId": null,
        "placeName": "ACTON",
        "streetNameDisplayText": "HWY 125, ACTON"
      },
      {
        "electoralDistricts": [
          {
            "election": null,
            "id": 115,
            "name": "Wellington—Halton Hills"
          }
        ],
        "pollDivisionIds": [
          10142577,
          10142578
        ],
        "postalCode": "L7J2L9",
        "streetName": "MAIN",
        "streetDirectionId": "N",
        "streetTypeId": "ST",
        "placeName": "ACTON",
        "streetNameDisplayText": "MAIN ST N, ACTON"
      },
      {
        "electoralDistricts": [
          {
            "election": null,
            "id": 115,
            "name": "Wellington—Halton Hills"
          }
        ],
        "pollDivisionIds": [
          10142577,
          10142578
        ],
        "postalCode": "L7J2L9",
        "streetName": "REGIONAL 25",
        "streetDirectionId": null,
        "streetTypeId": "RD",
        "placeName": "ACTON",
        "streetNameDisplayText": "REGIONAL 25 RD, ACTON"
      },
      {
        "electoralDistricts": [
          {
            "election": null,
            "id": 115,
            "name": "Wellington—Halton Hills"
          }
        ],
        "pollDivisionIds": [
          10142571
        ],
        "postalCode": "L7J2L9",
        "streetName": "SECOND",
        "streetDirectionId": null,
        "streetTypeId": "LINE",
        "placeName": "ACTON",
        "streetNameDisplayText": "SECOND LINE, ACTON"
      },
      {
        "electoralDistricts": [
          {
            "election": null,
            "id": 115,
            "name": "Wellington—Halton Hills"
          }
        ],
        "pollDivisionIds": [
          10142555
        ],
        "postalCode": "L7J2L9",
        "streetName": "SECOND",
        "streetDirectionId": null,
        "streetTypeId": "LINE",
        "placeName": "ACTON,ON",
        "streetNameDisplayText": "SECOND LINE, ACTON,ON"
      },
      {
        "electoralDistricts": [
          {
            "election": null,
            "id": 115,
            "name": "Wellington—Halton Hills"
          }
        ],
        "pollDivisionIds": [
          10142571
        ],
        "postalCode": "L7J2L9",
        "streetName": "SIDEROAD 17",
        "streetDirectionId": null,
        "streetTypeId": "SIDERD",
        "placeName": "ACTON",
        "streetNameDisplayText": "SIDEROAD 17 SIDERD, ACTON"
      },
      {
        "electoralDistricts": [
          {
            "election": null,
            "id": 115,
            "name": "Wellington—Halton Hills"
          }
        ],
        "pollDivisionIds": [
          10142571
        ],
        "postalCode": "L7J2L9",
        "streetName": "WELLINGTON 50",
        "streetDirectionId": null,
        "streetTypeId": "RD",
        "placeName": "ACTON",
        "streetNameDisplayText": "WELLINGTON 50 RD, ACTON"
      },
      {
        "electoralDistricts": [
          {
            "election": null,
            "id": 115,
            "name": "Wellington—Halton Hills"
          }
        ],
        "pollDivisionIds": [
          10142571
        ],
        "postalCode": "L7J2L9",
        "streetName": "WELLINGTON RD 124",
        "streetDirectionId": null,
        "streetTypeId": null,
        "placeName": "ACTON",
        "streetNameDisplayText": "WELLINGTON RD 124, ACTON"
      },
      {
        "electoralDistricts": [
          {
            "election": null,
            "id": 115,
            "name": "Wellington—Halton Hills"
          }
        ],
        "pollDivisionIds": [
          10142571
        ],
        "postalCode": "L7J2L9",
        "streetName": "WELLINGTON RD 125",
        "streetDirectionId": null,
        "streetTypeId": null,
        "placeName": "ACTON",
        "streetNameDisplayText": "WELLINGTON RD 125, ACTON"
      },
      {
        "electoralDistricts": [
          {
            "election": null,
            "id": 115,
            "name": "Wellington—Halton Hills"
          }
        ],
        "pollDivisionIds": [
          10142571
        ],
        "postalCode": "L7J2L9",
        "streetName": "WELLINGTON RD 50",
        "streetDirectionId": null,
        "streetTypeId": null,
        "placeName": "ACTON",
        "streetNameDisplayText": "WELLINGTON RD 50, ACTON"
      }
    ]
  },
  {
    "postal": "L7J8K9",
    "result": []
  },
  {
    "postal": "L7J2H9",
    "result": [
      {
        "electoralDistricts": [
          {
            "election": null,
            "id": 115,
            "name": "Wellington—Halton Hills"
          }
        ],
        "pollDivisionIds": [
          10142578
        ],
        "postalCode": "L7J2H9",
        "streetName": "CHURCHILL",
        "streetDirectionId": "N",
        "streetTypeId": "RD",
        "placeName": "ACTON",
        "streetNameDisplayText": "CHURCHILL RD N, ACTON"
      }
    ]
  },
  {
    "postal": "L7J3Z6",
    "result": []
  },
  {
    "postal": "L7J3B0",
    "result": []
  },
  {
    "postal": "L7J2H8",
    "result": [
      {
        "electoralDistricts": [
          {
            "election": null,
            "id": 115,
            "name": "Wellington—Halton Hills"
          }
        ],
        "pollDivisionIds": [
          10142578
        ],
        "postalCode": "L7J2H8",
        "streetName": "CHURCHILL",
        "streetDirectionId": "N",
        "streetTypeId": "RD",
        "placeName": "ACTON",
        "streetNameDisplayText": "CHURCHILL RD N, ACTON"
      }
    ]
  },
  {
    "postal": "L7J3X2",
    "result": []
  },
  {
    "postal": "L7J2E9",
    "result": [
      {
        "electoralDistricts": [
          {
            "election": null,
            "id": 115,
            "name": "Wellington—Halton Hills"
          }
        ],
        "pollDivisionIds": [
          10142578
        ],
        "postalCode": "L7J2E9",
        "streetName": "WALLACE",
        "streetDirectionId": null,
        "streetTypeId": "ST",
        "placeName": "ACTON",
        "streetNameDisplayText": "WALLACE ST, ACTON"
      }
    ]
  },
  {
    "postal": "L7J9P6",
    "result": []
  },
  {
    "postal": "L7J9E2",
    "result": []
  },
  {
    "postal": "L7J9H2",
    "result": []
  },
  {
    "postal": "L7J1S8",
    "result": [
      {
        "electoralDistricts": [
          {
            "election": null,
            "id": 115,
            "name": "Wellington—Halton Hills"
          }
        ],
        "pollDivisionIds": [
          10142577
        ],
        "postalCode": "L7J1S8",
        "streetName": "LAKEVIEW",
        "streetDirectionId": null,
        "streetTypeId": "AVE",
        "placeName": "ACTON",
        "streetNameDisplayText": "LAKEVIEW AVE, ACTON"
      }
    ]
  },
  {
    "postal": "L7J3M6",
    "result": []
  },
  {
    "postal": "L7J6Z8",
    "result": []
  },
  {
    "postal": "L7J4J2",
    "result": []
  },
  {
    "postal": "L7J9Y1",
    "result": []
  },
  {
    "postal": "L7J8V6",
    "result": []
  },
  {
    "postal": "L7J6B2",
    "result": []
  },
  {
    "postal": "L7J1P8",
    "result": [
      {
        "electoralDistricts": [
          {
            "election": null,
            "id": 115,
            "name": "Wellington—Halton Hills"
          }
        ],
        "pollDivisionIds": [
          10142577,
          10142578
        ],
        "postalCode": "L7J1P8",
        "streetName": "QUEEN",
        "streetDirectionId": "E",
        "streetTypeId": "ST",
        "placeName": "ACTON",
        "streetNameDisplayText": "QUEEN ST E, ACTON"
      },
      {
        "electoralDistricts": [
          {
            "election": null,
            "id": 115,
            "name": "Wellington—Halton Hills"
          }
        ],
        "pollDivisionIds": [
          10142578
        ],
        "postalCode": "L7J1P8",
        "streetName": "QUEEN",
        "streetDirectionId": null,
        "streetTypeId": "ST",
        "placeName": "ACTON",
        "streetNameDisplayText": "QUEEN ST, ACTON"
      },
      {
        "electoralDistricts": [
          {
            "election": null,
            "id": 115,
            "name": "Wellington—Halton Hills"
          }
        ],
        "pollDivisionIds": [
          10142578
        ],
        "postalCode": "L7J1P8",
        "streetName": "QUEEN",
        "streetDirectionId": null,
        "streetTypeId": "ST",
        "placeName": "ACTON,ON",
        "streetNameDisplayText": "QUEEN ST, ACTON,ON"
      }
    ]
  },
  {
    "postal": "L7J0V8",
    "result": []
  },
  {
    "postal": "L7J4Y0",
    "result": []
  },
  {
    "postal": "L7J2T4",
    "result": [
      {
        "electoralDistricts": [
          {
            "election": null,
            "id": 115,
            "name": "Wellington—Halton Hills"
          }
        ],
        "pollDivisionIds": [
          10142578
        ],
        "postalCode": "L7J2T4",
        "streetName": "WILLOW",
        "streetDirectionId": "N",
        "streetTypeId": "ST",
        "placeName": "ACTON",
        "streetNameDisplayText": "WILLOW ST N, ACTON"
      },
      {
        "electoralDistricts": [
          {
            "election": null,
            "id": 115,
            "name": "Wellington—Halton Hills"
          }
        ],
        "pollDivisionIds": [
          10142578
        ],
        "postalCode": "L7J2T4",
        "streetName": "WILLOW",
        "streetDirectionId": "S",
        "streetTypeId": "ST",
        "placeName": "ACTON",
        "streetNameDisplayText": "WILLOW ST S, ACTON"
      }
    ]
  },
  {
    "postal": "L7J2S3",
    "result": [
      {
        "electoralDistricts": [
          {
            "election": null,
            "id": 115,
            "name": "Wellington—Halton Hills"
          }
        ],
        "pollDivisionIds": [
          10142578
        ],
        "postalCode": "L7J2S3",
        "streetName": "MCDONALD",
        "streetDirectionId": null,
        "streetTypeId": "BLVD",
        "placeName": "ACTON",
        "streetNameDisplayText": "MCDONALD BLVD, ACTON"
      }
    ]
  },
  {
    "postal": "L7J0K0",
    "result": []
  },
  {
    "postal": "L7J5N1",
    "result": []
  },
  {
    "postal": "L7J7T0",
    "result": []
  },
  {
    "postal": "L7J9N2",
    "result": []
  },
  {
    "postal": "L7J5L1",
    "result": []
  },
  {
    "postal": "L7J7G5",
    "result": []
  },
  {
    "postal": "L7J6K2",
    "result": []
  },
  {
    "postal": "L7J6P9",
    "result": []
  },
  {
    "postal": "L7J0E6",
    "result": []
  },
  {
    "postal": "L7J8R9",
    "result": []
  },
  {
    "postal": "L7J3G9",
    "result": []
  },
  {
    "postal": "L7J0V7",
    "result": []
  },
  {
    "postal": "L7J2Z1",
    "result": [
      {
        "electoralDistricts": [
          {
            "election": null,
            "id": 115,
            "name": "Wellington—Halton Hills"
          }
        ],
        "pollDivisionIds": [
          10142578
        ],
        "postalCode": "L7J2Z1",
        "streetName": "BEARDMORE",
        "streetDirectionId": null,
        "streetTypeId": "CRES",
        "placeName": "ACTON",
        "streetNameDisplayText": "BEARDMORE CRES, ACTON"
      },
      {
        "electoralDistricts": [
          {
            "election": null,
            "id": 115,
            "name": "Wellington—Halton Hills"
          }
        ],
        "pollDivisionIds": [
          10142578
        ],
        "postalCode": "L7J2Z1",
        "streetName": "TANNERS",
        "streetDirectionId": null,
        "streetTypeId": "DR",
        "placeName": "ACTON",
        "streetNameDisplayText": "TANNERS DR, ACTON"
      }
    ]
  },
  {
    "postal": "L7J7N1",
    "result": []
  },
  {
    "postal": "L7J3C6",
    "result": []
  },
  {
    "postal": "L7J4M1",
    "result": []
  },
  {
    "postal": "L7J9K2",
    "result": []
  },
  {
    "postal": "L7J9S6",
    "result": []
  },
  {
    "postal": "L7J4X1",
    "result": []
  },
  {
    "postal": "L7J8W2",
    "result": []
  },
  {
    "postal": "L7J7N2",
    "result": []
  },
  {
    "postal": "L7J8S3",
    "result": []
  },
  {
    "postal": "L7J4V0",
    "result": []
  },
  {
    "postal": "L7J6W4",
    "result": []
  },
  {
    "postal": "L7J5M1",
    "result": []
  },
  {
    "postal": "L7J0S4",
    "result": []
  },
  {
    "postal": "L7J5X6",
    "result": []
  },
  {
    "postal": "L7J8L5",
    "result": []
  },
  {
    "postal": "L7J5M8",
    "result": []
  },
  {
    "postal": "L7J2G3",
    "result": [
      {
        "electoralDistricts": [
          {
            "election": null,
            "id": 115,
            "name": "Wellington—Halton Hills"
          }
        ],
        "pollDivisionIds": [
          10142578
        ],
        "postalCode": "L7J2G3",
        "streetName": "CLARE",
        "streetDirectionId": null,
        "streetTypeId": "CRT",
        "placeName": "ACTON",
        "streetNameDisplayText": "CLARE CRT, ACTON"
      }
    ]
  },
  {
    "postal": "L7J8E4",
    "result": []
  },
  {
    "postal": "L7J7S9",
    "result": []
  },
  {
    "postal": "L7J1K3",
    "result": [
      {
        "electoralDistricts": [
          {
            "election": null,
            "id": 115,
            "name": "Wellington—Halton Hills"
          }
        ],
        "pollDivisionIds": [
          10142577
        ],
        "postalCode": "L7J1K3",
        "streetName": "CHURCH",
        "streetDirectionId": "E",
        "streetTypeId": "ST",
        "placeName": "ACTON",
        "streetNameDisplayText": "CHURCH ST E, ACTON"
      }
    ]
  },
  {
    "postal": "L7J4E1",
    "result": []
  },
  {
    "postal": "L7J4R2",
    "result": []
  },
  {
    "postal": "L7J6T0",
    "result": []
  },
  {
    "postal": "L7J3K5",
    "result": []
  },
  {
    "postal": "L7J3S3",
    "result": []
  },
  {
    "postal": "L7J3L4",
    "result": []
  },
  {
    "postal": "L7J9Y2",
    "result": []
  },
  {
    "postal": "L7J1E0",
    "result": []
  },
  {
    "postal": "L7J9A4",
    "result": []
  },
  {
    "postal": "L7J1L3",
    "result": [
      {
        "electoralDistricts": [
          {
            "election": null,
            "id": 115,
            "name": "Wellington—Halton Hills"
          }
        ],
        "pollDivisionIds": [
          10142577
        ],
        "postalCode": "L7J1L3",
        "streetName": "CHURCH",
        "streetDirectionId": "E",
        "streetTypeId": "ST",
        "placeName": "ACTON",
        "streetNameDisplayText": "CHURCH ST E, ACTON"
      }
    ]
  },
  {
    "postal": "L7J6N1",
    "result": []
  },
  {
    "postal": "L7J6G7",
    "result": []
  },
  {
    "postal": "L7J7W1",
    "result": []
  },
  {
    "postal": "L7J4M6",
    "result": []
  },
  {
    "postal": "L7J1K0",
    "result": []
  },
  {
    "postal": "L7J3E2",
    "result": []
  },
  {
    "postal": "L7J5H4",
    "result": []
  },
  {
    "postal": "L7J1K7",
    "result": [
      {
        "electoralDistricts": [
          {
            "election": null,
            "id": 115,
            "name": "Wellington—Halton Hills"
          }
        ],
        "pollDivisionIds": [
          10142577
        ],
        "postalCode": "L7J1K7",
        "streetName": "CHURCH",
        "streetDirectionId": "E",
        "streetTypeId": "ST",
        "placeName": "ACTON",
        "streetNameDisplayText": "CHURCH ST E, ACTON"
      }
    ]
  },
  {
    "postal": "L7J0H0",
    "result": []
  },
  {
    "postal": "L7J0J3",
    "result": []
  },
  {
    "postal": "L7J1X6",
    "result": [
      {
        "electoralDistricts": [
          {
            "election": null,
            "id": 115,
            "name": "Wellington—Halton Hills"
          }
        ],
        "pollDivisionIds": [
          10142577
        ],
        "postalCode": "L7J1X6",
        "streetName": "MAIN",
        "streetDirectionId": "S",
        "streetTypeId": "ST",
        "placeName": "ACTON",
        "streetNameDisplayText": "MAIN ST S, ACTON"
      }
    ]
  },
  {
    "postal": "L7J2Z6",
    "result": [
      {
        "electoralDistricts": [
          {
            "election": null,
            "id": 115,
            "name": "Wellington—Halton Hills"
          }
        ],
        "pollDivisionIds": [
          10142578
        ],
        "postalCode": "L7J2Z6",
        "streetName": "BONNETTE",
        "streetDirectionId": null,
        "streetTypeId": "ST",
        "placeName": "ACTON",
        "streetNameDisplayText": "BONNETTE ST, ACTON"
      },
      {
        "electoralDistricts": [
          {
            "election": null,
            "id": 115,
            "name": "Wellington—Halton Hills"
          }
        ],
        "pollDivisionIds": [
          10142578
        ],
        "postalCode": "L7J2Z6",
        "streetName": "SOMERVILLE",
        "streetDirectionId": null,
        "streetTypeId": "RD",
        "placeName": "ACTON",
        "streetNameDisplayText": "SOMERVILLE RD, ACTON"
      },
      {
        "electoralDistricts": [
          {
            "election": null,
            "id": 115,
            "name": "Wellington—Halton Hills"
          }
        ],
        "pollDivisionIds": [
          10142578
        ],
        "postalCode": "L7J2Z6",
        "streetName": "TANNERS",
        "streetDirectionId": null,
        "streetTypeId": "DR",
        "placeName": "ACTON",
        "streetNameDisplayText": "TANNERS DR, ACTON"
      }
    ]
  },
  {
    "postal": "L7J4R9",
    "result": []
  },
  {
    "postal": "L7J0W8",
    "result": []
  },
  {
    "postal": "L7J1L4",
    "result": [
      {
        "electoralDistricts": [
          {
            "election": null,
            "id": 115,
            "name": "Wellington—Halton Hills"
          }
        ],
        "pollDivisionIds": [
          10142577
        ],
        "postalCode": "L7J1L4",
        "streetName": "CHURCH",
        "streetDirectionId": "E",
        "streetTypeId": "ST",
        "placeName": "ACTON",
        "streetNameDisplayText": "CHURCH ST E, ACTON"
      }
    ]
  },
  {
    "postal": "L7J0C8",
    "result": []
  },
  {
    "postal": "L7J9X7",
    "result": []
  },
  {
    "postal": "L7J4T1",
    "result": []
  },
  {
    "postal": "L7J0M0",
    "result": []
  },
  {
    "postal": "L7J6A2",
    "result": []
  },
  {
    "postal": "L7J9S8",
    "result": []
  },
  {
    "postal": "L7J9T4",
    "result": []
  },
  {
    "postal": "L7J9Y4",
    "result": []
  },
  {
    "postal": "L7J6G5",
    "result": []
  },
  {
    "postal": "L7J6H9",
    "result": []
  },
  {
    "postal": "L7J2P3",
    "result": [
      {
        "electoralDistricts": [
          {
            "election": null,
            "id": 115,
            "name": "Wellington—Halton Hills"
          }
        ],
        "pollDivisionIds": [
          10142555,
          10142577
        ],
        "postalCode": "L7J2P3",
        "streetName": "KINGHAM",
        "streetDirectionId": null,
        "streetTypeId": "RD",
        "placeName": "ACTON",
        "streetNameDisplayText": "KINGHAM RD, ACTON"
      }
    ]
  },
  {
    "postal": "L7J1T6",
    "result": [
      {
        "electoralDistricts": [
          {
            "election": null,
            "id": 115,
            "name": "Wellington—Halton Hills"
          }
        ],
        "pollDivisionIds": [
          10142577
        ],
        "postalCode": "L7J1T6",
        "streetName": "ELMORE",
        "streetDirectionId": null,
        "streetTypeId": "DR",
        "placeName": "ACTON",
        "streetNameDisplayText": "ELMORE DR, ACTON"
      }
    ]
  },
  {
    "postal": "L7J4P6",
    "result": []
  },
  {
    "postal": "L7J3K1",
    "result": []
  },
  {
    "postal": "L7J6X4",
    "result": []
  },
  {
    "postal": "L7J4M8",
    "result": []
  },
  {
    "postal": "L7J2Y1",
    "result": [
      {
        "electoralDistricts": [
          {
            "election": null,
            "id": 115,
            "name": "Wellington—Halton Hills"
          }
        ],
        "pollDivisionIds": [
          10142578
        ],
        "postalCode": "L7J2Y1",
        "streetName": "DAIRY",
        "streetDirectionId": null,
        "streetTypeId": "DR",
        "placeName": "ACTON",
        "streetNameDisplayText": "DAIRY DR, ACTON"
      }
    ]
  },
  {
    "postal": "L7J6M1",
    "result": []
  },
  {
    "postal": "L7J5L8",
    "result": []
  },
  {
    "postal": "L7J3P6",
    "result": []
  },
  {
    "postal": "L7J9A5",
    "result": []
  },
  {
    "postal": "L7J7K1",
    "result": []
  },
  {
    "postal": "L7J3J4",
    "result": []
  },
  {
    "postal": "L7J5E7",
    "result": []
  },
  {
    "postal": "L7J3A7",
    "result": [
      {
        "electoralDistricts": [
          {
            "election": null,
            "id": 115,
            "name": "Wellington—Halton Hills"
          }
        ],
        "pollDivisionIds": [
          10142578
        ],
        "postalCode": "L7J3A7",
        "streetName": "DOCTOR MOORE",
        "streetDirectionId": null,
        "streetTypeId": "CRT",
        "placeName": "ACTON",
        "streetNameDisplayText": "DOCTOR MOORE CRT, ACTON"
      }
    ]
  },
  {
    "postal": "L7J1B9",
    "result": [
      {
        "electoralDistricts": [
          {
            "election": null,
            "id": 115,
            "name": "Wellington—Halton Hills"
          }
        ],
        "pollDivisionIds": [
          10142578
        ],
        "postalCode": "L7J1B9",
        "streetName": "SCHOOL",
        "streetDirectionId": null,
        "streetTypeId": "LANE",
        "placeName": "ACTON",
        "streetNameDisplayText": "SCHOOL LANE, ACTON"
      }
    ]
  },
  {
    "postal": "L7J9E8",
    "result": []
  },
  {
    "postal": "L7J1C9",
    "result": [
      {
        "electoralDistricts": [
          {
            "election": null,
            "id": 115,
            "name": "Wellington—Halton Hills"
          }
        ],
        "pollDivisionIds": [
          10142578
        ],
        "postalCode": "L7J1C9",
        "streetName": "PERTH",
        "streetDirectionId": null,
        "streetTypeId": "ST",
        "placeName": "ACTON",
        "streetNameDisplayText": "PERTH ST, ACTON"
      }
    ]
  },
  {
    "postal": "L7J3B5",
    "result": [
      {
        "electoralDistricts": [
          {
            "election": null,
            "id": 115,
            "name": "Wellington—Halton Hills"
          }
        ],
        "pollDivisionIds": [
          10142578
        ],
        "postalCode": "L7J3B5",
        "streetName": "DIVISION",
        "streetDirectionId": null,
        "streetTypeId": "ST",
        "placeName": "ACTON",
        "streetNameDisplayText": "DIVISION ST, ACTON"
      }
    ]
  },
  {
    "postal": "L7J8R0",
    "result": []
  },
  {
    "postal": "L7J3P2",
    "result": []
  },
  {
    "postal": "L7J5V4",
    "result": []
  },
  {
    "postal": "L7J4H0",
    "result": []
  },
  {
    "postal": "L7J4S7",
    "result": []
  },
  {
    "postal": "L7J6C2",
    "result": []
  },
  {
    "postal": "L7J8W3",
    "result": []
  },
  {
    "postal": "L7J4M5",
    "result": []
  },
  {
    "postal": "L7J5T1",
    "result": []
  },
  {
    "postal": "L7J3B3",
    "result": [
      {
        "electoralDistricts": [
          {
            "election": null,
            "id": 115,
            "name": "Wellington—Halton Hills"
          }
        ],
        "pollDivisionIds": [
          10142578
        ],
        "postalCode": "L7J3B3",
        "streetName": "RACHLIN",
        "streetDirectionId": null,
        "streetTypeId": "DR",
        "placeName": "ACTON",
        "streetNameDisplayText": "RACHLIN DR, ACTON"
      },
      {
        "electoralDistricts": [
          {
            "election": null,
            "id": 115,
            "name": "Wellington—Halton Hills"
          }
        ],
        "pollDivisionIds": [
          10142578
        ],
        "postalCode": "L7J3B3",
        "streetName": "SALMON",
        "streetDirectionId": null,
        "streetTypeId": "WAY",
        "placeName": "ACTON",
        "streetNameDisplayText": "SALMON WAY, ACTON"
      }
    ]
  },
  {
    "postal": "L7J6C6",
    "result": []
  },
  {
    "postal": "L7J7N8",
    "result": []
  },
  {
    "postal": "L7J2Y3",
    "result": [
      {
        "electoralDistricts": [
          {
            "election": null,
            "id": 115,
            "name": "Wellington—Halton Hills"
          }
        ],
        "pollDivisionIds": [
          10142578
        ],
        "postalCode": "L7J2Y3",
        "streetName": "SPRUCE",
        "streetDirectionId": null,
        "streetTypeId": "BLVD",
        "placeName": "ACTON",
        "streetNameDisplayText": "SPRUCE BLVD, ACTON"
      }
    ]
  },
  {
    "postal": "L7J2R6",
    "result": [
      {
        "electoralDistricts": [
          {
            "election": null,
            "id": 115,
            "name": "Wellington—Halton Hills"
          }
        ],
        "pollDivisionIds": [
          10142578
        ],
        "postalCode": "L7J2R6",
        "streetName": "NORMAN",
        "streetDirectionId": null,
        "streetTypeId": "AVE",
        "placeName": "ACTON",
        "streetNameDisplayText": "NORMAN AVE, ACTON"
      }
    ]
  },
  {
    "postal": "L7J7N3",
    "result": []
  },
  {
    "postal": "L7J8J2",
    "result": []
  },
  {
    "postal": "L7J6A9",
    "result": []
  },
  {
    "postal": "L7J3V2",
    "result": []
  },
  {
    "postal": "L7J2N3",
    "result": [
      {
        "electoralDistricts": [
          {
            "election": null,
            "id": 115,
            "name": "Wellington—Halton Hills"
          }
        ],
        "pollDivisionIds": [
          10142578
        ],
        "postalCode": "L7J2N3",
        "streetName": "QUEEN",
        "streetDirectionId": "E",
        "streetTypeId": "ST",
        "placeName": "ACTON",
        "streetNameDisplayText": "QUEEN ST E, ACTON"
      }
    ]
  },
  {
    "postal": "L7J1S5",
    "result": [
      {
        "electoralDistricts": [
          {
            "election": null,
            "id": 115,
            "name": "Wellington—Halton Hills"
          }
        ],
        "pollDivisionIds": [
          10142577
        ],
        "postalCode": "L7J1S5",
        "streetName": "GUELPH",
        "streetDirectionId": "W",
        "streetTypeId": "ST",
        "placeName": "ACTON",
        "streetNameDisplayText": "GUELPH ST W, ACTON"
      },
      {
        "electoralDistricts": [
          {
            "election": null,
            "id": 115,
            "name": "Wellington—Halton Hills"
          }
        ],
        "pollDivisionIds": [
          10142577
        ],
        "postalCode": "L7J1S5",
        "streetName": "GUELPH",
        "streetDirectionId": null,
        "streetTypeId": "ST",
        "placeName": "ACTON",
        "streetNameDisplayText": "GUELPH ST, ACTON"
      },
      {
        "electoralDistricts": [
          {
            "election": null,
            "id": 115,
            "name": "Wellington—Halton Hills"
          }
        ],
        "pollDivisionIds": [
          10142571
        ],
        "postalCode": "L7J1S5",
        "streetName": "SECOND",
        "streetDirectionId": null,
        "streetTypeId": "LINE",
        "placeName": "ACTON",
        "streetNameDisplayText": "SECOND LINE, ACTON"
      }
    ]
  },
  {
    "postal": "L7J4T7",
    "result": []
  },
  {
    "postal": "L7J6Y7",
    "result": []
  },
  {
    "postal": "L7J0W7",
    "result": []
  },
  {
    "postal": "L7J2W9",
    "result": [
      {
        "electoralDistricts": [
          {
            "election": null,
            "id": 115,
            "name": "Wellington—Halton Hills"
          }
        ],
        "pollDivisionIds": [
          10142578
        ],
        "postalCode": "L7J2W9",
        "streetName": "LASBY",
        "streetDirectionId": null,
        "streetTypeId": "LANE",
        "placeName": "ACTON",
        "streetNameDisplayText": "LASBY LANE, ACTON"
      }
    ]
  },
  {
    "postal": "L7J8V0",
    "result": []
  },
  {
    "postal": "L7J0H4",
    "result": []
  },
  {
    "postal": "L7J2T1",
    "result": [
      {
        "electoralDistricts": [
          {
            "election": null,
            "id": 115,
            "name": "Wellington—Halton Hills"
          }
        ],
        "pollDivisionIds": [
          10142577,
          10142578
        ],
        "postalCode": "L7J2T1",
        "streetName": "GREENORE",
        "streetDirectionId": null,
        "streetTypeId": "CRES",
        "placeName": "ACTON",
        "streetNameDisplayText": "GREENORE CRES, ACTON"
      }
    ]
  },
  {
    "postal": "L7J1B1",
    "result": [
      {
        "electoralDistricts": [
          {
            "election": null,
            "id": 115,
            "name": "Wellington—Halton Hills"
          }
        ],
        "pollDivisionIds": [
          10142578
        ],
        "postalCode": "L7J1B1",
        "streetName": "MCDONALD",
        "streetDirectionId": null,
        "streetTypeId": "BLVD",
        "placeName": "ACTON",
        "streetNameDisplayText": "MCDONALD BLVD, ACTON"
      }
    ]
  },
  {
    "postal": "L7J8B6",
    "result": []
  },
  {
    "postal": "L7J6H1",
    "result": []
  },
  {
    "postal": "L7J8T8",
    "result": []
  },
  {
    "postal": "L7J0T4",
    "result": []
  },
  {
    "postal": "L7J2C4",
    "result": [
      {
        "electoralDistricts": [
          {
            "election": null,
            "id": 115,
            "name": "Wellington—Halton Hills"
          }
        ],
        "pollDivisionIds": [
          10142577
        ],
        "postalCode": "L7J2C4",
        "streetName": "WILBUR",
        "streetDirectionId": "N",
        "streetTypeId": "ST",
        "placeName": "ACTON",
        "streetNameDisplayText": "WILBUR ST N, ACTON"
      }
    ]
  },
  {
    "postal": "L7J8N3",
    "result": []
  },
  {
    "postal": "L7J4L8",
    "result": []
  },
  {
    "postal": "L7J2B5",
    "result": [
      {
        "electoralDistricts": [
          {
            "election": null,
            "id": 115,
            "name": "Wellington—Halton Hills"
          }
        ],
        "pollDivisionIds": [
          10142577
        ],
        "postalCode": "L7J2B5",
        "streetName": "ELGIN",
        "streetDirectionId": "S",
        "streetTypeId": "ST",
        "placeName": "ACTON",
        "streetNameDisplayText": "ELGIN ST S, ACTON"
      }
    ]
  },
  {
    "postal": "L7J3H1",
    "result": []
  },
  {
    "postal": "L7J4Y1",
    "result": []
  },
  {
    "postal": "L7J7E2",
    "result": []
  },
  {
    "postal": "L7J2P5",
    "result": [
      {
        "electoralDistricts": [
          {
            "election": null,
            "id": 115,
            "name": "Wellington—Halton Hills"
          }
        ],
        "pollDivisionIds": [
          10142577
        ],
        "postalCode": "L7J2P5",
        "streetName": "STOREY",
        "streetDirectionId": null,
        "streetTypeId": "DR",
        "placeName": "ACTON",
        "streetNameDisplayText": "STOREY DR, ACTON"
      }
    ]
  },
  {
    "postal": "L7J8R7",
    "result": []
  },
  {
    "postal": "L7J9P1",
    "result": []
  },
  {
    "postal": "L7J3B8",
    "result": []
  },
  {
    "postal": "L7J3P7",
    "result": []
  },
  {
    "postal": "L7J9B2",
    "result": []
  },
  {
    "postal": "L7J6Z3",
    "result": []
  },
  {
    "postal": "L7J4N5",
    "result": []
  },
  {
    "postal": "L7J8T3",
    "result": []
  },
  {
    "postal": "L7J1V2",
    "result": [
      {
        "electoralDistricts": [
          {
            "election": null,
            "id": 115,
            "name": "Wellington—Halton Hills"
          }
        ],
        "pollDivisionIds": [
          10142577
        ],
        "postalCode": "L7J1V2",
        "streetName": "TYLER",
        "streetDirectionId": null,
        "streetTypeId": "AVE",
        "placeName": "ACTON",
        "streetNameDisplayText": "TYLER AVE, ACTON"
      }
    ]
  },
  {
    "postal": "L7J1Y0",
    "result": []
  },
  {
    "postal": "L7J3G6",
    "result": []
  },
  {
    "postal": "L7J3H7",
    "result": []
  },
  {
    "postal": "L7J7X8",
    "result": []
  },
  {
    "postal": "L7J0C7",
    "result": []
  },
  {
    "postal": "L7J0W9",
    "result": []
  },
  {
    "postal": "L7J8E6",
    "result": []
  },
  {
    "postal": "L7J9Z8",
    "result": []
  },
  {
    "postal": "L7J3P4",
    "result": []
  },
  {
    "postal": "L7J6L8",
    "result": []
  },
  {
    "postal": "L7J2R4",
    "result": [
      {
        "electoralDistricts": [
          {
            "election": null,
            "id": 115,
            "name": "Wellington—Halton Hills"
          }
        ],
        "pollDivisionIds": [
          10142578
        ],
        "postalCode": "L7J2R4",
        "streetName": "NORMAN",
        "streetDirectionId": null,
        "streetTypeId": "AVE",
        "placeName": "ACTON",
        "streetNameDisplayText": "NORMAN AVE, ACTON"
      }
    ]
  },
  {
    "postal": "L7J2W1",
    "result": []
  },
  {
    "postal": "L7J9H8",
    "result": []
  },
  {
    "postal": "L7J8X9",
    "result": []
  },
  {
    "postal": "L7J7H4",
    "result": []
  },
  {
    "postal": "L7J3J1",
    "result": []
  },
  {
    "postal": "L7J1P4",
    "result": [
      {
        "electoralDistricts": [
          {
            "election": null,
            "id": 115,
            "name": "Wellington—Halton Hills"
          }
        ],
        "pollDivisionIds": [
          10142577
        ],
        "postalCode": "L7J1P4",
        "streetName": "COBBLEHILL",
        "streetDirectionId": null,
        "streetTypeId": "RD",
        "placeName": "ACTON",
        "streetNameDisplayText": "COBBLEHILL RD, ACTON"
      }
    ]
  },
  {
    "postal": "L7J2A3",
    "result": [
      {
        "electoralDistricts": [
          {
            "election": null,
            "id": 115,
            "name": "Wellington—Halton Hills"
          }
        ],
        "pollDivisionIds": [
          10142577
        ],
        "postalCode": "L7J2A3",
        "streetName": "WILLOW",
        "streetDirectionId": "S",
        "streetTypeId": "ST",
        "placeName": "ACTON",
        "streetNameDisplayText": "WILLOW ST S, ACTON"
      }
    ]
  },
  {
    "postal": "L7J0Z1",
    "result": []
  },
  {
    "postal": "L7J1C1",
    "result": [
      {
        "electoralDistricts": [
          {
            "election": null,
            "id": 115,
            "name": "Wellington—Halton Hills"
          }
        ],
        "pollDivisionIds": [
          10142578
        ],
        "postalCode": "L7J1C1",
        "streetName": "RIVER",
        "streetDirectionId": null,
        "streetTypeId": "ST",
        "placeName": "ACTON",
        "streetNameDisplayText": "RIVER ST, ACTON"
      }
    ]
  },
  {
    "postal": "L7J0H3",
    "result": []
  },
  {
    "postal": "L7J7B0",
    "result": []
  },
  {
    "postal": "L7J5K2",
    "result": []
  },
  {
    "postal": "L7J1E9",
    "result": [
      {
        "electoralDistricts": [
          {
            "election": null,
            "id": 115,
            "name": "Wellington—Halton Hills"
          }
        ],
        "pollDivisionIds": [
          10142578
        ],
        "postalCode": "L7J1E9",
        "streetName": "ROSEMARY",
        "streetDirectionId": null,
        "streetTypeId": "RD",
        "placeName": "ACTON",
        "streetNameDisplayText": "ROSEMARY RD, ACTON"
      }
    ]
  },
  {
    "postal": "L7J9W7",
    "result": []
  },
  {
    "postal": "L7J5W6",
    "result": []
  },
  {
    "postal": "L7J6S6",
    "result": []
  },
  {
    "postal": "L7J2P8",
    "result": [
      {
        "electoralDistricts": [
          {
            "election": null,
            "id": 115,
            "name": "Wellington—Halton Hills"
          }
        ],
        "pollDivisionIds": [
          10142577
        ],
        "postalCode": "L7J2P8",
        "streetName": "KINGHAM",
        "streetDirectionId": null,
        "streetTypeId": "RD",
        "placeName": "ACTON",
        "streetNameDisplayText": "KINGHAM RD, ACTON"
      }
    ]
  },
  {
    "postal": "L7J4P8",
    "result": []
  },
  {
    "postal": "L7J0V9",
    "result": []
  },
  {
    "postal": "L7J5Y2",
    "result": []
  },
  {
    "postal": "L7J7Z7",
    "result": []
  },
  {
    "postal": "L7J6Y8",
    "result": []
  },
  {
    "postal": "L7J2G7",
    "result": [
      {
        "electoralDistricts": [
          {
            "election": null,
            "id": 115,
            "name": "Wellington—Halton Hills"
          }
        ],
        "pollDivisionIds": [
          10142578
        ],
        "postalCode": "L7J2G7",
        "streetName": "YOUNG",
        "streetDirectionId": null,
        "streetTypeId": "ST",
        "placeName": "ACTON",
        "streetNameDisplayText": "YOUNG ST, ACTON"
      }
    ]
  },
  {
    "postal": "L7J8C1",
    "result": []
  },
  {
    "postal": "L7J5C5",
    "result": []
  },
  {
    "postal": "L7J2X8",
    "result": [
      {
        "electoralDistricts": [
          {
            "election": null,
            "id": 115,
            "name": "Wellington—Halton Hills"
          }
        ],
        "pollDivisionIds": [
          10142577,
          10142578
        ],
        "postalCode": "L7J2X8",
        "streetName": "DAIRY",
        "streetDirectionId": null,
        "streetTypeId": "DR",
        "placeName": "ACTON",
        "streetNameDisplayText": "DAIRY DR, ACTON"
      }
    ]
  },
  {
    "postal": "L7J1W5",
    "result": [
      {
        "electoralDistricts": [
          {
            "election": null,
            "id": 115,
            "name": "Wellington—Halton Hills"
          }
        ],
        "pollDivisionIds": [
          10142578
        ],
        "postalCode": "L7J1W5",
        "streetName": "MAIN",
        "streetDirectionId": "N",
        "streetTypeId": "ST",
        "placeName": "ACTON",
        "streetNameDisplayText": "MAIN ST N, ACTON"
      }
    ]
  },
  {
    "postal": "L7J7G0",
    "result": []
  },
  {
    "postal": "L7J8J8",
    "result": []
  },
  {
    "postal": "L7J3Y0",
    "result": []
  },
  {
    "postal": "L7J9T7",
    "result": []
  },
  {
    "postal": "L7J5P4",
    "result": []
  },
  {
    "postal": "L7J4B0",
    "result": []
  },
  {
    "postal": "L7J9N8",
    "result": []
  },
  {
    "postal": "L7J4A7",
    "result": []
  },
  {
    "postal": "L7J4H9",
    "result": []
  },
  {
    "postal": "L7J6X1",
    "result": []
  },
  {
    "postal": "L7J9Y7",
    "result": []
  },
  {
    "postal": "L7J2Y5",
    "result": [
      {
        "electoralDistricts": [
          {
            "election": null,
            "id": 115,
            "name": "Wellington—Halton Hills"
          }
        ],
        "pollDivisionIds": [
          10142578
        ],
        "postalCode": "L7J2Y5",
        "streetName": "QUEEN",
        "streetDirectionId": "E",
        "streetTypeId": "ST",
        "placeName": "ACTON",
        "streetNameDisplayText": "QUEEN ST E, ACTON"
      }
    ]
  },
  {
    "postal": "L7J8L7",
    "result": []
  },
  {
    "postal": "L7J2A8",
    "result": [
      {
        "electoralDistricts": [
          {
            "election": null,
            "id": 115,
            "name": "Wellington—Halton Hills"
          }
        ],
        "pollDivisionIds": [
          10142577
        ],
        "postalCode": "L7J2A8",
        "streetName": "JOHN",
        "streetDirectionId": "S",
        "streetTypeId": "ST",
        "placeName": "ACTON",
        "streetNameDisplayText": "JOHN ST S, ACTON"
      }
    ]
  },
  {
    "postal": "L7J2K9",
    "result": [
      {
        "electoralDistricts": [
          {
            "election": null,
            "id": 115,
            "name": "Wellington—Halton Hills"
          }
        ],
        "pollDivisionIds": [
          10142578
        ],
        "postalCode": "L7J2K9",
        "streetName": "MEADVALE",
        "streetDirectionId": null,
        "streetTypeId": "RD",
        "placeName": "ACTON",
        "streetNameDisplayText": "MEADVALE RD, ACTON"
      }
    ]
  },
  {
    "postal": "L7J3E5",
    "result": []
  },
  {
    "postal": "L7J8N6",
    "result": []
  },
  {
    "postal": "L7J8J4",
    "result": []
  },
  {
    "postal": "L7J4R7",
    "result": []
  },
  {
    "postal": "L7J9K1",
    "result": []
  },
  {
    "postal": "L7J8E1",
    "result": []
  },
  {
    "postal": "L7J0R1",
    "result": []
  },
  {
    "postal": "L7J4J3",
    "result": []
  },
  {
    "postal": "L7J7E7",
    "result": []
  },
  {
    "postal": "L7J0J0",
    "result": []
  },
  {
    "postal": "L7J7R8",
    "result": []
  },
  {
    "postal": "L7J9X0",
    "result": []
  },
  {
    "postal": "L7J7P6",
    "result": []
  },
  {
    "postal": "L7J0R7",
    "result": []
  },
  {
    "postal": "L7J5W1",
    "result": []
  },
  {
    "postal": "L7J0K4",
    "result": []
  },
  {
    "postal": "L7J7N9",
    "result": []
  },
  {
    "postal": "L7J1N0",
    "result": []
  },
  {
    "postal": "L7J6P3",
    "result": []
  },
  {
    "postal": "L7J5A1",
    "result": []
  },
  {
    "postal": "L7J9M9",
    "result": []
  },
  {
    "postal": "L7J7T6",
    "result": []
  },
  {
    "postal": "L7J3X0",
    "result": []
  },
  {
    "postal": "L7J2T0",
    "result": []
  },
  {
    "postal": "L7J5X9",
    "result": []
  },
  {
    "postal": "L7J2R3",
    "result": [
      {
        "electoralDistricts": [
          {
            "election": null,
            "id": 115,
            "name": "Wellington—Halton Hills"
          }
        ],
        "pollDivisionIds": [
          10142578
        ],
        "postalCode": "L7J2R3",
        "streetName": "DIVISION",
        "streetDirectionId": null,
        "streetTypeId": "ST",
        "placeName": "ACTON",
        "streetNameDisplayText": "DIVISION ST, ACTON"
      }
    ]
  },
  {
    "postal": "L7J5N2",
    "result": []
  },
  {
    "postal": "L7J4Y7",
    "result": []
  },
  {
    "postal": "L7J7M0",
    "result": []
  },
  {
    "postal": "L7J8P3",
    "result": []
  },
  {
    "postal": "L7J3N3",
    "result": []
  },
  {
    "postal": "L7J7S3",
    "result": []
  },
  {
    "postal": "L7J3V9",
    "result": []
  },
  {
    "postal": "L7J9N7",
    "result": []
  },
  {
    "postal": "L7J0G4",
    "result": []
  },
  {
    "postal": "L7J2E2",
    "result": [
      {
        "electoralDistricts": [
          {
            "election": null,
            "id": 115,
            "name": "Wellington—Halton Hills"
          }
        ],
        "pollDivisionIds": [
          10142577
        ],
        "postalCode": "L7J2E2",
        "streetName": "POPLAR",
        "streetDirectionId": null,
        "streetTypeId": "AVE",
        "placeName": "ACTON",
        "streetNameDisplayText": "POPLAR AVE, ACTON"
      }
    ]
  },
  {
    "postal": "L7J7W8",
    "result": []
  },
  {
    "postal": "L7J7M5",
    "result": []
  },
  {
    "postal": "L7J5W8",
    "result": []
  },
  {
    "postal": "L7J5E5",
    "result": []
  },
  {
    "postal": "L7J1P9",
    "result": [
      {
        "electoralDistricts": [
          {
            "election": null,
            "id": 115,
            "name": "Wellington—Halton Hills"
          }
        ],
        "pollDivisionIds": [
          10142578
        ],
        "postalCode": "L7J1P9",
        "streetName": "QUEEN",
        "streetDirectionId": "E",
        "streetTypeId": "ST",
        "placeName": "ACTON",
        "streetNameDisplayText": "QUEEN ST E, ACTON"
      },
      {
        "electoralDistricts": [
          {
            "election": null,
            "id": 115,
            "name": "Wellington—Halton Hills"
          }
        ],
        "pollDivisionIds": [
          10142578
        ],
        "postalCode": "L7J1P9",
        "streetName": "QUEEN",
        "streetDirectionId": null,
        "streetTypeId": "ST",
        "placeName": "ACTON",
        "streetNameDisplayText": "QUEEN ST, ACTON"
      }
    ]
  },
  {
    "postal": "L7J8V8",
    "result": []
  },
  {
    "postal": "L7J9G8",
    "result": []
  },
  {
    "postal": "L7J8H9",
    "result": []
  },
  {
    "postal": "L7J1Z1",
    "result": [
      {
        "electoralDistricts": [
          {
            "election": null,
            "id": 115,
            "name": "Wellington—Halton Hills"
          }
        ],
        "pollDivisionIds": [
          10142577
        ],
        "postalCode": "L7J1Z1",
        "streetName": "VICTORIA",
        "streetDirectionId": null,
        "streetTypeId": "AVE",
        "placeName": "ACTON",
        "streetNameDisplayText": "VICTORIA AVE, ACTON"
      }
    ]
  },
  {
    "postal": "L7J8M3",
    "result": []
  },
  {
    "postal": "L7J5H6",
    "result": []
  },
  {
    "postal": "L7J7W7",
    "result": []
  },
  {
    "postal": "L7J4L0",
    "result": []
  },
  {
    "postal": "L7J2N1",
    "result": [
      {
        "electoralDistricts": [
          {
            "election": null,
            "id": 115,
            "name": "Wellington—Halton Hills"
          }
        ],
        "pollDivisionIds": [
          10142577
        ],
        "postalCode": "L7J2N1",
        "streetName": "SECORD",
        "streetDirectionId": null,
        "streetTypeId": "LANE",
        "placeName": "ACTON",
        "streetNameDisplayText": "SECORD LANE, ACTON"
      }
    ]
  },
  {
    "postal": "L7J2H4",
    "result": [
      {
        "electoralDistricts": [
          {
            "election": null,
            "id": 115,
            "name": "Wellington—Halton Hills"
          }
        ],
        "pollDivisionIds": [
          10142578
        ],
        "postalCode": "L7J2H4",
        "streetName": "ACTON",
        "streetDirectionId": null,
        "streetTypeId": "BLVD",
        "placeName": "ACTON",
        "streetNameDisplayText": "ACTON BLVD, ACTON"
      }
    ]
  },
  {
    "postal": "L7J5C8",
    "result": []
  },
  {
    "postal": "L7J8B0",
    "result": []
  },
  {
    "postal": "L7J1T4",
    "result": [
      {
        "electoralDistricts": [
          {
            "election": null,
            "id": 115,
            "name": "Wellington—Halton Hills"
          }
        ],
        "pollDivisionIds": [
          10142577
        ],
        "postalCode": "L7J1T4",
        "streetName": "ELMORE",
        "streetDirectionId": null,
        "streetTypeId": "DR",
        "placeName": "ACTON",
        "streetNameDisplayText": "ELMORE DR, ACTON"
      }
    ]
  },
  {
    "postal": "L7J7N7",
    "result": []
  },
  {
    "postal": "L7J4L3",
    "result": []
  },
  {
    "postal": "L7J2N2",
    "result": [
      {
        "electoralDistricts": [
          {
            "election": null,
            "id": 115,
            "name": "Wellington—Halton Hills"
          }
        ],
        "pollDivisionIds": [
          10142578
        ],
        "postalCode": "L7J2N2",
        "streetName": "QUEEN",
        "streetDirectionId": "E",
        "streetTypeId": "ST",
        "placeName": "ACTON",
        "streetNameDisplayText": "QUEEN ST E, ACTON"
      },
      {
        "electoralDistricts": [
          {
            "election": null,
            "id": 115,
            "name": "Wellington—Halton Hills"
          }
        ],
        "pollDivisionIds": [
          10142578
        ],
        "postalCode": "L7J2N2",
        "streetName": "QUEEN",
        "streetDirectionId": null,
        "streetTypeId": "ST",
        "placeName": "ACTON",
        "streetNameDisplayText": "QUEEN ST, ACTON"
      },
      {
        "electoralDistricts": [
          {
            "election": null,
            "id": 115,
            "name": "Wellington—Halton Hills"
          }
        ],
        "pollDivisionIds": [
          10142578
        ],
        "postalCode": "L7J2N2",
        "streetName": "QUEEN",
        "streetDirectionId": null,
        "streetTypeId": "ST",
        "placeName": "ACTON,ON",
        "streetNameDisplayText": "QUEEN ST, ACTON,ON"
      }
    ]
  },
  {
    "postal": "L7J4N8",
    "result": []
  },
  {
    "postal": "L7J3M5",
    "result": []
  },
  {
    "postal": "L7J6H7",
    "result": []
  },
  {
    "postal": "L7J8Y8",
    "result": []
  },
  {
    "postal": "L7J5R9",
    "result": []
  },
  {
    "postal": "L7J8G3",
    "result": []
  },
  {
    "postal": "L7J4N7",
    "result": []
  },
  {
    "postal": "L7J0B9",
    "result": []
  },
  {
    "postal": "L7J9K7",
    "result": []
  },
  {
    "postal": "L7J9K9",
    "result": []
  },
  {
    "postal": "L7J3Z2",
    "result": []
  },
  {
    "postal": "L7J6W7",
    "result": []
  },
  {
    "postal": "L7J0P1",
    "result": []
  },
  {
    "postal": "L7J3A0",
    "result": []
  },
  {
    "postal": "L7J8L9",
    "result": []
  },
  {
    "postal": "L7J6X0",
    "result": []
  },
  {
    "postal": "L7J3E9",
    "result": []
  },
  {
    "postal": "L7J0S5",
    "result": []
  },
  {
    "postal": "L7J1A2",
    "result": [
      {
        "electoralDistricts": [
          {
            "election": null,
            "id": 115,
            "name": "Wellington—Halton Hills"
          }
        ],
        "pollDivisionIds": [
          10142577
        ],
        "postalCode": "L7J1A2",
        "streetName": "SCENE",
        "streetDirectionId": null,
        "streetTypeId": "ST",
        "placeName": "ACTON",
        "streetNameDisplayText": "SCENE ST, ACTON"
      }
    ]
  },
  {
    "postal": "L7J5V8",
    "result": []
  },
  {
    "postal": "L7J8C5",
    "result": []
  },
  {
    "postal": "L7J6N0",
    "result": []
  },
  {
    "postal": "L7J9E6",
    "result": []
  },
  {
    "postal": "L7J5J7",
    "result": []
  },
  {
    "postal": "L7J2R2",
    "result": [
      {
        "electoralDistricts": [
          {
            "election": null,
            "id": 115,
            "name": "Wellington—Halton Hills"
          }
        ],
        "pollDivisionIds": [
          10142578
        ],
        "postalCode": "L7J2R2",
        "streetName": "DIVISION",
        "streetDirectionId": null,
        "streetTypeId": "ST",
        "placeName": "ACTON",
        "streetNameDisplayText": "DIVISION ST, ACTON"
      }
    ]
  },
  {
    "postal": "L7J0P5",
    "result": []
  },
  {
    "postal": "L7J5A7",
    "result": []
  },
  {
    "postal": "L7J1G1",
    "result": [
      {
        "electoralDistricts": [
          {
            "election": null,
            "id": 115,
            "name": "Wellington—Halton Hills"
          }
        ],
        "pollDivisionIds": [
          10142577
        ],
        "postalCode": "L7J1G1",
        "streetName": "LAKE",
        "streetDirectionId": null,
        "streetTypeId": "AVE",
        "placeName": "ACTON",
        "streetNameDisplayText": "LAKE AVE, ACTON"
      }
    ]
  },
  {
    "postal": "L7J9R6",
    "result": []
  },
  {
    "postal": "L7J4Z9",
    "result": []
  },
  {
    "postal": "L7J1V5",
    "result": [
      {
        "electoralDistricts": [
          {
            "election": null,
            "id": 115,
            "name": "Wellington—Halton Hills"
          }
        ],
        "pollDivisionIds": [
          10142577
        ],
        "postalCode": "L7J1V5",
        "streetName": "TIDEY",
        "streetDirectionId": null,
        "streetTypeId": "AVE",
        "placeName": "ACTON",
        "streetNameDisplayText": "TIDEY AVE, ACTON"
      }
    ]
  },
  {
    "postal": "L7J9Y5",
    "result": []
  },
  {
    "postal": "L7J1P2",
    "result": [
      {
        "electoralDistricts": [
          {
            "election": null,
            "id": 115,
            "name": "Wellington—Halton Hills"
          }
        ],
        "pollDivisionIds": [
          10142577
        ],
        "postalCode": "L7J1P2",
        "streetName": "COBBLEHILL",
        "streetDirectionId": null,
        "streetTypeId": "RD",
        "placeName": "ACTON",
        "streetNameDisplayText": "COBBLEHILL RD, ACTON"
      }
    ]
  },
  {
    "postal": "L7J5X0",
    "result": []
  },
  {
    "postal": "L7J7B8",
    "result": []
  },
  {
    "postal": "L7J0C6",
    "result": []
  },
  {
    "postal": "L7J6G1",
    "result": []
  },
  {
    "postal": "L7J3K3",
    "result": []
  },
  {
    "postal": "L7J9R0",
    "result": []
  },
  {
    "postal": "L7J4R8",
    "result": []
  },
  {
    "postal": "L7J5P9",
    "result": []
  },
  {
    "postal": "L7J8N4",
    "result": []
  },
  {
    "postal": "L7J8H4",
    "result": []
  },
  {
    "postal": "L7J4V1",
    "result": []
  },
  {
    "postal": "L7J1K5",
    "result": [
      {
        "electoralDistricts": [
          {
            "election": null,
            "id": 115,
            "name": "Wellington—Halton Hills"
          }
        ],
        "pollDivisionIds": [
          10142577
        ],
        "postalCode": "L7J1K5",
        "streetName": "CHURCH",
        "streetDirectionId": "E",
        "streetTypeId": "ST",
        "placeName": "ACTON",
        "streetNameDisplayText": "CHURCH ST E, ACTON"
      }
    ]
  },
  {
    "postal": "L7J1Z5",
    "result": [
      {
        "electoralDistricts": [
          {
            "election": null,
            "id": 115,
            "name": "Wellington—Halton Hills"
          }
        ],
        "pollDivisionIds": [
          10142578,
          10142577
        ],
        "postalCode": "L7J1Z5",
        "streetName": "COOK",
        "streetDirectionId": null,
        "streetTypeId": "ST",
        "placeName": "ACTON",
        "streetNameDisplayText": "COOK ST, ACTON"
      }
    ]
  },
  {
    "postal": "L7J9L9",
    "result": []
  },
  {
    "postal": "L7J5L2",
    "result": []
  },
  {
    "postal": "L7J0M2",
    "result": []
  },
  {
    "postal": "L7J1K8",
    "result": [
      {
        "electoralDistricts": [
          {
            "election": null,
            "id": 115,
            "name": "Wellington—Halton Hills"
          }
        ],
        "pollDivisionIds": [
          10142577
        ],
        "postalCode": "L7J1K8",
        "streetName": "CHURCH",
        "streetDirectionId": "E",
        "streetTypeId": "ST",
        "placeName": "ACTON",
        "streetNameDisplayText": "CHURCH ST E, ACTON"
      }
    ]
  },
  {
    "postal": "L7J3M7",
    "result": []
  },
  {
    "postal": "L7J1B2",
    "result": [
      {
        "electoralDistricts": [
          {
            "election": null,
            "id": 115,
            "name": "Wellington—Halton Hills"
          }
        ],
        "pollDivisionIds": [
          10142578
        ],
        "postalCode": "L7J1B2",
        "streetName": "MCDONALD",
        "streetDirectionId": null,
        "streetTypeId": "BLVD",
        "placeName": "ACTON",
        "streetNameDisplayText": "MCDONALD BLVD, ACTON"
      }
    ]
  },
  {
    "postal": "L7J0H9",
    "result": []
  },
  {
    "postal": "L7J8M4",
    "result": []
  },
  {
    "postal": "L7J2M5",
    "result": []
  },
  {
    "postal": "L7J0T9",
    "result": []
  },
  {
    "postal": "L7J3P1",
    "result": []
  },
  {
    "postal": "L7J1R6",
    "result": [
      {
        "electoralDistricts": [
          {
            "election": null,
            "id": 115,
            "name": "Wellington—Halton Hills"
          }
        ],
        "pollDivisionIds": [
          10142578
        ],
        "postalCode": "L7J1R6",
        "streetName": "ORVILLE",
        "streetDirectionId": null,
        "streetTypeId": "RD",
        "placeName": "ACTON",
        "streetNameDisplayText": "ORVILLE RD, ACTON"
      }
    ]
  },
  {
    "postal": "L7J9V5",
    "result": []
  },
  {
    "postal": "L7J9T0",
    "result": []
  },
  {
    "postal": "L7J0A9",
    "result": [
      {
        "electoralDistricts": [
          {
            "election": null,
            "id": 115,
            "name": "Wellington—Halton Hills"
          }
        ],
        "pollDivisionIds": [
          10142577
        ],
        "postalCode": "L7J0A9",
        "streetName": "GUELPH",
        "streetDirectionId": null,
        "streetTypeId": "ST",
        "placeName": "ACTON",
        "streetNameDisplayText": "GUELPH ST, ACTON"
      }
    ]
  },
  {
    "postal": "L7J1M3",
    "result": [
      {
        "electoralDistricts": [
          {
            "election": null,
            "id": 115,
            "name": "Wellington—Halton Hills"
          }
        ],
        "pollDivisionIds": [
          10142578
        ],
        "postalCode": "L7J1M3",
        "streetName": "ARTHUR",
        "streetDirectionId": null,
        "streetTypeId": "ST",
        "placeName": "ACTON",
        "streetNameDisplayText": "ARTHUR ST, ACTON"
      }
    ]
  },
  {
    "postal": "L7J1W8",
    "result": [
      {
        "electoralDistricts": [
          {
            "election": null,
            "id": 115,
            "name": "Wellington—Halton Hills"
          }
        ],
        "pollDivisionIds": [
          10142577
        ],
        "postalCode": "L7J1W8",
        "streetName": "MAIN",
        "streetDirectionId": "N",
        "streetTypeId": "ST",
        "placeName": "ACTON",
        "streetNameDisplayText": "MAIN ST N, ACTON"
      }
    ]
  },
  {
    "postal": "L7J9J1",
    "result": []
  },
  {
    "postal": "L7J8N5",
    "result": []
  },
  {
    "postal": "L7J5X1",
    "result": []
  },
  {
    "postal": "L7J6S2",
    "result": []
  },
  {
    "postal": "L7J2A2",
    "result": [
      {
        "electoralDistricts": [
          {
            "election": null,
            "id": 115,
            "name": "Wellington—Halton Hills"
          }
        ],
        "pollDivisionIds": [
          10142577
        ],
        "postalCode": "L7J2A2",
        "streetName": "WILLOW",
        "streetDirectionId": "S",
        "streetTypeId": "ST",
        "placeName": "ACTON",
        "streetNameDisplayText": "WILLOW ST S, ACTON"
      }
    ]
  },
  {
    "postal": "L7J6A6",
    "result": []
  },
  {
    "postal": "L7J0S3",
    "result": []
  },
  {
    "postal": "L7J3E7",
    "result": []
  },
  {
    "postal": "L7J5R7",
    "result": []
  },
  {
    "postal": "L7J3R6",
    "result": []
  },
  {
    "postal": "L7J6K4",
    "result": []
  },
  {
    "postal": "L7J2W5",
    "result": [
      {
        "electoralDistricts": [
          {
            "election": null,
            "id": 115,
            "name": "Wellington—Halton Hills"
          }
        ],
        "pollDivisionIds": [
          10142578
        ],
        "postalCode": "L7J2W5",
        "streetName": "DANVILLE",
        "streetDirectionId": null,
        "streetTypeId": "AVE",
        "placeName": "ACTON",
        "streetNameDisplayText": "DANVILLE AVE, ACTON"
      }
    ]
  },
  {
    "postal": "L7J8W4",
    "result": []
  },
  {
    "postal": "L7J9C2",
    "result": []
  },
  {
    "postal": "L7J2C0",
    "result": []
  },
  {
    "postal": "L7J0E1",
    "result": []
  },
  {
    "postal": "L7J1K9",
    "result": [
      {
        "electoralDistricts": [
          {
            "election": null,
            "id": 115,
            "name": "Wellington—Halton Hills"
          }
        ],
        "pollDivisionIds": [
          10142577
        ],
        "postalCode": "L7J1K9",
        "streetName": "CHURCH",
        "streetDirectionId": "E",
        "streetTypeId": "ST",
        "placeName": "ACTON",
        "streetNameDisplayText": "CHURCH ST E, ACTON"
      }
    ]
  },
  {
    "postal": "L7J1G7",
    "result": [
      {
        "electoralDistricts": [
          {
            "election": null,
            "id": 115,
            "name": "Wellington—Halton Hills"
          }
        ],
        "pollDivisionIds": [
          10142577
        ],
        "postalCode": "L7J1G7",
        "streetName": "MILL",
        "streetDirectionId": "W",
        "streetTypeId": "ST",
        "placeName": "ACTON",
        "streetNameDisplayText": "MILL ST W, ACTON"
      }
    ]
  },
  {
    "postal": "L7J4E9",
    "result": []
  },
  {
    "postal": "L7J9P0",
    "result": []
  },
  {
    "postal": "L7J5H3",
    "result": []
  },
  {
    "postal": "L7J9X6",
    "result": []
  },
  {
    "postal": "L7J5N7",
    "result": []
  },
  {
    "postal": "L7J5A6",
    "result": []
  },
  {
    "postal": "L7J4M0",
    "result": []
  },
  {
    "postal": "L7J3V6",
    "result": []
  },
  {
    "postal": "L7J1L7",
    "result": []
  },
  {
    "postal": "L7J2P9",
    "result": [
      {
        "electoralDistricts": [
          {
            "election": null,
            "id": 115,
            "name": "Wellington—Halton Hills"
          }
        ],
        "pollDivisionIds": [
          10142578
        ],
        "postalCode": "L7J2P9",
        "streetName": "GEORGE",
        "streetDirectionId": null,
        "streetTypeId": "ST",
        "placeName": "ACTON",
        "streetNameDisplayText": "GEORGE ST, ACTON"
      }
    ]
  },
  {
    "postal": "L7J5T4",
    "result": []
  },
  {
    "postal": "L7J5Z1",
    "result": []
  },
  {
    "postal": "L7J2X0",
    "result": []
  },
  {
    "postal": "L7J6Z2",
    "result": []
  },
  {
    "postal": "L7J0E0",
    "result": []
  },
  {
    "postal": "L7J3Z5",
    "result": []
  },
  {
    "postal": "L7J8H3",
    "result": []
  },
  {
    "postal": "L7J7S6",
    "result": []
  },
  {
    "postal": "L7J4C1",
    "result": []
  },
  {
    "postal": "L7J3K2",
    "result": []
  },
  {
    "postal": "L7J1Y5",
    "result": [
      {
        "electoralDistricts": [
          {
            "election": null,
            "id": 115,
            "name": "Wellington—Halton Hills"
          }
        ],
        "pollDivisionIds": [
          10142577,
          10142583
        ],
        "postalCode": "L7J1Y5",
        "streetName": "PARK",
        "streetDirectionId": null,
        "streetTypeId": "AVE",
        "placeName": "ACTON",
        "streetNameDisplayText": "PARK AVE, ACTON"
      }
    ]
  },
  {
    "postal": "L7J6P6",
    "result": []
  },
  {
    "postal": "L7J3N9",
    "result": []
  },
  {
    "postal": "L7J3W2",
    "result": []
  },
  {
    "postal": "L7J6H8",
    "result": []
  },
  {
    "postal": "L7J9T3",
    "result": []
  },
  {
    "postal": "L7J5L9",
    "result": []
  },
  {
    "postal": "L7J7X7",
    "result": []
  },
  {
    "postal": "L7J3J5",
    "result": []
  },
  {
    "postal": "L7J4J5",
    "result": []
  },
  {
    "postal": "L7J6J2",
    "result": []
  },
  {
    "postal": "L7J5V6",
    "result": []
  },
  {
    "postal": "L7J3N2",
    "result": []
  },
  {
    "postal": "L7J3B1",
    "result": [
      {
        "electoralDistricts": [
          {
            "election": null,
            "id": 115,
            "name": "Wellington—Halton Hills"
          }
        ],
        "pollDivisionIds": [
          10142578
        ],
        "postalCode": "L7J3B1",
        "streetName": "KENNEY",
        "streetDirectionId": null,
        "streetTypeId": "ST",
        "placeName": "ACTON",
        "streetNameDisplayText": "KENNEY ST, ACTON"
      },
      {
        "electoralDistricts": [
          {
            "election": null,
            "id": 115,
            "name": "Wellington—Halton Hills"
          }
        ],
        "pollDivisionIds": [
          10142578
        ],
        "postalCode": "L7J3B1",
        "streetName": "KENNY",
        "streetDirectionId": null,
        "streetTypeId": "ST",
        "placeName": "ACTON",
        "streetNameDisplayText": "KENNY ST, ACTON"
      },
      {
        "electoralDistricts": [
          {
            "election": null,
            "id": 115,
            "name": "Wellington—Halton Hills"
          }
        ],
        "pollDivisionIds": [
          10142578
        ],
        "postalCode": "L7J3B1",
        "streetName": "SALMON",
        "streetDirectionId": null,
        "streetTypeId": "WAY",
        "placeName": "ACTON",
        "streetNameDisplayText": "SALMON WAY, ACTON"
      }
    ]
  },
  {
    "postal": "L7J8B5",
    "result": []
  },
  {
    "postal": "L7J0K1",
    "result": []
  },
  {
    "postal": "L7J7M7",
    "result": []
  },
  {
    "postal": "L7J2M2",
    "result": [
      {
        "electoralDistricts": [
          {
            "election": null,
            "id": 115,
            "name": "Wellington—Halton Hills"
          }
        ],
        "pollDivisionIds": [
          10142577
        ],
        "postalCode": "L7J2M2",
        "streetName": "25",
        "streetDirectionId": null,
        "streetTypeId": "HWY",
        "placeName": "ACTON,ON",
        "streetNameDisplayText": "25 HWY, ACTON,ON"
      },
      {
        "electoralDistricts": [
          {
            "election": null,
            "id": 115,
            "name": "Wellington—Halton Hills"
          }
        ],
        "pollDivisionIds": [
          10142578
        ],
        "postalCode": "L7J2M2",
        "streetName": "7",
        "streetDirectionId": null,
        "streetTypeId": "HWY",
        "placeName": "ACTON",
        "streetNameDisplayText": "7 HWY, ACTON"
      },
      {
        "electoralDistricts": [
          {
            "election": null,
            "id": 115,
            "name": "Wellington—Halton Hills"
          }
        ],
        "pollDivisionIds": [
          10142578
        ],
        "postalCode": "L7J2M2",
        "streetName": "REGIONAL 25",
        "streetDirectionId": null,
        "streetTypeId": "RD",
        "placeName": "ACTON",
        "streetNameDisplayText": "REGIONAL 25 RD, ACTON"
      }
    ]
  },
  {
    "postal": "L7J9N3",
    "result": []
  },
  {
    "postal": "L7J4Y8",
    "result": []
  },
  {
    "postal": "L7J3V7",
    "result": []
  },
  {
    "postal": "L7J8Z1",
    "result": []
  },
  {
    "postal": "L7J7B3",
    "result": []
  },
  {
    "postal": "L7J3A8",
    "result": [
      {
        "electoralDistricts": [
          {
            "election": null,
            "id": 115,
            "name": "Wellington—Halton Hills"
          }
        ],
        "pollDivisionIds": [
          10142578
        ],
        "postalCode": "L7J3A8",
        "streetName": "SPROWL",
        "streetDirectionId": null,
        "streetTypeId": "ST",
        "placeName": "ACTON",
        "streetNameDisplayText": "SPROWL ST, ACTON"
      },
      {
        "electoralDistricts": [
          {
            "election": null,
            "id": 115,
            "name": "Wellington—Halton Hills"
          }
        ],
        "pollDivisionIds": [
          10142555,
          10142578
        ],
        "postalCode": "L7J3A8",
        "streetName": "TANNERS",
        "streetDirectionId": null,
        "streetTypeId": "DR",
        "placeName": "ACTON",
        "streetNameDisplayText": "TANNERS DR, ACTON"
      }
    ]
  },
  {
    "postal": "L7J7V5",
    "result": []
  },
  {
    "postal": "L7J2T2",
    "result": [
      {
        "electoralDistricts": [
          {
            "election": null,
            "id": 115,
            "name": "Wellington—Halton Hills"
          }
        ],
        "pollDivisionIds": [
          10142577
        ],
        "postalCode": "L7J2T2",
        "streetName": "GREENORE",
        "streetDirectionId": null,
        "streetTypeId": "CRES",
        "placeName": "ACTON",
        "streetNameDisplayText": "GREENORE CRES, ACTON"
      }
    ]
  },
  {
    "postal": "L7J6L3",
    "result": []
  },
  {
    "postal": "L7J0L2",
    "result": []
  },
  {
    "postal": "L7J5Y8",
    "result": []
  },
  {
    "postal": "L7J0B8",
    "result": []
  },
  {
    "postal": "L7J6R5",
    "result": []
  },
  {
    "postal": "L7J8W6",
    "result": []
  },
  {
    "postal": "L7J8G6",
    "result": []
  },
  {
    "postal": "L7J6X3",
    "result": []
  },
  {
    "postal": "L7J7R7",
    "result": []
  },
  {
    "postal": "L7J4B6",
    "result": []
  },
  {
    "postal": "L7J3P9",
    "result": []
  },
  {
    "postal": "L7J2T3",
    "result": [
      {
        "electoralDistricts": [
          {
            "election": null,
            "id": 115,
            "name": "Wellington—Halton Hills"
          }
        ],
        "pollDivisionIds": [
          10142577
        ],
        "postalCode": "L7J2T3",
        "streetName": "KINGHAM",
        "streetDirectionId": null,
        "streetTypeId": "RD",
        "placeName": "ACTON",
        "streetNameDisplayText": "KINGHAM RD, ACTON"
      }
    ]
  },
  {
    "postal": "L7J1M4",
    "result": [
      {
        "electoralDistricts": [
          {
            "election": null,
            "id": 115,
            "name": "Wellington—Halton Hills"
          }
        ],
        "pollDivisionIds": [
          10142577
        ],
        "postalCode": "L7J1M4",
        "streetName": "YORK",
        "streetDirectionId": null,
        "streetTypeId": "ST",
        "placeName": "ACTON",
        "streetNameDisplayText": "YORK ST, ACTON"
      }
    ]
  },
  {
    "postal": "L7J0H1",
    "result": []
  },
  {
    "postal": "L7J9W3",
    "result": []
  },
  {
    "postal": "L7J6P1",
    "result": []
  },
  {
    "postal": "L7J7G2",
    "result": []
  },
  {
    "postal": "L7J4J9",
    "result": []
  },
  {
    "postal": "L7J9E4",
    "result": []
  },
  {
    "postal": "L7J8H0",
    "result": []
  },
  {
    "postal": "L7J4M7",
    "result": []
  },
  {
    "postal": "L7J2G9",
    "result": [
      {
        "electoralDistricts": [
          {
            "election": null,
            "id": 115,
            "name": "Wellington—Halton Hills"
          }
        ],
        "pollDivisionIds": [
          10142578
        ],
        "postalCode": "L7J2G9",
        "streetName": "WELLINGTON",
        "streetDirectionId": null,
        "streetTypeId": "ST",
        "placeName": "ACTON",
        "streetNameDisplayText": "WELLINGTON ST, ACTON"
      }
    ]
  },
  {
    "postal": "L7J8T2",
    "result": []
  },
  {
    "postal": "L7J7G7",
    "result": []
  },
  {
    "postal": "L7J4Z3",
    "result": []
  },
  {
    "postal": "L7J5B3",
    "result": []
  },
  {
    "postal": "L7J1S7",
    "result": [
      {
        "electoralDistricts": [
          {
            "election": null,
            "id": 115,
            "name": "Wellington—Halton Hills"
          }
        ],
        "pollDivisionIds": [
          10142577
        ],
        "postalCode": "L7J1S7",
        "streetName": "LAKEVIEW",
        "streetDirectionId": null,
        "streetTypeId": "AVE",
        "placeName": "ACTON",
        "streetNameDisplayText": "LAKEVIEW AVE, ACTON"
      }
    ]
  },
  {
    "postal": "L7J2N7",
    "result": [
      {
        "electoralDistricts": [
          {
            "election": null,
            "id": 115,
            "name": "Wellington—Halton Hills"
          }
        ],
        "pollDivisionIds": [
          10142578
        ],
        "postalCode": "L7J2N7",
        "streetName": "MILL",
        "streetDirectionId": "E",
        "streetTypeId": "ST",
        "placeName": "ACTON",
        "streetNameDisplayText": "MILL ST E, ACTON"
      },
      {
        "electoralDistricts": [
          {
            "election": null,
            "id": 115,
            "name": "Wellington—Halton Hills"
          }
        ],
        "pollDivisionIds": [
          10142577
        ],
        "postalCode": "L7J2N7",
        "streetName": "MILL",
        "streetDirectionId": "W",
        "streetTypeId": "ST",
        "placeName": "ACTON",
        "streetNameDisplayText": "MILL ST W, ACTON"
      }
    ]
  },
  {
    "postal": "L7J0H8",
    "result": []
  },
  {
    "postal": "L7J7Z4",
    "result": []
  },
  {
    "postal": "L7J7B1",
    "result": []
  },
  {
    "postal": "L7J7P8",
    "result": []
  },
  {
    "postal": "L7J7N0",
    "result": []
  },
  {
    "postal": "L7J3Y5",
    "result": []
  },
  {
    "postal": "L7J6K1",
    "result": []
  },
  {
    "postal": "L7J9X5",
    "result": []
  },
  {
    "postal": "L7J7S5",
    "result": []
  },
  {
    "postal": "L7J0A4",
    "result": [
      {
        "electoralDistricts": [
          {
            "election": null,
            "id": 115,
            "name": "Wellington—Halton Hills"
          }
        ],
        "pollDivisionIds": [
          10142578
        ],
        "postalCode": "L7J0A4",
        "streetName": "DAVIDSON",
        "streetDirectionId": null,
        "streetTypeId": "DR",
        "placeName": "ACTON",
        "streetNameDisplayText": "DAVIDSON DR, ACTON"
      }
    ]
  },
  {
    "postal": "L7J4T5",
    "result": []
  },
  {
    "postal": "L7J5K1",
    "result": []
  },
  {
    "postal": "L7J0Z9",
    "result": []
  },
  {
    "postal": "L7J7T2",
    "result": []
  },
  {
    "postal": "L7J1L5",
    "result": [
      {
        "electoralDistricts": [
          {
            "election": null,
            "id": 115,
            "name": "Wellington—Halton Hills"
          }
        ],
        "pollDivisionIds": [
          10142577
        ],
        "postalCode": "L7J1L5",
        "streetName": "CHURCH",
        "streetDirectionId": "E",
        "streetTypeId": "ST",
        "placeName": "ACTON",
        "streetNameDisplayText": "CHURCH ST E, ACTON"
      }
    ]
  },
  {
    "postal": "L7J3N5",
    "result": []
  },
  {
    "postal": "L7J6H4",
    "result": []
  },
  {
    "postal": "L7J5A5",
    "result": []
  },
  {
    "postal": "L7J3R9",
    "result": []
  },
  {
    "postal": "L7J7L8",
    "result": []
  },
  {
    "postal": "L7J6T6",
    "result": []
  },
  {
    "postal": "L7J7Y7",
    "result": []
  },
  {
    "postal": "L7J3M8",
    "result": []
  },
  {
    "postal": "L7J2E0",
    "result": []
  },
  {
    "postal": "L7J4B5",
    "result": []
  },
  {
    "postal": "L7J1J3",
    "result": [
      {
        "electoralDistricts": [
          {
            "election": null,
            "id": 115,
            "name": "Wellington—Halton Hills"
          }
        ],
        "pollDivisionIds": [
          10142578
        ],
        "postalCode": "L7J1J3",
        "streetName": "MILL",
        "streetDirectionId": "E",
        "streetTypeId": "ST",
        "placeName": "ACTON",
        "streetNameDisplayText": "MILL ST E, ACTON"
      }
    ]
  },
  {
    "postal": "L7J5S6",
    "result": []
  },
  {
    "postal": "L7J8P7",
    "result": []
  },
  {
    "postal": "L7J7S7",
    "result": []
  },
  {
    "postal": "L7J4C2",
    "result": []
  },
  {
    "postal": "L7J5Y0",
    "result": []
  },
  {
    "postal": "L7J2V7",
    "result": [
      {
        "electoralDistricts": [
          {
            "election": null,
            "id": 115,
            "name": "Wellington—Halton Hills"
          }
        ],
        "pollDivisionIds": [
          10142578
        ],
        "postalCode": "L7J2V7",
        "streetName": "MCDONALD",
        "streetDirectionId": null,
        "streetTypeId": "BLVD",
        "placeName": "ACTON",
        "streetNameDisplayText": "MCDONALD BLVD, ACTON"
      }
    ]
  },
  {
    "postal": "L7J8P5",
    "result": []
  },
  {
    "postal": "L7J5P5",
    "result": []
  },
  {
    "postal": "L7J5Z0",
    "result": []
  },
  {
    "postal": "L7J9B0",
    "result": []
  },
  {
    "postal": "L7J1L0",
    "result": []
  },
  {
    "postal": "L7J0B5",
    "result": []
  },
  {
    "postal": "L7J3L2",
    "result": []
  },
  {
    "postal": "L7J3B7",
    "result": [
      {
        "electoralDistricts": [
          {
            "election": null,
            "id": 115,
            "name": "Wellington—Halton Hills"
          }
        ],
        "pollDivisionIds": [
          10142578
        ],
        "postalCode": "L7J3B7",
        "streetName": "ACTON",
        "streetDirectionId": null,
        "streetTypeId": "BLVD",
        "placeName": "ACTON",
        "streetNameDisplayText": "ACTON BLVD, ACTON"
      }
    ]
  },
  {
    "postal": "L7J8L1",
    "result": []
  },
  {
    "postal": "L7J5M4",
    "result": []
  },
  {
    "postal": "L7J4G9",
    "result": []
  },
  {
    "postal": "L7J0P0",
    "result": []
  },
  {
    "postal": "L7J8G2",
    "result": []
  },
  {
    "postal": "L7J1V9",
    "result": [
      {
        "electoralDistricts": [
          {
            "election": null,
            "id": 115,
            "name": "Wellington—Halton Hills"
          }
        ],
        "pollDivisionIds": [
          10142577,
          10142583
        ],
        "postalCode": "L7J1V9",
        "streetName": "MAIN",
        "streetDirectionId": "N",
        "streetTypeId": "ST",
        "placeName": "ACTON",
        "streetNameDisplayText": "MAIN ST N, ACTON"
      }
    ]
  },
  {
    "postal": "L7J8N8",
    "result": []
  },
  {
    "postal": "L7J6S8",
    "result": []
  },
  {
    "postal": "L7J8H2",
    "result": []
  },
  {
    "postal": "L7J5R8",
    "result": []
  },
  {
    "postal": "L7J5L4",
    "result": []
  },
  {
    "postal": "L7J9E1",
    "result": []
  },
  {
    "postal": "L7J1C4",
    "result": [
      {
        "electoralDistricts": [
          {
            "election": null,
            "id": 115,
            "name": "Wellington—Halton Hills"
          }
        ],
        "pollDivisionIds": [
          10142555,
          10142578
        ],
        "postalCode": "L7J1C4",
        "streetName": "DIVISION",
        "streetDirectionId": null,
        "streetTypeId": "ST",
        "placeName": "ACTON",
        "streetNameDisplayText": "DIVISION ST, ACTON"
      }
    ]
  },
  {
    "postal": "L7J8W5",
    "result": []
  },
  {
    "postal": "L7J1Y4",
    "result": [
      {
        "electoralDistricts": [
          {
            "election": null,
            "id": 115,
            "name": "Wellington—Halton Hills"
          }
        ],
        "pollDivisionIds": [
          10142577
        ],
        "postalCode": "L7J1Y4",
        "streetName": "PARK",
        "streetDirectionId": null,
        "streetTypeId": "AVE",
        "placeName": "ACTON",
        "streetNameDisplayText": "PARK AVE, ACTON"
      }
    ]
  },
  {
    "postal": "L7J1C0",
    "result": []
  },
  {
    "postal": "L7J2J2",
    "result": [
      {
        "electoralDistricts": [
          {
            "election": null,
            "id": 115,
            "name": "Wellington—Halton Hills"
          }
        ],
        "pollDivisionIds": [
          10142578
        ],
        "postalCode": "L7J2J2",
        "streetName": "CHURCHILL",
        "streetDirectionId": "N",
        "streetTypeId": "RD",
        "placeName": "ACTON",
        "streetNameDisplayText": "CHURCHILL RD N, ACTON"
      }
    ]
  },
  {
    "postal": "L7J2J0",
    "result": []
  },
  {
    "postal": "L7J7A3",
    "result": []
  },
  {
    "postal": "L7J8M1",
    "result": []
  },
  {
    "postal": "L7J7T9",
    "result": []
  },
  {
    "postal": "L7J6C0",
    "result": []
  },
  {
    "postal": "L7J7X1",
    "result": []
  },
  {
    "postal": "L7J0G1",
    "result": []
  },
  {
    "postal": "L7J4X2",
    "result": []
  },
  {
    "postal": "L7J0N6",
    "result": []
  },
  {
    "postal": "L7J8E3",
    "result": []
  },
  {
    "postal": "L7J5S8",
    "result": []
  },
  {
    "postal": "L7J0R0",
    "result": []
  },
  {
    "postal": "L7J6J6",
    "result": []
  },
  {
    "postal": "L7J4B4",
    "result": []
  },
  {
    "postal": "L7J7E3",
    "result": []
  },
  {
    "postal": "L7J3N6",
    "result": []
  },
  {
    "postal": "L7J3X6",
    "result": []
  },
  {
    "postal": "L7J8L0",
    "result": []
  },
  {
    "postal": "L7J8N1",
    "result": []
  },
  {
    "postal": "L7J4J0",
    "result": []
  },
  {
    "postal": "L7J0X7",
    "result": []
  },
  {
    "postal": "L7J6S4",
    "result": []
  },
  {
    "postal": "L7J0Z0",
    "result": []
  },
  {
    "postal": "L7J9X8",
    "result": []
  },
  {
    "postal": "L7J3H3",
    "result": []
  },
  {
    "postal": "L7J7S2",
    "result": []
  },
  {
    "postal": "L7J3T3",
    "result": []
  },
  {
    "postal": "L7J9P3",
    "result": []
  },
  {
    "postal": "L7J4H8",
    "result": []
  },
  {
    "postal": "L7J6R1",
    "result": []
  },
  {
    "postal": "L7J1S0",
    "result": []
  },
  {
    "postal": "L7J3W8",
    "result": []
  },
  {
    "postal": "L7J4S3",
    "result": []
  },
  {
    "postal": "L7J1B6",
    "result": [
      {
        "electoralDistricts": [
          {
            "election": null,
            "id": 115,
            "name": "Wellington—Halton Hills"
          }
        ],
        "pollDivisionIds": [
          10142577
        ],
        "postalCode": "L7J1B6",
        "streetName": "ELIZABETH",
        "streetDirectionId": null,
        "streetTypeId": "DR",
        "placeName": "ACTON",
        "streetNameDisplayText": "ELIZABETH DR, ACTON"
      }
    ]
  },
  {
    "postal": "L7J8R3",
    "result": []
  },
  {
    "postal": "L7J4V9",
    "result": []
  },
  {
    "postal": "L7J9W4",
    "result": []
  },
  {
    "postal": "L7J3T4",
    "result": []
  },
  {
    "postal": "L7J5C7",
    "result": []
  },
  {
    "postal": "L7J3Y1",
    "result": []
  },
  {
    "postal": "L7J5V0",
    "result": []
  },
  {
    "postal": "L7J8G8",
    "result": []
  },
  {
    "postal": "L7J8B1",
    "result": []
  },
  {
    "postal": "L7J4P5",
    "result": []
  },
  {
    "postal": "L7J7B2",
    "result": []
  },
  {
    "postal": "L7J0R2",
    "result": []
  },
  {
    "postal": "L7J4M4",
    "result": []
  },
  {
    "postal": "L7J7M4",
    "result": []
  },
  {
    "postal": "L7J9S7",
    "result": []
  },
  {
    "postal": "L7J5Z7",
    "result": []
  },
  {
    "postal": "L7J7J7",
    "result": []
  },
  {
    "postal": "L7J8R8",
    "result": []
  },
  {
    "postal": "L7J9X1",
    "result": []
  },
  {
    "postal": "L7J5M9",
    "result": []
  },
  {
    "postal": "L7J9B4",
    "result": []
  },
  {
    "postal": "L7J0L9",
    "result": []
  },
  {
    "postal": "L7J9G4",
    "result": []
  },
  {
    "postal": "L7J1J4",
    "result": []
  },
  {
    "postal": "L7J0W6",
    "result": []
  }
]
