[
  {
    "postal": "L7P9J6",
    "result": []
  },
  {
    "postal": "L7P9Z5",
    "result": []
  },
  {
    "postal": "L7P7H8",
    "result": []
  },
  {
    "postal": "L7P0P6",
    "result": [
      {
        "electoralDistricts": [
          {
            "election": null,
            "id": 59,
            "name": "Milton"
          }
        ],
        "pollDivisionIds": [
          10126381
        ],
        "postalCode": "L7P0P6",
        "streetName": "CEDAR SPRINGS",
        "streetDirectionId": null,
        "streetTypeId": "RD",
        "placeName": "BURLINGTON",
        "streetNameDisplayText": "CEDAR SPRINGS RD, BURLINGTON"
      }
    ]
  },
  {
    "postal": "L7P0S7",
    "result": [
      {
        "electoralDistricts": [
          {
            "election": null,
            "id": 59,
            "name": "Milton"
          }
        ],
        "pollDivisionIds": [
          10126381
        ],
        "postalCode": "L7P0S7",
        "streetName": "1",
        "streetDirectionId": null,
        "streetTypeId": "SIDERD",
        "placeName": "BURLINGTON",
        "streetNameDisplayText": "1 SIDERD, BURLINGTON"
      },
      {
        "electoralDistricts": [
          {
            "election": null,
            "id": 59,
            "name": "Milton"
          }
        ],
        "pollDivisionIds": [
          10126381,
          10126398
        ],
        "postalCode": "L7P0S7",
        "streetName": "GUELPH",
        "streetDirectionId": null,
        "streetTypeId": "LINE",
        "placeName": "BURLINGTON",
        "streetNameDisplayText": "GUELPH LINE, BURLINGTON"
      },
      {
        "electoralDistricts": [
          {
            "election": null,
            "id": 59,
            "name": "Milton"
          }
        ],
        "pollDivisionIds": [
          10126381
        ],
        "postalCode": "L7P0S7",
        "streetName": "NO 1 SIDE",
        "streetDirectionId": null,
        "streetTypeId": "RD",
        "placeName": "BURLINGTON",
        "streetNameDisplayText": "NO 1 SIDE RD, BURLINGTON"
      },
      {
        "electoralDistricts": [
          {
            "election": null,
            "id": 59,
            "name": "Milton"
          }
        ],
        "pollDivisionIds": [
          10126381
        ],
        "postalCode": "L7P0S7",
        "streetName": "NO 1",
        "streetDirectionId": null,
        "streetTypeId": "SIDERD",
        "placeName": "BURLINGTON",
        "streetNameDisplayText": "NO 1 SIDERD, BURLINGTON"
      }
    ]
  },
  {
    "postal": "L7P8B9",
    "result": []
  },
  {
    "postal": "L7P2A6",
    "result": [
      {
        "electoralDistricts": [
          {
            "election": null,
            "id": 15,
            "name": "Burlington"
          }
        ],
        "pollDivisionIds": [
          10137346
        ],
        "postalCode": "L7P2A6",
        "streetName": "MEADOWBROOK",
        "streetDirectionId": null,
        "streetTypeId": "RD",
        "placeName": "BURLINGTON",
        "streetNameDisplayText": "MEADOWBROOK RD, BURLINGTON"
      }
    ]
  },
  {
    "postal": "L7P7V2",
    "result": []
  },
  {
    "postal": "L7P9P4",
    "result": []
  },
  {
    "postal": "L7P6G0",
    "result": []
  },
  {
    "postal": "L7P2K0",
    "result": []
  },
  {
    "postal": "L7P7N6",
    "result": []
  },
  {
    "postal": "L7P5R3",
    "result": []
  },
  {
    "postal": "L7P7K0",
    "result": []
  },
  {
    "postal": "L7P3R2",
    "result": [
      {
        "electoralDistricts": [
          {
            "election": null,
            "id": 15,
            "name": "Burlington"
          }
        ],
        "pollDivisionIds": [
          10137344
        ],
        "postalCode": "L7P3R2",
        "streetName": "AMHERST HEIGHTS",
        "streetDirectionId": null,
        "streetTypeId": "CRT",
        "placeName": "BURLINGTON",
        "streetNameDisplayText": "AMHERST HEIGHTS CRT, BURLINGTON"
      }
    ]
  },
  {
    "postal": "L7P0J1",
    "result": [
      {
        "electoralDistricts": [
          {
            "election": null,
            "id": 59,
            "name": "Milton"
          }
        ],
        "pollDivisionIds": [
          10126381
        ],
        "postalCode": "L7P0J1",
        "streetName": "KILBRIDE",
        "streetDirectionId": null,
        "streetTypeId": "ST",
        "placeName": "BURLINGTON",
        "streetNameDisplayText": "KILBRIDE ST, BURLINGTON"
      },
      {
        "electoralDistricts": [
          {
            "election": null,
            "id": 59,
            "name": "Milton"
          }
        ],
        "pollDivisionIds": [
          10126381
        ],
        "postalCode": "L7P0J1",
        "streetName": "KILBRIDE",
        "streetDirectionId": null,
        "streetTypeId": "ST",
        "placeName": "KILBRIDE",
        "streetNameDisplayText": "KILBRIDE ST, KILBRIDE"
      }
    ]
  },
  {
    "postal": "L7P0B0",
    "result": []
  },
  {
    "postal": "L7P5Z2",
    "result": []
  },
  {
    "postal": "L7P7P3",
    "result": []
  },
  {
    "postal": "L7P2K3",
    "result": [
      {
        "electoralDistricts": [
          {
            "election": null,
            "id": 15,
            "name": "Burlington"
          }
        ],
        "pollDivisionIds": [
          10137347
        ],
        "postalCode": "L7P2K3",
        "streetName": "PETTIT",
        "streetDirectionId": null,
        "streetTypeId": "RD",
        "placeName": "BURLINGTON",
        "streetNameDisplayText": "PETTIT RD, BURLINGTON"
      }
    ]
  },
  {
    "postal": "L7P7Y6",
    "result": []
  },
  {
    "postal": "L7P1L9",
    "result": [
      {
        "electoralDistricts": [
          {
            "election": null,
            "id": 15,
            "name": "Burlington"
          }
        ],
        "pollDivisionIds": [
          10137345
        ],
        "postalCode": "L7P1L9",
        "streetName": "SANDRINGHAM",
        "streetDirectionId": null,
        "streetTypeId": "DR",
        "placeName": "BURLINGTON",
        "streetNameDisplayText": "SANDRINGHAM DR, BURLINGTON"
      }
    ]
  },
  {
    "postal": "L7P8T0",
    "result": []
  },
  {
    "postal": "L7P3K8",
    "result": [
      {
        "electoralDistricts": [
          {
            "election": null,
            "id": 15,
            "name": "Burlington"
          }
        ],
        "pollDivisionIds": [
          10137342
        ],
        "postalCode": "L7P3K8",
        "streetName": "KNIGHTS BRIDGE",
        "streetDirectionId": null,
        "streetTypeId": "CRT",
        "placeName": "BURLINGTON",
        "streetNameDisplayText": "KNIGHTS BRIDGE CRT, BURLINGTON"
      }
    ]
  },
  {
    "postal": "L7P5W9",
    "result": []
  },
  {
    "postal": "L7P6T9",
    "result": []
  },
  {
    "postal": "L7P4H1",
    "result": [
      {
        "electoralDistricts": [
          {
            "election": null,
            "id": 15,
            "name": "Burlington"
          }
        ],
        "pollDivisionIds": [
          10137342
        ],
        "postalCode": "L7P4H1",
        "streetName": "MALCOLM",
        "streetDirectionId": null,
        "streetTypeId": "CRES",
        "placeName": "BURLINGTON",
        "streetNameDisplayText": "MALCOLM CRES, BURLINGTON"
      }
    ]
  },
  {
    "postal": "L7P7A2",
    "result": []
  },
  {
    "postal": "L7P5G0",
    "result": []
  },
  {
    "postal": "L7P8V5",
    "result": []
  },
  {
    "postal": "L7P2Y8",
    "result": [
      {
        "electoralDistricts": [
          {
            "election": null,
            "id": 15,
            "name": "Burlington"
          }
        ],
        "pollDivisionIds": [
          10137348
        ],
        "postalCode": "L7P2Y8",
        "streetName": "GREEN MEADOW",
        "streetDirectionId": null,
        "streetTypeId": "DR",
        "placeName": "BURLINGTON",
        "streetNameDisplayText": "GREEN MEADOW DR, BURLINGTON"
      }
    ]
  },
  {
    "postal": "L7P2B6",
    "result": [
      {
        "electoralDistricts": [
          {
            "election": null,
            "id": 15,
            "name": "Burlington"
          }
        ],
        "pollDivisionIds": [
          10137346
        ],
        "postalCode": "L7P2B6",
        "streetName": "MOSS GLEN",
        "streetDirectionId": null,
        "streetTypeId": "CRT",
        "placeName": "BURLINGTON",
        "streetNameDisplayText": "MOSS GLEN CRT, BURLINGTON"
      }
    ]
  },
  {
    "postal": "L7P4W8",
    "result": [
      {
        "electoralDistricts": [
          {
            "election": null,
            "id": 15,
            "name": "Burlington"
          }
        ],
        "pollDivisionIds": [
          10137348
        ],
        "postalCode": "L7P4W8",
        "streetName": "CROFTON",
        "streetDirectionId": null,
        "streetTypeId": "WAY",
        "placeName": "BURLINGTON",
        "streetNameDisplayText": "CROFTON WAY, BURLINGTON"
      }
    ]
  },
  {
    "postal": "L7P8H7",
    "result": []
  },
  {
    "postal": "L7P5P1",
    "result": []
  },
  {
    "postal": "L7P2B8",
    "result": [
      {
        "electoralDistricts": [
          {
            "election": null,
            "id": 15,
            "name": "Burlington"
          }
        ],
        "pollDivisionIds": [
          10137346
        ],
        "postalCode": "L7P2B8",
        "streetName": "MOSS GLEN",
        "streetDirectionId": null,
        "streetTypeId": "RD",
        "placeName": "BURLINGTON",
        "streetNameDisplayText": "MOSS GLEN RD, BURLINGTON"
      }
    ]
  },
  {
    "postal": "L7P0P2",
    "result": [
      {
        "electoralDistricts": [
          {
            "election": null,
            "id": 59,
            "name": "Milton"
          }
        ],
        "pollDivisionIds": [
          10126381
        ],
        "postalCode": "L7P0P2",
        "streetName": "HIGHVIEW",
        "streetDirectionId": null,
        "streetTypeId": "DR",
        "placeName": "BURLINGTON",
        "streetNameDisplayText": "HIGHVIEW DR, BURLINGTON"
      }
    ]
  },
  {
    "postal": "L7P9M1",
    "result": []
  },
  {
    "postal": "L7P3G0",
    "result": []
  },
  {
    "postal": "L7P9Z2",
    "result": []
  },
  {
    "postal": "L7P2A0",
    "result": []
  },
  {
    "postal": "L7P6Y0",
    "result": []
  },
  {
    "postal": "L7P2Z8",
    "result": [
      {
        "electoralDistricts": [
          {
            "election": null,
            "id": 15,
            "name": "Burlington"
          }
        ],
        "pollDivisionIds": [
          10137344
        ],
        "postalCode": "L7P2Z8",
        "streetName": "UPPER MIDDLE",
        "streetDirectionId": null,
        "streetTypeId": "RD",
        "placeName": "BURLINGTON",
        "streetNameDisplayText": "UPPER MIDDLE RD, BURLINGTON"
      }
    ]
  },
  {
    "postal": "L7P7Y3",
    "result": []
  },
  {
    "postal": "L7P6Z5",
    "result": []
  },
  {
    "postal": "L7P6E0",
    "result": []
  },
  {
    "postal": "L7P9B7",
    "result": []
  },
  {
    "postal": "L7P9S5",
    "result": []
  },
  {
    "postal": "L7P3X3",
    "result": [
      {
        "electoralDistricts": [
          {
            "election": null,
            "id": 64,
            "name": "Mississauga—Malton"
          },
          {
            "election": null,
            "id": 15,
            "name": "Burlington"
          }
        ],
        "pollDivisionIds": [
          10139816,
          10137341
        ],
        "postalCode": "L7P3X3",
        "streetName": "MIDDLESMOOR",
        "streetDirectionId": null,
        "streetTypeId": "CRES",
        "placeName": "BURLINGTON",
        "streetNameDisplayText": "MIDDLESMOOR CRES, BURLINGTON"
      }
    ]
  },
  {
    "postal": "L7P7R5",
    "result": []
  },
  {
    "postal": "L7P2X3",
    "result": [
      {
        "electoralDistricts": [
          {
            "election": null,
            "id": 15,
            "name": "Burlington"
          }
        ],
        "pollDivisionIds": [
          10137343
        ],
        "postalCode": "L7P2X3",
        "streetName": "SHEFFIELD",
        "streetDirectionId": null,
        "streetTypeId": "DR",
        "placeName": "BURLINGTON",
        "streetNameDisplayText": "SHEFFIELD DR, BURLINGTON"
      }
    ]
  },
  {
    "postal": "L7P8Z9",
    "result": []
  },
  {
    "postal": "L7P0N4",
    "result": []
  },
  {
    "postal": "L7P1K1",
    "result": [
      {
        "electoralDistricts": [
          {
            "election": null,
            "id": 15,
            "name": "Burlington"
          }
        ],
        "pollDivisionIds": [
          10137348
        ],
        "postalCode": "L7P1K1",
        "streetName": "BLUEFIELDS",
        "streetDirectionId": null,
        "streetTypeId": "DR",
        "placeName": "BURLINGTON",
        "streetNameDisplayText": "BLUEFIELDS DR, BURLINGTON"
      }
    ]
  },
  {
    "postal": "L7P1S3",
    "result": [
      {
        "electoralDistricts": [
          {
            "election": null,
            "id": 15,
            "name": "Burlington"
          }
        ],
        "pollDivisionIds": [
          10137346
        ],
        "postalCode": "L7P1S3",
        "streetName": "ALMA DALE",
        "streetDirectionId": null,
        "streetTypeId": "AVE",
        "placeName": "BURLINGTON",
        "streetNameDisplayText": "ALMA DALE AVE, BURLINGTON"
      }
    ]
  },
  {
    "postal": "L7P6M4",
    "result": []
  },
  {
    "postal": "L7P9A9",
    "result": []
  },
  {
    "postal": "L7P9Z9",
    "result": []
  },
  {
    "postal": "L7P6T4",
    "result": []
  },
  {
    "postal": "L7P0B2",
    "result": [
      {
        "electoralDistricts": [
          {
            "election": null,
            "id": 59,
            "name": "Milton"
          }
        ],
        "pollDivisionIds": [
          10126381
        ],
        "postalCode": "L7P0B2",
        "streetName": "BLIND",
        "streetDirectionId": null,
        "streetTypeId": "LINE",
        "placeName": "BURLINGTON",
        "streetNameDisplayText": "BLIND LINE, BURLINGTON"
      }
    ]
  },
  {
    "postal": "L7P2L9",
    "result": [
      {
        "electoralDistricts": [
          {
            "election": null,
            "id": 15,
            "name": "Burlington"
          }
        ],
        "pollDivisionIds": [
          10137346
        ],
        "postalCode": "L7P2L9",
        "streetName": "FISHER",
        "streetDirectionId": null,
        "streetTypeId": "AVE",
        "placeName": "BURLINGTON",
        "streetNameDisplayText": "FISHER AVE, BURLINGTON"
      }
    ]
  },
  {
    "postal": "L7P8K9",
    "result": []
  },
  {
    "postal": "L7P2H9",
    "result": [
      {
        "electoralDistricts": [
          {
            "election": null,
            "id": 15,
            "name": "Burlington"
          }
        ],
        "pollDivisionIds": [
          10137345
        ],
        "postalCode": "L7P2H9",
        "streetName": "MOUNTAIN GROVE",
        "streetDirectionId": null,
        "streetTypeId": "AVE",
        "placeName": "BURLINGTON",
        "streetNameDisplayText": "MOUNTAIN GROVE AVE, BURLINGTON"
      }
    ]
  },
  {
    "postal": "L7P3Z6",
    "result": [
      {
        "electoralDistricts": [
          {
            "election": null,
            "id": 15,
            "name": "Burlington"
          }
        ],
        "pollDivisionIds": [
          10137341
        ],
        "postalCode": "L7P3Z6",
        "streetName": "GLASTONBURY",
        "streetDirectionId": null,
        "streetTypeId": "RD",
        "placeName": "BURLINGTON",
        "streetNameDisplayText": "GLASTONBURY RD, BURLINGTON"
      }
    ]
  },
  {
    "postal": "L7P3B0",
    "result": []
  },
  {
    "postal": "L7P2H8",
    "result": [
      {
        "electoralDistricts": [
          {
            "election": null,
            "id": 15,
            "name": "Burlington"
          }
        ],
        "pollDivisionIds": [
          10137345
        ],
        "postalCode": "L7P2H8",
        "streetName": "MOUNTAIN GROVE",
        "streetDirectionId": null,
        "streetTypeId": "AV",
        "placeName": "BURLINGTON",
        "streetNameDisplayText": "MOUNTAIN GROVE AV, BURLINGTON"
      },
      {
        "electoralDistricts": [
          {
            "election": null,
            "id": 15,
            "name": "Burlington"
          }
        ],
        "pollDivisionIds": [
          10137345
        ],
        "postalCode": "L7P2H8",
        "streetName": "MOUNTAIN GROVE",
        "streetDirectionId": null,
        "streetTypeId": "AVE",
        "placeName": "BURLINGTON",
        "streetNameDisplayText": "MOUNTAIN GROVE AVE, BURLINGTON"
      }
    ]
  },
  {
    "postal": "L7P3X2",
    "result": [
      {
        "electoralDistricts": [
          {
            "election": null,
            "id": 15,
            "name": "Burlington"
          }
        ],
        "pollDivisionIds": [
          10137342
        ],
        "postalCode": "L7P3X2",
        "streetName": "MIDDLESMOOR",
        "streetDirectionId": null,
        "streetTypeId": "CRES",
        "placeName": "BURLINGTON",
        "streetNameDisplayText": "MIDDLESMOOR CRES, BURLINGTON"
      }
    ]
  },
  {
    "postal": "L7P2E9",
    "result": [
      {
        "electoralDistricts": [
          {
            "election": null,
            "id": 15,
            "name": "Burlington"
          }
        ],
        "pollDivisionIds": [
          10137346
        ],
        "postalCode": "L7P2E9",
        "streetName": "ROYAL",
        "streetDirectionId": null,
        "streetTypeId": "DR",
        "placeName": "BURLINGTON",
        "streetNameDisplayText": "ROYAL DR, BURLINGTON"
      }
    ]
  },
  {
    "postal": "L7P9P6",
    "result": []
  },
  {
    "postal": "L7P9E2",
    "result": []
  },
  {
    "postal": "L7P9H2",
    "result": []
  },
  {
    "postal": "L7P1S8",
    "result": [
      {
        "electoralDistricts": [
          {
            "election": null,
            "id": 15,
            "name": "Burlington"
          }
        ],
        "pollDivisionIds": [
          10137346
        ],
        "postalCode": "L7P1S8",
        "streetName": "PARKWAY",
        "streetDirectionId": null,
        "streetTypeId": "DR",
        "placeName": "BURLINGTON",
        "streetNameDisplayText": "PARKWAY DR, BURLINGTON"
      }
    ]
  },
  {
    "postal": "L7P3M6",
    "result": [
      {
        "electoralDistricts": [
          {
            "election": null,
            "id": 15,
            "name": "Burlington"
          }
        ],
        "pollDivisionIds": [
          10137343
        ],
        "postalCode": "L7P3M6",
        "streetName": "SINCLAIR",
        "streetDirectionId": null,
        "streetTypeId": "CIR",
        "placeName": "BURLINGTON",
        "streetNameDisplayText": "SINCLAIR CIR, BURLINGTON"
      }
    ]
  },
  {
    "postal": "L7P6Z8",
    "result": []
  },
  {
    "postal": "L7P4J2",
    "result": [
      {
        "electoralDistricts": [
          {
            "election": null,
            "id": 15,
            "name": "Burlington"
          }
        ],
        "pollDivisionIds": [
          10137341
        ],
        "postalCode": "L7P4J2",
        "streetName": "ARNOLD",
        "streetDirectionId": null,
        "streetTypeId": "CRES",
        "placeName": "BURLINGTON",
        "streetNameDisplayText": "ARNOLD CRES, BURLINGTON"
      }
    ]
  },
  {
    "postal": "L7P9Y1",
    "result": []
  },
  {
    "postal": "L7P8V6",
    "result": []
  },
  {
    "postal": "L7P6B2",
    "result": []
  },
  {
    "postal": "L7P1P8",
    "result": [
      {
        "electoralDistricts": [
          {
            "election": null,
            "id": 15,
            "name": "Burlington"
          }
        ],
        "pollDivisionIds": [
          10137360,
          10137342,
          10137348
        ],
        "postalCode": "L7P1P8",
        "streetName": "KERN'S",
        "streetDirectionId": null,
        "streetTypeId": "RD",
        "placeName": "BURLINGTON",
        "streetNameDisplayText": "KERN'S RD, BURLINGTON"
      }
    ]
  },
  {
    "postal": "L7P0V8",
    "result": []
  },
  {
    "postal": "L7P4Y0",
    "result": []
  },
  {
    "postal": "L7P2T4",
    "result": [
      {
        "electoralDistricts": [
          {
            "election": null,
            "id": 15,
            "name": "Burlington"
          }
        ],
        "pollDivisionIds": [
          10137345
        ],
        "postalCode": "L7P2T4",
        "streetName": "GUELPH",
        "streetDirectionId": null,
        "streetTypeId": "LINE",
        "placeName": "BURLINGTON",
        "streetNameDisplayText": "GUELPH LINE, BURLINGTON"
      }
    ]
  },
  {
    "postal": "L7P2S3",
    "result": [
      {
        "electoralDistricts": [
          {
            "election": null,
            "id": 15,
            "name": "Burlington"
          }
        ],
        "pollDivisionIds": [
          10137348,
          10137346
        ],
        "postalCode": "L7P2S3",
        "streetName": "TYRRELL",
        "streetDirectionId": null,
        "streetTypeId": "RD",
        "placeName": "BURLINGTON",
        "streetNameDisplayText": "TYRRELL RD, BURLINGTON"
      }
    ]
  },
  {
    "postal": "L7P0K0",
    "result": []
  },
  {
    "postal": "L7P5N1",
    "result": []
  },
  {
    "postal": "L7P7T0",
    "result": []
  },
  {
    "postal": "L7P9N2",
    "result": []
  },
  {
    "postal": "L7P5L1",
    "result": []
  },
  {
    "postal": "L7P7G5",
    "result": []
  },
  {
    "postal": "L7P6K2",
    "result": []
  },
  {
    "postal": "L7P6P9",
    "result": []
  },
  {
    "postal": "L7P0E6",
    "result": [
      {
        "electoralDistricts": [
          {
            "election": null,
            "id": 59,
            "name": "Milton"
          }
        ],
        "pollDivisionIds": [
          10126381
        ],
        "postalCode": "L7P0E6",
        "streetName": "8",
        "streetDirectionId": null,
        "streetTypeId": "SIDERD",
        "placeName": "BURLINGTON",
        "streetNameDisplayText": "8 SIDERD, BURLINGTON"
      }
    ]
  },
  {
    "postal": "L7P8R9",
    "result": []
  },
  {
    "postal": "L7P3G9",
    "result": [
      {
        "electoralDistricts": [
          {
            "election": null,
            "id": 15,
            "name": "Burlington"
          }
        ],
        "pollDivisionIds": [
          10137348
        ],
        "postalCode": "L7P3G9",
        "streetName": "KERN'S",
        "streetDirectionId": null,
        "streetTypeId": "RD",
        "placeName": "BURLINGTON",
        "streetNameDisplayText": "KERN'S RD, BURLINGTON"
      }
    ]
  },
  {
    "postal": "L7P0V7",
    "result": []
  },
  {
    "postal": "L7P2Z1",
    "result": [
      {
        "electoralDistricts": [
          {
            "election": null,
            "id": 15,
            "name": "Burlington"
          }
        ],
        "pollDivisionIds": [
          10137348
        ],
        "postalCode": "L7P2Z1",
        "streetName": "HEATHER HILLS",
        "streetDirectionId": null,
        "streetTypeId": "DR",
        "placeName": "BURLINGTON",
        "streetNameDisplayText": "HEATHER HILLS DR, BURLINGTON"
      }
    ]
  },
  {
    "postal": "L7P7N1",
    "result": []
  },
  {
    "postal": "L7P3C6",
    "result": [
      {
        "electoralDistricts": [
          {
            "election": null,
            "id": 15,
            "name": "Burlington"
          }
        ],
        "pollDivisionIds": [
          10137343
        ],
        "postalCode": "L7P3C6",
        "streetName": "DEVLIN",
        "streetDirectionId": null,
        "streetTypeId": "DR",
        "placeName": "BURLINGTON",
        "streetNameDisplayText": "DEVLIN DR, BURLINGTON"
      }
    ]
  },
  {
    "postal": "L7P4M1",
    "result": [
      {
        "electoralDistricts": [
          {
            "election": null,
            "id": 15,
            "name": "Burlington"
          }
        ],
        "pollDivisionIds": [
          10137341
        ],
        "postalCode": "L7P4M1",
        "streetName": "PAULA",
        "streetDirectionId": null,
        "streetTypeId": "CRT",
        "placeName": "BURLINGTON",
        "streetNameDisplayText": "PAULA CRT, BURLINGTON"
      }
    ]
  },
  {
    "postal": "L7P9K2",
    "result": []
  },
  {
    "postal": "L7P9S6",
    "result": []
  },
  {
    "postal": "L7P4X1",
    "result": [
      {
        "electoralDistricts": [
          {
            "election": null,
            "id": 15,
            "name": "Burlington"
          }
        ],
        "pollDivisionIds": [
          10137348
        ],
        "postalCode": "L7P4X1",
        "streetName": "CROFTON",
        "streetDirectionId": null,
        "streetTypeId": "WAY",
        "placeName": "BURLINGTON",
        "streetNameDisplayText": "CROFTON WAY, BURLINGTON"
      }
    ]
  },
  {
    "postal": "L7P8W2",
    "result": []
  },
  {
    "postal": "L7P7N2",
    "result": []
  },
  {
    "postal": "L7P8S3",
    "result": []
  },
  {
    "postal": "L7P4V0",
    "result": []
  },
  {
    "postal": "L7P6W4",
    "result": []
  },
  {
    "postal": "L7P5M1",
    "result": []
  },
  {
    "postal": "L7P0S4",
    "result": [
      {
        "electoralDistricts": [
          {
            "election": null,
            "id": 59,
            "name": "Milton"
          }
        ],
        "pollDivisionIds": [
          10126381
        ],
        "postalCode": "L7P0S4",
        "streetName": "1 SIDE",
        "streetDirectionId": null,
        "streetTypeId": "RD",
        "placeName": "BURLINGTON",
        "streetNameDisplayText": "1 SIDE RD, BURLINGTON"
      },
      {
        "electoralDistricts": [
          {
            "election": null,
            "id": 59,
            "name": "Milton"
          }
        ],
        "pollDivisionIds": [
          10126381
        ],
        "postalCode": "L7P0S4",
        "streetName": "1 SIDERD",
        "streetDirectionId": null,
        "streetTypeId": "RD",
        "placeName": "BURLINGTON",
        "streetNameDisplayText": "1 SIDERD RD, BURLINGTON"
      },
      {
        "electoralDistricts": [
          {
            "election": null,
            "id": 59,
            "name": "Milton"
          }
        ],
        "pollDivisionIds": [
          10126381
        ],
        "postalCode": "L7P0S4",
        "streetName": "NO 1 SIDE",
        "streetDirectionId": null,
        "streetTypeId": "RD",
        "placeName": "BURLINGTON",
        "streetNameDisplayText": "NO 1 SIDE RD, BURLINGTON"
      },
      {
        "electoralDistricts": [
          {
            "election": null,
            "id": 59,
            "name": "Milton"
          }
        ],
        "pollDivisionIds": [
          10126381
        ],
        "postalCode": "L7P0S4",
        "streetName": "NO 1",
        "streetDirectionId": null,
        "streetTypeId": "SIDERD",
        "placeName": "BURLINGTON",
        "streetNameDisplayText": "NO 1 SIDERD, BURLINGTON"
      }
    ]
  },
  {
    "postal": "L7P5X6",
    "result": []
  },
  {
    "postal": "L7P8L5",
    "result": []
  },
  {
    "postal": "L7P5M8",
    "result": []
  },
  {
    "postal": "L7P2G3",
    "result": [
      {
        "electoralDistricts": [
          {
            "election": null,
            "id": 15,
            "name": "Burlington"
          }
        ],
        "pollDivisionIds": [
          10137346
        ],
        "postalCode": "L7P2G3",
        "streetName": "ROYAL",
        "streetDirectionId": null,
        "streetTypeId": "DR",
        "placeName": "BURLINGTON",
        "streetNameDisplayText": "ROYAL DR, BURLINGTON"
      }
    ]
  },
  {
    "postal": "L7P8E4",
    "result": []
  },
  {
    "postal": "L7P7S9",
    "result": []
  },
  {
    "postal": "L7P1K3",
    "result": [
      {
        "electoralDistricts": [
          {
            "election": null,
            "id": 15,
            "name": "Burlington"
          }
        ],
        "pollDivisionIds": [
          10137348
        ],
        "postalCode": "L7P1K3",
        "streetName": "JANINA",
        "streetDirectionId": null,
        "streetTypeId": "BLVD",
        "placeName": "BURLINGTON",
        "streetNameDisplayText": "JANINA BLVD, BURLINGTON"
      }
    ]
  },
  {
    "postal": "L7P4E1",
    "result": [
      {
        "electoralDistricts": [
          {
            "election": null,
            "id": 15,
            "name": "Burlington"
          }
        ],
        "pollDivisionIds": [
          10137341
        ],
        "postalCode": "L7P4E1",
        "streetName": "MELISSA",
        "streetDirectionId": null,
        "streetTypeId": "CRES",
        "placeName": "BURLINGTON",
        "streetNameDisplayText": "MELISSA CRES, BURLINGTON"
      }
    ]
  },
  {
    "postal": "L7P4R2",
    "result": [
      {
        "electoralDistricts": [
          {
            "election": null,
            "id": 15,
            "name": "Burlington"
          }
        ],
        "pollDivisionIds": [
          10137341
        ],
        "postalCode": "L7P4R2",
        "streetName": "WHITTAKER",
        "streetDirectionId": null,
        "streetTypeId": "DR",
        "placeName": "BURLINGTON",
        "streetNameDisplayText": "WHITTAKER DR, BURLINGTON"
      }
    ]
  },
  {
    "postal": "L7P6T0",
    "result": []
  },
  {
    "postal": "L7P3K5",
    "result": [
      {
        "electoralDistricts": [
          {
            "election": null,
            "id": 15,
            "name": "Burlington"
          }
        ],
        "pollDivisionIds": [
          10137345
        ],
        "postalCode": "L7P3K5",
        "streetName": "CORAL",
        "streetDirectionId": null,
        "streetTypeId": "CRES",
        "placeName": "BURLINGTON",
        "streetNameDisplayText": "CORAL CRES, BURLINGTON"
      }
    ]
  },
  {
    "postal": "L7P3S3",
    "result": [
      {
        "electoralDistricts": [
          {
            "election": null,
            "id": 15,
            "name": "Burlington"
          }
        ],
        "pollDivisionIds": [
          10137343
        ],
        "postalCode": "L7P3S3",
        "streetName": "LARABEE",
        "streetDirectionId": null,
        "streetTypeId": "CRT",
        "placeName": "BURLINGTON",
        "streetNameDisplayText": "LARABEE CRT, BURLINGTON"
      }
    ]
  },
  {
    "postal": "L7P3L4",
    "result": [
      {
        "electoralDistricts": [
          {
            "election": null,
            "id": 15,
            "name": "Burlington"
          }
        ],
        "pollDivisionIds": [
          10137345
        ],
        "postalCode": "L7P3L4",
        "streetName": "IRELAND",
        "streetDirectionId": null,
        "streetTypeId": "DR",
        "placeName": "BURLINGTON",
        "streetNameDisplayText": "IRELAND DR, BURLINGTON"
      }
    ]
  },
  {
    "postal": "L7P9Y2",
    "result": []
  },
  {
    "postal": "L7P1E0",
    "result": []
  },
  {
    "postal": "L7P9A4",
    "result": []
  },
  {
    "postal": "L7P1L3",
    "result": [
      {
        "electoralDistricts": [
          {
            "election": null,
            "id": 15,
            "name": "Burlington"
          }
        ],
        "pollDivisionIds": [
          10137348
        ],
        "postalCode": "L7P1L3",
        "streetName": "ESTER",
        "streetDirectionId": null,
        "streetTypeId": "DR",
        "placeName": "BURLINGTON",
        "streetNameDisplayText": "ESTER DR, BURLINGTON"
      }
    ]
  },
  {
    "postal": "L7P6N1",
    "result": []
  },
  {
    "postal": "L7P6G7",
    "result": []
  },
  {
    "postal": "L7P7W1",
    "result": []
  },
  {
    "postal": "L7P4M6",
    "result": [
      {
        "electoralDistricts": [
          {
            "election": null,
            "id": 15,
            "name": "Burlington"
          }
        ],
        "pollDivisionIds": [
          10143406
        ],
        "postalCode": "L7P4M6",
        "streetName": "AMHERST HEIGHTS",
        "streetDirectionId": null,
        "streetTypeId": "DR",
        "placeName": "BURLINGTON",
        "streetNameDisplayText": "AMHERST HEIGHTS DR, BURLINGTON"
      }
    ]
  },
  {
    "postal": "L7P1K0",
    "result": []
  },
  {
    "postal": "L7P3E2",
    "result": [
      {
        "electoralDistricts": [
          {
            "election": null,
            "id": 15,
            "name": "Burlington"
          }
        ],
        "pollDivisionIds": [
          10137342
        ],
        "postalCode": "L7P3E2",
        "streetName": "HAVENDALE",
        "streetDirectionId": null,
        "streetTypeId": "BLVD",
        "placeName": "BURLINGTON",
        "streetNameDisplayText": "HAVENDALE BLVD, BURLINGTON"
      }
    ]
  },
  {
    "postal": "L7P5H4",
    "result": []
  },
  {
    "postal": "L7P1K7",
    "result": [
      {
        "electoralDistricts": [
          {
            "election": null,
            "id": 15,
            "name": "Burlington"
          }
        ],
        "pollDivisionIds": [
          10137348
        ],
        "postalCode": "L7P1K7",
        "streetName": "JANINA",
        "streetDirectionId": null,
        "streetTypeId": "BLVD",
        "placeName": "BURLINGTON",
        "streetNameDisplayText": "JANINA BLVD, BURLINGTON"
      }
    ]
  },
  {
    "postal": "L7P0H0",
    "result": []
  },
  {
    "postal": "L7P0J3",
    "result": [
      {
        "electoralDistricts": [
          {
            "election": null,
            "id": 59,
            "name": "Milton"
          }
        ],
        "pollDivisionIds": [
          10126381
        ],
        "postalCode": "L7P0J3",
        "streetName": "KILBRIDE",
        "streetDirectionId": null,
        "streetTypeId": "ST",
        "placeName": "BURLINGTON",
        "streetNameDisplayText": "KILBRIDE ST, BURLINGTON"
      }
    ]
  },
  {
    "postal": "L7P1X6",
    "result": []
  },
  {
    "postal": "L7P2Z6",
    "result": [
      {
        "electoralDistricts": [
          {
            "election": null,
            "id": 15,
            "name": "Burlington"
          }
        ],
        "pollDivisionIds": [
          10137343
        ],
        "postalCode": "L7P2Z6",
        "streetName": "CARTIER",
        "streetDirectionId": null,
        "streetTypeId": "CRES",
        "placeName": "BURLINGTON",
        "streetNameDisplayText": "CARTIER CRES, BURLINGTON"
      }
    ]
  },
  {
    "postal": "L7P4R9",
    "result": [
      {
        "electoralDistricts": [
          {
            "election": null,
            "id": 15,
            "name": "Burlington"
          }
        ],
        "pollDivisionIds": [
          10137344
        ],
        "postalCode": "L7P4R9",
        "streetName": "AMHERST HEIGHTS",
        "streetDirectionId": null,
        "streetTypeId": "CRT",
        "placeName": "BURLINGTON",
        "streetNameDisplayText": "AMHERST HEIGHTS CRT, BURLINGTON"
      }
    ]
  },
  {
    "postal": "L7P0W8",
    "result": []
  },
  {
    "postal": "L7P1L4",
    "result": [
      {
        "electoralDistricts": [
          {
            "election": null,
            "id": 15,
            "name": "Burlington"
          }
        ],
        "pollDivisionIds": [
          10137348
        ],
        "postalCode": "L7P1L4",
        "streetName": "ESTER",
        "streetDirectionId": null,
        "streetTypeId": "DR",
        "placeName": "BURLINGTON",
        "streetNameDisplayText": "ESTER DR, BURLINGTON"
      }
    ]
  },
  {
    "postal": "L7P0C8",
    "result": [
      {
        "electoralDistricts": [
          {
            "election": null,
            "id": 59,
            "name": "Milton"
          }
        ],
        "pollDivisionIds": [
          10126381
        ],
        "postalCode": "L7P0C8",
        "streetName": "MILBUROUGH",
        "streetDirectionId": null,
        "streetTypeId": "LINE",
        "placeName": "BURLINGTON",
        "streetNameDisplayText": "MILBUROUGH LINE, BURLINGTON"
      }
    ]
  },
  {
    "postal": "L7P9X7",
    "result": []
  },
  {
    "postal": "L7P4T1",
    "result": [
      {
        "electoralDistricts": [
          {
            "election": null,
            "id": 15,
            "name": "Burlington"
          }
        ],
        "pollDivisionIds": [
          10137348
        ],
        "postalCode": "L7P4T1",
        "streetName": "BROOKBRIDGE",
        "streetDirectionId": null,
        "streetTypeId": "DR",
        "placeName": "BURLINGTON",
        "streetNameDisplayText": "BROOKBRIDGE DR, BURLINGTON"
      },
      {
        "electoralDistricts": [
          {
            "election": null,
            "id": 15,
            "name": "Burlington"
          }
        ],
        "pollDivisionIds": [
          10137348
        ],
        "postalCode": "L7P4T1",
        "streetName": "WHITE CEDAR",
        "streetDirectionId": null,
        "streetTypeId": "TRAIL",
        "placeName": "BURLINGTON",
        "streetNameDisplayText": "WHITE CEDAR TRAIL, BURLINGTON"
      }
    ]
  },
  {
    "postal": "L7P0M0",
    "result": []
  },
  {
    "postal": "L7P6A2",
    "result": []
  },
  {
    "postal": "L7P9S8",
    "result": []
  },
  {
    "postal": "L7P9T4",
    "result": []
  },
  {
    "postal": "L7P9Y4",
    "result": []
  },
  {
    "postal": "L7P6G5",
    "result": []
  },
  {
    "postal": "L7P6H9",
    "result": []
  },
  {
    "postal": "L7P2P3",
    "result": [
      {
        "electoralDistricts": [
          {
            "election": null,
            "id": 15,
            "name": "Burlington"
          }
        ],
        "pollDivisionIds": [
          10137347
        ],
        "postalCode": "L7P2P3",
        "streetName": "ROSEMARY",
        "streetDirectionId": null,
        "streetTypeId": "CRES",
        "placeName": "BURLINGTON",
        "streetNameDisplayText": "ROSEMARY CRES, BURLINGTON"
      }
    ]
  },
  {
    "postal": "L7P1T6",
    "result": [
      {
        "electoralDistricts": [
          {
            "election": null,
            "id": 15,
            "name": "Burlington"
          }
        ],
        "pollDivisionIds": [
          10137346
        ],
        "postalCode": "L7P1T6",
        "streetName": "ROLLING",
        "streetDirectionId": null,
        "streetTypeId": "CRT",
        "placeName": "BURLINGTON",
        "streetNameDisplayText": "ROLLING CRT, BURLINGTON"
      }
    ]
  },
  {
    "postal": "L7P4P6",
    "result": [
      {
        "electoralDistricts": [
          {
            "election": null,
            "id": 15,
            "name": "Burlington"
          }
        ],
        "pollDivisionIds": [
          10137341
        ],
        "postalCode": "L7P4P6",
        "streetName": "ALDERSON",
        "streetDirectionId": null,
        "streetTypeId": "CRT",
        "placeName": "BURLINGTON",
        "streetNameDisplayText": "ALDERSON CRT, BURLINGTON"
      }
    ]
  },
  {
    "postal": "L7P3K1",
    "result": [
      {
        "electoralDistricts": [
          {
            "election": null,
            "id": 15,
            "name": "Burlington"
          }
        ],
        "pollDivisionIds": [
          10137343
        ],
        "postalCode": "L7P3K1",
        "streetName": "SINCLAIR",
        "streetDirectionId": null,
        "streetTypeId": "CIR",
        "placeName": "BURLINGTON",
        "streetNameDisplayText": "SINCLAIR CIR, BURLINGTON"
      }
    ]
  },
  {
    "postal": "L7P6X4",
    "result": []
  },
  {
    "postal": "L7P4M8",
    "result": [
      {
        "electoralDistricts": [
          {
            "election": null,
            "id": 75,
            "name": "Oakville North—Burlington"
          }
        ],
        "pollDivisionIds": [
          10140424
        ],
        "postalCode": "L7P4M8",
        "streetName": "GUELPH",
        "streetDirectionId": null,
        "streetTypeId": "LINE",
        "placeName": "BURLINGTON",
        "streetNameDisplayText": "GUELPH LINE, BURLINGTON"
      }
    ]
  },
  {
    "postal": "L7P2Y1",
    "result": [
      {
        "electoralDistricts": [
          {
            "election": null,
            "id": 15,
            "name": "Burlington"
          }
        ],
        "pollDivisionIds": [
          10137348
        ],
        "postalCode": "L7P2Y1",
        "streetName": "FOUR SEASONS",
        "streetDirectionId": null,
        "streetTypeId": "DR",
        "placeName": "BURLINGTON",
        "streetNameDisplayText": "FOUR SEASONS DR, BURLINGTON"
      }
    ]
  },
  {
    "postal": "L7P6M1",
    "result": []
  },
  {
    "postal": "L7P5L8",
    "result": []
  },
  {
    "postal": "L7P3P6",
    "result": [
      {
        "electoralDistricts": [
          {
            "election": null,
            "id": 15,
            "name": "Burlington"
          }
        ],
        "pollDivisionIds": [
          10137342
        ],
        "postalCode": "L7P3P6",
        "streetName": "FAIRCHILD",
        "streetDirectionId": null,
        "streetTypeId": "BLVD",
        "placeName": "BURLINGTON",
        "streetNameDisplayText": "FAIRCHILD BLVD, BURLINGTON"
      }
    ]
  },
  {
    "postal": "L7P9A5",
    "result": []
  },
  {
    "postal": "L7P7K1",
    "result": []
  },
  {
    "postal": "L7P3J4",
    "result": [
      {
        "electoralDistricts": [
          {
            "election": null,
            "id": 15,
            "name": "Burlington"
          }
        ],
        "pollDivisionIds": [
          10137342
        ],
        "postalCode": "L7P3J4",
        "streetName": "MANSFIELD",
        "streetDirectionId": null,
        "streetTypeId": "DR",
        "placeName": "BURLINGTON",
        "streetNameDisplayText": "MANSFIELD DR, BURLINGTON"
      }
    ]
  },
  {
    "postal": "L7P5E7",
    "result": []
  },
  {
    "postal": "L7P3A7",
    "result": [
      {
        "electoralDistricts": [
          {
            "election": null,
            "id": 59,
            "name": "Milton"
          },
          {
            "election": null,
            "id": 15,
            "name": "Burlington"
          }
        ],
        "pollDivisionIds": [
          10126374,
          10137348
        ],
        "postalCode": "L7P3A7",
        "streetName": "KERNS",
        "streetDirectionId": null,
        "streetTypeId": "RD",
        "placeName": "BURLINGTON",
        "streetNameDisplayText": "KERNS RD, BURLINGTON"
      },
      {
        "electoralDistricts": [
          {
            "election": null,
            "id": 15,
            "name": "Burlington"
          }
        ],
        "pollDivisionIds": [
          10137348
        ],
        "postalCode": "L7P3A7",
        "streetName": "KERN'S",
        "streetDirectionId": null,
        "streetTypeId": "RD",
        "placeName": "BURLINGTON",
        "streetNameDisplayText": "KERN'S RD, BURLINGTON"
      }
    ]
  },
  {
    "postal": "L7P1B9",
    "result": [
      {
        "electoralDistricts": [
          {
            "election": null,
            "id": 15,
            "name": "Burlington"
          }
        ],
        "pollDivisionIds": [
          10137347
        ],
        "postalCode": "L7P1B9",
        "streetName": "MOUNTAINSIDE",
        "streetDirectionId": null,
        "streetTypeId": "DR",
        "placeName": "BURLINGTON",
        "streetNameDisplayText": "MOUNTAINSIDE DR, BURLINGTON"
      }
    ]
  },
  {
    "postal": "L7P9E8",
    "result": []
  },
  {
    "postal": "L7P1C9",
    "result": [
      {
        "electoralDistricts": [
          {
            "election": null,
            "id": 15,
            "name": "Burlington"
          }
        ],
        "pollDivisionIds": [
          10137347
        ],
        "postalCode": "L7P1C9",
        "streetName": "MOUNTAINSIDE",
        "streetDirectionId": null,
        "streetTypeId": "DR",
        "placeName": "BURLINGTON",
        "streetNameDisplayText": "MOUNTAINSIDE DR, BURLINGTON"
      }
    ]
  },
  {
    "postal": "L7P3B5",
    "result": [
      {
        "electoralDistricts": [
          {
            "election": null,
            "id": 15,
            "name": "Burlington"
          }
        ],
        "pollDivisionIds": [
          10137343
        ],
        "postalCode": "L7P3B5",
        "streetName": "CAVENDISH",
        "streetDirectionId": null,
        "streetTypeId": "DR",
        "placeName": "BURLINGTON",
        "streetNameDisplayText": "CAVENDISH DR, BURLINGTON"
      }
    ]
  },
  {
    "postal": "L7P8R0",
    "result": []
  },
  {
    "postal": "L7P3P2",
    "result": [
      {
        "electoralDistricts": [
          {
            "election": null,
            "id": 15,
            "name": "Burlington"
          }
        ],
        "pollDivisionIds": [
          10137343
        ],
        "postalCode": "L7P3P2",
        "streetName": "ARROW",
        "streetDirectionId": null,
        "streetTypeId": "CRT",
        "placeName": "BURLINGTON",
        "streetNameDisplayText": "ARROW CRT, BURLINGTON"
      }
    ]
  },
  {
    "postal": "L7P5V4",
    "result": []
  },
  {
    "postal": "L7P4H0",
    "result": []
  },
  {
    "postal": "L7P4S7",
    "result": [
      {
        "electoralDistricts": [
          {
            "election": null,
            "id": 15,
            "name": "Burlington"
          }
        ],
        "pollDivisionIds": [
          10137348
        ],
        "postalCode": "L7P4S7",
        "streetName": "BROOKBRIDGE",
        "streetDirectionId": null,
        "streetTypeId": "DR",
        "placeName": "BURLINGTON",
        "streetNameDisplayText": "BROOKBRIDGE DR, BURLINGTON"
      },
      {
        "electoralDistricts": [
          {
            "election": null,
            "id": 15,
            "name": "Burlington"
          }
        ],
        "pollDivisionIds": [
          10137348
        ],
        "postalCode": "L7P4S7",
        "streetName": "WINTERBERRY",
        "streetDirectionId": null,
        "streetTypeId": "DR",
        "placeName": "BURLINGTON",
        "streetNameDisplayText": "WINTERBERRY DR, BURLINGTON"
      }
    ]
  },
  {
    "postal": "L7P6C2",
    "result": []
  },
  {
    "postal": "L7P8W3",
    "result": []
  },
  {
    "postal": "L7P4M5",
    "result": [
      {
        "electoralDistricts": [
          {
            "election": null,
            "id": 15,
            "name": "Burlington"
          }
        ],
        "pollDivisionIds": [
          10137342
        ],
        "postalCode": "L7P4M5",
        "streetName": "UPPER MIDDLE",
        "streetDirectionId": null,
        "streetTypeId": "RD",
        "placeName": "BURLINGTON",
        "streetNameDisplayText": "UPPER MIDDLE RD, BURLINGTON"
      }
    ]
  },
  {
    "postal": "L7P5T1",
    "result": []
  },
  {
    "postal": "L7P3B3",
    "result": [
      {
        "electoralDistricts": [
          {
            "election": null,
            "id": 15,
            "name": "Burlington"
          }
        ],
        "pollDivisionIds": [
          10137343
        ],
        "postalCode": "L7P3B3",
        "streetName": "SINCLAIR",
        "streetDirectionId": null,
        "streetTypeId": "CIR",
        "placeName": "BURLINGTON",
        "streetNameDisplayText": "SINCLAIR CIR, BURLINGTON"
      }
    ]
  },
  {
    "postal": "L7P6C6",
    "result": []
  },
  {
    "postal": "L7P7N8",
    "result": []
  },
  {
    "postal": "L7P2Y3",
    "result": [
      {
        "electoralDistricts": [
          {
            "election": null,
            "id": 15,
            "name": "Burlington"
          }
        ],
        "pollDivisionIds": [
          10137348
        ],
        "postalCode": "L7P2Y3",
        "streetName": "FOUR SEASONS",
        "streetDirectionId": null,
        "streetTypeId": "DR",
        "placeName": "BURLINGTON",
        "streetNameDisplayText": "FOUR SEASONS DR, BURLINGTON"
      }
    ]
  },
  {
    "postal": "L7P2R6",
    "result": [
      {
        "electoralDistricts": [
          {
            "election": null,
            "id": 15,
            "name": "Burlington"
          }
        ],
        "pollDivisionIds": [
          10137347
        ],
        "postalCode": "L7P2R6",
        "streetName": "NOTTINGHAM",
        "streetDirectionId": null,
        "streetTypeId": "AVE",
        "placeName": "BURLINGTON",
        "streetNameDisplayText": "NOTTINGHAM AVE, BURLINGTON"
      }
    ]
  },
  {
    "postal": "L7P7N3",
    "result": []
  },
  {
    "postal": "L7P8J2",
    "result": []
  },
  {
    "postal": "L7P6A9",
    "result": []
  },
  {
    "postal": "L7P3V2",
    "result": [
      {
        "electoralDistricts": [
          {
            "election": null,
            "id": 15,
            "name": "Burlington"
          }
        ],
        "pollDivisionIds": [
          10137341
        ],
        "postalCode": "L7P3V2",
        "streetName": "HOLYHEAD",
        "streetDirectionId": null,
        "streetTypeId": "DR",
        "placeName": "BURLINGTON",
        "streetNameDisplayText": "HOLYHEAD DR, BURLINGTON"
      }
    ]
  },
  {
    "postal": "L7P2N3",
    "result": [
      {
        "electoralDistricts": [
          {
            "election": null,
            "id": 15,
            "name": "Burlington"
          }
        ],
        "pollDivisionIds": [
          10137347
        ],
        "postalCode": "L7P2N3",
        "streetName": "TAVISTOCK",
        "streetDirectionId": null,
        "streetTypeId": "DR",
        "placeName": "BURLINGTON",
        "streetNameDisplayText": "TAVISTOCK DR, BURLINGTON"
      }
    ]
  },
  {
    "postal": "L7P1S5",
    "result": [
      {
        "electoralDistricts": [
          {
            "election": null,
            "id": 15,
            "name": "Burlington"
          }
        ],
        "pollDivisionIds": [
          10137346
        ],
        "postalCode": "L7P1S5",
        "streetName": "PARKWAY",
        "streetDirectionId": null,
        "streetTypeId": "DR",
        "placeName": "BURLINGTON",
        "streetNameDisplayText": "PARKWAY DR, BURLINGTON"
      }
    ]
  },
  {
    "postal": "L7P4T7",
    "result": [
      {
        "electoralDistricts": [
          {
            "election": null,
            "id": 15,
            "name": "Burlington"
          }
        ],
        "pollDivisionIds": [
          10137348
        ],
        "postalCode": "L7P4T7",
        "streetName": "WINTERBERRY",
        "streetDirectionId": null,
        "streetTypeId": "DR",
        "placeName": "BURLINGTON",
        "streetNameDisplayText": "WINTERBERRY DR, BURLINGTON"
      }
    ]
  },
  {
    "postal": "L7P6Y7",
    "result": []
  },
  {
    "postal": "L7P0W7",
    "result": []
  },
  {
    "postal": "L7P2W9",
    "result": [
      {
        "electoralDistricts": [
          {
            "election": null,
            "id": 15,
            "name": "Burlington"
          }
        ],
        "pollDivisionIds": [
          10137343
        ],
        "postalCode": "L7P2W9",
        "streetName": "SHEFFIELD",
        "streetDirectionId": null,
        "streetTypeId": "DR",
        "placeName": "BURLINGTON",
        "streetNameDisplayText": "SHEFFIELD DR, BURLINGTON"
      }
    ]
  },
  {
    "postal": "L7P8V0",
    "result": []
  },
  {
    "postal": "L7P0H4",
    "result": [
      {
        "electoralDistricts": [
          {
            "election": null,
            "id": 59,
            "name": "Milton"
          }
        ],
        "pollDivisionIds": [
          10126381
        ],
        "postalCode": "L7P0H4",
        "streetName": "KILBRIDE",
        "streetDirectionId": null,
        "streetTypeId": "ST",
        "placeName": "BURLINGTON",
        "streetNameDisplayText": "KILBRIDE ST, BURLINGTON"
      }
    ]
  },
  {
    "postal": "L7P2T1",
    "result": [
      {
        "electoralDistricts": [
          {
            "election": null,
            "id": 15,
            "name": "Burlington"
          }
        ],
        "pollDivisionIds": [
          10137336
        ],
        "postalCode": "L7P2T1",
        "streetName": "GUELPH",
        "streetDirectionId": null,
        "streetTypeId": "LINE",
        "placeName": "BURLINGTON",
        "streetNameDisplayText": "GUELPH LINE, BURLINGTON"
      }
    ]
  },
  {
    "postal": "L7P1B1",
    "result": [
      {
        "electoralDistricts": [
          {
            "election": null,
            "id": 15,
            "name": "Burlington"
          }
        ],
        "pollDivisionIds": [
          10137347,
          10137348
        ],
        "postalCode": "L7P1B1",
        "streetName": "MOUNTAINSIDE",
        "streetDirectionId": null,
        "streetTypeId": "DR",
        "placeName": "BURLINGTON",
        "streetNameDisplayText": "MOUNTAINSIDE DR, BURLINGTON"
      }
    ]
  },
  {
    "postal": "L7P8B6",
    "result": []
  },
  {
    "postal": "L7P6H1",
    "result": []
  },
  {
    "postal": "L7P8T8",
    "result": []
  },
  {
    "postal": "L7P0T4",
    "result": [
      {
        "electoralDistricts": [
          {
            "election": null,
            "id": 15,
            "name": "Burlington"
          }
        ],
        "pollDivisionIds": [
          10137361
        ],
        "postalCode": "L7P0T4",
        "streetName": "CRAVEN",
        "streetDirectionId": null,
        "streetTypeId": "AVE",
        "placeName": "BURLINGTON",
        "streetNameDisplayText": "CRAVEN AVE, BURLINGTON"
      },
      {
        "electoralDistricts": [
          {
            "election": null,
            "id": 15,
            "name": "Burlington"
          }
        ],
        "pollDivisionIds": [
          10137361
        ],
        "postalCode": "L7P0T4",
        "streetName": "NEVARC",
        "streetDirectionId": null,
        "streetTypeId": "DR",
        "placeName": "BURLINGTON",
        "streetNameDisplayText": "NEVARC DR, BURLINGTON"
      },
      {
        "electoralDistricts": [
          {
            "election": null,
            "id": 15,
            "name": "Burlington"
          }
        ],
        "pollDivisionIds": [
          10137361
        ],
        "postalCode": "L7P0T4",
        "streetName": "WATERDOWN",
        "streetDirectionId": null,
        "streetTypeId": "RD",
        "placeName": "BURLINGTON",
        "streetNameDisplayText": "WATERDOWN RD, BURLINGTON"
      }
    ]
  },
  {
    "postal": "L7P2C4",
    "result": [
      {
        "electoralDistricts": [
          {
            "election": null,
            "id": 15,
            "name": "Burlington"
          }
        ],
        "pollDivisionIds": [
          10137346
        ],
        "postalCode": "L7P2C4",
        "streetName": "INNSWOOD",
        "streetDirectionId": null,
        "streetTypeId": "DR",
        "placeName": "BURLINGTON",
        "streetNameDisplayText": "INNSWOOD DR, BURLINGTON"
      }
    ]
  },
  {
    "postal": "L7P8N3",
    "result": []
  },
  {
    "postal": "L7P4L8",
    "result": [
      {
        "electoralDistricts": [
          {
            "election": null,
            "id": 15,
            "name": "Burlington"
          }
        ],
        "pollDivisionIds": [
          10137342
        ],
        "postalCode": "L7P4L8",
        "streetName": "MELISSA",
        "streetDirectionId": null,
        "streetTypeId": "CRES",
        "placeName": "BURLINGTON",
        "streetNameDisplayText": "MELISSA CRES, BURLINGTON"
      }
    ]
  },
  {
    "postal": "L7P2B5",
    "result": [
      {
        "electoralDistricts": [
          {
            "election": null,
            "id": 15,
            "name": "Burlington"
          }
        ],
        "pollDivisionIds": [
          10137346
        ],
        "postalCode": "L7P2B5",
        "streetName": "WESTMINSTER",
        "streetDirectionId": null,
        "streetTypeId": "PL",
        "placeName": "BURLINGTON",
        "streetNameDisplayText": "WESTMINSTER PL, BURLINGTON"
      }
    ]
  },
  {
    "postal": "L7P3H1",
    "result": [
      {
        "electoralDistricts": [
          {
            "election": null,
            "id": 15,
            "name": "Burlington"
          }
        ],
        "pollDivisionIds": [
          10137348
        ],
        "postalCode": "L7P3H1",
        "streetName": "KERN'S",
        "streetDirectionId": null,
        "streetTypeId": "RD",
        "placeName": "BURLINGTON",
        "streetNameDisplayText": "KERN'S RD, BURLINGTON"
      }
    ]
  },
  {
    "postal": "L7P4Y1",
    "result": [
      {
        "electoralDistricts": [
          {
            "election": null,
            "id": 15,
            "name": "Burlington"
          }
        ],
        "pollDivisionIds": [
          10137362
        ],
        "postalCode": "L7P4Y1",
        "streetName": "SNAKE",
        "streetDirectionId": null,
        "streetTypeId": "RD",
        "placeName": "BURLINGTON",
        "streetNameDisplayText": "SNAKE RD, BURLINGTON"
      }
    ]
  },
  {
    "postal": "L7P7E2",
    "result": []
  },
  {
    "postal": "L7P2P5",
    "result": [
      {
        "electoralDistricts": [
          {
            "election": null,
            "id": 15,
            "name": "Burlington"
          }
        ],
        "pollDivisionIds": [
          10137347
        ],
        "postalCode": "L7P2P5",
        "streetName": "BAVARONT",
        "streetDirectionId": null,
        "streetTypeId": "PL",
        "placeName": "BURLINGTON",
        "streetNameDisplayText": "BAVARONT PL, BURLINGTON"
      }
    ]
  },
  {
    "postal": "L7P8R7",
    "result": []
  },
  {
    "postal": "L7P9P1",
    "result": []
  },
  {
    "postal": "L7P3B8",
    "result": [
      {
        "electoralDistricts": [
          {
            "election": null,
            "id": 15,
            "name": "Burlington"
          }
        ],
        "pollDivisionIds": [
          10137343
        ],
        "postalCode": "L7P3B8",
        "streetName": "CAVENDISH",
        "streetDirectionId": null,
        "streetTypeId": "DR",
        "placeName": "BURLINGTON",
        "streetNameDisplayText": "CAVENDISH DR, BURLINGTON"
      }
    ]
  },
  {
    "postal": "L7P3P7",
    "result": [
      {
        "electoralDistricts": [
          {
            "election": null,
            "id": 15,
            "name": "Burlington"
          }
        ],
        "pollDivisionIds": [
          10137342
        ],
        "postalCode": "L7P3P7",
        "streetName": "HAVENDALE",
        "streetDirectionId": null,
        "streetTypeId": "BLVD",
        "placeName": "BURLINGTON",
        "streetNameDisplayText": "HAVENDALE BLVD, BURLINGTON"
      }
    ]
  },
  {
    "postal": "L7P9B2",
    "result": []
  },
  {
    "postal": "L7P6Z3",
    "result": []
  },
  {
    "postal": "L7P4N5",
    "result": [
      {
        "electoralDistricts": [
          {
            "election": null,
            "id": 15,
            "name": "Burlington"
          }
        ],
        "pollDivisionIds": [
          10137342
        ],
        "postalCode": "L7P4N5",
        "streetName": "BADER",
        "streetDirectionId": null,
        "streetTypeId": "CRES",
        "placeName": "BURLINGTON",
        "streetNameDisplayText": "BADER CRES, BURLINGTON"
      }
    ]
  },
  {
    "postal": "L7P8T3",
    "result": []
  },
  {
    "postal": "L7P1V2",
    "result": [
      {
        "electoralDistricts": [
          {
            "election": null,
            "id": 15,
            "name": "Burlington"
          }
        ],
        "pollDivisionIds": [
          10137346
        ],
        "postalCode": "L7P1V2",
        "streetName": "RUTH DENE",
        "streetDirectionId": null,
        "streetTypeId": "CRES",
        "placeName": "BURLINGTON",
        "streetNameDisplayText": "RUTH DENE CRES, BURLINGTON"
      }
    ]
  },
  {
    "postal": "L7P1Y0",
    "result": []
  },
  {
    "postal": "L7P3G6",
    "result": [
      {
        "electoralDistricts": [
          {
            "election": null,
            "id": 15,
            "name": "Burlington"
          }
        ],
        "pollDivisionIds": [
          10137348
        ],
        "postalCode": "L7P3G6",
        "streetName": "FORESTVALE",
        "streetDirectionId": null,
        "streetTypeId": "DR",
        "placeName": "BURLINGTON",
        "streetNameDisplayText": "FORESTVALE DR, BURLINGTON"
      }
    ]
  },
  {
    "postal": "L7P3H7",
    "result": [
      {
        "electoralDistricts": [
          {
            "election": null,
            "id": 15,
            "name": "Burlington"
          }
        ],
        "pollDivisionIds": [
          10137348
        ],
        "postalCode": "L7P3H7",
        "streetName": "FIELDGATE",
        "streetDirectionId": null,
        "streetTypeId": "DR",
        "placeName": "BURLINGTON",
        "streetNameDisplayText": "FIELDGATE DR, BURLINGTON"
      }
    ]
  },
  {
    "postal": "L7P7X8",
    "result": []
  },
  {
    "postal": "L7P0C7",
    "result": [
      {
        "electoralDistricts": [
          {
            "election": null,
            "id": 59,
            "name": "Milton"
          }
        ],
        "pollDivisionIds": [
          10126381
        ],
        "postalCode": "L7P0C7",
        "streetName": "MILBUROUGH",
        "streetDirectionId": null,
        "streetTypeId": "LINE",
        "placeName": "BURLINGTON",
        "streetNameDisplayText": "MILBUROUGH LINE, BURLINGTON"
      }
    ]
  },
  {
    "postal": "L7P0W9",
    "result": []
  },
  {
    "postal": "L7P8E6",
    "result": []
  },
  {
    "postal": "L7P9Z8",
    "result": []
  },
  {
    "postal": "L7P3P4",
    "result": [
      {
        "electoralDistricts": [
          {
            "election": null,
            "id": 15,
            "name": "Burlington"
          }
        ],
        "pollDivisionIds": [
          10137344
        ],
        "postalCode": "L7P3P4",
        "streetName": "UPPER MIDDLE",
        "streetDirectionId": null,
        "streetTypeId": "RD",
        "placeName": "BURLINGTON",
        "streetNameDisplayText": "UPPER MIDDLE RD, BURLINGTON"
      }
    ]
  },
  {
    "postal": "L7P6L8",
    "result": []
  },
  {
    "postal": "L7P2R4",
    "result": [
      {
        "electoralDistricts": [
          {
            "election": null,
            "id": 15,
            "name": "Burlington"
          }
        ],
        "pollDivisionIds": [
          10137345
        ],
        "postalCode": "L7P2R4",
        "streetName": "BARKER",
        "streetDirectionId": null,
        "streetTypeId": "AVE",
        "placeName": "BURLINGTON",
        "streetNameDisplayText": "BARKER AVE, BURLINGTON"
      }
    ]
  },
  {
    "postal": "L7P2W1",
    "result": [
      {
        "electoralDistricts": [
          {
            "election": null,
            "id": 15,
            "name": "Burlington"
          }
        ],
        "pollDivisionIds": [
          10137345
        ],
        "postalCode": "L7P2W1",
        "streetName": "BRENNER",
        "streetDirectionId": null,
        "streetTypeId": "CRES",
        "placeName": "BURLINGTON",
        "streetNameDisplayText": "BRENNER CRES, BURLINGTON"
      }
    ]
  },
  {
    "postal": "L7P9H8",
    "result": []
  },
  {
    "postal": "L7P8X9",
    "result": []
  },
  {
    "postal": "L7P7H4",
    "result": []
  },
  {
    "postal": "L7P3J1",
    "result": [
      {
        "electoralDistricts": [
          {
            "election": null,
            "id": 15,
            "name": "Burlington"
          }
        ],
        "pollDivisionIds": [
          10137348
        ],
        "postalCode": "L7P3J1",
        "streetName": "KERN'S",
        "streetDirectionId": null,
        "streetTypeId": "RD",
        "placeName": "BURLINGTON",
        "streetNameDisplayText": "KERN'S RD, BURLINGTON"
      }
    ]
  },
  {
    "postal": "L7P1P4",
    "result": [
      {
        "electoralDistricts": [
          {
            "election": null,
            "id": 15,
            "name": "Burlington"
          }
        ],
        "pollDivisionIds": [
          10137348
        ],
        "postalCode": "L7P1P4",
        "streetName": "SALISBURY",
        "streetDirectionId": null,
        "streetTypeId": "CRT",
        "placeName": "BURLINGTON",
        "streetNameDisplayText": "SALISBURY CRT, BURLINGTON"
      }
    ]
  },
  {
    "postal": "L7P2A3",
    "result": [
      {
        "electoralDistricts": [
          {
            "election": null,
            "id": 15,
            "name": "Burlington"
          }
        ],
        "pollDivisionIds": [
          10137348
        ],
        "postalCode": "L7P2A3",
        "streetName": "MEADOWBROOK",
        "streetDirectionId": null,
        "streetTypeId": "RD",
        "placeName": "BURLINGTON",
        "streetNameDisplayText": "MEADOWBROOK RD, BURLINGTON"
      }
    ]
  },
  {
    "postal": "L7P0Z1",
    "result": []
  },
  {
    "postal": "L7P1C1",
    "result": [
      {
        "electoralDistricts": [
          {
            "election": null,
            "id": 15,
            "name": "Burlington"
          }
        ],
        "pollDivisionIds": [
          10137347
        ],
        "postalCode": "L7P1C1",
        "streetName": "MOUNTAINSIDE",
        "streetDirectionId": null,
        "streetTypeId": "DR",
        "placeName": "BURLINGTON",
        "streetNameDisplayText": "MOUNTAINSIDE DR, BURLINGTON"
      }
    ]
  },
  {
    "postal": "L7P0H3",
    "result": [
      {
        "electoralDistricts": [
          {
            "election": null,
            "id": 59,
            "name": "Milton"
          }
        ],
        "pollDivisionIds": [
          10126381
        ],
        "postalCode": "L7P0H3",
        "streetName": "KILBRIDE",
        "streetDirectionId": null,
        "streetTypeId": "ST",
        "placeName": "BURLINGTON",
        "streetNameDisplayText": "KILBRIDE ST, BURLINGTON"
      }
    ]
  },
  {
    "postal": "L7P7B0",
    "result": []
  },
  {
    "postal": "L7P5K2",
    "result": []
  },
  {
    "postal": "L7P1E9",
    "result": [
      {
        "electoralDistricts": [
          {
            "election": null,
            "id": 15,
            "name": "Burlington"
          }
        ],
        "pollDivisionIds": [
          10137346
        ],
        "postalCode": "L7P1E9",
        "streetName": "SUNNYDALE",
        "streetDirectionId": null,
        "streetTypeId": "DR",
        "placeName": "BURLINGTON",
        "streetNameDisplayText": "SUNNYDALE DR, BURLINGTON"
      }
    ]
  },
  {
    "postal": "L7P9W7",
    "result": []
  },
  {
    "postal": "L7P5W6",
    "result": []
  },
  {
    "postal": "L7P6S6",
    "result": []
  },
  {
    "postal": "L7P2P8",
    "result": [
      {
        "electoralDistricts": [
          {
            "election": null,
            "id": 15,
            "name": "Burlington"
          }
        ],
        "pollDivisionIds": [
          10137345
        ],
        "postalCode": "L7P2P8",
        "streetName": "WISE",
        "streetDirectionId": null,
        "streetTypeId": "AVE",
        "placeName": "BURLINGTON",
        "streetNameDisplayText": "WISE AVE, BURLINGTON"
      }
    ]
  },
  {
    "postal": "L7P4P8",
    "result": [
      {
        "electoralDistricts": [
          {
            "election": null,
            "id": 15,
            "name": "Burlington"
          }
        ],
        "pollDivisionIds": [
          10137341
        ],
        "postalCode": "L7P4P8",
        "streetName": "COVENTRY",
        "streetDirectionId": null,
        "streetTypeId": "WAY",
        "placeName": "BURLINGTON",
        "streetNameDisplayText": "COVENTRY WAY, BURLINGTON"
      }
    ]
  },
  {
    "postal": "L7P0V9",
    "result": []
  },
  {
    "postal": "L7P5Y2",
    "result": []
  },
  {
    "postal": "L7P7Z7",
    "result": []
  },
  {
    "postal": "L7P6Y8",
    "result": []
  },
  {
    "postal": "L7P2G7",
    "result": [
      {
        "electoralDistricts": [
          {
            "election": null,
            "id": 15,
            "name": "Burlington"
          }
        ],
        "pollDivisionIds": [
          10137346
        ],
        "postalCode": "L7P2G7",
        "streetName": "ROYAL",
        "streetDirectionId": null,
        "streetTypeId": "DR",
        "placeName": "BURLINGTON",
        "streetNameDisplayText": "ROYAL DR, BURLINGTON"
      }
    ]
  },
  {
    "postal": "L7P8C1",
    "result": []
  },
  {
    "postal": "L7P5C5",
    "result": [
      {
        "electoralDistricts": [
          {
            "election": null,
            "id": 15,
            "name": "Burlington"
          }
        ],
        "pollDivisionIds": [
          10137345
        ],
        "postalCode": "L7P5C5",
        "streetName": "CUTTERS",
        "streetDirectionId": null,
        "streetTypeId": "PL",
        "placeName": "BURLINGTON",
        "streetNameDisplayText": "CUTTERS PL, BURLINGTON"
      }
    ]
  },
  {
    "postal": "L7P2X8",
    "result": [
      {
        "electoralDistricts": [
          {
            "election": null,
            "id": 15,
            "name": "Burlington"
          }
        ],
        "pollDivisionIds": [
          10137348
        ],
        "postalCode": "L7P2X8",
        "streetName": "CLIFTON",
        "streetDirectionId": null,
        "streetTypeId": "GREEN",
        "placeName": "BURLINGTON",
        "streetNameDisplayText": "CLIFTON GREEN, BURLINGTON"
      }
    ]
  },
  {
    "postal": "L7P1W5",
    "result": [
      {
        "electoralDistricts": [
          {
            "election": null,
            "id": 15,
            "name": "Burlington"
          }
        ],
        "pollDivisionIds": [
          10137344
        ],
        "postalCode": "L7P1W5",
        "streetName": "FAVERSHAM",
        "streetDirectionId": null,
        "streetTypeId": "AVE",
        "placeName": "BURLINGTON",
        "streetNameDisplayText": "FAVERSHAM AVE, BURLINGTON"
      }
    ]
  },
  {
    "postal": "L7P7G0",
    "result": []
  },
  {
    "postal": "L7P8J8",
    "result": []
  },
  {
    "postal": "L7P3Y0",
    "result": []
  },
  {
    "postal": "L7P9T7",
    "result": []
  },
  {
    "postal": "L7P5P4",
    "result": []
  },
  {
    "postal": "L7P4B0",
    "result": []
  },
  {
    "postal": "L7P9N8",
    "result": []
  },
  {
    "postal": "L7P4A7",
    "result": [
      {
        "electoralDistricts": [
          {
            "election": null,
            "id": 15,
            "name": "Burlington"
          }
        ],
        "pollDivisionIds": [
          10137342
        ],
        "postalCode": "L7P4A7",
        "streetName": "HAVENDALE",
        "streetDirectionId": null,
        "streetTypeId": "BLVD",
        "placeName": "BURLINGTON",
        "streetNameDisplayText": "HAVENDALE BLVD, BURLINGTON"
      }
    ]
  },
  {
    "postal": "L7P4H9",
    "result": [
      {
        "electoralDistricts": [
          {
            "election": null,
            "id": 15,
            "name": "Burlington"
          }
        ],
        "pollDivisionIds": [
          10137342
        ],
        "postalCode": "L7P4H9",
        "streetName": "TORQUAY",
        "streetDirectionId": null,
        "streetTypeId": "CRT",
        "placeName": "BURLINGTON",
        "streetNameDisplayText": "TORQUAY CRT, BURLINGTON"
      }
    ]
  },
  {
    "postal": "L7P6X1",
    "result": []
  },
  {
    "postal": "L7P9Y7",
    "result": []
  },
  {
    "postal": "L7P2Y5",
    "result": [
      {
        "electoralDistricts": [
          {
            "election": null,
            "id": 15,
            "name": "Burlington"
          }
        ],
        "pollDivisionIds": [
          10137348
        ],
        "postalCode": "L7P2Y5",
        "streetName": "CRESTON",
        "streetDirectionId": null,
        "streetTypeId": "PL",
        "placeName": "BURLINGTON",
        "streetNameDisplayText": "CRESTON PL, BURLINGTON"
      }
    ]
  },
  {
    "postal": "L7P8L7",
    "result": []
  },
  {
    "postal": "L7P2A8",
    "result": [
      {
        "electoralDistricts": [
          {
            "election": null,
            "id": 15,
            "name": "Burlington"
          }
        ],
        "pollDivisionIds": [
          10137346
        ],
        "postalCode": "L7P2A8",
        "streetName": "MEADOWBROOK",
        "streetDirectionId": null,
        "streetTypeId": "RD",
        "placeName": "BURLINGTON",
        "streetNameDisplayText": "MEADOWBROOK RD, BURLINGTON"
      }
    ]
  },
  {
    "postal": "L7P2K9",
    "result": [
      {
        "electoralDistricts": [
          {
            "election": null,
            "id": 15,
            "name": "Burlington"
          }
        ],
        "pollDivisionIds": [
          10137347
        ],
        "postalCode": "L7P2K9",
        "streetName": "STANLEY",
        "streetDirectionId": null,
        "streetTypeId": "DR",
        "placeName": "BURLINGTON",
        "streetNameDisplayText": "STANLEY DR, BURLINGTON"
      }
    ]
  },
  {
    "postal": "L7P3E5",
    "result": [
      {
        "electoralDistricts": [
          {
            "election": null,
            "id": 15,
            "name": "Burlington"
          }
        ],
        "pollDivisionIds": [
          10137342
        ],
        "postalCode": "L7P3E5",
        "streetName": "KNIGHTS BRIDGE",
        "streetDirectionId": null,
        "streetTypeId": "CRT",
        "placeName": "BURLINGTON",
        "streetNameDisplayText": "KNIGHTS BRIDGE CRT, BURLINGTON"
      }
    ]
  },
  {
    "postal": "L7P8N6",
    "result": []
  },
  {
    "postal": "L7P8J4",
    "result": []
  },
  {
    "postal": "L7P4R7",
    "result": [
      {
        "electoralDistricts": [
          {
            "election": null,
            "id": 15,
            "name": "Burlington"
          }
        ],
        "pollDivisionIds": [
          10137344
        ],
        "postalCode": "L7P4R7",
        "streetName": "AMHERST HEIGHTS",
        "streetDirectionId": null,
        "streetTypeId": "CRT",
        "placeName": "BURLINGTON",
        "streetNameDisplayText": "AMHERST HEIGHTS CRT, BURLINGTON"
      }
    ]
  },
  {
    "postal": "L7P9K1",
    "result": []
  },
  {
    "postal": "L7P8E1",
    "result": []
  },
  {
    "postal": "L7P0R1",
    "result": [
      {
        "electoralDistricts": [
          {
            "election": null,
            "id": 59,
            "name": "Milton"
          }
        ],
        "pollDivisionIds": [
          10126381
        ],
        "postalCode": "L7P0R1",
        "streetName": "WATSON",
        "streetDirectionId": null,
        "streetTypeId": "DR",
        "placeName": "BURLINGTON",
        "streetNameDisplayText": "WATSON DR, BURLINGTON"
      }
    ]
  },
  {
    "postal": "L7P4J3",
    "result": [
      {
        "electoralDistricts": [
          {
            "election": null,
            "id": 15,
            "name": "Burlington"
          }
        ],
        "pollDivisionIds": [
          10137343
        ],
        "postalCode": "L7P4J3",
        "streetName": "PREVIN",
        "streetDirectionId": null,
        "streetTypeId": "CRT",
        "placeName": "BURLINGTON",
        "streetNameDisplayText": "PREVIN CRT, BURLINGTON"
      }
    ]
  },
  {
    "postal": "L7P7E7",
    "result": []
  },
  {
    "postal": "L7P0J0",
    "result": []
  },
  {
    "postal": "L7P7R8",
    "result": []
  },
  {
    "postal": "L7P9X0",
    "result": []
  },
  {
    "postal": "L7P7P6",
    "result": []
  },
  {
    "postal": "L7P0R7",
    "result": []
  },
  {
    "postal": "L7P5W1",
    "result": []
  },
  {
    "postal": "L7P0K4",
    "result": [
      {
        "electoralDistricts": [
          {
            "election": null,
            "id": 59,
            "name": "Milton"
          }
        ],
        "pollDivisionIds": [
          10126381
        ],
        "postalCode": "L7P0K4",
        "streetName": "MCNIVEN",
        "streetDirectionId": null,
        "streetTypeId": "RD",
        "placeName": "BURLINGTON",
        "streetNameDisplayText": "MCNIVEN RD, BURLINGTON"
      }
    ]
  },
  {
    "postal": "L7P7N9",
    "result": []
  },
  {
    "postal": "L7P1N0",
    "result": []
  },
  {
    "postal": "L7P6P3",
    "result": []
  },
  {
    "postal": "L7P5A1",
    "result": [
      {
        "electoralDistricts": [
          {
            "election": null,
            "id": 15,
            "name": "Burlington"
          }
        ],
        "pollDivisionIds": [
          10137360,
          10137362
        ],
        "postalCode": "L7P5A1",
        "streetName": "WATERDOWN",
        "streetDirectionId": null,
        "streetTypeId": "RD",
        "placeName": "BURLINGTON",
        "streetNameDisplayText": "WATERDOWN RD, BURLINGTON"
      }
    ]
  },
  {
    "postal": "L7P9M9",
    "result": []
  },
  {
    "postal": "L7P7T6",
    "result": []
  },
  {
    "postal": "L7P3X0",
    "result": []
  },
  {
    "postal": "L7P2T0",
    "result": []
  },
  {
    "postal": "L7P5X9",
    "result": []
  },
  {
    "postal": "L7P2R3",
    "result": [
      {
        "electoralDistricts": [
          {
            "election": null,
            "id": 15,
            "name": "Burlington"
          }
        ],
        "pollDivisionIds": [
          10137345
        ],
        "postalCode": "L7P2R3",
        "streetName": "BARKER",
        "streetDirectionId": null,
        "streetTypeId": "AVE",
        "placeName": "BURLINGTON",
        "streetNameDisplayText": "BARKER AVE, BURLINGTON"
      }
    ]
  },
  {
    "postal": "L7P5N2",
    "result": []
  },
  {
    "postal": "L7P4Y7",
    "result": [
      {
        "electoralDistricts": [
          {
            "election": null,
            "id": 15,
            "name": "Burlington"
          }
        ],
        "pollDivisionIds": [
          10137362
        ],
        "postalCode": "L7P4Y7",
        "streetName": "SNAKE",
        "streetDirectionId": null,
        "streetTypeId": "RD",
        "placeName": "BURLINGTON",
        "streetNameDisplayText": "SNAKE RD, BURLINGTON"
      }
    ]
  },
  {
    "postal": "L7P7M0",
    "result": []
  },
  {
    "postal": "L7P8P3",
    "result": []
  },
  {
    "postal": "L7P3N3",
    "result": [
      {
        "electoralDistricts": [
          {
            "election": null,
            "id": 15,
            "name": "Burlington"
          }
        ],
        "pollDivisionIds": [
          10137342
        ],
        "postalCode": "L7P3N3",
        "streetName": "BELMONT",
        "streetDirectionId": null,
        "streetTypeId": "CRT",
        "placeName": "BURLINGTON",
        "streetNameDisplayText": "BELMONT CRT, BURLINGTON"
      }
    ]
  },
  {
    "postal": "L7P7S3",
    "result": []
  },
  {
    "postal": "L7P3V9",
    "result": [
      {
        "electoralDistricts": [
          {
            "election": null,
            "id": 15,
            "name": "Burlington"
          }
        ],
        "pollDivisionIds": [
          10137342
        ],
        "postalCode": "L7P3V9",
        "streetName": "DUNCASTER",
        "streetDirectionId": null,
        "streetTypeId": "DR",
        "placeName": "BURLINGTON",
        "streetNameDisplayText": "DUNCASTER DR, BURLINGTON"
      }
    ]
  },
  {
    "postal": "L7P9N7",
    "result": []
  },
  {
    "postal": "L7P0G4",
    "result": [
      {
        "electoralDistricts": [
          {
            "election": null,
            "id": 59,
            "name": "Milton"
          }
        ],
        "pollDivisionIds": [
          10126381
        ],
        "postalCode": "L7P0G4",
        "streetName": "COLLING",
        "streetDirectionId": null,
        "streetTypeId": "RD",
        "placeName": "BURLINGTON",
        "streetNameDisplayText": "COLLING RD, BURLINGTON"
      }
    ]
  },
  {
    "postal": "L7P2E2",
    "result": [
      {
        "electoralDistricts": [
          {
            "election": null,
            "id": 15,
            "name": "Burlington"
          }
        ],
        "pollDivisionIds": [
          10137346
        ],
        "postalCode": "L7P2E2",
        "streetName": "BUNNELL",
        "streetDirectionId": null,
        "streetTypeId": "DR",
        "placeName": "BURLINGTON",
        "streetNameDisplayText": "BUNNELL DR, BURLINGTON"
      }
    ]
  },
  {
    "postal": "L7P7W8",
    "result": []
  },
  {
    "postal": "L7P7M5",
    "result": []
  },
  {
    "postal": "L7P5W8",
    "result": []
  },
  {
    "postal": "L7P5E5",
    "result": []
  },
  {
    "postal": "L7P1P9",
    "result": [
      {
        "electoralDistricts": [
          {
            "election": null,
            "id": 15,
            "name": "Burlington"
          }
        ],
        "pollDivisionIds": [
          10137346
        ],
        "postalCode": "L7P1P9",
        "streetName": "CLOVER",
        "streetDirectionId": null,
        "streetTypeId": "RD",
        "placeName": "BURLINGTON",
        "streetNameDisplayText": "CLOVER RD, BURLINGTON"
      }
    ]
  },
  {
    "postal": "L7P8V8",
    "result": []
  },
  {
    "postal": "L7P9G8",
    "result": []
  },
  {
    "postal": "L7P8H9",
    "result": []
  },
  {
    "postal": "L7P1Z1",
    "result": [
      {
        "electoralDistricts": [
          {
            "election": null,
            "id": 15,
            "name": "Burlington"
          }
        ],
        "pollDivisionIds": [
          10137344
        ],
        "postalCode": "L7P1Z1",
        "streetName": "CAVENDISH",
        "streetDirectionId": null,
        "streetTypeId": "DR",
        "placeName": "BURLINGTON",
        "streetNameDisplayText": "CAVENDISH DR, BURLINGTON"
      }
    ]
  },
  {
    "postal": "L7P8M3",
    "result": []
  },
  {
    "postal": "L7P5H6",
    "result": []
  },
  {
    "postal": "L7P7W7",
    "result": []
  },
  {
    "postal": "L7P4L0",
    "result": []
  },
  {
    "postal": "L7P2N1",
    "result": [
      {
        "electoralDistricts": [
          {
            "election": null,
            "id": 15,
            "name": "Burlington"
          }
        ],
        "pollDivisionIds": [
          10137345
        ],
        "postalCode": "L7P2N1",
        "streetName": "AUGUSTINE",
        "streetDirectionId": null,
        "streetTypeId": "DR",
        "placeName": "BURLINGTON",
        "streetNameDisplayText": "AUGUSTINE DR, BURLINGTON"
      }
    ]
  },
  {
    "postal": "L7P2H4",
    "result": [
      {
        "electoralDistricts": [
          {
            "election": null,
            "id": 15,
            "name": "Burlington"
          }
        ],
        "pollDivisionIds": [
          10137346
        ],
        "postalCode": "L7P2H4",
        "streetName": "MOUNTAIN GROVE",
        "streetDirectionId": null,
        "streetTypeId": "AVE",
        "placeName": "BURLINGTON",
        "streetNameDisplayText": "MOUNTAIN GROVE AVE, BURLINGTON"
      }
    ]
  },
  {
    "postal": "L7P5C8",
    "result": [
      {
        "electoralDistricts": [
          {
            "election": null,
            "id": 15,
            "name": "Burlington"
          }
        ],
        "pollDivisionIds": [
          10137342
        ],
        "postalCode": "L7P5C8",
        "streetName": "BRANT",
        "streetDirectionId": null,
        "streetTypeId": "ST",
        "placeName": "BURLINGTON",
        "streetNameDisplayText": "BRANT ST, BURLINGTON"
      }
    ]
  },
  {
    "postal": "L7P8B0",
    "result": []
  },
  {
    "postal": "L7P1T4",
    "result": [
      {
        "electoralDistricts": [
          {
            "election": null,
            "id": 15,
            "name": "Burlington"
          }
        ],
        "pollDivisionIds": [
          10137346
        ],
        "postalCode": "L7P1T4",
        "streetName": "PARKWAY",
        "streetDirectionId": null,
        "streetTypeId": "DR",
        "placeName": "BURLINGTON",
        "streetNameDisplayText": "PARKWAY DR, BURLINGTON"
      }
    ]
  },
  {
    "postal": "L7P7N7",
    "result": []
  },
  {
    "postal": "L7P4L3",
    "result": [
      {
        "electoralDistricts": [
          {
            "election": null,
            "id": 15,
            "name": "Burlington"
          }
        ],
        "pollDivisionIds": [
          10137342
        ],
        "postalCode": "L7P4L3",
        "streetName": "PEAR TREE",
        "streetDirectionId": null,
        "streetTypeId": "LANE",
        "placeName": "BURLINGTON",
        "streetNameDisplayText": "PEAR TREE LANE, BURLINGTON"
      },
      {
        "electoralDistricts": [
          {
            "election": null,
            "id": 15,
            "name": "Burlington"
          }
        ],
        "pollDivisionIds": [
          10137342
        ],
        "postalCode": "L7P4L3",
        "streetName": "PEARTREE",
        "streetDirectionId": null,
        "streetTypeId": "LANE",
        "placeName": "BURLINGTON",
        "streetNameDisplayText": "PEARTREE LANE, BURLINGTON"
      }
    ]
  },
  {
    "postal": "L7P2N2",
    "result": [
      {
        "electoralDistricts": [
          {
            "election": null,
            "id": 15,
            "name": "Burlington"
          }
        ],
        "pollDivisionIds": [
          10137346
        ],
        "postalCode": "L7P2N2",
        "streetName": "AUGUSTINE",
        "streetDirectionId": null,
        "streetTypeId": "DR",
        "placeName": "BURLINGTON",
        "streetNameDisplayText": "AUGUSTINE DR, BURLINGTON"
      }
    ]
  },
  {
    "postal": "L7P4N8",
    "result": [
      {
        "electoralDistricts": [
          {
            "election": null,
            "id": 15,
            "name": "Burlington"
          }
        ],
        "pollDivisionIds": [
          10137342
        ],
        "postalCode": "L7P4N8",
        "streetName": "BARLOW",
        "streetDirectionId": null,
        "streetTypeId": "CRES",
        "placeName": "BURLINGTON",
        "streetNameDisplayText": "BARLOW CRES, BURLINGTON"
      }
    ]
  },
  {
    "postal": "L7P3M5",
    "result": [
      {
        "electoralDistricts": [
          {
            "election": null,
            "id": 15,
            "name": "Burlington"
          }
        ],
        "pollDivisionIds": [
          10137345
        ],
        "postalCode": "L7P3M5",
        "streetName": "LAMBETH",
        "streetDirectionId": null,
        "streetTypeId": "AVE",
        "placeName": "BURLINGTON",
        "streetNameDisplayText": "LAMBETH AVE, BURLINGTON"
      }
    ]
  },
  {
    "postal": "L7P6H7",
    "result": []
  },
  {
    "postal": "L7P8Y8",
    "result": []
  },
  {
    "postal": "L7P5R9",
    "result": []
  },
  {
    "postal": "L7P8G3",
    "result": []
  },
  {
    "postal": "L7P4N7",
    "result": [
      {
        "electoralDistricts": [
          {
            "election": null,
            "id": 15,
            "name": "Burlington"
          }
        ],
        "pollDivisionIds": [
          10137342
        ],
        "postalCode": "L7P4N7",
        "streetName": "BARLOW",
        "streetDirectionId": null,
        "streetTypeId": "CRES",
        "placeName": "BURLINGTON",
        "streetNameDisplayText": "BARLOW CRES, BURLINGTON"
      }
    ]
  },
  {
    "postal": "L7P0B9",
    "result": [
      {
        "electoralDistricts": [
          {
            "election": null,
            "id": 59,
            "name": "Milton"
          }
        ],
        "pollDivisionIds": [
          10126381
        ],
        "postalCode": "L7P0B9",
        "streetName": "CEDAR SPRINGS",
        "streetDirectionId": null,
        "streetTypeId": "RD",
        "placeName": "BURLINGTON",
        "streetNameDisplayText": "CEDAR SPRINGS RD, BURLINGTON"
      },
      {
        "electoralDistricts": [
          {
            "election": null,
            "id": 59,
            "name": "Milton"
          }
        ],
        "pollDivisionIds": [
          10126381
        ],
        "postalCode": "L7P0B9",
        "streetName": "CEDAR SPRINGS",
        "streetDirectionId": null,
        "streetTypeId": "RD",
        "placeName": "CAMPBELLVILLE",
        "streetNameDisplayText": "CEDAR SPRINGS RD, CAMPBELLVILLE"
      }
    ]
  },
  {
    "postal": "L7P9K7",
    "result": []
  },
  {
    "postal": "L7P9K9",
    "result": []
  },
  {
    "postal": "L7P3Z2",
    "result": []
  },
  {
    "postal": "L7P6W7",
    "result": []
  },
  {
    "postal": "L7P0P1",
    "result": [
      {
        "electoralDistricts": [
          {
            "election": null,
            "id": 59,
            "name": "Milton"
          }
        ],
        "pollDivisionIds": [
          10126381
        ],
        "postalCode": "L7P0P1",
        "streetName": "CEDAR SPRINGS",
        "streetDirectionId": null,
        "streetTypeId": "RD",
        "placeName": "BURLINGTON",
        "streetNameDisplayText": "CEDAR SPRINGS RD, BURLINGTON"
      }
    ]
  },
  {
    "postal": "L7P3A0",
    "result": []
  },
  {
    "postal": "L7P8L9",
    "result": []
  },
  {
    "postal": "L7P6X0",
    "result": []
  },
  {
    "postal": "L7P3E9",
    "result": [
      {
        "electoralDistricts": [
          {
            "election": null,
            "id": 15,
            "name": "Burlington"
          }
        ],
        "pollDivisionIds": [
          10137345
        ],
        "postalCode": "L7P3E9",
        "streetName": "IRELAND",
        "streetDirectionId": null,
        "streetTypeId": "DR",
        "placeName": "BURLINGTON",
        "streetNameDisplayText": "IRELAND DR, BURLINGTON"
      }
    ]
  },
  {
    "postal": "L7P0S5",
    "result": []
  },
  {
    "postal": "L7P1A2",
    "result": [
      {
        "electoralDistricts": [
          {
            "election": null,
            "id": 15,
            "name": "Burlington"
          }
        ],
        "pollDivisionIds": [
          10137347
        ],
        "postalCode": "L7P1A2",
        "streetName": "INDUSTRIAL",
        "streetDirectionId": null,
        "streetTypeId": "ST",
        "placeName": "BURLINGTON",
        "streetNameDisplayText": "INDUSTRIAL ST, BURLINGTON"
      }
    ]
  },
  {
    "postal": "L7P5V8",
    "result": []
  },
  {
    "postal": "L7P8C5",
    "result": []
  },
  {
    "postal": "L7P6N0",
    "result": []
  },
  {
    "postal": "L7P9E6",
    "result": []
  },
  {
    "postal": "L7P5J7",
    "result": []
  },
  {
    "postal": "L7P2R2",
    "result": [
      {
        "electoralDistricts": [
          {
            "election": null,
            "id": 15,
            "name": "Burlington"
          }
        ],
        "pollDivisionIds": [
          10137345
        ],
        "postalCode": "L7P2R2",
        "streetName": "BARNETT",
        "streetDirectionId": null,
        "streetTypeId": "DR",
        "placeName": "BURLINGTON",
        "streetNameDisplayText": "BARNETT DR, BURLINGTON"
      }
    ]
  },
  {
    "postal": "L7P0P5",
    "result": [
      {
        "electoralDistricts": [
          {
            "election": null,
            "id": 59,
            "name": "Milton"
          }
        ],
        "pollDivisionIds": [
          10126381
        ],
        "postalCode": "L7P0P5",
        "streetName": "CEDAR SPRINGS",
        "streetDirectionId": null,
        "streetTypeId": "RD",
        "placeName": "BURLINGTON",
        "streetNameDisplayText": "CEDAR SPRINGS RD, BURLINGTON"
      }
    ]
  },
  {
    "postal": "L7P5A7",
    "result": [
      {
        "electoralDistricts": [
          {
            "election": null,
            "id": 15,
            "name": "Burlington"
          }
        ],
        "pollDivisionIds": [
          10137362
        ],
        "postalCode": "L7P5A7",
        "streetName": "SNAKE",
        "streetDirectionId": null,
        "streetTypeId": "RD",
        "placeName": "BURLINGTON",
        "streetNameDisplayText": "SNAKE RD, BURLINGTON"
      }
    ]
  },
  {
    "postal": "L7P1G1",
    "result": [
      {
        "electoralDistricts": [
          {
            "election": null,
            "id": 15,
            "name": "Burlington"
          }
        ],
        "pollDivisionIds": [
          10137346
        ],
        "postalCode": "L7P1G1",
        "streetName": "SUNNYDALE",
        "streetDirectionId": null,
        "streetTypeId": "DR",
        "placeName": "BURLINGTON",
        "streetNameDisplayText": "SUNNYDALE DR, BURLINGTON"
      }
    ]
  },
  {
    "postal": "L7P9R6",
    "result": []
  },
  {
    "postal": "L7P4Z9",
    "result": [
      {
        "electoralDistricts": [
          {
            "election": null,
            "id": 15,
            "name": "Burlington"
          }
        ],
        "pollDivisionIds": [
          10137361
        ],
        "postalCode": "L7P4Z9",
        "streetName": "WATERDOWN",
        "streetDirectionId": null,
        "streetTypeId": "RD",
        "placeName": "BURLINGTON",
        "streetNameDisplayText": "WATERDOWN RD, BURLINGTON"
      }
    ]
  },
  {
    "postal": "L7P1V5",
    "result": [
      {
        "electoralDistricts": [
          {
            "election": null,
            "id": 15,
            "name": "Burlington"
          }
        ],
        "pollDivisionIds": [
          10137345
        ],
        "postalCode": "L7P1V5",
        "streetName": "ST FRANCES",
        "streetDirectionId": null,
        "streetTypeId": "DR",
        "placeName": "BURLINGTON",
        "streetNameDisplayText": "ST FRANCES DR, BURLINGTON"
      }
    ]
  },
  {
    "postal": "L7P9Y5",
    "result": []
  },
  {
    "postal": "L7P1P2",
    "result": [
      {
        "electoralDistricts": [
          {
            "election": null,
            "id": 15,
            "name": "Burlington"
          }
        ],
        "pollDivisionIds": [
          10137348
        ],
        "postalCode": "L7P1P2",
        "streetName": "AGINCOURT",
        "streetDirectionId": null,
        "streetTypeId": "CRES",
        "placeName": "BURLINGTON",
        "streetNameDisplayText": "AGINCOURT CRES, BURLINGTON"
      }
    ]
  },
  {
    "postal": "L7P5X0",
    "result": []
  },
  {
    "postal": "L7P7B8",
    "result": []
  },
  {
    "postal": "L7P0C6",
    "result": [
      {
        "electoralDistricts": [
          {
            "election": null,
            "id": 59,
            "name": "Milton"
          }
        ],
        "pollDivisionIds": [
          10126381
        ],
        "postalCode": "L7P0C6",
        "streetName": "MILBUROUGH",
        "streetDirectionId": null,
        "streetTypeId": "LINE",
        "placeName": "BURLINGTON",
        "streetNameDisplayText": "MILBUROUGH LINE, BURLINGTON"
      }
    ]
  },
  {
    "postal": "L7P6G1",
    "result": []
  },
  {
    "postal": "L7P3K3",
    "result": [
      {
        "electoralDistricts": [
          {
            "election": null,
            "id": 15,
            "name": "Burlington"
          }
        ],
        "pollDivisionIds": [
          10137343
        ],
        "postalCode": "L7P3K3",
        "streetName": "COBBLESTONE",
        "streetDirectionId": null,
        "streetTypeId": "DR",
        "placeName": "BURLINGTON",
        "streetNameDisplayText": "COBBLESTONE DR, BURLINGTON"
      }
    ]
  },
  {
    "postal": "L7P9R0",
    "result": []
  },
  {
    "postal": "L7P4R8",
    "result": [
      {
        "electoralDistricts": [
          {
            "election": null,
            "id": 15,
            "name": "Burlington"
          }
        ],
        "pollDivisionIds": [
          10137344
        ],
        "postalCode": "L7P4R8",
        "streetName": "AMHERST HEIGHTS",
        "streetDirectionId": null,
        "streetTypeId": "CRT",
        "placeName": "BURLINGTON",
        "streetNameDisplayText": "AMHERST HEIGHTS CRT, BURLINGTON"
      }
    ]
  },
  {
    "postal": "L7P5P9",
    "result": []
  },
  {
    "postal": "L7P8N4",
    "result": []
  },
  {
    "postal": "L7P8H4",
    "result": []
  },
  {
    "postal": "L7P4V1",
    "result": [
      {
        "electoralDistricts": [
          {
            "election": null,
            "id": 15,
            "name": "Burlington"
          }
        ],
        "pollDivisionIds": [
          10137342
        ],
        "postalCode": "L7P4V1",
        "streetName": "HAZELTON",
        "streetDirectionId": null,
        "streetTypeId": "BLVD",
        "placeName": "BURLINGTON",
        "streetNameDisplayText": "HAZELTON BLVD, BURLINGTON"
      },
      {
        "electoralDistricts": [
          {
            "election": null,
            "id": 15,
            "name": "Burlington"
          }
        ],
        "pollDivisionIds": [
          10137342
        ],
        "postalCode": "L7P4V1",
        "streetName": "HEMMINGWAY",
        "streetDirectionId": null,
        "streetTypeId": "DR",
        "placeName": "BURLINGTON",
        "streetNameDisplayText": "HEMMINGWAY DR, BURLINGTON"
      }
    ]
  },
  {
    "postal": "L7P1K5",
    "result": [
      {
        "electoralDistricts": [
          {
            "election": null,
            "id": 15,
            "name": "Burlington"
          }
        ],
        "pollDivisionIds": [
          10137348
        ],
        "postalCode": "L7P1K5",
        "streetName": "JANINA",
        "streetDirectionId": null,
        "streetTypeId": "BLVD",
        "placeName": "BURLINGTON",
        "streetNameDisplayText": "JANINA BLVD, BURLINGTON"
      }
    ]
  },
  {
    "postal": "L7P1Z5",
    "result": [
      {
        "electoralDistricts": [
          {
            "election": null,
            "id": 15,
            "name": "Burlington"
          }
        ],
        "pollDivisionIds": [
          10137344
        ],
        "postalCode": "L7P1Z5",
        "streetName": "CAVENDISH",
        "streetDirectionId": null,
        "streetTypeId": "DR",
        "placeName": "BURLINGTON",
        "streetNameDisplayText": "CAVENDISH DR, BURLINGTON"
      }
    ]
  },
  {
    "postal": "L7P9L9",
    "result": []
  },
  {
    "postal": "L7P5L2",
    "result": []
  },
  {
    "postal": "L7P0M2",
    "result": [
      {
        "electoralDistricts": [
          {
            "election": null,
            "id": 59,
            "name": "Milton"
          }
        ],
        "pollDivisionIds": [
          10126381
        ],
        "postalCode": "L7P0M2",
        "streetName": "PANTON",
        "streetDirectionId": null,
        "streetTypeId": "ST",
        "placeName": "BURLINGTON",
        "streetNameDisplayText": "PANTON ST, BURLINGTON"
      }
    ]
  },
  {
    "postal": "L7P1K8",
    "result": [
      {
        "electoralDistricts": [
          {
            "election": null,
            "id": 15,
            "name": "Burlington"
          }
        ],
        "pollDivisionIds": [
          10137348
        ],
        "postalCode": "L7P1K8",
        "streetName": "HUMPHREYS",
        "streetDirectionId": null,
        "streetTypeId": "CRES",
        "placeName": "BURLINGTON",
        "streetNameDisplayText": "HUMPHREYS CRES, BURLINGTON"
      }
    ]
  },
  {
    "postal": "L7P3M7",
    "result": [
      {
        "electoralDistricts": [
          {
            "election": null,
            "id": 15,
            "name": "Burlington"
          }
        ],
        "pollDivisionIds": [
          10137342
        ],
        "postalCode": "L7P3M7",
        "streetName": "WINCHESTER",
        "streetDirectionId": null,
        "streetTypeId": "CRT",
        "placeName": "BURLINGTON",
        "streetNameDisplayText": "WINCHESTER CRT, BURLINGTON"
      }
    ]
  },
  {
    "postal": "L7P1B2",
    "result": [
      {
        "electoralDistricts": [
          {
            "election": null,
            "id": 15,
            "name": "Burlington"
          }
        ],
        "pollDivisionIds": [
          10137346
        ],
        "postalCode": "L7P1B2",
        "streetName": "MOUNTAINSIDE",
        "streetDirectionId": null,
        "streetTypeId": "DR",
        "placeName": "BURLINGTON",
        "streetNameDisplayText": "MOUNTAINSIDE DR, BURLINGTON"
      }
    ]
  },
  {
    "postal": "L7P0H9",
    "result": [
      {
        "electoralDistricts": [
          {
            "election": null,
            "id": 59,
            "name": "Milton"
          }
        ],
        "pollDivisionIds": [
          10126381
        ],
        "postalCode": "L7P0H9",
        "streetName": "KILBRIDE",
        "streetDirectionId": null,
        "streetTypeId": "ST",
        "placeName": "BURLINGTON",
        "streetNameDisplayText": "KILBRIDE ST, BURLINGTON"
      }
    ]
  },
  {
    "postal": "L7P8M4",
    "result": []
  },
  {
    "postal": "L7P2M5",
    "result": [
      {
        "electoralDistricts": [
          {
            "election": null,
            "id": 15,
            "name": "Burlington"
          }
        ],
        "pollDivisionIds": [
          10137347
        ],
        "postalCode": "L7P2M5",
        "streetName": "HOMEWOOD",
        "streetDirectionId": null,
        "streetTypeId": "DR",
        "placeName": "BURLINGTON",
        "streetNameDisplayText": "HOMEWOOD DR, BURLINGTON"
      }
    ]
  },
  {
    "postal": "L7P0T9",
    "result": [
      {
        "electoralDistricts": [
          {
            "election": null,
            "id": 15,
            "name": "Burlington"
          }
        ],
        "pollDivisionIds": [
          10137347
        ],
        "postalCode": "L7P0T9",
        "streetName": "GUELPH",
        "streetDirectionId": null,
        "streetTypeId": "LINE",
        "placeName": "BURLINGTON",
        "streetNameDisplayText": "GUELPH LINE, BURLINGTON"
      }
    ]
  },
  {
    "postal": "L7P3P1",
    "result": [
      {
        "electoralDistricts": [
          {
            "election": null,
            "id": 15,
            "name": "Burlington"
          }
        ],
        "pollDivisionIds": [
          10137343
        ],
        "postalCode": "L7P3P1",
        "streetName": "CARTIER",
        "streetDirectionId": null,
        "streetTypeId": "CRES",
        "placeName": "BURLINGTON",
        "streetNameDisplayText": "CARTIER CRES, BURLINGTON"
      }
    ]
  },
  {
    "postal": "L7P1R6",
    "result": [
      {
        "electoralDistricts": [
          {
            "election": null,
            "id": 15,
            "name": "Burlington"
          }
        ],
        "pollDivisionIds": [
          10137346,
          10137348
        ],
        "postalCode": "L7P1R6",
        "streetName": "MOUNT ROYAL",
        "streetDirectionId": null,
        "streetTypeId": "AVE",
        "placeName": "BURLINGTON",
        "streetNameDisplayText": "MOUNT ROYAL AVE, BURLINGTON"
      }
    ]
  },
  {
    "postal": "L7P9V5",
    "result": []
  },
  {
    "postal": "L7P9T0",
    "result": []
  },
  {
    "postal": "L7P0A9",
    "result": [
      {
        "electoralDistricts": [
          {
            "election": null,
            "id": 59,
            "name": "Milton"
          }
        ],
        "pollDivisionIds": [
          10126398
        ],
        "postalCode": "L7P0A9",
        "streetName": "GUELPH",
        "streetDirectionId": null,
        "streetTypeId": "LINE",
        "placeName": "BURLINGTON",
        "streetNameDisplayText": "GUELPH LINE, BURLINGTON"
      }
    ]
  },
  {
    "postal": "L7P1M3",
    "result": [
      {
        "electoralDistricts": [
          {
            "election": null,
            "id": 15,
            "name": "Burlington"
          }
        ],
        "pollDivisionIds": [
          10137348
        ],
        "postalCode": "L7P1M3",
        "streetName": "WAKEFIELD",
        "streetDirectionId": null,
        "streetTypeId": "CRES",
        "placeName": "BURLINGTON",
        "streetNameDisplayText": "WAKEFIELD CRES, BURLINGTON"
      }
    ]
  },
  {
    "postal": "L7P1W8",
    "result": [
      {
        "electoralDistricts": [
          {
            "election": null,
            "id": 15,
            "name": "Burlington"
          }
        ],
        "pollDivisionIds": [
          10137345
        ],
        "postalCode": "L7P1W8",
        "streetName": "CHEVIOT",
        "streetDirectionId": null,
        "streetTypeId": "CRT",
        "placeName": "BURLINGTON",
        "streetNameDisplayText": "CHEVIOT CRT, BURLINGTON"
      }
    ]
  },
  {
    "postal": "L7P9J1",
    "result": []
  },
  {
    "postal": "L7P8N5",
    "result": []
  },
  {
    "postal": "L7P5X1",
    "result": []
  },
  {
    "postal": "L7P6S2",
    "result": []
  },
  {
    "postal": "L7P2A2",
    "result": [
      {
        "electoralDistricts": [
          {
            "election": null,
            "id": 15,
            "name": "Burlington"
          }
        ],
        "pollDivisionIds": [
          10137348
        ],
        "postalCode": "L7P2A2",
        "streetName": "MEADOWBROOK",
        "streetDirectionId": null,
        "streetTypeId": "RD",
        "placeName": "BURLINGTON",
        "streetNameDisplayText": "MEADOWBROOK RD, BURLINGTON"
      }
    ]
  },
  {
    "postal": "L7P6A6",
    "result": []
  },
  {
    "postal": "L7P0S3",
    "result": [
      {
        "electoralDistricts": [
          {
            "election": null,
            "id": 59,
            "name": "Milton"
          }
        ],
        "pollDivisionIds": [
          10126381
        ],
        "postalCode": "L7P0S3",
        "streetName": "1",
        "streetDirectionId": null,
        "streetTypeId": "SIDERD",
        "placeName": "BURLINGTON",
        "streetNameDisplayText": "1 SIDERD, BURLINGTON"
      },
      {
        "electoralDistricts": [
          {
            "election": null,
            "id": 59,
            "name": "Milton"
          }
        ],
        "pollDivisionIds": [
          10126381
        ],
        "postalCode": "L7P0S3",
        "streetName": "NO 1 SIDE",
        "streetDirectionId": null,
        "streetTypeId": "RD",
        "placeName": "BURLINGTON",
        "streetNameDisplayText": "NO 1 SIDE RD, BURLINGTON"
      },
      {
        "electoralDistricts": [
          {
            "election": null,
            "id": 59,
            "name": "Milton"
          }
        ],
        "pollDivisionIds": [
          10126381
        ],
        "postalCode": "L7P0S3",
        "streetName": "NO 1",
        "streetDirectionId": null,
        "streetTypeId": "SIDERD",
        "placeName": "BURLINGTON",
        "streetNameDisplayText": "NO 1 SIDERD, BURLINGTON"
      }
    ]
  },
  {
    "postal": "L7P3E7",
    "result": [
      {
        "electoralDistricts": [
          {
            "election": null,
            "id": 15,
            "name": "Burlington"
          }
        ],
        "pollDivisionIds": [
          10137345
        ],
        "postalCode": "L7P3E7",
        "streetName": "SANDRINGHAM",
        "streetDirectionId": null,
        "streetTypeId": "DR",
        "placeName": "BURLINGTON",
        "streetNameDisplayText": "SANDRINGHAM DR, BURLINGTON"
      }
    ]
  },
  {
    "postal": "L7P5R7",
    "result": []
  },
  {
    "postal": "L7P3R6",
    "result": [
      {
        "electoralDistricts": [
          {
            "election": null,
            "id": 15,
            "name": "Burlington"
          }
        ],
        "pollDivisionIds": [
          10137342
        ],
        "postalCode": "L7P3R6",
        "streetName": "HAVENDALE",
        "streetDirectionId": null,
        "streetTypeId": "BLVD",
        "placeName": "BURLINGTON",
        "streetNameDisplayText": "HAVENDALE BLVD, BURLINGTON"
      }
    ]
  },
  {
    "postal": "L7P6K4",
    "result": []
  },
  {
    "postal": "L7P2W5",
    "result": [
      {
        "electoralDistricts": [
          {
            "election": null,
            "id": 15,
            "name": "Burlington"
          }
        ],
        "pollDivisionIds": [
          10137348
        ],
        "postalCode": "L7P2W5",
        "streetName": "GLOUCESTER",
        "streetDirectionId": null,
        "streetTypeId": "DR",
        "placeName": "BURLINGTON",
        "streetNameDisplayText": "GLOUCESTER DR, BURLINGTON"
      }
    ]
  },
  {
    "postal": "L7P8W4",
    "result": []
  },
  {
    "postal": "L7P9C2",
    "result": []
  },
  {
    "postal": "L7P2C0",
    "result": []
  },
  {
    "postal": "L7P0E1",
    "result": [
      {
        "electoralDistricts": [
          {
            "election": null,
            "id": 59,
            "name": "Milton"
          }
        ],
        "pollDivisionIds": [
          10126381
        ],
        "postalCode": "L7P0E1",
        "streetName": "BRYN MAWR",
        "streetDirectionId": null,
        "streetTypeId": "LANE",
        "placeName": "BURLINGTON",
        "streetNameDisplayText": "BRYN MAWR LANE, BURLINGTON"
      }
    ]
  },
  {
    "postal": "L7P1K9",
    "result": [
      {
        "electoralDistricts": [
          {
            "election": null,
            "id": 15,
            "name": "Burlington"
          }
        ],
        "pollDivisionIds": [
          10137348
        ],
        "postalCode": "L7P1K9",
        "streetName": "HUMPHREYS",
        "streetDirectionId": null,
        "streetTypeId": "CRES",
        "placeName": "BURLINGTON",
        "streetNameDisplayText": "HUMPHREYS CRES, BURLINGTON"
      }
    ]
  },
  {
    "postal": "L7P1G7",
    "result": [
      {
        "electoralDistricts": [
          {
            "election": null,
            "id": 15,
            "name": "Burlington"
          }
        ],
        "pollDivisionIds": [
          10137347
        ],
        "postalCode": "L7P1G7",
        "streetName": "TAIT",
        "streetDirectionId": null,
        "streetTypeId": "AVE",
        "placeName": "BURLINGTON",
        "streetNameDisplayText": "TAIT AVE, BURLINGTON"
      }
    ]
  },
  {
    "postal": "L7P4E9",
    "result": [
      {
        "electoralDistricts": [
          {
            "election": null,
            "id": 15,
            "name": "Burlington"
          }
        ],
        "pollDivisionIds": [
          10137342
        ],
        "postalCode": "L7P4E9",
        "streetName": "KIRKBURN",
        "streetDirectionId": null,
        "streetTypeId": "DR",
        "placeName": "BURLINGTON",
        "streetNameDisplayText": "KIRKBURN DR, BURLINGTON"
      }
    ]
  },
  {
    "postal": "L7P9P0",
    "result": []
  },
  {
    "postal": "L7P5H3",
    "result": []
  },
  {
    "postal": "L7P9X6",
    "result": []
  },
  {
    "postal": "L7P5N7",
    "result": []
  },
  {
    "postal": "L7P5A6",
    "result": [
      {
        "electoralDistricts": [
          {
            "election": null,
            "id": 15,
            "name": "Burlington"
          }
        ],
        "pollDivisionIds": [
          10137361,
          10143438
        ],
        "postalCode": "L7P5A6",
        "streetName": "PANIN",
        "streetDirectionId": null,
        "streetTypeId": "RD",
        "placeName": "BURLINGTON",
        "streetNameDisplayText": "PANIN RD, BURLINGTON"
      }
    ]
  },
  {
    "postal": "L7P4M0",
    "result": []
  },
  {
    "postal": "L7P3V6",
    "result": [
      {
        "electoralDistricts": [
          {
            "election": null,
            "id": 15,
            "name": "Burlington"
          }
        ],
        "pollDivisionIds": [
          10137342
        ],
        "postalCode": "L7P3V6",
        "streetName": "DUNCASTER",
        "streetDirectionId": null,
        "streetTypeId": "DR",
        "placeName": "BURLINGTON",
        "streetNameDisplayText": "DUNCASTER DR, BURLINGTON"
      }
    ]
  },
  {
    "postal": "L7P1L7",
    "result": [
      {
        "electoralDistricts": [
          {
            "election": null,
            "id": 15,
            "name": "Burlington"
          }
        ],
        "pollDivisionIds": [
          10137348
        ],
        "postalCode": "L7P1L7",
        "streetName": "IAN",
        "streetDirectionId": null,
        "streetTypeId": "RD",
        "placeName": "BURLINGTON",
        "streetNameDisplayText": "IAN RD, BURLINGTON"
      }
    ]
  },
  {
    "postal": "L7P2P9",
    "result": [
      {
        "electoralDistricts": [
          {
            "election": null,
            "id": 15,
            "name": "Burlington"
          }
        ],
        "pollDivisionIds": [
          10137345
        ],
        "postalCode": "L7P2P9",
        "streetName": "WISE",
        "streetDirectionId": null,
        "streetTypeId": "AVE",
        "placeName": "BURLINGTON",
        "streetNameDisplayText": "WISE AVE, BURLINGTON"
      }
    ]
  },
  {
    "postal": "L7P5T4",
    "result": []
  },
  {
    "postal": "L7P5Z1",
    "result": []
  },
  {
    "postal": "L7P2X0",
    "result": []
  },
  {
    "postal": "L7P6Z2",
    "result": []
  },
  {
    "postal": "L7P0E0",
    "result": []
  },
  {
    "postal": "L7P3Z5",
    "result": [
      {
        "electoralDistricts": [
          {
            "election": null,
            "id": 15,
            "name": "Burlington"
          }
        ],
        "pollDivisionIds": [
          10137341
        ],
        "postalCode": "L7P3Z5",
        "streetName": "GILLINGHAM",
        "streetDirectionId": null,
        "streetTypeId": "DR",
        "placeName": "BURLINGTON",
        "streetNameDisplayText": "GILLINGHAM DR, BURLINGTON"
      }
    ]
  },
  {
    "postal": "L7P8H3",
    "result": []
  },
  {
    "postal": "L7P7S6",
    "result": []
  },
  {
    "postal": "L7P4C1",
    "result": [
      {
        "electoralDistricts": [
          {
            "election": null,
            "id": 15,
            "name": "Burlington"
          }
        ],
        "pollDivisionIds": [
          10137343
        ],
        "postalCode": "L7P4C1",
        "streetName": "CARTIER",
        "streetDirectionId": null,
        "streetTypeId": "CRES",
        "placeName": "BURLINGTON",
        "streetNameDisplayText": "CARTIER CRES, BURLINGTON"
      }
    ]
  },
  {
    "postal": "L7P3K2",
    "result": [
      {
        "electoralDistricts": [
          {
            "election": null,
            "id": 15,
            "name": "Burlington"
          }
        ],
        "pollDivisionIds": [
          10137343
        ],
        "postalCode": "L7P3K2",
        "streetName": "COBBLESTONE",
        "streetDirectionId": null,
        "streetTypeId": "DR",
        "placeName": "BURLINGTON",
        "streetNameDisplayText": "COBBLESTONE DR, BURLINGTON"
      }
    ]
  },
  {
    "postal": "L7P1Y5",
    "result": [
      {
        "electoralDistricts": [
          {
            "election": null,
            "id": 15,
            "name": "Burlington"
          }
        ],
        "pollDivisionIds": [
          10137344
        ],
        "postalCode": "L7P1Y5",
        "streetName": "LINMOUTH",
        "streetDirectionId": null,
        "streetTypeId": "TERR",
        "placeName": "BURLINGTON",
        "streetNameDisplayText": "LINMOUTH TERR, BURLINGTON"
      }
    ]
  },
  {
    "postal": "L7P6P6",
    "result": []
  },
  {
    "postal": "L7P3N9",
    "result": [
      {
        "electoralDistricts": [
          {
            "election": null,
            "id": 15,
            "name": "Burlington"
          }
        ],
        "pollDivisionIds": [
          10137345
        ],
        "postalCode": "L7P3N9",
        "streetName": "UPPER MIDDLE",
        "streetDirectionId": null,
        "streetTypeId": "RD",
        "placeName": "BURLINGTON",
        "streetNameDisplayText": "UPPER MIDDLE RD, BURLINGTON"
      }
    ]
  },
  {
    "postal": "L7P3W2",
    "result": [
      {
        "electoralDistricts": [
          {
            "election": null,
            "id": 15,
            "name": "Burlington"
          }
        ],
        "pollDivisionIds": [
          10137341
        ],
        "postalCode": "L7P3W2",
        "streetName": "MANCHESTER",
        "streetDirectionId": null,
        "streetTypeId": "DR",
        "placeName": "BURLINGTON",
        "streetNameDisplayText": "MANCHESTER DR, BURLINGTON"
      }
    ]
  },
  {
    "postal": "L7P6H8",
    "result": []
  },
  {
    "postal": "L7P9T3",
    "result": []
  },
  {
    "postal": "L7P5L9",
    "result": []
  },
  {
    "postal": "L7P7X7",
    "result": []
  },
  {
    "postal": "L7P3J5",
    "result": [
      {
        "electoralDistricts": [
          {
            "election": null,
            "id": 15,
            "name": "Burlington"
          }
        ],
        "pollDivisionIds": [
          10137342
        ],
        "postalCode": "L7P3J5",
        "streetName": "MARCHBANK",
        "streetDirectionId": null,
        "streetTypeId": "CRT",
        "placeName": "BURLINGTON",
        "streetNameDisplayText": "MARCHBANK CRT, BURLINGTON"
      }
    ]
  },
  {
    "postal": "L7P4J5",
    "result": [
      {
        "electoralDistricts": [
          {
            "election": null,
            "id": 15,
            "name": "Burlington"
          }
        ],
        "pollDivisionIds": [
          10137341
        ],
        "postalCode": "L7P4J5",
        "streetName": "CAVENDISH",
        "streetDirectionId": null,
        "streetTypeId": "DR",
        "placeName": "BURLINGTON",
        "streetNameDisplayText": "CAVENDISH DR, BURLINGTON"
      }
    ]
  },
  {
    "postal": "L7P6J2",
    "result": []
  },
  {
    "postal": "L7P5V6",
    "result": []
  },
  {
    "postal": "L7P3N2",
    "result": [
      {
        "electoralDistricts": [
          {
            "election": null,
            "id": 15,
            "name": "Burlington"
          }
        ],
        "pollDivisionIds": [
          10137342
        ],
        "postalCode": "L7P3N2",
        "streetName": "ROSSEAU",
        "streetDirectionId": null,
        "streetTypeId": "PL",
        "placeName": "BURLINGTON",
        "streetNameDisplayText": "ROSSEAU PL, BURLINGTON"
      }
    ]
  },
  {
    "postal": "L7P3B1",
    "result": [
      {
        "electoralDistricts": [
          {
            "election": null,
            "id": 15,
            "name": "Burlington"
          }
        ],
        "pollDivisionIds": [
          10137348
        ],
        "postalCode": "L7P3B1",
        "streetName": "FOUR SEASONS",
        "streetDirectionId": null,
        "streetTypeId": "DR",
        "placeName": "BURLINGTON",
        "streetNameDisplayText": "FOUR SEASONS DR, BURLINGTON"
      }
    ]
  },
  {
    "postal": "L7P8B5",
    "result": []
  },
  {
    "postal": "L7P0K1",
    "result": [
      {
        "electoralDistricts": [
          {
            "election": null,
            "id": 59,
            "name": "Milton"
          }
        ],
        "pollDivisionIds": [
          10126381
        ],
        "postalCode": "L7P0K1",
        "streetName": "MC NIVEN",
        "streetDirectionId": null,
        "streetTypeId": "RD",
        "placeName": "BURLINGTON",
        "streetNameDisplayText": "MC NIVEN RD, BURLINGTON"
      },
      {
        "electoralDistricts": [
          {
            "election": null,
            "id": 59,
            "name": "Milton"
          }
        ],
        "pollDivisionIds": [
          10126381
        ],
        "postalCode": "L7P0K1",
        "streetName": "MCNIVEN",
        "streetDirectionId": null,
        "streetTypeId": "CRT",
        "placeName": "BURLINGTON",
        "streetNameDisplayText": "MCNIVEN CRT, BURLINGTON"
      },
      {
        "electoralDistricts": [
          {
            "election": null,
            "id": 59,
            "name": "Milton"
          }
        ],
        "pollDivisionIds": [
          10126381
        ],
        "postalCode": "L7P0K1",
        "streetName": "MCNIVEN",
        "streetDirectionId": null,
        "streetTypeId": "RD",
        "placeName": "BURLINGTON",
        "streetNameDisplayText": "MCNIVEN RD, BURLINGTON"
      }
    ]
  },
  {
    "postal": "L7P7M7",
    "result": []
  },
  {
    "postal": "L7P2M2",
    "result": [
      {
        "electoralDistricts": [
          {
            "election": null,
            "id": 15,
            "name": "Burlington"
          }
        ],
        "pollDivisionIds": [
          10137347
        ],
        "postalCode": "L7P2M2",
        "streetName": "HOMEWOOD",
        "streetDirectionId": null,
        "streetTypeId": "DR",
        "placeName": "BURLINGTON",
        "streetNameDisplayText": "HOMEWOOD DR, BURLINGTON"
      }
    ]
  },
  {
    "postal": "L7P9N3",
    "result": []
  },
  {
    "postal": "L7P4Y8",
    "result": [
      {
        "electoralDistricts": [
          {
            "election": null,
            "id": 15,
            "name": "Burlington"
          }
        ],
        "pollDivisionIds": [
          10137362
        ],
        "postalCode": "L7P4Y8",
        "streetName": "CRANE",
        "streetDirectionId": null,
        "streetTypeId": "CRT",
        "placeName": "BURLINGTON",
        "streetNameDisplayText": "CRANE CRT, BURLINGTON"
      }
    ]
  },
  {
    "postal": "L7P3V7",
    "result": [
      {
        "electoralDistricts": [
          {
            "election": null,
            "id": 15,
            "name": "Burlington"
          }
        ],
        "pollDivisionIds": [
          10137342
        ],
        "postalCode": "L7P3V7",
        "streetName": "CAVENDISH",
        "streetDirectionId": null,
        "streetTypeId": "DR",
        "placeName": "BURLINGTON",
        "streetNameDisplayText": "CAVENDISH DR, BURLINGTON"
      }
    ]
  },
  {
    "postal": "L7P8Z1",
    "result": []
  },
  {
    "postal": "L7P7B3",
    "result": []
  },
  {
    "postal": "L7P3A8",
    "result": [
      {
        "electoralDistricts": [
          {
            "election": null,
            "id": 15,
            "name": "Burlington"
          }
        ],
        "pollDivisionIds": [
          10137348
        ],
        "postalCode": "L7P3A8",
        "streetName": "CROFTON",
        "streetDirectionId": null,
        "streetTypeId": "WAY",
        "placeName": "BURLINGTON",
        "streetNameDisplayText": "CROFTON WAY, BURLINGTON"
      }
    ]
  },
  {
    "postal": "L7P7V5",
    "result": []
  },
  {
    "postal": "L7P2T2",
    "result": [
      {
        "electoralDistricts": [
          {
            "election": null,
            "id": 15,
            "name": "Burlington"
          }
        ],
        "pollDivisionIds": [
          10137336
        ],
        "postalCode": "L7P2T2",
        "streetName": "GUELPH",
        "streetDirectionId": null,
        "streetTypeId": "LINE",
        "placeName": "BURLINGTON",
        "streetNameDisplayText": "GUELPH LINE, BURLINGTON"
      }
    ]
  },
  {
    "postal": "L7P6L3",
    "result": []
  },
  {
    "postal": "L7P0L2",
    "result": [
      {
        "electoralDistricts": [
          {
            "election": null,
            "id": 59,
            "name": "Milton"
          }
        ],
        "pollDivisionIds": [
          10126381
        ],
        "postalCode": "L7P0L2",
        "streetName": "CEDAR SPRINGS",
        "streetDirectionId": null,
        "streetTypeId": "RD",
        "placeName": "BURLINGTON",
        "streetNameDisplayText": "CEDAR SPRINGS RD, BURLINGTON"
      }
    ]
  },
  {
    "postal": "L7P5Y8",
    "result": []
  },
  {
    "postal": "L7P0B8",
    "result": [
      {
        "electoralDistricts": [
          {
            "election": null,
            "id": 59,
            "name": "Milton"
          }
        ],
        "pollDivisionIds": [
          10126381
        ],
        "postalCode": "L7P0B8",
        "streetName": "CEDAR SPRINGS",
        "streetDirectionId": null,
        "streetTypeId": "RD",
        "placeName": "BURLINGTON",
        "streetNameDisplayText": "CEDAR SPRINGS RD, BURLINGTON"
      }
    ]
  },
  {
    "postal": "L7P6R5",
    "result": []
  },
  {
    "postal": "L7P8W6",
    "result": []
  },
  {
    "postal": "L7P8G6",
    "result": []
  },
  {
    "postal": "L7P6X3",
    "result": []
  },
  {
    "postal": "L7P7R7",
    "result": []
  },
  {
    "postal": "L7P4B6",
    "result": [
      {
        "electoralDistricts": [
          {
            "election": null,
            "id": 15,
            "name": "Burlington"
          }
        ],
        "pollDivisionIds": [
          10137342
        ],
        "postalCode": "L7P4B6",
        "streetName": "OVERTON",
        "streetDirectionId": null,
        "streetTypeId": "DR",
        "placeName": "BURLINGTON",
        "streetNameDisplayText": "OVERTON DR, BURLINGTON"
      }
    ]
  },
  {
    "postal": "L7P3P9",
    "result": [
      {
        "electoralDistricts": [
          {
            "election": null,
            "id": 15,
            "name": "Burlington"
          }
        ],
        "pollDivisionIds": [
          10137342
        ],
        "postalCode": "L7P3P9",
        "streetName": "SILWELL",
        "streetDirectionId": null,
        "streetTypeId": "CRT",
        "placeName": "BURLINGTON",
        "streetNameDisplayText": "SILWELL CRT, BURLINGTON"
      }
    ]
  },
  {
    "postal": "L7P2T3",
    "result": [
      {
        "electoralDistricts": [
          {
            "election": null,
            "id": 15,
            "name": "Burlington"
          }
        ],
        "pollDivisionIds": [
          10137347
        ],
        "postalCode": "L7P2T3",
        "streetName": "GUELPH",
        "streetDirectionId": null,
        "streetTypeId": "LINE",
        "placeName": "BURLINGTON",
        "streetNameDisplayText": "GUELPH LINE, BURLINGTON"
      }
    ]
  },
  {
    "postal": "L7P1M4",
    "result": [
      {
        "electoralDistricts": [
          {
            "election": null,
            "id": 15,
            "name": "Burlington"
          }
        ],
        "pollDivisionIds": [
          10137348
        ],
        "postalCode": "L7P1M4",
        "streetName": "FAIRWAY",
        "streetDirectionId": null,
        "streetTypeId": "CRT",
        "placeName": "BURLINGTON",
        "streetNameDisplayText": "FAIRWAY CRT, BURLINGTON"
      }
    ]
  },
  {
    "postal": "L7P0H1",
    "result": [
      {
        "electoralDistricts": [
          {
            "election": null,
            "id": 59,
            "name": "Milton"
          }
        ],
        "pollDivisionIds": [
          10126381
        ],
        "postalCode": "L7P0H1",
        "streetName": "2",
        "streetDirectionId": null,
        "streetTypeId": "SIDERD",
        "placeName": "BURLINGTON",
        "streetNameDisplayText": "2 SIDERD, BURLINGTON"
      },
      {
        "electoralDistricts": [
          {
            "election": null,
            "id": 59,
            "name": "Milton"
          }
        ],
        "pollDivisionIds": [
          10126381
        ],
        "postalCode": "L7P0H1",
        "streetName": "2",
        "streetDirectionId": null,
        "streetTypeId": "SIDERD",
        "placeName": "CAMPBELLVILLE",
        "streetNameDisplayText": "2 SIDERD, CAMPBELLVILLE"
      },
      {
        "electoralDistricts": [
          {
            "election": null,
            "id": 59,
            "name": "Milton"
          }
        ],
        "pollDivisionIds": [
          10126381
        ],
        "postalCode": "L7P0H1",
        "streetName": "NO 2 SIDE",
        "streetDirectionId": null,
        "streetTypeId": "RD",
        "placeName": "BURLINGTON",
        "streetNameDisplayText": "NO 2 SIDE RD, BURLINGTON"
      }
    ]
  },
  {
    "postal": "L7P9W3",
    "result": []
  },
  {
    "postal": "L7P6P1",
    "result": []
  },
  {
    "postal": "L7P7G2",
    "result": []
  },
  {
    "postal": "L7P4J9",
    "result": [
      {
        "electoralDistricts": [
          {
            "election": null,
            "id": 15,
            "name": "Burlington"
          }
        ],
        "pollDivisionIds": [
          10137341
        ],
        "postalCode": "L7P4J9",
        "streetName": "MONTGOMERY",
        "streetDirectionId": null,
        "streetTypeId": "DR",
        "placeName": "BURLINGTON",
        "streetNameDisplayText": "MONTGOMERY DR, BURLINGTON"
      }
    ]
  },
  {
    "postal": "L7P9E4",
    "result": []
  },
  {
    "postal": "L7P8H0",
    "result": []
  },
  {
    "postal": "L7P4M7",
    "result": [
      {
        "electoralDistricts": [
          {
            "election": null,
            "id": 15,
            "name": "Burlington"
          }
        ],
        "pollDivisionIds": [
          10137341
        ],
        "postalCode": "L7P4M7",
        "streetName": "GUELPH",
        "streetDirectionId": null,
        "streetTypeId": "LINE",
        "placeName": "BURLINGTON",
        "streetNameDisplayText": "GUELPH LINE, BURLINGTON"
      }
    ]
  },
  {
    "postal": "L7P2G9",
    "result": [
      {
        "electoralDistricts": [
          {
            "election": null,
            "id": 15,
            "name": "Burlington"
          }
        ],
        "pollDivisionIds": [
          10137346
        ],
        "postalCode": "L7P2G9",
        "streetName": "ROYAL",
        "streetDirectionId": null,
        "streetTypeId": "DR",
        "placeName": "BURLINGTON",
        "streetNameDisplayText": "ROYAL DR, BURLINGTON"
      }
    ]
  },
  {
    "postal": "L7P8T2",
    "result": []
  },
  {
    "postal": "L7P7G7",
    "result": []
  },
  {
    "postal": "L7P4Z3",
    "result": [
      {
        "electoralDistricts": [
          {
            "election": null,
            "id": 15,
            "name": "Burlington"
          }
        ],
        "pollDivisionIds": [
          10137362
        ],
        "postalCode": "L7P4Z3",
        "streetName": "SNAKE",
        "streetDirectionId": null,
        "streetTypeId": "RD",
        "placeName": "BURLINGTON",
        "streetNameDisplayText": "SNAKE RD, BURLINGTON"
      }
    ]
  },
  {
    "postal": "L7P5B3",
    "result": [
      {
        "electoralDistricts": [
          {
            "election": null,
            "id": 15,
            "name": "Burlington"
          }
        ],
        "pollDivisionIds": [
          10137348
        ],
        "postalCode": "L7P5B3",
        "streetName": "WESTHAVEN",
        "streetDirectionId": null,
        "streetTypeId": "DR",
        "placeName": "BURLINGTON",
        "streetNameDisplayText": "WESTHAVEN DR, BURLINGTON"
      }
    ]
  },
  {
    "postal": "L7P1S7",
    "result": [
      {
        "electoralDistricts": [
          {
            "election": null,
            "id": 15,
            "name": "Burlington"
          }
        ],
        "pollDivisionIds": [
          10137346
        ],
        "postalCode": "L7P1S7",
        "streetName": "PARKWAY",
        "streetDirectionId": null,
        "streetTypeId": "DR",
        "placeName": "BURLINGTON",
        "streetNameDisplayText": "PARKWAY DR, BURLINGTON"
      }
    ]
  },
  {
    "postal": "L7P2N7",
    "result": [
      {
        "electoralDistricts": [
          {
            "election": null,
            "id": 15,
            "name": "Burlington"
          }
        ],
        "pollDivisionIds": [
          10137347
        ],
        "postalCode": "L7P2N7",
        "streetName": "TAVISTOCK",
        "streetDirectionId": null,
        "streetTypeId": "DR",
        "placeName": "BURLINGTON",
        "streetNameDisplayText": "TAVISTOCK DR, BURLINGTON"
      }
    ]
  },
  {
    "postal": "L7P0H8",
    "result": [
      {
        "electoralDistricts": [
          {
            "election": null,
            "id": 59,
            "name": "Milton"
          }
        ],
        "pollDivisionIds": [
          10126381
        ],
        "postalCode": "L7P0H8",
        "streetName": "KILBRIDE",
        "streetDirectionId": null,
        "streetTypeId": "ST",
        "placeName": "BURLINGTON",
        "streetNameDisplayText": "KILBRIDE ST, BURLINGTON"
      }
    ]
  },
  {
    "postal": "L7P7Z4",
    "result": []
  },
  {
    "postal": "L7P7B1",
    "result": []
  },
  {
    "postal": "L7P7P8",
    "result": []
  },
  {
    "postal": "L7P7N0",
    "result": []
  },
  {
    "postal": "L7P3Y5",
    "result": [
      {
        "electoralDistricts": [
          {
            "election": null,
            "id": 15,
            "name": "Burlington"
          }
        ],
        "pollDivisionIds": [
          10137341
        ],
        "postalCode": "L7P3Y5",
        "streetName": "MALCOLM",
        "streetDirectionId": null,
        "streetTypeId": "CRES",
        "placeName": "BURLINGTON",
        "streetNameDisplayText": "MALCOLM CRES, BURLINGTON"
      }
    ]
  },
  {
    "postal": "L7P6K1",
    "result": []
  },
  {
    "postal": "L7P9X5",
    "result": []
  },
  {
    "postal": "L7P7S5",
    "result": []
  },
  {
    "postal": "L7P0A4",
    "result": []
  },
  {
    "postal": "L7P4T5",
    "result": [
      {
        "electoralDistricts": [
          {
            "election": null,
            "id": 15,
            "name": "Burlington"
          }
        ],
        "pollDivisionIds": [
          10137348
        ],
        "postalCode": "L7P4T5",
        "streetName": "ROUNDLEAF",
        "streetDirectionId": null,
        "streetTypeId": "CRT",
        "placeName": "BURLINGTON",
        "streetNameDisplayText": "ROUNDLEAF CRT, BURLINGTON"
      }
    ]
  },
  {
    "postal": "L7P5K1",
    "result": []
  },
  {
    "postal": "L7P0Z9",
    "result": []
  },
  {
    "postal": "L7P7T2",
    "result": []
  },
  {
    "postal": "L7P1L5",
    "result": [
      {
        "electoralDistricts": [
          {
            "election": null,
            "id": 15,
            "name": "Burlington"
          }
        ],
        "pollDivisionIds": [
          10137348
        ],
        "postalCode": "L7P1L5",
        "streetName": "ESTER",
        "streetDirectionId": null,
        "streetTypeId": "DR",
        "placeName": "BURLINGTON",
        "streetNameDisplayText": "ESTER DR, BURLINGTON"
      }
    ]
  },
  {
    "postal": "L7P3N5",
    "result": [
      {
        "electoralDistricts": [
          {
            "election": null,
            "id": 15,
            "name": "Burlington"
          }
        ],
        "pollDivisionIds": [
          10137343
        ],
        "postalCode": "L7P3N5",
        "streetName": "LONGSHIRE",
        "streetDirectionId": null,
        "streetTypeId": "DR",
        "placeName": "BURLINGTON",
        "streetNameDisplayText": "LONGSHIRE DR, BURLINGTON"
      }
    ]
  },
  {
    "postal": "L7P6H4",
    "result": []
  },
  {
    "postal": "L7P5A5",
    "result": [
      {
        "electoralDistricts": [
          {
            "election": null,
            "id": 15,
            "name": "Burlington"
          }
        ],
        "pollDivisionIds": [
          10137360
        ],
        "postalCode": "L7P5A5",
        "streetName": "KING",
        "streetDirectionId": null,
        "streetTypeId": "RD",
        "placeName": "BURLINGTON",
        "streetNameDisplayText": "KING RD, BURLINGTON"
      }
    ]
  },
  {
    "postal": "L7P3R9",
    "result": [
      {
        "electoralDistricts": [
          {
            "election": null,
            "id": 15,
            "name": "Burlington"
          }
        ],
        "pollDivisionIds": [
          10137344
        ],
        "postalCode": "L7P3R9",
        "streetName": "UPPER MIDDLE",
        "streetDirectionId": null,
        "streetTypeId": "RD",
        "placeName": "BURLINGTON",
        "streetNameDisplayText": "UPPER MIDDLE RD, BURLINGTON"
      }
    ]
  },
  {
    "postal": "L7P7L8",
    "result": []
  },
  {
    "postal": "L7P6T6",
    "result": []
  },
  {
    "postal": "L7P7Y7",
    "result": []
  },
  {
    "postal": "L7P3M8",
    "result": [
      {
        "electoralDistricts": [
          {
            "election": null,
            "id": 15,
            "name": "Burlington"
          }
        ],
        "pollDivisionIds": [
          10137342
        ],
        "postalCode": "L7P3M8",
        "streetName": "HAVENDALE",
        "streetDirectionId": null,
        "streetTypeId": "BLVD",
        "placeName": "BURLINGTON",
        "streetNameDisplayText": "HAVENDALE BLVD, BURLINGTON"
      }
    ]
  },
  {
    "postal": "L7P2E0",
    "result": []
  },
  {
    "postal": "L7P4B5",
    "result": [
      {
        "electoralDistricts": [
          {
            "election": null,
            "id": 15,
            "name": "Burlington"
          }
        ],
        "pollDivisionIds": [
          10137342
        ],
        "postalCode": "L7P4B5",
        "streetName": "OVERTON",
        "streetDirectionId": null,
        "streetTypeId": "DR",
        "placeName": "BURLINGTON",
        "streetNameDisplayText": "OVERTON DR, BURLINGTON"
      }
    ]
  },
  {
    "postal": "L7P1J3",
    "result": [
      {
        "electoralDistricts": [
          {
            "election": null,
            "id": 15,
            "name": "Burlington"
          }
        ],
        "pollDivisionIds": [
          10137346
        ],
        "postalCode": "L7P1J3",
        "streetName": "MOUNT FOREST",
        "streetDirectionId": null,
        "streetTypeId": "DR",
        "placeName": "BURLINGTON",
        "streetNameDisplayText": "MOUNT FOREST DR, BURLINGTON"
      }
    ]
  },
  {
    "postal": "L7P5S6",
    "result": []
  },
  {
    "postal": "L7P8P7",
    "result": []
  },
  {
    "postal": "L7P7S7",
    "result": []
  },
  {
    "postal": "L7P4C2",
    "result": [
      {
        "electoralDistricts": [
          {
            "election": null,
            "id": 15,
            "name": "Burlington"
          }
        ],
        "pollDivisionIds": [
          10137342
        ],
        "postalCode": "L7P4C2",
        "streetName": "DUNCASTER",
        "streetDirectionId": null,
        "streetTypeId": "DR",
        "placeName": "BURLINGTON",
        "streetNameDisplayText": "DUNCASTER DR, BURLINGTON"
      }
    ]
  },
  {
    "postal": "L7P5Y0",
    "result": []
  },
  {
    "postal": "L7P2V7",
    "result": []
  },
  {
    "postal": "L7P8P5",
    "result": []
  },
  {
    "postal": "L7P5P5",
    "result": []
  },
  {
    "postal": "L7P5Z0",
    "result": []
  },
  {
    "postal": "L7P9B0",
    "result": []
  },
  {
    "postal": "L7P1L0",
    "result": []
  },
  {
    "postal": "L7P0B5",
    "result": [
      {
        "electoralDistricts": [
          {
            "election": null,
            "id": 59,
            "name": "Milton"
          }
        ],
        "pollDivisionIds": [
          10126381
        ],
        "postalCode": "L7P0B5",
        "streetName": "CEDAR SPRINGS",
        "streetDirectionId": null,
        "streetTypeId": "CRT",
        "placeName": "BURLINGTON",
        "streetNameDisplayText": "CEDAR SPRINGS CRT, BURLINGTON"
      },
      {
        "electoralDistricts": [
          {
            "election": null,
            "id": 59,
            "name": "Milton"
          }
        ],
        "pollDivisionIds": [
          10126381
        ],
        "postalCode": "L7P0B5",
        "streetName": "CEDAR SPRINGS",
        "streetDirectionId": null,
        "streetTypeId": "RD",
        "placeName": "BURLINGTON",
        "streetNameDisplayText": "CEDAR SPRINGS RD, BURLINGTON"
      }
    ]
  },
  {
    "postal": "L7P3L2",
    "result": [
      {
        "electoralDistricts": [
          {
            "election": null,
            "id": 15,
            "name": "Burlington"
          }
        ],
        "pollDivisionIds": [
          10137343
        ],
        "postalCode": "L7P3L2",
        "streetName": "INGERSOLL",
        "streetDirectionId": null,
        "streetTypeId": "DR",
        "placeName": "BURLINGTON",
        "streetNameDisplayText": "INGERSOLL DR, BURLINGTON"
      }
    ]
  },
  {
    "postal": "L7P3B7",
    "result": [
      {
        "electoralDistricts": [
          {
            "election": null,
            "id": 15,
            "name": "Burlington"
          }
        ],
        "pollDivisionIds": [
          10137343
        ],
        "postalCode": "L7P3B7",
        "streetName": "CAVENDISH",
        "streetDirectionId": null,
        "streetTypeId": "DR",
        "placeName": "BURLINGTON",
        "streetNameDisplayText": "CAVENDISH DR, BURLINGTON"
      }
    ]
  },
  {
    "postal": "L7P8L1",
    "result": []
  },
  {
    "postal": "L7P5M4",
    "result": []
  },
  {
    "postal": "L7P4G9",
    "result": [
      {
        "electoralDistricts": [
          {
            "election": null,
            "id": 15,
            "name": "Burlington"
          }
        ],
        "pollDivisionIds": [
          10137342
        ],
        "postalCode": "L7P4G9",
        "streetName": "MALCOLM",
        "streetDirectionId": null,
        "streetTypeId": "CRES",
        "placeName": "BURLINGTON",
        "streetNameDisplayText": "MALCOLM CRES, BURLINGTON"
      }
    ]
  },
  {
    "postal": "L7P0P0",
    "result": []
  },
  {
    "postal": "L7P8G2",
    "result": []
  },
  {
    "postal": "L7P1V9",
    "result": [
      {
        "electoralDistricts": [
          {
            "election": null,
            "id": 15,
            "name": "Burlington"
          }
        ],
        "pollDivisionIds": [
          10137345
        ],
        "postalCode": "L7P1V9",
        "streetName": "GRENALLEN",
        "streetDirectionId": null,
        "streetTypeId": "DR",
        "placeName": "BURLINGTON",
        "streetNameDisplayText": "GRENALLEN DR, BURLINGTON"
      }
    ]
  },
  {
    "postal": "L7P8N8",
    "result": []
  },
  {
    "postal": "L7P6S8",
    "result": []
  },
  {
    "postal": "L7P8H2",
    "result": []
  },
  {
    "postal": "L7P5R8",
    "result": []
  },
  {
    "postal": "L7P5L4",
    "result": []
  },
  {
    "postal": "L7P9E1",
    "result": []
  },
  {
    "postal": "L7P1C4",
    "result": [
      {
        "electoralDistricts": [
          {
            "election": null,
            "id": 15,
            "name": "Burlington"
          }
        ],
        "pollDivisionIds": [
          10137347
        ],
        "postalCode": "L7P1C4",
        "streetName": "MOUNTAINSIDE",
        "streetDirectionId": null,
        "streetTypeId": "DR",
        "placeName": "BURLINGTON",
        "streetNameDisplayText": "MOUNTAINSIDE DR, BURLINGTON"
      }
    ]
  },
  {
    "postal": "L7P8W5",
    "result": []
  },
  {
    "postal": "L7P1Y4",
    "result": [
      {
        "electoralDistricts": [
          {
            "election": null,
            "id": 15,
            "name": "Burlington"
          }
        ],
        "pollDivisionIds": [
          10137344
        ],
        "postalCode": "L7P1Y4",
        "streetName": "LINMOUTH",
        "streetDirectionId": null,
        "streetTypeId": "TERR",
        "placeName": "BURLINGTON",
        "streetNameDisplayText": "LINMOUTH TERR, BURLINGTON"
      }
    ]
  },
  {
    "postal": "L7P1C0",
    "result": []
  },
  {
    "postal": "L7P2J2",
    "result": [
      {
        "electoralDistricts": [
          {
            "election": null,
            "id": 15,
            "name": "Burlington"
          }
        ],
        "pollDivisionIds": [
          10137345
        ],
        "postalCode": "L7P2J2",
        "streetName": "MOUNTAIN GROVE",
        "streetDirectionId": null,
        "streetTypeId": "AV",
        "placeName": "BURLINGTON",
        "streetNameDisplayText": "MOUNTAIN GROVE AV, BURLINGTON"
      },
      {
        "electoralDistricts": [
          {
            "election": null,
            "id": 15,
            "name": "Burlington"
          }
        ],
        "pollDivisionIds": [
          10137345
        ],
        "postalCode": "L7P2J2",
        "streetName": "MOUNTAIN GROVE",
        "streetDirectionId": null,
        "streetTypeId": "AVE",
        "placeName": "BURLINGTON",
        "streetNameDisplayText": "MOUNTAIN GROVE AVE, BURLINGTON"
      }
    ]
  },
  {
    "postal": "L7P2J0",
    "result": []
  },
  {
    "postal": "L7P7A3",
    "result": []
  },
  {
    "postal": "L7P8M1",
    "result": []
  },
  {
    "postal": "L7P7T9",
    "result": []
  },
  {
    "postal": "L7P6C0",
    "result": []
  },
  {
    "postal": "L7P7X1",
    "result": []
  },
  {
    "postal": "L7P0G1",
    "result": [
      {
        "electoralDistricts": [
          {
            "election": null,
            "id": 59,
            "name": "Milton"
          }
        ],
        "pollDivisionIds": [
          10126381
        ],
        "postalCode": "L7P0G1",
        "streetName": "BRITANNIA",
        "streetDirectionId": null,
        "streetTypeId": "RD",
        "placeName": "BURLINGTON",
        "streetNameDisplayText": "BRITANNIA RD, BURLINGTON"
      }
    ]
  },
  {
    "postal": "L7P4X2",
    "result": [
      {
        "electoralDistricts": [
          {
            "election": null,
            "id": 15,
            "name": "Burlington"
          }
        ],
        "pollDivisionIds": [
          10137341
        ],
        "postalCode": "L7P4X2",
        "streetName": "ALDER",
        "streetDirectionId": null,
        "streetTypeId": "DR",
        "placeName": "BURLINGTON",
        "streetNameDisplayText": "ALDER DR, BURLINGTON"
      }
    ]
  },
  {
    "postal": "L7P0N6",
    "result": []
  },
  {
    "postal": "L7P8E3",
    "result": []
  },
  {
    "postal": "L7P5S8",
    "result": []
  },
  {
    "postal": "L7P0R0",
    "result": []
  },
  {
    "postal": "L7P6J6",
    "result": []
  },
  {
    "postal": "L7P4B4",
    "result": [
      {
        "electoralDistricts": [
          {
            "election": null,
            "id": 15,
            "name": "Burlington"
          }
        ],
        "pollDivisionIds": [
          10137342
        ],
        "postalCode": "L7P4B4",
        "streetName": "EAGLESFIELD",
        "streetDirectionId": null,
        "streetTypeId": "DR",
        "placeName": "BURLINGTON",
        "streetNameDisplayText": "EAGLESFIELD DR, BURLINGTON"
      }
    ]
  },
  {
    "postal": "L7P7E3",
    "result": []
  },
  {
    "postal": "L7P3N6",
    "result": [
      {
        "electoralDistricts": [
          {
            "election": null,
            "id": 15,
            "name": "Burlington"
          }
        ],
        "pollDivisionIds": [
          10137348
        ],
        "postalCode": "L7P3N6",
        "streetName": "CROZIER",
        "streetDirectionId": null,
        "streetTypeId": "CRT",
        "placeName": "BURLINGTON",
        "streetNameDisplayText": "CROZIER CRT, BURLINGTON"
      }
    ]
  },
  {
    "postal": "L7P3X6",
    "result": [
      {
        "electoralDistricts": [
          {
            "election": null,
            "id": 15,
            "name": "Burlington"
          }
        ],
        "pollDivisionIds": [
          10137341
        ],
        "postalCode": "L7P3X6",
        "streetName": "MIDDLESMOOR",
        "streetDirectionId": null,
        "streetTypeId": "CRES",
        "placeName": "BURLINGTON",
        "streetNameDisplayText": "MIDDLESMOOR CRES, BURLINGTON"
      }
    ]
  },
  {
    "postal": "L7P8L0",
    "result": []
  },
  {
    "postal": "L7P8N1",
    "result": []
  },
  {
    "postal": "L7P4J0",
    "result": []
  },
  {
    "postal": "L7P0X7",
    "result": []
  },
  {
    "postal": "L7P6S4",
    "result": []
  },
  {
    "postal": "L7P0Z0",
    "result": []
  },
  {
    "postal": "L7P9X8",
    "result": []
  },
  {
    "postal": "L7P3H3",
    "result": [
      {
        "electoralDistricts": [
          {
            "election": null,
            "id": 15,
            "name": "Burlington"
          }
        ],
        "pollDivisionIds": [
          10137348
        ],
        "postalCode": "L7P3H3",
        "streetName": "TYANDAGA PARK",
        "streetDirectionId": null,
        "streetTypeId": "DR",
        "placeName": "BURLINGTON",
        "streetNameDisplayText": "TYANDAGA PARK DR, BURLINGTON"
      }
    ]
  },
  {
    "postal": "L7P7S2",
    "result": []
  },
  {
    "postal": "L7P3T3",
    "result": [
      {
        "electoralDistricts": [
          {
            "election": null,
            "id": 15,
            "name": "Burlington"
          }
        ],
        "pollDivisionIds": [
          10137342
        ],
        "postalCode": "L7P3T3",
        "streetName": "COLDSTREAM",
        "streetDirectionId": null,
        "streetTypeId": "DR",
        "placeName": "BURLINGTON",
        "streetNameDisplayText": "COLDSTREAM DR, BURLINGTON"
      }
    ]
  },
  {
    "postal": "L7P9P3",
    "result": []
  },
  {
    "postal": "L7P4H8",
    "result": [
      {
        "electoralDistricts": [
          {
            "election": null,
            "id": 15,
            "name": "Burlington"
          }
        ],
        "pollDivisionIds": [
          10137342
        ],
        "postalCode": "L7P4H8",
        "streetName": "ABBOTSBURY",
        "streetDirectionId": null,
        "streetTypeId": "ST",
        "placeName": "BURLINGTON",
        "streetNameDisplayText": "ABBOTSBURY ST, BURLINGTON"
      }
    ]
  },
  {
    "postal": "L7P6R1",
    "result": []
  },
  {
    "postal": "L7P1S0",
    "result": []
  },
  {
    "postal": "L7P3W8",
    "result": [
      {
        "electoralDistricts": [
          {
            "election": null,
            "id": 15,
            "name": "Burlington"
          }
        ],
        "pollDivisionIds": [
          10137342
        ],
        "postalCode": "L7P3W8",
        "streetName": "LEOMINSTER",
        "streetDirectionId": null,
        "streetTypeId": "DR",
        "placeName": "BURLINGTON",
        "streetNameDisplayText": "LEOMINSTER DR, BURLINGTON"
      }
    ]
  },
  {
    "postal": "L7P4S3",
    "result": [
      {
        "electoralDistricts": [
          {
            "election": null,
            "id": 15,
            "name": "Burlington"
          }
        ],
        "pollDivisionIds": [
          10137341
        ],
        "postalCode": "L7P4S3",
        "streetName": "COTSWOLD",
        "streetDirectionId": null,
        "streetTypeId": "CRES",
        "placeName": "BURLINGTON",
        "streetNameDisplayText": "COTSWOLD CRES, BURLINGTON"
      }
    ]
  },
  {
    "postal": "L7P1B6",
    "result": [
      {
        "electoralDistricts": [
          {
            "election": null,
            "id": 15,
            "name": "Burlington"
          }
        ],
        "pollDivisionIds": [
          10137347
        ],
        "postalCode": "L7P1B6",
        "streetName": "MOUNTAINSIDE",
        "streetDirectionId": null,
        "streetTypeId": "DR",
        "placeName": "BURLINGTON",
        "streetNameDisplayText": "MOUNTAINSIDE DR, BURLINGTON"
      }
    ]
  },
  {
    "postal": "L7P8R3",
    "result": []
  },
  {
    "postal": "L7P4V9",
    "result": [
      {
        "electoralDistricts": [
          {
            "election": null,
            "id": 15,
            "name": "Burlington"
          }
        ],
        "pollDivisionIds": [
          10137342
        ],
        "postalCode": "L7P4V9",
        "streetName": "BEAUFORT",
        "streetDirectionId": null,
        "streetTypeId": "DR",
        "placeName": "BURLINGTON",
        "streetNameDisplayText": "BEAUFORT DR, BURLINGTON"
      },
      {
        "electoralDistricts": [
          {
            "election": null,
            "id": 15,
            "name": "Burlington"
          }
        ],
        "pollDivisionIds": [
          10137342
        ],
        "postalCode": "L7P4V9",
        "streetName": "HARBOUR",
        "streetDirectionId": null,
        "streetTypeId": "CRT",
        "placeName": "BURLINGTON",
        "streetNameDisplayText": "HARBOUR CRT, BURLINGTON"
      },
      {
        "electoralDistricts": [
          {
            "election": null,
            "id": 15,
            "name": "Burlington"
          }
        ],
        "pollDivisionIds": [
          10137342
        ],
        "postalCode": "L7P4V9",
        "streetName": "PORTVIEW",
        "streetDirectionId": null,
        "streetTypeId": "CRT",
        "placeName": "BURLINGTON",
        "streetNameDisplayText": "PORTVIEW CRT, BURLINGTON"
      }
    ]
  },
  {
    "postal": "L7P9W4",
    "result": []
  },
  {
    "postal": "L7P3T4",
    "result": [
      {
        "electoralDistricts": [
          {
            "election": null,
            "id": 15,
            "name": "Burlington"
          }
        ],
        "pollDivisionIds": [
          10137341
        ],
        "postalCode": "L7P3T4",
        "streetName": "MELISSA",
        "streetDirectionId": null,
        "streetTypeId": "CRES",
        "placeName": "BURLINGTON",
        "streetNameDisplayText": "MELISSA CRES, BURLINGTON"
      }
    ]
  },
  {
    "postal": "L7P5C7",
    "result": [
      {
        "electoralDistricts": [
          {
            "election": null,
            "id": 15,
            "name": "Burlington"
          }
        ],
        "pollDivisionIds": [
          10137347
        ],
        "postalCode": "L7P5C7",
        "streetName": "NORTH SERVICE",
        "streetDirectionId": null,
        "streetTypeId": "RD",
        "placeName": "BURLINGTON",
        "streetNameDisplayText": "NORTH SERVICE RD, BURLINGTON"
      }
    ]
  },
  {
    "postal": "L7P3Y1",
    "result": [
      {
        "electoralDistricts": [
          {
            "election": null,
            "id": 15,
            "name": "Burlington"
          }
        ],
        "pollDivisionIds": [
          10137341
        ],
        "postalCode": "L7P3Y1",
        "streetName": "COTSWOLD",
        "streetDirectionId": null,
        "streetTypeId": "CRES",
        "placeName": "BURLINGTON",
        "streetNameDisplayText": "COTSWOLD CRES, BURLINGTON"
      }
    ]
  },
  {
    "postal": "L7P5V0",
    "result": []
  },
  {
    "postal": "L7P8G8",
    "result": []
  },
  {
    "postal": "L7P8B1",
    "result": []
  },
  {
    "postal": "L7P4P5",
    "result": [
      {
        "electoralDistricts": [
          {
            "election": null,
            "id": 15,
            "name": "Burlington"
          }
        ],
        "pollDivisionIds": [
          10137336
        ],
        "postalCode": "L7P4P5",
        "streetName": "GUELPH",
        "streetDirectionId": null,
        "streetTypeId": "LINE",
        "placeName": "BURLINGTON",
        "streetNameDisplayText": "GUELPH LINE, BURLINGTON"
      }
    ]
  },
  {
    "postal": "L7P7B2",
    "result": []
  },
  {
    "postal": "L7P0R2",
    "result": [
      {
        "electoralDistricts": [
          {
            "election": null,
            "id": 59,
            "name": "Milton"
          }
        ],
        "pollDivisionIds": [
          10126381
        ],
        "postalCode": "L7P0R2",
        "streetName": "WATSON",
        "streetDirectionId": null,
        "streetTypeId": "DR",
        "placeName": "BURLINGTON",
        "streetNameDisplayText": "WATSON DR, BURLINGTON"
      }
    ]
  },
  {
    "postal": "L7P4M4",
    "result": [
      {
        "electoralDistricts": [
          {
            "election": null,
            "id": 15,
            "name": "Burlington"
          }
        ],
        "pollDivisionIds": [
          10137341
        ],
        "postalCode": "L7P4M4",
        "streetName": "COVENTRY",
        "streetDirectionId": null,
        "streetTypeId": "WAY",
        "placeName": "BURLINGTON",
        "streetNameDisplayText": "COVENTRY WAY, BURLINGTON"
      }
    ]
  },
  {
    "postal": "L7P7M4",
    "result": []
  },
  {
    "postal": "L7P9S7",
    "result": []
  },
  {
    "postal": "L7P5Z7",
    "result": []
  },
  {
    "postal": "L7P7J7",
    "result": []
  },
  {
    "postal": "L7P8R8",
    "result": []
  },
  {
    "postal": "L7P9X1",
    "result": []
  },
  {
    "postal": "L7P5M9",
    "result": []
  },
  {
    "postal": "L7P9B4",
    "result": []
  },
  {
    "postal": "L7P0L9",
    "result": [
      {
        "electoralDistricts": [
          {
            "election": null,
            "id": 59,
            "name": "Milton"
          }
        ],
        "pollDivisionIds": [
          10126381
        ],
        "postalCode": "L7P0L9",
        "streetName": "PANTON",
        "streetDirectionId": null,
        "streetTypeId": "ST",
        "placeName": "BURLINGTON",
        "streetNameDisplayText": "PANTON ST, BURLINGTON"
      }
    ]
  },
  {
    "postal": "L7P9G4",
    "result": []
  },
  {
    "postal": "L7P1J4",
    "result": [
      {
        "electoralDistricts": [
          {
            "election": null,
            "id": 15,
            "name": "Burlington"
          }
        ],
        "pollDivisionIds": [
          10137346
        ],
        "postalCode": "L7P1J4",
        "streetName": "MOUNT FOREST",
        "streetDirectionId": null,
        "streetTypeId": "DR",
        "placeName": "BURLINGTON",
        "streetNameDisplayText": "MOUNT FOREST DR, BURLINGTON"
      }
    ]
  },
  {
    "postal": "L7P0W6",
    "result": []
  }
]
