[
  {
    "postal": "L0P1A0",
    "result": []
  },
  {
    "postal": "L0P1B0",
    "result": [
      {
        "electoralDistricts": [
          {
            "election": null,
            "id": 59,
            "name": "Milton"
          }
        ],
        "pollDivisionIds": [
          10126372
        ],
        "postalCode": "L0P1B0",
        "streetName": "10 SIDE",
        "streetDirectionId": null,
        "streetTypeId": "RD",
        "placeName": "CAMPBELLVILLE",
        "streetNameDisplayText": "10 SIDE RD, CAMPBELLVILLE"
      },
      {
        "electoralDistricts": [
          {
            "election": null,
            "id": 59,
            "name": "Milton"
          }
        ],
        "pollDivisionIds": [
          10126372
        ],
        "postalCode": "L0P1B0",
        "streetName": "10",
        "streetDirectionId": null,
        "streetTypeId": "SIDERD",
        "placeName": "CAMPBELLVILLE",
        "streetNameDisplayText": "10 SIDERD, CAMPBELLVILLE"
      },
      {
        "electoralDistricts": [
          {
            "election": null,
            "id": 59,
            "name": "Milton"
          }
        ],
        "pollDivisionIds": [
          10126372
        ],
        "postalCode": "L0P1B0",
        "streetName": "15 SIDE",
        "streetDirectionId": null,
        "streetTypeId": "RD",
        "placeName": "MOFFAT",
        "streetNameDisplayText": "15 SIDE RD, MOFFAT"
      },
      {
        "electoralDistricts": [
          {
            "election": null,
            "id": 59,
            "name": "Milton"
          }
        ],
        "pollDivisionIds": [
          10126372
        ],
        "postalCode": "L0P1B0",
        "streetName": "15 SIDE",
        "streetDirectionId": null,
        "streetTypeId": "SIDERD",
        "placeName": "CAMPBELLVILLE",
        "streetNameDisplayText": "15 SIDE SIDERD, CAMPBELLVILLE"
      },
      {
        "electoralDistricts": [
          {
            "election": null,
            "id": 59,
            "name": "Milton"
          }
        ],
        "pollDivisionIds": [
          10126372
        ],
        "postalCode": "L0P1B0",
        "streetName": "15",
        "streetDirectionId": null,
        "streetTypeId": "SIDERD",
        "placeName": "CAMPBELLVILLE",
        "streetNameDisplayText": "15 SIDERD, CAMPBELLVILLE"
      },
      {
        "electoralDistricts": [
          {
            "election": null,
            "id": 59,
            "name": "Milton"
          }
        ],
        "pollDivisionIds": [
          10126372
        ],
        "postalCode": "L0P1B0",
        "streetName": "15",
        "streetDirectionId": null,
        "streetTypeId": "SIDERD",
        "placeName": "ROCKWOOD",
        "streetNameDisplayText": "15 SIDERD, ROCKWOOD"
      },
      {
        "electoralDistricts": [
          {
            "election": null,
            "id": 59,
            "name": "Milton"
          }
        ],
        "pollDivisionIds": [
          10126372
        ],
        "postalCode": "L0P1B0",
        "streetName": "15TH",
        "streetDirectionId": null,
        "streetTypeId": "SIDERD",
        "placeName": "CAMPBELLVILLE",
        "streetNameDisplayText": "15TH SIDERD, CAMPBELLVILLE"
      },
      {
        "electoralDistricts": [
          {
            "election": null,
            "id": 59,
            "name": "Milton"
          }
        ],
        "pollDivisionIds": [
          10126372
        ],
        "postalCode": "L0P1B0",
        "streetName": "15TH SIDEROAD",
        "streetDirectionId": null,
        "streetTypeId": null,
        "placeName": "CAMPBELLVILLE",
        "streetNameDisplayText": "15TH SIDEROAD, CAMPBELLVILLE"
      },
      {
        "electoralDistricts": [
          {
            "election": null,
            "id": 59,
            "name": "Milton"
          }
        ],
        "pollDivisionIds": [
          10126371
        ],
        "postalCode": "L0P1B0",
        "streetName": "2",
        "streetDirectionId": null,
        "streetTypeId": "LINE",
        "placeName": "CAMPBELLVILLE",
        "streetNameDisplayText": "2 LINE, CAMPBELLVILLE"
      },
      {
        "electoralDistricts": [
          {
            "election": null,
            "id": 59,
            "name": "Milton"
          }
        ],
        "pollDivisionIds": [
          10126372,
          10126371
        ],
        "postalCode": "L0P1B0",
        "streetName": "2 NASSAGAWEYA",
        "streetDirectionId": null,
        "streetTypeId": "LINE",
        "placeName": "CAMPBELLVILLE",
        "streetNameDisplayText": "2 NASSAGAWEYA LINE, CAMPBELLVILLE"
      },
      {
        "electoralDistricts": [
          {
            "election": null,
            "id": 59,
            "name": "Milton"
          }
        ],
        "pollDivisionIds": [
          10126372
        ],
        "postalCode": "L0P1B0",
        "streetName": "2 NASSAGAWEYA",
        "streetDirectionId": null,
        "streetTypeId": "LINE",
        "placeName": "MOFFAT",
        "streetNameDisplayText": "2 NASSAGAWEYA LINE, MOFFAT"
      },
      {
        "electoralDistricts": [
          {
            "election": null,
            "id": 59,
            "name": "Milton"
          }
        ],
        "pollDivisionIds": [
          10126381
        ],
        "postalCode": "L0P1B0",
        "streetName": "2",
        "streetDirectionId": null,
        "streetTypeId": "SIDERD",
        "placeName": "BURLINGTON",
        "streetNameDisplayText": "2 SIDERD, BURLINGTON"
      },
      {
        "electoralDistricts": [
          {
            "election": null,
            "id": 59,
            "name": "Milton"
          }
        ],
        "pollDivisionIds": [
          10126381
        ],
        "postalCode": "L0P1B0",
        "streetName": "2",
        "streetDirectionId": null,
        "streetTypeId": "SIDERD",
        "placeName": "CAMPBELLVILLE",
        "streetNameDisplayText": "2 SIDERD, CAMPBELLVILLE"
      },
      {
        "electoralDistricts": [
          {
            "election": null,
            "id": 59,
            "name": "Milton"
          }
        ],
        "pollDivisionIds": [
          10126372
        ],
        "postalCode": "L0P1B0",
        "streetName": "20 SIDE",
        "streetDirectionId": null,
        "streetTypeId": "RD",
        "placeName": "CAMPBELLVILLE",
        "streetNameDisplayText": "20 SIDE RD, CAMPBELLVILLE"
      },
      {
        "electoralDistricts": [
          {
            "election": null,
            "id": 59,
            "name": "Milton"
          }
        ],
        "pollDivisionIds": [
          10126371,
          10126372
        ],
        "postalCode": "L0P1B0",
        "streetName": "20",
        "streetDirectionId": null,
        "streetTypeId": "SIDERD",
        "placeName": "CAMPBELLVILLE",
        "streetNameDisplayText": "20 SIDERD, CAMPBELLVILLE"
      },
      {
        "electoralDistricts": [
          {
            "election": null,
            "id": 59,
            "name": "Milton"
          }
        ],
        "pollDivisionIds": [
          10126371
        ],
        "postalCode": "L0P1B0",
        "streetName": "25",
        "streetDirectionId": null,
        "streetTypeId": "SIDERD",
        "placeName": "CAMPBELLVILLE",
        "streetNameDisplayText": "25 SIDERD, CAMPBELLVILLE"
      },
      {
        "electoralDistricts": [
          {
            "election": null,
            "id": 59,
            "name": "Milton"
          }
        ],
        "pollDivisionIds": [
          10126371
        ],
        "postalCode": "L0P1B0",
        "streetName": "25TH SIDEROAD",
        "streetDirectionId": null,
        "streetTypeId": null,
        "placeName": "CAMPBELLVILLE",
        "streetNameDisplayText": "25TH SIDEROAD, CAMPBELLVILLE"
      },
      {
        "electoralDistricts": [
          {
            "election": null,
            "id": 59,
            "name": "Milton"
          }
        ],
        "pollDivisionIds": [
          10126371
        ],
        "postalCode": "L0P1B0",
        "streetName": "28",
        "streetDirectionId": null,
        "streetTypeId": "SIDERD",
        "placeName": "MOFFAT",
        "streetNameDisplayText": "28 SIDERD, MOFFAT"
      },
      {
        "electoralDistricts": [
          {
            "election": null,
            "id": 59,
            "name": "Milton"
          }
        ],
        "pollDivisionIds": [
          10126372
        ],
        "postalCode": "L0P1B0",
        "streetName": "2ND LINE NASSAGAWEYA",
        "streetDirectionId": null,
        "streetTypeId": "LINE",
        "placeName": "CAMPBELLVILLE",
        "streetNameDisplayText": "2ND LINE NASSAGAWEYA LINE, CAMPBELLVILLE"
      },
      {
        "electoralDistricts": [
          {
            "election": null,
            "id": 59,
            "name": "Milton"
          }
        ],
        "pollDivisionIds": [
          10126372
        ],
        "postalCode": "L0P1B0",
        "streetName": "2ND",
        "streetDirectionId": null,
        "streetTypeId": "LINE",
        "placeName": "CAMPBELLVILLE",
        "streetNameDisplayText": "2ND LINE, CAMPBELLVILLE"
      },
      {
        "electoralDistricts": [
          {
            "election": null,
            "id": 59,
            "name": "Milton"
          }
        ],
        "pollDivisionIds": [
          10126373
        ],
        "postalCode": "L0P1B0",
        "streetName": "3",
        "streetDirectionId": null,
        "streetTypeId": "SIDERD",
        "placeName": "CAMPBELLVILLE",
        "streetNameDisplayText": "3 SIDERD, CAMPBELLVILLE"
      },
      {
        "electoralDistricts": [
          {
            "election": null,
            "id": 59,
            "name": "Milton"
          }
        ],
        "pollDivisionIds": [
          10126371
        ],
        "postalCode": "L0P1B0",
        "streetName": "30",
        "streetDirectionId": null,
        "streetTypeId": "SIDERD",
        "placeName": "CAMPBELLVILLE",
        "streetNameDisplayText": "30 SIDERD, CAMPBELLVILLE"
      },
      {
        "electoralDistricts": [
          {
            "election": null,
            "id": 59,
            "name": "Milton"
          }
        ],
        "pollDivisionIds": [
          10126373
        ],
        "postalCode": "L0P1B0",
        "streetName": "3RD",
        "streetDirectionId": null,
        "streetTypeId": "SIDERD",
        "placeName": "CAMPBELLVILLE",
        "streetNameDisplayText": "3RD SIDERD, CAMPBELLVILLE"
      },
      {
        "electoralDistricts": [
          {
            "election": null,
            "id": 59,
            "name": "Milton"
          }
        ],
        "pollDivisionIds": [
          10126372
        ],
        "postalCode": "L0P1B0",
        "streetName": "4 NASSAGAWEYA",
        "streetDirectionId": null,
        "streetTypeId": "LINE",
        "placeName": "CAMPBELLVILLE",
        "streetNameDisplayText": "4 NASSAGAWEYA LINE, CAMPBELLVILLE"
      },
      {
        "electoralDistricts": [
          {
            "election": null,
            "id": 59,
            "name": "Milton"
          }
        ],
        "pollDivisionIds": [
          10126372
        ],
        "postalCode": "L0P1B0",
        "streetName": "4TH",
        "streetDirectionId": null,
        "streetTypeId": "LINE",
        "placeName": "CAMPBELLVILLE",
        "streetNameDisplayText": "4TH LINE, CAMPBELLVILLE"
      },
      {
        "electoralDistricts": [
          {
            "election": null,
            "id": 59,
            "name": "Milton"
          }
        ],
        "pollDivisionIds": [
          10126373,
          10126372
        ],
        "postalCode": "L0P1B0",
        "streetName": "5",
        "streetDirectionId": null,
        "streetTypeId": "SIDERD",
        "placeName": "CAMPBELLVILLE",
        "streetNameDisplayText": "5 SIDERD, CAMPBELLVILLE"
      },
      {
        "electoralDistricts": [
          {
            "election": null,
            "id": 59,
            "name": "Milton"
          }
        ],
        "pollDivisionIds": [
          10126372
        ],
        "postalCode": "L0P1B0",
        "streetName": "AMOS",
        "streetDirectionId": null,
        "streetTypeId": "DR",
        "placeName": "CAMPBELLVILLE",
        "streetNameDisplayText": "AMOS DR, CAMPBELLVILLE"
      },
      {
        "electoralDistricts": [
          {
            "election": null,
            "id": 59,
            "name": "Milton"
          }
        ],
        "pollDivisionIds": [
          10126373
        ],
        "postalCode": "L0P1B0",
        "streetName": "APPLEBY",
        "streetDirectionId": null,
        "streetTypeId": "LINE",
        "placeName": "CAMPBELLVILLE",
        "streetNameDisplayText": "APPLEBY LINE, CAMPBELLVILLE"
      },
      {
        "electoralDistricts": [
          {
            "election": null,
            "id": 59,
            "name": "Milton"
          }
        ],
        "pollDivisionIds": [
          10126372
        ],
        "postalCode": "L0P1B0",
        "streetName": "BLACKLOCK",
        "streetDirectionId": null,
        "streetTypeId": "ST",
        "placeName": "CAMPBELLVILLE",
        "streetNameDisplayText": "BLACKLOCK ST, CAMPBELLVILLE"
      },
      {
        "electoralDistricts": [
          {
            "election": null,
            "id": 59,
            "name": "Milton"
          }
        ],
        "pollDivisionIds": [
          10126373
        ],
        "postalCode": "L0P1B0",
        "streetName": "BOLAND",
        "streetDirectionId": null,
        "streetTypeId": "CRES",
        "placeName": "CAMPBELLVILLE",
        "streetNameDisplayText": "BOLAND CRES, CAMPBELLVILLE"
      },
      {
        "electoralDistricts": [
          {
            "election": null,
            "id": 59,
            "name": "Milton"
          }
        ],
        "pollDivisionIds": [
          10126372
        ],
        "postalCode": "L0P1B0",
        "streetName": "CAMERON",
        "streetDirectionId": null,
        "streetTypeId": "DR",
        "placeName": "CAMPBELLVILLE",
        "streetNameDisplayText": "CAMERON DR, CAMPBELLVILLE"
      },
      {
        "electoralDistricts": [
          {
            "election": null,
            "id": 59,
            "name": "Milton"
          }
        ],
        "pollDivisionIds": [
          10126373
        ],
        "postalCode": "L0P1B0",
        "streetName": "CAMPBELL",
        "streetDirectionId": "E",
        "streetTypeId": "AVE",
        "placeName": "CAMPBELLVILLE",
        "streetNameDisplayText": "CAMPBELL AVE E, CAMPBELLVILLE"
      },
      {
        "electoralDistricts": [
          {
            "election": null,
            "id": 59,
            "name": "Milton"
          }
        ],
        "pollDivisionIds": [
          10126373
        ],
        "postalCode": "L0P1B0",
        "streetName": "CAMPBELL",
        "streetDirectionId": "W",
        "streetTypeId": "AVE",
        "placeName": "CAMPBELLVILLE",
        "streetNameDisplayText": "CAMPBELL AVE W, CAMPBELLVILLE"
      },
      {
        "electoralDistricts": [
          {
            "election": null,
            "id": 59,
            "name": "Milton"
          },
          {
            "election": null,
            "id": 31,
            "name": "Flamborough—Glanbrook"
          }
        ],
        "pollDivisionIds": [
          10126373,
          10126372,
          10138239
        ],
        "postalCode": "L0P1B0",
        "streetName": "CAMPBELLVILLE",
        "streetDirectionId": null,
        "streetTypeId": "RD",
        "placeName": "CAMPBELLVILLE",
        "streetNameDisplayText": "CAMPBELLVILLE RD, CAMPBELLVILLE"
      },
      {
        "electoralDistricts": [
          {
            "election": null,
            "id": 59,
            "name": "Milton"
          }
        ],
        "pollDivisionIds": [
          10126373
        ],
        "postalCode": "L0P1B0",
        "streetName": "CANYON",
        "streetDirectionId": null,
        "streetTypeId": "RD",
        "placeName": "CAMPBELLVILLE",
        "streetNameDisplayText": "CANYON RD, CAMPBELLVILLE"
      },
      {
        "electoralDistricts": [
          {
            "election": null,
            "id": 31,
            "name": "Flamborough—Glanbrook"
          }
        ],
        "pollDivisionIds": [
          10138241
        ],
        "postalCode": "L0P1B0",
        "streetName": "CARLISLE",
        "streetDirectionId": null,
        "streetTypeId": "RD",
        "placeName": "CAMPBELLVILLE",
        "streetNameDisplayText": "CARLISLE RD, CAMPBELLVILLE"
      },
      {
        "electoralDistricts": [
          {
            "election": null,
            "id": 31,
            "name": "Flamborough—Glanbrook"
          }
        ],
        "pollDivisionIds": [
          10138239
        ],
        "postalCode": "L0P1B0",
        "streetName": "CENTRE",
        "streetDirectionId": null,
        "streetTypeId": "RD",
        "placeName": "CAMPBELLVILLE",
        "streetNameDisplayText": "CENTRE RD, CAMPBELLVILLE"
      },
      {
        "electoralDistricts": [
          {
            "election": null,
            "id": 31,
            "name": "Flamborough—Glanbrook"
          }
        ],
        "pollDivisionIds": [
          10138239
        ],
        "postalCode": "L0P1B0",
        "streetName": "CONCESSION 14",
        "streetDirectionId": "E",
        "streetTypeId": "RD",
        "placeName": "CAMPBELLVILLE",
        "streetNameDisplayText": "CONCESSION 14 RD E, CAMPBELLVILLE"
      },
      {
        "electoralDistricts": [
          {
            "election": null,
            "id": 31,
            "name": "Flamborough—Glanbrook"
          }
        ],
        "pollDivisionIds": [
          10138242,
          10138241
        ],
        "postalCode": "L0P1B0",
        "streetName": "CONCESSION 8",
        "streetDirectionId": "E",
        "streetTypeId": null,
        "placeName": "CAMPBELLVILLE",
        "streetNameDisplayText": "CONCESSION 8 E, CAMPBELLVILLE"
      },
      {
        "electoralDistricts": [
          {
            "election": null,
            "id": 31,
            "name": "Flamborough—Glanbrook"
          }
        ],
        "pollDivisionIds": [
          10138242
        ],
        "postalCode": "L0P1B0",
        "streetName": "CONCESSION 8",
        "streetDirectionId": "E",
        "streetTypeId": "RD",
        "placeName": "CAMPBELLVILLE",
        "streetNameDisplayText": "CONCESSION 8 RD E, CAMPBELLVILLE"
      },
      {
        "electoralDistricts": [
          {
            "election": null,
            "id": 59,
            "name": "Milton"
          }
        ],
        "pollDivisionIds": [
          10126373,
          10126381
        ],
        "postalCode": "L0P1B0",
        "streetName": "CONSERVATION",
        "streetDirectionId": null,
        "streetTypeId": "RD",
        "placeName": "CAMPBELLVILLE",
        "streetNameDisplayText": "CONSERVATION RD, CAMPBELLVILLE"
      },
      {
        "electoralDistricts": [
          {
            "election": null,
            "id": 59,
            "name": "Milton"
          }
        ],
        "pollDivisionIds": [
          10126371
        ],
        "postalCode": "L0P1B0",
        "streetName": "CONSERVATION RD.",
        "streetDirectionId": null,
        "streetTypeId": "RD",
        "placeName": "CAMPBELLVILLE",
        "streetNameDisplayText": "CONSERVATION RD. RD, CAMPBELLVILLE"
      },
      {
        "electoralDistricts": [
          {
            "election": null,
            "id": 59,
            "name": "Milton"
          }
        ],
        "pollDivisionIds": [
          10126373
        ],
        "postalCode": "L0P1B0",
        "streetName": "CRAWFORD",
        "streetDirectionId": null,
        "streetTypeId": "CRES",
        "placeName": "CAMPBELLVILLE",
        "streetNameDisplayText": "CRAWFORD CRES, CAMPBELLVILLE"
      },
      {
        "electoralDistricts": [
          {
            "election": null,
            "id": 59,
            "name": "Milton"
          }
        ],
        "pollDivisionIds": [
          10126381
        ],
        "postalCode": "L0P1B0",
        "streetName": "DERRY",
        "streetDirectionId": "W",
        "streetTypeId": "RD",
        "placeName": "CAMPBELLVILLE",
        "streetNameDisplayText": "DERRY RD W, CAMPBELLVILLE"
      },
      {
        "electoralDistricts": [
          {
            "election": null,
            "id": 59,
            "name": "Milton"
          }
        ],
        "pollDivisionIds": [
          10126381
        ],
        "postalCode": "L0P1B0",
        "streetName": "DERRY",
        "streetDirectionId": null,
        "streetTypeId": "RD",
        "placeName": "CAMPBELLVILLE",
        "streetNameDisplayText": "DERRY RD, CAMPBELLVILLE"
      },
      {
        "electoralDistricts": [
          {
            "election": null,
            "id": 59,
            "name": "Milton"
          }
        ],
        "pollDivisionIds": [
          10126371
        ],
        "postalCode": "L0P1B0",
        "streetName": "ERAMOSA-MILTON",
        "streetDirectionId": null,
        "streetTypeId": "TLINE",
        "placeName": "CAMPBELLVILLE",
        "streetNameDisplayText": "ERAMOSA-MILTON TLINE, CAMPBELLVILLE"
      },
      {
        "electoralDistricts": [
          {
            "election": null,
            "id": 59,
            "name": "Milton"
          }
        ],
        "pollDivisionIds": [
          10126371
        ],
        "postalCode": "L0P1B0",
        "streetName": "ERAMOSA-MILTON",
        "streetDirectionId": null,
        "streetTypeId": "TLINE",
        "placeName": "ROCKWOOD",
        "streetNameDisplayText": "ERAMOSA-MILTON TLINE, ROCKWOOD"
      },
      {
        "electoralDistricts": [
          {
            "election": null,
            "id": 59,
            "name": "Milton"
          }
        ],
        "pollDivisionIds": [
          10126372,
          10126373
        ],
        "postalCode": "L0P1B0",
        "streetName": "FIRST NASSAGAWEYA",
        "streetDirectionId": null,
        "streetTypeId": "LINE",
        "placeName": "CAMPBELLVILLE",
        "streetNameDisplayText": "FIRST NASSAGAWEYA LINE, CAMPBELLVILLE"
      },
      {
        "electoralDistricts": [
          {
            "election": null,
            "id": 59,
            "name": "Milton"
          }
        ],
        "pollDivisionIds": [
          10126373
        ],
        "postalCode": "L0P1B0",
        "streetName": "GLENDA JANE",
        "streetDirectionId": null,
        "streetTypeId": "DR",
        "placeName": "CAMPBELLVILLE",
        "streetNameDisplayText": "GLENDA JANE DR, CAMPBELLVILLE"
      },
      {
        "electoralDistricts": [
          {
            "election": null,
            "id": 31,
            "name": "Flamborough—Glanbrook"
          }
        ],
        "pollDivisionIds": [
          10138239
        ],
        "postalCode": "L0P1B0",
        "streetName": "GLENRON",
        "streetDirectionId": null,
        "streetTypeId": "RD",
        "placeName": "CAMPBELLVILLE",
        "streetNameDisplayText": "GLENRON RD, CAMPBELLVILLE"
      },
      {
        "electoralDistricts": [
          {
            "election": null,
            "id": 31,
            "name": "Flamborough—Glanbrook"
          }
        ],
        "pollDivisionIds": [
          10138241
        ],
        "postalCode": "L0P1B0",
        "streetName": "GREEN SPRING",
        "streetDirectionId": null,
        "streetTypeId": "RD",
        "placeName": "CAMPBELLVILLE",
        "streetNameDisplayText": "GREEN SPRING RD, CAMPBELLVILLE"
      },
      {
        "electoralDistricts": [
          {
            "election": null,
            "id": 59,
            "name": "Milton"
          }
        ],
        "pollDivisionIds": [
          10126373
        ],
        "postalCode": "L0P1B0",
        "streetName": "GUELPH JUNCTION",
        "streetDirectionId": null,
        "streetTypeId": "RD",
        "placeName": "CAMPBELLVILLE",
        "streetNameDisplayText": "GUELPH JUNCTION RD, CAMPBELLVILLE"
      },
      {
        "electoralDistricts": [
          {
            "election": null,
            "id": 59,
            "name": "Milton"
          },
          {
            "election": null,
            "id": 33,
            "name": "Guelph"
          }
        ],
        "pollDivisionIds": [
          10126373,
          10138379,
          10126381,
          10126371,
          10126372
        ],
        "postalCode": "L0P1B0",
        "streetName": "GUELPH",
        "streetDirectionId": null,
        "streetTypeId": "LINE",
        "placeName": "CAMPBELLVILLE",
        "streetNameDisplayText": "GUELPH LINE, CAMPBELLVILLE"
      },
      {
        "electoralDistricts": [
          {
            "election": null,
            "id": 59,
            "name": "Milton"
          }
        ],
        "pollDivisionIds": [
          10126372
        ],
        "postalCode": "L0P1B0",
        "streetName": "INGLIS",
        "streetDirectionId": null,
        "streetTypeId": "DR",
        "placeName": "CAMPBELLVILLE",
        "streetNameDisplayText": "INGLIS DR, CAMPBELLVILLE"
      },
      {
        "electoralDistricts": [
          {
            "election": null,
            "id": 59,
            "name": "Milton"
          }
        ],
        "pollDivisionIds": [
          10126373
        ],
        "postalCode": "L0P1B0",
        "streetName": "JESSIE",
        "streetDirectionId": null,
        "streetTypeId": "AVE",
        "placeName": "CAMPBELLVILLE",
        "streetNameDisplayText": "JESSIE AVE, CAMPBELLVILLE"
      },
      {
        "electoralDistricts": [
          {
            "election": null,
            "id": 59,
            "name": "Milton"
          }
        ],
        "pollDivisionIds": [
          10126373
        ],
        "postalCode": "L0P1B0",
        "streetName": "KINGSBURY",
        "streetDirectionId": null,
        "streetTypeId": "CIR",
        "placeName": "CAMPBELLVILLE",
        "streetNameDisplayText": "KINGSBURY CIR, CAMPBELLVILLE"
      },
      {
        "electoralDistricts": [
          {
            "election": null,
            "id": 59,
            "name": "Milton"
          }
        ],
        "pollDivisionIds": [
          10126373
        ],
        "postalCode": "L0P1B0",
        "streetName": "LIMESTONE",
        "streetDirectionId": null,
        "streetTypeId": "RD",
        "placeName": "CAMPBELLVILLE",
        "streetNameDisplayText": "LIMESTONE RD, CAMPBELLVILLE"
      },
      {
        "electoralDistricts": [
          {
            "election": null,
            "id": 59,
            "name": "Milton"
          }
        ],
        "pollDivisionIds": [
          10126373
        ],
        "postalCode": "L0P1B0",
        "streetName": "MAC ARTHUR",
        "streetDirectionId": null,
        "streetTypeId": "DR",
        "placeName": "CAMPBELLVILLE",
        "streetNameDisplayText": "MAC ARTHUR DR, CAMPBELLVILLE"
      },
      {
        "electoralDistricts": [
          {
            "election": null,
            "id": 59,
            "name": "Milton"
          }
        ],
        "pollDivisionIds": [
          10126373
        ],
        "postalCode": "L0P1B0",
        "streetName": "MACARTHUR",
        "streetDirectionId": null,
        "streetTypeId": "DR",
        "placeName": "CAMPBELLVILLE",
        "streetNameDisplayText": "MACARTHUR DR, CAMPBELLVILLE"
      },
      {
        "electoralDistricts": [
          {
            "election": null,
            "id": 75,
            "name": "Oakville North—Burlington"
          }
        ],
        "pollDivisionIds": [
          10140399
        ],
        "postalCode": "L0P1B0",
        "streetName": "MACARTHUR",
        "streetDirectionId": null,
        "streetTypeId": null,
        "placeName": "OAKVILLE",
        "streetNameDisplayText": "MACARTHUR, OAKVILLE"
      },
      {
        "electoralDistricts": [
          {
            "election": null,
            "id": 59,
            "name": "Milton"
          }
        ],
        "pollDivisionIds": [
          10126373
        ],
        "postalCode": "L0P1B0",
        "streetName": "MAE",
        "streetDirectionId": null,
        "streetTypeId": "CRT",
        "placeName": "CAMPBELLVILLE",
        "streetNameDisplayText": "MAE CRT, CAMPBELLVILLE"
      },
      {
        "electoralDistricts": [
          {
            "election": null,
            "id": 59,
            "name": "Milton"
          }
        ],
        "pollDivisionIds": [
          10126373
        ],
        "postalCode": "L0P1B0",
        "streetName": "MAIN",
        "streetDirectionId": "N",
        "streetTypeId": "ST",
        "placeName": "CAMPBELLVILLE",
        "streetNameDisplayText": "MAIN ST N, CAMPBELLVILLE"
      },
      {
        "electoralDistricts": [
          {
            "election": null,
            "id": 59,
            "name": "Milton"
          }
        ],
        "pollDivisionIds": [
          10126373
        ],
        "postalCode": "L0P1B0",
        "streetName": "MAIN",
        "streetDirectionId": "S",
        "streetTypeId": "ST",
        "placeName": "CAMPBELLVILLE",
        "streetNameDisplayText": "MAIN ST S, CAMPBELLVILLE"
      },
      {
        "electoralDistricts": [
          {
            "election": null,
            "id": 59,
            "name": "Milton"
          }
        ],
        "pollDivisionIds": [
          10126381
        ],
        "postalCode": "L0P1B0",
        "streetName": "MC NIVEN",
        "streetDirectionId": null,
        "streetTypeId": "RD",
        "placeName": "CAMPBELLVILLE",
        "streetNameDisplayText": "MC NIVEN RD, CAMPBELLVILLE"
      },
      {
        "electoralDistricts": [
          {
            "election": null,
            "id": 59,
            "name": "Milton"
          }
        ],
        "pollDivisionIds": [
          10126372
        ],
        "postalCode": "L0P1B0",
        "streetName": "MCFARLAND",
        "streetDirectionId": null,
        "streetTypeId": "CRT",
        "placeName": "CAMPBELLVILLE",
        "streetNameDisplayText": "MCFARLAND CRT, CAMPBELLVILLE"
      },
      {
        "electoralDistricts": [
          {
            "election": null,
            "id": 59,
            "name": "Milton"
          }
        ],
        "pollDivisionIds": [
          10126373
        ],
        "postalCode": "L0P1B0",
        "streetName": "MCLAREN",
        "streetDirectionId": null,
        "streetTypeId": "RD",
        "placeName": "CAMPBELLVILLE",
        "streetNameDisplayText": "MCLAREN RD, CAMPBELLVILLE"
      },
      {
        "electoralDistricts": [
          {
            "election": null,
            "id": 59,
            "name": "Milton"
          }
        ],
        "pollDivisionIds": [
          10126381
        ],
        "postalCode": "L0P1B0",
        "streetName": "MCNIVEN",
        "streetDirectionId": null,
        "streetTypeId": "RD",
        "placeName": "CAMPBELLVILLE",
        "streetNameDisplayText": "MCNIVEN RD, CAMPBELLVILLE"
      },
      {
        "electoralDistricts": [
          {
            "election": null,
            "id": 59,
            "name": "Milton"
          }
        ],
        "pollDivisionIds": [
          10126372
        ],
        "postalCode": "L0P1B0",
        "streetName": "MCPHAIL",
        "streetDirectionId": null,
        "streetTypeId": "WAY",
        "placeName": "CAMPBELLVILLE",
        "streetNameDisplayText": "MCPHAIL WAY, CAMPBELLVILLE"
      },
      {
        "electoralDistricts": [
          {
            "election": null,
            "id": 59,
            "name": "Milton"
          }
        ],
        "pollDivisionIds": [
          10126373
        ],
        "postalCode": "L0P1B0",
        "streetName": "MEADOWLAND",
        "streetDirectionId": null,
        "streetTypeId": "CRES",
        "placeName": "CAMPBELLVILLE",
        "streetNameDisplayText": "MEADOWLAND CRES, CAMPBELLVILLE"
      },
      {
        "electoralDistricts": [
          {
            "election": null,
            "id": 59,
            "name": "Milton"
          }
        ],
        "pollDivisionIds": [
          10126372
        ],
        "postalCode": "L0P1B0",
        "streetName": "MENZIES",
        "streetDirectionId": null,
        "streetTypeId": "CRT",
        "placeName": "CAMPBELLVILLE",
        "streetNameDisplayText": "MENZIES CRT, CAMPBELLVILLE"
      },
      {
        "electoralDistricts": [
          {
            "election": null,
            "id": 59,
            "name": "Milton"
          },
          {
            "election": null,
            "id": 31,
            "name": "Flamborough—Glanbrook"
          }
        ],
        "pollDivisionIds": [
          10126373,
          10138241,
          10126381,
          10138239
        ],
        "postalCode": "L0P1B0",
        "streetName": "MILBUROUGH",
        "streetDirectionId": null,
        "streetTypeId": "LINE",
        "placeName": "CAMPBELLVILLE",
        "streetNameDisplayText": "MILBUROUGH LINE, CAMPBELLVILLE"
      },
      {
        "electoralDistricts": [
          {
            "election": null,
            "id": 59,
            "name": "Milton"
          }
        ],
        "pollDivisionIds": [
          10126373
        ],
        "postalCode": "L0P1B0",
        "streetName": "MILLBOROUGH",
        "streetDirectionId": null,
        "streetTypeId": "LINE",
        "placeName": "CAMPBELLVILLE",
        "streetNameDisplayText": "MILLBOROUGH LINE, CAMPBELLVILLE"
      },
      {
        "electoralDistricts": [
          {
            "election": null,
            "id": 59,
            "name": "Milton"
          }
        ],
        "pollDivisionIds": [
          10126372
        ],
        "postalCode": "L0P1B0",
        "streetName": "MILNE",
        "streetDirectionId": null,
        "streetTypeId": "CRT",
        "placeName": "CAMPBELLVILLE",
        "streetNameDisplayText": "MILNE CRT, CAMPBELLVILLE"
      },
      {
        "electoralDistricts": [
          {
            "election": null,
            "id": 59,
            "name": "Milton"
          }
        ],
        "pollDivisionIds": [
          10126372
        ],
        "postalCode": "L0P1B0",
        "streetName": "MOHAWK",
        "streetDirectionId": null,
        "streetTypeId": "TRAIL",
        "placeName": "CAMPBELLVILLE",
        "streetNameDisplayText": "MOHAWK TRAIL, CAMPBELLVILLE"
      },
      {
        "electoralDistricts": [
          {
            "election": null,
            "id": 31,
            "name": "Flamborough—Glanbrook"
          }
        ],
        "pollDivisionIds": [
          10138239
        ],
        "postalCode": "L0P1B0",
        "streetName": "MOUNTSBERG",
        "streetDirectionId": null,
        "streetTypeId": "RD",
        "placeName": "CAMPBELLVILLE",
        "streetNameDisplayText": "MOUNTSBERG RD, CAMPBELLVILLE"
      },
      {
        "electoralDistricts": [
          {
            "election": null,
            "id": 59,
            "name": "Milton"
          }
        ],
        "pollDivisionIds": [
          10126372
        ],
        "postalCode": "L0P1B0",
        "streetName": "NO 15 SIDE",
        "streetDirectionId": null,
        "streetTypeId": "RD",
        "placeName": "CAMPBELLVILLE",
        "streetNameDisplayText": "NO 15 SIDE RD, CAMPBELLVILLE"
      },
      {
        "electoralDistricts": [
          {
            "election": null,
            "id": 59,
            "name": "Milton"
          }
        ],
        "pollDivisionIds": [
          10126373
        ],
        "postalCode": "L0P1B0",
        "streetName": "PARKVIEW",
        "streetDirectionId": null,
        "streetTypeId": "CRES",
        "placeName": "CAMPBELLVILLE",
        "streetNameDisplayText": "PARKVIEW CRES, CAMPBELLVILLE"
      },
      {
        "electoralDistricts": [
          {
            "election": null,
            "id": 59,
            "name": "Milton"
          }
        ],
        "pollDivisionIds": [
          10126372
        ],
        "postalCode": "L0P1B0",
        "streetName": "PINE VIEW",
        "streetDirectionId": null,
        "streetTypeId": "TRAIL",
        "placeName": "CAMPBELLVILLE",
        "streetNameDisplayText": "PINE VIEW TRAIL, CAMPBELLVILLE"
      },
      {
        "electoralDistricts": [
          {
            "election": null,
            "id": 59,
            "name": "Milton"
          }
        ],
        "pollDivisionIds": [
          10126372
        ],
        "postalCode": "L0P1B0",
        "streetName": "PINEVIEW",
        "streetDirectionId": null,
        "streetTypeId": "TRAIL",
        "placeName": "CAMPBELLVILLE",
        "streetNameDisplayText": "PINEVIEW TRAIL, CAMPBELLVILLE"
      },
      {
        "electoralDistricts": [
          {
            "election": null,
            "id": 31,
            "name": "Flamborough—Glanbrook"
          }
        ],
        "pollDivisionIds": [
          10138241
        ],
        "postalCode": "L0P1B0",
        "streetName": "PROGRESTON",
        "streetDirectionId": null,
        "streetTypeId": "RD",
        "placeName": "CAMPBELLVILLE",
        "streetNameDisplayText": "PROGRESTON RD, CAMPBELLVILLE"
      },
      {
        "electoralDistricts": [
          {
            "election": null,
            "id": 59,
            "name": "Milton"
          }
        ],
        "pollDivisionIds": [
          10126372
        ],
        "postalCode": "L0P1B0",
        "streetName": "PURDY",
        "streetDirectionId": null,
        "streetTypeId": "DR",
        "placeName": "CAMPBELLVILLE",
        "streetNameDisplayText": "PURDY DR, CAMPBELLVILLE"
      },
      {
        "electoralDistricts": [
          {
            "election": null,
            "id": 59,
            "name": "Milton"
          }
        ],
        "pollDivisionIds": [
          10126373
        ],
        "postalCode": "L0P1B0",
        "streetName": "REID",
        "streetDirectionId": null,
        "streetTypeId": "SIDERD",
        "placeName": "CAMPBELLVILLE",
        "streetNameDisplayText": "REID SIDERD, CAMPBELLVILLE"
      },
      {
        "electoralDistricts": [
          {
            "election": null,
            "id": 59,
            "name": "Milton"
          }
        ],
        "pollDivisionIds": [
          10126372
        ],
        "postalCode": "L0P1B0",
        "streetName": "RUTLEDGE",
        "streetDirectionId": null,
        "streetTypeId": "WAY",
        "placeName": "CAMPBELLVILLE",
        "streetNameDisplayText": "RUTLEDGE WAY, CAMPBELLVILLE"
      },
      {
        "electoralDistricts": [
          {
            "election": null,
            "id": 59,
            "name": "Milton"
          }
        ],
        "pollDivisionIds": [
          10126372
        ],
        "postalCode": "L0P1B0",
        "streetName": "SECOND LINE NASSAGAWEYA",
        "streetDirectionId": null,
        "streetTypeId": null,
        "placeName": "CAMPBELLVILLE",
        "streetNameDisplayText": "SECOND LINE NASSAGAWEYA, CAMPBELLVILLE"
      },
      {
        "electoralDistricts": [
          {
            "election": null,
            "id": 59,
            "name": "Milton"
          }
        ],
        "pollDivisionIds": [
          10126371
        ],
        "postalCode": "L0P1B0",
        "streetName": "SECOND",
        "streetDirectionId": null,
        "streetTypeId": "LINE",
        "placeName": "CAMPBELLVILLE",
        "streetNameDisplayText": "SECOND LINE, CAMPBELLVILLE"
      },
      {
        "electoralDistricts": [
          {
            "election": null,
            "id": 59,
            "name": "Milton"
          }
        ],
        "pollDivisionIds": [
          10126372
        ],
        "postalCode": "L0P1B0",
        "streetName": "SECOND",
        "streetDirectionId": null,
        "streetTypeId": "LINE",
        "placeName": "MOFFAT",
        "streetNameDisplayText": "SECOND LINE, MOFFAT"
      },
      {
        "electoralDistricts": [
          {
            "election": null,
            "id": 59,
            "name": "Milton"
          }
        ],
        "pollDivisionIds": [
          10126372
        ],
        "postalCode": "L0P1B0",
        "streetName": "SECOND NASSAGAWEYA",
        "streetDirectionId": null,
        "streetTypeId": "LINE",
        "placeName": "MILTON",
        "streetNameDisplayText": "SECOND NASSAGAWEYA LINE, MILTON"
      },
      {
        "electoralDistricts": [
          {
            "election": null,
            "id": 59,
            "name": "Milton"
          }
        ],
        "pollDivisionIds": [
          10126373
        ],
        "postalCode": "L0P1B0",
        "streetName": "SIDE",
        "streetDirectionId": null,
        "streetTypeId": "RD",
        "placeName": "CAMPBELLVILLE",
        "streetNameDisplayText": "SIDE RD, CAMPBELLVILLE"
      },
      {
        "electoralDistricts": [
          {
            "election": null,
            "id": 59,
            "name": "Milton"
          }
        ],
        "pollDivisionIds": [
          10126373
        ],
        "postalCode": "L0P1B0",
        "streetName": "STOKES",
        "streetDirectionId": null,
        "streetTypeId": "TRAIL",
        "placeName": "CAMPBELLVILLE",
        "streetNameDisplayText": "STOKES TRAIL, CAMPBELLVILLE"
      },
      {
        "electoralDistricts": [
          {
            "election": null,
            "id": 59,
            "name": "Milton"
          }
        ],
        "pollDivisionIds": [
          10126372
        ],
        "postalCode": "L0P1B0",
        "streetName": "TAYLOR",
        "streetDirectionId": null,
        "streetTypeId": "CRT",
        "placeName": "CAMPBELLVILLE",
        "streetNameDisplayText": "TAYLOR CRT, CAMPBELLVILLE"
      },
      {
        "electoralDistricts": [
          {
            "election": null,
            "id": 59,
            "name": "Milton"
          }
        ],
        "pollDivisionIds": [
          10126372
        ],
        "postalCode": "L0P1B0",
        "streetName": "TENTH SIDE",
        "streetDirectionId": null,
        "streetTypeId": "RD",
        "placeName": "CAMPBELLVILLE",
        "streetNameDisplayText": "TENTH SIDE RD, CAMPBELLVILLE"
      },
      {
        "electoralDistricts": [
          {
            "election": null,
            "id": 31,
            "name": "Flamborough—Glanbrook"
          }
        ],
        "pollDivisionIds": [
          10138239
        ],
        "postalCode": "L0P1B0",
        "streetName": "TIMBERRUN",
        "streetDirectionId": null,
        "streetTypeId": "CRT",
        "placeName": "CAMPBELLVILLE",
        "streetNameDisplayText": "TIMBERRUN CRT, CAMPBELLVILLE"
      },
      {
        "electoralDistricts": [
          {
            "election": null,
            "id": 59,
            "name": "Milton"
          }
        ],
        "pollDivisionIds": [
          10126381,
          10126373
        ],
        "postalCode": "L0P1B0",
        "streetName": "TWISS",
        "streetDirectionId": null,
        "streetTypeId": "RD",
        "placeName": "CAMPBELLVILLE",
        "streetNameDisplayText": "TWISS RD, CAMPBELLVILLE"
      },
      {
        "electoralDistricts": [
          {
            "election": null,
            "id": 59,
            "name": "Milton"
          }
        ],
        "pollDivisionIds": [
          10126373
        ],
        "postalCode": "L0P1B0",
        "streetName": "WHEELIHAN",
        "streetDirectionId": null,
        "streetTypeId": "WAY",
        "placeName": "CAMPBELLVILLE",
        "streetNameDisplayText": "WHEELIHAN WAY, CAMPBELLVILLE"
      },
      {
        "electoralDistricts": [
          {
            "election": null,
            "id": 115,
            "name": "Wellington—Halton Hills"
          }
        ],
        "pollDivisionIds": [
          10142568
        ],
        "postalCode": "L0P1B0",
        "streetName": "WILSON",
        "streetDirectionId": null,
        "streetTypeId": "ST",
        "placeName": "CAMPBELLVILLE",
        "streetNameDisplayText": "WILSON ST, CAMPBELLVILLE"
      }
    ]
  },
  {
    "postal": "L0P1C0",
    "result": []
  },
  {
    "postal": "L0P1E0",
    "result": [
      {
        "electoralDistricts": [
          {
            "election": null,
            "id": 59,
            "name": "Milton"
          }
        ],
        "pollDivisionIds": [
          10126380
        ],
        "postalCode": "L0P1E0",
        "streetName": "6",
        "streetDirectionId": null,
        "streetTypeId": "LINE",
        "placeName": "HORNBY",
        "streetNameDisplayText": "6 LINE, HORNBY"
      },
      {
        "electoralDistricts": [
          {
            "election": null,
            "id": 59,
            "name": "Milton"
          }
        ],
        "pollDivisionIds": [
          10126380
        ],
        "postalCode": "L0P1E0",
        "streetName": "6",
        "streetDirectionId": null,
        "streetTypeId": "LINE",
        "placeName": "MILTON",
        "streetNameDisplayText": "6 LINE, MILTON"
      },
      {
        "electoralDistricts": [
          {
            "election": null,
            "id": 59,
            "name": "Milton"
          }
        ],
        "pollDivisionIds": [
          10126380
        ],
        "postalCode": "L0P1E0",
        "streetName": "8",
        "streetDirectionId": null,
        "streetTypeId": "LINE",
        "placeName": "HORNBY",
        "streetNameDisplayText": "8 LINE, HORNBY"
      },
      {
        "electoralDistricts": [
          {
            "election": null,
            "id": 62,
            "name": "Mississauga—Erin Mills"
          }
        ],
        "pollDivisionIds": [
          10139707
        ],
        "postalCode": "L0P1E0",
        "streetName": "9",
        "streetDirectionId": null,
        "streetTypeId": "LINE",
        "placeName": "HORNBY",
        "streetNameDisplayText": "9 LINE, HORNBY"
      },
      {
        "electoralDistricts": [
          {
            "election": null,
            "id": 115,
            "name": "Wellington—Halton Hills"
          }
        ],
        "pollDivisionIds": [
          10142587
        ],
        "postalCode": "L0P1E0",
        "streetName": "ADAMSON",
        "streetDirectionId": "S",
        "streetTypeId": "ST",
        "placeName": "NORVAL",
        "streetNameDisplayText": "ADAMSON ST S, NORVAL"
      },
      {
        "electoralDistricts": [
          {
            "election": null,
            "id": 59,
            "name": "Milton"
          }
        ],
        "pollDivisionIds": [
          10126380
        ],
        "postalCode": "L0P1E0",
        "streetName": "AUBURN",
        "streetDirectionId": null,
        "streetTypeId": "RD",
        "placeName": "HORNBY",
        "streetNameDisplayText": "AUBURN RD, HORNBY"
      },
      {
        "electoralDistricts": [
          {
            "election": null,
            "id": 59,
            "name": "Milton"
          },
          {
            "election": null,
            "id": 65,
            "name": "Mississauga—Streetsville"
          }
        ],
        "pollDivisionIds": [
          10126380,
          10139843
        ],
        "postalCode": "L0P1E0",
        "streetName": "BRITANNIA",
        "streetDirectionId": "E",
        "streetTypeId": "RD",
        "placeName": "HORNBY",
        "streetNameDisplayText": "BRITANNIA RD E, HORNBY"
      },
      {
        "electoralDistricts": [
          {
            "election": null,
            "id": 59,
            "name": "Milton"
          }
        ],
        "pollDivisionIds": [
          10126380
        ],
        "postalCode": "L0P1E0",
        "streetName": "BRITANNIA",
        "streetDirectionId": "W",
        "streetTypeId": "RD",
        "placeName": "HORNBY",
        "streetNameDisplayText": "BRITANNIA RD W, HORNBY"
      },
      {
        "electoralDistricts": [
          {
            "election": null,
            "id": 59,
            "name": "Milton"
          },
          {
            "election": null,
            "id": 65,
            "name": "Mississauga—Streetsville"
          }
        ],
        "pollDivisionIds": [
          10126380,
          10139843
        ],
        "postalCode": "L0P1E0",
        "streetName": "DERRY",
        "streetDirectionId": "E",
        "streetTypeId": "RD",
        "placeName": "HORNBY",
        "streetNameDisplayText": "DERRY RD E, HORNBY"
      },
      {
        "electoralDistricts": [
          {
            "election": null,
            "id": 59,
            "name": "Milton"
          }
        ],
        "pollDivisionIds": [
          10126380
        ],
        "postalCode": "L0P1E0",
        "streetName": "DERRY",
        "streetDirectionId": "W",
        "streetTypeId": "RD",
        "placeName": "HORNBY",
        "streetNameDisplayText": "DERRY RD W, HORNBY"
      },
      {
        "electoralDistricts": [
          {
            "election": null,
            "id": 59,
            "name": "Milton"
          }
        ],
        "pollDivisionIds": [
          10126392
        ],
        "postalCode": "L0P1E0",
        "streetName": "DERRY",
        "streetDirectionId": null,
        "streetTypeId": "RD",
        "placeName": "MILTON",
        "streetNameDisplayText": "DERRY RD, MILTON"
      },
      {
        "electoralDistricts": [
          {
            "election": null,
            "id": 115,
            "name": "Wellington—Halton Hills"
          },
          {
            "election": null,
            "id": 59,
            "name": "Milton"
          }
        ],
        "pollDivisionIds": [
          10142590,
          10126380
        ],
        "postalCode": "L0P1E0",
        "streetName": "EIGHTH",
        "streetDirectionId": null,
        "streetTypeId": "LINE",
        "placeName": "HORNBY",
        "streetNameDisplayText": "EIGHTH LINE, HORNBY"
      },
      {
        "electoralDistricts": [
          {
            "election": null,
            "id": 115,
            "name": "Wellington—Halton Hills"
          }
        ],
        "pollDivisionIds": [
          10142590,
          10142561
        ],
        "postalCode": "L0P1E0",
        "streetName": "HORNBY",
        "streetDirectionId": null,
        "streetTypeId": "RD",
        "placeName": "HORNBY",
        "streetNameDisplayText": "HORNBY RD, HORNBY"
      },
      {
        "electoralDistricts": [
          {
            "election": null,
            "id": 62,
            "name": "Mississauga—Erin Mills"
          },
          {
            "election": null,
            "id": 59,
            "name": "Milton"
          }
        ],
        "pollDivisionIds": [
          10139707,
          10126380
        ],
        "postalCode": "L0P1E0",
        "streetName": "LOWER BASE",
        "streetDirectionId": "E",
        "streetTypeId": "LINE",
        "placeName": "HORNBY",
        "streetNameDisplayText": "LOWER BASE LINE E, HORNBY"
      },
      {
        "electoralDistricts": [
          {
            "election": null,
            "id": 59,
            "name": "Milton"
          }
        ],
        "pollDivisionIds": [
          10126380
        ],
        "postalCode": "L0P1E0",
        "streetName": "LOWER BASE",
        "streetDirectionId": "W",
        "streetTypeId": "LINE",
        "placeName": "HORNBY",
        "streetNameDisplayText": "LOWER BASE LINE W, HORNBY"
      },
      {
        "electoralDistricts": [
          {
            "election": null,
            "id": 59,
            "name": "Milton"
          }
        ],
        "pollDivisionIds": [
          10126380
        ],
        "postalCode": "L0P1E0",
        "streetName": "LOWER BASE",
        "streetDirectionId": "W",
        "streetTypeId": "LINE",
        "placeName": "MILTON",
        "streetNameDisplayText": "LOWER BASE LINE W, MILTON"
      },
      {
        "electoralDistricts": [
          {
            "election": null,
            "id": 115,
            "name": "Wellington—Halton Hills"
          },
          {
            "election": null,
            "id": 65,
            "name": "Mississauga—Streetsville"
          },
          {
            "election": null,
            "id": 62,
            "name": "Mississauga—Erin Mills"
          }
        ],
        "pollDivisionIds": [
          10142590,
          10139843,
          10139707
        ],
        "postalCode": "L0P1E0",
        "streetName": "NINTH",
        "streetDirectionId": null,
        "streetTypeId": "LINE",
        "placeName": "HORNBY",
        "streetNameDisplayText": "NINTH LINE, HORNBY"
      },
      {
        "electoralDistricts": [
          {
            "election": null,
            "id": 65,
            "name": "Mississauga—Streetsville"
          }
        ],
        "pollDivisionIds": [
          10139843
        ],
        "postalCode": "L0P1E0",
        "streetName": "NINTH",
        "streetDirectionId": null,
        "streetTypeId": "LINE",
        "placeName": "MISSISSAUGA",
        "streetNameDisplayText": "NINTH LINE, MISSISSAUGA"
      },
      {
        "electoralDistricts": [
          {
            "election": null,
            "id": 115,
            "name": "Wellington—Halton Hills"
          },
          {
            "election": null,
            "id": 59,
            "name": "Milton"
          }
        ],
        "pollDivisionIds": [
          10142590,
          10126380
        ],
        "postalCode": "L0P1E0",
        "streetName": "SIXTH",
        "streetDirectionId": null,
        "streetTypeId": "LINE",
        "placeName": "HORNBY",
        "streetNameDisplayText": "SIXTH LINE, HORNBY"
      },
      {
        "electoralDistricts": [
          {
            "election": null,
            "id": 115,
            "name": "Wellington—Halton Hills"
          }
        ],
        "pollDivisionIds": [
          10142590
        ],
        "postalCode": "L0P1E0",
        "streetName": "STEELES",
        "streetDirectionId": "W",
        "streetTypeId": "AVE",
        "placeName": "HORNBY",
        "streetNameDisplayText": "STEELES AVE W, HORNBY"
      },
      {
        "electoralDistricts": [
          {
            "election": null,
            "id": 115,
            "name": "Wellington—Halton Hills"
          }
        ],
        "pollDivisionIds": [
          10142590
        ],
        "postalCode": "L0P1E0",
        "streetName": "STEELES",
        "streetDirectionId": null,
        "streetTypeId": "AVE",
        "placeName": "HORNBY",
        "streetNameDisplayText": "STEELES AVE, HORNBY"
      },
      {
        "electoralDistricts": [
          {
            "election": null,
            "id": 115,
            "name": "Wellington—Halton Hills"
          }
        ],
        "pollDivisionIds": [
          10142590
        ],
        "postalCode": "L0P1E0",
        "streetName": "TENTH",
        "streetDirectionId": null,
        "streetTypeId": "LINE",
        "placeName": "HORNBY",
        "streetNameDisplayText": "TENTH LINE, HORNBY"
      },
      {
        "electoralDistricts": [
          {
            "election": null,
            "id": 59,
            "name": "Milton"
          },
          {
            "election": null,
            "id": 115,
            "name": "Wellington—Halton Hills"
          }
        ],
        "pollDivisionIds": [
          10126380,
          10142590
        ],
        "postalCode": "L0P1E0",
        "streetName": "TRAFALGAR",
        "streetDirectionId": null,
        "streetTypeId": "RD",
        "placeName": "HORNBY",
        "streetNameDisplayText": "TRAFALGAR RD, HORNBY"
      },
      {
        "electoralDistricts": [
          {
            "election": null,
            "id": 115,
            "name": "Wellington—Halton Hills"
          }
        ],
        "pollDivisionIds": [
          10142573
        ],
        "postalCode": "L0P1E0",
        "streetName": "WELLINGTON RD 24",
        "streetDirectionId": null,
        "streetTypeId": "RD",
        "placeName": "ERIN",
        "streetNameDisplayText": "WELLINGTON RD 24 RD, ERIN"
      },
      {
        "electoralDistricts": [
          {
            "election": null,
            "id": 115,
            "name": "Wellington—Halton Hills"
          }
        ],
        "pollDivisionIds": [
          10142590
        ],
        "postalCode": "L0P1E0",
        "streetName": "WINSTON CHURCHILL",
        "streetDirectionId": null,
        "streetTypeId": "BLVD",
        "placeName": "HORNBY",
        "streetNameDisplayText": "WINSTON CHURCHILL BLVD, HORNBY"
      }
    ]
  },
  {
    "postal": "L0P1G0",
    "result": []
  },
  {
    "postal": "L0P1H0",
    "result": [
      {
        "electoralDistricts": [
          {
            "election": null,
            "id": 115,
            "name": "Wellington—Halton Hills"
          }
        ],
        "pollDivisionIds": [
          10142579
        ],
        "postalCode": "L0P1H0",
        "streetName": "20 SIDE",
        "streetDirectionId": null,
        "streetTypeId": "RD",
        "placeName": "LIMEHOUSE",
        "streetNameDisplayText": "20 SIDE RD, LIMEHOUSE"
      },
      {
        "electoralDistricts": [
          {
            "election": null,
            "id": 115,
            "name": "Wellington—Halton Hills"
          }
        ],
        "pollDivisionIds": [
          10142579
        ],
        "postalCode": "L0P1H0",
        "streetName": "20",
        "streetDirectionId": null,
        "streetTypeId": "SIDERD",
        "placeName": "LIMEHOUSE",
        "streetNameDisplayText": "20 SIDERD, LIMEHOUSE"
      },
      {
        "electoralDistricts": [
          {
            "election": null,
            "id": 115,
            "name": "Wellington—Halton Hills"
          }
        ],
        "pollDivisionIds": [
          10142580,
          10142577,
          10142579
        ],
        "postalCode": "L0P1H0",
        "streetName": "22 SIDE",
        "streetDirectionId": null,
        "streetTypeId": "RD",
        "placeName": "LIMEHOUSE",
        "streetNameDisplayText": "22 SIDE RD, LIMEHOUSE"
      },
      {
        "electoralDistricts": [
          {
            "election": null,
            "id": 115,
            "name": "Wellington—Halton Hills"
          }
        ],
        "pollDivisionIds": [
          10142577
        ],
        "postalCode": "L0P1H0",
        "streetName": "22 SIDERD",
        "streetDirectionId": null,
        "streetTypeId": "SIDERD",
        "placeName": "LIMEHOUSE",
        "streetNameDisplayText": "22 SIDERD SIDERD, LIMEHOUSE"
      },
      {
        "electoralDistricts": [
          {
            "election": null,
            "id": 115,
            "name": "Wellington—Halton Hills"
          }
        ],
        "pollDivisionIds": [
          10142579,
          10142580,
          10142577
        ],
        "postalCode": "L0P1H0",
        "streetName": "22",
        "streetDirectionId": null,
        "streetTypeId": "SIDERD",
        "placeName": "LIMEHOUSE",
        "streetNameDisplayText": "22 SIDERD, LIMEHOUSE"
      },
      {
        "electoralDistricts": [
          {
            "election": null,
            "id": 115,
            "name": "Wellington—Halton Hills"
          }
        ],
        "pollDivisionIds": [
          10142577
        ],
        "postalCode": "L0P1H0",
        "streetName": "22ND SIDE",
        "streetDirectionId": null,
        "streetTypeId": "RD",
        "placeName": "LIMEHOUSE",
        "streetNameDisplayText": "22ND SIDE RD, LIMEHOUSE"
      },
      {
        "electoralDistricts": [
          {
            "election": null,
            "id": 115,
            "name": "Wellington—Halton Hills"
          }
        ],
        "pollDivisionIds": [
          10142573,
          10142581
        ],
        "postalCode": "L0P1H0",
        "streetName": "27",
        "streetDirectionId": null,
        "streetTypeId": "SIDERD",
        "placeName": "GEORGETOWN",
        "streetNameDisplayText": "27 SIDERD, GEORGETOWN"
      },
      {
        "electoralDistricts": [
          {
            "election": null,
            "id": 115,
            "name": "Wellington—Halton Hills"
          }
        ],
        "pollDivisionIds": [
          10142573
        ],
        "postalCode": "L0P1H0",
        "streetName": "32",
        "streetDirectionId": null,
        "streetTypeId": "SIDERD",
        "placeName": "BALLINAFAD",
        "streetNameDisplayText": "32 SIDERD, BALLINAFAD"
      },
      {
        "electoralDistricts": [
          {
            "election": null,
            "id": 115,
            "name": "Wellington—Halton Hills"
          }
        ],
        "pollDivisionIds": [
          10142573
        ],
        "postalCode": "L0P1H0",
        "streetName": "32",
        "streetDirectionId": null,
        "streetTypeId": "SIDERD",
        "placeName": "LIMEHOUSE",
        "streetNameDisplayText": "32 SIDERD, LIMEHOUSE"
      },
      {
        "electoralDistricts": [
          {
            "election": null,
            "id": 115,
            "name": "Wellington—Halton Hills"
          }
        ],
        "pollDivisionIds": [
          10142580,
          10142578
        ],
        "postalCode": "L0P1H0",
        "streetName": "5TH",
        "streetDirectionId": null,
        "streetTypeId": "LINE",
        "placeName": "LIMEHOUSE",
        "streetNameDisplayText": "5TH LINE, LIMEHOUSE"
      },
      {
        "electoralDistricts": [
          {
            "election": null,
            "id": 115,
            "name": "Wellington—Halton Hills"
          }
        ],
        "pollDivisionIds": [
          10142578
        ],
        "postalCode": "L0P1H0",
        "streetName": "7",
        "streetDirectionId": null,
        "streetTypeId": null,
        "placeName": "ACTON",
        "streetNameDisplayText": "7, ACTON"
      },
      {
        "electoralDistricts": [
          {
            "election": null,
            "id": 115,
            "name": "Wellington—Halton Hills"
          }
        ],
        "pollDivisionIds": [
          10142579
        ],
        "postalCode": "L0P1H0",
        "streetName": "7",
        "streetDirectionId": null,
        "streetTypeId": null,
        "placeName": "GEORGETOWN",
        "streetNameDisplayText": "7, GEORGETOWN"
      },
      {
        "electoralDistricts": [
          {
            "election": null,
            "id": 115,
            "name": "Wellington—Halton Hills"
          }
        ],
        "pollDivisionIds": [
          10142578,
          10142579
        ],
        "postalCode": "L0P1H0",
        "streetName": "7",
        "streetDirectionId": null,
        "streetTypeId": null,
        "placeName": "LIMEHOUSE",
        "streetNameDisplayText": "7, LIMEHOUSE"
      },
      {
        "electoralDistricts": [
          {
            "election": null,
            "id": 115,
            "name": "Wellington—Halton Hills"
          }
        ],
        "pollDivisionIds": [
          10142578,
          10142583,
          10142584,
          10142555,
          10142579,
          10142580
        ],
        "postalCode": "L0P1H0",
        "streetName": "AUTUMN",
        "streetDirectionId": null,
        "streetTypeId": "CIR",
        "placeName": "LIMEHOUSE",
        "streetNameDisplayText": "AUTUMN CIR, LIMEHOUSE"
      },
      {
        "electoralDistricts": [
          {
            "election": null,
            "id": 115,
            "name": "Wellington—Halton Hills"
          }
        ],
        "pollDivisionIds": [
          10142578
        ],
        "postalCode": "L0P1H0",
        "streetName": "BRIDLEWOOD",
        "streetDirectionId": null,
        "streetTypeId": "BLVD",
        "placeName": "LIMEHOUSE",
        "streetNameDisplayText": "BRIDLEWOOD BLVD, LIMEHOUSE"
      },
      {
        "electoralDistricts": [
          {
            "election": null,
            "id": 115,
            "name": "Wellington—Halton Hills"
          }
        ],
        "pollDivisionIds": [
          10142578
        ],
        "postalCode": "L0P1H0",
        "streetName": "COUNTRY LANE",
        "streetDirectionId": null,
        "streetTypeId": "CRES",
        "placeName": "LIMEHOUSE",
        "streetNameDisplayText": "COUNTRY LANE CRES, LIMEHOUSE"
      },
      {
        "electoralDistricts": [
          {
            "election": null,
            "id": 115,
            "name": "Wellington—Halton Hills"
          }
        ],
        "pollDivisionIds": [
          10142580
        ],
        "postalCode": "L0P1H0",
        "streetName": "ELIZABETH",
        "streetDirectionId": null,
        "streetTypeId": "ST",
        "placeName": "LIMEHOUSE",
        "streetNameDisplayText": "ELIZABETH ST, LIMEHOUSE"
      },
      {
        "electoralDistricts": [
          {
            "election": null,
            "id": 115,
            "name": "Wellington—Halton Hills"
          }
        ],
        "pollDivisionIds": [
          10142577,
          10142580,
          10142579,
          10142578
        ],
        "postalCode": "L0P1H0",
        "streetName": "FIFTH",
        "streetDirectionId": null,
        "streetTypeId": "LINE",
        "placeName": "LIMEHOUSE",
        "streetNameDisplayText": "FIFTH LINE, LIMEHOUSE"
      },
      {
        "electoralDistricts": [
          {
            "election": null,
            "id": 115,
            "name": "Wellington—Halton Hills"
          }
        ],
        "pollDivisionIds": [
          10142578
        ],
        "postalCode": "L0P1H0",
        "streetName": "FOREST RIDGE",
        "streetDirectionId": null,
        "streetTypeId": "CRES",
        "placeName": "LIMEHOUSE",
        "streetNameDisplayText": "FOREST RIDGE CRES, LIMEHOUSE"
      },
      {
        "electoralDistricts": [
          {
            "election": null,
            "id": 115,
            "name": "Wellington—Halton Hills"
          }
        ],
        "pollDivisionIds": [
          10142573
        ],
        "postalCode": "L0P1H0",
        "streetName": "HILTS",
        "streetDirectionId": null,
        "streetTypeId": "CRT",
        "placeName": "BALLINAFAD",
        "streetNameDisplayText": "HILTS CRT, BALLINAFAD"
      },
      {
        "electoralDistricts": [
          {
            "election": null,
            "id": 115,
            "name": "Wellington—Halton Hills"
          }
        ],
        "pollDivisionIds": [
          10142577,
          10142579
        ],
        "postalCode": "L0P1H0",
        "streetName": "KIRKPATRICK",
        "streetDirectionId": null,
        "streetTypeId": "LANE",
        "placeName": "LIMEHOUSE",
        "streetNameDisplayText": "KIRKPATRICK LANE, LIMEHOUSE"
      },
      {
        "electoralDistricts": [
          {
            "election": null,
            "id": 115,
            "name": "Wellington—Halton Hills"
          },
          {
            "election": null,
            "id": 59,
            "name": "Milton"
          }
        ],
        "pollDivisionIds": [
          10142579,
          10142580,
          10126371,
          10142573
        ],
        "postalCode": "L0P1H0",
        "streetName": "SIXTH",
        "streetDirectionId": null,
        "streetTypeId": "LINE",
        "placeName": "LIMEHOUSE",
        "streetNameDisplayText": "SIXTH LINE, LIMEHOUSE"
      },
      {
        "electoralDistricts": [
          {
            "election": null,
            "id": 59,
            "name": "Milton"
          }
        ],
        "pollDivisionIds": [
          10126371
        ],
        "postalCode": "L0P1H0",
        "streetName": "SIXTH NASSAGAWEYA",
        "streetDirectionId": null,
        "streetTypeId": "LINE",
        "placeName": "LIMEHOUSE",
        "streetNameDisplayText": "SIXTH NASSAGAWEYA LINE, LIMEHOUSE"
      },
      {
        "electoralDistricts": [
          {
            "election": null,
            "id": 115,
            "name": "Wellington—Halton Hills"
          }
        ],
        "pollDivisionIds": [
          10142573
        ],
        "postalCode": "L0P1H0",
        "streetName": "TRAFALGAR",
        "streetDirectionId": "N",
        "streetTypeId": "RD",
        "placeName": "BALLINAFAD",
        "streetNameDisplayText": "TRAFALGAR RD N, BALLINAFAD"
      },
      {
        "electoralDistricts": [
          {
            "election": null,
            "id": 115,
            "name": "Wellington—Halton Hills"
          }
        ],
        "pollDivisionIds": [
          10142579
        ],
        "postalCode": "L0P1H0",
        "streetName": "WOLSELEY",
        "streetDirectionId": null,
        "streetTypeId": "ST",
        "placeName": "LIMEHOUSE",
        "streetNameDisplayText": "WOLSELEY ST, LIMEHOUSE"
      }
    ]
  },
  {
    "postal": "L0P1J0",
    "result": [
      {
        "electoralDistricts": [
          {
            "election": null,
            "id": 59,
            "name": "Milton"
          }
        ],
        "pollDivisionIds": [
          10126372
        ],
        "postalCode": "L0P1J0",
        "streetName": "10 SIDE",
        "streetDirectionId": null,
        "streetTypeId": "RD",
        "placeName": "MOFFAT",
        "streetNameDisplayText": "10 SIDE RD, MOFFAT"
      },
      {
        "electoralDistricts": [
          {
            "election": null,
            "id": 59,
            "name": "Milton"
          }
        ],
        "pollDivisionIds": [
          10126372
        ],
        "postalCode": "L0P1J0",
        "streetName": "10",
        "streetDirectionId": null,
        "streetTypeId": "SIDERD",
        "placeName": "MOFFAT",
        "streetNameDisplayText": "10 SIDERD, MOFFAT"
      },
      {
        "electoralDistricts": [
          {
            "election": null,
            "id": 59,
            "name": "Milton"
          },
          {
            "election": null,
            "id": 115,
            "name": "Wellington—Halton Hills"
          }
        ],
        "pollDivisionIds": [
          10126372,
          10142576
        ],
        "postalCode": "L0P1J0",
        "streetName": "11",
        "streetDirectionId": null,
        "streetTypeId": "CONC",
        "placeName": "MOFFAT",
        "streetNameDisplayText": "11 CONC, MOFFAT"
      },
      {
        "electoralDistricts": [
          {
            "election": null,
            "id": 115,
            "name": "Wellington—Halton Hills"
          }
        ],
        "pollDivisionIds": [
          10142576
        ],
        "postalCode": "L0P1J0",
        "streetName": "11TH",
        "streetDirectionId": null,
        "streetTypeId": "CONC",
        "placeName": "MOFFAT",
        "streetNameDisplayText": "11TH CONC, MOFFAT"
      },
      {
        "electoralDistricts": [
          {
            "election": null,
            "id": 59,
            "name": "Milton"
          }
        ],
        "pollDivisionIds": [
          10126372
        ],
        "postalCode": "L0P1J0",
        "streetName": "15 SIDE",
        "streetDirectionId": null,
        "streetTypeId": "RD",
        "placeName": "MILTON",
        "streetNameDisplayText": "15 SIDE RD, MILTON"
      },
      {
        "electoralDistricts": [
          {
            "election": null,
            "id": 59,
            "name": "Milton"
          }
        ],
        "pollDivisionIds": [
          10126372
        ],
        "postalCode": "L0P1J0",
        "streetName": "15 SIDE",
        "streetDirectionId": null,
        "streetTypeId": "RD",
        "placeName": "MOFFAT",
        "streetNameDisplayText": "15 SIDE RD, MOFFAT"
      },
      {
        "electoralDistricts": [
          {
            "election": null,
            "id": 59,
            "name": "Milton"
          }
        ],
        "pollDivisionIds": [
          10126372
        ],
        "postalCode": "L0P1J0",
        "streetName": "15 SIDE",
        "streetDirectionId": null,
        "streetTypeId": "SIDERD",
        "placeName": "MOFFAT",
        "streetNameDisplayText": "15 SIDE SIDERD, MOFFAT"
      },
      {
        "electoralDistricts": [
          {
            "election": null,
            "id": 59,
            "name": "Milton"
          }
        ],
        "pollDivisionIds": [
          10126372
        ],
        "postalCode": "L0P1J0",
        "streetName": "15",
        "streetDirectionId": null,
        "streetTypeId": "SIDERD",
        "placeName": "MOFFAT",
        "streetNameDisplayText": "15 SIDERD, MOFFAT"
      },
      {
        "electoralDistricts": [
          {
            "election": null,
            "id": 59,
            "name": "Milton"
          }
        ],
        "pollDivisionIds": [
          10126372
        ],
        "postalCode": "L0P1J0",
        "streetName": "15SIDE RD.",
        "streetDirectionId": null,
        "streetTypeId": "RD",
        "placeName": "MOFFAT",
        "streetNameDisplayText": "15SIDE RD. RD, MOFFAT"
      },
      {
        "electoralDistricts": [
          {
            "election": null,
            "id": 59,
            "name": "Milton"
          }
        ],
        "pollDivisionIds": [
          10126372
        ],
        "postalCode": "L0P1J0",
        "streetName": "17",
        "streetDirectionId": null,
        "streetTypeId": "SIDERD",
        "placeName": "MOFFAT",
        "streetNameDisplayText": "17 SIDERD, MOFFAT"
      },
      {
        "electoralDistricts": [
          {
            "election": null,
            "id": 59,
            "name": "Milton"
          }
        ],
        "pollDivisionIds": [
          10126372
        ],
        "postalCode": "L0P1J0",
        "streetName": "1ST",
        "streetDirectionId": null,
        "streetTypeId": "LINE",
        "placeName": "MOFFAT",
        "streetNameDisplayText": "1ST LINE, MOFFAT"
      },
      {
        "electoralDistricts": [
          {
            "election": null,
            "id": 59,
            "name": "Milton"
          }
        ],
        "pollDivisionIds": [
          10126371
        ],
        "postalCode": "L0P1J0",
        "streetName": "20",
        "streetDirectionId": null,
        "streetTypeId": "SIDERD",
        "placeName": "CAMPBELLVILLE",
        "streetNameDisplayText": "20 SIDERD, CAMPBELLVILLE"
      },
      {
        "electoralDistricts": [
          {
            "election": null,
            "id": 59,
            "name": "Milton"
          }
        ],
        "pollDivisionIds": [
          10126372,
          10126371
        ],
        "postalCode": "L0P1J0",
        "streetName": "20",
        "streetDirectionId": null,
        "streetTypeId": "SIDERD",
        "placeName": "MOFFAT",
        "streetNameDisplayText": "20 SIDERD, MOFFAT"
      },
      {
        "electoralDistricts": [
          {
            "election": null,
            "id": 59,
            "name": "Milton"
          }
        ],
        "pollDivisionIds": [
          10126372
        ],
        "postalCode": "L0P1J0",
        "streetName": "20",
        "streetDirectionId": null,
        "streetTypeId": null,
        "placeName": "CAMPBELLVILLE",
        "streetNameDisplayText": "20, CAMPBELLVILLE"
      },
      {
        "electoralDistricts": [
          {
            "election": null,
            "id": 59,
            "name": "Milton"
          }
        ],
        "pollDivisionIds": [
          10126371
        ],
        "postalCode": "L0P1J0",
        "streetName": "25",
        "streetDirectionId": null,
        "streetTypeId": "SIDERD",
        "placeName": "MOFFAT",
        "streetNameDisplayText": "25 SIDERD, MOFFAT"
      },
      {
        "electoralDistricts": [
          {
            "election": null,
            "id": 59,
            "name": "Milton"
          }
        ],
        "pollDivisionIds": [
          10126371
        ],
        "postalCode": "L0P1J0",
        "streetName": "25TH",
        "streetDirectionId": null,
        "streetTypeId": "SIDERD",
        "placeName": "MOFFAT",
        "streetNameDisplayText": "25TH SIDERD, MOFFAT"
      },
      {
        "electoralDistricts": [
          {
            "election": null,
            "id": 59,
            "name": "Milton"
          }
        ],
        "pollDivisionIds": [
          10126372
        ],
        "postalCode": "L0P1J0",
        "streetName": "CEDAR",
        "streetDirectionId": null,
        "streetTypeId": "TRAIL",
        "placeName": "MOFFAT",
        "streetNameDisplayText": "CEDAR TRAIL, MOFFAT"
      },
      {
        "electoralDistricts": [
          {
            "election": null,
            "id": 115,
            "name": "Wellington—Halton Hills"
          }
        ],
        "pollDivisionIds": [
          10142576
        ],
        "postalCode": "L0P1J0",
        "streetName": "CONCESSION 11",
        "streetDirectionId": null,
        "streetTypeId": "RD",
        "placeName": "MOFFAT",
        "streetNameDisplayText": "CONCESSION 11 RD, MOFFAT"
      },
      {
        "electoralDistricts": [
          {
            "election": null,
            "id": 115,
            "name": "Wellington—Halton Hills"
          }
        ],
        "pollDivisionIds": [
          10142576
        ],
        "postalCode": "L0P1J0",
        "streetName": "CONCESSION 11",
        "streetDirectionId": null,
        "streetTypeId": null,
        "placeName": "MOFFAT",
        "streetNameDisplayText": "CONCESSION 11, MOFFAT"
      },
      {
        "electoralDistricts": [
          {
            "election": null,
            "id": 115,
            "name": "Wellington—Halton Hills"
          }
        ],
        "pollDivisionIds": [
          10142576
        ],
        "postalCode": "L0P1J0",
        "streetName": "CONCESSION RD 11",
        "streetDirectionId": null,
        "streetTypeId": "CONC",
        "placeName": "MOFFAT",
        "streetNameDisplayText": "CONCESSION RD 11 CONC, MOFFAT"
      },
      {
        "electoralDistricts": [
          {
            "election": null,
            "id": 59,
            "name": "Milton"
          }
        ],
        "pollDivisionIds": [
          10126372
        ],
        "postalCode": "L0P1J0",
        "streetName": "COUNTRY LANE",
        "streetDirectionId": null,
        "streetTypeId": "CRT",
        "placeName": "MOFFAT",
        "streetNameDisplayText": "COUNTRY LANE CRT, MOFFAT"
      },
      {
        "electoralDistricts": [
          {
            "election": null,
            "id": 59,
            "name": "Milton"
          }
        ],
        "pollDivisionIds": [
          10126372
        ],
        "postalCode": "L0P1J0",
        "streetName": "CUNNINGHAM",
        "streetDirectionId": null,
        "streetTypeId": "CRT",
        "placeName": "MOFFAT",
        "streetNameDisplayText": "CUNNINGHAM CRT, MOFFAT"
      },
      {
        "electoralDistricts": [
          {
            "election": null,
            "id": 59,
            "name": "Milton"
          },
          {
            "election": null,
            "id": 115,
            "name": "Wellington—Halton Hills"
          }
        ],
        "pollDivisionIds": [
          10126372,
          10142576
        ],
        "postalCode": "L0P1J0",
        "streetName": "DARKWOOD",
        "streetDirectionId": null,
        "streetTypeId": "RD",
        "placeName": "MOFFAT",
        "streetNameDisplayText": "DARKWOOD RD, MOFFAT"
      },
      {
        "electoralDistricts": [
          {
            "election": null,
            "id": 59,
            "name": "Milton"
          }
        ],
        "pollDivisionIds": [
          10126372,
          10126371,
          10126373
        ],
        "postalCode": "L0P1J0",
        "streetName": "FIRST LINE NASSAGAWEYA",
        "streetDirectionId": null,
        "streetTypeId": null,
        "placeName": "MOFFAT",
        "streetNameDisplayText": "FIRST LINE NASSAGAWEYA, MOFFAT"
      },
      {
        "electoralDistricts": [
          {
            "election": null,
            "id": 59,
            "name": "Milton"
          }
        ],
        "pollDivisionIds": [
          10126373,
          10126372,
          10126371
        ],
        "postalCode": "L0P1J0",
        "streetName": "FIRST",
        "streetDirectionId": null,
        "streetTypeId": "LINE",
        "placeName": "MOFFAT",
        "streetNameDisplayText": "FIRST LINE, MOFFAT"
      },
      {
        "electoralDistricts": [
          {
            "election": null,
            "id": 59,
            "name": "Milton"
          }
        ],
        "pollDivisionIds": [
          10126372,
          10126371,
          10126373
        ],
        "postalCode": "L0P1J0",
        "streetName": "FIRST NASSAGAWEYA",
        "streetDirectionId": null,
        "streetTypeId": "LINE",
        "placeName": "MOFFAT",
        "streetNameDisplayText": "FIRST NASSAGAWEYA LINE, MOFFAT"
      },
      {
        "electoralDistricts": [
          {
            "election": null,
            "id": 59,
            "name": "Milton"
          }
        ],
        "pollDivisionIds": [
          10126372
        ],
        "postalCode": "L0P1J0",
        "streetName": "KEAN HILL",
        "streetDirectionId": null,
        "streetTypeId": "DR",
        "placeName": "MOFFAT",
        "streetNameDisplayText": "KEAN HILL DR, MOFFAT"
      },
      {
        "electoralDistricts": [
          {
            "election": null,
            "id": 115,
            "name": "Wellington—Halton Hills"
          }
        ],
        "pollDivisionIds": [
          10142576
        ],
        "postalCode": "L0P1J0",
        "streetName": "LESLIE",
        "streetDirectionId": "E",
        "streetTypeId": "RD",
        "placeName": "MOFFAT",
        "streetNameDisplayText": "LESLIE RD E, MOFFAT"
      },
      {
        "electoralDistricts": [
          {
            "election": null,
            "id": 59,
            "name": "Milton"
          }
        ],
        "pollDivisionIds": [
          10126372
        ],
        "postalCode": "L0P1J0",
        "streetName": "MIDWAY LANE",
        "streetDirectionId": null,
        "streetTypeId": "LANE",
        "placeName": "MOFFAT",
        "streetNameDisplayText": "MIDWAY LANE LANE, MOFFAT"
      },
      {
        "electoralDistricts": [
          {
            "election": null,
            "id": 59,
            "name": "Milton"
          }
        ],
        "pollDivisionIds": [
          10126371
        ],
        "postalCode": "L0P1J0",
        "streetName": "MIDWAY",
        "streetDirectionId": null,
        "streetTypeId": "LANE",
        "placeName": "MOFFAT",
        "streetNameDisplayText": "MIDWAY LANE, MOFFAT"
      },
      {
        "electoralDistricts": [
          {
            "election": null,
            "id": 115,
            "name": "Wellington—Halton Hills"
          }
        ],
        "pollDivisionIds": [
          10142558
        ],
        "postalCode": "L0P1J0",
        "streetName": "NASS PUSLINCH TLNE",
        "streetDirectionId": null,
        "streetTypeId": null,
        "placeName": "MOFFAT",
        "streetNameDisplayText": "NASS PUSLINCH TLNE, MOFFAT"
      },
      {
        "electoralDistricts": [
          {
            "election": null,
            "id": 115,
            "name": "Wellington—Halton Hills"
          }
        ],
        "pollDivisionIds": [
          10142576
        ],
        "postalCode": "L0P1J0",
        "streetName": "NASSAGAWEYA PUSLINCH TL",
        "streetDirectionId": null,
        "streetTypeId": "TLINE",
        "placeName": "MOFFAT",
        "streetNameDisplayText": "NASSAGAWEYA PUSLINCH TL TLINE, MOFFAT"
      },
      {
        "electoralDistricts": [
          {
            "election": null,
            "id": 115,
            "name": "Wellington—Halton Hills"
          }
        ],
        "pollDivisionIds": [
          10142576
        ],
        "postalCode": "L0P1J0",
        "streetName": "NASSAGAWEYA PUSLINCH",
        "streetDirectionId": null,
        "streetTypeId": "TLINE",
        "placeName": "MOFFAT",
        "streetNameDisplayText": "NASSAGAWEYA PUSLINCH TLINE, MOFFAT"
      },
      {
        "electoralDistricts": [
          {
            "election": null,
            "id": 115,
            "name": "Wellington—Halton Hills"
          }
        ],
        "pollDivisionIds": [
          10142559,
          10142576
        ],
        "postalCode": "L0P1J0",
        "streetName": "NASSAGAWEYA",
        "streetDirectionId": null,
        "streetTypeId": null,
        "placeName": "PUSLINCH",
        "streetNameDisplayText": "NASSAGAWEYA, PUSLINCH"
      },
      {
        "electoralDistricts": [
          {
            "election": null,
            "id": 115,
            "name": "Wellington—Halton Hills"
          }
        ],
        "pollDivisionIds": [
          10142576
        ],
        "postalCode": "L0P1J0",
        "streetName": "NASSAGAWEYA-PUSLINCH TL",
        "streetDirectionId": null,
        "streetTypeId": null,
        "placeName": "MOFFAT",
        "streetNameDisplayText": "NASSAGAWEYA-PUSLINCH TL, MOFFAT"
      },
      {
        "electoralDistricts": [
          {
            "election": null,
            "id": 59,
            "name": "Milton"
          },
          {
            "election": null,
            "id": 115,
            "name": "Wellington—Halton Hills"
          }
        ],
        "pollDivisionIds": [
          10126371,
          10142576,
          10126372
        ],
        "postalCode": "L0P1J0",
        "streetName": "NASSAGAWEYA-PUSLINCH",
        "streetDirectionId": null,
        "streetTypeId": "TLINE",
        "placeName": "MOFFAT",
        "streetNameDisplayText": "NASSAGAWEYA-PUSLINCH TLINE, MOFFAT"
      },
      {
        "electoralDistricts": [
          {
            "election": null,
            "id": 115,
            "name": "Wellington—Halton Hills"
          }
        ],
        "pollDivisionIds": [
          10142576
        ],
        "postalCode": "L0P1J0",
        "streetName": "SMALL",
        "streetDirectionId": null,
        "streetTypeId": "RD",
        "placeName": "MOFFAT",
        "streetNameDisplayText": "SMALL RD, MOFFAT"
      },
      {
        "electoralDistricts": [
          {
            "election": null,
            "id": 59,
            "name": "Milton"
          }
        ],
        "pollDivisionIds": [
          10126371
        ],
        "postalCode": "L0P1J0",
        "streetName": "TOWN",
        "streetDirectionId": null,
        "streetTypeId": "LINE",
        "placeName": "MOFFAT",
        "streetNameDisplayText": "TOWN LINE, MOFFAT"
      },
      {
        "electoralDistricts": [
          {
            "election": null,
            "id": 115,
            "name": "Wellington—Halton Hills"
          }
        ],
        "pollDivisionIds": [
          10142576
        ],
        "postalCode": "L0P1J0",
        "streetName": "TOWNLINE",
        "streetDirectionId": null,
        "streetTypeId": "RD",
        "placeName": "MOFFAT",
        "streetNameDisplayText": "TOWNLINE RD, MOFFAT"
      },
      {
        "electoralDistricts": [
          {
            "election": null,
            "id": 115,
            "name": "Wellington—Halton Hills"
          }
        ],
        "pollDivisionIds": [
          10142576
        ],
        "postalCode": "L0P1J0",
        "streetName": "TOWNLINE",
        "streetDirectionId": null,
        "streetTypeId": "TLINE",
        "placeName": "MOFFAT",
        "streetNameDisplayText": "TOWNLINE TLINE, MOFFAT"
      },
      {
        "electoralDistricts": [
          {
            "election": null,
            "id": 115,
            "name": "Wellington—Halton Hills"
          }
        ],
        "pollDivisionIds": [
          10142576
        ],
        "postalCode": "L0P1J0",
        "streetName": "WELLINGTON 36",
        "streetDirectionId": null,
        "streetTypeId": "RD",
        "placeName": "MOFFAT",
        "streetNameDisplayText": "WELLINGTON 36 RD, MOFFAT"
      },
      {
        "electoralDistricts": [
          {
            "election": null,
            "id": 115,
            "name": "Wellington—Halton Hills"
          }
        ],
        "pollDivisionIds": [
          10142576
        ],
        "postalCode": "L0P1J0",
        "streetName": "WELLINGTON RD 36",
        "streetDirectionId": null,
        "streetTypeId": null,
        "placeName": "MOFFAT",
        "streetNameDisplayText": "WELLINGTON RD 36, MOFFAT"
      },
      {
        "electoralDistricts": [
          {
            "election": null,
            "id": 115,
            "name": "Wellington—Halton Hills"
          }
        ],
        "pollDivisionIds": [
          10142576
        ],
        "postalCode": "L0P1J0",
        "streetName": "WELLINGTON ROAD 36",
        "streetDirectionId": null,
        "streetTypeId": null,
        "placeName": "MOFFAT",
        "streetNameDisplayText": "WELLINGTON ROAD 36, MOFFAT"
      }
    ]
  },
  {
    "postal": "L0P1K0",
    "result": [
      {
        "electoralDistricts": [
          {
            "election": null,
            "id": 115,
            "name": "Wellington—Halton Hills"
          }
        ],
        "pollDivisionIds": [
          10142590
        ],
        "postalCode": "L0P1K0",
        "streetName": "10 SIDE",
        "streetDirectionId": null,
        "streetTypeId": "RD",
        "placeName": "NORVAL",
        "streetNameDisplayText": "10 SIDE RD, NORVAL"
      },
      {
        "electoralDistricts": [
          {
            "election": null,
            "id": 115,
            "name": "Wellington—Halton Hills"
          }
        ],
        "pollDivisionIds": [
          10142589
        ],
        "postalCode": "L0P1K0",
        "streetName": "10",
        "streetDirectionId": null,
        "streetTypeId": "SIDERD",
        "placeName": "GEORGETOWN",
        "streetNameDisplayText": "10 SIDERD, GEORGETOWN"
      },
      {
        "electoralDistricts": [
          {
            "election": null,
            "id": 115,
            "name": "Wellington—Halton Hills"
          }
        ],
        "pollDivisionIds": [
          10142590,
          10142587
        ],
        "postalCode": "L0P1K0",
        "streetName": "10",
        "streetDirectionId": null,
        "streetTypeId": "SIDERD",
        "placeName": "NORVAL",
        "streetNameDisplayText": "10 SIDERD, NORVAL"
      },
      {
        "electoralDistricts": [
          {
            "election": null,
            "id": 115,
            "name": "Wellington—Halton Hills"
          }
        ],
        "pollDivisionIds": [
          10142590
        ],
        "postalCode": "L0P1K0",
        "streetName": "10TH",
        "streetDirectionId": null,
        "streetTypeId": "LINE",
        "placeName": "HALTON HILLS",
        "streetNameDisplayText": "10TH LINE, HALTON HILLS"
      },
      {
        "electoralDistricts": [
          {
            "election": null,
            "id": 115,
            "name": "Wellington—Halton Hills"
          }
        ],
        "pollDivisionIds": [
          10142590
        ],
        "postalCode": "L0P1K0",
        "streetName": "10TH",
        "streetDirectionId": null,
        "streetTypeId": "SIDERD",
        "placeName": "NORVAL",
        "streetNameDisplayText": "10TH SIDERD, NORVAL"
      },
      {
        "electoralDistricts": [
          {
            "election": null,
            "id": 115,
            "name": "Wellington—Halton Hills"
          }
        ],
        "pollDivisionIds": [
          10142590
        ],
        "postalCode": "L0P1K0",
        "streetName": "5 SIDE",
        "streetDirectionId": null,
        "streetTypeId": "RD",
        "placeName": "NORVAL",
        "streetNameDisplayText": "5 SIDE RD, NORVAL"
      },
      {
        "electoralDistricts": [
          {
            "election": null,
            "id": 115,
            "name": "Wellington—Halton Hills"
          }
        ],
        "pollDivisionIds": [
          10142590
        ],
        "postalCode": "L0P1K0",
        "streetName": "5",
        "streetDirectionId": null,
        "streetTypeId": "SIDERD",
        "placeName": "NORVAL",
        "streetNameDisplayText": "5 SIDERD, NORVAL"
      },
      {
        "electoralDistricts": [
          {
            "election": null,
            "id": 12,
            "name": "Brampton West"
          }
        ],
        "pollDivisionIds": [
          10137164
        ],
        "postalCode": "L0P1K0",
        "streetName": "7",
        "streetDirectionId": null,
        "streetTypeId": "HWY",
        "placeName": "BRAMPTON",
        "streetNameDisplayText": "7 HWY, BRAMPTON"
      },
      {
        "electoralDistricts": [
          {
            "election": null,
            "id": 115,
            "name": "Wellington—Halton Hills"
          }
        ],
        "pollDivisionIds": [
          10142587
        ],
        "postalCode": "L0P1K0",
        "streetName": "ADAMSON",
        "streetDirectionId": "N",
        "streetTypeId": "ST",
        "placeName": "NORVAL",
        "streetNameDisplayText": "ADAMSON ST N, NORVAL"
      },
      {
        "electoralDistricts": [
          {
            "election": null,
            "id": 115,
            "name": "Wellington—Halton Hills"
          }
        ],
        "pollDivisionIds": [
          10142587
        ],
        "postalCode": "L0P1K0",
        "streetName": "ADAMSON",
        "streetDirectionId": "S",
        "streetTypeId": "ST",
        "placeName": "NORVAL",
        "streetNameDisplayText": "ADAMSON ST S, NORVAL"
      },
      {
        "electoralDistricts": [
          {
            "election": null,
            "id": 115,
            "name": "Wellington—Halton Hills"
          }
        ],
        "pollDivisionIds": [
          10142587
        ],
        "postalCode": "L0P1K0",
        "streetName": "ADAMSON",
        "streetDirectionId": null,
        "streetTypeId": "ST",
        "placeName": "GEORGETOWN",
        "streetNameDisplayText": "ADAMSON ST, GEORGETOWN"
      },
      {
        "electoralDistricts": [
          {
            "election": null,
            "id": 115,
            "name": "Wellington—Halton Hills"
          }
        ],
        "pollDivisionIds": [
          10142587,
          10142582
        ],
        "postalCode": "L0P1K0",
        "streetName": "ADAMSON",
        "streetDirectionId": null,
        "streetTypeId": "ST",
        "placeName": "NORVAL",
        "streetNameDisplayText": "ADAMSON ST, NORVAL"
      },
      {
        "electoralDistricts": [
          {
            "election": null,
            "id": 12,
            "name": "Brampton West"
          }
        ],
        "pollDivisionIds": [
          10137164
        ],
        "postalCode": "L0P1K0",
        "streetName": "BOVAIRD",
        "streetDirectionId": "W",
        "streetTypeId": "DR",
        "placeName": "BRAMPTON",
        "streetNameDisplayText": "BOVAIRD DR W, BRAMPTON"
      },
      {
        "electoralDistricts": [
          {
            "election": null,
            "id": 115,
            "name": "Wellington—Halton Hills"
          }
        ],
        "pollDivisionIds": [
          10142561
        ],
        "postalCode": "L0P1K0",
        "streetName": "CASELEY",
        "streetDirectionId": null,
        "streetTypeId": "DR",
        "placeName": "HALTON HILLS",
        "streetNameDisplayText": "CASELEY DR, HALTON HILLS"
      },
      {
        "electoralDistricts": [
          {
            "election": null,
            "id": 115,
            "name": "Wellington—Halton Hills"
          }
        ],
        "pollDivisionIds": [
          10142587
        ],
        "postalCode": "L0P1K0",
        "streetName": "CASELEY",
        "streetDirectionId": null,
        "streetTypeId": "DR",
        "placeName": "NORVAL",
        "streetNameDisplayText": "CASELEY DR, NORVAL"
      },
      {
        "electoralDistricts": [
          {
            "election": null,
            "id": 115,
            "name": "Wellington—Halton Hills"
          }
        ],
        "pollDivisionIds": [
          10142561
        ],
        "postalCode": "L0P1K0",
        "streetName": "CASELEY",
        "streetDirectionId": null,
        "streetTypeId": null,
        "placeName": "NORVAL",
        "streetNameDisplayText": "CASELEY, NORVAL"
      },
      {
        "electoralDistricts": [
          {
            "election": null,
            "id": 115,
            "name": "Wellington—Halton Hills"
          }
        ],
        "pollDivisionIds": [
          10142587
        ],
        "postalCode": "L0P1K0",
        "streetName": "DRAPER",
        "streetDirectionId": null,
        "streetTypeId": "ST",
        "placeName": "NORVAL",
        "streetNameDisplayText": "DRAPER ST, NORVAL"
      },
      {
        "electoralDistricts": [
          {
            "election": null,
            "id": 115,
            "name": "Wellington—Halton Hills"
          }
        ],
        "pollDivisionIds": [
          10142587
        ],
        "postalCode": "L0P1K0",
        "streetName": "GREEN",
        "streetDirectionId": null,
        "streetTypeId": "ST",
        "placeName": "NORVAL",
        "streetNameDisplayText": "GREEN ST, NORVAL"
      },
      {
        "electoralDistricts": [
          {
            "election": null,
            "id": 115,
            "name": "Wellington—Halton Hills"
          }
        ],
        "pollDivisionIds": [
          10142587
        ],
        "postalCode": "L0P1K0",
        "streetName": "GUELPH",
        "streetDirectionId": null,
        "streetTypeId": "ST",
        "placeName": "GEORGETOWN",
        "streetNameDisplayText": "GUELPH ST, GEORGETOWN"
      },
      {
        "electoralDistricts": [
          {
            "election": null,
            "id": 115,
            "name": "Wellington—Halton Hills"
          }
        ],
        "pollDivisionIds": [
          10142587
        ],
        "postalCode": "L0P1K0",
        "streetName": "GUELPH",
        "streetDirectionId": null,
        "streetTypeId": "ST",
        "placeName": "NORVAL",
        "streetNameDisplayText": "GUELPH ST, NORVAL"
      },
      {
        "electoralDistricts": [
          {
            "election": null,
            "id": 12,
            "name": "Brampton West"
          }
        ],
        "pollDivisionIds": [
          10137164
        ],
        "postalCode": "L0P1K0",
        "streetName": "HERITAGE",
        "streetDirectionId": null,
        "streetTypeId": "RD",
        "placeName": "BRAMPTON",
        "streetNameDisplayText": "HERITAGE RD, BRAMPTON"
      },
      {
        "electoralDistricts": [
          {
            "election": null,
            "id": 115,
            "name": "Wellington—Halton Hills"
          }
        ],
        "pollDivisionIds": [
          10142587
        ],
        "postalCode": "L0P1K0",
        "streetName": "KING",
        "streetDirectionId": null,
        "streetTypeId": "ST",
        "placeName": "NORVAL",
        "streetNameDisplayText": "KING ST, NORVAL"
      },
      {
        "electoralDistricts": [
          {
            "election": null,
            "id": 115,
            "name": "Wellington—Halton Hills"
          }
        ],
        "pollDivisionIds": [
          10142587
        ],
        "postalCode": "L0P1K0",
        "streetName": "LOUISA",
        "streetDirectionId": null,
        "streetTypeId": "ST",
        "placeName": "NORVAL",
        "streetNameDisplayText": "LOUISA ST, NORVAL"
      },
      {
        "electoralDistricts": [
          {
            "election": null,
            "id": 115,
            "name": "Wellington—Halton Hills"
          }
        ],
        "pollDivisionIds": [
          10142587
        ],
        "postalCode": "L0P1K0",
        "streetName": "MARY",
        "streetDirectionId": null,
        "streetTypeId": "ST",
        "placeName": "NORVAL",
        "streetNameDisplayText": "MARY ST, NORVAL"
      },
      {
        "electoralDistricts": [
          {
            "election": null,
            "id": 115,
            "name": "Wellington—Halton Hills"
          }
        ],
        "pollDivisionIds": [
          10142590
        ],
        "postalCode": "L0P1K0",
        "streetName": "NINTH",
        "streetDirectionId": null,
        "streetTypeId": "LINE",
        "placeName": "HORNBY",
        "streetNameDisplayText": "NINTH LINE, HORNBY"
      },
      {
        "electoralDistricts": [
          {
            "election": null,
            "id": 115,
            "name": "Wellington—Halton Hills"
          }
        ],
        "pollDivisionIds": [
          10142590
        ],
        "postalCode": "L0P1K0",
        "streetName": "NINTH",
        "streetDirectionId": null,
        "streetTypeId": "LINE",
        "placeName": "NORVAL",
        "streetNameDisplayText": "NINTH LINE, NORVAL"
      },
      {
        "electoralDistricts": [
          {
            "election": null,
            "id": 115,
            "name": "Wellington—Halton Hills"
          }
        ],
        "pollDivisionIds": [
          10142587
        ],
        "postalCode": "L0P1K0",
        "streetName": "NOBLE",
        "streetDirectionId": null,
        "streetTypeId": "ST",
        "placeName": "NORVAL",
        "streetNameDisplayText": "NOBLE ST, NORVAL"
      },
      {
        "electoralDistricts": [
          {
            "election": null,
            "id": 12,
            "name": "Brampton West"
          }
        ],
        "pollDivisionIds": [
          10137164
        ],
        "postalCode": "L0P1K0",
        "streetName": "OLD PINE CREST",
        "streetDirectionId": null,
        "streetTypeId": "RD",
        "placeName": "BRAMPTON",
        "streetNameDisplayText": "OLD PINE CREST RD, BRAMPTON"
      },
      {
        "electoralDistricts": [
          {
            "election": null,
            "id": 115,
            "name": "Wellington—Halton Hills"
          }
        ],
        "pollDivisionIds": [
          10142587
        ],
        "postalCode": "L0P1K0",
        "streetName": "OLD PINE CREST",
        "streetDirectionId": null,
        "streetTypeId": "RD",
        "placeName": "NORVAL",
        "streetNameDisplayText": "OLD PINE CREST RD, NORVAL"
      },
      {
        "electoralDistricts": [
          {
            "election": null,
            "id": 115,
            "name": "Wellington—Halton Hills"
          }
        ],
        "pollDivisionIds": [
          10142587
        ],
        "postalCode": "L0P1K0",
        "streetName": "PINE",
        "streetDirectionId": null,
        "streetTypeId": "CRT",
        "placeName": "NORVAL",
        "streetNameDisplayText": "PINE CRT, NORVAL"
      },
      {
        "electoralDistricts": [
          {
            "election": null,
            "id": 12,
            "name": "Brampton West"
          }
        ],
        "pollDivisionIds": [
          10137175,
          10137164
        ],
        "postalCode": "L0P1K0",
        "streetName": "QUEEN",
        "streetDirectionId": "W",
        "streetTypeId": "ST",
        "placeName": "BRAMPTON",
        "streetNameDisplayText": "QUEEN ST W, BRAMPTON"
      },
      {
        "electoralDistricts": [
          {
            "election": null,
            "id": 115,
            "name": "Wellington—Halton Hills"
          }
        ],
        "pollDivisionIds": [
          10142590
        ],
        "postalCode": "L0P1K0",
        "streetName": "STEELES",
        "streetDirectionId": null,
        "streetTypeId": "AVE",
        "placeName": "NORVAL",
        "streetNameDisplayText": "STEELES AVE, NORVAL"
      },
      {
        "electoralDistricts": [
          {
            "election": null,
            "id": 115,
            "name": "Wellington—Halton Hills"
          }
        ],
        "pollDivisionIds": [
          10142590
        ],
        "postalCode": "L0P1K0",
        "streetName": "TENTH",
        "streetDirectionId": null,
        "streetTypeId": "LINE",
        "placeName": "HORNBY",
        "streetNameDisplayText": "TENTH LINE, HORNBY"
      },
      {
        "electoralDistricts": [
          {
            "election": null,
            "id": 115,
            "name": "Wellington—Halton Hills"
          }
        ],
        "pollDivisionIds": [
          10142590,
          10142589
        ],
        "postalCode": "L0P1K0",
        "streetName": "TENTH",
        "streetDirectionId": null,
        "streetTypeId": "LINE",
        "placeName": "NORVAL",
        "streetNameDisplayText": "TENTH LINE, NORVAL"
      },
      {
        "electoralDistricts": [
          {
            "election": null,
            "id": 115,
            "name": "Wellington—Halton Hills"
          }
        ],
        "pollDivisionIds": [
          10142590,
          10142587
        ],
        "postalCode": "L0P1K0",
        "streetName": "WINSTON CHURCHILL",
        "streetDirectionId": null,
        "streetTypeId": "BLVD",
        "placeName": "NORVAL",
        "streetNameDisplayText": "WINSTON CHURCHILL BLVD, NORVAL"
      },
      {
        "electoralDistricts": [
          {
            "election": null,
            "id": 115,
            "name": "Wellington—Halton Hills"
          }
        ],
        "pollDivisionIds": [
          10142587
        ],
        "postalCode": "L0P1K0",
        "streetName": "YORK",
        "streetDirectionId": null,
        "streetTypeId": "LANE",
        "placeName": "NORVAL",
        "streetNameDisplayText": "YORK LANE, NORVAL"
      }
    ]
  },
  {
    "postal": "L0P1M0",
    "result": []
  },
  {
    "postal": "L0P1N0",
    "result": [
      {
        "electoralDistricts": [
          {
            "election": null,
            "id": 115,
            "name": "Wellington—Halton Hills"
          }
        ],
        "pollDivisionIds": [
          10142573
        ],
        "postalCode": "L0P1N0",
        "streetName": "27 SIDE",
        "streetDirectionId": null,
        "streetTypeId": "SIDERD",
        "placeName": "TERRA COTTA",
        "streetNameDisplayText": "27 SIDE SIDERD, TERRA COTTA"
      },
      {
        "electoralDistricts": [
          {
            "election": null,
            "id": 115,
            "name": "Wellington—Halton Hills"
          }
        ],
        "pollDivisionIds": [
          10142573
        ],
        "postalCode": "L0P1N0",
        "streetName": "27",
        "streetDirectionId": null,
        "streetTypeId": "SIDERD",
        "placeName": "GEORGETOWN",
        "streetNameDisplayText": "27 SIDERD, GEORGETOWN"
      },
      {
        "electoralDistricts": [
          {
            "election": null,
            "id": 115,
            "name": "Wellington—Halton Hills"
          }
        ],
        "pollDivisionIds": [
          10142573
        ],
        "postalCode": "L0P1N0",
        "streetName": "27",
        "streetDirectionId": null,
        "streetTypeId": "SIDERD",
        "placeName": "TERRA COTTA",
        "streetNameDisplayText": "27 SIDERD, TERRA COTTA"
      },
      {
        "electoralDistricts": [
          {
            "election": null,
            "id": 115,
            "name": "Wellington—Halton Hills"
          }
        ],
        "pollDivisionIds": [
          10142573
        ],
        "postalCode": "L0P1N0",
        "streetName": "32",
        "streetDirectionId": null,
        "streetTypeId": "SIDERD",
        "placeName": "TERRA COTTA",
        "streetNameDisplayText": "32 SIDERD, TERRA COTTA"
      },
      {
        "electoralDistricts": [
          {
            "election": null,
            "id": 23,
            "name": "Dufferin—Caledon"
          }
        ],
        "pollDivisionIds": [
          10137806
        ],
        "postalCode": "L0P1N0",
        "streetName": "HERITAGE",
        "streetDirectionId": null,
        "streetTypeId": "RD",
        "placeName": "TERRA COTTA",
        "streetNameDisplayText": "HERITAGE RD, TERRA COTTA"
      },
      {
        "electoralDistricts": [
          {
            "election": null,
            "id": 23,
            "name": "Dufferin—Caledon"
          }
        ],
        "pollDivisionIds": [
          10137806
        ],
        "postalCode": "L0P1N0",
        "streetName": "ODESSA",
        "streetDirectionId": null,
        "streetTypeId": "BLVD",
        "placeName": "TERRA COTTA",
        "streetNameDisplayText": "ODESSA BLVD, TERRA COTTA"
      },
      {
        "electoralDistricts": [
          {
            "election": null,
            "id": 23,
            "name": "Dufferin—Caledon"
          }
        ],
        "pollDivisionIds": [
          10137806
        ],
        "postalCode": "L0P1N0",
        "streetName": "OLD SCHOOL",
        "streetDirectionId": null,
        "streetTypeId": "RD",
        "placeName": "TERRA COTTA",
        "streetNameDisplayText": "OLD SCHOOL RD, TERRA COTTA"
      },
      {
        "electoralDistricts": [
          {
            "election": null,
            "id": 115,
            "name": "Wellington—Halton Hills"
          }
        ],
        "pollDivisionIds": [
          10142573
        ],
        "postalCode": "L0P1N0",
        "streetName": "WELLINGTON 42",
        "streetDirectionId": null,
        "streetTypeId": "RD",
        "placeName": "TERRA COTTA",
        "streetNameDisplayText": "WELLINGTON 42 RD, TERRA COTTA"
      },
      {
        "electoralDistricts": [
          {
            "election": null,
            "id": 115,
            "name": "Wellington—Halton Hills"
          }
        ],
        "pollDivisionIds": [
          10142573
        ],
        "postalCode": "L0P1N0",
        "streetName": "WELLINGTON RD 42",
        "streetDirectionId": null,
        "streetTypeId": null,
        "placeName": "TERRA COTTA",
        "streetNameDisplayText": "WELLINGTON RD 42, TERRA COTTA"
      },
      {
        "electoralDistricts": [
          {
            "election": null,
            "id": 115,
            "name": "Wellington—Halton Hills"
          }
        ],
        "pollDivisionIds": [
          10142573
        ],
        "postalCode": "L0P1N0",
        "streetName": "WINSTON CHURCHILL",
        "streetDirectionId": null,
        "streetTypeId": "BLVD",
        "placeName": "GEORGETOWN",
        "streetNameDisplayText": "WINSTON CHURCHILL BLVD, GEORGETOWN"
      },
      {
        "electoralDistricts": [
          {
            "election": null,
            "id": 115,
            "name": "Wellington—Halton Hills"
          },
          {
            "election": null,
            "id": 23,
            "name": "Dufferin—Caledon"
          }
        ],
        "pollDivisionIds": [
          10142573,
          10137803,
          10142572
        ],
        "postalCode": "L0P1N0",
        "streetName": "WINSTON CHURCHILL",
        "streetDirectionId": null,
        "streetTypeId": "BLVD",
        "placeName": "TERRA COTTA",
        "streetNameDisplayText": "WINSTON CHURCHILL BLVD, TERRA COTTA"
      }
    ]
  },
  {
    "postal": "L0P1R0",
    "result": []
  }
]
