[
  {
    "postal": "L0B1A0",
    "result": [
      {
        "electoralDistricts": [
          {
            "election": null,
            "id": 87,
            "name": "Pickering—Uxbridge"
          }
        ],
        "pollDivisionIds": [
          10143373
        ],
        "postalCode": "L0B1A0",
        "streetName": "9TH CON RR1",
        "streetDirectionId": null,
        "streetTypeId": null,
        "placeName": "ASHBURN",
        "streetNameDisplayText": "9TH CON RR1, ASHBURN"
      },
      {
        "electoralDistricts": [
          {
            "election": null,
            "id": 87,
            "name": "Pickering—Uxbridge"
          }
        ],
        "pollDivisionIds": [
          10143373
        ],
        "postalCode": "L0B1A0",
        "streetName": "9TH CONCESSION",
        "streetDirectionId": null,
        "streetTypeId": "RD",
        "placeName": "ASHBURN",
        "streetNameDisplayText": "9TH CONCESSION RD, ASHBURN"
      },
      {
        "electoralDistricts": [
          {
            "election": null,
            "id": 116,
            "name": "Whitby"
          },
          {
            "election": null,
            "id": 24,
            "name": "Durham"
          }
        ],
        "pollDivisionIds": [
          10136126,
          10136127,
          10137830
        ],
        "postalCode": "L0B1A0",
        "streetName": "ASHBURN",
        "streetDirectionId": null,
        "streetTypeId": "RD",
        "placeName": "ASHBURN",
        "streetNameDisplayText": "ASHBURN RD, ASHBURN"
      },
      {
        "electoralDistricts": [
          {
            "election": null,
            "id": 116,
            "name": "Whitby"
          }
        ],
        "pollDivisionIds": [
          10136127
        ],
        "postalCode": "L0B1A0",
        "streetName": "BALDWIN",
        "streetDirectionId": "N",
        "streetTypeId": "ST",
        "placeName": "ASHBURN",
        "streetNameDisplayText": "BALDWIN ST N, ASHBURN"
      },
      {
        "electoralDistricts": [
          {
            "election": null,
            "id": 116,
            "name": "Whitby"
          }
        ],
        "pollDivisionIds": [
          10136127,
          10136126
        ],
        "postalCode": "L0B1A0",
        "streetName": "BRAWLEY",
        "streetDirectionId": "W",
        "streetTypeId": "RD",
        "placeName": "ASHBURN",
        "streetNameDisplayText": "BRAWLEY RD W, ASHBURN"
      },
      {
        "electoralDistricts": [
          {
            "election": null,
            "id": 24,
            "name": "Durham"
          }
        ],
        "pollDivisionIds": [
          10137830
        ],
        "postalCode": "L0B1A0",
        "streetName": "BRYANT",
        "streetDirectionId": null,
        "streetTypeId": "SIDERD",
        "placeName": "ASHBURN",
        "streetNameDisplayText": "BRYANT SIDERD, ASHBURN"
      },
      {
        "electoralDistricts": [
          {
            "election": null,
            "id": 116,
            "name": "Whitby"
          }
        ],
        "pollDivisionIds": [
          10136127
        ],
        "postalCode": "L0B1A0",
        "streetName": "CALISTOGA",
        "streetDirectionId": null,
        "streetTypeId": "DR",
        "placeName": "ASHBURN",
        "streetNameDisplayText": "CALISTOGA DR, ASHBURN"
      },
      {
        "electoralDistricts": [
          {
            "election": null,
            "id": 87,
            "name": "Pickering—Uxbridge"
          }
        ],
        "pollDivisionIds": [
          10143373
        ],
        "postalCode": "L0B1A0",
        "streetName": "CONCESSION 8",
        "streetDirectionId": null,
        "streetTypeId": "RD",
        "placeName": "ASHBURN",
        "streetNameDisplayText": "CONCESSION 8 RD, ASHBURN"
      },
      {
        "electoralDistricts": [
          {
            "election": null,
            "id": 87,
            "name": "Pickering—Uxbridge"
          }
        ],
        "pollDivisionIds": [
          10143373
        ],
        "postalCode": "L0B1A0",
        "streetName": "CONCESSION 9",
        "streetDirectionId": null,
        "streetTypeId": "CONC",
        "placeName": "ASHBURN",
        "streetNameDisplayText": "CONCESSION 9 CONC, ASHBURN"
      },
      {
        "electoralDistricts": [
          {
            "election": null,
            "id": 87,
            "name": "Pickering—Uxbridge"
          }
        ],
        "pollDivisionIds": [
          10143373
        ],
        "postalCode": "L0B1A0",
        "streetName": "CONCESSION RD 8",
        "streetDirectionId": null,
        "streetTypeId": "CONC",
        "placeName": "ASHBURN",
        "streetNameDisplayText": "CONCESSION RD 8 CONC, ASHBURN"
      },
      {
        "electoralDistricts": [
          {
            "election": null,
            "id": 87,
            "name": "Pickering—Uxbridge"
          }
        ],
        "pollDivisionIds": [
          10143373,
          10143374
        ],
        "postalCode": "L0B1A0",
        "streetName": "CONCESSION ROAD 8",
        "streetDirectionId": null,
        "streetTypeId": "CONC",
        "placeName": "ASHBURN",
        "streetNameDisplayText": "CONCESSION ROAD 8 CONC, ASHBURN"
      },
      {
        "electoralDistricts": [
          {
            "election": null,
            "id": 87,
            "name": "Pickering—Uxbridge"
          }
        ],
        "pollDivisionIds": [
          10143373
        ],
        "postalCode": "L0B1A0",
        "streetName": "CONCESSION ROAD 9",
        "streetDirectionId": null,
        "streetTypeId": "CONC",
        "placeName": "ASHBURN",
        "streetNameDisplayText": "CONCESSION ROAD 9 CONC, ASHBURN"
      },
      {
        "electoralDistricts": [
          {
            "election": null,
            "id": 87,
            "name": "Pickering—Uxbridge"
          }
        ],
        "pollDivisionIds": [
          10143373
        ],
        "postalCode": "L0B1A0",
        "streetName": "CONCESSION ROAD 9",
        "streetDirectionId": null,
        "streetTypeId": "CONC",
        "placeName": "CLAREMONT",
        "streetNameDisplayText": "CONCESSION ROAD 9 CONC, CLAREMONT"
      },
      {
        "electoralDistricts": [
          {
            "election": null,
            "id": 116,
            "name": "Whitby"
          }
        ],
        "pollDivisionIds": [
          10136126
        ],
        "postalCode": "L0B1A0",
        "streetName": "CORONATION",
        "streetDirectionId": null,
        "streetTypeId": "RD",
        "placeName": "ASHBURN",
        "streetNameDisplayText": "CORONATION RD, ASHBURN"
      },
      {
        "electoralDistricts": [
          {
            "election": null,
            "id": 116,
            "name": "Whitby"
          }
        ],
        "pollDivisionIds": [
          10136126
        ],
        "postalCode": "L0B1A0",
        "streetName": "DAGMAR",
        "streetDirectionId": null,
        "streetTypeId": "RD",
        "placeName": "ASHBURN",
        "streetNameDisplayText": "DAGMAR RD, ASHBURN"
      },
      {
        "electoralDistricts": [
          {
            "election": null,
            "id": 116,
            "name": "Whitby"
          }
        ],
        "pollDivisionIds": [
          10136126,
          10136127
        ],
        "postalCode": "L0B1A0",
        "streetName": "DUFFS",
        "streetDirectionId": null,
        "streetTypeId": "RD",
        "placeName": "ASHBURN",
        "streetNameDisplayText": "DUFFS RD, ASHBURN"
      },
      {
        "electoralDistricts": [
          {
            "election": null,
            "id": 87,
            "name": "Pickering—Uxbridge"
          }
        ],
        "pollDivisionIds": [
          10143373,
          10143372
        ],
        "postalCode": "L0B1A0",
        "streetName": "DURHAM 5",
        "streetDirectionId": null,
        "streetTypeId": "RD",
        "placeName": "ASHBURN",
        "streetNameDisplayText": "DURHAM 5 RD, ASHBURN"
      },
      {
        "electoralDistricts": [
          {
            "election": null,
            "id": 87,
            "name": "Pickering—Uxbridge"
          }
        ],
        "pollDivisionIds": [
          10143373
        ],
        "postalCode": "L0B1A0",
        "streetName": "DURHAM RD 5",
        "streetDirectionId": null,
        "streetTypeId": null,
        "placeName": "ASHBURN",
        "streetNameDisplayText": "DURHAM RD 5, ASHBURN"
      },
      {
        "electoralDistricts": [
          {
            "election": null,
            "id": 116,
            "name": "Whitby"
          }
        ],
        "pollDivisionIds": [
          10136127
        ],
        "postalCode": "L0B1A0",
        "streetName": "FRONT",
        "streetDirectionId": null,
        "streetTypeId": "ST",
        "placeName": "ASHBURN",
        "streetNameDisplayText": "FRONT ST, ASHBURN"
      },
      {
        "electoralDistricts": [
          {
            "election": null,
            "id": 116,
            "name": "Whitby"
          }
        ],
        "pollDivisionIds": [
          10136127
        ],
        "postalCode": "L0B1A0",
        "streetName": "GARRARD",
        "streetDirectionId": null,
        "streetTypeId": "RD",
        "placeName": "ASHBURN",
        "streetNameDisplayText": "GARRARD RD, ASHBURN"
      },
      {
        "electoralDistricts": [
          {
            "election": null,
            "id": 116,
            "name": "Whitby"
          }
        ],
        "pollDivisionIds": [
          10136126
        ],
        "postalCode": "L0B1A0",
        "streetName": "GLENLAURA",
        "streetDirectionId": null,
        "streetTypeId": "CRES",
        "placeName": "ASHBURN",
        "streetNameDisplayText": "GLENLAURA CRES, ASHBURN"
      },
      {
        "electoralDistricts": [
          {
            "election": null,
            "id": 116,
            "name": "Whitby"
          }
        ],
        "pollDivisionIds": [
          10136126
        ],
        "postalCode": "L0B1A0",
        "streetName": "GROUSE",
        "streetDirectionId": null,
        "streetTypeId": "CRT",
        "placeName": "ASHBURN",
        "streetNameDisplayText": "GROUSE CRT, ASHBURN"
      },
      {
        "electoralDistricts": [
          {
            "election": null,
            "id": 116,
            "name": "Whitby"
          }
        ],
        "pollDivisionIds": [
          10136126
        ],
        "postalCode": "L0B1A0",
        "streetName": "HERON",
        "streetDirectionId": null,
        "streetTypeId": "RD",
        "placeName": "ASHBURN",
        "streetNameDisplayText": "HERON RD, ASHBURN"
      },
      {
        "electoralDistricts": [
          {
            "election": null,
            "id": 116,
            "name": "Whitby"
          }
        ],
        "pollDivisionIds": [
          10136127
        ],
        "postalCode": "L0B1A0",
        "streetName": "HIGHFIELD",
        "streetDirectionId": null,
        "streetTypeId": "DR",
        "placeName": "ASHBURN",
        "streetNameDisplayText": "HIGHFIELD DR, ASHBURN"
      },
      {
        "electoralDistricts": [
          {
            "election": null,
            "id": 116,
            "name": "Whitby"
          }
        ],
        "pollDivisionIds": [
          10136127
        ],
        "postalCode": "L0B1A0",
        "streetName": "JERANNA",
        "streetDirectionId": null,
        "streetTypeId": "CRT",
        "placeName": "ASHBURN",
        "streetNameDisplayText": "JERANNA CRT, ASHBURN"
      },
      {
        "electoralDistricts": [
          {
            "election": null,
            "id": 87,
            "name": "Pickering—Uxbridge"
          },
          {
            "election": null,
            "id": 116,
            "name": "Whitby"
          }
        ],
        "pollDivisionIds": [
          10143373,
          10136126,
          10143372
        ],
        "postalCode": "L0B1A0",
        "streetName": "LAKE RIDGE",
        "streetDirectionId": "N",
        "streetTypeId": "RD",
        "placeName": "ASHBURN",
        "streetNameDisplayText": "LAKE RIDGE RD N, ASHBURN"
      },
      {
        "electoralDistricts": [
          {
            "election": null,
            "id": 87,
            "name": "Pickering—Uxbridge"
          }
        ],
        "pollDivisionIds": [
          10143372,
          10143373
        ],
        "postalCode": "L0B1A0",
        "streetName": "LAKERIDGE",
        "streetDirectionId": null,
        "streetTypeId": "RD",
        "placeName": "ASHBURN",
        "streetNameDisplayText": "LAKERIDGE RD, ASHBURN"
      },
      {
        "electoralDistricts": [
          {
            "election": null,
            "id": 116,
            "name": "Whitby"
          }
        ],
        "pollDivisionIds": [
          10136127
        ],
        "postalCode": "L0B1A0",
        "streetName": "MONTEREY",
        "streetDirectionId": null,
        "streetTypeId": "CRT",
        "placeName": "ASHBURN",
        "streetNameDisplayText": "MONTEREY CRT, ASHBURN"
      },
      {
        "electoralDistricts": [
          {
            "election": null,
            "id": 116,
            "name": "Whitby"
          },
          {
            "election": null,
            "id": 24,
            "name": "Durham"
          }
        ],
        "pollDivisionIds": [
          10136127,
          10137830
        ],
        "postalCode": "L0B1A0",
        "streetName": "MUD LAKE",
        "streetDirectionId": null,
        "streetTypeId": "RD",
        "placeName": "ASHBURN",
        "streetNameDisplayText": "MUD LAKE RD, ASHBURN"
      },
      {
        "electoralDistricts": [
          {
            "election": null,
            "id": 116,
            "name": "Whitby"
          }
        ],
        "pollDivisionIds": [
          10136127
        ],
        "postalCode": "L0B1A0",
        "streetName": "MYRTLE",
        "streetDirectionId": "E",
        "streetTypeId": "RD",
        "placeName": "ASHBURN",
        "streetNameDisplayText": "MYRTLE RD E, ASHBURN"
      },
      {
        "electoralDistricts": [
          {
            "election": null,
            "id": 116,
            "name": "Whitby"
          }
        ],
        "pollDivisionIds": [
          10136126,
          10136127
        ],
        "postalCode": "L0B1A0",
        "streetName": "MYRTLE",
        "streetDirectionId": "W",
        "streetTypeId": "RD",
        "placeName": "ASHBURN",
        "streetNameDisplayText": "MYRTLE RD W, ASHBURN"
      },
      {
        "electoralDistricts": [
          {
            "election": null,
            "id": 87,
            "name": "Pickering—Uxbridge"
          }
        ],
        "pollDivisionIds": [
          10143373
        ],
        "postalCode": "L0B1A0",
        "streetName": "MYRTLE",
        "streetDirectionId": null,
        "streetTypeId": "RD",
        "placeName": "ASHBURN",
        "streetNameDisplayText": "MYRTLE RD, ASHBURN"
      },
      {
        "electoralDistricts": [
          {
            "election": null,
            "id": 116,
            "name": "Whitby"
          }
        ],
        "pollDivisionIds": [
          10136126
        ],
        "postalCode": "L0B1A0",
        "streetName": "OLPI HILLS",
        "streetDirectionId": null,
        "streetTypeId": "CRT",
        "placeName": "ASHBURN",
        "streetNameDisplayText": "OLPI HILLS CRT, ASHBURN"
      },
      {
        "electoralDistricts": [
          {
            "election": null,
            "id": 116,
            "name": "Whitby"
          }
        ],
        "pollDivisionIds": [
          10136127
        ],
        "postalCode": "L0B1A0",
        "streetName": "PETALUMA",
        "streetDirectionId": null,
        "streetTypeId": "CRT",
        "placeName": "ASHBURN",
        "streetNameDisplayText": "PETALUMA CRT, ASHBURN"
      },
      {
        "electoralDistricts": [
          {
            "election": null,
            "id": 116,
            "name": "Whitby"
          }
        ],
        "pollDivisionIds": [
          10136126
        ],
        "postalCode": "L0B1A0",
        "streetName": "RICHARD BUTLER",
        "streetDirectionId": null,
        "streetTypeId": "DR",
        "placeName": "ASHBURN",
        "streetNameDisplayText": "RICHARD BUTLER DR, ASHBURN"
      },
      {
        "electoralDistricts": [
          {
            "election": null,
            "id": 24,
            "name": "Durham"
          },
          {
            "election": null,
            "id": 87,
            "name": "Pickering—Uxbridge"
          }
        ],
        "pollDivisionIds": [
          10137863,
          10143368,
          10143373
        ],
        "postalCode": "L0B1A0",
        "streetName": "SIDELINE 2",
        "streetDirectionId": null,
        "streetTypeId": null,
        "placeName": "ASHBURN",
        "streetNameDisplayText": "SIDELINE 2, ASHBURN"
      },
      {
        "electoralDistricts": [
          {
            "election": null,
            "id": 87,
            "name": "Pickering—Uxbridge"
          }
        ],
        "pollDivisionIds": [
          10143374,
          10143373
        ],
        "postalCode": "L0B1A0",
        "streetName": "SIDELINE 4",
        "streetDirectionId": null,
        "streetTypeId": null,
        "placeName": "ASHBURN",
        "streetNameDisplayText": "SIDELINE 4, ASHBURN"
      },
      {
        "electoralDistricts": [
          {
            "election": null,
            "id": 87,
            "name": "Pickering—Uxbridge"
          }
        ],
        "pollDivisionIds": [
          10143373
        ],
        "postalCode": "L0B1A0",
        "streetName": "SIDELINE 6",
        "streetDirectionId": null,
        "streetTypeId": null,
        "placeName": "ASHBURN",
        "streetNameDisplayText": "SIDELINE 6, ASHBURN"
      },
      {
        "electoralDistricts": [
          {
            "election": null,
            "id": 87,
            "name": "Pickering—Uxbridge"
          }
        ],
        "pollDivisionIds": [
          10143373
        ],
        "postalCode": "L0B1A0",
        "streetName": "SIDELINE 8",
        "streetDirectionId": null,
        "streetTypeId": null,
        "placeName": "ASHBURN",
        "streetNameDisplayText": "SIDELINE 8, ASHBURN"
      },
      {
        "electoralDistricts": [
          {
            "election": null,
            "id": 116,
            "name": "Whitby"
          }
        ],
        "pollDivisionIds": [
          10136127
        ],
        "postalCode": "L0B1A0",
        "streetName": "STATION",
        "streetDirectionId": null,
        "streetTypeId": "RD",
        "placeName": "ASHBURN",
        "streetNameDisplayText": "STATION RD, ASHBURN"
      },
      {
        "electoralDistricts": [
          {
            "election": null,
            "id": 116,
            "name": "Whitby"
          }
        ],
        "pollDivisionIds": [
          10136127
        ],
        "postalCode": "L0B1A0",
        "streetName": "TOWN",
        "streetDirectionId": null,
        "streetTypeId": "LINE",
        "placeName": "ASHBURN",
        "streetNameDisplayText": "TOWN LINE, ASHBURN"
      },
      {
        "electoralDistricts": [
          {
            "election": null,
            "id": 116,
            "name": "Whitby"
          }
        ],
        "pollDivisionIds": [
          10136127,
          10136126
        ],
        "postalCode": "L0B1A0",
        "streetName": "TOWNLINE",
        "streetDirectionId": "E",
        "streetTypeId": "RD",
        "placeName": "ASHBURN",
        "streetNameDisplayText": "TOWNLINE RD E, ASHBURN"
      },
      {
        "electoralDistricts": [
          {
            "election": null,
            "id": 116,
            "name": "Whitby"
          },
          {
            "election": null,
            "id": 24,
            "name": "Durham"
          }
        ],
        "pollDivisionIds": [
          10136127,
          10137830,
          10136126
        ],
        "postalCode": "L0B1A0",
        "streetName": "TOWNLINE",
        "streetDirectionId": "W",
        "streetTypeId": "RD",
        "placeName": "ASHBURN",
        "streetNameDisplayText": "TOWNLINE RD W, ASHBURN"
      },
      {
        "electoralDistricts": [
          {
            "election": null,
            "id": 87,
            "name": "Pickering—Uxbridge"
          }
        ],
        "pollDivisionIds": [
          10143372
        ],
        "postalCode": "L0B1A0",
        "streetName": "UXBRIDGE-PICKERING",
        "streetDirectionId": null,
        "streetTypeId": "TLINE",
        "placeName": "ASHBURN",
        "streetNameDisplayText": "UXBRIDGE-PICKERING TLINE, ASHBURN"
      },
      {
        "electoralDistricts": [
          {
            "election": null,
            "id": 116,
            "name": "Whitby"
          }
        ],
        "pollDivisionIds": [
          10136126
        ],
        "postalCode": "L0B1A0",
        "streetName": "WILSON HOUSE",
        "streetDirectionId": null,
        "streetTypeId": "DR",
        "placeName": "ASHBURN",
        "streetNameDisplayText": "WILSON HOUSE DR, ASHBURN"
      }
    ]
  },
  {
    "postal": "L0B1B0",
    "result": [
      {
        "electoralDistricts": [
          {
            "election": null,
            "id": 24,
            "name": "Durham"
          }
        ],
        "pollDivisionIds": [
          10137833,
          10137832
        ],
        "postalCode": "L0B1B0",
        "streetName": "7A",
        "streetDirectionId": null,
        "streetTypeId": "HWY",
        "placeName": "BLACKSTOCK",
        "streetNameDisplayText": "7A HWY, BLACKSTOCK"
      },
      {
        "electoralDistricts": [
          {
            "election": null,
            "id": 24,
            "name": "Durham"
          }
        ],
        "pollDivisionIds": [
          10137832
        ],
        "postalCode": "L0B1B0",
        "streetName": "7A",
        "streetDirectionId": null,
        "streetTypeId": "HWY",
        "placeName": "NESTLETON STATION",
        "streetNameDisplayText": "7A HWY, NESTLETON STATION"
      },
      {
        "electoralDistricts": [
          {
            "election": null,
            "id": 24,
            "name": "Durham"
          }
        ],
        "pollDivisionIds": [
          10137833
        ],
        "postalCode": "L0B1B0",
        "streetName": "ALEXANDER",
        "streetDirectionId": null,
        "streetTypeId": "ST",
        "placeName": "BLACKSTOCK",
        "streetNameDisplayText": "ALEXANDER ST, BLACKSTOCK"
      },
      {
        "electoralDistricts": [
          {
            "election": null,
            "id": 24,
            "name": "Durham"
          }
        ],
        "pollDivisionIds": [
          10137832
        ],
        "postalCode": "L0B1B0",
        "streetName": "ARMSTRONG",
        "streetDirectionId": null,
        "streetTypeId": "AVE",
        "placeName": "NESTLETON STATION",
        "streetNameDisplayText": "ARMSTRONG AVE, NESTLETON STATION"
      },
      {
        "electoralDistricts": [
          {
            "election": null,
            "id": 24,
            "name": "Durham"
          }
        ],
        "pollDivisionIds": [
          10137832
        ],
        "postalCode": "L0B1B0",
        "streetName": "BEACOCK",
        "streetDirectionId": null,
        "streetTypeId": "RD",
        "placeName": "NESTLETON STATION",
        "streetNameDisplayText": "BEACOCK RD, NESTLETON STATION"
      },
      {
        "electoralDistricts": [
          {
            "election": null,
            "id": 24,
            "name": "Durham"
          }
        ],
        "pollDivisionIds": [
          10137832
        ],
        "postalCode": "L0B1B0",
        "streetName": "BIRCH ISLAND",
        "streetDirectionId": null,
        "streetTypeId": "RD",
        "placeName": "JANETVILLE",
        "streetNameDisplayText": "BIRCH ISLAND RD, JANETVILLE"
      },
      {
        "electoralDistricts": [
          {
            "election": null,
            "id": 24,
            "name": "Durham"
          }
        ],
        "pollDivisionIds": [
          10137833
        ],
        "postalCode": "L0B1B0",
        "streetName": "BIRKENWEG",
        "streetDirectionId": null,
        "streetTypeId": null,
        "placeName": "BLACKSTOCK",
        "streetNameDisplayText": "BIRKENWEG, BLACKSTOCK"
      },
      {
        "electoralDistricts": [
          {
            "election": null,
            "id": 24,
            "name": "Durham"
          }
        ],
        "pollDivisionIds": [
          10137833
        ],
        "postalCode": "L0B1B0",
        "streetName": "BLUMENWEG",
        "streetDirectionId": null,
        "streetTypeId": null,
        "placeName": "BLACKSTOCK",
        "streetNameDisplayText": "BLUMENWEG, BLACKSTOCK"
      },
      {
        "electoralDistricts": [
          {
            "election": null,
            "id": 24,
            "name": "Durham"
          }
        ],
        "pollDivisionIds": [
          10137833,
          10137829,
          10137835
        ],
        "postalCode": "L0B1B0",
        "streetName": "BOUNDARY",
        "streetDirectionId": null,
        "streetTypeId": "RD",
        "placeName": "BLACKSTOCK",
        "streetNameDisplayText": "BOUNDARY RD, BLACKSTOCK"
      },
      {
        "electoralDistricts": [
          {
            "election": null,
            "id": 24,
            "name": "Durham"
          }
        ],
        "pollDivisionIds": [
          10137833
        ],
        "postalCode": "L0B1B0",
        "streetName": "BRADBURN",
        "streetDirectionId": null,
        "streetTypeId": "RD",
        "placeName": "BLACKSTOCK",
        "streetNameDisplayText": "BRADBURN RD, BLACKSTOCK"
      },
      {
        "electoralDistricts": [
          {
            "election": null,
            "id": 24,
            "name": "Durham"
          }
        ],
        "pollDivisionIds": [
          10137833
        ],
        "postalCode": "L0B1B0",
        "streetName": "BYERS",
        "streetDirectionId": null,
        "streetTypeId": "RD",
        "placeName": "BLACKSTOCK",
        "streetNameDisplayText": "BYERS RD, BLACKSTOCK"
      },
      {
        "electoralDistricts": [
          {
            "election": null,
            "id": 24,
            "name": "Durham"
          }
        ],
        "pollDivisionIds": [
          10137833
        ],
        "postalCode": "L0B1B0",
        "streetName": "CARTWRIGHT EAST QUARTER",
        "streetDirectionId": null,
        "streetTypeId": "LINE",
        "placeName": "BLACKSTOCK",
        "streetNameDisplayText": "CARTWRIGHT EAST QUARTER LINE, BLACKSTOCK"
      },
      {
        "electoralDistricts": [
          {
            "election": null,
            "id": 24,
            "name": "Durham"
          }
        ],
        "pollDivisionIds": [
          10137835
        ],
        "postalCode": "L0B1B0",
        "streetName": "CARTWRIGHT",
        "streetDirectionId": null,
        "streetTypeId": "ST",
        "placeName": "BLACKSTOCK",
        "streetNameDisplayText": "CARTWRIGHT ST, BLACKSTOCK"
      },
      {
        "electoralDistricts": [
          {
            "election": null,
            "id": 24,
            "name": "Durham"
          }
        ],
        "pollDivisionIds": [
          10137833
        ],
        "postalCode": "L0B1B0",
        "streetName": "CARTWRIGHT WEST QUARTER",
        "streetDirectionId": "W",
        "streetTypeId": "LINE",
        "placeName": "BLACKSTOCK",
        "streetNameDisplayText": "CARTWRIGHT WEST QUARTER LINE W, BLACKSTOCK"
      },
      {
        "electoralDistricts": [
          {
            "election": null,
            "id": 24,
            "name": "Durham"
          }
        ],
        "pollDivisionIds": [
          10137833
        ],
        "postalCode": "L0B1B0",
        "streetName": "CARTWRIGHT WEST QUARTER",
        "streetDirectionId": null,
        "streetTypeId": "LINE",
        "placeName": "BLACKSTOCK",
        "streetNameDisplayText": "CARTWRIGHT WEST QUARTER LINE, BLACKSTOCK"
      },
      {
        "electoralDistricts": [
          {
            "election": null,
            "id": 24,
            "name": "Durham"
          }
        ],
        "pollDivisionIds": [
          10137833
        ],
        "postalCode": "L0B1B0",
        "streetName": "CHURCH",
        "streetDirectionId": null,
        "streetTypeId": "ST",
        "placeName": "BLACKSTOCK",
        "streetNameDisplayText": "CHURCH ST, BLACKSTOCK"
      },
      {
        "electoralDistricts": [
          {
            "election": null,
            "id": 24,
            "name": "Durham"
          }
        ],
        "pollDivisionIds": [
          10137834,
          10137835
        ],
        "postalCode": "L0B1B0",
        "streetName": "CONCESSION 10",
        "streetDirectionId": null,
        "streetTypeId": "RD",
        "placeName": "BLACKSTOCK",
        "streetNameDisplayText": "CONCESSION 10 RD, BLACKSTOCK"
      },
      {
        "electoralDistricts": [
          {
            "election": null,
            "id": 24,
            "name": "Durham"
          }
        ],
        "pollDivisionIds": [
          10137834,
          10137835
        ],
        "postalCode": "L0B1B0",
        "streetName": "CONCESSION 9",
        "streetDirectionId": null,
        "streetTypeId": "RD",
        "placeName": "BLACKSTOCK",
        "streetNameDisplayText": "CONCESSION 9 RD, BLACKSTOCK"
      },
      {
        "electoralDistricts": [
          {
            "election": null,
            "id": 24,
            "name": "Durham"
          }
        ],
        "pollDivisionIds": [
          10137834
        ],
        "postalCode": "L0B1B0",
        "streetName": "CONCESSION RD 9",
        "streetDirectionId": null,
        "streetTypeId": null,
        "placeName": "BLACKSTOCK",
        "streetNameDisplayText": "CONCESSION RD 9, BLACKSTOCK"
      },
      {
        "electoralDistricts": [
          {
            "election": null,
            "id": 121,
            "name": "York—Simcoe"
          }
        ],
        "pollDivisionIds": [
          10142909
        ],
        "postalCode": "L0B1B0",
        "streetName": "COUNTY ROAD 88",
        "streetDirectionId": null,
        "streetTypeId": "RD",
        "placeName": "BOND HEAD",
        "streetNameDisplayText": "COUNTY ROAD 88 RD, BOND HEAD"
      },
      {
        "electoralDistricts": [
          {
            "election": null,
            "id": 24,
            "name": "Durham"
          }
        ],
        "pollDivisionIds": [
          10137833
        ],
        "postalCode": "L0B1B0",
        "streetName": "CRESTVIEW",
        "streetDirectionId": null,
        "streetTypeId": "AVE",
        "placeName": "BLACKSTOCK",
        "streetNameDisplayText": "CRESTVIEW AVE, BLACKSTOCK"
      },
      {
        "electoralDistricts": [
          {
            "election": null,
            "id": 24,
            "name": "Durham"
          }
        ],
        "pollDivisionIds": [
          10137835
        ],
        "postalCode": "L0B1B0",
        "streetName": "DARLINGTON",
        "streetDirectionId": null,
        "streetTypeId": "ST",
        "placeName": "BLACKSTOCK",
        "streetNameDisplayText": "DARLINGTON ST, BLACKSTOCK"
      },
      {
        "electoralDistricts": [
          {
            "election": null,
            "id": 24,
            "name": "Durham"
          }
        ],
        "pollDivisionIds": [
          10137833
        ],
        "postalCode": "L0B1B0",
        "streetName": "DEVITTS",
        "streetDirectionId": null,
        "streetTypeId": "RD",
        "placeName": "BLACKSTOCK",
        "streetNameDisplayText": "DEVITTS RD, BLACKSTOCK"
      },
      {
        "electoralDistricts": [
          {
            "election": null,
            "id": 24,
            "name": "Durham"
          }
        ],
        "pollDivisionIds": [
          10137833
        ],
        "postalCode": "L0B1B0",
        "streetName": "DONELDA",
        "streetDirectionId": null,
        "streetTypeId": "CRT",
        "placeName": "BLACKSTOCK",
        "streetNameDisplayText": "DONELDA CRT, BLACKSTOCK"
      },
      {
        "electoralDistricts": [
          {
            "election": null,
            "id": 24,
            "name": "Durham"
          }
        ],
        "pollDivisionIds": [
          10137832
        ],
        "postalCode": "L0B1B0",
        "streetName": "DOVER",
        "streetDirectionId": null,
        "streetTypeId": "LANE",
        "placeName": "CAESAREA",
        "streetNameDisplayText": "DOVER LANE, CAESAREA"
      },
      {
        "electoralDistricts": [
          {
            "election": null,
            "id": 73,
            "name": "Northumberland—Peterborough South"
          }
        ],
        "pollDivisionIds": [
          10140296
        ],
        "postalCode": "L0B1B0",
        "streetName": "DUCHESS",
        "streetDirectionId": null,
        "streetTypeId": "ST",
        "placeName": "ORONO",
        "streetNameDisplayText": "DUCHESS ST, ORONO"
      },
      {
        "electoralDistricts": [
          {
            "election": null,
            "id": 24,
            "name": "Durham"
          }
        ],
        "pollDivisionIds": [
          10137833
        ],
        "postalCode": "L0B1B0",
        "streetName": "DURHAM REGIONAL RD 19",
        "streetDirectionId": null,
        "streetTypeId": null,
        "placeName": "BLACKSTOCK",
        "streetNameDisplayText": "DURHAM REGIONAL RD 19, BLACKSTOCK"
      },
      {
        "electoralDistricts": [
          {
            "election": null,
            "id": 24,
            "name": "Durham"
          }
        ],
        "pollDivisionIds": [
          10137833
        ],
        "postalCode": "L0B1B0",
        "streetName": "EDGERTON",
        "streetDirectionId": null,
        "streetTypeId": "RD",
        "placeName": "BLACKSTOCK",
        "streetNameDisplayText": "EDGERTON RD, BLACKSTOCK"
      },
      {
        "electoralDistricts": [
          {
            "election": null,
            "id": 24,
            "name": "Durham"
          }
        ],
        "pollDivisionIds": [
          10137835
        ],
        "postalCode": "L0B1B0",
        "streetName": "ELLIOT",
        "streetDirectionId": null,
        "streetTypeId": "ST",
        "placeName": "BLACKSTOCK",
        "streetNameDisplayText": "ELLIOT ST, BLACKSTOCK"
      },
      {
        "electoralDistricts": [
          {
            "election": null,
            "id": 24,
            "name": "Durham"
          }
        ],
        "pollDivisionIds": [
          10137835
        ],
        "postalCode": "L0B1B0",
        "streetName": "ELLIOTT",
        "streetDirectionId": null,
        "streetTypeId": "ST",
        "placeName": "BLACKSTOCK",
        "streetNameDisplayText": "ELLIOTT ST, BLACKSTOCK"
      },
      {
        "electoralDistricts": [
          {
            "election": null,
            "id": 24,
            "name": "Durham"
          }
        ],
        "pollDivisionIds": [
          10137832
        ],
        "postalCode": "L0B1B0",
        "streetName": "EMERSON BEACH",
        "streetDirectionId": null,
        "streetTypeId": "LANE",
        "placeName": "NESTLETON STATION",
        "streetNameDisplayText": "EMERSON BEACH LANE, NESTLETON STATION"
      },
      {
        "electoralDistricts": [
          {
            "election": null,
            "id": 24,
            "name": "Durham"
          }
        ],
        "pollDivisionIds": [
          10137834
        ],
        "postalCode": "L0B1B0",
        "streetName": "ENFIELD",
        "streetDirectionId": null,
        "streetTypeId": "RD",
        "placeName": "BLACKSTOCK",
        "streetNameDisplayText": "ENFIELD RD, BLACKSTOCK"
      },
      {
        "electoralDistricts": [
          {
            "election": null,
            "id": 24,
            "name": "Durham"
          }
        ],
        "pollDivisionIds": [
          10137833
        ],
        "postalCode": "L0B1B0",
        "streetName": "FOWLER",
        "streetDirectionId": null,
        "streetTypeId": "LINE",
        "placeName": "BLACKSTOCK",
        "streetNameDisplayText": "FOWLER LINE, BLACKSTOCK"
      },
      {
        "electoralDistricts": [
          {
            "election": null,
            "id": 24,
            "name": "Durham"
          }
        ],
        "pollDivisionIds": [
          10137833
        ],
        "postalCode": "L0B1B0",
        "streetName": "GREENSBORO",
        "streetDirectionId": null,
        "streetTypeId": "DR",
        "placeName": "BLACKSTOCK",
        "streetNameDisplayText": "GREENSBORO DR, BLACKSTOCK"
      },
      {
        "electoralDistricts": [
          {
            "election": null,
            "id": 24,
            "name": "Durham"
          }
        ],
        "pollDivisionIds": [
          10137835
        ],
        "postalCode": "L0B1B0",
        "streetName": "HAWKE",
        "streetDirectionId": null,
        "streetTypeId": "CRT",
        "placeName": "BLACKSTOCK",
        "streetNameDisplayText": "HAWKE CRT, BLACKSTOCK"
      },
      {
        "electoralDistricts": [
          {
            "election": null,
            "id": 24,
            "name": "Durham"
          }
        ],
        "pollDivisionIds": [
          10137833
        ],
        "postalCode": "L0B1B0",
        "streetName": "HWY 7 A",
        "streetDirectionId": null,
        "streetTypeId": "HWY",
        "placeName": "BLACKSTOCK",
        "streetNameDisplayText": "HWY 7 A HWY, BLACKSTOCK"
      },
      {
        "electoralDistricts": [
          {
            "election": null,
            "id": 24,
            "name": "Durham"
          }
        ],
        "pollDivisionIds": [
          10137828
        ],
        "postalCode": "L0B1B0",
        "streetName": "HWY 7A",
        "streetDirectionId": null,
        "streetTypeId": "HWY",
        "placeName": "SCUGOG",
        "streetNameDisplayText": "HWY 7A HWY, SCUGOG"
      },
      {
        "electoralDistricts": [
          {
            "election": null,
            "id": 24,
            "name": "Durham"
          }
        ],
        "pollDivisionIds": [
          10137832
        ],
        "postalCode": "L0B1B0",
        "streetName": "MABEL'S",
        "streetDirectionId": null,
        "streetTypeId": "RD",
        "placeName": "NESTLETON STATION",
        "streetNameDisplayText": "MABEL'S RD, NESTLETON STATION"
      },
      {
        "electoralDistricts": [
          {
            "election": null,
            "id": 24,
            "name": "Durham"
          }
        ],
        "pollDivisionIds": [
          10137833
        ],
        "postalCode": "L0B1B0",
        "streetName": "MANVERS SCUGOG TOWNLINE",
        "streetDirectionId": null,
        "streetTypeId": "RD",
        "placeName": "BLACKSTOCK",
        "streetNameDisplayText": "MANVERS SCUGOG TOWNLINE RD, BLACKSTOCK"
      },
      {
        "electoralDistricts": [
          {
            "election": null,
            "id": 35,
            "name": "Haliburton—Kawartha Lakes—Brock"
          }
        ],
        "pollDivisionIds": [
          10138567
        ],
        "postalCode": "L0B1B0",
        "streetName": "MANVERS-SCUGOG",
        "streetDirectionId": null,
        "streetTypeId": "TLINE",
        "placeName": "BLACKSTOCK",
        "streetNameDisplayText": "MANVERS-SCUGOG TLINE, BLACKSTOCK"
      },
      {
        "electoralDistricts": [
          {
            "election": null,
            "id": 24,
            "name": "Durham"
          }
        ],
        "pollDivisionIds": [
          10137833
        ],
        "postalCode": "L0B1B0",
        "streetName": "MANVERS-SCUGOG TOWNLINE",
        "streetDirectionId": null,
        "streetTypeId": "RD",
        "placeName": "BLACKSTOCK",
        "streetNameDisplayText": "MANVERS-SCUGOG TOWNLINE RD, BLACKSTOCK"
      },
      {
        "electoralDistricts": [
          {
            "election": null,
            "id": 24,
            "name": "Durham"
          }
        ],
        "pollDivisionIds": [
          10137833
        ],
        "postalCode": "L0B1B0",
        "streetName": "MARLOW",
        "streetDirectionId": null,
        "streetTypeId": "ST",
        "placeName": "BLACKSTOCK",
        "streetNameDisplayText": "MARLOW ST, BLACKSTOCK"
      },
      {
        "electoralDistricts": [
          {
            "election": null,
            "id": 24,
            "name": "Durham"
          }
        ],
        "pollDivisionIds": [
          10137835
        ],
        "postalCode": "L0B1B0",
        "streetName": "MARY",
        "streetDirectionId": null,
        "streetTypeId": "ST",
        "placeName": "BLACKSTOCK",
        "streetNameDisplayText": "MARY ST, BLACKSTOCK"
      },
      {
        "electoralDistricts": [
          {
            "election": null,
            "id": 24,
            "name": "Durham"
          }
        ],
        "pollDivisionIds": [
          10137833
        ],
        "postalCode": "L0B1B0",
        "streetName": "MASON",
        "streetDirectionId": null,
        "streetTypeId": "ST",
        "placeName": "BLACKSTOCK",
        "streetNameDisplayText": "MASON ST, BLACKSTOCK"
      },
      {
        "electoralDistricts": [
          {
            "election": null,
            "id": 24,
            "name": "Durham"
          }
        ],
        "pollDivisionIds": [
          10137833
        ],
        "postalCode": "L0B1B0",
        "streetName": "MCKEE",
        "streetDirectionId": null,
        "streetTypeId": "RD",
        "placeName": "BLACKSTOCK",
        "streetNameDisplayText": "MCKEE RD, BLACKSTOCK"
      },
      {
        "electoralDistricts": [
          {
            "election": null,
            "id": 24,
            "name": "Durham"
          }
        ],
        "pollDivisionIds": [
          10137833
        ],
        "postalCode": "L0B1B0",
        "streetName": "MCLAUGHLIN",
        "streetDirectionId": null,
        "streetTypeId": "RD",
        "placeName": "BLACKSTOCK",
        "streetNameDisplayText": "MCLAUGHLIN RD, BLACKSTOCK"
      },
      {
        "electoralDistricts": [
          {
            "election": null,
            "id": 24,
            "name": "Durham"
          }
        ],
        "pollDivisionIds": [
          10137833
        ],
        "postalCode": "L0B1B0",
        "streetName": "MCLAUGHLIN",
        "streetDirectionId": null,
        "streetTypeId": "RD",
        "placeName": "NESTLETON STATION",
        "streetNameDisplayText": "MCLAUGHLIN RD, NESTLETON STATION"
      },
      {
        "electoralDistricts": [
          {
            "election": null,
            "id": 24,
            "name": "Durham"
          }
        ],
        "pollDivisionIds": [
          10137832
        ],
        "postalCode": "L0B1B0",
        "streetName": "MORRIS",
        "streetDirectionId": null,
        "streetTypeId": "LANE",
        "placeName": "NESTLETON STATION",
        "streetNameDisplayText": "MORRIS LANE, NESTLETON STATION"
      },
      {
        "electoralDistricts": [
          {
            "election": null,
            "id": 24,
            "name": "Durham"
          }
        ],
        "pollDivisionIds": [
          10137833
        ],
        "postalCode": "L0B1B0",
        "streetName": "MOUNTJOY",
        "streetDirectionId": null,
        "streetTypeId": "RD",
        "placeName": "BLACKSTOCK",
        "streetNameDisplayText": "MOUNTJOY RD, BLACKSTOCK"
      },
      {
        "electoralDistricts": [
          {
            "election": null,
            "id": 24,
            "name": "Durham"
          }
        ],
        "pollDivisionIds": [
          10137832
        ],
        "postalCode": "L0B1B0",
        "streetName": "NESTLETON",
        "streetDirectionId": null,
        "streetTypeId": "RD",
        "placeName": "NESTLETON STATION",
        "streetNameDisplayText": "NESTLETON RD, NESTLETON STATION"
      },
      {
        "electoralDistricts": [
          {
            "election": null,
            "id": 24,
            "name": "Durham"
          }
        ],
        "pollDivisionIds": [
          10137832
        ],
        "postalCode": "L0B1B0",
        "streetName": "NOBLE",
        "streetDirectionId": null,
        "streetTypeId": "LANE",
        "placeName": "NESTLETON STATION",
        "streetNameDisplayText": "NOBLE LANE, NESTLETON STATION"
      },
      {
        "electoralDistricts": [
          {
            "election": null,
            "id": 24,
            "name": "Durham"
          }
        ],
        "pollDivisionIds": [
          10137833,
          10137835
        ],
        "postalCode": "L0B1B0",
        "streetName": "OLD SCUGOG",
        "streetDirectionId": null,
        "streetTypeId": "RD",
        "placeName": "BLACKSTOCK",
        "streetNameDisplayText": "OLD SCUGOG RD, BLACKSTOCK"
      },
      {
        "electoralDistricts": [
          {
            "election": null,
            "id": 24,
            "name": "Durham"
          }
        ],
        "pollDivisionIds": [
          10137834
        ],
        "postalCode": "L0B1B0",
        "streetName": "ORMISTON",
        "streetDirectionId": null,
        "streetTypeId": "RD",
        "placeName": "BLACKSTOCK",
        "streetNameDisplayText": "ORMISTON RD, BLACKSTOCK"
      },
      {
        "electoralDistricts": [
          {
            "election": null,
            "id": 24,
            "name": "Durham"
          }
        ],
        "pollDivisionIds": [
          10137833
        ],
        "postalCode": "L0B1B0",
        "streetName": "REGIONAL 19",
        "streetDirectionId": null,
        "streetTypeId": "RD",
        "placeName": "BLACKSTOCK",
        "streetNameDisplayText": "REGIONAL 19 RD, BLACKSTOCK"
      },
      {
        "electoralDistricts": [
          {
            "election": null,
            "id": 24,
            "name": "Durham"
          }
        ],
        "pollDivisionIds": [
          10137832,
          10137833
        ],
        "postalCode": "L0B1B0",
        "streetName": "REGIONAL 57",
        "streetDirectionId": null,
        "streetTypeId": "RD",
        "placeName": "BLACKSTOCK",
        "streetNameDisplayText": "REGIONAL 57 RD, BLACKSTOCK"
      },
      {
        "electoralDistricts": [
          {
            "election": null,
            "id": 24,
            "name": "Durham"
          }
        ],
        "pollDivisionIds": [
          10137832
        ],
        "postalCode": "L0B1B0",
        "streetName": "REGIONAL 57",
        "streetDirectionId": null,
        "streetTypeId": "RD",
        "placeName": "CAESAREA",
        "streetNameDisplayText": "REGIONAL 57 RD, CAESAREA"
      },
      {
        "electoralDistricts": [
          {
            "election": null,
            "id": 24,
            "name": "Durham"
          }
        ],
        "pollDivisionIds": [
          10137832
        ],
        "postalCode": "L0B1B0",
        "streetName": "REGIONAL 57",
        "streetDirectionId": null,
        "streetTypeId": "RD",
        "placeName": "NESTLETON STATION",
        "streetNameDisplayText": "REGIONAL 57 RD, NESTLETON STATION"
      },
      {
        "electoralDistricts": [
          {
            "election": null,
            "id": 24,
            "name": "Durham"
          }
        ],
        "pollDivisionIds": [
          10137833
        ],
        "postalCode": "L0B1B0",
        "streetName": "REGIONAL RD 57",
        "streetDirectionId": null,
        "streetTypeId": null,
        "placeName": "BLACKSTOCK",
        "streetNameDisplayText": "REGIONAL RD 57, BLACKSTOCK"
      },
      {
        "electoralDistricts": [
          {
            "election": null,
            "id": 24,
            "name": "Durham"
          }
        ],
        "pollDivisionIds": [
          10137835
        ],
        "postalCode": "L0B1B0",
        "streetName": "ROY CARTER",
        "streetDirectionId": null,
        "streetTypeId": "ST",
        "placeName": "BLACKSTOCK",
        "streetNameDisplayText": "ROY CARTER ST, BLACKSTOCK"
      },
      {
        "electoralDistricts": [
          {
            "election": null,
            "id": 24,
            "name": "Durham"
          }
        ],
        "pollDivisionIds": [
          10137833
        ],
        "postalCode": "L0B1B0",
        "streetName": "RUSSELL",
        "streetDirectionId": null,
        "streetTypeId": "RD",
        "placeName": "BLACKSTOCK",
        "streetNameDisplayText": "RUSSELL RD, BLACKSTOCK"
      },
      {
        "electoralDistricts": [
          {
            "election": null,
            "id": 24,
            "name": "Durham"
          }
        ],
        "pollDivisionIds": [
          10137833
        ],
        "postalCode": "L0B1B0",
        "streetName": "SCUGOG",
        "streetDirectionId": null,
        "streetTypeId": "ST",
        "placeName": "BLACKSTOCK",
        "streetNameDisplayText": "SCUGOG ST, BLACKSTOCK"
      },
      {
        "electoralDistricts": [
          {
            "election": null,
            "id": 24,
            "name": "Durham"
          }
        ],
        "pollDivisionIds": [
          10137833
        ],
        "postalCode": "L0B1B0",
        "streetName": "SHIRLEY",
        "streetDirectionId": null,
        "streetTypeId": "RD",
        "placeName": "BLACKSTOCK",
        "streetNameDisplayText": "SHIRLEY RD, BLACKSTOCK"
      },
      {
        "electoralDistricts": [
          {
            "election": null,
            "id": 24,
            "name": "Durham"
          }
        ],
        "pollDivisionIds": [
          10137832
        ],
        "postalCode": "L0B1B0",
        "streetName": "ST CHRISTOPHER'S BEACH",
        "streetDirectionId": null,
        "streetTypeId": "RD",
        "placeName": "NESTLETON STATION",
        "streetNameDisplayText": "ST CHRISTOPHER'S BEACH RD, NESTLETON STATION"
      },
      {
        "electoralDistricts": [
          {
            "election": null,
            "id": 24,
            "name": "Durham"
          }
        ],
        "pollDivisionIds": [
          10137833
        ],
        "postalCode": "L0B1B0",
        "streetName": "ST. EDMUNDS",
        "streetDirectionId": null,
        "streetTypeId": "CRES",
        "placeName": "BLACKSTOCK",
        "streetNameDisplayText": "ST. EDMUNDS CRES, BLACKSTOCK"
      },
      {
        "electoralDistricts": [
          {
            "election": null,
            "id": 24,
            "name": "Durham"
          }
        ],
        "pollDivisionIds": [
          10137835
        ],
        "postalCode": "L0B1B0",
        "streetName": "SUMAC",
        "streetDirectionId": null,
        "streetTypeId": "CRT",
        "placeName": "BLACKSTOCK",
        "streetNameDisplayText": "SUMAC CRT, BLACKSTOCK"
      },
      {
        "electoralDistricts": [
          {
            "election": null,
            "id": 24,
            "name": "Durham"
          }
        ],
        "pollDivisionIds": [
          10137835
        ],
        "postalCode": "L0B1B0",
        "streetName": "SUMAC",
        "streetDirectionId": null,
        "streetTypeId": "RD",
        "placeName": "BLACKSTOCK",
        "streetNameDisplayText": "SUMAC RD, BLACKSTOCK"
      },
      {
        "electoralDistricts": [
          {
            "election": null,
            "id": 24,
            "name": "Durham"
          }
        ],
        "pollDivisionIds": [
          10137833
        ],
        "postalCode": "L0B1B0",
        "streetName": "SUNRISE",
        "streetDirectionId": null,
        "streetTypeId": "CRT",
        "placeName": "BLACKSTOCK",
        "streetNameDisplayText": "SUNRISE CRT, BLACKSTOCK"
      },
      {
        "electoralDistricts": [
          {
            "election": null,
            "id": 24,
            "name": "Durham"
          }
        ],
        "pollDivisionIds": [
          10137833
        ],
        "postalCode": "L0B1B0",
        "streetName": "SUNRISE",
        "streetDirectionId": null,
        "streetTypeId": "DR",
        "placeName": "BLACKSTOCK",
        "streetNameDisplayText": "SUNRISE DR, BLACKSTOCK"
      },
      {
        "electoralDistricts": [
          {
            "election": null,
            "id": 24,
            "name": "Durham"
          }
        ],
        "pollDivisionIds": [
          10137835
        ],
        "postalCode": "L0B1B0",
        "streetName": "TANGLEWOOD",
        "streetDirectionId": null,
        "streetTypeId": "CRT",
        "placeName": "BLACKSTOCK",
        "streetNameDisplayText": "TANGLEWOOD CRT, BLACKSTOCK"
      },
      {
        "electoralDistricts": [
          {
            "election": null,
            "id": 24,
            "name": "Durham"
          }
        ],
        "pollDivisionIds": [
          10137833
        ],
        "postalCode": "L0B1B0",
        "streetName": "TANNENEWEG",
        "streetDirectionId": null,
        "streetTypeId": null,
        "placeName": "BLACKSTOCK",
        "streetNameDisplayText": "TANNENEWEG, BLACKSTOCK"
      },
      {
        "electoralDistricts": [
          {
            "election": null,
            "id": 24,
            "name": "Durham"
          }
        ],
        "pollDivisionIds": [
          10137834,
          10137862
        ],
        "postalCode": "L0B1B0",
        "streetName": "TOWNLINE",
        "streetDirectionId": "N",
        "streetTypeId": "RD",
        "placeName": "BLACKSTOCK",
        "streetNameDisplayText": "TOWNLINE RD N, BLACKSTOCK"
      },
      {
        "electoralDistricts": [
          {
            "election": null,
            "id": 24,
            "name": "Durham"
          }
        ],
        "pollDivisionIds": [
          10137833
        ],
        "postalCode": "L0B1B0",
        "streetName": "TREWIN",
        "streetDirectionId": null,
        "streetTypeId": "CRT",
        "placeName": "BLACKSTOCK",
        "streetNameDisplayText": "TREWIN CRT, BLACKSTOCK"
      },
      {
        "electoralDistricts": [
          {
            "election": null,
            "id": 24,
            "name": "Durham"
          }
        ],
        "pollDivisionIds": [
          10137834,
          10137833
        ],
        "postalCode": "L0B1B0",
        "streetName": "UNION SCHOOL",
        "streetDirectionId": null,
        "streetTypeId": "RD",
        "placeName": "BLACKSTOCK",
        "streetNameDisplayText": "UNION SCHOOL RD, BLACKSTOCK"
      },
      {
        "electoralDistricts": [
          {
            "election": null,
            "id": 24,
            "name": "Durham"
          }
        ],
        "pollDivisionIds": [
          10137833
        ],
        "postalCode": "L0B1B0",
        "streetName": "VAN CAMP",
        "streetDirectionId": null,
        "streetTypeId": "ST",
        "placeName": "BLACKSTOCK",
        "streetNameDisplayText": "VAN CAMP ST, BLACKSTOCK"
      },
      {
        "electoralDistricts": [
          {
            "election": null,
            "id": 24,
            "name": "Durham"
          }
        ],
        "pollDivisionIds": [
          10137833
        ],
        "postalCode": "L0B1B0",
        "streetName": "VENNING",
        "streetDirectionId": null,
        "streetTypeId": "CRT",
        "placeName": "BLACKSTOCK",
        "streetNameDisplayText": "VENNING CRT, BLACKSTOCK"
      },
      {
        "electoralDistricts": [
          {
            "election": null,
            "id": 24,
            "name": "Durham"
          }
        ],
        "pollDivisionIds": [
          10137832
        ],
        "postalCode": "L0B1B0",
        "streetName": "VIEW LAKE",
        "streetDirectionId": null,
        "streetTypeId": "RD",
        "placeName": "JANETVILLE",
        "streetNameDisplayText": "VIEW LAKE RD, JANETVILLE"
      },
      {
        "electoralDistricts": [
          {
            "election": null,
            "id": 24,
            "name": "Durham"
          }
        ],
        "pollDivisionIds": [
          10137833
        ],
        "postalCode": "L0B1B0",
        "streetName": "WALDWEG",
        "streetDirectionId": null,
        "streetTypeId": null,
        "placeName": "BLACKSTOCK",
        "streetNameDisplayText": "WALDWEG, BLACKSTOCK"
      },
      {
        "electoralDistricts": [
          {
            "election": null,
            "id": 24,
            "name": "Durham"
          }
        ],
        "pollDivisionIds": [
          10137832
        ],
        "postalCode": "L0B1B0",
        "streetName": "WASHAGO BAY",
        "streetDirectionId": null,
        "streetTypeId": "LANE",
        "placeName": "JANETVILLE",
        "streetNameDisplayText": "WASHAGO BAY LANE, JANETVILLE"
      },
      {
        "electoralDistricts": [
          {
            "election": null,
            "id": 24,
            "name": "Durham"
          }
        ],
        "pollDivisionIds": [
          10137833
        ],
        "postalCode": "L0B1B0",
        "streetName": "WIESENWEG",
        "streetDirectionId": null,
        "streetTypeId": null,
        "placeName": "BLACKSTOCK",
        "streetNameDisplayText": "WIESENWEG, BLACKSTOCK"
      },
      {
        "electoralDistricts": [
          {
            "election": null,
            "id": 24,
            "name": "Durham"
          }
        ],
        "pollDivisionIds": [
          10137834
        ],
        "postalCode": "L0B1B0",
        "streetName": "WOTTEN",
        "streetDirectionId": null,
        "streetTypeId": "RD",
        "placeName": "BLACKSTOCK",
        "streetNameDisplayText": "WOTTEN RD, BLACKSTOCK"
      }
    ]
  },
  {
    "postal": "L0B1C0",
    "result": []
  },
  {
    "postal": "L0B1E0",
    "result": [
      {
        "electoralDistricts": [
          {
            "election": null,
            "id": 24,
            "name": "Durham"
          }
        ],
        "pollDivisionIds": [
          10137832
        ],
        "postalCode": "L0B1E0",
        "streetName": "42ND",
        "streetDirectionId": null,
        "streetTypeId": "ST",
        "placeName": "CAESAREA",
        "streetNameDisplayText": "42ND ST, CAESAREA"
      },
      {
        "electoralDistricts": [
          {
            "election": null,
            "id": 24,
            "name": "Durham"
          }
        ],
        "pollDivisionIds": [
          10137832
        ],
        "postalCode": "L0B1E0",
        "streetName": "ANGLE",
        "streetDirectionId": null,
        "streetTypeId": "ST",
        "placeName": "CAESAREA",
        "streetNameDisplayText": "ANGLE ST, CAESAREA"
      },
      {
        "electoralDistricts": [
          {
            "election": null,
            "id": 24,
            "name": "Durham"
          }
        ],
        "pollDivisionIds": [
          10137832
        ],
        "postalCode": "L0B1E0",
        "streetName": "BAYVIEW",
        "streetDirectionId": null,
        "streetTypeId": "CRES",
        "placeName": "CAESAREA",
        "streetNameDisplayText": "BAYVIEW CRES, CAESAREA"
      },
      {
        "electoralDistricts": [
          {
            "election": null,
            "id": 24,
            "name": "Durham"
          }
        ],
        "pollDivisionIds": [
          10137832
        ],
        "postalCode": "L0B1E0",
        "streetName": "CEDAR GROVE",
        "streetDirectionId": null,
        "streetTypeId": "DR",
        "placeName": "CAESAREA",
        "streetNameDisplayText": "CEDAR GROVE DR, CAESAREA"
      },
      {
        "electoralDistricts": [
          {
            "election": null,
            "id": 24,
            "name": "Durham"
          }
        ],
        "pollDivisionIds": [
          10137832
        ],
        "postalCode": "L0B1E0",
        "streetName": "CENTRE",
        "streetDirectionId": null,
        "streetTypeId": "LANE",
        "placeName": "CAESAREA",
        "streetNameDisplayText": "CENTRE LANE, CAESAREA"
      },
      {
        "electoralDistricts": [
          {
            "election": null,
            "id": 24,
            "name": "Durham"
          }
        ],
        "pollDivisionIds": [
          10137832
        ],
        "postalCode": "L0B1E0",
        "streetName": "CENTRE",
        "streetDirectionId": null,
        "streetTypeId": "ST",
        "placeName": "CAESAREA",
        "streetNameDisplayText": "CENTRE ST, CAESAREA"
      },
      {
        "electoralDistricts": [
          {
            "election": null,
            "id": 24,
            "name": "Durham"
          }
        ],
        "pollDivisionIds": [
          10137832
        ],
        "postalCode": "L0B1E0",
        "streetName": "DOVER",
        "streetDirectionId": null,
        "streetTypeId": "LANE",
        "placeName": "CAESAREA",
        "streetNameDisplayText": "DOVER LANE, CAESAREA"
      },
      {
        "electoralDistricts": [
          {
            "election": null,
            "id": 24,
            "name": "Durham"
          }
        ],
        "pollDivisionIds": [
          10137832
        ],
        "postalCode": "L0B1E0",
        "streetName": "FIRST",
        "streetDirectionId": null,
        "streetTypeId": "ST",
        "placeName": "CAESAREA",
        "streetNameDisplayText": "FIRST ST, CAESAREA"
      },
      {
        "electoralDistricts": [
          {
            "election": null,
            "id": 24,
            "name": "Durham"
          }
        ],
        "pollDivisionIds": [
          10137832
        ],
        "postalCode": "L0B1E0",
        "streetName": "HERITAGE",
        "streetDirectionId": null,
        "streetTypeId": "LANE",
        "placeName": "CAESAREA",
        "streetNameDisplayText": "HERITAGE LANE, CAESAREA"
      },
      {
        "electoralDistricts": [
          {
            "election": null,
            "id": 24,
            "name": "Durham"
          }
        ],
        "pollDivisionIds": [
          10137832
        ],
        "postalCode": "L0B1E0",
        "streetName": "HERON",
        "streetDirectionId": null,
        "streetTypeId": "ST",
        "placeName": "CAESAREA",
        "streetNameDisplayText": "HERON ST, CAESAREA"
      },
      {
        "electoralDistricts": [
          {
            "election": null,
            "id": 24,
            "name": "Durham"
          }
        ],
        "pollDivisionIds": [
          10137832
        ],
        "postalCode": "L0B1E0",
        "streetName": "HIAWATHA",
        "streetDirectionId": null,
        "streetTypeId": "BLVD",
        "placeName": "CAESAREA",
        "streetNameDisplayText": "HIAWATHA BLVD, CAESAREA"
      },
      {
        "electoralDistricts": [
          {
            "election": null,
            "id": 24,
            "name": "Durham"
          }
        ],
        "pollDivisionIds": [
          10137832
        ],
        "postalCode": "L0B1E0",
        "streetName": "JACK RABBIT",
        "streetDirectionId": null,
        "streetTypeId": "RUN",
        "placeName": "CAESAREA",
        "streetNameDisplayText": "JACK RABBIT RUN, CAESAREA"
      },
      {
        "electoralDistricts": [
          {
            "election": null,
            "id": 24,
            "name": "Durham"
          }
        ],
        "pollDivisionIds": [
          10137832
        ],
        "postalCode": "L0B1E0",
        "streetName": "LAKEVIEW",
        "streetDirectionId": null,
        "streetTypeId": "AVE",
        "placeName": "CAESAREA",
        "streetNameDisplayText": "LAKEVIEW AVE, CAESAREA"
      },
      {
        "electoralDistricts": [
          {
            "election": null,
            "id": 24,
            "name": "Durham"
          }
        ],
        "pollDivisionIds": [
          10137832
        ],
        "postalCode": "L0B1E0",
        "streetName": "MARINA",
        "streetDirectionId": null,
        "streetTypeId": "DR",
        "placeName": "CAESAREA",
        "streetNameDisplayText": "MARINA DR, CAESAREA"
      },
      {
        "electoralDistricts": [
          {
            "election": null,
            "id": 24,
            "name": "Durham"
          }
        ],
        "pollDivisionIds": [
          10137832
        ],
        "postalCode": "L0B1E0",
        "streetName": "PARK HILL",
        "streetDirectionId": null,
        "streetTypeId": "AVE",
        "placeName": "CAESAREA",
        "streetNameDisplayText": "PARK HILL AVE, CAESAREA"
      },
      {
        "electoralDistricts": [
          {
            "election": null,
            "id": 24,
            "name": "Durham"
          }
        ],
        "pollDivisionIds": [
          10137832
        ],
        "postalCode": "L0B1E0",
        "streetName": "PARK",
        "streetDirectionId": null,
        "streetTypeId": "ST",
        "placeName": "CAESAREA",
        "streetNameDisplayText": "PARK ST, CAESAREA"
      },
      {
        "electoralDistricts": [
          {
            "election": null,
            "id": 24,
            "name": "Durham"
          }
        ],
        "pollDivisionIds": [
          10137832
        ],
        "postalCode": "L0B1E0",
        "streetName": "PIER",
        "streetDirectionId": null,
        "streetTypeId": "ST",
        "placeName": "CAESAREA",
        "streetNameDisplayText": "PIER ST, CAESAREA"
      },
      {
        "electoralDistricts": [
          {
            "election": null,
            "id": 24,
            "name": "Durham"
          }
        ],
        "pollDivisionIds": [
          10137832
        ],
        "postalCode": "L0B1E0",
        "streetName": "PINE",
        "streetDirectionId": null,
        "streetTypeId": "ST",
        "placeName": "CAESAREA",
        "streetNameDisplayText": "PINE ST, CAESAREA"
      },
      {
        "electoralDistricts": [
          {
            "election": null,
            "id": 24,
            "name": "Durham"
          }
        ],
        "pollDivisionIds": [
          10137832
        ],
        "postalCode": "L0B1E0",
        "streetName": "PLEASANT VIEW",
        "streetDirectionId": null,
        "streetTypeId": "AVE",
        "placeName": "CAESAREA",
        "streetNameDisplayText": "PLEASANT VIEW AVE, CAESAREA"
      },
      {
        "electoralDistricts": [
          {
            "election": null,
            "id": 24,
            "name": "Durham"
          }
        ],
        "pollDivisionIds": [
          10137832
        ],
        "postalCode": "L0B1E0",
        "streetName": "POTTS",
        "streetDirectionId": null,
        "streetTypeId": "LANE",
        "placeName": "CAESAREA",
        "streetNameDisplayText": "POTTS LANE, CAESAREA"
      },
      {
        "electoralDistricts": [
          {
            "election": null,
            "id": 24,
            "name": "Durham"
          }
        ],
        "pollDivisionIds": [
          10137832
        ],
        "postalCode": "L0B1E0",
        "streetName": "PUTSEY",
        "streetDirectionId": null,
        "streetTypeId": "DR",
        "placeName": "CAESAREA",
        "streetNameDisplayText": "PUTSEY DR, CAESAREA"
      },
      {
        "electoralDistricts": [
          {
            "election": null,
            "id": 24,
            "name": "Durham"
          }
        ],
        "pollDivisionIds": [
          10137832
        ],
        "postalCode": "L0B1E0",
        "streetName": "REGIONAL 57",
        "streetDirectionId": null,
        "streetTypeId": "RD",
        "placeName": "CAESAREA",
        "streetNameDisplayText": "REGIONAL 57 RD, CAESAREA"
      },
      {
        "electoralDistricts": [
          {
            "election": null,
            "id": 24,
            "name": "Durham"
          }
        ],
        "pollDivisionIds": [
          10137832
        ],
        "postalCode": "L0B1E0",
        "streetName": "REGIONAL 57",
        "streetDirectionId": null,
        "streetTypeId": "RD",
        "placeName": "NESTLETON STATION",
        "streetNameDisplayText": "REGIONAL 57 RD, NESTLETON STATION"
      },
      {
        "electoralDistricts": [
          {
            "election": null,
            "id": 24,
            "name": "Durham"
          }
        ],
        "pollDivisionIds": [
          10137831
        ],
        "postalCode": "L0B1E0",
        "streetName": "REGIONAL RD 57",
        "streetDirectionId": null,
        "streetTypeId": null,
        "placeName": "CAESAREA",
        "streetNameDisplayText": "REGIONAL RD 57, CAESAREA"
      },
      {
        "electoralDistricts": [
          {
            "election": null,
            "id": 24,
            "name": "Durham"
          }
        ],
        "pollDivisionIds": [
          10137832
        ],
        "postalCode": "L0B1E0",
        "streetName": "ROWAN",
        "streetDirectionId": null,
        "streetTypeId": "AVE",
        "placeName": "CAESAREA",
        "streetNameDisplayText": "ROWAN AVE, CAESAREA"
      },
      {
        "electoralDistricts": [
          {
            "election": null,
            "id": 24,
            "name": "Durham"
          }
        ],
        "pollDivisionIds": [
          10137832
        ],
        "postalCode": "L0B1E0",
        "streetName": "SHADY ACRES",
        "streetDirectionId": null,
        "streetTypeId": "AVE",
        "placeName": "CAESAREA",
        "streetNameDisplayText": "SHADY ACRES AVE, CAESAREA"
      },
      {
        "electoralDistricts": [
          {
            "election": null,
            "id": 24,
            "name": "Durham"
          }
        ],
        "pollDivisionIds": [
          10137832
        ],
        "postalCode": "L0B1E0",
        "streetName": "SUMMIT",
        "streetDirectionId": null,
        "streetTypeId": "DR",
        "placeName": "CAESAREA",
        "streetNameDisplayText": "SUMMIT DR, CAESAREA"
      },
      {
        "electoralDistricts": [
          {
            "election": null,
            "id": 24,
            "name": "Durham"
          }
        ],
        "pollDivisionIds": [
          10137832
        ],
        "postalCode": "L0B1E0",
        "streetName": "SUNSET",
        "streetDirectionId": null,
        "streetTypeId": "BLVD",
        "placeName": "CAESAREA",
        "streetNameDisplayText": "SUNSET BLVD, CAESAREA"
      },
      {
        "electoralDistricts": [
          {
            "election": null,
            "id": 24,
            "name": "Durham"
          }
        ],
        "pollDivisionIds": [
          10137832
        ],
        "postalCode": "L0B1E0",
        "streetName": "WILLIAMS POINT",
        "streetDirectionId": null,
        "streetTypeId": "RD",
        "placeName": "CAESAREA",
        "streetNameDisplayText": "WILLIAMS POINT RD, CAESAREA"
      }
    ]
  },
  {
    "postal": "L0B1J0",
    "result": [
      {
        "electoralDistricts": [
          {
            "election": null,
            "id": 24,
            "name": "Durham"
          }
        ],
        "pollDivisionIds": [
          10137835
        ],
        "postalCode": "L0B1J0",
        "streetName": "ALLAN WEARN",
        "streetDirectionId": null,
        "streetTypeId": "ST",
        "placeName": "HAMPTON",
        "streetNameDisplayText": "ALLAN WEARN ST, HAMPTON"
      },
      {
        "electoralDistricts": [
          {
            "election": null,
            "id": 24,
            "name": "Durham"
          }
        ],
        "pollDivisionIds": [
          10137834
        ],
        "postalCode": "L0B1J0",
        "streetName": "BAKER SCHOOL",
        "streetDirectionId": null,
        "streetTypeId": "RD",
        "placeName": "HAMPTON",
        "streetNameDisplayText": "BAKER SCHOOL RD, HAMPTON"
      },
      {
        "electoralDistricts": [
          {
            "election": null,
            "id": 24,
            "name": "Durham"
          }
        ],
        "pollDivisionIds": [
          10137834
        ],
        "postalCode": "L0B1J0",
        "streetName": "BARTON",
        "streetDirectionId": null,
        "streetTypeId": "RD",
        "placeName": "HAMPTON",
        "streetNameDisplayText": "BARTON RD, HAMPTON"
      },
      {
        "electoralDistricts": [
          {
            "election": null,
            "id": 24,
            "name": "Durham"
          }
        ],
        "pollDivisionIds": [
          10137834
        ],
        "postalCode": "L0B1J0",
        "streetName": "BICE",
        "streetDirectionId": null,
        "streetTypeId": "CRT",
        "placeName": "HAMPTON",
        "streetNameDisplayText": "BICE CRT, HAMPTON"
      },
      {
        "electoralDistricts": [
          {
            "election": null,
            "id": 24,
            "name": "Durham"
          }
        ],
        "pollDivisionIds": [
          10137835
        ],
        "postalCode": "L0B1J0",
        "streetName": "BOWMANVILLE",
        "streetDirectionId": null,
        "streetTypeId": "AVE",
        "placeName": "HAMPTON",
        "streetNameDisplayText": "BOWMANVILLE AVE, HAMPTON"
      },
      {
        "electoralDistricts": [
          {
            "election": null,
            "id": 24,
            "name": "Durham"
          }
        ],
        "pollDivisionIds": [
          10137838
        ],
        "postalCode": "L0B1J0",
        "streetName": "BRADLEY",
        "streetDirectionId": null,
        "streetTypeId": "BLVD",
        "placeName": "HAMPTON",
        "streetNameDisplayText": "BRADLEY BLVD, HAMPTON"
      },
      {
        "electoralDistricts": [
          {
            "election": null,
            "id": 24,
            "name": "Durham"
          }
        ],
        "pollDivisionIds": [
          10137834
        ],
        "postalCode": "L0B1J0",
        "streetName": "CONCESSION 6",
        "streetDirectionId": null,
        "streetTypeId": "RD",
        "placeName": "HAMPTON",
        "streetNameDisplayText": "CONCESSION 6 RD, HAMPTON"
      },
      {
        "electoralDistricts": [
          {
            "election": null,
            "id": 24,
            "name": "Durham"
          }
        ],
        "pollDivisionIds": [
          10137835,
          10137834
        ],
        "postalCode": "L0B1J0",
        "streetName": "CONCESSION 7",
        "streetDirectionId": null,
        "streetTypeId": "RD",
        "placeName": "HAMPTON",
        "streetNameDisplayText": "CONCESSION 7 RD, HAMPTON"
      },
      {
        "electoralDistricts": [
          {
            "election": null,
            "id": 24,
            "name": "Durham"
          }
        ],
        "pollDivisionIds": [
          10137835
        ],
        "postalCode": "L0B1J0",
        "streetName": "CONCESSION 9",
        "streetDirectionId": null,
        "streetTypeId": "RD",
        "placeName": "HAMPTON",
        "streetNameDisplayText": "CONCESSION 9 RD, HAMPTON"
      },
      {
        "electoralDistricts": [
          {
            "election": null,
            "id": 24,
            "name": "Durham"
          }
        ],
        "pollDivisionIds": [
          10137834
        ],
        "postalCode": "L0B1J0",
        "streetName": "CONCESSION RD 6",
        "streetDirectionId": null,
        "streetTypeId": null,
        "placeName": "HAMPTON",
        "streetNameDisplayText": "CONCESSION RD 6, HAMPTON"
      },
      {
        "electoralDistricts": [
          {
            "election": null,
            "id": 24,
            "name": "Durham"
          }
        ],
        "pollDivisionIds": [
          10137834
        ],
        "postalCode": "L0B1J0",
        "streetName": "CONCESSION RD 7",
        "streetDirectionId": null,
        "streetTypeId": null,
        "placeName": "HAMPTON",
        "streetNameDisplayText": "CONCESSION RD 7, HAMPTON"
      },
      {
        "electoralDistricts": [
          {
            "election": null,
            "id": 24,
            "name": "Durham"
          }
        ],
        "pollDivisionIds": [
          10137838,
          10137837
        ],
        "postalCode": "L0B1J0",
        "streetName": "COURTICE",
        "streetDirectionId": null,
        "streetTypeId": "RD",
        "placeName": "HAMPTON",
        "streetNameDisplayText": "COURTICE RD, HAMPTON"
      },
      {
        "electoralDistricts": [
          {
            "election": null,
            "id": 24,
            "name": "Durham"
          }
        ],
        "pollDivisionIds": [
          10137834
        ],
        "postalCode": "L0B1J0",
        "streetName": "DAVIS",
        "streetDirectionId": null,
        "streetTypeId": "CRT",
        "placeName": "HAMPTON",
        "streetNameDisplayText": "DAVIS CRT, HAMPTON"
      },
      {
        "electoralDistricts": [
          {
            "election": null,
            "id": 24,
            "name": "Durham"
          }
        ],
        "pollDivisionIds": [
          10137834
        ],
        "postalCode": "L0B1J0",
        "streetName": "DORSET",
        "streetDirectionId": null,
        "streetTypeId": "ST",
        "placeName": "HAMPTON",
        "streetNameDisplayText": "DORSET ST, HAMPTON"
      },
      {
        "electoralDistricts": [
          {
            "election": null,
            "id": 24,
            "name": "Durham"
          }
        ],
        "pollDivisionIds": [
          10137834
        ],
        "postalCode": "L0B1J0",
        "streetName": "EAGLE",
        "streetDirectionId": null,
        "streetTypeId": "CRT",
        "placeName": "HAMPTON",
        "streetNameDisplayText": "EAGLE CRT, HAMPTON"
      },
      {
        "electoralDistricts": [
          {
            "election": null,
            "id": 24,
            "name": "Durham"
          }
        ],
        "pollDivisionIds": [
          10137836
        ],
        "postalCode": "L0B1J0",
        "streetName": "EDMONSON",
        "streetDirectionId": null,
        "streetTypeId": "AVE",
        "placeName": "HAMPTON",
        "streetNameDisplayText": "EDMONSON AVE, HAMPTON"
      },
      {
        "electoralDistricts": [
          {
            "election": null,
            "id": 24,
            "name": "Durham"
          }
        ],
        "pollDivisionIds": [
          10137836
        ],
        "postalCode": "L0B1J0",
        "streetName": "ELGIN",
        "streetDirectionId": null,
        "streetTypeId": "LANE",
        "placeName": "HAMPTON",
        "streetNameDisplayText": "ELGIN LANE, HAMPTON"
      },
      {
        "electoralDistricts": [
          {
            "election": null,
            "id": 24,
            "name": "Durham"
          }
        ],
        "pollDivisionIds": [
          10137835
        ],
        "postalCode": "L0B1J0",
        "streetName": "ELLA MAE",
        "streetDirectionId": null,
        "streetTypeId": "LANE",
        "placeName": "HAMPTON",
        "streetNameDisplayText": "ELLA MAE LANE, HAMPTON"
      },
      {
        "electoralDistricts": [
          {
            "election": null,
            "id": 24,
            "name": "Durham"
          }
        ],
        "pollDivisionIds": [
          10137834
        ],
        "postalCode": "L0B1J0",
        "streetName": "ENFIELD",
        "streetDirectionId": null,
        "streetTypeId": "RD",
        "placeName": "HAMPTON",
        "streetNameDisplayText": "ENFIELD RD, HAMPTON"
      },
      {
        "electoralDistricts": [
          {
            "election": null,
            "id": 24,
            "name": "Durham"
          }
        ],
        "pollDivisionIds": [
          10137838
        ],
        "postalCode": "L0B1J0",
        "streetName": "FIRNER",
        "streetDirectionId": null,
        "streetTypeId": "ST",
        "placeName": "HAMPTON",
        "streetNameDisplayText": "FIRNER ST, HAMPTON"
      },
      {
        "electoralDistricts": [
          {
            "election": null,
            "id": 24,
            "name": "Durham"
          }
        ],
        "pollDivisionIds": [
          10137836
        ],
        "postalCode": "L0B1J0",
        "streetName": "GREEN",
        "streetDirectionId": null,
        "streetTypeId": "RD",
        "placeName": "HAMPTON",
        "streetNameDisplayText": "GREEN RD, HAMPTON"
      },
      {
        "electoralDistricts": [
          {
            "election": null,
            "id": 24,
            "name": "Durham"
          }
        ],
        "pollDivisionIds": [
          10137837
        ],
        "postalCode": "L0B1J0",
        "streetName": "HANCOCK",
        "streetDirectionId": null,
        "streetTypeId": "RD",
        "placeName": "HAMPTON",
        "streetNameDisplayText": "HANCOCK RD, HAMPTON"
      },
      {
        "electoralDistricts": [
          {
            "election": null,
            "id": 24,
            "name": "Durham"
          }
        ],
        "pollDivisionIds": [
          10137834
        ],
        "postalCode": "L0B1J0",
        "streetName": "HILLSIDE",
        "streetDirectionId": null,
        "streetTypeId": "CRT",
        "placeName": "HAMPTON",
        "streetNameDisplayText": "HILLSIDE CRT, HAMPTON"
      },
      {
        "electoralDistricts": [
          {
            "election": null,
            "id": 24,
            "name": "Durham"
          }
        ],
        "pollDivisionIds": [
          10137834
        ],
        "postalCode": "L0B1J0",
        "streetName": "HILLSIDE",
        "streetDirectionId": null,
        "streetTypeId": "DR",
        "placeName": "HAMPTON",
        "streetNameDisplayText": "HILLSIDE DR, HAMPTON"
      },
      {
        "electoralDistricts": [
          {
            "election": null,
            "id": 24,
            "name": "Durham"
          }
        ],
        "pollDivisionIds": [
          10137834
        ],
        "postalCode": "L0B1J0",
        "streetName": "HOCKADAY",
        "streetDirectionId": null,
        "streetTypeId": "CRT",
        "placeName": "HAMPTON",
        "streetNameDisplayText": "HOCKADAY CRT, HAMPTON"
      },
      {
        "electoralDistricts": [
          {
            "election": null,
            "id": 24,
            "name": "Durham"
          }
        ],
        "pollDivisionIds": [
          10137836,
          10137834
        ],
        "postalCode": "L0B1J0",
        "streetName": "HOLT",
        "streetDirectionId": null,
        "streetTypeId": "RD",
        "placeName": "HAMPTON",
        "streetNameDisplayText": "HOLT RD, HAMPTON"
      },
      {
        "electoralDistricts": [
          {
            "election": null,
            "id": 24,
            "name": "Durham"
          }
        ],
        "pollDivisionIds": [
          10137836
        ],
        "postalCode": "L0B1J0",
        "streetName": "KING",
        "streetDirectionId": null,
        "streetTypeId": "LANE",
        "placeName": "HAMPTON",
        "streetNameDisplayText": "KING LANE, HAMPTON"
      },
      {
        "electoralDistricts": [
          {
            "election": null,
            "id": 24,
            "name": "Durham"
          }
        ],
        "pollDivisionIds": [
          10137834
        ],
        "postalCode": "L0B1J0",
        "streetName": "LANGMAID",
        "streetDirectionId": null,
        "streetTypeId": "RD",
        "placeName": "HAMPTON",
        "streetNameDisplayText": "LANGMAID RD, HAMPTON"
      },
      {
        "electoralDistricts": [
          {
            "election": null,
            "id": 24,
            "name": "Durham"
          }
        ],
        "pollDivisionIds": [
          10137836
        ],
        "postalCode": "L0B1J0",
        "streetName": "LIBERTY",
        "streetDirectionId": null,
        "streetTypeId": "ST",
        "placeName": "HAMPTON",
        "streetNameDisplayText": "LIBERTY ST, HAMPTON"
      },
      {
        "electoralDistricts": [
          {
            "election": null,
            "id": 24,
            "name": "Durham"
          }
        ],
        "pollDivisionIds": [
          10137834
        ],
        "postalCode": "L0B1J0",
        "streetName": "LIMMIMAN",
        "streetDirectionId": null,
        "streetTypeId": "CRT",
        "placeName": "HAMPTON",
        "streetNameDisplayText": "LIMMIMAN CRT, HAMPTON"
      },
      {
        "electoralDistricts": [
          {
            "election": null,
            "id": 24,
            "name": "Durham"
          }
        ],
        "pollDivisionIds": [
          10137835
        ],
        "postalCode": "L0B1J0",
        "streetName": "LIONEL BYAM",
        "streetDirectionId": null,
        "streetTypeId": "DR",
        "placeName": "HAMPTON",
        "streetNameDisplayText": "LIONEL BYAM DR, HAMPTON"
      },
      {
        "electoralDistricts": [
          {
            "election": null,
            "id": 24,
            "name": "Durham"
          }
        ],
        "pollDivisionIds": [
          10137835
        ],
        "postalCode": "L0B1J0",
        "streetName": "LONGSAULT",
        "streetDirectionId": null,
        "streetTypeId": "RD",
        "placeName": "HAMPTON",
        "streetNameDisplayText": "LONGSAULT RD, HAMPTON"
      },
      {
        "electoralDistricts": [
          {
            "election": null,
            "id": 24,
            "name": "Durham"
          }
        ],
        "pollDivisionIds": [
          10137836
        ],
        "postalCode": "L0B1J0",
        "streetName": "MAPLE GROVE",
        "streetDirectionId": null,
        "streetTypeId": "RD",
        "placeName": "HAMPTON",
        "streetNameDisplayText": "MAPLE GROVE RD, HAMPTON"
      },
      {
        "electoralDistricts": [
          {
            "election": null,
            "id": 24,
            "name": "Durham"
          }
        ],
        "pollDivisionIds": [
          10137836
        ],
        "postalCode": "L0B1J0",
        "streetName": "MCCALLUM",
        "streetDirectionId": null,
        "streetTypeId": "ST",
        "placeName": "HAMPTON",
        "streetNameDisplayText": "MCCALLUM ST, HAMPTON"
      },
      {
        "electoralDistricts": [
          {
            "election": null,
            "id": 24,
            "name": "Durham"
          }
        ],
        "pollDivisionIds": [
          10137836
        ],
        "postalCode": "L0B1J0",
        "streetName": "MILLSTREAM",
        "streetDirectionId": null,
        "streetTypeId": "LANE",
        "placeName": "HAMPTON",
        "streetNameDisplayText": "MILLSTREAM LANE, HAMPTON"
      },
      {
        "electoralDistricts": [
          {
            "election": null,
            "id": 24,
            "name": "Durham"
          }
        ],
        "pollDivisionIds": [
          10137836
        ],
        "postalCode": "L0B1J0",
        "streetName": "MILLVILLE",
        "streetDirectionId": null,
        "streetTypeId": "AVE",
        "placeName": "HAMPTON",
        "streetNameDisplayText": "MILLVILLE AVE, HAMPTON"
      },
      {
        "electoralDistricts": [
          {
            "election": null,
            "id": 24,
            "name": "Durham"
          }
        ],
        "pollDivisionIds": [
          10137836
        ],
        "postalCode": "L0B1J0",
        "streetName": "NORTH DIVISION",
        "streetDirectionId": "N",
        "streetTypeId": "ST",
        "placeName": "HAMPTON",
        "streetNameDisplayText": "NORTH DIVISION ST N, HAMPTON"
      },
      {
        "electoralDistricts": [
          {
            "election": null,
            "id": 24,
            "name": "Durham"
          }
        ],
        "pollDivisionIds": [
          10137834
        ],
        "postalCode": "L0B1J0",
        "streetName": "ODLUM",
        "streetDirectionId": null,
        "streetTypeId": "ST",
        "placeName": "HAMPTON",
        "streetNameDisplayText": "ODLUM ST, HAMPTON"
      },
      {
        "electoralDistricts": [
          {
            "election": null,
            "id": 24,
            "name": "Durham"
          }
        ],
        "pollDivisionIds": [
          10137836,
          10137835
        ],
        "postalCode": "L0B1J0",
        "streetName": "OLD SCUGOG",
        "streetDirectionId": null,
        "streetTypeId": "RD",
        "placeName": "HAMPTON",
        "streetNameDisplayText": "OLD SCUGOG RD, HAMPTON"
      },
      {
        "electoralDistricts": [
          {
            "election": null,
            "id": 24,
            "name": "Durham"
          }
        ],
        "pollDivisionIds": [
          10137836
        ],
        "postalCode": "L0B1J0",
        "streetName": "ORMISTON",
        "streetDirectionId": null,
        "streetTypeId": "LANE",
        "placeName": "HAMPTON",
        "streetNameDisplayText": "ORMISTON LANE, HAMPTON"
      },
      {
        "electoralDistricts": [
          {
            "election": null,
            "id": 24,
            "name": "Durham"
          }
        ],
        "pollDivisionIds": [
          10137836
        ],
        "postalCode": "L0B1J0",
        "streetName": "ORMISTON",
        "streetDirectionId": null,
        "streetTypeId": "ST",
        "placeName": "HAMPTON",
        "streetNameDisplayText": "ORMISTON ST, HAMPTON"
      },
      {
        "electoralDistricts": [
          {
            "election": null,
            "id": 24,
            "name": "Durham"
          }
        ],
        "pollDivisionIds": [
          10137836
        ],
        "postalCode": "L0B1J0",
        "streetName": "PERRY",
        "streetDirectionId": null,
        "streetTypeId": "AVE",
        "placeName": "HAMPTON",
        "streetNameDisplayText": "PERRY AVE, HAMPTON"
      },
      {
        "electoralDistricts": [
          {
            "election": null,
            "id": 24,
            "name": "Durham"
          }
        ],
        "pollDivisionIds": [
          10137835
        ],
        "postalCode": "L0B1J0",
        "streetName": "POTTERS",
        "streetDirectionId": null,
        "streetTypeId": "LANE",
        "placeName": "HAMPTON",
        "streetNameDisplayText": "POTTERS LANE, HAMPTON"
      },
      {
        "electoralDistricts": [
          {
            "election": null,
            "id": 24,
            "name": "Durham"
          }
        ],
        "pollDivisionIds": [
          10137835
        ],
        "postalCode": "L0B1J0",
        "streetName": "REGIONAL 20",
        "streetDirectionId": null,
        "streetTypeId": "RD",
        "placeName": "BOWMANVILLE",
        "streetNameDisplayText": "REGIONAL 20 RD, BOWMANVILLE"
      },
      {
        "electoralDistricts": [
          {
            "election": null,
            "id": 24,
            "name": "Durham"
          }
        ],
        "pollDivisionIds": [
          10137834,
          10137835
        ],
        "postalCode": "L0B1J0",
        "streetName": "REGIONAL 3",
        "streetDirectionId": null,
        "streetTypeId": "RD",
        "placeName": "HAMPTON",
        "streetNameDisplayText": "REGIONAL 3 RD, HAMPTON"
      },
      {
        "electoralDistricts": [
          {
            "election": null,
            "id": 24,
            "name": "Durham"
          }
        ],
        "pollDivisionIds": [
          10137834
        ],
        "postalCode": "L0B1J0",
        "streetName": "REGIONAL 34",
        "streetDirectionId": null,
        "streetTypeId": "RD",
        "placeName": "HAMPTON",
        "streetNameDisplayText": "REGIONAL 34 RD, HAMPTON"
      },
      {
        "electoralDistricts": [
          {
            "election": null,
            "id": 24,
            "name": "Durham"
          }
        ],
        "pollDivisionIds": [
          10137829
        ],
        "postalCode": "L0B1J0",
        "streetName": "REGIONAL 57",
        "streetDirectionId": null,
        "streetTypeId": "RD",
        "placeName": "BOWMANVILLE",
        "streetNameDisplayText": "REGIONAL 57 RD, BOWMANVILLE"
      },
      {
        "electoralDistricts": [
          {
            "election": null,
            "id": 24,
            "name": "Durham"
          }
        ],
        "pollDivisionIds": [
          10137835
        ],
        "postalCode": "L0B1J0",
        "streetName": "REGIONAL 57",
        "streetDirectionId": null,
        "streetTypeId": "RD",
        "placeName": "HAMPTON",
        "streetNameDisplayText": "REGIONAL 57 RD, HAMPTON"
      },
      {
        "electoralDistricts": [
          {
            "election": null,
            "id": 24,
            "name": "Durham"
          }
        ],
        "pollDivisionIds": [
          10137829
        ],
        "postalCode": "L0B1J0",
        "streetName": "REGIONAL RD 57",
        "streetDirectionId": null,
        "streetTypeId": null,
        "placeName": "CLARINGTON",
        "streetNameDisplayText": "REGIONAL RD 57, CLARINGTON"
      },
      {
        "electoralDistricts": [
          {
            "election": null,
            "id": 24,
            "name": "Durham"
          }
        ],
        "pollDivisionIds": [
          10137835
        ],
        "postalCode": "L0B1J0",
        "streetName": "REGIONAL ROAD #57",
        "streetDirectionId": null,
        "streetTypeId": "RD",
        "placeName": "CLARINGTON",
        "streetNameDisplayText": "REGIONAL ROAD #57 RD, CLARINGTON"
      },
      {
        "electoralDistricts": [
          {
            "election": null,
            "id": 24,
            "name": "Durham"
          }
        ],
        "pollDivisionIds": [
          10137835
        ],
        "postalCode": "L0B1J0",
        "streetName": "REGIONAL ROAD 3",
        "streetDirectionId": null,
        "streetTypeId": null,
        "placeName": "CLARINGTON",
        "streetNameDisplayText": "REGIONAL ROAD 3, CLARINGTON"
      },
      {
        "electoralDistricts": [
          {
            "election": null,
            "id": 24,
            "name": "Durham"
          }
        ],
        "pollDivisionIds": [
          10137835
        ],
        "postalCode": "L0B1J0",
        "streetName": "REGIONAL ROAD 57",
        "streetDirectionId": null,
        "streetTypeId": "RD",
        "placeName": "CLARINGTON",
        "streetNameDisplayText": "REGIONAL ROAD 57 RD, CLARINGTON"
      },
      {
        "electoralDistricts": [
          {
            "election": null,
            "id": 24,
            "name": "Durham"
          }
        ],
        "pollDivisionIds": [
          10137837,
          10137834
        ],
        "postalCode": "L0B1J0",
        "streetName": "RUNDLE",
        "streetDirectionId": null,
        "streetTypeId": "RD",
        "placeName": "HAMPTON",
        "streetNameDisplayText": "RUNDLE RD, HAMPTON"
      },
      {
        "electoralDistricts": [
          {
            "election": null,
            "id": 24,
            "name": "Durham"
          }
        ],
        "pollDivisionIds": [
          10137835
        ],
        "postalCode": "L0B1J0",
        "streetName": "SALTER",
        "streetDirectionId": null,
        "streetTypeId": "CRT",
        "placeName": "HAMPTON",
        "streetNameDisplayText": "SALTER CRT, HAMPTON"
      },
      {
        "electoralDistricts": [
          {
            "election": null,
            "id": 24,
            "name": "Durham"
          }
        ],
        "pollDivisionIds": [
          10137834
        ],
        "postalCode": "L0B1J0",
        "streetName": "SOLINA",
        "streetDirectionId": "N",
        "streetTypeId": "RD",
        "placeName": "HAMPTON",
        "streetNameDisplayText": "SOLINA RD N, HAMPTON"
      },
      {
        "electoralDistricts": [
          {
            "election": null,
            "id": 24,
            "name": "Durham"
          }
        ],
        "pollDivisionIds": [
          10137837,
          10137834
        ],
        "postalCode": "L0B1J0",
        "streetName": "SOLINA",
        "streetDirectionId": null,
        "streetTypeId": "RD",
        "placeName": "HAMPTON",
        "streetNameDisplayText": "SOLINA RD, HAMPTON"
      },
      {
        "electoralDistricts": [
          {
            "election": null,
            "id": 24,
            "name": "Durham"
          }
        ],
        "pollDivisionIds": [
          10137834
        ],
        "postalCode": "L0B1J0",
        "streetName": "SUNNY RIDGE",
        "streetDirectionId": null,
        "streetTypeId": "TRAIL",
        "placeName": "HAMPTON",
        "streetNameDisplayText": "SUNNY RIDGE TRAIL, HAMPTON"
      },
      {
        "electoralDistricts": [
          {
            "election": null,
            "id": 24,
            "name": "Durham"
          }
        ],
        "pollDivisionIds": [
          10137836
        ],
        "postalCode": "L0B1J0",
        "streetName": "TAUNTON",
        "streetDirectionId": "E",
        "streetTypeId": "RD",
        "placeName": "HAMPTON",
        "streetNameDisplayText": "TAUNTON RD E, HAMPTON"
      },
      {
        "electoralDistricts": [
          {
            "election": null,
            "id": 24,
            "name": "Durham"
          }
        ],
        "pollDivisionIds": [
          10137837,
          10137838,
          10137834,
          10137836
        ],
        "postalCode": "L0B1J0",
        "streetName": "TAUNTON",
        "streetDirectionId": null,
        "streetTypeId": "RD",
        "placeName": "HAMPTON",
        "streetNameDisplayText": "TAUNTON RD, HAMPTON"
      },
      {
        "electoralDistricts": [
          {
            "election": null,
            "id": 24,
            "name": "Durham"
          }
        ],
        "pollDivisionIds": [
          10137838
        ],
        "postalCode": "L0B1J0",
        "streetName": "TRULLS",
        "streetDirectionId": "N",
        "streetTypeId": "RD",
        "placeName": "HAMPTON",
        "streetNameDisplayText": "TRULLS RD N, HAMPTON"
      },
      {
        "electoralDistricts": [
          {
            "election": null,
            "id": 24,
            "name": "Durham"
          }
        ],
        "pollDivisionIds": [
          10137838
        ],
        "postalCode": "L0B1J0",
        "streetName": "TRULLS",
        "streetDirectionId": null,
        "streetTypeId": "RD",
        "placeName": "HAMPTON",
        "streetNameDisplayText": "TRULLS RD, HAMPTON"
      },
      {
        "electoralDistricts": [
          {
            "election": null,
            "id": 24,
            "name": "Durham"
          }
        ],
        "pollDivisionIds": [
          10137838
        ],
        "postalCode": "L0B1J0",
        "streetName": "TYLER",
        "streetDirectionId": null,
        "streetTypeId": "ST",
        "placeName": "HAMPTON",
        "streetNameDisplayText": "TYLER ST, HAMPTON"
      },
      {
        "electoralDistricts": [
          {
            "election": null,
            "id": 24,
            "name": "Durham"
          }
        ],
        "pollDivisionIds": [
          10137834
        ],
        "postalCode": "L0B1J0",
        "streetName": "VANNEST",
        "streetDirectionId": null,
        "streetTypeId": "RD",
        "placeName": "HAMPTON",
        "streetNameDisplayText": "VANNEST RD, HAMPTON"
      },
      {
        "electoralDistricts": [
          {
            "election": null,
            "id": 24,
            "name": "Durham"
          }
        ],
        "pollDivisionIds": [
          10137835
        ],
        "postalCode": "L0B1J0",
        "streetName": "VIRTUE",
        "streetDirectionId": null,
        "streetTypeId": "CRT",
        "placeName": "HAMPTON",
        "streetNameDisplayText": "VIRTUE CRT, HAMPTON"
      },
      {
        "electoralDistricts": [
          {
            "election": null,
            "id": 24,
            "name": "Durham"
          }
        ],
        "pollDivisionIds": [
          10137834
        ],
        "postalCode": "L0B1J0",
        "streetName": "WASHINGTON",
        "streetDirectionId": null,
        "streetTypeId": "RD",
        "placeName": "HAMPTON",
        "streetNameDisplayText": "WASHINGTON RD, HAMPTON"
      },
      {
        "electoralDistricts": [
          {
            "election": null,
            "id": 24,
            "name": "Durham"
          }
        ],
        "pollDivisionIds": [
          10137836
        ],
        "postalCode": "L0B1J0",
        "streetName": "WASHINGTON",
        "streetDirectionId": null,
        "streetTypeId": "ST",
        "placeName": "HAMPTON",
        "streetNameDisplayText": "WASHINGTON ST, HAMPTON"
      },
      {
        "electoralDistricts": [
          {
            "election": null,
            "id": 24,
            "name": "Durham"
          }
        ],
        "pollDivisionIds": [
          10137834
        ],
        "postalCode": "L0B1J0",
        "streetName": "WERRY",
        "streetDirectionId": null,
        "streetTypeId": "RD",
        "placeName": "HAMPTON",
        "streetNameDisplayText": "WERRY RD, HAMPTON"
      },
      {
        "electoralDistricts": [
          {
            "election": null,
            "id": 24,
            "name": "Durham"
          }
        ],
        "pollDivisionIds": [
          10137835
        ],
        "postalCode": "L0B1J0",
        "streetName": "WERRYDALE",
        "streetDirectionId": null,
        "streetTypeId": "DR",
        "placeName": "HAMPTON",
        "streetNameDisplayText": "WERRYDALE DR, HAMPTON"
      },
      {
        "electoralDistricts": [
          {
            "election": null,
            "id": 24,
            "name": "Durham"
          }
        ],
        "pollDivisionIds": [
          10137834
        ],
        "postalCode": "L0B1J0",
        "streetName": "WESTLAKE",
        "streetDirectionId": null,
        "streetTypeId": "ST",
        "placeName": "HAMPTON",
        "streetNameDisplayText": "WESTLAKE ST, HAMPTON"
      }
    ]
  },
  {
    "postal": "L0B1K0",
    "result": [
      {
        "electoralDistricts": [
          {
            "election": null,
            "id": 35,
            "name": "Haliburton—Kawartha Lakes—Brock"
          }
        ],
        "pollDivisionIds": [
          10138568,
          10138567
        ],
        "postalCode": "L0B1K0",
        "streetName": "35",
        "streetDirectionId": null,
        "streetTypeId": "HWY",
        "placeName": "JANETVILLE",
        "streetNameDisplayText": "35 HWY, JANETVILLE"
      },
      {
        "electoralDistricts": [
          {
            "election": null,
            "id": 35,
            "name": "Haliburton—Kawartha Lakes—Brock"
          }
        ],
        "pollDivisionIds": [
          10138567
        ],
        "postalCode": "L0B1K0",
        "streetName": "7A",
        "streetDirectionId": null,
        "streetTypeId": "HWY",
        "placeName": "JANETVILLE",
        "streetNameDisplayText": "7A HWY, JANETVILLE"
      },
      {
        "electoralDistricts": [
          {
            "election": null,
            "id": 35,
            "name": "Haliburton—Kawartha Lakes—Brock"
          }
        ],
        "pollDivisionIds": [
          10138568
        ],
        "postalCode": "L0B1K0",
        "streetName": "ARBOUR",
        "streetDirectionId": null,
        "streetTypeId": "CRT",
        "placeName": "JANETVILLE",
        "streetNameDisplayText": "ARBOUR CRT, JANETVILLE"
      },
      {
        "electoralDistricts": [
          {
            "election": null,
            "id": 35,
            "name": "Haliburton—Kawartha Lakes—Brock"
          }
        ],
        "pollDivisionIds": [
          10138568
        ],
        "postalCode": "L0B1K0",
        "streetName": "ARMSTRONG",
        "streetDirectionId": null,
        "streetTypeId": "CRT",
        "placeName": "JANETVILLE",
        "streetNameDisplayText": "ARMSTRONG CRT, JANETVILLE"
      },
      {
        "electoralDistricts": [
          {
            "election": null,
            "id": 35,
            "name": "Haliburton—Kawartha Lakes—Brock"
          }
        ],
        "pollDivisionIds": [
          10138568
        ],
        "postalCode": "L0B1K0",
        "streetName": "BEVERLY",
        "streetDirectionId": null,
        "streetTypeId": "DR",
        "placeName": "JANETVILLE",
        "streetNameDisplayText": "BEVERLY DR, JANETVILLE"
      },
      {
        "electoralDistricts": [
          {
            "election": null,
            "id": 24,
            "name": "Durham"
          }
        ],
        "pollDivisionIds": [
          10137832
        ],
        "postalCode": "L0B1K0",
        "streetName": "BIRCH ISLAND",
        "streetDirectionId": null,
        "streetTypeId": "RD",
        "placeName": "JANETVILLE",
        "streetNameDisplayText": "BIRCH ISLAND RD, JANETVILLE"
      },
      {
        "electoralDistricts": [
          {
            "election": null,
            "id": 35,
            "name": "Haliburton—Kawartha Lakes—Brock"
          }
        ],
        "pollDivisionIds": [
          10138568
        ],
        "postalCode": "L0B1K0",
        "streetName": "BRUCE",
        "streetDirectionId": null,
        "streetTypeId": "DR",
        "placeName": "JANETVILLE",
        "streetNameDisplayText": "BRUCE DR, JANETVILLE"
      },
      {
        "electoralDistricts": [
          {
            "election": null,
            "id": 24,
            "name": "Durham"
          },
          {
            "election": null,
            "id": 35,
            "name": "Haliburton—Kawartha Lakes—Brock"
          }
        ],
        "pollDivisionIds": [
          10137832,
          10138568
        ],
        "postalCode": "L0B1K0",
        "streetName": "CARTWRIGHT-MANVERS BOUNDARY",
        "streetDirectionId": null,
        "streetTypeId": "RD",
        "placeName": "JANETVILLE",
        "streetNameDisplayText": "CARTWRIGHT-MANVERS BOUNDARY RD, JANETVILLE"
      },
      {
        "electoralDistricts": [
          {
            "election": null,
            "id": 35,
            "name": "Haliburton—Kawartha Lakes—Brock"
          }
        ],
        "pollDivisionIds": [
          10138568
        ],
        "postalCode": "L0B1K0",
        "streetName": "CEDAR",
        "streetDirectionId": null,
        "streetTypeId": "CRES",
        "placeName": "JANETVILLE",
        "streetNameDisplayText": "CEDAR CRES, JANETVILLE"
      },
      {
        "electoralDistricts": [
          {
            "election": null,
            "id": 35,
            "name": "Haliburton—Kawartha Lakes—Brock"
          }
        ],
        "pollDivisionIds": [
          10138567
        ],
        "postalCode": "L0B1K0",
        "streetName": "CENTURY FARM",
        "streetDirectionId": null,
        "streetTypeId": "RD",
        "placeName": "JANETVILLE",
        "streetNameDisplayText": "CENTURY FARM RD, JANETVILLE"
      },
      {
        "electoralDistricts": [
          {
            "election": null,
            "id": 35,
            "name": "Haliburton—Kawartha Lakes—Brock"
          }
        ],
        "pollDivisionIds": [
          10138568
        ],
        "postalCode": "L0B1K0",
        "streetName": "CHIPMUNK",
        "streetDirectionId": null,
        "streetTypeId": "RD",
        "placeName": "JANETVILLE",
        "streetNameDisplayText": "CHIPMUNK RD, JANETVILLE"
      },
      {
        "electoralDistricts": [
          {
            "election": null,
            "id": 24,
            "name": "Durham"
          }
        ],
        "pollDivisionIds": [
          10137832
        ],
        "postalCode": "L0B1K0",
        "streetName": "COLEMAN",
        "streetDirectionId": null,
        "streetTypeId": "CRES",
        "placeName": "JANETVILLE",
        "streetNameDisplayText": "COLEMAN CRES, JANETVILLE"
      },
      {
        "electoralDistricts": [
          {
            "election": null,
            "id": 24,
            "name": "Durham"
          }
        ],
        "pollDivisionIds": [
          10137832
        ],
        "postalCode": "L0B1K0",
        "streetName": "COLEMAN",
        "streetDirectionId": null,
        "streetTypeId": "LANE",
        "placeName": "JANETVILLE",
        "streetNameDisplayText": "COLEMAN LANE, JANETVILLE"
      },
      {
        "electoralDistricts": [
          {
            "election": null,
            "id": 24,
            "name": "Durham"
          }
        ],
        "pollDivisionIds": [
          10137832
        ],
        "postalCode": "L0B1K0",
        "streetName": "DUNSMORE",
        "streetDirectionId": null,
        "streetTypeId": "LANE",
        "placeName": "JANETVILLE",
        "streetNameDisplayText": "DUNSMORE LANE, JANETVILLE"
      },
      {
        "electoralDistricts": [
          {
            "election": null,
            "id": 35,
            "name": "Haliburton—Kawartha Lakes—Brock"
          }
        ],
        "pollDivisionIds": [
          10138567
        ],
        "postalCode": "L0B1K0",
        "streetName": "FLEETWOOD",
        "streetDirectionId": null,
        "streetTypeId": "DR",
        "placeName": "JANETVILLE",
        "streetNameDisplayText": "FLEETWOOD DR, JANETVILLE"
      },
      {
        "electoralDistricts": [
          {
            "election": null,
            "id": 35,
            "name": "Haliburton—Kawartha Lakes—Brock"
          }
        ],
        "pollDivisionIds": [
          10138568,
          10138567
        ],
        "postalCode": "L0B1K0",
        "streetName": "FLEETWOOD",
        "streetDirectionId": null,
        "streetTypeId": "RD",
        "placeName": "JANETVILLE",
        "streetNameDisplayText": "FLEETWOOD RD, JANETVILLE"
      },
      {
        "electoralDistricts": [
          {
            "election": null,
            "id": 35,
            "name": "Haliburton—Kawartha Lakes—Brock"
          }
        ],
        "pollDivisionIds": [
          10138567,
          10138568
        ],
        "postalCode": "L0B1K0",
        "streetName": "GOLF COURSE",
        "streetDirectionId": null,
        "streetTypeId": "RD",
        "placeName": "JANETVILLE",
        "streetNameDisplayText": "GOLF COURSE RD, JANETVILLE"
      },
      {
        "electoralDistricts": [
          {
            "election": null,
            "id": 35,
            "name": "Haliburton—Kawartha Lakes—Brock"
          }
        ],
        "pollDivisionIds": [
          10138567
        ],
        "postalCode": "L0B1K0",
        "streetName": "GRAY",
        "streetDirectionId": null,
        "streetTypeId": "RD",
        "placeName": "JANETVILLE",
        "streetNameDisplayText": "GRAY RD, JANETVILLE"
      },
      {
        "electoralDistricts": [
          {
            "election": null,
            "id": 35,
            "name": "Haliburton—Kawartha Lakes—Brock"
          }
        ],
        "pollDivisionIds": [
          10138568
        ],
        "postalCode": "L0B1K0",
        "streetName": "HIGH",
        "streetDirectionId": null,
        "streetTypeId": "AVE",
        "placeName": "JANETVILLE",
        "streetNameDisplayText": "HIGH AVE, JANETVILLE"
      },
      {
        "electoralDistricts": [
          {
            "election": null,
            "id": 35,
            "name": "Haliburton—Kawartha Lakes—Brock"
          }
        ],
        "pollDivisionIds": [
          10138568
        ],
        "postalCode": "L0B1K0",
        "streetName": "JANET",
        "streetDirectionId": null,
        "streetTypeId": "DR",
        "placeName": "JANETVILLE",
        "streetNameDisplayText": "JANET DR, JANETVILLE"
      },
      {
        "electoralDistricts": [
          {
            "election": null,
            "id": 35,
            "name": "Haliburton—Kawartha Lakes—Brock"
          }
        ],
        "pollDivisionIds": [
          10138568,
          10138567
        ],
        "postalCode": "L0B1K0",
        "streetName": "JANETVILLE",
        "streetDirectionId": null,
        "streetTypeId": "RD",
        "placeName": "JANETVILLE",
        "streetNameDisplayText": "JANETVILLE RD, JANETVILLE"
      },
      {
        "electoralDistricts": [
          {
            "election": null,
            "id": 35,
            "name": "Haliburton—Kawartha Lakes—Brock"
          }
        ],
        "pollDivisionIds": [
          10138568
        ],
        "postalCode": "L0B1K0",
        "streetName": "LOON",
        "streetDirectionId": null,
        "streetTypeId": "ST",
        "placeName": "JANETVILLE",
        "streetNameDisplayText": "LOON ST, JANETVILLE"
      },
      {
        "electoralDistricts": [
          {
            "election": null,
            "id": 35,
            "name": "Haliburton—Kawartha Lakes—Brock"
          }
        ],
        "pollDivisionIds": [
          10138568
        ],
        "postalCode": "L0B1K0",
        "streetName": "MANVERS",
        "streetDirectionId": null,
        "streetTypeId": "DR",
        "placeName": "JANETVILLE",
        "streetNameDisplayText": "MANVERS DR, JANETVILLE"
      },
      {
        "electoralDistricts": [
          {
            "election": null,
            "id": 35,
            "name": "Haliburton—Kawartha Lakes—Brock"
          }
        ],
        "pollDivisionIds": [
          10138568
        ],
        "postalCode": "L0B1K0",
        "streetName": "MAPLE",
        "streetDirectionId": null,
        "streetTypeId": "CRES",
        "placeName": "JANETVILLE",
        "streetNameDisplayText": "MAPLE CRES, JANETVILLE"
      },
      {
        "electoralDistricts": [
          {
            "election": null,
            "id": 35,
            "name": "Haliburton—Kawartha Lakes—Brock"
          }
        ],
        "pollDivisionIds": [
          10138568
        ],
        "postalCode": "L0B1K0",
        "streetName": "MARLENE",
        "streetDirectionId": null,
        "streetTypeId": "DR",
        "placeName": "JANETVILLE",
        "streetNameDisplayText": "MARLENE DR, JANETVILLE"
      },
      {
        "electoralDistricts": [
          {
            "election": null,
            "id": 35,
            "name": "Haliburton—Kawartha Lakes—Brock"
          }
        ],
        "pollDivisionIds": [
          10138568
        ],
        "postalCode": "L0B1K0",
        "streetName": "MCGILL",
        "streetDirectionId": null,
        "streetTypeId": "DR",
        "placeName": "JANETVILLE",
        "streetNameDisplayText": "MCGILL DR, JANETVILLE"
      },
      {
        "electoralDistricts": [
          {
            "election": null,
            "id": 35,
            "name": "Haliburton—Kawartha Lakes—Brock"
          }
        ],
        "pollDivisionIds": [
          10138568
        ],
        "postalCode": "L0B1K0",
        "streetName": "NEALS",
        "streetDirectionId": null,
        "streetTypeId": "DR",
        "placeName": "JANETVILLE",
        "streetNameDisplayText": "NEALS DR, JANETVILLE"
      },
      {
        "electoralDistricts": [
          {
            "election": null,
            "id": 35,
            "name": "Haliburton—Kawartha Lakes—Brock"
          }
        ],
        "pollDivisionIds": [
          10138568
        ],
        "postalCode": "L0B1K0",
        "streetName": "NESBITT",
        "streetDirectionId": null,
        "streetTypeId": "LINE",
        "placeName": "NESTLETON STATION",
        "streetNameDisplayText": "NESBITT LINE, NESTLETON STATION"
      },
      {
        "electoralDistricts": [
          {
            "election": null,
            "id": 35,
            "name": "Haliburton—Kawartha Lakes—Brock"
          }
        ],
        "pollDivisionIds": [
          10138567
        ],
        "postalCode": "L0B1K0",
        "streetName": "NEWRY",
        "streetDirectionId": null,
        "streetTypeId": "RD",
        "placeName": "JANETVILLE",
        "streetNameDisplayText": "NEWRY RD, JANETVILLE"
      },
      {
        "electoralDistricts": [
          {
            "election": null,
            "id": 35,
            "name": "Haliburton—Kawartha Lakes—Brock"
          }
        ],
        "pollDivisionIds": [
          10138567
        ],
        "postalCode": "L0B1K0",
        "streetName": "OLD MILL",
        "streetDirectionId": null,
        "streetTypeId": "RD",
        "placeName": "JANETVILLE",
        "streetNameDisplayText": "OLD MILL RD, JANETVILLE"
      },
      {
        "electoralDistricts": [
          {
            "election": null,
            "id": 35,
            "name": "Haliburton—Kawartha Lakes—Brock"
          }
        ],
        "pollDivisionIds": [
          10138568,
          10138567
        ],
        "postalCode": "L0B1K0",
        "streetName": "PIGEON CREEK",
        "streetDirectionId": null,
        "streetTypeId": "RD",
        "placeName": "JANETVILLE",
        "streetNameDisplayText": "PIGEON CREEK RD, JANETVILLE"
      },
      {
        "electoralDistricts": [
          {
            "election": null,
            "id": 24,
            "name": "Durham"
          }
        ],
        "pollDivisionIds": [
          10137832
        ],
        "postalCode": "L0B1K0",
        "streetName": "REGIONAL 57",
        "streetDirectionId": null,
        "streetTypeId": "RD",
        "placeName": "JANETVILLE",
        "streetNameDisplayText": "REGIONAL 57 RD, JANETVILLE"
      },
      {
        "electoralDistricts": [
          {
            "election": null,
            "id": 35,
            "name": "Haliburton—Kawartha Lakes—Brock"
          }
        ],
        "pollDivisionIds": [
          10138568
        ],
        "postalCode": "L0B1K0",
        "streetName": "REGIONAL RD 57",
        "streetDirectionId": null,
        "streetTypeId": null,
        "placeName": "JANETVILLE",
        "streetNameDisplayText": "REGIONAL RD 57, JANETVILLE"
      },
      {
        "electoralDistricts": [
          {
            "election": null,
            "id": 35,
            "name": "Haliburton—Kawartha Lakes—Brock"
          }
        ],
        "pollDivisionIds": [
          10138568
        ],
        "postalCode": "L0B1K0",
        "streetName": "SHIRLEY",
        "streetDirectionId": "N",
        "streetTypeId": "DR",
        "placeName": "JANETVILLE",
        "streetNameDisplayText": "SHIRLEY DR N, JANETVILLE"
      },
      {
        "electoralDistricts": [
          {
            "election": null,
            "id": 35,
            "name": "Haliburton—Kawartha Lakes—Brock"
          }
        ],
        "pollDivisionIds": [
          10138568
        ],
        "postalCode": "L0B1K0",
        "streetName": "SHIRLEY",
        "streetDirectionId": "S",
        "streetTypeId": "DR",
        "placeName": "JANETVILLE",
        "streetNameDisplayText": "SHIRLEY DR S, JANETVILLE"
      },
      {
        "electoralDistricts": [
          {
            "election": null,
            "id": 35,
            "name": "Haliburton—Kawartha Lakes—Brock"
          }
        ],
        "pollDivisionIds": [
          10138568
        ],
        "postalCode": "L0B1K0",
        "streetName": "SPRING",
        "streetDirectionId": null,
        "streetTypeId": "ST",
        "placeName": "JANETVILLE",
        "streetNameDisplayText": "SPRING ST, JANETVILLE"
      },
      {
        "electoralDistricts": [
          {
            "election": null,
            "id": 35,
            "name": "Haliburton—Kawartha Lakes—Brock"
          }
        ],
        "pollDivisionIds": [
          10138568
        ],
        "postalCode": "L0B1K0",
        "streetName": "ST ALBAN",
        "streetDirectionId": null,
        "streetTypeId": "RD",
        "placeName": "JANETVILLE",
        "streetNameDisplayText": "ST ALBAN RD, JANETVILLE"
      },
      {
        "electoralDistricts": [
          {
            "election": null,
            "id": 35,
            "name": "Haliburton—Kawartha Lakes—Brock"
          }
        ],
        "pollDivisionIds": [
          10138567
        ],
        "postalCode": "L0B1K0",
        "streetName": "ST MARY'S",
        "streetDirectionId": null,
        "streetTypeId": "RD",
        "placeName": "BETHANY",
        "streetNameDisplayText": "ST MARY'S RD, BETHANY"
      },
      {
        "electoralDistricts": [
          {
            "election": null,
            "id": 35,
            "name": "Haliburton—Kawartha Lakes—Brock"
          }
        ],
        "pollDivisionIds": [
          10138567
        ],
        "postalCode": "L0B1K0",
        "streetName": "ST MARY'S",
        "streetDirectionId": null,
        "streetTypeId": "RD",
        "placeName": "JANETVILLE",
        "streetNameDisplayText": "ST MARY'S RD, JANETVILLE"
      },
      {
        "electoralDistricts": [
          {
            "election": null,
            "id": 35,
            "name": "Haliburton—Kawartha Lakes—Brock"
          }
        ],
        "pollDivisionIds": [
          10138568
        ],
        "postalCode": "L0B1K0",
        "streetName": "ST. ALBAN",
        "streetDirectionId": null,
        "streetTypeId": "RD",
        "placeName": "JANETVILLE",
        "streetNameDisplayText": "ST. ALBAN RD, JANETVILLE"
      },
      {
        "electoralDistricts": [
          {
            "election": null,
            "id": 35,
            "name": "Haliburton—Kawartha Lakes—Brock"
          }
        ],
        "pollDivisionIds": [
          10138568
        ],
        "postalCode": "L0B1K0",
        "streetName": "STILLWATER",
        "streetDirectionId": null,
        "streetTypeId": "DR",
        "placeName": "JANETVILLE",
        "streetNameDisplayText": "STILLWATER DR, JANETVILLE"
      },
      {
        "electoralDistricts": [
          {
            "election": null,
            "id": 35,
            "name": "Haliburton—Kawartha Lakes—Brock"
          }
        ],
        "pollDivisionIds": [
          10138568
        ],
        "postalCode": "L0B1K0",
        "streetName": "STUB",
        "streetDirectionId": null,
        "streetTypeId": "RD",
        "placeName": "JANETVILLE",
        "streetNameDisplayText": "STUB RD, JANETVILLE"
      },
      {
        "electoralDistricts": [
          {
            "election": null,
            "id": 35,
            "name": "Haliburton—Kawartha Lakes—Brock"
          }
        ],
        "pollDivisionIds": [
          10138568
        ],
        "postalCode": "L0B1K0",
        "streetName": "STUB",
        "streetDirectionId": null,
        "streetTypeId": "WAY",
        "placeName": "JANETVILLE",
        "streetNameDisplayText": "STUB WAY, JANETVILLE"
      },
      {
        "electoralDistricts": [
          {
            "election": null,
            "id": 35,
            "name": "Haliburton—Kawartha Lakes—Brock"
          }
        ],
        "pollDivisionIds": [
          10138568
        ],
        "postalCode": "L0B1K0",
        "streetName": "SUGAR BUSH",
        "streetDirectionId": null,
        "streetTypeId": "RD",
        "placeName": "JANETVILLE",
        "streetNameDisplayText": "SUGAR BUSH RD, JANETVILLE"
      },
      {
        "electoralDistricts": [
          {
            "election": null,
            "id": 35,
            "name": "Haliburton—Kawartha Lakes—Brock"
          }
        ],
        "pollDivisionIds": [
          10138568
        ],
        "postalCode": "L0B1K0",
        "streetName": "SUGAR BUSH",
        "streetDirectionId": null,
        "streetTypeId": "TRAIL",
        "placeName": "JANETVILLE",
        "streetNameDisplayText": "SUGAR BUSH TRAIL, JANETVILLE"
      },
      {
        "electoralDistricts": [
          {
            "election": null,
            "id": 24,
            "name": "Durham"
          }
        ],
        "pollDivisionIds": [
          10137832
        ],
        "postalCode": "L0B1K0",
        "streetName": "VIEW LAKE",
        "streetDirectionId": null,
        "streetTypeId": "RD",
        "placeName": "JANETVILLE",
        "streetNameDisplayText": "VIEW LAKE RD, JANETVILLE"
      },
      {
        "electoralDistricts": [
          {
            "election": null,
            "id": 24,
            "name": "Durham"
          }
        ],
        "pollDivisionIds": [
          10137832
        ],
        "postalCode": "L0B1K0",
        "streetName": "WASHAGO BAY",
        "streetDirectionId": null,
        "streetTypeId": "LANE",
        "placeName": "JANETVILLE",
        "streetNameDisplayText": "WASHAGO BAY LANE, JANETVILLE"
      },
      {
        "electoralDistricts": [
          {
            "election": null,
            "id": 35,
            "name": "Haliburton—Kawartha Lakes—Brock"
          }
        ],
        "pollDivisionIds": [
          10138568
        ],
        "postalCode": "L0B1K0",
        "streetName": "WILLIAM",
        "streetDirectionId": null,
        "streetTypeId": "AVE",
        "placeName": "JANETVILLE",
        "streetNameDisplayText": "WILLIAM AVE, JANETVILLE"
      },
      {
        "electoralDistricts": [
          {
            "election": null,
            "id": 35,
            "name": "Haliburton—Kawartha Lakes—Brock"
          }
        ],
        "pollDivisionIds": [
          10138567,
          10138568
        ],
        "postalCode": "L0B1K0",
        "streetName": "YELVERTON",
        "streetDirectionId": null,
        "streetTypeId": "RD",
        "placeName": "JANETVILLE",
        "streetNameDisplayText": "YELVERTON RD, JANETVILLE"
      }
    ]
  },
  {
    "postal": "L0B1L0",
    "result": [
      {
        "electoralDistricts": [
          {
            "election": null,
            "id": 24,
            "name": "Durham"
          }
        ],
        "pollDivisionIds": [
          10137832
        ],
        "postalCode": "L0B1L0",
        "streetName": "7A",
        "streetDirectionId": null,
        "streetTypeId": "HWY",
        "placeName": "NESTLETON STATION",
        "streetNameDisplayText": "7A HWY, NESTLETON STATION"
      },
      {
        "electoralDistricts": [
          {
            "election": null,
            "id": 24,
            "name": "Durham"
          }
        ],
        "pollDivisionIds": [
          10137832
        ],
        "postalCode": "L0B1L0",
        "streetName": "ARMSTRONG",
        "streetDirectionId": null,
        "streetTypeId": "AVE",
        "placeName": "NESTLETON STATION",
        "streetNameDisplayText": "ARMSTRONG AVE, NESTLETON STATION"
      },
      {
        "electoralDistricts": [
          {
            "election": null,
            "id": 24,
            "name": "Durham"
          }
        ],
        "pollDivisionIds": [
          10137832
        ],
        "postalCode": "L0B1L0",
        "streetName": "BEACOCK",
        "streetDirectionId": null,
        "streetTypeId": "RD",
        "placeName": "NESTLETON STATION",
        "streetNameDisplayText": "BEACOCK RD, NESTLETON STATION"
      },
      {
        "electoralDistricts": [
          {
            "election": null,
            "id": 24,
            "name": "Durham"
          }
        ],
        "pollDivisionIds": [
          10137832
        ],
        "postalCode": "L0B1L0",
        "streetName": "BRENDA'S",
        "streetDirectionId": null,
        "streetTypeId": "RD",
        "placeName": "NESTLETON STATION",
        "streetNameDisplayText": "BRENDA'S RD, NESTLETON STATION"
      },
      {
        "electoralDistricts": [
          {
            "election": null,
            "id": 24,
            "name": "Durham"
          }
        ],
        "pollDivisionIds": [
          10137832,
          10137833
        ],
        "postalCode": "L0B1L0",
        "streetName": "CARTWRIGHT EAST QUARTER",
        "streetDirectionId": null,
        "streetTypeId": "LINE",
        "placeName": "NESTLETON STATION",
        "streetNameDisplayText": "CARTWRIGHT EAST QUARTER LINE, NESTLETON STATION"
      },
      {
        "electoralDistricts": [
          {
            "election": null,
            "id": 24,
            "name": "Durham"
          }
        ],
        "pollDivisionIds": [
          10137832
        ],
        "postalCode": "L0B1L0",
        "streetName": "CEDARDALE",
        "streetDirectionId": null,
        "streetTypeId": "RD",
        "placeName": "NESTLETON STATION",
        "streetNameDisplayText": "CEDARDALE RD, NESTLETON STATION"
      },
      {
        "electoralDistricts": [
          {
            "election": null,
            "id": 24,
            "name": "Durham"
          }
        ],
        "pollDivisionIds": [
          10137832
        ],
        "postalCode": "L0B1L0",
        "streetName": "COLWELL",
        "streetDirectionId": null,
        "streetTypeId": "CIR",
        "placeName": "NESTLETON STATION",
        "streetNameDisplayText": "COLWELL CIR, NESTLETON STATION"
      },
      {
        "electoralDistricts": [
          {
            "election": null,
            "id": 24,
            "name": "Durham"
          }
        ],
        "pollDivisionIds": [
          10137832,
          10137833
        ],
        "postalCode": "L0B1L0",
        "streetName": "FALLIS",
        "streetDirectionId": null,
        "streetTypeId": "RD",
        "placeName": "NESTLETON STATION",
        "streetNameDisplayText": "FALLIS RD, NESTLETON STATION"
      },
      {
        "electoralDistricts": [
          {
            "election": null,
            "id": 24,
            "name": "Durham"
          }
        ],
        "pollDivisionIds": [
          10137832
        ],
        "postalCode": "L0B1L0",
        "streetName": "HOYER",
        "streetDirectionId": null,
        "streetTypeId": "RD",
        "placeName": "NESTLETON STATION",
        "streetNameDisplayText": "HOYER RD, NESTLETON STATION"
      },
      {
        "electoralDistricts": [
          {
            "election": null,
            "id": 24,
            "name": "Durham"
          }
        ],
        "pollDivisionIds": [
          10137832,
          10137833
        ],
        "postalCode": "L0B1L0",
        "streetName": "JOBB",
        "streetDirectionId": null,
        "streetTypeId": "RD",
        "placeName": "NESTLETON STATION",
        "streetNameDisplayText": "JOBB RD, NESTLETON STATION"
      },
      {
        "electoralDistricts": [
          {
            "election": null,
            "id": 24,
            "name": "Durham"
          }
        ],
        "pollDivisionIds": [
          10137832
        ],
        "postalCode": "L0B1L0",
        "streetName": "JOHN'S",
        "streetDirectionId": null,
        "streetTypeId": "RD",
        "placeName": "NESTLETON STATION",
        "streetNameDisplayText": "JOHN'S RD, NESTLETON STATION"
      },
      {
        "electoralDistricts": [
          {
            "election": null,
            "id": 24,
            "name": "Durham"
          }
        ],
        "pollDivisionIds": [
          10137832
        ],
        "postalCode": "L0B1L0",
        "streetName": "JOHNSTONE",
        "streetDirectionId": null,
        "streetTypeId": "LANE",
        "placeName": "NESTLETON STATION",
        "streetNameDisplayText": "JOHNSTONE LANE, NESTLETON STATION"
      },
      {
        "electoralDistricts": [
          {
            "election": null,
            "id": 24,
            "name": "Durham"
          }
        ],
        "pollDivisionIds": [
          10137832
        ],
        "postalCode": "L0B1L0",
        "streetName": "MABELS",
        "streetDirectionId": null,
        "streetTypeId": "RD",
        "placeName": "NESTLETON STATION",
        "streetNameDisplayText": "MABELS RD, NESTLETON STATION"
      },
      {
        "electoralDistricts": [
          {
            "election": null,
            "id": 24,
            "name": "Durham"
          }
        ],
        "pollDivisionIds": [
          10137832
        ],
        "postalCode": "L0B1L0",
        "streetName": "MABEL'S",
        "streetDirectionId": null,
        "streetTypeId": "RD",
        "placeName": "NESTLETON STATION",
        "streetNameDisplayText": "MABEL'S RD, NESTLETON STATION"
      },
      {
        "electoralDistricts": [
          {
            "election": null,
            "id": 24,
            "name": "Durham"
          }
        ],
        "pollDivisionIds": [
          10137832
        ],
        "postalCode": "L0B1L0",
        "streetName": "MABEL'S",
        "streetDirectionId": null,
        "streetTypeId": "RD",
        "placeName": "NEWCASTLE",
        "streetNameDisplayText": "MABEL'S RD, NEWCASTLE"
      },
      {
        "electoralDistricts": [
          {
            "election": null,
            "id": 24,
            "name": "Durham"
          }
        ],
        "pollDivisionIds": [
          10137832
        ],
        "postalCode": "L0B1L0",
        "streetName": "MAHOOD'S",
        "streetDirectionId": null,
        "streetTypeId": "RD",
        "placeName": "NESTLETON STATION",
        "streetNameDisplayText": "MAHOOD'S RD, NESTLETON STATION"
      },
      {
        "electoralDistricts": [
          {
            "election": null,
            "id": 24,
            "name": "Durham"
          }
        ],
        "pollDivisionIds": [
          10137832
        ],
        "postalCode": "L0B1L0",
        "streetName": "MALCOLM",
        "streetDirectionId": null,
        "streetTypeId": "RD",
        "placeName": "NESTLETON STATION",
        "streetNameDisplayText": "MALCOLM RD, NESTLETON STATION"
      },
      {
        "electoralDistricts": [
          {
            "election": null,
            "id": 24,
            "name": "Durham"
          }
        ],
        "pollDivisionIds": [
          10137832
        ],
        "postalCode": "L0B1L0",
        "streetName": "MARGUERITE",
        "streetDirectionId": null,
        "streetTypeId": "AVE",
        "placeName": "NESTLETON STATION",
        "streetNameDisplayText": "MARGUERITE AVE, NESTLETON STATION"
      },
      {
        "electoralDistricts": [
          {
            "election": null,
            "id": 24,
            "name": "Durham"
          }
        ],
        "pollDivisionIds": [
          10137833,
          10137832
        ],
        "postalCode": "L0B1L0",
        "streetName": "MCLAUGHLIN",
        "streetDirectionId": null,
        "streetTypeId": "RD",
        "placeName": "NESTLETON STATION",
        "streetNameDisplayText": "MCLAUGHLIN RD, NESTLETON STATION"
      },
      {
        "electoralDistricts": [
          {
            "election": null,
            "id": 24,
            "name": "Durham"
          }
        ],
        "pollDivisionIds": [
          10137832
        ],
        "postalCode": "L0B1L0",
        "streetName": "MORRIS",
        "streetDirectionId": null,
        "streetTypeId": "LANE",
        "placeName": "NESTLETON STATION",
        "streetNameDisplayText": "MORRIS LANE, NESTLETON STATION"
      },
      {
        "electoralDistricts": [
          {
            "election": null,
            "id": 24,
            "name": "Durham"
          }
        ],
        "pollDivisionIds": [
          10137832
        ],
        "postalCode": "L0B1L0",
        "streetName": "NASH",
        "streetDirectionId": null,
        "streetTypeId": "LANE",
        "placeName": "NESTLETON STATION",
        "streetNameDisplayText": "NASH LANE, NESTLETON STATION"
      },
      {
        "electoralDistricts": [
          {
            "election": null,
            "id": 24,
            "name": "Durham"
          },
          {
            "election": null,
            "id": 35,
            "name": "Haliburton—Kawartha Lakes—Brock"
          }
        ],
        "pollDivisionIds": [
          10137832,
          10138568
        ],
        "postalCode": "L0B1L0",
        "streetName": "NESBITT",
        "streetDirectionId": null,
        "streetTypeId": "LINE",
        "placeName": "NESTLETON STATION",
        "streetNameDisplayText": "NESBITT LINE, NESTLETON STATION"
      },
      {
        "electoralDistricts": [
          {
            "election": null,
            "id": 24,
            "name": "Durham"
          }
        ],
        "pollDivisionIds": [
          10137832
        ],
        "postalCode": "L0B1L0",
        "streetName": "NESTLETON",
        "streetDirectionId": null,
        "streetTypeId": "RD",
        "placeName": "NESTLETON STATION",
        "streetNameDisplayText": "NESTLETON RD, NESTLETON STATION"
      },
      {
        "electoralDistricts": [
          {
            "election": null,
            "id": 24,
            "name": "Durham"
          }
        ],
        "pollDivisionIds": [
          10137832
        ],
        "postalCode": "L0B1L0",
        "streetName": "NOBLE",
        "streetDirectionId": null,
        "streetTypeId": "LANE",
        "placeName": "NESTLETON STATION",
        "streetNameDisplayText": "NOBLE LANE, NESTLETON STATION"
      },
      {
        "electoralDistricts": [
          {
            "election": null,
            "id": 24,
            "name": "Durham"
          }
        ],
        "pollDivisionIds": [
          10137832
        ],
        "postalCode": "L0B1L0",
        "streetName": "PARK",
        "streetDirectionId": null,
        "streetTypeId": "ST",
        "placeName": "NESTLETON STATION",
        "streetNameDisplayText": "PARK ST, NESTLETON STATION"
      },
      {
        "electoralDistricts": [
          {
            "election": null,
            "id": 24,
            "name": "Durham"
          }
        ],
        "pollDivisionIds": [
          10137832
        ],
        "postalCode": "L0B1L0",
        "streetName": "PROSSER",
        "streetDirectionId": null,
        "streetTypeId": "AVE",
        "placeName": "NESTLETON STATION",
        "streetNameDisplayText": "PROSSER AVE, NESTLETON STATION"
      },
      {
        "electoralDistricts": [
          {
            "election": null,
            "id": 24,
            "name": "Durham"
          }
        ],
        "pollDivisionIds": [
          10137832
        ],
        "postalCode": "L0B1L0",
        "streetName": "PROUTT",
        "streetDirectionId": null,
        "streetTypeId": "RD",
        "placeName": "NESTLETON STATION",
        "streetNameDisplayText": "PROUTT RD, NESTLETON STATION"
      },
      {
        "electoralDistricts": [
          {
            "election": null,
            "id": 24,
            "name": "Durham"
          }
        ],
        "pollDivisionIds": [
          10137833
        ],
        "postalCode": "L0B1L0",
        "streetName": "REGIONAL 57",
        "streetDirectionId": null,
        "streetTypeId": "RD",
        "placeName": "BLACKSTOCK",
        "streetNameDisplayText": "REGIONAL 57 RD, BLACKSTOCK"
      },
      {
        "electoralDistricts": [
          {
            "election": null,
            "id": 24,
            "name": "Durham"
          }
        ],
        "pollDivisionIds": [
          10137832
        ],
        "postalCode": "L0B1L0",
        "streetName": "REGIONAL 57",
        "streetDirectionId": null,
        "streetTypeId": "RD",
        "placeName": "CAESAREA",
        "streetNameDisplayText": "REGIONAL 57 RD, CAESAREA"
      },
      {
        "electoralDistricts": [
          {
            "election": null,
            "id": 24,
            "name": "Durham"
          }
        ],
        "pollDivisionIds": [
          10137832
        ],
        "postalCode": "L0B1L0",
        "streetName": "REGIONAL 57",
        "streetDirectionId": null,
        "streetTypeId": "RD",
        "placeName": "NESTLETON STATION",
        "streetNameDisplayText": "REGIONAL 57 RD, NESTLETON STATION"
      },
      {
        "electoralDistricts": [
          {
            "election": null,
            "id": 24,
            "name": "Durham"
          }
        ],
        "pollDivisionIds": [
          10137832
        ],
        "postalCode": "L0B1L0",
        "streetName": "SCUGOG POINT",
        "streetDirectionId": null,
        "streetTypeId": "CRES",
        "placeName": "NESTLETON STATION",
        "streetNameDisplayText": "SCUGOG POINT CRES, NESTLETON STATION"
      },
      {
        "electoralDistricts": [
          {
            "election": null,
            "id": 24,
            "name": "Durham"
          }
        ],
        "pollDivisionIds": [
          10137832
        ],
        "postalCode": "L0B1L0",
        "streetName": "SCUGOG POINT",
        "streetDirectionId": null,
        "streetTypeId": "RD",
        "placeName": "NESTLETON STATION",
        "streetNameDisplayText": "SCUGOG POINT RD, NESTLETON STATION"
      },
      {
        "electoralDistricts": [
          {
            "election": null,
            "id": 24,
            "name": "Durham"
          }
        ],
        "pollDivisionIds": [
          10137832
        ],
        "postalCode": "L0B1L0",
        "streetName": "ST CHRISTOPHER'S BEACH",
        "streetDirectionId": null,
        "streetTypeId": "RD",
        "placeName": "NESTLETON STATION",
        "streetNameDisplayText": "ST CHRISTOPHER'S BEACH RD, NESTLETON STATION"
      },
      {
        "electoralDistricts": [
          {
            "election": null,
            "id": 35,
            "name": "Haliburton—Kawartha Lakes—Brock"
          }
        ],
        "pollDivisionIds": [
          10138568
        ],
        "postalCode": "L0B1L0",
        "streetName": "SUGAR BUSH",
        "streetDirectionId": null,
        "streetTypeId": "RD",
        "placeName": "NESTLETON STATION",
        "streetNameDisplayText": "SUGAR BUSH RD, NESTLETON STATION"
      },
      {
        "electoralDistricts": [
          {
            "election": null,
            "id": 24,
            "name": "Durham"
          }
        ],
        "pollDivisionIds": [
          10137832
        ],
        "postalCode": "L0B1L0",
        "streetName": "SUGGITT",
        "streetDirectionId": null,
        "streetTypeId": "DR",
        "placeName": "NESTLETON STATION",
        "streetNameDisplayText": "SUGGITT DR, NESTLETON STATION"
      },
      {
        "electoralDistricts": [
          {
            "election": null,
            "id": 24,
            "name": "Durham"
          }
        ],
        "pollDivisionIds": [
          10137833
        ],
        "postalCode": "L0B1L0",
        "streetName": "SUNRISE",
        "streetDirectionId": null,
        "streetTypeId": "DR",
        "placeName": "BLACKSTOCK",
        "streetNameDisplayText": "SUNRISE DR, BLACKSTOCK"
      },
      {
        "electoralDistricts": [
          {
            "election": null,
            "id": 24,
            "name": "Durham"
          }
        ],
        "pollDivisionIds": [
          10137832
        ],
        "postalCode": "L0B1L0",
        "streetName": "VIEW LAKE",
        "streetDirectionId": null,
        "streetTypeId": "RD",
        "placeName": "NESTLETON STATION",
        "streetNameDisplayText": "VIEW LAKE RD, NESTLETON STATION"
      },
      {
        "electoralDistricts": [
          {
            "election": null,
            "id": 24,
            "name": "Durham"
          }
        ],
        "pollDivisionIds": [
          10137833,
          10137832
        ],
        "postalCode": "L0B1L0",
        "streetName": "WILSON",
        "streetDirectionId": null,
        "streetTypeId": "AVE",
        "placeName": "NESTLETON STATION",
        "streetNameDisplayText": "WILSON AVE, NESTLETON STATION"
      },
      {
        "electoralDistricts": [
          {
            "election": null,
            "id": 24,
            "name": "Durham"
          }
        ],
        "pollDivisionIds": [
          10137832
        ],
        "postalCode": "L0B1L0",
        "streetName": "WINGROVE",
        "streetDirectionId": null,
        "streetTypeId": "LANE",
        "placeName": "NESTLETON STATION",
        "streetNameDisplayText": "WINGROVE LANE, NESTLETON STATION"
      }
    ]
  },
  {
    "postal": "L0B1M0",
    "result": [
      {
        "electoralDistricts": [
          {
            "election": null,
            "id": 73,
            "name": "Northumberland—Peterborough South"
          }
        ],
        "pollDivisionIds": [
          10140298
        ],
        "postalCode": "L0B1M0",
        "streetName": "35",
        "streetDirectionId": null,
        "streetTypeId": "HWY",
        "placeName": "ORONO",
        "streetNameDisplayText": "35 HWY, ORONO"
      },
      {
        "electoralDistricts": [
          {
            "election": null,
            "id": 73,
            "name": "Northumberland—Peterborough South"
          }
        ],
        "pollDivisionIds": [
          10140292
        ],
        "postalCode": "L0B1M0",
        "streetName": "35/115",
        "streetDirectionId": null,
        "streetTypeId": "HWY",
        "placeName": "ORONO",
        "streetNameDisplayText": "35/115 HWY, ORONO"
      },
      {
        "electoralDistricts": [
          {
            "election": null,
            "id": 73,
            "name": "Northumberland—Peterborough South"
          }
        ],
        "pollDivisionIds": [
          10140293,
          10140297,
          10140298
        ],
        "postalCode": "L0B1M0",
        "streetName": "35+115",
        "streetDirectionId": null,
        "streetTypeId": "HWY",
        "placeName": "ORONO",
        "streetNameDisplayText": "35+115 HWY, ORONO"
      },
      {
        "electoralDistricts": [
          {
            "election": null,
            "id": 73,
            "name": "Northumberland—Peterborough South"
          }
        ],
        "pollDivisionIds": [
          10140298
        ],
        "postalCode": "L0B1M0",
        "streetName": "ALLIN",
        "streetDirectionId": null,
        "streetTypeId": "RD",
        "placeName": "ORONO",
        "streetNameDisplayText": "ALLIN RD, ORONO"
      },
      {
        "electoralDistricts": [
          {
            "election": null,
            "id": 73,
            "name": "Northumberland—Peterborough South"
          }
        ],
        "pollDivisionIds": [
          10140295
        ],
        "postalCode": "L0B1M0",
        "streetName": "ANDREWS",
        "streetDirectionId": null,
        "streetTypeId": "RD",
        "placeName": "ORONO",
        "streetNameDisplayText": "ANDREWS RD, ORONO"
      },
      {
        "electoralDistricts": [
          {
            "election": null,
            "id": 73,
            "name": "Northumberland—Peterborough South"
          }
        ],
        "pollDivisionIds": [
          10140298
        ],
        "postalCode": "L0B1M0",
        "streetName": "BEAUCAGE",
        "streetDirectionId": null,
        "streetTypeId": "RD",
        "placeName": "ORONO",
        "streetNameDisplayText": "BEAUCAGE RD, ORONO"
      },
      {
        "electoralDistricts": [
          {
            "election": null,
            "id": 73,
            "name": "Northumberland—Peterborough South"
          }
        ],
        "pollDivisionIds": [
          10140297
        ],
        "postalCode": "L0B1M0",
        "streetName": "BEST",
        "streetDirectionId": "N",
        "streetTypeId": "RD",
        "placeName": "ORONO",
        "streetNameDisplayText": "BEST RD N, ORONO"
      },
      {
        "electoralDistricts": [
          {
            "election": null,
            "id": 73,
            "name": "Northumberland—Peterborough South"
          }
        ],
        "pollDivisionIds": [
          10140298,
          10140297
        ],
        "postalCode": "L0B1M0",
        "streetName": "BEST",
        "streetDirectionId": null,
        "streetTypeId": "RD",
        "placeName": "ORONO",
        "streetNameDisplayText": "BEST RD, ORONO"
      },
      {
        "electoralDistricts": [
          {
            "election": null,
            "id": 73,
            "name": "Northumberland—Peterborough South"
          }
        ],
        "pollDivisionIds": [
          10140293
        ],
        "postalCode": "L0B1M0",
        "streetName": "BLEWETT",
        "streetDirectionId": null,
        "streetTypeId": "RD",
        "placeName": "ORONO",
        "streetNameDisplayText": "BLEWETT RD, ORONO"
      },
      {
        "electoralDistricts": [
          {
            "election": null,
            "id": 73,
            "name": "Northumberland—Peterborough South"
          }
        ],
        "pollDivisionIds": [
          10140294
        ],
        "postalCode": "L0B1M0",
        "streetName": "BOWEN",
        "streetDirectionId": null,
        "streetTypeId": "ST",
        "placeName": "ORONO",
        "streetNameDisplayText": "BOWEN ST, ORONO"
      },
      {
        "electoralDistricts": [
          {
            "election": null,
            "id": 73,
            "name": "Northumberland—Peterborough South"
          }
        ],
        "pollDivisionIds": [
          10140298
        ],
        "postalCode": "L0B1M0",
        "streetName": "BROWN",
        "streetDirectionId": null,
        "streetTypeId": "RD",
        "placeName": "ORONO",
        "streetNameDisplayText": "BROWN RD, ORONO"
      },
      {
        "electoralDistricts": [
          {
            "election": null,
            "id": 73,
            "name": "Northumberland—Peterborough South"
          }
        ],
        "pollDivisionIds": [
          10140298
        ],
        "postalCode": "L0B1M0",
        "streetName": "BUCKLEY",
        "streetDirectionId": null,
        "streetTypeId": "LANE",
        "placeName": "ORONO",
        "streetNameDisplayText": "BUCKLEY LANE, ORONO"
      },
      {
        "electoralDistricts": [
          {
            "election": null,
            "id": 73,
            "name": "Northumberland—Peterborough South"
          }
        ],
        "pollDivisionIds": [
          10140293
        ],
        "postalCode": "L0B1M0",
        "streetName": "BUCKLEY",
        "streetDirectionId": null,
        "streetTypeId": "RD",
        "placeName": "ORONO",
        "streetNameDisplayText": "BUCKLEY RD, ORONO"
      },
      {
        "electoralDistricts": [
          {
            "election": null,
            "id": 73,
            "name": "Northumberland—Peterborough South"
          }
        ],
        "pollDivisionIds": [
          10140292
        ],
        "postalCode": "L0B1M0",
        "streetName": "CARSCADDEN",
        "streetDirectionId": null,
        "streetTypeId": "RD",
        "placeName": "ORONO",
        "streetNameDisplayText": "CARSCADDEN RD, ORONO"
      },
      {
        "electoralDistricts": [
          {
            "election": null,
            "id": 73,
            "name": "Northumberland—Peterborough South"
          }
        ],
        "pollDivisionIds": [
          10140292
        ],
        "postalCode": "L0B1M0",
        "streetName": "CEDAR VALLEY",
        "streetDirectionId": null,
        "streetTypeId": "RD",
        "placeName": "ORONO",
        "streetNameDisplayText": "CEDAR VALLEY RD, ORONO"
      },
      {
        "electoralDistricts": [
          {
            "election": null,
            "id": 73,
            "name": "Northumberland—Peterborough South"
          }
        ],
        "pollDivisionIds": [
          10140294,
          10140295
        ],
        "postalCode": "L0B1M0",
        "streetName": "CENTREVIEW",
        "streetDirectionId": null,
        "streetTypeId": "ST",
        "placeName": "ORONO",
        "streetNameDisplayText": "CENTREVIEW ST, ORONO"
      },
      {
        "electoralDistricts": [
          {
            "election": null,
            "id": 73,
            "name": "Northumberland—Peterborough South"
          }
        ],
        "pollDivisionIds": [
          10140298
        ],
        "postalCode": "L0B1M0",
        "streetName": "CHATER",
        "streetDirectionId": null,
        "streetTypeId": "LANE",
        "placeName": "ORONO",
        "streetNameDisplayText": "CHATER LANE, ORONO"
      },
      {
        "electoralDistricts": [
          {
            "election": null,
            "id": 73,
            "name": "Northumberland—Peterborough South"
          }
        ],
        "pollDivisionIds": [
          10140294,
          10140295
        ],
        "postalCode": "L0B1M0",
        "streetName": "CHURCH",
        "streetDirectionId": "N",
        "streetTypeId": "ST",
        "placeName": "ORONO",
        "streetNameDisplayText": "CHURCH ST N, ORONO"
      },
      {
        "electoralDistricts": [
          {
            "election": null,
            "id": 73,
            "name": "Northumberland—Peterborough South"
          }
        ],
        "pollDivisionIds": [
          10140294
        ],
        "postalCode": "L0B1M0",
        "streetName": "CHURCH",
        "streetDirectionId": "S",
        "streetTypeId": "ST",
        "placeName": "ORONO",
        "streetNameDisplayText": "CHURCH ST S, ORONO"
      },
      {
        "electoralDistricts": [
          {
            "election": null,
            "id": 73,
            "name": "Northumberland—Peterborough South"
          }
        ],
        "pollDivisionIds": [
          10140295
        ],
        "postalCode": "L0B1M0",
        "streetName": "CHURCHILL",
        "streetDirectionId": null,
        "streetTypeId": "AVE",
        "placeName": "ORONO",
        "streetNameDisplayText": "CHURCHILL AVE, ORONO"
      },
      {
        "electoralDistricts": [
          {
            "election": null,
            "id": 73,
            "name": "Northumberland—Peterborough South"
          }
        ],
        "pollDivisionIds": [
          10140294
        ],
        "postalCode": "L0B1M0",
        "streetName": "COBBLEDICK",
        "streetDirectionId": null,
        "streetTypeId": "ST",
        "placeName": "ORONO",
        "streetNameDisplayText": "COBBLEDICK ST, ORONO"
      },
      {
        "electoralDistricts": [
          {
            "election": null,
            "id": 73,
            "name": "Northumberland—Peterborough South"
          }
        ],
        "pollDivisionIds": [
          10140292
        ],
        "postalCode": "L0B1M0",
        "streetName": "COLD SPRINGS CAMP",
        "streetDirectionId": null,
        "streetTypeId": "RD",
        "placeName": "KENDAL",
        "streetNameDisplayText": "COLD SPRINGS CAMP RD, KENDAL"
      },
      {
        "electoralDistricts": [
          {
            "election": null,
            "id": 73,
            "name": "Northumberland—Peterborough South"
          }
        ],
        "pollDivisionIds": [
          10140294
        ],
        "postalCode": "L0B1M0",
        "streetName": "CONC RD 5",
        "streetDirectionId": null,
        "streetTypeId": "CONC",
        "placeName": "ORONO",
        "streetNameDisplayText": "CONC RD 5 CONC, ORONO"
      },
      {
        "electoralDistricts": [
          {
            "election": null,
            "id": 73,
            "name": "Northumberland—Peterborough South"
          }
        ],
        "pollDivisionIds": [
          10140298
        ],
        "postalCode": "L0B1M0",
        "streetName": "CONCESSION 10",
        "streetDirectionId": null,
        "streetTypeId": "RD",
        "placeName": "ORONO",
        "streetNameDisplayText": "CONCESSION 10 RD, ORONO"
      },
      {
        "electoralDistricts": [
          {
            "election": null,
            "id": 73,
            "name": "Northumberland—Peterborough South"
          }
        ],
        "pollDivisionIds": [
          10140293,
          10140292,
          10140291,
          10140290
        ],
        "postalCode": "L0B1M0",
        "streetName": "CONCESSION 4",
        "streetDirectionId": null,
        "streetTypeId": "RD",
        "placeName": "ORONO",
        "streetNameDisplayText": "CONCESSION 4 RD, ORONO"
      },
      {
        "electoralDistricts": [
          {
            "election": null,
            "id": 73,
            "name": "Northumberland—Peterborough South"
          }
        ],
        "pollDivisionIds": [
          10140292,
          10140293
        ],
        "postalCode": "L0B1M0",
        "streetName": "CONCESSION 5",
        "streetDirectionId": null,
        "streetTypeId": "RD",
        "placeName": "ORONO",
        "streetNameDisplayText": "CONCESSION 5 RD, ORONO"
      },
      {
        "electoralDistricts": [
          {
            "election": null,
            "id": 73,
            "name": "Northumberland—Peterborough South"
          },
          {
            "election": null,
            "id": 24,
            "name": "Durham"
          }
        ],
        "pollDivisionIds": [
          10140293,
          10140297,
          10137835
        ],
        "postalCode": "L0B1M0",
        "streetName": "CONCESSION 6",
        "streetDirectionId": null,
        "streetTypeId": "RD",
        "placeName": "ORONO",
        "streetNameDisplayText": "CONCESSION 6 RD, ORONO"
      },
      {
        "electoralDistricts": [
          {
            "election": null,
            "id": 73,
            "name": "Northumberland—Peterborough South"
          }
        ],
        "pollDivisionIds": [
          10140298,
          10140297
        ],
        "postalCode": "L0B1M0",
        "streetName": "CONCESSION 7",
        "streetDirectionId": null,
        "streetTypeId": "RD",
        "placeName": "ORONO",
        "streetNameDisplayText": "CONCESSION 7 RD, ORONO"
      },
      {
        "electoralDistricts": [
          {
            "election": null,
            "id": 73,
            "name": "Northumberland—Peterborough South"
          }
        ],
        "pollDivisionIds": [
          10140292,
          10140298
        ],
        "postalCode": "L0B1M0",
        "streetName": "CONCESSION 8",
        "streetDirectionId": null,
        "streetTypeId": "RD",
        "placeName": "ORONO",
        "streetNameDisplayText": "CONCESSION 8 RD, ORONO"
      },
      {
        "electoralDistricts": [
          {
            "election": null,
            "id": 73,
            "name": "Northumberland—Peterborough South"
          }
        ],
        "pollDivisionIds": [
          10140292,
          10140290
        ],
        "postalCode": "L0B1M0",
        "streetName": "CONCESSION RD 4",
        "streetDirectionId": null,
        "streetTypeId": null,
        "placeName": "ORONO",
        "streetNameDisplayText": "CONCESSION RD 4, ORONO"
      },
      {
        "electoralDistricts": [
          {
            "election": null,
            "id": 73,
            "name": "Northumberland—Peterborough South"
          }
        ],
        "pollDivisionIds": [
          10140292
        ],
        "postalCode": "L0B1M0",
        "streetName": "CONCESSION RD 6",
        "streetDirectionId": null,
        "streetTypeId": null,
        "placeName": "KENDAL",
        "streetNameDisplayText": "CONCESSION RD 6, KENDAL"
      },
      {
        "electoralDistricts": [
          {
            "election": null,
            "id": 73,
            "name": "Northumberland—Peterborough South"
          }
        ],
        "pollDivisionIds": [
          10140297
        ],
        "postalCode": "L0B1M0",
        "streetName": "CONCESSION RD 7",
        "streetDirectionId": null,
        "streetTypeId": null,
        "placeName": "ORONO",
        "streetNameDisplayText": "CONCESSION RD 7, ORONO"
      },
      {
        "electoralDistricts": [
          {
            "election": null,
            "id": 73,
            "name": "Northumberland—Peterborough South"
          }
        ],
        "pollDivisionIds": [
          10140292
        ],
        "postalCode": "L0B1M0",
        "streetName": "CONCESSION RD 8",
        "streetDirectionId": null,
        "streetTypeId": null,
        "placeName": "ORONO",
        "streetNameDisplayText": "CONCESSION RD 8, ORONO"
      },
      {
        "electoralDistricts": [
          {
            "election": null,
            "id": 73,
            "name": "Northumberland—Peterborough South"
          }
        ],
        "pollDivisionIds": [
          10140298
        ],
        "postalCode": "L0B1M0",
        "streetName": "CONCESSION",
        "streetDirectionId": null,
        "streetTypeId": "RD",
        "placeName": "ORONO",
        "streetNameDisplayText": "CONCESSION RD, ORONO"
      },
      {
        "electoralDistricts": [
          {
            "election": null,
            "id": 73,
            "name": "Northumberland—Peterborough South"
          }
        ],
        "pollDivisionIds": [
          10140290
        ],
        "postalCode": "L0B1M0",
        "streetName": "CONCESSION ST 4",
        "streetDirectionId": null,
        "streetTypeId": "ST",
        "placeName": "ORONO",
        "streetNameDisplayText": "CONCESSION ST 4 ST, ORONO"
      },
      {
        "electoralDistricts": [
          {
            "election": null,
            "id": 73,
            "name": "Northumberland—Peterborough South"
          }
        ],
        "pollDivisionIds": [
          10140292
        ],
        "postalCode": "L0B1M0",
        "streetName": "COONEY",
        "streetDirectionId": null,
        "streetTypeId": "RD",
        "placeName": "ORONO",
        "streetNameDisplayText": "COONEY RD, ORONO"
      },
      {
        "electoralDistricts": [
          {
            "election": null,
            "id": 73,
            "name": "Northumberland—Peterborough South"
          }
        ],
        "pollDivisionIds": [
          10140295
        ],
        "postalCode": "L0B1M0",
        "streetName": "CO-OP",
        "streetDirectionId": null,
        "streetTypeId": "RD",
        "placeName": "ORONO",
        "streetNameDisplayText": "CO-OP RD, ORONO"
      },
      {
        "electoralDistricts": [
          {
            "election": null,
            "id": 73,
            "name": "Northumberland—Peterborough South"
          },
          {
            "election": null,
            "id": 24,
            "name": "Durham"
          }
        ],
        "pollDivisionIds": [
          10140298,
          10140297,
          10137835
        ],
        "postalCode": "L0B1M0",
        "streetName": "DARLINGTON-CLARKE",
        "streetDirectionId": null,
        "streetTypeId": "TLINE",
        "placeName": "ORONO",
        "streetNameDisplayText": "DARLINGTON-CLARKE TLINE, ORONO"
      },
      {
        "electoralDistricts": [
          {
            "election": null,
            "id": 73,
            "name": "Northumberland—Peterborough South"
          }
        ],
        "pollDivisionIds": [
          10140298
        ],
        "postalCode": "L0B1M0",
        "streetName": "DARLINGTON-MANVERS",
        "streetDirectionId": null,
        "streetTypeId": "TLINE",
        "placeName": "PONTYPOOL",
        "streetNameDisplayText": "DARLINGTON-MANVERS TLINE, PONTYPOOL"
      },
      {
        "electoralDistricts": [
          {
            "election": null,
            "id": 73,
            "name": "Northumberland—Peterborough South"
          }
        ],
        "pollDivisionIds": [
          10140295
        ],
        "postalCode": "L0B1M0",
        "streetName": "DAVIDS",
        "streetDirectionId": null,
        "streetTypeId": "CRES",
        "placeName": "ORONO",
        "streetNameDisplayText": "DAVIDS CRES, ORONO"
      },
      {
        "electoralDistricts": [
          {
            "election": null,
            "id": 73,
            "name": "Northumberland—Peterborough South"
          }
        ],
        "pollDivisionIds": [
          10140292
        ],
        "postalCode": "L0B1M0",
        "streetName": "DAWSON",
        "streetDirectionId": null,
        "streetTypeId": "RD",
        "placeName": "ORONO",
        "streetNameDisplayText": "DAWSON RD, ORONO"
      },
      {
        "electoralDistricts": [
          {
            "election": null,
            "id": 73,
            "name": "Northumberland—Peterborough South"
          }
        ],
        "pollDivisionIds": [
          10140294
        ],
        "postalCode": "L0B1M0",
        "streetName": "DUCHESS",
        "streetDirectionId": null,
        "streetTypeId": "ST",
        "placeName": "ORONO",
        "streetNameDisplayText": "DUCHESS ST, ORONO"
      },
      {
        "electoralDistricts": [
          {
            "election": null,
            "id": 73,
            "name": "Northumberland—Peterborough South"
          }
        ],
        "pollDivisionIds": [
          10140293,
          10140294
        ],
        "postalCode": "L0B1M0",
        "streetName": "GAMSBY",
        "streetDirectionId": null,
        "streetTypeId": "RD",
        "placeName": "ORONO",
        "streetNameDisplayText": "GAMSBY RD, ORONO"
      },
      {
        "electoralDistricts": [
          {
            "election": null,
            "id": 73,
            "name": "Northumberland—Peterborough South"
          }
        ],
        "pollDivisionIds": [
          10140292,
          10140297
        ],
        "postalCode": "L0B1M0",
        "streetName": "GANARASKA",
        "streetDirectionId": null,
        "streetTypeId": "RD",
        "placeName": "ORONO",
        "streetNameDisplayText": "GANARASKA RD, ORONO"
      },
      {
        "electoralDistricts": [
          {
            "election": null,
            "id": 73,
            "name": "Northumberland—Peterborough South"
          }
        ],
        "pollDivisionIds": [
          10140291
        ],
        "postalCode": "L0B1M0",
        "streetName": "GOLF COURSE",
        "streetDirectionId": null,
        "streetTypeId": "RD",
        "placeName": "ORONO",
        "streetNameDisplayText": "GOLF COURSE RD, ORONO"
      },
      {
        "electoralDistricts": [
          {
            "election": null,
            "id": 73,
            "name": "Northumberland—Peterborough South"
          }
        ],
        "pollDivisionIds": [
          10140292
        ],
        "postalCode": "L0B1M0",
        "streetName": "HARRIS",
        "streetDirectionId": null,
        "streetTypeId": "RD",
        "placeName": "ORONO",
        "streetNameDisplayText": "HARRIS RD, ORONO"
      },
      {
        "electoralDistricts": [
          {
            "election": null,
            "id": 73,
            "name": "Northumberland—Peterborough South"
          }
        ],
        "pollDivisionIds": [
          10140293,
          10140292
        ],
        "postalCode": "L0B1M0",
        "streetName": "HENRY",
        "streetDirectionId": null,
        "streetTypeId": "RD",
        "placeName": "ORONO",
        "streetNameDisplayText": "HENRY RD, ORONO"
      },
      {
        "electoralDistricts": [
          {
            "election": null,
            "id": 73,
            "name": "Northumberland—Peterborough South"
          }
        ],
        "pollDivisionIds": [
          10140296
        ],
        "postalCode": "L0B1M0",
        "streetName": "HILLCREST",
        "streetDirectionId": null,
        "streetTypeId": "LANE",
        "placeName": "ORONO",
        "streetNameDisplayText": "HILLCREST LANE, ORONO"
      },
      {
        "electoralDistricts": [
          {
            "election": null,
            "id": 73,
            "name": "Northumberland—Peterborough South"
          }
        ],
        "pollDivisionIds": [
          10140293
        ],
        "postalCode": "L0B1M0",
        "streetName": "IRWIN",
        "streetDirectionId": null,
        "streetTypeId": "RD",
        "placeName": "ORONO",
        "streetNameDisplayText": "IRWIN RD, ORONO"
      },
      {
        "electoralDistricts": [
          {
            "election": null,
            "id": 73,
            "name": "Northumberland—Peterborough South"
          }
        ],
        "pollDivisionIds": [
          10140297,
          10140293
        ],
        "postalCode": "L0B1M0",
        "streetName": "JEWEL",
        "streetDirectionId": null,
        "streetTypeId": "RD",
        "placeName": "ORONO",
        "streetNameDisplayText": "JEWEL RD, ORONO"
      },
      {
        "electoralDistricts": [
          {
            "election": null,
            "id": 73,
            "name": "Northumberland—Peterborough South"
          }
        ],
        "pollDivisionIds": [
          10140293
        ],
        "postalCode": "L0B1M0",
        "streetName": "LAWRENCE",
        "streetDirectionId": null,
        "streetTypeId": "RD",
        "placeName": "ORONO",
        "streetNameDisplayText": "LAWRENCE RD, ORONO"
      },
      {
        "electoralDistricts": [
          {
            "election": null,
            "id": 73,
            "name": "Northumberland—Peterborough South"
          }
        ],
        "pollDivisionIds": [
          10140297,
          10140298
        ],
        "postalCode": "L0B1M0",
        "streetName": "LESKARD",
        "streetDirectionId": null,
        "streetTypeId": "RD",
        "placeName": "ORONO",
        "streetNameDisplayText": "LESKARD RD, ORONO"
      },
      {
        "electoralDistricts": [
          {
            "election": null,
            "id": 73,
            "name": "Northumberland—Peterborough South"
          }
        ],
        "pollDivisionIds": [
          10140290
        ],
        "postalCode": "L0B1M0",
        "streetName": "LOCKHART",
        "streetDirectionId": null,
        "streetTypeId": "RD",
        "placeName": "ORONO",
        "streetNameDisplayText": "LOCKHART RD, ORONO"
      },
      {
        "electoralDistricts": [
          {
            "election": null,
            "id": 73,
            "name": "Northumberland—Peterborough South"
          }
        ],
        "pollDivisionIds": [
          10140297
        ],
        "postalCode": "L0B1M0",
        "streetName": "LOWERY",
        "streetDirectionId": null,
        "streetTypeId": "RD",
        "placeName": "ORONO",
        "streetNameDisplayText": "LOWERY RD, ORONO"
      },
      {
        "electoralDistricts": [
          {
            "election": null,
            "id": 73,
            "name": "Northumberland—Peterborough South"
          }
        ],
        "pollDivisionIds": [
          10140294,
          10140293,
          10140296,
          10140295
        ],
        "postalCode": "L0B1M0",
        "streetName": "MAIN",
        "streetDirectionId": null,
        "streetTypeId": "ST",
        "placeName": "ORONO",
        "streetNameDisplayText": "MAIN ST, ORONO"
      },
      {
        "electoralDistricts": [
          {
            "election": null,
            "id": 73,
            "name": "Northumberland—Peterborough South"
          }
        ],
        "pollDivisionIds": [
          10140292
        ],
        "postalCode": "L0B1M0",
        "streetName": "MAYNARD",
        "streetDirectionId": null,
        "streetTypeId": "RD",
        "placeName": "ORONO",
        "streetNameDisplayText": "MAYNARD RD, ORONO"
      },
      {
        "electoralDistricts": [
          {
            "election": null,
            "id": 73,
            "name": "Northumberland—Peterborough South"
          }
        ],
        "pollDivisionIds": [
          10140293
        ],
        "postalCode": "L0B1M0",
        "streetName": "MILL POND",
        "streetDirectionId": null,
        "streetTypeId": "DR",
        "placeName": "ORONO",
        "streetNameDisplayText": "MILL POND DR, ORONO"
      },
      {
        "electoralDistricts": [
          {
            "election": null,
            "id": 73,
            "name": "Northumberland—Peterborough South"
          }
        ],
        "pollDivisionIds": [
          10140295
        ],
        "postalCode": "L0B1M0",
        "streetName": "MILL",
        "streetDirectionId": "S",
        "streetTypeId": "ST",
        "placeName": "ORONO",
        "streetNameDisplayText": "MILL ST S, ORONO"
      },
      {
        "electoralDistricts": [
          {
            "election": null,
            "id": 73,
            "name": "Northumberland—Peterborough South"
          }
        ],
        "pollDivisionIds": [
          10140295
        ],
        "postalCode": "L0B1M0",
        "streetName": "MILL",
        "streetDirectionId": null,
        "streetTypeId": "ST",
        "placeName": "ORONO",
        "streetNameDisplayText": "MILL ST, ORONO"
      },
      {
        "electoralDistricts": [
          {
            "election": null,
            "id": 73,
            "name": "Northumberland—Peterborough South"
          }
        ],
        "pollDivisionIds": [
          10140296,
          10140295
        ],
        "postalCode": "L0B1M0",
        "streetName": "MILLSON HILL",
        "streetDirectionId": null,
        "streetTypeId": "DR",
        "placeName": "ORONO",
        "streetNameDisplayText": "MILLSON HILL DR, ORONO"
      },
      {
        "electoralDistricts": [
          {
            "election": null,
            "id": 73,
            "name": "Northumberland—Peterborough South"
          }
        ],
        "pollDivisionIds": [
          10140290
        ],
        "postalCode": "L0B1M0",
        "streetName": "MOFFAT",
        "streetDirectionId": null,
        "streetTypeId": "RD",
        "placeName": "ORONO",
        "streetNameDisplayText": "MOFFAT RD, ORONO"
      },
      {
        "electoralDistricts": [
          {
            "election": null,
            "id": 73,
            "name": "Northumberland—Peterborough South"
          }
        ],
        "pollDivisionIds": [
          10140291
        ],
        "postalCode": "L0B1M0",
        "streetName": "MORGANS",
        "streetDirectionId": null,
        "streetTypeId": "RD",
        "placeName": "ORONO",
        "streetNameDisplayText": "MORGANS RD, ORONO"
      },
      {
        "electoralDistricts": [
          {
            "election": null,
            "id": 73,
            "name": "Northumberland—Peterborough South"
          }
        ],
        "pollDivisionIds": [
          10140298
        ],
        "postalCode": "L0B1M0",
        "streetName": "MOSPORT",
        "streetDirectionId": null,
        "streetTypeId": "RD",
        "placeName": "ORONO",
        "streetNameDisplayText": "MOSPORT RD, ORONO"
      },
      {
        "electoralDistricts": [
          {
            "election": null,
            "id": 73,
            "name": "Northumberland—Peterborough South"
          }
        ],
        "pollDivisionIds": [
          10140297
        ],
        "postalCode": "L0B1M0",
        "streetName": "NIXON",
        "streetDirectionId": null,
        "streetTypeId": "RD",
        "placeName": "ORONO",
        "streetNameDisplayText": "NIXON RD, ORONO"
      },
      {
        "electoralDistricts": [
          {
            "election": null,
            "id": 73,
            "name": "Northumberland—Peterborough South"
          }
        ],
        "pollDivisionIds": [
          10140295
        ],
        "postalCode": "L0B1M0",
        "streetName": "NORTH MILL",
        "streetDirectionId": null,
        "streetTypeId": "LANE",
        "placeName": "ORONO",
        "streetNameDisplayText": "NORTH MILL LANE, ORONO"
      },
      {
        "electoralDistricts": [
          {
            "election": null,
            "id": 73,
            "name": "Northumberland—Peterborough South"
          }
        ],
        "pollDivisionIds": [
          10140294
        ],
        "postalCode": "L0B1M0",
        "streetName": "NORTH STATION",
        "streetDirectionId": "N",
        "streetTypeId": "ST",
        "placeName": "ORONO",
        "streetNameDisplayText": "NORTH STATION ST N, ORONO"
      },
      {
        "electoralDistricts": [
          {
            "election": null,
            "id": 73,
            "name": "Northumberland—Peterborough South"
          }
        ],
        "pollDivisionIds": [
          10140294
        ],
        "postalCode": "L0B1M0",
        "streetName": "NORTH STATION",
        "streetDirectionId": null,
        "streetTypeId": "ST",
        "placeName": "ORONO",
        "streetNameDisplayText": "NORTH STATION ST, ORONO"
      },
      {
        "electoralDistricts": [
          {
            "election": null,
            "id": 73,
            "name": "Northumberland—Peterborough South"
          }
        ],
        "pollDivisionIds": [
          10140292
        ],
        "postalCode": "L0B1M0",
        "streetName": "OAK SCHOOL",
        "streetDirectionId": null,
        "streetTypeId": "RD",
        "placeName": "ORONO",
        "streetNameDisplayText": "OAK SCHOOL RD, ORONO"
      },
      {
        "electoralDistricts": [
          {
            "election": null,
            "id": 73,
            "name": "Northumberland—Peterborough South"
          }
        ],
        "pollDivisionIds": [
          10140296,
          10140297
        ],
        "postalCode": "L0B1M0",
        "streetName": "OCHONSKI",
        "streetDirectionId": null,
        "streetTypeId": "RD",
        "placeName": "ORONO",
        "streetNameDisplayText": "OCHONSKI RD, ORONO"
      },
      {
        "electoralDistricts": [
          {
            "election": null,
            "id": 73,
            "name": "Northumberland—Peterborough South"
          }
        ],
        "pollDivisionIds": [
          10140298
        ],
        "postalCode": "L0B1M0",
        "streetName": "OLD 35",
        "streetDirectionId": null,
        "streetTypeId": "HWY",
        "placeName": "ORONO",
        "streetNameDisplayText": "OLD 35 HWY, ORONO"
      },
      {
        "electoralDistricts": [
          {
            "election": null,
            "id": 73,
            "name": "Northumberland—Peterborough South"
          }
        ],
        "pollDivisionIds": [
          10140295
        ],
        "postalCode": "L0B1M0",
        "streetName": "OLD CEMETERY",
        "streetDirectionId": null,
        "streetTypeId": "RD",
        "placeName": "ORONO",
        "streetNameDisplayText": "OLD CEMETERY RD, ORONO"
      },
      {
        "electoralDistricts": [
          {
            "election": null,
            "id": 73,
            "name": "Northumberland—Peterborough South"
          }
        ],
        "pollDivisionIds": [
          10140297
        ],
        "postalCode": "L0B1M0",
        "streetName": "OLD KIRBY",
        "streetDirectionId": null,
        "streetTypeId": "RD",
        "placeName": "ORONO",
        "streetNameDisplayText": "OLD KIRBY RD, ORONO"
      },
      {
        "electoralDistricts": [
          {
            "election": null,
            "id": 73,
            "name": "Northumberland—Peterborough South"
          }
        ],
        "pollDivisionIds": [
          10140292
        ],
        "postalCode": "L0B1M0",
        "streetName": "OLD KIRBY SCHOOL",
        "streetDirectionId": null,
        "streetTypeId": "RD",
        "placeName": "ORONO",
        "streetNameDisplayText": "OLD KIRBY SCHOOL RD, ORONO"
      },
      {
        "electoralDistricts": [
          {
            "election": null,
            "id": 73,
            "name": "Northumberland—Peterborough South"
          }
        ],
        "pollDivisionIds": [
          10140294
        ],
        "postalCode": "L0B1M0",
        "streetName": "ORONO DIVISION",
        "streetDirectionId": null,
        "streetTypeId": "ST",
        "placeName": "ORONO",
        "streetNameDisplayText": "ORONO DIVISION ST, ORONO"
      },
      {
        "electoralDistricts": [
          {
            "election": null,
            "id": 73,
            "name": "Northumberland—Peterborough South"
          }
        ],
        "pollDivisionIds": [
          10140294
        ],
        "postalCode": "L0B1M0",
        "streetName": "PARK",
        "streetDirectionId": null,
        "streetTypeId": "ST",
        "placeName": "ORONO",
        "streetNameDisplayText": "PARK ST, ORONO"
      },
      {
        "electoralDistricts": [
          {
            "election": null,
            "id": 73,
            "name": "Northumberland—Peterborough South"
          }
        ],
        "pollDivisionIds": [
          10140293
        ],
        "postalCode": "L0B1M0",
        "streetName": "PATTERSON",
        "streetDirectionId": null,
        "streetTypeId": "RD",
        "placeName": "ORONO",
        "streetNameDisplayText": "PATTERSON RD, ORONO"
      },
      {
        "electoralDistricts": [
          {
            "election": null,
            "id": 73,
            "name": "Northumberland—Peterborough South"
          }
        ],
        "pollDivisionIds": [
          10140295
        ],
        "postalCode": "L0B1M0",
        "streetName": "PETERS PIKE",
        "streetDirectionId": null,
        "streetTypeId": "RD",
        "placeName": "ORONO",
        "streetNameDisplayText": "PETERS PIKE RD, ORONO"
      },
      {
        "electoralDistricts": [
          {
            "election": null,
            "id": 73,
            "name": "Northumberland—Peterborough South"
          }
        ],
        "pollDivisionIds": [
          10140295
        ],
        "postalCode": "L0B1M0",
        "streetName": "PIGGOT",
        "streetDirectionId": null,
        "streetTypeId": "LANE",
        "placeName": "ORONO",
        "streetNameDisplayText": "PIGGOT LANE, ORONO"
      },
      {
        "electoralDistricts": [
          {
            "election": null,
            "id": 73,
            "name": "Northumberland—Peterborough South"
          }
        ],
        "pollDivisionIds": [
          10140297,
          10140293
        ],
        "postalCode": "L0B1M0",
        "streetName": "POLLARD",
        "streetDirectionId": null,
        "streetTypeId": "RD",
        "placeName": "ORONO",
        "streetNameDisplayText": "POLLARD RD, ORONO"
      },
      {
        "electoralDistricts": [
          {
            "election": null,
            "id": 73,
            "name": "Northumberland—Peterborough South"
          }
        ],
        "pollDivisionIds": [
          10140292
        ],
        "postalCode": "L0B1M0",
        "streetName": "POWERS",
        "streetDirectionId": null,
        "streetTypeId": "CRT",
        "placeName": "ORONO",
        "streetNameDisplayText": "POWERS CRT, ORONO"
      },
      {
        "electoralDistricts": [
          {
            "election": null,
            "id": 73,
            "name": "Northumberland—Peterborough South"
          }
        ],
        "pollDivisionIds": [
          10140296,
          10140294
        ],
        "postalCode": "L0B1M0",
        "streetName": "PRINCESS",
        "streetDirectionId": null,
        "streetTypeId": "ST",
        "placeName": "ORONO",
        "streetNameDisplayText": "PRINCESS ST, ORONO"
      },
      {
        "electoralDistricts": [
          {
            "election": null,
            "id": 73,
            "name": "Northumberland—Peterborough South"
          }
        ],
        "pollDivisionIds": [
          10140292
        ],
        "postalCode": "L0B1M0",
        "streetName": "REID",
        "streetDirectionId": null,
        "streetTypeId": "RD",
        "placeName": "ORONO",
        "streetNameDisplayText": "REID RD, ORONO"
      },
      {
        "electoralDistricts": [
          {
            "election": null,
            "id": 73,
            "name": "Northumberland—Peterborough South"
          }
        ],
        "pollDivisionIds": [
          10140295
        ],
        "postalCode": "L0B1M0",
        "streetName": "ROBINS",
        "streetDirectionId": null,
        "streetTypeId": "RD",
        "placeName": "ORONO",
        "streetNameDisplayText": "ROBINS RD, ORONO"
      },
      {
        "electoralDistricts": [
          {
            "election": null,
            "id": 73,
            "name": "Northumberland—Peterborough South"
          }
        ],
        "pollDivisionIds": [
          10140294
        ],
        "postalCode": "L0B1M0",
        "streetName": "ROWE",
        "streetDirectionId": null,
        "streetTypeId": "ST",
        "placeName": "ORONO",
        "streetNameDisplayText": "ROWE ST, ORONO"
      },
      {
        "electoralDistricts": [
          {
            "election": null,
            "id": 73,
            "name": "Northumberland—Peterborough South"
          }
        ],
        "pollDivisionIds": [
          10140298
        ],
        "postalCode": "L0B1M0",
        "streetName": "SKELDING",
        "streetDirectionId": null,
        "streetTypeId": "RD",
        "placeName": "ORONO",
        "streetNameDisplayText": "SKELDING RD, ORONO"
      },
      {
        "electoralDistricts": [
          {
            "election": null,
            "id": 73,
            "name": "Northumberland—Peterborough South"
          }
        ],
        "pollDivisionIds": [
          10140293,
          10140296,
          10140294
        ],
        "postalCode": "L0B1M0",
        "streetName": "SOMMERVILLE",
        "streetDirectionId": null,
        "streetTypeId": "DR",
        "placeName": "ORONO",
        "streetNameDisplayText": "SOMMERVILLE DR, ORONO"
      },
      {
        "electoralDistricts": [
          {
            "election": null,
            "id": 73,
            "name": "Northumberland—Peterborough South"
          }
        ],
        "pollDivisionIds": [
          10140294,
          10140293
        ],
        "postalCode": "L0B1M0",
        "streetName": "SOMMERVILLE",
        "streetDirectionId": null,
        "streetTypeId": "RD",
        "placeName": "ORONO",
        "streetNameDisplayText": "SOMMERVILLE RD, ORONO"
      },
      {
        "electoralDistricts": [
          {
            "election": null,
            "id": 73,
            "name": "Northumberland—Peterborough South"
          }
        ],
        "pollDivisionIds": [
          10140293
        ],
        "postalCode": "L0B1M0",
        "streetName": "SQUAIR",
        "streetDirectionId": null,
        "streetTypeId": "RD",
        "placeName": "ORONO",
        "streetNameDisplayText": "SQUAIR RD, ORONO"
      },
      {
        "electoralDistricts": [
          {
            "election": null,
            "id": 73,
            "name": "Northumberland—Peterborough South"
          }
        ],
        "pollDivisionIds": [
          10140293,
          10140297,
          10140298
        ],
        "postalCode": "L0B1M0",
        "streetName": "ST. EDMUNDS",
        "streetDirectionId": null,
        "streetTypeId": "CRES",
        "placeName": "ORONO",
        "streetNameDisplayText": "ST. EDMUNDS CRES, ORONO"
      },
      {
        "electoralDistricts": [
          {
            "election": null,
            "id": 73,
            "name": "Northumberland—Peterborough South"
          }
        ],
        "pollDivisionIds": [
          10140291
        ],
        "postalCode": "L0B1M0",
        "streetName": "STAPLETON",
        "streetDirectionId": null,
        "streetTypeId": "RD",
        "placeName": "ORONO",
        "streetNameDisplayText": "STAPLETON RD, ORONO"
      },
      {
        "electoralDistricts": [
          {
            "election": null,
            "id": 73,
            "name": "Northumberland—Peterborough South"
          }
        ],
        "pollDivisionIds": [
          10140296,
          10140294
        ],
        "postalCode": "L0B1M0",
        "streetName": "STATION",
        "streetDirectionId": null,
        "streetTypeId": "ST",
        "placeName": "ORONO",
        "streetNameDisplayText": "STATION ST, ORONO"
      },
      {
        "electoralDistricts": [
          {
            "election": null,
            "id": 73,
            "name": "Northumberland—Peterborough South"
          }
        ],
        "pollDivisionIds": [
          10140294,
          10140295,
          10140297
        ],
        "postalCode": "L0B1M0",
        "streetName": "TAMBLYN",
        "streetDirectionId": null,
        "streetTypeId": "RD",
        "placeName": "ORONO",
        "streetNameDisplayText": "TAMBLYN RD, ORONO"
      },
      {
        "electoralDistricts": [
          {
            "election": null,
            "id": 73,
            "name": "Northumberland—Peterborough South"
          },
          {
            "election": null,
            "id": 24,
            "name": "Durham"
          }
        ],
        "pollDivisionIds": [
          10140296,
          10137829,
          10140295,
          10140297
        ],
        "postalCode": "L0B1M0",
        "streetName": "TAUNTON",
        "streetDirectionId": null,
        "streetTypeId": "RD",
        "placeName": "ORONO",
        "streetNameDisplayText": "TAUNTON RD, ORONO"
      },
      {
        "electoralDistricts": [
          {
            "election": null,
            "id": 73,
            "name": "Northumberland—Peterborough South"
          }
        ],
        "pollDivisionIds": [
          10140298
        ],
        "postalCode": "L0B1M0",
        "streetName": "TIGH",
        "streetDirectionId": null,
        "streetTypeId": "ST",
        "placeName": "ORONO",
        "streetNameDisplayText": "TIGH ST, ORONO"
      },
      {
        "electoralDistricts": [
          {
            "election": null,
            "id": 73,
            "name": "Northumberland—Peterborough South"
          }
        ],
        "pollDivisionIds": [
          10140293
        ],
        "postalCode": "L0B1M0",
        "streetName": "VICKERS",
        "streetDirectionId": null,
        "streetTypeId": "RD",
        "placeName": "ORONO",
        "streetNameDisplayText": "VICKERS RD, ORONO"
      },
      {
        "electoralDistricts": [
          {
            "election": null,
            "id": 73,
            "name": "Northumberland—Peterborough South"
          }
        ],
        "pollDivisionIds": [
          10140292,
          10140293
        ],
        "postalCode": "L0B1M0",
        "streetName": "WALSH",
        "streetDirectionId": null,
        "streetTypeId": "RD",
        "placeName": "ORONO",
        "streetNameDisplayText": "WALSH RD, ORONO"
      },
      {
        "electoralDistricts": [
          {
            "election": null,
            "id": 73,
            "name": "Northumberland—Peterborough South"
          }
        ],
        "pollDivisionIds": [
          10140292
        ],
        "postalCode": "L0B1M0",
        "streetName": "WILCOX",
        "streetDirectionId": null,
        "streetTypeId": "RD",
        "placeName": "ORONO",
        "streetNameDisplayText": "WILCOX RD, ORONO"
      },
      {
        "electoralDistricts": [
          {
            "election": null,
            "id": 73,
            "name": "Northumberland—Peterborough South"
          }
        ],
        "pollDivisionIds": [
          10140293
        ],
        "postalCode": "L0B1M0",
        "streetName": "WINTER",
        "streetDirectionId": null,
        "streetTypeId": "RD",
        "placeName": "ORONO",
        "streetNameDisplayText": "WINTER RD, ORONO"
      }
    ]
  },
  {
    "postal": "L0B1N0",
    "result": []
  },
  {
    "postal": "L0B1P0",
    "result": []
  }
]
