[
  {
    "postal": "K1H9J6",
    "result": []
  },
  {
    "postal": "K1H9Z5",
    "result": []
  },
  {
    "postal": "K1H7H8",
    "result": [
      {
        "electoralDistricts": [
          {
            "election": null,
            "id": 79,
            "name": "Ottawa South"
          }
        ],
        "pollDivisionIds": [
          10140658
        ],
        "postalCode": "K1H7H8",
        "streetName": "HILLARY",
        "streetDirectionId": null,
        "streetTypeId": "AVE",
        "placeName": "OTTAWA",
        "streetNameDisplayText": "HILLARY AVE, OTTAWA"
      }
    ]
  },
  {
    "postal": "K1H0P6",
    "result": []
  },
  {
    "postal": "K1H0S7",
    "result": []
  },
  {
    "postal": "K1H8B9",
    "result": [
      {
        "electoralDistricts": [
          {
            "election": null,
            "id": 79,
            "name": "Ottawa South"
          }
        ],
        "pollDivisionIds": [
          10140656
        ],
        "postalCode": "K1H8B9",
        "streetName": "ALDEA",
        "streetDirectionId": null,
        "streetTypeId": "AVE",
        "placeName": "OTTAWA",
        "streetNameDisplayText": "ALDEA AVE, OTTAWA"
      }
    ]
  },
  {
    "postal": "K1H2A6",
    "result": []
  },
  {
    "postal": "K1H7V2",
    "result": [
      {
        "electoralDistricts": [
          {
            "election": null,
            "id": 79,
            "name": "Ottawa South"
          }
        ],
        "pollDivisionIds": [
          10140657
        ],
        "postalCode": "K1H7V2",
        "streetName": "EVANS",
        "streetDirectionId": null,
        "streetTypeId": "PL",
        "placeName": "OTTAWA",
        "streetNameDisplayText": "EVANS PL, OTTAWA"
      }
    ]
  },
  {
    "postal": "K1H9P4",
    "result": []
  },
  {
    "postal": "K1H6G0",
    "result": []
  },
  {
    "postal": "K1H2K0",
    "result": []
  },
  {
    "postal": "K1H7N6",
    "result": [
      {
        "electoralDistricts": [
          {
            "election": null,
            "id": 79,
            "name": "Ottawa South"
          }
        ],
        "pollDivisionIds": [
          10140657
        ],
        "postalCode": "K1H7N6",
        "streetName": "ORILLIA",
        "streetDirectionId": null,
        "streetTypeId": "ST",
        "placeName": "OTTAWA",
        "streetNameDisplayText": "ORILLIA ST, OTTAWA"
      }
    ]
  },
  {
    "postal": "K1H5R3",
    "result": [
      {
        "electoralDistricts": [
          {
            "election": null,
            "id": 79,
            "name": "Ottawa South"
          }
        ],
        "pollDivisionIds": [
          10140652
        ],
        "postalCode": "K1H5R3",
        "streetName": "DELMAR",
        "streetDirectionId": null,
        "streetTypeId": "DR",
        "placeName": "OTTAWA",
        "streetNameDisplayText": "DELMAR DR, OTTAWA"
      }
    ]
  },
  {
    "postal": "K1H7K0",
    "result": []
  },
  {
    "postal": "K1H3R2",
    "result": []
  },
  {
    "postal": "K1H0J1",
    "result": []
  },
  {
    "postal": "K1H0B0",
    "result": []
  },
  {
    "postal": "K1H5Z2",
    "result": [
      {
        "electoralDistricts": [
          {
            "election": null,
            "id": 79,
            "name": "Ottawa South"
          }
        ],
        "pollDivisionIds": [
          10140651
        ],
        "postalCode": "K1H5Z2",
        "streetName": "FAIRBANKS",
        "streetDirectionId": null,
        "streetTypeId": "AVE",
        "placeName": "OTTAWA",
        "streetNameDisplayText": "FAIRBANKS AVE, OTTAWA"
      }
    ]
  },
  {
    "postal": "K1H7P3",
    "result": [
      {
        "electoralDistricts": [
          {
            "election": null,
            "id": 79,
            "name": "Ottawa South"
          }
        ],
        "pollDivisionIds": [
          10140658
        ],
        "postalCode": "K1H7P3",
        "streetName": "SNOWDON",
        "streetDirectionId": null,
        "streetTypeId": "ST",
        "placeName": "OTTAWA",
        "streetNameDisplayText": "SNOWDON ST, OTTAWA"
      }
    ]
  },
  {
    "postal": "K1H2K3",
    "result": []
  },
  {
    "postal": "K1H7Y6",
    "result": []
  },
  {
    "postal": "K1H1L9",
    "result": []
  },
  {
    "postal": "K1H8T0",
    "result": []
  },
  {
    "postal": "K1H3K8",
    "result": []
  },
  {
    "postal": "K1H5W9",
    "result": [
      {
        "electoralDistricts": [
          {
            "election": null,
            "id": 79,
            "name": "Ottawa South"
          }
        ],
        "pollDivisionIds": [
          10140651
        ],
        "postalCode": "K1H5W9",
        "streetName": "THESSALY",
        "streetDirectionId": null,
        "streetTypeId": "CIR",
        "placeName": "OTTAWA",
        "streetNameDisplayText": "THESSALY CIR, OTTAWA"
      }
    ]
  },
  {
    "postal": "K1H6T9",
    "result": [
      {
        "electoralDistricts": [
          {
            "election": null,
            "id": 79,
            "name": "Ottawa South"
          }
        ],
        "pollDivisionIds": [
          10140660
        ],
        "postalCode": "K1H6T9",
        "streetName": "LOUISIANA",
        "streetDirectionId": null,
        "streetTypeId": "AVE",
        "placeName": "OTTAWA",
        "streetNameDisplayText": "LOUISIANA AVE, OTTAWA"
      }
    ]
  },
  {
    "postal": "K1H4H1",
    "result": []
  },
  {
    "postal": "K1H7A2",
    "result": [
      {
        "electoralDistricts": [
          {
            "election": null,
            "id": 79,
            "name": "Ottawa South"
          }
        ],
        "pollDivisionIds": [
          10140660
        ],
        "postalCode": "K1H7A2",
        "streetName": "JEFFERSON",
        "streetDirectionId": null,
        "streetTypeId": "ST",
        "placeName": "OTTAWA",
        "streetNameDisplayText": "JEFFERSON ST, OTTAWA"
      }
    ]
  },
  {
    "postal": "K1H5G0",
    "result": []
  },
  {
    "postal": "K1H8V5",
    "result": []
  },
  {
    "postal": "K1H2Y8",
    "result": []
  },
  {
    "postal": "K1H2B6",
    "result": []
  },
  {
    "postal": "K1H4W8",
    "result": []
  },
  {
    "postal": "K1H8H7",
    "result": [
      {
        "electoralDistricts": [
          {
            "election": null,
            "id": 79,
            "name": "Ottawa South"
          }
        ],
        "pollDivisionIds": [
          10140656
        ],
        "postalCode": "K1H8H7",
        "streetName": "CLOVER",
        "streetDirectionId": null,
        "streetTypeId": "ST",
        "placeName": "OTTAWA",
        "streetNameDisplayText": "CLOVER ST, OTTAWA"
      }
    ]
  },
  {
    "postal": "K1H5P1",
    "result": [
      {
        "electoralDistricts": [
          {
            "election": null,
            "id": 79,
            "name": "Ottawa South"
          }
        ],
        "pollDivisionIds": [
          10140652
        ],
        "postalCode": "K1H5P1",
        "streetName": "OXBOW",
        "streetDirectionId": null,
        "streetTypeId": "AVE",
        "placeName": "OTTAWA",
        "streetNameDisplayText": "OXBOW AVE, OTTAWA"
      }
    ]
  },
  {
    "postal": "K1H2B8",
    "result": []
  },
  {
    "postal": "K1H0P2",
    "result": []
  },
  {
    "postal": "K1H9M1",
    "result": []
  },
  {
    "postal": "K1H3G0",
    "result": []
  },
  {
    "postal": "K1H9Z2",
    "result": []
  },
  {
    "postal": "K1H2A0",
    "result": []
  },
  {
    "postal": "K1H6Y0",
    "result": []
  },
  {
    "postal": "K1H2Z8",
    "result": []
  },
  {
    "postal": "K1H7Y3",
    "result": [
      {
        "electoralDistricts": [
          {
            "election": null,
            "id": 79,
            "name": "Ottawa South"
          }
        ],
        "pollDivisionIds": [
          10140656
        ],
        "postalCode": "K1H7Y3",
        "streetName": "BANK",
        "streetDirectionId": null,
        "streetTypeId": "ST",
        "placeName": "OTTAWA",
        "streetNameDisplayText": "BANK ST, OTTAWA"
      }
    ]
  },
  {
    "postal": "K1H6Z5",
    "result": [
      {
        "electoralDistricts": [
          {
            "election": null,
            "id": 79,
            "name": "Ottawa South"
          }
        ],
        "pollDivisionIds": [
          10140660
        ],
        "postalCode": "K1H6Z5",
        "streetName": "ARIZONA",
        "streetDirectionId": null,
        "streetTypeId": "AVE",
        "placeName": "OTTAWA",
        "streetNameDisplayText": "ARIZONA AVE, OTTAWA"
      }
    ]
  },
  {
    "postal": "K1H6E0",
    "result": []
  },
  {
    "postal": "K1H9B7",
    "result": []
  },
  {
    "postal": "K1H9S5",
    "result": []
  },
  {
    "postal": "K1H3X3",
    "result": []
  },
  {
    "postal": "K1H7R5",
    "result": [
      {
        "electoralDistricts": [
          {
            "election": null,
            "id": 79,
            "name": "Ottawa South"
          }
        ],
        "pollDivisionIds": [
          10140658
        ],
        "postalCode": "K1H7R5",
        "streetName": "RANDALL",
        "streetDirectionId": null,
        "streetTypeId": "AVE",
        "placeName": "OTTAWA",
        "streetNameDisplayText": "RANDALL AVE, OTTAWA"
      }
    ]
  },
  {
    "postal": "K1H2X3",
    "result": []
  },
  {
    "postal": "K1H8Z9",
    "result": []
  },
  {
    "postal": "K1H0N4",
    "result": []
  },
  {
    "postal": "K1H1K1",
    "result": []
  },
  {
    "postal": "K1H1S3",
    "result": []
  },
  {
    "postal": "K1H6M4",
    "result": [
      {
        "electoralDistricts": [
          {
            "election": null,
            "id": 79,
            "name": "Ottawa South"
          }
        ],
        "pollDivisionIds": [
          10140658
        ],
        "postalCode": "K1H6M4",
        "streetName": "KILBORN",
        "streetDirectionId": null,
        "streetTypeId": "AVE",
        "placeName": "OTTAWA",
        "streetNameDisplayText": "KILBORN AVE, OTTAWA"
      }
    ]
  },
  {
    "postal": "K1H9A9",
    "result": []
  },
  {
    "postal": "K1H9Z9",
    "result": []
  },
  {
    "postal": "K1H6T4",
    "result": [
      {
        "electoralDistricts": [
          {
            "election": null,
            "id": 79,
            "name": "Ottawa South"
          }
        ],
        "pollDivisionIds": [
          10140660
        ],
        "postalCode": "K1H6T4",
        "streetName": "KIPLING",
        "streetDirectionId": null,
        "streetTypeId": "ST",
        "placeName": "OTTAWA",
        "streetNameDisplayText": "KIPLING ST, OTTAWA"
      }
    ]
  },
  {
    "postal": "K1H0B2",
    "result": []
  },
  {
    "postal": "K1H2L9",
    "result": []
  },
  {
    "postal": "K1H8K9",
    "result": [
      {
        "electoralDistricts": [
          {
            "election": null,
            "id": 17,
            "name": "Carleton"
          },
          {
            "election": null,
            "id": 79,
            "name": "Ottawa South"
          }
        ],
        "pollDivisionIds": [
          10137495,
          10140689
        ],
        "postalCode": "K1H8K9",
        "streetName": "RIVERSIDE",
        "streetDirectionId": null,
        "streetTypeId": "DR",
        "placeName": "OTTAWA",
        "streetNameDisplayText": "RIVERSIDE DR, OTTAWA"
      }
    ]
  },
  {
    "postal": "K1H2H9",
    "result": []
  },
  {
    "postal": "K1H3Z6",
    "result": []
  },
  {
    "postal": "K1H3B0",
    "result": []
  },
  {
    "postal": "K1H2H8",
    "result": []
  },
  {
    "postal": "K1H3X2",
    "result": []
  },
  {
    "postal": "K1H2E9",
    "result": []
  },
  {
    "postal": "K1H9P6",
    "result": []
  },
  {
    "postal": "K1H9E2",
    "result": []
  },
  {
    "postal": "K1H9H2",
    "result": []
  },
  {
    "postal": "K1H1S8",
    "result": []
  },
  {
    "postal": "K1H3M6",
    "result": []
  },
  {
    "postal": "K1H6Z8",
    "result": [
      {
        "electoralDistricts": [
          {
            "election": null,
            "id": 79,
            "name": "Ottawa South"
          }
        ],
        "pollDivisionIds": [
          10140660
        ],
        "postalCode": "K1H6Z8",
        "streetName": "LORRAINE",
        "streetDirectionId": null,
        "streetTypeId": "AVE",
        "placeName": "OTTAWA",
        "streetNameDisplayText": "LORRAINE AVE, OTTAWA"
      }
    ]
  },
  {
    "postal": "K1H4J2",
    "result": []
  },
  {
    "postal": "K1H9Y1",
    "result": []
  },
  {
    "postal": "K1H8V6",
    "result": []
  },
  {
    "postal": "K1H6B2",
    "result": [
      {
        "electoralDistricts": [
          {
            "election": null,
            "id": 79,
            "name": "Ottawa South"
          }
        ],
        "pollDivisionIds": [
          10140651
        ],
        "postalCode": "K1H6B2",
        "streetName": "CUNNINGHAM",
        "streetDirectionId": null,
        "streetTypeId": "AVE",
        "placeName": "OTTAWA",
        "streetNameDisplayText": "CUNNINGHAM AVE, OTTAWA"
      }
    ]
  },
  {
    "postal": "K1H1P8",
    "result": []
  },
  {
    "postal": "K1H0V8",
    "result": []
  },
  {
    "postal": "K1H4Y0",
    "result": []
  },
  {
    "postal": "K1H2T4",
    "result": []
  },
  {
    "postal": "K1H2S3",
    "result": []
  },
  {
    "postal": "K1H0K0",
    "result": []
  },
  {
    "postal": "K1H5N1",
    "result": [
      {
        "electoralDistricts": [
          {
            "election": null,
            "id": 79,
            "name": "Ottawa South"
          }
        ],
        "pollDivisionIds": [
          10140651,
          10140652,
          10140649
        ],
        "postalCode": "K1H5N1",
        "streetName": "PLEASANT PARK",
        "streetDirectionId": null,
        "streetTypeId": "RD",
        "placeName": "OTTAWA",
        "streetNameDisplayText": "PLEASANT PARK RD, OTTAWA"
      }
    ]
  },
  {
    "postal": "K1H7T0",
    "result": []
  },
  {
    "postal": "K1H9N2",
    "result": []
  },
  {
    "postal": "K1H5L1",
    "result": [
      {
        "electoralDistricts": [
          {
            "election": null,
            "id": 79,
            "name": "Ottawa South"
          }
        ],
        "pollDivisionIds": [
          10140651
        ],
        "postalCode": "K1H5L1",
        "streetName": "BILLINGS",
        "streetDirectionId": null,
        "streetTypeId": "AVE",
        "placeName": "OTTAWA",
        "streetNameDisplayText": "BILLINGS AVE, OTTAWA"
      }
    ]
  },
  {
    "postal": "K1H7G5",
    "result": [
      {
        "electoralDistricts": [
          {
            "election": null,
            "id": 79,
            "name": "Ottawa South"
          }
        ],
        "pollDivisionIds": [
          10140658
        ],
        "postalCode": "K1H7G5",
        "streetName": "COURTICE",
        "streetDirectionId": null,
        "streetTypeId": "AVE",
        "placeName": "OTTAWA",
        "streetNameDisplayText": "COURTICE AVE, OTTAWA"
      }
    ]
  },
  {
    "postal": "K1H6K2",
    "result": [
      {
        "electoralDistricts": [
          {
            "election": null,
            "id": 79,
            "name": "Ottawa South"
          }
        ],
        "pollDivisionIds": [
          10140651
        ],
        "postalCode": "K1H6K2",
        "streetName": "PARKHILL",
        "streetDirectionId": null,
        "streetTypeId": "CIR",
        "placeName": "OTTAWA",
        "streetNameDisplayText": "PARKHILL CIR, OTTAWA"
      }
    ]
  },
  {
    "postal": "K1H6P9",
    "result": [
      {
        "electoralDistricts": [
          {
            "election": null,
            "id": 79,
            "name": "Ottawa South"
          }
        ],
        "pollDivisionIds": [
          10140660
        ],
        "postalCode": "K1H6P9",
        "streetName": "FEATHERSTON",
        "streetDirectionId": null,
        "streetTypeId": "DR",
        "placeName": "OTTAWA",
        "streetNameDisplayText": "FEATHERSTON DR, OTTAWA"
      }
    ]
  },
  {
    "postal": "K1H0E6",
    "result": []
  },
  {
    "postal": "K1H8R9",
    "result": []
  },
  {
    "postal": "K1H3G9",
    "result": []
  },
  {
    "postal": "K1H0V7",
    "result": []
  },
  {
    "postal": "K1H2Z1",
    "result": []
  },
  {
    "postal": "K1H7N1",
    "result": [
      {
        "electoralDistricts": [
          {
            "election": null,
            "id": 79,
            "name": "Ottawa South"
          }
        ],
        "pollDivisionIds": [
          10140657
        ],
        "postalCode": "K1H7N1",
        "streetName": "ALTA VISTA",
        "streetDirectionId": null,
        "streetTypeId": "DR",
        "placeName": "OTTAWA",
        "streetNameDisplayText": "ALTA VISTA DR, OTTAWA"
      }
    ]
  },
  {
    "postal": "K1H3C6",
    "result": []
  },
  {
    "postal": "K1H4M1",
    "result": []
  },
  {
    "postal": "K1H9K2",
    "result": []
  },
  {
    "postal": "K1H9S6",
    "result": []
  },
  {
    "postal": "K1H4X1",
    "result": []
  },
  {
    "postal": "K1H8W2",
    "result": []
  },
  {
    "postal": "K1H7N2",
    "result": [
      {
        "electoralDistricts": [
          {
            "election": null,
            "id": 79,
            "name": "Ottawa South"
          }
        ],
        "pollDivisionIds": [
          10140658
        ],
        "postalCode": "K1H7N2",
        "streetName": "ALTA VISTA",
        "streetDirectionId": null,
        "streetTypeId": "DR",
        "placeName": "OTTAWA",
        "streetNameDisplayText": "ALTA VISTA DR, OTTAWA"
      }
    ]
  },
  {
    "postal": "K1H8S3",
    "result": []
  },
  {
    "postal": "K1H4V0",
    "result": []
  },
  {
    "postal": "K1H6W4",
    "result": [
      {
        "electoralDistricts": [
          {
            "election": null,
            "id": 79,
            "name": "Ottawa South"
          }
        ],
        "pollDivisionIds": [
          10140660
        ],
        "postalCode": "K1H6W4",
        "streetName": "SHAREL",
        "streetDirectionId": null,
        "streetTypeId": "DR",
        "placeName": "OTTAWA",
        "streetNameDisplayText": "SHAREL DR, OTTAWA"
      }
    ]
  },
  {
    "postal": "K1H5M1",
    "result": [
      {
        "electoralDistricts": [
          {
            "election": null,
            "id": 79,
            "name": "Ottawa South"
          }
        ],
        "pollDivisionIds": [
          10140651
        ],
        "postalCode": "K1H5M1",
        "streetName": "LESLIE",
        "streetDirectionId": null,
        "streetTypeId": "AVE",
        "placeName": "OTTAWA",
        "streetNameDisplayText": "LESLIE AVE, OTTAWA"
      }
    ]
  },
  {
    "postal": "K1H0S4",
    "result": []
  },
  {
    "postal": "K1H5X6",
    "result": [
      {
        "electoralDistricts": [
          {
            "election": null,
            "id": 79,
            "name": "Ottawa South"
          }
        ],
        "pollDivisionIds": [
          10140651
        ],
        "postalCode": "K1H5X6",
        "streetName": "FAIRBANKS",
        "streetDirectionId": null,
        "streetTypeId": "AVE",
        "placeName": "OTTAWA",
        "streetNameDisplayText": "FAIRBANKS AVE, OTTAWA"
      }
    ]
  },
  {
    "postal": "K1H8L5",
    "result": []
  },
  {
    "postal": "K1H5M8",
    "result": [
      {
        "electoralDistricts": [
          {
            "election": null,
            "id": 79,
            "name": "Ottawa South"
          }
        ],
        "pollDivisionIds": [
          10140651
        ],
        "postalCode": "K1H5M8",
        "streetName": "PLEASANT PARK",
        "streetDirectionId": null,
        "streetTypeId": "RD",
        "placeName": "OTTAWA",
        "streetNameDisplayText": "PLEASANT PARK RD, OTTAWA"
      }
    ]
  },
  {
    "postal": "K1H2G3",
    "result": []
  },
  {
    "postal": "K1H8E4",
    "result": [
      {
        "electoralDistricts": [
          {
            "election": null,
            "id": 79,
            "name": "Ottawa South"
          }
        ],
        "pollDivisionIds": [
          10140656
        ],
        "postalCode": "K1H8E4",
        "streetName": "GILLES",
        "streetDirectionId": null,
        "streetTypeId": "ST",
        "placeName": "OTTAWA",
        "streetNameDisplayText": "GILLES ST, OTTAWA"
      }
    ]
  },
  {
    "postal": "K1H7S9",
    "result": [
      {
        "electoralDistricts": [
          {
            "election": null,
            "id": 79,
            "name": "Ottawa South"
          }
        ],
        "pollDivisionIds": [
          10140657
        ],
        "postalCode": "K1H7S9",
        "streetName": "WESMAR",
        "streetDirectionId": null,
        "streetTypeId": "DR",
        "placeName": "OTTAWA",
        "streetNameDisplayText": "WESMAR DR, OTTAWA"
      }
    ]
  },
  {
    "postal": "K1H1K3",
    "result": []
  },
  {
    "postal": "K1H4E1",
    "result": []
  },
  {
    "postal": "K1H4R2",
    "result": []
  },
  {
    "postal": "K1H6T0",
    "result": []
  },
  {
    "postal": "K1H3K5",
    "result": []
  },
  {
    "postal": "K1H3S3",
    "result": []
  },
  {
    "postal": "K1H3L4",
    "result": []
  },
  {
    "postal": "K1H9Y2",
    "result": []
  },
  {
    "postal": "K1H1E0",
    "result": []
  },
  {
    "postal": "K1H9A4",
    "result": []
  },
  {
    "postal": "K1H1L3",
    "result": []
  },
  {
    "postal": "K1H6N1",
    "result": [
      {
        "electoralDistricts": [
          {
            "election": null,
            "id": 79,
            "name": "Ottawa South"
          }
        ],
        "pollDivisionIds": [
          10140652
        ],
        "postalCode": "K1H6N1",
        "streetName": "KILBORN",
        "streetDirectionId": null,
        "streetTypeId": "AVE",
        "placeName": "OTTAWA",
        "streetNameDisplayText": "KILBORN AVE, OTTAWA"
      }
    ]
  },
  {
    "postal": "K1H6G7",
    "result": [
      {
        "electoralDistricts": [
          {
            "election": null,
            "id": 79,
            "name": "Ottawa South"
          }
        ],
        "pollDivisionIds": [
          10140658
        ],
        "postalCode": "K1H6G7",
        "streetName": "BLOSSOM",
        "streetDirectionId": null,
        "streetTypeId": "DR",
        "placeName": "OTTAWA",
        "streetNameDisplayText": "BLOSSOM DR, OTTAWA"
      }
    ]
  },
  {
    "postal": "K1H7W1",
    "result": [
      {
        "electoralDistricts": [
          {
            "election": null,
            "id": 79,
            "name": "Ottawa South"
          }
        ],
        "pollDivisionIds": [
          10140657
        ],
        "postalCode": "K1H7W1",
        "streetName": "RENFIELD",
        "streetDirectionId": null,
        "streetTypeId": "RD",
        "placeName": "OTTAWA",
        "streetNameDisplayText": "RENFIELD RD, OTTAWA"
      }
    ]
  },
  {
    "postal": "K1H4M6",
    "result": []
  },
  {
    "postal": "K1H1K0",
    "result": []
  },
  {
    "postal": "K1H3E2",
    "result": []
  },
  {
    "postal": "K1H5H4",
    "result": [
      {
        "electoralDistricts": [
          {
            "election": null,
            "id": 79,
            "name": "Ottawa South"
          }
        ],
        "pollDivisionIds": [
          10140651
        ],
        "postalCode": "K1H5H4",
        "streetName": "HIGHRIDGE",
        "streetDirectionId": null,
        "streetTypeId": "AVE",
        "placeName": "OTTAWA",
        "streetNameDisplayText": "HIGHRIDGE AVE, OTTAWA"
      }
    ]
  },
  {
    "postal": "K1H1K7",
    "result": []
  },
  {
    "postal": "K1H0H0",
    "result": []
  },
  {
    "postal": "K1H0J3",
    "result": []
  },
  {
    "postal": "K1H1X6",
    "result": []
  },
  {
    "postal": "K1H2Z6",
    "result": []
  },
  {
    "postal": "K1H4R9",
    "result": []
  },
  {
    "postal": "K1H0W8",
    "result": []
  },
  {
    "postal": "K1H1L4",
    "result": []
  },
  {
    "postal": "K1H0C8",
    "result": []
  },
  {
    "postal": "K1H9X7",
    "result": []
  },
  {
    "postal": "K1H4T1",
    "result": []
  },
  {
    "postal": "K1H0M0",
    "result": []
  },
  {
    "postal": "K1H6A2",
    "result": [
      {
        "electoralDistricts": [
          {
            "election": null,
            "id": 79,
            "name": "Ottawa South"
          }
        ],
        "pollDivisionIds": [
          10140651
        ],
        "postalCode": "K1H6A2",
        "streetName": "SUMMIT",
        "streetDirectionId": null,
        "streetTypeId": "AVE",
        "placeName": "OTTAWA",
        "streetNameDisplayText": "SUMMIT AVE, OTTAWA"
      }
    ]
  },
  {
    "postal": "K1H9S8",
    "result": []
  },
  {
    "postal": "K1H9T4",
    "result": []
  },
  {
    "postal": "K1H9Y4",
    "result": []
  },
  {
    "postal": "K1H6G5",
    "result": [
      {
        "electoralDistricts": [
          {
            "election": null,
            "id": 79,
            "name": "Ottawa South"
          }
        ],
        "pollDivisionIds": [
          10140658
        ],
        "postalCode": "K1H6G5",
        "streetName": "BLOSSOM",
        "streetDirectionId": null,
        "streetTypeId": "DR",
        "placeName": "OTTAWA",
        "streetNameDisplayText": "BLOSSOM DR, OTTAWA"
      }
    ]
  },
  {
    "postal": "K1H6H9",
    "result": [
      {
        "electoralDistricts": [
          {
            "election": null,
            "id": 79,
            "name": "Ottawa South"
          }
        ],
        "pollDivisionIds": [
          10140658
        ],
        "postalCode": "K1H6H9",
        "streetName": "WOODCREST",
        "streetDirectionId": null,
        "streetTypeId": "RD",
        "placeName": "OTTAWA",
        "streetNameDisplayText": "WOODCREST RD, OTTAWA"
      }
    ]
  },
  {
    "postal": "K1H2P3",
    "result": []
  },
  {
    "postal": "K1H1T6",
    "result": []
  },
  {
    "postal": "K1H4P6",
    "result": []
  },
  {
    "postal": "K1H3K1",
    "result": []
  },
  {
    "postal": "K1H6X4",
    "result": [
      {
        "electoralDistricts": [
          {
            "election": null,
            "id": 79,
            "name": "Ottawa South"
          }
        ],
        "pollDivisionIds": [
          10140660
        ],
        "postalCode": "K1H6X4",
        "streetName": "RYDER",
        "streetDirectionId": null,
        "streetTypeId": "ST",
        "placeName": "OTTAWA",
        "streetNameDisplayText": "RYDER ST, OTTAWA"
      }
    ]
  },
  {
    "postal": "K1H4M8",
    "result": []
  },
  {
    "postal": "K1H2Y1",
    "result": []
  },
  {
    "postal": "K1H6M1",
    "result": [
      {
        "electoralDistricts": [
          {
            "election": null,
            "id": 79,
            "name": "Ottawa South"
          }
        ],
        "pollDivisionIds": [
          10140658
        ],
        "postalCode": "K1H6M1",
        "streetName": "KILBORN",
        "streetDirectionId": null,
        "streetTypeId": "AVE",
        "placeName": "OTTAWA",
        "streetNameDisplayText": "KILBORN AVE, OTTAWA"
      }
    ]
  },
  {
    "postal": "K1H5L8",
    "result": [
      {
        "electoralDistricts": [
          {
            "election": null,
            "id": 79,
            "name": "Ottawa South"
          }
        ],
        "pollDivisionIds": [
          10140651
        ],
        "postalCode": "K1H5L8",
        "streetName": "PLEASANT PARK",
        "streetDirectionId": null,
        "streetTypeId": "RD",
        "placeName": "OTTAWA",
        "streetNameDisplayText": "PLEASANT PARK RD, OTTAWA"
      }
    ]
  },
  {
    "postal": "K1H3P6",
    "result": []
  },
  {
    "postal": "K1H9A5",
    "result": []
  },
  {
    "postal": "K1H7K1",
    "result": [
      {
        "electoralDistricts": [
          {
            "election": null,
            "id": 79,
            "name": "Ottawa South"
          }
        ],
        "pollDivisionIds": [
          10140658
        ],
        "postalCode": "K1H7K1",
        "streetName": "ORLANDO",
        "streetDirectionId": null,
        "streetTypeId": "AVE",
        "placeName": "OTTAWA",
        "streetNameDisplayText": "ORLANDO AVE, OTTAWA"
      }
    ]
  },
  {
    "postal": "K1H3J4",
    "result": []
  },
  {
    "postal": "K1H5E7",
    "result": [
      {
        "electoralDistricts": [
          {
            "election": null,
            "id": 79,
            "name": "Ottawa South"
          }
        ],
        "pollDivisionIds": [
          10140651
        ],
        "postalCode": "K1H5E7",
        "streetName": "HEATH",
        "streetDirectionId": null,
        "streetTypeId": "ST",
        "placeName": "OTTAWA",
        "streetNameDisplayText": "HEATH ST, OTTAWA"
      }
    ]
  },
  {
    "postal": "K1H3A7",
    "result": []
  },
  {
    "postal": "K1H1B9",
    "result": [
      {
        "electoralDistricts": [
          {
            "election": null,
            "id": 79,
            "name": "Ottawa South"
          }
        ],
        "pollDivisionIds": [
          10140651
        ],
        "postalCode": "K1H1B9",
        "streetName": "SARAH BILLINGS",
        "streetDirectionId": null,
        "streetTypeId": "PL",
        "placeName": "OTTAWA",
        "streetNameDisplayText": "SARAH BILLINGS PL, OTTAWA"
      }
    ]
  },
  {
    "postal": "K1H9E8",
    "result": []
  },
  {
    "postal": "K1H1C9",
    "result": []
  },
  {
    "postal": "K1H3B5",
    "result": []
  },
  {
    "postal": "K1H8R0",
    "result": []
  },
  {
    "postal": "K1H3P2",
    "result": []
  },
  {
    "postal": "K1H5V4",
    "result": [
      {
        "electoralDistricts": [
          {
            "election": null,
            "id": 79,
            "name": "Ottawa South"
          }
        ],
        "pollDivisionIds": [
          10140652
        ],
        "postalCode": "K1H5V4",
        "streetName": "BEAUMONT",
        "streetDirectionId": null,
        "streetTypeId": "RD",
        "placeName": "OTTAWA",
        "streetNameDisplayText": "BEAUMONT RD, OTTAWA"
      }
    ]
  },
  {
    "postal": "K1H4H0",
    "result": []
  },
  {
    "postal": "K1H4S7",
    "result": []
  },
  {
    "postal": "K1H6C2",
    "result": [
      {
        "electoralDistricts": [
          {
            "election": null,
            "id": 79,
            "name": "Ottawa South"
          }
        ],
        "pollDivisionIds": [
          10140651
        ],
        "postalCode": "K1H6C2",
        "streetName": "CAVENDISH",
        "streetDirectionId": null,
        "streetTypeId": "RD",
        "placeName": "OTTAWA",
        "streetNameDisplayText": "CAVENDISH RD, OTTAWA"
      }
    ]
  },
  {
    "postal": "K1H8W3",
    "result": []
  },
  {
    "postal": "K1H4M5",
    "result": []
  },
  {
    "postal": "K1H5T1",
    "result": [
      {
        "electoralDistricts": [
          {
            "election": null,
            "id": 79,
            "name": "Ottawa South"
          }
        ],
        "pollDivisionIds": [
          10140652
        ],
        "postalCode": "K1H5T1",
        "streetName": "RHODES",
        "streetDirectionId": null,
        "streetTypeId": "CRES",
        "placeName": "OTTAWA",
        "streetNameDisplayText": "RHODES CRES, OTTAWA"
      }
    ]
  },
  {
    "postal": "K1H3B3",
    "result": []
  },
  {
    "postal": "K1H6C6",
    "result": [
      {
        "electoralDistricts": [
          {
            "election": null,
            "id": 79,
            "name": "Ottawa South"
          }
        ],
        "pollDivisionIds": [
          10140651
        ],
        "postalCode": "K1H6C6",
        "streetName": "RACHAEL",
        "streetDirectionId": null,
        "streetTypeId": "AVE",
        "placeName": "OTTAWA",
        "streetNameDisplayText": "RACHAEL AVE, OTTAWA"
      }
    ]
  },
  {
    "postal": "K1H7N8",
    "result": [
      {
        "electoralDistricts": [
          {
            "election": null,
            "id": 79,
            "name": "Ottawa South"
          }
        ],
        "pollDivisionIds": [
          10140657
        ],
        "postalCode": "K1H7N8",
        "streetName": "MCQUAIG",
        "streetDirectionId": null,
        "streetTypeId": "ST",
        "placeName": "OTTAWA",
        "streetNameDisplayText": "MCQUAIG ST, OTTAWA"
      }
    ]
  },
  {
    "postal": "K1H2Y3",
    "result": []
  },
  {
    "postal": "K1H2R6",
    "result": []
  },
  {
    "postal": "K1H7N3",
    "result": [
      {
        "electoralDistricts": [
          {
            "election": null,
            "id": 79,
            "name": "Ottawa South"
          }
        ],
        "pollDivisionIds": [
          10140657
        ],
        "postalCode": "K1H7N3",
        "streetName": "ALTA VISTA",
        "streetDirectionId": null,
        "streetTypeId": "DR",
        "placeName": "OTTAWA",
        "streetNameDisplayText": "ALTA VISTA DR, OTTAWA"
      }
    ]
  },
  {
    "postal": "K1H8J2",
    "result": [
      {
        "electoralDistricts": [
          {
            "election": null,
            "id": 79,
            "name": "Ottawa South"
          }
        ],
        "pollDivisionIds": [
          10140660
        ],
        "postalCode": "K1H8J2",
        "streetName": "WYNDALE",
        "streetDirectionId": null,
        "streetTypeId": "CRES",
        "placeName": "OTTAWA",
        "streetNameDisplayText": "WYNDALE CRES, OTTAWA"
      }
    ]
  },
  {
    "postal": "K1H6A9",
    "result": [
      {
        "electoralDistricts": [
          {
            "election": null,
            "id": 79,
            "name": "Ottawa South"
          }
        ],
        "pollDivisionIds": [
          10140651
        ],
        "postalCode": "K1H6A9",
        "streetName": "CUNNINGHAM",
        "streetDirectionId": null,
        "streetTypeId": "AVE",
        "placeName": "OTTAWA",
        "streetNameDisplayText": "CUNNINGHAM AVE, OTTAWA"
      }
    ]
  },
  {
    "postal": "K1H3V2",
    "result": []
  },
  {
    "postal": "K1H2N3",
    "result": []
  },
  {
    "postal": "K1H1S5",
    "result": []
  },
  {
    "postal": "K1H4T7",
    "result": []
  },
  {
    "postal": "K1H6Y7",
    "result": [
      {
        "electoralDistricts": [
          {
            "election": null,
            "id": 79,
            "name": "Ottawa South"
          }
        ],
        "pollDivisionIds": [
          10140660
        ],
        "postalCode": "K1H6Y7",
        "streetName": "PALM",
        "streetDirectionId": null,
        "streetTypeId": "ST",
        "placeName": "OTTAWA",
        "streetNameDisplayText": "PALM ST, OTTAWA"
      }
    ]
  },
  {
    "postal": "K1H0W7",
    "result": []
  },
  {
    "postal": "K1H2W9",
    "result": []
  },
  {
    "postal": "K1H8V0",
    "result": []
  },
  {
    "postal": "K1H0H4",
    "result": []
  },
  {
    "postal": "K1H2T1",
    "result": []
  },
  {
    "postal": "K1H1B1",
    "result": [
      {
        "electoralDistricts": [
          {
            "election": null,
            "id": 79,
            "name": "Ottawa South"
          }
        ],
        "pollDivisionIds": [
          10140662
        ],
        "postalCode": "K1H1B1",
        "streetName": "ST LAURENT",
        "streetDirectionId": null,
        "streetTypeId": "BLVD",
        "placeName": "OTTAWA",
        "streetNameDisplayText": "ST LAURENT BLVD, OTTAWA"
      },
      {
        "electoralDistricts": [
          {
            "election": null,
            "id": 79,
            "name": "Ottawa South"
          }
        ],
        "pollDivisionIds": [
          10140662
        ],
        "postalCode": "K1H1B1",
        "streetName": "ST-LAURENT",
        "streetDirectionId": null,
        "streetTypeId": "BLVD",
        "placeName": "OTTAWA",
        "streetNameDisplayText": "ST-LAURENT BLVD, OTTAWA"
      }
    ]
  },
  {
    "postal": "K1H8B6",
    "result": [
      {
        "electoralDistricts": [
          {
            "election": null,
            "id": 79,
            "name": "Ottawa South"
          }
        ],
        "pollDivisionIds": [
          10140656
        ],
        "postalCode": "K1H8B6",
        "streetName": "GUERTIN",
        "streetDirectionId": null,
        "streetTypeId": "AVE",
        "placeName": "OTTAWA",
        "streetNameDisplayText": "GUERTIN AVE, OTTAWA"
      }
    ]
  },
  {
    "postal": "K1H6H1",
    "result": [
      {
        "electoralDistricts": [
          {
            "election": null,
            "id": 79,
            "name": "Ottawa South"
          }
        ],
        "pollDivisionIds": [
          10140658
        ],
        "postalCode": "K1H6H1",
        "streetName": "NIAGARA",
        "streetDirectionId": null,
        "streetTypeId": "DR",
        "placeName": "OTTAWA",
        "streetNameDisplayText": "NIAGARA DR, OTTAWA"
      }
    ]
  },
  {
    "postal": "K1H8T8",
    "result": []
  },
  {
    "postal": "K1H0T4",
    "result": []
  },
  {
    "postal": "K1H2C4",
    "result": []
  },
  {
    "postal": "K1H8N3",
    "result": [
      {
        "electoralDistricts": [
          {
            "election": null,
            "id": 79,
            "name": "Ottawa South"
          }
        ],
        "pollDivisionIds": [
          10140658
        ],
        "postalCode": "K1H8N3",
        "streetName": "BANK",
        "streetDirectionId": null,
        "streetTypeId": "ST",
        "placeName": "OTTAWA",
        "streetNameDisplayText": "BANK ST, OTTAWA"
      }
    ]
  },
  {
    "postal": "K1H4L8",
    "result": []
  },
  {
    "postal": "K1H2B5",
    "result": []
  },
  {
    "postal": "K1H3H1",
    "result": []
  },
  {
    "postal": "K1H4Y1",
    "result": []
  },
  {
    "postal": "K1H7E2",
    "result": [
      {
        "electoralDistricts": [
          {
            "election": null,
            "id": 79,
            "name": "Ottawa South"
          }
        ],
        "pollDivisionIds": [
          10140658
        ],
        "postalCode": "K1H7E2",
        "streetName": "MCROBIE",
        "streetDirectionId": null,
        "streetTypeId": "AVE",
        "placeName": "OTTAWA",
        "streetNameDisplayText": "MCROBIE AVE, OTTAWA"
      }
    ]
  },
  {
    "postal": "K1H2P5",
    "result": []
  },
  {
    "postal": "K1H8R7",
    "result": []
  },
  {
    "postal": "K1H9P1",
    "result": []
  },
  {
    "postal": "K1H3B8",
    "result": []
  },
  {
    "postal": "K1H3P7",
    "result": []
  },
  {
    "postal": "K1H9B2",
    "result": []
  },
  {
    "postal": "K1H6Z3",
    "result": [
      {
        "electoralDistricts": [
          {
            "election": null,
            "id": 79,
            "name": "Ottawa South"
          }
        ],
        "pollDivisionIds": [
          10140660
        ],
        "postalCode": "K1H6Z3",
        "streetName": "FLORIDA",
        "streetDirectionId": null,
        "streetTypeId": "AVE",
        "placeName": "OTTAWA",
        "streetNameDisplayText": "FLORIDA AVE, OTTAWA"
      }
    ]
  },
  {
    "postal": "K1H4N5",
    "result": []
  },
  {
    "postal": "K1H8T3",
    "result": []
  },
  {
    "postal": "K1H1V2",
    "result": []
  },
  {
    "postal": "K1H1Y0",
    "result": []
  },
  {
    "postal": "K1H3G6",
    "result": []
  },
  {
    "postal": "K1H3H7",
    "result": []
  },
  {
    "postal": "K1H7X8",
    "result": [
      {
        "electoralDistricts": [
          {
            "election": null,
            "id": 79,
            "name": "Ottawa South"
          }
        ],
        "pollDivisionIds": [
          10140651
        ],
        "postalCode": "K1H7X8",
        "streetName": "BANK",
        "streetDirectionId": null,
        "streetTypeId": "ST",
        "placeName": "OTTAWA",
        "streetNameDisplayText": "BANK ST, OTTAWA"
      }
    ]
  },
  {
    "postal": "K1H0C7",
    "result": []
  },
  {
    "postal": "K1H0W9",
    "result": []
  },
  {
    "postal": "K1H8E6",
    "result": [
      {
        "electoralDistricts": [
          {
            "election": null,
            "id": 79,
            "name": "Ottawa South"
          }
        ],
        "pollDivisionIds": [
          10140656
        ],
        "postalCode": "K1H8E6",
        "streetName": "GILLES",
        "streetDirectionId": null,
        "streetTypeId": "ST",
        "placeName": "OTTAWA",
        "streetNameDisplayText": "GILLES ST, OTTAWA"
      }
    ]
  },
  {
    "postal": "K1H9Z8",
    "result": []
  },
  {
    "postal": "K1H3P4",
    "result": []
  },
  {
    "postal": "K1H6L8",
    "result": [
      {
        "electoralDistricts": [
          {
            "election": null,
            "id": 79,
            "name": "Ottawa South"
          }
        ],
        "pollDivisionIds": [
          10140657
        ],
        "postalCode": "K1H6L8",
        "streetName": "KILBORN",
        "streetDirectionId": null,
        "streetTypeId": "AVE",
        "placeName": "OTTAWA",
        "streetNameDisplayText": "KILBORN AVE, OTTAWA"
      }
    ]
  },
  {
    "postal": "K1H2R4",
    "result": []
  },
  {
    "postal": "K1H2W1",
    "result": []
  },
  {
    "postal": "K1H9H8",
    "result": []
  },
  {
    "postal": "K1H8X9",
    "result": []
  },
  {
    "postal": "K1H7H4",
    "result": [
      {
        "electoralDistricts": [
          {
            "election": null,
            "id": 79,
            "name": "Ottawa South"
          }
        ],
        "pollDivisionIds": [
          10140658
        ],
        "postalCode": "K1H7H4",
        "streetName": "REEVES",
        "streetDirectionId": null,
        "streetTypeId": "CRES",
        "placeName": "OTTAWA",
        "streetNameDisplayText": "REEVES CRES, OTTAWA"
      }
    ]
  },
  {
    "postal": "K1H3J1",
    "result": []
  },
  {
    "postal": "K1H1P4",
    "result": []
  },
  {
    "postal": "K1H2A3",
    "result": []
  },
  {
    "postal": "K1H0Z1",
    "result": []
  },
  {
    "postal": "K1H1C1",
    "result": []
  },
  {
    "postal": "K1H0H3",
    "result": []
  },
  {
    "postal": "K1H7B0",
    "result": []
  },
  {
    "postal": "K1H5K2",
    "result": [
      {
        "electoralDistricts": [
          {
            "election": null,
            "id": 79,
            "name": "Ottawa South"
          }
        ],
        "pollDivisionIds": [
          10140651
        ],
        "postalCode": "K1H5K2",
        "streetName": "NORWOOD",
        "streetDirectionId": null,
        "streetTypeId": "AVE",
        "placeName": "OTTAWA",
        "streetNameDisplayText": "NORWOOD AVE, OTTAWA"
      }
    ]
  },
  {
    "postal": "K1H1E9",
    "result": []
  },
  {
    "postal": "K1H9W7",
    "result": []
  },
  {
    "postal": "K1H5W6",
    "result": [
      {
        "electoralDistricts": [
          {
            "election": null,
            "id": 79,
            "name": "Ottawa South"
          }
        ],
        "pollDivisionIds": [
          10140651
        ],
        "postalCode": "K1H5W6",
        "streetName": "THESSALY",
        "streetDirectionId": null,
        "streetTypeId": "CIR",
        "placeName": "OTTAWA",
        "streetNameDisplayText": "THESSALY CIR, OTTAWA"
      }
    ]
  },
  {
    "postal": "K1H6S6",
    "result": [
      {
        "electoralDistricts": [
          {
            "election": null,
            "id": 79,
            "name": "Ottawa South"
          }
        ],
        "pollDivisionIds": [
          10140660
        ],
        "postalCode": "K1H6S6",
        "streetName": "JUNO",
        "streetDirectionId": null,
        "streetTypeId": "AVE",
        "placeName": "OTTAWA",
        "streetNameDisplayText": "JUNO AVE, OTTAWA"
      }
    ]
  },
  {
    "postal": "K1H2P8",
    "result": []
  },
  {
    "postal": "K1H4P8",
    "result": []
  },
  {
    "postal": "K1H0V9",
    "result": []
  },
  {
    "postal": "K1H5Y2",
    "result": [
      {
        "electoralDistricts": [
          {
            "election": null,
            "id": 79,
            "name": "Ottawa South"
          }
        ],
        "pollDivisionIds": [
          10140651
        ],
        "postalCode": "K1H5Y2",
        "streetName": "FAIRBANKS",
        "streetDirectionId": null,
        "streetTypeId": "AVE",
        "placeName": "OTTAWA",
        "streetNameDisplayText": "FAIRBANKS AVE, OTTAWA"
      }
    ]
  },
  {
    "postal": "K1H7Z7",
    "result": []
  },
  {
    "postal": "K1H6Y8",
    "result": [
      {
        "electoralDistricts": [
          {
            "election": null,
            "id": 79,
            "name": "Ottawa South"
          }
        ],
        "pollDivisionIds": [
          10140660
        ],
        "postalCode": "K1H6Y8",
        "streetName": "PALM",
        "streetDirectionId": null,
        "streetTypeId": "ST",
        "placeName": "OTTAWA",
        "streetNameDisplayText": "PALM ST, OTTAWA"
      }
    ]
  },
  {
    "postal": "K1H2G7",
    "result": []
  },
  {
    "postal": "K1H8C1",
    "result": [
      {
        "electoralDistricts": [
          {
            "election": null,
            "id": 79,
            "name": "Ottawa South"
          }
        ],
        "pollDivisionIds": [
          10140656
        ],
        "postalCode": "K1H8C1",
        "streetName": "ALDEA",
        "streetDirectionId": null,
        "streetTypeId": "AVE",
        "placeName": "OTTAWA",
        "streetNameDisplayText": "ALDEA AVE, OTTAWA"
      }
    ]
  },
  {
    "postal": "K1H5C5",
    "result": [
      {
        "electoralDistricts": [
          {
            "election": null,
            "id": 79,
            "name": "Ottawa South"
          }
        ],
        "pollDivisionIds": [
          10140651
        ],
        "postalCode": "K1H5C5",
        "streetName": "ROGER",
        "streetDirectionId": null,
        "streetTypeId": "RD",
        "placeName": "OTTAWA",
        "streetNameDisplayText": "ROGER RD, OTTAWA"
      }
    ]
  },
  {
    "postal": "K1H2X8",
    "result": []
  },
  {
    "postal": "K1H1W5",
    "result": []
  },
  {
    "postal": "K1H7G0",
    "result": []
  },
  {
    "postal": "K1H8J8",
    "result": [
      {
        "electoralDistricts": [
          {
            "election": null,
            "id": 79,
            "name": "Ottawa South"
          }
        ],
        "pollDivisionIds": [
          10140660
        ],
        "postalCode": "K1H8J8",
        "streetName": "FEATHERSTON",
        "streetDirectionId": null,
        "streetTypeId": "DR",
        "placeName": "OTTAWA",
        "streetNameDisplayText": "FEATHERSTON DR, OTTAWA"
      }
    ]
  },
  {
    "postal": "K1H3Y0",
    "result": []
  },
  {
    "postal": "K1H9T7",
    "result": []
  },
  {
    "postal": "K1H5P4",
    "result": [
      {
        "electoralDistricts": [
          {
            "election": null,
            "id": 79,
            "name": "Ottawa South"
          }
        ],
        "pollDivisionIds": [
          10140652
        ],
        "postalCode": "K1H5P4",
        "streetName": "THISTLE",
        "streetDirectionId": null,
        "streetTypeId": "CRES",
        "placeName": "OTTAWA",
        "streetNameDisplayText": "THISTLE CRES, OTTAWA"
      }
    ]
  },
  {
    "postal": "K1H4B0",
    "result": []
  },
  {
    "postal": "K1H9N8",
    "result": []
  },
  {
    "postal": "K1H4A7",
    "result": []
  },
  {
    "postal": "K1H4H9",
    "result": []
  },
  {
    "postal": "K1H6X1",
    "result": [
      {
        "electoralDistricts": [
          {
            "election": null,
            "id": 79,
            "name": "Ottawa South"
          }
        ],
        "pollDivisionIds": [
          10140660
        ],
        "postalCode": "K1H6X1",
        "streetName": "VIRGINIA",
        "streetDirectionId": null,
        "streetTypeId": "DR",
        "placeName": "OTTAWA",
        "streetNameDisplayText": "VIRGINIA DR, OTTAWA"
      }
    ]
  },
  {
    "postal": "K1H9Y7",
    "result": []
  },
  {
    "postal": "K1H2Y5",
    "result": []
  },
  {
    "postal": "K1H8L7",
    "result": [
      {
        "electoralDistricts": [
          {
            "election": null,
            "id": 79,
            "name": "Ottawa South"
          }
        ],
        "pollDivisionIds": [
          10140656
        ],
        "postalCode": "K1H8L7",
        "streetName": "ROCKINGHAM",
        "streetDirectionId": null,
        "streetTypeId": "AVE",
        "placeName": "OTTAWA",
        "streetNameDisplayText": "ROCKINGHAM AVE, OTTAWA"
      }
    ]
  },
  {
    "postal": "K1H2A8",
    "result": []
  },
  {
    "postal": "K1H2K9",
    "result": []
  },
  {
    "postal": "K1H3E5",
    "result": []
  },
  {
    "postal": "K1H8N6",
    "result": [
      {
        "electoralDistricts": [
          {
            "election": null,
            "id": 79,
            "name": "Ottawa South"
          }
        ],
        "pollDivisionIds": [
          10140656,
          10140700
        ],
        "postalCode": "K1H8N6",
        "streetName": "BANK",
        "streetDirectionId": null,
        "streetTypeId": "ST",
        "placeName": "OTTAWA",
        "streetNameDisplayText": "BANK ST, OTTAWA"
      }
    ]
  },
  {
    "postal": "K1H8J4",
    "result": [
      {
        "electoralDistricts": [
          {
            "election": null,
            "id": 79,
            "name": "Ottawa South"
          }
        ],
        "pollDivisionIds": [
          10140660
        ],
        "postalCode": "K1H8J4",
        "streetName": "HADDINGTON",
        "streetDirectionId": null,
        "streetTypeId": "CRES",
        "placeName": "OTTAWA",
        "streetNameDisplayText": "HADDINGTON CRES, OTTAWA"
      }
    ]
  },
  {
    "postal": "K1H4R7",
    "result": []
  },
  {
    "postal": "K1H9K1",
    "result": []
  },
  {
    "postal": "K1H8E1",
    "result": [
      {
        "electoralDistricts": [
          {
            "election": null,
            "id": 79,
            "name": "Ottawa South"
          }
        ],
        "pollDivisionIds": [
          10140656
        ],
        "postalCode": "K1H8E1",
        "streetName": "SECORD",
        "streetDirectionId": null,
        "streetTypeId": "AVE",
        "placeName": "OTTAWA",
        "streetNameDisplayText": "SECORD AVE, OTTAWA"
      }
    ]
  },
  {
    "postal": "K1H0R1",
    "result": []
  },
  {
    "postal": "K1H4J3",
    "result": []
  },
  {
    "postal": "K1H7E7",
    "result": [
      {
        "electoralDistricts": [
          {
            "election": null,
            "id": 79,
            "name": "Ottawa South"
          }
        ],
        "pollDivisionIds": [
          10140658
        ],
        "postalCode": "K1H7E7",
        "streetName": "PALEN",
        "streetDirectionId": null,
        "streetTypeId": "AVE",
        "placeName": "OTTAWA",
        "streetNameDisplayText": "PALEN AVE, OTTAWA"
      }
    ]
  },
  {
    "postal": "K1H0J0",
    "result": []
  },
  {
    "postal": "K1H7R8",
    "result": [
      {
        "electoralDistricts": [
          {
            "election": null,
            "id": 79,
            "name": "Ottawa South"
          }
        ],
        "pollDivisionIds": [
          10140657
        ],
        "postalCode": "K1H7R8",
        "streetName": "DOWLER",
        "streetDirectionId": null,
        "streetTypeId": "AVE",
        "placeName": "OTTAWA",
        "streetNameDisplayText": "DOWLER AVE, OTTAWA"
      }
    ]
  },
  {
    "postal": "K1H9X0",
    "result": []
  },
  {
    "postal": "K1H7P6",
    "result": [
      {
        "electoralDistricts": [
          {
            "election": null,
            "id": 79,
            "name": "Ottawa South"
          }
        ],
        "pollDivisionIds": [
          10140658
        ],
        "postalCode": "K1H7P6",
        "streetName": "CHEVERTON",
        "streetDirectionId": null,
        "streetTypeId": "AVE",
        "placeName": "OTTAWA",
        "streetNameDisplayText": "CHEVERTON AVE, OTTAWA"
      }
    ]
  },
  {
    "postal": "K1H0R7",
    "result": []
  },
  {
    "postal": "K1H5W1",
    "result": [
      {
        "electoralDistricts": [
          {
            "election": null,
            "id": 79,
            "name": "Ottawa South"
          }
        ],
        "pollDivisionIds": [
          10140651
        ],
        "postalCode": "K1H5W1",
        "streetName": "MOUNTBATTEN",
        "streetDirectionId": null,
        "streetTypeId": "AVE",
        "placeName": "OTTAWA",
        "streetNameDisplayText": "MOUNTBATTEN AVE, OTTAWA"
      }
    ]
  },
  {
    "postal": "K1H0K4",
    "result": []
  },
  {
    "postal": "K1H7N9",
    "result": [
      {
        "electoralDistricts": [
          {
            "election": null,
            "id": 79,
            "name": "Ottawa South"
          }
        ],
        "pollDivisionIds": [
          10140657
        ],
        "postalCode": "K1H7N9",
        "streetName": "MCQUAIG",
        "streetDirectionId": null,
        "streetTypeId": "ST",
        "placeName": "OTTAWA",
        "streetNameDisplayText": "MCQUAIG ST, OTTAWA"
      }
    ]
  },
  {
    "postal": "K1H1N0",
    "result": []
  },
  {
    "postal": "K1H6P3",
    "result": [
      {
        "electoralDistricts": [
          {
            "election": null,
            "id": 79,
            "name": "Ottawa South"
          }
        ],
        "pollDivisionIds": [
          10140660
        ],
        "postalCode": "K1H6P3",
        "streetName": "FEATHERSTON",
        "streetDirectionId": null,
        "streetTypeId": "DR",
        "placeName": "OTTAWA",
        "streetNameDisplayText": "FEATHERSTON DR, OTTAWA"
      }
    ]
  },
  {
    "postal": "K1H5A1",
    "result": []
  },
  {
    "postal": "K1H9M9",
    "result": []
  },
  {
    "postal": "K1H7T6",
    "result": [
      {
        "electoralDistricts": [
          {
            "election": null,
            "id": 79,
            "name": "Ottawa South"
          }
        ],
        "pollDivisionIds": [
          10140657
        ],
        "postalCode": "K1H7T6",
        "streetName": "EVANS",
        "streetDirectionId": null,
        "streetTypeId": "BLVD",
        "placeName": "OTTAWA",
        "streetNameDisplayText": "EVANS BLVD, OTTAWA"
      }
    ]
  },
  {
    "postal": "K1H3X0",
    "result": []
  },
  {
    "postal": "K1H2T0",
    "result": []
  },
  {
    "postal": "K1H5X9",
    "result": []
  },
  {
    "postal": "K1H2R3",
    "result": []
  },
  {
    "postal": "K1H5N2",
    "result": [
      {
        "electoralDistricts": [
          {
            "election": null,
            "id": 79,
            "name": "Ottawa South"
          }
        ],
        "pollDivisionIds": [
          10140652
        ],
        "postalCode": "K1H5N2",
        "streetName": "PLEASANT PARK",
        "streetDirectionId": null,
        "streetTypeId": "RD",
        "placeName": "OTTAWA",
        "streetNameDisplayText": "PLEASANT PARK RD, OTTAWA"
      }
    ]
  },
  {
    "postal": "K1H4Y7",
    "result": []
  },
  {
    "postal": "K1H7M0",
    "result": []
  },
  {
    "postal": "K1H8P3",
    "result": [
      {
        "electoralDistricts": [
          {
            "election": null,
            "id": 79,
            "name": "Ottawa South"
          }
        ],
        "pollDivisionIds": [
          10140656
        ],
        "postalCode": "K1H8P3",
        "streetName": "BAVLIE",
        "streetDirectionId": null,
        "streetTypeId": "AVE",
        "placeName": "OTTAWA",
        "streetNameDisplayText": "BAVLIE AVE, OTTAWA"
      }
    ]
  },
  {
    "postal": "K1H3N3",
    "result": []
  },
  {
    "postal": "K1H7S3",
    "result": [
      {
        "electoralDistricts": [
          {
            "election": null,
            "id": 79,
            "name": "Ottawa South"
          }
        ],
        "pollDivisionIds": [
          10140657
        ],
        "postalCode": "K1H7S3",
        "streetName": "CHATTAWAY",
        "streetDirectionId": null,
        "streetTypeId": "AVE",
        "placeName": "OTTAWA",
        "streetNameDisplayText": "CHATTAWAY AVE, OTTAWA"
      }
    ]
  },
  {
    "postal": "K1H3V9",
    "result": []
  },
  {
    "postal": "K1H9N7",
    "result": []
  },
  {
    "postal": "K1H0G4",
    "result": []
  },
  {
    "postal": "K1H2E2",
    "result": []
  },
  {
    "postal": "K1H7W8",
    "result": [
      {
        "electoralDistricts": [
          {
            "election": null,
            "id": 79,
            "name": "Ottawa South"
          }
        ],
        "pollDivisionIds": [
          10140658
        ],
        "postalCode": "K1H7W8",
        "streetName": "UTAH",
        "streetDirectionId": null,
        "streetTypeId": "ST",
        "placeName": "OTTAWA",
        "streetNameDisplayText": "UTAH ST, OTTAWA"
      }
    ]
  },
  {
    "postal": "K1H7M5",
    "result": [
      {
        "electoralDistricts": [
          {
            "election": null,
            "id": 79,
            "name": "Ottawa South"
          }
        ],
        "pollDivisionIds": [
          10140657
        ],
        "postalCode": "K1H7M5",
        "streetName": "ALTA VISTA",
        "streetDirectionId": null,
        "streetTypeId": "DR",
        "placeName": "OTTAWA",
        "streetNameDisplayText": "ALTA VISTA DR, OTTAWA"
      }
    ]
  },
  {
    "postal": "K1H5W8",
    "result": [
      {
        "electoralDistricts": [
          {
            "election": null,
            "id": 79,
            "name": "Ottawa South"
          }
        ],
        "pollDivisionIds": [
          10140651
        ],
        "postalCode": "K1H5W8",
        "streetName": "THESSALY",
        "streetDirectionId": null,
        "streetTypeId": "CIR",
        "placeName": "OTTAWA",
        "streetNameDisplayText": "THESSALY CIR, OTTAWA"
      }
    ]
  },
  {
    "postal": "K1H5E5",
    "result": [
      {
        "electoralDistricts": [
          {
            "election": null,
            "id": 79,
            "name": "Ottawa South"
          }
        ],
        "pollDivisionIds": [
          10140651
        ],
        "postalCode": "K1H5E5",
        "streetName": "BALMORAL",
        "streetDirectionId": null,
        "streetTypeId": "PL",
        "placeName": "OTTAWA",
        "streetNameDisplayText": "BALMORAL PL, OTTAWA"
      }
    ]
  },
  {
    "postal": "K1H1P9",
    "result": []
  },
  {
    "postal": "K1H8V8",
    "result": []
  },
  {
    "postal": "K1H9G8",
    "result": []
  },
  {
    "postal": "K1H8H9",
    "result": [
      {
        "electoralDistricts": [
          {
            "election": null,
            "id": 79,
            "name": "Ottawa South"
          }
        ],
        "pollDivisionIds": [
          10140651
        ],
        "postalCode": "K1H8H9",
        "streetName": "PORTAL",
        "streetDirectionId": null,
        "streetTypeId": "ST",
        "placeName": "OTTAWA",
        "streetNameDisplayText": "PORTAL ST, OTTAWA"
      }
    ]
  },
  {
    "postal": "K1H1Z1",
    "result": []
  },
  {
    "postal": "K1H8M3",
    "result": [
      {
        "electoralDistricts": [
          {
            "election": null,
            "id": 79,
            "name": "Ottawa South"
          }
        ],
        "pollDivisionIds": [
          10140651
        ],
        "postalCode": "K1H8M3",
        "streetName": "ROGER",
        "streetDirectionId": null,
        "streetTypeId": "RD",
        "placeName": "OTTAWA",
        "streetNameDisplayText": "ROGER RD, OTTAWA"
      }
    ]
  },
  {
    "postal": "K1H5H6",
    "result": [
      {
        "electoralDistricts": [
          {
            "election": null,
            "id": 79,
            "name": "Ottawa South"
          }
        ],
        "pollDivisionIds": [
          10140651
        ],
        "postalCode": "K1H5H6",
        "streetName": "BRIAR",
        "streetDirectionId": null,
        "streetTypeId": "AVE",
        "placeName": "OTTAWA",
        "streetNameDisplayText": "BRIAR AVE, OTTAWA"
      }
    ]
  },
  {
    "postal": "K1H7W7",
    "result": [
      {
        "electoralDistricts": [
          {
            "election": null,
            "id": 79,
            "name": "Ottawa South"
          }
        ],
        "pollDivisionIds": [
          10140658
        ],
        "postalCode": "K1H7W7",
        "streetName": "UTAH",
        "streetDirectionId": null,
        "streetTypeId": "ST",
        "placeName": "OTTAWA",
        "streetNameDisplayText": "UTAH ST, OTTAWA"
      }
    ]
  },
  {
    "postal": "K1H4L0",
    "result": []
  },
  {
    "postal": "K1H2N1",
    "result": []
  },
  {
    "postal": "K1H2H4",
    "result": []
  },
  {
    "postal": "K1H5C8",
    "result": [
      {
        "electoralDistricts": [
          {
            "election": null,
            "id": 79,
            "name": "Ottawa South"
          }
        ],
        "pollDivisionIds": [
          10140651
        ],
        "postalCode": "K1H5C8",
        "streetName": "ROGER",
        "streetDirectionId": null,
        "streetTypeId": "RD",
        "placeName": "OTTAWA",
        "streetNameDisplayText": "ROGER RD, OTTAWA"
      }
    ]
  },
  {
    "postal": "K1H8B0",
    "result": []
  },
  {
    "postal": "K1H1T4",
    "result": []
  },
  {
    "postal": "K1H7N7",
    "result": [
      {
        "electoralDistricts": [
          {
            "election": null,
            "id": 79,
            "name": "Ottawa South"
          }
        ],
        "pollDivisionIds": [
          10140657
        ],
        "postalCode": "K1H7N7",
        "streetName": "ORILLIA",
        "streetDirectionId": null,
        "streetTypeId": "ST",
        "placeName": "OTTAWA",
        "streetNameDisplayText": "ORILLIA ST, OTTAWA"
      }
    ]
  },
  {
    "postal": "K1H4L3",
    "result": []
  },
  {
    "postal": "K1H2N2",
    "result": []
  },
  {
    "postal": "K1H4N8",
    "result": []
  },
  {
    "postal": "K1H3M5",
    "result": []
  },
  {
    "postal": "K1H6H7",
    "result": [
      {
        "electoralDistricts": [
          {
            "election": null,
            "id": 79,
            "name": "Ottawa South"
          }
        ],
        "pollDivisionIds": [
          10140658
        ],
        "postalCode": "K1H6H7",
        "streetName": "OLD LILAC",
        "streetDirectionId": null,
        "streetTypeId": "LANE",
        "placeName": "OTTAWA",
        "streetNameDisplayText": "OLD LILAC LANE, OTTAWA"
      }
    ]
  },
  {
    "postal": "K1H8Y8",
    "result": []
  },
  {
    "postal": "K1H5R9",
    "result": [
      {
        "electoralDistricts": [
          {
            "election": null,
            "id": 79,
            "name": "Ottawa South"
          }
        ],
        "pollDivisionIds": [
          10140652
        ],
        "postalCode": "K1H5R9",
        "streetName": "PLAYFAIR",
        "streetDirectionId": null,
        "streetTypeId": "DR",
        "placeName": "OTTAWA",
        "streetNameDisplayText": "PLAYFAIR DR, OTTAWA"
      }
    ]
  },
  {
    "postal": "K1H8G3",
    "result": [
      {
        "electoralDistricts": [
          {
            "election": null,
            "id": 79,
            "name": "Ottawa South"
          }
        ],
        "pollDivisionIds": [
          10140656
        ],
        "postalCode": "K1H8G3",
        "streetName": "CLEMENTINE",
        "streetDirectionId": null,
        "streetTypeId": "BLVD",
        "placeName": "OTTAWA",
        "streetNameDisplayText": "CLEMENTINE BLVD, OTTAWA"
      }
    ]
  },
  {
    "postal": "K1H4N7",
    "result": []
  },
  {
    "postal": "K1H0B9",
    "result": []
  },
  {
    "postal": "K1H9K7",
    "result": []
  },
  {
    "postal": "K1H9K9",
    "result": []
  },
  {
    "postal": "K1H3Z2",
    "result": []
  },
  {
    "postal": "K1H6W7",
    "result": [
      {
        "electoralDistricts": [
          {
            "election": null,
            "id": 79,
            "name": "Ottawa South"
          }
        ],
        "pollDivisionIds": [
          10140660
        ],
        "postalCode": "K1H6W7",
        "streetName": "ILLINOIS",
        "streetDirectionId": null,
        "streetTypeId": "AVE",
        "placeName": "OTTAWA",
        "streetNameDisplayText": "ILLINOIS AVE, OTTAWA"
      }
    ]
  },
  {
    "postal": "K1H0P1",
    "result": []
  },
  {
    "postal": "K1H3A0",
    "result": []
  },
  {
    "postal": "K1H8L9",
    "result": [
      {
        "electoralDistricts": [
          {
            "election": null,
            "id": 79,
            "name": "Ottawa South"
          }
        ],
        "pollDivisionIds": [
          10140651
        ],
        "postalCode": "K1H8L9",
        "streetName": "FAIRBANKS",
        "streetDirectionId": null,
        "streetTypeId": "AVE",
        "placeName": "OTTAWA",
        "streetNameDisplayText": "FAIRBANKS AVE, OTTAWA"
      }
    ]
  },
  {
    "postal": "K1H6X0",
    "result": []
  },
  {
    "postal": "K1H3E9",
    "result": []
  },
  {
    "postal": "K1H0S5",
    "result": []
  },
  {
    "postal": "K1H1A2",
    "result": [
      {
        "electoralDistricts": [
          {
            "election": null,
            "id": 79,
            "name": "Ottawa South"
          }
        ],
        "pollDivisionIds": [
          10140651
        ],
        "postalCode": "K1H1A2",
        "streetName": "RIVERSIDE",
        "streetDirectionId": null,
        "streetTypeId": "DR",
        "placeName": "OTTAWA",
        "streetNameDisplayText": "RIVERSIDE DR, OTTAWA"
      }
    ]
  },
  {
    "postal": "K1H5V8",
    "result": [
      {
        "electoralDistricts": [
          {
            "election": null,
            "id": 79,
            "name": "Ottawa South"
          }
        ],
        "pollDivisionIds": [
          10140651
        ],
        "postalCode": "K1H5V8",
        "streetName": "MOUNTBATTEN",
        "streetDirectionId": null,
        "streetTypeId": "AVE",
        "placeName": "OTTAWA",
        "streetNameDisplayText": "MOUNTBATTEN AVE, OTTAWA"
      }
    ]
  },
  {
    "postal": "K1H8C5",
    "result": [
      {
        "electoralDistricts": [
          {
            "election": null,
            "id": 79,
            "name": "Ottawa South"
          }
        ],
        "pollDivisionIds": [
          10140656
        ],
        "postalCode": "K1H8C5",
        "streetName": "RICHARD",
        "streetDirectionId": null,
        "streetTypeId": "AVE",
        "placeName": "OTTAWA",
        "streetNameDisplayText": "RICHARD AVE, OTTAWA"
      }
    ]
  },
  {
    "postal": "K1H6N0",
    "result": []
  },
  {
    "postal": "K1H9E6",
    "result": []
  },
  {
    "postal": "K1H5J7",
    "result": [
      {
        "electoralDistricts": [
          {
            "election": null,
            "id": 79,
            "name": "Ottawa South"
          }
        ],
        "pollDivisionIds": [
          10140651
        ],
        "postalCode": "K1H5J7",
        "streetName": "WESTLANE",
        "streetDirectionId": null,
        "streetTypeId": "RD",
        "placeName": "OTTAWA",
        "streetNameDisplayText": "WESTLANE RD, OTTAWA"
      }
    ]
  },
  {
    "postal": "K1H2R2",
    "result": []
  },
  {
    "postal": "K1H0P5",
    "result": []
  },
  {
    "postal": "K1H5A7",
    "result": [
      {
        "electoralDistricts": [
          {
            "election": null,
            "id": 79,
            "name": "Ottawa South"
          }
        ],
        "pollDivisionIds": [
          10140651
        ],
        "postalCode": "K1H5A7",
        "streetName": "HIGHLAND",
        "streetDirectionId": null,
        "streetTypeId": "TERR",
        "placeName": "OTTAWA",
        "streetNameDisplayText": "HIGHLAND TERR, OTTAWA"
      }
    ]
  },
  {
    "postal": "K1H1G1",
    "result": []
  },
  {
    "postal": "K1H9R6",
    "result": []
  },
  {
    "postal": "K1H4Z9",
    "result": []
  },
  {
    "postal": "K1H1V5",
    "result": []
  },
  {
    "postal": "K1H9Y5",
    "result": []
  },
  {
    "postal": "K1H1P2",
    "result": []
  },
  {
    "postal": "K1H5X0",
    "result": []
  },
  {
    "postal": "K1H7B8",
    "result": [
      {
        "electoralDistricts": [
          {
            "election": null,
            "id": 79,
            "name": "Ottawa South"
          }
        ],
        "pollDivisionIds": [
          10140660
        ],
        "postalCode": "K1H7B8",
        "streetName": "FAIRMEADOW",
        "streetDirectionId": null,
        "streetTypeId": "CRES",
        "placeName": "OTTAWA",
        "streetNameDisplayText": "FAIRMEADOW CRES, OTTAWA"
      }
    ]
  },
  {
    "postal": "K1H0C6",
    "result": []
  },
  {
    "postal": "K1H6G1",
    "result": [
      {
        "electoralDistricts": [
          {
            "election": null,
            "id": 79,
            "name": "Ottawa South"
          }
        ],
        "pollDivisionIds": [
          10140658
        ],
        "postalCode": "K1H6G1",
        "streetName": "DAHLIA",
        "streetDirectionId": null,
        "streetTypeId": "AVE",
        "placeName": "OTTAWA",
        "streetNameDisplayText": "DAHLIA AVE, OTTAWA"
      }
    ]
  },
  {
    "postal": "K1H3K3",
    "result": []
  },
  {
    "postal": "K1H9R0",
    "result": []
  },
  {
    "postal": "K1H4R8",
    "result": []
  },
  {
    "postal": "K1H5P9",
    "result": [
      {
        "electoralDistricts": [
          {
            "election": null,
            "id": 79,
            "name": "Ottawa South"
          }
        ],
        "pollDivisionIds": [
          10140652
        ],
        "postalCode": "K1H5P9",
        "streetName": "DELMAR",
        "streetDirectionId": null,
        "streetTypeId": "DR",
        "placeName": "OTTAWA",
        "streetNameDisplayText": "DELMAR DR, OTTAWA"
      }
    ]
  },
  {
    "postal": "K1H8N4",
    "result": [
      {
        "electoralDistricts": [
          {
            "election": null,
            "id": 79,
            "name": "Ottawa South"
          }
        ],
        "pollDivisionIds": [
          10140658
        ],
        "postalCode": "K1H8N4",
        "streetName": "BANK",
        "streetDirectionId": null,
        "streetTypeId": "ST",
        "placeName": "OTTAWA",
        "streetNameDisplayText": "BANK ST, OTTAWA"
      }
    ]
  },
  {
    "postal": "K1H8H4",
    "result": [
      {
        "electoralDistricts": [
          {
            "election": null,
            "id": 79,
            "name": "Ottawa South"
          }
        ],
        "pollDivisionIds": [
          10140656
        ],
        "postalCode": "K1H8H4",
        "streetName": "LASALLE",
        "streetDirectionId": null,
        "streetTypeId": "ST",
        "placeName": "OTTAWA",
        "streetNameDisplayText": "LASALLE ST, OTTAWA"
      }
    ]
  },
  {
    "postal": "K1H4V1",
    "result": []
  },
  {
    "postal": "K1H1K5",
    "result": []
  },
  {
    "postal": "K1H1Z5",
    "result": []
  },
  {
    "postal": "K1H9L9",
    "result": []
  },
  {
    "postal": "K1H5L2",
    "result": [
      {
        "electoralDistricts": [
          {
            "election": null,
            "id": 79,
            "name": "Ottawa South"
          }
        ],
        "pollDivisionIds": [
          10140651
        ],
        "postalCode": "K1H5L2",
        "streetName": "BILLINGS",
        "streetDirectionId": null,
        "streetTypeId": "AVE",
        "placeName": "OTTAWA",
        "streetNameDisplayText": "BILLINGS AVE, OTTAWA"
      }
    ]
  },
  {
    "postal": "K1H0M2",
    "result": []
  },
  {
    "postal": "K1H1K8",
    "result": []
  },
  {
    "postal": "K1H3M7",
    "result": []
  },
  {
    "postal": "K1H1B2",
    "result": [
      {
        "electoralDistricts": [
          {
            "election": null,
            "id": 79,
            "name": "Ottawa South"
          }
        ],
        "pollDivisionIds": [
          10140651
        ],
        "postalCode": "K1H1B2",
        "streetName": "BALMORAL",
        "streetDirectionId": null,
        "streetTypeId": "PL",
        "placeName": "OTTAWA",
        "streetNameDisplayText": "BALMORAL PL, OTTAWA"
      }
    ]
  },
  {
    "postal": "K1H0H9",
    "result": []
  },
  {
    "postal": "K1H8M4",
    "result": []
  },
  {
    "postal": "K1H2M5",
    "result": []
  },
  {
    "postal": "K1H0T9",
    "result": []
  },
  {
    "postal": "K1H3P1",
    "result": []
  },
  {
    "postal": "K1H1R6",
    "result": []
  },
  {
    "postal": "K1H9V5",
    "result": []
  },
  {
    "postal": "K1H9T0",
    "result": []
  },
  {
    "postal": "K1H0A9",
    "result": []
  },
  {
    "postal": "K1H1M3",
    "result": []
  },
  {
    "postal": "K1H1W8",
    "result": []
  },
  {
    "postal": "K1H9J1",
    "result": []
  },
  {
    "postal": "K1H8N5",
    "result": [
      {
        "electoralDistricts": [
          {
            "election": null,
            "id": 79,
            "name": "Ottawa South"
          }
        ],
        "pollDivisionIds": [
          10140656
        ],
        "postalCode": "K1H8N5",
        "streetName": "OHIO",
        "streetDirectionId": null,
        "streetTypeId": "ST",
        "placeName": "OTTAWA",
        "streetNameDisplayText": "OHIO ST, OTTAWA"
      }
    ]
  },
  {
    "postal": "K1H5X1",
    "result": [
      {
        "electoralDistricts": [
          {
            "election": null,
            "id": 79,
            "name": "Ottawa South"
          }
        ],
        "pollDivisionIds": [
          10140651
        ],
        "postalCode": "K1H5X1",
        "streetName": "THESSALY",
        "streetDirectionId": null,
        "streetTypeId": "CIR",
        "placeName": "OTTAWA",
        "streetNameDisplayText": "THESSALY CIR, OTTAWA"
      }
    ]
  },
  {
    "postal": "K1H6S2",
    "result": [
      {
        "electoralDistricts": [
          {
            "election": null,
            "id": 79,
            "name": "Ottawa South"
          }
        ],
        "pollDivisionIds": [
          10140660
        ],
        "postalCode": "K1H6S2",
        "streetName": "VIRGINIA",
        "streetDirectionId": null,
        "streetTypeId": "DR",
        "placeName": "OTTAWA",
        "streetNameDisplayText": "VIRGINIA DR, OTTAWA"
      }
    ]
  },
  {
    "postal": "K1H2A2",
    "result": []
  },
  {
    "postal": "K1H6A6",
    "result": [
      {
        "electoralDistricts": [
          {
            "election": null,
            "id": 79,
            "name": "Ottawa South"
          }
        ],
        "pollDivisionIds": [
          10140651
        ],
        "postalCode": "K1H6A6",
        "streetName": "TEDDER",
        "streetDirectionId": null,
        "streetTypeId": "AVE",
        "placeName": "OTTAWA",
        "streetNameDisplayText": "TEDDER AVE, OTTAWA"
      }
    ]
  },
  {
    "postal": "K1H0S3",
    "result": []
  },
  {
    "postal": "K1H3E7",
    "result": []
  },
  {
    "postal": "K1H5R7",
    "result": [
      {
        "electoralDistricts": [
          {
            "election": null,
            "id": 79,
            "name": "Ottawa South"
          }
        ],
        "pollDivisionIds": [
          10140652
        ],
        "postalCode": "K1H5R7",
        "streetName": "BEATTIE",
        "streetDirectionId": null,
        "streetTypeId": "AVE",
        "placeName": "OTTAWA",
        "streetNameDisplayText": "BEATTIE AVE, OTTAWA"
      }
    ]
  },
  {
    "postal": "K1H3R6",
    "result": []
  },
  {
    "postal": "K1H6K4",
    "result": [
      {
        "electoralDistricts": [
          {
            "election": null,
            "id": 79,
            "name": "Ottawa South"
          }
        ],
        "pollDivisionIds": [
          10140651
        ],
        "postalCode": "K1H6K4",
        "streetName": "CHALMERS",
        "streetDirectionId": null,
        "streetTypeId": "RD",
        "placeName": "OTTAWA",
        "streetNameDisplayText": "CHALMERS RD, OTTAWA"
      }
    ]
  },
  {
    "postal": "K1H2W5",
    "result": []
  },
  {
    "postal": "K1H8W4",
    "result": []
  },
  {
    "postal": "K1H9C2",
    "result": []
  },
  {
    "postal": "K1H2C0",
    "result": []
  },
  {
    "postal": "K1H0E1",
    "result": []
  },
  {
    "postal": "K1H1K9",
    "result": []
  },
  {
    "postal": "K1H1G7",
    "result": []
  },
  {
    "postal": "K1H4E9",
    "result": []
  },
  {
    "postal": "K1H9P0",
    "result": []
  },
  {
    "postal": "K1H5H3",
    "result": [
      {
        "electoralDistricts": [
          {
            "election": null,
            "id": 79,
            "name": "Ottawa South"
          }
        ],
        "pollDivisionIds": [
          10140651
        ],
        "postalCode": "K1H5H3",
        "streetName": "HIGHRIDGE",
        "streetDirectionId": null,
        "streetTypeId": "AVE",
        "placeName": "OTTAWA",
        "streetNameDisplayText": "HIGHRIDGE AVE, OTTAWA"
      }
    ]
  },
  {
    "postal": "K1H9X6",
    "result": []
  },
  {
    "postal": "K1H5N7",
    "result": [
      {
        "electoralDistricts": [
          {
            "election": null,
            "id": 79,
            "name": "Ottawa South"
          }
        ],
        "pollDivisionIds": [
          10140652
        ],
        "postalCode": "K1H5N7",
        "streetName": "NORWAY",
        "streetDirectionId": null,
        "streetTypeId": "CRES",
        "placeName": "OTTAWA",
        "streetNameDisplayText": "NORWAY CRES, OTTAWA"
      }
    ]
  },
  {
    "postal": "K1H5A6",
    "result": [
      {
        "electoralDistricts": [
          {
            "election": null,
            "id": 79,
            "name": "Ottawa South"
          }
        ],
        "pollDivisionIds": [
          10140651
        ],
        "postalCode": "K1H5A6",
        "streetName": "HIGHLAND",
        "streetDirectionId": null,
        "streetTypeId": "TERR",
        "placeName": "OTTAWA",
        "streetNameDisplayText": "HIGHLAND TERR, OTTAWA"
      }
    ]
  },
  {
    "postal": "K1H4M0",
    "result": []
  },
  {
    "postal": "K1H3V6",
    "result": []
  },
  {
    "postal": "K1H1L7",
    "result": []
  },
  {
    "postal": "K1H2P9",
    "result": []
  },
  {
    "postal": "K1H5T4",
    "result": [
      {
        "electoralDistricts": [
          {
            "election": null,
            "id": 79,
            "name": "Ottawa South"
          }
        ],
        "pollDivisionIds": [
          10140652
        ],
        "postalCode": "K1H5T4",
        "streetName": "DUNKIRK",
        "streetDirectionId": null,
        "streetTypeId": "CRES",
        "placeName": "OTTAWA",
        "streetNameDisplayText": "DUNKIRK CRES, OTTAWA"
      }
    ]
  },
  {
    "postal": "K1H5Z1",
    "result": [
      {
        "electoralDistricts": [
          {
            "election": null,
            "id": 79,
            "name": "Ottawa South"
          }
        ],
        "pollDivisionIds": [
          10140651
        ],
        "postalCode": "K1H5Z1",
        "streetName": "FAIRBANKS",
        "streetDirectionId": null,
        "streetTypeId": "AVE",
        "placeName": "OTTAWA",
        "streetNameDisplayText": "FAIRBANKS AVE, OTTAWA"
      }
    ]
  },
  {
    "postal": "K1H2X0",
    "result": []
  },
  {
    "postal": "K1H6Z2",
    "result": [
      {
        "electoralDistricts": [
          {
            "election": null,
            "id": 79,
            "name": "Ottawa South"
          }
        ],
        "pollDivisionIds": [
          10140660
        ],
        "postalCode": "K1H6Z2",
        "streetName": "FLORIDA",
        "streetDirectionId": null,
        "streetTypeId": "AVE",
        "placeName": "OTTAWA",
        "streetNameDisplayText": "FLORIDA AVE, OTTAWA"
      }
    ]
  },
  {
    "postal": "K1H0E0",
    "result": []
  },
  {
    "postal": "K1H3Z5",
    "result": []
  },
  {
    "postal": "K1H8H3",
    "result": [
      {
        "electoralDistricts": [
          {
            "election": null,
            "id": 79,
            "name": "Ottawa South"
          }
        ],
        "pollDivisionIds": [
          10140656
        ],
        "postalCode": "K1H8H3",
        "streetName": "LASALLE",
        "streetDirectionId": null,
        "streetTypeId": "ST",
        "placeName": "OTTAWA",
        "streetNameDisplayText": "LASALLE ST, OTTAWA"
      }
    ]
  },
  {
    "postal": "K1H7S6",
    "result": [
      {
        "electoralDistricts": [
          {
            "election": null,
            "id": 79,
            "name": "Ottawa South"
          }
        ],
        "pollDivisionIds": [
          10140657
        ],
        "postalCode": "K1H7S6",
        "streetName": "WILLOWDALE",
        "streetDirectionId": null,
        "streetTypeId": "AVE",
        "placeName": "OTTAWA",
        "streetNameDisplayText": "WILLOWDALE AVE, OTTAWA"
      }
    ]
  },
  {
    "postal": "K1H4C1",
    "result": []
  },
  {
    "postal": "K1H3K2",
    "result": []
  },
  {
    "postal": "K1H1Y5",
    "result": []
  },
  {
    "postal": "K1H6P6",
    "result": [
      {
        "electoralDistricts": [
          {
            "election": null,
            "id": 79,
            "name": "Ottawa South"
          }
        ],
        "pollDivisionIds": [
          10140660
        ],
        "postalCode": "K1H6P6",
        "streetName": "FEATHERSTON",
        "streetDirectionId": null,
        "streetTypeId": "DR",
        "placeName": "OTTAWA",
        "streetNameDisplayText": "FEATHERSTON DR, OTTAWA"
      }
    ]
  },
  {
    "postal": "K1H3N9",
    "result": []
  },
  {
    "postal": "K1H3W2",
    "result": []
  },
  {
    "postal": "K1H6H8",
    "result": [
      {
        "electoralDistricts": [
          {
            "election": null,
            "id": 79,
            "name": "Ottawa South"
          }
        ],
        "pollDivisionIds": [
          10140658
        ],
        "postalCode": "K1H6H8",
        "streetName": "WOODCREST",
        "streetDirectionId": null,
        "streetTypeId": "RD",
        "placeName": "OTTAWA",
        "streetNameDisplayText": "WOODCREST RD, OTTAWA"
      }
    ]
  },
  {
    "postal": "K1H9T3",
    "result": []
  },
  {
    "postal": "K1H5L9",
    "result": [
      {
        "electoralDistricts": [
          {
            "election": null,
            "id": 79,
            "name": "Ottawa South"
          }
        ],
        "pollDivisionIds": [
          10140651
        ],
        "postalCode": "K1H5L9",
        "streetName": "PLEASANT PARK",
        "streetDirectionId": null,
        "streetTypeId": "RD",
        "placeName": "OTTAWA",
        "streetNameDisplayText": "PLEASANT PARK RD, OTTAWA"
      }
    ]
  },
  {
    "postal": "K1H7X7",
    "result": [
      {
        "electoralDistricts": [
          {
            "election": null,
            "id": 79,
            "name": "Ottawa South"
          }
        ],
        "pollDivisionIds": [
          10140656
        ],
        "postalCode": "K1H7X7",
        "streetName": "RIVERSIDE",
        "streetDirectionId": null,
        "streetTypeId": "DR",
        "placeName": "OTTAWA",
        "streetNameDisplayText": "RIVERSIDE DR, OTTAWA"
      }
    ]
  },
  {
    "postal": "K1H3J5",
    "result": []
  },
  {
    "postal": "K1H4J5",
    "result": []
  },
  {
    "postal": "K1H6J2",
    "result": [
      {
        "electoralDistricts": [
          {
            "election": null,
            "id": 79,
            "name": "Ottawa South"
          }
        ],
        "pollDivisionIds": [
          10140658
        ],
        "postalCode": "K1H6J2",
        "streetName": "WOODCREST",
        "streetDirectionId": null,
        "streetTypeId": "RD",
        "placeName": "OTTAWA",
        "streetNameDisplayText": "WOODCREST RD, OTTAWA"
      }
    ]
  },
  {
    "postal": "K1H5V6",
    "result": [
      {
        "electoralDistricts": [
          {
            "election": null,
            "id": 79,
            "name": "Ottawa South"
          }
        ],
        "pollDivisionIds": [
          10140651
        ],
        "postalCode": "K1H5V6",
        "streetName": "MOUNTBATTEN",
        "streetDirectionId": null,
        "streetTypeId": "AVE",
        "placeName": "OTTAWA",
        "streetNameDisplayText": "MOUNTBATTEN AVE, OTTAWA"
      }
    ]
  },
  {
    "postal": "K1H3N2",
    "result": []
  },
  {
    "postal": "K1H3B1",
    "result": []
  },
  {
    "postal": "K1H8B5",
    "result": [
      {
        "electoralDistricts": [
          {
            "election": null,
            "id": 79,
            "name": "Ottawa South"
          }
        ],
        "pollDivisionIds": [
          10140656
        ],
        "postalCode": "K1H8B5",
        "streetName": "GUERTIN",
        "streetDirectionId": null,
        "streetTypeId": "AVE",
        "placeName": "OTTAWA",
        "streetNameDisplayText": "GUERTIN AVE, OTTAWA"
      }
    ]
  },
  {
    "postal": "K1H0K1",
    "result": []
  },
  {
    "postal": "K1H7M7",
    "result": [
      {
        "electoralDistricts": [
          {
            "election": null,
            "id": 79,
            "name": "Ottawa South"
          }
        ],
        "pollDivisionIds": [
          10140657
        ],
        "postalCode": "K1H7M7",
        "streetName": "ALTA VISTA",
        "streetDirectionId": null,
        "streetTypeId": "DR",
        "placeName": "OTTAWA",
        "streetNameDisplayText": "ALTA VISTA DR, OTTAWA"
      }
    ]
  },
  {
    "postal": "K1H2M2",
    "result": []
  },
  {
    "postal": "K1H9N3",
    "result": []
  },
  {
    "postal": "K1H4Y8",
    "result": []
  },
  {
    "postal": "K1H3V7",
    "result": []
  },
  {
    "postal": "K1H8Z1",
    "result": []
  },
  {
    "postal": "K1H7B3",
    "result": [
      {
        "electoralDistricts": [
          {
            "election": null,
            "id": 79,
            "name": "Ottawa South"
          }
        ],
        "pollDivisionIds": [
          10140660
        ],
        "postalCode": "K1H7B3",
        "streetName": "AMBERDALE",
        "streetDirectionId": null,
        "streetTypeId": "CRES",
        "placeName": "OTTAWA",
        "streetNameDisplayText": "AMBERDALE CRES, OTTAWA"
      }
    ]
  },
  {
    "postal": "K1H3A8",
    "result": []
  },
  {
    "postal": "K1H7V5",
    "result": [
      {
        "electoralDistricts": [
          {
            "election": null,
            "id": 79,
            "name": "Ottawa South"
          }
        ],
        "pollDivisionIds": [
          10140657
        ],
        "postalCode": "K1H7V5",
        "streetName": "RIDGECREST",
        "streetDirectionId": null,
        "streetTypeId": "PL",
        "placeName": "OTTAWA",
        "streetNameDisplayText": "RIDGECREST PL, OTTAWA"
      }
    ]
  },
  {
    "postal": "K1H2T2",
    "result": []
  },
  {
    "postal": "K1H6L3",
    "result": [
      {
        "electoralDistricts": [
          {
            "election": null,
            "id": 79,
            "name": "Ottawa South"
          }
        ],
        "pollDivisionIds": [
          10140658
        ],
        "postalCode": "K1H6L3",
        "streetName": "KILBORN",
        "streetDirectionId": null,
        "streetTypeId": "AVE",
        "placeName": "OTTAWA",
        "streetNameDisplayText": "KILBORN AVE, OTTAWA"
      }
    ]
  },
  {
    "postal": "K1H0L2",
    "result": []
  },
  {
    "postal": "K1H5Y8",
    "result": [
      {
        "electoralDistricts": [
          {
            "election": null,
            "id": 79,
            "name": "Ottawa South"
          }
        ],
        "pollDivisionIds": [
          10140651
        ],
        "postalCode": "K1H5Y8",
        "streetName": "FAIRBANKS",
        "streetDirectionId": null,
        "streetTypeId": "AVE",
        "placeName": "OTTAWA",
        "streetNameDisplayText": "FAIRBANKS AVE, OTTAWA"
      }
    ]
  },
  {
    "postal": "K1H0B8",
    "result": []
  },
  {
    "postal": "K1H6R5",
    "result": [
      {
        "electoralDistricts": [
          {
            "election": null,
            "id": 79,
            "name": "Ottawa South"
          }
        ],
        "pollDivisionIds": [
          10140660
        ],
        "postalCode": "K1H6R5",
        "streetName": "ASTER",
        "streetDirectionId": null,
        "streetTypeId": "ST",
        "placeName": "OTTAWA",
        "streetNameDisplayText": "ASTER ST, OTTAWA"
      }
    ]
  },
  {
    "postal": "K1H8W6",
    "result": []
  },
  {
    "postal": "K1H8G6",
    "result": []
  },
  {
    "postal": "K1H6X3",
    "result": [
      {
        "electoralDistricts": [
          {
            "election": null,
            "id": 79,
            "name": "Ottawa South"
          }
        ],
        "pollDivisionIds": [
          10140651
        ],
        "postalCode": "K1H6X3",
        "streetName": "PORTAL",
        "streetDirectionId": null,
        "streetTypeId": "ST",
        "placeName": "OTTAWA",
        "streetNameDisplayText": "PORTAL ST, OTTAWA"
      }
    ]
  },
  {
    "postal": "K1H7R7",
    "result": [
      {
        "electoralDistricts": [
          {
            "election": null,
            "id": 79,
            "name": "Ottawa South"
          }
        ],
        "pollDivisionIds": [
          10140658
        ],
        "postalCode": "K1H7R7",
        "streetName": "RANDALL",
        "streetDirectionId": null,
        "streetTypeId": "AVE",
        "placeName": "OTTAWA",
        "streetNameDisplayText": "RANDALL AVE, OTTAWA"
      }
    ]
  },
  {
    "postal": "K1H4B6",
    "result": []
  },
  {
    "postal": "K1H3P9",
    "result": []
  },
  {
    "postal": "K1H2T3",
    "result": []
  },
  {
    "postal": "K1H1M4",
    "result": []
  },
  {
    "postal": "K1H0H1",
    "result": []
  },
  {
    "postal": "K1H9W3",
    "result": []
  },
  {
    "postal": "K1H6P1",
    "result": [
      {
        "electoralDistricts": [
          {
            "election": null,
            "id": 79,
            "name": "Ottawa South"
          }
        ],
        "pollDivisionIds": [
          10140660
        ],
        "postalCode": "K1H6P1",
        "streetName": "FEATHERSTON",
        "streetDirectionId": null,
        "streetTypeId": "DR",
        "placeName": "OTTAWA",
        "streetNameDisplayText": "FEATHERSTON DR, OTTAWA"
      }
    ]
  },
  {
    "postal": "K1H7G2",
    "result": [
      {
        "electoralDistricts": [
          {
            "election": null,
            "id": 79,
            "name": "Ottawa South"
          }
        ],
        "pollDivisionIds": [
          10140658
        ],
        "postalCode": "K1H7G2",
        "streetName": "PROSPECT",
        "streetDirectionId": null,
        "streetTypeId": "AVE",
        "placeName": "OTTAWA",
        "streetNameDisplayText": "PROSPECT AVE, OTTAWA"
      }
    ]
  },
  {
    "postal": "K1H4J9",
    "result": []
  },
  {
    "postal": "K1H9E4",
    "result": []
  },
  {
    "postal": "K1H8H0",
    "result": []
  },
  {
    "postal": "K1H4M7",
    "result": []
  },
  {
    "postal": "K1H2G9",
    "result": []
  },
  {
    "postal": "K1H8T2",
    "result": []
  },
  {
    "postal": "K1H7G7",
    "result": [
      {
        "electoralDistricts": [
          {
            "election": null,
            "id": 79,
            "name": "Ottawa South"
          }
        ],
        "pollDivisionIds": [
          10140658
        ],
        "postalCode": "K1H7G7",
        "streetName": "COURTICE",
        "streetDirectionId": null,
        "streetTypeId": "AVE",
        "placeName": "OTTAWA",
        "streetNameDisplayText": "COURTICE AVE, OTTAWA"
      }
    ]
  },
  {
    "postal": "K1H4Z3",
    "result": []
  },
  {
    "postal": "K1H5B3",
    "result": [
      {
        "electoralDistricts": [
          {
            "election": null,
            "id": 79,
            "name": "Ottawa South"
          }
        ],
        "pollDivisionIds": [
          10140651
        ],
        "postalCode": "K1H5B3",
        "streetName": "BROADMOOR",
        "streetDirectionId": null,
        "streetTypeId": "AVE",
        "placeName": "OTTAWA",
        "streetNameDisplayText": "BROADMOOR AVE, OTTAWA"
      }
    ]
  },
  {
    "postal": "K1H1S7",
    "result": []
  },
  {
    "postal": "K1H2N7",
    "result": []
  },
  {
    "postal": "K1H0H8",
    "result": []
  },
  {
    "postal": "K1H7Z4",
    "result": [
      {
        "electoralDistricts": [
          {
            "election": null,
            "id": 79,
            "name": "Ottawa South"
          }
        ],
        "pollDivisionIds": [
          10140656
        ],
        "postalCode": "K1H7Z4",
        "streetName": "BANK",
        "streetDirectionId": null,
        "streetTypeId": "ST",
        "placeName": "OTTAWA",
        "streetNameDisplayText": "BANK ST, OTTAWA"
      }
    ]
  },
  {
    "postal": "K1H7B1",
    "result": [
      {
        "electoralDistricts": [
          {
            "election": null,
            "id": 79,
            "name": "Ottawa South"
          }
        ],
        "pollDivisionIds": [
          10140660
        ],
        "postalCode": "K1H7B1",
        "streetName": "BRIAR HILL",
        "streetDirectionId": null,
        "streetTypeId": "DR",
        "placeName": "OTTAWA",
        "streetNameDisplayText": "BRIAR HILL DR, OTTAWA"
      }
    ]
  },
  {
    "postal": "K1H7P8",
    "result": [
      {
        "electoralDistricts": [
          {
            "election": null,
            "id": 79,
            "name": "Ottawa South"
          }
        ],
        "pollDivisionIds": [
          10140658
        ],
        "postalCode": "K1H7P8",
        "streetName": "LIVINGSTONE",
        "streetDirectionId": null,
        "streetTypeId": "AVE",
        "placeName": "OTTAWA",
        "streetNameDisplayText": "LIVINGSTONE AVE, OTTAWA"
      }
    ]
  },
  {
    "postal": "K1H7N0",
    "result": []
  },
  {
    "postal": "K1H3Y5",
    "result": []
  },
  {
    "postal": "K1H6K1",
    "result": [
      {
        "electoralDistricts": [
          {
            "election": null,
            "id": 79,
            "name": "Ottawa South"
          }
        ],
        "pollDivisionIds": [
          10140651
        ],
        "postalCode": "K1H6K1",
        "streetName": "CABOT",
        "streetDirectionId": null,
        "streetTypeId": "ST",
        "placeName": "OTTAWA",
        "streetNameDisplayText": "CABOT ST, OTTAWA"
      }
    ]
  },
  {
    "postal": "K1H9X5",
    "result": []
  },
  {
    "postal": "K1H7S5",
    "result": [
      {
        "electoralDistricts": [
          {
            "election": null,
            "id": 79,
            "name": "Ottawa South"
          }
        ],
        "pollDivisionIds": [
          10140657
        ],
        "postalCode": "K1H7S5",
        "streetName": "WILLOWDALE",
        "streetDirectionId": null,
        "streetTypeId": "AVE",
        "placeName": "OTTAWA",
        "streetNameDisplayText": "WILLOWDALE AVE, OTTAWA"
      }
    ]
  },
  {
    "postal": "K1H0A4",
    "result": []
  },
  {
    "postal": "K1H4T5",
    "result": []
  },
  {
    "postal": "K1H5K1",
    "result": [
      {
        "electoralDistricts": [
          {
            "election": null,
            "id": 79,
            "name": "Ottawa South"
          }
        ],
        "pollDivisionIds": [
          10140651
        ],
        "postalCode": "K1H5K1",
        "streetName": "RODNEY",
        "streetDirectionId": null,
        "streetTypeId": "CRES",
        "placeName": "OTTAWA",
        "streetNameDisplayText": "RODNEY CRES, OTTAWA"
      }
    ]
  },
  {
    "postal": "K1H0Z9",
    "result": []
  },
  {
    "postal": "K1H7T2",
    "result": [
      {
        "electoralDistricts": [
          {
            "election": null,
            "id": 79,
            "name": "Ottawa South"
          }
        ],
        "pollDivisionIds": [
          10140657
        ],
        "postalCode": "K1H7T2",
        "streetName": "WESMAR",
        "streetDirectionId": null,
        "streetTypeId": "DR",
        "placeName": "OTTAWA",
        "streetNameDisplayText": "WESMAR DR, OTTAWA"
      }
    ]
  },
  {
    "postal": "K1H1L5",
    "result": []
  },
  {
    "postal": "K1H3N5",
    "result": []
  },
  {
    "postal": "K1H6H4",
    "result": [
      {
        "electoralDistricts": [
          {
            "election": null,
            "id": 79,
            "name": "Ottawa South"
          }
        ],
        "pollDivisionIds": [
          10140658
        ],
        "postalCode": "K1H6H4",
        "streetName": "NIAGARA",
        "streetDirectionId": null,
        "streetTypeId": "DR",
        "placeName": "OTTAWA",
        "streetNameDisplayText": "NIAGARA DR, OTTAWA"
      }
    ]
  },
  {
    "postal": "K1H5A5",
    "result": [
      {
        "electoralDistricts": [
          {
            "election": null,
            "id": 79,
            "name": "Ottawa South"
          }
        ],
        "pollDivisionIds": [
          10140651
        ],
        "postalCode": "K1H5A5",
        "streetName": "HIGHLAND",
        "streetDirectionId": null,
        "streetTypeId": "TERR",
        "placeName": "OTTAWA",
        "streetNameDisplayText": "HIGHLAND TERR, OTTAWA"
      }
    ]
  },
  {
    "postal": "K1H3R9",
    "result": []
  },
  {
    "postal": "K1H7L8",
    "result": [
      {
        "electoralDistricts": [
          {
            "election": null,
            "id": 79,
            "name": "Ottawa South"
          }
        ],
        "pollDivisionIds": [
          10140651
        ],
        "postalCode": "K1H7L8",
        "streetName": "ALTA VISTA",
        "streetDirectionId": null,
        "streetTypeId": "DR",
        "placeName": "OTTAWA",
        "streetNameDisplayText": "ALTA VISTA DR, OTTAWA"
      }
    ]
  },
  {
    "postal": "K1H6T6",
    "result": [
      {
        "electoralDistricts": [
          {
            "election": null,
            "id": 79,
            "name": "Ottawa South"
          }
        ],
        "pollDivisionIds": [
          10140660
        ],
        "postalCode": "K1H6T6",
        "streetName": "LOUISIANA",
        "streetDirectionId": null,
        "streetTypeId": "AVE",
        "placeName": "OTTAWA",
        "streetNameDisplayText": "LOUISIANA AVE, OTTAWA"
      }
    ]
  },
  {
    "postal": "K1H7Y7",
    "result": [
      {
        "electoralDistricts": [
          {
            "election": null,
            "id": 79,
            "name": "Ottawa South"
          }
        ],
        "pollDivisionIds": [
          10140658
        ],
        "postalCode": "K1H7Y7",
        "streetName": "ROONEY'S",
        "streetDirectionId": null,
        "streetTypeId": "LANE",
        "placeName": "OTTAWA",
        "streetNameDisplayText": "ROONEY'S LANE, OTTAWA"
      }
    ]
  },
  {
    "postal": "K1H3M8",
    "result": []
  },
  {
    "postal": "K1H2E0",
    "result": []
  },
  {
    "postal": "K1H4B5",
    "result": []
  },
  {
    "postal": "K1H1J3",
    "result": []
  },
  {
    "postal": "K1H5S6",
    "result": [
      {
        "electoralDistricts": [
          {
            "election": null,
            "id": 79,
            "name": "Ottawa South"
          }
        ],
        "pollDivisionIds": [
          10140652
        ],
        "postalCode": "K1H5S6",
        "streetName": "PLAYFAIR",
        "streetDirectionId": null,
        "streetTypeId": "DR",
        "placeName": "OTTAWA",
        "streetNameDisplayText": "PLAYFAIR DR, OTTAWA"
      }
    ]
  },
  {
    "postal": "K1H8P7",
    "result": []
  },
  {
    "postal": "K1H7S7",
    "result": [
      {
        "electoralDistricts": [
          {
            "election": null,
            "id": 79,
            "name": "Ottawa South"
          }
        ],
        "pollDivisionIds": [
          10140657
        ],
        "postalCode": "K1H7S7",
        "streetName": "WILLOWDALE",
        "streetDirectionId": null,
        "streetTypeId": "AVE",
        "placeName": "OTTAWA",
        "streetNameDisplayText": "WILLOWDALE AVE, OTTAWA"
      }
    ]
  },
  {
    "postal": "K1H4C2",
    "result": []
  },
  {
    "postal": "K1H5Y0",
    "result": []
  },
  {
    "postal": "K1H2V7",
    "result": []
  },
  {
    "postal": "K1H8P5",
    "result": [
      {
        "electoralDistricts": [
          {
            "election": null,
            "id": 79,
            "name": "Ottawa South"
          }
        ],
        "pollDivisionIds": [
          10140662
        ],
        "postalCode": "K1H8P5",
        "streetName": "ST LAURENT",
        "streetDirectionId": null,
        "streetTypeId": "BLVD",
        "placeName": "OTTAWA",
        "streetNameDisplayText": "ST LAURENT BLVD, OTTAWA"
      },
      {
        "electoralDistricts": [
          {
            "election": null,
            "id": 79,
            "name": "Ottawa South"
          }
        ],
        "pollDivisionIds": [
          10140662
        ],
        "postalCode": "K1H8P5",
        "streetName": "ST-LAURENT",
        "streetDirectionId": null,
        "streetTypeId": "BLVD",
        "placeName": "OTTAWA",
        "streetNameDisplayText": "ST-LAURENT BLVD, OTTAWA"
      }
    ]
  },
  {
    "postal": "K1H5P5",
    "result": [
      {
        "electoralDistricts": [
          {
            "election": null,
            "id": 79,
            "name": "Ottawa South"
          }
        ],
        "pollDivisionIds": [
          10140652
        ],
        "postalCode": "K1H5P5",
        "streetName": "THISTLE",
        "streetDirectionId": null,
        "streetTypeId": "CRES",
        "placeName": "OTTAWA",
        "streetNameDisplayText": "THISTLE CRES, OTTAWA"
      }
    ]
  },
  {
    "postal": "K1H5Z0",
    "result": []
  },
  {
    "postal": "K1H9B0",
    "result": []
  },
  {
    "postal": "K1H1L0",
    "result": []
  },
  {
    "postal": "K1H0B5",
    "result": []
  },
  {
    "postal": "K1H3L2",
    "result": []
  },
  {
    "postal": "K1H3B7",
    "result": []
  },
  {
    "postal": "K1H8L1",
    "result": [
      {
        "electoralDistricts": [
          {
            "election": null,
            "id": 79,
            "name": "Ottawa South"
          }
        ],
        "pollDivisionIds": [
          10140647
        ],
        "postalCode": "K1H8L1",
        "streetName": "SMYTH",
        "streetDirectionId": null,
        "streetTypeId": "RD",
        "placeName": "OTTAWA",
        "streetNameDisplayText": "SMYTH RD, OTTAWA"
      }
    ]
  },
  {
    "postal": "K1H5M4",
    "result": [
      {
        "electoralDistricts": [
          {
            "election": null,
            "id": 79,
            "name": "Ottawa South"
          }
        ],
        "pollDivisionIds": [
          10140651
        ],
        "postalCode": "K1H5M4",
        "streetName": "PLEASANT PARK",
        "streetDirectionId": null,
        "streetTypeId": "RD",
        "placeName": "OTTAWA",
        "streetNameDisplayText": "PLEASANT PARK RD, OTTAWA"
      }
    ]
  },
  {
    "postal": "K1H4G9",
    "result": []
  },
  {
    "postal": "K1H0P0",
    "result": []
  },
  {
    "postal": "K1H8G2",
    "result": [
      {
        "electoralDistricts": [
          {
            "election": null,
            "id": 79,
            "name": "Ottawa South"
          }
        ],
        "pollDivisionIds": [
          10140656
        ],
        "postalCode": "K1H8G2",
        "streetName": "CLEMENTINE",
        "streetDirectionId": null,
        "streetTypeId": "BLVD",
        "placeName": "OTTAWA",
        "streetNameDisplayText": "CLEMENTINE BLVD, OTTAWA"
      }
    ]
  },
  {
    "postal": "K1H1V9",
    "result": []
  },
  {
    "postal": "K1H8N8",
    "result": [
      {
        "electoralDistricts": [
          {
            "election": null,
            "id": 79,
            "name": "Ottawa South"
          }
        ],
        "pollDivisionIds": [
          10140658
        ],
        "postalCode": "K1H8N8",
        "streetName": "LAMIRA",
        "streetDirectionId": null,
        "streetTypeId": "ST",
        "placeName": "OTTAWA",
        "streetNameDisplayText": "LAMIRA ST, OTTAWA"
      }
    ]
  },
  {
    "postal": "K1H6S8",
    "result": [
      {
        "electoralDistricts": [
          {
            "election": null,
            "id": 79,
            "name": "Ottawa South"
          }
        ],
        "pollDivisionIds": [
          10140660
        ],
        "postalCode": "K1H6S8",
        "streetName": "JUNO",
        "streetDirectionId": null,
        "streetTypeId": "AVE",
        "placeName": "OTTAWA",
        "streetNameDisplayText": "JUNO AVE, OTTAWA"
      }
    ]
  },
  {
    "postal": "K1H8H2",
    "result": [
      {
        "electoralDistricts": [
          {
            "election": null,
            "id": 79,
            "name": "Ottawa South"
          }
        ],
        "pollDivisionIds": [
          10140656
        ],
        "postalCode": "K1H8H2",
        "streetName": "LASALLE",
        "streetDirectionId": null,
        "streetTypeId": "ST",
        "placeName": "OTTAWA",
        "streetNameDisplayText": "LASALLE ST, OTTAWA"
      }
    ]
  },
  {
    "postal": "K1H5R8",
    "result": [
      {
        "electoralDistricts": [
          {
            "election": null,
            "id": 79,
            "name": "Ottawa South"
          }
        ],
        "pollDivisionIds": [
          10140652
        ],
        "postalCode": "K1H5R8",
        "streetName": "BEATTIE",
        "streetDirectionId": null,
        "streetTypeId": "AVE",
        "placeName": "OTTAWA",
        "streetNameDisplayText": "BEATTIE AVE, OTTAWA"
      }
    ]
  },
  {
    "postal": "K1H5L4",
    "result": [
      {
        "electoralDistricts": [
          {
            "election": null,
            "id": 79,
            "name": "Ottawa South"
          }
        ],
        "pollDivisionIds": [
          10140651
        ],
        "postalCode": "K1H5L4",
        "streetName": "BILLINGS",
        "streetDirectionId": null,
        "streetTypeId": "AVE",
        "placeName": "OTTAWA",
        "streetNameDisplayText": "BILLINGS AVE, OTTAWA"
      }
    ]
  },
  {
    "postal": "K1H9E1",
    "result": []
  },
  {
    "postal": "K1H1C4",
    "result": []
  },
  {
    "postal": "K1H8W5",
    "result": []
  },
  {
    "postal": "K1H1Y4",
    "result": []
  },
  {
    "postal": "K1H1C0",
    "result": []
  },
  {
    "postal": "K1H2J2",
    "result": []
  },
  {
    "postal": "K1H2J0",
    "result": []
  },
  {
    "postal": "K1H7A3",
    "result": [
      {
        "electoralDistricts": [
          {
            "election": null,
            "id": 79,
            "name": "Ottawa South"
          }
        ],
        "pollDivisionIds": [
          10140660
        ],
        "postalCode": "K1H7A3",
        "streetName": "JEFFERSON",
        "streetDirectionId": null,
        "streetTypeId": "ST",
        "placeName": "OTTAWA",
        "streetNameDisplayText": "JEFFERSON ST, OTTAWA"
      }
    ]
  },
  {
    "postal": "K1H8M1",
    "result": [
      {
        "electoralDistricts": [
          {
            "election": null,
            "id": 79,
            "name": "Ottawa South"
          }
        ],
        "pollDivisionIds": [
          10140660
        ],
        "postalCode": "K1H8M1",
        "streetName": "GARAND",
        "streetDirectionId": null,
        "streetTypeId": "PL",
        "placeName": "OTTAWA",
        "streetNameDisplayText": "GARAND PL, OTTAWA"
      }
    ]
  },
  {
    "postal": "K1H7T9",
    "result": [
      {
        "electoralDistricts": [
          {
            "election": null,
            "id": 79,
            "name": "Ottawa South"
          }
        ],
        "pollDivisionIds": [
          10140657
        ],
        "postalCode": "K1H7T9",
        "streetName": "EVANS",
        "streetDirectionId": null,
        "streetTypeId": "BLVD",
        "placeName": "OTTAWA",
        "streetNameDisplayText": "EVANS BLVD, OTTAWA"
      }
    ]
  },
  {
    "postal": "K1H6C0",
    "result": []
  },
  {
    "postal": "K1H7X1",
    "result": [
      {
        "electoralDistricts": [
          {
            "election": null,
            "id": 79,
            "name": "Ottawa South"
          }
        ],
        "pollDivisionIds": [
          10140651
        ],
        "postalCode": "K1H7X1",
        "streetName": "RIVERSIDE",
        "streetDirectionId": null,
        "streetTypeId": "DR",
        "placeName": "OTTAWA",
        "streetNameDisplayText": "RIVERSIDE DR, OTTAWA"
      }
    ]
  },
  {
    "postal": "K1H0G1",
    "result": []
  },
  {
    "postal": "K1H4X2",
    "result": []
  },
  {
    "postal": "K1H0N6",
    "result": []
  },
  {
    "postal": "K1H8E3",
    "result": [
      {
        "electoralDistricts": [
          {
            "election": null,
            "id": 79,
            "name": "Ottawa South"
          }
        ],
        "pollDivisionIds": [
          10140656
        ],
        "postalCode": "K1H8E3",
        "streetName": "GILLES",
        "streetDirectionId": null,
        "streetTypeId": "ST",
        "placeName": "OTTAWA",
        "streetNameDisplayText": "GILLES ST, OTTAWA"
      }
    ]
  },
  {
    "postal": "K1H5S8",
    "result": [
      {
        "electoralDistricts": [
          {
            "election": null,
            "id": 79,
            "name": "Ottawa South"
          }
        ],
        "pollDivisionIds": [
          10140652
        ],
        "postalCode": "K1H5S8",
        "streetName": "RHODES",
        "streetDirectionId": null,
        "streetTypeId": "CRT",
        "placeName": "OTTAWA",
        "streetNameDisplayText": "RHODES CRT, OTTAWA"
      }
    ]
  },
  {
    "postal": "K1H0R0",
    "result": []
  },
  {
    "postal": "K1H6J6",
    "result": [
      {
        "electoralDistricts": [
          {
            "election": null,
            "id": 79,
            "name": "Ottawa South"
          }
        ],
        "pollDivisionIds": [
          10140658
        ],
        "postalCode": "K1H6J6",
        "streetName": "QUINN",
        "streetDirectionId": null,
        "streetTypeId": "CRES",
        "placeName": "OTTAWA",
        "streetNameDisplayText": "QUINN CRES, OTTAWA"
      }
    ]
  },
  {
    "postal": "K1H4B4",
    "result": []
  },
  {
    "postal": "K1H7E3",
    "result": [
      {
        "electoralDistricts": [
          {
            "election": null,
            "id": 79,
            "name": "Ottawa South"
          }
        ],
        "pollDivisionIds": [
          10140658
        ],
        "postalCode": "K1H7E3",
        "streetName": "MCROBIE",
        "streetDirectionId": null,
        "streetTypeId": "AVE",
        "placeName": "OTTAWA",
        "streetNameDisplayText": "MCROBIE AVE, OTTAWA"
      }
    ]
  },
  {
    "postal": "K1H3N6",
    "result": []
  },
  {
    "postal": "K1H3X6",
    "result": []
  },
  {
    "postal": "K1H8L0",
    "result": []
  },
  {
    "postal": "K1H8N1",
    "result": [
      {
        "electoralDistricts": [
          {
            "election": null,
            "id": 79,
            "name": "Ottawa South"
          }
        ],
        "pollDivisionIds": [
          10140658
        ],
        "postalCode": "K1H8N1",
        "streetName": "BANK",
        "streetDirectionId": null,
        "streetTypeId": "ST",
        "placeName": "OTTAWA",
        "streetNameDisplayText": "BANK ST, OTTAWA"
      }
    ]
  },
  {
    "postal": "K1H4J0",
    "result": []
  },
  {
    "postal": "K1H0X7",
    "result": []
  },
  {
    "postal": "K1H6S4",
    "result": [
      {
        "electoralDistricts": [
          {
            "election": null,
            "id": 79,
            "name": "Ottawa South"
          }
        ],
        "pollDivisionIds": [
          10140660
        ],
        "postalCode": "K1H6S4",
        "streetName": "YALE",
        "streetDirectionId": null,
        "streetTypeId": "AVE",
        "placeName": "OTTAWA",
        "streetNameDisplayText": "YALE AVE, OTTAWA"
      }
    ]
  },
  {
    "postal": "K1H0Z0",
    "result": []
  },
  {
    "postal": "K1H9X8",
    "result": []
  },
  {
    "postal": "K1H3H3",
    "result": []
  },
  {
    "postal": "K1H7S2",
    "result": [
      {
        "electoralDistricts": [
          {
            "election": null,
            "id": 79,
            "name": "Ottawa South"
          }
        ],
        "pollDivisionIds": [
          10140657
        ],
        "postalCode": "K1H7S2",
        "streetName": "CHATTAWAY",
        "streetDirectionId": null,
        "streetTypeId": "AVE",
        "placeName": "OTTAWA",
        "streetNameDisplayText": "CHATTAWAY AVE, OTTAWA"
      }
    ]
  },
  {
    "postal": "K1H3T3",
    "result": []
  },
  {
    "postal": "K1H9P3",
    "result": []
  },
  {
    "postal": "K1H4H8",
    "result": []
  },
  {
    "postal": "K1H6R1",
    "result": [
      {
        "electoralDistricts": [
          {
            "election": null,
            "id": 79,
            "name": "Ottawa South"
          }
        ],
        "pollDivisionIds": [
          10140660
        ],
        "postalCode": "K1H6R1",
        "streetName": "FEATHERSTON",
        "streetDirectionId": null,
        "streetTypeId": "DR",
        "placeName": "OTTAWA",
        "streetNameDisplayText": "FEATHERSTON DR, OTTAWA"
      }
    ]
  },
  {
    "postal": "K1H1S0",
    "result": []
  },
  {
    "postal": "K1H3W8",
    "result": []
  },
  {
    "postal": "K1H4S3",
    "result": []
  },
  {
    "postal": "K1H1B6",
    "result": [
      {
        "electoralDistricts": [
          {
            "election": null,
            "id": 79,
            "name": "Ottawa South"
          }
        ],
        "pollDivisionIds": [
          10140652
        ],
        "postalCode": "K1H1B6",
        "streetName": "ROSEGLEN",
        "streetDirectionId": null,
        "streetTypeId": "PVT",
        "placeName": "OTTAWA",
        "streetNameDisplayText": "ROSEGLEN PVT, OTTAWA"
      }
    ]
  },
  {
    "postal": "K1H8R3",
    "result": []
  },
  {
    "postal": "K1H4V9",
    "result": []
  },
  {
    "postal": "K1H9W4",
    "result": []
  },
  {
    "postal": "K1H3T4",
    "result": []
  },
  {
    "postal": "K1H5C7",
    "result": [
      {
        "electoralDistricts": [
          {
            "election": null,
            "id": 79,
            "name": "Ottawa South"
          }
        ],
        "pollDivisionIds": [
          10140651
        ],
        "postalCode": "K1H5C7",
        "streetName": "ROGER",
        "streetDirectionId": null,
        "streetTypeId": "RD",
        "placeName": "OTTAWA",
        "streetNameDisplayText": "ROGER RD, OTTAWA"
      }
    ]
  },
  {
    "postal": "K1H3Y1",
    "result": []
  },
  {
    "postal": "K1H5V0",
    "result": []
  },
  {
    "postal": "K1H8G8",
    "result": [
      {
        "electoralDistricts": [
          {
            "election": null,
            "id": 79,
            "name": "Ottawa South"
          }
        ],
        "pollDivisionIds": [
          10140656
        ],
        "postalCode": "K1H8G8",
        "streetName": "BRULE",
        "streetDirectionId": null,
        "streetTypeId": "AVE",
        "placeName": "OTTAWA",
        "streetNameDisplayText": "BRULE AVE, OTTAWA"
      }
    ]
  },
  {
    "postal": "K1H8B1",
    "result": [
      {
        "electoralDistricts": [
          {
            "election": null,
            "id": 79,
            "name": "Ottawa South"
          }
        ],
        "pollDivisionIds": [
          10140656
        ],
        "postalCode": "K1H8B1",
        "streetName": "APOLYDOR",
        "streetDirectionId": null,
        "streetTypeId": "AVE",
        "placeName": "OTTAWA",
        "streetNameDisplayText": "APOLYDOR AVE, OTTAWA"
      }
    ]
  },
  {
    "postal": "K1H4P5",
    "result": []
  },
  {
    "postal": "K1H7B2",
    "result": [
      {
        "electoralDistricts": [
          {
            "election": null,
            "id": 79,
            "name": "Ottawa South"
          }
        ],
        "pollDivisionIds": [
          10140660
        ],
        "postalCode": "K1H7B2",
        "streetName": "AMBERDALE",
        "streetDirectionId": null,
        "streetTypeId": "CRES",
        "placeName": "OTTAWA",
        "streetNameDisplayText": "AMBERDALE CRES, OTTAWA"
      }
    ]
  },
  {
    "postal": "K1H0R2",
    "result": []
  },
  {
    "postal": "K1H4M4",
    "result": []
  },
  {
    "postal": "K1H7M4",
    "result": [
      {
        "electoralDistricts": [
          {
            "election": null,
            "id": 79,
            "name": "Ottawa South"
          }
        ],
        "pollDivisionIds": [
          10140658
        ],
        "postalCode": "K1H7M4",
        "streetName": "ALTA VISTA",
        "streetDirectionId": null,
        "streetTypeId": "DR",
        "placeName": "OTTAWA",
        "streetNameDisplayText": "ALTA VISTA DR, OTTAWA"
      }
    ]
  },
  {
    "postal": "K1H9S7",
    "result": []
  },
  {
    "postal": "K1H5Z7",
    "result": [
      {
        "electoralDistricts": [
          {
            "election": null,
            "id": 79,
            "name": "Ottawa South"
          }
        ],
        "pollDivisionIds": [
          10140651
        ],
        "postalCode": "K1H5Z7",
        "streetName": "SUMMIT",
        "streetDirectionId": null,
        "streetTypeId": "AVE",
        "placeName": "OTTAWA",
        "streetNameDisplayText": "SUMMIT AVE, OTTAWA"
      }
    ]
  },
  {
    "postal": "K1H7J7",
    "result": [
      {
        "electoralDistricts": [
          {
            "election": null,
            "id": 79,
            "name": "Ottawa South"
          }
        ],
        "pollDivisionIds": [
          10140658
        ],
        "postalCode": "K1H7J7",
        "streetName": "BRAESIDE",
        "streetDirectionId": null,
        "streetTypeId": "AVE",
        "placeName": "OTTAWA",
        "streetNameDisplayText": "BRAESIDE AVE, OTTAWA"
      }
    ]
  },
  {
    "postal": "K1H8R8",
    "result": []
  },
  {
    "postal": "K1H9X1",
    "result": []
  },
  {
    "postal": "K1H5M9",
    "result": [
      {
        "electoralDistricts": [
          {
            "election": null,
            "id": 79,
            "name": "Ottawa South"
          }
        ],
        "pollDivisionIds": [
          10140651
        ],
        "postalCode": "K1H5M9",
        "streetName": "PLEASANT PARK",
        "streetDirectionId": null,
        "streetTypeId": "RD",
        "placeName": "OTTAWA",
        "streetNameDisplayText": "PLEASANT PARK RD, OTTAWA"
      }
    ]
  },
  {
    "postal": "K1H9B4",
    "result": []
  },
  {
    "postal": "K1H0L9",
    "result": []
  },
  {
    "postal": "K1H9G4",
    "result": []
  },
  {
    "postal": "K1H1J4",
    "result": []
  },
  {
    "postal": "K1H0W6",
    "result": []
  }
]
