[
  {
    "postal": "M1L9J6",
    "result": []
  },
  {
    "postal": "M1L9Z5",
    "result": []
  },
  {
    "postal": "M1L7H8",
    "result": []
  },
  {
    "postal": "M1L0P6",
    "result": []
  },
  {
    "postal": "M1L0S7",
    "result": []
  },
  {
    "postal": "M1L8B9",
    "result": []
  },
  {
    "postal": "M1L2A6",
    "result": [
      {
        "electoralDistricts": [
          {
            "election": null,
            "id": 98,
            "name": "Scarborough Southwest"
          }
        ],
        "pollDivisionIds": [
          10141770
        ],
        "postalCode": "M1L2A6",
        "streetName": "HOLLYDENE",
        "streetDirectionId": null,
        "streetTypeId": "RD",
        "placeName": "SCARBOROUGH",
        "streetNameDisplayText": "HOLLYDENE RD, SCARBOROUGH"
      }
    ]
  },
  {
    "postal": "M1L7V2",
    "result": []
  },
  {
    "postal": "M1L9P4",
    "result": []
  },
  {
    "postal": "M1L6G0",
    "result": []
  },
  {
    "postal": "M1L2K0",
    "result": []
  },
  {
    "postal": "M1L7N6",
    "result": []
  },
  {
    "postal": "M1L5R3",
    "result": []
  },
  {
    "postal": "M1L7K0",
    "result": []
  },
  {
    "postal": "M1L3R2",
    "result": [
      {
        "electoralDistricts": [
          {
            "election": null,
            "id": 98,
            "name": "Scarborough Southwest"
          }
        ],
        "pollDivisionIds": [
          10141773
        ],
        "postalCode": "M1L3R2",
        "streetName": "HIGHVALE",
        "streetDirectionId": null,
        "streetTypeId": "RD",
        "placeName": "SCARBOROUGH",
        "streetNameDisplayText": "HIGHVALE RD, SCARBOROUGH"
      }
    ]
  },
  {
    "postal": "M1L0J1",
    "result": []
  },
  {
    "postal": "M1L0B0",
    "result": []
  },
  {
    "postal": "M1L5Z2",
    "result": []
  },
  {
    "postal": "M1L7P3",
    "result": []
  },
  {
    "postal": "M1L2K3",
    "result": []
  },
  {
    "postal": "M1L7Y6",
    "result": []
  },
  {
    "postal": "M1L1L9",
    "result": [
      {
        "electoralDistricts": [
          {
            "election": null,
            "id": 98,
            "name": "Scarborough Southwest"
          }
        ],
        "pollDivisionIds": [
          10141776
        ],
        "postalCode": "M1L1L9",
        "streetName": "MACK",
        "streetDirectionId": null,
        "streetTypeId": "AVE",
        "placeName": "SCARBOROUGH",
        "streetNameDisplayText": "MACK AVE, SCARBOROUGH"
      }
    ]
  },
  {
    "postal": "M1L8T0",
    "result": []
  },
  {
    "postal": "M1L3K8",
    "result": [
      {
        "electoralDistricts": [
          {
            "election": null,
            "id": 94,
            "name": "Scarborough Centre"
          }
        ],
        "pollDivisionIds": [
          10141570
        ],
        "postalCode": "M1L3K8",
        "streetName": "PHARMACY",
        "streetDirectionId": null,
        "streetTypeId": "AVE",
        "placeName": "SCARBOROUGH",
        "streetNameDisplayText": "PHARMACY AVE, SCARBOROUGH"
      }
    ]
  },
  {
    "postal": "M1L5W9",
    "result": []
  },
  {
    "postal": "M1L6T9",
    "result": []
  },
  {
    "postal": "M1L4H1",
    "result": [
      {
        "electoralDistricts": [
          {
            "election": null,
            "id": 98,
            "name": "Scarborough Southwest"
          }
        ],
        "pollDivisionIds": [
          10141776
        ],
        "postalCode": "M1L4H1",
        "streetName": "MYSTIC",
        "streetDirectionId": null,
        "streetTypeId": "AVE",
        "placeName": "SCARBOROUGH",
        "streetNameDisplayText": "MYSTIC AVE, SCARBOROUGH"
      }
    ]
  },
  {
    "postal": "M1L7A2",
    "result": []
  },
  {
    "postal": "M1L5G0",
    "result": []
  },
  {
    "postal": "M1L8V5",
    "result": []
  },
  {
    "postal": "M1L2Y8",
    "result": [
      {
        "electoralDistricts": [
          {
            "election": null,
            "id": 98,
            "name": "Scarborough Southwest"
          }
        ],
        "pollDivisionIds": [
          10141772
        ],
        "postalCode": "M1L2Y8",
        "streetName": "WESTBOURNE",
        "streetDirectionId": null,
        "streetTypeId": "AVE",
        "placeName": "SCARBOROUGH",
        "streetNameDisplayText": "WESTBOURNE AVE, SCARBOROUGH"
      }
    ]
  },
  {
    "postal": "M1L2B6",
    "result": [
      {
        "electoralDistricts": [
          {
            "election": null,
            "id": 98,
            "name": "Scarborough Southwest"
          }
        ],
        "pollDivisionIds": [
          10141770
        ],
        "postalCode": "M1L2B6",
        "streetName": "CAMROSE",
        "streetDirectionId": null,
        "streetTypeId": "CRES",
        "placeName": "SCARBOROUGH",
        "streetNameDisplayText": "CAMROSE CRES, SCARBOROUGH"
      }
    ]
  },
  {
    "postal": "M1L4W8",
    "result": [
      {
        "electoralDistricts": [
          {
            "election": null,
            "id": 94,
            "name": "Scarborough Centre"
          }
        ],
        "pollDivisionIds": [
          10141578
        ],
        "postalCode": "M1L4W8",
        "streetName": "ASHTONBEE",
        "streetDirectionId": null,
        "streetTypeId": "RD",
        "placeName": "SCARBOROUGH",
        "streetNameDisplayText": "ASHTONBEE RD, SCARBOROUGH"
      }
    ]
  },
  {
    "postal": "M1L8H7",
    "result": []
  },
  {
    "postal": "M1L5P1",
    "result": []
  },
  {
    "postal": "M1L2B8",
    "result": [
      {
        "electoralDistricts": [
          {
            "election": null,
            "id": 98,
            "name": "Scarborough Southwest"
          }
        ],
        "pollDivisionIds": [
          10141771
        ],
        "postalCode": "M1L2B8",
        "streetName": "UPTON",
        "streetDirectionId": null,
        "streetTypeId": "RD",
        "placeName": "SCARBOROUGH",
        "streetNameDisplayText": "UPTON RD, SCARBOROUGH"
      }
    ]
  },
  {
    "postal": "M1L0P2",
    "result": []
  },
  {
    "postal": "M1L9M1",
    "result": []
  },
  {
    "postal": "M1L3G0",
    "result": []
  },
  {
    "postal": "M1L9Z2",
    "result": []
  },
  {
    "postal": "M1L2A0",
    "result": []
  },
  {
    "postal": "M1L6Y0",
    "result": []
  },
  {
    "postal": "M1L2Z8",
    "result": [
      {
        "electoralDistricts": [
          {
            "election": null,
            "id": 98,
            "name": "Scarborough Southwest"
          }
        ],
        "pollDivisionIds": [
          10141769
        ],
        "postalCode": "M1L2Z8",
        "streetName": "HARRIS PARK",
        "streetDirectionId": null,
        "streetTypeId": "DR",
        "placeName": "SCARBOROUGH",
        "streetNameDisplayText": "HARRIS PARK DR, SCARBOROUGH"
      }
    ]
  },
  {
    "postal": "M1L7Y3",
    "result": []
  },
  {
    "postal": "M1L6Z5",
    "result": []
  },
  {
    "postal": "M1L6E0",
    "result": []
  },
  {
    "postal": "M1L9B7",
    "result": []
  },
  {
    "postal": "M1L9S5",
    "result": []
  },
  {
    "postal": "M1L3X3",
    "result": [
      {
        "electoralDistricts": [
          {
            "election": null,
            "id": 98,
            "name": "Scarborough Southwest"
          }
        ],
        "pollDivisionIds": [
          10141776
        ],
        "postalCode": "M1L3X3",
        "streetName": "DANFORTH",
        "streetDirectionId": null,
        "streetTypeId": "RD",
        "placeName": "SCARBOROUGH",
        "streetNameDisplayText": "DANFORTH RD, SCARBOROUGH"
      }
    ]
  },
  {
    "postal": "M1L7R5",
    "result": []
  },
  {
    "postal": "M1L2X3",
    "result": [
      {
        "electoralDistricts": [
          {
            "election": null,
            "id": 98,
            "name": "Scarborough Southwest"
          }
        ],
        "pollDivisionIds": [
          10141775
        ],
        "postalCode": "M1L2X3",
        "streetName": "EMMOTT",
        "streetDirectionId": null,
        "streetTypeId": "AVE",
        "placeName": "SCARBOROUGH",
        "streetNameDisplayText": "EMMOTT AVE, SCARBOROUGH"
      }
    ]
  },
  {
    "postal": "M1L8Z9",
    "result": []
  },
  {
    "postal": "M1L0N4",
    "result": []
  },
  {
    "postal": "M1L1K1",
    "result": [
      {
        "electoralDistricts": [
          {
            "election": null,
            "id": 98,
            "name": "Scarborough Southwest"
          }
        ],
        "pollDivisionIds": [
          10141776
        ],
        "postalCode": "M1L1K1",
        "streetName": "MILNE",
        "streetDirectionId": null,
        "streetTypeId": "AVE",
        "placeName": "SCARBOROUGH",
        "streetNameDisplayText": "MILNE AVE, SCARBOROUGH"
      }
    ]
  },
  {
    "postal": "M1L1S3",
    "result": [
      {
        "electoralDistricts": [
          {
            "election": null,
            "id": 98,
            "name": "Scarborough Southwest"
          }
        ],
        "pollDivisionIds": [
          10141781
        ],
        "postalCode": "M1L1S3",
        "streetName": "NEWLANDS",
        "streetDirectionId": null,
        "streetTypeId": "AVE",
        "placeName": "SCARBOROUGH",
        "streetNameDisplayText": "NEWLANDS AVE, SCARBOROUGH"
      }
    ]
  },
  {
    "postal": "M1L6M4",
    "result": []
  },
  {
    "postal": "M1L9A9",
    "result": []
  },
  {
    "postal": "M1L9Z9",
    "result": []
  },
  {
    "postal": "M1L6T4",
    "result": []
  },
  {
    "postal": "M1L0B2",
    "result": [
      {
        "electoralDistricts": [
          {
            "election": null,
            "id": 98,
            "name": "Scarborough Southwest"
          }
        ],
        "pollDivisionIds": [
          10141779
        ],
        "postalCode": "M1L0B2",
        "streetName": "WILKES",
        "streetDirectionId": null,
        "streetTypeId": "CRES",
        "placeName": "SCARBOROUGH",
        "streetNameDisplayText": "WILKES CRES, SCARBOROUGH"
      }
    ]
  },
  {
    "postal": "M1L2L9",
    "result": [
      {
        "electoralDistricts": [
          {
            "election": null,
            "id": 94,
            "name": "Scarborough Centre"
          }
        ],
        "pollDivisionIds": [
          10141570
        ],
        "postalCode": "M1L2L9",
        "streetName": "EGLINTON",
        "streetDirectionId": "E",
        "streetTypeId": "AVE",
        "placeName": "SCARBOROUGH",
        "streetNameDisplayText": "EGLINTON AVE E, SCARBOROUGH"
      }
    ]
  },
  {
    "postal": "M1L8K9",
    "result": []
  },
  {
    "postal": "M1L2H9",
    "result": [
      {
        "electoralDistricts": [
          {
            "election": null,
            "id": 98,
            "name": "Scarborough Southwest"
          }
        ],
        "pollDivisionIds": [
          10141769
        ],
        "postalCode": "M1L2H9",
        "streetName": "SOUTHMEAD",
        "streetDirectionId": null,
        "streetTypeId": "RD",
        "placeName": "SCARBOROUGH",
        "streetNameDisplayText": "SOUTHMEAD RD, SCARBOROUGH"
      }
    ]
  },
  {
    "postal": "M1L3Z6",
    "result": []
  },
  {
    "postal": "M1L3B0",
    "result": []
  },
  {
    "postal": "M1L2H8",
    "result": [
      {
        "electoralDistricts": [
          {
            "election": null,
            "id": 98,
            "name": "Scarborough Southwest"
          }
        ],
        "pollDivisionIds": [
          10141769
        ],
        "postalCode": "M1L2H8",
        "streetName": "SOUTHMEAD",
        "streetDirectionId": null,
        "streetTypeId": "RD",
        "placeName": "SCARBOROUGH",
        "streetNameDisplayText": "SOUTHMEAD RD, SCARBOROUGH"
      }
    ]
  },
  {
    "postal": "M1L3X2",
    "result": [
      {
        "electoralDistricts": [
          {
            "election": null,
            "id": 98,
            "name": "Scarborough Southwest"
          }
        ],
        "pollDivisionIds": [
          10141782,
          10141776
        ],
        "postalCode": "M1L3X2",
        "streetName": "DANFORTH",
        "streetDirectionId": null,
        "streetTypeId": "RD",
        "placeName": "SCARBOROUGH",
        "streetNameDisplayText": "DANFORTH RD, SCARBOROUGH"
      }
    ]
  },
  {
    "postal": "M1L2E9",
    "result": [
      {
        "electoralDistricts": [
          {
            "election": null,
            "id": 98,
            "name": "Scarborough Southwest"
          }
        ],
        "pollDivisionIds": [
          10141769
        ],
        "postalCode": "M1L2E9",
        "streetName": "VALDANE",
        "streetDirectionId": null,
        "streetTypeId": "DR",
        "placeName": "SCARBOROUGH",
        "streetNameDisplayText": "VALDANE DR, SCARBOROUGH"
      }
    ]
  },
  {
    "postal": "M1L9P6",
    "result": []
  },
  {
    "postal": "M1L9E2",
    "result": []
  },
  {
    "postal": "M1L9H2",
    "result": []
  },
  {
    "postal": "M1L1S8",
    "result": [
      {
        "electoralDistricts": [
          {
            "election": null,
            "id": 98,
            "name": "Scarborough Southwest"
          }
        ],
        "pollDivisionIds": [
          10141780,
          10141781
        ],
        "postalCode": "M1L1S8",
        "streetName": "TRINNELL",
        "streetDirectionId": null,
        "streetTypeId": "BLVD",
        "placeName": "SCARBOROUGH",
        "streetNameDisplayText": "TRINNELL BLVD, SCARBOROUGH"
      }
    ]
  },
  {
    "postal": "M1L3M6",
    "result": [
      {
        "electoralDistricts": [
          {
            "election": null,
            "id": 98,
            "name": "Scarborough Southwest"
          }
        ],
        "pollDivisionIds": [
          10141770
        ],
        "postalCode": "M1L3M6",
        "streetName": "FAIRBOURNE",
        "streetDirectionId": null,
        "streetTypeId": "CRES",
        "placeName": "SCARBOROUGH",
        "streetNameDisplayText": "FAIRBOURNE CRES, SCARBOROUGH"
      }
    ]
  },
  {
    "postal": "M1L6Z8",
    "result": []
  },
  {
    "postal": "M1L4J2",
    "result": [
      {
        "electoralDistricts": [
          {
            "election": null,
            "id": 98,
            "name": "Scarborough Southwest"
          }
        ],
        "pollDivisionIds": [
          10141771
        ],
        "postalCode": "M1L4J2",
        "streetName": "MANVILLE",
        "streetDirectionId": null,
        "streetTypeId": "RD",
        "placeName": "SCARBOROUGH",
        "streetNameDisplayText": "MANVILLE RD, SCARBOROUGH"
      }
    ]
  },
  {
    "postal": "M1L9Y1",
    "result": []
  },
  {
    "postal": "M1L8V6",
    "result": []
  },
  {
    "postal": "M1L6B2",
    "result": []
  },
  {
    "postal": "M1L1P8",
    "result": [
      {
        "electoralDistricts": [
          {
            "election": null,
            "id": 98,
            "name": "Scarborough Southwest"
          }
        ],
        "pollDivisionIds": [
          10141773
        ],
        "postalCode": "M1L1P8",
        "streetName": "DONSIDE",
        "streetDirectionId": null,
        "streetTypeId": "DR",
        "placeName": "SCARBOROUGH",
        "streetNameDisplayText": "DONSIDE DR, SCARBOROUGH"
      }
    ]
  },
  {
    "postal": "M1L0V8",
    "result": []
  },
  {
    "postal": "M1L4Y0",
    "result": []
  },
  {
    "postal": "M1L2T4",
    "result": []
  },
  {
    "postal": "M1L2S3",
    "result": [
      {
        "electoralDistricts": [
          {
            "election": null,
            "id": 98,
            "name": "Scarborough Southwest"
          }
        ],
        "pollDivisionIds": [
          10141769
        ],
        "postalCode": "M1L2S3",
        "streetName": "DELWOOD",
        "streetDirectionId": null,
        "streetTypeId": "DR",
        "placeName": "SCARBOROUGH",
        "streetNameDisplayText": "DELWOOD DR, SCARBOROUGH"
      }
    ]
  },
  {
    "postal": "M1L0K0",
    "result": []
  },
  {
    "postal": "M1L5N1",
    "result": []
  },
  {
    "postal": "M1L7T0",
    "result": []
  },
  {
    "postal": "M1L9N2",
    "result": []
  },
  {
    "postal": "M1L5L1",
    "result": []
  },
  {
    "postal": "M1L7G5",
    "result": []
  },
  {
    "postal": "M1L6K2",
    "result": []
  },
  {
    "postal": "M1L6P9",
    "result": []
  },
  {
    "postal": "M1L0E6",
    "result": []
  },
  {
    "postal": "M1L8R9",
    "result": []
  },
  {
    "postal": "M1L3G9",
    "result": [
      {
        "electoralDistricts": [
          {
            "election": null,
            "id": 98,
            "name": "Scarborough Southwest"
          }
        ],
        "pollDivisionIds": [
          10141772
        ],
        "postalCode": "M1L3G9",
        "streetName": "PHARMACY",
        "streetDirectionId": null,
        "streetTypeId": "AV",
        "placeName": "SCARBOROUGH",
        "streetNameDisplayText": "PHARMACY AV, SCARBOROUGH"
      },
      {
        "electoralDistricts": [
          {
            "election": null,
            "id": 98,
            "name": "Scarborough Southwest"
          }
        ],
        "pollDivisionIds": [
          10141772
        ],
        "postalCode": "M1L3G9",
        "streetName": "PHARMACY",
        "streetDirectionId": null,
        "streetTypeId": "AVE",
        "placeName": "SCARBOROUGH",
        "streetNameDisplayText": "PHARMACY AVE, SCARBOROUGH"
      }
    ]
  },
  {
    "postal": "M1L0V7",
    "result": []
  },
  {
    "postal": "M1L2Z1",
    "result": [
      {
        "electoralDistricts": [
          {
            "election": null,
            "id": 98,
            "name": "Scarborough Southwest"
          }
        ],
        "pollDivisionIds": [
          10141772
        ],
        "postalCode": "M1L2Z1",
        "streetName": "WESTBOURNE",
        "streetDirectionId": null,
        "streetTypeId": "AVE",
        "placeName": "SCARBOROUGH",
        "streetNameDisplayText": "WESTBOURNE AVE, SCARBOROUGH"
      }
    ]
  },
  {
    "postal": "M1L7N1",
    "result": []
  },
  {
    "postal": "M1L3C6",
    "result": [
      {
        "electoralDistricts": [
          {
            "election": null,
            "id": 98,
            "name": "Scarborough Southwest"
          }
        ],
        "pollDivisionIds": [
          10141772
        ],
        "postalCode": "M1L3C6",
        "streetName": "STELLARTON",
        "streetDirectionId": null,
        "streetTypeId": "RD",
        "placeName": "SCARBOROUGH",
        "streetNameDisplayText": "STELLARTON RD, SCARBOROUGH"
      }
    ]
  },
  {
    "postal": "M1L4M1",
    "result": [
      {
        "electoralDistricts": [
          {
            "election": null,
            "id": 98,
            "name": "Scarborough Southwest"
          }
        ],
        "pollDivisionIds": [
          10141784
        ],
        "postalCode": "M1L4M1",
        "streetName": "ANACONDA",
        "streetDirectionId": null,
        "streetTypeId": "AVE",
        "placeName": "SCARBOROUGH",
        "streetNameDisplayText": "ANACONDA AVE, SCARBOROUGH"
      }
    ]
  },
  {
    "postal": "M1L9K2",
    "result": []
  },
  {
    "postal": "M1L9S6",
    "result": []
  },
  {
    "postal": "M1L4X1",
    "result": []
  },
  {
    "postal": "M1L8W2",
    "result": []
  },
  {
    "postal": "M1L7N2",
    "result": []
  },
  {
    "postal": "M1L8S3",
    "result": []
  },
  {
    "postal": "M1L4V0",
    "result": []
  },
  {
    "postal": "M1L6W4",
    "result": []
  },
  {
    "postal": "M1L5M1",
    "result": []
  },
  {
    "postal": "M1L0S4",
    "result": []
  },
  {
    "postal": "M1L5X6",
    "result": []
  },
  {
    "postal": "M1L8L5",
    "result": []
  },
  {
    "postal": "M1L5M8",
    "result": []
  },
  {
    "postal": "M1L2G3",
    "result": [
      {
        "electoralDistricts": [
          {
            "election": null,
            "id": 98,
            "name": "Scarborough Southwest"
          }
        ],
        "pollDivisionIds": [
          10141769
        ],
        "postalCode": "M1L2G3",
        "streetName": "HOLSWADE",
        "streetDirectionId": null,
        "streetTypeId": "RD",
        "placeName": "SCARBOROUGH",
        "streetNameDisplayText": "HOLSWADE RD, SCARBOROUGH"
      }
    ]
  },
  {
    "postal": "M1L8E4",
    "result": []
  },
  {
    "postal": "M1L7S9",
    "result": []
  },
  {
    "postal": "M1L1K3",
    "result": []
  },
  {
    "postal": "M1L4E1",
    "result": []
  },
  {
    "postal": "M1L4R2",
    "result": []
  },
  {
    "postal": "M1L6T0",
    "result": []
  },
  {
    "postal": "M1L3K5",
    "result": []
  },
  {
    "postal": "M1L3S3",
    "result": [
      {
        "electoralDistricts": [
          {
            "election": null,
            "id": 98,
            "name": "Scarborough Southwest"
          }
        ],
        "pollDivisionIds": [
          10141770
        ],
        "postalCode": "M1L3S3",
        "streetName": "FAULKLAND",
        "streetDirectionId": null,
        "streetTypeId": "RD",
        "placeName": "SCARBOROUGH",
        "streetNameDisplayText": "FAULKLAND RD, SCARBOROUGH"
      }
    ]
  },
  {
    "postal": "M1L3L4",
    "result": [
      {
        "electoralDistricts": [
          {
            "election": null,
            "id": 98,
            "name": "Scarborough Southwest"
          }
        ],
        "pollDivisionIds": [
          10141775
        ],
        "postalCode": "M1L3L4",
        "streetName": "WANSTEAD",
        "streetDirectionId": null,
        "streetTypeId": "AVE",
        "placeName": "SCARBOROUGH",
        "streetNameDisplayText": "WANSTEAD AVE, SCARBOROUGH"
      }
    ]
  },
  {
    "postal": "M1L9Y2",
    "result": []
  },
  {
    "postal": "M1L1E0",
    "result": []
  },
  {
    "postal": "M1L9A4",
    "result": []
  },
  {
    "postal": "M1L1L3",
    "result": [
      {
        "electoralDistricts": [
          {
            "election": null,
            "id": 98,
            "name": "Scarborough Southwest"
          }
        ],
        "pollDivisionIds": [
          10141774
        ],
        "postalCode": "M1L1L3",
        "streetName": "TEESDALE",
        "streetDirectionId": null,
        "streetTypeId": "PL",
        "placeName": "SCARBOROUGH",
        "streetNameDisplayText": "TEESDALE PL, SCARBOROUGH"
      },
      {
        "electoralDistricts": [
          {
            "election": null,
            "id": 7,
            "name": "Beachesâ€”East York"
          }
        ],
        "pollDivisionIds": [
          10137042
        ],
        "postalCode": "M1L1L3",
        "streetName": "TEESDALE PLACE",
        "streetDirectionId": null,
        "streetTypeId": "PL",
        "placeName": "SCARBOROUGH",
        "streetNameDisplayText": "TEESDALE PLACE PL, SCARBOROUGH"
      }
    ]
  },
  {
    "postal": "M1L6N1",
    "result": []
  },
  {
    "postal": "M1L6G7",
    "result": []
  },
  {
    "postal": "M1L7W1",
    "result": []
  },
  {
    "postal": "M1L4M6",
    "result": [
      {
        "electoralDistricts": [
          {
            "election": null,
            "id": 98,
            "name": "Scarborough Southwest"
          }
        ],
        "pollDivisionIds": [
          10141784
        ],
        "postalCode": "M1L4M6",
        "streetName": "ANACONDA",
        "streetDirectionId": null,
        "streetTypeId": "AVE",
        "placeName": "SCARBOROUGH",
        "streetNameDisplayText": "ANACONDA AVE, SCARBOROUGH"
      }
    ]
  },
  {
    "postal": "M1L1K0",
    "result": []
  },
  {
    "postal": "M1L3E2",
    "result": [
      {
        "electoralDistricts": [
          {
            "election": null,
            "id": 98,
            "name": "Scarborough Southwest"
          }
        ],
        "pollDivisionIds": [
          10141769
        ],
        "postalCode": "M1L3E2",
        "streetName": "KINGSWELL",
        "streetDirectionId": null,
        "streetTypeId": "CRES",
        "placeName": "SCARBOROUGH",
        "streetNameDisplayText": "KINGSWELL CRES, SCARBOROUGH"
      }
    ]
  },
  {
    "postal": "M1L5H4",
    "result": []
  },
  {
    "postal": "M1L1K7",
    "result": [
      {
        "electoralDistricts": [
          {
            "election": null,
            "id": 98,
            "name": "Scarborough Southwest"
          }
        ],
        "pollDivisionIds": [
          10141775
        ],
        "postalCode": "M1L1K7",
        "streetName": "ARDELL",
        "streetDirectionId": null,
        "streetTypeId": "AVE",
        "placeName": "SCARBOROUGH",
        "streetNameDisplayText": "ARDELL AVE, SCARBOROUGH"
      }
    ]
  },
  {
    "postal": "M1L0H0",
    "result": []
  },
  {
    "postal": "M1L0J3",
    "result": [
      {
        "electoralDistricts": [
          {
            "election": null,
            "id": 98,
            "name": "Scarborough Southwest"
          }
        ],
        "pollDivisionIds": [
          10141771
        ],
        "postalCode": "M1L0J3",
        "streetName": "CLEANSIDE",
        "streetDirectionId": null,
        "streetTypeId": "RD",
        "placeName": "SCARBOROUGH",
        "streetNameDisplayText": "CLEANSIDE RD, SCARBOROUGH"
      },
      {
        "electoralDistricts": [
          {
            "election": null,
            "id": 98,
            "name": "Scarborough Southwest"
          }
        ],
        "pollDivisionIds": [
          10141771
        ],
        "postalCode": "M1L0J3",
        "streetName": "FUSILIER",
        "streetDirectionId": null,
        "streetTypeId": "DR",
        "placeName": "SCARBOROUGH",
        "streetNameDisplayText": "FUSILIER DR, SCARBOROUGH"
      }
    ]
  },
  {
    "postal": "M1L1X6",
    "result": [
      {
        "electoralDistricts": [
          {
            "election": null,
            "id": 98,
            "name": "Scarborough Southwest"
          }
        ],
        "pollDivisionIds": [
          10141772
        ],
        "postalCode": "M1L1X6",
        "streetName": "STAMFORD",
        "streetDirectionId": "N",
        "streetTypeId": "SQ",
        "placeName": "SCARBOROUGH",
        "streetNameDisplayText": "STAMFORD SQ N, SCARBOROUGH"
      }
    ]
  },
  {
    "postal": "M1L2Z6",
    "result": [
      {
        "electoralDistricts": [
          {
            "election": null,
            "id": 98,
            "name": "Scarborough Southwest"
          }
        ],
        "pollDivisionIds": [
          10141769
        ],
        "postalCode": "M1L2Z6",
        "streetName": "KARNWOOD",
        "streetDirectionId": null,
        "streetTypeId": "DR",
        "placeName": "SCARBOROUGH",
        "streetNameDisplayText": "KARNWOOD DR, SCARBOROUGH"
      }
    ]
  },
  {
    "postal": "M1L4R9",
    "result": [
      {
        "electoralDistricts": [
          {
            "election": null,
            "id": 20,
            "name": "Don Valley East"
          }
        ],
        "pollDivisionIds": [
          10137624
        ],
        "postalCode": "M1L4R9",
        "streetName": "VICTORIA PARK",
        "streetDirectionId": null,
        "streetTypeId": "AVE",
        "placeName": "NORTH YORK",
        "streetNameDisplayText": "VICTORIA PARK AVE, NORTH YORK"
      }
    ]
  },
  {
    "postal": "M1L0W8",
    "result": []
  },
  {
    "postal": "M1L1L4",
    "result": [
      {
        "electoralDistricts": [
          {
            "election": null,
            "id": 98,
            "name": "Scarborough Southwest"
          }
        ],
        "pollDivisionIds": [
          10141775
        ],
        "postalCode": "M1L1L4",
        "streetName": "PRAIRIE",
        "streetDirectionId": null,
        "streetTypeId": "DR",
        "placeName": "SCARBOROUGH",
        "streetNameDisplayText": "PRAIRIE DR, SCARBOROUGH"
      }
    ]
  },
  {
    "postal": "M1L0C8",
    "result": [
      {
        "electoralDistricts": [
          {
            "election": null,
            "id": 98,
            "name": "Scarborough Southwest"
          }
        ],
        "pollDivisionIds": [
          10141771
        ],
        "postalCode": "M1L0C8",
        "streetName": "PIDGEON",
        "streetDirectionId": null,
        "streetTypeId": "ST",
        "placeName": "SCARBOROUGH",
        "streetNameDisplayText": "PIDGEON ST, SCARBOROUGH"
      },
      {
        "electoralDistricts": [
          {
            "election": null,
            "id": 98,
            "name": "Scarborough Southwest"
          }
        ],
        "pollDivisionIds": [
          10141771
        ],
        "postalCode": "M1L0C8",
        "streetName": "WINKLER",
        "streetDirectionId": null,
        "streetTypeId": "TERR",
        "placeName": "SCARBOROUGH",
        "streetNameDisplayText": "WINKLER TERR, SCARBOROUGH"
      },
      {
        "electoralDistricts": [
          {
            "election": null,
            "id": 98,
            "name": "Scarborough Southwest"
          }
        ],
        "pollDivisionIds": [
          10141771
        ],
        "postalCode": "M1L0C8",
        "streetName": "YATES",
        "streetDirectionId": null,
        "streetTypeId": "AVE",
        "placeName": "SCARBOROUGH",
        "streetNameDisplayText": "YATES AVE, SCARBOROUGH"
      }
    ]
  },
  {
    "postal": "M1L9X7",
    "result": []
  },
  {
    "postal": "M1L4T1",
    "result": [
      {
        "electoralDistricts": [
          {
            "election": null,
            "id": 98,
            "name": "Scarborough Southwest"
          }
        ],
        "pollDivisionIds": [
          10141775
        ],
        "postalCode": "M1L4T1",
        "streetName": "DENTON",
        "streetDirectionId": null,
        "streetTypeId": "AVE",
        "placeName": "SCARBOROUGH",
        "streetNameDisplayText": "DENTON AVE, SCARBOROUGH"
      }
    ]
  },
  {
    "postal": "M1L0M0",
    "result": []
  },
  {
    "postal": "M1L6A2",
    "result": []
  },
  {
    "postal": "M1L9S8",
    "result": []
  },
  {
    "postal": "M1L9T4",
    "result": []
  },
  {
    "postal": "M1L9Y4",
    "result": []
  },
  {
    "postal": "M1L6G5",
    "result": []
  },
  {
    "postal": "M1L6H9",
    "result": []
  },
  {
    "postal": "M1L2P3",
    "result": [
      {
        "electoralDistricts": [
          {
            "election": null,
            "id": 94,
            "name": "Scarborough Centre"
          }
        ],
        "pollDivisionIds": [
          10141578
        ],
        "postalCode": "M1L2P3",
        "streetName": "BERTRAND",
        "streetDirectionId": null,
        "streetTypeId": "AVE",
        "placeName": "SCARBOROUGH",
        "streetNameDisplayText": "BERTRAND AVE, SCARBOROUGH"
      }
    ]
  },
  {
    "postal": "M1L1T6",
    "result": [
      {
        "electoralDistricts": [
          {
            "election": null,
            "id": 98,
            "name": "Scarborough Southwest"
          }
        ],
        "pollDivisionIds": [
          10141780
        ],
        "postalCode": "M1L1T6",
        "streetName": "TARTAN",
        "streetDirectionId": null,
        "streetTypeId": "AVE",
        "placeName": "SCARBOROUGH",
        "streetNameDisplayText": "TARTAN AVE, SCARBOROUGH"
      }
    ]
  },
  {
    "postal": "M1L4P6",
    "result": []
  },
  {
    "postal": "M1L3K1",
    "result": [
      {
        "electoralDistricts": [
          {
            "election": null,
            "id": 98,
            "name": "Scarborough Southwest"
          }
        ],
        "pollDivisionIds": [
          10141769
        ],
        "postalCode": "M1L3K1",
        "streetName": "PHARMACY",
        "streetDirectionId": null,
        "streetTypeId": "AVE",
        "placeName": "SCARBOROUGH",
        "streetNameDisplayText": "PHARMACY AVE, SCARBOROUGH"
      }
    ]
  },
  {
    "postal": "M1L6X4",
    "result": []
  },
  {
    "postal": "M1L4M8",
    "result": [
      {
        "electoralDistricts": [
          {
            "election": null,
            "id": 98,
            "name": "Scarborough Southwest"
          }
        ],
        "pollDivisionIds": [
          10141771
        ],
        "postalCode": "M1L4M8",
        "streetName": "SINNOTT",
        "streetDirectionId": null,
        "streetTypeId": "RD",
        "placeName": "SCARBOROUGH",
        "streetNameDisplayText": "SINNOTT RD, SCARBOROUGH"
      }
    ]
  },
  {
    "postal": "M1L2Y1",
    "result": [
      {
        "electoralDistricts": [
          {
            "election": null,
            "id": 98,
            "name": "Scarborough Southwest"
          }
        ],
        "pollDivisionIds": [
          10141773
        ],
        "postalCode": "M1L2Y1",
        "streetName": "WESTBOURNE",
        "streetDirectionId": null,
        "streetTypeId": "AVE",
        "placeName": "SCARBOROUGH",
        "streetNameDisplayText": "WESTBOURNE AVE, SCARBOROUGH"
      }
    ]
  },
  {
    "postal": "M1L6M1",
    "result": []
  },
  {
    "postal": "M1L5L8",
    "result": []
  },
  {
    "postal": "M1L3P6",
    "result": [
      {
        "electoralDistricts": [
          {
            "election": null,
            "id": 98,
            "name": "Scarborough Southwest"
          }
        ],
        "pollDivisionIds": [
          10141773
        ],
        "postalCode": "M1L3P6",
        "streetName": "PRESLEY",
        "streetDirectionId": null,
        "streetTypeId": "AVE",
        "placeName": "SCARBOROUGH",
        "streetNameDisplayText": "PRESLEY AVE, SCARBOROUGH"
      }
    ]
  },
  {
    "postal": "M1L9A5",
    "result": []
  },
  {
    "postal": "M1L7K1",
    "result": []
  },
  {
    "postal": "M1L3J4",
    "result": [
      {
        "electoralDistricts": [
          {
            "election": null,
            "id": 98,
            "name": "Scarborough Southwest"
          }
        ],
        "pollDivisionIds": [
          10141770
        ],
        "postalCode": "M1L3J4",
        "streetName": "PHARMACY",
        "streetDirectionId": null,
        "streetTypeId": "AVE",
        "placeName": "SCARBOROUGH",
        "streetNameDisplayText": "PHARMACY AVE, SCARBOROUGH"
      }
    ]
  },
  {
    "postal": "M1L5E7",
    "result": []
  },
  {
    "postal": "M1L3A7",
    "result": [
      {
        "electoralDistricts": [
          {
            "election": null,
            "id": 98,
            "name": "Scarborough Southwest"
          }
        ],
        "pollDivisionIds": [
          10141769
        ],
        "postalCode": "M1L3A7",
        "streetName": "HARRIS PARK",
        "streetDirectionId": null,
        "streetTypeId": "DR",
        "placeName": "SCARBOROUGH",
        "streetNameDisplayText": "HARRIS PARK DR, SCARBOROUGH"
      }
    ]
  },
  {
    "postal": "M1L1B9",
    "result": []
  },
  {
    "postal": "M1L9E8",
    "result": []
  },
  {
    "postal": "M1L1C9",
    "result": [
      {
        "electoralDistricts": [
          {
            "election": null,
            "id": 98,
            "name": "Scarborough Southwest"
          }
        ],
        "pollDivisionIds": [
          10141775
        ],
        "postalCode": "M1L1C9",
        "streetName": "DANFORTH",
        "streetDirectionId": null,
        "streetTypeId": "AVE",
        "placeName": "SCARBOROUGH",
        "streetNameDisplayText": "DANFORTH AVE, SCARBOROUGH"
      }
    ]
  },
  {
    "postal": "M1L3B5",
    "result": [
      {
        "electoralDistricts": [
          {
            "election": null,
            "id": 98,
            "name": "Scarborough Southwest"
          }
        ],
        "pollDivisionIds": [
          10141773
        ],
        "postalCode": "M1L3B5",
        "streetName": "BEXHILL",
        "streetDirectionId": null,
        "streetTypeId": "AVE",
        "placeName": "SCARBOROUGH",
        "streetNameDisplayText": "BEXHILL AVE, SCARBOROUGH"
      }
    ]
  },
  {
    "postal": "M1L8R0",
    "result": []
  },
  {
    "postal": "M1L3P2",
    "result": [
      {
        "electoralDistricts": [
          {
            "election": null,
            "id": 98,
            "name": "Scarborough Southwest"
          }
        ],
        "pollDivisionIds": [
          10141775
        ],
        "postalCode": "M1L3P2",
        "streetName": "BYNG",
        "streetDirectionId": null,
        "streetTypeId": "AVE",
        "placeName": "SCARBOROUGH",
        "streetNameDisplayText": "BYNG AVE, SCARBOROUGH"
      }
    ]
  },
  {
    "postal": "M1L5V4",
    "result": []
  },
  {
    "postal": "M1L4H0",
    "result": []
  },
  {
    "postal": "M1L4S7",
    "result": [
      {
        "electoralDistricts": [
          {
            "election": null,
            "id": 94,
            "name": "Scarborough Centre"
          }
        ],
        "pollDivisionIds": [
          10141578
        ],
        "postalCode": "M1L4S7",
        "streetName": "EGLINTON",
        "streetDirectionId": "E",
        "streetTypeId": "AVE",
        "placeName": "SCARBOROUGH",
        "streetNameDisplayText": "EGLINTON AVE E, SCARBOROUGH"
      }
    ]
  },
  {
    "postal": "M1L6C2",
    "result": []
  },
  {
    "postal": "M1L8W3",
    "result": []
  },
  {
    "postal": "M1L4M5",
    "result": [
      {
        "electoralDistricts": [
          {
            "election": null,
            "id": 98,
            "name": "Scarborough Southwest"
          }
        ],
        "pollDivisionIds": [
          10141784
        ],
        "postalCode": "M1L4M5",
        "streetName": "ANACONDA",
        "streetDirectionId": null,
        "streetTypeId": "AVE",
        "placeName": "SCARBOROUGH",
        "streetNameDisplayText": "ANACONDA AVE, SCARBOROUGH"
      }
    ]
  },
  {
    "postal": "M1L5T1",
    "result": []
  },
  {
    "postal": "M1L3B3",
    "result": [
      {
        "electoralDistricts": [
          {
            "election": null,
            "id": 98,
            "name": "Scarborough Southwest"
          }
        ],
        "pollDivisionIds": [
          10141773
        ],
        "postalCode": "M1L3B3",
        "streetName": "BEXHILL",
        "streetDirectionId": null,
        "streetTypeId": "AVE",
        "placeName": "SCARBOROUGH",
        "streetNameDisplayText": "BEXHILL AVE, SCARBOROUGH"
      }
    ]
  },
  {
    "postal": "M1L6C6",
    "result": []
  },
  {
    "postal": "M1L7N8",
    "result": []
  },
  {
    "postal": "M1L2Y3",
    "result": [
      {
        "electoralDistricts": [
          {
            "election": null,
            "id": 98,
            "name": "Scarborough Southwest"
          }
        ],
        "pollDivisionIds": [
          10141773
        ],
        "postalCode": "M1L2Y3",
        "streetName": "WESTBOURNE",
        "streetDirectionId": null,
        "streetTypeId": "AVE",
        "placeName": "SCARBOROUGH",
        "streetNameDisplayText": "WESTBOURNE AVE, SCARBOROUGH"
      }
    ]
  },
  {
    "postal": "M1L2R6",
    "result": [
      {
        "electoralDistricts": [
          {
            "election": null,
            "id": 98,
            "name": "Scarborough Southwest"
          }
        ],
        "pollDivisionIds": [
          10141773
        ],
        "postalCode": "M1L2R6",
        "streetName": "PITT",
        "streetDirectionId": null,
        "streetTypeId": "AVE",
        "placeName": "SCARBOROUGH",
        "streetNameDisplayText": "PITT AVE, SCARBOROUGH"
      }
    ]
  },
  {
    "postal": "M1L7N3",
    "result": []
  },
  {
    "postal": "M1L8J2",
    "result": []
  },
  {
    "postal": "M1L6A9",
    "result": []
  },
  {
    "postal": "M1L3V2",
    "result": [
      {
        "electoralDistricts": [
          {
            "election": null,
            "id": 98,
            "name": "Scarborough Southwest"
          }
        ],
        "pollDivisionIds": [
          10141775
        ],
        "postalCode": "M1L3V2",
        "streetName": "LEYTON",
        "streetDirectionId": null,
        "streetTypeId": "AVE",
        "placeName": "SCARBOROUGH",
        "streetNameDisplayText": "LEYTON AVE, SCARBOROUGH"
      }
    ]
  },
  {
    "postal": "M1L2N3",
    "result": [
      {
        "electoralDistricts": [
          {
            "election": null,
            "id": 94,
            "name": "Scarborough Centre"
          }
        ],
        "pollDivisionIds": [
          10141578
        ],
        "postalCode": "M1L2N3",
        "streetName": "EGLINTON",
        "streetDirectionId": "E",
        "streetTypeId": "AVE",
        "placeName": "SCARBOROUGH",
        "streetNameDisplayText": "EGLINTON AVE E, SCARBOROUGH"
      }
    ]
  },
  {
    "postal": "M1L1S5",
    "result": [
      {
        "electoralDistricts": [
          {
            "election": null,
            "id": 98,
            "name": "Scarborough Southwest"
          }
        ],
        "pollDivisionIds": [
          10141780
        ],
        "postalCode": "M1L1S5",
        "streetName": "TRINNELL",
        "streetDirectionId": null,
        "streetTypeId": "BLVD",
        "placeName": "SCARBOROUGH",
        "streetNameDisplayText": "TRINNELL BLVD, SCARBOROUGH"
      }
    ]
  },
  {
    "postal": "M1L4T7",
    "result": [
      {
        "electoralDistricts": [
          {
            "election": null,
            "id": 98,
            "name": "Scarborough Southwest"
          }
        ],
        "pollDivisionIds": [
          10141770
        ],
        "postalCode": "M1L4T7",
        "streetName": "WARDEN",
        "streetDirectionId": null,
        "streetTypeId": "AVE",
        "placeName": "SCARBOROUGH",
        "streetNameDisplayText": "WARDEN AVE, SCARBOROUGH"
      }
    ]
  },
  {
    "postal": "M1L6Y7",
    "result": []
  },
  {
    "postal": "M1L0W7",
    "result": []
  },
  {
    "postal": "M1L2W9",
    "result": [
      {
        "electoralDistricts": [
          {
            "election": null,
            "id": 98,
            "name": "Scarborough Southwest"
          }
        ],
        "pollDivisionIds": [
          10141769
        ],
        "postalCode": "M1L2W9",
        "streetName": "ROSALIND",
        "streetDirectionId": null,
        "streetTypeId": "CRES",
        "placeName": "SCARBOROUGH",
        "streetNameDisplayText": "ROSALIND CRES, SCARBOROUGH"
      }
    ]
  },
  {
    "postal": "M1L8V0",
    "result": []
  },
  {
    "postal": "M1L0H4",
    "result": [
      {
        "electoralDistricts": [
          {
            "election": null,
            "id": 98,
            "name": "Scarborough Southwest"
          }
        ],
        "pollDivisionIds": [
          10141776
        ],
        "postalCode": "M1L0H4",
        "streetName": "LILY CUP",
        "streetDirectionId": null,
        "streetTypeId": "AVE",
        "placeName": "SCARBOROUGH",
        "streetNameDisplayText": "LILY CUP AVE, SCARBOROUGH"
      },
      {
        "electoralDistricts": [
          {
            "election": null,
            "id": 98,
            "name": "Scarborough Southwest"
          }
        ],
        "pollDivisionIds": [
          10141776
        ],
        "postalCode": "M1L0H4",
        "streetName": "NIXON",
        "streetDirectionId": null,
        "streetTypeId": "HTS",
        "placeName": "SCARBOROUGH",
        "streetNameDisplayText": "NIXON HTS, SCARBOROUGH"
      }
    ]
  },
  {
    "postal": "M1L2T1",
    "result": [
      {
        "electoralDistricts": [
          {
            "election": null,
            "id": 98,
            "name": "Scarborough Southwest"
          }
        ],
        "pollDivisionIds": [
          10141769
        ],
        "postalCode": "M1L2T1",
        "streetName": "ENGELHART",
        "streetDirectionId": null,
        "streetTypeId": "CRES",
        "placeName": "SCARBOROUGH",
        "streetNameDisplayText": "ENGELHART CRES, SCARBOROUGH"
      }
    ]
  },
  {
    "postal": "M1L1B1",
    "result": [
      {
        "electoralDistricts": [
          {
            "election": null,
            "id": 98,
            "name": "Scarborough Southwest"
          }
        ],
        "pollDivisionIds": [
          10141774
        ],
        "postalCode": "M1L1B1",
        "streetName": "DANFORTH",
        "streetDirectionId": null,
        "streetTypeId": "AVE",
        "placeName": "SCARBOROUGH",
        "streetNameDisplayText": "DANFORTH AVE, SCARBOROUGH"
      }
    ]
  },
  {
    "postal": "M1L8B6",
    "result": []
  },
  {
    "postal": "M1L6H1",
    "result": []
  },
  {
    "postal": "M1L8T8",
    "result": []
  },
  {
    "postal": "M1L0T4",
    "result": []
  },
  {
    "postal": "M1L2C4",
    "result": [
      {
        "electoralDistricts": [
          {
            "election": null,
            "id": 98,
            "name": "Scarborough Southwest"
          }
        ],
        "pollDivisionIds": [
          10141770
        ],
        "postalCode": "M1L2C4",
        "streetName": "LEAHURST",
        "streetDirectionId": null,
        "streetTypeId": "DR",
        "placeName": "SCARBOROUGH",
        "streetNameDisplayText": "LEAHURST DR, SCARBOROUGH"
      }
    ]
  },
  {
    "postal": "M1L8N3",
    "result": []
  },
  {
    "postal": "M1L4L8",
    "result": [
      {
        "electoralDistricts": [
          {
            "election": null,
            "id": 98,
            "name": "Scarborough Southwest"
          }
        ],
        "pollDivisionIds": [
          10141780
        ],
        "postalCode": "M1L4L8",
        "streetName": "ELFREDA",
        "streetDirectionId": null,
        "streetTypeId": "BLVD",
        "placeName": "SCARBOROUGH",
        "streetNameDisplayText": "ELFREDA BLVD, SCARBOROUGH"
      }
    ]
  },
  {
    "postal": "M1L2B5",
    "result": [
      {
        "electoralDistricts": [
          {
            "election": null,
            "id": 98,
            "name": "Scarborough Southwest"
          }
        ],
        "pollDivisionIds": [
          10141770
        ],
        "postalCode": "M1L2B5",
        "streetName": "CAMROSE",
        "streetDirectionId": null,
        "streetTypeId": "CRES",
        "placeName": "SCARBOROUGH",
        "streetNameDisplayText": "CAMROSE CRES, SCARBOROUGH"
      }
    ]
  },
  {
    "postal": "M1L3H1",
    "result": [
      {
        "electoralDistricts": [
          {
            "election": null,
            "id": 98,
            "name": "Scarborough Southwest"
          }
        ],
        "pollDivisionIds": [
          10141772,
          10141773
        ],
        "postalCode": "M1L3H1",
        "streetName": "PHARMACY",
        "streetDirectionId": null,
        "streetTypeId": "AVE",
        "placeName": "SCARBOROUGH",
        "streetNameDisplayText": "PHARMACY AVE, SCARBOROUGH"
      }
    ]
  },
  {
    "postal": "M1L4Y1",
    "result": []
  },
  {
    "postal": "M1L7E2",
    "result": []
  },
  {
    "postal": "M1L2P5",
    "result": [
      {
        "electoralDistricts": [
          {
            "election": null,
            "id": 94,
            "name": "Scarborough Centre"
          }
        ],
        "pollDivisionIds": [
          10141578
        ],
        "postalCode": "M1L2P5",
        "streetName": "BERTRAND",
        "streetDirectionId": null,
        "streetTypeId": "AVE",
        "placeName": "SCARBOROUGH",
        "streetNameDisplayText": "BERTRAND AVE, SCARBOROUGH"
      }
    ]
  },
  {
    "postal": "M1L8R7",
    "result": []
  },
  {
    "postal": "M1L9P1",
    "result": []
  },
  {
    "postal": "M1L3B8",
    "result": [
      {
        "electoralDistricts": [
          {
            "election": null,
            "id": 98,
            "name": "Scarborough Southwest"
          }
        ],
        "pollDivisionIds": [
          10141773
        ],
        "postalCode": "M1L3B8",
        "streetName": "BEXHILL",
        "streetDirectionId": null,
        "streetTypeId": "AVE",
        "placeName": "SCARBOROUGH",
        "streetNameDisplayText": "BEXHILL AVE, SCARBOROUGH"
      }
    ]
  },
  {
    "postal": "M1L3P7",
    "result": [
      {
        "electoralDistricts": [
          {
            "election": null,
            "id": 98,
            "name": "Scarborough Southwest"
          }
        ],
        "pollDivisionIds": [
          10141773
        ],
        "postalCode": "M1L3P7",
        "streetName": "PRESLEY",
        "streetDirectionId": null,
        "streetTypeId": "AVE",
        "placeName": "SCARBOROUGH",
        "streetNameDisplayText": "PRESLEY AVE, SCARBOROUGH"
      }
    ]
  },
  {
    "postal": "M1L9B2",
    "result": []
  },
  {
    "postal": "M1L6Z3",
    "result": []
  },
  {
    "postal": "M1L4N5",
    "result": [
      {
        "electoralDistricts": [
          {
            "election": null,
            "id": 98,
            "name": "Scarborough Southwest"
          }
        ],
        "pollDivisionIds": [
          10141778
        ],
        "postalCode": "M1L4N5",
        "streetName": "WARDEN",
        "streetDirectionId": null,
        "streetTypeId": "AVE",
        "placeName": "SCARBOROUGH",
        "streetNameDisplayText": "WARDEN AVE, SCARBOROUGH"
      }
    ]
  },
  {
    "postal": "M1L8T3",
    "result": []
  },
  {
    "postal": "M1L1V2",
    "result": [
      {
        "electoralDistricts": [
          {
            "election": null,
            "id": 98,
            "name": "Scarborough Southwest"
          }
        ],
        "pollDivisionIds": [
          10141772
        ],
        "postalCode": "M1L1V2",
        "streetName": "ST CLAIR",
        "streetDirectionId": "E",
        "streetTypeId": "AVE",
        "placeName": "SCARBOROUGH",
        "streetNameDisplayText": "ST CLAIR AVE E, SCARBOROUGH"
      }
    ]
  },
  {
    "postal": "M1L1Y0",
    "result": []
  },
  {
    "postal": "M1L3G6",
    "result": [
      {
        "electoralDistricts": [
          {
            "election": null,
            "id": 98,
            "name": "Scarborough Southwest"
          }
        ],
        "pollDivisionIds": [
          10141773
        ],
        "postalCode": "M1L3G6",
        "streetName": "PHARMACY",
        "streetDirectionId": null,
        "streetTypeId": "AVE",
        "placeName": "SCARBOROUGH",
        "streetNameDisplayText": "PHARMACY AVE, SCARBOROUGH"
      }
    ]
  },
  {
    "postal": "M1L3H7",
    "result": [
      {
        "electoralDistricts": [
          {
            "election": null,
            "id": 98,
            "name": "Scarborough Southwest"
          }
        ],
        "pollDivisionIds": [
          10141772
        ],
        "postalCode": "M1L3H7",
        "streetName": "PHARMACY",
        "streetDirectionId": null,
        "streetTypeId": "AVE",
        "placeName": "SCARBOROUGH",
        "streetNameDisplayText": "PHARMACY AVE, SCARBOROUGH"
      }
    ]
  },
  {
    "postal": "M1L7X8",
    "result": []
  },
  {
    "postal": "M1L0C7",
    "result": [
      {
        "electoralDistricts": [
          {
            "election": null,
            "id": 98,
            "name": "Scarborough Southwest"
          }
        ],
        "pollDivisionIds": [
          10141771
        ],
        "postalCode": "M1L0C7",
        "streetName": "PETHICK",
        "streetDirectionId": null,
        "streetTypeId": "ST",
        "placeName": "SCARBOROUGH",
        "streetNameDisplayText": "PETHICK ST, SCARBOROUGH"
      },
      {
        "electoralDistricts": [
          {
            "election": null,
            "id": 98,
            "name": "Scarborough Southwest"
          }
        ],
        "pollDivisionIds": [
          10141771
        ],
        "postalCode": "M1L0C7",
        "streetName": "PIDGEON",
        "streetDirectionId": null,
        "streetTypeId": "ST",
        "placeName": "SCARBOROUGH",
        "streetNameDisplayText": "PIDGEON ST, SCARBOROUGH"
      },
      {
        "electoralDistricts": [
          {
            "election": null,
            "id": 98,
            "name": "Scarborough Southwest"
          }
        ],
        "pollDivisionIds": [
          10141771
        ],
        "postalCode": "M1L0C7",
        "streetName": "YATES",
        "streetDirectionId": null,
        "streetTypeId": "AVE",
        "placeName": "SCARBOROUGH",
        "streetNameDisplayText": "YATES AVE, SCARBOROUGH"
      }
    ]
  },
  {
    "postal": "M1L0W9",
    "result": []
  },
  {
    "postal": "M1L8E6",
    "result": []
  },
  {
    "postal": "M1L9Z8",
    "result": []
  },
  {
    "postal": "M1L3P4",
    "result": [
      {
        "electoralDistricts": [
          {
            "election": null,
            "id": 98,
            "name": "Scarborough Southwest"
          }
        ],
        "pollDivisionIds": [
          10141773
        ],
        "postalCode": "M1L3P4",
        "streetName": "PRESLEY",
        "streetDirectionId": null,
        "streetTypeId": "AVE",
        "placeName": "SCARBOROUGH",
        "streetNameDisplayText": "PRESLEY AVE, SCARBOROUGH"
      }
    ]
  },
  {
    "postal": "M1L6L8",
    "result": []
  },
  {
    "postal": "M1L2R4",
    "result": [
      {
        "electoralDistricts": [
          {
            "election": null,
            "id": 98,
            "name": "Scarborough Southwest"
          }
        ],
        "pollDivisionIds": [
          10141773
        ],
        "postalCode": "M1L2R4",
        "streetName": "PITT",
        "streetDirectionId": null,
        "streetTypeId": "AVE",
        "placeName": "SCARBOROUGH",
        "streetNameDisplayText": "PITT AVE, SCARBOROUGH"
      }
    ]
  },
  {
    "postal": "M1L2W1",
    "result": [
      {
        "electoralDistricts": [
          {
            "election": null,
            "id": 98,
            "name": "Scarborough Southwest"
          }
        ],
        "pollDivisionIds": [
          10141773
        ],
        "postalCode": "M1L2W1",
        "streetName": "MAYBOURNE",
        "streetDirectionId": null,
        "streetTypeId": "AVE",
        "placeName": "SCARBOROUGH",
        "streetNameDisplayText": "MAYBOURNE AVE, SCARBOROUGH"
      }
    ]
  },
  {
    "postal": "M1L9H8",
    "result": []
  },
  {
    "postal": "M1L8X9",
    "result": []
  },
  {
    "postal": "M1L7H4",
    "result": []
  },
  {
    "postal": "M1L3J1",
    "result": [
      {
        "electoralDistricts": [
          {
            "election": null,
            "id": 98,
            "name": "Scarborough Southwest"
          }
        ],
        "pollDivisionIds": [
          10141770
        ],
        "postalCode": "M1L3J1",
        "streetName": "PHARMACY",
        "streetDirectionId": null,
        "streetTypeId": "AVE",
        "placeName": "SCARBOROUGH",
        "streetNameDisplayText": "PHARMACY AVE, SCARBOROUGH"
      }
    ]
  },
  {
    "postal": "M1L1P4",
    "result": [
      {
        "electoralDistricts": [
          {
            "election": null,
            "id": 98,
            "name": "Scarborough Southwest"
          }
        ],
        "pollDivisionIds": [
          10141773
        ],
        "postalCode": "M1L1P4",
        "streetName": "DONSIDE",
        "streetDirectionId": null,
        "streetTypeId": "DR",
        "placeName": "SCARBOROUGH",
        "streetNameDisplayText": "DONSIDE DR, SCARBOROUGH"
      }
    ]
  },
  {
    "postal": "M1L2A3",
    "result": [
      {
        "electoralDistricts": [
          {
            "election": null,
            "id": 98,
            "name": "Scarborough Southwest"
          }
        ],
        "pollDivisionIds": [
          10141769
        ],
        "postalCode": "M1L2A3",
        "streetName": "BASSETT",
        "streetDirectionId": null,
        "streetTypeId": "AVE",
        "placeName": "SCARBOROUGH",
        "streetNameDisplayText": "BASSETT AVE, SCARBOROUGH"
      }
    ]
  },
  {
    "postal": "M1L0Z1",
    "result": []
  },
  {
    "postal": "M1L1C1",
    "result": [
      {
        "electoralDistricts": [
          {
            "election": null,
            "id": 98,
            "name": "Scarborough Southwest"
          }
        ],
        "pollDivisionIds": [
          10141775
        ],
        "postalCode": "M1L1C1",
        "streetName": "DANFORTH",
        "streetDirectionId": null,
        "streetTypeId": "AVE",
        "placeName": "SCARBOROUGH",
        "streetNameDisplayText": "DANFORTH AVE, SCARBOROUGH"
      }
    ]
  },
  {
    "postal": "M1L0H3",
    "result": [
      {
        "electoralDistricts": [
          {
            "election": null,
            "id": 98,
            "name": "Scarborough Southwest"
          }
        ],
        "pollDivisionIds": [
          10141776
        ],
        "postalCode": "M1L0H3",
        "streetName": "BELANGER",
        "streetDirectionId": null,
        "streetTypeId": "CRES",
        "placeName": "SCARBOROUGH",
        "streetNameDisplayText": "BELANGER CRES, SCARBOROUGH"
      }
    ]
  },
  {
    "postal": "M1L7B0",
    "result": []
  },
  {
    "postal": "M1L5K2",
    "result": []
  },
  {
    "postal": "M1L1E9",
    "result": [
      {
        "electoralDistricts": [
          {
            "election": null,
            "id": 98,
            "name": "Scarborough Southwest"
          }
        ],
        "pollDivisionIds": [
          10141775
        ],
        "postalCode": "M1L1E9",
        "streetName": "LANDRY",
        "streetDirectionId": null,
        "streetTypeId": "AVE",
        "placeName": "SCARBOROUGH",
        "streetNameDisplayText": "LANDRY AVE, SCARBOROUGH"
      }
    ]
  },
  {
    "postal": "M1L9W7",
    "result": []
  },
  {
    "postal": "M1L5W6",
    "result": []
  },
  {
    "postal": "M1L6S6",
    "result": []
  },
  {
    "postal": "M1L2P8",
    "result": [
      {
        "electoralDistricts": [
          {
            "election": null,
            "id": 98,
            "name": "Scarborough Southwest"
          }
        ],
        "pollDivisionIds": [
          10141775
        ],
        "postalCode": "M1L2P8",
        "streetName": "THORA",
        "streetDirectionId": null,
        "streetTypeId": "AVE",
        "placeName": "SCARBOROUGH",
        "streetNameDisplayText": "THORA AVE, SCARBOROUGH"
      }
    ]
  },
  {
    "postal": "M1L4P8",
    "result": []
  },
  {
    "postal": "M1L0V9",
    "result": []
  },
  {
    "postal": "M1L5Y2",
    "result": []
  },
  {
    "postal": "M1L7Z7",
    "result": []
  },
  {
    "postal": "M1L6Y8",
    "result": []
  },
  {
    "postal": "M1L2G7",
    "result": [
      {
        "electoralDistricts": [
          {
            "election": null,
            "id": 98,
            "name": "Scarborough Southwest"
          }
        ],
        "pollDivisionIds": [
          10141770
        ],
        "postalCode": "M1L2G7",
        "streetName": "COMSTOCK",
        "streetDirectionId": null,
        "streetTypeId": "RD",
        "placeName": "SCARBOROUGH",
        "streetNameDisplayText": "COMSTOCK RD, SCARBOROUGH"
      }
    ]
  },
  {
    "postal": "M1L8C1",
    "result": []
  },
  {
    "postal": "M1L5C5",
    "result": []
  },
  {
    "postal": "M1L2X8",
    "result": [
      {
        "electoralDistricts": [
          {
            "election": null,
            "id": 98,
            "name": "Scarborough Southwest"
          }
        ],
        "pollDivisionIds": [
          10141773
        ],
        "postalCode": "M1L2X8",
        "streetName": "WESTBOURNE",
        "streetDirectionId": null,
        "streetTypeId": "AVE",
        "placeName": "SCARBOROUGH",
        "streetNameDisplayText": "WESTBOURNE AVE, SCARBOROUGH"
      }
    ]
  },
  {
    "postal": "M1L1W5",
    "result": [
      {
        "electoralDistricts": [
          {
            "election": null,
            "id": 98,
            "name": "Scarborough Southwest"
          }
        ],
        "pollDivisionIds": [
          10141780
        ],
        "postalCode": "M1L1W5",
        "streetName": "ST CLAIR",
        "streetDirectionId": "E",
        "streetTypeId": "AVE",
        "placeName": "SCARBOROUGH",
        "streetNameDisplayText": "ST CLAIR AVE E, SCARBOROUGH"
      },
      {
        "electoralDistricts": [
          {
            "election": null,
            "id": 98,
            "name": "Scarborough Southwest"
          }
        ],
        "pollDivisionIds": [
          10141780
        ],
        "postalCode": "M1L1W5",
        "streetName": "ST CLAIR AVE EAST",
        "streetDirectionId": "E",
        "streetTypeId": "AVE",
        "placeName": "SCARBOROUGH",
        "streetNameDisplayText": "ST CLAIR AVE EAST AVE E, SCARBOROUGH"
      }
    ]
  },
  {
    "postal": "M1L7G0",
    "result": []
  },
  {
    "postal": "M1L8J8",
    "result": []
  },
  {
    "postal": "M1L3Y0",
    "result": []
  },
  {
    "postal": "M1L9T7",
    "result": []
  },
  {
    "postal": "M1L5P4",
    "result": []
  },
  {
    "postal": "M1L4B0",
    "result": []
  },
  {
    "postal": "M1L9N8",
    "result": []
  },
  {
    "postal": "M1L4A7",
    "result": []
  },
  {
    "postal": "M1L4H9",
    "result": [
      {
        "electoralDistricts": [
          {
            "election": null,
            "id": 98,
            "name": "Scarborough Southwest"
          }
        ],
        "pollDivisionIds": [
          10141771
        ],
        "postalCode": "M1L4H9",
        "streetName": "MANVILLE",
        "streetDirectionId": null,
        "streetTypeId": "RD",
        "placeName": "SCARBOROUGH",
        "streetNameDisplayText": "MANVILLE RD, SCARBOROUGH"
      }
    ]
  },
  {
    "postal": "M1L6X1",
    "result": []
  },
  {
    "postal": "M1L9Y7",
    "result": []
  },
  {
    "postal": "M1L2Y5",
    "result": [
      {
        "electoralDistricts": [
          {
            "election": null,
            "id": 98,
            "name": "Scarborough Southwest"
          }
        ],
        "pollDivisionIds": [
          10141773
        ],
        "postalCode": "M1L2Y5",
        "streetName": "WESTBOURNE",
        "streetDirectionId": null,
        "streetTypeId": "AVE",
        "placeName": "SCARBOROUGH",
        "streetNameDisplayText": "WESTBOURNE AVE, SCARBOROUGH"
      }
    ]
  },
  {
    "postal": "M1L8L7",
    "result": []
  },
  {
    "postal": "M1L2A8",
    "result": [
      {
        "electoralDistricts": [
          {
            "election": null,
            "id": 98,
            "name": "Scarborough Southwest"
          }
        ],
        "pollDivisionIds": [
          10141769
        ],
        "postalCode": "M1L2A8",
        "streetName": "KNIGHTSBRIDGE",
        "streetDirectionId": null,
        "streetTypeId": "RD",
        "placeName": "SCARBOROUGH",
        "streetNameDisplayText": "KNIGHTSBRIDGE RD, SCARBOROUGH"
      }
    ]
  },
  {
    "postal": "M1L2K9",
    "result": [
      {
        "electoralDistricts": [
          {
            "election": null,
            "id": 98,
            "name": "Scarborough Southwest"
          }
        ],
        "pollDivisionIds": [
          10141771
        ],
        "postalCode": "M1L2K9",
        "streetName": "CIVIC",
        "streetDirectionId": null,
        "streetTypeId": "RD",
        "placeName": "SCARBOROUGH",
        "streetNameDisplayText": "CIVIC RD, SCARBOROUGH"
      }
    ]
  },
  {
    "postal": "M1L3E5",
    "result": [
      {
        "electoralDistricts": [
          {
            "election": null,
            "id": 98,
            "name": "Scarborough Southwest"
          }
        ],
        "pollDivisionIds": [
          10141774
        ],
        "postalCode": "M1L3E5",
        "streetName": "PHARMACY",
        "streetDirectionId": null,
        "streetTypeId": "AV",
        "placeName": "SCARBOROUGH",
        "streetNameDisplayText": "PHARMACY AV, SCARBOROUGH"
      },
      {
        "electoralDistricts": [
          {
            "election": null,
            "id": 98,
            "name": "Scarborough Southwest"
          }
        ],
        "pollDivisionIds": [
          10141775,
          10141774
        ],
        "postalCode": "M1L3E5",
        "streetName": "PHARMACY",
        "streetDirectionId": null,
        "streetTypeId": "AVE",
        "placeName": "SCARBOROUGH",
        "streetNameDisplayText": "PHARMACY AVE, SCARBOROUGH"
      }
    ]
  },
  {
    "postal": "M1L8N6",
    "result": []
  },
  {
    "postal": "M1L8J4",
    "result": []
  },
  {
    "postal": "M1L4R7",
    "result": []
  },
  {
    "postal": "M1L9K1",
    "result": []
  },
  {
    "postal": "M1L8E1",
    "result": []
  },
  {
    "postal": "M1L0R1",
    "result": []
  },
  {
    "postal": "M1L4J3",
    "result": []
  },
  {
    "postal": "M1L7E7",
    "result": []
  },
  {
    "postal": "M1L0J0",
    "result": []
  },
  {
    "postal": "M1L7R8",
    "result": []
  },
  {
    "postal": "M1L9X0",
    "result": []
  },
  {
    "postal": "M1L7P6",
    "result": []
  },
  {
    "postal": "M1L0R7",
    "result": []
  },
  {
    "postal": "M1L5W1",
    "result": []
  },
  {
    "postal": "M1L0K4",
    "result": []
  },
  {
    "postal": "M1L7N9",
    "result": []
  },
  {
    "postal": "M1L1N0",
    "result": []
  },
  {
    "postal": "M1L6P3",
    "result": []
  },
  {
    "postal": "M1L5A1",
    "result": []
  },
  {
    "postal": "M1L9M9",
    "result": []
  },
  {
    "postal": "M1L7T6",
    "result": []
  },
  {
    "postal": "M1L3X0",
    "result": []
  },
  {
    "postal": "M1L2T0",
    "result": []
  },
  {
    "postal": "M1L5X9",
    "result": []
  },
  {
    "postal": "M1L2R3",
    "result": [
      {
        "electoralDistricts": [
          {
            "election": null,
            "id": 98,
            "name": "Scarborough Southwest"
          }
        ],
        "pollDivisionIds": [
          10141773
        ],
        "postalCode": "M1L2R3",
        "streetName": "PITT",
        "streetDirectionId": null,
        "streetTypeId": "AVE",
        "placeName": "SCARBOROUGH",
        "streetNameDisplayText": "PITT AVE, SCARBOROUGH"
      }
    ]
  },
  {
    "postal": "M1L5N2",
    "result": []
  },
  {
    "postal": "M1L4Y7",
    "result": []
  },
  {
    "postal": "M1L7M0",
    "result": []
  },
  {
    "postal": "M1L8P3",
    "result": []
  },
  {
    "postal": "M1L3N3",
    "result": [
      {
        "electoralDistricts": [
          {
            "election": null,
            "id": 98,
            "name": "Scarborough Southwest"
          }
        ],
        "pollDivisionIds": [
          10141775
        ],
        "postalCode": "M1L3N3",
        "streetName": "AUGUST",
        "streetDirectionId": null,
        "streetTypeId": "AVE",
        "placeName": "SCARBOROUGH",
        "streetNameDisplayText": "AUGUST AVE, SCARBOROUGH"
      }
    ]
  },
  {
    "postal": "M1L7S3",
    "result": []
  },
  {
    "postal": "M1L3V9",
    "result": []
  },
  {
    "postal": "M1L9N7",
    "result": []
  },
  {
    "postal": "M1L0G4",
    "result": [
      {
        "electoralDistricts": [
          {
            "election": null,
            "id": 98,
            "name": "Scarborough Southwest"
          }
        ],
        "pollDivisionIds": [
          10141779
        ],
        "postalCode": "M1L0G4",
        "streetName": "DAIRY",
        "streetDirectionId": null,
        "streetTypeId": "DR",
        "placeName": "SCARBOROUGH",
        "streetNameDisplayText": "DAIRY DR, SCARBOROUGH"
      },
      {
        "electoralDistricts": [
          {
            "election": null,
            "id": 98,
            "name": "Scarborough Southwest"
          }
        ],
        "pollDivisionIds": [
          10141779
        ],
        "postalCode": "M1L0G4",
        "streetName": "ETHEL BELL",
        "streetDirectionId": null,
        "streetTypeId": "TERR",
        "placeName": "SCARBOROUGH",
        "streetNameDisplayText": "ETHEL BELL TERR, SCARBOROUGH"
      }
    ]
  },
  {
    "postal": "M1L2E2",
    "result": [
      {
        "electoralDistricts": [
          {
            "election": null,
            "id": 98,
            "name": "Scarborough Southwest"
          }
        ],
        "pollDivisionIds": [
          10141771
        ],
        "postalCode": "M1L2E2",
        "streetName": "MALLEY",
        "streetDirectionId": null,
        "streetTypeId": "RD",
        "placeName": "SCARBOROUGH",
        "streetNameDisplayText": "MALLEY RD, SCARBOROUGH"
      }
    ]
  },
  {
    "postal": "M1L7W8",
    "result": []
  },
  {
    "postal": "M1L7M5",
    "result": []
  },
  {
    "postal": "M1L5W8",
    "result": []
  },
  {
    "postal": "M1L5E5",
    "result": []
  },
  {
    "postal": "M1L1P9",
    "result": [
      {
        "electoralDistricts": [
          {
            "election": null,
            "id": 98,
            "name": "Scarborough Southwest"
          }
        ],
        "pollDivisionIds": [
          10141773
        ],
        "postalCode": "M1L1P9",
        "streetName": "DONSIDE",
        "streetDirectionId": null,
        "streetTypeId": "DR",
        "placeName": "SCARBOROUGH",
        "streetNameDisplayText": "DONSIDE DR, SCARBOROUGH"
      }
    ]
  },
  {
    "postal": "M1L8V8",
    "result": []
  },
  {
    "postal": "M1L9G8",
    "result": []
  },
  {
    "postal": "M1L8H9",
    "result": []
  },
  {
    "postal": "M1L1Z1",
    "result": [
      {
        "electoralDistricts": [
          {
            "election": null,
            "id": 98,
            "name": "Scarborough Southwest"
          }
        ],
        "pollDivisionIds": [
          10141770
        ],
        "postalCode": "M1L1Z1",
        "streetName": "CAMILLA",
        "streetDirectionId": null,
        "streetTypeId": "CRES",
        "placeName": "SCARBOROUGH",
        "streetNameDisplayText": "CAMILLA CRES, SCARBOROUGH"
      }
    ]
  },
  {
    "postal": "M1L8M3",
    "result": []
  },
  {
    "postal": "M1L5H6",
    "result": []
  },
  {
    "postal": "M1L7W7",
    "result": []
  },
  {
    "postal": "M1L4L0",
    "result": []
  },
  {
    "postal": "M1L2N1",
    "result": [
      {
        "electoralDistricts": [
          {
            "election": null,
            "id": 98,
            "name": "Scarborough Southwest"
          }
        ],
        "pollDivisionIds": [
          10141771
        ],
        "postalCode": "M1L2N1",
        "streetName": "EGLINTON",
        "streetDirectionId": "E",
        "streetTypeId": "AVE",
        "placeName": "SCARBOROUGH",
        "streetNameDisplayText": "EGLINTON AVE E, SCARBOROUGH"
      }
    ]
  },
  {
    "postal": "M1L2H4",
    "result": [
      {
        "electoralDistricts": [
          {
            "election": null,
            "id": 98,
            "name": "Scarborough Southwest"
          }
        ],
        "pollDivisionIds": [
          10141771
        ],
        "postalCode": "M1L2H4",
        "streetName": "COMSTOCK",
        "streetDirectionId": null,
        "streetTypeId": "RD",
        "placeName": "SCARBOROUGH",
        "streetNameDisplayText": "COMSTOCK RD, SCARBOROUGH"
      }
    ]
  },
  {
    "postal": "M1L5C8",
    "result": []
  },
  {
    "postal": "M1L8B0",
    "result": []
  },
  {
    "postal": "M1L1T4",
    "result": [
      {
        "electoralDistricts": [
          {
            "election": null,
            "id": 98,
            "name": "Scarborough Southwest"
          }
        ],
        "pollDivisionIds": [
          10141772
        ],
        "postalCode": "M1L1T4",
        "streetName": "DAWES",
        "streetDirectionId": null,
        "streetTypeId": "RD",
        "placeName": "SCARBOROUGH",
        "streetNameDisplayText": "DAWES RD, SCARBOROUGH"
      }
    ]
  },
  {
    "postal": "M1L7N7",
    "result": []
  },
  {
    "postal": "M1L4L3",
    "result": [
      {
        "electoralDistricts": [
          {
            "election": null,
            "id": 98,
            "name": "Scarborough Southwest"
          }
        ],
        "pollDivisionIds": [
          10141780
        ],
        "postalCode": "M1L4L3",
        "streetName": "ANNAN",
        "streetDirectionId": null,
        "streetTypeId": "DR",
        "placeName": "SCARBOROUGH",
        "streetNameDisplayText": "ANNAN DR, SCARBOROUGH"
      }
    ]
  },
  {
    "postal": "M1L2N2",
    "result": []
  },
  {
    "postal": "M1L4N8",
    "result": []
  },
  {
    "postal": "M1L3M5",
    "result": [
      {
        "electoralDistricts": [
          {
            "election": null,
            "id": 98,
            "name": "Scarborough Southwest"
          }
        ],
        "pollDivisionIds": [
          10141773
        ],
        "postalCode": "M1L3M5",
        "streetName": "VERNADALE",
        "streetDirectionId": null,
        "streetTypeId": "CRES",
        "placeName": "SCARBOROUGH",
        "streetNameDisplayText": "VERNADALE CRES, SCARBOROUGH"
      }
    ]
  },
  {
    "postal": "M1L6H7",
    "result": []
  },
  {
    "postal": "M1L8Y8",
    "result": []
  },
  {
    "postal": "M1L5R9",
    "result": []
  },
  {
    "postal": "M1L8G3",
    "result": []
  },
  {
    "postal": "M1L4N7",
    "result": []
  },
  {
    "postal": "M1L0B9",
    "result": [
      {
        "electoralDistricts": [
          {
            "election": null,
            "id": 98,
            "name": "Scarborough Southwest"
          }
        ],
        "pollDivisionIds": [
          10141771
        ],
        "postalCode": "M1L0B9",
        "streetName": "AYERS",
        "streetDirectionId": null,
        "streetTypeId": "CRES",
        "placeName": "SCARBOROUGH",
        "streetNameDisplayText": "AYERS CRES, SCARBOROUGH"
      },
      {
        "electoralDistricts": [
          {
            "election": null,
            "id": 98,
            "name": "Scarborough Southwest"
          }
        ],
        "pollDivisionIds": [
          10141771
        ],
        "postalCode": "M1L0B9",
        "streetName": "DEANS",
        "streetDirectionId": null,
        "streetTypeId": "DR",
        "placeName": "SCARBOROUGH",
        "streetNameDisplayText": "DEANS DR, SCARBOROUGH"
      },
      {
        "electoralDistricts": [
          {
            "election": null,
            "id": 98,
            "name": "Scarborough Southwest"
          }
        ],
        "pollDivisionIds": [
          10141771
        ],
        "postalCode": "M1L0B9",
        "streetName": "GERIGS",
        "streetDirectionId": null,
        "streetTypeId": "ST",
        "placeName": "SCARBOROUGH",
        "streetNameDisplayText": "GERIGS ST, SCARBOROUGH"
      }
    ]
  },
  {
    "postal": "M1L9K7",
    "result": []
  },
  {
    "postal": "M1L9K9",
    "result": []
  },
  {
    "postal": "M1L3Z2",
    "result": [
      {
        "electoralDistricts": [
          {
            "election": null,
            "id": 98,
            "name": "Scarborough Southwest"
          }
        ],
        "pollDivisionIds": [
          10141776
        ],
        "postalCode": "M1L3Z2",
        "streetName": "WARDEN",
        "streetDirectionId": null,
        "streetTypeId": "AVE",
        "placeName": "SCARBOROUGH",
        "streetNameDisplayText": "WARDEN AVE, SCARBOROUGH"
      }
    ]
  },
  {
    "postal": "M1L6W7",
    "result": []
  },
  {
    "postal": "M1L0P1",
    "result": []
  },
  {
    "postal": "M1L3A0",
    "result": []
  },
  {
    "postal": "M1L8L9",
    "result": []
  },
  {
    "postal": "M1L6X0",
    "result": []
  },
  {
    "postal": "M1L3E9",
    "result": [
      {
        "electoralDistricts": [
          {
            "election": null,
            "id": 98,
            "name": "Scarborough Southwest"
          }
        ],
        "pollDivisionIds": [
          10141773
        ],
        "postalCode": "M1L3E9",
        "streetName": "PHARMACY",
        "streetDirectionId": null,
        "streetTypeId": "AVE",
        "placeName": "SCARBOROUGH",
        "streetNameDisplayText": "PHARMACY AVE, SCARBOROUGH"
      }
    ]
  },
  {
    "postal": "M1L0S5",
    "result": []
  },
  {
    "postal": "M1L1A2",
    "result": [
      {
        "electoralDistricts": [
          {
            "election": null,
            "id": 98,
            "name": "Scarborough Southwest"
          }
        ],
        "pollDivisionIds": [
          10141775
        ],
        "postalCode": "M1L1A2",
        "streetName": "LUCY",
        "streetDirectionId": null,
        "streetTypeId": "AVE",
        "placeName": "SCARBOROUGH",
        "streetNameDisplayText": "LUCY AVE, SCARBOROUGH"
      }
    ]
  },
  {
    "postal": "M1L5V8",
    "result": []
  },
  {
    "postal": "M1L8C5",
    "result": []
  },
  {
    "postal": "M1L6N0",
    "result": []
  },
  {
    "postal": "M1L9E6",
    "result": []
  },
  {
    "postal": "M1L5J7",
    "result": []
  },
  {
    "postal": "M1L2R2",
    "result": [
      {
        "electoralDistricts": [
          {
            "election": null,
            "id": 98,
            "name": "Scarborough Southwest"
          }
        ],
        "pollDivisionIds": [
          10141773
        ],
        "postalCode": "M1L2R2",
        "streetName": "PITT",
        "streetDirectionId": null,
        "streetTypeId": "AVE",
        "placeName": "SCARBOROUGH",
        "streetNameDisplayText": "PITT AVE, SCARBOROUGH"
      }
    ]
  },
  {
    "postal": "M1L0P5",
    "result": []
  },
  {
    "postal": "M1L5A7",
    "result": []
  },
  {
    "postal": "M1L1G1",
    "result": [
      {
        "electoralDistricts": [
          {
            "election": null,
            "id": 98,
            "name": "Scarborough Southwest"
          }
        ],
        "pollDivisionIds": [
          10141775
        ],
        "postalCode": "M1L1G1",
        "streetName": "LANDRY",
        "streetDirectionId": null,
        "streetTypeId": "AVE",
        "placeName": "SCARBOROUGH",
        "streetNameDisplayText": "LANDRY AVE, SCARBOROUGH"
      }
    ]
  },
  {
    "postal": "M1L9R6",
    "result": []
  },
  {
    "postal": "M1L4Z9",
    "result": []
  },
  {
    "postal": "M1L1V5",
    "result": [
      {
        "electoralDistricts": [
          {
            "election": null,
            "id": 98,
            "name": "Scarborough Southwest"
          }
        ],
        "pollDivisionIds": [
          10141773
        ],
        "postalCode": "M1L1V5",
        "streetName": "ST CLAIR",
        "streetDirectionId": "E",
        "streetTypeId": "AVE",
        "placeName": "SCARBOROUGH",
        "streetNameDisplayText": "ST CLAIR AVE E, SCARBOROUGH"
      }
    ]
  },
  {
    "postal": "M1L9Y5",
    "result": []
  },
  {
    "postal": "M1L1P2",
    "result": [
      {
        "electoralDistricts": [
          {
            "election": null,
            "id": 98,
            "name": "Scarborough Southwest"
          }
        ],
        "pollDivisionIds": [
          10141777
        ],
        "postalCode": "M1L1P2",
        "streetName": "FIR VALLEY",
        "streetDirectionId": null,
        "streetTypeId": "CRT",
        "placeName": "SCARBOROUGH",
        "streetNameDisplayText": "FIR VALLEY CRT, SCARBOROUGH"
      },
      {
        "electoralDistricts": [
          {
            "election": null,
            "id": 98,
            "name": "Scarborough Southwest"
          }
        ],
        "pollDivisionIds": [
          10141778,
          10141777
        ],
        "postalCode": "M1L1P2",
        "streetName": "FIRVALLEY",
        "streetDirectionId": null,
        "streetTypeId": "CRT",
        "placeName": "SCARBOROUGH",
        "streetNameDisplayText": "FIRVALLEY CRT, SCARBOROUGH"
      }
    ]
  },
  {
    "postal": "M1L5X0",
    "result": []
  },
  {
    "postal": "M1L7B8",
    "result": []
  },
  {
    "postal": "M1L0C6",
    "result": [
      {
        "electoralDistricts": [
          {
            "election": null,
            "id": 98,
            "name": "Scarborough Southwest"
          }
        ],
        "pollDivisionIds": [
          10141771
        ],
        "postalCode": "M1L0C6",
        "streetName": "HOWE",
        "streetDirectionId": null,
        "streetTypeId": "AVE",
        "placeName": "SCARBOROUGH",
        "streetNameDisplayText": "HOWE AVE, SCARBOROUGH"
      },
      {
        "electoralDistricts": [
          {
            "election": null,
            "id": 98,
            "name": "Scarborough Southwest"
          }
        ],
        "pollDivisionIds": [
          10141771
        ],
        "postalCode": "M1L0C6",
        "streetName": "PETHICK",
        "streetDirectionId": null,
        "streetTypeId": "ST",
        "placeName": "SCARBOROUGH",
        "streetNameDisplayText": "PETHICK ST, SCARBOROUGH"
      },
      {
        "electoralDistricts": [
          {
            "election": null,
            "id": 98,
            "name": "Scarborough Southwest"
          }
        ],
        "pollDivisionIds": [
          10141771
        ],
        "postalCode": "M1L0C6",
        "streetName": "YATES",
        "streetDirectionId": null,
        "streetTypeId": "AVE",
        "placeName": "SCARBOROUGH",
        "streetNameDisplayText": "YATES AVE, SCARBOROUGH"
      }
    ]
  },
  {
    "postal": "M1L6G1",
    "result": []
  },
  {
    "postal": "M1L3K3",
    "result": []
  },
  {
    "postal": "M1L9R0",
    "result": []
  },
  {
    "postal": "M1L4R8",
    "result": [
      {
        "electoralDistricts": [
          {
            "election": null,
            "id": 98,
            "name": "Scarborough Southwest"
          }
        ],
        "pollDivisionIds": [
          10141776
        ],
        "postalCode": "M1L4R8",
        "streetName": "BURN HILL",
        "streetDirectionId": null,
        "streetTypeId": "RD",
        "placeName": "TORONTO",
        "streetNameDisplayText": "BURN HILL RD, TORONTO"
      },
      {
        "electoralDistricts": [
          {
            "election": null,
            "id": 98,
            "name": "Scarborough Southwest"
          }
        ],
        "pollDivisionIds": [
          10141776,
          10141775
        ],
        "postalCode": "M1L4R8",
        "streetName": "BURNHILL",
        "streetDirectionId": null,
        "streetTypeId": "RD",
        "placeName": "SCARBOROUGH",
        "streetNameDisplayText": "BURNHILL RD, SCARBOROUGH"
      },
      {
        "electoralDistricts": [
          {
            "election": null,
            "id": 98,
            "name": "Scarborough Southwest"
          }
        ],
        "pollDivisionIds": [
          10141775
        ],
        "postalCode": "M1L4R8",
        "streetName": "BURNHILL",
        "streetDirectionId": null,
        "streetTypeId": "RD",
        "placeName": "TORONTO",
        "streetNameDisplayText": "BURNHILL RD, TORONTO"
      }
    ]
  },
  {
    "postal": "M1L5P9",
    "result": []
  },
  {
    "postal": "M1L8N4",
    "result": []
  },
  {
    "postal": "M1L8H4",
    "result": []
  },
  {
    "postal": "M1L4V1",
    "result": [
      {
        "electoralDistricts": [
          {
            "election": null,
            "id": 98,
            "name": "Scarborough Southwest"
          }
        ],
        "pollDivisionIds": [
          10141773
        ],
        "postalCode": "M1L4V1",
        "streetName": "GEORGINA",
        "streetDirectionId": null,
        "streetTypeId": "GATE",
        "placeName": "SCARBOROUGH",
        "streetNameDisplayText": "GEORGINA GATE, SCARBOROUGH"
      },
      {
        "electoralDistricts": [
          {
            "election": null,
            "id": 98,
            "name": "Scarborough Southwest"
          }
        ],
        "pollDivisionIds": [
          10141773
        ],
        "postalCode": "M1L4V1",
        "streetName": "LIOBA",
        "streetDirectionId": null,
        "streetTypeId": "DR",
        "placeName": "SCARBOROUGH",
        "streetNameDisplayText": "LIOBA DR, SCARBOROUGH"
      }
    ]
  },
  {
    "postal": "M1L1K5",
    "result": [
      {
        "electoralDistricts": [
          {
            "election": null,
            "id": 98,
            "name": "Scarborough Southwest"
          }
        ],
        "pollDivisionIds": [
          10141775
        ],
        "postalCode": "M1L1K5",
        "streetName": "NOGANOSH",
        "streetDirectionId": null,
        "streetTypeId": "RD",
        "placeName": "SCARBOROUGH",
        "streetNameDisplayText": "NOGANOSH RD, SCARBOROUGH"
      }
    ]
  },
  {
    "postal": "M1L1Z5",
    "result": [
      {
        "electoralDistricts": [
          {
            "election": null,
            "id": 98,
            "name": "Scarborough Southwest"
          }
        ],
        "pollDivisionIds": [
          10141770
        ],
        "postalCode": "M1L1Z5",
        "streetName": "CLAIRLEA",
        "streetDirectionId": null,
        "streetTypeId": "CRES",
        "placeName": "SCARBOROUGH",
        "streetNameDisplayText": "CLAIRLEA CRES, SCARBOROUGH"
      }
    ]
  },
  {
    "postal": "M1L9L9",
    "result": []
  },
  {
    "postal": "M1L5L2",
    "result": []
  },
  {
    "postal": "M1L0M2",
    "result": []
  },
  {
    "postal": "M1L1K8",
    "result": [
      {
        "electoralDistricts": [
          {
            "election": null,
            "id": 98,
            "name": "Scarborough Southwest"
          }
        ],
        "pollDivisionIds": [
          10141775
        ],
        "postalCode": "M1L1K8",
        "streetName": "ARDELL",
        "streetDirectionId": null,
        "streetTypeId": "AVE",
        "placeName": "SCARBOROUGH",
        "streetNameDisplayText": "ARDELL AVE, SCARBOROUGH"
      }
    ]
  },
  {
    "postal": "M1L3M7",
    "result": [
      {
        "electoralDistricts": [
          {
            "election": null,
            "id": 98,
            "name": "Scarborough Southwest"
          }
        ],
        "pollDivisionIds": [
          10141770
        ],
        "postalCode": "M1L3M7",
        "streetName": "FAIRBOURNE",
        "streetDirectionId": null,
        "streetTypeId": "CRES",
        "placeName": "SCARBOROUGH",
        "streetNameDisplayText": "FAIRBOURNE CRES, SCARBOROUGH"
      }
    ]
  },
  {
    "postal": "M1L1B2",
    "result": [
      {
        "electoralDistricts": [
          {
            "election": null,
            "id": 98,
            "name": "Scarborough Southwest"
          }
        ],
        "pollDivisionIds": [
          10141774
        ],
        "postalCode": "M1L1B2",
        "streetName": "DANFORTH",
        "streetDirectionId": null,
        "streetTypeId": "AVE",
        "placeName": "SCARBOROUGH",
        "streetNameDisplayText": "DANFORTH AVE, SCARBOROUGH"
      }
    ]
  },
  {
    "postal": "M1L0H9",
    "result": []
  },
  {
    "postal": "M1L8M4",
    "result": []
  },
  {
    "postal": "M1L2M5",
    "result": [
      {
        "electoralDistricts": [
          {
            "election": null,
            "id": 94,
            "name": "Scarborough Centre"
          }
        ],
        "pollDivisionIds": [
          10141578
        ],
        "postalCode": "M1L2M5",
        "streetName": "EGLINTON",
        "streetDirectionId": "E",
        "streetTypeId": "AVE",
        "placeName": "SCARBOROUGH",
        "streetNameDisplayText": "EGLINTON AVE E, SCARBOROUGH"
      }
    ]
  },
  {
    "postal": "M1L0T9",
    "result": []
  },
  {
    "postal": "M1L3P1",
    "result": [
      {
        "electoralDistricts": [
          {
            "election": null,
            "id": 98,
            "name": "Scarborough Southwest"
          }
        ],
        "pollDivisionIds": [
          10141775
        ],
        "postalCode": "M1L3P1",
        "streetName": "BYNG",
        "streetDirectionId": null,
        "streetTypeId": "AVE",
        "placeName": "SCARBOROUGH",
        "streetNameDisplayText": "BYNG AVE, SCARBOROUGH"
      }
    ]
  },
  {
    "postal": "M1L1R6",
    "result": [
      {
        "electoralDistricts": [
          {
            "election": null,
            "id": 98,
            "name": "Scarborough Southwest"
          }
        ],
        "pollDivisionIds": [
          10141773
        ],
        "postalCode": "M1L1R6",
        "streetName": "FLORENS",
        "streetDirectionId": null,
        "streetTypeId": "AVE",
        "placeName": "SCARBOROUGH",
        "streetNameDisplayText": "FLORENS AVE, SCARBOROUGH"
      }
    ]
  },
  {
    "postal": "M1L9V5",
    "result": []
  },
  {
    "postal": "M1L9T0",
    "result": []
  },
  {
    "postal": "M1L0A9",
    "result": [
      {
        "electoralDistricts": [
          {
            "election": null,
            "id": 98,
            "name": "Scarborough Southwest"
          }
        ],
        "pollDivisionIds": [
          10141779
        ],
        "postalCode": "M1L0A9",
        "streetName": "OATES",
        "streetDirectionId": null,
        "streetTypeId": "DR",
        "placeName": "SCARBOROUGH",
        "streetNameDisplayText": "OATES DR, SCARBOROUGH"
      }
    ]
  },
  {
    "postal": "M1L1M3",
    "result": [
      {
        "electoralDistricts": [
          {
            "election": null,
            "id": 98,
            "name": "Scarborough Southwest"
          }
        ],
        "pollDivisionIds": [
          10141776
        ],
        "postalCode": "M1L1M3",
        "streetName": "MACK",
        "streetDirectionId": null,
        "streetTypeId": "AVE",
        "placeName": "SCARBOROUGH",
        "streetNameDisplayText": "MACK AVE, SCARBOROUGH"
      }
    ]
  },
  {
    "postal": "M1L1W8",
    "result": [
      {
        "electoralDistricts": [
          {
            "election": null,
            "id": 98,
            "name": "Scarborough Southwest"
          }
        ],
        "pollDivisionIds": [
          10141772
        ],
        "postalCode": "M1L1W8",
        "streetName": "LINDAL",
        "streetDirectionId": null,
        "streetTypeId": "AVE",
        "placeName": "SCARBOROUGH",
        "streetNameDisplayText": "LINDAL AVE, SCARBOROUGH"
      }
    ]
  },
  {
    "postal": "M1L9J1",
    "result": []
  },
  {
    "postal": "M1L8N5",
    "result": []
  },
  {
    "postal": "M1L5X1",
    "result": []
  },
  {
    "postal": "M1L6S2",
    "result": []
  },
  {
    "postal": "M1L2A2",
    "result": [
      {
        "electoralDistricts": [
          {
            "election": null,
            "id": 98,
            "name": "Scarborough Southwest"
          }
        ],
        "pollDivisionIds": [
          10141769
        ],
        "postalCode": "M1L2A2",
        "streetName": "BASSETT",
        "streetDirectionId": null,
        "streetTypeId": "AVE",
        "placeName": "SCARBOROUGH",
        "streetNameDisplayText": "BASSETT AVE, SCARBOROUGH"
      }
    ]
  },
  {
    "postal": "M1L6A6",
    "result": []
  },
  {
    "postal": "M1L0S3",
    "result": []
  },
  {
    "postal": "M1L3E7",
    "result": [
      {
        "electoralDistricts": [
          {
            "election": null,
            "id": 98,
            "name": "Scarborough Southwest"
          }
        ],
        "pollDivisionIds": [
          10141773
        ],
        "postalCode": "M1L3E7",
        "streetName": "PHARMACY",
        "streetDirectionId": null,
        "streetTypeId": "AVE",
        "placeName": "SCARBOROUGH",
        "streetNameDisplayText": "PHARMACY AVE, SCARBOROUGH"
      }
    ]
  },
  {
    "postal": "M1L5R7",
    "result": []
  },
  {
    "postal": "M1L3R6",
    "result": [
      {
        "electoralDistricts": [
          {
            "election": null,
            "id": 98,
            "name": "Scarborough Southwest"
          }
        ],
        "pollDivisionIds": [
          10141772
        ],
        "postalCode": "M1L3R6",
        "streetName": "ARDEN",
        "streetDirectionId": null,
        "streetTypeId": "CRES",
        "placeName": "SCARBOROUGH",
        "streetNameDisplayText": "ARDEN CRES, SCARBOROUGH"
      }
    ]
  },
  {
    "postal": "M1L6K4",
    "result": []
  },
  {
    "postal": "M1L2W5",
    "result": [
      {
        "electoralDistricts": [
          {
            "election": null,
            "id": 98,
            "name": "Scarborough Southwest"
          }
        ],
        "pollDivisionIds": [
          10141772
        ],
        "postalCode": "M1L2W5",
        "streetName": "MAYBOURNE",
        "streetDirectionId": null,
        "streetTypeId": "AVE",
        "placeName": "SCARBOROUGH",
        "streetNameDisplayText": "MAYBOURNE AVE, SCARBOROUGH"
      }
    ]
  },
  {
    "postal": "M1L8W4",
    "result": []
  },
  {
    "postal": "M1L9C2",
    "result": []
  },
  {
    "postal": "M1L2C0",
    "result": []
  },
  {
    "postal": "M1L0E1",
    "result": [
      {
        "electoralDistricts": [
          {
            "election": null,
            "id": 98,
            "name": "Scarborough Southwest"
          }
        ],
        "pollDivisionIds": [
          10141770
        ],
        "postalCode": "M1L0E1",
        "streetName": "FAIRFAX",
        "streetDirectionId": null,
        "streetTypeId": "CRES",
        "placeName": "SCARBOROUGH",
        "streetNameDisplayText": "FAIRFAX CRES, SCARBOROUGH"
      }
    ]
  },
  {
    "postal": "M1L1K9",
    "result": [
      {
        "electoralDistricts": [
          {
            "election": null,
            "id": 98,
            "name": "Scarborough Southwest"
          }
        ],
        "pollDivisionIds": [
          10141774
        ],
        "postalCode": "M1L1K9",
        "streetName": "TEESDALE",
        "streetDirectionId": null,
        "streetTypeId": "PL",
        "placeName": "SCARBOROUGH",
        "streetNameDisplayText": "TEESDALE PL, SCARBOROUGH"
      },
      {
        "electoralDistricts": [
          {
            "election": null,
            "id": 7,
            "name": "Beachesâ€”East York"
          }
        ],
        "pollDivisionIds": [
          10137038
        ],
        "postalCode": "M1L1K9",
        "streetName": "TEESDALE PLACE",
        "streetDirectionId": null,
        "streetTypeId": "PL",
        "placeName": "SCARBOROUGH",
        "streetNameDisplayText": "TEESDALE PLACE PL, SCARBOROUGH"
      }
    ]
  },
  {
    "postal": "M1L1G7",
    "result": [
      {
        "electoralDistricts": [
          {
            "election": null,
            "id": 98,
            "name": "Scarborough Southwest"
          }
        ],
        "pollDivisionIds": [
          10141776
        ],
        "postalCode": "M1L1G7",
        "streetName": "BUTTERWORTH",
        "streetDirectionId": null,
        "streetTypeId": "AVE",
        "placeName": "SCARBOROUGH",
        "streetNameDisplayText": "BUTTERWORTH AVE, SCARBOROUGH"
      }
    ]
  },
  {
    "postal": "M1L4E9",
    "result": [
      {
        "electoralDistricts": [
          {
            "election": null,
            "id": 98,
            "name": "Scarborough Southwest"
          }
        ],
        "pollDivisionIds": [
          10141776
        ],
        "postalCode": "M1L4E9",
        "streetName": "ELBA",
        "streetDirectionId": null,
        "streetTypeId": "AVE",
        "placeName": "SCARBOROUGH",
        "streetNameDisplayText": "ELBA AVE, SCARBOROUGH"
      }
    ]
  },
  {
    "postal": "M1L9P0",
    "result": []
  },
  {
    "postal": "M1L5H3",
    "result": []
  },
  {
    "postal": "M1L9X6",
    "result": []
  },
  {
    "postal": "M1L5N7",
    "result": []
  },
  {
    "postal": "M1L5A6",
    "result": []
  },
  {
    "postal": "M1L4M0",
    "result": []
  },
  {
    "postal": "M1L3V6",
    "result": [
      {
        "electoralDistricts": [
          {
            "election": null,
            "id": 98,
            "name": "Scarborough Southwest"
          }
        ],
        "pollDivisionIds": [
          10141775
        ],
        "postalCode": "M1L3V6",
        "streetName": "LEYTON",
        "streetDirectionId": null,
        "streetTypeId": "AVE",
        "placeName": "SCARBOROUGH",
        "streetNameDisplayText": "LEYTON AVE, SCARBOROUGH"
      }
    ]
  },
  {
    "postal": "M1L1L7",
    "result": [
      {
        "electoralDistricts": [
          {
            "election": null,
            "id": 98,
            "name": "Scarborough Southwest"
          }
        ],
        "pollDivisionIds": [
          10141775
        ],
        "postalCode": "M1L1L7",
        "streetName": "PRAIRIE",
        "streetDirectionId": null,
        "streetTypeId": "DR",
        "placeName": "SCARBOROUGH",
        "streetNameDisplayText": "PRAIRIE DR, SCARBOROUGH"
      }
    ]
  },
  {
    "postal": "M1L2P9",
    "result": [
      {
        "electoralDistricts": [
          {
            "election": null,
            "id": 98,
            "name": "Scarborough Southwest"
          }
        ],
        "pollDivisionIds": [
          10141775
        ],
        "postalCode": "M1L2P9",
        "streetName": "THORA",
        "streetDirectionId": null,
        "streetTypeId": "AVE",
        "placeName": "SCARBOROUGH",
        "streetNameDisplayText": "THORA AVE, SCARBOROUGH"
      }
    ]
  },
  {
    "postal": "M1L5T4",
    "result": []
  },
  {
    "postal": "M1L5Z1",
    "result": []
  },
  {
    "postal": "M1L2X0",
    "result": []
  },
  {
    "postal": "M1L6Z2",
    "result": []
  },
  {
    "postal": "M1L0E0",
    "result": []
  },
  {
    "postal": "M1L3Z5",
    "result": [
      {
        "electoralDistricts": [
          {
            "election": null,
            "id": 98,
            "name": "Scarborough Southwest"
          }
        ],
        "pollDivisionIds": [
          10141776,
          10141779
        ],
        "postalCode": "M1L3Z5",
        "streetName": "WARDEN",
        "streetDirectionId": null,
        "streetTypeId": "AVE",
        "placeName": "SCARBOROUGH",
        "streetNameDisplayText": "WARDEN AVE, SCARBOROUGH"
      }
    ]
  },
  {
    "postal": "M1L8H3",
    "result": []
  },
  {
    "postal": "M1L7S6",
    "result": []
  },
  {
    "postal": "M1L4C1",
    "result": []
  },
  {
    "postal": "M1L3K2",
    "result": [
      {
        "electoralDistricts": [
          {
            "election": null,
            "id": 98,
            "name": "Scarborough Southwest"
          }
        ],
        "pollDivisionIds": [
          10141770
        ],
        "postalCode": "M1L3K2",
        "streetName": "PHARMACY",
        "streetDirectionId": null,
        "streetTypeId": "AV",
        "placeName": "SCARBOROUGH",
        "streetNameDisplayText": "PHARMACY AV, SCARBOROUGH"
      },
      {
        "electoralDistricts": [
          {
            "election": null,
            "id": 98,
            "name": "Scarborough Southwest"
          }
        ],
        "pollDivisionIds": [
          10141770
        ],
        "postalCode": "M1L3K2",
        "streetName": "PHARMACY",
        "streetDirectionId": null,
        "streetTypeId": "AVE",
        "placeName": "SCARBOROUGH",
        "streetNameDisplayText": "PHARMACY AVE, SCARBOROUGH"
      }
    ]
  },
  {
    "postal": "M1L1Y5",
    "result": [
      {
        "electoralDistricts": [
          {
            "election": null,
            "id": 98,
            "name": "Scarborough Southwest"
          }
        ],
        "pollDivisionIds": [
          10141784
        ],
        "postalCode": "M1L1Y5",
        "streetName": "CHESTNUT",
        "streetDirectionId": null,
        "streetTypeId": "CRES",
        "placeName": "SCARBOROUGH",
        "streetNameDisplayText": "CHESTNUT CRES, SCARBOROUGH"
      },
      {
        "electoralDistricts": [
          {
            "election": null,
            "id": 112,
            "name": "Universityâ€”Rosedale"
          }
        ],
        "pollDivisionIds": [
          10136397
        ],
        "postalCode": "M1L1Y5",
        "streetName": "CHESTNUT",
        "streetDirectionId": null,
        "streetTypeId": "PK",
        "placeName": "SCARBOROUGH",
        "streetNameDisplayText": "CHESTNUT PK, SCARBOROUGH"
      },
      {
        "electoralDistricts": [
          {
            "election": null,
            "id": 101,
            "name": "Spadinaâ€”Fort York"
          }
        ],
        "pollDivisionIds": [
          10141948
        ],
        "postalCode": "M1L1Y5",
        "streetName": "CHESTNUT",
        "streetDirectionId": null,
        "streetTypeId": "ST",
        "placeName": "SCARBOROUGH",
        "streetNameDisplayText": "CHESTNUT ST, SCARBOROUGH"
      }
    ]
  },
  {
    "postal": "M1L6P6",
    "result": []
  },
  {
    "postal": "M1L3N9",
    "result": [
      {
        "electoralDistricts": [
          {
            "election": null,
            "id": 117,
            "name": "Willowdale"
          }
        ],
        "pollDivisionIds": [
          10142614
        ],
        "postalCode": "M1L3N9",
        "streetName": "BYNG",
        "streetDirectionId": null,
        "streetTypeId": "AVE",
        "placeName": "NORTH YORK",
        "streetNameDisplayText": "BYNG AVE, NORTH YORK"
      },
      {
        "electoralDistricts": [
          {
            "election": null,
            "id": 117,
            "name": "Willowdale"
          },
          {
            "election": null,
            "id": 98,
            "name": "Scarborough Southwest"
          }
        ],
        "pollDivisionIds": [
          10142614,
          10141775
        ],
        "postalCode": "M1L3N9",
        "streetName": "BYNG",
        "streetDirectionId": null,
        "streetTypeId": "AVE",
        "placeName": "SCARBOROUGH",
        "streetNameDisplayText": "BYNG AVE, SCARBOROUGH"
      }
    ]
  },
  {
    "postal": "M1L3W2",
    "result": [
      {
        "electoralDistricts": [
          {
            "election": null,
            "id": 98,
            "name": "Scarborough Southwest"
          }
        ],
        "pollDivisionIds": [
          10141775
        ],
        "postalCode": "M1L3W2",
        "streetName": "BALFORD",
        "streetDirectionId": null,
        "streetTypeId": "AVE",
        "placeName": "SCARBOROUGH",
        "streetNameDisplayText": "BALFORD AVE, SCARBOROUGH"
      }
    ]
  },
  {
    "postal": "M1L6H8",
    "result": []
  },
  {
    "postal": "M1L9T3",
    "result": []
  },
  {
    "postal": "M1L5L9",
    "result": []
  },
  {
    "postal": "M1L7X7",
    "result": []
  },
  {
    "postal": "M1L3J5",
    "result": [
      {
        "electoralDistricts": [
          {
            "election": null,
            "id": 98,
            "name": "Scarborough Southwest"
          }
        ],
        "pollDivisionIds": [
          10141769
        ],
        "postalCode": "M1L3J5",
        "streetName": "PHARMACY",
        "streetDirectionId": null,
        "streetTypeId": "AVE",
        "placeName": "SCARBOROUGH",
        "streetNameDisplayText": "PHARMACY AVE, SCARBOROUGH"
      }
    ]
  },
  {
    "postal": "M1L4J5",
    "result": [
      {
        "electoralDistricts": [
          {
            "election": null,
            "id": 98,
            "name": "Scarborough Southwest"
          }
        ],
        "pollDivisionIds": [
          10141771
        ],
        "postalCode": "M1L4J5",
        "streetName": "MANVILLE",
        "streetDirectionId": null,
        "streetTypeId": "RD",
        "placeName": "SCARBOROUGH",
        "streetNameDisplayText": "MANVILLE RD, SCARBOROUGH"
      }
    ]
  },
  {
    "postal": "M1L6J2",
    "result": []
  },
  {
    "postal": "M1L5V6",
    "result": []
  },
  {
    "postal": "M1L3N2",
    "result": [
      {
        "electoralDistricts": [
          {
            "election": null,
            "id": 98,
            "name": "Scarborough Southwest"
          }
        ],
        "pollDivisionIds": [
          10141775
        ],
        "postalCode": "M1L3N2",
        "streetName": "AUGUST",
        "streetDirectionId": null,
        "streetTypeId": "AVE",
        "placeName": "SCARBOROUGH",
        "streetNameDisplayText": "AUGUST AVE, SCARBOROUGH"
      }
    ]
  },
  {
    "postal": "M1L3B1",
    "result": [
      {
        "electoralDistricts": [
          {
            "election": null,
            "id": 98,
            "name": "Scarborough Southwest"
          }
        ],
        "pollDivisionIds": [
          10141775
        ],
        "postalCode": "M1L3B1",
        "streetName": "KENWORTHY",
        "streetDirectionId": null,
        "streetTypeId": "AVE",
        "placeName": "SCARBOROUGH",
        "streetNameDisplayText": "KENWORTHY AVE, SCARBOROUGH"
      }
    ]
  },
  {
    "postal": "M1L8B5",
    "result": []
  },
  {
    "postal": "M1L0K1",
    "result": []
  },
  {
    "postal": "M1L7M7",
    "result": []
  },
  {
    "postal": "M1L2M2",
    "result": []
  },
  {
    "postal": "M1L9N3",
    "result": []
  },
  {
    "postal": "M1L4Y8",
    "result": []
  },
  {
    "postal": "M1L3V7",
    "result": [
      {
        "electoralDistricts": [
          {
            "election": null,
            "id": 98,
            "name": "Scarborough Southwest"
          }
        ],
        "pollDivisionIds": [
          10141773
        ],
        "postalCode": "M1L3V7",
        "streetName": "HERRON",
        "streetDirectionId": null,
        "streetTypeId": "AVE",
        "placeName": "SCARBOROUGH",
        "streetNameDisplayText": "HERRON AVE, SCARBOROUGH"
      }
    ]
  },
  {
    "postal": "M1L8Z1",
    "result": []
  },
  {
    "postal": "M1L7B3",
    "result": []
  },
  {
    "postal": "M1L3A8",
    "result": [
      {
        "electoralDistricts": [
          {
            "election": null,
            "id": 98,
            "name": "Scarborough Southwest"
          }
        ],
        "pollDivisionIds": [
          10141769
        ],
        "postalCode": "M1L3A8",
        "streetName": "HARRIS PARK",
        "streetDirectionId": null,
        "streetTypeId": "DR",
        "placeName": "SCARBOROUGH",
        "streetNameDisplayText": "HARRIS PARK DR, SCARBOROUGH"
      }
    ]
  },
  {
    "postal": "M1L7V5",
    "result": []
  },
  {
    "postal": "M1L2T2",
    "result": []
  },
  {
    "postal": "M1L6L3",
    "result": []
  },
  {
    "postal": "M1L0L2",
    "result": []
  },
  {
    "postal": "M1L5Y8",
    "result": []
  },
  {
    "postal": "M1L0B8",
    "result": [
      {
        "electoralDistricts": [
          {
            "election": null,
            "id": 98,
            "name": "Scarborough Southwest"
          }
        ],
        "pollDivisionIds": [
          10141771
        ],
        "postalCode": "M1L0B8",
        "streetName": "AYERS",
        "streetDirectionId": null,
        "streetTypeId": "CRES",
        "placeName": "SCARBOROUGH",
        "streetNameDisplayText": "AYERS CRES, SCARBOROUGH"
      },
      {
        "electoralDistricts": [
          {
            "election": null,
            "id": 98,
            "name": "Scarborough Southwest"
          }
        ],
        "pollDivisionIds": [
          10141771
        ],
        "postalCode": "M1L0B8",
        "streetName": "DEANS",
        "streetDirectionId": null,
        "streetTypeId": "DR",
        "placeName": "SCARBOROUGH",
        "streetNameDisplayText": "DEANS DR, SCARBOROUGH"
      },
      {
        "electoralDistricts": [
          {
            "election": null,
            "id": 98,
            "name": "Scarborough Southwest"
          }
        ],
        "pollDivisionIds": [
          10141771
        ],
        "postalCode": "M1L0B8",
        "streetName": "MENDELSSOHN",
        "streetDirectionId": null,
        "streetTypeId": "ST",
        "placeName": "SCARBOROUGH",
        "streetNameDisplayText": "MENDELSSOHN ST, SCARBOROUGH"
      }
    ]
  },
  {
    "postal": "M1L6R5",
    "result": []
  },
  {
    "postal": "M1L8W6",
    "result": []
  },
  {
    "postal": "M1L8G6",
    "result": []
  },
  {
    "postal": "M1L6X3",
    "result": []
  },
  {
    "postal": "M1L7R7",
    "result": []
  },
  {
    "postal": "M1L4B6",
    "result": []
  },
  {
    "postal": "M1L3P9",
    "result": [
      {
        "electoralDistricts": [
          {
            "election": null,
            "id": 98,
            "name": "Scarborough Southwest"
          }
        ],
        "pollDivisionIds": [
          10141773
        ],
        "postalCode": "M1L3P9",
        "streetName": "PRESLEY",
        "streetDirectionId": null,
        "streetTypeId": "AVE",
        "placeName": "SCARBOROUGH",
        "streetNameDisplayText": "PRESLEY AVE, SCARBOROUGH"
      }
    ]
  },
  {
    "postal": "M1L2T3",
    "result": [
      {
        "electoralDistricts": [
          {
            "election": null,
            "id": 94,
            "name": "Scarborough Centre"
          }
        ],
        "pollDivisionIds": [
          10141570
        ],
        "postalCode": "M1L2T3",
        "streetName": "VICTORIA PARK",
        "streetDirectionId": null,
        "streetTypeId": "AVE",
        "placeName": "SCARBOROUGH",
        "streetNameDisplayText": "VICTORIA PARK AVE, SCARBOROUGH"
      }
    ]
  },
  {
    "postal": "M1L1M4",
    "result": [
      {
        "electoralDistricts": [
          {
            "election": null,
            "id": 98,
            "name": "Scarborough Southwest"
          }
        ],
        "pollDivisionIds": [
          10141776
        ],
        "postalCode": "M1L1M4",
        "streetName": "MACK",
        "streetDirectionId": null,
        "streetTypeId": "AVE",
        "placeName": "SCARBOROUGH",
        "streetNameDisplayText": "MACK AVE, SCARBOROUGH"
      }
    ]
  },
  {
    "postal": "M1L0H1",
    "result": [
      {
        "electoralDistricts": [
          {
            "election": null,
            "id": 98,
            "name": "Scarborough Southwest"
          }
        ],
        "pollDivisionIds": [
          10141775
        ],
        "postalCode": "M1L0H1",
        "streetName": "COVENTRY",
        "streetDirectionId": null,
        "streetTypeId": "ST",
        "placeName": "SCARBOROUGH",
        "streetNameDisplayText": "COVENTRY ST, SCARBOROUGH"
      }
    ]
  },
  {
    "postal": "M1L9W3",
    "result": []
  },
  {
    "postal": "M1L6P1",
    "result": []
  },
  {
    "postal": "M1L7G2",
    "result": []
  },
  {
    "postal": "M1L4J9",
    "result": [
      {
        "electoralDistricts": [
          {
            "election": null,
            "id": 94,
            "name": "Scarborough Centre"
          }
        ],
        "pollDivisionIds": [
          10141578
        ],
        "postalCode": "M1L4J9",
        "streetName": "CROCKFORD",
        "streetDirectionId": null,
        "streetTypeId": "BLVD",
        "placeName": "SCARBOROUGH",
        "streetNameDisplayText": "CROCKFORD BLVD, SCARBOROUGH"
      }
    ]
  },
  {
    "postal": "M1L9E4",
    "result": []
  },
  {
    "postal": "M1L8H0",
    "result": []
  },
  {
    "postal": "M1L4M7",
    "result": [
      {
        "electoralDistricts": [
          {
            "election": null,
            "id": 98,
            "name": "Scarborough Southwest"
          }
        ],
        "pollDivisionIds": [
          10141771
        ],
        "postalCode": "M1L4M7",
        "streetName": "SINNOTT",
        "streetDirectionId": null,
        "streetTypeId": "RD",
        "placeName": "SCARBOROUGH",
        "streetNameDisplayText": "SINNOTT RD, SCARBOROUGH"
      }
    ]
  },
  {
    "postal": "M1L2G9",
    "result": [
      {
        "electoralDistricts": [
          {
            "election": null,
            "id": 98,
            "name": "Scarborough Southwest"
          }
        ],
        "pollDivisionIds": [
          10141770
        ],
        "postalCode": "M1L2G9",
        "streetName": "COMSTOCK",
        "streetDirectionId": null,
        "streetTypeId": "RD",
        "placeName": "SCARBOROUGH",
        "streetNameDisplayText": "COMSTOCK RD, SCARBOROUGH"
      }
    ]
  },
  {
    "postal": "M1L8T2",
    "result": []
  },
  {
    "postal": "M1L7G7",
    "result": []
  },
  {
    "postal": "M1L4Z3",
    "result": []
  },
  {
    "postal": "M1L5B3",
    "result": []
  },
  {
    "postal": "M1L1S7",
    "result": [
      {
        "electoralDistricts": [
          {
            "election": null,
            "id": 98,
            "name": "Scarborough Southwest"
          }
        ],
        "pollDivisionIds": [
          10141780
        ],
        "postalCode": "M1L1S7",
        "streetName": "TRINNELL",
        "streetDirectionId": null,
        "streetTypeId": "BLVD",
        "placeName": "SCARBOROUGH",
        "streetNameDisplayText": "TRINNELL BLVD, SCARBOROUGH"
      }
    ]
  },
  {
    "postal": "M1L2N7",
    "result": [
      {
        "electoralDistricts": [
          {
            "election": null,
            "id": 94,
            "name": "Scarborough Centre"
          }
        ],
        "pollDivisionIds": [
          10141570
        ],
        "postalCode": "M1L2N7",
        "streetName": "CRAIGTON",
        "streetDirectionId": null,
        "streetTypeId": "DR",
        "placeName": "SCARBOROUGH",
        "streetNameDisplayText": "CRAIGTON DR, SCARBOROUGH"
      }
    ]
  },
  {
    "postal": "M1L0H8",
    "result": []
  },
  {
    "postal": "M1L7Z4",
    "result": []
  },
  {
    "postal": "M1L7B1",
    "result": []
  },
  {
    "postal": "M1L7P8",
    "result": []
  },
  {
    "postal": "M1L7N0",
    "result": []
  },
  {
    "postal": "M1L3Y5",
    "result": [
      {
        "electoralDistricts": [
          {
            "election": null,
            "id": 98,
            "name": "Scarborough Southwest"
          }
        ],
        "pollDivisionIds": [
          10141775
        ],
        "postalCode": "M1L3Y5",
        "streetName": "PATTERSON",
        "streetDirectionId": null,
        "streetTypeId": "AVE",
        "placeName": "SCARBOROUGH",
        "streetNameDisplayText": "PATTERSON AVE, SCARBOROUGH"
      }
    ]
  },
  {
    "postal": "M1L6K1",
    "result": []
  },
  {
    "postal": "M1L9X5",
    "result": []
  },
  {
    "postal": "M1L7S5",
    "result": []
  },
  {
    "postal": "M1L0A4",
    "result": [
      {
        "electoralDistricts": [
          {
            "election": null,
            "id": 98,
            "name": "Scarborough Southwest"
          }
        ],
        "pollDivisionIds": [
          10141779
        ],
        "postalCode": "M1L0A4",
        "streetName": "ETIENNE",
        "streetDirectionId": null,
        "streetTypeId": "ST",
        "placeName": "SCARBOROUGH",
        "streetNameDisplayText": "ETIENNE ST, SCARBOROUGH"
      },
      {
        "electoralDistricts": [
          {
            "election": null,
            "id": 98,
            "name": "Scarborough Southwest"
          }
        ],
        "pollDivisionIds": [
          10141779
        ],
        "postalCode": "M1L0A4",
        "streetName": "PILKINGTON",
        "streetDirectionId": null,
        "streetTypeId": "DR",
        "placeName": "SCARBOROUGH",
        "streetNameDisplayText": "PILKINGTON DR, SCARBOROUGH"
      }
    ]
  },
  {
    "postal": "M1L4T5",
    "result": []
  },
  {
    "postal": "M1L5K1",
    "result": []
  },
  {
    "postal": "M1L0Z9",
    "result": []
  },
  {
    "postal": "M1L7T2",
    "result": []
  },
  {
    "postal": "M1L1L5",
    "result": [
      {
        "electoralDistricts": [
          {
            "election": null,
            "id": 98,
            "name": "Scarborough Southwest"
          }
        ],
        "pollDivisionIds": [
          10141775
        ],
        "postalCode": "M1L1L5",
        "streetName": "PRAIRIE",
        "streetDirectionId": null,
        "streetTypeId": "DR",
        "placeName": "SCARBOROUGH",
        "streetNameDisplayText": "PRAIRIE DR, SCARBOROUGH"
      }
    ]
  },
  {
    "postal": "M1L3N5",
    "result": [
      {
        "electoralDistricts": [
          {
            "election": null,
            "id": 98,
            "name": "Scarborough Southwest"
          }
        ],
        "pollDivisionIds": [
          10141775
        ],
        "postalCode": "M1L3N5",
        "streetName": "BYNG",
        "streetDirectionId": null,
        "streetTypeId": "AVE",
        "placeName": "SCARBOROUGH",
        "streetNameDisplayText": "BYNG AVE, SCARBOROUGH"
      }
    ]
  },
  {
    "postal": "M1L6H4",
    "result": []
  },
  {
    "postal": "M1L5A5",
    "result": []
  },
  {
    "postal": "M1L3R9",
    "result": [
      {
        "electoralDistricts": [
          {
            "election": null,
            "id": 98,
            "name": "Scarborough Southwest"
          }
        ],
        "pollDivisionIds": [
          10141770
        ],
        "postalCode": "M1L3R9",
        "streetName": "EVANDALE",
        "streetDirectionId": null,
        "streetTypeId": "RD",
        "placeName": "SCARBOROUGH",
        "streetNameDisplayText": "EVANDALE RD, SCARBOROUGH"
      }
    ]
  },
  {
    "postal": "M1L7L8",
    "result": []
  },
  {
    "postal": "M1L6T6",
    "result": []
  },
  {
    "postal": "M1L7Y7",
    "result": []
  },
  {
    "postal": "M1L3M8",
    "result": [
      {
        "electoralDistricts": [
          {
            "election": null,
            "id": 98,
            "name": "Scarborough Southwest"
          }
        ],
        "pollDivisionIds": [
          10141775
        ],
        "postalCode": "M1L3M8",
        "streetName": "AUGUST",
        "streetDirectionId": null,
        "streetTypeId": "AVE",
        "placeName": "SCARBOROUGH",
        "streetNameDisplayText": "AUGUST AVE, SCARBOROUGH"
      }
    ]
  },
  {
    "postal": "M1L2E0",
    "result": []
  },
  {
    "postal": "M1L4B5",
    "result": [
      {
        "electoralDistricts": [
          {
            "election": null,
            "id": 98,
            "name": "Scarborough Southwest"
          }
        ],
        "pollDivisionIds": [
          10141771
        ],
        "postalCode": "M1L4B5",
        "streetName": "WARDEN",
        "streetDirectionId": null,
        "streetTypeId": "AVE",
        "placeName": "SCARBOROUGH",
        "streetNameDisplayText": "WARDEN AVE, SCARBOROUGH"
      }
    ]
  },
  {
    "postal": "M1L1J3",
    "result": [
      {
        "electoralDistricts": [
          {
            "election": null,
            "id": 98,
            "name": "Scarborough Southwest"
          }
        ],
        "pollDivisionIds": [
          10141775
        ],
        "postalCode": "M1L1J3",
        "streetName": "NEWPORT",
        "streetDirectionId": null,
        "streetTypeId": "AVE",
        "placeName": "SCARBOROUGH",
        "streetNameDisplayText": "NEWPORT AVE, SCARBOROUGH"
      }
    ]
  },
  {
    "postal": "M1L5S6",
    "result": []
  },
  {
    "postal": "M1L8P7",
    "result": []
  },
  {
    "postal": "M1L7S7",
    "result": []
  },
  {
    "postal": "M1L4C2",
    "result": [
      {
        "electoralDistricts": [
          {
            "election": null,
            "id": 98,
            "name": "Scarborough Southwest"
          }
        ],
        "pollDivisionIds": [
          10141771
        ],
        "postalCode": "M1L4C2",
        "streetName": "WARDEN",
        "streetDirectionId": null,
        "streetTypeId": "AVE",
        "placeName": "SCARBOROUGH",
        "streetNameDisplayText": "WARDEN AVE, SCARBOROUGH"
      }
    ]
  },
  {
    "postal": "M1L5Y0",
    "result": []
  },
  {
    "postal": "M1L2V7",
    "result": [
      {
        "electoralDistricts": [
          {
            "election": null,
            "id": 98,
            "name": "Scarborough Southwest"
          }
        ],
        "pollDivisionIds": [
          10141773
        ],
        "postalCode": "M1L2V7",
        "streetName": "MAYBOURNE",
        "streetDirectionId": null,
        "streetTypeId": "AVE",
        "placeName": "SCARBOROUGH",
        "streetNameDisplayText": "MAYBOURNE AVE, SCARBOROUGH"
      }
    ]
  },
  {
    "postal": "M1L8P5",
    "result": []
  },
  {
    "postal": "M1L5P5",
    "result": []
  },
  {
    "postal": "M1L5Z0",
    "result": []
  },
  {
    "postal": "M1L9B0",
    "result": []
  },
  {
    "postal": "M1L1L0",
    "result": []
  },
  {
    "postal": "M1L0B5",
    "result": [
      {
        "electoralDistricts": [
          {
            "election": null,
            "id": 98,
            "name": "Scarborough Southwest"
          }
        ],
        "pollDivisionIds": [
          10141779
        ],
        "postalCode": "M1L0B5",
        "streetName": "DANFORTH",
        "streetDirectionId": null,
        "streetTypeId": "AVE",
        "placeName": "SCARBOROUGH",
        "streetNameDisplayText": "DANFORTH AVE, SCARBOROUGH"
      },
      {
        "electoralDistricts": [
          {
            "election": null,
            "id": 98,
            "name": "Scarborough Southwest"
          }
        ],
        "pollDivisionIds": [
          10141779
        ],
        "postalCode": "M1L0B5",
        "streetName": "DANFORTH",
        "streetDirectionId": null,
        "streetTypeId": "RD",
        "placeName": "SCARBOROUGH",
        "streetNameDisplayText": "DANFORTH RD, SCARBOROUGH"
      },
      {
        "electoralDistricts": [
          {
            "election": null,
            "id": 98,
            "name": "Scarborough Southwest"
          }
        ],
        "pollDivisionIds": [
          10141779
        ],
        "postalCode": "M1L0B5",
        "streetName": "SEMINOFF",
        "streetDirectionId": null,
        "streetTypeId": "ST",
        "placeName": "SCARBOROUGH",
        "streetNameDisplayText": "SEMINOFF ST, SCARBOROUGH"
      }
    ]
  },
  {
    "postal": "M1L3L2",
    "result": [
      {
        "electoralDistricts": [
          {
            "election": null,
            "id": 98,
            "name": "Scarborough Southwest"
          }
        ],
        "pollDivisionIds": [
          10141775
        ],
        "postalCode": "M1L3L2",
        "streetName": "ELWARD",
        "streetDirectionId": null,
        "streetTypeId": "BLVD",
        "placeName": "SCARBOROUGH",
        "streetNameDisplayText": "ELWARD BLVD, SCARBOROUGH"
      }
    ]
  },
  {
    "postal": "M1L3B7",
    "result": [
      {
        "electoralDistricts": [
          {
            "election": null,
            "id": 98,
            "name": "Scarborough Southwest"
          }
        ],
        "pollDivisionIds": [
          10141773
        ],
        "postalCode": "M1L3B7",
        "streetName": "BEXHILL",
        "streetDirectionId": null,
        "streetTypeId": "AVE",
        "placeName": "SCARBOROUGH",
        "streetNameDisplayText": "BEXHILL AVE, SCARBOROUGH"
      }
    ]
  },
  {
    "postal": "M1L8L1",
    "result": []
  },
  {
    "postal": "M1L5M4",
    "result": []
  },
  {
    "postal": "M1L4G9",
    "result": [
      {
        "electoralDistricts": [
          {
            "election": null,
            "id": 98,
            "name": "Scarborough Southwest"
          }
        ],
        "pollDivisionIds": [
          10141776
        ],
        "postalCode": "M1L4G9",
        "streetName": "MYSTIC",
        "streetDirectionId": null,
        "streetTypeId": "AVE",
        "placeName": "SCARBOROUGH",
        "streetNameDisplayText": "MYSTIC AVE, SCARBOROUGH"
      }
    ]
  },
  {
    "postal": "M1L0P0",
    "result": []
  },
  {
    "postal": "M1L8G2",
    "result": []
  },
  {
    "postal": "M1L1V9",
    "result": [
      {
        "electoralDistricts": [
          {
            "election": null,
            "id": 98,
            "name": "Scarborough Southwest"
          }
        ],
        "pollDivisionIds": [
          10141772
        ],
        "postalCode": "M1L1V9",
        "streetName": "ST CLAIR",
        "streetDirectionId": "E",
        "streetTypeId": "AVE",
        "placeName": "SCARBOROUGH",
        "streetNameDisplayText": "ST CLAIR AVE E, SCARBOROUGH"
      }
    ]
  },
  {
    "postal": "M1L8N8",
    "result": []
  },
  {
    "postal": "M1L6S8",
    "result": []
  },
  {
    "postal": "M1L8H2",
    "result": []
  },
  {
    "postal": "M1L5R8",
    "result": []
  },
  {
    "postal": "M1L5L4",
    "result": []
  },
  {
    "postal": "M1L9E1",
    "result": []
  },
  {
    "postal": "M1L1C4",
    "result": [
      {
        "electoralDistricts": [
          {
            "election": null,
            "id": 98,
            "name": "Scarborough Southwest"
          }
        ],
        "pollDivisionIds": [
          10141775
        ],
        "postalCode": "M1L1C4",
        "streetName": "DANFORTH",
        "streetDirectionId": null,
        "streetTypeId": "AVE",
        "placeName": "SCARBOROUGH",
        "streetNameDisplayText": "DANFORTH AVE, SCARBOROUGH"
      }
    ]
  },
  {
    "postal": "M1L8W5",
    "result": []
  },
  {
    "postal": "M1L1Y4",
    "result": [
      {
        "electoralDistricts": [
          {
            "election": null,
            "id": 98,
            "name": "Scarborough Southwest"
          }
        ],
        "pollDivisionIds": [
          10141784
        ],
        "postalCode": "M1L1Y4",
        "streetName": "CHESTNUT",
        "streetDirectionId": null,
        "streetTypeId": "CRES",
        "placeName": "SCARBOROUGH",
        "streetNameDisplayText": "CHESTNUT CRES, SCARBOROUGH"
      }
    ]
  },
  {
    "postal": "M1L1C0",
    "result": []
  },
  {
    "postal": "M1L2J2",
    "result": [
      {
        "electoralDistricts": [
          {
            "election": null,
            "id": 98,
            "name": "Scarborough Southwest"
          }
        ],
        "pollDivisionIds": [
          10141769
        ],
        "postalCode": "M1L2J2",
        "streetName": "SUNDRIDGE",
        "streetDirectionId": null,
        "streetTypeId": "DR",
        "placeName": "SCARBOROUGH",
        "streetNameDisplayText": "SUNDRIDGE DR, SCARBOROUGH"
      }
    ]
  },
  {
    "postal": "M1L2J0",
    "result": []
  },
  {
    "postal": "M1L7A3",
    "result": []
  },
  {
    "postal": "M1L8M1",
    "result": []
  },
  {
    "postal": "M1L7T9",
    "result": []
  },
  {
    "postal": "M1L6C0",
    "result": []
  },
  {
    "postal": "M1L7X1",
    "result": []
  },
  {
    "postal": "M1L0G1",
    "result": [
      {
        "electoralDistricts": [
          {
            "election": null,
            "id": 98,
            "name": "Scarborough Southwest"
          }
        ],
        "pollDivisionIds": [
          10141777,
          10141776
        ],
        "postalCode": "M1L0G1",
        "streetName": "BAMBLETT",
        "streetDirectionId": null,
        "streetTypeId": "DR",
        "placeName": "SCARBOROUGH",
        "streetNameDisplayText": "BAMBLETT DR, SCARBOROUGH"
      },
      {
        "electoralDistricts": [
          {
            "election": null,
            "id": 98,
            "name": "Scarborough Southwest"
          }
        ],
        "pollDivisionIds": [
          10141776
        ],
        "postalCode": "M1L0G1",
        "streetName": "BELANGER",
        "streetDirectionId": null,
        "streetTypeId": "CRES",
        "placeName": "SCARBOROUGH",
        "streetNameDisplayText": "BELANGER CRES, SCARBOROUGH"
      },
      {
        "electoralDistricts": [
          {
            "election": null,
            "id": 98,
            "name": "Scarborough Southwest"
          }
        ],
        "pollDivisionIds": [
          10141777,
          10141776
        ],
        "postalCode": "M1L0G1",
        "streetName": "EDHOUSE",
        "streetDirectionId": null,
        "streetTypeId": "AVE",
        "placeName": "SCARBOROUGH",
        "streetNameDisplayText": "EDHOUSE AVE, SCARBOROUGH"
      },
      {
        "electoralDistricts": [
          {
            "election": null,
            "id": 98,
            "name": "Scarborough Southwest"
          }
        ],
        "pollDivisionIds": [
          10141776
        ],
        "postalCode": "M1L0G1",
        "streetName": "NIXON",
        "streetDirectionId": null,
        "streetTypeId": "HTS",
        "placeName": "SCARBOROUGH",
        "streetNameDisplayText": "NIXON HTS, SCARBOROUGH"
      }
    ]
  },
  {
    "postal": "M1L4X2",
    "result": []
  },
  {
    "postal": "M1L0N6",
    "result": []
  },
  {
    "postal": "M1L8E3",
    "result": []
  },
  {
    "postal": "M1L5S8",
    "result": []
  },
  {
    "postal": "M1L0R0",
    "result": []
  },
  {
    "postal": "M1L6J6",
    "result": []
  },
  {
    "postal": "M1L4B4",
    "result": []
  },
  {
    "postal": "M1L7E3",
    "result": []
  },
  {
    "postal": "M1L3N6",
    "result": [
      {
        "electoralDistricts": [
          {
            "election": null,
            "id": 98,
            "name": "Scarborough Southwest"
          }
        ],
        "pollDivisionIds": [
          10141775
        ],
        "postalCode": "M1L3N6",
        "streetName": "BYNG",
        "streetDirectionId": null,
        "streetTypeId": "AVE",
        "placeName": "SCARBOROUGH",
        "streetNameDisplayText": "BYNG AVE, SCARBOROUGH"
      }
    ]
  },
  {
    "postal": "M1L3X6",
    "result": [
      {
        "electoralDistricts": [
          {
            "election": null,
            "id": 98,
            "name": "Scarborough Southwest"
          }
        ],
        "pollDivisionIds": [
          10141781,
          10141779
        ],
        "postalCode": "M1L3X6",
        "streetName": "DANFORTH",
        "streetDirectionId": null,
        "streetTypeId": "RD",
        "placeName": "SCARBOROUGH",
        "streetNameDisplayText": "DANFORTH RD, SCARBOROUGH"
      }
    ]
  },
  {
    "postal": "M1L8L0",
    "result": []
  },
  {
    "postal": "M1L8N1",
    "result": []
  },
  {
    "postal": "M1L4J0",
    "result": []
  },
  {
    "postal": "M1L0X7",
    "result": []
  },
  {
    "postal": "M1L6S4",
    "result": []
  },
  {
    "postal": "M1L0Z0",
    "result": []
  },
  {
    "postal": "M1L9X8",
    "result": []
  },
  {
    "postal": "M1L3H3",
    "result": [
      {
        "electoralDistricts": [
          {
            "election": null,
            "id": 98,
            "name": "Scarborough Southwest"
          }
        ],
        "pollDivisionIds": [
          10141772
        ],
        "postalCode": "M1L3H3",
        "streetName": "PHARMACY",
        "streetDirectionId": null,
        "streetTypeId": "AVE",
        "placeName": "SCARBOROUGH",
        "streetNameDisplayText": "PHARMACY AVE, SCARBOROUGH"
      }
    ]
  },
  {
    "postal": "M1L7S2",
    "result": []
  },
  {
    "postal": "M1L3T3",
    "result": [
      {
        "electoralDistricts": [
          {
            "election": null,
            "id": 98,
            "name": "Scarborough Southwest"
          }
        ],
        "pollDivisionIds": [
          10141775
        ],
        "postalCode": "M1L3T3",
        "streetName": "ROBINSON",
        "streetDirectionId": null,
        "streetTypeId": "AVE",
        "placeName": "SCARBOROUGH",
        "streetNameDisplayText": "ROBINSON AVE, SCARBOROUGH"
      }
    ]
  },
  {
    "postal": "M1L9P3",
    "result": []
  },
  {
    "postal": "M1L4H8",
    "result": [
      {
        "electoralDistricts": [
          {
            "election": null,
            "id": 98,
            "name": "Scarborough Southwest"
          }
        ],
        "pollDivisionIds": [
          10141780
        ],
        "postalCode": "M1L4H8",
        "streetName": "SANTAMONICA",
        "streetDirectionId": null,
        "streetTypeId": "BLVD",
        "placeName": "SCARBOROUGH",
        "streetNameDisplayText": "SANTAMONICA BLVD, SCARBOROUGH"
      }
    ]
  },
  {
    "postal": "M1L6R1",
    "result": []
  },
  {
    "postal": "M1L1S0",
    "result": []
  },
  {
    "postal": "M1L3W8",
    "result": [
      {
        "electoralDistricts": [
          {
            "election": null,
            "id": 98,
            "name": "Scarborough Southwest"
          }
        ],
        "pollDivisionIds": [
          10141776
        ],
        "postalCode": "M1L3W8",
        "streetName": "DANFORTH",
        "streetDirectionId": null,
        "streetTypeId": "RD",
        "placeName": "SCARBOROUGH",
        "streetNameDisplayText": "DANFORTH RD, SCARBOROUGH"
      }
    ]
  },
  {
    "postal": "M1L4S3",
    "result": []
  },
  {
    "postal": "M1L1B6",
    "result": [
      {
        "electoralDistricts": [
          {
            "election": null,
            "id": 98,
            "name": "Scarborough Southwest"
          }
        ],
        "pollDivisionIds": [
          10141774
        ],
        "postalCode": "M1L1B6",
        "streetName": "DANFORTH",
        "streetDirectionId": null,
        "streetTypeId": "AVE",
        "placeName": "SCARBOROUGH",
        "streetNameDisplayText": "DANFORTH AVE, SCARBOROUGH"
      }
    ]
  },
  {
    "postal": "M1L8R3",
    "result": []
  },
  {
    "postal": "M1L4V9",
    "result": [
      {
        "electoralDistricts": [
          {
            "election": null,
            "id": 98,
            "name": "Scarborough Southwest"
          }
        ],
        "pollDivisionIds": [
          10141770
        ],
        "postalCode": "M1L4V9",
        "streetName": "LEBOVIC",
        "streetDirectionId": null,
        "streetTypeId": "AVE",
        "placeName": "SCARBOROUGH",
        "streetNameDisplayText": "LEBOVIC AVE, SCARBOROUGH"
      }
    ]
  },
  {
    "postal": "M1L9W4",
    "result": []
  },
  {
    "postal": "M1L3T4",
    "result": [
      {
        "electoralDistricts": [
          {
            "election": null,
            "id": 98,
            "name": "Scarborough Southwest"
          }
        ],
        "pollDivisionIds": [
          10141775
        ],
        "postalCode": "M1L3T4",
        "streetName": "LEYTON",
        "streetDirectionId": null,
        "streetTypeId": "AVE",
        "placeName": "SCARBOROUGH",
        "streetNameDisplayText": "LEYTON AVE, SCARBOROUGH"
      }
    ]
  },
  {
    "postal": "M1L5C7",
    "result": []
  },
  {
    "postal": "M1L3Y1",
    "result": [
      {
        "electoralDistricts": [
          {
            "election": null,
            "id": 98,
            "name": "Scarborough Southwest"
          }
        ],
        "pollDivisionIds": [
          10141775
        ],
        "postalCode": "M1L3Y1",
        "streetName": "PATTERSON",
        "streetDirectionId": null,
        "streetTypeId": "AVE",
        "placeName": "SCARBOROUGH",
        "streetNameDisplayText": "PATTERSON AVE, SCARBOROUGH"
      }
    ]
  },
  {
    "postal": "M1L5V0",
    "result": []
  },
  {
    "postal": "M1L8G8",
    "result": []
  },
  {
    "postal": "M1L8B1",
    "result": []
  },
  {
    "postal": "M1L4P5",
    "result": []
  },
  {
    "postal": "M1L7B2",
    "result": []
  },
  {
    "postal": "M1L0R2",
    "result": []
  },
  {
    "postal": "M1L4M4",
    "result": [
      {
        "electoralDistricts": [
          {
            "election": null,
            "id": 98,
            "name": "Scarborough Southwest"
          }
        ],
        "pollDivisionIds": [
          10141784
        ],
        "postalCode": "M1L4M4",
        "streetName": "ANACONDA",
        "streetDirectionId": null,
        "streetTypeId": "AVE",
        "placeName": "SCARBOROUGH",
        "streetNameDisplayText": "ANACONDA AVE, SCARBOROUGH"
      }
    ]
  },
  {
    "postal": "M1L7M4",
    "result": []
  },
  {
    "postal": "M1L9S7",
    "result": []
  },
  {
    "postal": "M1L5Z7",
    "result": []
  },
  {
    "postal": "M1L7J7",
    "result": []
  },
  {
    "postal": "M1L8R8",
    "result": []
  },
  {
    "postal": "M1L9X1",
    "result": []
  },
  {
    "postal": "M1L5M9",
    "result": []
  },
  {
    "postal": "M1L9B4",
    "result": []
  },
  {
    "postal": "M1L0L9",
    "result": []
  },
  {
    "postal": "M1L9G4",
    "result": []
  },
  {
    "postal": "M1L1J4",
    "result": [
      {
        "electoralDistricts": [
          {
            "election": null,
            "id": 98,
            "name": "Scarborough Southwest"
          }
        ],
        "pollDivisionIds": [
          10141775
        ],
        "postalCode": "M1L1J4",
        "streetName": "NEWPORT",
        "streetDirectionId": null,
        "streetTypeId": "AVE",
        "placeName": "SCARBOROUGH",
        "streetNameDisplayText": "NEWPORT AVE, SCARBOROUGH"
      }
    ]
  },
  {
    "postal": "M1L0W6",
    "result": []
  }
]
