[
  {
    "postal": "M1P9J6",
    "result": []
  },
  {
    "postal": "M1P9Z5",
    "result": []
  },
  {
    "postal": "M1P7H8",
    "result": []
  },
  {
    "postal": "M1P0P6",
    "result": []
  },
  {
    "postal": "M1P0S7",
    "result": []
  },
  {
    "postal": "M1P8B9",
    "result": []
  },
  {
    "postal": "M1P2A6",
    "result": [
      {
        "electoralDistricts": [
          {
            "election": null,
            "id": 94,
            "name": "Scarborough Centre"
          }
        ],
        "pollDivisionIds": [
          10141573
        ],
        "postalCode": "M1P2A6",
        "streetName": "WYE VALLEY",
        "streetDirectionId": null,
        "streetTypeId": "RD",
        "placeName": "SCARBOROUGH",
        "streetNameDisplayText": "WYE VALLEY RD, SCARBOROUGH"
      }
    ]
  },
  {
    "postal": "M1P7V2",
    "result": []
  },
  {
    "postal": "M1P9P4",
    "result": []
  },
  {
    "postal": "M1P6G0",
    "result": []
  },
  {
    "postal": "M1P2K0",
    "result": []
  },
  {
    "postal": "M1P7N6",
    "result": []
  },
  {
    "postal": "M1P5R3",
    "result": []
  },
  {
    "postal": "M1P7K0",
    "result": []
  },
  {
    "postal": "M1P3R2",
    "result": [
      {
        "electoralDistricts": [
          {
            "election": null,
            "id": 94,
            "name": "Scarborough Centre"
          }
        ],
        "pollDivisionIds": [
          10141584
        ],
        "postalCode": "M1P3R2",
        "streetName": "BIRKDALE",
        "streetDirectionId": null,
        "streetTypeId": "RD",
        "placeName": "SCARBOROUGH",
        "streetNameDisplayText": "BIRKDALE RD, SCARBOROUGH"
      }
    ]
  },
  {
    "postal": "M1P0J1",
    "result": []
  },
  {
    "postal": "M1P0B0",
    "result": []
  },
  {
    "postal": "M1P5Z2",
    "result": []
  },
  {
    "postal": "M1P7P3",
    "result": []
  },
  {
    "postal": "M1P2K3",
    "result": []
  },
  {
    "postal": "M1P7Y6",
    "result": []
  },
  {
    "postal": "M1P1L9",
    "result": [
      {
        "electoralDistricts": [
          {
            "election": null,
            "id": 94,
            "name": "Scarborough Centre"
          }
        ],
        "pollDivisionIds": [
          10141575
        ],
        "postalCode": "M1P1L9",
        "streetName": "EXFORD",
        "streetDirectionId": null,
        "streetTypeId": "DR",
        "placeName": "SCARBOROUGH",
        "streetNameDisplayText": "EXFORD DR, SCARBOROUGH"
      }
    ]
  },
  {
    "postal": "M1P8T0",
    "result": []
  },
  {
    "postal": "M1P3K8",
    "result": [
      {
        "electoralDistricts": [
          {
            "election": null,
            "id": 94,
            "name": "Scarborough Centre"
          }
        ],
        "pollDivisionIds": [
          10141584
        ],
        "postalCode": "M1P3K8",
        "streetName": "DORCOT",
        "streetDirectionId": null,
        "streetTypeId": "AVE",
        "placeName": "SCARBOROUGH",
        "streetNameDisplayText": "DORCOT AVE, SCARBOROUGH"
      }
    ]
  },
  {
    "postal": "M1P5W9",
    "result": []
  },
  {
    "postal": "M1P6T9",
    "result": []
  },
  {
    "postal": "M1P4H1",
    "result": [
      {
        "electoralDistricts": [
          {
            "election": null,
            "id": 94,
            "name": "Scarborough Centre"
          }
        ],
        "pollDivisionIds": [
          10141591
        ],
        "postalCode": "M1P4H1",
        "streetName": "FLINTWICK",
        "streetDirectionId": null,
        "streetTypeId": "DR",
        "placeName": "SCARBOROUGH",
        "streetNameDisplayText": "FLINTWICK DR, SCARBOROUGH"
      }
    ]
  },
  {
    "postal": "M1P7A2",
    "result": []
  },
  {
    "postal": "M1P5G0",
    "result": []
  },
  {
    "postal": "M1P8V5",
    "result": []
  },
  {
    "postal": "M1P2Y8",
    "result": []
  },
  {
    "postal": "M1P2B6",
    "result": [
      {
        "electoralDistricts": [
          {
            "election": null,
            "id": 94,
            "name": "Scarborough Centre"
          }
        ],
        "pollDivisionIds": [
          10141573
        ],
        "postalCode": "M1P2B6",
        "streetName": "WICKWARE",
        "streetDirectionId": null,
        "streetTypeId": "GATE",
        "placeName": "SCARBOROUGH",
        "streetNameDisplayText": "WICKWARE GATE, SCARBOROUGH"
      }
    ]
  },
  {
    "postal": "M1P4W8",
    "result": []
  },
  {
    "postal": "M1P8H7",
    "result": []
  },
  {
    "postal": "M1P5P1",
    "result": []
  },
  {
    "postal": "M1P2B8",
    "result": [
      {
        "electoralDistricts": [
          {
            "election": null,
            "id": 94,
            "name": "Scarborough Centre"
          }
        ],
        "pollDivisionIds": [
          10141576
        ],
        "postalCode": "M1P2B8",
        "streetName": "BIRCHMOUNT",
        "streetDirectionId": null,
        "streetTypeId": "RD",
        "placeName": "SCARBOROUGH",
        "streetNameDisplayText": "BIRCHMOUNT RD, SCARBOROUGH"
      }
    ]
  },
  {
    "postal": "M1P0P2",
    "result": []
  },
  {
    "postal": "M1P9M1",
    "result": []
  },
  {
    "postal": "M1P3G0",
    "result": []
  },
  {
    "postal": "M1P9Z2",
    "result": []
  },
  {
    "postal": "M1P2A0",
    "result": []
  },
  {
    "postal": "M1P6Y0",
    "result": []
  },
  {
    "postal": "M1P2Z8",
    "result": []
  },
  {
    "postal": "M1P7Y3",
    "result": []
  },
  {
    "postal": "M1P6Z5",
    "result": []
  },
  {
    "postal": "M1P6E0",
    "result": []
  },
  {
    "postal": "M1P9B7",
    "result": []
  },
  {
    "postal": "M1P9S5",
    "result": []
  },
  {
    "postal": "M1P3X3",
    "result": [
      {
        "electoralDistricts": [
          {
            "election": null,
            "id": 94,
            "name": "Scarborough Centre"
          }
        ],
        "pollDivisionIds": [
          10141580
        ],
        "postalCode": "M1P3X3",
        "streetName": "VERLAINE",
        "streetDirectionId": null,
        "streetTypeId": "PL",
        "placeName": "SCARBOROUGH",
        "streetNameDisplayText": "VERLAINE PL, SCARBOROUGH"
      }
    ]
  },
  {
    "postal": "M1P7R5",
    "result": []
  },
  {
    "postal": "M1P2X3",
    "result": [
      {
        "electoralDistricts": [
          {
            "election": null,
            "id": 94,
            "name": "Scarborough Centre"
          }
        ],
        "pollDivisionIds": [
          10141579
        ],
        "postalCode": "M1P2X3",
        "streetName": "ELLESMERE",
        "streetDirectionId": null,
        "streetTypeId": "RD",
        "placeName": "SCARBOROUGH",
        "streetNameDisplayText": "ELLESMERE RD, SCARBOROUGH"
      }
    ]
  },
  {
    "postal": "M1P8Z9",
    "result": []
  },
  {
    "postal": "M1P0N4",
    "result": []
  },
  {
    "postal": "M1P1K1",
    "result": [
      {
        "electoralDistricts": [
          {
            "election": null,
            "id": 94,
            "name": "Scarborough Centre"
          }
        ],
        "pollDivisionIds": [
          10141575
        ],
        "postalCode": "M1P1K1",
        "streetName": "MERRYFIELD",
        "streetDirectionId": null,
        "streetTypeId": "DR",
        "placeName": "SCARBOROUGH",
        "streetNameDisplayText": "MERRYFIELD DR, SCARBOROUGH"
      }
    ]
  },
  {
    "postal": "M1P1S3",
    "result": [
      {
        "electoralDistricts": [
          {
            "election": null,
            "id": 94,
            "name": "Scarborough Centre"
          }
        ],
        "pollDivisionIds": [
          10141574
        ],
        "postalCode": "M1P1S3",
        "streetName": "BERGEN",
        "streetDirectionId": null,
        "streetTypeId": "RD",
        "placeName": "SCARBOROUGH",
        "streetNameDisplayText": "BERGEN RD, SCARBOROUGH"
      }
    ]
  },
  {
    "postal": "M1P6M4",
    "result": []
  },
  {
    "postal": "M1P9A9",
    "result": []
  },
  {
    "postal": "M1P9Z9",
    "result": []
  },
  {
    "postal": "M1P6T4",
    "result": []
  },
  {
    "postal": "M1P0B2",
    "result": [
      {
        "electoralDistricts": [
          {
            "election": null,
            "id": 94,
            "name": "Scarborough Centre"
          }
        ],
        "pollDivisionIds": [
          10141619,
          10141618
        ],
        "postalCode": "M1P0B2",
        "streetName": "TOWN CENTRE",
        "streetDirectionId": null,
        "streetTypeId": "CRT",
        "placeName": "SCARBOROUGH",
        "streetNameDisplayText": "TOWN CENTRE CRT, SCARBOROUGH"
      }
    ]
  },
  {
    "postal": "M1P2L9",
    "result": [
      {
        "electoralDistricts": [
          {
            "election": null,
            "id": 94,
            "name": "Scarborough Centre"
          }
        ],
        "pollDivisionIds": [
          10141573
        ],
        "postalCode": "M1P2L9",
        "streetName": "KENNEDY",
        "streetDirectionId": null,
        "streetTypeId": "RD",
        "placeName": "SCARBOROUGH",
        "streetNameDisplayText": "KENNEDY RD, SCARBOROUGH"
      }
    ]
  },
  {
    "postal": "M1P8K9",
    "result": []
  },
  {
    "postal": "M1P2H9",
    "result": []
  },
  {
    "postal": "M1P3Z6",
    "result": [
      {
        "electoralDistricts": [
          {
            "election": null,
            "id": 94,
            "name": "Scarborough Centre"
          }
        ],
        "pollDivisionIds": [
          10141592
        ],
        "postalCode": "M1P3Z6",
        "streetName": "BRIMORTON",
        "streetDirectionId": null,
        "streetTypeId": "DR",
        "placeName": "SCARBOROUGH",
        "streetNameDisplayText": "BRIMORTON DR, SCARBOROUGH"
      }
    ]
  },
  {
    "postal": "M1P3B0",
    "result": []
  },
  {
    "postal": "M1P2H8",
    "result": [
      {
        "electoralDistricts": [
          {
            "election": null,
            "id": 94,
            "name": "Scarborough Centre"
          }
        ],
        "pollDivisionIds": [
          10141572
        ],
        "postalCode": "M1P2H8",
        "streetName": "BIRCHMOUNT",
        "streetDirectionId": null,
        "streetTypeId": "RD",
        "placeName": "SCARBOROUGH",
        "streetNameDisplayText": "BIRCHMOUNT RD, SCARBOROUGH"
      }
    ]
  },
  {
    "postal": "M1P3X2",
    "result": [
      {
        "electoralDistricts": [
          {
            "election": null,
            "id": 94,
            "name": "Scarborough Centre"
          }
        ],
        "pollDivisionIds": [
          10141584
        ],
        "postalCode": "M1P3X2",
        "streetName": "STOKEWELL",
        "streetDirectionId": null,
        "streetTypeId": "PL",
        "placeName": "SCARBOROUGH",
        "streetNameDisplayText": "STOKEWELL PL, SCARBOROUGH"
      }
    ]
  },
  {
    "postal": "M1P2E9",
    "result": []
  },
  {
    "postal": "M1P9P6",
    "result": []
  },
  {
    "postal": "M1P9E2",
    "result": []
  },
  {
    "postal": "M1P9H2",
    "result": []
  },
  {
    "postal": "M1P1S8",
    "result": [
      {
        "electoralDistricts": [
          {
            "election": null,
            "id": 94,
            "name": "Scarborough Centre"
          }
        ],
        "pollDivisionIds": [
          10141575
        ],
        "postalCode": "M1P1S8",
        "streetName": "CANLISH",
        "streetDirectionId": null,
        "streetTypeId": "RD",
        "placeName": "SCARBOROUGH",
        "streetNameDisplayText": "CANLISH RD, SCARBOROUGH"
      }
    ]
  },
  {
    "postal": "M1P3M6",
    "result": [
      {
        "electoralDistricts": [
          {
            "election": null,
            "id": 94,
            "name": "Scarborough Centre"
          }
        ],
        "pollDivisionIds": [
          10141583
        ],
        "postalCode": "M1P3M6",
        "streetName": "BROOKRIDGE",
        "streetDirectionId": null,
        "streetTypeId": "DR",
        "placeName": "SCARBOROUGH",
        "streetNameDisplayText": "BROOKRIDGE DR, SCARBOROUGH"
      }
    ]
  },
  {
    "postal": "M1P6Z8",
    "result": []
  },
  {
    "postal": "M1P4J2",
    "result": [
      {
        "electoralDistricts": [
          {
            "election": null,
            "id": 94,
            "name": "Scarborough Centre"
          }
        ],
        "pollDivisionIds": [
          10141590
        ],
        "postalCode": "M1P4J2",
        "streetName": "SARATOGA",
        "streetDirectionId": null,
        "streetTypeId": "DR",
        "placeName": "SCARBOROUGH",
        "streetNameDisplayText": "SARATOGA DR, SCARBOROUGH"
      }
    ]
  },
  {
    "postal": "M1P9Y1",
    "result": []
  },
  {
    "postal": "M1P8V6",
    "result": []
  },
  {
    "postal": "M1P6B2",
    "result": []
  },
  {
    "postal": "M1P1P8",
    "result": [
      {
        "electoralDistricts": [
          {
            "election": null,
            "id": 94,
            "name": "Scarborough Centre"
          }
        ],
        "pollDivisionIds": [
          10141575
        ],
        "postalCode": "M1P1P8",
        "streetName": "VAUXHALL",
        "streetDirectionId": null,
        "streetTypeId": "DR",
        "placeName": "SCARBOROUGH",
        "streetNameDisplayText": "VAUXHALL DR, SCARBOROUGH"
      }
    ]
  },
  {
    "postal": "M1P0V8",
    "result": []
  },
  {
    "postal": "M1P4Y0",
    "result": []
  },
  {
    "postal": "M1P2T4",
    "result": []
  },
  {
    "postal": "M1P2S3",
    "result": []
  },
  {
    "postal": "M1P0K0",
    "result": []
  },
  {
    "postal": "M1P5N1",
    "result": []
  },
  {
    "postal": "M1P7T0",
    "result": []
  },
  {
    "postal": "M1P9N2",
    "result": []
  },
  {
    "postal": "M1P5L1",
    "result": []
  },
  {
    "postal": "M1P7G5",
    "result": []
  },
  {
    "postal": "M1P6K2",
    "result": []
  },
  {
    "postal": "M1P6P9",
    "result": []
  },
  {
    "postal": "M1P0E6",
    "result": []
  },
  {
    "postal": "M1P8R9",
    "result": []
  },
  {
    "postal": "M1P3G9",
    "result": [
      {
        "electoralDistricts": [
          {
            "election": null,
            "id": 94,
            "name": "Scarborough Centre"
          }
        ],
        "pollDivisionIds": [
          10141580
        ],
        "postalCode": "M1P3G9",
        "streetName": "BRIMLEY",
        "streetDirectionId": null,
        "streetTypeId": "RD",
        "placeName": "SCARBOROUGH",
        "streetNameDisplayText": "BRIMLEY RD, SCARBOROUGH"
      }
    ]
  },
  {
    "postal": "M1P0V7",
    "result": []
  },
  {
    "postal": "M1P2Z1",
    "result": [
      {
        "electoralDistricts": [
          {
            "election": null,
            "id": 94,
            "name": "Scarborough Centre"
          }
        ],
        "pollDivisionIds": [
          10141579
        ],
        "postalCode": "M1P2Z1",
        "streetName": "PROGRESS",
        "streetDirectionId": null,
        "streetTypeId": "AVE",
        "placeName": "SCARBOROUGH",
        "streetNameDisplayText": "PROGRESS AVE, SCARBOROUGH"
      }
    ]
  },
  {
    "postal": "M1P7N1",
    "result": []
  },
  {
    "postal": "M1P3C6",
    "result": [
      {
        "electoralDistricts": [
          {
            "election": null,
            "id": 94,
            "name": "Scarborough Centre"
          }
        ],
        "pollDivisionIds": [
          10141581
        ],
        "postalCode": "M1P3C6",
        "streetName": "MIDLAND",
        "streetDirectionId": null,
        "streetTypeId": "AVE",
        "placeName": "SCARBOROUGH",
        "streetNameDisplayText": "MIDLAND AVE, SCARBOROUGH"
      }
    ]
  },
  {
    "postal": "M1P4M1",
    "result": [
      {
        "electoralDistricts": [
          {
            "election": null,
            "id": 94,
            "name": "Scarborough Centre"
          }
        ],
        "pollDivisionIds": [
          10141592
        ],
        "postalCode": "M1P4M1",
        "streetName": "BERNADINE",
        "streetDirectionId": null,
        "streetTypeId": "ST",
        "placeName": "SCARBOROUGH",
        "streetNameDisplayText": "BERNADINE ST, SCARBOROUGH"
      }
    ]
  },
  {
    "postal": "M1P9K2",
    "result": []
  },
  {
    "postal": "M1P9S6",
    "result": []
  },
  {
    "postal": "M1P4X1",
    "result": [
      {
        "electoralDistricts": [
          {
            "election": null,
            "id": 94,
            "name": "Scarborough Centre"
          }
        ],
        "pollDivisionIds": [
          10141629
        ],
        "postalCode": "M1P4X1",
        "streetName": "LAWRENCE",
        "streetDirectionId": "E",
        "streetTypeId": "AVE",
        "placeName": "SCARBOROUGH",
        "streetNameDisplayText": "LAWRENCE AVE E, SCARBOROUGH"
      }
    ]
  },
  {
    "postal": "M1P8W2",
    "result": []
  },
  {
    "postal": "M1P7N2",
    "result": []
  },
  {
    "postal": "M1P8S3",
    "result": []
  },
  {
    "postal": "M1P4V0",
    "result": []
  },
  {
    "postal": "M1P6W4",
    "result": []
  },
  {
    "postal": "M1P5M1",
    "result": []
  },
  {
    "postal": "M1P0S4",
    "result": []
  },
  {
    "postal": "M1P5X6",
    "result": []
  },
  {
    "postal": "M1P8L5",
    "result": []
  },
  {
    "postal": "M1P5M8",
    "result": []
  },
  {
    "postal": "M1P2G3",
    "result": [
      {
        "electoralDistricts": [
          {
            "election": null,
            "id": 94,
            "name": "Scarborough Centre"
          }
        ],
        "pollDivisionIds": [
          10141575
        ],
        "postalCode": "M1P2G3",
        "streetName": "BIRCHMOUNT",
        "streetDirectionId": null,
        "streetTypeId": "RD",
        "placeName": "SCARBOROUGH",
        "streetNameDisplayText": "BIRCHMOUNT RD, SCARBOROUGH"
      }
    ]
  },
  {
    "postal": "M1P8E4",
    "result": []
  },
  {
    "postal": "M1P7S9",
    "result": []
  },
  {
    "postal": "M1P1K3",
    "result": [
      {
        "electoralDistricts": [
          {
            "election": null,
            "id": 94,
            "name": "Scarborough Centre"
          }
        ],
        "pollDivisionIds": [
          10141575
        ],
        "postalCode": "M1P1K3",
        "streetName": "MERRYFIELD",
        "streetDirectionId": null,
        "streetTypeId": "DR",
        "placeName": "SCARBOROUGH",
        "streetNameDisplayText": "MERRYFIELD DR, SCARBOROUGH"
      }
    ]
  },
  {
    "postal": "M1P4E1",
    "result": [
      {
        "electoralDistricts": [
          {
            "election": null,
            "id": 94,
            "name": "Scarborough Centre"
          }
        ],
        "pollDivisionIds": [
          10141592
        ],
        "postalCode": "M1P4E1",
        "streetName": "SURATY",
        "streetDirectionId": null,
        "streetTypeId": "AVE",
        "placeName": "SCARBOROUGH",
        "streetNameDisplayText": "SURATY AVE, SCARBOROUGH"
      }
    ]
  },
  {
    "postal": "M1P4R2",
    "result": [
      {
        "electoralDistricts": [
          {
            "election": null,
            "id": 94,
            "name": "Scarborough Centre"
          }
        ],
        "pollDivisionIds": [
          10141583
        ],
        "postalCode": "M1P4R2",
        "streetName": "MIDWEST",
        "streetDirectionId": null,
        "streetTypeId": "RD",
        "placeName": "SCARBOROUGH",
        "streetNameDisplayText": "MIDWEST RD, SCARBOROUGH"
      }
    ]
  },
  {
    "postal": "M1P6T0",
    "result": []
  },
  {
    "postal": "M1P3K5",
    "result": [
      {
        "electoralDistricts": [
          {
            "election": null,
            "id": 94,
            "name": "Scarborough Centre"
          }
        ],
        "pollDivisionIds": [
          10141584
        ],
        "postalCode": "M1P3K5",
        "streetName": "DORCOT",
        "streetDirectionId": null,
        "streetTypeId": "AVE",
        "placeName": "SCARBOROUGH",
        "streetNameDisplayText": "DORCOT AVE, SCARBOROUGH"
      }
    ]
  },
  {
    "postal": "M1P3S3",
    "result": [
      {
        "electoralDistricts": [
          {
            "election": null,
            "id": 94,
            "name": "Scarborough Centre"
          }
        ],
        "pollDivisionIds": [
          10141582
        ],
        "postalCode": "M1P3S3",
        "streetName": "BIRKDALE",
        "streetDirectionId": null,
        "streetTypeId": "RD",
        "placeName": "SCARBOROUGH",
        "streetNameDisplayText": "BIRKDALE RD, SCARBOROUGH"
      }
    ]
  },
  {
    "postal": "M1P3L4",
    "result": [
      {
        "electoralDistricts": [
          {
            "election": null,
            "id": 94,
            "name": "Scarborough Centre"
          }
        ],
        "pollDivisionIds": [
          10141583
        ],
        "postalCode": "M1P3L4",
        "streetName": "LESTERWOOD",
        "streetDirectionId": null,
        "streetTypeId": "CRES",
        "placeName": "SCARBOROUGH",
        "streetNameDisplayText": "LESTERWOOD CRES, SCARBOROUGH"
      }
    ]
  },
  {
    "postal": "M1P9Y2",
    "result": []
  },
  {
    "postal": "M1P1E0",
    "result": []
  },
  {
    "postal": "M1P9A4",
    "result": []
  },
  {
    "postal": "M1P1L3",
    "result": [
      {
        "electoralDistricts": [
          {
            "election": null,
            "id": 94,
            "name": "Scarborough Centre"
          }
        ],
        "pollDivisionIds": [
          10141575
        ],
        "postalCode": "M1P1L3",
        "streetName": "EXFORD",
        "streetDirectionId": null,
        "streetTypeId": "DR",
        "placeName": "SCARBOROUGH",
        "streetNameDisplayText": "EXFORD DR, SCARBOROUGH"
      }
    ]
  },
  {
    "postal": "M1P6N1",
    "result": []
  },
  {
    "postal": "M1P6G7",
    "result": []
  },
  {
    "postal": "M1P7W1",
    "result": []
  },
  {
    "postal": "M1P4M6",
    "result": [
      {
        "electoralDistricts": [
          {
            "election": null,
            "id": 94,
            "name": "Scarborough Centre"
          }
        ],
        "pollDivisionIds": [
          10141592
        ],
        "postalCode": "M1P4M6",
        "streetName": "DOERR",
        "streetDirectionId": null,
        "streetTypeId": "RD",
        "placeName": "SCARBOROUGH",
        "streetNameDisplayText": "DOERR RD, SCARBOROUGH"
      }
    ]
  },
  {
    "postal": "M1P1K0",
    "result": []
  },
  {
    "postal": "M1P3E2",
    "result": [
      {
        "electoralDistricts": [
          {
            "election": null,
            "id": 94,
            "name": "Scarborough Centre"
          }
        ],
        "pollDivisionIds": [
          10141580
        ],
        "postalCode": "M1P3E2",
        "streetName": "MIDLAND",
        "streetDirectionId": null,
        "streetTypeId": "AVE",
        "placeName": "SCARBOROUGH",
        "streetNameDisplayText": "MIDLAND AVE, SCARBOROUGH"
      }
    ]
  },
  {
    "postal": "M1P5H4",
    "result": [
      {
        "electoralDistricts": [
          {
            "election": null,
            "id": 94,
            "name": "Scarborough Centre"
          }
        ],
        "pollDivisionIds": [
          10141576
        ],
        "postalCode": "M1P5H4",
        "streetName": "JENKINSON",
        "streetDirectionId": null,
        "streetTypeId": "WAY",
        "placeName": "SCARBOROUGH",
        "streetNameDisplayText": "JENKINSON WAY, SCARBOROUGH"
      }
    ]
  },
  {
    "postal": "M1P1K7",
    "result": [
      {
        "electoralDistricts": [
          {
            "election": null,
            "id": 94,
            "name": "Scarborough Centre"
          }
        ],
        "pollDivisionIds": [
          10141575
        ],
        "postalCode": "M1P1K7",
        "streetName": "KECALA",
        "streetDirectionId": null,
        "streetTypeId": "RD",
        "placeName": "SCARBOROUGH",
        "streetNameDisplayText": "KECALA RD, SCARBOROUGH"
      },
      {
        "electoralDistricts": [
          {
            "election": null,
            "id": 94,
            "name": "Scarborough Centre"
          }
        ],
        "pollDivisionIds": [
          10141575
        ],
        "postalCode": "M1P1K7",
        "streetName": "KECALA",
        "streetDirectionId": null,
        "streetTypeId": "RD",
        "placeName": "TORONTO",
        "streetNameDisplayText": "KECALA RD, TORONTO"
      }
    ]
  },
  {
    "postal": "M1P0H0",
    "result": []
  },
  {
    "postal": "M1P0J3",
    "result": []
  },
  {
    "postal": "M1P1X6",
    "result": [
      {
        "electoralDistricts": [
          {
            "election": null,
            "id": 94,
            "name": "Scarborough Centre"
          }
        ],
        "pollDivisionIds": [
          10141573
        ],
        "postalCode": "M1P1X6",
        "streetName": "GLAIVE",
        "streetDirectionId": null,
        "streetTypeId": "DR",
        "placeName": "SCARBOROUGH",
        "streetNameDisplayText": "GLAIVE DR, SCARBOROUGH"
      }
    ]
  },
  {
    "postal": "M1P2Z6",
    "result": [
      {
        "electoralDistricts": [
          {
            "election": null,
            "id": 94,
            "name": "Scarborough Centre"
          }
        ],
        "pollDivisionIds": [
          10141579
        ],
        "postalCode": "M1P2Z6",
        "streetName": "PROGRESS",
        "streetDirectionId": null,
        "streetTypeId": "AVE",
        "placeName": "SCARBOROUGH",
        "streetNameDisplayText": "PROGRESS AVE, SCARBOROUGH"
      }
    ]
  },
  {
    "postal": "M1P4R9",
    "result": []
  },
  {
    "postal": "M1P0W8",
    "result": []
  },
  {
    "postal": "M1P1L4",
    "result": [
      {
        "electoralDistricts": [
          {
            "election": null,
            "id": 94,
            "name": "Scarborough Centre"
          }
        ],
        "pollDivisionIds": [
          10141574
        ],
        "postalCode": "M1P1L4",
        "streetName": "EXFORD",
        "streetDirectionId": null,
        "streetTypeId": "DR",
        "placeName": "SCARBOROUGH",
        "streetNameDisplayText": "EXFORD DR, SCARBOROUGH"
      }
    ]
  },
  {
    "postal": "M1P0C8",
    "result": []
  },
  {
    "postal": "M1P9X7",
    "result": []
  },
  {
    "postal": "M1P4T1",
    "result": [
      {
        "electoralDistricts": [
          {
            "election": null,
            "id": 94,
            "name": "Scarborough Centre"
          }
        ],
        "pollDivisionIds": [
          10141571
        ],
        "postalCode": "M1P4T1",
        "streetName": "ANTRIM",
        "streetDirectionId": null,
        "streetTypeId": "CRES",
        "placeName": "SCARBOROGH",
        "streetNameDisplayText": "ANTRIM CRES, SCARBOROGH"
      },
      {
        "electoralDistricts": [
          {
            "election": null,
            "id": 94,
            "name": "Scarborough Centre"
          }
        ],
        "pollDivisionIds": [
          10141571
        ],
        "postalCode": "M1P4T1",
        "streetName": "ANTRIM",
        "streetDirectionId": null,
        "streetTypeId": "CRES",
        "placeName": "SCARBOROUGH",
        "streetNameDisplayText": "ANTRIM CRES, SCARBOROUGH"
      }
    ]
  },
  {
    "postal": "M1P0M0",
    "result": []
  },
  {
    "postal": "M1P6A2",
    "result": []
  },
  {
    "postal": "M1P9S8",
    "result": []
  },
  {
    "postal": "M1P9T4",
    "result": []
  },
  {
    "postal": "M1P9Y4",
    "result": []
  },
  {
    "postal": "M1P6G5",
    "result": []
  },
  {
    "postal": "M1P6H9",
    "result": []
  },
  {
    "postal": "M1P2P3",
    "result": []
  },
  {
    "postal": "M1P1T6",
    "result": [
      {
        "electoralDistricts": [
          {
            "election": null,
            "id": 94,
            "name": "Scarborough Centre"
          }
        ],
        "pollDivisionIds": [
          10141575
        ],
        "postalCode": "M1P1T6",
        "streetName": "PORTSDOWN",
        "streetDirectionId": null,
        "streetTypeId": "RD",
        "placeName": "SCARBOROUGH",
        "streetNameDisplayText": "PORTSDOWN RD, SCARBOROUGH"
      }
    ]
  },
  {
    "postal": "M1P4P6",
    "result": []
  },
  {
    "postal": "M1P3K1",
    "result": [
      {
        "electoralDistricts": [
          {
            "election": null,
            "id": 94,
            "name": "Scarborough Centre"
          }
        ],
        "pollDivisionIds": [
          10141583
        ],
        "postalCode": "M1P3K1",
        "streetName": "DORCOT",
        "streetDirectionId": null,
        "streetTypeId": "AVE",
        "placeName": "SCARBOROUGH",
        "streetNameDisplayText": "DORCOT AVE, SCARBOROUGH"
      }
    ]
  },
  {
    "postal": "M1P6X4",
    "result": []
  },
  {
    "postal": "M1P4M8",
    "result": []
  },
  {
    "postal": "M1P2Y1",
    "result": []
  },
  {
    "postal": "M1P6M1",
    "result": []
  },
  {
    "postal": "M1P5L8",
    "result": []
  },
  {
    "postal": "M1P3P6",
    "result": [
      {
        "electoralDistricts": [
          {
            "election": null,
            "id": 94,
            "name": "Scarborough Centre"
          }
        ],
        "pollDivisionIds": [
          10141581
        ],
        "postalCode": "M1P3P6",
        "streetName": "OAKLEY",
        "streetDirectionId": null,
        "streetTypeId": "BLVD",
        "placeName": "SCARBOROUGH",
        "streetNameDisplayText": "OAKLEY BLVD, SCARBOROUGH"
      }
    ]
  },
  {
    "postal": "M1P9A5",
    "result": []
  },
  {
    "postal": "M1P7K1",
    "result": []
  },
  {
    "postal": "M1P3J4",
    "result": [
      {
        "electoralDistricts": [
          {
            "election": null,
            "id": 94,
            "name": "Scarborough Centre"
          }
        ],
        "pollDivisionIds": [
          10141583
        ],
        "postalCode": "M1P3J4",
        "streetName": "TREEWOOD",
        "streetDirectionId": null,
        "streetTypeId": "ST",
        "placeName": "SCARBOROUGH",
        "streetNameDisplayText": "TREEWOOD ST, SCARBOROUGH"
      }
    ]
  },
  {
    "postal": "M1P5E7",
    "result": []
  },
  {
    "postal": "M1P3A7",
    "result": []
  },
  {
    "postal": "M1P1B9",
    "result": [
      {
        "electoralDistricts": [
          {
            "election": null,
            "id": 94,
            "name": "Scarborough Centre"
          }
        ],
        "pollDivisionIds": [
          10141576
        ],
        "postalCode": "M1P1B9",
        "streetName": "LEAHANN",
        "streetDirectionId": null,
        "streetTypeId": "DR",
        "placeName": "SCARBOROUGH",
        "streetNameDisplayText": "LEAHANN DR, SCARBOROUGH"
      }
    ]
  },
  {
    "postal": "M1P9E8",
    "result": []
  },
  {
    "postal": "M1P1C9",
    "result": [
      {
        "electoralDistricts": [
          {
            "election": null,
            "id": 94,
            "name": "Scarborough Centre"
          }
        ],
        "pollDivisionIds": [
          10141576
        ],
        "postalCode": "M1P1C9",
        "streetName": "MCGREGOR",
        "streetDirectionId": null,
        "streetTypeId": "RD",
        "placeName": "SCARBOROUGH",
        "streetNameDisplayText": "MCGREGOR RD, SCARBOROUGH"
      }
    ]
  },
  {
    "postal": "M1P3B5",
    "result": [
      {
        "electoralDistricts": [
          {
            "election": null,
            "id": 94,
            "name": "Scarborough Centre"
          }
        ],
        "pollDivisionIds": [
          10141581
        ],
        "postalCode": "M1P3B5",
        "streetName": "MIDWEST",
        "streetDirectionId": null,
        "streetTypeId": "RD",
        "placeName": "SCARBOROUGH",
        "streetNameDisplayText": "MIDWEST RD, SCARBOROUGH"
      }
    ]
  },
  {
    "postal": "M1P8R0",
    "result": []
  },
  {
    "postal": "M1P3P2",
    "result": [
      {
        "electoralDistricts": [
          {
            "election": null,
            "id": 94,
            "name": "Scarborough Centre"
          }
        ],
        "pollDivisionIds": [
          10141583
        ],
        "postalCode": "M1P3P2",
        "streetName": "OAKLEY",
        "streetDirectionId": null,
        "streetTypeId": "BLVD",
        "placeName": "SCARBOROUGH",
        "streetNameDisplayText": "OAKLEY BLVD, SCARBOROUGH"
      }
    ]
  },
  {
    "postal": "M1P5V4",
    "result": []
  },
  {
    "postal": "M1P4H0",
    "result": []
  },
  {
    "postal": "M1P4S7",
    "result": [
      {
        "electoralDistricts": [
          {
            "election": null,
            "id": 94,
            "name": "Scarborough Centre"
          }
        ],
        "pollDivisionIds": [
          10141573
        ],
        "postalCode": "M1P4S7",
        "streetName": "PROGRESS",
        "streetDirectionId": null,
        "streetTypeId": "AVE",
        "placeName": "SCARBOROUGH",
        "streetNameDisplayText": "PROGRESS AVE, SCARBOROUGH"
      }
    ]
  },
  {
    "postal": "M1P6C2",
    "result": []
  },
  {
    "postal": "M1P8W3",
    "result": []
  },
  {
    "postal": "M1P4M5",
    "result": [
      {
        "electoralDistricts": [
          {
            "election": null,
            "id": 94,
            "name": "Scarborough Centre"
          }
        ],
        "pollDivisionIds": [
          10141592
        ],
        "postalCode": "M1P4M5",
        "streetName": "CORA",
        "streetDirectionId": null,
        "streetTypeId": "CRES",
        "placeName": "SCARBOROUGH",
        "streetNameDisplayText": "CORA CRES, SCARBOROUGH"
      }
    ]
  },
  {
    "postal": "M1P5T1",
    "result": []
  },
  {
    "postal": "M1P3B3",
    "result": [
      {
        "electoralDistricts": [
          {
            "election": null,
            "id": 94,
            "name": "Scarborough Centre"
          }
        ],
        "pollDivisionIds": [
          10141583
        ],
        "postalCode": "M1P3B3",
        "streetName": "MIDWEST",
        "streetDirectionId": null,
        "streetTypeId": "RD",
        "placeName": "SCARBOROUGH",
        "streetNameDisplayText": "MIDWEST RD, SCARBOROUGH"
      }
    ]
  },
  {
    "postal": "M1P6C6",
    "result": []
  },
  {
    "postal": "M1P7N8",
    "result": []
  },
  {
    "postal": "M1P2Y3",
    "result": [
      {
        "electoralDistricts": [
          {
            "election": null,
            "id": 94,
            "name": "Scarborough Centre"
          }
        ],
        "pollDivisionIds": [
          10141590
        ],
        "postalCode": "M1P2Y3",
        "streetName": "ELLESMERE",
        "streetDirectionId": null,
        "streetTypeId": "RD",
        "placeName": "SCARBOROUGH",
        "streetNameDisplayText": "ELLESMERE RD, SCARBOROUGH"
      }
    ]
  },
  {
    "postal": "M1P2R6",
    "result": [
      {
        "electoralDistricts": [
          {
            "election": null,
            "id": 94,
            "name": "Scarborough Centre"
          }
        ],
        "pollDivisionIds": [
          10141573
        ],
        "postalCode": "M1P2R6",
        "streetName": "LAWRENCE",
        "streetDirectionId": "E",
        "streetTypeId": "AVE",
        "placeName": "SCARBOROUGH",
        "streetNameDisplayText": "LAWRENCE AVE E, SCARBOROUGH"
      }
    ]
  },
  {
    "postal": "M1P7N3",
    "result": []
  },
  {
    "postal": "M1P8J2",
    "result": []
  },
  {
    "postal": "M1P6A9",
    "result": []
  },
  {
    "postal": "M1P3V2",
    "result": [
      {
        "electoralDistricts": [
          {
            "election": null,
            "id": 94,
            "name": "Scarborough Centre"
          }
        ],
        "pollDivisionIds": [
          10141584
        ],
        "postalCode": "M1P3V2",
        "streetName": "POMEROY",
        "streetDirectionId": null,
        "streetTypeId": "ST",
        "placeName": "SCARBOROUGH",
        "streetNameDisplayText": "POMEROY ST, SCARBOROUGH"
      }
    ]
  },
  {
    "postal": "M1P2N3",
    "result": [
      {
        "electoralDistricts": [
          {
            "election": null,
            "id": 94,
            "name": "Scarborough Centre"
          }
        ],
        "pollDivisionIds": [
          10141571
        ],
        "postalCode": "M1P2N3",
        "streetName": "ANTRIM",
        "streetDirectionId": null,
        "streetTypeId": "CRES",
        "placeName": "SCARBOROUGH",
        "streetNameDisplayText": "ANTRIM CRES, SCARBOROUGH"
      }
    ]
  },
  {
    "postal": "M1P1S5",
    "result": [
      {
        "electoralDistricts": [
          {
            "election": null,
            "id": 94,
            "name": "Scarborough Centre"
          }
        ],
        "pollDivisionIds": [
          10141575
        ],
        "postalCode": "M1P1S5",
        "streetName": "CANLISH",
        "streetDirectionId": null,
        "streetTypeId": "RD",
        "placeName": "SCARBOROUGH",
        "streetNameDisplayText": "CANLISH RD, SCARBOROUGH"
      }
    ]
  },
  {
    "postal": "M1P4T7",
    "result": [
      {
        "electoralDistricts": [
          {
            "election": null,
            "id": 94,
            "name": "Scarborough Centre"
          }
        ],
        "pollDivisionIds": [
          10141571
        ],
        "postalCode": "M1P4T7",
        "streetName": "DUNDALK",
        "streetDirectionId": null,
        "streetTypeId": "DR",
        "placeName": "SCARBOROUGH",
        "streetNameDisplayText": "DUNDALK DR, SCARBOROUGH"
      }
    ]
  },
  {
    "postal": "M1P6Y7",
    "result": []
  },
  {
    "postal": "M1P0W7",
    "result": []
  },
  {
    "postal": "M1P2W9",
    "result": [
      {
        "electoralDistricts": [
          {
            "election": null,
            "id": 94,
            "name": "Scarborough Centre"
          }
        ],
        "pollDivisionIds": [
          10141579
        ],
        "postalCode": "M1P2W9",
        "streetName": "ELLESMERE",
        "streetDirectionId": null,
        "streetTypeId": "RD",
        "placeName": "SCARBOROUGH",
        "streetNameDisplayText": "ELLESMERE RD, SCARBOROUGH"
      }
    ]
  },
  {
    "postal": "M1P8V0",
    "result": []
  },
  {
    "postal": "M1P0H4",
    "result": []
  },
  {
    "postal": "M1P2T1",
    "result": []
  },
  {
    "postal": "M1P1B1",
    "result": [
      {
        "electoralDistricts": [
          {
            "election": null,
            "id": 94,
            "name": "Scarborough Centre"
          }
        ],
        "pollDivisionIds": [
          10141576
        ],
        "postalCode": "M1P1B1",
        "streetName": "FLORA",
        "streetDirectionId": null,
        "streetTypeId": "DR",
        "placeName": "SCARBOROUGH",
        "streetNameDisplayText": "FLORA DR, SCARBOROUGH"
      }
    ]
  },
  {
    "postal": "M1P8B6",
    "result": []
  },
  {
    "postal": "M1P6H1",
    "result": []
  },
  {
    "postal": "M1P8T8",
    "result": []
  },
  {
    "postal": "M1P0T4",
    "result": []
  },
  {
    "postal": "M1P2C4",
    "result": []
  },
  {
    "postal": "M1P8N3",
    "result": []
  },
  {
    "postal": "M1P4L8",
    "result": [
      {
        "electoralDistricts": [
          {
            "election": null,
            "id": 94,
            "name": "Scarborough Centre"
          }
        ],
        "pollDivisionIds": [
          10141592
        ],
        "postalCode": "M1P4L8",
        "streetName": "MADRID",
        "streetDirectionId": null,
        "streetTypeId": "ST",
        "placeName": "SCARBOROUGH",
        "streetNameDisplayText": "MADRID ST, SCARBOROUGH"
      }
    ]
  },
  {
    "postal": "M1P2B5",
    "result": []
  },
  {
    "postal": "M1P3H1",
    "result": [
      {
        "electoralDistricts": [
          {
            "election": null,
            "id": 94,
            "name": "Scarborough Centre"
          }
        ],
        "pollDivisionIds": [
          10141580
        ],
        "postalCode": "M1P3H1",
        "streetName": "BRIMLEY",
        "streetDirectionId": null,
        "streetTypeId": "RD",
        "placeName": "SCARBOROUGH",
        "streetNameDisplayText": "BRIMLEY RD, SCARBOROUGH"
      }
    ]
  },
  {
    "postal": "M1P4Y1",
    "result": [
      {
        "electoralDistricts": [
          {
            "election": null,
            "id": 94,
            "name": "Scarborough Centre"
          }
        ],
        "pollDivisionIds": [
          10141573
        ],
        "postalCode": "M1P4Y1",
        "streetName": "KENNEDY",
        "streetDirectionId": null,
        "streetTypeId": "RD",
        "placeName": "SCARBOROUGH",
        "streetNameDisplayText": "KENNEDY RD, SCARBOROUGH"
      }
    ]
  },
  {
    "postal": "M1P7E2",
    "result": []
  },
  {
    "postal": "M1P2P5",
    "result": [
      {
        "electoralDistricts": [
          {
            "election": null,
            "id": 94,
            "name": "Scarborough Centre"
          }
        ],
        "pollDivisionIds": [
          10141576
        ],
        "postalCode": "M1P2P5",
        "streetName": "LAWRENCE",
        "streetDirectionId": "E",
        "streetTypeId": "AVE",
        "placeName": "SCARBOROUGH",
        "streetNameDisplayText": "LAWRENCE AVE E, SCARBOROUGH"
      }
    ]
  },
  {
    "postal": "M1P8R7",
    "result": []
  },
  {
    "postal": "M1P9P1",
    "result": []
  },
  {
    "postal": "M1P3B8",
    "result": [
      {
        "electoralDistricts": [
          {
            "election": null,
            "id": 94,
            "name": "Scarborough Centre"
          }
        ],
        "pollDivisionIds": [
          10141585,
          10141586
        ],
        "postalCode": "M1P3B8",
        "streetName": "MIDLAND",
        "streetDirectionId": null,
        "streetTypeId": "AVE",
        "placeName": "SCARBOROUGH",
        "streetNameDisplayText": "MIDLAND AVE, SCARBOROUGH"
      }
    ]
  },
  {
    "postal": "M1P3P7",
    "result": [
      {
        "electoralDistricts": [
          {
            "election": null,
            "id": 94,
            "name": "Scarborough Centre"
          }
        ],
        "pollDivisionIds": [
          10141581
        ],
        "postalCode": "M1P3P7",
        "streetName": "OAKLEY",
        "streetDirectionId": null,
        "streetTypeId": "BLVD",
        "placeName": "SCARBOROUGH",
        "streetNameDisplayText": "OAKLEY BLVD, SCARBOROUGH"
      }
    ]
  },
  {
    "postal": "M1P9B2",
    "result": []
  },
  {
    "postal": "M1P6Z3",
    "result": []
  },
  {
    "postal": "M1P4N5",
    "result": []
  },
  {
    "postal": "M1P8T3",
    "result": []
  },
  {
    "postal": "M1P1V2",
    "result": [
      {
        "electoralDistricts": [
          {
            "election": null,
            "id": 94,
            "name": "Scarborough Centre"
          }
        ],
        "pollDivisionIds": [
          10141575
        ],
        "postalCode": "M1P1V2",
        "streetName": "PORTSDOWN",
        "streetDirectionId": null,
        "streetTypeId": "RD",
        "placeName": "SCARBOROUGH",
        "streetNameDisplayText": "PORTSDOWN RD, SCARBOROUGH"
      }
    ]
  },
  {
    "postal": "M1P1Y0",
    "result": []
  },
  {
    "postal": "M1P3G6",
    "result": [
      {
        "electoralDistricts": [
          {
            "election": null,
            "id": 94,
            "name": "Scarborough Centre"
          }
        ],
        "pollDivisionIds": [
          10141580
        ],
        "postalCode": "M1P3G6",
        "streetName": "BRIMLEY",
        "streetDirectionId": null,
        "streetTypeId": "RD",
        "placeName": "SCARBOROUGH",
        "streetNameDisplayText": "BRIMLEY RD, SCARBOROUGH"
      }
    ]
  },
  {
    "postal": "M1P3H7",
    "result": [
      {
        "electoralDistricts": [
          {
            "election": null,
            "id": 94,
            "name": "Scarborough Centre"
          }
        ],
        "pollDivisionIds": [
          10141592
        ],
        "postalCode": "M1P3H7",
        "streetName": "MCCOWAN",
        "streetDirectionId": null,
        "streetTypeId": "RD",
        "placeName": "SCARBOROUGH",
        "streetNameDisplayText": "MCCOWAN RD, SCARBOROUGH"
      }
    ]
  },
  {
    "postal": "M1P7X8",
    "result": []
  },
  {
    "postal": "M1P0C7",
    "result": [
      {
        "electoralDistricts": [
          {
            "election": null,
            "id": 94,
            "name": "Scarborough Centre"
          }
        ],
        "pollDivisionIds": [
          10141574
        ],
        "postalCode": "M1P0C7",
        "streetName": "BIRCHMOUNT",
        "streetDirectionId": null,
        "streetTypeId": "RD",
        "placeName": "SCARBOROUGH",
        "streetNameDisplayText": "BIRCHMOUNT RD, SCARBOROUGH"
      }
    ]
  },
  {
    "postal": "M1P0W9",
    "result": []
  },
  {
    "postal": "M1P8E6",
    "result": []
  },
  {
    "postal": "M1P9Z8",
    "result": []
  },
  {
    "postal": "M1P3P4",
    "result": [
      {
        "electoralDistricts": [
          {
            "election": null,
            "id": 94,
            "name": "Scarborough Centre"
          }
        ],
        "pollDivisionIds": [
          10141581
        ],
        "postalCode": "M1P3P4",
        "streetName": "OAKLEY",
        "streetDirectionId": null,
        "streetTypeId": "BLVD",
        "placeName": "SCARBOROUGH",
        "streetNameDisplayText": "OAKLEY BLVD, SCARBOROUGH"
      }
    ]
  },
  {
    "postal": "M1P6L8",
    "result": []
  },
  {
    "postal": "M1P2R4",
    "result": []
  },
  {
    "postal": "M1P2W1",
    "result": [
      {
        "electoralDistricts": [
          {
            "election": null,
            "id": 94,
            "name": "Scarborough Centre"
          }
        ],
        "pollDivisionIds": [
          10141572
        ],
        "postalCode": "M1P2W1",
        "streetName": "ELLESMERE",
        "streetDirectionId": null,
        "streetTypeId": "RD",
        "placeName": "SCARBOROUGH",
        "streetNameDisplayText": "ELLESMERE RD, SCARBOROUGH"
      }
    ]
  },
  {
    "postal": "M1P9H8",
    "result": []
  },
  {
    "postal": "M1P8X9",
    "result": []
  },
  {
    "postal": "M1P7H4",
    "result": []
  },
  {
    "postal": "M1P3J1",
    "result": [
      {
        "electoralDistricts": [
          {
            "election": null,
            "id": 94,
            "name": "Scarborough Centre"
          }
        ],
        "pollDivisionIds": [
          10141591,
          10141590
        ],
        "postalCode": "M1P3J1",
        "streetName": "MCCOWAN",
        "streetDirectionId": null,
        "streetTypeId": "RD",
        "placeName": "SCARBOROUGH",
        "streetNameDisplayText": "MCCOWAN RD, SCARBOROUGH"
      }
    ]
  },
  {
    "postal": "M1P1P4",
    "result": [
      {
        "electoralDistricts": [
          {
            "election": null,
            "id": 94,
            "name": "Scarborough Centre"
          }
        ],
        "pollDivisionIds": [
          10141575
        ],
        "postalCode": "M1P1P4",
        "streetName": "ELLENDALE",
        "streetDirectionId": null,
        "streetTypeId": "DR",
        "placeName": "SCARBOROUGH",
        "streetNameDisplayText": "ELLENDALE DR, SCARBOROUGH"
      }
    ]
  },
  {
    "postal": "M1P2A3",
    "result": [
      {
        "electoralDistricts": [
          {
            "election": null,
            "id": 94,
            "name": "Scarborough Centre"
          }
        ],
        "pollDivisionIds": [
          10141573
        ],
        "postalCode": "M1P2A3",
        "streetName": "WYE VALLEY",
        "streetDirectionId": null,
        "streetTypeId": "RD",
        "placeName": "SCARBOROUGH",
        "streetNameDisplayText": "WYE VALLEY RD, SCARBOROUGH"
      }
    ]
  },
  {
    "postal": "M1P0Z1",
    "result": []
  },
  {
    "postal": "M1P1C1",
    "result": [
      {
        "electoralDistricts": [
          {
            "election": null,
            "id": 94,
            "name": "Scarborough Centre"
          }
        ],
        "pollDivisionIds": [
          10141576
        ],
        "postalCode": "M1P1C1",
        "streetName": "FLINTRIDGE",
        "streetDirectionId": null,
        "streetTypeId": "RD",
        "placeName": "SCARBOROUGH",
        "streetNameDisplayText": "FLINTRIDGE RD, SCARBOROUGH"
      }
    ]
  },
  {
    "postal": "M1P0H3",
    "result": []
  },
  {
    "postal": "M1P7B0",
    "result": []
  },
  {
    "postal": "M1P5K2",
    "result": []
  },
  {
    "postal": "M1P1E9",
    "result": [
      {
        "electoralDistricts": [
          {
            "election": null,
            "id": 94,
            "name": "Scarborough Centre"
          }
        ],
        "pollDivisionIds": [
          10141576
        ],
        "postalCode": "M1P1E9",
        "streetName": "VALERIE",
        "streetDirectionId": null,
        "streetTypeId": "RD",
        "placeName": "SCARBOROUGH",
        "streetNameDisplayText": "VALERIE RD, SCARBOROUGH"
      }
    ]
  },
  {
    "postal": "M1P9W7",
    "result": []
  },
  {
    "postal": "M1P5W6",
    "result": []
  },
  {
    "postal": "M1P6S6",
    "result": []
  },
  {
    "postal": "M1P2P8",
    "result": [
      {
        "electoralDistricts": [
          {
            "election": null,
            "id": 94,
            "name": "Scarborough Centre"
          }
        ],
        "pollDivisionIds": [
          10141575
        ],
        "postalCode": "M1P2P8",
        "streetName": "LAWRENCE",
        "streetDirectionId": "E",
        "streetTypeId": "AVE",
        "placeName": "SCARBOROUGH",
        "streetNameDisplayText": "LAWRENCE AVE E, SCARBOROUGH"
      }
    ]
  },
  {
    "postal": "M1P4P8",
    "result": [
      {
        "electoralDistricts": [
          {
            "election": null,
            "id": 94,
            "name": "Scarborough Centre"
          }
        ],
        "pollDivisionIds": [
          10141580
        ],
        "postalCode": "M1P4P8",
        "streetName": "MIDLAND",
        "streetDirectionId": null,
        "streetTypeId": "AVE",
        "placeName": "SCARBOROUGH",
        "streetNameDisplayText": "MIDLAND AVE, SCARBOROUGH"
      }
    ]
  },
  {
    "postal": "M1P0V9",
    "result": []
  },
  {
    "postal": "M1P5Y2",
    "result": []
  },
  {
    "postal": "M1P7Z7",
    "result": []
  },
  {
    "postal": "M1P6Y8",
    "result": []
  },
  {
    "postal": "M1P2G7",
    "result": [
      {
        "electoralDistricts": [
          {
            "election": null,
            "id": 94,
            "name": "Scarborough Centre"
          }
        ],
        "pollDivisionIds": [
          10141574
        ],
        "postalCode": "M1P2G7",
        "streetName": "BIRCHMOUNT",
        "streetDirectionId": null,
        "streetTypeId": "RD",
        "placeName": "SCARBOROUGH",
        "streetNameDisplayText": "BIRCHMOUNT RD, SCARBOROUGH"
      }
    ]
  },
  {
    "postal": "M1P8C1",
    "result": []
  },
  {
    "postal": "M1P5C5",
    "result": [
      {
        "electoralDistricts": [
          {
            "election": null,
            "id": 94,
            "name": "Scarborough Centre"
          }
        ],
        "pollDivisionIds": [
          10141620,
          10141617,
          10141556
        ],
        "postalCode": "M1P5C5",
        "streetName": "TOWN CENTRE",
        "streetDirectionId": null,
        "streetTypeId": "CRT",
        "placeName": "SCARBOROUGH",
        "streetNameDisplayText": "TOWN CENTRE CRT, SCARBOROUGH"
      }
    ]
  },
  {
    "postal": "M1P2X8",
    "result": [
      {
        "electoralDistricts": [
          {
            "election": null,
            "id": 94,
            "name": "Scarborough Centre"
          }
        ],
        "pollDivisionIds": [
          10141582
        ],
        "postalCode": "M1P2X8",
        "streetName": "ELLESMERE",
        "streetDirectionId": null,
        "streetTypeId": "RD",
        "placeName": "SCARBOROUGH",
        "streetNameDisplayText": "ELLESMERE RD, SCARBOROUGH"
      }
    ]
  },
  {
    "postal": "M1P1W5",
    "result": [
      {
        "electoralDistricts": [
          {
            "election": null,
            "id": 94,
            "name": "Scarborough Centre"
          }
        ],
        "pollDivisionIds": [
          10141575
        ],
        "postalCode": "M1P1W5",
        "streetName": "DENHAM",
        "streetDirectionId": null,
        "streetTypeId": "RD",
        "placeName": "SCARBOROUGH",
        "streetNameDisplayText": "DENHAM RD, SCARBOROUGH"
      }
    ]
  },
  {
    "postal": "M1P7G0",
    "result": []
  },
  {
    "postal": "M1P8J8",
    "result": []
  },
  {
    "postal": "M1P3Y0",
    "result": []
  },
  {
    "postal": "M1P9T7",
    "result": []
  },
  {
    "postal": "M1P5P4",
    "result": []
  },
  {
    "postal": "M1P4B0",
    "result": []
  },
  {
    "postal": "M1P9N8",
    "result": []
  },
  {
    "postal": "M1P4A7",
    "result": [
      {
        "electoralDistricts": [
          {
            "election": null,
            "id": 94,
            "name": "Scarborough Centre"
          }
        ],
        "pollDivisionIds": [
          10141592
        ],
        "postalCode": "M1P4A7",
        "streetName": "SANCREST",
        "streetDirectionId": null,
        "streetTypeId": "DR",
        "placeName": "SCARBOROUGH",
        "streetNameDisplayText": "SANCREST DR, SCARBOROUGH"
      }
    ]
  },
  {
    "postal": "M1P4H9",
    "result": [
      {
        "electoralDistricts": [
          {
            "election": null,
            "id": 94,
            "name": "Scarborough Centre"
          }
        ],
        "pollDivisionIds": [
          10141590
        ],
        "postalCode": "M1P4H9",
        "streetName": "SARATOGA",
        "streetDirectionId": null,
        "streetTypeId": "DR",
        "placeName": "SCARBOROUGH",
        "streetNameDisplayText": "SARATOGA DR, SCARBOROUGH"
      }
    ]
  },
  {
    "postal": "M1P6X1",
    "result": []
  },
  {
    "postal": "M1P9Y7",
    "result": []
  },
  {
    "postal": "M1P2Y5",
    "result": []
  },
  {
    "postal": "M1P8L7",
    "result": []
  },
  {
    "postal": "M1P2A8",
    "result": [
      {
        "electoralDistricts": [
          {
            "election": null,
            "id": 94,
            "name": "Scarborough Centre"
          }
        ],
        "pollDivisionIds": [
          10141573
        ],
        "postalCode": "M1P2A8",
        "streetName": "WYE VALLEY",
        "streetDirectionId": null,
        "streetTypeId": "RD",
        "placeName": "SCARBOROUGH",
        "streetNameDisplayText": "WYE VALLEY RD, SCARBOROUGH"
      }
    ]
  },
  {
    "postal": "M1P2K9",
    "result": [
      {
        "electoralDistricts": [
          {
            "election": null,
            "id": 94,
            "name": "Scarborough Centre"
          }
        ],
        "pollDivisionIds": [
          10141575
        ],
        "postalCode": "M1P2K9",
        "streetName": "KENNEDY",
        "streetDirectionId": null,
        "streetTypeId": "RD",
        "placeName": "SCARBOROUGH",
        "streetNameDisplayText": "KENNEDY RD, SCARBOROUGH"
      }
    ]
  },
  {
    "postal": "M1P3E5",
    "result": []
  },
  {
    "postal": "M1P8N6",
    "result": []
  },
  {
    "postal": "M1P8J4",
    "result": []
  },
  {
    "postal": "M1P4R7",
    "result": [
      {
        "electoralDistricts": [
          {
            "election": null,
            "id": 94,
            "name": "Scarborough Centre"
          }
        ],
        "pollDivisionIds": [
          10141579
        ],
        "postalCode": "M1P4R7",
        "streetName": "MIDLAND",
        "streetDirectionId": null,
        "streetTypeId": "AVE",
        "placeName": "SCARBOROUGH",
        "streetNameDisplayText": "MIDLAND AVE, SCARBOROUGH"
      }
    ]
  },
  {
    "postal": "M1P9K1",
    "result": []
  },
  {
    "postal": "M1P8E1",
    "result": []
  },
  {
    "postal": "M1P0R1",
    "result": []
  },
  {
    "postal": "M1P4J3",
    "result": [
      {
        "electoralDistricts": [
          {
            "election": null,
            "id": 94,
            "name": "Scarborough Centre"
          }
        ],
        "pollDivisionIds": [
          10141590
        ],
        "postalCode": "M1P4J3",
        "streetName": "WINCREST",
        "streetDirectionId": null,
        "streetTypeId": "DR",
        "placeName": "SCARBOROUGH",
        "streetNameDisplayText": "WINCREST DR, SCARBOROUGH"
      }
    ]
  },
  {
    "postal": "M1P7E7",
    "result": []
  },
  {
    "postal": "M1P0J0",
    "result": []
  },
  {
    "postal": "M1P7R8",
    "result": []
  },
  {
    "postal": "M1P9X0",
    "result": []
  },
  {
    "postal": "M1P7P6",
    "result": []
  },
  {
    "postal": "M1P0R7",
    "result": []
  },
  {
    "postal": "M1P5W1",
    "result": []
  },
  {
    "postal": "M1P0K4",
    "result": []
  },
  {
    "postal": "M1P7N9",
    "result": []
  },
  {
    "postal": "M1P1N0",
    "result": []
  },
  {
    "postal": "M1P6P3",
    "result": []
  },
  {
    "postal": "M1P5A1",
    "result": []
  },
  {
    "postal": "M1P9M9",
    "result": []
  },
  {
    "postal": "M1P7T6",
    "result": []
  },
  {
    "postal": "M1P3X0",
    "result": []
  },
  {
    "postal": "M1P2T0",
    "result": []
  },
  {
    "postal": "M1P5X9",
    "result": []
  },
  {
    "postal": "M1P2R3",
    "result": [
      {
        "electoralDistricts": [
          {
            "election": null,
            "id": 94,
            "name": "Scarborough Centre"
          }
        ],
        "pollDivisionIds": [
          10141575
        ],
        "postalCode": "M1P2R3",
        "streetName": "LAWRENCE",
        "streetDirectionId": "E",
        "streetTypeId": "AVE",
        "placeName": "SCARBOROUGH",
        "streetNameDisplayText": "LAWRENCE AVE E, SCARBOROUGH"
      }
    ]
  },
  {
    "postal": "M1P5N2",
    "result": []
  },
  {
    "postal": "M1P4Y7",
    "result": [
      {
        "electoralDistricts": [
          {
            "election": null,
            "id": 94,
            "name": "Scarborough Centre"
          }
        ],
        "pollDivisionIds": [
          10141590
        ],
        "postalCode": "M1P4Y7",
        "streetName": "TOWN CENTRE",
        "streetDirectionId": null,
        "streetTypeId": "CRT",
        "placeName": "SCARBOROUGH",
        "streetNameDisplayText": "TOWN CENTRE CRT, SCARBOROUGH"
      }
    ]
  },
  {
    "postal": "M1P7M0",
    "result": []
  },
  {
    "postal": "M1P8P3",
    "result": []
  },
  {
    "postal": "M1P3N3",
    "result": [
      {
        "electoralDistricts": [
          {
            "election": null,
            "id": 94,
            "name": "Scarborough Centre"
          }
        ],
        "pollDivisionIds": [
          10141583
        ],
        "postalCode": "M1P3N3",
        "streetName": "MILLBRIDGE",
        "streetDirectionId": null,
        "streetTypeId": "GATE",
        "placeName": "SCARBOROUGH",
        "streetNameDisplayText": "MILLBRIDGE GATE, SCARBOROUGH"
      }
    ]
  },
  {
    "postal": "M1P7S3",
    "result": []
  },
  {
    "postal": "M1P3V9",
    "result": [
      {
        "electoralDistricts": [
          {
            "election": null,
            "id": 94,
            "name": "Scarborough Centre"
          }
        ],
        "pollDivisionIds": [
          10141584
        ],
        "postalCode": "M1P3V9",
        "streetName": "LYON HEIGHTS",
        "streetDirectionId": null,
        "streetTypeId": "RD",
        "placeName": "SCARBOROUGH",
        "streetNameDisplayText": "LYON HEIGHTS RD, SCARBOROUGH"
      }
    ]
  },
  {
    "postal": "M1P9N7",
    "result": []
  },
  {
    "postal": "M1P0G4",
    "result": []
  },
  {
    "postal": "M1P2E2",
    "result": [
      {
        "electoralDistricts": [
          {
            "election": null,
            "id": 94,
            "name": "Scarborough Centre"
          }
        ],
        "pollDivisionIds": [
          10141575
        ],
        "postalCode": "M1P2E2",
        "streetName": "BIRCHMOUNT",
        "streetDirectionId": null,
        "streetTypeId": "RD",
        "placeName": "SCARBOROUGH",
        "streetNameDisplayText": "BIRCHMOUNT RD, SCARBOROUGH"
      }
    ]
  },
  {
    "postal": "M1P7W8",
    "result": []
  },
  {
    "postal": "M1P7M5",
    "result": []
  },
  {
    "postal": "M1P5W8",
    "result": []
  },
  {
    "postal": "M1P5E5",
    "result": [
      {
        "electoralDistricts": [
          {
            "election": null,
            "id": 94,
            "name": "Scarborough Centre"
          }
        ],
        "pollDivisionIds": [
          10141590
        ],
        "postalCode": "M1P5E5",
        "streetName": "BOROUGH",
        "streetDirectionId": null,
        "streetTypeId": "DR",
        "placeName": "SCARBOROUGH",
        "streetNameDisplayText": "BOROUGH DR, SCARBOROUGH"
      }
    ]
  },
  {
    "postal": "M1P1P9",
    "result": [
      {
        "electoralDistricts": [
          {
            "election": null,
            "id": 94,
            "name": "Scarborough Centre"
          }
        ],
        "pollDivisionIds": [
          10141575
        ],
        "postalCode": "M1P1P9",
        "streetName": "VAUXHALL",
        "streetDirectionId": null,
        "streetTypeId": "DR",
        "placeName": "SCARBOROUGH",
        "streetNameDisplayText": "VAUXHALL DR, SCARBOROUGH"
      }
    ]
  },
  {
    "postal": "M1P8V8",
    "result": []
  },
  {
    "postal": "M1P9G8",
    "result": []
  },
  {
    "postal": "M1P8H9",
    "result": []
  },
  {
    "postal": "M1P1Z1",
    "result": [
      {
        "electoralDistricts": [
          {
            "election": null,
            "id": 94,
            "name": "Scarborough Centre"
          }
        ],
        "pollDivisionIds": [
          10141572
        ],
        "postalCode": "M1P1Z1",
        "streetName": "SHROPSHIRE",
        "streetDirectionId": null,
        "streetTypeId": "DR",
        "placeName": "SCARBOROUGH",
        "streetNameDisplayText": "SHROPSHIRE DR, SCARBOROUGH"
      }
    ]
  },
  {
    "postal": "M1P8M3",
    "result": []
  },
  {
    "postal": "M1P5H6",
    "result": [
      {
        "electoralDistricts": [
          {
            "election": null,
            "id": 94,
            "name": "Scarborough Centre"
          }
        ],
        "pollDivisionIds": [
          10141576
        ],
        "postalCode": "M1P5H6",
        "streetName": "BRISBY",
        "streetDirectionId": null,
        "streetTypeId": "MEWS",
        "placeName": "SCARBOROUGH",
        "streetNameDisplayText": "BRISBY MEWS, SCARBOROUGH"
      }
    ]
  },
  {
    "postal": "M1P7W7",
    "result": []
  },
  {
    "postal": "M1P4L0",
    "result": []
  },
  {
    "postal": "M1P2N1",
    "result": [
      {
        "electoralDistricts": [
          {
            "election": null,
            "id": 94,
            "name": "Scarborough Centre"
          }
        ],
        "pollDivisionIds": [
          10141605
        ],
        "postalCode": "M1P2N1",
        "streetName": "GLAMORGAN",
        "streetDirectionId": null,
        "streetTypeId": "AVE",
        "placeName": "SCARBOROUGH",
        "streetNameDisplayText": "GLAMORGAN AVE, SCARBOROUGH"
      }
    ]
  },
  {
    "postal": "M1P2H4",
    "result": [
      {
        "electoralDistricts": [
          {
            "election": null,
            "id": 94,
            "name": "Scarborough Centre"
          }
        ],
        "pollDivisionIds": [
          10141572
        ],
        "postalCode": "M1P2H4",
        "streetName": "BIRCHMOUNT",
        "streetDirectionId": null,
        "streetTypeId": "RD",
        "placeName": "SCARBOROUGH",
        "streetNameDisplayText": "BIRCHMOUNT RD, SCARBOROUGH"
      }
    ]
  },
  {
    "postal": "M1P5C8",
    "result": [
      {
        "electoralDistricts": [
          {
            "election": null,
            "id": 94,
            "name": "Scarborough Centre"
          }
        ],
        "pollDivisionIds": [
          10141606
        ],
        "postalCode": "M1P5C8",
        "streetName": "MONDEO",
        "streetDirectionId": null,
        "streetTypeId": "DR",
        "placeName": "SCARBOROUGH",
        "streetNameDisplayText": "MONDEO DR, SCARBOROUGH"
      }
    ]
  },
  {
    "postal": "M1P8B0",
    "result": []
  },
  {
    "postal": "M1P1T4",
    "result": [
      {
        "electoralDistricts": [
          {
            "election": null,
            "id": 94,
            "name": "Scarborough Centre"
          }
        ],
        "pollDivisionIds": [
          10141574
        ],
        "postalCode": "M1P1T4",
        "streetName": "CANLISH",
        "streetDirectionId": null,
        "streetTypeId": "RD",
        "placeName": "SCARBOROUGH",
        "streetNameDisplayText": "CANLISH RD, SCARBOROUGH"
      }
    ]
  },
  {
    "postal": "M1P7N7",
    "result": []
  },
  {
    "postal": "M1P4L3",
    "result": []
  },
  {
    "postal": "M1P2N2",
    "result": []
  },
  {
    "postal": "M1P4N8",
    "result": [
      {
        "electoralDistricts": [
          {
            "election": null,
            "id": 94,
            "name": "Scarborough Centre"
          }
        ],
        "pollDivisionIds": [
          10141590
        ],
        "postalCode": "M1P4N8",
        "streetName": "BOROUGH",
        "streetDirectionId": null,
        "streetTypeId": "DR",
        "placeName": "SCARBOROUGH",
        "streetNameDisplayText": "BOROUGH DR, SCARBOROUGH"
      }
    ]
  },
  {
    "postal": "M1P3M5",
    "result": [
      {
        "electoralDistricts": [
          {
            "election": null,
            "id": 94,
            "name": "Scarborough Centre"
          }
        ],
        "pollDivisionIds": [
          10141583
        ],
        "postalCode": "M1P3M5",
        "streetName": "BROOKRIDGE",
        "streetDirectionId": null,
        "streetTypeId": "DR",
        "placeName": "SCARBOROUGH",
        "streetNameDisplayText": "BROOKRIDGE DR, SCARBOROUGH"
      }
    ]
  },
  {
    "postal": "M1P6H7",
    "result": []
  },
  {
    "postal": "M1P8Y8",
    "result": []
  },
  {
    "postal": "M1P5R9",
    "result": []
  },
  {
    "postal": "M1P8G3",
    "result": []
  },
  {
    "postal": "M1P4N7",
    "result": [
      {
        "electoralDistricts": [
          {
            "election": null,
            "id": 94,
            "name": "Scarborough Centre"
          }
        ],
        "pollDivisionIds": [
          10141590
        ],
        "postalCode": "M1P4N7",
        "streetName": "BOROUGH",
        "streetDirectionId": null,
        "streetTypeId": "DR",
        "placeName": "SCARBOROUGH",
        "streetNameDisplayText": "BOROUGH DR, SCARBOROUGH"
      }
    ]
  },
  {
    "postal": "M1P0B9",
    "result": [
      {
        "electoralDistricts": [
          {
            "election": null,
            "id": 94,
            "name": "Scarborough Centre"
          }
        ],
        "pollDivisionIds": [
          10141581
        ],
        "postalCode": "M1P0B9",
        "streetName": "DE JONG",
        "streetDirectionId": null,
        "streetTypeId": "ST",
        "placeName": "SCARBOROUGH",
        "streetNameDisplayText": "DE JONG ST, SCARBOROUGH"
      },
      {
        "electoralDistricts": [
          {
            "election": null,
            "id": 94,
            "name": "Scarborough Centre"
          }
        ],
        "pollDivisionIds": [
          10141556,
          10141581
        ],
        "postalCode": "M1P0B9",
        "streetName": "ELLESMERE",
        "streetDirectionId": null,
        "streetTypeId": "RD",
        "placeName": "SCARBOROUGH",
        "streetNameDisplayText": "ELLESMERE RD, SCARBOROUGH"
      }
    ]
  },
  {
    "postal": "M1P9K7",
    "result": []
  },
  {
    "postal": "M1P9K9",
    "result": []
  },
  {
    "postal": "M1P3Z2",
    "result": [
      {
        "electoralDistricts": [
          {
            "election": null,
            "id": 94,
            "name": "Scarborough Centre"
          }
        ],
        "pollDivisionIds": [
          10141592
        ],
        "postalCode": "M1P3Z2",
        "streetName": "BRIMORTON",
        "streetDirectionId": null,
        "streetTypeId": "DR",
        "placeName": "SCARBOROUGH",
        "streetNameDisplayText": "BRIMORTON DR, SCARBOROUGH"
      }
    ]
  },
  {
    "postal": "M1P6W7",
    "result": []
  },
  {
    "postal": "M1P0P1",
    "result": []
  },
  {
    "postal": "M1P3A0",
    "result": []
  },
  {
    "postal": "M1P8L9",
    "result": []
  },
  {
    "postal": "M1P6X0",
    "result": []
  },
  {
    "postal": "M1P3E9",
    "result": [
      {
        "electoralDistricts": [
          {
            "election": null,
            "id": 94,
            "name": "Scarborough Centre"
          }
        ],
        "pollDivisionIds": [
          10141584
        ],
        "postalCode": "M1P3E9",
        "streetName": "BRIMLEY",
        "streetDirectionId": null,
        "streetTypeId": "RD",
        "placeName": "SCARBOROUGH",
        "streetNameDisplayText": "BRIMLEY RD, SCARBOROUGH"
      }
    ]
  },
  {
    "postal": "M1P0S5",
    "result": []
  },
  {
    "postal": "M1P1A2",
    "result": [
      {
        "electoralDistricts": [
          {
            "election": null,
            "id": 94,
            "name": "Scarborough Centre"
          }
        ],
        "pollDivisionIds": [
          10141576
        ],
        "postalCode": "M1P1A2",
        "streetName": "FLORA",
        "streetDirectionId": null,
        "streetTypeId": "DR",
        "placeName": "SCARBOROUGH",
        "streetNameDisplayText": "FLORA DR, SCARBOROUGH"
      }
    ]
  },
  {
    "postal": "M1P5V8",
    "result": []
  },
  {
    "postal": "M1P8C5",
    "result": []
  },
  {
    "postal": "M1P6N0",
    "result": []
  },
  {
    "postal": "M1P9E6",
    "result": []
  },
  {
    "postal": "M1P5J7",
    "result": []
  },
  {
    "postal": "M1P2R2",
    "result": [
      {
        "electoralDistricts": [
          {
            "election": null,
            "id": 94,
            "name": "Scarborough Centre"
          }
        ],
        "pollDivisionIds": [
          10141575
        ],
        "postalCode": "M1P2R2",
        "streetName": "LAWRENCE",
        "streetDirectionId": "E",
        "streetTypeId": "AVE",
        "placeName": "SCARBOROUGH",
        "streetNameDisplayText": "LAWRENCE AVE E, SCARBOROUGH"
      },
      {
        "electoralDistricts": [
          {
            "election": null,
            "id": 28,
            "name": "Etobicoke Centre"
          }
        ],
        "pollDivisionIds": [
          10138082
        ],
        "postalCode": "M1P2R2",
        "streetName": "LAWRENCE",
        "streetDirectionId": "W",
        "streetTypeId": "AVE",
        "placeName": "SCARBOROUGH",
        "streetNameDisplayText": "LAWRENCE AVE W, SCARBOROUGH"
      }
    ]
  },
  {
    "postal": "M1P0P5",
    "result": []
  },
  {
    "postal": "M1P5A7",
    "result": [
      {
        "electoralDistricts": [
          {
            "election": null,
            "id": 94,
            "name": "Scarborough Centre"
          }
        ],
        "pollDivisionIds": [
          10141616
        ],
        "postalCode": "M1P5A7",
        "streetName": "OMNI",
        "streetDirectionId": null,
        "streetTypeId": "DR",
        "placeName": "SCARBOROUGH",
        "streetNameDisplayText": "OMNI DR, SCARBOROUGH"
      }
    ]
  },
  {
    "postal": "M1P1G1",
    "result": [
      {
        "electoralDistricts": [
          {
            "election": null,
            "id": 94,
            "name": "Scarborough Centre"
          }
        ],
        "pollDivisionIds": [
          10141576
        ],
        "postalCode": "M1P1G1",
        "streetName": "VALERIE",
        "streetDirectionId": null,
        "streetTypeId": "RD",
        "placeName": "SCARBOROUGH",
        "streetNameDisplayText": "VALERIE RD, SCARBOROUGH"
      }
    ]
  },
  {
    "postal": "M1P9R6",
    "result": []
  },
  {
    "postal": "M1P4Z9",
    "result": []
  },
  {
    "postal": "M1P1V5",
    "result": [
      {
        "electoralDistricts": [
          {
            "election": null,
            "id": 94,
            "name": "Scarborough Centre"
          }
        ],
        "pollDivisionIds": [
          10141574
        ],
        "postalCode": "M1P1V5",
        "streetName": "PORTSDOWN",
        "streetDirectionId": null,
        "streetTypeId": "RD",
        "placeName": "SCARBOROUGH",
        "streetNameDisplayText": "PORTSDOWN RD, SCARBOROUGH"
      }
    ]
  },
  {
    "postal": "M1P9Y5",
    "result": []
  },
  {
    "postal": "M1P1P2",
    "result": [
      {
        "electoralDistricts": [
          {
            "election": null,
            "id": 94,
            "name": "Scarborough Centre"
          }
        ],
        "pollDivisionIds": [
          10141575
        ],
        "postalCode": "M1P1P2",
        "streetName": "ELLENDALE",
        "streetDirectionId": null,
        "streetTypeId": "DR",
        "placeName": "SCARBOROUGH",
        "streetNameDisplayText": "ELLENDALE DR, SCARBOROUGH"
      }
    ]
  },
  {
    "postal": "M1P5X0",
    "result": []
  },
  {
    "postal": "M1P7B8",
    "result": []
  },
  {
    "postal": "M1P0C6",
    "result": [
      {
        "electoralDistricts": [
          {
            "election": null,
            "id": 94,
            "name": "Scarborough Centre"
          }
        ],
        "pollDivisionIds": [
          10141584
        ],
        "postalCode": "M1P0C6",
        "streetName": "BRIMLEY",
        "streetDirectionId": null,
        "streetTypeId": "RD",
        "placeName": "SCARBOROUGH",
        "streetNameDisplayText": "BRIMLEY RD, SCARBOROUGH"
      }
    ]
  },
  {
    "postal": "M1P6G1",
    "result": []
  },
  {
    "postal": "M1P3K3",
    "result": [
      {
        "electoralDistricts": [
          {
            "election": null,
            "id": 94,
            "name": "Scarborough Centre"
          }
        ],
        "pollDivisionIds": [
          10141583
        ],
        "postalCode": "M1P3K3",
        "streetName": "DORCOT",
        "streetDirectionId": null,
        "streetTypeId": "AVE",
        "placeName": "SCARBOROUGH",
        "streetNameDisplayText": "DORCOT AVE, SCARBOROUGH"
      }
    ]
  },
  {
    "postal": "M1P9R0",
    "result": []
  },
  {
    "postal": "M1P4R8",
    "result": [
      {
        "electoralDistricts": [
          {
            "election": null,
            "id": 94,
            "name": "Scarborough Centre"
          }
        ],
        "pollDivisionIds": [
          10141579
        ],
        "postalCode": "M1P4R8",
        "streetName": "MIDLAND",
        "streetDirectionId": null,
        "streetTypeId": "AVE",
        "placeName": "SCARBOROUGH",
        "streetNameDisplayText": "MIDLAND AVE, SCARBOROUGH"
      }
    ]
  },
  {
    "postal": "M1P5P9",
    "result": []
  },
  {
    "postal": "M1P8N4",
    "result": []
  },
  {
    "postal": "M1P8H4",
    "result": []
  },
  {
    "postal": "M1P4V1",
    "result": [
      {
        "electoralDistricts": [
          {
            "election": null,
            "id": 94,
            "name": "Scarborough Centre"
          }
        ],
        "pollDivisionIds": [
          10141571
        ],
        "postalCode": "M1P4V1",
        "streetName": "DUNDALK",
        "streetDirectionId": null,
        "streetTypeId": "DR",
        "placeName": "SCARBOROUGH",
        "streetNameDisplayText": "DUNDALK DR, SCARBOROUGH"
      }
    ]
  },
  {
    "postal": "M1P1K5",
    "result": [
      {
        "electoralDistricts": [
          {
            "election": null,
            "id": 94,
            "name": "Scarborough Centre"
          }
        ],
        "pollDivisionIds": [
          10141575
        ],
        "postalCode": "M1P1K5",
        "streetName": "KECALA",
        "streetDirectionId": null,
        "streetTypeId": "RD",
        "placeName": "SCARBOROUGH",
        "streetNameDisplayText": "KECALA RD, SCARBOROUGH"
      }
    ]
  },
  {
    "postal": "M1P1Z5",
    "result": [
      {
        "electoralDistricts": [
          {
            "election": null,
            "id": 94,
            "name": "Scarborough Centre"
          }
        ],
        "pollDivisionIds": [
          10141573
        ],
        "postalCode": "M1P1Z5",
        "streetName": "SHROPSHIRE",
        "streetDirectionId": null,
        "streetTypeId": "DR",
        "placeName": "SCARBOROUGH",
        "streetNameDisplayText": "SHROPSHIRE DR, SCARBOROUGH"
      }
    ]
  },
  {
    "postal": "M1P9L9",
    "result": []
  },
  {
    "postal": "M1P5L2",
    "result": []
  },
  {
    "postal": "M1P0M2",
    "result": []
  },
  {
    "postal": "M1P1K8",
    "result": [
      {
        "electoralDistricts": [
          {
            "election": null,
            "id": 94,
            "name": "Scarborough Centre"
          }
        ],
        "pollDivisionIds": [
          10141575
        ],
        "postalCode": "M1P1K8",
        "streetName": "FORBES",
        "streetDirectionId": null,
        "streetTypeId": "RD",
        "placeName": "SCARBOROUGH",
        "streetNameDisplayText": "FORBES RD, SCARBOROUGH"
      }
    ]
  },
  {
    "postal": "M1P3M7",
    "result": [
      {
        "electoralDistricts": [
          {
            "election": null,
            "id": 94,
            "name": "Scarborough Centre"
          }
        ],
        "pollDivisionIds": [
          10141583
        ],
        "postalCode": "M1P3M7",
        "streetName": "MUNSON",
        "streetDirectionId": null,
        "streetTypeId": "CRES",
        "placeName": "SCARBOROUGH",
        "streetNameDisplayText": "MUNSON CRES, SCARBOROUGH"
      }
    ]
  },
  {
    "postal": "M1P1B2",
    "result": [
      {
        "electoralDistricts": [
          {
            "election": null,
            "id": 94,
            "name": "Scarborough Centre"
          }
        ],
        "pollDivisionIds": [
          10141576
        ],
        "postalCode": "M1P1B2",
        "streetName": "FLORA",
        "streetDirectionId": null,
        "streetTypeId": "DR",
        "placeName": "SCARBOROUGH",
        "streetNameDisplayText": "FLORA DR, SCARBOROUGH"
      }
    ]
  },
  {
    "postal": "M1P0H9",
    "result": []
  },
  {
    "postal": "M1P8M4",
    "result": []
  },
  {
    "postal": "M1P2M5",
    "result": []
  },
  {
    "postal": "M1P0T9",
    "result": []
  },
  {
    "postal": "M1P3P1",
    "result": [
      {
        "electoralDistricts": [
          {
            "election": null,
            "id": 94,
            "name": "Scarborough Centre"
          }
        ],
        "pollDivisionIds": [
          10141582
        ],
        "postalCode": "M1P3P1",
        "streetName": "ABBOTTSWOOD",
        "streetDirectionId": null,
        "streetTypeId": "RD",
        "placeName": "SCARBOROUGH",
        "streetNameDisplayText": "ABBOTTSWOOD RD, SCARBOROUGH"
      }
    ]
  },
  {
    "postal": "M1P1R6",
    "result": [
      {
        "electoralDistricts": [
          {
            "election": null,
            "id": 94,
            "name": "Scarborough Centre"
          }
        ],
        "pollDivisionIds": [
          10141574
        ],
        "postalCode": "M1P1R6",
        "streetName": "VAUXHALL",
        "streetDirectionId": null,
        "streetTypeId": "DR",
        "placeName": "SCARBOROUGH",
        "streetNameDisplayText": "VAUXHALL DR, SCARBOROUGH"
      }
    ]
  },
  {
    "postal": "M1P9V5",
    "result": []
  },
  {
    "postal": "M1P9T0",
    "result": []
  },
  {
    "postal": "M1P0A9",
    "result": [
      {
        "electoralDistricts": [
          {
            "election": null,
            "id": 124,
            "name": "MushkegowukJames Bay"
          },
          {
            "election": null,
            "id": 94,
            "name": "Scarborough Centre"
          }
        ],
        "pollDivisionIds": [
          10143073,
          10141620
        ],
        "postalCode": "M1P0A9",
        "streetName": "TOWN CENTRE",
        "streetDirectionId": null,
        "streetTypeId": "CRT",
        "placeName": "SCARBOROUGH",
        "streetNameDisplayText": "TOWN CENTRE CRT, SCARBOROUGH"
      }
    ]
  },
  {
    "postal": "M1P1M3",
    "result": [
      {
        "electoralDistricts": [
          {
            "election": null,
            "id": 94,
            "name": "Scarborough Centre"
          }
        ],
        "pollDivisionIds": [
          10141574
        ],
        "postalCode": "M1P1M3",
        "streetName": "EXFORD",
        "streetDirectionId": null,
        "streetTypeId": "DR",
        "placeName": "SCARBOROUGH",
        "streetNameDisplayText": "EXFORD DR, SCARBOROUGH"
      }
    ]
  },
  {
    "postal": "M1P1W8",
    "result": [
      {
        "electoralDistricts": [
          {
            "election": null,
            "id": 94,
            "name": "Scarborough Centre"
          }
        ],
        "pollDivisionIds": [
          10141572
        ],
        "postalCode": "M1P1W8",
        "streetName": "ARBUTUS",
        "streetDirectionId": null,
        "streetTypeId": "CRES",
        "placeName": "SCARBOROUGH",
        "streetNameDisplayText": "ARBUTUS CRES, SCARBOROUGH"
      }
    ]
  },
  {
    "postal": "M1P9J1",
    "result": []
  },
  {
    "postal": "M1P8N5",
    "result": []
  },
  {
    "postal": "M1P5X1",
    "result": []
  },
  {
    "postal": "M1P6S2",
    "result": []
  },
  {
    "postal": "M1P2A2",
    "result": [
      {
        "electoralDistricts": [
          {
            "election": null,
            "id": 94,
            "name": "Scarborough Centre"
          }
        ],
        "pollDivisionIds": [
          10141573
        ],
        "postalCode": "M1P2A2",
        "streetName": "GILROY",
        "streetDirectionId": null,
        "streetTypeId": "DR",
        "placeName": "SCARBOROUGH",
        "streetNameDisplayText": "GILROY DR, SCARBOROUGH"
      }
    ]
  },
  {
    "postal": "M1P6A6",
    "result": []
  },
  {
    "postal": "M1P0S3",
    "result": []
  },
  {
    "postal": "M1P3E7",
    "result": [
      {
        "electoralDistricts": [
          {
            "election": null,
            "id": 94,
            "name": "Scarborough Centre"
          }
        ],
        "pollDivisionIds": [
          10141579
        ],
        "postalCode": "M1P3E7",
        "streetName": "MIDLAND",
        "streetDirectionId": null,
        "streetTypeId": "AVE",
        "placeName": "SCARBOROUGH",
        "streetNameDisplayText": "MIDLAND AVE, SCARBOROUGH"
      }
    ]
  },
  {
    "postal": "M1P5R7",
    "result": []
  },
  {
    "postal": "M1P3R6",
    "result": [
      {
        "electoralDistricts": [
          {
            "election": null,
            "id": 94,
            "name": "Scarborough Centre"
          }
        ],
        "pollDivisionIds": [
          10141584
        ],
        "postalCode": "M1P3R6",
        "streetName": "BIRKDALE",
        "streetDirectionId": null,
        "streetTypeId": "RD",
        "placeName": "SCARBOROUGH",
        "streetNameDisplayText": "BIRKDALE RD, SCARBOROUGH"
      }
    ]
  },
  {
    "postal": "M1P6K4",
    "result": []
  },
  {
    "postal": "M1P2W5",
    "result": [
      {
        "electoralDistricts": [
          {
            "election": null,
            "id": 94,
            "name": "Scarborough Centre"
          }
        ],
        "pollDivisionIds": [
          10141573
        ],
        "postalCode": "M1P2W5",
        "streetName": "ELLESMERE",
        "streetDirectionId": null,
        "streetTypeId": "RD",
        "placeName": "SCARBOROUGH",
        "streetNameDisplayText": "ELLESMERE RD, SCARBOROUGH"
      }
    ]
  },
  {
    "postal": "M1P8W4",
    "result": []
  },
  {
    "postal": "M1P9C2",
    "result": []
  },
  {
    "postal": "M1P2C0",
    "result": []
  },
  {
    "postal": "M1P0E1",
    "result": [
      {
        "electoralDistricts": [
          {
            "election": null,
            "id": 94,
            "name": "Scarborough Centre"
          }
        ],
        "pollDivisionIds": [
          10141583
        ],
        "postalCode": "M1P0E1",
        "streetName": "BROCKLEY",
        "streetDirectionId": null,
        "streetTypeId": "DR",
        "placeName": "SCARBOROUGH",
        "streetNameDisplayText": "BROCKLEY DR, SCARBOROUGH"
      }
    ]
  },
  {
    "postal": "M1P1K9",
    "result": [
      {
        "electoralDistricts": [
          {
            "election": null,
            "id": 94,
            "name": "Scarborough Centre"
          }
        ],
        "pollDivisionIds": [
          10141575
        ],
        "postalCode": "M1P1K9",
        "streetName": "FORBES",
        "streetDirectionId": null,
        "streetTypeId": "RD",
        "placeName": "SCARBOROUGH",
        "streetNameDisplayText": "FORBES RD, SCARBOROUGH"
      }
    ]
  },
  {
    "postal": "M1P1G7",
    "result": [
      {
        "electoralDistricts": [
          {
            "election": null,
            "id": 94,
            "name": "Scarborough Centre"
          }
        ],
        "pollDivisionIds": [
          10141575
        ],
        "postalCode": "M1P1G7",
        "streetName": "BEACON",
        "streetDirectionId": null,
        "streetTypeId": "RD",
        "placeName": "SCARBOROUGH",
        "streetNameDisplayText": "BEACON RD, SCARBOROUGH"
      }
    ]
  },
  {
    "postal": "M1P4E9",
    "result": [
      {
        "electoralDistricts": [
          {
            "election": null,
            "id": 94,
            "name": "Scarborough Centre"
          }
        ],
        "pollDivisionIds": [
          10141592
        ],
        "postalCode": "M1P4E9",
        "streetName": "MELDAZY",
        "streetDirectionId": null,
        "streetTypeId": "DR",
        "placeName": "SCARBOROUGH",
        "streetNameDisplayText": "MELDAZY DR, SCARBOROUGH"
      }
    ]
  },
  {
    "postal": "M1P9P0",
    "result": []
  },
  {
    "postal": "M1P5H3",
    "result": [
      {
        "electoralDistricts": [
          {
            "election": null,
            "id": 94,
            "name": "Scarborough Centre"
          }
        ],
        "pollDivisionIds": [
          10141576
        ],
        "postalCode": "M1P5H3",
        "streetName": "KIRIAKOU",
        "streetDirectionId": null,
        "streetTypeId": "ST",
        "placeName": "SCARBOROUGH",
        "streetNameDisplayText": "KIRIAKOU ST, SCARBOROUGH"
      }
    ]
  },
  {
    "postal": "M1P9X6",
    "result": []
  },
  {
    "postal": "M1P5N7",
    "result": []
  },
  {
    "postal": "M1P5A6",
    "result": [
      {
        "electoralDistricts": [
          {
            "election": null,
            "id": 94,
            "name": "Scarborough Centre"
          }
        ],
        "pollDivisionIds": [
          10141616
        ],
        "postalCode": "M1P5A6",
        "streetName": "OMNI",
        "streetDirectionId": null,
        "streetTypeId": "DR",
        "placeName": "SCARBOROUGH",
        "streetNameDisplayText": "OMNI DR, SCARBOROUGH"
      }
    ]
  },
  {
    "postal": "M1P4M0",
    "result": []
  },
  {
    "postal": "M1P3V6",
    "result": [
      {
        "electoralDistricts": [
          {
            "election": null,
            "id": 94,
            "name": "Scarborough Centre"
          }
        ],
        "pollDivisionIds": [
          10141584
        ],
        "postalCode": "M1P3V6",
        "streetName": "LYON HEIGHTS",
        "streetDirectionId": null,
        "streetTypeId": "RD",
        "placeName": "SCARBOROUGH",
        "streetNameDisplayText": "LYON HEIGHTS RD, SCARBOROUGH"
      }
    ]
  },
  {
    "postal": "M1P1L7",
    "result": [
      {
        "electoralDistricts": [
          {
            "election": null,
            "id": 94,
            "name": "Scarborough Centre"
          }
        ],
        "pollDivisionIds": [
          10141575
        ],
        "postalCode": "M1P1L7",
        "streetName": "EXFORD",
        "streetDirectionId": null,
        "streetTypeId": "DR",
        "placeName": "SCARBOROUGH",
        "streetNameDisplayText": "EXFORD DR, SCARBOROUGH"
      }
    ]
  },
  {
    "postal": "M1P2P9",
    "result": [
      {
        "electoralDistricts": [
          {
            "election": null,
            "id": 94,
            "name": "Scarborough Centre"
          }
        ],
        "pollDivisionIds": [
          10141575
        ],
        "postalCode": "M1P2P9",
        "streetName": "LAWRENCE",
        "streetDirectionId": "E",
        "streetTypeId": "AVE",
        "placeName": "SCARBOROUGH",
        "streetNameDisplayText": "LAWRENCE AVE E, SCARBOROUGH"
      }
    ]
  },
  {
    "postal": "M1P5T4",
    "result": []
  },
  {
    "postal": "M1P5Z1",
    "result": []
  },
  {
    "postal": "M1P2X0",
    "result": []
  },
  {
    "postal": "M1P6Z2",
    "result": []
  },
  {
    "postal": "M1P0E0",
    "result": []
  },
  {
    "postal": "M1P3Z5",
    "result": [
      {
        "electoralDistricts": [
          {
            "election": null,
            "id": 94,
            "name": "Scarborough Centre"
          }
        ],
        "pollDivisionIds": [
          10141591
        ],
        "postalCode": "M1P3Z5",
        "streetName": "BRIMORTON",
        "streetDirectionId": null,
        "streetTypeId": "DR",
        "placeName": "SCARBOROUGH",
        "streetNameDisplayText": "BRIMORTON DR, SCARBOROUGH"
      }
    ]
  },
  {
    "postal": "M1P8H3",
    "result": []
  },
  {
    "postal": "M1P7S6",
    "result": []
  },
  {
    "postal": "M1P4C1",
    "result": [
      {
        "electoralDistricts": [
          {
            "election": null,
            "id": 94,
            "name": "Scarborough Centre"
          }
        ],
        "pollDivisionIds": [
          10141592
        ],
        "postalCode": "M1P4C1",
        "streetName": "AMBERDALE",
        "streetDirectionId": null,
        "streetTypeId": "DR",
        "placeName": "SCARBOROUGH",
        "streetNameDisplayText": "AMBERDALE DR, SCARBOROUGH"
      },
      {
        "electoralDistricts": [
          {
            "election": null,
            "id": 94,
            "name": "Scarborough Centre"
          }
        ],
        "pollDivisionIds": [
          10141592
        ],
        "postalCode": "M1P4C1",
        "streetName": "AMBERLEY",
        "streetDirectionId": null,
        "streetTypeId": "DR",
        "placeName": "SCARBOROUGH",
        "streetNameDisplayText": "AMBERLEY DR, SCARBOROUGH"
      }
    ]
  },
  {
    "postal": "M1P3K2",
    "result": [
      {
        "electoralDistricts": [
          {
            "election": null,
            "id": 94,
            "name": "Scarborough Centre"
          }
        ],
        "pollDivisionIds": [
          10141583
        ],
        "postalCode": "M1P3K2",
        "streetName": "DORCOT",
        "streetDirectionId": null,
        "streetTypeId": "AVE",
        "placeName": "SCARBOROUGH",
        "streetNameDisplayText": "DORCOT AVE, SCARBOROUGH"
      }
    ]
  },
  {
    "postal": "M1P1Y5",
    "result": [
      {
        "electoralDistricts": [
          {
            "election": null,
            "id": 94,
            "name": "Scarborough Centre"
          }
        ],
        "pollDivisionIds": [
          10141572
        ],
        "postalCode": "M1P1Y5",
        "streetName": "GLADESIDE",
        "streetDirectionId": null,
        "streetTypeId": "RD",
        "placeName": "SCARBOROUGH",
        "streetNameDisplayText": "GLADESIDE RD, SCARBOROUGH"
      }
    ]
  },
  {
    "postal": "M1P6P6",
    "result": []
  },
  {
    "postal": "M1P3N9",
    "result": [
      {
        "electoralDistricts": [
          {
            "election": null,
            "id": 94,
            "name": "Scarborough Centre"
          }
        ],
        "pollDivisionIds": [
          10141582
        ],
        "postalCode": "M1P3N9",
        "streetName": "ABBOTTSWOOD",
        "streetDirectionId": null,
        "streetTypeId": "RD",
        "placeName": "SCARBOROUGH",
        "streetNameDisplayText": "ABBOTTSWOOD RD, SCARBOROUGH"
      }
    ]
  },
  {
    "postal": "M1P3W2",
    "result": [
      {
        "electoralDistricts": [
          {
            "election": null,
            "id": 94,
            "name": "Scarborough Centre"
          }
        ],
        "pollDivisionIds": [
          10141584
        ],
        "postalCode": "M1P3W2",
        "streetName": "STEPHENFRANK",
        "streetDirectionId": null,
        "streetTypeId": "RD",
        "placeName": "SCARBOROUGH",
        "streetNameDisplayText": "STEPHENFRANK RD, SCARBOROUGH"
      }
    ]
  },
  {
    "postal": "M1P6H8",
    "result": []
  },
  {
    "postal": "M1P9T3",
    "result": []
  },
  {
    "postal": "M1P5L9",
    "result": []
  },
  {
    "postal": "M1P7X7",
    "result": []
  },
  {
    "postal": "M1P3J5",
    "result": [
      {
        "electoralDistricts": [
          {
            "election": null,
            "id": 94,
            "name": "Scarborough Centre"
          }
        ],
        "pollDivisionIds": [
          10141583
        ],
        "postalCode": "M1P3J5",
        "streetName": "TREEWOOD",
        "streetDirectionId": null,
        "streetTypeId": "ST",
        "placeName": "SCARBOROUGH",
        "streetNameDisplayText": "TREEWOOD ST, SCARBOROUGH"
      }
    ]
  },
  {
    "postal": "M1P4J5",
    "result": [
      {
        "electoralDistricts": [
          {
            "election": null,
            "id": 94,
            "name": "Scarborough Centre"
          }
        ],
        "pollDivisionIds": [
          10141590
        ],
        "postalCode": "M1P4J5",
        "streetName": "ASPENDALE",
        "streetDirectionId": null,
        "streetTypeId": "DR",
        "placeName": "SCARBOROUGH",
        "streetNameDisplayText": "ASPENDALE DR, SCARBOROUGH"
      }
    ]
  },
  {
    "postal": "M1P6J2",
    "result": []
  },
  {
    "postal": "M1P5V6",
    "result": []
  },
  {
    "postal": "M1P3N2",
    "result": [
      {
        "electoralDistricts": [
          {
            "election": null,
            "id": 94,
            "name": "Scarborough Centre"
          }
        ],
        "pollDivisionIds": [
          10141583
        ],
        "postalCode": "M1P3N2",
        "streetName": "ROSSWOOD",
        "streetDirectionId": null,
        "streetTypeId": "CRES",
        "placeName": "SCARBOROUGH",
        "streetNameDisplayText": "ROSSWOOD CRES, SCARBOROUGH"
      }
    ]
  },
  {
    "postal": "M1P3B1",
    "result": []
  },
  {
    "postal": "M1P8B5",
    "result": []
  },
  {
    "postal": "M1P0K1",
    "result": []
  },
  {
    "postal": "M1P7M7",
    "result": []
  },
  {
    "postal": "M1P2M2",
    "result": []
  },
  {
    "postal": "M1P9N3",
    "result": []
  },
  {
    "postal": "M1P4Y8",
    "result": [
      {
        "electoralDistricts": [
          {
            "election": null,
            "id": 94,
            "name": "Scarborough Centre"
          }
        ],
        "pollDivisionIds": [
          10141571
        ],
        "postalCode": "M1P4Y8",
        "streetName": "ANTRIM",
        "streetDirectionId": null,
        "streetTypeId": "CRES",
        "placeName": "SCARBOROUGH",
        "streetNameDisplayText": "ANTRIM CRES, SCARBOROUGH"
      }
    ]
  },
  {
    "postal": "M1P3V7",
    "result": [
      {
        "electoralDistricts": [
          {
            "election": null,
            "id": 94,
            "name": "Scarborough Centre"
          }
        ],
        "pollDivisionIds": [
          10141584
        ],
        "postalCode": "M1P3V7",
        "streetName": "LYON HEIGHTS",
        "streetDirectionId": null,
        "streetTypeId": "RD",
        "placeName": "SCARBOROUGH",
        "streetNameDisplayText": "LYON HEIGHTS RD, SCARBOROUGH"
      }
    ]
  },
  {
    "postal": "M1P8Z1",
    "result": []
  },
  {
    "postal": "M1P7B3",
    "result": []
  },
  {
    "postal": "M1P3A8",
    "result": []
  },
  {
    "postal": "M1P7V5",
    "result": []
  },
  {
    "postal": "M1P2T2",
    "result": []
  },
  {
    "postal": "M1P6L3",
    "result": []
  },
  {
    "postal": "M1P0L2",
    "result": []
  },
  {
    "postal": "M1P5Y8",
    "result": []
  },
  {
    "postal": "M1P0B8",
    "result": [
      {
        "electoralDistricts": [
          {
            "election": null,
            "id": 94,
            "name": "Scarborough Centre"
          }
        ],
        "pollDivisionIds": [
          10141572
        ],
        "postalCode": "M1P0B8",
        "streetName": "BIRCHMOUNT",
        "streetDirectionId": null,
        "streetTypeId": "RD",
        "placeName": "SCARBOROUGH",
        "streetNameDisplayText": "BIRCHMOUNT RD, SCARBOROUGH"
      }
    ]
  },
  {
    "postal": "M1P6R5",
    "result": []
  },
  {
    "postal": "M1P8W6",
    "result": []
  },
  {
    "postal": "M1P8G6",
    "result": []
  },
  {
    "postal": "M1P6X3",
    "result": []
  },
  {
    "postal": "M1P7R7",
    "result": []
  },
  {
    "postal": "M1P4B6",
    "result": [
      {
        "electoralDistricts": [
          {
            "election": null,
            "id": 94,
            "name": "Scarborough Centre"
          }
        ],
        "pollDivisionIds": [
          10141592
        ],
        "postalCode": "M1P4B6",
        "streetName": "JACKMUIR",
        "streetDirectionId": null,
        "streetTypeId": "CRES",
        "placeName": "SCARBOROUGH",
        "streetNameDisplayText": "JACKMUIR CRES, SCARBOROUGH"
      }
    ]
  },
  {
    "postal": "M1P3P9",
    "result": [
      {
        "electoralDistricts": [
          {
            "election": null,
            "id": 94,
            "name": "Scarborough Centre"
          }
        ],
        "pollDivisionIds": [
          10141581
        ],
        "postalCode": "M1P3P9",
        "streetName": "CANADINE",
        "streetDirectionId": null,
        "streetTypeId": "RD",
        "placeName": "SCARBOROUGH",
        "streetNameDisplayText": "CANADINE RD, SCARBOROUGH"
      }
    ]
  },
  {
    "postal": "M1P2T3",
    "result": [
      {
        "electoralDistricts": [
          {
            "election": null,
            "id": 94,
            "name": "Scarborough Centre"
          }
        ],
        "pollDivisionIds": [
          10141595
        ],
        "postalCode": "M1P2T3",
        "streetName": "LAWRENCE",
        "streetDirectionId": "E",
        "streetTypeId": "AVE",
        "placeName": "SCARBOROUGH",
        "streetNameDisplayText": "LAWRENCE AVE E, SCARBOROUGH"
      }
    ]
  },
  {
    "postal": "M1P1M4",
    "result": [
      {
        "electoralDistricts": [
          {
            "election": null,
            "id": 94,
            "name": "Scarborough Centre"
          }
        ],
        "pollDivisionIds": [
          10141573
        ],
        "postalCode": "M1P1M4",
        "streetName": "EXFORD",
        "streetDirectionId": null,
        "streetTypeId": "DR",
        "placeName": "SCARBOROUGH",
        "streetNameDisplayText": "EXFORD DR, SCARBOROUGH"
      }
    ]
  },
  {
    "postal": "M1P0H1",
    "result": []
  },
  {
    "postal": "M1P9W3",
    "result": []
  },
  {
    "postal": "M1P6P1",
    "result": []
  },
  {
    "postal": "M1P7G2",
    "result": []
  },
  {
    "postal": "M1P4J9",
    "result": [
      {
        "electoralDistricts": [
          {
            "election": null,
            "id": 94,
            "name": "Scarborough Centre"
          }
        ],
        "pollDivisionIds": [
          10141591
        ],
        "postalCode": "M1P4J9",
        "streetName": "PACKARD",
        "streetDirectionId": null,
        "streetTypeId": "BLVD",
        "placeName": "SCARBOROUGH",
        "streetNameDisplayText": "PACKARD BLVD, SCARBOROUGH"
      }
    ]
  },
  {
    "postal": "M1P9E4",
    "result": []
  },
  {
    "postal": "M1P8H0",
    "result": []
  },
  {
    "postal": "M1P4M7",
    "result": [
      {
        "electoralDistricts": [
          {
            "election": null,
            "id": 94,
            "name": "Scarborough Centre"
          }
        ],
        "pollDivisionIds": [
          10141592
        ],
        "postalCode": "M1P4M7",
        "streetName": "DOERR",
        "streetDirectionId": null,
        "streetTypeId": "RD",
        "placeName": "SCARBOROUGH",
        "streetNameDisplayText": "DOERR RD, SCARBOROUGH"
      }
    ]
  },
  {
    "postal": "M1P2G9",
    "result": [
      {
        "electoralDistricts": [
          {
            "election": null,
            "id": 94,
            "name": "Scarborough Centre"
          }
        ],
        "pollDivisionIds": [
          10141574
        ],
        "postalCode": "M1P2G9",
        "streetName": "BIRCHMOUNT",
        "streetDirectionId": null,
        "streetTypeId": "RD",
        "placeName": "SCARBOROUGH",
        "streetNameDisplayText": "BIRCHMOUNT RD, SCARBOROUGH"
      }
    ]
  },
  {
    "postal": "M1P8T2",
    "result": []
  },
  {
    "postal": "M1P7G7",
    "result": []
  },
  {
    "postal": "M1P4Z3",
    "result": [
      {
        "electoralDistricts": [
          {
            "election": null,
            "id": 94,
            "name": "Scarborough Centre"
          },
          {
            "election": null,
            "id": 22,
            "name": "Don Valley West"
          }
        ],
        "pollDivisionIds": [
          10141608,
          10141575,
          10137743
        ],
        "postalCode": "M1P4Z3",
        "streetName": "LAWRENCE",
        "streetDirectionId": "E",
        "streetTypeId": "AVE",
        "placeName": "SCARBOROUGH",
        "streetNameDisplayText": "LAWRENCE AVE E, SCARBOROUGH"
      }
    ]
  },
  {
    "postal": "M1P5B3",
    "result": []
  },
  {
    "postal": "M1P1S7",
    "result": [
      {
        "electoralDistricts": [
          {
            "election": null,
            "id": 94,
            "name": "Scarborough Centre"
          }
        ],
        "pollDivisionIds": [
          10141575
        ],
        "postalCode": "M1P1S7",
        "streetName": "CANLISH",
        "streetDirectionId": null,
        "streetTypeId": "RD",
        "placeName": "SCARBOROUGH",
        "streetNameDisplayText": "CANLISH RD, SCARBOROUGH"
      }
    ]
  },
  {
    "postal": "M1P2N7",
    "result": [
      {
        "electoralDistricts": [
          {
            "election": null,
            "id": 94,
            "name": "Scarborough Centre"
          }
        ],
        "pollDivisionIds": [
          10141573
        ],
        "postalCode": "M1P2N7",
        "streetName": "NANTUCKET",
        "streetDirectionId": null,
        "streetTypeId": "BLVD",
        "placeName": "SCARBOROUGH",
        "streetNameDisplayText": "NANTUCKET BLVD, SCARBOROUGH"
      }
    ]
  },
  {
    "postal": "M1P0H8",
    "result": []
  },
  {
    "postal": "M1P7Z4",
    "result": []
  },
  {
    "postal": "M1P7B1",
    "result": []
  },
  {
    "postal": "M1P7P8",
    "result": []
  },
  {
    "postal": "M1P7N0",
    "result": []
  },
  {
    "postal": "M1P3Y5",
    "result": [
      {
        "electoralDistricts": [
          {
            "election": null,
            "id": 94,
            "name": "Scarborough Centre"
          }
        ],
        "pollDivisionIds": [
          10141580
        ],
        "postalCode": "M1P3Y5",
        "streetName": "APPLEFIELD",
        "streetDirectionId": null,
        "streetTypeId": "DR",
        "placeName": "SCARBOROUGH",
        "streetNameDisplayText": "APPLEFIELD DR, SCARBOROUGH"
      }
    ]
  },
  {
    "postal": "M1P6K1",
    "result": []
  },
  {
    "postal": "M1P9X5",
    "result": []
  },
  {
    "postal": "M1P7S5",
    "result": []
  },
  {
    "postal": "M1P0A4",
    "result": [
      {
        "electoralDistricts": [
          {
            "election": null,
            "id": 94,
            "name": "Scarborough Centre"
          }
        ],
        "pollDivisionIds": [
          10141583
        ],
        "postalCode": "M1P0A4",
        "streetName": "ARCHIBALD",
        "streetDirectionId": null,
        "streetTypeId": "MEWS",
        "placeName": "SCARBOROUGH",
        "streetNameDisplayText": "ARCHIBALD MEWS, SCARBOROUGH"
      }
    ]
  },
  {
    "postal": "M1P4T5",
    "result": []
  },
  {
    "postal": "M1P5K1",
    "result": []
  },
  {
    "postal": "M1P0Z9",
    "result": []
  },
  {
    "postal": "M1P7T2",
    "result": []
  },
  {
    "postal": "M1P1L5",
    "result": [
      {
        "electoralDistricts": [
          {
            "election": null,
            "id": 94,
            "name": "Scarborough Centre"
          }
        ],
        "pollDivisionIds": [
          10141575
        ],
        "postalCode": "M1P1L5",
        "streetName": "EXFORD",
        "streetDirectionId": null,
        "streetTypeId": "DR",
        "placeName": "SCARBOROUGH",
        "streetNameDisplayText": "EXFORD DR, SCARBOROUGH"
      }
    ]
  },
  {
    "postal": "M1P3N5",
    "result": [
      {
        "electoralDistricts": [
          {
            "election": null,
            "id": 94,
            "name": "Scarborough Centre"
          }
        ],
        "pollDivisionIds": [
          10141581
        ],
        "postalCode": "M1P3N5",
        "streetName": "DOGWOOD",
        "streetDirectionId": null,
        "streetTypeId": "CRES",
        "placeName": "SCARBOROUGH",
        "streetNameDisplayText": "DOGWOOD CRES, SCARBOROUGH"
      }
    ]
  },
  {
    "postal": "M1P6H4",
    "result": []
  },
  {
    "postal": "M1P5A5",
    "result": [
      {
        "electoralDistricts": [
          {
            "election": null,
            "id": 94,
            "name": "Scarborough Centre"
          }
        ],
        "pollDivisionIds": [
          10141616
        ],
        "postalCode": "M1P5A5",
        "streetName": "OMNI",
        "streetDirectionId": null,
        "streetTypeId": "DR",
        "placeName": "SCARBOROUGH",
        "streetNameDisplayText": "OMNI DR, SCARBOROUGH"
      }
    ]
  },
  {
    "postal": "M1P3R9",
    "result": [
      {
        "electoralDistricts": [
          {
            "election": null,
            "id": 94,
            "name": "Scarborough Centre"
          }
        ],
        "pollDivisionIds": [
          10141582
        ],
        "postalCode": "M1P3R9",
        "streetName": "BIRKDALE",
        "streetDirectionId": null,
        "streetTypeId": "RD",
        "placeName": "SCARBOROUGH",
        "streetNameDisplayText": "BIRKDALE RD, SCARBOROUGH"
      }
    ]
  },
  {
    "postal": "M1P7L8",
    "result": []
  },
  {
    "postal": "M1P6T6",
    "result": []
  },
  {
    "postal": "M1P7Y7",
    "result": []
  },
  {
    "postal": "M1P3M8",
    "result": [
      {
        "electoralDistricts": [
          {
            "election": null,
            "id": 94,
            "name": "Scarborough Centre"
          }
        ],
        "pollDivisionIds": [
          10141584,
          10141583
        ],
        "postalCode": "M1P3M8",
        "streetName": "MUNSON",
        "streetDirectionId": null,
        "streetTypeId": "CRES",
        "placeName": "SCARBOROUGH",
        "streetNameDisplayText": "MUNSON CRES, SCARBOROUGH"
      }
    ]
  },
  {
    "postal": "M1P2E0",
    "result": []
  },
  {
    "postal": "M1P4B5",
    "result": [
      {
        "electoralDistricts": [
          {
            "election": null,
            "id": 94,
            "name": "Scarborough Centre"
          }
        ],
        "pollDivisionIds": [
          10141592
        ],
        "postalCode": "M1P4B5",
        "streetName": "JACKMUIR",
        "streetDirectionId": null,
        "streetTypeId": "CRES",
        "placeName": "SCARBOROUGH",
        "streetNameDisplayText": "JACKMUIR CRES, SCARBOROUGH"
      }
    ]
  },
  {
    "postal": "M1P1J3",
    "result": [
      {
        "electoralDistricts": [
          {
            "election": null,
            "id": 94,
            "name": "Scarborough Centre"
          }
        ],
        "pollDivisionIds": [
          10141575
        ],
        "postalCode": "M1P1J3",
        "streetName": "MERRYFIELD",
        "streetDirectionId": null,
        "streetTypeId": "DR",
        "placeName": "SCARBOROUGH",
        "streetNameDisplayText": "MERRYFIELD DR, SCARBOROUGH"
      }
    ]
  },
  {
    "postal": "M1P5S6",
    "result": []
  },
  {
    "postal": "M1P8P7",
    "result": []
  },
  {
    "postal": "M1P7S7",
    "result": []
  },
  {
    "postal": "M1P4C2",
    "result": [
      {
        "electoralDistricts": [
          {
            "election": null,
            "id": 94,
            "name": "Scarborough Centre"
          }
        ],
        "pollDivisionIds": [
          10141592
        ],
        "postalCode": "M1P4C2",
        "streetName": "AMBERDALE",
        "streetDirectionId": null,
        "streetTypeId": "DR",
        "placeName": "SCARBOROUGH",
        "streetNameDisplayText": "AMBERDALE DR, SCARBOROUGH"
      }
    ]
  },
  {
    "postal": "M1P5Y0",
    "result": []
  },
  {
    "postal": "M1P2V7",
    "result": [
      {
        "electoralDistricts": [
          {
            "election": null,
            "id": 94,
            "name": "Scarborough Centre"
          }
        ],
        "pollDivisionIds": [
          10141633
        ],
        "postalCode": "M1P2V7",
        "streetName": "LAWRENCE",
        "streetDirectionId": "E",
        "streetTypeId": "AVE",
        "placeName": "SCARBOROUGH",
        "streetNameDisplayText": "LAWRENCE AVE E, SCARBOROUGH"
      }
    ]
  },
  {
    "postal": "M1P8P5",
    "result": []
  },
  {
    "postal": "M1P5P5",
    "result": []
  },
  {
    "postal": "M1P5Z0",
    "result": []
  },
  {
    "postal": "M1P9B0",
    "result": []
  },
  {
    "postal": "M1P1L0",
    "result": []
  },
  {
    "postal": "M1P0B5",
    "result": [
      {
        "electoralDistricts": [
          {
            "election": null,
            "id": 94,
            "name": "Scarborough Centre"
          }
        ],
        "pollDivisionIds": [
          10141621
        ],
        "postalCode": "M1P0B5",
        "streetName": "BOROUGH",
        "streetDirectionId": null,
        "streetTypeId": "DR",
        "placeName": "SCARBOROUGH",
        "streetNameDisplayText": "BOROUGH DR, SCARBOROUGH"
      }
    ]
  },
  {
    "postal": "M1P3L2",
    "result": [
      {
        "electoralDistricts": [
          {
            "election": null,
            "id": 94,
            "name": "Scarborough Centre"
          }
        ],
        "pollDivisionIds": [
          10141583,
          10141584
        ],
        "postalCode": "M1P3L2",
        "streetName": "HIGHBROOK",
        "streetDirectionId": null,
        "streetTypeId": "DR",
        "placeName": "SCARBOROUGH",
        "streetNameDisplayText": "HIGHBROOK DR, SCARBOROUGH"
      }
    ]
  },
  {
    "postal": "M1P3B7",
    "result": [
      {
        "electoralDistricts": [
          {
            "election": null,
            "id": 94,
            "name": "Scarborough Centre"
          }
        ],
        "pollDivisionIds": [
          10141586,
          10141585
        ],
        "postalCode": "M1P3B7",
        "streetName": "MIDLAND",
        "streetDirectionId": null,
        "streetTypeId": "AVE",
        "placeName": "SCARBOROUGH",
        "streetNameDisplayText": "MIDLAND AVE, SCARBOROUGH"
      }
    ]
  },
  {
    "postal": "M1P8L1",
    "result": []
  },
  {
    "postal": "M1P5M4",
    "result": []
  },
  {
    "postal": "M1P4G9",
    "result": [
      {
        "electoralDistricts": [
          {
            "election": null,
            "id": 94,
            "name": "Scarborough Centre"
          }
        ],
        "pollDivisionIds": [
          10141591
        ],
        "postalCode": "M1P4G9",
        "streetName": "FLINTWICK",
        "streetDirectionId": null,
        "streetTypeId": "DR",
        "placeName": "SCARBOROUGH",
        "streetNameDisplayText": "FLINTWICK DR, SCARBOROUGH"
      }
    ]
  },
  {
    "postal": "M1P0P0",
    "result": []
  },
  {
    "postal": "M1P8G2",
    "result": []
  },
  {
    "postal": "M1P1V9",
    "result": [
      {
        "electoralDistricts": [
          {
            "election": null,
            "id": 94,
            "name": "Scarborough Centre"
          }
        ],
        "pollDivisionIds": [
          10141575
        ],
        "postalCode": "M1P1V9",
        "streetName": "BLAISDALE",
        "streetDirectionId": null,
        "streetTypeId": "RD",
        "placeName": "SCARBOROUGH",
        "streetNameDisplayText": "BLAISDALE RD, SCARBOROUGH"
      }
    ]
  },
  {
    "postal": "M1P8N8",
    "result": []
  },
  {
    "postal": "M1P6S8",
    "result": []
  },
  {
    "postal": "M1P8H2",
    "result": []
  },
  {
    "postal": "M1P5R8",
    "result": []
  },
  {
    "postal": "M1P5L4",
    "result": []
  },
  {
    "postal": "M1P9E1",
    "result": []
  },
  {
    "postal": "M1P1C4",
    "result": [
      {
        "electoralDistricts": [
          {
            "election": null,
            "id": 94,
            "name": "Scarborough Centre"
          }
        ],
        "pollDivisionIds": [
          10141576
        ],
        "postalCode": "M1P1C4",
        "streetName": "FLINTRIDGE",
        "streetDirectionId": null,
        "streetTypeId": "RD",
        "placeName": "SCARBOROUGH",
        "streetNameDisplayText": "FLINTRIDGE RD, SCARBOROUGH"
      }
    ]
  },
  {
    "postal": "M1P8W5",
    "result": []
  },
  {
    "postal": "M1P1Y4",
    "result": [
      {
        "electoralDistricts": [
          {
            "election": null,
            "id": 94,
            "name": "Scarborough Centre"
          }
        ],
        "pollDivisionIds": [
          10141573
        ],
        "postalCode": "M1P1Y4",
        "streetName": "MENDIP",
        "streetDirectionId": null,
        "streetTypeId": "CRES",
        "placeName": "SCARBOROUGH",
        "streetNameDisplayText": "MENDIP CRES, SCARBOROUGH"
      }
    ]
  },
  {
    "postal": "M1P1C0",
    "result": []
  },
  {
    "postal": "M1P2J2",
    "result": []
  },
  {
    "postal": "M1P2J0",
    "result": []
  },
  {
    "postal": "M1P7A3",
    "result": []
  },
  {
    "postal": "M1P8M1",
    "result": []
  },
  {
    "postal": "M1P7T9",
    "result": []
  },
  {
    "postal": "M1P6C0",
    "result": []
  },
  {
    "postal": "M1P7X1",
    "result": []
  },
  {
    "postal": "M1P0G1",
    "result": []
  },
  {
    "postal": "M1P4X2",
    "result": []
  },
  {
    "postal": "M1P0N6",
    "result": []
  },
  {
    "postal": "M1P8E3",
    "result": []
  },
  {
    "postal": "M1P5S8",
    "result": []
  },
  {
    "postal": "M1P0R0",
    "result": []
  },
  {
    "postal": "M1P6J6",
    "result": []
  },
  {
    "postal": "M1P4B4",
    "result": [
      {
        "electoralDistricts": [
          {
            "election": null,
            "id": 94,
            "name": "Scarborough Centre"
          }
        ],
        "pollDivisionIds": [
          10141592
        ],
        "postalCode": "M1P4B4",
        "streetName": "NEAPOLITAN",
        "streetDirectionId": null,
        "streetTypeId": "DR",
        "placeName": "SCARBOROUGH",
        "streetNameDisplayText": "NEAPOLITAN DR, SCARBOROUGH"
      }
    ]
  },
  {
    "postal": "M1P7E3",
    "result": []
  },
  {
    "postal": "M1P3N6",
    "result": [
      {
        "electoralDistricts": [
          {
            "election": null,
            "id": 94,
            "name": "Scarborough Centre"
          }
        ],
        "pollDivisionIds": [
          10141581
        ],
        "postalCode": "M1P3N6",
        "streetName": "DOGWOOD",
        "streetDirectionId": null,
        "streetTypeId": "CRES",
        "placeName": "SCARBOROUGH",
        "streetNameDisplayText": "DOGWOOD CRES, SCARBOROUGH"
      }
    ]
  },
  {
    "postal": "M1P3X6",
    "result": [
      {
        "electoralDistricts": [
          {
            "election": null,
            "id": 94,
            "name": "Scarborough Centre"
          }
        ],
        "pollDivisionIds": [
          10141580
        ],
        "postalCode": "M1P3X6",
        "streetName": "TORDALE",
        "streetDirectionId": null,
        "streetTypeId": "CRES",
        "placeName": "SCARBOROUGH",
        "streetNameDisplayText": "TORDALE CRES, SCARBOROUGH"
      }
    ]
  },
  {
    "postal": "M1P8L0",
    "result": []
  },
  {
    "postal": "M1P8N1",
    "result": []
  },
  {
    "postal": "M1P4J0",
    "result": []
  },
  {
    "postal": "M1P0X7",
    "result": []
  },
  {
    "postal": "M1P6S4",
    "result": []
  },
  {
    "postal": "M1P0Z0",
    "result": []
  },
  {
    "postal": "M1P9X8",
    "result": []
  },
  {
    "postal": "M1P3H3",
    "result": []
  },
  {
    "postal": "M1P7S2",
    "result": []
  },
  {
    "postal": "M1P3T3",
    "result": [
      {
        "electoralDistricts": [
          {
            "election": null,
            "id": 94,
            "name": "Scarborough Centre"
          }
        ],
        "pollDivisionIds": [
          10141584
        ],
        "postalCode": "M1P3T3",
        "streetName": "BRITWELL",
        "streetDirectionId": null,
        "streetTypeId": "AVE",
        "placeName": "SCARBOROUGH",
        "streetNameDisplayText": "BRITWELL AVE, SCARBOROUGH"
      }
    ]
  },
  {
    "postal": "M1P9P3",
    "result": []
  },
  {
    "postal": "M1P4H8",
    "result": [
      {
        "electoralDistricts": [
          {
            "election": null,
            "id": 94,
            "name": "Scarborough Centre"
          }
        ],
        "pollDivisionIds": [
          10141590
        ],
        "postalCode": "M1P4H8",
        "streetName": "SARATOGA",
        "streetDirectionId": null,
        "streetTypeId": "DR",
        "placeName": "SCARBOROUGH",
        "streetNameDisplayText": "SARATOGA DR, SCARBOROUGH"
      }
    ]
  },
  {
    "postal": "M1P6R1",
    "result": []
  },
  {
    "postal": "M1P1S0",
    "result": []
  },
  {
    "postal": "M1P3W8",
    "result": [
      {
        "electoralDistricts": [
          {
            "election": null,
            "id": 94,
            "name": "Scarborough Centre"
          }
        ],
        "pollDivisionIds": [
          10141584
        ],
        "postalCode": "M1P3W8",
        "streetName": "WATERFIELD",
        "streetDirectionId": null,
        "streetTypeId": "DR",
        "placeName": "SCARBOROUGH",
        "streetNameDisplayText": "WATERFIELD DR, SCARBOROUGH"
      }
    ]
  },
  {
    "postal": "M1P4S3",
    "result": [
      {
        "electoralDistricts": [
          {
            "election": null,
            "id": 94,
            "name": "Scarborough Centre"
          }
        ],
        "pollDivisionIds": [
          10141572
        ],
        "postalCode": "M1P4S3",
        "streetName": "DUNDALK",
        "streetDirectionId": null,
        "streetTypeId": "DR",
        "placeName": "SCARBOROUGH",
        "streetNameDisplayText": "DUNDALK DR, SCARBOROUGH"
      }
    ]
  },
  {
    "postal": "M1P1B6",
    "result": [
      {
        "electoralDistricts": [
          {
            "election": null,
            "id": 94,
            "name": "Scarborough Centre"
          }
        ],
        "pollDivisionIds": [
          10141576
        ],
        "postalCode": "M1P1B6",
        "streetName": "LEAHANN",
        "streetDirectionId": null,
        "streetTypeId": "DR",
        "placeName": "SCARBOROUGH",
        "streetNameDisplayText": "LEAHANN DR, SCARBOROUGH"
      }
    ]
  },
  {
    "postal": "M1P8R3",
    "result": []
  },
  {
    "postal": "M1P4V9",
    "result": [
      {
        "electoralDistricts": [
          {
            "election": null,
            "id": 94,
            "name": "Scarborough Centre"
          }
        ],
        "pollDivisionIds": [
          10141602
        ],
        "postalCode": "M1P4V9",
        "streetName": "DUNDALK",
        "streetDirectionId": null,
        "streetTypeId": "DR",
        "placeName": "SCARBOROUGH",
        "streetNameDisplayText": "DUNDALK DR, SCARBOROUGH"
      }
    ]
  },
  {
    "postal": "M1P9W4",
    "result": []
  },
  {
    "postal": "M1P3T4",
    "result": [
      {
        "electoralDistricts": [
          {
            "election": null,
            "id": 94,
            "name": "Scarborough Centre"
          }
        ],
        "pollDivisionIds": [
          10141584
        ],
        "postalCode": "M1P3T4",
        "streetName": "BRITWELL",
        "streetDirectionId": null,
        "streetTypeId": "AVE",
        "placeName": "SCARBOROUGH",
        "streetNameDisplayText": "BRITWELL AVE, SCARBOROUGH"
      }
    ]
  },
  {
    "postal": "M1P5C7",
    "result": [
      {
        "electoralDistricts": [
          {
            "election": null,
            "id": 94,
            "name": "Scarborough Centre"
          }
        ],
        "pollDivisionIds": [
          10141606,
          10141572
        ],
        "postalCode": "M1P5C7",
        "streetName": "MONDEO",
        "streetDirectionId": null,
        "streetTypeId": "DR",
        "placeName": "SCARBOROUGH",
        "streetNameDisplayText": "MONDEO DR, SCARBOROUGH"
      }
    ]
  },
  {
    "postal": "M1P3Y1",
    "result": [
      {
        "electoralDistricts": [
          {
            "election": null,
            "id": 94,
            "name": "Scarborough Centre"
          }
        ],
        "pollDivisionIds": [
          10141584
        ],
        "postalCode": "M1P3Y1",
        "streetName": "APPLEFIELD",
        "streetDirectionId": null,
        "streetTypeId": "DR",
        "placeName": "SCARBOROUGH",
        "streetNameDisplayText": "APPLEFIELD DR, SCARBOROUGH"
      }
    ]
  },
  {
    "postal": "M1P5V0",
    "result": []
  },
  {
    "postal": "M1P8G8",
    "result": []
  },
  {
    "postal": "M1P8B1",
    "result": []
  },
  {
    "postal": "M1P4P5",
    "result": [
      {
        "electoralDistricts": [
          {
            "election": null,
            "id": 94,
            "name": "Scarborough Centre"
          }
        ],
        "pollDivisionIds": [
          10141590
        ],
        "postalCode": "M1P4P5",
        "streetName": "BOROUGH",
        "streetDirectionId": null,
        "streetTypeId": "DR",
        "placeName": "SCARBOROUGH",
        "streetNameDisplayText": "BOROUGH DR, SCARBOROUGH"
      }
    ]
  },
  {
    "postal": "M1P7B2",
    "result": []
  },
  {
    "postal": "M1P0R2",
    "result": []
  },
  {
    "postal": "M1P4M4",
    "result": [
      {
        "electoralDistricts": [
          {
            "election": null,
            "id": 94,
            "name": "Scarborough Centre"
          }
        ],
        "pollDivisionIds": [
          10141592
        ],
        "postalCode": "M1P4M4",
        "streetName": "CORA",
        "streetDirectionId": null,
        "streetTypeId": "CRES",
        "placeName": "SCARBOROUGH",
        "streetNameDisplayText": "CORA CRES, SCARBOROUGH"
      }
    ]
  },
  {
    "postal": "M1P7M4",
    "result": []
  },
  {
    "postal": "M1P9S7",
    "result": []
  },
  {
    "postal": "M1P5Z7",
    "result": []
  },
  {
    "postal": "M1P7J7",
    "result": []
  },
  {
    "postal": "M1P8R8",
    "result": []
  },
  {
    "postal": "M1P9X1",
    "result": []
  },
  {
    "postal": "M1P5M9",
    "result": []
  },
  {
    "postal": "M1P9B4",
    "result": []
  },
  {
    "postal": "M1P0L9",
    "result": []
  },
  {
    "postal": "M1P9G4",
    "result": []
  },
  {
    "postal": "M1P1J4",
    "result": [
      {
        "electoralDistricts": [
          {
            "election": null,
            "id": 94,
            "name": "Scarborough Centre"
          }
        ],
        "pollDivisionIds": [
          10141575
        ],
        "postalCode": "M1P1J4",
        "streetName": "MERRYFIELD",
        "streetDirectionId": null,
        "streetTypeId": "DR",
        "placeName": "SCARBOROUGH",
        "streetNameDisplayText": "MERRYFIELD DR, SCARBOROUGH"
      }
    ]
  },
  {
    "postal": "M1P0W6",
    "result": []
  }
]
