[
  {
    "postal": "L6J9J6",
    "result": []
  },
  {
    "postal": "L6J9Z5",
    "result": []
  },
  {
    "postal": "L6J7H8",
    "result": [
      {
        "electoralDistricts": [
          {
            "election": null,
            "id": 74,
            "name": "Oakville"
          }
        ],
        "pollDivisionIds": [
          10140343
        ],
        "postalCode": "L6J7H8",
        "streetName": "MULBERRY",
        "streetDirectionId": null,
        "streetTypeId": "DR",
        "placeName": "OAKVILLE",
        "streetNameDisplayText": "MULBERRY DR, OAKVILLE"
      },
      {
        "electoralDistricts": [
          {
            "election": null,
            "id": 74,
            "name": "Oakville"
          }
        ],
        "pollDivisionIds": [
          10140343,
          10140344
        ],
        "postalCode": "L6J7H8",
        "streetName": "SYCAMORE",
        "streetDirectionId": null,
        "streetTypeId": "ST",
        "placeName": "OAKVILLE",
        "streetNameDisplayText": "SYCAMORE ST, OAKVILLE"
      }
    ]
  },
  {
    "postal": "L6J0P6",
    "result": []
  },
  {
    "postal": "L6J0S7",
    "result": []
  },
  {
    "postal": "L6J8B9",
    "result": []
  },
  {
    "postal": "L6J2A6",
    "result": [
      {
        "electoralDistricts": [
          {
            "election": null,
            "id": 74,
            "name": "Oakville"
          }
        ],
        "pollDivisionIds": [
          10140363
        ],
        "postalCode": "L6J2A6",
        "streetName": "MACDONALD",
        "streetDirectionId": null,
        "streetTypeId": "RD",
        "placeName": "OAKVILLE",
        "streetNameDisplayText": "MACDONALD RD, OAKVILLE"
      }
    ]
  },
  {
    "postal": "L6J7V2",
    "result": []
  },
  {
    "postal": "L6J9P4",
    "result": []
  },
  {
    "postal": "L6J6G0",
    "result": []
  },
  {
    "postal": "L6J2K0",
    "result": []
  },
  {
    "postal": "L6J7N6",
    "result": [
      {
        "electoralDistricts": [
          {
            "election": null,
            "id": 74,
            "name": "Oakville"
          }
        ],
        "pollDivisionIds": [
          10140344
        ],
        "postalCode": "L6J7N6",
        "streetName": "JEFF",
        "streetDirectionId": null,
        "streetTypeId": "DR",
        "placeName": "OAKVILLE",
        "streetNameDisplayText": "JEFF DR, OAKVILLE"
      },
      {
        "electoralDistricts": [
          {
            "election": null,
            "id": 74,
            "name": "Oakville"
          }
        ],
        "pollDivisionIds": [
          10140344
        ],
        "postalCode": "L6J7N6",
        "streetName": "LANSDOWN",
        "streetDirectionId": null,
        "streetTypeId": "DR",
        "placeName": "OAKVILLE",
        "streetNameDisplayText": "LANSDOWN DR, OAKVILLE"
      }
    ]
  },
  {
    "postal": "L6J5R3",
    "result": [
      {
        "electoralDistricts": [
          {
            "election": null,
            "id": 74,
            "name": "Oakville"
          }
        ],
        "pollDivisionIds": [
          10140366
        ],
        "postalCode": "L6J5R3",
        "streetName": "DEVON",
        "streetDirectionId": null,
        "streetTypeId": "RD",
        "placeName": "OAKVILLE",
        "streetNameDisplayText": "DEVON RD, OAKVILLE"
      }
    ]
  },
  {
    "postal": "L6J7K0",
    "result": []
  },
  {
    "postal": "L6J3R2",
    "result": [
      {
        "electoralDistricts": [
          {
            "election": null,
            "id": 74,
            "name": "Oakville"
          }
        ],
        "pollDivisionIds": [
          10140363
        ],
        "postalCode": "L6J3R2",
        "streetName": "ALLAN",
        "streetDirectionId": null,
        "streetTypeId": "ST",
        "placeName": "OAKVILLE",
        "streetNameDisplayText": "ALLAN ST, OAKVILLE"
      }
    ]
  },
  {
    "postal": "L6J0J1",
    "result": []
  },
  {
    "postal": "L6J0B0",
    "result": []
  },
  {
    "postal": "L6J5Z2",
    "result": [
      {
        "electoralDistricts": [
          {
            "election": null,
            "id": 74,
            "name": "Oakville"
          }
        ],
        "pollDivisionIds": [
          10140365
        ],
        "postalCode": "L6J5Z2",
        "streetName": "DEVON",
        "streetDirectionId": null,
        "streetTypeId": "RD",
        "placeName": "OAKVILLE",
        "streetNameDisplayText": "DEVON RD, OAKVILLE"
      }
    ]
  },
  {
    "postal": "L6J7P3",
    "result": [
      {
        "electoralDistricts": [
          {
            "election": null,
            "id": 74,
            "name": "Oakville"
          }
        ],
        "pollDivisionIds": [
          10140344
        ],
        "postalCode": "L6J7P3",
        "streetName": "LAMBTON",
        "streetDirectionId": null,
        "streetTypeId": "DR",
        "placeName": "OAKVILLE",
        "streetNameDisplayText": "LAMBTON DR, OAKVILLE"
      },
      {
        "electoralDistricts": [
          {
            "election": null,
            "id": 74,
            "name": "Oakville"
          }
        ],
        "pollDivisionIds": [
          10140344
        ],
        "postalCode": "L6J7P3",
        "streetName": "MAHOGANY",
        "streetDirectionId": null,
        "streetTypeId": "LANE",
        "placeName": "OAKVILLE",
        "streetNameDisplayText": "MAHOGANY LANE, OAKVILLE"
      }
    ]
  },
  {
    "postal": "L6J2K3",
    "result": [
      {
        "electoralDistricts": [
          {
            "election": null,
            "id": 74,
            "name": "Oakville"
          }
        ],
        "pollDivisionIds": [
          10140363
        ],
        "postalCode": "L6J2K3",
        "streetName": "PINE",
        "streetDirectionId": null,
        "streetTypeId": "AVE",
        "placeName": "OAKVILLE",
        "streetNameDisplayText": "PINE AVE, OAKVILLE"
      }
    ]
  },
  {
    "postal": "L6J7Y6",
    "result": [
      {
        "electoralDistricts": [
          {
            "election": null,
            "id": 74,
            "name": "Oakville"
          }
        ],
        "pollDivisionIds": [
          10140366
        ],
        "postalCode": "L6J7Y6",
        "streetName": "LAKESHORE",
        "streetDirectionId": "E",
        "streetTypeId": "RD",
        "placeName": "OAKVILLE",
        "streetNameDisplayText": "LAKESHORE RD E, OAKVILLE"
      },
      {
        "electoralDistricts": [
          {
            "election": null,
            "id": 74,
            "name": "Oakville"
          }
        ],
        "pollDivisionIds": [
          10140366
        ],
        "postalCode": "L6J7Y6",
        "streetName": "LAKESHORE RD EAST",
        "streetDirectionId": "E",
        "streetTypeId": "RD",
        "placeName": "OAKVILLE",
        "streetNameDisplayText": "LAKESHORE RD EAST RD E, OAKVILLE"
      }
    ]
  },
  {
    "postal": "L6J1L9",
    "result": [
      {
        "electoralDistricts": [
          {
            "election": null,
            "id": 74,
            "name": "Oakville"
          }
        ],
        "pollDivisionIds": [
          10140364
        ],
        "postalCode": "L6J1L9",
        "streetName": "LAKESHORE",
        "streetDirectionId": "E",
        "streetTypeId": "RD",
        "placeName": "OAKVILLE",
        "streetNameDisplayText": "LAKESHORE RD E, OAKVILLE"
      }
    ]
  },
  {
    "postal": "L6J8T0",
    "result": []
  },
  {
    "postal": "L6J3K8",
    "result": [
      {
        "electoralDistricts": [
          {
            "election": null,
            "id": 74,
            "name": "Oakville"
          }
        ],
        "pollDivisionIds": [
          10140360
        ],
        "postalCode": "L6J3K8",
        "streetName": "REYNOLDS",
        "streetDirectionId": null,
        "streetTypeId": "ST",
        "placeName": "OAKVILLE",
        "streetNameDisplayText": "REYNOLDS ST, OAKVILLE"
      }
    ]
  },
  {
    "postal": "L6J5W9",
    "result": [
      {
        "electoralDistricts": [
          {
            "election": null,
            "id": 74,
            "name": "Oakville"
          }
        ],
        "pollDivisionIds": [
          10140365
        ],
        "postalCode": "L6J5W9",
        "streetName": "BROOKMILL",
        "streetDirectionId": null,
        "streetTypeId": "RD",
        "placeName": "OAKVILLE",
        "streetNameDisplayText": "BROOKMILL RD, OAKVILLE"
      }
    ]
  },
  {
    "postal": "L6J6T9",
    "result": [
      {
        "electoralDistricts": [
          {
            "election": null,
            "id": 74,
            "name": "Oakville"
          }
        ],
        "pollDivisionIds": [
          10140343
        ],
        "postalCode": "L6J6T9",
        "streetName": "KINGSWAY",
        "streetDirectionId": null,
        "streetTypeId": "DR",
        "placeName": "OAKVILLE",
        "streetNameDisplayText": "KINGSWAY DR, OAKVILLE"
      }
    ]
  },
  {
    "postal": "L6J4H1",
    "result": [
      {
        "electoralDistricts": [
          {
            "election": null,
            "id": 74,
            "name": "Oakville"
          }
        ],
        "pollDivisionIds": [
          10140361
        ],
        "postalCode": "L6J4H1",
        "streetName": "DIANNE",
        "streetDirectionId": null,
        "streetTypeId": "AVE",
        "placeName": "OAKVILLE",
        "streetNameDisplayText": "DIANNE AVE, OAKVILLE"
      }
    ]
  },
  {
    "postal": "L6J7A2",
    "result": [
      {
        "electoralDistricts": [
          {
            "election": null,
            "id": 74,
            "name": "Oakville"
          }
        ],
        "pollDivisionIds": [
          10140343
        ],
        "postalCode": "L6J7A2",
        "streetName": "CHEDBORO",
        "streetDirectionId": null,
        "streetTypeId": "CRES",
        "placeName": "OAKVILLE",
        "streetNameDisplayText": "CHEDBORO CRES, OAKVILLE"
      }
    ]
  },
  {
    "postal": "L6J5G0",
    "result": []
  },
  {
    "postal": "L6J8V5",
    "result": []
  },
  {
    "postal": "L6J2Y8",
    "result": []
  },
  {
    "postal": "L6J2B6",
    "result": [
      {
        "electoralDistricts": [
          {
            "election": null,
            "id": 74,
            "name": "Oakville"
          }
        ],
        "pollDivisionIds": [
          10140362
        ],
        "postalCode": "L6J2B6",
        "streetName": "MACDONALD",
        "streetDirectionId": null,
        "streetTypeId": "RD",
        "placeName": "OAKVILLE",
        "streetNameDisplayText": "MACDONALD RD, OAKVILLE"
      }
    ]
  },
  {
    "postal": "L6J4W8",
    "result": [
      {
        "electoralDistricts": [
          {
            "election": null,
            "id": 74,
            "name": "Oakville"
          }
        ],
        "pollDivisionIds": [
          10140365
        ],
        "postalCode": "L6J4W8",
        "streetName": "PINEHURST",
        "streetDirectionId": null,
        "streetTypeId": "DR",
        "placeName": "OAKVILLE",
        "streetNameDisplayText": "PINEHURST DR, OAKVILLE"
      }
    ]
  },
  {
    "postal": "L6J8H7",
    "result": []
  },
  {
    "postal": "L6J5P1",
    "result": [
      {
        "electoralDistricts": [
          {
            "election": null,
            "id": 74,
            "name": "Oakville"
          }
        ],
        "pollDivisionIds": [
          10140366
        ],
        "postalCode": "L6J5P1",
        "streetName": "CANSO",
        "streetDirectionId": null,
        "streetTypeId": "RD",
        "placeName": "OAKVILLE",
        "streetNameDisplayText": "CANSO RD, OAKVILLE"
      }
    ]
  },
  {
    "postal": "L6J2B8",
    "result": [
      {
        "electoralDistricts": [
          {
            "election": null,
            "id": 74,
            "name": "Oakville"
          }
        ],
        "pollDivisionIds": [
          10140361
        ],
        "postalCode": "L6J2B8",
        "streetName": "MACDONALD",
        "streetDirectionId": null,
        "streetTypeId": "RD",
        "placeName": "OAKVILLE",
        "streetNameDisplayText": "MACDONALD RD, OAKVILLE"
      }
    ]
  },
  {
    "postal": "L6J0P2",
    "result": []
  },
  {
    "postal": "L6J9M1",
    "result": []
  },
  {
    "postal": "L6J3G0",
    "result": []
  },
  {
    "postal": "L6J9Z2",
    "result": []
  },
  {
    "postal": "L6J2A0",
    "result": []
  },
  {
    "postal": "L6J6Y0",
    "result": []
  },
  {
    "postal": "L6J2Z8",
    "result": [
      {
        "electoralDistricts": [
          {
            "election": null,
            "id": 74,
            "name": "Oakville"
          }
        ],
        "pollDivisionIds": [
          10140360
        ],
        "postalCode": "L6J2Z8",
        "streetName": "THOMAS",
        "streetDirectionId": null,
        "streetTypeId": "ST",
        "placeName": "OAKVILLE",
        "streetNameDisplayText": "THOMAS ST, OAKVILLE"
      }
    ]
  },
  {
    "postal": "L6J7Y3",
    "result": [
      {
        "electoralDistricts": [
          {
            "election": null,
            "id": 74,
            "name": "Oakville"
          }
        ],
        "pollDivisionIds": [
          10140364
        ],
        "postalCode": "L6J7Y3",
        "streetName": "ROYAL WINDSOR",
        "streetDirectionId": null,
        "streetTypeId": "DR",
        "placeName": "OAKVILLE",
        "streetNameDisplayText": "ROYAL WINDSOR DR, OAKVILLE"
      }
    ]
  },
  {
    "postal": "L6J6Z5",
    "result": [
      {
        "electoralDistricts": [
          {
            "election": null,
            "id": 74,
            "name": "Oakville"
          }
        ],
        "pollDivisionIds": [
          10140343
        ],
        "postalCode": "L6J6Z5",
        "streetName": "GUILFORD",
        "streetDirectionId": null,
        "streetTypeId": "CRES",
        "placeName": "OAKVILLE",
        "streetNameDisplayText": "GUILFORD CRES, OAKVILLE"
      },
      {
        "electoralDistricts": [
          {
            "election": null,
            "id": 74,
            "name": "Oakville"
          }
        ],
        "pollDivisionIds": [
          10140343
        ],
        "postalCode": "L6J6Z5",
        "streetName": "KINGSWAY",
        "streetDirectionId": null,
        "streetTypeId": "DR",
        "placeName": "OAKVILLE",
        "streetNameDisplayText": "KINGSWAY DR, OAKVILLE"
      }
    ]
  },
  {
    "postal": "L6J6E0",
    "result": []
  },
  {
    "postal": "L6J9B7",
    "result": []
  },
  {
    "postal": "L6J9S5",
    "result": []
  },
  {
    "postal": "L6J3X3",
    "result": [
      {
        "electoralDistricts": [
          {
            "election": null,
            "id": 74,
            "name": "Oakville"
          }
        ],
        "pollDivisionIds": [
          10140363
        ],
        "postalCode": "L6J3X3",
        "streetName": "GLOUCESTER",
        "streetDirectionId": null,
        "streetTypeId": "AVE",
        "placeName": "OAKVILLE",
        "streetNameDisplayText": "GLOUCESTER AVE, OAKVILLE"
      }
    ]
  },
  {
    "postal": "L6J7R5",
    "result": []
  },
  {
    "postal": "L6J2X3",
    "result": [
      {
        "electoralDistricts": [
          {
            "election": null,
            "id": 74,
            "name": "Oakville"
          }
        ],
        "pollDivisionIds": [
          10140363
        ],
        "postalCode": "L6J2X3",
        "streetName": "INDUSTRY",
        "streetDirectionId": null,
        "streetTypeId": "ST",
        "placeName": "OAKVILLE",
        "streetNameDisplayText": "INDUSTRY ST, OAKVILLE"
      }
    ]
  },
  {
    "postal": "L6J8Z9",
    "result": []
  },
  {
    "postal": "L6J0N4",
    "result": []
  },
  {
    "postal": "L6J1K1",
    "result": [
      {
        "electoralDistricts": [
          {
            "election": null,
            "id": 74,
            "name": "Oakville"
          }
        ],
        "pollDivisionIds": [
          10140361
        ],
        "postalCode": "L6J1K1",
        "streetName": "LAKESHORE",
        "streetDirectionId": "E",
        "streetTypeId": "RD",
        "placeName": "OAKVILLE",
        "streetNameDisplayText": "LAKESHORE RD E, OAKVILLE"
      }
    ]
  },
  {
    "postal": "L6J1S3",
    "result": [
      {
        "electoralDistricts": [
          {
            "election": null,
            "id": 74,
            "name": "Oakville"
          }
        ],
        "pollDivisionIds": [
          10140364
        ],
        "postalCode": "L6J1S3",
        "streetName": "CAMBRIDGE",
        "streetDirectionId": null,
        "streetTypeId": "DR",
        "placeName": "OAKVILLE",
        "streetNameDisplayText": "CAMBRIDGE DR, OAKVILLE"
      }
    ]
  },
  {
    "postal": "L6J6M4",
    "result": []
  },
  {
    "postal": "L6J9A9",
    "result": []
  },
  {
    "postal": "L6J9Z9",
    "result": []
  },
  {
    "postal": "L6J6T4",
    "result": [
      {
        "electoralDistricts": [
          {
            "election": null,
            "id": 74,
            "name": "Oakville"
          }
        ],
        "pollDivisionIds": [
          10140343
        ],
        "postalCode": "L6J6T4",
        "streetName": "PRINCE JOHN",
        "streetDirectionId": null,
        "streetTypeId": "CIR",
        "placeName": "OAKVILLE",
        "streetNameDisplayText": "PRINCE JOHN CIR, OAKVILLE"
      },
      {
        "electoralDistricts": [
          {
            "election": null,
            "id": 74,
            "name": "Oakville"
          }
        ],
        "pollDivisionIds": [
          10140343
        ],
        "postalCode": "L6J6T4",
        "streetName": "WAKEHURST",
        "streetDirectionId": null,
        "streetTypeId": "CRES",
        "placeName": "OAKVILLE",
        "streetNameDisplayText": "WAKEHURST CRES, OAKVILLE"
      }
    ]
  },
  {
    "postal": "L6J0B2",
    "result": [
      {
        "electoralDistricts": [
          {
            "election": null,
            "id": 74,
            "name": "Oakville"
          }
        ],
        "pollDivisionIds": [
          10140364
        ],
        "postalCode": "L6J0B2",
        "streetName": "CORNWALL",
        "streetDirectionId": null,
        "streetTypeId": "RD",
        "placeName": "OAKVILLE",
        "streetNameDisplayText": "CORNWALL RD, OAKVILLE"
      }
    ]
  },
  {
    "postal": "L6J2L9",
    "result": [
      {
        "electoralDistricts": [
          {
            "election": null,
            "id": 74,
            "name": "Oakville"
          }
        ],
        "pollDivisionIds": [
          10140364
        ],
        "postalCode": "L6J2L9",
        "streetName": "DEVON",
        "streetDirectionId": null,
        "streetTypeId": "RD",
        "placeName": "OAKVILLE",
        "streetNameDisplayText": "DEVON RD, OAKVILLE"
      }
    ]
  },
  {
    "postal": "L6J8K9",
    "result": []
  },
  {
    "postal": "L6J2H9",
    "result": [
      {
        "electoralDistricts": [
          {
            "election": null,
            "id": 74,
            "name": "Oakville"
          }
        ],
        "pollDivisionIds": [
          10140363
        ],
        "postalCode": "L6J2H9",
        "streetName": "MAPLE",
        "streetDirectionId": null,
        "streetTypeId": "AVE",
        "placeName": "OAKVILLE",
        "streetNameDisplayText": "MAPLE AVE, OAKVILLE"
      }
    ]
  },
  {
    "postal": "L6J3Z6",
    "result": [
      {
        "electoralDistricts": [
          {
            "election": null,
            "id": 74,
            "name": "Oakville"
          }
        ],
        "pollDivisionIds": [
          10140361
        ],
        "postalCode": "L6J3Z6",
        "streetName": "CHARTWELL",
        "streetDirectionId": null,
        "streetTypeId": "RD",
        "placeName": "OAKVILLE",
        "streetNameDisplayText": "CHARTWELL RD, OAKVILLE"
      }
    ]
  },
  {
    "postal": "L6J3B0",
    "result": []
  },
  {
    "postal": "L6J2H8",
    "result": [
      {
        "electoralDistricts": [
          {
            "election": null,
            "id": 74,
            "name": "Oakville"
          }
        ],
        "pollDivisionIds": [
          10140363
        ],
        "postalCode": "L6J2H8",
        "streetName": "MAPLE",
        "streetDirectionId": null,
        "streetTypeId": "AVE",
        "placeName": "OAKVILLE",
        "streetNameDisplayText": "MAPLE AVE, OAKVILLE"
      }
    ]
  },
  {
    "postal": "L6J3X2",
    "result": [
      {
        "electoralDistricts": [
          {
            "election": null,
            "id": 74,
            "name": "Oakville"
          }
        ],
        "pollDivisionIds": [
          10140363
        ],
        "postalCode": "L6J3X2",
        "streetName": "GLOUCESTER",
        "streetDirectionId": null,
        "streetTypeId": "AVE",
        "placeName": "OAKVILLE",
        "streetNameDisplayText": "GLOUCESTER AVE, OAKVILLE"
      }
    ]
  },
  {
    "postal": "L6J2E9",
    "result": [
      {
        "electoralDistricts": [
          {
            "election": null,
            "id": 74,
            "name": "Oakville"
          }
        ],
        "pollDivisionIds": [
          10140364
        ],
        "postalCode": "L6J2E9",
        "streetName": "CEDARBRAE",
        "streetDirectionId": null,
        "streetTypeId": "DR",
        "placeName": "OAKVILLE",
        "streetNameDisplayText": "CEDARBRAE DR, OAKVILLE"
      }
    ]
  },
  {
    "postal": "L6J9P6",
    "result": []
  },
  {
    "postal": "L6J9E2",
    "result": []
  },
  {
    "postal": "L6J9H2",
    "result": []
  },
  {
    "postal": "L6J1S8",
    "result": [
      {
        "electoralDistricts": [
          {
            "election": null,
            "id": 74,
            "name": "Oakville"
          }
        ],
        "pollDivisionIds": [
          10140360
        ],
        "postalCode": "L6J1S8",
        "streetName": "SUMNER",
        "streetDirectionId": null,
        "streetTypeId": "AVE",
        "placeName": "OAKVILLE",
        "streetNameDisplayText": "SUMNER AVE, OAKVILLE"
      }
    ]
  },
  {
    "postal": "L6J3M6",
    "result": [
      {
        "electoralDistricts": [
          {
            "election": null,
            "id": 74,
            "name": "Oakville"
          }
        ],
        "pollDivisionIds": [
          10140363
        ],
        "postalCode": "L6J3M6",
        "streetName": "REYNOLDS",
        "streetDirectionId": null,
        "streetTypeId": "ST",
        "placeName": "OAKVILLE",
        "streetNameDisplayText": "REYNOLDS ST, OAKVILLE"
      }
    ]
  },
  {
    "postal": "L6J6Z8",
    "result": [
      {
        "electoralDistricts": [
          {
            "election": null,
            "id": 74,
            "name": "Oakville"
          }
        ],
        "pollDivisionIds": [
          10140343
        ],
        "postalCode": "L6J6Z8",
        "streetName": "GUILFORD",
        "streetDirectionId": null,
        "streetTypeId": "CRES",
        "placeName": "OAKVILLE",
        "streetNameDisplayText": "GUILFORD CRES, OAKVILLE"
      },
      {
        "electoralDistricts": [
          {
            "election": null,
            "id": 74,
            "name": "Oakville"
          }
        ],
        "pollDivisionIds": [
          10140343
        ],
        "postalCode": "L6J6Z8",
        "streetName": "KINGSWAY",
        "streetDirectionId": null,
        "streetTypeId": "DR",
        "placeName": "OAKVILLE",
        "streetNameDisplayText": "KINGSWAY DR, OAKVILLE"
      }
    ]
  },
  {
    "postal": "L6J4J2",
    "result": [
      {
        "electoralDistricts": [
          {
            "election": null,
            "id": 74,
            "name": "Oakville"
          }
        ],
        "pollDivisionIds": [
          10140363
        ],
        "postalCode": "L6J4J2",
        "streetName": "MORRISON HEIGHTS",
        "streetDirectionId": null,
        "streetTypeId": "DR",
        "placeName": "OAKVILLE",
        "streetNameDisplayText": "MORRISON HEIGHTS DR, OAKVILLE"
      }
    ]
  },
  {
    "postal": "L6J9Y1",
    "result": []
  },
  {
    "postal": "L6J8V6",
    "result": []
  },
  {
    "postal": "L6J6B2",
    "result": [
      {
        "electoralDistricts": [
          {
            "election": null,
            "id": 74,
            "name": "Oakville"
          }
        ],
        "pollDivisionIds": [
          10140366
        ],
        "postalCode": "L6J6B2",
        "streetName": "CHEVERIE",
        "streetDirectionId": null,
        "streetTypeId": "ST",
        "placeName": "OAKVILLE",
        "streetNameDisplayText": "CHEVERIE ST, OAKVILLE"
      }
    ]
  },
  {
    "postal": "L6J1P8",
    "result": [
      {
        "electoralDistricts": [
          {
            "election": null,
            "id": 74,
            "name": "Oakville"
          }
        ],
        "pollDivisionIds": [
          10140360
        ],
        "postalCode": "L6J1P8",
        "streetName": "RANDALL",
        "streetDirectionId": null,
        "streetTypeId": "ST",
        "placeName": "OAKVILLE",
        "streetNameDisplayText": "RANDALL ST, OAKVILLE"
      }
    ]
  },
  {
    "postal": "L6J0V8",
    "result": []
  },
  {
    "postal": "L6J4Y0",
    "result": []
  },
  {
    "postal": "L6J2T4",
    "result": [
      {
        "electoralDistricts": [
          {
            "election": null,
            "id": 74,
            "name": "Oakville"
          }
        ],
        "pollDivisionIds": [
          10140364
        ],
        "postalCode": "L6J2T4",
        "streetName": "AVON",
        "streetDirectionId": null,
        "streetTypeId": "CRES",
        "placeName": "OAKVILLE",
        "streetNameDisplayText": "AVON CRES, OAKVILLE"
      }
    ]
  },
  {
    "postal": "L6J2S3",
    "result": [
      {
        "electoralDistricts": [
          {
            "election": null,
            "id": 74,
            "name": "Oakville"
          }
        ],
        "pollDivisionIds": [
          10140364
        ],
        "postalCode": "L6J2S3",
        "streetName": "ARIO",
        "streetDirectionId": null,
        "streetTypeId": "RD",
        "placeName": "OAKVILLE",
        "streetNameDisplayText": "ARIO RD, OAKVILLE"
      }
    ]
  },
  {
    "postal": "L6J0K0",
    "result": []
  },
  {
    "postal": "L6J5N1",
    "result": [
      {
        "electoralDistricts": [
          {
            "election": null,
            "id": 74,
            "name": "Oakville"
          }
        ],
        "pollDivisionIds": [
          10140365
        ],
        "postalCode": "L6J5N1",
        "streetName": "ALL SAINTS",
        "streetDirectionId": null,
        "streetTypeId": "CRES",
        "placeName": "OAKVILLE",
        "streetNameDisplayText": "ALL SAINTS CRES, OAKVILLE"
      }
    ]
  },
  {
    "postal": "L6J7T0",
    "result": []
  },
  {
    "postal": "L6J9N2",
    "result": []
  },
  {
    "postal": "L6J5L1",
    "result": [
      {
        "electoralDistricts": [
          {
            "election": null,
            "id": 74,
            "name": "Oakville"
          }
        ],
        "pollDivisionIds": [
          10140366
        ],
        "postalCode": "L6J5L1",
        "streetName": "CAROL",
        "streetDirectionId": null,
        "streetTypeId": "RD",
        "placeName": "OAKVILLE",
        "streetNameDisplayText": "CAROL RD, OAKVILLE"
      }
    ]
  },
  {
    "postal": "L6J7G5",
    "result": [
      {
        "electoralDistricts": [
          {
            "election": null,
            "id": 74,
            "name": "Oakville"
          }
        ],
        "pollDivisionIds": [
          10140343
        ],
        "postalCode": "L6J7G5",
        "streetName": "HUNTINGDON",
        "streetDirectionId": null,
        "streetTypeId": "TRAIL",
        "placeName": "OAKVILLE",
        "streetNameDisplayText": "HUNTINGDON TRAIL, OAKVILLE"
      },
      {
        "electoralDistricts": [
          {
            "election": null,
            "id": 74,
            "name": "Oakville"
          }
        ],
        "pollDivisionIds": [
          10140343
        ],
        "postalCode": "L6J7G5",
        "streetName": "KINGSWAY",
        "streetDirectionId": null,
        "streetTypeId": "DR",
        "placeName": "OAKVILLE",
        "streetNameDisplayText": "KINGSWAY DR, OAKVILLE"
      }
    ]
  },
  {
    "postal": "L6J6K2",
    "result": [
      {
        "electoralDistricts": [
          {
            "election": null,
            "id": 74,
            "name": "Oakville"
          }
        ],
        "pollDivisionIds": [
          10140365
        ],
        "postalCode": "L6J6K2",
        "streetName": "BALBOA",
        "streetDirectionId": null,
        "streetTypeId": "CRT",
        "placeName": "OAKVILLE",
        "streetNameDisplayText": "BALBOA CRT, OAKVILLE"
      }
    ]
  },
  {
    "postal": "L6J6P9",
    "result": []
  },
  {
    "postal": "L6J0E6",
    "result": []
  },
  {
    "postal": "L6J8R9",
    "result": []
  },
  {
    "postal": "L6J3G9",
    "result": [
      {
        "electoralDistricts": [
          {
            "election": null,
            "id": 74,
            "name": "Oakville"
          }
        ],
        "pollDivisionIds": [
          10140361
        ],
        "postalCode": "L6J3G9",
        "streetName": "TRAFALGAR",
        "streetDirectionId": null,
        "streetTypeId": "RD",
        "placeName": "OAKVILLE",
        "streetNameDisplayText": "TRAFALGAR RD, OAKVILLE"
      }
    ]
  },
  {
    "postal": "L6J0V7",
    "result": []
  },
  {
    "postal": "L6J2Z1",
    "result": [
      {
        "electoralDistricts": [
          {
            "election": null,
            "id": 74,
            "name": "Oakville"
          }
        ],
        "pollDivisionIds": [
          10140360
        ],
        "postalCode": "L6J2Z1",
        "streetName": "NAVY",
        "streetDirectionId": null,
        "streetTypeId": "ST",
        "placeName": "OAKVILLE",
        "streetNameDisplayText": "NAVY ST, OAKVILLE"
      }
    ]
  },
  {
    "postal": "L6J7N1",
    "result": [
      {
        "electoralDistricts": [
          {
            "election": null,
            "id": 74,
            "name": "Oakville"
          }
        ],
        "pollDivisionIds": [
          10140361
        ],
        "postalCode": "L6J7N1",
        "streetName": "BEL AIR",
        "streetDirectionId": null,
        "streetTypeId": "DR",
        "placeName": "OAKVILLE",
        "streetNameDisplayText": "BEL AIR DR, OAKVILLE"
      }
    ]
  },
  {
    "postal": "L6J3C6",
    "result": [
      {
        "electoralDistricts": [
          {
            "election": null,
            "id": 74,
            "name": "Oakville"
          }
        ],
        "pollDivisionIds": [
          10140360
        ],
        "postalCode": "L6J3C6",
        "streetName": "DUNN",
        "streetDirectionId": null,
        "streetTypeId": "ST",
        "placeName": "OAKVILLE",
        "streetNameDisplayText": "DUNN ST, OAKVILLE"
      }
    ]
  },
  {
    "postal": "L6J4M1",
    "result": [
      {
        "electoralDistricts": [
          {
            "election": null,
            "id": 74,
            "name": "Oakville"
          }
        ],
        "pollDivisionIds": [
          10140363
        ],
        "postalCode": "L6J4M1",
        "streetName": "CAIRNCROFT",
        "streetDirectionId": null,
        "streetTypeId": "RD",
        "placeName": "OAKVILLE",
        "streetNameDisplayText": "CAIRNCROFT RD, OAKVILLE"
      }
    ]
  },
  {
    "postal": "L6J9K2",
    "result": []
  },
  {
    "postal": "L6J9S6",
    "result": []
  },
  {
    "postal": "L6J4X1",
    "result": [
      {
        "electoralDistricts": [
          {
            "election": null,
            "id": 74,
            "name": "Oakville"
          }
        ],
        "pollDivisionIds": [
          10140365
        ],
        "postalCode": "L6J4X1",
        "streetName": "PINEHURST",
        "streetDirectionId": null,
        "streetTypeId": "DR",
        "placeName": "OAKVILLE",
        "streetNameDisplayText": "PINEHURST DR, OAKVILLE"
      }
    ]
  },
  {
    "postal": "L6J8W2",
    "result": []
  },
  {
    "postal": "L6J7N2",
    "result": [
      {
        "electoralDistricts": [
          {
            "election": null,
            "id": 74,
            "name": "Oakville"
          }
        ],
        "pollDivisionIds": [
          10140360
        ],
        "postalCode": "L6J7N2",
        "streetName": "CHURCH",
        "streetDirectionId": null,
        "streetTypeId": "ST",
        "placeName": "OAKVILLE",
        "streetNameDisplayText": "CHURCH ST, OAKVILLE"
      }
    ]
  },
  {
    "postal": "L6J8S3",
    "result": []
  },
  {
    "postal": "L6J4V0",
    "result": []
  },
  {
    "postal": "L6J6W4",
    "result": [
      {
        "electoralDistricts": [
          {
            "election": null,
            "id": 74,
            "name": "Oakville"
          }
        ],
        "pollDivisionIds": [
          10140343
        ],
        "postalCode": "L6J6W4",
        "streetName": "CARADOC",
        "streetDirectionId": null,
        "streetTypeId": "LANE",
        "placeName": "OAKVILLE",
        "streetNameDisplayText": "CARADOC LANE, OAKVILLE"
      }
    ]
  },
  {
    "postal": "L6J5M1",
    "result": [
      {
        "electoralDistricts": [
          {
            "election": null,
            "id": 74,
            "name": "Oakville"
          }
        ],
        "pollDivisionIds": [
          10140365
        ],
        "postalCode": "L6J5M1",
        "streetName": "DEVON",
        "streetDirectionId": null,
        "streetTypeId": "RD",
        "placeName": "OAKVILLE",
        "streetNameDisplayText": "DEVON RD, OAKVILLE"
      }
    ]
  },
  {
    "postal": "L6J0S4",
    "result": []
  },
  {
    "postal": "L6J5X6",
    "result": [
      {
        "electoralDistricts": [
          {
            "election": null,
            "id": 74,
            "name": "Oakville"
          }
        ],
        "pollDivisionIds": [
          10140365
        ],
        "postalCode": "L6J5X6",
        "streetName": "CONSTANCE",
        "streetDirectionId": null,
        "streetTypeId": "DR",
        "placeName": "OAKVILLE",
        "streetNameDisplayText": "CONSTANCE DR, OAKVILLE"
      }
    ]
  },
  {
    "postal": "L6J8L5",
    "result": []
  },
  {
    "postal": "L6J5M8",
    "result": [
      {
        "electoralDistricts": [
          {
            "election": null,
            "id": 74,
            "name": "Oakville"
          }
        ],
        "pollDivisionIds": [
          10140365
        ],
        "postalCode": "L6J5M8",
        "streetName": "ALL SAINTS",
        "streetDirectionId": null,
        "streetTypeId": "CRES",
        "placeName": "OAKVILLE",
        "streetNameDisplayText": "ALL SAINTS CRES, OAKVILLE"
      }
    ]
  },
  {
    "postal": "L6J2G3",
    "result": [
      {
        "electoralDistricts": [
          {
            "election": null,
            "id": 74,
            "name": "Oakville"
          }
        ],
        "pollDivisionIds": [
          10140365
        ],
        "postalCode": "L6J2G3",
        "streetName": "GATESTONE",
        "streetDirectionId": null,
        "streetTypeId": "AVE",
        "placeName": "OAKVILLE",
        "streetNameDisplayText": "GATESTONE AVE, OAKVILLE"
      }
    ]
  },
  {
    "postal": "L6J8E4",
    "result": []
  },
  {
    "postal": "L6J7S9",
    "result": []
  },
  {
    "postal": "L6J1K3",
    "result": []
  },
  {
    "postal": "L6J4E1",
    "result": [
      {
        "electoralDistricts": [
          {
            "election": null,
            "id": 74,
            "name": "Oakville"
          }
        ],
        "pollDivisionIds": [
          10140361
        ],
        "postalCode": "L6J4E1",
        "streetName": "POPLAR",
        "streetDirectionId": null,
        "streetTypeId": "DR",
        "placeName": "OAKVILLE",
        "streetNameDisplayText": "POPLAR DR, OAKVILLE"
      }
    ]
  },
  {
    "postal": "L6J4R2",
    "result": [
      {
        "electoralDistricts": [
          {
            "election": null,
            "id": 74,
            "name": "Oakville"
          }
        ],
        "pollDivisionIds": [
          10140364
        ],
        "postalCode": "L6J4R2",
        "streetName": "TRELAWN",
        "streetDirectionId": null,
        "streetTypeId": "AVE",
        "placeName": "OAKVILLE",
        "streetNameDisplayText": "TRELAWN AVE, OAKVILLE"
      }
    ]
  },
  {
    "postal": "L6J6T0",
    "result": []
  },
  {
    "postal": "L6J3K5",
    "result": [
      {
        "electoralDistricts": [
          {
            "election": null,
            "id": 74,
            "name": "Oakville"
          }
        ],
        "pollDivisionIds": [
          10140360
        ],
        "postalCode": "L6J3K5",
        "streetName": "REYNOLDS",
        "streetDirectionId": null,
        "streetTypeId": "ST",
        "placeName": "OAKVILLE",
        "streetNameDisplayText": "REYNOLDS ST, OAKVILLE"
      }
    ]
  },
  {
    "postal": "L6J3S3",
    "result": [
      {
        "electoralDistricts": [
          {
            "election": null,
            "id": 74,
            "name": "Oakville"
          }
        ],
        "pollDivisionIds": [
          10140361
        ],
        "postalCode": "L6J3S3",
        "streetName": "DOUGLAS",
        "streetDirectionId": null,
        "streetTypeId": "AVE",
        "placeName": "OAKVILLE",
        "streetNameDisplayText": "DOUGLAS AVE, OAKVILLE"
      }
    ]
  },
  {
    "postal": "L6J3L4",
    "result": [
      {
        "electoralDistricts": [
          {
            "election": null,
            "id": 74,
            "name": "Oakville"
          }
        ],
        "pollDivisionIds": [
          10140360,
          10140361
        ],
        "postalCode": "L6J3L4",
        "streetName": "REYNOLDS",
        "streetDirectionId": null,
        "streetTypeId": "ST",
        "placeName": "OAKVILLE",
        "streetNameDisplayText": "REYNOLDS ST, OAKVILLE"
      }
    ]
  },
  {
    "postal": "L6J9Y2",
    "result": []
  },
  {
    "postal": "L6J1E0",
    "result": []
  },
  {
    "postal": "L6J9A4",
    "result": []
  },
  {
    "postal": "L6J1L3",
    "result": [
      {
        "electoralDistricts": [
          {
            "election": null,
            "id": 74,
            "name": "Oakville"
          }
        ],
        "pollDivisionIds": [
          10140361
        ],
        "postalCode": "L6J1L3",
        "streetName": "LAKESHORE",
        "streetDirectionId": "E",
        "streetTypeId": "RD",
        "placeName": "OAKVILLE",
        "streetNameDisplayText": "LAKESHORE RD E, OAKVILLE"
      }
    ]
  },
  {
    "postal": "L6J6N1",
    "result": []
  },
  {
    "postal": "L6J6G7",
    "result": []
  },
  {
    "postal": "L6J7W1",
    "result": [
      {
        "electoralDistricts": [
          {
            "election": null,
            "id": 74,
            "name": "Oakville"
          }
        ],
        "pollDivisionIds": [
          10140385
        ],
        "postalCode": "L6J7W1",
        "streetName": "OLD MILL",
        "streetDirectionId": null,
        "streetTypeId": "RD",
        "placeName": "OAKVILLE",
        "streetNameDisplayText": "OLD MILL RD, OAKVILLE"
      }
    ]
  },
  {
    "postal": "L6J4M6",
    "result": [
      {
        "electoralDistricts": [
          {
            "election": null,
            "id": 74,
            "name": "Oakville"
          }
        ],
        "pollDivisionIds": [
          10140363
        ],
        "postalCode": "L6J4M6",
        "streetName": "CAIRNCROFT",
        "streetDirectionId": null,
        "streetTypeId": "RD",
        "placeName": "OAKVILLE",
        "streetNameDisplayText": "CAIRNCROFT RD, OAKVILLE"
      }
    ]
  },
  {
    "postal": "L6J1K0",
    "result": []
  },
  {
    "postal": "L6J3E2",
    "result": [
      {
        "electoralDistricts": [
          {
            "election": null,
            "id": 74,
            "name": "Oakville"
          }
        ],
        "pollDivisionIds": [
          10140360
        ],
        "postalCode": "L6J3E2",
        "streetName": "DUNN",
        "streetDirectionId": null,
        "streetTypeId": "ST",
        "placeName": "OAKVILLE",
        "streetNameDisplayText": "DUNN ST, OAKVILLE"
      }
    ]
  },
  {
    "postal": "L6J5H4",
    "result": [
      {
        "electoralDistricts": [
          {
            "election": null,
            "id": 74,
            "name": "Oakville"
          }
        ],
        "pollDivisionIds": [
          10140365
        ],
        "postalCode": "L6J5H4",
        "streetName": "CASTLE",
        "streetDirectionId": null,
        "streetTypeId": "CRES",
        "placeName": "OAKVILLE",
        "streetNameDisplayText": "CASTLE CRES, OAKVILLE"
      }
    ]
  },
  {
    "postal": "L6J1K7",
    "result": [
      {
        "electoralDistricts": [
          {
            "election": null,
            "id": 74,
            "name": "Oakville"
          }
        ],
        "pollDivisionIds": [
          10140361
        ],
        "postalCode": "L6J1K7",
        "streetName": "LAKESHORE",
        "streetDirectionId": "E",
        "streetTypeId": "RD",
        "placeName": "OAKVILLE",
        "streetNameDisplayText": "LAKESHORE RD E, OAKVILLE"
      }
    ]
  },
  {
    "postal": "L6J0H0",
    "result": []
  },
  {
    "postal": "L6J0J3",
    "result": []
  },
  {
    "postal": "L6J1X6",
    "result": [
      {
        "electoralDistricts": [
          {
            "election": null,
            "id": 74,
            "name": "Oakville"
          }
        ],
        "pollDivisionIds": [
          10140364
        ],
        "postalCode": "L6J1X6",
        "streetName": "HILLHURST",
        "streetDirectionId": null,
        "streetTypeId": "RD",
        "placeName": "OAKVILLE",
        "streetNameDisplayText": "HILLHURST RD, OAKVILLE"
      }
    ]
  },
  {
    "postal": "L6J2Z6",
    "result": [
      {
        "electoralDistricts": [
          {
            "election": null,
            "id": 74,
            "name": "Oakville"
          }
        ],
        "pollDivisionIds": [
          10140360
        ],
        "postalCode": "L6J2Z6",
        "streetName": "NAVY",
        "streetDirectionId": null,
        "streetTypeId": "ST",
        "placeName": "OAKVILLE",
        "streetNameDisplayText": "NAVY ST, OAKVILLE"
      }
    ]
  },
  {
    "postal": "L6J4R9",
    "result": [
      {
        "electoralDistricts": [
          {
            "election": null,
            "id": 74,
            "name": "Oakville"
          }
        ],
        "pollDivisionIds": [
          10140364
        ],
        "postalCode": "L6J4R9",
        "streetName": "WEDGEWOOD",
        "streetDirectionId": null,
        "streetTypeId": "DR",
        "placeName": "OAKVILLE",
        "streetNameDisplayText": "WEDGEWOOD DR, OAKVILLE"
      }
    ]
  },
  {
    "postal": "L6J0W8",
    "result": []
  },
  {
    "postal": "L6J1L4",
    "result": [
      {
        "electoralDistricts": [
          {
            "election": null,
            "id": 74,
            "name": "Oakville"
          }
        ],
        "pollDivisionIds": [
          10140364
        ],
        "postalCode": "L6J1L4",
        "streetName": "LAKESHORE",
        "streetDirectionId": "E",
        "streetTypeId": "RD",
        "placeName": "OAKVILLE",
        "streetNameDisplayText": "LAKESHORE RD E, OAKVILLE"
      }
    ]
  },
  {
    "postal": "L6J0C8",
    "result": []
  },
  {
    "postal": "L6J9X7",
    "result": []
  },
  {
    "postal": "L6J4T1",
    "result": [
      {
        "electoralDistricts": [
          {
            "election": null,
            "id": 74,
            "name": "Oakville"
          }
        ],
        "pollDivisionIds": [
          10140364
        ],
        "postalCode": "L6J4T1",
        "streetName": "BELLWOOD",
        "streetDirectionId": null,
        "streetTypeId": "AVE",
        "placeName": "OAKVILLE",
        "streetNameDisplayText": "BELLWOOD AVE, OAKVILLE"
      }
    ]
  },
  {
    "postal": "L6J0M0",
    "result": []
  },
  {
    "postal": "L6J6A2",
    "result": [
      {
        "electoralDistricts": [
          {
            "election": null,
            "id": 74,
            "name": "Oakville"
          }
        ],
        "pollDivisionIds": [
          10140363
        ],
        "postalCode": "L6J6A2",
        "streetName": "CHAMBERLAIN",
        "streetDirectionId": null,
        "streetTypeId": "LANE",
        "placeName": "OAKVILLE",
        "streetNameDisplayText": "CHAMBERLAIN LANE, OAKVILLE"
      }
    ]
  },
  {
    "postal": "L6J9S8",
    "result": []
  },
  {
    "postal": "L6J9T4",
    "result": []
  },
  {
    "postal": "L6J9Y4",
    "result": []
  },
  {
    "postal": "L6J6G5",
    "result": [
      {
        "electoralDistricts": [
          {
            "election": null,
            "id": 74,
            "name": "Oakville"
          }
        ],
        "pollDivisionIds": [
          10140366
        ],
        "postalCode": "L6J6G5",
        "streetName": "CARRINGTON",
        "streetDirectionId": null,
        "streetTypeId": "PL",
        "placeName": "OAKVILLE",
        "streetNameDisplayText": "CARRINGTON PL, OAKVILLE"
      }
    ]
  },
  {
    "postal": "L6J6H9",
    "result": [
      {
        "electoralDistricts": [
          {
            "election": null,
            "id": 74,
            "name": "Oakville"
          }
        ],
        "pollDivisionIds": [
          10140366
        ],
        "postalCode": "L6J6H9",
        "streetName": "BARCLAY",
        "streetDirectionId": null,
        "streetTypeId": "CRES",
        "placeName": "OAKVILLE",
        "streetNameDisplayText": "BARCLAY CRES, OAKVILLE"
      },
      {
        "electoralDistricts": [
          {
            "election": null,
            "id": 75,
            "name": "Oakville Northâ€”Burlington"
          }
        ],
        "pollDivisionIds": [
          10140400
        ],
        "postalCode": "L6J6H9",
        "streetName": "MUNN'S",
        "streetDirectionId": null,
        "streetTypeId": "AVE",
        "placeName": "OAKVILLE",
        "streetNameDisplayText": "MUNN'S AVE, OAKVILLE"
      }
    ]
  },
  {
    "postal": "L6J2P3",
    "result": [
      {
        "electoralDistricts": [
          {
            "election": null,
            "id": 74,
            "name": "Oakville"
          }
        ],
        "pollDivisionIds": [
          10140364
        ],
        "postalCode": "L6J2P3",
        "streetName": "DURHAM",
        "streetDirectionId": null,
        "streetTypeId": "ST",
        "placeName": "OAKVILLE",
        "streetNameDisplayText": "DURHAM ST, OAKVILLE"
      }
    ]
  },
  {
    "postal": "L6J1T6",
    "result": [
      {
        "electoralDistricts": [
          {
            "election": null,
            "id": 74,
            "name": "Oakville"
          }
        ],
        "pollDivisionIds": [
          10140361
        ],
        "postalCode": "L6J1T6",
        "streetName": "PALMER",
        "streetDirectionId": null,
        "streetTypeId": "AVE",
        "placeName": "OAKVILLE",
        "streetNameDisplayText": "PALMER AVE, OAKVILLE"
      }
    ]
  },
  {
    "postal": "L6J4P6",
    "result": [
      {
        "electoralDistricts": [
          {
            "election": null,
            "id": 74,
            "name": "Oakville"
          }
        ],
        "pollDivisionIds": [
          10140364
        ],
        "postalCode": "L6J4P6",
        "streetName": "ASH",
        "streetDirectionId": null,
        "streetTypeId": "RD",
        "placeName": "OAKVILLE",
        "streetNameDisplayText": "ASH RD, OAKVILLE"
      }
    ]
  },
  {
    "postal": "L6J3K1",
    "result": [
      {
        "electoralDistricts": [
          {
            "election": null,
            "id": 74,
            "name": "Oakville"
          }
        ],
        "pollDivisionIds": [
          10140360
        ],
        "postalCode": "L6J3K1",
        "streetName": "REYNOLDS",
        "streetDirectionId": null,
        "streetTypeId": "ST",
        "placeName": "OAKVILLE",
        "streetNameDisplayText": "REYNOLDS ST, OAKVILLE"
      }
    ]
  },
  {
    "postal": "L6J6X4",
    "result": [
      {
        "electoralDistricts": [
          {
            "election": null,
            "id": 74,
            "name": "Oakville"
          }
        ],
        "pollDivisionIds": [
          10140343
        ],
        "postalCode": "L6J6X4",
        "streetName": "CLEARVIEW",
        "streetDirectionId": null,
        "streetTypeId": "DR",
        "placeName": "OAKVILLE",
        "streetNameDisplayText": "CLEARVIEW DR, OAKVILLE"
      }
    ]
  },
  {
    "postal": "L6J4M8",
    "result": [
      {
        "electoralDistricts": [
          {
            "election": null,
            "id": 74,
            "name": "Oakville"
          }
        ],
        "pollDivisionIds": [
          10140364
        ],
        "postalCode": "L6J4M8",
        "streetName": "CAIRNCROFT",
        "streetDirectionId": null,
        "streetTypeId": "RD",
        "placeName": "OAKVILLE",
        "streetNameDisplayText": "CAIRNCROFT RD, OAKVILLE"
      }
    ]
  },
  {
    "postal": "L6J2Y1",
    "result": [
      {
        "electoralDistricts": [
          {
            "election": null,
            "id": 74,
            "name": "Oakville"
          }
        ],
        "pollDivisionIds": [
          10140358
        ],
        "postalCode": "L6J2Y1",
        "streetName": "LYONS",
        "streetDirectionId": null,
        "streetTypeId": "LANE",
        "placeName": "OAKVILLE",
        "streetNameDisplayText": "LYONS LANE, OAKVILLE"
      }
    ]
  },
  {
    "postal": "L6J6M1",
    "result": [
      {
        "electoralDistricts": [
          {
            "election": null,
            "id": 74,
            "name": "Oakville"
          }
        ],
        "pollDivisionIds": [
          10140360
        ],
        "postalCode": "L6J6M1",
        "streetName": "RAYMAR",
        "streetDirectionId": null,
        "streetTypeId": "PL",
        "placeName": "OAKVILLE",
        "streetNameDisplayText": "RAYMAR PL, OAKVILLE"
      }
    ]
  },
  {
    "postal": "L6J5L8",
    "result": [
      {
        "electoralDistricts": [
          {
            "election": null,
            "id": 74,
            "name": "Oakville"
          }
        ],
        "pollDivisionIds": [
          10140366
        ],
        "postalCode": "L6J5L8",
        "streetName": "CONSTANCE",
        "streetDirectionId": null,
        "streetTypeId": "DR",
        "placeName": "OAKVILLE",
        "streetNameDisplayText": "CONSTANCE DR, OAKVILLE"
      }
    ]
  },
  {
    "postal": "L6J3P6",
    "result": [
      {
        "electoralDistricts": [
          {
            "election": null,
            "id": 74,
            "name": "Oakville"
          }
        ],
        "pollDivisionIds": [
          10140363
        ],
        "postalCode": "L6J3P6",
        "streetName": "ALLAN",
        "streetDirectionId": null,
        "streetTypeId": "ST",
        "placeName": "OAKVILLE",
        "streetNameDisplayText": "ALLAN ST, OAKVILLE"
      }
    ]
  },
  {
    "postal": "L6J9A5",
    "result": []
  },
  {
    "postal": "L6J7K1",
    "result": [
      {
        "electoralDistricts": [
          {
            "election": null,
            "id": 74,
            "name": "Oakville"
          }
        ],
        "pollDivisionIds": [
          10140343
        ],
        "postalCode": "L6J7K1",
        "streetName": "SHERWOOD HEIGHTS",
        "streetDirectionId": null,
        "streetTypeId": "DR",
        "placeName": "OAKVILLE",
        "streetNameDisplayText": "SHERWOOD HEIGHTS DR, OAKVILLE"
      }
    ]
  },
  {
    "postal": "L6J3J4",
    "result": [
      {
        "electoralDistricts": [
          {
            "election": null,
            "id": 74,
            "name": "Oakville"
          }
        ],
        "pollDivisionIds": [
          10140358
        ],
        "postalCode": "L6J3J4",
        "streetName": "ARGUS",
        "streetDirectionId": null,
        "streetTypeId": "RD",
        "placeName": "OAKVILLE",
        "streetNameDisplayText": "ARGUS RD, OAKVILLE"
      }
    ]
  },
  {
    "postal": "L6J5E7",
    "result": []
  },
  {
    "postal": "L6J3A7",
    "result": [
      {
        "electoralDistricts": [
          {
            "election": null,
            "id": 74,
            "name": "Oakville"
          }
        ],
        "pollDivisionIds": [
          10140360
        ],
        "postalCode": "L6J3A7",
        "streetName": "THOMAS",
        "streetDirectionId": null,
        "streetTypeId": "ST",
        "placeName": "OAKVILLE",
        "streetNameDisplayText": "THOMAS ST, OAKVILLE"
      }
    ]
  },
  {
    "postal": "L6J1B9",
    "result": [
      {
        "electoralDistricts": [
          {
            "election": null,
            "id": 74,
            "name": "Oakville"
          }
        ],
        "pollDivisionIds": [
          10140360
        ],
        "postalCode": "L6J1B9",
        "streetName": "KING",
        "streetDirectionId": null,
        "streetTypeId": "ST",
        "placeName": "OAKVILLE",
        "streetNameDisplayText": "KING ST, OAKVILLE"
      }
    ]
  },
  {
    "postal": "L6J9E8",
    "result": []
  },
  {
    "postal": "L6J1C9",
    "result": [
      {
        "electoralDistricts": [
          {
            "election": null,
            "id": 74,
            "name": "Oakville"
          }
        ],
        "pollDivisionIds": [
          10140360
        ],
        "postalCode": "L6J1C9",
        "streetName": "WILLIAM",
        "streetDirectionId": null,
        "streetTypeId": "ST",
        "placeName": "OAKVILLE",
        "streetNameDisplayText": "WILLIAM ST, OAKVILLE"
      }
    ]
  },
  {
    "postal": "L6J3B5",
    "result": [
      {
        "electoralDistricts": [
          {
            "election": null,
            "id": 74,
            "name": "Oakville"
          }
        ],
        "pollDivisionIds": [
          10140360
        ],
        "postalCode": "L6J3B5",
        "streetName": "GEORGE",
        "streetDirectionId": null,
        "streetTypeId": "ST",
        "placeName": "OAKVILLE",
        "streetNameDisplayText": "GEORGE ST, OAKVILLE"
      }
    ]
  },
  {
    "postal": "L6J8R0",
    "result": []
  },
  {
    "postal": "L6J3P2",
    "result": [
      {
        "electoralDistricts": [
          {
            "election": null,
            "id": 74,
            "name": "Oakville"
          }
        ],
        "pollDivisionIds": [
          10140361
        ],
        "postalCode": "L6J3P2",
        "streetName": "ALLAN",
        "streetDirectionId": null,
        "streetTypeId": "ST",
        "placeName": "OAKVILLE",
        "streetNameDisplayText": "ALLAN ST, OAKVILLE"
      }
    ]
  },
  {
    "postal": "L6J5V4",
    "result": [
      {
        "electoralDistricts": [
          {
            "election": null,
            "id": 74,
            "name": "Oakville"
          }
        ],
        "pollDivisionIds": [
          10140364
        ],
        "postalCode": "L6J5V4",
        "streetName": "DUNEDIN",
        "streetDirectionId": null,
        "streetTypeId": "RD",
        "placeName": "OAKVILLE",
        "streetNameDisplayText": "DUNEDIN RD, OAKVILLE"
      }
    ]
  },
  {
    "postal": "L6J4H0",
    "result": []
  },
  {
    "postal": "L6J4S7",
    "result": [
      {
        "electoralDistricts": [
          {
            "election": null,
            "id": 74,
            "name": "Oakville"
          }
        ],
        "pollDivisionIds": [
          10140364
        ],
        "postalCode": "L6J4S7",
        "streetName": "WEDGEWOOD",
        "streetDirectionId": null,
        "streetTypeId": "DR",
        "placeName": "OAKVILLE",
        "streetNameDisplayText": "WEDGEWOOD DR, OAKVILLE"
      }
    ]
  },
  {
    "postal": "L6J6C2",
    "result": [
      {
        "electoralDistricts": [
          {
            "election": null,
            "id": 74,
            "name": "Oakville"
          }
        ],
        "pollDivisionIds": [
          10140366
        ],
        "postalCode": "L6J6C2",
        "streetName": "BENNINGTON",
        "streetDirectionId": null,
        "streetTypeId": "GATE",
        "placeName": "OAKVILLE",
        "streetNameDisplayText": "BENNINGTON GATE, OAKVILLE"
      }
    ]
  },
  {
    "postal": "L6J8W3",
    "result": []
  },
  {
    "postal": "L6J4M5",
    "result": [
      {
        "electoralDistricts": [
          {
            "election": null,
            "id": 74,
            "name": "Oakville"
          }
        ],
        "pollDivisionIds": [
          10140364
        ],
        "postalCode": "L6J4M5",
        "streetName": "CAIRNCROFT",
        "streetDirectionId": null,
        "streetTypeId": "RD",
        "placeName": "OAKVILLE",
        "streetNameDisplayText": "CAIRNCROFT RD, OAKVILLE"
      }
    ]
  },
  {
    "postal": "L6J5T1",
    "result": [
      {
        "electoralDistricts": [
          {
            "election": null,
            "id": 74,
            "name": "Oakville"
          }
        ],
        "pollDivisionIds": [
          10140364
        ],
        "postalCode": "L6J5T1",
        "streetName": "CAULDER",
        "streetDirectionId": null,
        "streetTypeId": "DR",
        "placeName": "OAKVILLE",
        "streetNameDisplayText": "CAULDER DR, OAKVILLE"
      }
    ]
  },
  {
    "postal": "L6J3B3",
    "result": [
      {
        "electoralDistricts": [
          {
            "election": null,
            "id": 74,
            "name": "Oakville"
          }
        ],
        "pollDivisionIds": [
          10140360
        ],
        "postalCode": "L6J3B3",
        "streetName": "GEORGE",
        "streetDirectionId": null,
        "streetTypeId": "ST",
        "placeName": "OAKVILLE",
        "streetNameDisplayText": "GEORGE ST, OAKVILLE"
      }
    ]
  },
  {
    "postal": "L6J6C6",
    "result": [
      {
        "electoralDistricts": [
          {
            "election": null,
            "id": 74,
            "name": "Oakville"
          }
        ],
        "pollDivisionIds": [
          10140366
        ],
        "postalCode": "L6J6C6",
        "streetName": "ARICHAT",
        "streetDirectionId": null,
        "streetTypeId": "RD",
        "placeName": "OAKVILLE",
        "streetNameDisplayText": "ARICHAT RD, OAKVILLE"
      }
    ]
  },
  {
    "postal": "L6J7N8",
    "result": [
      {
        "electoralDistricts": [
          {
            "election": null,
            "id": 74,
            "name": "Oakville"
          }
        ],
        "pollDivisionIds": [
          10140344
        ],
        "postalCode": "L6J7N8",
        "streetName": "GABLE",
        "streetDirectionId": null,
        "streetTypeId": "DR",
        "placeName": "OAKVILLE",
        "streetNameDisplayText": "GABLE DR, OAKVILLE"
      },
      {
        "electoralDistricts": [
          {
            "election": null,
            "id": 74,
            "name": "Oakville"
          }
        ],
        "pollDivisionIds": [
          10140344
        ],
        "postalCode": "L6J7N8",
        "streetName": "LANSDOWN",
        "streetDirectionId": null,
        "streetTypeId": "DR",
        "placeName": "OAKVILLE",
        "streetNameDisplayText": "LANSDOWN DR, OAKVILLE"
      }
    ]
  },
  {
    "postal": "L6J2Y3",
    "result": [
      {
        "electoralDistricts": [
          {
            "election": null,
            "id": 74,
            "name": "Oakville"
          }
        ],
        "pollDivisionIds": [
          10140360
        ],
        "postalCode": "L6J2Y3",
        "streetName": "WATER",
        "streetDirectionId": null,
        "streetTypeId": "ST",
        "placeName": "OAKVILLE",
        "streetNameDisplayText": "WATER ST, OAKVILLE"
      }
    ]
  },
  {
    "postal": "L6J2R6",
    "result": [
      {
        "electoralDistricts": [
          {
            "election": null,
            "id": 74,
            "name": "Oakville"
          }
        ],
        "pollDivisionIds": [
          10140364
        ],
        "postalCode": "L6J2R6",
        "streetName": "DUNCAN",
        "streetDirectionId": null,
        "streetTypeId": "RD",
        "placeName": "OAKVILLE",
        "streetNameDisplayText": "DUNCAN RD, OAKVILLE"
      }
    ]
  },
  {
    "postal": "L6J7N3",
    "result": [
      {
        "electoralDistricts": [
          {
            "election": null,
            "id": 74,
            "name": "Oakville"
          }
        ],
        "pollDivisionIds": [
          10140360
        ],
        "postalCode": "L6J7N3",
        "streetName": "ROBINSON",
        "streetDirectionId": null,
        "streetTypeId": "ST",
        "placeName": "OAKVILLE",
        "streetNameDisplayText": "ROBINSON ST, OAKVILLE"
      }
    ]
  },
  {
    "postal": "L6J8J2",
    "result": []
  },
  {
    "postal": "L6J6A9",
    "result": [
      {
        "electoralDistricts": [
          {
            "election": null,
            "id": 74,
            "name": "Oakville"
          }
        ],
        "pollDivisionIds": [
          10140366
        ],
        "postalCode": "L6J6A9",
        "streetName": "DORLAND",
        "streetDirectionId": null,
        "streetTypeId": "RD",
        "placeName": "OAKVILLE",
        "streetNameDisplayText": "DORLAND RD, OAKVILLE"
      }
    ]
  },
  {
    "postal": "L6J3V2",
    "result": [
      {
        "electoralDistricts": [
          {
            "election": null,
            "id": 74,
            "name": "Oakville"
          }
        ],
        "pollDivisionIds": [
          10140361
        ],
        "postalCode": "L6J3V2",
        "streetName": "WATSON",
        "streetDirectionId": null,
        "streetTypeId": "AVE",
        "placeName": "OAKVILLE",
        "streetNameDisplayText": "WATSON AVE, OAKVILLE"
      }
    ]
  },
  {
    "postal": "L6J2N3",
    "result": []
  },
  {
    "postal": "L6J1S5",
    "result": [
      {
        "electoralDistricts": [
          {
            "election": null,
            "id": 74,
            "name": "Oakville"
          }
        ],
        "pollDivisionIds": [
          10140360
        ],
        "postalCode": "L6J1S5",
        "streetName": "SUMNER",
        "streetDirectionId": null,
        "streetTypeId": "AVE",
        "placeName": "OAKVILLE",
        "streetNameDisplayText": "SUMNER AVE, OAKVILLE"
      }
    ]
  },
  {
    "postal": "L6J4T7",
    "result": [
      {
        "electoralDistricts": [
          {
            "election": null,
            "id": 74,
            "name": "Oakville"
          }
        ],
        "pollDivisionIds": [
          10140364
        ],
        "postalCode": "L6J4T7",
        "streetName": "BENTLEY",
        "streetDirectionId": null,
        "streetTypeId": "RD",
        "placeName": "OAKVILLE",
        "streetNameDisplayText": "BENTLEY RD, OAKVILLE"
      }
    ]
  },
  {
    "postal": "L6J6Y7",
    "result": [
      {
        "electoralDistricts": [
          {
            "election": null,
            "id": 74,
            "name": "Oakville"
          }
        ],
        "pollDivisionIds": [
          10140344
        ],
        "postalCode": "L6J6Y7",
        "streetName": "FONTHILL",
        "streetDirectionId": null,
        "streetTypeId": "DR",
        "placeName": "OAKVILLE",
        "streetNameDisplayText": "FONTHILL DR, OAKVILLE"
      }
    ]
  },
  {
    "postal": "L6J0W7",
    "result": []
  },
  {
    "postal": "L6J2W9",
    "result": [
      {
        "electoralDistricts": [
          {
            "election": null,
            "id": 74,
            "name": "Oakville"
          }
        ],
        "pollDivisionIds": [
          10140358
        ],
        "postalCode": "L6J2W9",
        "streetName": "CROSS",
        "streetDirectionId": null,
        "streetTypeId": "AVE",
        "placeName": "OAKVILLE",
        "streetNameDisplayText": "CROSS AVE, OAKVILLE"
      }
    ]
  },
  {
    "postal": "L6J8V0",
    "result": []
  },
  {
    "postal": "L6J0H4",
    "result": []
  },
  {
    "postal": "L6J2T1",
    "result": [
      {
        "electoralDistricts": [
          {
            "election": null,
            "id": 74,
            "name": "Oakville"
          }
        ],
        "pollDivisionIds": [
          10140364
        ],
        "postalCode": "L6J2T1",
        "streetName": "AVON",
        "streetDirectionId": null,
        "streetTypeId": "CRES",
        "placeName": "OAKVILLE",
        "streetNameDisplayText": "AVON CRES, OAKVILLE"
      }
    ]
  },
  {
    "postal": "L6J1B1",
    "result": [
      {
        "electoralDistricts": [
          {
            "election": null,
            "id": 74,
            "name": "Oakville"
          }
        ],
        "pollDivisionIds": [
          10140360
        ],
        "postalCode": "L6J1B1",
        "streetName": "KING",
        "streetDirectionId": null,
        "streetTypeId": "ST",
        "placeName": "OAKVILLE",
        "streetNameDisplayText": "KING ST, OAKVILLE"
      }
    ]
  },
  {
    "postal": "L6J8B6",
    "result": []
  },
  {
    "postal": "L6J6H1",
    "result": [
      {
        "electoralDistricts": [
          {
            "election": null,
            "id": 74,
            "name": "Oakville"
          }
        ],
        "pollDivisionIds": [
          10140366
        ],
        "postalCode": "L6J6H1",
        "streetName": "BONNY MEADOW",
        "streetDirectionId": null,
        "streetTypeId": "RD",
        "placeName": "OAKVILLE",
        "streetNameDisplayText": "BONNY MEADOW RD, OAKVILLE"
      }
    ]
  },
  {
    "postal": "L6J8T8",
    "result": []
  },
  {
    "postal": "L6J0T4",
    "result": []
  },
  {
    "postal": "L6J2C4",
    "result": [
      {
        "electoralDistricts": [
          {
            "election": null,
            "id": 74,
            "name": "Oakville"
          }
        ],
        "pollDivisionIds": [
          10140363
        ],
        "postalCode": "L6J2C4",
        "streetName": "CEDAR GROVE",
        "streetDirectionId": null,
        "streetTypeId": "BLVD",
        "placeName": "OAKVILLE",
        "streetNameDisplayText": "CEDAR GROVE BLVD, OAKVILLE"
      }
    ]
  },
  {
    "postal": "L6J8N3",
    "result": []
  },
  {
    "postal": "L6J4L8",
    "result": [
      {
        "electoralDistricts": [
          {
            "election": null,
            "id": 74,
            "name": "Oakville"
          }
        ],
        "pollDivisionIds": [
          10140364
        ],
        "postalCode": "L6J4L8",
        "streetName": "CAIRNCROFT",
        "streetDirectionId": null,
        "streetTypeId": "RD",
        "placeName": "OAKVILLE",
        "streetNameDisplayText": "CAIRNCROFT RD, OAKVILLE"
      }
    ]
  },
  {
    "postal": "L6J2B5",
    "result": [
      {
        "electoralDistricts": [
          {
            "election": null,
            "id": 74,
            "name": "Oakville"
          }
        ],
        "pollDivisionIds": [
          10140363
        ],
        "postalCode": "L6J2B5",
        "streetName": "MACDONALD",
        "streetDirectionId": null,
        "streetTypeId": "RD",
        "placeName": "OAKVILLE",
        "streetNameDisplayText": "MACDONALD RD, OAKVILLE"
      }
    ]
  },
  {
    "postal": "L6J3H1",
    "result": [
      {
        "electoralDistricts": [
          {
            "election": null,
            "id": 74,
            "name": "Oakville"
          }
        ],
        "pollDivisionIds": [
          10140361
        ],
        "postalCode": "L6J3H1",
        "streetName": "TRAFALGAR",
        "streetDirectionId": null,
        "streetTypeId": "RD",
        "placeName": "OAKVILLE",
        "streetNameDisplayText": "TRAFALGAR RD, OAKVILLE"
      }
    ]
  },
  {
    "postal": "L6J4Y1",
    "result": [
      {
        "electoralDistricts": [
          {
            "election": null,
            "id": 74,
            "name": "Oakville"
          }
        ],
        "pollDivisionIds": [
          10140365
        ],
        "postalCode": "L6J4Y1",
        "streetName": "BEDFORD",
        "streetDirectionId": null,
        "streetTypeId": "RD",
        "placeName": "OAKVILLE",
        "streetNameDisplayText": "BEDFORD RD, OAKVILLE"
      }
    ]
  },
  {
    "postal": "L6J7E2",
    "result": [
      {
        "electoralDistricts": [
          {
            "election": null,
            "id": 74,
            "name": "Oakville"
          }
        ],
        "pollDivisionIds": [
          10140343
        ],
        "postalCode": "L6J7E2",
        "streetName": "VALERIE",
        "streetDirectionId": null,
        "streetTypeId": "CRES",
        "placeName": "OAKVILLE",
        "streetNameDisplayText": "VALERIE CRES, OAKVILLE"
      }
    ]
  },
  {
    "postal": "L6J2P5",
    "result": [
      {
        "electoralDistricts": [
          {
            "election": null,
            "id": 74,
            "name": "Oakville"
          }
        ],
        "pollDivisionIds": [
          10140365
        ],
        "postalCode": "L6J2P5",
        "streetName": "DERAMORE",
        "streetDirectionId": null,
        "streetTypeId": "DR",
        "placeName": "OAKVILLE",
        "streetNameDisplayText": "DERAMORE DR, OAKVILLE"
      }
    ]
  },
  {
    "postal": "L6J8R7",
    "result": []
  },
  {
    "postal": "L6J9P1",
    "result": []
  },
  {
    "postal": "L6J3B8",
    "result": [
      {
        "electoralDistricts": [
          {
            "election": null,
            "id": 74,
            "name": "Oakville"
          }
        ],
        "pollDivisionIds": [
          10140360
        ],
        "postalCode": "L6J3B8",
        "streetName": "GEORGE",
        "streetDirectionId": null,
        "streetTypeId": "ST",
        "placeName": "OAKVILLE",
        "streetNameDisplayText": "GEORGE ST, OAKVILLE"
      }
    ]
  },
  {
    "postal": "L6J3P7",
    "result": [
      {
        "electoralDistricts": [
          {
            "election": null,
            "id": 74,
            "name": "Oakville"
          }
        ],
        "pollDivisionIds": [
          10140363
        ],
        "postalCode": "L6J3P7",
        "streetName": "ALLAN",
        "streetDirectionId": null,
        "streetTypeId": "ST",
        "placeName": "OAKVILLE",
        "streetNameDisplayText": "ALLAN ST, OAKVILLE"
      }
    ]
  },
  {
    "postal": "L6J9B2",
    "result": []
  },
  {
    "postal": "L6J6Z3",
    "result": [
      {
        "electoralDistricts": [
          {
            "election": null,
            "id": 74,
            "name": "Oakville"
          }
        ],
        "pollDivisionIds": [
          10140343
        ],
        "postalCode": "L6J6Z3",
        "streetName": "GUILFORD",
        "streetDirectionId": null,
        "streetTypeId": "CRES",
        "placeName": "OAKVILLE",
        "streetNameDisplayText": "GUILFORD CRES, OAKVILLE"
      }
    ]
  },
  {
    "postal": "L6J4N5",
    "result": []
  },
  {
    "postal": "L6J8T3",
    "result": []
  },
  {
    "postal": "L6J1V2",
    "result": [
      {
        "electoralDistricts": [
          {
            "election": null,
            "id": 74,
            "name": "Oakville"
          }
        ],
        "pollDivisionIds": [
          10140361
        ],
        "postalCode": "L6J1V2",
        "streetName": "LAVENDER",
        "streetDirectionId": null,
        "streetTypeId": "LANE",
        "placeName": "OAKVILLE",
        "streetNameDisplayText": "LAVENDER LANE, OAKVILLE"
      }
    ]
  },
  {
    "postal": "L6J1Y0",
    "result": []
  },
  {
    "postal": "L6J3G6",
    "result": [
      {
        "electoralDistricts": [
          {
            "election": null,
            "id": 74,
            "name": "Oakville"
          }
        ],
        "pollDivisionIds": [
          10140360
        ],
        "postalCode": "L6J3G6",
        "streetName": "TRAFALGAR",
        "streetDirectionId": null,
        "streetTypeId": "RD",
        "placeName": "OAKVILLE",
        "streetNameDisplayText": "TRAFALGAR RD, OAKVILLE"
      }
    ]
  },
  {
    "postal": "L6J3H7",
    "result": [
      {
        "electoralDistricts": [
          {
            "election": null,
            "id": 74,
            "name": "Oakville"
          }
        ],
        "pollDivisionIds": [
          10140362,
          10140358
        ],
        "postalCode": "L6J3H7",
        "streetName": "TRAFALGAR",
        "streetDirectionId": null,
        "streetTypeId": "RD",
        "placeName": "OAKVILLE",
        "streetNameDisplayText": "TRAFALGAR RD, OAKVILLE"
      }
    ]
  },
  {
    "postal": "L6J7X8",
    "result": [
      {
        "electoralDistricts": [
          {
            "election": null,
            "id": 74,
            "name": "Oakville"
          }
        ],
        "pollDivisionIds": [
          10140364
        ],
        "postalCode": "L6J7X8",
        "streetName": "ROYAL WINDSOR",
        "streetDirectionId": null,
        "streetTypeId": "DR",
        "placeName": "OAKVILLE",
        "streetNameDisplayText": "ROYAL WINDSOR DR, OAKVILLE"
      }
    ]
  },
  {
    "postal": "L6J0C7",
    "result": []
  },
  {
    "postal": "L6J0W9",
    "result": []
  },
  {
    "postal": "L6J8E6",
    "result": []
  },
  {
    "postal": "L6J9Z8",
    "result": []
  },
  {
    "postal": "L6J3P4",
    "result": [
      {
        "electoralDistricts": [
          {
            "election": null,
            "id": 74,
            "name": "Oakville"
          }
        ],
        "pollDivisionIds": [
          10140362
        ],
        "postalCode": "L6J3P4",
        "streetName": "ALLAN",
        "streetDirectionId": null,
        "streetTypeId": "ST",
        "placeName": "OAKVILLE",
        "streetNameDisplayText": "ALLAN ST, OAKVILLE"
      }
    ]
  },
  {
    "postal": "L6J6L8",
    "result": [
      {
        "electoralDistricts": [
          {
            "election": null,
            "id": 74,
            "name": "Oakville"
          }
        ],
        "pollDivisionIds": [
          10140361
        ],
        "postalCode": "L6J6L8",
        "streetName": "SUMNER",
        "streetDirectionId": null,
        "streetTypeId": "AVE",
        "placeName": "OAKVILLE",
        "streetNameDisplayText": "SUMNER AVE, OAKVILLE"
      }
    ]
  },
  {
    "postal": "L6J2R4",
    "result": [
      {
        "electoralDistricts": [
          {
            "election": null,
            "id": 74,
            "name": "Oakville"
          }
        ],
        "pollDivisionIds": [
          10140364
        ],
        "postalCode": "L6J2R4",
        "streetName": "DUNCAN",
        "streetDirectionId": null,
        "streetTypeId": "RD",
        "placeName": "OAKVILLE",
        "streetNameDisplayText": "DUNCAN RD, OAKVILLE"
      }
    ]
  },
  {
    "postal": "L6J2W1",
    "result": []
  },
  {
    "postal": "L6J9H8",
    "result": []
  },
  {
    "postal": "L6J8X9",
    "result": []
  },
  {
    "postal": "L6J7H4",
    "result": [
      {
        "electoralDistricts": [
          {
            "election": null,
            "id": 74,
            "name": "Oakville"
          }
        ],
        "pollDivisionIds": [
          10140343
        ],
        "postalCode": "L6J7H4",
        "streetName": "MULBERRY",
        "streetDirectionId": null,
        "streetTypeId": "DR",
        "placeName": "OAKVILLE",
        "streetNameDisplayText": "MULBERRY DR, OAKVILLE"
      }
    ]
  },
  {
    "postal": "L6J3J1",
    "result": [
      {
        "electoralDistricts": [
          {
            "election": null,
            "id": 74,
            "name": "Oakville"
          }
        ],
        "pollDivisionIds": [
          10140363
        ],
        "postalCode": "L6J3J1",
        "streetName": "TRAFALGAR",
        "streetDirectionId": null,
        "streetTypeId": "RD",
        "placeName": "OAKVILLE",
        "streetNameDisplayText": "TRAFALGAR RD, OAKVILLE"
      }
    ]
  },
  {
    "postal": "L6J1P4",
    "result": [
      {
        "electoralDistricts": [
          {
            "election": null,
            "id": 74,
            "name": "Oakville"
          }
        ],
        "pollDivisionIds": [
          10140360
        ],
        "postalCode": "L6J1P4",
        "streetName": "RANDALL",
        "streetDirectionId": null,
        "streetTypeId": "ST",
        "placeName": "OAKVILLE",
        "streetNameDisplayText": "RANDALL ST, OAKVILLE"
      }
    ]
  },
  {
    "postal": "L6J2A3",
    "result": [
      {
        "electoralDistricts": [
          {
            "election": null,
            "id": 74,
            "name": "Oakville"
          }
        ],
        "pollDivisionIds": [
          10140361
        ],
        "postalCode": "L6J2A3",
        "streetName": "PINEWOOD",
        "streetDirectionId": null,
        "streetTypeId": "AVE",
        "placeName": "OAKVILLE",
        "streetNameDisplayText": "PINEWOOD AVE, OAKVILLE"
      }
    ]
  },
  {
    "postal": "L6J0Z1",
    "result": []
  },
  {
    "postal": "L6J1C1",
    "result": [
      {
        "electoralDistricts": [
          {
            "election": null,
            "id": 74,
            "name": "Oakville"
          }
        ],
        "pollDivisionIds": [
          10140360
        ],
        "postalCode": "L6J1C1",
        "streetName": "KING",
        "streetDirectionId": null,
        "streetTypeId": "ST",
        "placeName": "OAKVILLE",
        "streetNameDisplayText": "KING ST, OAKVILLE"
      }
    ]
  },
  {
    "postal": "L6J0H3",
    "result": []
  },
  {
    "postal": "L6J7B0",
    "result": []
  },
  {
    "postal": "L6J5K2",
    "result": [
      {
        "electoralDistricts": [
          {
            "election": null,
            "id": 74,
            "name": "Oakville"
          }
        ],
        "pollDivisionIds": [
          10140365
        ],
        "postalCode": "L6J5K2",
        "streetName": "BROOK",
        "streetDirectionId": null,
        "streetTypeId": "PL",
        "placeName": "OAKVILLE",
        "streetNameDisplayText": "BROOK PL, OAKVILLE"
      }
    ]
  },
  {
    "postal": "L6J1E9",
    "result": [
      {
        "electoralDistricts": [
          {
            "election": null,
            "id": 74,
            "name": "Oakville"
          }
        ],
        "pollDivisionIds": [
          10140361
        ],
        "postalCode": "L6J1E9",
        "streetName": "CARSON",
        "streetDirectionId": null,
        "streetTypeId": "LANE",
        "placeName": "OAKVILLE",
        "streetNameDisplayText": "CARSON LANE, OAKVILLE"
      }
    ]
  },
  {
    "postal": "L6J9W7",
    "result": []
  },
  {
    "postal": "L6J5W6",
    "result": [
      {
        "electoralDistricts": [
          {
            "election": null,
            "id": 74,
            "name": "Oakville"
          }
        ],
        "pollDivisionIds": [
          10140366
        ],
        "postalCode": "L6J5W6",
        "streetName": "CANSO",
        "streetDirectionId": null,
        "streetTypeId": "RD",
        "placeName": "OAKVILLE",
        "streetNameDisplayText": "CANSO RD, OAKVILLE"
      }
    ]
  },
  {
    "postal": "L6J6S6",
    "result": [
      {
        "electoralDistricts": [
          {
            "election": null,
            "id": 74,
            "name": "Oakville"
          }
        ],
        "pollDivisionIds": [
          10140343
        ],
        "postalCode": "L6J6S6",
        "streetName": "WILL SCARLETT",
        "streetDirectionId": null,
        "streetTypeId": "DR",
        "placeName": "OAKVILLE",
        "streetNameDisplayText": "WILL SCARLETT DR, OAKVILLE"
      }
    ]
  },
  {
    "postal": "L6J2P8",
    "result": [
      {
        "electoralDistricts": [
          {
            "election": null,
            "id": 74,
            "name": "Oakville"
          }
        ],
        "pollDivisionIds": [
          10140364
        ],
        "postalCode": "L6J2P8",
        "streetName": "DUNCAN",
        "streetDirectionId": null,
        "streetTypeId": "RD",
        "placeName": "OAKVILLE",
        "streetNameDisplayText": "DUNCAN RD, OAKVILLE"
      }
    ]
  },
  {
    "postal": "L6J4P8",
    "result": [
      {
        "electoralDistricts": [
          {
            "election": null,
            "id": 74,
            "name": "Oakville"
          }
        ],
        "pollDivisionIds": [
          10140364
        ],
        "postalCode": "L6J4P8",
        "streetName": "COX",
        "streetDirectionId": null,
        "streetTypeId": "DR",
        "placeName": "OAKVILLE",
        "streetNameDisplayText": "COX DR, OAKVILLE"
      }
    ]
  },
  {
    "postal": "L6J0V9",
    "result": []
  },
  {
    "postal": "L6J5Y2",
    "result": [
      {
        "electoralDistricts": [
          {
            "election": null,
            "id": 74,
            "name": "Oakville"
          }
        ],
        "pollDivisionIds": [
          10140365
        ],
        "postalCode": "L6J5Y2",
        "streetName": "DAFFODIL",
        "streetDirectionId": null,
        "streetTypeId": "CRT",
        "placeName": "OAKVILLE",
        "streetNameDisplayText": "DAFFODIL CRT, OAKVILLE"
      }
    ]
  },
  {
    "postal": "L6J7Z7",
    "result": []
  },
  {
    "postal": "L6J6Y8",
    "result": [
      {
        "electoralDistricts": [
          {
            "election": null,
            "id": 74,
            "name": "Oakville"
          }
        ],
        "pollDivisionIds": [
          10140344
        ],
        "postalCode": "L6J6Y8",
        "streetName": "FONTHILL",
        "streetDirectionId": null,
        "streetTypeId": "DR",
        "placeName": "OAKVILLE",
        "streetNameDisplayText": "FONTHILL DR, OAKVILLE"
      },
      {
        "electoralDistricts": [
          {
            "election": null,
            "id": 74,
            "name": "Oakville"
          }
        ],
        "pollDivisionIds": [
          10140343
        ],
        "postalCode": "L6J6Y8",
        "streetName": "HUNTINGDON",
        "streetDirectionId": null,
        "streetTypeId": "TRAIL",
        "placeName": "OAKVILLE",
        "streetNameDisplayText": "HUNTINGDON TRAIL, OAKVILLE"
      },
      {
        "electoralDistricts": [
          {
            "election": null,
            "id": 74,
            "name": "Oakville"
          }
        ],
        "pollDivisionIds": [
          10140343,
          10140344
        ],
        "postalCode": "L6J6Y8",
        "streetName": "WYNTEN",
        "streetDirectionId": null,
        "streetTypeId": "WAY",
        "placeName": "OAKVILLE",
        "streetNameDisplayText": "WYNTEN WAY, OAKVILLE"
      }
    ]
  },
  {
    "postal": "L6J2G7",
    "result": [
      {
        "electoralDistricts": [
          {
            "election": null,
            "id": 74,
            "name": "Oakville"
          }
        ],
        "pollDivisionIds": [
          10140363
        ],
        "postalCode": "L6J2G7",
        "streetName": "SPRUCE",
        "streetDirectionId": null,
        "streetTypeId": "ST",
        "placeName": "OAKVILLE",
        "streetNameDisplayText": "SPRUCE ST, OAKVILLE"
      }
    ]
  },
  {
    "postal": "L6J8C1",
    "result": []
  },
  {
    "postal": "L6J5C5",
    "result": []
  },
  {
    "postal": "L6J2X8",
    "result": [
      {
        "electoralDistricts": [
          {
            "election": null,
            "id": 74,
            "name": "Oakville"
          }
        ],
        "pollDivisionIds": [
          10140363
        ],
        "postalCode": "L6J2X8",
        "streetName": "SOUTH SERVICE",
        "streetDirectionId": "E",
        "streetTypeId": "RD",
        "placeName": "OAKVILLE",
        "streetNameDisplayText": "SOUTH SERVICE RD E, OAKVILLE"
      }
    ]
  },
  {
    "postal": "L6J1W5",
    "result": [
      {
        "electoralDistricts": [
          {
            "election": null,
            "id": 74,
            "name": "Oakville"
          }
        ],
        "pollDivisionIds": [
          10140364
        ],
        "postalCode": "L6J1W5",
        "streetName": "CLEAVER",
        "streetDirectionId": null,
        "streetTypeId": "DR",
        "placeName": "OAKVILLE",
        "streetNameDisplayText": "CLEAVER DR, OAKVILLE"
      }
    ]
  },
  {
    "postal": "L6J7G0",
    "result": []
  },
  {
    "postal": "L6J8J8",
    "result": []
  },
  {
    "postal": "L6J3Y0",
    "result": []
  },
  {
    "postal": "L6J9T7",
    "result": []
  },
  {
    "postal": "L6J5P4",
    "result": [
      {
        "electoralDistricts": [
          {
            "election": null,
            "id": 74,
            "name": "Oakville"
          }
        ],
        "pollDivisionIds": [
          10140366
        ],
        "postalCode": "L6J5P4",
        "streetName": "CARRINGTON",
        "streetDirectionId": null,
        "streetTypeId": "PL",
        "placeName": "OAKVILLE",
        "streetNameDisplayText": "CARRINGTON PL, OAKVILLE"
      }
    ]
  },
  {
    "postal": "L6J4B0",
    "result": []
  },
  {
    "postal": "L6J9N8",
    "result": []
  },
  {
    "postal": "L6J4A7",
    "result": [
      {
        "electoralDistricts": [
          {
            "election": null,
            "id": 74,
            "name": "Oakville"
          }
        ],
        "pollDivisionIds": [
          10140363
        ],
        "postalCode": "L6J4A7",
        "streetName": "CHARTWELL",
        "streetDirectionId": null,
        "streetTypeId": "RD",
        "placeName": "OAKVILLE",
        "streetNameDisplayText": "CHARTWELL RD, OAKVILLE"
      }
    ]
  },
  {
    "postal": "L6J4H9",
    "result": [
      {
        "electoralDistricts": [
          {
            "election": null,
            "id": 74,
            "name": "Oakville"
          }
        ],
        "pollDivisionIds": [
          10140363
        ],
        "postalCode": "L6J4H9",
        "streetName": "MORRISON HEIGHTS",
        "streetDirectionId": null,
        "streetTypeId": "DR",
        "placeName": "OAKVILLE",
        "streetNameDisplayText": "MORRISON HEIGHTS DR, OAKVILLE"
      }
    ]
  },
  {
    "postal": "L6J6X1",
    "result": [
      {
        "electoralDistricts": [
          {
            "election": null,
            "id": 74,
            "name": "Oakville"
          }
        ],
        "pollDivisionIds": [
          10140343
        ],
        "postalCode": "L6J6X1",
        "streetName": "CLEARVIEW",
        "streetDirectionId": null,
        "streetTypeId": "DR",
        "placeName": "OAKVILLE",
        "streetNameDisplayText": "CLEARVIEW DR, OAKVILLE"
      }
    ]
  },
  {
    "postal": "L6J9Y7",
    "result": []
  },
  {
    "postal": "L6J2Y5",
    "result": [
      {
        "electoralDistricts": [
          {
            "election": null,
            "id": 74,
            "name": "Oakville"
          }
        ],
        "pollDivisionIds": [
          10140360
        ],
        "postalCode": "L6J2Y5",
        "streetName": "FRONT",
        "streetDirectionId": null,
        "streetTypeId": "ST",
        "placeName": "OAKVILLE",
        "streetNameDisplayText": "FRONT ST, OAKVILLE"
      },
      {
        "electoralDistricts": [
          {
            "election": null,
            "id": 74,
            "name": "Oakville"
          }
        ],
        "pollDivisionIds": [
          10140360
        ],
        "postalCode": "L6J2Y5",
        "streetName": "NAVY",
        "streetDirectionId": null,
        "streetTypeId": "ST",
        "placeName": "OAKVILLE",
        "streetNameDisplayText": "NAVY ST, OAKVILLE"
      }
    ]
  },
  {
    "postal": "L6J8L7",
    "result": []
  },
  {
    "postal": "L6J2A8",
    "result": [
      {
        "electoralDistricts": [
          {
            "election": null,
            "id": 74,
            "name": "Oakville"
          }
        ],
        "pollDivisionIds": [
          10140363
        ],
        "postalCode": "L6J2A8",
        "streetName": "MACDONALD",
        "streetDirectionId": null,
        "streetTypeId": "RD",
        "placeName": "OAKVILLE",
        "streetNameDisplayText": "MACDONALD RD, OAKVILLE"
      }
    ]
  },
  {
    "postal": "L6J2K9",
    "result": [
      {
        "electoralDistricts": [
          {
            "election": null,
            "id": 74,
            "name": "Oakville"
          }
        ],
        "pollDivisionIds": [
          10140363
        ],
        "postalCode": "L6J2K9",
        "streetName": "LINBROOK",
        "streetDirectionId": null,
        "streetTypeId": "RD",
        "placeName": "OAKVILLE",
        "streetNameDisplayText": "LINBROOK RD, OAKVILLE"
      }
    ]
  },
  {
    "postal": "L6J3E5",
    "result": [
      {
        "electoralDistricts": [
          {
            "election": null,
            "id": 74,
            "name": "Oakville"
          }
        ],
        "pollDivisionIds": [
          10140360,
          10140361
        ],
        "postalCode": "L6J3E5",
        "streetName": "DUNN",
        "streetDirectionId": null,
        "streetTypeId": "ST",
        "placeName": "OAKVILLE",
        "streetNameDisplayText": "DUNN ST, OAKVILLE"
      }
    ]
  },
  {
    "postal": "L6J8N6",
    "result": []
  },
  {
    "postal": "L6J8J4",
    "result": []
  },
  {
    "postal": "L6J4R7",
    "result": [
      {
        "electoralDistricts": [
          {
            "election": null,
            "id": 74,
            "name": "Oakville"
          }
        ],
        "pollDivisionIds": [
          10140364
        ],
        "postalCode": "L6J4R7",
        "streetName": "WEDGEWOOD",
        "streetDirectionId": null,
        "streetTypeId": "DR",
        "placeName": "OAKVILLE",
        "streetNameDisplayText": "WEDGEWOOD DR, OAKVILLE"
      }
    ]
  },
  {
    "postal": "L6J9K1",
    "result": []
  },
  {
    "postal": "L6J8E1",
    "result": []
  },
  {
    "postal": "L6J0R1",
    "result": []
  },
  {
    "postal": "L6J4J3",
    "result": [
      {
        "electoralDistricts": [
          {
            "election": null,
            "id": 74,
            "name": "Oakville"
          }
        ],
        "pollDivisionIds": [
          10140361
        ],
        "postalCode": "L6J4J3",
        "streetName": "MORRISON",
        "streetDirectionId": null,
        "streetTypeId": "RD",
        "placeName": "OAKVILLE",
        "streetNameDisplayText": "MORRISON RD, OAKVILLE"
      }
    ]
  },
  {
    "postal": "L6J7E7",
    "result": [
      {
        "electoralDistricts": [
          {
            "election": null,
            "id": 74,
            "name": "Oakville"
          }
        ],
        "pollDivisionIds": [
          10140343
        ],
        "postalCode": "L6J7E7",
        "streetName": "VALERIE",
        "streetDirectionId": null,
        "streetTypeId": "CRES",
        "placeName": "OAKVILLE",
        "streetNameDisplayText": "VALERIE CRES, OAKVILLE"
      }
    ]
  },
  {
    "postal": "L6J0J0",
    "result": []
  },
  {
    "postal": "L6J7R8",
    "result": [
      {
        "electoralDistricts": [
          {
            "election": null,
            "id": 74,
            "name": "Oakville"
          }
        ],
        "pollDivisionIds": [
          10140344
        ],
        "postalCode": "L6J7R8",
        "streetName": "GABLE",
        "streetDirectionId": null,
        "streetTypeId": "DR",
        "placeName": "OAKVILLE",
        "streetNameDisplayText": "GABLE DR, OAKVILLE"
      }
    ]
  },
  {
    "postal": "L6J9X0",
    "result": []
  },
  {
    "postal": "L6J7P6",
    "result": [
      {
        "electoralDistricts": [
          {
            "election": null,
            "id": 74,
            "name": "Oakville"
          }
        ],
        "pollDivisionIds": [
          10140360
        ],
        "postalCode": "L6J7P6",
        "streetName": "ROBINSON",
        "streetDirectionId": null,
        "streetTypeId": "ST",
        "placeName": "OAKVILLE",
        "streetNameDisplayText": "ROBINSON ST, OAKVILLE"
      }
    ]
  },
  {
    "postal": "L6J0R7",
    "result": []
  },
  {
    "postal": "L6J5W1",
    "result": [
      {
        "electoralDistricts": [
          {
            "election": null,
            "id": 74,
            "name": "Oakville"
          }
        ],
        "pollDivisionIds": [
          10140366
        ],
        "postalCode": "L6J5W1",
        "streetName": "BACCARO",
        "streetDirectionId": null,
        "streetTypeId": "RD",
        "placeName": "OAKVILLE",
        "streetNameDisplayText": "BACCARO RD, OAKVILLE"
      }
    ]
  },
  {
    "postal": "L6J0K4",
    "result": []
  },
  {
    "postal": "L6J7N9",
    "result": [
      {
        "electoralDistricts": [
          {
            "election": null,
            "id": 74,
            "name": "Oakville"
          }
        ],
        "pollDivisionIds": [
          10140326,
          10140360
        ],
        "postalCode": "L6J7N9",
        "streetName": "ROBINSON",
        "streetDirectionId": null,
        "streetTypeId": "ST",
        "placeName": "OAKVILLE",
        "streetNameDisplayText": "ROBINSON ST, OAKVILLE"
      }
    ]
  },
  {
    "postal": "L6J1N0",
    "result": []
  },
  {
    "postal": "L6J6P3",
    "result": [
      {
        "electoralDistricts": [
          {
            "election": null,
            "id": 74,
            "name": "Oakville"
          }
        ],
        "pollDivisionIds": [
          10140364
        ],
        "postalCode": "L6J6P3",
        "streetName": "BLENHEIM",
        "streetDirectionId": null,
        "streetTypeId": "CRES",
        "placeName": "OAKVILLE",
        "streetNameDisplayText": "BLENHEIM CRES, OAKVILLE"
      }
    ]
  },
  {
    "postal": "L6J5A1",
    "result": []
  },
  {
    "postal": "L6J9M9",
    "result": []
  },
  {
    "postal": "L6J7T6",
    "result": []
  },
  {
    "postal": "L6J3X0",
    "result": []
  },
  {
    "postal": "L6J2T0",
    "result": []
  },
  {
    "postal": "L6J5X9",
    "result": [
      {
        "electoralDistricts": [
          {
            "election": null,
            "id": 74,
            "name": "Oakville"
          }
        ],
        "pollDivisionIds": [
          10140366
        ],
        "postalCode": "L6J5X9",
        "streetName": "CAMEO",
        "streetDirectionId": null,
        "streetTypeId": "ST",
        "placeName": "OAKVILLE",
        "streetNameDisplayText": "CAMEO ST, OAKVILLE"
      }
    ]
  },
  {
    "postal": "L6J2R3",
    "result": [
      {
        "electoralDistricts": [
          {
            "election": null,
            "id": 74,
            "name": "Oakville"
          }
        ],
        "pollDivisionIds": [
          10140325,
          10140364
        ],
        "postalCode": "L6J2R3",
        "streetName": "DUNCAN",
        "streetDirectionId": null,
        "streetTypeId": "RD",
        "placeName": "OAKVILLE",
        "streetNameDisplayText": "DUNCAN RD, OAKVILLE"
      }
    ]
  },
  {
    "postal": "L6J5N2",
    "result": [
      {
        "electoralDistricts": [
          {
            "election": null,
            "id": 74,
            "name": "Oakville"
          }
        ],
        "pollDivisionIds": [
          10140365
        ],
        "postalCode": "L6J5N2",
        "streetName": "ALL SAINTS",
        "streetDirectionId": null,
        "streetTypeId": "CRES",
        "placeName": "OAKVILLE",
        "streetNameDisplayText": "ALL SAINTS CRES, OAKVILLE"
      }
    ]
  },
  {
    "postal": "L6J4Y7",
    "result": []
  },
  {
    "postal": "L6J7M0",
    "result": []
  },
  {
    "postal": "L6J8P3",
    "result": []
  },
  {
    "postal": "L6J3N3",
    "result": [
      {
        "electoralDistricts": [
          {
            "election": null,
            "id": 74,
            "name": "Oakville"
          }
        ],
        "pollDivisionIds": [
          10140361,
          10140360
        ],
        "postalCode": "L6J3N3",
        "streetName": "ALLAN",
        "streetDirectionId": null,
        "streetTypeId": "ST",
        "placeName": "OAKVILLE",
        "streetNameDisplayText": "ALLAN ST, OAKVILLE"
      }
    ]
  },
  {
    "postal": "L6J7S3",
    "result": []
  },
  {
    "postal": "L6J3V9",
    "result": [
      {
        "electoralDistricts": [
          {
            "election": null,
            "id": 74,
            "name": "Oakville"
          }
        ],
        "pollDivisionIds": [
          10140363
        ],
        "postalCode": "L6J3V9",
        "streetName": "WATSON",
        "streetDirectionId": null,
        "streetTypeId": "AVE",
        "placeName": "OAKVILLE",
        "streetNameDisplayText": "WATSON AVE, OAKVILLE"
      }
    ]
  },
  {
    "postal": "L6J9N7",
    "result": []
  },
  {
    "postal": "L6J0G4",
    "result": []
  },
  {
    "postal": "L6J2E2",
    "result": [
      {
        "electoralDistricts": [
          {
            "election": null,
            "id": 74,
            "name": "Oakville"
          }
        ],
        "pollDivisionIds": [
          10140363
        ],
        "postalCode": "L6J2E2",
        "streetName": "CAREY",
        "streetDirectionId": null,
        "streetTypeId": "RD",
        "placeName": "OAKVILLE",
        "streetNameDisplayText": "CAREY RD, OAKVILLE"
      }
    ]
  },
  {
    "postal": "L6J7W8",
    "result": []
  },
  {
    "postal": "L6J7M5",
    "result": [
      {
        "electoralDistricts": [
          {
            "election": null,
            "id": 74,
            "name": "Oakville"
          }
        ],
        "pollDivisionIds": [
          10140344
        ],
        "postalCode": "L6J7M5",
        "streetName": "ROSEWOOD",
        "streetDirectionId": null,
        "streetTypeId": "LANE",
        "placeName": "OAKVILLE",
        "streetNameDisplayText": "ROSEWOOD LANE, OAKVILLE"
      }
    ]
  },
  {
    "postal": "L6J5W8",
    "result": [
      {
        "electoralDistricts": [
          {
            "election": null,
            "id": 74,
            "name": "Oakville"
          }
        ],
        "pollDivisionIds": [
          10140365
        ],
        "postalCode": "L6J5W8",
        "streetName": "CHARNWOOD",
        "streetDirectionId": null,
        "streetTypeId": "DR",
        "placeName": "OAKVILLE",
        "streetNameDisplayText": "CHARNWOOD DR, OAKVILLE"
      }
    ]
  },
  {
    "postal": "L6J5E5",
    "result": []
  },
  {
    "postal": "L6J1P9",
    "result": [
      {
        "electoralDistricts": [
          {
            "election": null,
            "id": 74,
            "name": "Oakville"
          }
        ],
        "pollDivisionIds": [
          10140360
        ],
        "postalCode": "L6J1P9",
        "streetName": "RANDALL",
        "streetDirectionId": null,
        "streetTypeId": "ST",
        "placeName": "OAKVILLE",
        "streetNameDisplayText": "RANDALL ST, OAKVILLE"
      }
    ]
  },
  {
    "postal": "L6J8V8",
    "result": []
  },
  {
    "postal": "L6J9G8",
    "result": []
  },
  {
    "postal": "L6J8H9",
    "result": []
  },
  {
    "postal": "L6J1Z1",
    "result": [
      {
        "electoralDistricts": [
          {
            "election": null,
            "id": 74,
            "name": "Oakville"
          }
        ],
        "pollDivisionIds": [
          10140361
        ],
        "postalCode": "L6J1Z1",
        "streetName": "ROSEMARY",
        "streetDirectionId": null,
        "streetTypeId": "LANE",
        "placeName": "OAKVILLE",
        "streetNameDisplayText": "ROSEMARY LANE, OAKVILLE"
      }
    ]
  },
  {
    "postal": "L6J8M3",
    "result": []
  },
  {
    "postal": "L6J5H6",
    "result": [
      {
        "electoralDistricts": [
          {
            "election": null,
            "id": 74,
            "name": "Oakville"
          }
        ],
        "pollDivisionIds": [
          10140365
        ],
        "postalCode": "L6J5H6",
        "streetName": "BLYTH",
        "streetDirectionId": null,
        "streetTypeId": "CRES",
        "placeName": "OAKVILLE",
        "streetNameDisplayText": "BLYTH CRES, OAKVILLE"
      }
    ]
  },
  {
    "postal": "L6J7W7",
    "result": []
  },
  {
    "postal": "L6J4L0",
    "result": []
  },
  {
    "postal": "L6J2N1",
    "result": [
      {
        "electoralDistricts": [
          {
            "election": null,
            "id": 74,
            "name": "Oakville"
          }
        ],
        "pollDivisionIds": [
          10140365
        ],
        "postalCode": "L6J2N1",
        "streetName": "DEVON",
        "streetDirectionId": null,
        "streetTypeId": "RD",
        "placeName": "OAKVILLE",
        "streetNameDisplayText": "DEVON RD, OAKVILLE"
      }
    ]
  },
  {
    "postal": "L6J2H4",
    "result": [
      {
        "electoralDistricts": [
          {
            "election": null,
            "id": 74,
            "name": "Oakville"
          }
        ],
        "pollDivisionIds": [
          10140363
        ],
        "postalCode": "L6J2H4",
        "streetName": "SPRUCE",
        "streetDirectionId": null,
        "streetTypeId": "ST",
        "placeName": "OAKVILLE",
        "streetNameDisplayText": "SPRUCE ST, OAKVILLE"
      }
    ]
  },
  {
    "postal": "L6J5C8",
    "result": []
  },
  {
    "postal": "L6J8B0",
    "result": []
  },
  {
    "postal": "L6J1T4",
    "result": [
      {
        "electoralDistricts": [
          {
            "election": null,
            "id": 74,
            "name": "Oakville"
          }
        ],
        "pollDivisionIds": [
          10140361
        ],
        "postalCode": "L6J1T4",
        "streetName": "PALMER",
        "streetDirectionId": null,
        "streetTypeId": "AVE",
        "placeName": "OAKVILLE",
        "streetNameDisplayText": "PALMER AVE, OAKVILLE"
      }
    ]
  },
  {
    "postal": "L6J7N7",
    "result": [
      {
        "electoralDistricts": [
          {
            "election": null,
            "id": 74,
            "name": "Oakville"
          }
        ],
        "pollDivisionIds": [
          10140344
        ],
        "postalCode": "L6J7N7",
        "streetName": "JEFF",
        "streetDirectionId": null,
        "streetTypeId": "DR",
        "placeName": "OAKVILLE",
        "streetNameDisplayText": "JEFF DR, OAKVILLE"
      },
      {
        "electoralDistricts": [
          {
            "election": null,
            "id": 74,
            "name": "Oakville"
          }
        ],
        "pollDivisionIds": [
          10140344
        ],
        "postalCode": "L6J7N7",
        "streetName": "LANSDOWN",
        "streetDirectionId": null,
        "streetTypeId": "DR",
        "placeName": "OAKVILLE",
        "streetNameDisplayText": "LANSDOWN DR, OAKVILLE"
      }
    ]
  },
  {
    "postal": "L6J4L3",
    "result": [
      {
        "electoralDistricts": [
          {
            "election": null,
            "id": 74,
            "name": "Oakville"
          }
        ],
        "pollDivisionIds": [
          10140363
        ],
        "postalCode": "L6J4L3",
        "streetName": "BENITA",
        "streetDirectionId": null,
        "streetTypeId": "CRT",
        "placeName": "OAKVILLE",
        "streetNameDisplayText": "BENITA CRT, OAKVILLE"
      }
    ]
  },
  {
    "postal": "L6J2N2",
    "result": [
      {
        "electoralDistricts": [
          {
            "election": null,
            "id": 74,
            "name": "Oakville"
          }
        ],
        "pollDivisionIds": [
          10140365
        ],
        "postalCode": "L6J2N2",
        "streetName": "DEVON",
        "streetDirectionId": null,
        "streetTypeId": "RD",
        "placeName": "OAKVILLE",
        "streetNameDisplayText": "DEVON RD, OAKVILLE"
      }
    ]
  },
  {
    "postal": "L6J4N8",
    "result": [
      {
        "electoralDistricts": [
          {
            "election": null,
            "id": 74,
            "name": "Oakville"
          }
        ],
        "pollDivisionIds": [
          10140364
        ],
        "postalCode": "L6J4N8",
        "streetName": "CLAXTON",
        "streetDirectionId": null,
        "streetTypeId": "DR",
        "placeName": "OAKVILLE",
        "streetNameDisplayText": "CLAXTON DR, OAKVILLE"
      }
    ]
  },
  {
    "postal": "L6J3M5",
    "result": [
      {
        "electoralDistricts": [
          {
            "election": null,
            "id": 74,
            "name": "Oakville"
          }
        ],
        "pollDivisionIds": [
          10140363
        ],
        "postalCode": "L6J3M5",
        "streetName": "REYNOLDS",
        "streetDirectionId": null,
        "streetTypeId": "ST",
        "placeName": "OAKVILLE",
        "streetNameDisplayText": "REYNOLDS ST, OAKVILLE"
      }
    ]
  },
  {
    "postal": "L6J6H7",
    "result": [
      {
        "electoralDistricts": [
          {
            "election": null,
            "id": 74,
            "name": "Oakville"
          }
        ],
        "pollDivisionIds": [
          10140366
        ],
        "postalCode": "L6J6H7",
        "streetName": "ASPEN FOREST",
        "streetDirectionId": null,
        "streetTypeId": "DR",
        "placeName": "OAKVILLE",
        "streetNameDisplayText": "ASPEN FOREST DR, OAKVILLE"
      }
    ]
  },
  {
    "postal": "L6J8Y8",
    "result": []
  },
  {
    "postal": "L6J5R9",
    "result": [
      {
        "electoralDistricts": [
          {
            "election": null,
            "id": 74,
            "name": "Oakville"
          }
        ],
        "pollDivisionIds": [
          10140365
        ],
        "postalCode": "L6J5R9",
        "streetName": "GATESTONE",
        "streetDirectionId": null,
        "streetTypeId": "AVE",
        "placeName": "OAKVILLE",
        "streetNameDisplayText": "GATESTONE AVE, OAKVILLE"
      }
    ]
  },
  {
    "postal": "L6J8G3",
    "result": []
  },
  {
    "postal": "L6J4N7",
    "result": [
      {
        "electoralDistricts": [
          {
            "election": null,
            "id": 74,
            "name": "Oakville"
          }
        ],
        "pollDivisionIds": [
          10140364
        ],
        "postalCode": "L6J4N7",
        "streetName": "DORNIE",
        "streetDirectionId": null,
        "streetTypeId": "RD",
        "placeName": "OAKVILLE",
        "streetNameDisplayText": "DORNIE RD, OAKVILLE"
      }
    ]
  },
  {
    "postal": "L6J0B9",
    "result": []
  },
  {
    "postal": "L6J9K7",
    "result": []
  },
  {
    "postal": "L6J9K9",
    "result": []
  },
  {
    "postal": "L6J3Z2",
    "result": [
      {
        "electoralDistricts": [
          {
            "election": null,
            "id": 74,
            "name": "Oakville"
          }
        ],
        "pollDivisionIds": [
          10140363
        ],
        "postalCode": "L6J3Z2",
        "streetName": "CAESAR",
        "streetDirectionId": null,
        "streetTypeId": "AVE",
        "placeName": "OAKVILLE",
        "streetNameDisplayText": "CAESAR AVE, OAKVILLE"
      }
    ]
  },
  {
    "postal": "L6J6W7",
    "result": [
      {
        "electoralDistricts": [
          {
            "election": null,
            "id": 74,
            "name": "Oakville"
          }
        ],
        "pollDivisionIds": [
          10140343
        ],
        "postalCode": "L6J6W7",
        "streetName": "CLEARVIEW",
        "streetDirectionId": null,
        "streetTypeId": "DR",
        "placeName": "OAKVILLE",
        "streetNameDisplayText": "CLEARVIEW DR, OAKVILLE"
      }
    ]
  },
  {
    "postal": "L6J0P1",
    "result": []
  },
  {
    "postal": "L6J3A0",
    "result": []
  },
  {
    "postal": "L6J8L9",
    "result": []
  },
  {
    "postal": "L6J6X0",
    "result": []
  },
  {
    "postal": "L6J3E9",
    "result": [
      {
        "electoralDistricts": [
          {
            "election": null,
            "id": 74,
            "name": "Oakville"
          }
        ],
        "pollDivisionIds": [
          10140360
        ],
        "postalCode": "L6J3E9",
        "streetName": "TRAFALGAR",
        "streetDirectionId": null,
        "streetTypeId": "RD",
        "placeName": "OAKVILLE",
        "streetNameDisplayText": "TRAFALGAR RD, OAKVILLE"
      }
    ]
  },
  {
    "postal": "L6J0S5",
    "result": []
  },
  {
    "postal": "L6J1A2",
    "result": [
      {
        "electoralDistricts": [
          {
            "election": null,
            "id": 74,
            "name": "Oakville"
          }
        ],
        "pollDivisionIds": [
          10140360
        ],
        "postalCode": "L6J1A2",
        "streetName": "FRONT",
        "streetDirectionId": null,
        "streetTypeId": "ST",
        "placeName": "OAKVILLE",
        "streetNameDisplayText": "FRONT ST, OAKVILLE"
      }
    ]
  },
  {
    "postal": "L6J5V8",
    "result": [
      {
        "electoralDistricts": [
          {
            "election": null,
            "id": 74,
            "name": "Oakville"
          }
        ],
        "pollDivisionIds": [
          10140363
        ],
        "postalCode": "L6J5V8",
        "streetName": "CAREY",
        "streetDirectionId": null,
        "streetTypeId": "CRT",
        "placeName": "OAKVILLE",
        "streetNameDisplayText": "CAREY CRT, OAKVILLE"
      }
    ]
  },
  {
    "postal": "L6J8C5",
    "result": []
  },
  {
    "postal": "L6J6N0",
    "result": []
  },
  {
    "postal": "L6J9E6",
    "result": []
  },
  {
    "postal": "L6J5J7",
    "result": [
      {
        "electoralDistricts": [
          {
            "election": null,
            "id": 74,
            "name": "Oakville"
          }
        ],
        "pollDivisionIds": [
          10140365
        ],
        "postalCode": "L6J5J7",
        "streetName": "ADAIR",
        "streetDirectionId": null,
        "streetTypeId": "CRES",
        "placeName": "OAKVILLE",
        "streetNameDisplayText": "ADAIR CRES, OAKVILLE"
      }
    ]
  },
  {
    "postal": "L6J2R2",
    "result": [
      {
        "electoralDistricts": [
          {
            "election": null,
            "id": 74,
            "name": "Oakville"
          }
        ],
        "pollDivisionIds": [
          10140364
        ],
        "postalCode": "L6J2R2",
        "streetName": "DUNCAN",
        "streetDirectionId": null,
        "streetTypeId": "RD",
        "placeName": "OAKVILLE",
        "streetNameDisplayText": "DUNCAN RD, OAKVILLE"
      }
    ]
  },
  {
    "postal": "L6J0P5",
    "result": []
  },
  {
    "postal": "L6J5A7",
    "result": []
  },
  {
    "postal": "L6J1G1",
    "result": [
      {
        "electoralDistricts": [
          {
            "election": null,
            "id": 74,
            "name": "Oakville"
          }
        ],
        "pollDivisionIds": [
          10140360
        ],
        "postalCode": "L6J1G1",
        "streetName": "ROBINSON",
        "streetDirectionId": null,
        "streetTypeId": "ST",
        "placeName": "OAKVILLE",
        "streetNameDisplayText": "ROBINSON ST, OAKVILLE"
      }
    ]
  },
  {
    "postal": "L6J9R6",
    "result": []
  },
  {
    "postal": "L6J4Z9",
    "result": []
  },
  {
    "postal": "L6J1V5",
    "result": [
      {
        "electoralDistricts": [
          {
            "election": null,
            "id": 74,
            "name": "Oakville"
          }
        ],
        "pollDivisionIds": [
          10140365
        ],
        "postalCode": "L6J1V5",
        "streetName": "ARDLEIGH",
        "streetDirectionId": null,
        "streetTypeId": "RD",
        "placeName": "OAKVILLE",
        "streetNameDisplayText": "ARDLEIGH RD, OAKVILLE"
      }
    ]
  },
  {
    "postal": "L6J9Y5",
    "result": []
  },
  {
    "postal": "L6J1P2",
    "result": [
      {
        "electoralDistricts": [
          {
            "election": null,
            "id": 74,
            "name": "Oakville"
          }
        ],
        "pollDivisionIds": [
          10140360
        ],
        "postalCode": "L6J1P2",
        "streetName": "CHURCH",
        "streetDirectionId": null,
        "streetTypeId": "ST",
        "placeName": "OAKVILLE",
        "streetNameDisplayText": "CHURCH ST, OAKVILLE"
      }
    ]
  },
  {
    "postal": "L6J5X0",
    "result": []
  },
  {
    "postal": "L6J7B8",
    "result": [
      {
        "electoralDistricts": [
          {
            "election": null,
            "id": 74,
            "name": "Oakville"
          }
        ],
        "pollDivisionIds": [
          10140343
        ],
        "postalCode": "L6J7B8",
        "streetName": "HARDY",
        "streetDirectionId": null,
        "streetTypeId": "CRES",
        "placeName": "OAKVILLE",
        "streetNameDisplayText": "HARDY CRES, OAKVILLE"
      }
    ]
  },
  {
    "postal": "L6J0C6",
    "result": []
  },
  {
    "postal": "L6J6G1",
    "result": [
      {
        "electoralDistricts": [
          {
            "election": null,
            "id": 74,
            "name": "Oakville"
          }
        ],
        "pollDivisionIds": [
          10140360
        ],
        "postalCode": "L6J6G1",
        "streetName": "RANDALL",
        "streetDirectionId": null,
        "streetTypeId": "ST",
        "placeName": "OAKVILLE",
        "streetNameDisplayText": "RANDALL ST, OAKVILLE"
      }
    ]
  },
  {
    "postal": "L6J3K3",
    "result": [
      {
        "electoralDistricts": [
          {
            "election": null,
            "id": 74,
            "name": "Oakville"
          }
        ],
        "pollDivisionIds": [
          10140360
        ],
        "postalCode": "L6J3K3",
        "streetName": "REYNOLDS",
        "streetDirectionId": null,
        "streetTypeId": "ST",
        "placeName": "OAKVILLE",
        "streetNameDisplayText": "REYNOLDS ST, OAKVILLE"
      }
    ]
  },
  {
    "postal": "L6J9R0",
    "result": []
  },
  {
    "postal": "L6J4R8",
    "result": [
      {
        "electoralDistricts": [
          {
            "election": null,
            "id": 74,
            "name": "Oakville"
          }
        ],
        "pollDivisionIds": [
          10140364
        ],
        "postalCode": "L6J4R8",
        "streetName": "WEDGEWOOD",
        "streetDirectionId": null,
        "streetTypeId": "DR",
        "placeName": "OAKVILLE",
        "streetNameDisplayText": "WEDGEWOOD DR, OAKVILLE"
      }
    ]
  },
  {
    "postal": "L6J5P9",
    "result": [
      {
        "electoralDistricts": [
          {
            "election": null,
            "id": 74,
            "name": "Oakville"
          }
        ],
        "pollDivisionIds": [
          10140366
        ],
        "postalCode": "L6J5P9",
        "streetName": "CHEBUCTO",
        "streetDirectionId": null,
        "streetTypeId": "DR",
        "placeName": "OAKVILLE",
        "streetNameDisplayText": "CHEBUCTO DR, OAKVILLE"
      }
    ]
  },
  {
    "postal": "L6J8N4",
    "result": []
  },
  {
    "postal": "L6J8H4",
    "result": []
  },
  {
    "postal": "L6J4V1",
    "result": [
      {
        "electoralDistricts": [
          {
            "election": null,
            "id": 74,
            "name": "Oakville"
          }
        ],
        "pollDivisionIds": [
          10140364
        ],
        "postalCode": "L6J4V1",
        "streetName": "MAPLE GROVE",
        "streetDirectionId": null,
        "streetTypeId": "DR",
        "placeName": "OAKVILLE",
        "streetNameDisplayText": "MAPLE GROVE DR, OAKVILLE"
      }
    ]
  },
  {
    "postal": "L6J1K5",
    "result": [
      {
        "electoralDistricts": [
          {
            "election": null,
            "id": 74,
            "name": "Oakville"
          }
        ],
        "pollDivisionIds": [
          10140361
        ],
        "postalCode": "L6J1K5",
        "streetName": "LAKESHORE",
        "streetDirectionId": "E",
        "streetTypeId": "RD",
        "placeName": "OAKVILLE",
        "streetNameDisplayText": "LAKESHORE RD E, OAKVILLE"
      }
    ]
  },
  {
    "postal": "L6J1Z5",
    "result": [
      {
        "electoralDistricts": [
          {
            "election": null,
            "id": 74,
            "name": "Oakville"
          }
        ],
        "pollDivisionIds": [
          10140362
        ],
        "postalCode": "L6J1Z5",
        "streetName": "GALT",
        "streetDirectionId": null,
        "streetTypeId": "AVE",
        "placeName": "OAKVILLE",
        "streetNameDisplayText": "GALT AVE, OAKVILLE"
      }
    ]
  },
  {
    "postal": "L6J9L9",
    "result": []
  },
  {
    "postal": "L6J5L2",
    "result": [
      {
        "electoralDistricts": [
          {
            "election": null,
            "id": 74,
            "name": "Oakville"
          }
        ],
        "pollDivisionIds": [
          10140365
        ],
        "postalCode": "L6J5L2",
        "streetName": "CONSTANCE",
        "streetDirectionId": null,
        "streetTypeId": "DR",
        "placeName": "OAKVILLE",
        "streetNameDisplayText": "CONSTANCE DR, OAKVILLE"
      }
    ]
  },
  {
    "postal": "L6J0M2",
    "result": []
  },
  {
    "postal": "L6J1K8",
    "result": [
      {
        "electoralDistricts": [
          {
            "election": null,
            "id": 74,
            "name": "Oakville"
          }
        ],
        "pollDivisionIds": [
          10140361
        ],
        "postalCode": "L6J1K8",
        "streetName": "LAKESHORE",
        "streetDirectionId": "E",
        "streetTypeId": "RD",
        "placeName": "OAKVILLE",
        "streetNameDisplayText": "LAKESHORE RD E, OAKVILLE"
      }
    ]
  },
  {
    "postal": "L6J3M7",
    "result": [
      {
        "electoralDistricts": [
          {
            "election": null,
            "id": 74,
            "name": "Oakville"
          }
        ],
        "pollDivisionIds": [
          10140360
        ],
        "postalCode": "L6J3M7",
        "streetName": "ALLAN",
        "streetDirectionId": null,
        "streetTypeId": "ST",
        "placeName": "OAKVILLE",
        "streetNameDisplayText": "ALLAN ST, OAKVILLE"
      }
    ]
  },
  {
    "postal": "L6J1B2",
    "result": [
      {
        "electoralDistricts": [
          {
            "election": null,
            "id": 74,
            "name": "Oakville"
          }
        ],
        "pollDivisionIds": [
          10140360
        ],
        "postalCode": "L6J1B2",
        "streetName": "KING",
        "streetDirectionId": null,
        "streetTypeId": "ST",
        "placeName": "OAKVILLE",
        "streetNameDisplayText": "KING ST, OAKVILLE"
      }
    ]
  },
  {
    "postal": "L6J0H9",
    "result": []
  },
  {
    "postal": "L6J8M4",
    "result": []
  },
  {
    "postal": "L6J2M5",
    "result": [
      {
        "electoralDistricts": [
          {
            "election": null,
            "id": 74,
            "name": "Oakville"
          }
        ],
        "pollDivisionIds": [
          10140364
        ],
        "postalCode": "L6J2M5",
        "streetName": "DEVON",
        "streetDirectionId": null,
        "streetTypeId": "RD",
        "placeName": "OAKVILLE",
        "streetNameDisplayText": "DEVON RD, OAKVILLE"
      }
    ]
  },
  {
    "postal": "L6J0T9",
    "result": []
  },
  {
    "postal": "L6J3P1",
    "result": [
      {
        "electoralDistricts": [
          {
            "election": null,
            "id": 74,
            "name": "Oakville"
          }
        ],
        "pollDivisionIds": [
          10140361
        ],
        "postalCode": "L6J3P1",
        "streetName": "ALLAN",
        "streetDirectionId": null,
        "streetTypeId": "ST",
        "placeName": "OAKVILLE",
        "streetNameDisplayText": "ALLAN ST, OAKVILLE"
      }
    ]
  },
  {
    "postal": "L6J1R6",
    "result": [
      {
        "electoralDistricts": [
          {
            "election": null,
            "id": 74,
            "name": "Oakville"
          }
        ],
        "pollDivisionIds": [
          10140360
        ],
        "postalCode": "L6J1R6",
        "streetName": "RANDALL",
        "streetDirectionId": null,
        "streetTypeId": "ST",
        "placeName": "OAKVILLE",
        "streetNameDisplayText": "RANDALL ST, OAKVILLE"
      }
    ]
  },
  {
    "postal": "L6J9V5",
    "result": []
  },
  {
    "postal": "L6J9T0",
    "result": []
  },
  {
    "postal": "L6J0A9",
    "result": [
      {
        "electoralDistricts": [
          {
            "election": null,
            "id": 74,
            "name": "Oakville"
          }
        ],
        "pollDivisionIds": [
          10140358
        ],
        "postalCode": "L6J0A9",
        "streetName": "CROSS",
        "streetDirectionId": null,
        "streetTypeId": "AVE",
        "placeName": "OAKVILLE",
        "streetNameDisplayText": "CROSS AVE, OAKVILLE"
      }
    ]
  },
  {
    "postal": "L6J1M3",
    "result": [
      {
        "electoralDistricts": [
          {
            "election": null,
            "id": 74,
            "name": "Oakville"
          }
        ],
        "pollDivisionIds": [
          10140364
        ],
        "postalCode": "L6J1M3",
        "streetName": "LAKESHORE",
        "streetDirectionId": "E",
        "streetTypeId": "RD",
        "placeName": "OAKVILLE",
        "streetNameDisplayText": "LAKESHORE RD E, OAKVILLE"
      }
    ]
  },
  {
    "postal": "L6J1W8",
    "result": [
      {
        "electoralDistricts": [
          {
            "election": null,
            "id": 74,
            "name": "Oakville"
          }
        ],
        "pollDivisionIds": [
          10140364
        ],
        "postalCode": "L6J1W8",
        "streetName": "WARREN",
        "streetDirectionId": null,
        "streetTypeId": "DR",
        "placeName": "OAKVILLE",
        "streetNameDisplayText": "WARREN DR, OAKVILLE"
      }
    ]
  },
  {
    "postal": "L6J9J1",
    "result": []
  },
  {
    "postal": "L6J8N5",
    "result": []
  },
  {
    "postal": "L6J5X1",
    "result": [
      {
        "electoralDistricts": [
          {
            "election": null,
            "id": 74,
            "name": "Oakville"
          }
        ],
        "pollDivisionIds": [
          10140365
        ],
        "postalCode": "L6J5X1",
        "streetName": "CARLTON",
        "streetDirectionId": null,
        "streetTypeId": "DR",
        "placeName": "OAKVILLE",
        "streetNameDisplayText": "CARLTON DR, OAKVILLE"
      }
    ]
  },
  {
    "postal": "L6J6S2",
    "result": [
      {
        "electoralDistricts": [
          {
            "election": null,
            "id": 74,
            "name": "Oakville"
          }
        ],
        "pollDivisionIds": [
          10140343
        ],
        "postalCode": "L6J6S2",
        "streetName": "CHALFIELD",
        "streetDirectionId": null,
        "streetTypeId": "DR",
        "placeName": "OAKVILLE",
        "streetNameDisplayText": "CHALFIELD DR, OAKVILLE"
      }
    ]
  },
  {
    "postal": "L6J2A2",
    "result": [
      {
        "electoralDistricts": [
          {
            "election": null,
            "id": 74,
            "name": "Oakville"
          }
        ],
        "pollDivisionIds": [
          10140361
        ],
        "postalCode": "L6J2A2",
        "streetName": "PINEWOOD",
        "streetDirectionId": null,
        "streetTypeId": "AVE",
        "placeName": "OAKVILLE",
        "streetNameDisplayText": "PINEWOOD AVE, OAKVILLE"
      }
    ]
  },
  {
    "postal": "L6J6A6",
    "result": [
      {
        "electoralDistricts": [
          {
            "election": null,
            "id": 74,
            "name": "Oakville"
          }
        ],
        "pollDivisionIds": [
          10140363
        ],
        "postalCode": "L6J6A6",
        "streetName": "CYNTHIA",
        "streetDirectionId": null,
        "streetTypeId": "LANE",
        "placeName": "OAKVILLE",
        "streetNameDisplayText": "CYNTHIA LANE, OAKVILLE"
      }
    ]
  },
  {
    "postal": "L6J0S3",
    "result": []
  },
  {
    "postal": "L6J3E7",
    "result": [
      {
        "electoralDistricts": [
          {
            "election": null,
            "id": 74,
            "name": "Oakville"
          }
        ],
        "pollDivisionIds": [
          10140360
        ],
        "postalCode": "L6J3E7",
        "streetName": "TRAFALGAR",
        "streetDirectionId": null,
        "streetTypeId": "RD",
        "placeName": "OAKVILLE",
        "streetNameDisplayText": "TRAFALGAR RD, OAKVILLE"
      }
    ]
  },
  {
    "postal": "L6J5R7",
    "result": [
      {
        "electoralDistricts": [
          {
            "election": null,
            "id": 74,
            "name": "Oakville"
          }
        ],
        "pollDivisionIds": [
          10140362
        ],
        "postalCode": "L6J5R7",
        "streetName": "LAWSON",
        "streetDirectionId": null,
        "streetTypeId": "ST",
        "placeName": "OAKVILLE",
        "streetNameDisplayText": "LAWSON ST, OAKVILLE"
      }
    ]
  },
  {
    "postal": "L6J3R6",
    "result": [
      {
        "electoralDistricts": [
          {
            "election": null,
            "id": 74,
            "name": "Oakville"
          }
        ],
        "pollDivisionIds": [
          10140360
        ],
        "postalCode": "L6J3R6",
        "streetName": "DOUGLAS",
        "streetDirectionId": null,
        "streetTypeId": "AVE",
        "placeName": "OAKVILLE",
        "streetNameDisplayText": "DOUGLAS AVE, OAKVILLE"
      }
    ]
  },
  {
    "postal": "L6J6K4",
    "result": []
  },
  {
    "postal": "L6J2W5",
    "result": [
      {
        "electoralDistricts": [
          {
            "election": null,
            "id": 74,
            "name": "Oakville"
          }
        ],
        "pollDivisionIds": [
          10140363
        ],
        "postalCode": "L6J2W5",
        "streetName": "BALDWIN",
        "streetDirectionId": null,
        "streetTypeId": "DR",
        "placeName": "OAKVILLE",
        "streetNameDisplayText": "BALDWIN DR, OAKVILLE"
      }
    ]
  },
  {
    "postal": "L6J8W4",
    "result": []
  },
  {
    "postal": "L6J9C2",
    "result": []
  },
  {
    "postal": "L6J2C0",
    "result": []
  },
  {
    "postal": "L6J0E1",
    "result": [
      {
        "electoralDistricts": [
          {
            "election": null,
            "id": 74,
            "name": "Oakville"
          }
        ],
        "pollDivisionIds": [
          10140365,
          10140364
        ],
        "postalCode": "L6J0E1",
        "streetName": "MAPLE GROVE",
        "streetDirectionId": null,
        "streetTypeId": "DR",
        "placeName": "OAKVILLE",
        "streetNameDisplayText": "MAPLE GROVE DR, OAKVILLE"
      }
    ]
  },
  {
    "postal": "L6J1K9",
    "result": [
      {
        "electoralDistricts": [
          {
            "election": null,
            "id": 74,
            "name": "Oakville"
          }
        ],
        "pollDivisionIds": [
          10140361
        ],
        "postalCode": "L6J1K9",
        "streetName": "LAKESHORE",
        "streetDirectionId": "E",
        "streetTypeId": "RD",
        "placeName": "OAKVILLE",
        "streetNameDisplayText": "LAKESHORE RD E, OAKVILLE"
      }
    ]
  },
  {
    "postal": "L6J1G7",
    "result": [
      {
        "electoralDistricts": [
          {
            "election": null,
            "id": 74,
            "name": "Oakville"
          }
        ],
        "pollDivisionIds": [
          10140360
        ],
        "postalCode": "L6J1G7",
        "streetName": "ROBINSON",
        "streetDirectionId": null,
        "streetTypeId": "ST",
        "placeName": "OAKVILLE",
        "streetNameDisplayText": "ROBINSON ST, OAKVILLE"
      }
    ]
  },
  {
    "postal": "L6J4E9",
    "result": [
      {
        "electoralDistricts": [
          {
            "election": null,
            "id": 74,
            "name": "Oakville"
          }
        ],
        "pollDivisionIds": [
          10140361
        ],
        "postalCode": "L6J4E9",
        "streetName": "BURGUNDY",
        "streetDirectionId": null,
        "streetTypeId": "DR",
        "placeName": "OAKVILLE",
        "streetNameDisplayText": "BURGUNDY DR, OAKVILLE"
      }
    ]
  },
  {
    "postal": "L6J9P0",
    "result": []
  },
  {
    "postal": "L6J5H3",
    "result": [
      {
        "electoralDistricts": [
          {
            "election": null,
            "id": 74,
            "name": "Oakville"
          }
        ],
        "pollDivisionIds": [
          10140365
        ],
        "postalCode": "L6J5H3",
        "streetName": "CASTLE",
        "streetDirectionId": null,
        "streetTypeId": "CRES",
        "placeName": "OAKVILLE",
        "streetNameDisplayText": "CASTLE CRES, OAKVILLE"
      }
    ]
  },
  {
    "postal": "L6J9X6",
    "result": []
  },
  {
    "postal": "L6J5N7",
    "result": [
      {
        "electoralDistricts": [
          {
            "election": null,
            "id": 74,
            "name": "Oakville"
          }
        ],
        "pollDivisionIds": [
          10140366
        ],
        "postalCode": "L6J5N7",
        "streetName": "BENNINGTON",
        "streetDirectionId": null,
        "streetTypeId": "GATE",
        "placeName": "OAKVILLE",
        "streetNameDisplayText": "BENNINGTON GATE, OAKVILLE"
      }
    ]
  },
  {
    "postal": "L6J5A6",
    "result": []
  },
  {
    "postal": "L6J4M0",
    "result": []
  },
  {
    "postal": "L6J3V6",
    "result": [
      {
        "electoralDistricts": [
          {
            "election": null,
            "id": 74,
            "name": "Oakville"
          }
        ],
        "pollDivisionIds": [
          10140363,
          10140362
        ],
        "postalCode": "L6J3V6",
        "streetName": "WATSON",
        "streetDirectionId": null,
        "streetTypeId": "AVE",
        "placeName": "OAKVILLE",
        "streetNameDisplayText": "WATSON AVE, OAKVILLE"
      }
    ]
  },
  {
    "postal": "L6J1L7",
    "result": [
      {
        "electoralDistricts": [
          {
            "election": null,
            "id": 74,
            "name": "Oakville"
          }
        ],
        "pollDivisionIds": [
          10140364
        ],
        "postalCode": "L6J1L7",
        "streetName": "LAKESHORE",
        "streetDirectionId": "E",
        "streetTypeId": "RD",
        "placeName": "OAKVILLE",
        "streetNameDisplayText": "LAKESHORE RD E, OAKVILLE"
      }
    ]
  },
  {
    "postal": "L6J2P9",
    "result": [
      {
        "electoralDistricts": [
          {
            "election": null,
            "id": 74,
            "name": "Oakville"
          }
        ],
        "pollDivisionIds": [
          10140364
        ],
        "postalCode": "L6J2P9",
        "streetName": "DUNCAN",
        "streetDirectionId": null,
        "streetTypeId": "RD",
        "placeName": "OAKVILLE",
        "streetNameDisplayText": "DUNCAN RD, OAKVILLE"
      }
    ]
  },
  {
    "postal": "L6J5T4",
    "result": [
      {
        "electoralDistricts": [
          {
            "election": null,
            "id": 74,
            "name": "Oakville"
          }
        ],
        "pollDivisionIds": [
          10140364
        ],
        "postalCode": "L6J5T4",
        "streetName": "ALBION",
        "streetDirectionId": null,
        "streetTypeId": "AVE",
        "placeName": "OAKVILLE",
        "streetNameDisplayText": "ALBION AVE, OAKVILLE"
      }
    ]
  },
  {
    "postal": "L6J5Z1",
    "result": [
      {
        "electoralDistricts": [
          {
            "election": null,
            "id": 74,
            "name": "Oakville"
          }
        ],
        "pollDivisionIds": [
          10140364
        ],
        "postalCode": "L6J5Z1",
        "streetName": "CHANCERY",
        "streetDirectionId": "W",
        "streetTypeId": "LANE",
        "placeName": "OAKVILLE",
        "streetNameDisplayText": "CHANCERY LANE W, OAKVILLE"
      }
    ]
  },
  {
    "postal": "L6J2X0",
    "result": []
  },
  {
    "postal": "L6J6Z2",
    "result": [
      {
        "electoralDistricts": [
          {
            "election": null,
            "id": 74,
            "name": "Oakville"
          }
        ],
        "pollDivisionIds": [
          10140343
        ],
        "postalCode": "L6J6Z2",
        "streetName": "KINGSWAY",
        "streetDirectionId": null,
        "streetTypeId": "DR",
        "placeName": "OAKVILLE",
        "streetNameDisplayText": "KINGSWAY DR, OAKVILLE"
      },
      {
        "electoralDistricts": [
          {
            "election": null,
            "id": 74,
            "name": "Oakville"
          }
        ],
        "pollDivisionIds": [
          10140343
        ],
        "postalCode": "L6J6Z2",
        "streetName": "WYNTEN",
        "streetDirectionId": null,
        "streetTypeId": "WAY",
        "placeName": "OAKVILLE",
        "streetNameDisplayText": "WYNTEN WAY, OAKVILLE"
      }
    ]
  },
  {
    "postal": "L6J0E0",
    "result": []
  },
  {
    "postal": "L6J3Z5",
    "result": [
      {
        "electoralDistricts": [
          {
            "election": null,
            "id": 74,
            "name": "Oakville"
          }
        ],
        "pollDivisionIds": [
          10140361
        ],
        "postalCode": "L6J3Z5",
        "streetName": "CHARTWELL",
        "streetDirectionId": null,
        "streetTypeId": "RD",
        "placeName": "OAKVILLE",
        "streetNameDisplayText": "CHARTWELL RD, OAKVILLE"
      }
    ]
  },
  {
    "postal": "L6J8H3",
    "result": []
  },
  {
    "postal": "L6J7S6",
    "result": []
  },
  {
    "postal": "L6J4C1",
    "result": [
      {
        "electoralDistricts": [
          {
            "election": null,
            "id": 74,
            "name": "Oakville"
          }
        ],
        "pollDivisionIds": [
          10140361
        ],
        "postalCode": "L6J4C1",
        "streetName": "ELTON PARK",
        "streetDirectionId": null,
        "streetTypeId": "RD",
        "placeName": "OAKVILLE",
        "streetNameDisplayText": "ELTON PARK RD, OAKVILLE"
      }
    ]
  },
  {
    "postal": "L6J3K2",
    "result": [
      {
        "electoralDistricts": [
          {
            "election": null,
            "id": 74,
            "name": "Oakville"
          }
        ],
        "pollDivisionIds": [
          10140360
        ],
        "postalCode": "L6J3K2",
        "streetName": "REYNOLDS",
        "streetDirectionId": null,
        "streetTypeId": "ST",
        "placeName": "OAKVILLE",
        "streetNameDisplayText": "REYNOLDS ST, OAKVILLE"
      }
    ]
  },
  {
    "postal": "L6J1Y5",
    "result": [
      {
        "electoralDistricts": [
          {
            "election": null,
            "id": 74,
            "name": "Oakville"
          }
        ],
        "pollDivisionIds": [
          10140364
        ],
        "postalCode": "L6J1Y5",
        "streetName": "OAKHILL",
        "streetDirectionId": null,
        "streetTypeId": "DR",
        "placeName": "OAKVILLE",
        "streetNameDisplayText": "OAKHILL DR, OAKVILLE"
      }
    ]
  },
  {
    "postal": "L6J6P6",
    "result": [
      {
        "electoralDistricts": [
          {
            "election": null,
            "id": 74,
            "name": "Oakville"
          }
        ],
        "pollDivisionIds": [
          10140364
        ],
        "postalCode": "L6J6P6",
        "streetName": "BLENHEIM",
        "streetDirectionId": null,
        "streetTypeId": "CRES",
        "placeName": "OAKVILLE",
        "streetNameDisplayText": "BLENHEIM CRES, OAKVILLE"
      },
      {
        "electoralDistricts": [
          {
            "election": null,
            "id": 74,
            "name": "Oakville"
          }
        ],
        "pollDivisionIds": [
          10140364
        ],
        "postalCode": "L6J6P6",
        "streetName": "DUNVEGAN",
        "streetDirectionId": null,
        "streetTypeId": "AVE",
        "placeName": "OAKVILLE",
        "streetNameDisplayText": "DUNVEGAN AVE, OAKVILLE"
      }
    ]
  },
  {
    "postal": "L6J3N9",
    "result": [
      {
        "electoralDistricts": [
          {
            "election": null,
            "id": 74,
            "name": "Oakville"
          }
        ],
        "pollDivisionIds": [
          10140361
        ],
        "postalCode": "L6J3N9",
        "streetName": "ALLAN",
        "streetDirectionId": null,
        "streetTypeId": "ST",
        "placeName": "OAKVILLE",
        "streetNameDisplayText": "ALLAN ST, OAKVILLE"
      }
    ]
  },
  {
    "postal": "L6J3W2",
    "result": [
      {
        "electoralDistricts": [
          {
            "election": null,
            "id": 74,
            "name": "Oakville"
          }
        ],
        "pollDivisionIds": [
          10140363
        ],
        "postalCode": "L6J3W2",
        "streetName": "WATSON",
        "streetDirectionId": null,
        "streetTypeId": "AVE",
        "placeName": "OAKVILLE",
        "streetNameDisplayText": "WATSON AVE, OAKVILLE"
      }
    ]
  },
  {
    "postal": "L6J6H8",
    "result": [
      {
        "electoralDistricts": [
          {
            "election": null,
            "id": 74,
            "name": "Oakville"
          }
        ],
        "pollDivisionIds": [
          10140366
        ],
        "postalCode": "L6J6H8",
        "streetName": "BARCLAY",
        "streetDirectionId": null,
        "streetTypeId": "CRES",
        "placeName": "OAKVILLE",
        "streetNameDisplayText": "BARCLAY CRES, OAKVILLE"
      }
    ]
  },
  {
    "postal": "L6J9T3",
    "result": []
  },
  {
    "postal": "L6J5L9",
    "result": [
      {
        "electoralDistricts": [
          {
            "election": null,
            "id": 74,
            "name": "Oakville"
          }
        ],
        "pollDivisionIds": [
          10140365
        ],
        "postalCode": "L6J5L9",
        "streetName": "DEVON",
        "streetDirectionId": null,
        "streetTypeId": "RD",
        "placeName": "OAKVILLE",
        "streetNameDisplayText": "DEVON RD, OAKVILLE"
      }
    ]
  },
  {
    "postal": "L6J7X7",
    "result": [
      {
        "electoralDistricts": [
          {
            "election": null,
            "id": 74,
            "name": "Oakville"
          }
        ],
        "pollDivisionIds": [
          10140364
        ],
        "postalCode": "L6J7X7",
        "streetName": "ROYAL WINDSOR",
        "streetDirectionId": null,
        "streetTypeId": "DR",
        "placeName": "OAKVILLE",
        "streetNameDisplayText": "ROYAL WINDSOR DR, OAKVILLE"
      }
    ]
  },
  {
    "postal": "L6J3J5",
    "result": [
      {
        "electoralDistricts": [
          {
            "election": null,
            "id": 74,
            "name": "Oakville"
          }
        ],
        "pollDivisionIds": [
          10140363
        ],
        "postalCode": "L6J3J5",
        "streetName": "INGLEHART",
        "streetDirectionId": "N",
        "streetTypeId": "ST",
        "placeName": "OAKVILLE",
        "streetNameDisplayText": "INGLEHART ST N, OAKVILLE"
      },
      {
        "electoralDistricts": [
          {
            "election": null,
            "id": 74,
            "name": "Oakville"
          }
        ],
        "pollDivisionIds": [
          10140363
        ],
        "postalCode": "L6J3J5",
        "streetName": "INGLEHART",
        "streetDirectionId": "S",
        "streetTypeId": "ST",
        "placeName": "OAKVILLE",
        "streetNameDisplayText": "INGLEHART ST S, OAKVILLE"
      }
    ]
  },
  {
    "postal": "L6J4J5",
    "result": [
      {
        "electoralDistricts": [
          {
            "election": null,
            "id": 74,
            "name": "Oakville"
          }
        ],
        "pollDivisionIds": [
          10140363
        ],
        "postalCode": "L6J4J5",
        "streetName": "MORRISON",
        "streetDirectionId": null,
        "streetTypeId": "RD",
        "placeName": "OAKVILLE",
        "streetNameDisplayText": "MORRISON RD, OAKVILLE"
      }
    ]
  },
  {
    "postal": "L6J6J2",
    "result": [
      {
        "electoralDistricts": [
          {
            "election": null,
            "id": 74,
            "name": "Oakville"
          }
        ],
        "pollDivisionIds": [
          10140366
        ],
        "postalCode": "L6J6J2",
        "streetName": "BONNY MEADOW",
        "streetDirectionId": null,
        "streetTypeId": "RD",
        "placeName": "OAKVILLE",
        "streetNameDisplayText": "BONNY MEADOW RD, OAKVILLE"
      }
    ]
  },
  {
    "postal": "L6J5V6",
    "result": [
      {
        "electoralDistricts": [
          {
            "election": null,
            "id": 74,
            "name": "Oakville"
          }
        ],
        "pollDivisionIds": [
          10140365
        ],
        "postalCode": "L6J5V6",
        "streetName": "AINTREE",
        "streetDirectionId": null,
        "streetTypeId": "TERR",
        "placeName": "OAKVILLE",
        "streetNameDisplayText": "AINTREE TERR, OAKVILLE"
      }
    ]
  },
  {
    "postal": "L6J3N2",
    "result": [
      {
        "electoralDistricts": [
          {
            "election": null,
            "id": 74,
            "name": "Oakville"
          }
        ],
        "pollDivisionIds": [
          10140360
        ],
        "postalCode": "L6J3N2",
        "streetName": "ALLAN",
        "streetDirectionId": null,
        "streetTypeId": "ST",
        "placeName": "OAKVILLE",
        "streetNameDisplayText": "ALLAN ST, OAKVILLE"
      }
    ]
  },
  {
    "postal": "L6J3B1",
    "result": [
      {
        "electoralDistricts": [
          {
            "election": null,
            "id": 74,
            "name": "Oakville"
          }
        ],
        "pollDivisionIds": [
          10140360
        ],
        "postalCode": "L6J3B1",
        "streetName": "THOMAS",
        "streetDirectionId": null,
        "streetTypeId": "ST",
        "placeName": "OAKVILLE",
        "streetNameDisplayText": "THOMAS ST, OAKVILLE"
      }
    ]
  },
  {
    "postal": "L6J8B5",
    "result": []
  },
  {
    "postal": "L6J0K1",
    "result": []
  },
  {
    "postal": "L6J7M7",
    "result": [
      {
        "electoralDistricts": [
          {
            "election": null,
            "id": 74,
            "name": "Oakville"
          }
        ],
        "pollDivisionIds": [
          10140344
        ],
        "postalCode": "L6J7M7",
        "streetName": "ROSEWOOD",
        "streetDirectionId": null,
        "streetTypeId": "LANE",
        "placeName": "OAKVILLE",
        "streetNameDisplayText": "ROSEWOOD LANE, OAKVILLE"
      },
      {
        "electoralDistricts": [
          {
            "election": null,
            "id": 74,
            "name": "Oakville"
          }
        ],
        "pollDivisionIds": [
          10140344
        ],
        "postalCode": "L6J7M7",
        "streetName": "TEAK",
        "streetDirectionId": null,
        "streetTypeId": "CRES",
        "placeName": "OAKVILLE",
        "streetNameDisplayText": "TEAK CRES, OAKVILLE"
      }
    ]
  },
  {
    "postal": "L6J2M2",
    "result": [
      {
        "electoralDistricts": [
          {
            "election": null,
            "id": 74,
            "name": "Oakville"
          }
        ],
        "pollDivisionIds": [
          10140364
        ],
        "postalCode": "L6J2M2",
        "streetName": "DEVON",
        "streetDirectionId": null,
        "streetTypeId": "RD",
        "placeName": "OAKVILLE",
        "streetNameDisplayText": "DEVON RD, OAKVILLE"
      }
    ]
  },
  {
    "postal": "L6J9N3",
    "result": []
  },
  {
    "postal": "L6J4Y8",
    "result": []
  },
  {
    "postal": "L6J3V7",
    "result": [
      {
        "electoralDistricts": [
          {
            "election": null,
            "id": 74,
            "name": "Oakville"
          }
        ],
        "pollDivisionIds": [
          10140363
        ],
        "postalCode": "L6J3V7",
        "streetName": "WATSON",
        "streetDirectionId": null,
        "streetTypeId": "AVE",
        "placeName": "OAKVILLE",
        "streetNameDisplayText": "WATSON AVE, OAKVILLE"
      }
    ]
  },
  {
    "postal": "L6J8Z1",
    "result": []
  },
  {
    "postal": "L6J7B3",
    "result": [
      {
        "electoralDistricts": [
          {
            "election": null,
            "id": 74,
            "name": "Oakville"
          }
        ],
        "pollDivisionIds": [
          10140343
        ],
        "postalCode": "L6J7B3",
        "streetName": "GIBSON",
        "streetDirectionId": null,
        "streetTypeId": "DR",
        "placeName": "OAKVILLE",
        "streetNameDisplayText": "GIBSON DR, OAKVILLE"
      }
    ]
  },
  {
    "postal": "L6J3A8",
    "result": [
      {
        "electoralDistricts": [
          {
            "election": null,
            "id": 74,
            "name": "Oakville"
          }
        ],
        "pollDivisionIds": [
          10140360
        ],
        "postalCode": "L6J3A8",
        "streetName": "THOMAS",
        "streetDirectionId": null,
        "streetTypeId": "ST",
        "placeName": "OAKVILLE",
        "streetNameDisplayText": "THOMAS ST, OAKVILLE"
      }
    ]
  },
  {
    "postal": "L6J7V5",
    "result": [
      {
        "electoralDistricts": [
          {
            "election": null,
            "id": 74,
            "name": "Oakville"
          }
        ],
        "pollDivisionIds": [
          10140343
        ],
        "postalCode": "L6J7V5",
        "streetName": "SHERWOOD HEIGHTS",
        "streetDirectionId": null,
        "streetTypeId": "DR",
        "placeName": "OAKVILLE",
        "streetNameDisplayText": "SHERWOOD HEIGHTS DR, OAKVILLE"
      }
    ]
  },
  {
    "postal": "L6J2T2",
    "result": [
      {
        "electoralDistricts": [
          {
            "election": null,
            "id": 74,
            "name": "Oakville"
          }
        ],
        "pollDivisionIds": [
          10140364
        ],
        "postalCode": "L6J2T2",
        "streetName": "AVON",
        "streetDirectionId": null,
        "streetTypeId": "CRES",
        "placeName": "OAKVILLE",
        "streetNameDisplayText": "AVON CRES, OAKVILLE"
      }
    ]
  },
  {
    "postal": "L6J6L3",
    "result": [
      {
        "electoralDistricts": [
          {
            "election": null,
            "id": 74,
            "name": "Oakville"
          }
        ],
        "pollDivisionIds": [
          10140366
        ],
        "postalCode": "L6J6L3",
        "streetName": "CAIRNS VALLEY",
        "streetDirectionId": null,
        "streetTypeId": "CRT",
        "placeName": "OAKVILLE",
        "streetNameDisplayText": "CAIRNS VALLEY CRT, OAKVILLE"
      }
    ]
  },
  {
    "postal": "L6J0L2",
    "result": []
  },
  {
    "postal": "L6J5Y8",
    "result": [
      {
        "electoralDistricts": [
          {
            "election": null,
            "id": 74,
            "name": "Oakville"
          }
        ],
        "pollDivisionIds": [
          10140365
        ],
        "postalCode": "L6J5Y8",
        "streetName": "ALL SAINTS",
        "streetDirectionId": null,
        "streetTypeId": "CRES",
        "placeName": "OAKVILLE",
        "streetNameDisplayText": "ALL SAINTS CRES, OAKVILLE"
      }
    ]
  },
  {
    "postal": "L6J0B8",
    "result": []
  },
  {
    "postal": "L6J6R5",
    "result": [
      {
        "electoralDistricts": [
          {
            "election": null,
            "id": 74,
            "name": "Oakville"
          }
        ],
        "pollDivisionIds": [
          10140343
        ],
        "postalCode": "L6J6R5",
        "streetName": "CHALFIELD",
        "streetDirectionId": null,
        "streetTypeId": "DR",
        "placeName": "OAKVILLE",
        "streetNameDisplayText": "CHALFIELD DR, OAKVILLE"
      }
    ]
  },
  {
    "postal": "L6J8W6",
    "result": []
  },
  {
    "postal": "L6J8G6",
    "result": []
  },
  {
    "postal": "L6J6X3",
    "result": [
      {
        "electoralDistricts": [
          {
            "election": null,
            "id": 74,
            "name": "Oakville"
          }
        ],
        "pollDivisionIds": [
          10140343
        ],
        "postalCode": "L6J6X3",
        "streetName": "CLEARVIEW",
        "streetDirectionId": null,
        "streetTypeId": "DR",
        "placeName": "OAKVILLE",
        "streetNameDisplayText": "CLEARVIEW DR, OAKVILLE"
      }
    ]
  },
  {
    "postal": "L6J7R7",
    "result": [
      {
        "electoralDistricts": [
          {
            "election": null,
            "id": 74,
            "name": "Oakville"
          }
        ],
        "pollDivisionIds": [
          10140343
        ],
        "postalCode": "L6J7R7",
        "streetName": "SHERWOOD HEIGHTS",
        "streetDirectionId": null,
        "streetTypeId": "DR",
        "placeName": "OAKVILLE",
        "streetNameDisplayText": "SHERWOOD HEIGHTS DR, OAKVILLE"
      }
    ]
  },
  {
    "postal": "L6J4B6",
    "result": [
      {
        "electoralDistricts": [
          {
            "election": null,
            "id": 74,
            "name": "Oakville"
          }
        ],
        "pollDivisionIds": [
          10140361
        ],
        "postalCode": "L6J4B6",
        "streetName": "BRENTWOOD",
        "streetDirectionId": null,
        "streetTypeId": "RD",
        "placeName": "OAKVILLE",
        "streetNameDisplayText": "BRENTWOOD RD, OAKVILLE"
      }
    ]
  },
  {
    "postal": "L6J3P9",
    "result": [
      {
        "electoralDistricts": [
          {
            "election": null,
            "id": 74,
            "name": "Oakville"
          }
        ],
        "pollDivisionIds": [
          10140363
        ],
        "postalCode": "L6J3P9",
        "streetName": "ALLAN",
        "streetDirectionId": null,
        "streetTypeId": "ST",
        "placeName": "OAKVILLE",
        "streetNameDisplayText": "ALLAN ST, OAKVILLE"
      }
    ]
  },
  {
    "postal": "L6J2T3",
    "result": [
      {
        "electoralDistricts": [
          {
            "election": null,
            "id": 74,
            "name": "Oakville"
          }
        ],
        "pollDivisionIds": [
          10140364
        ],
        "postalCode": "L6J2T3",
        "streetName": "AVON",
        "streetDirectionId": null,
        "streetTypeId": "CRES",
        "placeName": "OAKVILLE",
        "streetNameDisplayText": "AVON CRES, OAKVILLE"
      }
    ]
  },
  {
    "postal": "L6J1M4",
    "result": [
      {
        "electoralDistricts": [
          {
            "election": null,
            "id": 74,
            "name": "Oakville"
          }
        ],
        "pollDivisionIds": [
          10140365
        ],
        "postalCode": "L6J1M4",
        "streetName": "LAKESHORE",
        "streetDirectionId": "E",
        "streetTypeId": "RD",
        "placeName": "OAKVILLE",
        "streetNameDisplayText": "LAKESHORE RD E, OAKVILLE"
      }
    ]
  },
  {
    "postal": "L6J0H1",
    "result": []
  },
  {
    "postal": "L6J9W3",
    "result": []
  },
  {
    "postal": "L6J6P1",
    "result": [
      {
        "electoralDistricts": [
          {
            "election": null,
            "id": 74,
            "name": "Oakville"
          }
        ],
        "pollDivisionIds": [
          10140364
        ],
        "postalCode": "L6J6P1",
        "streetName": "CARDIFF",
        "streetDirectionId": null,
        "streetTypeId": "DR",
        "placeName": "OAKVILLE",
        "streetNameDisplayText": "CARDIFF DR, OAKVILLE"
      },
      {
        "electoralDistricts": [
          {
            "election": null,
            "id": 74,
            "name": "Oakville"
          }
        ],
        "pollDivisionIds": [
          10140364
        ],
        "postalCode": "L6J6P1",
        "streetName": "DUNVEGAN",
        "streetDirectionId": null,
        "streetTypeId": "AVE",
        "placeName": "OAKVILLE",
        "streetNameDisplayText": "DUNVEGAN AVE, OAKVILLE"
      }
    ]
  },
  {
    "postal": "L6J7G2",
    "result": [
      {
        "electoralDistricts": [
          {
            "election": null,
            "id": 74,
            "name": "Oakville"
          }
        ],
        "pollDivisionIds": [
          10140343
        ],
        "postalCode": "L6J7G2",
        "streetName": "KINGSWAY",
        "streetDirectionId": null,
        "streetTypeId": "DR",
        "placeName": "OAKVILLE",
        "streetNameDisplayText": "KINGSWAY DR, OAKVILLE"
      },
      {
        "electoralDistricts": [
          {
            "election": null,
            "id": 74,
            "name": "Oakville"
          }
        ],
        "pollDivisionIds": [
          10140343
        ],
        "postalCode": "L6J7G2",
        "streetName": "WINTERBOURNE",
        "streetDirectionId": null,
        "streetTypeId": "DR",
        "placeName": "OAKVILLE",
        "streetNameDisplayText": "WINTERBOURNE DR, OAKVILLE"
      }
    ]
  },
  {
    "postal": "L6J4J9",
    "result": [
      {
        "electoralDistricts": [
          {
            "election": null,
            "id": 74,
            "name": "Oakville"
          }
        ],
        "pollDivisionIds": [
          10140363
        ],
        "postalCode": "L6J4J9",
        "streetName": "MORRISON",
        "streetDirectionId": null,
        "streetTypeId": "RD",
        "placeName": "OAKVILLE",
        "streetNameDisplayText": "MORRISON RD, OAKVILLE"
      }
    ]
  },
  {
    "postal": "L6J9E4",
    "result": []
  },
  {
    "postal": "L6J8H0",
    "result": []
  },
  {
    "postal": "L6J4M7",
    "result": [
      {
        "electoralDistricts": [
          {
            "election": null,
            "id": 74,
            "name": "Oakville"
          }
        ],
        "pollDivisionIds": [
          10140364
        ],
        "postalCode": "L6J4M7",
        "streetName": "CAIRNCROFT",
        "streetDirectionId": null,
        "streetTypeId": "RD",
        "placeName": "OAKVILLE",
        "streetNameDisplayText": "CAIRNCROFT RD, OAKVILLE"
      }
    ]
  },
  {
    "postal": "L6J2G9",
    "result": [
      {
        "electoralDistricts": [
          {
            "election": null,
            "id": 74,
            "name": "Oakville"
          }
        ],
        "pollDivisionIds": [
          10140363
        ],
        "postalCode": "L6J2G9",
        "streetName": "SPRUCE",
        "streetDirectionId": null,
        "streetTypeId": "ST",
        "placeName": "OAKVILLE",
        "streetNameDisplayText": "SPRUCE ST, OAKVILLE"
      }
    ]
  },
  {
    "postal": "L6J8T2",
    "result": []
  },
  {
    "postal": "L6J7G7",
    "result": [
      {
        "electoralDistricts": [
          {
            "election": null,
            "id": 74,
            "name": "Oakville"
          }
        ],
        "pollDivisionIds": [
          10140343
        ],
        "postalCode": "L6J7G7",
        "streetName": "HUNTINGDON",
        "streetDirectionId": null,
        "streetTypeId": "TRAIL",
        "placeName": "OAKVILLE",
        "streetNameDisplayText": "HUNTINGDON TRAIL, OAKVILLE"
      }
    ]
  },
  {
    "postal": "L6J4Z3",
    "result": []
  },
  {
    "postal": "L6J5B3",
    "result": []
  },
  {
    "postal": "L6J1S7",
    "result": [
      {
        "electoralDistricts": [
          {
            "election": null,
            "id": 74,
            "name": "Oakville"
          }
        ],
        "pollDivisionIds": [
          10140361
        ],
        "postalCode": "L6J1S7",
        "streetName": "SUMNER",
        "streetDirectionId": null,
        "streetTypeId": "AVE",
        "placeName": "OAKVILLE",
        "streetNameDisplayText": "SUMNER AVE, OAKVILLE"
      }
    ]
  },
  {
    "postal": "L6J2N7",
    "result": [
      {
        "electoralDistricts": [
          {
            "election": null,
            "id": 74,
            "name": "Oakville"
          }
        ],
        "pollDivisionIds": [
          10140363
        ],
        "postalCode": "L6J2N7",
        "streetName": "CUMNOCK",
        "streetDirectionId": null,
        "streetTypeId": "CRES",
        "placeName": "OAKVILLE",
        "streetNameDisplayText": "CUMNOCK CRES, OAKVILLE"
      }
    ]
  },
  {
    "postal": "L6J0H8",
    "result": []
  },
  {
    "postal": "L6J7Z4",
    "result": []
  },
  {
    "postal": "L6J7B1",
    "result": [
      {
        "electoralDistricts": [
          {
            "election": null,
            "id": 74,
            "name": "Oakville"
          }
        ],
        "pollDivisionIds": [
          10140343
        ],
        "postalCode": "L6J7B1",
        "streetName": "HAZEL MCCLEARY",
        "streetDirectionId": null,
        "streetTypeId": "DR",
        "placeName": "OAKVILLE",
        "streetNameDisplayText": "HAZEL MCCLEARY DR, OAKVILLE"
      }
    ]
  },
  {
    "postal": "L6J7P8",
    "result": [
      {
        "electoralDistricts": [
          {
            "election": null,
            "id": 74,
            "name": "Oakville"
          }
        ],
        "pollDivisionIds": [
          10140344
        ],
        "postalCode": "L6J7P8",
        "streetName": "SPRINGFIELD",
        "streetDirectionId": null,
        "streetTypeId": "CRES",
        "placeName": "OAKVILLE",
        "streetNameDisplayText": "SPRINGFIELD CRES, OAKVILLE"
      }
    ]
  },
  {
    "postal": "L6J7N0",
    "result": []
  },
  {
    "postal": "L6J3Y5",
    "result": [
      {
        "electoralDistricts": [
          {
            "election": null,
            "id": 74,
            "name": "Oakville"
          }
        ],
        "pollDivisionIds": [
          10140361
        ],
        "postalCode": "L6J3Y5",
        "streetName": "HOWARD",
        "streetDirectionId": null,
        "streetTypeId": "AVE",
        "placeName": "OAKVILLE",
        "streetNameDisplayText": "HOWARD AVE, OAKVILLE"
      }
    ]
  },
  {
    "postal": "L6J6K1",
    "result": [
      {
        "electoralDistricts": [
          {
            "election": null,
            "id": 74,
            "name": "Oakville"
          }
        ],
        "pollDivisionIds": [
          10140366
        ],
        "postalCode": "L6J6K1",
        "streetName": "CLAREMONT",
        "streetDirectionId": null,
        "streetTypeId": "CRES",
        "placeName": "OAKVILLE",
        "streetNameDisplayText": "CLAREMONT CRES, OAKVILLE"
      }
    ]
  },
  {
    "postal": "L6J9X5",
    "result": []
  },
  {
    "postal": "L6J7S5",
    "result": []
  },
  {
    "postal": "L6J0A4",
    "result": []
  },
  {
    "postal": "L6J4T5",
    "result": [
      {
        "electoralDistricts": [
          {
            "election": null,
            "id": 74,
            "name": "Oakville"
          }
        ],
        "pollDivisionIds": [
          10140364
        ],
        "postalCode": "L6J4T5",
        "streetName": "ALBION",
        "streetDirectionId": null,
        "streetTypeId": "AVE",
        "placeName": "OAKVILLE",
        "streetNameDisplayText": "ALBION AVE, OAKVILLE"
      }
    ]
  },
  {
    "postal": "L6J5K1",
    "result": [
      {
        "electoralDistricts": [
          {
            "election": null,
            "id": 74,
            "name": "Oakville"
          }
        ],
        "pollDivisionIds": [
          10140365
        ],
        "postalCode": "L6J5K1",
        "streetName": "BROOK",
        "streetDirectionId": null,
        "streetTypeId": "PL",
        "placeName": "OAKVILLE",
        "streetNameDisplayText": "BROOK PL, OAKVILLE"
      }
    ]
  },
  {
    "postal": "L6J0Z9",
    "result": []
  },
  {
    "postal": "L6J7T2",
    "result": []
  },
  {
    "postal": "L6J1L5",
    "result": [
      {
        "electoralDistricts": [
          {
            "election": null,
            "id": 74,
            "name": "Oakville"
          }
        ],
        "pollDivisionIds": [
          10140361
        ],
        "postalCode": "L6J1L5",
        "streetName": "LAKESHORE",
        "streetDirectionId": "E",
        "streetTypeId": "RD",
        "placeName": "OAKVILLE",
        "streetNameDisplayText": "LAKESHORE RD E, OAKVILLE"
      }
    ]
  },
  {
    "postal": "L6J3N5",
    "result": [
      {
        "electoralDistricts": [
          {
            "election": null,
            "id": 74,
            "name": "Oakville"
          }
        ],
        "pollDivisionIds": [
          10140360
        ],
        "postalCode": "L6J3N5",
        "streetName": "ALLAN",
        "streetDirectionId": null,
        "streetTypeId": "ST",
        "placeName": "OAKVILLE",
        "streetNameDisplayText": "ALLAN ST, OAKVILLE"
      }
    ]
  },
  {
    "postal": "L6J6H4",
    "result": [
      {
        "electoralDistricts": [
          {
            "election": null,
            "id": 74,
            "name": "Oakville"
          }
        ],
        "pollDivisionIds": [
          10140366
        ],
        "postalCode": "L6J6H4",
        "streetName": "ASPEN FOREST",
        "streetDirectionId": null,
        "streetTypeId": "DR",
        "placeName": "OAKVILLE",
        "streetNameDisplayText": "ASPEN FOREST DR, OAKVILLE"
      }
    ]
  },
  {
    "postal": "L6J5A5",
    "result": []
  },
  {
    "postal": "L6J3R9",
    "result": [
      {
        "electoralDistricts": [
          {
            "election": null,
            "id": 74,
            "name": "Oakville"
          }
        ],
        "pollDivisionIds": [
          10140361
        ],
        "postalCode": "L6J3R9",
        "streetName": "DOUGLAS",
        "streetDirectionId": null,
        "streetTypeId": "AVE",
        "placeName": "OAKVILLE",
        "streetNameDisplayText": "DOUGLAS AVE, OAKVILLE"
      }
    ]
  },
  {
    "postal": "L6J7L8",
    "result": []
  },
  {
    "postal": "L6J6T6",
    "result": [
      {
        "electoralDistricts": [
          {
            "election": null,
            "id": 74,
            "name": "Oakville"
          }
        ],
        "pollDivisionIds": [
          10140343
        ],
        "postalCode": "L6J6T6",
        "streetName": "PRINCE JOHN",
        "streetDirectionId": null,
        "streetTypeId": "CIR",
        "placeName": "OAKVILLE",
        "streetNameDisplayText": "PRINCE JOHN CIR, OAKVILLE"
      },
      {
        "electoralDistricts": [
          {
            "election": null,
            "id": 74,
            "name": "Oakville"
          }
        ],
        "pollDivisionIds": [
          10140343
        ],
        "postalCode": "L6J6T6",
        "streetName": "WAKEHURST",
        "streetDirectionId": null,
        "streetTypeId": "CRES",
        "placeName": "OAKVILLE",
        "streetNameDisplayText": "WAKEHURST CRES, OAKVILLE"
      }
    ]
  },
  {
    "postal": "L6J7Y7",
    "result": [
      {
        "electoralDistricts": [
          {
            "election": null,
            "id": 74,
            "name": "Oakville"
          }
        ],
        "pollDivisionIds": [
          10140364
        ],
        "postalCode": "L6J7Y7",
        "streetName": "MAPLE GROVE",
        "streetDirectionId": null,
        "streetTypeId": "DR",
        "placeName": "OAKVILLE",
        "streetNameDisplayText": "MAPLE GROVE DR, OAKVILLE"
      }
    ]
  },
  {
    "postal": "L6J3M8",
    "result": [
      {
        "electoralDistricts": [
          {
            "election": null,
            "id": 74,
            "name": "Oakville"
          }
        ],
        "pollDivisionIds": [
          10140360
        ],
        "postalCode": "L6J3M8",
        "streetName": "ALLAN",
        "streetDirectionId": null,
        "streetTypeId": "ST",
        "placeName": "OAKVILLE",
        "streetNameDisplayText": "ALLAN ST, OAKVILLE"
      }
    ]
  },
  {
    "postal": "L6J2E0",
    "result": []
  },
  {
    "postal": "L6J4B5",
    "result": [
      {
        "electoralDistricts": [
          {
            "election": null,
            "id": 74,
            "name": "Oakville"
          }
        ],
        "pollDivisionIds": [
          10140361
        ],
        "postalCode": "L6J4B5",
        "streetName": "ALEXANDER",
        "streetDirectionId": null,
        "streetTypeId": "DR",
        "placeName": "OAKVILLE",
        "streetNameDisplayText": "ALEXANDER DR, OAKVILLE"
      }
    ]
  },
  {
    "postal": "L6J1J3",
    "result": [
      {
        "electoralDistricts": [
          {
            "election": null,
            "id": 74,
            "name": "Oakville"
          }
        ],
        "pollDivisionIds": [
          10140360
        ],
        "postalCode": "L6J1J3",
        "streetName": "LAKESHORE",
        "streetDirectionId": "E",
        "streetTypeId": "RD",
        "placeName": "OAKVILLE",
        "streetNameDisplayText": "LAKESHORE RD E, OAKVILLE"
      },
      {
        "electoralDistricts": [
          {
            "election": null,
            "id": 74,
            "name": "Oakville"
          }
        ],
        "pollDivisionIds": [
          10140357
        ],
        "postalCode": "L6J1J3",
        "streetName": "LAKESHORE",
        "streetDirectionId": "W",
        "streetTypeId": "RD",
        "placeName": "OAKVILLE",
        "streetNameDisplayText": "LAKESHORE RD W, OAKVILLE"
      }
    ]
  },
  {
    "postal": "L6J5S6",
    "result": [
      {
        "electoralDistricts": [
          {
            "election": null,
            "id": 74,
            "name": "Oakville"
          }
        ],
        "pollDivisionIds": [
          10140364
        ],
        "postalCode": "L6J5S6",
        "streetName": "COLCHESTER",
        "streetDirectionId": null,
        "streetTypeId": "DR",
        "placeName": "OAKVILLE",
        "streetNameDisplayText": "COLCHESTER DR, OAKVILLE"
      }
    ]
  },
  {
    "postal": "L6J8P7",
    "result": []
  },
  {
    "postal": "L6J7S7",
    "result": []
  },
  {
    "postal": "L6J4C2",
    "result": [
      {
        "electoralDistricts": [
          {
            "election": null,
            "id": 74,
            "name": "Oakville"
          }
        ],
        "pollDivisionIds": [
          10140361
        ],
        "postalCode": "L6J4C2",
        "streetName": "ELTON PARK",
        "streetDirectionId": null,
        "streetTypeId": "RD",
        "placeName": "OAKVILLE",
        "streetNameDisplayText": "ELTON PARK RD, OAKVILLE"
      }
    ]
  },
  {
    "postal": "L6J5Y0",
    "result": []
  },
  {
    "postal": "L6J2V7",
    "result": [
      {
        "electoralDistricts": [
          {
            "election": null,
            "id": 74,
            "name": "Oakville"
          }
        ],
        "pollDivisionIds": [
          10140365
        ],
        "postalCode": "L6J2V7",
        "streetName": "CONSTANCE",
        "streetDirectionId": null,
        "streetTypeId": "DR",
        "placeName": "OAKVILLE",
        "streetNameDisplayText": "CONSTANCE DR, OAKVILLE"
      }
    ]
  },
  {
    "postal": "L6J8P5",
    "result": []
  },
  {
    "postal": "L6J5P5",
    "result": [
      {
        "electoralDistricts": [
          {
            "election": null,
            "id": 74,
            "name": "Oakville"
          }
        ],
        "pollDivisionIds": [
          10140366
        ],
        "postalCode": "L6J5P5",
        "streetName": "CARRINGTON",
        "streetDirectionId": null,
        "streetTypeId": "PL",
        "placeName": "OAKVILLE",
        "streetNameDisplayText": "CARRINGTON PL, OAKVILLE"
      }
    ]
  },
  {
    "postal": "L6J5Z0",
    "result": []
  },
  {
    "postal": "L6J9B0",
    "result": []
  },
  {
    "postal": "L6J1L0",
    "result": []
  },
  {
    "postal": "L6J0B5",
    "result": []
  },
  {
    "postal": "L6J3L2",
    "result": [
      {
        "electoralDistricts": [
          {
            "election": null,
            "id": 74,
            "name": "Oakville"
          }
        ],
        "pollDivisionIds": [
          10140361
        ],
        "postalCode": "L6J3L2",
        "streetName": "REYNOLDS",
        "streetDirectionId": null,
        "streetTypeId": "ST",
        "placeName": "OAKVILLE",
        "streetNameDisplayText": "REYNOLDS ST, OAKVILLE"
      }
    ]
  },
  {
    "postal": "L6J3B7",
    "result": [
      {
        "electoralDistricts": [
          {
            "election": null,
            "id": 74,
            "name": "Oakville"
          }
        ],
        "pollDivisionIds": [
          10140360
        ],
        "postalCode": "L6J3B7",
        "streetName": "GEORGE",
        "streetDirectionId": null,
        "streetTypeId": "ST",
        "placeName": "OAKVILLE",
        "streetNameDisplayText": "GEORGE ST, OAKVILLE"
      }
    ]
  },
  {
    "postal": "L6J8L1",
    "result": []
  },
  {
    "postal": "L6J5M4",
    "result": [
      {
        "electoralDistricts": [
          {
            "election": null,
            "id": 74,
            "name": "Oakville"
          }
        ],
        "pollDivisionIds": [
          10140365
        ],
        "postalCode": "L6J5M4",
        "streetName": "DEVON",
        "streetDirectionId": null,
        "streetTypeId": "RD",
        "placeName": "OAKVILLE",
        "streetNameDisplayText": "DEVON RD, OAKVILLE"
      }
    ]
  },
  {
    "postal": "L6J4G9",
    "result": [
      {
        "electoralDistricts": [
          {
            "election": null,
            "id": 74,
            "name": "Oakville"
          }
        ],
        "pollDivisionIds": [
          10140361
        ],
        "postalCode": "L6J4G9",
        "streetName": "DIANNE",
        "streetDirectionId": null,
        "streetTypeId": "AVE",
        "placeName": "OAKVILLE",
        "streetNameDisplayText": "DIANNE AVE, OAKVILLE"
      }
    ]
  },
  {
    "postal": "L6J0P0",
    "result": []
  },
  {
    "postal": "L6J8G2",
    "result": []
  },
  {
    "postal": "L6J1V9",
    "result": [
      {
        "electoralDistricts": [
          {
            "election": null,
            "id": 74,
            "name": "Oakville"
          }
        ],
        "pollDivisionIds": [
          10140361
        ],
        "postalCode": "L6J1V9",
        "streetName": "RADLEY",
        "streetDirectionId": null,
        "streetTypeId": "RD",
        "placeName": "OAKVILLE",
        "streetNameDisplayText": "RADLEY RD, OAKVILLE"
      }
    ]
  },
  {
    "postal": "L6J8N8",
    "result": []
  },
  {
    "postal": "L6J6S8",
    "result": [
      {
        "electoralDistricts": [
          {
            "election": null,
            "id": 74,
            "name": "Oakville"
          }
        ],
        "pollDivisionIds": [
          10140343
        ],
        "postalCode": "L6J6S8",
        "streetName": "PRINCE JOHN",
        "streetDirectionId": null,
        "streetTypeId": "CIR",
        "placeName": "OAKVILLE",
        "streetNameDisplayText": "PRINCE JOHN CIR, OAKVILLE"
      }
    ]
  },
  {
    "postal": "L6J8H2",
    "result": []
  },
  {
    "postal": "L6J5R8",
    "result": [
      {
        "electoralDistricts": [
          {
            "election": null,
            "id": 74,
            "name": "Oakville"
          }
        ],
        "pollDivisionIds": [
          10140361
        ],
        "postalCode": "L6J5R8",
        "streetName": "CAIRNCROFT",
        "streetDirectionId": null,
        "streetTypeId": "RD",
        "placeName": "OAKVILLE",
        "streetNameDisplayText": "CAIRNCROFT RD, OAKVILLE"
      }
    ]
  },
  {
    "postal": "L6J5L4",
    "result": [
      {
        "electoralDistricts": [
          {
            "election": null,
            "id": 74,
            "name": "Oakville"
          }
        ],
        "pollDivisionIds": [
          10140365
        ],
        "postalCode": "L6J5L4",
        "streetName": "CONSTANCE",
        "streetDirectionId": null,
        "streetTypeId": "DR",
        "placeName": "OAKVILLE",
        "streetNameDisplayText": "CONSTANCE DR, OAKVILLE"
      }
    ]
  },
  {
    "postal": "L6J9E1",
    "result": []
  },
  {
    "postal": "L6J1C4",
    "result": [
      {
        "electoralDistricts": [
          {
            "election": null,
            "id": 74,
            "name": "Oakville"
          }
        ],
        "pollDivisionIds": [
          10140360
        ],
        "postalCode": "L6J1C4",
        "streetName": "WILLIAM",
        "streetDirectionId": null,
        "streetTypeId": "ST",
        "placeName": "OAKVILLE",
        "streetNameDisplayText": "WILLIAM ST, OAKVILLE"
      }
    ]
  },
  {
    "postal": "L6J8W5",
    "result": []
  },
  {
    "postal": "L6J1Y4",
    "result": [
      {
        "electoralDistricts": [
          {
            "election": null,
            "id": 74,
            "name": "Oakville"
          }
        ],
        "pollDivisionIds": [
          10140364
        ],
        "postalCode": "L6J1Y4",
        "streetName": "OAKHILL",
        "streetDirectionId": null,
        "streetTypeId": "DR",
        "placeName": "OAKVILLE",
        "streetNameDisplayText": "OAKHILL DR, OAKVILLE"
      }
    ]
  },
  {
    "postal": "L6J1C0",
    "result": []
  },
  {
    "postal": "L6J2J2",
    "result": [
      {
        "electoralDistricts": [
          {
            "election": null,
            "id": 74,
            "name": "Oakville"
          }
        ],
        "pollDivisionIds": [
          10140363
        ],
        "postalCode": "L6J2J2",
        "streetName": "MAPLE",
        "streetDirectionId": null,
        "streetTypeId": "AVE",
        "placeName": "OAKVILLE",
        "streetNameDisplayText": "MAPLE AVE, OAKVILLE"
      }
    ]
  },
  {
    "postal": "L6J2J0",
    "result": []
  },
  {
    "postal": "L6J7A3",
    "result": [
      {
        "electoralDistricts": [
          {
            "election": null,
            "id": 74,
            "name": "Oakville"
          }
        ],
        "pollDivisionIds": [
          10140343
        ],
        "postalCode": "L6J7A3",
        "streetName": "BISHOPSTOKE",
        "streetDirectionId": null,
        "streetTypeId": "WAY",
        "placeName": "OAKVILLE",
        "streetNameDisplayText": "BISHOPSTOKE WAY, OAKVILLE"
      },
      {
        "electoralDistricts": [
          {
            "election": null,
            "id": 74,
            "name": "Oakville"
          }
        ],
        "pollDivisionIds": [
          10140343
        ],
        "postalCode": "L6J7A3",
        "streetName": "CHEDBORO",
        "streetDirectionId": null,
        "streetTypeId": "CRES",
        "placeName": "OAKVILLE",
        "streetNameDisplayText": "CHEDBORO CRES, OAKVILLE"
      }
    ]
  },
  {
    "postal": "L6J8M1",
    "result": []
  },
  {
    "postal": "L6J7T9",
    "result": [
      {
        "electoralDistricts": [
          {
            "election": null,
            "id": 74,
            "name": "Oakville"
          }
        ],
        "pollDivisionIds": [
          10140364
        ],
        "postalCode": "L6J7T9",
        "streetName": "CORNWALL",
        "streetDirectionId": null,
        "streetTypeId": "RD",
        "placeName": "OAKVILLE",
        "streetNameDisplayText": "CORNWALL RD, OAKVILLE"
      }
    ]
  },
  {
    "postal": "L6J6C0",
    "result": []
  },
  {
    "postal": "L6J7X1",
    "result": [
      {
        "electoralDistricts": [
          {
            "election": null,
            "id": 74,
            "name": "Oakville"
          }
        ],
        "pollDivisionIds": [
          10140396
        ],
        "postalCode": "L6J7X1",
        "streetName": "TRAFALGAR",
        "streetDirectionId": null,
        "streetTypeId": "RD",
        "placeName": "OAKVILLE",
        "streetNameDisplayText": "TRAFALGAR RD, OAKVILLE"
      }
    ]
  },
  {
    "postal": "L6J0G1",
    "result": []
  },
  {
    "postal": "L6J4X2",
    "result": [
      {
        "electoralDistricts": [
          {
            "election": null,
            "id": 74,
            "name": "Oakville"
          }
        ],
        "pollDivisionIds": [
          10140365
        ],
        "postalCode": "L6J4X2",
        "streetName": "PINEHURST",
        "streetDirectionId": null,
        "streetTypeId": "DR",
        "placeName": "OAKVILLE",
        "streetNameDisplayText": "PINEHURST DR, OAKVILLE"
      }
    ]
  },
  {
    "postal": "L6J0N6",
    "result": []
  },
  {
    "postal": "L6J8E3",
    "result": []
  },
  {
    "postal": "L6J5S8",
    "result": [
      {
        "electoralDistricts": [
          {
            "election": null,
            "id": 74,
            "name": "Oakville"
          }
        ],
        "pollDivisionIds": [
          10140364
        ],
        "postalCode": "L6J5S8",
        "streetName": "DOLPHIN",
        "streetDirectionId": null,
        "streetTypeId": "CRT",
        "placeName": "OAKVILLE",
        "streetNameDisplayText": "DOLPHIN CRT, OAKVILLE"
      }
    ]
  },
  {
    "postal": "L6J0R0",
    "result": []
  },
  {
    "postal": "L6J6J6",
    "result": [
      {
        "electoralDistricts": [
          {
            "election": null,
            "id": 74,
            "name": "Oakville"
          }
        ],
        "pollDivisionIds": [
          10140366
        ],
        "postalCode": "L6J6J6",
        "streetName": "DUNEDIN",
        "streetDirectionId": null,
        "streetTypeId": "RD",
        "placeName": "OAKVILLE",
        "streetNameDisplayText": "DUNEDIN RD, OAKVILLE"
      }
    ]
  },
  {
    "postal": "L6J4B4",
    "result": [
      {
        "electoralDistricts": [
          {
            "election": null,
            "id": 74,
            "name": "Oakville"
          }
        ],
        "pollDivisionIds": [
          10140361
        ],
        "postalCode": "L6J4B4",
        "streetName": "ALEXANDER",
        "streetDirectionId": null,
        "streetTypeId": "DR",
        "placeName": "OAKVILLE",
        "streetNameDisplayText": "ALEXANDER DR, OAKVILLE"
      }
    ]
  },
  {
    "postal": "L6J7E3",
    "result": [
      {
        "electoralDistricts": [
          {
            "election": null,
            "id": 74,
            "name": "Oakville"
          }
        ],
        "pollDivisionIds": [
          10140343
        ],
        "postalCode": "L6J7E3",
        "streetName": "WINTERBOURNE",
        "streetDirectionId": null,
        "streetTypeId": "DR",
        "placeName": "OAKVILLE",
        "streetNameDisplayText": "WINTERBOURNE DR, OAKVILLE"
      }
    ]
  },
  {
    "postal": "L6J3N6",
    "result": [
      {
        "electoralDistricts": [
          {
            "election": null,
            "id": 74,
            "name": "Oakville"
          }
        ],
        "pollDivisionIds": [
          10140360
        ],
        "postalCode": "L6J3N6",
        "streetName": "ALLAN",
        "streetDirectionId": null,
        "streetTypeId": "ST",
        "placeName": "OAKVILLE",
        "streetNameDisplayText": "ALLAN ST, OAKVILLE"
      }
    ]
  },
  {
    "postal": "L6J3X6",
    "result": [
      {
        "electoralDistricts": [
          {
            "election": null,
            "id": 74,
            "name": "Oakville"
          }
        ],
        "pollDivisionIds": [
          10140361
        ],
        "postalCode": "L6J3X6",
        "streetName": "BALSAM",
        "streetDirectionId": null,
        "streetTypeId": "DR",
        "placeName": "OAKVILLE",
        "streetNameDisplayText": "BALSAM DR, OAKVILLE"
      }
    ]
  },
  {
    "postal": "L6J8L0",
    "result": []
  },
  {
    "postal": "L6J8N1",
    "result": []
  },
  {
    "postal": "L6J4J0",
    "result": []
  },
  {
    "postal": "L6J0X7",
    "result": []
  },
  {
    "postal": "L6J6S4",
    "result": [
      {
        "electoralDistricts": [
          {
            "election": null,
            "id": 74,
            "name": "Oakville"
          }
        ],
        "pollDivisionIds": [
          10140343
        ],
        "postalCode": "L6J6S4",
        "streetName": "APPLETON",
        "streetDirectionId": null,
        "streetTypeId": "CRT",
        "placeName": "OAKVILLE",
        "streetNameDisplayText": "APPLETON CRT, OAKVILLE"
      }
    ]
  },
  {
    "postal": "L6J0Z0",
    "result": []
  },
  {
    "postal": "L6J9X8",
    "result": []
  },
  {
    "postal": "L6J3H3",
    "result": [
      {
        "electoralDistricts": [
          {
            "election": null,
            "id": 74,
            "name": "Oakville"
          }
        ],
        "pollDivisionIds": [
          10140362
        ],
        "postalCode": "L6J3H3",
        "streetName": "TRAFALGAR",
        "streetDirectionId": null,
        "streetTypeId": "RD",
        "placeName": "OAKVILLE",
        "streetNameDisplayText": "TRAFALGAR RD, OAKVILLE"
      }
    ]
  },
  {
    "postal": "L6J7S2",
    "result": [
      {
        "electoralDistricts": [
          {
            "election": null,
            "id": 74,
            "name": "Oakville"
          }
        ],
        "pollDivisionIds": [
          10140364
        ],
        "postalCode": "L6J7S2",
        "streetName": "CORNWALL",
        "streetDirectionId": null,
        "streetTypeId": "RD",
        "placeName": "OAKVILLE",
        "streetNameDisplayText": "CORNWALL RD, OAKVILLE"
      }
    ]
  },
  {
    "postal": "L6J3T3",
    "result": [
      {
        "electoralDistricts": [
          {
            "election": null,
            "id": 74,
            "name": "Oakville"
          }
        ],
        "pollDivisionIds": [
          10140360
        ],
        "postalCode": "L6J3T3",
        "streetName": "SECOND",
        "streetDirectionId": null,
        "streetTypeId": "ST",
        "placeName": "OAKVILLE",
        "streetNameDisplayText": "SECOND ST, OAKVILLE"
      }
    ]
  },
  {
    "postal": "L6J9P3",
    "result": []
  },
  {
    "postal": "L6J4H8",
    "result": [
      {
        "electoralDistricts": [
          {
            "election": null,
            "id": 74,
            "name": "Oakville"
          }
        ],
        "pollDivisionIds": [
          10140363
        ],
        "postalCode": "L6J4H8",
        "streetName": "MORRISON HEIGHTS",
        "streetDirectionId": null,
        "streetTypeId": "DR",
        "placeName": "OAKVILLE",
        "streetNameDisplayText": "MORRISON HEIGHTS DR, OAKVILLE"
      }
    ]
  },
  {
    "postal": "L6J6R1",
    "result": [
      {
        "electoralDistricts": [
          {
            "election": null,
            "id": 74,
            "name": "Oakville"
          }
        ],
        "pollDivisionIds": [
          10140361
        ],
        "postalCode": "L6J6R1",
        "streetName": "BURGUNDY",
        "streetDirectionId": null,
        "streetTypeId": "DR",
        "placeName": "OAKVILLE",
        "streetNameDisplayText": "BURGUNDY DR, OAKVILLE"
      }
    ]
  },
  {
    "postal": "L6J1S0",
    "result": []
  },
  {
    "postal": "L6J3W8",
    "result": [
      {
        "electoralDistricts": [
          {
            "election": null,
            "id": 74,
            "name": "Oakville"
          }
        ],
        "pollDivisionIds": [
          10140361
        ],
        "postalCode": "L6J3W8",
        "streetName": "GLOUCESTER",
        "streetDirectionId": null,
        "streetTypeId": "AVE",
        "placeName": "OAKVILLE",
        "streetNameDisplayText": "GLOUCESTER AVE, OAKVILLE"
      }
    ]
  },
  {
    "postal": "L6J4S3",
    "result": [
      {
        "electoralDistricts": [
          {
            "election": null,
            "id": 74,
            "name": "Oakville"
          }
        ],
        "pollDivisionIds": [
          10140325
        ],
        "postalCode": "L6J4S3",
        "streetName": "WEDGEWOOD",
        "streetDirectionId": null,
        "streetTypeId": "DR",
        "placeName": "OAKILLE",
        "streetNameDisplayText": "WEDGEWOOD DR, OAKILLE"
      },
      {
        "electoralDistricts": [
          {
            "election": null,
            "id": 74,
            "name": "Oakville"
          }
        ],
        "pollDivisionIds": [
          10140364
        ],
        "postalCode": "L6J4S3",
        "streetName": "WEDGEWOOD",
        "streetDirectionId": null,
        "streetTypeId": "DR",
        "placeName": "OAKVILLE",
        "streetNameDisplayText": "WEDGEWOOD DR, OAKVILLE"
      }
    ]
  },
  {
    "postal": "L6J1B6",
    "result": [
      {
        "electoralDistricts": [
          {
            "election": null,
            "id": 74,
            "name": "Oakville"
          }
        ],
        "pollDivisionIds": [
          10140360
        ],
        "postalCode": "L6J1B6",
        "streetName": "KING",
        "streetDirectionId": null,
        "streetTypeId": "ST",
        "placeName": "OAKVILLE",
        "streetNameDisplayText": "KING ST, OAKVILLE"
      }
    ]
  },
  {
    "postal": "L6J8R3",
    "result": []
  },
  {
    "postal": "L6J4V9",
    "result": [
      {
        "electoralDistricts": [
          {
            "election": null,
            "id": 74,
            "name": "Oakville"
          }
        ],
        "pollDivisionIds": [
          10140365
        ],
        "postalCode": "L6J4V9",
        "streetName": "MAPLE GROVE",
        "streetDirectionId": null,
        "streetTypeId": "DR",
        "placeName": "OAKVILLE",
        "streetNameDisplayText": "MAPLE GROVE DR, OAKVILLE"
      }
    ]
  },
  {
    "postal": "L6J9W4",
    "result": []
  },
  {
    "postal": "L6J3T4",
    "result": [
      {
        "electoralDistricts": [
          {
            "election": null,
            "id": 74,
            "name": "Oakville"
          }
        ],
        "pollDivisionIds": [
          10140360
        ],
        "postalCode": "L6J3T4",
        "streetName": "WATSON",
        "streetDirectionId": null,
        "streetTypeId": "AVE",
        "placeName": "OAKVILLE",
        "streetNameDisplayText": "WATSON AVE, OAKVILLE"
      }
    ]
  },
  {
    "postal": "L6J5C7",
    "result": []
  },
  {
    "postal": "L6J3Y1",
    "result": [
      {
        "electoralDistricts": [
          {
            "election": null,
            "id": 74,
            "name": "Oakville"
          }
        ],
        "pollDivisionIds": [
          10140361
        ],
        "postalCode": "L6J3Y1",
        "streetName": "PARK",
        "streetDirectionId": null,
        "streetTypeId": "AVE",
        "placeName": "OAKVILLE",
        "streetNameDisplayText": "PARK AVE, OAKVILLE"
      }
    ]
  },
  {
    "postal": "L6J5V0",
    "result": []
  },
  {
    "postal": "L6J8G8",
    "result": []
  },
  {
    "postal": "L6J8B1",
    "result": [
      {
        "electoralDistricts": [
          {
            "election": null,
            "id": 74,
            "name": "Oakville"
          }
        ],
        "pollDivisionIds": [
          10140363
        ],
        "postalCode": "L6J8B1",
        "streetName": "CORNWALL",
        "streetDirectionId": null,
        "streetTypeId": "RD",
        "placeName": "OAKVILLE",
        "streetNameDisplayText": "CORNWALL RD, OAKVILLE"
      }
    ]
  },
  {
    "postal": "L6J4P5",
    "result": [
      {
        "electoralDistricts": [
          {
            "election": null,
            "id": 74,
            "name": "Oakville"
          }
        ],
        "pollDivisionIds": [
          10140364
        ],
        "postalCode": "L6J4P5",
        "streetName": "DALEWOOD",
        "streetDirectionId": null,
        "streetTypeId": "DR",
        "placeName": "OAKVILLE",
        "streetNameDisplayText": "DALEWOOD DR, OAKVILLE"
      }
    ]
  },
  {
    "postal": "L6J7B2",
    "result": [
      {
        "electoralDistricts": [
          {
            "election": null,
            "id": 74,
            "name": "Oakville"
          }
        ],
        "pollDivisionIds": [
          10140343
        ],
        "postalCode": "L6J7B2",
        "streetName": "HAZEL MCCLEARY",
        "streetDirectionId": null,
        "streetTypeId": "DR",
        "placeName": "OAKVILLE",
        "streetNameDisplayText": "HAZEL MCCLEARY DR, OAKVILLE"
      }
    ]
  },
  {
    "postal": "L6J0R2",
    "result": []
  },
  {
    "postal": "L6J4M4",
    "result": [
      {
        "electoralDistricts": [
          {
            "election": null,
            "id": 74,
            "name": "Oakville"
          }
        ],
        "pollDivisionIds": [
          10140364
        ],
        "postalCode": "L6J4M4",
        "streetName": "CAIRNCROFT",
        "streetDirectionId": null,
        "streetTypeId": "RD",
        "placeName": "OAKVILLE",
        "streetNameDisplayText": "CAIRNCROFT RD, OAKVILLE"
      }
    ]
  },
  {
    "postal": "L6J7M4",
    "result": [
      {
        "electoralDistricts": [
          {
            "election": null,
            "id": 74,
            "name": "Oakville"
          }
        ],
        "pollDivisionIds": [
          10140344
        ],
        "postalCode": "L6J7M4",
        "streetName": "ROSEWOOD",
        "streetDirectionId": null,
        "streetTypeId": "LANE",
        "placeName": "OAKVILLE",
        "streetNameDisplayText": "ROSEWOOD LANE, OAKVILLE"
      },
      {
        "electoralDistricts": [
          {
            "election": null,
            "id": 74,
            "name": "Oakville"
          }
        ],
        "pollDivisionIds": [
          10140344
        ],
        "postalCode": "L6J7M4",
        "streetName": "TEAK",
        "streetDirectionId": null,
        "streetTypeId": "CRES",
        "placeName": "OAKVILLE",
        "streetNameDisplayText": "TEAK CRES, OAKVILLE"
      }
    ]
  },
  {
    "postal": "L6J9S7",
    "result": []
  },
  {
    "postal": "L6J5Z7",
    "result": [
      {
        "electoralDistricts": [
          {
            "election": null,
            "id": 74,
            "name": "Oakville"
          }
        ],
        "pollDivisionIds": [
          10140358
        ],
        "postalCode": "L6J5Z7",
        "streetName": "LYONS",
        "streetDirectionId": null,
        "streetTypeId": "LANE",
        "placeName": "OAKVILLE",
        "streetNameDisplayText": "LYONS LANE, OAKVILLE"
      }
    ]
  },
  {
    "postal": "L6J7J7",
    "result": []
  },
  {
    "postal": "L6J8R8",
    "result": []
  },
  {
    "postal": "L6J9X1",
    "result": []
  },
  {
    "postal": "L6J5M9",
    "result": [
      {
        "electoralDistricts": [
          {
            "election": null,
            "id": 74,
            "name": "Oakville"
          }
        ],
        "pollDivisionIds": [
          10140365
        ],
        "postalCode": "L6J5M9",
        "streetName": "ALL SAINTS",
        "streetDirectionId": null,
        "streetTypeId": "CRES",
        "placeName": "OAKVILLE",
        "streetNameDisplayText": "ALL SAINTS CRES, OAKVILLE"
      }
    ]
  },
  {
    "postal": "L6J9B4",
    "result": []
  },
  {
    "postal": "L6J0L9",
    "result": []
  },
  {
    "postal": "L6J9G4",
    "result": []
  },
  {
    "postal": "L6J1J4",
    "result": [
      {
        "electoralDistricts": [
          {
            "election": null,
            "id": 74,
            "name": "Oakville"
          }
        ],
        "pollDivisionIds": [
          10140360
        ],
        "postalCode": "L6J1J4",
        "streetName": "LAKESHORE",
        "streetDirectionId": "E",
        "streetTypeId": "RD",
        "placeName": "OAKVILLE",
        "streetNameDisplayText": "LAKESHORE RD E, OAKVILLE"
      }
    ]
  },
  {
    "postal": "L6J0W6",
    "result": []
  }
]
