[
  {
    "postal": "M2M9J6",
    "result": []
  },
  {
    "postal": "M2M9Z5",
    "result": []
  },
  {
    "postal": "M2M7H8",
    "result": []
  },
  {
    "postal": "M2M0P6",
    "result": []
  },
  {
    "postal": "M2M0S7",
    "result": []
  },
  {
    "postal": "M2M8B9",
    "result": []
  },
  {
    "postal": "M2M2A6",
    "result": [
      {
        "electoralDistricts": [
          {
            "election": null,
            "id": 117,
            "name": "Willowdale"
          }
        ],
        "pollDivisionIds": [
          10142608
        ],
        "postalCode": "M2M2A6",
        "streetName": "MULLET",
        "streetDirectionId": null,
        "streetTypeId": "RD",
        "placeName": "NORTH YORK",
        "streetNameDisplayText": "MULLET RD, NORTH YORK"
      }
    ]
  },
  {
    "postal": "M2M7V2",
    "result": []
  },
  {
    "postal": "M2M9P4",
    "result": []
  },
  {
    "postal": "M2M6G0",
    "result": []
  },
  {
    "postal": "M2M2K0",
    "result": []
  },
  {
    "postal": "M2M7N6",
    "result": []
  },
  {
    "postal": "M2M5R3",
    "result": []
  },
  {
    "postal": "M2M7K0",
    "result": []
  },
  {
    "postal": "M2M3R2",
    "result": [
      {
        "electoralDistricts": [
          {
            "election": null,
            "id": 117,
            "name": "Willowdale"
          }
        ],
        "pollDivisionIds": [
          10142607
        ],
        "postalCode": "M2M3R2",
        "streetName": "ROBINTER",
        "streetDirectionId": null,
        "streetTypeId": "DR",
        "placeName": "NORTH YORK",
        "streetNameDisplayText": "ROBINTER DR, NORTH YORK"
      }
    ]
  },
  {
    "postal": "M2M0J1",
    "result": []
  },
  {
    "postal": "M2M0B0",
    "result": []
  },
  {
    "postal": "M2M5Z2",
    "result": []
  },
  {
    "postal": "M2M7P3",
    "result": []
  },
  {
    "postal": "M2M2K3",
    "result": [
      {
        "electoralDistricts": [
          {
            "election": null,
            "id": 117,
            "name": "Willowdale"
          }
        ],
        "pollDivisionIds": [
          10142606
        ],
        "postalCode": "M2M2K3",
        "streetName": "NORTHWOOD",
        "streetDirectionId": null,
        "streetTypeId": "DR",
        "placeName": "NORTH YORK",
        "streetNameDisplayText": "NORTHWOOD DR, NORTH YORK"
      }
    ]
  },
  {
    "postal": "M2M7Y6",
    "result": []
  },
  {
    "postal": "M2M1L9",
    "result": [
      {
        "electoralDistricts": [
          {
            "election": null,
            "id": 121,
            "name": "York—Simcoe"
          },
          {
            "election": null,
            "id": 117,
            "name": "Willowdale"
          }
        ],
        "pollDivisionIds": [
          10142915,
          10142603
        ],
        "postalCode": "M2M1L9",
        "streetName": "PLEASANT",
        "streetDirectionId": null,
        "streetTypeId": "AVE",
        "placeName": "NORTH YORK",
        "streetNameDisplayText": "PLEASANT AVE, NORTH YORK"
      }
    ]
  },
  {
    "postal": "M2M8T0",
    "result": []
  },
  {
    "postal": "M2M3K8",
    "result": [
      {
        "electoralDistricts": [
          {
            "election": null,
            "id": 117,
            "name": "Willowdale"
          }
        ],
        "pollDivisionIds": [
          10142606
        ],
        "postalCode": "M2M3K8",
        "streetName": "MAXOME",
        "streetDirectionId": null,
        "streetTypeId": "AVE",
        "placeName": "NORTH YORK",
        "streetNameDisplayText": "MAXOME AVE, NORTH YORK"
      }
    ]
  },
  {
    "postal": "M2M5W9",
    "result": []
  },
  {
    "postal": "M2M6T9",
    "result": []
  },
  {
    "postal": "M2M4H1",
    "result": [
      {
        "electoralDistricts": [
          {
            "election": null,
            "id": 117,
            "name": "Willowdale"
          }
        ],
        "pollDivisionIds": [
          10142609
        ],
        "postalCode": "M2M4H1",
        "streetName": "GUSTAV",
        "streetDirectionId": null,
        "streetTypeId": "CRES",
        "placeName": "NORTH YORK",
        "streetNameDisplayText": "GUSTAV CRES, NORTH YORK"
      }
    ]
  },
  {
    "postal": "M2M7A2",
    "result": []
  },
  {
    "postal": "M2M5G0",
    "result": []
  },
  {
    "postal": "M2M8V5",
    "result": []
  },
  {
    "postal": "M2M2Y8",
    "result": [
      {
        "electoralDistricts": [
          {
            "election": null,
            "id": 21,
            "name": "Don Valley North"
          }
        ],
        "pollDivisionIds": [
          10137657
        ],
        "postalCode": "M2M2Y8",
        "streetName": "ROCKLAND",
        "streetDirectionId": null,
        "streetTypeId": "DR",
        "placeName": "NORTH YORK",
        "streetNameDisplayText": "ROCKLAND DR, NORTH YORK"
      }
    ]
  },
  {
    "postal": "M2M2B6",
    "result": [
      {
        "electoralDistricts": [
          {
            "election": null,
            "id": 117,
            "name": "Willowdale"
          }
        ],
        "pollDivisionIds": [
          10142608
        ],
        "postalCode": "M2M2B6",
        "streetName": "SILVERVIEW",
        "streetDirectionId": null,
        "streetTypeId": "DR",
        "placeName": "NORTH YORK",
        "streetNameDisplayText": "SILVERVIEW DR, NORTH YORK"
      }
    ]
  },
  {
    "postal": "M2M4W8",
    "result": []
  },
  {
    "postal": "M2M8H7",
    "result": []
  },
  {
    "postal": "M2M5P1",
    "result": []
  },
  {
    "postal": "M2M2B8",
    "result": [
      {
        "electoralDistricts": [
          {
            "election": null,
            "id": 117,
            "name": "Willowdale"
          }
        ],
        "pollDivisionIds": [
          10142608
        ],
        "postalCode": "M2M2B8",
        "streetName": "REVCOE",
        "streetDirectionId": null,
        "streetTypeId": "DR",
        "placeName": "NORTH YORK",
        "streetNameDisplayText": "REVCOE DR, NORTH YORK"
      }
    ]
  },
  {
    "postal": "M2M0P2",
    "result": []
  },
  {
    "postal": "M2M9M1",
    "result": []
  },
  {
    "postal": "M2M3G0",
    "result": []
  },
  {
    "postal": "M2M9Z2",
    "result": []
  },
  {
    "postal": "M2M2A0",
    "result": []
  },
  {
    "postal": "M2M6Y0",
    "result": []
  },
  {
    "postal": "M2M2Z8",
    "result": [
      {
        "electoralDistricts": [
          {
            "election": null,
            "id": 21,
            "name": "Don Valley North"
          }
        ],
        "pollDivisionIds": [
          10137657
        ],
        "postalCode": "M2M2Z8",
        "streetName": "SYDNOR",
        "streetDirectionId": null,
        "streetTypeId": "RD",
        "placeName": "NORTH YORK",
        "streetNameDisplayText": "SYDNOR RD, NORTH YORK"
      }
    ]
  },
  {
    "postal": "M2M7Y3",
    "result": []
  },
  {
    "postal": "M2M6Z5",
    "result": []
  },
  {
    "postal": "M2M6E0",
    "result": []
  },
  {
    "postal": "M2M9B7",
    "result": []
  },
  {
    "postal": "M2M9S5",
    "result": []
  },
  {
    "postal": "M2M3X3",
    "result": []
  },
  {
    "postal": "M2M7R5",
    "result": []
  },
  {
    "postal": "M2M2X3",
    "result": [
      {
        "electoralDistricts": [
          {
            "election": null,
            "id": 117,
            "name": "Willowdale"
          }
        ],
        "pollDivisionIds": [
          10142607
        ],
        "postalCode": "M2M2X3",
        "streetName": "GOSSAMER",
        "streetDirectionId": null,
        "streetTypeId": "AVE",
        "placeName": "NORTH YORK",
        "streetNameDisplayText": "GOSSAMER AVE, NORTH YORK"
      }
    ]
  },
  {
    "postal": "M2M8Z9",
    "result": []
  },
  {
    "postal": "M2M0N4",
    "result": []
  },
  {
    "postal": "M2M1K1",
    "result": [
      {
        "electoralDistricts": [
          {
            "election": null,
            "id": 117,
            "name": "Willowdale"
          }
        ],
        "pollDivisionIds": [
          10142603
        ],
        "postalCode": "M2M1K1",
        "streetName": "HOMEWOOD",
        "streetDirectionId": null,
        "streetTypeId": "AVE",
        "placeName": "NORTH YORK",
        "streetNameDisplayText": "HOMEWOOD AVE, NORTH YORK"
      }
    ]
  },
  {
    "postal": "M2M1S3",
    "result": [
      {
        "electoralDistricts": [
          {
            "election": null,
            "id": 117,
            "name": "Willowdale"
          }
        ],
        "pollDivisionIds": [
          10142604
        ],
        "postalCode": "M2M1S3",
        "streetName": "TALBOT",
        "streetDirectionId": null,
        "streetTypeId": "RD",
        "placeName": "NORTH YORK",
        "streetNameDisplayText": "TALBOT RD, NORTH YORK"
      }
    ]
  },
  {
    "postal": "M2M6M4",
    "result": []
  },
  {
    "postal": "M2M9A9",
    "result": []
  },
  {
    "postal": "M2M9Z9",
    "result": []
  },
  {
    "postal": "M2M6T4",
    "result": []
  },
  {
    "postal": "M2M0B2",
    "result": []
  },
  {
    "postal": "M2M2L9",
    "result": [
      {
        "electoralDistricts": [
          {
            "election": null,
            "id": 117,
            "name": "Willowdale"
          }
        ],
        "pollDivisionIds": [
          10142606
        ],
        "postalCode": "M2M2L9",
        "streetName": "PAMCREST",
        "streetDirectionId": null,
        "streetTypeId": "DR",
        "placeName": "NORTH YORK",
        "streetNameDisplayText": "PAMCREST DR, NORTH YORK"
      }
    ]
  },
  {
    "postal": "M2M8K9",
    "result": []
  },
  {
    "postal": "M2M2H9",
    "result": [
      {
        "electoralDistricts": [
          {
            "election": null,
            "id": 117,
            "name": "Willowdale"
          }
        ],
        "pollDivisionIds": [
          10142606
        ],
        "postalCode": "M2M2H9",
        "streetName": "WEDGEWOOD",
        "streetDirectionId": null,
        "streetTypeId": "DR",
        "placeName": "NORTH YORK",
        "streetNameDisplayText": "WEDGEWOOD DR, NORTH YORK"
      }
    ]
  },
  {
    "postal": "M2M3Z6",
    "result": []
  },
  {
    "postal": "M2M3B0",
    "result": []
  },
  {
    "postal": "M2M2H8",
    "result": [
      {
        "electoralDistricts": [
          {
            "election": null,
            "id": 117,
            "name": "Willowdale"
          }
        ],
        "pollDivisionIds": [
          10142606
        ],
        "postalCode": "M2M2H8",
        "streetName": "WEDGEWOOD",
        "streetDirectionId": null,
        "streetTypeId": "DR",
        "placeName": "NORTH YORK",
        "streetNameDisplayText": "WEDGEWOOD DR, NORTH YORK"
      }
    ]
  },
  {
    "postal": "M2M3X2",
    "result": [
      {
        "electoralDistricts": [
          {
            "election": null,
            "id": 117,
            "name": "Willowdale"
          }
        ],
        "pollDivisionIds": [
          10142605
        ],
        "postalCode": "M2M3X2",
        "streetName": "YONGE",
        "streetDirectionId": null,
        "streetTypeId": "ST",
        "placeName": "NORTH YORK",
        "streetNameDisplayText": "YONGE ST, NORTH YORK"
      }
    ]
  },
  {
    "postal": "M2M2E9",
    "result": [
      {
        "electoralDistricts": [
          {
            "election": null,
            "id": 117,
            "name": "Willowdale"
          }
        ],
        "pollDivisionIds": [
          10142701
        ],
        "postalCode": "M2M2E9",
        "streetName": "CUMMER",
        "streetDirectionId": null,
        "streetTypeId": "AVE",
        "placeName": "NORTH YORK",
        "streetNameDisplayText": "CUMMER AVE, NORTH YORK"
      }
    ]
  },
  {
    "postal": "M2M9P6",
    "result": []
  },
  {
    "postal": "M2M9E2",
    "result": []
  },
  {
    "postal": "M2M9H2",
    "result": []
  },
  {
    "postal": "M2M1S8",
    "result": [
      {
        "electoralDistricts": [
          {
            "election": null,
            "id": 117,
            "name": "Willowdale"
          }
        ],
        "pollDivisionIds": [
          10142611
        ],
        "postalCode": "M2M1S8",
        "streetName": "SABER",
        "streetDirectionId": null,
        "streetTypeId": "CRT",
        "placeName": "NORTH YORK",
        "streetNameDisplayText": "SABER CRT, NORTH YORK"
      }
    ]
  },
  {
    "postal": "M2M3M6",
    "result": [
      {
        "electoralDistricts": [
          {
            "election": null,
            "id": 117,
            "name": "Willowdale"
          }
        ],
        "pollDivisionIds": [
          10142609
        ],
        "postalCode": "M2M3M6",
        "streetName": "CONACHER",
        "streetDirectionId": null,
        "streetTypeId": "DR",
        "placeName": "NORTH YORK",
        "streetNameDisplayText": "CONACHER DR, NORTH YORK"
      }
    ]
  },
  {
    "postal": "M2M6Z8",
    "result": []
  },
  {
    "postal": "M2M4J2",
    "result": [
      {
        "electoralDistricts": [
          {
            "election": null,
            "id": 117,
            "name": "Willowdale"
          }
        ],
        "pollDivisionIds": [
          10142630
        ],
        "postalCode": "M2M4J2",
        "streetName": "YONGE",
        "streetDirectionId": null,
        "streetTypeId": "ST",
        "placeName": "NORTH YORK",
        "streetNameDisplayText": "YONGE ST, NORTH YORK"
      }
    ]
  },
  {
    "postal": "M2M9Y1",
    "result": []
  },
  {
    "postal": "M2M8V6",
    "result": []
  },
  {
    "postal": "M2M6B2",
    "result": []
  },
  {
    "postal": "M2M1P8",
    "result": []
  },
  {
    "postal": "M2M0V8",
    "result": []
  },
  {
    "postal": "M2M4Y0",
    "result": []
  },
  {
    "postal": "M2M2T4",
    "result": [
      {
        "electoralDistricts": [
          {
            "election": null,
            "id": 117,
            "name": "Willowdale"
          }
        ],
        "pollDivisionIds": [
          10142607
        ],
        "postalCode": "M2M2T4",
        "streetName": "CLEARCREST",
        "streetDirectionId": null,
        "streetTypeId": "AVE",
        "placeName": "NORTH YORK",
        "streetNameDisplayText": "CLEARCREST AVE, NORTH YORK"
      }
    ]
  },
  {
    "postal": "M2M2S3",
    "result": [
      {
        "electoralDistricts": [
          {
            "election": null,
            "id": 117,
            "name": "Willowdale"
          }
        ],
        "pollDivisionIds": [
          10142605
        ],
        "postalCode": "M2M2S3",
        "streetName": "OTONABEE",
        "streetDirectionId": null,
        "streetTypeId": "AVE",
        "placeName": "NORTH YORK",
        "streetNameDisplayText": "OTONABEE AVE, NORTH YORK"
      }
    ]
  },
  {
    "postal": "M2M0K0",
    "result": []
  },
  {
    "postal": "M2M5N1",
    "result": []
  },
  {
    "postal": "M2M7T0",
    "result": []
  },
  {
    "postal": "M2M9N2",
    "result": []
  },
  {
    "postal": "M2M5L1",
    "result": []
  },
  {
    "postal": "M2M7G5",
    "result": []
  },
  {
    "postal": "M2M6K2",
    "result": []
  },
  {
    "postal": "M2M6P9",
    "result": []
  },
  {
    "postal": "M2M0E6",
    "result": []
  },
  {
    "postal": "M2M8R9",
    "result": []
  },
  {
    "postal": "M2M3G9",
    "result": [
      {
        "electoralDistricts": [
          {
            "election": null,
            "id": 117,
            "name": "Willowdale"
          }
        ],
        "pollDivisionIds": [
          10142606
        ],
        "postalCode": "M2M3G9",
        "streetName": "PHEASANT",
        "streetDirectionId": null,
        "streetTypeId": "RD",
        "placeName": "NORTH YORK",
        "streetNameDisplayText": "PHEASANT RD, NORTH YORK"
      }
    ]
  },
  {
    "postal": "M2M0V7",
    "result": []
  },
  {
    "postal": "M2M2Z1",
    "result": [
      {
        "electoralDistricts": [
          {
            "election": null,
            "id": 21,
            "name": "Don Valley North"
          }
        ],
        "pollDivisionIds": [
          10137657
        ],
        "postalCode": "M2M2Z1",
        "streetName": "COVEWOOD",
        "streetDirectionId": null,
        "streetTypeId": "ST",
        "placeName": "NORTH YORK",
        "streetNameDisplayText": "COVEWOOD ST, NORTH YORK"
      }
    ]
  },
  {
    "postal": "M2M7N1",
    "result": []
  },
  {
    "postal": "M2M3C6",
    "result": [
      {
        "electoralDistricts": [
          {
            "election": null,
            "id": 117,
            "name": "Willowdale"
          }
        ],
        "pollDivisionIds": [
          10142606
        ],
        "postalCode": "M2M3C6",
        "streetName": "WILLOWDALE",
        "streetDirectionId": null,
        "streetTypeId": "AVE",
        "placeName": "NORTH YORK",
        "streetNameDisplayText": "WILLOWDALE AVE, NORTH YORK"
      }
    ]
  },
  {
    "postal": "M2M4M1",
    "result": [
      {
        "electoralDistricts": [
          {
            "election": null,
            "id": 117,
            "name": "Willowdale"
          }
        ],
        "pollDivisionIds": [
          10142636
        ],
        "postalCode": "M2M4M1",
        "streetName": "PEMBERTON",
        "streetDirectionId": null,
        "streetTypeId": "AVE",
        "placeName": "NORTH YORK",
        "streetNameDisplayText": "PEMBERTON AVE, NORTH YORK"
      }
    ]
  },
  {
    "postal": "M2M9K2",
    "result": []
  },
  {
    "postal": "M2M9S6",
    "result": []
  },
  {
    "postal": "M2M4X1",
    "result": []
  },
  {
    "postal": "M2M8W2",
    "result": []
  },
  {
    "postal": "M2M7N2",
    "result": []
  },
  {
    "postal": "M2M8S3",
    "result": []
  },
  {
    "postal": "M2M4V0",
    "result": []
  },
  {
    "postal": "M2M6W4",
    "result": []
  },
  {
    "postal": "M2M5M1",
    "result": []
  },
  {
    "postal": "M2M0S4",
    "result": []
  },
  {
    "postal": "M2M5X6",
    "result": []
  },
  {
    "postal": "M2M8L5",
    "result": []
  },
  {
    "postal": "M2M5M8",
    "result": []
  },
  {
    "postal": "M2M2G3",
    "result": [
      {
        "electoralDistricts": [
          {
            "election": null,
            "id": 117,
            "name": "Willowdale"
          }
        ],
        "pollDivisionIds": [
          10142609
        ],
        "postalCode": "M2M2G3",
        "streetName": "CUMMER",
        "streetDirectionId": null,
        "streetTypeId": "AVE",
        "placeName": "NORTH YORK",
        "streetNameDisplayText": "CUMMER AVE, NORTH YORK"
      }
    ]
  },
  {
    "postal": "M2M8E4",
    "result": []
  },
  {
    "postal": "M2M7S9",
    "result": []
  },
  {
    "postal": "M2M1K3",
    "result": [
      {
        "electoralDistricts": [
          {
            "election": null,
            "id": 117,
            "name": "Willowdale"
          }
        ],
        "pollDivisionIds": [
          10142603
        ],
        "postalCode": "M2M1K3",
        "streetName": "HOMEWOOD",
        "streetDirectionId": null,
        "streetTypeId": "AVE",
        "placeName": "NORTH YORK",
        "streetNameDisplayText": "HOMEWOOD AVE, NORTH YORK"
      }
    ]
  },
  {
    "postal": "M2M4E1",
    "result": [
      {
        "electoralDistricts": [
          {
            "election": null,
            "id": 117,
            "name": "Willowdale"
          }
        ],
        "pollDivisionIds": [
          10142607
        ],
        "postalCode": "M2M4E1",
        "streetName": "CREEKSIDE",
        "streetDirectionId": null,
        "streetTypeId": "RD",
        "placeName": "NORTH YORK",
        "streetNameDisplayText": "CREEKSIDE RD, NORTH YORK"
      }
    ]
  },
  {
    "postal": "M2M4R2",
    "result": []
  },
  {
    "postal": "M2M6T0",
    "result": []
  },
  {
    "postal": "M2M3K5",
    "result": [
      {
        "electoralDistricts": [
          {
            "election": null,
            "id": 117,
            "name": "Willowdale"
          }
        ],
        "pollDivisionIds": [
          10142606
        ],
        "postalCode": "M2M3K5",
        "streetName": "MAXOME",
        "streetDirectionId": null,
        "streetTypeId": "AVE",
        "placeName": "NORTH YORK",
        "streetNameDisplayText": "MAXOME AVE, NORTH YORK"
      }
    ]
  },
  {
    "postal": "M2M3S3",
    "result": [
      {
        "electoralDistricts": [
          {
            "election": null,
            "id": 117,
            "name": "Willowdale"
          }
        ],
        "pollDivisionIds": [
          10142607
        ],
        "postalCode": "M2M3S3",
        "streetName": "BAYVIEW",
        "streetDirectionId": null,
        "streetTypeId": "AVE",
        "placeName": "NORTH YORK",
        "streetNameDisplayText": "BAYVIEW AVE, NORTH YORK"
      }
    ]
  },
  {
    "postal": "M2M3L4",
    "result": [
      {
        "electoralDistricts": [
          {
            "election": null,
            "id": 117,
            "name": "Willowdale"
          }
        ],
        "pollDivisionIds": [
          10142605
        ],
        "postalCode": "M2M3L4",
        "streetName": "MAXOME",
        "streetDirectionId": null,
        "streetTypeId": "AVE",
        "placeName": "NORTH YORK",
        "streetNameDisplayText": "MAXOME AVE, NORTH YORK"
      }
    ]
  },
  {
    "postal": "M2M9Y2",
    "result": []
  },
  {
    "postal": "M2M1E0",
    "result": []
  },
  {
    "postal": "M2M9A4",
    "result": []
  },
  {
    "postal": "M2M1L3",
    "result": [
      {
        "electoralDistricts": [
          {
            "election": null,
            "id": 20,
            "name": "Don Valley East"
          },
          {
            "election": null,
            "id": 117,
            "name": "Willowdale"
          }
        ],
        "pollDivisionIds": [
          10137602,
          10142603
        ],
        "postalCode": "M2M1L3",
        "streetName": "GOULDING",
        "streetDirectionId": null,
        "streetTypeId": "AVE",
        "placeName": "NORTH YORK",
        "streetNameDisplayText": "GOULDING AVE, NORTH YORK"
      }
    ]
  },
  {
    "postal": "M2M6N1",
    "result": []
  },
  {
    "postal": "M2M6G7",
    "result": []
  },
  {
    "postal": "M2M7W1",
    "result": []
  },
  {
    "postal": "M2M4M6",
    "result": [
      {
        "electoralDistricts": [
          {
            "election": null,
            "id": 117,
            "name": "Willowdale"
          }
        ],
        "pollDivisionIds": [
          10142604,
          10142615
        ],
        "postalCode": "M2M4M6",
        "streetName": "YONGE",
        "streetDirectionId": null,
        "streetTypeId": "ST",
        "placeName": "NORTH YORK",
        "streetNameDisplayText": "YONGE ST, NORTH YORK"
      }
    ]
  },
  {
    "postal": "M2M1K0",
    "result": []
  },
  {
    "postal": "M2M3E2",
    "result": [
      {
        "electoralDistricts": [
          {
            "election": null,
            "id": 117,
            "name": "Willowdale"
          }
        ],
        "pollDivisionIds": [
          10142605
        ],
        "postalCode": "M2M3E2",
        "streetName": "WILLOWDALE",
        "streetDirectionId": null,
        "streetTypeId": "AVE",
        "placeName": "NORTH YORK",
        "streetNameDisplayText": "WILLOWDALE AVE, NORTH YORK"
      }
    ]
  },
  {
    "postal": "M2M5H4",
    "result": []
  },
  {
    "postal": "M2M1K7",
    "result": [
      {
        "electoralDistricts": [
          {
            "election": null,
            "id": 117,
            "name": "Willowdale"
          }
        ],
        "pollDivisionIds": [
          10142603
        ],
        "postalCode": "M2M1K7",
        "streetName": "HOMEWOOD",
        "streetDirectionId": null,
        "streetTypeId": "AVE",
        "placeName": "NORTH YORK",
        "streetNameDisplayText": "HOMEWOOD AVE, NORTH YORK"
      }
    ]
  },
  {
    "postal": "M2M0H0",
    "result": []
  },
  {
    "postal": "M2M0J3",
    "result": []
  },
  {
    "postal": "M2M1X6",
    "result": [
      {
        "electoralDistricts": [
          {
            "election": null,
            "id": 117,
            "name": "Willowdale"
          }
        ],
        "pollDivisionIds": [
          10142603
        ],
        "postalCode": "M2M1X6",
        "streetName": "ST. PASCHAL",
        "streetDirectionId": null,
        "streetTypeId": "CRT",
        "placeName": "NORTH YORK",
        "streetNameDisplayText": "ST. PASCHAL CRT, NORTH YORK"
      }
    ]
  },
  {
    "postal": "M2M2Z6",
    "result": [
      {
        "electoralDistricts": [
          {
            "election": null,
            "id": 21,
            "name": "Don Valley North"
          }
        ],
        "pollDivisionIds": [
          10137657
        ],
        "postalCode": "M2M2Z6",
        "streetName": "GOLDENWOOD",
        "streetDirectionId": null,
        "streetTypeId": "RD",
        "placeName": "NORTH YORK",
        "streetNameDisplayText": "GOLDENWOOD RD, NORTH YORK"
      }
    ]
  },
  {
    "postal": "M2M4R9",
    "result": []
  },
  {
    "postal": "M2M0W8",
    "result": []
  },
  {
    "postal": "M2M1L4",
    "result": [
      {
        "electoralDistricts": [
          {
            "election": null,
            "id": 117,
            "name": "Willowdale"
          }
        ],
        "pollDivisionIds": [
          10142603
        ],
        "postalCode": "M2M1L4",
        "streetName": "GOULDING",
        "streetDirectionId": null,
        "streetTypeId": "AVE",
        "placeName": "NORTH YORK",
        "streetNameDisplayText": "GOULDING AVE, NORTH YORK"
      }
    ]
  },
  {
    "postal": "M2M0C8",
    "result": []
  },
  {
    "postal": "M2M9X7",
    "result": []
  },
  {
    "postal": "M2M4T1",
    "result": []
  },
  {
    "postal": "M2M0M0",
    "result": []
  },
  {
    "postal": "M2M6A2",
    "result": []
  },
  {
    "postal": "M2M9S8",
    "result": []
  },
  {
    "postal": "M2M9T4",
    "result": []
  },
  {
    "postal": "M2M9Y4",
    "result": []
  },
  {
    "postal": "M2M6G5",
    "result": []
  },
  {
    "postal": "M2M6H9",
    "result": []
  },
  {
    "postal": "M2M2P3",
    "result": [
      {
        "electoralDistricts": [
          {
            "election": null,
            "id": 117,
            "name": "Willowdale"
          }
        ],
        "pollDivisionIds": [
          10142607
        ],
        "postalCode": "M2M2P3",
        "streetName": "NEWTON",
        "streetDirectionId": null,
        "streetTypeId": "DR",
        "placeName": "NORTH YORK",
        "streetNameDisplayText": "NEWTON DR, NORTH YORK"
      }
    ]
  },
  {
    "postal": "M2M1T6",
    "result": [
      {
        "electoralDistricts": [
          {
            "election": null,
            "id": 117,
            "name": "Willowdale"
          }
        ],
        "pollDivisionIds": [
          10142604
        ],
        "postalCode": "M2M1T6",
        "streetName": "FAIRCHILD",
        "streetDirectionId": null,
        "streetTypeId": "AVE",
        "placeName": "NORTH YORK",
        "streetNameDisplayText": "FAIRCHILD AVE, NORTH YORK"
      }
    ]
  },
  {
    "postal": "M2M4P6",
    "result": []
  },
  {
    "postal": "M2M3K1",
    "result": [
      {
        "electoralDistricts": [
          {
            "election": null,
            "id": 117,
            "name": "Willowdale"
          }
        ],
        "pollDivisionIds": [
          10142608
        ],
        "postalCode": "M2M3K1",
        "streetName": "MAXOME",
        "streetDirectionId": null,
        "streetTypeId": "AVE",
        "placeName": "NORTH YORK",
        "streetNameDisplayText": "MAXOME AVE, NORTH YORK"
      }
    ]
  },
  {
    "postal": "M2M6X4",
    "result": []
  },
  {
    "postal": "M2M4M8",
    "result": []
  },
  {
    "postal": "M2M2Y1",
    "result": [
      {
        "electoralDistricts": [
          {
            "election": null,
            "id": 21,
            "name": "Don Valley North"
          }
        ],
        "pollDivisionIds": [
          10137657
        ],
        "postalCode": "M2M2Y1",
        "streetName": "BESTVIEW",
        "streetDirectionId": null,
        "streetTypeId": "DR",
        "placeName": "NORTH YORK",
        "streetNameDisplayText": "BESTVIEW DR, NORTH YORK"
      }
    ]
  },
  {
    "postal": "M2M6M1",
    "result": []
  },
  {
    "postal": "M2M5L8",
    "result": []
  },
  {
    "postal": "M2M3P6",
    "result": [
      {
        "electoralDistricts": [
          {
            "election": null,
            "id": 117,
            "name": "Willowdale"
          }
        ],
        "pollDivisionIds": [
          10142607
        ],
        "postalCode": "M2M3P6",
        "streetName": "FRIVICK",
        "streetDirectionId": null,
        "streetTypeId": "CRT",
        "placeName": "NORTH YORK",
        "streetNameDisplayText": "FRIVICK CRT, NORTH YORK"
      }
    ]
  },
  {
    "postal": "M2M9A5",
    "result": []
  },
  {
    "postal": "M2M7K1",
    "result": []
  },
  {
    "postal": "M2M3J4",
    "result": [
      {
        "electoralDistricts": [
          {
            "election": null,
            "id": 117,
            "name": "Willowdale"
          }
        ],
        "pollDivisionIds": [
          10142605
        ],
        "postalCode": "M2M3J4",
        "streetName": "REGIS",
        "streetDirectionId": null,
        "streetTypeId": "DR",
        "placeName": "NORTH YORK",
        "streetNameDisplayText": "REGIS DR, NORTH YORK"
      }
    ]
  },
  {
    "postal": "M2M5E7",
    "result": []
  },
  {
    "postal": "M2M3A7",
    "result": [
      {
        "electoralDistricts": [
          {
            "election": null,
            "id": 21,
            "name": "Don Valley North"
          }
        ],
        "pollDivisionIds": [
          10137657
        ],
        "postalCode": "M2M3A7",
        "streetName": "MINTWOOD",
        "streetDirectionId": null,
        "streetTypeId": "DR",
        "placeName": "NORTH YORK",
        "streetNameDisplayText": "MINTWOOD DR, NORTH YORK"
      }
    ]
  },
  {
    "postal": "M2M1B9",
    "result": [
      {
        "electoralDistricts": [
          {
            "election": null,
            "id": 117,
            "name": "Willowdale"
          }
        ],
        "pollDivisionIds": [
          10142604
        ],
        "postalCode": "M2M1B9",
        "streetName": "CHARLTON",
        "streetDirectionId": null,
        "streetTypeId": "BLVD",
        "placeName": "NORTH YORK",
        "streetNameDisplayText": "CHARLTON BLVD, NORTH YORK"
      }
    ]
  },
  {
    "postal": "M2M9E8",
    "result": []
  },
  {
    "postal": "M2M1C9",
    "result": [
      {
        "electoralDistricts": [
          {
            "election": null,
            "id": 117,
            "name": "Willowdale"
          }
        ],
        "pollDivisionIds": [
          10142604
        ],
        "postalCode": "M2M1C9",
        "streetName": "DREWRY",
        "streetDirectionId": null,
        "streetTypeId": "AVE",
        "placeName": "NORTH YORK",
        "streetNameDisplayText": "DREWRY AVE, NORTH YORK"
      }
    ]
  },
  {
    "postal": "M2M3B5",
    "result": [
      {
        "electoralDistricts": [
          {
            "election": null,
            "id": 117,
            "name": "Willowdale"
          }
        ],
        "pollDivisionIds": [
          10142606
        ],
        "postalCode": "M2M3B5",
        "streetName": "TOBRUK",
        "streetDirectionId": null,
        "streetTypeId": "CRES",
        "placeName": "NORTH YORK",
        "streetNameDisplayText": "TOBRUK CRES, NORTH YORK"
      }
    ]
  },
  {
    "postal": "M2M8R0",
    "result": []
  },
  {
    "postal": "M2M3P2",
    "result": [
      {
        "electoralDistricts": [
          {
            "election": null,
            "id": 117,
            "name": "Willowdale"
          }
        ],
        "pollDivisionIds": [
          10142607
        ],
        "postalCode": "M2M3P2",
        "streetName": "ALGO",
        "streetDirectionId": null,
        "streetTypeId": "CRT",
        "placeName": "NORTH YORK",
        "streetNameDisplayText": "ALGO CRT, NORTH YORK"
      }
    ]
  },
  {
    "postal": "M2M5V4",
    "result": []
  },
  {
    "postal": "M2M4H0",
    "result": []
  },
  {
    "postal": "M2M4S7",
    "result": []
  },
  {
    "postal": "M2M6C2",
    "result": []
  },
  {
    "postal": "M2M8W3",
    "result": []
  },
  {
    "postal": "M2M4M5",
    "result": [
      {
        "electoralDistricts": [
          {
            "election": null,
            "id": 117,
            "name": "Willowdale"
          }
        ],
        "pollDivisionIds": [
          10142611
        ],
        "postalCode": "M2M4M5",
        "streetName": "HALCYON",
        "streetDirectionId": null,
        "streetTypeId": "LANE",
        "placeName": "NORTH YORK",
        "streetNameDisplayText": "HALCYON LANE, NORTH YORK"
      }
    ]
  },
  {
    "postal": "M2M5T1",
    "result": []
  },
  {
    "postal": "M2M3B3",
    "result": [
      {
        "electoralDistricts": [
          {
            "election": null,
            "id": 117,
            "name": "Willowdale"
          }
        ],
        "pollDivisionIds": [
          10142606
        ],
        "postalCode": "M2M3B3",
        "streetName": "TOBRUK",
        "streetDirectionId": null,
        "streetTypeId": "CRES",
        "placeName": "NORTH YORK",
        "streetNameDisplayText": "TOBRUK CRES, NORTH YORK"
      }
    ]
  },
  {
    "postal": "M2M6C6",
    "result": []
  },
  {
    "postal": "M2M7N8",
    "result": []
  },
  {
    "postal": "M2M2Y3",
    "result": [
      {
        "electoralDistricts": [
          {
            "election": null,
            "id": 21,
            "name": "Don Valley North"
          }
        ],
        "pollDivisionIds": [
          10137657
        ],
        "postalCode": "M2M2Y3",
        "streetName": "BESTVIEW",
        "streetDirectionId": null,
        "streetTypeId": "DR",
        "placeName": "NORTH YORK",
        "streetNameDisplayText": "BESTVIEW DR, NORTH YORK"
      }
    ]
  },
  {
    "postal": "M2M2R6",
    "result": [
      {
        "electoralDistricts": [
          {
            "election": null,
            "id": 117,
            "name": "Willowdale"
          }
        ],
        "pollDivisionIds": [
          10142605
        ],
        "postalCode": "M2M2R6",
        "streetName": "GREENYARDS",
        "streetDirectionId": null,
        "streetTypeId": "DR",
        "placeName": "NORTH YORK",
        "streetNameDisplayText": "GREENYARDS DR, NORTH YORK"
      }
    ]
  },
  {
    "postal": "M2M7N3",
    "result": []
  },
  {
    "postal": "M2M8J2",
    "result": []
  },
  {
    "postal": "M2M6A9",
    "result": []
  },
  {
    "postal": "M2M3V2",
    "result": []
  },
  {
    "postal": "M2M2N3",
    "result": [
      {
        "electoralDistricts": [
          {
            "election": null,
            "id": 117,
            "name": "Willowdale"
          }
        ],
        "pollDivisionIds": [
          10142605
        ],
        "postalCode": "M2M2N3",
        "streetName": "NEWTON",
        "streetDirectionId": null,
        "streetTypeId": "DR",
        "placeName": "NORTH YORK",
        "streetNameDisplayText": "NEWTON DR, NORTH YORK"
      }
    ]
  },
  {
    "postal": "M2M1S5",
    "result": [
      {
        "electoralDistricts": [
          {
            "election": null,
            "id": 117,
            "name": "Willowdale"
          }
        ],
        "pollDivisionIds": [
          10142611
        ],
        "postalCode": "M2M1S5",
        "streetName": "ALTAMONT",
        "streetDirectionId": null,
        "streetTypeId": "RD",
        "placeName": "NORTH YORK",
        "streetNameDisplayText": "ALTAMONT RD, NORTH YORK"
      }
    ]
  },
  {
    "postal": "M2M4T7",
    "result": []
  },
  {
    "postal": "M2M6Y7",
    "result": []
  },
  {
    "postal": "M2M0W7",
    "result": []
  },
  {
    "postal": "M2M2W9",
    "result": [
      {
        "electoralDistricts": [
          {
            "election": null,
            "id": 117,
            "name": "Willowdale"
          }
        ],
        "pollDivisionIds": [
          10142607
        ],
        "postalCode": "M2M2W9",
        "streetName": "ARRAN",
        "streetDirectionId": null,
        "streetTypeId": "CRES",
        "placeName": "NORTH YORK",
        "streetNameDisplayText": "ARRAN CRES, NORTH YORK"
      }
    ]
  },
  {
    "postal": "M2M8V0",
    "result": []
  },
  {
    "postal": "M2M0H4",
    "result": []
  },
  {
    "postal": "M2M2T1",
    "result": [
      {
        "electoralDistricts": [
          {
            "election": null,
            "id": 117,
            "name": "Willowdale"
          }
        ],
        "pollDivisionIds": [
          10142605
        ],
        "postalCode": "M2M2T1",
        "streetName": "OTONABEE",
        "streetDirectionId": null,
        "streetTypeId": "AVE",
        "placeName": "NORTH YORK",
        "streetNameDisplayText": "OTONABEE AVE, NORTH YORK"
      }
    ]
  },
  {
    "postal": "M2M1B1",
    "result": [
      {
        "electoralDistricts": [
          {
            "election": null,
            "id": 117,
            "name": "Willowdale"
          }
        ],
        "pollDivisionIds": [
          10142611
        ],
        "postalCode": "M2M1B1",
        "streetName": "HENDON",
        "streetDirectionId": null,
        "streetTypeId": "AVE",
        "placeName": "NORTH YORK",
        "streetNameDisplayText": "HENDON AVE, NORTH YORK"
      }
    ]
  },
  {
    "postal": "M2M8B6",
    "result": []
  },
  {
    "postal": "M2M6H1",
    "result": []
  },
  {
    "postal": "M2M8T8",
    "result": []
  },
  {
    "postal": "M2M0T4",
    "result": []
  },
  {
    "postal": "M2M2C4",
    "result": [
      {
        "electoralDistricts": [
          {
            "election": null,
            "id": 117,
            "name": "Willowdale"
          }
        ],
        "pollDivisionIds": [
          10142608
        ],
        "postalCode": "M2M2C4",
        "streetName": "DERWENT",
        "streetDirectionId": null,
        "streetTypeId": "CRT",
        "placeName": "NORTH YORK",
        "streetNameDisplayText": "DERWENT CRT, NORTH YORK"
      }
    ]
  },
  {
    "postal": "M2M8N3",
    "result": []
  },
  {
    "postal": "M2M4L8",
    "result": []
  },
  {
    "postal": "M2M2B5",
    "result": [
      {
        "electoralDistricts": [
          {
            "election": null,
            "id": 117,
            "name": "Willowdale"
          }
        ],
        "pollDivisionIds": [
          10142608
        ],
        "postalCode": "M2M2B5",
        "streetName": "SILVERVIEW",
        "streetDirectionId": null,
        "streetTypeId": "DR",
        "placeName": "NORTH YORK",
        "streetNameDisplayText": "SILVERVIEW DR, NORTH YORK"
      }
    ]
  },
  {
    "postal": "M2M3H1",
    "result": [
      {
        "electoralDistricts": [
          {
            "election": null,
            "id": 117,
            "name": "Willowdale"
          }
        ],
        "pollDivisionIds": [
          10142606
        ],
        "postalCode": "M2M3H1",
        "streetName": "PHEASANT",
        "streetDirectionId": null,
        "streetTypeId": "RD",
        "placeName": "NORTH YORK",
        "streetNameDisplayText": "PHEASANT RD, NORTH YORK"
      }
    ]
  },
  {
    "postal": "M2M4Y1",
    "result": []
  },
  {
    "postal": "M2M7E2",
    "result": []
  },
  {
    "postal": "M2M2P5",
    "result": [
      {
        "electoralDistricts": [
          {
            "election": null,
            "id": 117,
            "name": "Willowdale"
          }
        ],
        "pollDivisionIds": [
          10142607
        ],
        "postalCode": "M2M2P5",
        "streetName": "NEWTON",
        "streetDirectionId": null,
        "streetTypeId": "DR",
        "placeName": "NORTH YORK",
        "streetNameDisplayText": "NEWTON DR, NORTH YORK"
      }
    ]
  },
  {
    "postal": "M2M8R7",
    "result": []
  },
  {
    "postal": "M2M9P1",
    "result": []
  },
  {
    "postal": "M2M3B8",
    "result": [
      {
        "electoralDistricts": [
          {
            "election": null,
            "id": 117,
            "name": "Willowdale"
          }
        ],
        "pollDivisionIds": [
          10142605
        ],
        "postalCode": "M2M3B8",
        "streetName": "DUMONT",
        "streetDirectionId": null,
        "streetTypeId": "ST",
        "placeName": "NORTH YORK",
        "streetNameDisplayText": "DUMONT ST, NORTH YORK"
      }
    ]
  },
  {
    "postal": "M2M3P7",
    "result": [
      {
        "electoralDistricts": [
          {
            "election": null,
            "id": 117,
            "name": "Willowdale"
          }
        ],
        "pollDivisionIds": [
          10142607
        ],
        "postalCode": "M2M3P7",
        "streetName": "RUBICON",
        "streetDirectionId": null,
        "streetTypeId": "CRT",
        "placeName": "NORTH YORK",
        "streetNameDisplayText": "RUBICON CRT, NORTH YORK"
      }
    ]
  },
  {
    "postal": "M2M9B2",
    "result": []
  },
  {
    "postal": "M2M6Z3",
    "result": []
  },
  {
    "postal": "M2M4N5",
    "result": []
  },
  {
    "postal": "M2M8T3",
    "result": []
  },
  {
    "postal": "M2M1V2",
    "result": [
      {
        "electoralDistricts": [
          {
            "election": null,
            "id": 117,
            "name": "Willowdale"
          },
          {
            "election": null,
            "id": 121,
            "name": "York—Simcoe"
          }
        ],
        "pollDivisionIds": [
          10142604,
          10142921
        ],
        "postalCode": "M2M1V2",
        "streetName": "BURKE",
        "streetDirectionId": null,
        "streetTypeId": "ST",
        "placeName": "NORTH YORK",
        "streetNameDisplayText": "BURKE ST, NORTH YORK"
      }
    ]
  },
  {
    "postal": "M2M1Y0",
    "result": []
  },
  {
    "postal": "M2M3G6",
    "result": [
      {
        "electoralDistricts": [
          {
            "election": null,
            "id": 117,
            "name": "Willowdale"
          }
        ],
        "pollDivisionIds": [
          10142606
        ],
        "postalCode": "M2M3G6",
        "streetName": "PHEASANT",
        "streetDirectionId": null,
        "streetTypeId": "RD",
        "placeName": "NORTH YORK",
        "streetNameDisplayText": "PHEASANT RD, NORTH YORK"
      }
    ]
  },
  {
    "postal": "M2M3H7",
    "result": [
      {
        "electoralDistricts": [
          {
            "election": null,
            "id": 117,
            "name": "Willowdale"
          }
        ],
        "pollDivisionIds": [
          10142605
        ],
        "postalCode": "M2M3H7",
        "streetName": "WHITMAN",
        "streetDirectionId": null,
        "streetTypeId": "ST",
        "placeName": "NORTH YORK",
        "streetNameDisplayText": "WHITMAN ST, NORTH YORK"
      }
    ]
  },
  {
    "postal": "M2M7X8",
    "result": []
  },
  {
    "postal": "M2M0C7",
    "result": []
  },
  {
    "postal": "M2M0W9",
    "result": []
  },
  {
    "postal": "M2M8E6",
    "result": []
  },
  {
    "postal": "M2M9Z8",
    "result": []
  },
  {
    "postal": "M2M3P4",
    "result": [
      {
        "electoralDistricts": [
          {
            "election": null,
            "id": 117,
            "name": "Willowdale"
          }
        ],
        "pollDivisionIds": [
          10142607
        ],
        "postalCode": "M2M3P4",
        "streetName": "PAULTIEL",
        "streetDirectionId": null,
        "streetTypeId": "DR",
        "placeName": "NORTH YORK",
        "streetNameDisplayText": "PAULTIEL DR, NORTH YORK"
      }
    ]
  },
  {
    "postal": "M2M6L8",
    "result": []
  },
  {
    "postal": "M2M2R4",
    "result": [
      {
        "electoralDistricts": [
          {
            "election": null,
            "id": 117,
            "name": "Willowdale"
          }
        ],
        "pollDivisionIds": [
          10142605
        ],
        "postalCode": "M2M2R4",
        "streetName": "MADAWASKA",
        "streetDirectionId": null,
        "streetTypeId": "AVE",
        "placeName": "NORTH YORK",
        "streetNameDisplayText": "MADAWASKA AVE, NORTH YORK"
      }
    ]
  },
  {
    "postal": "M2M2W1",
    "result": [
      {
        "electoralDistricts": [
          {
            "election": null,
            "id": 117,
            "name": "Willowdale"
          }
        ],
        "pollDivisionIds": [
          10142605
        ],
        "postalCode": "M2M2W1",
        "streetName": "NIPIGON",
        "streetDirectionId": null,
        "streetTypeId": "AVE",
        "placeName": "NORTH YORK",
        "streetNameDisplayText": "NIPIGON AVE, NORTH YORK"
      }
    ]
  },
  {
    "postal": "M2M9H8",
    "result": []
  },
  {
    "postal": "M2M8X9",
    "result": []
  },
  {
    "postal": "M2M7H4",
    "result": []
  },
  {
    "postal": "M2M3J1",
    "result": [
      {
        "electoralDistricts": [
          {
            "election": null,
            "id": 117,
            "name": "Willowdale"
          }
        ],
        "pollDivisionIds": [
          10142605
        ],
        "postalCode": "M2M3J1",
        "streetName": "MICHIGAN",
        "streetDirectionId": null,
        "streetTypeId": "DR",
        "placeName": "NORTH YORK",
        "streetNameDisplayText": "MICHIGAN DR, NORTH YORK"
      }
    ]
  },
  {
    "postal": "M2M1P4",
    "result": [
      {
        "electoralDistricts": [
          {
            "election": null,
            "id": 117,
            "name": "Willowdale"
          }
        ],
        "pollDivisionIds": [
          10142603
        ],
        "postalCode": "M2M1P4",
        "streetName": "GREEN BUSH",
        "streetDirectionId": null,
        "streetTypeId": "RD",
        "placeName": "NORTH YORK",
        "streetNameDisplayText": "GREEN BUSH RD, NORTH YORK"
      }
    ]
  },
  {
    "postal": "M2M2A3",
    "result": [
      {
        "electoralDistricts": [
          {
            "election": null,
            "id": 117,
            "name": "Willowdale"
          }
        ],
        "pollDivisionIds": [
          10142608
        ],
        "postalCode": "M2M2A3",
        "streetName": "DEERING CRES",
        "streetDirectionId": null,
        "streetTypeId": "CRES",
        "placeName": "NORTH YORK",
        "streetNameDisplayText": "DEERING CRES CRES, NORTH YORK"
      },
      {
        "electoralDistricts": [
          {
            "election": null,
            "id": 117,
            "name": "Willowdale"
          }
        ],
        "pollDivisionIds": [
          10142608
        ],
        "postalCode": "M2M2A3",
        "streetName": "DEERING",
        "streetDirectionId": null,
        "streetTypeId": "CRES",
        "placeName": "NORTH YORK",
        "streetNameDisplayText": "DEERING CRES, NORTH YORK"
      }
    ]
  },
  {
    "postal": "M2M0Z1",
    "result": []
  },
  {
    "postal": "M2M1C1",
    "result": [
      {
        "electoralDistricts": [
          {
            "election": null,
            "id": 117,
            "name": "Willowdale"
          }
        ],
        "pollDivisionIds": [
          10142604
        ],
        "postalCode": "M2M1C1",
        "streetName": "CHARLTON",
        "streetDirectionId": null,
        "streetTypeId": "BLVD",
        "placeName": "NORTH YORK",
        "streetNameDisplayText": "CHARLTON BLVD, NORTH YORK"
      }
    ]
  },
  {
    "postal": "M2M0H3",
    "result": []
  },
  {
    "postal": "M2M7B0",
    "result": []
  },
  {
    "postal": "M2M5K2",
    "result": []
  },
  {
    "postal": "M2M1E9",
    "result": [
      {
        "electoralDistricts": [
          {
            "election": null,
            "id": 117,
            "name": "Willowdale"
          }
        ],
        "pollDivisionIds": [
          10142604
        ],
        "postalCode": "M2M1E9",
        "streetName": "CATHCART",
        "streetDirectionId": null,
        "streetTypeId": "ST",
        "placeName": "NORTH YORK",
        "streetNameDisplayText": "CATHCART ST, NORTH YORK"
      }
    ]
  },
  {
    "postal": "M2M9W7",
    "result": []
  },
  {
    "postal": "M2M5W6",
    "result": []
  },
  {
    "postal": "M2M6S6",
    "result": []
  },
  {
    "postal": "M2M2P8",
    "result": [
      {
        "electoralDistricts": [
          {
            "election": null,
            "id": 117,
            "name": "Willowdale"
          }
        ],
        "pollDivisionIds": [
          10142607
        ],
        "postalCode": "M2M2P8",
        "streetName": "NEWTON",
        "streetDirectionId": null,
        "streetTypeId": "DR",
        "placeName": "NORTH YORK",
        "streetNameDisplayText": "NEWTON DR, NORTH YORK"
      }
    ]
  },
  {
    "postal": "M2M4P8",
    "result": []
  },
  {
    "postal": "M2M0V9",
    "result": []
  },
  {
    "postal": "M2M5Y2",
    "result": []
  },
  {
    "postal": "M2M7Z7",
    "result": []
  },
  {
    "postal": "M2M6Y8",
    "result": []
  },
  {
    "postal": "M2M2G7",
    "result": [
      {
        "electoralDistricts": [
          {
            "election": null,
            "id": 117,
            "name": "Willowdale"
          }
        ],
        "pollDivisionIds": [
          10142606
        ],
        "postalCode": "M2M2G7",
        "streetName": "DOVERWOOD",
        "streetDirectionId": null,
        "streetTypeId": "CRT",
        "placeName": "NORTH YORK",
        "streetNameDisplayText": "DOVERWOOD CRT, NORTH YORK"
      }
    ]
  },
  {
    "postal": "M2M8C1",
    "result": []
  },
  {
    "postal": "M2M5C5",
    "result": []
  },
  {
    "postal": "M2M2X8",
    "result": [
      {
        "electoralDistricts": [
          {
            "election": null,
            "id": 21,
            "name": "Don Valley North"
          }
        ],
        "pollDivisionIds": [
          10137657
        ],
        "postalCode": "M2M2X8",
        "streetName": "BESTVIEW",
        "streetDirectionId": null,
        "streetTypeId": "DR",
        "placeName": "NORTH YORK",
        "streetNameDisplayText": "BESTVIEW DR, NORTH YORK"
      }
    ]
  },
  {
    "postal": "M2M1W5",
    "result": [
      {
        "electoralDistricts": [
          {
            "election": null,
            "id": 117,
            "name": "Willowdale"
          }
        ],
        "pollDivisionIds": [
          10142602
        ],
        "postalCode": "M2M1W5",
        "streetName": "THERESA",
        "streetDirectionId": null,
        "streetTypeId": "AVE",
        "placeName": "NORTH YORK",
        "streetNameDisplayText": "THERESA AVE, NORTH YORK"
      }
    ]
  },
  {
    "postal": "M2M7G0",
    "result": []
  },
  {
    "postal": "M2M8J8",
    "result": []
  },
  {
    "postal": "M2M3Y0",
    "result": []
  },
  {
    "postal": "M2M9T7",
    "result": []
  },
  {
    "postal": "M2M5P4",
    "result": []
  },
  {
    "postal": "M2M4B0",
    "result": []
  },
  {
    "postal": "M2M9N8",
    "result": []
  },
  {
    "postal": "M2M4A7",
    "result": [
      {
        "electoralDistricts": [
          {
            "election": null,
            "id": 21,
            "name": "Don Valley North"
          }
        ],
        "pollDivisionIds": [
          10137657
        ],
        "postalCode": "M2M4A7",
        "streetName": "GOLDENWOOD",
        "streetDirectionId": null,
        "streetTypeId": "RD",
        "placeName": "NORTH YORK",
        "streetNameDisplayText": "GOLDENWOOD RD, NORTH YORK"
      }
    ]
  },
  {
    "postal": "M2M4H9",
    "result": [
      {
        "electoralDistricts": [
          {
            "election": null,
            "id": 117,
            "name": "Willowdale"
          }
        ],
        "pollDivisionIds": [
          10142614,
          10142631
        ],
        "postalCode": "M2M4H9",
        "streetName": "YONGE",
        "streetDirectionId": null,
        "streetTypeId": "ST",
        "placeName": "NORTH YORK",
        "streetNameDisplayText": "YONGE ST, NORTH YORK"
      }
    ]
  },
  {
    "postal": "M2M6X1",
    "result": []
  },
  {
    "postal": "M2M9Y7",
    "result": []
  },
  {
    "postal": "M2M2Y5",
    "result": [
      {
        "electoralDistricts": [
          {
            "election": null,
            "id": 21,
            "name": "Don Valley North"
          }
        ],
        "pollDivisionIds": [
          10137657
        ],
        "postalCode": "M2M2Y5",
        "streetName": "HARRINGTON",
        "streetDirectionId": null,
        "streetTypeId": "CRES",
        "placeName": "NORTH YORK",
        "streetNameDisplayText": "HARRINGTON CRES, NORTH YORK"
      }
    ]
  },
  {
    "postal": "M2M8L7",
    "result": []
  },
  {
    "postal": "M2M2A8",
    "result": [
      {
        "electoralDistricts": [
          {
            "election": null,
            "id": 117,
            "name": "Willowdale"
          }
        ],
        "pollDivisionIds": [
          10142608
        ],
        "postalCode": "M2M2A8",
        "streetName": "AVERILL",
        "streetDirectionId": null,
        "streetTypeId": "CRES",
        "placeName": "NORTH YORK",
        "streetNameDisplayText": "AVERILL CRES, NORTH YORK"
      }
    ]
  },
  {
    "postal": "M2M2K9",
    "result": [
      {
        "electoralDistricts": [
          {
            "election": null,
            "id": 117,
            "name": "Willowdale"
          }
        ],
        "pollDivisionIds": [
          10142607
        ],
        "postalCode": "M2M2K9",
        "streetName": "BRENHAM",
        "streetDirectionId": null,
        "streetTypeId": "CRES",
        "placeName": "NORTH YORK",
        "streetNameDisplayText": "BRENHAM CRES, NORTH YORK"
      }
    ]
  },
  {
    "postal": "M2M3E5",
    "result": [
      {
        "electoralDistricts": [
          {
            "election": null,
            "id": 117,
            "name": "Willowdale"
          }
        ],
        "pollDivisionIds": [
          10142605
        ],
        "postalCode": "M2M3E5",
        "streetName": "WILLOWDALE",
        "streetDirectionId": null,
        "streetTypeId": "AVE",
        "placeName": "NORTH YORK",
        "streetNameDisplayText": "WILLOWDALE AVE, NORTH YORK"
      }
    ]
  },
  {
    "postal": "M2M8N6",
    "result": []
  },
  {
    "postal": "M2M8J4",
    "result": []
  },
  {
    "postal": "M2M4R7",
    "result": []
  },
  {
    "postal": "M2M9K1",
    "result": []
  },
  {
    "postal": "M2M8E1",
    "result": []
  },
  {
    "postal": "M2M0R1",
    "result": []
  },
  {
    "postal": "M2M4J3",
    "result": [
      {
        "electoralDistricts": [
          {
            "election": null,
            "id": 117,
            "name": "Willowdale"
          }
        ],
        "pollDivisionIds": [
          10142628
        ],
        "postalCode": "M2M4J3",
        "streetName": "YONGE",
        "streetDirectionId": null,
        "streetTypeId": "ST",
        "placeName": "NORTH YORK",
        "streetNameDisplayText": "YONGE ST, NORTH YORK"
      }
    ]
  },
  {
    "postal": "M2M7E7",
    "result": []
  },
  {
    "postal": "M2M0J0",
    "result": []
  },
  {
    "postal": "M2M7R8",
    "result": []
  },
  {
    "postal": "M2M9X0",
    "result": []
  },
  {
    "postal": "M2M7P6",
    "result": []
  },
  {
    "postal": "M2M0R7",
    "result": []
  },
  {
    "postal": "M2M5W1",
    "result": []
  },
  {
    "postal": "M2M0K4",
    "result": []
  },
  {
    "postal": "M2M7N9",
    "result": []
  },
  {
    "postal": "M2M1N0",
    "result": []
  },
  {
    "postal": "M2M6P3",
    "result": []
  },
  {
    "postal": "M2M5A1",
    "result": []
  },
  {
    "postal": "M2M9M9",
    "result": []
  },
  {
    "postal": "M2M7T6",
    "result": []
  },
  {
    "postal": "M2M3X0",
    "result": []
  },
  {
    "postal": "M2M2T0",
    "result": []
  },
  {
    "postal": "M2M5X9",
    "result": []
  },
  {
    "postal": "M2M2R3",
    "result": [
      {
        "electoralDistricts": [
          {
            "election": null,
            "id": 117,
            "name": "Willowdale"
          }
        ],
        "pollDivisionIds": [
          10142605
        ],
        "postalCode": "M2M2R3",
        "streetName": "MADAWASKA",
        "streetDirectionId": null,
        "streetTypeId": "AVE",
        "placeName": "NORTH YORK",
        "streetNameDisplayText": "MADAWASKA AVE, NORTH YORK"
      }
    ]
  },
  {
    "postal": "M2M5N2",
    "result": []
  },
  {
    "postal": "M2M4Y7",
    "result": []
  },
  {
    "postal": "M2M7M0",
    "result": []
  },
  {
    "postal": "M2M8P3",
    "result": []
  },
  {
    "postal": "M2M3N3",
    "result": [
      {
        "electoralDistricts": [
          {
            "election": null,
            "id": 117,
            "name": "Willowdale"
          }
        ],
        "pollDivisionIds": [
          10142607
        ],
        "postalCode": "M2M3N3",
        "streetName": "CONACHER",
        "streetDirectionId": null,
        "streetTypeId": "DR",
        "placeName": "NORTH YORK",
        "streetNameDisplayText": "CONACHER DR, NORTH YORK"
      }
    ]
  },
  {
    "postal": "M2M7S3",
    "result": []
  },
  {
    "postal": "M2M3V9",
    "result": [
      {
        "electoralDistricts": [
          {
            "election": null,
            "id": 117,
            "name": "Willowdale"
          }
        ],
        "pollDivisionIds": [
          10142604
        ],
        "postalCode": "M2M3V9",
        "streetName": "YONGE",
        "streetDirectionId": null,
        "streetTypeId": "ST",
        "placeName": "NORTH YORK",
        "streetNameDisplayText": "YONGE ST, NORTH YORK"
      }
    ]
  },
  {
    "postal": "M2M9N7",
    "result": []
  },
  {
    "postal": "M2M0G4",
    "result": []
  },
  {
    "postal": "M2M2E2",
    "result": [
      {
        "electoralDistricts": [
          {
            "election": null,
            "id": 117,
            "name": "Willowdale"
          }
        ],
        "pollDivisionIds": [
          10142609
        ],
        "postalCode": "M2M2E2",
        "streetName": "RISEBROUGH",
        "streetDirectionId": null,
        "streetTypeId": "AVE",
        "placeName": "NORTH YORK",
        "streetNameDisplayText": "RISEBROUGH AVE, NORTH YORK"
      }
    ]
  },
  {
    "postal": "M2M7W8",
    "result": []
  },
  {
    "postal": "M2M7M5",
    "result": []
  },
  {
    "postal": "M2M5W8",
    "result": []
  },
  {
    "postal": "M2M5E5",
    "result": []
  },
  {
    "postal": "M2M1P9",
    "result": []
  },
  {
    "postal": "M2M8V8",
    "result": []
  },
  {
    "postal": "M2M9G8",
    "result": []
  },
  {
    "postal": "M2M8H9",
    "result": []
  },
  {
    "postal": "M2M1Z1",
    "result": [
      {
        "electoralDistricts": [
          {
            "election": null,
            "id": 117,
            "name": "Willowdale"
          }
        ],
        "pollDivisionIds": [
          10142609
        ],
        "postalCode": "M2M1Z1",
        "streetName": "WINLOCK",
        "streetDirectionId": null,
        "streetTypeId": "PK",
        "placeName": "NORTH YORK",
        "streetNameDisplayText": "WINLOCK PK, NORTH YORK"
      }
    ]
  },
  {
    "postal": "M2M8M3",
    "result": []
  },
  {
    "postal": "M2M5H6",
    "result": []
  },
  {
    "postal": "M2M7W7",
    "result": []
  },
  {
    "postal": "M2M4L0",
    "result": []
  },
  {
    "postal": "M2M2N1",
    "result": [
      {
        "electoralDistricts": [
          {
            "election": null,
            "id": 117,
            "name": "Willowdale"
          }
        ],
        "pollDivisionIds": [
          10142605
        ],
        "postalCode": "M2M2N1",
        "streetName": "NEWTON",
        "streetDirectionId": null,
        "streetTypeId": "DR",
        "placeName": "NORTH YORK",
        "streetNameDisplayText": "NEWTON DR, NORTH YORK"
      }
    ]
  },
  {
    "postal": "M2M2H4",
    "result": [
      {
        "electoralDistricts": [
          {
            "election": null,
            "id": 117,
            "name": "Willowdale"
          }
        ],
        "pollDivisionIds": [
          10142606
        ],
        "postalCode": "M2M2H4",
        "streetName": "WEDGEWOOD",
        "streetDirectionId": null,
        "streetTypeId": "DR",
        "placeName": "NORTH YORK",
        "streetNameDisplayText": "WEDGEWOOD DR, NORTH YORK"
      }
    ]
  },
  {
    "postal": "M2M5C8",
    "result": []
  },
  {
    "postal": "M2M8B0",
    "result": []
  },
  {
    "postal": "M2M1T4",
    "result": [
      {
        "electoralDistricts": [
          {
            "election": null,
            "id": 117,
            "name": "Willowdale"
          }
        ],
        "pollDivisionIds": [
          10142611
        ],
        "postalCode": "M2M1T4",
        "streetName": "CARNEY",
        "streetDirectionId": null,
        "streetTypeId": "RD",
        "placeName": "NORTH YORK",
        "streetNameDisplayText": "CARNEY RD, NORTH YORK"
      }
    ]
  },
  {
    "postal": "M2M7N7",
    "result": []
  },
  {
    "postal": "M2M4L3",
    "result": [
      {
        "electoralDistricts": [
          {
            "election": null,
            "id": 117,
            "name": "Willowdale"
          }
        ],
        "pollDivisionIds": [
          10142608
        ],
        "postalCode": "M2M4L3",
        "streetName": "BISHOP",
        "streetDirectionId": null,
        "streetTypeId": "AVE",
        "placeName": "NORTH YORK",
        "streetNameDisplayText": "BISHOP AVE, NORTH YORK"
      }
    ]
  },
  {
    "postal": "M2M2N2",
    "result": [
      {
        "electoralDistricts": [
          {
            "election": null,
            "id": 117,
            "name": "Willowdale"
          }
        ],
        "pollDivisionIds": [
          10142606
        ],
        "postalCode": "M2M2N2",
        "streetName": "NEWTON",
        "streetDirectionId": null,
        "streetTypeId": "DR",
        "placeName": "NORTH YORK",
        "streetNameDisplayText": "NEWTON DR, NORTH YORK"
      }
    ]
  },
  {
    "postal": "M2M4N8",
    "result": []
  },
  {
    "postal": "M2M3M5",
    "result": [
      {
        "electoralDistricts": [
          {
            "election": null,
            "id": 117,
            "name": "Willowdale"
          }
        ],
        "pollDivisionIds": [
          10142607
        ],
        "postalCode": "M2M3M5",
        "streetName": "TOFFOLI",
        "streetDirectionId": null,
        "streetTypeId": "PL",
        "placeName": "NORTH YORK",
        "streetNameDisplayText": "TOFFOLI PL, NORTH YORK"
      }
    ]
  },
  {
    "postal": "M2M6H7",
    "result": []
  },
  {
    "postal": "M2M8Y8",
    "result": []
  },
  {
    "postal": "M2M5R9",
    "result": []
  },
  {
    "postal": "M2M8G3",
    "result": []
  },
  {
    "postal": "M2M4N7",
    "result": []
  },
  {
    "postal": "M2M0B9",
    "result": []
  },
  {
    "postal": "M2M9K7",
    "result": []
  },
  {
    "postal": "M2M9K9",
    "result": []
  },
  {
    "postal": "M2M3Z2",
    "result": [
      {
        "electoralDistricts": [
          {
            "election": null,
            "id": 117,
            "name": "Willowdale"
          }
        ],
        "pollDivisionIds": [
          10142626
        ],
        "postalCode": "M2M3Z2",
        "streetName": "TANGREEN",
        "streetDirectionId": null,
        "streetTypeId": "CRT",
        "placeName": "NORTH YORK",
        "streetNameDisplayText": "TANGREEN CRT, NORTH YORK"
      }
    ]
  },
  {
    "postal": "M2M6W7",
    "result": []
  },
  {
    "postal": "M2M0P1",
    "result": []
  },
  {
    "postal": "M2M3A0",
    "result": []
  },
  {
    "postal": "M2M8L9",
    "result": []
  },
  {
    "postal": "M2M6X0",
    "result": []
  },
  {
    "postal": "M2M3E9",
    "result": [
      {
        "electoralDistricts": [
          {
            "election": null,
            "id": 117,
            "name": "Willowdale"
          }
        ],
        "pollDivisionIds": [
          10142606
        ],
        "postalCode": "M2M3E9",
        "streetName": "LILLIAN",
        "streetDirectionId": null,
        "streetTypeId": "ST",
        "placeName": "NORTH YORK",
        "streetNameDisplayText": "LILLIAN ST, NORTH YORK"
      }
    ]
  },
  {
    "postal": "M2M0S5",
    "result": []
  },
  {
    "postal": "M2M1A2",
    "result": [
      {
        "electoralDistricts": [
          {
            "election": null,
            "id": 117,
            "name": "Willowdale"
          }
        ],
        "pollDivisionIds": [
          10142611,
          10142619
        ],
        "postalCode": "M2M1A2",
        "streetName": "HENDON",
        "streetDirectionId": null,
        "streetTypeId": "AVE",
        "placeName": "NORTH YORK",
        "streetNameDisplayText": "HENDON AVE, NORTH YORK"
      }
    ]
  },
  {
    "postal": "M2M5V8",
    "result": []
  },
  {
    "postal": "M2M8C5",
    "result": []
  },
  {
    "postal": "M2M6N0",
    "result": []
  },
  {
    "postal": "M2M9E6",
    "result": []
  },
  {
    "postal": "M2M5J7",
    "result": []
  },
  {
    "postal": "M2M2R2",
    "result": [
      {
        "electoralDistricts": [
          {
            "election": null,
            "id": 117,
            "name": "Willowdale"
          }
        ],
        "pollDivisionIds": [
          10142605
        ],
        "postalCode": "M2M2R2",
        "streetName": "MADAWASKA",
        "streetDirectionId": null,
        "streetTypeId": "AVE",
        "placeName": "NORTH YORK",
        "streetNameDisplayText": "MADAWASKA AVE, NORTH YORK"
      }
    ]
  },
  {
    "postal": "M2M0P5",
    "result": []
  },
  {
    "postal": "M2M5A7",
    "result": []
  },
  {
    "postal": "M2M1G1",
    "result": [
      {
        "electoralDistricts": [
          {
            "election": null,
            "id": 117,
            "name": "Willowdale"
          }
        ],
        "pollDivisionIds": [
          10142604
        ],
        "postalCode": "M2M1G1",
        "streetName": "CAINES",
        "streetDirectionId": null,
        "streetTypeId": "AVE",
        "placeName": "NORTH YORK",
        "streetNameDisplayText": "CAINES AVE, NORTH YORK"
      }
    ]
  },
  {
    "postal": "M2M9R6",
    "result": []
  },
  {
    "postal": "M2M4Z9",
    "result": []
  },
  {
    "postal": "M2M1V5",
    "result": [
      {
        "electoralDistricts": [
          {
            "election": null,
            "id": 117,
            "name": "Willowdale"
          }
        ],
        "pollDivisionIds": [
          10142604
        ],
        "postalCode": "M2M1V5",
        "streetName": "HILDA",
        "streetDirectionId": null,
        "streetTypeId": "AVE",
        "placeName": "NORTH YORK",
        "streetNameDisplayText": "HILDA AVE, NORTH YORK"
      }
    ]
  },
  {
    "postal": "M2M9Y5",
    "result": []
  },
  {
    "postal": "M2M1P2",
    "result": [
      {
        "electoralDistricts": [
          {
            "election": null,
            "id": 117,
            "name": "Willowdale"
          }
        ],
        "pollDivisionIds": [
          10142603
        ],
        "postalCode": "M2M1P2",
        "streetName": "GREEN BUSH",
        "streetDirectionId": null,
        "streetTypeId": "RD",
        "placeName": "NORTH YORK",
        "streetNameDisplayText": "GREEN BUSH RD, NORTH YORK"
      }
    ]
  },
  {
    "postal": "M2M5X0",
    "result": []
  },
  {
    "postal": "M2M7B8",
    "result": []
  },
  {
    "postal": "M2M0C6",
    "result": []
  },
  {
    "postal": "M2M6G1",
    "result": []
  },
  {
    "postal": "M2M3K3",
    "result": [
      {
        "electoralDistricts": [
          {
            "election": null,
            "id": 117,
            "name": "Willowdale"
          }
        ],
        "pollDivisionIds": [
          10142609
        ],
        "postalCode": "M2M3K3",
        "streetName": "MAXOME",
        "streetDirectionId": null,
        "streetTypeId": "AVE",
        "placeName": "NORTH YORK",
        "streetNameDisplayText": "MAXOME AVE, NORTH YORK"
      }
    ]
  },
  {
    "postal": "M2M9R0",
    "result": []
  },
  {
    "postal": "M2M4R8",
    "result": []
  },
  {
    "postal": "M2M5P9",
    "result": []
  },
  {
    "postal": "M2M8N4",
    "result": []
  },
  {
    "postal": "M2M8H4",
    "result": []
  },
  {
    "postal": "M2M4V1",
    "result": []
  },
  {
    "postal": "M2M1K5",
    "result": [
      {
        "electoralDistricts": [
          {
            "election": null,
            "id": 117,
            "name": "Willowdale"
          }
        ],
        "pollDivisionIds": [
          10142603
        ],
        "postalCode": "M2M1K5",
        "streetName": "HOMEWOOD",
        "streetDirectionId": null,
        "streetTypeId": "AVE",
        "placeName": "NORTH YORK",
        "streetNameDisplayText": "HOMEWOOD AVE, NORTH YORK"
      }
    ]
  },
  {
    "postal": "M2M1Z5",
    "result": [
      {
        "electoralDistricts": [
          {
            "election": null,
            "id": 117,
            "name": "Willowdale"
          }
        ],
        "pollDivisionIds": [
          10142608
        ],
        "postalCode": "M2M1Z5",
        "streetName": "BISHOP",
        "streetDirectionId": null,
        "streetTypeId": "AVE",
        "placeName": "NORTH YORK",
        "streetNameDisplayText": "BISHOP AVE, NORTH YORK"
      }
    ]
  },
  {
    "postal": "M2M9L9",
    "result": []
  },
  {
    "postal": "M2M5L2",
    "result": []
  },
  {
    "postal": "M2M0M2",
    "result": []
  },
  {
    "postal": "M2M1K8",
    "result": [
      {
        "electoralDistricts": [
          {
            "election": null,
            "id": 117,
            "name": "Willowdale"
          }
        ],
        "pollDivisionIds": [
          10142603
        ],
        "postalCode": "M2M1K8",
        "streetName": "GOULDING",
        "streetDirectionId": null,
        "streetTypeId": "AVE",
        "placeName": "NORTH YORK",
        "streetNameDisplayText": "GOULDING AVE, NORTH YORK"
      }
    ]
  },
  {
    "postal": "M2M3M7",
    "result": [
      {
        "electoralDistricts": [
          {
            "election": null,
            "id": 117,
            "name": "Willowdale"
          }
        ],
        "pollDivisionIds": [
          10142609
        ],
        "postalCode": "M2M3M7",
        "streetName": "CONACHER",
        "streetDirectionId": null,
        "streetTypeId": "DR",
        "placeName": "NORTH YORK",
        "streetNameDisplayText": "CONACHER DR, NORTH YORK"
      }
    ]
  },
  {
    "postal": "M2M1B2",
    "result": [
      {
        "electoralDistricts": [
          {
            "election": null,
            "id": 117,
            "name": "Willowdale"
          }
        ],
        "pollDivisionIds": [
          10142611
        ],
        "postalCode": "M2M1B2",
        "streetName": "HENDON",
        "streetDirectionId": null,
        "streetTypeId": "AVE",
        "placeName": "NORTH YORK",
        "streetNameDisplayText": "HENDON AVE, NORTH YORK"
      }
    ]
  },
  {
    "postal": "M2M0H9",
    "result": []
  },
  {
    "postal": "M2M8M4",
    "result": []
  },
  {
    "postal": "M2M2M5",
    "result": [
      {
        "electoralDistricts": [
          {
            "election": null,
            "id": 117,
            "name": "Willowdale"
          }
        ],
        "pollDivisionIds": [
          10142606
        ],
        "postalCode": "M2M2M5",
        "streetName": "CADMUS",
        "streetDirectionId": null,
        "streetTypeId": "RD",
        "placeName": "NORTH YORK",
        "streetNameDisplayText": "CADMUS RD, NORTH YORK"
      }
    ]
  },
  {
    "postal": "M2M0T9",
    "result": []
  },
  {
    "postal": "M2M3P1",
    "result": [
      {
        "electoralDistricts": [
          {
            "election": null,
            "id": 117,
            "name": "Willowdale"
          }
        ],
        "pollDivisionIds": [
          10142607
        ],
        "postalCode": "M2M3P1",
        "streetName": "ALGO",
        "streetDirectionId": null,
        "streetTypeId": "CRT",
        "placeName": "NORTH YORK",
        "streetNameDisplayText": "ALGO CRT, NORTH YORK"
      }
    ]
  },
  {
    "postal": "M2M1R6",
    "result": [
      {
        "electoralDistricts": [
          {
            "election": null,
            "id": 117,
            "name": "Willowdale"
          },
          {
            "election": null,
            "id": 112,
            "name": "University—Rosedale"
          }
        ],
        "pollDivisionIds": [
          10142611,
          10136388
        ],
        "postalCode": "M2M1R6",
        "streetName": "KENSINGTON",
        "streetDirectionId": null,
        "streetTypeId": "AVE",
        "placeName": "NORTH YORK",
        "streetNameDisplayText": "KENSINGTON AVE, NORTH YORK"
      }
    ]
  },
  {
    "postal": "M2M9V5",
    "result": []
  },
  {
    "postal": "M2M9T0",
    "result": []
  },
  {
    "postal": "M2M0A9",
    "result": [
      {
        "electoralDistricts": [
          {
            "election": null,
            "id": 117,
            "name": "Willowdale"
          }
        ],
        "pollDivisionIds": [
          10142629
        ],
        "postalCode": "M2M0A9",
        "streetName": "YONGE",
        "streetDirectionId": null,
        "streetTypeId": "ST",
        "placeName": "NORTH YORK",
        "streetNameDisplayText": "YONGE ST, NORTH YORK"
      }
    ]
  },
  {
    "postal": "M2M1M3",
    "result": [
      {
        "electoralDistricts": [
          {
            "election": null,
            "id": 117,
            "name": "Willowdale"
          }
        ],
        "pollDivisionIds": [
          10142603
        ],
        "postalCode": "M2M1M3",
        "streetName": "PLEASANT",
        "streetDirectionId": null,
        "streetTypeId": "AVE",
        "placeName": "NORTH YORK",
        "streetNameDisplayText": "PLEASANT AVE, NORTH YORK"
      }
    ]
  },
  {
    "postal": "M2M1W8",
    "result": [
      {
        "electoralDistricts": [
          {
            "election": null,
            "id": 117,
            "name": "Willowdale"
          }
        ],
        "pollDivisionIds": [
          10142604
        ],
        "postalCode": "M2M1W8",
        "streetName": "MANADON",
        "streetDirectionId": null,
        "streetTypeId": "DR",
        "placeName": "NORTH YORK",
        "streetNameDisplayText": "MANADON DR, NORTH YORK"
      }
    ]
  },
  {
    "postal": "M2M9J1",
    "result": []
  },
  {
    "postal": "M2M8N5",
    "result": []
  },
  {
    "postal": "M2M5X1",
    "result": []
  },
  {
    "postal": "M2M6S2",
    "result": []
  },
  {
    "postal": "M2M2A2",
    "result": [
      {
        "electoralDistricts": [
          {
            "election": null,
            "id": 117,
            "name": "Willowdale"
          }
        ],
        "pollDivisionIds": [
          10142608
        ],
        "postalCode": "M2M2A2",
        "streetName": "DEERING",
        "streetDirectionId": null,
        "streetTypeId": "CRES",
        "placeName": "NORTH YORK",
        "streetNameDisplayText": "DEERING CRES, NORTH YORK"
      }
    ]
  },
  {
    "postal": "M2M6A6",
    "result": []
  },
  {
    "postal": "M2M0S3",
    "result": []
  },
  {
    "postal": "M2M3E7",
    "result": [
      {
        "electoralDistricts": [
          {
            "election": null,
            "id": 117,
            "name": "Willowdale"
          }
        ],
        "pollDivisionIds": [
          10142605
        ],
        "postalCode": "M2M3E7",
        "streetName": "WILLOWDALE",
        "streetDirectionId": null,
        "streetTypeId": "AVE",
        "placeName": "NORTH YORK",
        "streetNameDisplayText": "WILLOWDALE AVE, NORTH YORK"
      }
    ]
  },
  {
    "postal": "M2M5R7",
    "result": []
  },
  {
    "postal": "M2M3R6",
    "result": [
      {
        "electoralDistricts": [
          {
            "election": null,
            "id": 117,
            "name": "Willowdale"
          }
        ],
        "pollDivisionIds": [
          10142607
        ],
        "postalCode": "M2M3R6",
        "streetName": "CREEKSIDE",
        "streetDirectionId": null,
        "streetTypeId": "RD",
        "placeName": "NORTH YORK",
        "streetNameDisplayText": "CREEKSIDE RD, NORTH YORK"
      }
    ]
  },
  {
    "postal": "M2M6K4",
    "result": []
  },
  {
    "postal": "M2M2W5",
    "result": [
      {
        "electoralDistricts": [
          {
            "election": null,
            "id": 117,
            "name": "Willowdale"
          }
        ],
        "pollDivisionIds": [
          10142605
        ],
        "postalCode": "M2M2W5",
        "streetName": "NIPIGON",
        "streetDirectionId": null,
        "streetTypeId": "AVE",
        "placeName": "NORTH YORK",
        "streetNameDisplayText": "NIPIGON AVE, NORTH YORK"
      }
    ]
  },
  {
    "postal": "M2M8W4",
    "result": []
  },
  {
    "postal": "M2M9C2",
    "result": []
  },
  {
    "postal": "M2M2C0",
    "result": []
  },
  {
    "postal": "M2M0E1",
    "result": []
  },
  {
    "postal": "M2M1K9",
    "result": [
      {
        "electoralDistricts": [
          {
            "election": null,
            "id": 117,
            "name": "Willowdale"
          }
        ],
        "pollDivisionIds": [
          10142603
        ],
        "postalCode": "M2M1K9",
        "streetName": "GOULDING",
        "streetDirectionId": null,
        "streetTypeId": "AVE",
        "placeName": "NORTH YORK",
        "streetNameDisplayText": "GOULDING AVE, NORTH YORK"
      }
    ]
  },
  {
    "postal": "M2M1G7",
    "result": [
      {
        "electoralDistricts": [
          {
            "election": null,
            "id": 117,
            "name": "Willowdale"
          },
          {
            "election": null,
            "id": 56,
            "name": "Markham—Stouffville"
          }
        ],
        "pollDivisionIds": [
          10142604,
          10134338
        ],
        "postalCode": "M2M1G7",
        "streetName": "CONNAUGHT",
        "streetDirectionId": null,
        "streetTypeId": "AVE",
        "placeName": "NORTH YORK",
        "streetNameDisplayText": "CONNAUGHT AVE, NORTH YORK"
      }
    ]
  },
  {
    "postal": "M2M4E9",
    "result": []
  },
  {
    "postal": "M2M9P0",
    "result": []
  },
  {
    "postal": "M2M5H3",
    "result": []
  },
  {
    "postal": "M2M9X6",
    "result": []
  },
  {
    "postal": "M2M5N7",
    "result": []
  },
  {
    "postal": "M2M5A6",
    "result": []
  },
  {
    "postal": "M2M4M0",
    "result": []
  },
  {
    "postal": "M2M3V6",
    "result": []
  },
  {
    "postal": "M2M1L7",
    "result": [
      {
        "electoralDistricts": [
          {
            "election": null,
            "id": 117,
            "name": "Willowdale"
          }
        ],
        "pollDivisionIds": [
          10142603
        ],
        "postalCode": "M2M1L7",
        "streetName": "GOULDING",
        "streetDirectionId": null,
        "streetTypeId": "AVE",
        "placeName": "NORTH YORK",
        "streetNameDisplayText": "GOULDING AVE, NORTH YORK"
      }
    ]
  },
  {
    "postal": "M2M2P9",
    "result": [
      {
        "electoralDistricts": [
          {
            "election": null,
            "id": 117,
            "name": "Willowdale"
          }
        ],
        "pollDivisionIds": [
          10142605
        ],
        "postalCode": "M2M2P9",
        "streetName": "ATHABASKA",
        "streetDirectionId": null,
        "streetTypeId": "AVE",
        "placeName": "NORTH YORK",
        "streetNameDisplayText": "ATHABASKA AVE, NORTH YORK"
      },
      {
        "electoralDistricts": [
          {
            "election": null,
            "id": 117,
            "name": "Willowdale"
          }
        ],
        "pollDivisionIds": [
          10142605
        ],
        "postalCode": "M2M2P9",
        "streetName": "MADAWASKA",
        "streetDirectionId": null,
        "streetTypeId": "AVE",
        "placeName": "NORTH YORK",
        "streetNameDisplayText": "MADAWASKA AVE, NORTH YORK"
      }
    ]
  },
  {
    "postal": "M2M5T4",
    "result": []
  },
  {
    "postal": "M2M5Z1",
    "result": []
  },
  {
    "postal": "M2M2X0",
    "result": []
  },
  {
    "postal": "M2M6Z2",
    "result": []
  },
  {
    "postal": "M2M0E0",
    "result": []
  },
  {
    "postal": "M2M3Z5",
    "result": [
      {
        "electoralDistricts": [
          {
            "election": null,
            "id": 21,
            "name": "Don Valley North"
          }
        ],
        "pollDivisionIds": [
          10137657
        ],
        "postalCode": "M2M3Z5",
        "streetName": "BESTVIEW",
        "streetDirectionId": null,
        "streetTypeId": "DR",
        "placeName": "NORTH YORK",
        "streetNameDisplayText": "BESTVIEW DR, NORTH YORK"
      }
    ]
  },
  {
    "postal": "M2M8H3",
    "result": []
  },
  {
    "postal": "M2M7S6",
    "result": []
  },
  {
    "postal": "M2M4C1",
    "result": [
      {
        "electoralDistricts": [
          {
            "election": null,
            "id": 117,
            "name": "Willowdale"
          }
        ],
        "pollDivisionIds": [
          10142611
        ],
        "postalCode": "M2M4C1",
        "streetName": "HOLITA",
        "streetDirectionId": null,
        "streetTypeId": "RD",
        "placeName": "NORTH YORK",
        "streetNameDisplayText": "HOLITA RD, NORTH YORK"
      }
    ]
  },
  {
    "postal": "M2M3K2",
    "result": [
      {
        "electoralDistricts": [
          {
            "election": null,
            "id": 117,
            "name": "Willowdale"
          }
        ],
        "pollDivisionIds": [
          10142609
        ],
        "postalCode": "M2M3K2",
        "streetName": "MAXOME",
        "streetDirectionId": null,
        "streetTypeId": "AVE",
        "placeName": "NORTH YORK",
        "streetNameDisplayText": "MAXOME AVE, NORTH YORK"
      }
    ]
  },
  {
    "postal": "M2M1Y5",
    "result": [
      {
        "electoralDistricts": [
          {
            "election": null,
            "id": 117,
            "name": "Willowdale"
          }
        ],
        "pollDivisionIds": [
          10142608
        ],
        "postalCode": "M2M1Y5",
        "streetName": "PEMBERTON",
        "streetDirectionId": null,
        "streetTypeId": "AVE",
        "placeName": "NORTH YORK",
        "streetNameDisplayText": "PEMBERTON AVE, NORTH YORK"
      }
    ]
  },
  {
    "postal": "M2M6P6",
    "result": []
  },
  {
    "postal": "M2M3N9",
    "result": [
      {
        "electoralDistricts": [
          {
            "election": null,
            "id": 117,
            "name": "Willowdale"
          }
        ],
        "pollDivisionIds": [
          10142607
        ],
        "postalCode": "M2M3N9",
        "streetName": "NEVADA",
        "streetDirectionId": null,
        "streetTypeId": "AVE",
        "placeName": "NORTH YORK",
        "streetNameDisplayText": "NEVADA AVE, NORTH YORK"
      }
    ]
  },
  {
    "postal": "M2M3W2",
    "result": [
      {
        "electoralDistricts": [
          {
            "election": null,
            "id": 117,
            "name": "Willowdale"
          }
        ],
        "pollDivisionIds": [
          10142627,
          10142606
        ],
        "postalCode": "M2M3W2",
        "streetName": "YONGE",
        "streetDirectionId": null,
        "streetTypeId": "ST",
        "placeName": "NORTH YORK",
        "streetNameDisplayText": "YONGE ST, NORTH YORK"
      }
    ]
  },
  {
    "postal": "M2M6H8",
    "result": []
  },
  {
    "postal": "M2M9T3",
    "result": []
  },
  {
    "postal": "M2M5L9",
    "result": []
  },
  {
    "postal": "M2M7X7",
    "result": []
  },
  {
    "postal": "M2M3J5",
    "result": [
      {
        "electoralDistricts": [
          {
            "election": null,
            "id": 117,
            "name": "Willowdale"
          }
        ],
        "pollDivisionIds": [
          10142605
        ],
        "postalCode": "M2M3J5",
        "streetName": "REGIS",
        "streetDirectionId": null,
        "streetTypeId": "DR",
        "placeName": "NORTH YORK",
        "streetNameDisplayText": "REGIS DR, NORTH YORK"
      },
      {
        "electoralDistricts": [
          {
            "election": null,
            "id": 117,
            "name": "Willowdale"
          }
        ],
        "pollDivisionIds": [
          10142605
        ],
        "postalCode": "M2M3J5",
        "streetName": "REGIS DR.",
        "streetDirectionId": null,
        "streetTypeId": "DR",
        "placeName": "NORTH YORK",
        "streetNameDisplayText": "REGIS DR. DR, NORTH YORK"
      }
    ]
  },
  {
    "postal": "M2M4J5",
    "result": [
      {
        "electoralDistricts": [
          {
            "election": null,
            "id": 117,
            "name": "Willowdale"
          }
        ],
        "pollDivisionIds": [
          10142609
        ],
        "postalCode": "M2M4J5",
        "streetName": "BAYVIEW",
        "streetDirectionId": null,
        "streetTypeId": "AVE",
        "placeName": "NORTH YORK",
        "streetNameDisplayText": "BAYVIEW AVE, NORTH YORK"
      }
    ]
  },
  {
    "postal": "M2M6J2",
    "result": []
  },
  {
    "postal": "M2M5V6",
    "result": []
  },
  {
    "postal": "M2M3N2",
    "result": [
      {
        "electoralDistricts": [
          {
            "election": null,
            "id": 117,
            "name": "Willowdale"
          }
        ],
        "pollDivisionIds": [
          10142607
        ],
        "postalCode": "M2M3N2",
        "streetName": "CONACHER",
        "streetDirectionId": null,
        "streetTypeId": "DR",
        "placeName": "NORTH YORK",
        "streetNameDisplayText": "CONACHER DR, NORTH YORK"
      }
    ]
  },
  {
    "postal": "M2M3B1",
    "result": [
      {
        "electoralDistricts": [
          {
            "election": null,
            "id": 117,
            "name": "Willowdale"
          }
        ],
        "pollDivisionIds": [
          10142606
        ],
        "postalCode": "M2M3B1",
        "streetName": "TOBRUK",
        "streetDirectionId": null,
        "streetTypeId": "CRES",
        "placeName": "NORTH YORK",
        "streetNameDisplayText": "TOBRUK CRES, NORTH YORK"
      }
    ]
  },
  {
    "postal": "M2M8B5",
    "result": []
  },
  {
    "postal": "M2M0K1",
    "result": []
  },
  {
    "postal": "M2M7M7",
    "result": []
  },
  {
    "postal": "M2M2M2",
    "result": [
      {
        "electoralDistricts": [
          {
            "election": null,
            "id": 117,
            "name": "Willowdale"
          }
        ],
        "pollDivisionIds": [
          10142606
        ],
        "postalCode": "M2M2M2",
        "streetName": "PAMCREST",
        "streetDirectionId": null,
        "streetTypeId": "DR",
        "placeName": "NORTH YORK",
        "streetNameDisplayText": "PAMCREST DR, NORTH YORK"
      }
    ]
  },
  {
    "postal": "M2M9N3",
    "result": []
  },
  {
    "postal": "M2M4Y8",
    "result": []
  },
  {
    "postal": "M2M3V7",
    "result": [
      {
        "electoralDistricts": [
          {
            "election": null,
            "id": 117,
            "name": "Willowdale"
          }
        ],
        "pollDivisionIds": [
          10142606,
          10142604
        ],
        "postalCode": "M2M3V7",
        "streetName": "YONGE",
        "streetDirectionId": null,
        "streetTypeId": "ST",
        "placeName": "NORTH YORK",
        "streetNameDisplayText": "YONGE ST, NORTH YORK"
      }
    ]
  },
  {
    "postal": "M2M8Z1",
    "result": []
  },
  {
    "postal": "M2M7B3",
    "result": []
  },
  {
    "postal": "M2M3A8",
    "result": [
      {
        "electoralDistricts": [
          {
            "election": null,
            "id": 21,
            "name": "Don Valley North"
          }
        ],
        "pollDivisionIds": [
          10137657
        ],
        "postalCode": "M2M3A8",
        "streetName": "MINTWOOD",
        "streetDirectionId": null,
        "streetTypeId": "DR",
        "placeName": "NORTH YORK",
        "streetNameDisplayText": "MINTWOOD DR, NORTH YORK"
      }
    ]
  },
  {
    "postal": "M2M7V5",
    "result": []
  },
  {
    "postal": "M2M2T2",
    "result": [
      {
        "electoralDistricts": [
          {
            "election": null,
            "id": 117,
            "name": "Willowdale"
          }
        ],
        "pollDivisionIds": [
          10142607
        ],
        "postalCode": "M2M2T2",
        "streetName": "OTONABEE",
        "streetDirectionId": null,
        "streetTypeId": "AVE",
        "placeName": "NORTH YORK",
        "streetNameDisplayText": "OTONABEE AVE, NORTH YORK"
      }
    ]
  },
  {
    "postal": "M2M6L3",
    "result": []
  },
  {
    "postal": "M2M0L2",
    "result": []
  },
  {
    "postal": "M2M5Y8",
    "result": []
  },
  {
    "postal": "M2M0B8",
    "result": []
  },
  {
    "postal": "M2M6R5",
    "result": []
  },
  {
    "postal": "M2M8W6",
    "result": []
  },
  {
    "postal": "M2M8G6",
    "result": []
  },
  {
    "postal": "M2M6X3",
    "result": []
  },
  {
    "postal": "M2M7R7",
    "result": []
  },
  {
    "postal": "M2M4B6",
    "result": [
      {
        "electoralDistricts": [
          {
            "election": null,
            "id": 21,
            "name": "Don Valley North"
          }
        ],
        "pollDivisionIds": [
          10137657
        ],
        "postalCode": "M2M4B6",
        "streetName": "GOLDENWOOD",
        "streetDirectionId": null,
        "streetTypeId": "RD",
        "placeName": "NORTH YORK",
        "streetNameDisplayText": "GOLDENWOOD RD, NORTH YORK"
      }
    ]
  },
  {
    "postal": "M2M3P9",
    "result": [
      {
        "electoralDistricts": [
          {
            "election": null,
            "id": 117,
            "name": "Willowdale"
          }
        ],
        "pollDivisionIds": [
          10142607
        ],
        "postalCode": "M2M3P9",
        "streetName": "ROBINTER",
        "streetDirectionId": null,
        "streetTypeId": "DR",
        "placeName": "NORTH YORK",
        "streetNameDisplayText": "ROBINTER DR, NORTH YORK"
      }
    ]
  },
  {
    "postal": "M2M2T3",
    "result": [
      {
        "electoralDistricts": [
          {
            "election": null,
            "id": 117,
            "name": "Willowdale"
          }
        ],
        "pollDivisionIds": [
          10142607
        ],
        "postalCode": "M2M2T3",
        "streetName": "OTONABEE",
        "streetDirectionId": null,
        "streetTypeId": "AVE",
        "placeName": "NORTH YORK",
        "streetNameDisplayText": "OTONABEE AVE, NORTH YORK"
      }
    ]
  },
  {
    "postal": "M2M1M4",
    "result": [
      {
        "electoralDistricts": [
          {
            "election": null,
            "id": 117,
            "name": "Willowdale"
          }
        ],
        "pollDivisionIds": [
          10142603
        ],
        "postalCode": "M2M1M4",
        "streetName": "PLEASANT",
        "streetDirectionId": null,
        "streetTypeId": "AVE",
        "placeName": "NORTH YORK",
        "streetNameDisplayText": "PLEASANT AVE, NORTH YORK"
      }
    ]
  },
  {
    "postal": "M2M0H1",
    "result": []
  },
  {
    "postal": "M2M9W3",
    "result": []
  },
  {
    "postal": "M2M6P1",
    "result": []
  },
  {
    "postal": "M2M7G2",
    "result": []
  },
  {
    "postal": "M2M4J9",
    "result": []
  },
  {
    "postal": "M2M9E4",
    "result": []
  },
  {
    "postal": "M2M8H0",
    "result": []
  },
  {
    "postal": "M2M4M7",
    "result": [
      {
        "electoralDistricts": [
          {
            "election": null,
            "id": 117,
            "name": "Willowdale"
          }
        ],
        "pollDivisionIds": [
          10142611,
          10142639
        ],
        "postalCode": "M2M4M7",
        "streetName": "GREENVIEW",
        "streetDirectionId": null,
        "streetTypeId": "AVE",
        "placeName": "NORTH YORK",
        "streetNameDisplayText": "GREENVIEW AVE, NORTH YORK"
      }
    ]
  },
  {
    "postal": "M2M2G9",
    "result": [
      {
        "electoralDistricts": [
          {
            "election": null,
            "id": 117,
            "name": "Willowdale"
          }
        ],
        "pollDivisionIds": [
          10142607
        ],
        "postalCode": "M2M2G9",
        "streetName": "URBANDALE",
        "streetDirectionId": null,
        "streetTypeId": "AVE",
        "placeName": "NORTH YORK",
        "streetNameDisplayText": "URBANDALE AVE, NORTH YORK"
      }
    ]
  },
  {
    "postal": "M2M8T2",
    "result": []
  },
  {
    "postal": "M2M7G7",
    "result": []
  },
  {
    "postal": "M2M4Z3",
    "result": []
  },
  {
    "postal": "M2M5B3",
    "result": []
  },
  {
    "postal": "M2M1S7",
    "result": [
      {
        "electoralDistricts": [
          {
            "election": null,
            "id": 117,
            "name": "Willowdale"
          }
        ],
        "pollDivisionIds": [
          10142611
        ],
        "postalCode": "M2M1S7",
        "streetName": "ALTAMONT",
        "streetDirectionId": null,
        "streetTypeId": "RD",
        "placeName": "NORTH YORK",
        "streetNameDisplayText": "ALTAMONT RD, NORTH YORK"
      }
    ]
  },
  {
    "postal": "M2M2N7",
    "result": [
      {
        "electoralDistricts": [
          {
            "election": null,
            "id": 117,
            "name": "Willowdale"
          }
        ],
        "pollDivisionIds": [
          10142606
        ],
        "postalCode": "M2M2N7",
        "streetName": "NEWTON",
        "streetDirectionId": null,
        "streetTypeId": "DR",
        "placeName": "NORTH YORK",
        "streetNameDisplayText": "NEWTON DR, NORTH YORK"
      }
    ]
  },
  {
    "postal": "M2M0H8",
    "result": []
  },
  {
    "postal": "M2M7Z4",
    "result": []
  },
  {
    "postal": "M2M7B1",
    "result": []
  },
  {
    "postal": "M2M7P8",
    "result": []
  },
  {
    "postal": "M2M7N0",
    "result": []
  },
  {
    "postal": "M2M3Y5",
    "result": [
      {
        "electoralDistricts": [
          {
            "election": null,
            "id": 117,
            "name": "Willowdale"
          }
        ],
        "pollDivisionIds": [
          10142605
        ],
        "postalCode": "M2M3Y5",
        "streetName": "STEELES",
        "streetDirectionId": "E",
        "streetTypeId": "AVE",
        "placeName": "NORTH YORK",
        "streetNameDisplayText": "STEELES AVE E, NORTH YORK"
      }
    ]
  },
  {
    "postal": "M2M6K1",
    "result": []
  },
  {
    "postal": "M2M9X5",
    "result": []
  },
  {
    "postal": "M2M7S5",
    "result": []
  },
  {
    "postal": "M2M0A4",
    "result": []
  },
  {
    "postal": "M2M4T5",
    "result": []
  },
  {
    "postal": "M2M5K1",
    "result": []
  },
  {
    "postal": "M2M0Z9",
    "result": []
  },
  {
    "postal": "M2M7T2",
    "result": []
  },
  {
    "postal": "M2M1L5",
    "result": [
      {
        "electoralDistricts": [
          {
            "election": null,
            "id": 117,
            "name": "Willowdale"
          }
        ],
        "pollDivisionIds": [
          10142603
        ],
        "postalCode": "M2M1L5",
        "streetName": "GOULDING",
        "streetDirectionId": null,
        "streetTypeId": "AVE",
        "placeName": "NORTH YORK",
        "streetNameDisplayText": "GOULDING AVE, NORTH YORK"
      }
    ]
  },
  {
    "postal": "M2M3N5",
    "result": [
      {
        "electoralDistricts": [
          {
            "election": null,
            "id": 117,
            "name": "Willowdale"
          }
        ],
        "pollDivisionIds": [
          10142607
        ],
        "postalCode": "M2M3N5",
        "streetName": "CONACHER",
        "streetDirectionId": null,
        "streetTypeId": "DR",
        "placeName": "NORTH YORK",
        "streetNameDisplayText": "CONACHER DR, NORTH YORK"
      }
    ]
  },
  {
    "postal": "M2M6H4",
    "result": []
  },
  {
    "postal": "M2M5A5",
    "result": []
  },
  {
    "postal": "M2M3R9",
    "result": [
      {
        "electoralDistricts": [
          {
            "election": null,
            "id": 117,
            "name": "Willowdale"
          }
        ],
        "pollDivisionIds": [
          10142607
        ],
        "postalCode": "M2M3R9",
        "streetName": "BAYVIEW",
        "streetDirectionId": null,
        "streetTypeId": "AVE",
        "placeName": "NORTH YORK",
        "streetNameDisplayText": "BAYVIEW AVE, NORTH YORK"
      }
    ]
  },
  {
    "postal": "M2M7L8",
    "result": []
  },
  {
    "postal": "M2M6T6",
    "result": []
  },
  {
    "postal": "M2M7Y7",
    "result": []
  },
  {
    "postal": "M2M3M8",
    "result": [
      {
        "electoralDistricts": [
          {
            "election": null,
            "id": 117,
            "name": "Willowdale"
          }
        ],
        "pollDivisionIds": [
          10142607
        ],
        "postalCode": "M2M3M8",
        "streetName": "CONACHER",
        "streetDirectionId": null,
        "streetTypeId": "DR",
        "placeName": "NORTH YORK",
        "streetNameDisplayText": "CONACHER DR, NORTH YORK"
      }
    ]
  },
  {
    "postal": "M2M2E0",
    "result": []
  },
  {
    "postal": "M2M4B5",
    "result": [
      {
        "electoralDistricts": [
          {
            "election": null,
            "id": 21,
            "name": "Don Valley North"
          }
        ],
        "pollDivisionIds": [
          10137657
        ],
        "postalCode": "M2M4B5",
        "streetName": "BESTVIEW",
        "streetDirectionId": null,
        "streetTypeId": "DR",
        "placeName": "NORTH YORK",
        "streetNameDisplayText": "BESTVIEW DR, NORTH YORK"
      }
    ]
  },
  {
    "postal": "M2M1J3",
    "result": [
      {
        "electoralDistricts": [
          {
            "election": null,
            "id": 117,
            "name": "Willowdale"
          }
        ],
        "pollDivisionIds": [
          10142604
        ],
        "postalCode": "M2M1J3",
        "streetName": "PATRICIA",
        "streetDirectionId": null,
        "streetTypeId": "AVE",
        "placeName": "NORTH YORK",
        "streetNameDisplayText": "PATRICIA AVE, NORTH YORK"
      }
    ]
  },
  {
    "postal": "M2M5S6",
    "result": []
  },
  {
    "postal": "M2M8P7",
    "result": []
  },
  {
    "postal": "M2M7S7",
    "result": []
  },
  {
    "postal": "M2M4C2",
    "result": [
      {
        "electoralDistricts": [
          {
            "election": null,
            "id": 117,
            "name": "Willowdale"
          }
        ],
        "pollDivisionIds": [
          10142611
        ],
        "postalCode": "M2M4C2",
        "streetName": "HOLITA",
        "streetDirectionId": null,
        "streetTypeId": "RD",
        "placeName": "NORTH YORK",
        "streetNameDisplayText": "HOLITA RD, NORTH YORK"
      }
    ]
  },
  {
    "postal": "M2M5Y0",
    "result": []
  },
  {
    "postal": "M2M2V7",
    "result": [
      {
        "electoralDistricts": [
          {
            "election": null,
            "id": 117,
            "name": "Willowdale"
          }
        ],
        "pollDivisionIds": [
          10142605
        ],
        "postalCode": "M2M2V7",
        "streetName": "NIPIGON",
        "streetDirectionId": null,
        "streetTypeId": "AVE",
        "placeName": "NORTH YORK",
        "streetNameDisplayText": "NIPIGON AVE, NORTH YORK"
      }
    ]
  },
  {
    "postal": "M2M8P5",
    "result": []
  },
  {
    "postal": "M2M5P5",
    "result": []
  },
  {
    "postal": "M2M5Z0",
    "result": []
  },
  {
    "postal": "M2M9B0",
    "result": []
  },
  {
    "postal": "M2M1L0",
    "result": []
  },
  {
    "postal": "M2M0B5",
    "result": [
      {
        "electoralDistricts": [
          {
            "election": null,
            "id": 117,
            "name": "Willowdale"
          }
        ],
        "pollDivisionIds": [
          10142611
        ],
        "postalCode": "M2M0B5",
        "streetName": "ELDORA",
        "streetDirectionId": null,
        "streetTypeId": "AVE",
        "placeName": "NORTH YORK",
        "streetNameDisplayText": "ELDORA AVE, NORTH YORK"
      }
    ]
  },
  {
    "postal": "M2M3L2",
    "result": [
      {
        "electoralDistricts": [
          {
            "election": null,
            "id": 117,
            "name": "Willowdale"
          }
        ],
        "pollDivisionIds": [
          10142606
        ],
        "postalCode": "M2M3L2",
        "streetName": "MAXOME",
        "streetDirectionId": null,
        "streetTypeId": "AVE",
        "placeName": "NORTH YORK",
        "streetNameDisplayText": "MAXOME AVE, NORTH YORK"
      }
    ]
  },
  {
    "postal": "M2M3B7",
    "result": [
      {
        "electoralDistricts": [
          {
            "election": null,
            "id": 117,
            "name": "Willowdale"
          }
        ],
        "pollDivisionIds": [
          10142605
        ],
        "postalCode": "M2M3B7",
        "streetName": "DUMONT",
        "streetDirectionId": null,
        "streetTypeId": "ST",
        "placeName": "NORTH YORK",
        "streetNameDisplayText": "DUMONT ST, NORTH YORK"
      }
    ]
  },
  {
    "postal": "M2M8L1",
    "result": []
  },
  {
    "postal": "M2M5M4",
    "result": []
  },
  {
    "postal": "M2M4G9",
    "result": [
      {
        "electoralDistricts": [
          {
            "election": null,
            "id": 117,
            "name": "Willowdale"
          }
        ],
        "pollDivisionIds": [
          10142609
        ],
        "postalCode": "M2M4G9",
        "streetName": "GUSTAV",
        "streetDirectionId": null,
        "streetTypeId": "CRES",
        "placeName": "NORTH YORK",
        "streetNameDisplayText": "GUSTAV CRES, NORTH YORK"
      }
    ]
  },
  {
    "postal": "M2M0P0",
    "result": []
  },
  {
    "postal": "M2M8G2",
    "result": []
  },
  {
    "postal": "M2M1V9",
    "result": [
      {
        "electoralDistricts": [
          {
            "election": null,
            "id": 117,
            "name": "Willowdale"
          }
        ],
        "pollDivisionIds": [
          10142603
        ],
        "postalCode": "M2M1V9",
        "streetName": "HILDA",
        "streetDirectionId": null,
        "streetTypeId": "AVE",
        "placeName": "NORTH YORK",
        "streetNameDisplayText": "HILDA AVE, NORTH YORK"
      }
    ]
  },
  {
    "postal": "M2M8N8",
    "result": []
  },
  {
    "postal": "M2M6S8",
    "result": []
  },
  {
    "postal": "M2M8H2",
    "result": []
  },
  {
    "postal": "M2M5R8",
    "result": []
  },
  {
    "postal": "M2M5L4",
    "result": []
  },
  {
    "postal": "M2M9E1",
    "result": []
  },
  {
    "postal": "M2M1C4",
    "result": [
      {
        "electoralDistricts": [
          {
            "election": null,
            "id": 117,
            "name": "Willowdale"
          }
        ],
        "pollDivisionIds": [
          10142604
        ],
        "postalCode": "M2M1C4",
        "streetName": "TEFLEY",
        "streetDirectionId": null,
        "streetTypeId": "RD",
        "placeName": "NORTH YORK",
        "streetNameDisplayText": "TEFLEY RD, NORTH YORK"
      }
    ]
  },
  {
    "postal": "M2M8W5",
    "result": []
  },
  {
    "postal": "M2M1Y4",
    "result": [
      {
        "electoralDistricts": [
          {
            "election": null,
            "id": 117,
            "name": "Willowdale"
          }
        ],
        "pollDivisionIds": [
          10142608
        ],
        "postalCode": "M2M1Y4",
        "streetName": "PEMBERTON",
        "streetDirectionId": null,
        "streetTypeId": "AVE",
        "placeName": "NORTH YORK",
        "streetNameDisplayText": "PEMBERTON AVE, NORTH YORK"
      }
    ]
  },
  {
    "postal": "M2M1C0",
    "result": []
  },
  {
    "postal": "M2M2J2",
    "result": [
      {
        "electoralDistricts": [
          {
            "election": null,
            "id": 117,
            "name": "Willowdale"
          }
        ],
        "pollDivisionIds": [
          10142607
        ],
        "postalCode": "M2M2J2",
        "streetName": "RUTH",
        "streetDirectionId": null,
        "streetTypeId": "AVE",
        "placeName": "NORTH YORK",
        "streetNameDisplayText": "RUTH AVE, NORTH YORK"
      }
    ]
  },
  {
    "postal": "M2M2J0",
    "result": []
  },
  {
    "postal": "M2M7A3",
    "result": []
  },
  {
    "postal": "M2M8M1",
    "result": []
  },
  {
    "postal": "M2M7T9",
    "result": []
  },
  {
    "postal": "M2M6C0",
    "result": []
  },
  {
    "postal": "M2M7X1",
    "result": []
  },
  {
    "postal": "M2M0G1",
    "result": []
  },
  {
    "postal": "M2M4X2",
    "result": []
  },
  {
    "postal": "M2M0N6",
    "result": []
  },
  {
    "postal": "M2M8E3",
    "result": []
  },
  {
    "postal": "M2M5S8",
    "result": []
  },
  {
    "postal": "M2M0R0",
    "result": []
  },
  {
    "postal": "M2M6J6",
    "result": []
  },
  {
    "postal": "M2M4B4",
    "result": [
      {
        "electoralDistricts": [
          {
            "election": null,
            "id": 21,
            "name": "Don Valley North"
          }
        ],
        "pollDivisionIds": [
          10137657
        ],
        "postalCode": "M2M4B4",
        "streetName": "CARMEL",
        "streetDirectionId": null,
        "streetTypeId": "CRT",
        "placeName": "NORTH YORK",
        "streetNameDisplayText": "CARMEL CRT, NORTH YORK"
      }
    ]
  },
  {
    "postal": "M2M7E3",
    "result": []
  },
  {
    "postal": "M2M3N6",
    "result": [
      {
        "electoralDistricts": [
          {
            "election": null,
            "id": 117,
            "name": "Willowdale"
          }
        ],
        "pollDivisionIds": [
          10142607
        ],
        "postalCode": "M2M3N6",
        "streetName": "CONACHER",
        "streetDirectionId": null,
        "streetTypeId": "DR",
        "placeName": "NORTH YORK",
        "streetNameDisplayText": "CONACHER DR, NORTH YORK"
      }
    ]
  },
  {
    "postal": "M2M3X6",
    "result": [
      {
        "electoralDistricts": [
          {
            "election": null,
            "id": 117,
            "name": "Willowdale"
          }
        ],
        "pollDivisionIds": [
          10142605
        ],
        "postalCode": "M2M3X6",
        "streetName": "YONGE",
        "streetDirectionId": null,
        "streetTypeId": "ST",
        "placeName": "NORTH YORK",
        "streetNameDisplayText": "YONGE ST, NORTH YORK"
      }
    ]
  },
  {
    "postal": "M2M8L0",
    "result": []
  },
  {
    "postal": "M2M8N1",
    "result": []
  },
  {
    "postal": "M2M4J0",
    "result": []
  },
  {
    "postal": "M2M0X7",
    "result": []
  },
  {
    "postal": "M2M6S4",
    "result": []
  },
  {
    "postal": "M2M0Z0",
    "result": []
  },
  {
    "postal": "M2M9X8",
    "result": []
  },
  {
    "postal": "M2M3H3",
    "result": [
      {
        "electoralDistricts": [
          {
            "election": null,
            "id": 117,
            "name": "Willowdale"
          }
        ],
        "pollDivisionIds": [
          10142606
        ],
        "postalCode": "M2M3H3",
        "streetName": "MONTFORD",
        "streetDirectionId": null,
        "streetTypeId": "DR",
        "placeName": "NORTH YORK",
        "streetNameDisplayText": "MONTFORD DR, NORTH YORK"
      }
    ]
  },
  {
    "postal": "M2M7S2",
    "result": []
  },
  {
    "postal": "M2M3T3",
    "result": [
      {
        "electoralDistricts": [
          {
            "election": null,
            "id": 117,
            "name": "Willowdale"
          }
        ],
        "pollDivisionIds": [
          10142604
        ],
        "postalCode": "M2M3T3",
        "streetName": "YONGE",
        "streetDirectionId": null,
        "streetTypeId": "ST",
        "placeName": "NORTH YORK",
        "streetNameDisplayText": "YONGE ST, NORTH YORK"
      }
    ]
  },
  {
    "postal": "M2M9P3",
    "result": []
  },
  {
    "postal": "M2M4H8",
    "result": [
      {
        "electoralDistricts": [
          {
            "election": null,
            "id": 117,
            "name": "Willowdale"
          }
        ],
        "pollDivisionIds": [
          10142609
        ],
        "postalCode": "M2M4H8",
        "streetName": "LAREDO",
        "streetDirectionId": null,
        "streetTypeId": "CRT",
        "placeName": "NORTH YORK",
        "streetNameDisplayText": "LAREDO CRT, NORTH YORK"
      }
    ]
  },
  {
    "postal": "M2M6R1",
    "result": []
  },
  {
    "postal": "M2M1S0",
    "result": []
  },
  {
    "postal": "M2M3W8",
    "result": [
      {
        "electoralDistricts": [
          {
            "election": null,
            "id": 117,
            "name": "Willowdale"
          }
        ],
        "pollDivisionIds": [
          10142605
        ],
        "postalCode": "M2M3W8",
        "streetName": "YONGE",
        "streetDirectionId": null,
        "streetTypeId": "ST",
        "placeName": "NORTH YORK",
        "streetNameDisplayText": "YONGE ST, NORTH YORK"
      }
    ]
  },
  {
    "postal": "M2M4S3",
    "result": []
  },
  {
    "postal": "M2M1B6",
    "result": [
      {
        "electoralDistricts": [
          {
            "election": null,
            "id": 117,
            "name": "Willowdale"
          }
        ],
        "pollDivisionIds": [
          10142611
        ],
        "postalCode": "M2M1B6",
        "streetName": "BLAKE",
        "streetDirectionId": null,
        "streetTypeId": "AVE",
        "placeName": "NORTH YORK",
        "streetNameDisplayText": "BLAKE AVE, NORTH YORK"
      }
    ]
  },
  {
    "postal": "M2M8R3",
    "result": []
  },
  {
    "postal": "M2M4V9",
    "result": []
  },
  {
    "postal": "M2M9W4",
    "result": []
  },
  {
    "postal": "M2M3T4",
    "result": []
  },
  {
    "postal": "M2M5C7",
    "result": []
  },
  {
    "postal": "M2M3Y1",
    "result": [
      {
        "electoralDistricts": [
          {
            "election": null,
            "id": 117,
            "name": "Willowdale"
          }
        ],
        "pollDivisionIds": [
          10142603
        ],
        "postalCode": "M2M3Y1",
        "streetName": "STEELES",
        "streetDirectionId": "W",
        "streetTypeId": "AVE",
        "placeName": "NORTH YORK",
        "streetNameDisplayText": "STEELES AVE W, NORTH YORK"
      }
    ]
  },
  {
    "postal": "M2M5V0",
    "result": []
  },
  {
    "postal": "M2M8G8",
    "result": []
  },
  {
    "postal": "M2M8B1",
    "result": []
  },
  {
    "postal": "M2M4P5",
    "result": []
  },
  {
    "postal": "M2M7B2",
    "result": []
  },
  {
    "postal": "M2M0R2",
    "result": []
  },
  {
    "postal": "M2M4M4",
    "result": [
      {
        "electoralDistricts": [
          {
            "election": null,
            "id": 117,
            "name": "Willowdale"
          }
        ],
        "pollDivisionIds": [
          10142611
        ],
        "postalCode": "M2M4M4",
        "streetName": "ENGLISH GARDEN",
        "streetDirectionId": null,
        "streetTypeId": "WAY",
        "placeName": "NORTH YORK",
        "streetNameDisplayText": "ENGLISH GARDEN WAY, NORTH YORK"
      }
    ]
  },
  {
    "postal": "M2M7M4",
    "result": []
  },
  {
    "postal": "M2M9S7",
    "result": []
  },
  {
    "postal": "M2M5Z7",
    "result": []
  },
  {
    "postal": "M2M7J7",
    "result": []
  },
  {
    "postal": "M2M8R8",
    "result": []
  },
  {
    "postal": "M2M9X1",
    "result": []
  },
  {
    "postal": "M2M5M9",
    "result": []
  },
  {
    "postal": "M2M9B4",
    "result": []
  },
  {
    "postal": "M2M0L9",
    "result": []
  },
  {
    "postal": "M2M9G4",
    "result": []
  },
  {
    "postal": "M2M1J4",
    "result": [
      {
        "electoralDistricts": [
          {
            "election": null,
            "id": 117,
            "name": "Willowdale"
          }
        ],
        "pollDivisionIds": [
          10142603
        ],
        "postalCode": "M2M1J4",
        "streetName": "PATRICIA",
        "streetDirectionId": null,
        "streetTypeId": "AVE",
        "placeName": "NORTH YORK",
        "streetNameDisplayText": "PATRICIA AVE, NORTH YORK"
      }
    ]
  },
  {
    "postal": "M2M0W6",
    "result": []
  }
]
