[
  {
    "postal": "M4G9J6",
    "result": []
  },
  {
    "postal": "M4G9Z5",
    "result": []
  },
  {
    "postal": "M4G7H8",
    "result": []
  },
  {
    "postal": "M4G0P6",
    "result": []
  },
  {
    "postal": "M4G0S7",
    "result": []
  },
  {
    "postal": "M4G8B9",
    "result": []
  },
  {
    "postal": "M4G2A6",
    "result": [
      {
        "electoralDistricts": [
          {
            "election": null,
            "id": 22,
            "name": "Don Valley West"
          }
        ],
        "pollDivisionIds": [
          10137760
        ],
        "postalCode": "M4G2A6",
        "streetName": "SHARRON",
        "streetDirectionId": null,
        "streetTypeId": "DR",
        "placeName": "EAST YORK",
        "streetNameDisplayText": "SHARRON DR, EAST YORK"
      }
    ]
  },
  {
    "postal": "M4G7V2",
    "result": []
  },
  {
    "postal": "M4G9P4",
    "result": []
  },
  {
    "postal": "M4G6G0",
    "result": []
  },
  {
    "postal": "M4G2K0",
    "result": []
  },
  {
    "postal": "M4G7N6",
    "result": []
  },
  {
    "postal": "M4G5R3",
    "result": []
  },
  {
    "postal": "M4G7K0",
    "result": []
  },
  {
    "postal": "M4G3R2",
    "result": [
      {
        "electoralDistricts": [
          {
            "election": null,
            "id": 22,
            "name": "Don Valley West"
          }
        ],
        "pollDivisionIds": [
          10137754
        ],
        "postalCode": "M4G3R2",
        "streetName": "BEAUFIELD",
        "streetDirectionId": null,
        "streetTypeId": "AVE",
        "placeName": "EAST YORK",
        "streetNameDisplayText": "BEAUFIELD AVE, EAST YORK"
      }
    ]
  },
  {
    "postal": "M4G0J1",
    "result": []
  },
  {
    "postal": "M4G0B0",
    "result": []
  },
  {
    "postal": "M4G5Z2",
    "result": []
  },
  {
    "postal": "M4G7P3",
    "result": []
  },
  {
    "postal": "M4G2K3",
    "result": [
      {
        "electoralDistricts": [
          {
            "election": null,
            "id": 22,
            "name": "Don Valley West"
          }
        ],
        "pollDivisionIds": [
          10137760
        ],
        "postalCode": "M4G2K3",
        "streetName": "EGLINTON",
        "streetDirectionId": "E",
        "streetTypeId": "AVE",
        "placeName": "EAST YORK",
        "streetNameDisplayText": "EGLINTON AVE E, EAST YORK"
      }
    ]
  },
  {
    "postal": "M4G7Y6",
    "result": []
  },
  {
    "postal": "M4G1L9",
    "result": [
      {
        "electoralDistricts": [
          {
            "election": null,
            "id": 22,
            "name": "Don Valley West"
          }
        ],
        "pollDivisionIds": [
          10137761
        ],
        "postalCode": "M4G1L9",
        "streetName": "AIRDRIE",
        "streetDirectionId": null,
        "streetTypeId": "RD",
        "placeName": "EAST YORK",
        "streetNameDisplayText": "AIRDRIE RD, EAST YORK"
      }
    ]
  },
  {
    "postal": "M4G8T0",
    "result": []
  },
  {
    "postal": "M4G3K8",
    "result": [
      {
        "electoralDistricts": [
          {
            "election": null,
            "id": 22,
            "name": "Don Valley West"
          }
        ],
        "pollDivisionIds": [
          10137755
        ],
        "postalCode": "M4G3K8",
        "streetName": "BESSBOROUGH",
        "streetDirectionId": null,
        "streetTypeId": "DR",
        "placeName": "EAST YORK",
        "streetNameDisplayText": "BESSBOROUGH DR, EAST YORK"
      }
    ]
  },
  {
    "postal": "M4G5W9",
    "result": []
  },
  {
    "postal": "M4G6T9",
    "result": []
  },
  {
    "postal": "M4G4H1",
    "result": [
      {
        "electoralDistricts": [
          {
            "election": null,
            "id": 22,
            "name": "Don Valley West"
          }
        ],
        "pollDivisionIds": [
          10137756
        ],
        "postalCode": "M4G4H1",
        "streetName": "RANDOLPH",
        "streetDirectionId": null,
        "streetTypeId": "RD",
        "placeName": "EAST YORK",
        "streetNameDisplayText": "RANDOLPH RD, EAST YORK"
      }
    ]
  },
  {
    "postal": "M4G7A2",
    "result": []
  },
  {
    "postal": "M4G5G0",
    "result": []
  },
  {
    "postal": "M4G8V5",
    "result": []
  },
  {
    "postal": "M4G2Y8",
    "result": [
      {
        "electoralDistricts": [
          {
            "election": null,
            "id": 22,
            "name": "Don Valley West"
          }
        ],
        "pollDivisionIds": [
          10137769
        ],
        "postalCode": "M4G2Y8",
        "streetName": "BAYVIEW HEIGHTS",
        "streetDirectionId": null,
        "streetTypeId": "DR",
        "placeName": "EAST YORK",
        "streetNameDisplayText": "BAYVIEW HEIGHTS DR, EAST YORK"
      }
    ]
  },
  {
    "postal": "M4G2B6",
    "result": [
      {
        "electoralDistricts": [
          {
            "election": null,
            "id": 22,
            "name": "Don Valley West"
          }
        ],
        "pollDivisionIds": [
          10137761
        ],
        "postalCode": "M4G2B6",
        "streetName": "WICKSTEED",
        "streetDirectionId": null,
        "streetTypeId": "AVE",
        "placeName": "EAST YORK",
        "streetNameDisplayText": "WICKSTEED AVE, EAST YORK"
      }
    ]
  },
  {
    "postal": "M4G4W8",
    "result": []
  },
  {
    "postal": "M4G8H7",
    "result": []
  },
  {
    "postal": "M4G5P1",
    "result": []
  },
  {
    "postal": "M4G2B8",
    "result": []
  },
  {
    "postal": "M4G0P2",
    "result": []
  },
  {
    "postal": "M4G9M1",
    "result": []
  },
  {
    "postal": "M4G3G0",
    "result": []
  },
  {
    "postal": "M4G9Z2",
    "result": []
  },
  {
    "postal": "M4G2A0",
    "result": []
  },
  {
    "postal": "M4G6Y0",
    "result": []
  },
  {
    "postal": "M4G2Z8",
    "result": [
      {
        "electoralDistricts": [
          {
            "election": null,
            "id": 22,
            "name": "Don Valley West"
          }
        ],
        "pollDivisionIds": [
          10137761
        ],
        "postalCode": "M4G2Z8",
        "streetName": "BAYVIEW",
        "streetDirectionId": null,
        "streetTypeId": "AVE",
        "placeName": "TORONTO",
        "streetNameDisplayText": "BAYVIEW AVE, TORONTO"
      }
    ]
  },
  {
    "postal": "M4G7Y3",
    "result": []
  },
  {
    "postal": "M4G6Z5",
    "result": []
  },
  {
    "postal": "M4G6E0",
    "result": []
  },
  {
    "postal": "M4G9B7",
    "result": []
  },
  {
    "postal": "M4G9S5",
    "result": []
  },
  {
    "postal": "M4G3X3",
    "result": [
      {
        "electoralDistricts": [
          {
            "election": null,
            "id": 22,
            "name": "Don Valley West"
          }
        ],
        "pollDivisionIds": [
          10137755
        ],
        "postalCode": "M4G3X3",
        "streetName": "LAIRD",
        "streetDirectionId": null,
        "streetTypeId": "DR",
        "placeName": "EAST YORK",
        "streetNameDisplayText": "LAIRD DR, EAST YORK"
      }
    ]
  },
  {
    "postal": "M4G7R5",
    "result": []
  },
  {
    "postal": "M4G2X3",
    "result": [
      {
        "electoralDistricts": [
          {
            "election": null,
            "id": 22,
            "name": "Don Valley West"
          }
        ],
        "pollDivisionIds": [
          10137768
        ],
        "postalCode": "M4G2X3",
        "streetName": "LUMLEY",
        "streetDirectionId": null,
        "streetTypeId": "AVE",
        "placeName": "EAST YORK",
        "streetNameDisplayText": "LUMLEY AVE, EAST YORK"
      }
    ]
  },
  {
    "postal": "M4G8Z9",
    "result": []
  },
  {
    "postal": "M4G0N4",
    "result": []
  },
  {
    "postal": "M4G1K1",
    "result": [
      {
        "electoralDistricts": [
          {
            "election": null,
            "id": 22,
            "name": "Don Valley West"
          }
        ],
        "pollDivisionIds": [
          10137756
        ],
        "postalCode": "M4G1K1",
        "streetName": "SUTHERLAND",
        "streetDirectionId": null,
        "streetTypeId": "DR",
        "placeName": "EAST YORK",
        "streetNameDisplayText": "SUTHERLAND DR, EAST YORK"
      }
    ]
  },
  {
    "postal": "M4G1S3",
    "result": [
      {
        "electoralDistricts": [
          {
            "election": null,
            "id": 22,
            "name": "Don Valley West"
          }
        ],
        "pollDivisionIds": [
          10137761
        ],
        "postalCode": "M4G1S3",
        "streetName": "MCRAE",
        "streetDirectionId": null,
        "streetTypeId": "DR",
        "placeName": "EAST YORK",
        "streetNameDisplayText": "MCRAE DR, EAST YORK"
      }
    ]
  },
  {
    "postal": "M4G6M4",
    "result": []
  },
  {
    "postal": "M4G9A9",
    "result": []
  },
  {
    "postal": "M4G9Z9",
    "result": []
  },
  {
    "postal": "M4G6T4",
    "result": []
  },
  {
    "postal": "M4G0B2",
    "result": []
  },
  {
    "postal": "M4G2L9",
    "result": [
      {
        "electoralDistricts": [
          {
            "election": null,
            "id": 22,
            "name": "Don Valley West"
          }
        ],
        "pollDivisionIds": [
          10137757
        ],
        "postalCode": "M4G2L9",
        "streetName": "EGLINTON",
        "streetDirectionId": "E",
        "streetTypeId": "AVE",
        "placeName": "EAST YORK",
        "streetNameDisplayText": "EGLINTON AVE E, EAST YORK"
      }
    ]
  },
  {
    "postal": "M4G8K9",
    "result": []
  },
  {
    "postal": "M4G2H9",
    "result": []
  },
  {
    "postal": "M4G3Z6",
    "result": []
  },
  {
    "postal": "M4G3B0",
    "result": []
  },
  {
    "postal": "M4G2H8",
    "result": []
  },
  {
    "postal": "M4G3X2",
    "result": [
      {
        "electoralDistricts": [
          {
            "election": null,
            "id": 22,
            "name": "Don Valley West"
          }
        ],
        "pollDivisionIds": [
          10137756
        ],
        "postalCode": "M4G3X2",
        "streetName": "LAIRD",
        "streetDirectionId": null,
        "streetTypeId": "DR",
        "placeName": "EAST YORK",
        "streetNameDisplayText": "LAIRD DR, EAST YORK"
      }
    ]
  },
  {
    "postal": "M4G2E9",
    "result": [
      {
        "electoralDistricts": [
          {
            "election": null,
            "id": 22,
            "name": "Don Valley West"
          }
        ],
        "pollDivisionIds": [
          10137756
        ],
        "postalCode": "M4G2E9",
        "streetName": "PARKHURST",
        "streetDirectionId": null,
        "streetTypeId": "BLVD",
        "placeName": "EAST YORK",
        "streetNameDisplayText": "PARKHURST BLVD, EAST YORK"
      }
    ]
  },
  {
    "postal": "M4G9P6",
    "result": []
  },
  {
    "postal": "M4G9E2",
    "result": []
  },
  {
    "postal": "M4G9H2",
    "result": []
  },
  {
    "postal": "M4G1S8",
    "result": [
      {
        "electoralDistricts": [
          {
            "election": null,
            "id": 22,
            "name": "Don Valley West"
          }
        ],
        "pollDivisionIds": [
          10137756
        ],
        "postalCode": "M4G1S8",
        "streetName": "MCRAE",
        "streetDirectionId": null,
        "streetTypeId": "DR",
        "placeName": "EAST YORK",
        "streetNameDisplayText": "MCRAE DR, EAST YORK"
      }
    ]
  },
  {
    "postal": "M4G3M6",
    "result": [
      {
        "electoralDistricts": [
          {
            "election": null,
            "id": 22,
            "name": "Don Valley West"
          }
        ],
        "pollDivisionIds": [
          10137761
        ],
        "postalCode": "M4G3M6",
        "streetName": "ROLPH",
        "streetDirectionId": null,
        "streetTypeId": "RD",
        "placeName": "EAST YORK",
        "streetNameDisplayText": "ROLPH RD, EAST YORK"
      }
    ]
  },
  {
    "postal": "M4G6Z8",
    "result": []
  },
  {
    "postal": "M4G4J2",
    "result": [
      {
        "electoralDistricts": [
          {
            "election": null,
            "id": 22,
            "name": "Don Valley West"
          }
        ],
        "pollDivisionIds": [
          10137757
        ],
        "postalCode": "M4G4J2",
        "streetName": "AERODROME",
        "streetDirectionId": null,
        "streetTypeId": "CRES",
        "placeName": "EAST YORK",
        "streetNameDisplayText": "AERODROME CRES, EAST YORK"
      }
    ]
  },
  {
    "postal": "M4G9Y1",
    "result": []
  },
  {
    "postal": "M4G8V6",
    "result": []
  },
  {
    "postal": "M4G6B2",
    "result": []
  },
  {
    "postal": "M4G1P8",
    "result": [
      {
        "electoralDistricts": [
          {
            "election": null,
            "id": 22,
            "name": "Don Valley West"
          }
        ],
        "pollDivisionIds": [
          10137760
        ],
        "postalCode": "M4G1P8",
        "streetName": "RUMSEY",
        "streetDirectionId": null,
        "streetTypeId": "RD",
        "placeName": "EAST YORK",
        "streetNameDisplayText": "RUMSEY RD, EAST YORK"
      }
    ]
  },
  {
    "postal": "M4G0V8",
    "result": []
  },
  {
    "postal": "M4G4Y0",
    "result": []
  },
  {
    "postal": "M4G2T4",
    "result": [
      {
        "electoralDistricts": [
          {
            "election": null,
            "id": 22,
            "name": "Don Valley West"
          }
        ],
        "pollDivisionIds": [
          10137757
        ],
        "postalCode": "M4G2T4",
        "streetName": "RYKERT",
        "streetDirectionId": null,
        "streetTypeId": "CRES",
        "placeName": "EAST YORK",
        "streetNameDisplayText": "RYKERT CRES, EAST YORK"
      }
    ]
  },
  {
    "postal": "M4G2S3",
    "result": [
      {
        "electoralDistricts": [
          {
            "election": null,
            "id": 22,
            "name": "Don Valley West"
          }
        ],
        "pollDivisionIds": [
          10137754
        ],
        "postalCode": "M4G2S3",
        "streetName": "BROADWAY",
        "streetDirectionId": null,
        "streetTypeId": "AVE",
        "placeName": "EAST YORK",
        "streetNameDisplayText": "BROADWAY AVE, EAST YORK"
      }
    ]
  },
  {
    "postal": "M4G0K0",
    "result": []
  },
  {
    "postal": "M4G5N1",
    "result": []
  },
  {
    "postal": "M4G7T0",
    "result": []
  },
  {
    "postal": "M4G9N2",
    "result": []
  },
  {
    "postal": "M4G5L1",
    "result": []
  },
  {
    "postal": "M4G7G5",
    "result": []
  },
  {
    "postal": "M4G6K2",
    "result": []
  },
  {
    "postal": "M4G6P9",
    "result": []
  },
  {
    "postal": "M4G0E6",
    "result": []
  },
  {
    "postal": "M4G8R9",
    "result": []
  },
  {
    "postal": "M4G3G9",
    "result": [
      {
        "electoralDistricts": [
          {
            "election": null,
            "id": 22,
            "name": "Don Valley West"
          }
        ],
        "pollDivisionIds": [
          10137760
        ],
        "postalCode": "M4G3G9",
        "streetName": "DONEGALL",
        "streetDirectionId": null,
        "streetTypeId": "DR",
        "placeName": "EAST YORK",
        "streetNameDisplayText": "DONEGALL DR, EAST YORK"
      }
    ]
  },
  {
    "postal": "M4G0V7",
    "result": []
  },
  {
    "postal": "M4G2Z1",
    "result": [
      {
        "electoralDistricts": [
          {
            "election": null,
            "id": 22,
            "name": "Don Valley West"
          }
        ],
        "pollDivisionIds": [
          10137769
        ],
        "postalCode": "M4G2Z1",
        "streetName": "BAYVIEW HEIGHTS",
        "streetDirectionId": null,
        "streetTypeId": "DR",
        "placeName": "EAST YORK",
        "streetNameDisplayText": "BAYVIEW HEIGHTS DR, EAST YORK"
      }
    ]
  },
  {
    "postal": "M4G7N1",
    "result": []
  },
  {
    "postal": "M4G3C6",
    "result": [
      {
        "electoralDistricts": [
          {
            "election": null,
            "id": 22,
            "name": "Don Valley West"
          }
        ],
        "pollDivisionIds": [
          10137753
        ],
        "postalCode": "M4G3C6",
        "streetName": "BAYVIEW",
        "streetDirectionId": null,
        "streetTypeId": "AVE",
        "placeName": "TORONTO",
        "streetNameDisplayText": "BAYVIEW AVE, TORONTO"
      }
    ]
  },
  {
    "postal": "M4G4M1",
    "result": []
  },
  {
    "postal": "M4G9K2",
    "result": []
  },
  {
    "postal": "M4G9S6",
    "result": []
  },
  {
    "postal": "M4G4X1",
    "result": []
  },
  {
    "postal": "M4G8W2",
    "result": []
  },
  {
    "postal": "M4G7N2",
    "result": []
  },
  {
    "postal": "M4G8S3",
    "result": []
  },
  {
    "postal": "M4G4V0",
    "result": []
  },
  {
    "postal": "M4G6W4",
    "result": []
  },
  {
    "postal": "M4G5M1",
    "result": []
  },
  {
    "postal": "M4G0S4",
    "result": []
  },
  {
    "postal": "M4G5X6",
    "result": []
  },
  {
    "postal": "M4G8L5",
    "result": []
  },
  {
    "postal": "M4G5M8",
    "result": []
  },
  {
    "postal": "M4G2G3",
    "result": [
      {
        "electoralDistricts": [
          {
            "election": null,
            "id": 22,
            "name": "Don Valley West"
          }
        ],
        "pollDivisionIds": [
          10137756
        ],
        "postalCode": "M4G2G3",
        "streetName": "PARKHURST",
        "streetDirectionId": null,
        "streetTypeId": "BLVD",
        "placeName": "EAST YORK",
        "streetNameDisplayText": "PARKHURST BLVD, EAST YORK"
      }
    ]
  },
  {
    "postal": "M4G8E4",
    "result": []
  },
  {
    "postal": "M4G7S9",
    "result": []
  },
  {
    "postal": "M4G1K3",
    "result": [
      {
        "electoralDistricts": [
          {
            "election": null,
            "id": 22,
            "name": "Don Valley West"
          }
        ],
        "pollDivisionIds": [
          10137756
        ],
        "postalCode": "M4G1K3",
        "streetName": "SUTHERLAND",
        "streetDirectionId": null,
        "streetTypeId": "DR",
        "placeName": "EAST YORK",
        "streetNameDisplayText": "SUTHERLAND DR, EAST YORK"
      }
    ]
  },
  {
    "postal": "M4G4E1",
    "result": []
  },
  {
    "postal": "M4G4R2",
    "result": []
  },
  {
    "postal": "M4G6T0",
    "result": []
  },
  {
    "postal": "M4G3K5",
    "result": [
      {
        "electoralDistricts": [
          {
            "election": null,
            "id": 22,
            "name": "Don Valley West"
          }
        ],
        "pollDivisionIds": [
          10137760
        ],
        "postalCode": "M4G3K5",
        "streetName": "BESSBOROUGH",
        "streetDirectionId": null,
        "streetTypeId": "DR",
        "placeName": "EAST YORK",
        "streetNameDisplayText": "BESSBOROUGH DR, EAST YORK"
      }
    ]
  },
  {
    "postal": "M4G3S3",
    "result": [
      {
        "electoralDistricts": [
          {
            "election": null,
            "id": 22,
            "name": "Don Valley West"
          }
        ],
        "pollDivisionIds": [
          10137761
        ],
        "postalCode": "M4G3S3",
        "streetName": "RANDOLPH",
        "streetDirectionId": null,
        "streetTypeId": "RD",
        "placeName": "EAST YORK",
        "streetNameDisplayText": "RANDOLPH RD, EAST YORK"
      }
    ]
  },
  {
    "postal": "M4G3L4",
    "result": [
      {
        "electoralDistricts": [
          {
            "election": null,
            "id": 22,
            "name": "Don Valley West"
          }
        ],
        "pollDivisionIds": [
          10137754
        ],
        "postalCode": "M4G3L4",
        "streetName": "BESSBOROUGH",
        "streetDirectionId": null,
        "streetTypeId": "DR",
        "placeName": "EAST YORK",
        "streetNameDisplayText": "BESSBOROUGH DR, EAST YORK"
      }
    ]
  },
  {
    "postal": "M4G9Y2",
    "result": []
  },
  {
    "postal": "M4G1E0",
    "result": []
  },
  {
    "postal": "M4G9A4",
    "result": []
  },
  {
    "postal": "M4G1L3",
    "result": [
      {
        "electoralDistricts": [
          {
            "election": null,
            "id": 22,
            "name": "Don Valley West"
          }
        ],
        "pollDivisionIds": [
          10137761
        ],
        "postalCode": "M4G1L3",
        "streetName": "CANVARCO",
        "streetDirectionId": null,
        "streetTypeId": "RD",
        "placeName": "EAST YORK",
        "streetNameDisplayText": "CANVARCO RD, EAST YORK"
      }
    ]
  },
  {
    "postal": "M4G6N1",
    "result": []
  },
  {
    "postal": "M4G6G7",
    "result": []
  },
  {
    "postal": "M4G7W1",
    "result": []
  },
  {
    "postal": "M4G4M6",
    "result": []
  },
  {
    "postal": "M4G1K0",
    "result": []
  },
  {
    "postal": "M4G3E2",
    "result": [
      {
        "electoralDistricts": [
          {
            "election": null,
            "id": 22,
            "name": "Don Valley West"
          }
        ],
        "pollDivisionIds": [
          10137755
        ],
        "postalCode": "M4G3E2",
        "streetName": "BAYVIEW",
        "streetDirectionId": null,
        "streetTypeId": "AVE",
        "placeName": "EAST YORK",
        "streetNameDisplayText": "BAYVIEW AVE, EAST YORK"
      }
    ]
  },
  {
    "postal": "M4G5H4",
    "result": []
  },
  {
    "postal": "M4G1K7",
    "result": [
      {
        "electoralDistricts": [
          {
            "election": null,
            "id": 22,
            "name": "Don Valley West"
          }
        ],
        "pollDivisionIds": [
          10137755
        ],
        "postalCode": "M4G1K7",
        "streetName": "SUTHERLAND",
        "streetDirectionId": null,
        "streetTypeId": "DR",
        "placeName": "EAST YORK",
        "streetNameDisplayText": "SUTHERLAND DR, EAST YORK"
      }
    ]
  },
  {
    "postal": "M4G0H0",
    "result": []
  },
  {
    "postal": "M4G0J3",
    "result": []
  },
  {
    "postal": "M4G1X6",
    "result": [
      {
        "electoralDistricts": [
          {
            "election": null,
            "id": 22,
            "name": "Don Valley West"
          }
        ],
        "pollDivisionIds": [
          10137761
        ],
        "postalCode": "M4G1X6",
        "streetName": "MILLWOOD",
        "streetDirectionId": null,
        "streetTypeId": "RD",
        "placeName": "EAST YORK",
        "streetNameDisplayText": "MILLWOOD RD, EAST YORK"
      },
      {
        "electoralDistricts": [
          {
            "election": null,
            "id": 22,
            "name": "Don Valley West"
          }
        ],
        "pollDivisionIds": [
          10137761
        ],
        "postalCode": "M4G1X6",
        "streetName": "MILLWOOD",
        "streetDirectionId": null,
        "streetTypeId": "RD",
        "placeName": "TORONTO",
        "streetNameDisplayText": "MILLWOOD RD, TORONTO"
      }
    ]
  },
  {
    "postal": "M4G2Z6",
    "result": [
      {
        "electoralDistricts": [
          {
            "election": null,
            "id": 22,
            "name": "Don Valley West"
          }
        ],
        "pollDivisionIds": [
          10137768
        ],
        "postalCode": "M4G2Z6",
        "streetName": "BAYVIEW",
        "streetDirectionId": null,
        "streetTypeId": "AVE",
        "placeName": "EAST YORK",
        "streetNameDisplayText": "BAYVIEW AVE, EAST YORK"
      }
    ]
  },
  {
    "postal": "M4G4R9",
    "result": []
  },
  {
    "postal": "M4G0W8",
    "result": []
  },
  {
    "postal": "M4G1L4",
    "result": [
      {
        "electoralDistricts": [
          {
            "election": null,
            "id": 22,
            "name": "Don Valley West"
          }
        ],
        "pollDivisionIds": [
          10137761
        ],
        "postalCode": "M4G1L4",
        "streetName": "CANVARCO",
        "streetDirectionId": null,
        "streetTypeId": "RD",
        "placeName": "EAST YORK",
        "streetNameDisplayText": "CANVARCO RD, EAST YORK"
      }
    ]
  },
  {
    "postal": "M4G0C8",
    "result": []
  },
  {
    "postal": "M4G9X7",
    "result": []
  },
  {
    "postal": "M4G4T1",
    "result": []
  },
  {
    "postal": "M4G0M0",
    "result": []
  },
  {
    "postal": "M4G6A2",
    "result": []
  },
  {
    "postal": "M4G9S8",
    "result": []
  },
  {
    "postal": "M4G9T4",
    "result": []
  },
  {
    "postal": "M4G9Y4",
    "result": []
  },
  {
    "postal": "M4G6G5",
    "result": []
  },
  {
    "postal": "M4G6H9",
    "result": []
  },
  {
    "postal": "M4G2P3",
    "result": [
      {
        "electoralDistricts": [
          {
            "election": null,
            "id": 22,
            "name": "Don Valley West"
          }
        ],
        "pollDivisionIds": [
          10137755
        ],
        "postalCode": "M4G2P3",
        "streetName": "DIVADALE",
        "streetDirectionId": null,
        "streetTypeId": "DR",
        "placeName": "EAST YORK",
        "streetNameDisplayText": "DIVADALE DR, EAST YORK"
      }
    ]
  },
  {
    "postal": "M4G1T6",
    "result": [
      {
        "electoralDistricts": [
          {
            "election": null,
            "id": 22,
            "name": "Don Valley West"
          }
        ],
        "pollDivisionIds": [
          10137756
        ],
        "postalCode": "M4G1T6",
        "streetName": "MCRAE",
        "streetDirectionId": null,
        "streetTypeId": "DR",
        "placeName": "EAST YORK",
        "streetNameDisplayText": "MCRAE DR, EAST YORK"
      }
    ]
  },
  {
    "postal": "M4G4P6",
    "result": []
  },
  {
    "postal": "M4G3K1",
    "result": [
      {
        "electoralDistricts": [
          {
            "election": null,
            "id": 22,
            "name": "Don Valley West"
          }
        ],
        "pollDivisionIds": [
          10137760
        ],
        "postalCode": "M4G3K1",
        "streetName": "BESSBOROUGH",
        "streetDirectionId": null,
        "streetTypeId": "DR",
        "placeName": "EAST YORK",
        "streetNameDisplayText": "BESSBOROUGH DR, EAST YORK"
      }
    ]
  },
  {
    "postal": "M4G6X4",
    "result": []
  },
  {
    "postal": "M4G4M8",
    "result": []
  },
  {
    "postal": "M4G2Y1",
    "result": [
      {
        "electoralDistricts": [
          {
            "election": null,
            "id": 22,
            "name": "Don Valley West"
          }
        ],
        "pollDivisionIds": [
          10137768
        ],
        "postalCode": "M4G2Y1",
        "streetName": "ORCHARD",
        "streetDirectionId": null,
        "streetTypeId": "GREEN",
        "placeName": "EAST YORK",
        "streetNameDisplayText": "ORCHARD GREEN, EAST YORK"
      }
    ]
  },
  {
    "postal": "M4G6M1",
    "result": []
  },
  {
    "postal": "M4G5L8",
    "result": []
  },
  {
    "postal": "M4G3P6",
    "result": [
      {
        "electoralDistricts": [
          {
            "election": null,
            "id": 22,
            "name": "Don Valley West"
          }
        ],
        "pollDivisionIds": [
          10137755
        ],
        "postalCode": "M4G3P6",
        "streetName": "WINSLOE",
        "streetDirectionId": null,
        "streetTypeId": "AVE",
        "placeName": "EAST YORK",
        "streetNameDisplayText": "WINSLOE AVE, EAST YORK"
      }
    ]
  },
  {
    "postal": "M4G9A5",
    "result": []
  },
  {
    "postal": "M4G7K1",
    "result": []
  },
  {
    "postal": "M4G3J4",
    "result": [
      {
        "electoralDistricts": [
          {
            "election": null,
            "id": 22,
            "name": "Don Valley West"
          }
        ],
        "pollDivisionIds": [
          10137761
        ],
        "postalCode": "M4G3J4",
        "streetName": "BESSBOROUGH",
        "streetDirectionId": null,
        "streetTypeId": "DR",
        "placeName": "EAST YORK",
        "streetNameDisplayText": "BESSBOROUGH DR, EAST YORK"
      }
    ]
  },
  {
    "postal": "M4G5E7",
    "result": []
  },
  {
    "postal": "M4G3A7",
    "result": [
      {
        "electoralDistricts": [
          {
            "election": null,
            "id": 22,
            "name": "Don Valley West"
          },
          {
            "election": null,
            "id": 111,
            "name": "Toronto—St. Paul's"
          }
        ],
        "pollDivisionIds": [
          10137767,
          10136054
        ],
        "postalCode": "M4G3A7",
        "streetName": "BAYVIEW",
        "streetDirectionId": null,
        "streetTypeId": "AVE",
        "placeName": "TORONTO",
        "streetNameDisplayText": "BAYVIEW AVE, TORONTO"
      }
    ]
  },
  {
    "postal": "M4G1B9",
    "result": [
      {
        "electoralDistricts": [
          {
            "election": null,
            "id": 22,
            "name": "Don Valley West"
          }
        ],
        "pollDivisionIds": [
          10137768
        ],
        "postalCode": "M4G1B9",
        "streetName": "BURNHAM",
        "streetDirectionId": null,
        "streetTypeId": "RD",
        "placeName": "EAST YORK",
        "streetNameDisplayText": "BURNHAM RD, EAST YORK"
      }
    ]
  },
  {
    "postal": "M4G9E8",
    "result": []
  },
  {
    "postal": "M4G1C9",
    "result": []
  },
  {
    "postal": "M4G3B5",
    "result": [
      {
        "electoralDistricts": [
          {
            "election": null,
            "id": 22,
            "name": "Don Valley West"
          }
        ],
        "pollDivisionIds": [
          10137760
        ],
        "postalCode": "M4G3B5",
        "streetName": "BAYVIEW",
        "streetDirectionId": null,
        "streetTypeId": "AVE",
        "placeName": "EAST YORK",
        "streetNameDisplayText": "BAYVIEW AVE, EAST YORK"
      }
    ]
  },
  {
    "postal": "M4G8R0",
    "result": []
  },
  {
    "postal": "M4G3P2",
    "result": [
      {
        "electoralDistricts": [
          {
            "election": null,
            "id": 22,
            "name": "Don Valley West"
          }
        ],
        "pollDivisionIds": [
          10137752,
          10137760
        ],
        "postalCode": "M4G3P2",
        "streetName": "HANNA",
        "streetDirectionId": null,
        "streetTypeId": "RD",
        "placeName": "EAST YORK",
        "streetNameDisplayText": "HANNA RD, EAST YORK"
      }
    ]
  },
  {
    "postal": "M4G5V4",
    "result": []
  },
  {
    "postal": "M4G4H0",
    "result": []
  },
  {
    "postal": "M4G4S7",
    "result": []
  },
  {
    "postal": "M4G6C2",
    "result": []
  },
  {
    "postal": "M4G8W3",
    "result": []
  },
  {
    "postal": "M4G4M5",
    "result": []
  },
  {
    "postal": "M4G5T1",
    "result": []
  },
  {
    "postal": "M4G3B3",
    "result": [
      {
        "electoralDistricts": [
          {
            "election": null,
            "id": 112,
            "name": "University—Rosedale"
          }
        ],
        "pollDivisionIds": [
          10136401
        ],
        "postalCode": "M4G3B3",
        "streetName": "BAYVIEW",
        "streetDirectionId": null,
        "streetTypeId": "AVE",
        "placeName": "EAST YORK",
        "streetNameDisplayText": "BAYVIEW AVE, EAST YORK"
      },
      {
        "electoralDistricts": [
          {
            "election": null,
            "id": 22,
            "name": "Don Valley West"
          }
        ],
        "pollDivisionIds": [
          10137767
        ],
        "postalCode": "M4G3B3",
        "streetName": "BAYVIEW",
        "streetDirectionId": null,
        "streetTypeId": "AVE",
        "placeName": "TORONTO",
        "streetNameDisplayText": "BAYVIEW AVE, TORONTO"
      }
    ]
  },
  {
    "postal": "M4G6C6",
    "result": []
  },
  {
    "postal": "M4G7N8",
    "result": []
  },
  {
    "postal": "M4G2Y3",
    "result": [
      {
        "electoralDistricts": [
          {
            "election": null,
            "id": 22,
            "name": "Don Valley West"
          }
        ],
        "pollDivisionIds": [
          10137768
        ],
        "postalCode": "M4G2Y3",
        "streetName": "ORCHARD",
        "streetDirectionId": null,
        "streetTypeId": "GREEN",
        "placeName": "EAST YORK",
        "streetNameDisplayText": "ORCHARD GREEN, EAST YORK"
      }
    ]
  },
  {
    "postal": "M4G2R6",
    "result": [
      {
        "electoralDistricts": [
          {
            "election": null,
            "id": 22,
            "name": "Don Valley West"
          }
        ],
        "pollDivisionIds": [
          10137754
        ],
        "postalCode": "M4G2R6",
        "streetName": "BROADWAY",
        "streetDirectionId": null,
        "streetTypeId": "AVE",
        "placeName": "EAST YORK",
        "streetNameDisplayText": "BROADWAY AVE, EAST YORK"
      }
    ]
  },
  {
    "postal": "M4G7N3",
    "result": []
  },
  {
    "postal": "M4G8J2",
    "result": []
  },
  {
    "postal": "M4G6A9",
    "result": []
  },
  {
    "postal": "M4G3V2",
    "result": [
      {
        "electoralDistricts": [
          {
            "election": null,
            "id": 22,
            "name": "Don Valley West"
          }
        ],
        "pollDivisionIds": [
          10137761
        ],
        "postalCode": "M4G3V2",
        "streetName": "LAIRD",
        "streetDirectionId": null,
        "streetTypeId": "DR",
        "placeName": "EAST YORK",
        "streetNameDisplayText": "LAIRD DR, EAST YORK"
      }
    ]
  },
  {
    "postal": "M4G2N3",
    "result": [
      {
        "electoralDistricts": [
          {
            "election": null,
            "id": 22,
            "name": "Don Valley West"
          }
        ],
        "pollDivisionIds": [
          10137755
        ],
        "postalCode": "M4G2N3",
        "streetName": "DONLEA",
        "streetDirectionId": null,
        "streetTypeId": "DR",
        "placeName": "EAST YORK",
        "streetNameDisplayText": "DONLEA DR, EAST YORK"
      }
    ]
  },
  {
    "postal": "M4G1S5",
    "result": [
      {
        "electoralDistricts": [
          {
            "election": null,
            "id": 22,
            "name": "Don Valley West"
          }
        ],
        "pollDivisionIds": [
          10137756
        ],
        "postalCode": "M4G1S5",
        "streetName": "MCRAE",
        "streetDirectionId": null,
        "streetTypeId": "DR",
        "placeName": "EAST YORK",
        "streetNameDisplayText": "MCRAE DR, EAST YORK"
      }
    ]
  },
  {
    "postal": "M4G4T7",
    "result": []
  },
  {
    "postal": "M4G6Y7",
    "result": []
  },
  {
    "postal": "M4G0W7",
    "result": []
  },
  {
    "postal": "M4G2W9",
    "result": [
      {
        "electoralDistricts": [
          {
            "election": null,
            "id": 22,
            "name": "Don Valley West"
          }
        ],
        "pollDivisionIds": [
          10137768
        ],
        "postalCode": "M4G2W9",
        "streetName": "BRENDAN",
        "streetDirectionId": null,
        "streetTypeId": "RD",
        "placeName": "EAST YORK",
        "streetNameDisplayText": "BRENDAN RD, EAST YORK"
      }
    ]
  },
  {
    "postal": "M4G8V0",
    "result": []
  },
  {
    "postal": "M4G0H4",
    "result": []
  },
  {
    "postal": "M4G2T1",
    "result": [
      {
        "electoralDistricts": [
          {
            "election": null,
            "id": 22,
            "name": "Don Valley West"
          }
        ],
        "pollDivisionIds": [
          10137757
        ],
        "postalCode": "M4G2T1",
        "streetName": "RYKERT",
        "streetDirectionId": null,
        "streetTypeId": "CRES",
        "placeName": "EAST YORK",
        "streetNameDisplayText": "RYKERT CRES, EAST YORK"
      }
    ]
  },
  {
    "postal": "M4G1B1",
    "result": [
      {
        "electoralDistricts": [
          {
            "election": null,
            "id": 22,
            "name": "Don Valley West"
          }
        ],
        "pollDivisionIds": [
          10137769
        ],
        "postalCode": "M4G1B1",
        "streetName": "BENNINGTON HEIGHTS",
        "streetDirectionId": null,
        "streetTypeId": "DR",
        "placeName": "EAST YORK",
        "streetNameDisplayText": "BENNINGTON HEIGHTS DR, EAST YORK"
      }
    ]
  },
  {
    "postal": "M4G8B6",
    "result": []
  },
  {
    "postal": "M4G6H1",
    "result": []
  },
  {
    "postal": "M4G8T8",
    "result": []
  },
  {
    "postal": "M4G0T4",
    "result": []
  },
  {
    "postal": "M4G2C4",
    "result": [
      {
        "electoralDistricts": [
          {
            "election": null,
            "id": 22,
            "name": "Don Valley West"
          }
        ],
        "pollDivisionIds": [
          10137760
        ],
        "postalCode": "M4G2C4",
        "streetName": "PARKHURST",
        "streetDirectionId": null,
        "streetTypeId": "BLVD",
        "placeName": "EAST YORK",
        "streetNameDisplayText": "PARKHURST BLVD, EAST YORK"
      }
    ]
  },
  {
    "postal": "M4G8N3",
    "result": []
  },
  {
    "postal": "M4G4L8",
    "result": []
  },
  {
    "postal": "M4G2B5",
    "result": [
      {
        "electoralDistricts": [
          {
            "election": null,
            "id": 22,
            "name": "Don Valley West"
          }
        ],
        "pollDivisionIds": [
          10137756
        ],
        "postalCode": "M4G2B5",
        "streetName": "WICKSTEED",
        "streetDirectionId": null,
        "streetTypeId": "AVE",
        "placeName": "EAST YORK",
        "streetNameDisplayText": "WICKSTEED AVE, EAST YORK"
      }
    ]
  },
  {
    "postal": "M4G3H1",
    "result": [
      {
        "electoralDistricts": [
          {
            "election": null,
            "id": 22,
            "name": "Don Valley West"
          }
        ],
        "pollDivisionIds": [
          10137760
        ],
        "postalCode": "M4G3H1",
        "streetName": "DONEGALL",
        "streetDirectionId": null,
        "streetTypeId": "DR",
        "placeName": "EAST YORK",
        "streetNameDisplayText": "DONEGALL DR, EAST YORK"
      }
    ]
  },
  {
    "postal": "M4G4Y1",
    "result": []
  },
  {
    "postal": "M4G7E2",
    "result": []
  },
  {
    "postal": "M4G2P5",
    "result": [
      {
        "electoralDistricts": [
          {
            "election": null,
            "id": 22,
            "name": "Don Valley West"
          }
        ],
        "pollDivisionIds": [
          10137757
        ],
        "postalCode": "M4G2P5",
        "streetName": "DIVADALE",
        "streetDirectionId": null,
        "streetTypeId": "DR",
        "placeName": "EAST YORK",
        "streetNameDisplayText": "DIVADALE DR, EAST YORK"
      }
    ]
  },
  {
    "postal": "M4G8R7",
    "result": []
  },
  {
    "postal": "M4G9P1",
    "result": []
  },
  {
    "postal": "M4G3B8",
    "result": [
      {
        "electoralDistricts": [
          {
            "election": null,
            "id": 22,
            "name": "Don Valley West"
          }
        ],
        "pollDivisionIds": [
          10137759
        ],
        "postalCode": "M4G3B8",
        "streetName": "BAYVIEW",
        "streetDirectionId": null,
        "streetTypeId": "AVE",
        "placeName": "TORONTO",
        "streetNameDisplayText": "BAYVIEW AVE, TORONTO"
      }
    ]
  },
  {
    "postal": "M4G3P7",
    "result": [
      {
        "electoralDistricts": [
          {
            "election": null,
            "id": 22,
            "name": "Don Valley West"
          }
        ],
        "pollDivisionIds": [
          10137754
        ],
        "postalCode": "M4G3P7",
        "streetName": "ROXVILLE",
        "streetDirectionId": null,
        "streetTypeId": "AVE",
        "placeName": "EAST YORK",
        "streetNameDisplayText": "ROXVILLE AVE, EAST YORK"
      }
    ]
  },
  {
    "postal": "M4G9B2",
    "result": []
  },
  {
    "postal": "M4G6Z3",
    "result": []
  },
  {
    "postal": "M4G4N5",
    "result": []
  },
  {
    "postal": "M4G8T3",
    "result": []
  },
  {
    "postal": "M4G1V2",
    "result": [
      {
        "electoralDistricts": [
          {
            "election": null,
            "id": 22,
            "name": "Don Valley West"
          }
        ],
        "pollDivisionIds": [
          10137761
        ],
        "postalCode": "M4G1V2",
        "streetName": "ST CUTHBERTS",
        "streetDirectionId": null,
        "streetTypeId": "RD",
        "placeName": "EAST YORK",
        "streetNameDisplayText": "ST CUTHBERTS RD, EAST YORK"
      }
    ]
  },
  {
    "postal": "M4G1Y0",
    "result": []
  },
  {
    "postal": "M4G3G6",
    "result": [
      {
        "electoralDistricts": [
          {
            "election": null,
            "id": 22,
            "name": "Don Valley West"
          }
        ],
        "pollDivisionIds": [
          10137760
        ],
        "postalCode": "M4G3G6",
        "streetName": "DONEGALL",
        "streetDirectionId": null,
        "streetTypeId": "DR",
        "placeName": "EAST YORK",
        "streetNameDisplayText": "DONEGALL DR, EAST YORK"
      }
    ]
  },
  {
    "postal": "M4G3H7",
    "result": [
      {
        "electoralDistricts": [
          {
            "election": null,
            "id": 22,
            "name": "Don Valley West"
          }
        ],
        "pollDivisionIds": [
          10137761
        ],
        "postalCode": "M4G3H7",
        "streetName": "BESSBOROUGH",
        "streetDirectionId": null,
        "streetTypeId": "DR",
        "placeName": "EAST YORK",
        "streetNameDisplayText": "BESSBOROUGH DR, EAST YORK"
      }
    ]
  },
  {
    "postal": "M4G7X8",
    "result": []
  },
  {
    "postal": "M4G0C7",
    "result": []
  },
  {
    "postal": "M4G0W9",
    "result": []
  },
  {
    "postal": "M4G8E6",
    "result": []
  },
  {
    "postal": "M4G9Z8",
    "result": []
  },
  {
    "postal": "M4G3P4",
    "result": [
      {
        "electoralDistricts": [
          {
            "election": null,
            "id": 22,
            "name": "Don Valley West"
          }
        ],
        "pollDivisionIds": [
          10137754
        ],
        "postalCode": "M4G3P4",
        "streetName": "HANNA",
        "streetDirectionId": null,
        "streetTypeId": "RD",
        "placeName": "EAST YORK",
        "streetNameDisplayText": "HANNA RD, EAST YORK"
      }
    ]
  },
  {
    "postal": "M4G6L8",
    "result": []
  },
  {
    "postal": "M4G2R4",
    "result": [
      {
        "electoralDistricts": [
          {
            "election": null,
            "id": 22,
            "name": "Don Valley West"
          }
        ],
        "pollDivisionIds": [
          10137755
        ],
        "postalCode": "M4G2R4",
        "streetName": "BROADWAY",
        "streetDirectionId": null,
        "streetTypeId": "AVE",
        "placeName": "EAST YORK",
        "streetNameDisplayText": "BROADWAY AVE, EAST YORK"
      }
    ]
  },
  {
    "postal": "M4G2W1",
    "result": [
      {
        "electoralDistricts": [
          {
            "election": null,
            "id": 22,
            "name": "Don Valley West"
          }
        ],
        "pollDivisionIds": [
          10137754
        ],
        "postalCode": "M4G2W1",
        "streetName": "GLENVALE",
        "streetDirectionId": null,
        "streetTypeId": "BLVD",
        "placeName": "EAST YORK",
        "streetNameDisplayText": "GLENVALE BLVD, EAST YORK"
      }
    ]
  },
  {
    "postal": "M4G9H8",
    "result": []
  },
  {
    "postal": "M4G8X9",
    "result": []
  },
  {
    "postal": "M4G7H4",
    "result": []
  },
  {
    "postal": "M4G3J1",
    "result": [
      {
        "electoralDistricts": [
          {
            "election": null,
            "id": 22,
            "name": "Don Valley West"
          }
        ],
        "pollDivisionIds": [
          10137761
        ],
        "postalCode": "M4G3J1",
        "streetName": "BESSBOROUGH",
        "streetDirectionId": null,
        "streetTypeId": "DR",
        "placeName": "EAST YORK",
        "streetNameDisplayText": "BESSBOROUGH DR, EAST YORK"
      }
    ]
  },
  {
    "postal": "M4G1P4",
    "result": [
      {
        "electoralDistricts": [
          {
            "election": null,
            "id": 22,
            "name": "Don Valley West"
          }
        ],
        "pollDivisionIds": [
          10137760
        ],
        "postalCode": "M4G1P4",
        "streetName": "RUMSEY",
        "streetDirectionId": null,
        "streetTypeId": "RD",
        "placeName": "EAST YORK",
        "streetNameDisplayText": "RUMSEY RD, EAST YORK"
      }
    ]
  },
  {
    "postal": "M4G2A3",
    "result": [
      {
        "electoralDistricts": [
          {
            "election": null,
            "id": 22,
            "name": "Don Valley West"
          }
        ],
        "pollDivisionIds": [
          10137760
        ],
        "postalCode": "M4G2A3",
        "streetName": "CAMERON",
        "streetDirectionId": null,
        "streetTypeId": "CRES",
        "placeName": "EAST YORK",
        "streetNameDisplayText": "CAMERON CRES, EAST YORK"
      },
      {
        "electoralDistricts": [
          {
            "election": null,
            "id": 22,
            "name": "Don Valley West"
          }
        ],
        "pollDivisionIds": [
          10137760
        ],
        "postalCode": "M4G2A3",
        "streetName": "CAMERON",
        "streetDirectionId": null,
        "streetTypeId": "CRES",
        "placeName": "TORONTO",
        "streetNameDisplayText": "CAMERON CRES, TORONTO"
      }
    ]
  },
  {
    "postal": "M4G0Z1",
    "result": []
  },
  {
    "postal": "M4G1C1",
    "result": [
      {
        "electoralDistricts": [
          {
            "election": null,
            "id": 22,
            "name": "Don Valley West"
          }
        ],
        "pollDivisionIds": [
          10137768
        ],
        "postalCode": "M4G1C1",
        "streetName": "BURNHAM",
        "streetDirectionId": null,
        "streetTypeId": "RD",
        "placeName": "EAST YORK",
        "streetNameDisplayText": "BURNHAM RD, EAST YORK"
      }
    ]
  },
  {
    "postal": "M4G0H3",
    "result": []
  },
  {
    "postal": "M4G7B0",
    "result": []
  },
  {
    "postal": "M4G5K2",
    "result": []
  },
  {
    "postal": "M4G1E9",
    "result": [
      {
        "electoralDistricts": [
          {
            "election": null,
            "id": 22,
            "name": "Don Valley West"
          }
        ],
        "pollDivisionIds": [
          10137761
        ],
        "postalCode": "M4G1E9",
        "streetName": "LEACREST",
        "streetDirectionId": null,
        "streetTypeId": "RD",
        "placeName": "EAST YORK",
        "streetNameDisplayText": "LEACREST RD, EAST YORK"
      }
    ]
  },
  {
    "postal": "M4G9W7",
    "result": []
  },
  {
    "postal": "M4G5W6",
    "result": []
  },
  {
    "postal": "M4G6S6",
    "result": []
  },
  {
    "postal": "M4G2P8",
    "result": [
      {
        "electoralDistricts": [
          {
            "election": null,
            "id": 22,
            "name": "Don Valley West"
          }
        ],
        "pollDivisionIds": [
          10137757
        ],
        "postalCode": "M4G2P8",
        "streetName": "DIVADALE",
        "streetDirectionId": null,
        "streetTypeId": "DR",
        "placeName": "EAST YORK",
        "streetNameDisplayText": "DIVADALE DR, EAST YORK"
      }
    ]
  },
  {
    "postal": "M4G4P8",
    "result": []
  },
  {
    "postal": "M4G0V9",
    "result": []
  },
  {
    "postal": "M4G5Y2",
    "result": []
  },
  {
    "postal": "M4G7Z7",
    "result": []
  },
  {
    "postal": "M4G6Y8",
    "result": []
  },
  {
    "postal": "M4G2G7",
    "result": []
  },
  {
    "postal": "M4G8C1",
    "result": []
  },
  {
    "postal": "M4G5C5",
    "result": []
  },
  {
    "postal": "M4G2X8",
    "result": [
      {
        "electoralDistricts": [
          {
            "election": null,
            "id": 22,
            "name": "Don Valley West"
          }
        ],
        "pollDivisionIds": [
          10137768
        ],
        "postalCode": "M4G2X8",
        "streetName": "GARDEN",
        "streetDirectionId": null,
        "streetTypeId": "CIR",
        "placeName": "EAST YORK",
        "streetNameDisplayText": "GARDEN CIR, EAST YORK"
      }
    ]
  },
  {
    "postal": "M4G1W5",
    "result": [
      {
        "electoralDistricts": [
          {
            "election": null,
            "id": 22,
            "name": "Don Valley West"
          }
        ],
        "pollDivisionIds": [
          10137756
        ],
        "postalCode": "M4G1W5",
        "streetName": "MILLWOOD",
        "streetDirectionId": null,
        "streetTypeId": "RD",
        "placeName": "EAST YORK",
        "streetNameDisplayText": "MILLWOOD RD, EAST YORK"
      }
    ]
  },
  {
    "postal": "M4G7G0",
    "result": []
  },
  {
    "postal": "M4G8J8",
    "result": []
  },
  {
    "postal": "M4G3Y0",
    "result": []
  },
  {
    "postal": "M4G9T7",
    "result": []
  },
  {
    "postal": "M4G5P4",
    "result": []
  },
  {
    "postal": "M4G4B0",
    "result": []
  },
  {
    "postal": "M4G9N8",
    "result": []
  },
  {
    "postal": "M4G4A7",
    "result": []
  },
  {
    "postal": "M4G4H9",
    "result": [
      {
        "electoralDistricts": [
          {
            "election": null,
            "id": 22,
            "name": "Don Valley West"
          }
        ],
        "pollDivisionIds": [
          10137761
        ],
        "postalCode": "M4G4H9",
        "streetName": "WICKSTEED",
        "streetDirectionId": null,
        "streetTypeId": "AVE",
        "placeName": "EAST YORK",
        "streetNameDisplayText": "WICKSTEED AVE, EAST YORK"
      }
    ]
  },
  {
    "postal": "M4G6X1",
    "result": []
  },
  {
    "postal": "M4G9Y7",
    "result": []
  },
  {
    "postal": "M4G2Y5",
    "result": [
      {
        "electoralDistricts": [
          {
            "election": null,
            "id": 22,
            "name": "Don Valley West"
          }
        ],
        "pollDivisionIds": [
          10137768
        ],
        "postalCode": "M4G2Y5",
        "streetName": "WINDMILL",
        "streetDirectionId": null,
        "streetTypeId": "RD",
        "placeName": "EAST YORK",
        "streetNameDisplayText": "WINDMILL RD, EAST YORK"
      }
    ]
  },
  {
    "postal": "M4G8L7",
    "result": []
  },
  {
    "postal": "M4G2A8",
    "result": [
      {
        "electoralDistricts": [
          {
            "election": null,
            "id": 22,
            "name": "Don Valley West"
          }
        ],
        "pollDivisionIds": [
          10137760
        ],
        "postalCode": "M4G2A8",
        "streetName": "FLEMING",
        "streetDirectionId": null,
        "streetTypeId": "CRES",
        "placeName": "EAST YORK",
        "streetNameDisplayText": "FLEMING CRES, EAST YORK"
      }
    ]
  },
  {
    "postal": "M4G2K9",
    "result": [
      {
        "electoralDistricts": [
          {
            "election": null,
            "id": 22,
            "name": "Don Valley West"
          }
        ],
        "pollDivisionIds": [
          10137756
        ],
        "postalCode": "M4G2K9",
        "streetName": "EGLINTON",
        "streetDirectionId": "E",
        "streetTypeId": "AVE",
        "placeName": "EAST YORK",
        "streetNameDisplayText": "EGLINTON AVE E, EAST YORK"
      }
    ]
  },
  {
    "postal": "M4G3E5",
    "result": []
  },
  {
    "postal": "M4G8N6",
    "result": []
  },
  {
    "postal": "M4G8J4",
    "result": []
  },
  {
    "postal": "M4G4R7",
    "result": []
  },
  {
    "postal": "M4G9K1",
    "result": []
  },
  {
    "postal": "M4G8E1",
    "result": []
  },
  {
    "postal": "M4G0R1",
    "result": []
  },
  {
    "postal": "M4G4J3",
    "result": [
      {
        "electoralDistricts": [
          {
            "election": null,
            "id": 22,
            "name": "Don Valley West"
          }
        ],
        "pollDivisionIds": [
          10137757
        ],
        "postalCode": "M4G4J3",
        "streetName": "AERODROME",
        "streetDirectionId": null,
        "streetTypeId": "CRES",
        "placeName": "EAST YORK",
        "streetNameDisplayText": "AERODROME CRES, EAST YORK"
      }
    ]
  },
  {
    "postal": "M4G7E7",
    "result": []
  },
  {
    "postal": "M4G0J0",
    "result": []
  },
  {
    "postal": "M4G7R8",
    "result": []
  },
  {
    "postal": "M4G9X0",
    "result": []
  },
  {
    "postal": "M4G7P6",
    "result": []
  },
  {
    "postal": "M4G0R7",
    "result": []
  },
  {
    "postal": "M4G5W1",
    "result": []
  },
  {
    "postal": "M4G0K4",
    "result": []
  },
  {
    "postal": "M4G7N9",
    "result": []
  },
  {
    "postal": "M4G1N0",
    "result": []
  },
  {
    "postal": "M4G6P3",
    "result": []
  },
  {
    "postal": "M4G5A1",
    "result": []
  },
  {
    "postal": "M4G9M9",
    "result": []
  },
  {
    "postal": "M4G7T6",
    "result": []
  },
  {
    "postal": "M4G3X0",
    "result": []
  },
  {
    "postal": "M4G2T0",
    "result": []
  },
  {
    "postal": "M4G5X9",
    "result": []
  },
  {
    "postal": "M4G2R3",
    "result": [
      {
        "electoralDistricts": [
          {
            "election": null,
            "id": 22,
            "name": "Don Valley West"
          }
        ],
        "pollDivisionIds": [
          10137755
        ],
        "postalCode": "M4G2R3",
        "streetName": "BROADWAY",
        "streetDirectionId": null,
        "streetTypeId": "AVE",
        "placeName": "EAST YORK",
        "streetNameDisplayText": "BROADWAY AVE, EAST YORK"
      }
    ]
  },
  {
    "postal": "M4G5N2",
    "result": []
  },
  {
    "postal": "M4G4Y7",
    "result": []
  },
  {
    "postal": "M4G7M0",
    "result": []
  },
  {
    "postal": "M4G8P3",
    "result": []
  },
  {
    "postal": "M4G3N3",
    "result": [
      {
        "electoralDistricts": [
          {
            "election": null,
            "id": 22,
            "name": "Don Valley West"
          }
        ],
        "pollDivisionIds": [
          10137756
        ],
        "postalCode": "M4G3N3",
        "streetName": "HANNA",
        "streetDirectionId": null,
        "streetTypeId": "RD",
        "placeName": "EAST YORK",
        "streetNameDisplayText": "HANNA RD, EAST YORK"
      }
    ]
  },
  {
    "postal": "M4G7S3",
    "result": []
  },
  {
    "postal": "M4G3V9",
    "result": [
      {
        "electoralDistricts": [
          {
            "election": null,
            "id": 22,
            "name": "Don Valley West"
          }
        ],
        "pollDivisionIds": [
          10137754
        ],
        "postalCode": "M4G3V9",
        "streetName": "SUTHERLAND",
        "streetDirectionId": null,
        "streetTypeId": "DR",
        "placeName": "TORONTO",
        "streetNameDisplayText": "SUTHERLAND DR, TORONTO"
      }
    ]
  },
  {
    "postal": "M4G9N7",
    "result": []
  },
  {
    "postal": "M4G0G4",
    "result": []
  },
  {
    "postal": "M4G2E2",
    "result": [
      {
        "electoralDistricts": [
          {
            "election": null,
            "id": 22,
            "name": "Don Valley West"
          }
        ],
        "pollDivisionIds": [
          10137760
        ],
        "postalCode": "M4G2E2",
        "streetName": "PARKHURST",
        "streetDirectionId": null,
        "streetTypeId": "BLVD",
        "placeName": "EAST YORK",
        "streetNameDisplayText": "PARKHURST BLVD, EAST YORK"
      }
    ]
  },
  {
    "postal": "M4G7W8",
    "result": []
  },
  {
    "postal": "M4G7M5",
    "result": []
  },
  {
    "postal": "M4G5W8",
    "result": []
  },
  {
    "postal": "M4G5E5",
    "result": []
  },
  {
    "postal": "M4G1P9",
    "result": [
      {
        "electoralDistricts": [
          {
            "election": null,
            "id": 22,
            "name": "Don Valley West"
          }
        ],
        "pollDivisionIds": [
          10137760
        ],
        "postalCode": "M4G1P9",
        "streetName": "RUMSEY",
        "streetDirectionId": null,
        "streetTypeId": "RD",
        "placeName": "EAST YORK",
        "streetNameDisplayText": "RUMSEY RD, EAST YORK"
      }
    ]
  },
  {
    "postal": "M4G8V8",
    "result": []
  },
  {
    "postal": "M4G9G8",
    "result": []
  },
  {
    "postal": "M4G8H9",
    "result": []
  },
  {
    "postal": "M4G1Z1",
    "result": [
      {
        "electoralDistricts": [
          {
            "election": null,
            "id": 22,
            "name": "Don Valley West"
          }
        ],
        "pollDivisionIds": [
          10137761
        ],
        "postalCode": "M4G1Z1",
        "streetName": "INDUSTRIAL",
        "streetDirectionId": null,
        "streetTypeId": "ST",
        "placeName": "EAST YORK",
        "streetNameDisplayText": "INDUSTRIAL ST, EAST YORK"
      }
    ]
  },
  {
    "postal": "M4G8M3",
    "result": []
  },
  {
    "postal": "M4G5H6",
    "result": []
  },
  {
    "postal": "M4G7W7",
    "result": []
  },
  {
    "postal": "M4G4L0",
    "result": []
  },
  {
    "postal": "M4G2N1",
    "result": [
      {
        "electoralDistricts": [
          {
            "election": null,
            "id": 22,
            "name": "Don Valley West"
          }
        ],
        "pollDivisionIds": [
          10137755
        ],
        "postalCode": "M4G2N1",
        "streetName": "DONLEA",
        "streetDirectionId": null,
        "streetTypeId": "DR",
        "placeName": "EAST YORK",
        "streetNameDisplayText": "DONLEA DR, EAST YORK"
      }
    ]
  },
  {
    "postal": "M4G2H4",
    "result": [
      {
        "electoralDistricts": [
          {
            "election": null,
            "id": 22,
            "name": "Don Valley West"
          }
        ],
        "pollDivisionIds": [
          10137756
        ],
        "postalCode": "M4G2H4",
        "streetName": "VANDERHOOF",
        "streetDirectionId": null,
        "streetTypeId": "AVE",
        "placeName": "EAST YORK",
        "streetNameDisplayText": "VANDERHOOF AVE, EAST YORK"
      }
    ]
  },
  {
    "postal": "M4G5C8",
    "result": []
  },
  {
    "postal": "M4G8B0",
    "result": []
  },
  {
    "postal": "M4G1T4",
    "result": [
      {
        "electoralDistricts": [
          {
            "election": null,
            "id": 22,
            "name": "Don Valley West"
          }
        ],
        "pollDivisionIds": [
          10137756
        ],
        "postalCode": "M4G1T4",
        "streetName": "MCRAE",
        "streetDirectionId": null,
        "streetTypeId": "DR",
        "placeName": "EAST YORK",
        "streetNameDisplayText": "MCRAE DR, EAST YORK"
      }
    ]
  },
  {
    "postal": "M4G7N7",
    "result": []
  },
  {
    "postal": "M4G4L3",
    "result": []
  },
  {
    "postal": "M4G2N2",
    "result": [
      {
        "electoralDistricts": [
          {
            "election": null,
            "id": 22,
            "name": "Don Valley West"
          }
        ],
        "pollDivisionIds": [
          10137757
        ],
        "postalCode": "M4G2N2",
        "streetName": "DONLEA",
        "streetDirectionId": null,
        "streetTypeId": "DR",
        "placeName": "EAST YORK",
        "streetNameDisplayText": "DONLEA DR, EAST YORK"
      }
    ]
  },
  {
    "postal": "M4G4N8",
    "result": []
  },
  {
    "postal": "M4G3M5",
    "result": [
      {
        "electoralDistricts": [
          {
            "election": null,
            "id": 22,
            "name": "Don Valley West"
          }
        ],
        "pollDivisionIds": [
          10137761
        ],
        "postalCode": "M4G3M5",
        "streetName": "ROLPH",
        "streetDirectionId": null,
        "streetTypeId": "RD",
        "placeName": "EAST YORK",
        "streetNameDisplayText": "ROLPH RD, EAST YORK"
      }
    ]
  },
  {
    "postal": "M4G6H7",
    "result": []
  },
  {
    "postal": "M4G8Y8",
    "result": []
  },
  {
    "postal": "M4G5R9",
    "result": []
  },
  {
    "postal": "M4G8G3",
    "result": []
  },
  {
    "postal": "M4G4N7",
    "result": []
  },
  {
    "postal": "M4G0B9",
    "result": []
  },
  {
    "postal": "M4G9K7",
    "result": []
  },
  {
    "postal": "M4G9K9",
    "result": []
  },
  {
    "postal": "M4G3Z2",
    "result": []
  },
  {
    "postal": "M4G6W7",
    "result": []
  },
  {
    "postal": "M4G0P1",
    "result": []
  },
  {
    "postal": "M4G3A0",
    "result": []
  },
  {
    "postal": "M4G8L9",
    "result": []
  },
  {
    "postal": "M4G6X0",
    "result": []
  },
  {
    "postal": "M4G3E9",
    "result": [
      {
        "electoralDistricts": [
          {
            "election": null,
            "id": 22,
            "name": "Don Valley West"
          }
        ],
        "pollDivisionIds": [
          10137761
        ],
        "postalCode": "M4G3E9",
        "streetName": "LEADALE",
        "streetDirectionId": null,
        "streetTypeId": "AVE",
        "placeName": "EAST YORK",
        "streetNameDisplayText": "LEADALE AVE, EAST YORK"
      }
    ]
  },
  {
    "postal": "M4G0S5",
    "result": []
  },
  {
    "postal": "M4G1A2",
    "result": [
      {
        "electoralDistricts": [
          {
            "election": null,
            "id": 22,
            "name": "Don Valley West"
          }
        ],
        "pollDivisionIds": [
          10137769
        ],
        "postalCode": "M4G1A2",
        "streetName": "MOOREHILL",
        "streetDirectionId": null,
        "streetTypeId": "DR",
        "placeName": "EAST YORK",
        "streetNameDisplayText": "MOOREHILL DR, EAST YORK"
      }
    ]
  },
  {
    "postal": "M4G5V8",
    "result": []
  },
  {
    "postal": "M4G8C5",
    "result": []
  },
  {
    "postal": "M4G6N0",
    "result": []
  },
  {
    "postal": "M4G9E6",
    "result": []
  },
  {
    "postal": "M4G5J7",
    "result": []
  },
  {
    "postal": "M4G2R2",
    "result": [
      {
        "electoralDistricts": [
          {
            "election": null,
            "id": 22,
            "name": "Don Valley West"
          }
        ],
        "pollDivisionIds": [
          10137755
        ],
        "postalCode": "M4G2R2",
        "streetName": "BROADWAY",
        "streetDirectionId": null,
        "streetTypeId": "AVE",
        "placeName": "EAST YORK",
        "streetNameDisplayText": "BROADWAY AVE, EAST YORK"
      }
    ]
  },
  {
    "postal": "M4G0P5",
    "result": []
  },
  {
    "postal": "M4G5A7",
    "result": []
  },
  {
    "postal": "M4G1G1",
    "result": [
      {
        "electoralDistricts": [
          {
            "election": null,
            "id": 22,
            "name": "Don Valley West"
          }
        ],
        "pollDivisionIds": [
          10137761
        ],
        "postalCode": "M4G1G1",
        "streetName": "SOUTHVALE",
        "streetDirectionId": null,
        "streetTypeId": "DR",
        "placeName": "EAST YORK",
        "streetNameDisplayText": "SOUTHVALE DR, EAST YORK"
      }
    ]
  },
  {
    "postal": "M4G9R6",
    "result": []
  },
  {
    "postal": "M4G4Z9",
    "result": []
  },
  {
    "postal": "M4G1V5",
    "result": [
      {
        "electoralDistricts": [
          {
            "election": null,
            "id": 22,
            "name": "Don Valley West"
          }
        ],
        "pollDivisionIds": [
          10137760
        ],
        "postalCode": "M4G1V5",
        "streetName": "ROLLAND",
        "streetDirectionId": null,
        "streetTypeId": "RD",
        "placeName": "EAST YORK",
        "streetNameDisplayText": "ROLLAND RD, EAST YORK"
      }
    ]
  },
  {
    "postal": "M4G9Y5",
    "result": []
  },
  {
    "postal": "M4G1P2",
    "result": [
      {
        "electoralDistricts": [
          {
            "election": null,
            "id": 22,
            "name": "Don Valley West"
          }
        ],
        "pollDivisionIds": [
          10137756
        ],
        "postalCode": "M4G1P2",
        "streetName": "RUMSEY",
        "streetDirectionId": null,
        "streetTypeId": "RD",
        "placeName": "EAST YORK",
        "streetNameDisplayText": "RUMSEY RD, EAST YORK"
      }
    ]
  },
  {
    "postal": "M4G5X0",
    "result": []
  },
  {
    "postal": "M4G7B8",
    "result": []
  },
  {
    "postal": "M4G0C6",
    "result": []
  },
  {
    "postal": "M4G6G1",
    "result": []
  },
  {
    "postal": "M4G3K3",
    "result": [
      {
        "electoralDistricts": [
          {
            "election": null,
            "id": 22,
            "name": "Don Valley West"
          }
        ],
        "pollDivisionIds": [
          10137760
        ],
        "postalCode": "M4G3K3",
        "streetName": "BESSBOROUGH",
        "streetDirectionId": null,
        "streetTypeId": "DR",
        "placeName": "EAST YORK",
        "streetNameDisplayText": "BESSBOROUGH DR, EAST YORK"
      }
    ]
  },
  {
    "postal": "M4G9R0",
    "result": []
  },
  {
    "postal": "M4G4R8",
    "result": []
  },
  {
    "postal": "M4G5P9",
    "result": []
  },
  {
    "postal": "M4G8N4",
    "result": []
  },
  {
    "postal": "M4G8H4",
    "result": []
  },
  {
    "postal": "M4G4V1",
    "result": []
  },
  {
    "postal": "M4G1K5",
    "result": [
      {
        "electoralDistricts": [
          {
            "election": null,
            "id": 22,
            "name": "Don Valley West"
          }
        ],
        "pollDivisionIds": [
          10137755
        ],
        "postalCode": "M4G1K5",
        "streetName": "SUTHERLAND",
        "streetDirectionId": null,
        "streetTypeId": "DR",
        "placeName": "EAST YORK",
        "streetNameDisplayText": "SUTHERLAND DR, EAST YORK"
      }
    ]
  },
  {
    "postal": "M4G1Z5",
    "result": []
  },
  {
    "postal": "M4G9L9",
    "result": []
  },
  {
    "postal": "M4G5L2",
    "result": []
  },
  {
    "postal": "M4G0M2",
    "result": []
  },
  {
    "postal": "M4G1K8",
    "result": [
      {
        "electoralDistricts": [
          {
            "election": null,
            "id": 22,
            "name": "Don Valley West"
          }
        ],
        "pollDivisionIds": [
          10137754
        ],
        "postalCode": "M4G1K8",
        "streetName": "SUTHERLAND",
        "streetDirectionId": null,
        "streetTypeId": "DR",
        "placeName": "EAST YORK",
        "streetNameDisplayText": "SUTHERLAND DR, EAST YORK"
      }
    ]
  },
  {
    "postal": "M4G3M7",
    "result": [
      {
        "electoralDistricts": [
          {
            "election": null,
            "id": 22,
            "name": "Don Valley West"
          }
        ],
        "pollDivisionIds": [
          10137761
        ],
        "postalCode": "M4G3M7",
        "streetName": "HANNA",
        "streetDirectionId": null,
        "streetTypeId": "RD",
        "placeName": "EAST YORK",
        "streetNameDisplayText": "HANNA RD, EAST YORK"
      }
    ]
  },
  {
    "postal": "M4G1B2",
    "result": [
      {
        "electoralDistricts": [
          {
            "election": null,
            "id": 22,
            "name": "Don Valley West"
          }
        ],
        "pollDivisionIds": [
          10137769
        ],
        "postalCode": "M4G1B2",
        "streetName": "NOEL",
        "streetDirectionId": null,
        "streetTypeId": "AVE",
        "placeName": "EAST YORK",
        "streetNameDisplayText": "NOEL AVE, EAST YORK"
      }
    ]
  },
  {
    "postal": "M4G0H9",
    "result": []
  },
  {
    "postal": "M4G8M4",
    "result": []
  },
  {
    "postal": "M4G2M5",
    "result": [
      {
        "electoralDistricts": [
          {
            "election": null,
            "id": 22,
            "name": "Don Valley West"
          }
        ],
        "pollDivisionIds": [
          10137755
        ],
        "postalCode": "M4G2M5",
        "streetName": "DONLEA",
        "streetDirectionId": null,
        "streetTypeId": "DR",
        "placeName": "EAST YORK",
        "streetNameDisplayText": "DONLEA DR, EAST YORK"
      }
    ]
  },
  {
    "postal": "M4G0T9",
    "result": []
  },
  {
    "postal": "M4G3P1",
    "result": [
      {
        "electoralDistricts": [
          {
            "election": null,
            "id": 22,
            "name": "Don Valley West"
          }
        ],
        "pollDivisionIds": [
          10137760
        ],
        "postalCode": "M4G3P1",
        "streetName": "HANNA",
        "streetDirectionId": null,
        "streetTypeId": "RD",
        "placeName": "EAST YORK",
        "streetNameDisplayText": "HANNA RD, EAST YORK"
      }
    ]
  },
  {
    "postal": "M4G1R6",
    "result": [
      {
        "electoralDistricts": [
          {
            "election": null,
            "id": 22,
            "name": "Don Valley West"
          }
        ],
        "pollDivisionIds": [
          10137754
        ],
        "postalCode": "M4G1R6",
        "streetName": "RUMSEY",
        "streetDirectionId": null,
        "streetTypeId": "RD",
        "placeName": "EAST YORK",
        "streetNameDisplayText": "RUMSEY RD, EAST YORK"
      }
    ]
  },
  {
    "postal": "M4G9V5",
    "result": []
  },
  {
    "postal": "M4G9T0",
    "result": []
  },
  {
    "postal": "M4G0A9",
    "result": [
      {
        "electoralDistricts": [
          {
            "election": null,
            "id": 22,
            "name": "Don Valley West"
          }
        ],
        "pollDivisionIds": [
          10137754,
          10137731
        ],
        "postalCode": "M4G0A9",
        "streetName": "KILGOUR",
        "streetDirectionId": null,
        "streetTypeId": "RD",
        "placeName": "EAST YORK",
        "streetNameDisplayText": "KILGOUR RD, EAST YORK"
      }
    ]
  },
  {
    "postal": "M4G1M3",
    "result": [
      {
        "electoralDistricts": [
          {
            "election": null,
            "id": 22,
            "name": "Don Valley West"
          }
        ],
        "pollDivisionIds": [
          10137761
        ],
        "postalCode": "M4G1M3",
        "streetName": "AIRDRIE",
        "streetDirectionId": null,
        "streetTypeId": "RD",
        "placeName": "EAST YORK",
        "streetNameDisplayText": "AIRDRIE RD, EAST YORK"
      }
    ]
  },
  {
    "postal": "M4G1W8",
    "result": [
      {
        "electoralDistricts": [
          {
            "election": null,
            "id": 22,
            "name": "Don Valley West"
          }
        ],
        "pollDivisionIds": [
          10137761
        ],
        "postalCode": "M4G1W8",
        "streetName": "MILLWOOD",
        "streetDirectionId": null,
        "streetTypeId": "RD",
        "placeName": "EAST YORK",
        "streetNameDisplayText": "MILLWOOD RD, EAST YORK"
      }
    ]
  },
  {
    "postal": "M4G9J1",
    "result": []
  },
  {
    "postal": "M4G8N5",
    "result": []
  },
  {
    "postal": "M4G5X1",
    "result": []
  },
  {
    "postal": "M4G6S2",
    "result": []
  },
  {
    "postal": "M4G2A2",
    "result": [
      {
        "electoralDistricts": [
          {
            "election": null,
            "id": 22,
            "name": "Don Valley West"
          }
        ],
        "pollDivisionIds": [
          10137760
        ],
        "postalCode": "M4G2A2",
        "streetName": "CAMERON",
        "streetDirectionId": null,
        "streetTypeId": "CRES",
        "placeName": "EAST YORK",
        "streetNameDisplayText": "CAMERON CRES, EAST YORK"
      }
    ]
  },
  {
    "postal": "M4G6A6",
    "result": []
  },
  {
    "postal": "M4G0S3",
    "result": []
  },
  {
    "postal": "M4G3E7",
    "result": [
      {
        "electoralDistricts": [
          {
            "election": null,
            "id": 22,
            "name": "Don Valley West"
          }
        ],
        "pollDivisionIds": [
          10137761
        ],
        "postalCode": "M4G3E7",
        "streetName": "COPELAND",
        "streetDirectionId": null,
        "streetTypeId": "ST",
        "placeName": "EAST YORK",
        "streetNameDisplayText": "COPELAND ST, EAST YORK"
      }
    ]
  },
  {
    "postal": "M4G5R7",
    "result": []
  },
  {
    "postal": "M4G3R6",
    "result": [
      {
        "electoralDistricts": [
          {
            "election": null,
            "id": 22,
            "name": "Don Valley West"
          }
        ],
        "pollDivisionIds": [
          10137761
        ],
        "postalCode": "M4G3R6",
        "streetName": "RANDOLPH",
        "streetDirectionId": null,
        "streetTypeId": "RD",
        "placeName": "EAST YORK",
        "streetNameDisplayText": "RANDOLPH RD, EAST YORK"
      }
    ]
  },
  {
    "postal": "M4G6K4",
    "result": []
  },
  {
    "postal": "M4G2W5",
    "result": [
      {
        "electoralDistricts": [
          {
            "election": null,
            "id": 22,
            "name": "Don Valley West"
          }
        ],
        "pollDivisionIds": [
          10137754
        ],
        "postalCode": "M4G2W5",
        "streetName": "GLENVALE",
        "streetDirectionId": null,
        "streetTypeId": "BLVD",
        "placeName": "EAST YORK",
        "streetNameDisplayText": "GLENVALE BLVD, EAST YORK"
      }
    ]
  },
  {
    "postal": "M4G8W4",
    "result": []
  },
  {
    "postal": "M4G9C2",
    "result": []
  },
  {
    "postal": "M4G2C0",
    "result": []
  },
  {
    "postal": "M4G0E1",
    "result": []
  },
  {
    "postal": "M4G1K9",
    "result": [
      {
        "electoralDistricts": [
          {
            "election": null,
            "id": 22,
            "name": "Don Valley West"
          }
        ],
        "pollDivisionIds": [
          10137754
        ],
        "postalCode": "M4G1K9",
        "streetName": "SUTHERLAND",
        "streetDirectionId": null,
        "streetTypeId": "DR",
        "placeName": "EAST YORK",
        "streetNameDisplayText": "SUTHERLAND DR, EAST YORK"
      }
    ]
  },
  {
    "postal": "M4G1G7",
    "result": [
      {
        "electoralDistricts": [
          {
            "election": null,
            "id": 22,
            "name": "Don Valley West"
          }
        ],
        "pollDivisionIds": [
          10137761
        ],
        "postalCode": "M4G1G7",
        "streetName": "SOUTHVALE",
        "streetDirectionId": null,
        "streetTypeId": "DR",
        "placeName": "EAST YORK",
        "streetNameDisplayText": "SOUTHVALE DR, EAST YORK"
      }
    ]
  },
  {
    "postal": "M4G4E9",
    "result": []
  },
  {
    "postal": "M4G9P0",
    "result": []
  },
  {
    "postal": "M4G5H3",
    "result": []
  },
  {
    "postal": "M4G9X6",
    "result": []
  },
  {
    "postal": "M4G5N7",
    "result": []
  },
  {
    "postal": "M4G5A6",
    "result": []
  },
  {
    "postal": "M4G4M0",
    "result": []
  },
  {
    "postal": "M4G3V6",
    "result": []
  },
  {
    "postal": "M4G1L7",
    "result": [
      {
        "electoralDistricts": [
          {
            "election": null,
            "id": 22,
            "name": "Don Valley West"
          }
        ],
        "pollDivisionIds": [
          10137761
        ],
        "postalCode": "M4G1L7",
        "streetName": "AIRDRIE",
        "streetDirectionId": null,
        "streetTypeId": "RD",
        "placeName": "EAST YORK",
        "streetNameDisplayText": "AIRDRIE RD, EAST YORK"
      }
    ]
  },
  {
    "postal": "M4G2P9",
    "result": [
      {
        "electoralDistricts": [
          {
            "election": null,
            "id": 22,
            "name": "Don Valley West"
          }
        ],
        "pollDivisionIds": [
          10137757
        ],
        "postalCode": "M4G2P9",
        "streetName": "RICHLEA",
        "streetDirectionId": null,
        "streetTypeId": "CIR",
        "placeName": "EAST YORK",
        "streetNameDisplayText": "RICHLEA CIR, EAST YORK"
      }
    ]
  },
  {
    "postal": "M4G5T4",
    "result": []
  },
  {
    "postal": "M4G5Z1",
    "result": []
  },
  {
    "postal": "M4G2X0",
    "result": []
  },
  {
    "postal": "M4G6Z2",
    "result": []
  },
  {
    "postal": "M4G0E0",
    "result": []
  },
  {
    "postal": "M4G3Z5",
    "result": []
  },
  {
    "postal": "M4G8H3",
    "result": []
  },
  {
    "postal": "M4G7S6",
    "result": []
  },
  {
    "postal": "M4G4C1",
    "result": []
  },
  {
    "postal": "M4G3K2",
    "result": [
      {
        "electoralDistricts": [
          {
            "election": null,
            "id": 22,
            "name": "Don Valley West"
          }
        ],
        "pollDivisionIds": [
          10137760
        ],
        "postalCode": "M4G3K2",
        "streetName": "BESSBOROUGH",
        "streetDirectionId": null,
        "streetTypeId": "DR",
        "placeName": "EAST YORK",
        "streetNameDisplayText": "BESSBOROUGH DR, EAST YORK"
      }
    ]
  },
  {
    "postal": "M4G1Y5",
    "result": [
      {
        "electoralDistricts": [
          {
            "election": null,
            "id": 22,
            "name": "Don Valley West"
          }
        ],
        "pollDivisionIds": [
          10137756
        ],
        "postalCode": "M4G1Y5",
        "streetName": "FIELD",
        "streetDirectionId": null,
        "streetTypeId": "AVE",
        "placeName": "EAST YORK",
        "streetNameDisplayText": "FIELD AVE, EAST YORK"
      }
    ]
  },
  {
    "postal": "M4G6P6",
    "result": []
  },
  {
    "postal": "M4G3N9",
    "result": [
      {
        "electoralDistricts": [
          {
            "election": null,
            "id": 22,
            "name": "Don Valley West"
          }
        ],
        "pollDivisionIds": [
          10137760
        ],
        "postalCode": "M4G3N9",
        "streetName": "HANNA",
        "streetDirectionId": null,
        "streetTypeId": "RD",
        "placeName": "EAST YORK",
        "streetNameDisplayText": "HANNA RD, EAST YORK"
      }
    ]
  },
  {
    "postal": "M4G3W2",
    "result": [
      {
        "electoralDistricts": [
          {
            "election": null,
            "id": 22,
            "name": "Don Valley West"
          }
        ],
        "pollDivisionIds": [
          10137756
        ],
        "postalCode": "M4G3W2",
        "streetName": "LAIRD",
        "streetDirectionId": null,
        "streetTypeId": "DR",
        "placeName": "EAST YORK",
        "streetNameDisplayText": "LAIRD DR, EAST YORK"
      }
    ]
  },
  {
    "postal": "M4G6H8",
    "result": []
  },
  {
    "postal": "M4G9T3",
    "result": []
  },
  {
    "postal": "M4G5L9",
    "result": []
  },
  {
    "postal": "M4G7X7",
    "result": []
  },
  {
    "postal": "M4G3J5",
    "result": [
      {
        "electoralDistricts": [
          {
            "election": null,
            "id": 22,
            "name": "Don Valley West"
          }
        ],
        "pollDivisionIds": [
          10137761
        ],
        "postalCode": "M4G3J5",
        "streetName": "BESSBOROUGH",
        "streetDirectionId": null,
        "streetTypeId": "DR",
        "placeName": "EAST YORK",
        "streetNameDisplayText": "BESSBOROUGH DR, EAST YORK"
      }
    ]
  },
  {
    "postal": "M4G4J5",
    "result": [
      {
        "electoralDistricts": [
          {
            "election": null,
            "id": 22,
            "name": "Don Valley West"
          }
        ],
        "pollDivisionIds": [
          10137757
        ],
        "postalCode": "M4G4J5",
        "streetName": "AERODROME",
        "streetDirectionId": null,
        "streetTypeId": "CRES",
        "placeName": "EAST YORK",
        "streetNameDisplayText": "AERODROME CRES, EAST YORK"
      },
      {
        "electoralDistricts": [
          {
            "election": null,
            "id": 22,
            "name": "Don Valley West"
          }
        ],
        "pollDivisionIds": [
          10137757
        ],
        "postalCode": "M4G4J5",
        "streetName": "THOMAS ELGIE",
        "streetDirectionId": null,
        "streetTypeId": "DR",
        "placeName": "EAST YORK",
        "streetNameDisplayText": "THOMAS ELGIE DR, EAST YORK"
      }
    ]
  },
  {
    "postal": "M4G6J2",
    "result": []
  },
  {
    "postal": "M4G5V6",
    "result": []
  },
  {
    "postal": "M4G3N2",
    "result": [
      {
        "electoralDistricts": [
          {
            "election": null,
            "id": 22,
            "name": "Don Valley West"
          }
        ],
        "pollDivisionIds": [
          10137756
        ],
        "postalCode": "M4G3N2",
        "streetName": "HANNA",
        "streetDirectionId": null,
        "streetTypeId": "RD",
        "placeName": "EAST YORK",
        "streetNameDisplayText": "HANNA RD, EAST YORK"
      }
    ]
  },
  {
    "postal": "M4G3B1",
    "result": []
  },
  {
    "postal": "M4G8B5",
    "result": []
  },
  {
    "postal": "M4G0K1",
    "result": []
  },
  {
    "postal": "M4G7M7",
    "result": []
  },
  {
    "postal": "M4G2M2",
    "result": [
      {
        "electoralDistricts": [
          {
            "election": null,
            "id": 22,
            "name": "Don Valley West"
          }
        ],
        "pollDivisionIds": [
          10137755
        ],
        "postalCode": "M4G2M2",
        "streetName": "DONLEA",
        "streetDirectionId": null,
        "streetTypeId": "DR",
        "placeName": "EAST YORK",
        "streetNameDisplayText": "DONLEA DR, EAST YORK"
      }
    ]
  },
  {
    "postal": "M4G9N3",
    "result": []
  },
  {
    "postal": "M4G4Y8",
    "result": []
  },
  {
    "postal": "M4G3V7",
    "result": [
      {
        "electoralDistricts": [
          {
            "election": null,
            "id": 22,
            "name": "Don Valley West"
          }
        ],
        "pollDivisionIds": [
          10137756
        ],
        "postalCode": "M4G3V7",
        "streetName": "LAIRD",
        "streetDirectionId": null,
        "streetTypeId": "DR",
        "placeName": "EAST YORK",
        "streetNameDisplayText": "LAIRD DR, EAST YORK"
      }
    ]
  },
  {
    "postal": "M4G8Z1",
    "result": []
  },
  {
    "postal": "M4G7B3",
    "result": []
  },
  {
    "postal": "M4G3A8",
    "result": [
      {
        "electoralDistricts": [
          {
            "election": null,
            "id": 22,
            "name": "Don Valley West"
          }
        ],
        "pollDivisionIds": [
          10137760
        ],
        "postalCode": "M4G3A8",
        "streetName": "BAYVIEW",
        "streetDirectionId": null,
        "streetTypeId": "AVE",
        "placeName": "EAST YORK",
        "streetNameDisplayText": "BAYVIEW AVE, EAST YORK"
      }
    ]
  },
  {
    "postal": "M4G7V5",
    "result": []
  },
  {
    "postal": "M4G2T2",
    "result": [
      {
        "electoralDistricts": [
          {
            "election": null,
            "id": 22,
            "name": "Don Valley West"
          }
        ],
        "pollDivisionIds": [
          10137757
        ],
        "postalCode": "M4G2T2",
        "streetName": "RYKERT",
        "streetDirectionId": null,
        "streetTypeId": "CRES",
        "placeName": "EAST YORK",
        "streetNameDisplayText": "RYKERT CRES, EAST YORK"
      }
    ]
  },
  {
    "postal": "M4G6L3",
    "result": []
  },
  {
    "postal": "M4G0L2",
    "result": []
  },
  {
    "postal": "M4G5Y8",
    "result": []
  },
  {
    "postal": "M4G0B8",
    "result": []
  },
  {
    "postal": "M4G6R5",
    "result": []
  },
  {
    "postal": "M4G8W6",
    "result": []
  },
  {
    "postal": "M4G8G6",
    "result": []
  },
  {
    "postal": "M4G6X3",
    "result": []
  },
  {
    "postal": "M4G7R7",
    "result": []
  },
  {
    "postal": "M4G4B6",
    "result": []
  },
  {
    "postal": "M4G3P9",
    "result": [
      {
        "electoralDistricts": [
          {
            "election": null,
            "id": 22,
            "name": "Don Valley West"
          }
        ],
        "pollDivisionIds": [
          10137754
        ],
        "postalCode": "M4G3P9",
        "streetName": "TANAGER",
        "streetDirectionId": null,
        "streetTypeId": "AVE",
        "placeName": "EAST YORK",
        "streetNameDisplayText": "TANAGER AVE, EAST YORK"
      }
    ]
  },
  {
    "postal": "M4G2T3",
    "result": []
  },
  {
    "postal": "M4G1M4",
    "result": [
      {
        "electoralDistricts": [
          {
            "election": null,
            "id": 22,
            "name": "Don Valley West"
          }
        ],
        "pollDivisionIds": [
          10137761
        ],
        "postalCode": "M4G1M4",
        "streetName": "AIRDRIE",
        "streetDirectionId": null,
        "streetTypeId": "RD",
        "placeName": "EAST YORK",
        "streetNameDisplayText": "AIRDRIE RD, EAST YORK"
      }
    ]
  },
  {
    "postal": "M4G0H1",
    "result": []
  },
  {
    "postal": "M4G9W3",
    "result": []
  },
  {
    "postal": "M4G6P1",
    "result": []
  },
  {
    "postal": "M4G7G2",
    "result": []
  },
  {
    "postal": "M4G4J9",
    "result": [
      {
        "electoralDistricts": [
          {
            "election": null,
            "id": 22,
            "name": "Don Valley West"
          }
        ],
        "pollDivisionIds": [
          10137757
        ],
        "postalCode": "M4G4J9",
        "streetName": "VANDERHOOF",
        "streetDirectionId": null,
        "streetTypeId": "AVE",
        "placeName": "EAST YORK",
        "streetNameDisplayText": "VANDERHOOF AVE, EAST YORK"
      }
    ]
  },
  {
    "postal": "M4G9E4",
    "result": []
  },
  {
    "postal": "M4G8H0",
    "result": []
  },
  {
    "postal": "M4G4M7",
    "result": []
  },
  {
    "postal": "M4G2G9",
    "result": []
  },
  {
    "postal": "M4G8T2",
    "result": []
  },
  {
    "postal": "M4G7G7",
    "result": []
  },
  {
    "postal": "M4G4Z3",
    "result": []
  },
  {
    "postal": "M4G5B3",
    "result": []
  },
  {
    "postal": "M4G1S7",
    "result": [
      {
        "electoralDistricts": [
          {
            "election": null,
            "id": 22,
            "name": "Don Valley West"
          }
        ],
        "pollDivisionIds": [
          10137760
        ],
        "postalCode": "M4G1S7",
        "streetName": "MCRAE",
        "streetDirectionId": null,
        "streetTypeId": "DR",
        "placeName": "EAST YORK",
        "streetNameDisplayText": "MCRAE DR, EAST YORK"
      }
    ]
  },
  {
    "postal": "M4G2N7",
    "result": [
      {
        "electoralDistricts": [
          {
            "election": null,
            "id": 22,
            "name": "Don Valley West"
          }
        ],
        "pollDivisionIds": [
          10137755
        ],
        "postalCode": "M4G2N7",
        "streetName": "DIVADALE",
        "streetDirectionId": null,
        "streetTypeId": "DR",
        "placeName": "EAST YORK",
        "streetNameDisplayText": "DIVADALE DR, EAST YORK"
      }
    ]
  },
  {
    "postal": "M4G0H8",
    "result": []
  },
  {
    "postal": "M4G7Z4",
    "result": []
  },
  {
    "postal": "M4G7B1",
    "result": []
  },
  {
    "postal": "M4G7P8",
    "result": []
  },
  {
    "postal": "M4G7N0",
    "result": []
  },
  {
    "postal": "M4G3Y5",
    "result": [
      {
        "electoralDistricts": [
          {
            "election": null,
            "id": 22,
            "name": "Don Valley West"
          }
        ],
        "pollDivisionIds": [
          10137757
        ],
        "postalCode": "M4G3Y5",
        "streetName": "BRENTCLIFFE",
        "streetDirectionId": null,
        "streetTypeId": "RD",
        "placeName": "EAST YORK",
        "streetNameDisplayText": "BRENTCLIFFE RD, EAST YORK"
      }
    ]
  },
  {
    "postal": "M4G6K1",
    "result": []
  },
  {
    "postal": "M4G9X5",
    "result": []
  },
  {
    "postal": "M4G7S5",
    "result": []
  },
  {
    "postal": "M4G0A4",
    "result": [
      {
        "electoralDistricts": [
          {
            "election": null,
            "id": 22,
            "name": "Don Valley West"
          }
        ],
        "pollDivisionIds": [
          10137754
        ],
        "postalCode": "M4G0A4",
        "streetName": "BURKEBROOK",
        "streetDirectionId": null,
        "streetTypeId": "PL",
        "placeName": "EAST YORK",
        "streetNameDisplayText": "BURKEBROOK PL, EAST YORK"
      }
    ]
  },
  {
    "postal": "M4G4T5",
    "result": []
  },
  {
    "postal": "M4G5K1",
    "result": []
  },
  {
    "postal": "M4G0Z9",
    "result": []
  },
  {
    "postal": "M4G7T2",
    "result": []
  },
  {
    "postal": "M4G1L5",
    "result": [
      {
        "electoralDistricts": [
          {
            "election": null,
            "id": 22,
            "name": "Don Valley West"
          }
        ],
        "pollDivisionIds": [
          10137761
        ],
        "postalCode": "M4G1L5",
        "streetName": "RUTHERGLEN",
        "streetDirectionId": null,
        "streetTypeId": "RD",
        "placeName": "EAST YORK",
        "streetNameDisplayText": "RUTHERGLEN RD, EAST YORK"
      }
    ]
  },
  {
    "postal": "M4G3N5",
    "result": [
      {
        "electoralDistricts": [
          {
            "election": null,
            "id": 22,
            "name": "Don Valley West"
          }
        ],
        "pollDivisionIds": [
          10137760
        ],
        "postalCode": "M4G3N5",
        "streetName": "HANNA",
        "streetDirectionId": null,
        "streetTypeId": "RD",
        "placeName": "EAST YORK",
        "streetNameDisplayText": "HANNA RD, EAST YORK"
      }
    ]
  },
  {
    "postal": "M4G6H4",
    "result": []
  },
  {
    "postal": "M4G5A5",
    "result": []
  },
  {
    "postal": "M4G3R9",
    "result": [
      {
        "electoralDistricts": [
          {
            "election": null,
            "id": 22,
            "name": "Don Valley West"
          }
        ],
        "pollDivisionIds": [
          10137761
        ],
        "postalCode": "M4G3R9",
        "streetName": "RANDOLPH",
        "streetDirectionId": null,
        "streetTypeId": "RD",
        "placeName": "EAST YORK",
        "streetNameDisplayText": "RANDOLPH RD, EAST YORK"
      }
    ]
  },
  {
    "postal": "M4G7L8",
    "result": []
  },
  {
    "postal": "M4G6T6",
    "result": []
  },
  {
    "postal": "M4G7Y7",
    "result": []
  },
  {
    "postal": "M4G3M8",
    "result": [
      {
        "electoralDistricts": [
          {
            "election": null,
            "id": 22,
            "name": "Don Valley West"
          }
        ],
        "pollDivisionIds": [
          10137756
        ],
        "postalCode": "M4G3M8",
        "streetName": "HANNA",
        "streetDirectionId": null,
        "streetTypeId": "RD",
        "placeName": "EAST YORK",
        "streetNameDisplayText": "HANNA RD, EAST YORK"
      }
    ]
  },
  {
    "postal": "M4G2E0",
    "result": []
  },
  {
    "postal": "M4G4B5",
    "result": [
      {
        "electoralDistricts": [
          {
            "election": null,
            "id": 22,
            "name": "Don Valley West"
          }
        ],
        "pollDivisionIds": [
          10137757
        ],
        "postalCode": "M4G4B5",
        "streetName": "EGLINTON",
        "streetDirectionId": "E",
        "streetTypeId": "AVE",
        "placeName": "EAST YORK",
        "streetNameDisplayText": "EGLINTON AVE E, EAST YORK"
      }
    ]
  },
  {
    "postal": "M4G1J3",
    "result": [
      {
        "electoralDistricts": [
          {
            "election": null,
            "id": 22,
            "name": "Don Valley West"
          }
        ],
        "pollDivisionIds": [
          10137756
        ],
        "postalCode": "M4G1J3",
        "streetName": "SUTHERLAND",
        "streetDirectionId": null,
        "streetTypeId": "DR",
        "placeName": "EAST YORK",
        "streetNameDisplayText": "SUTHERLAND DR, EAST YORK"
      }
    ]
  },
  {
    "postal": "M4G5S6",
    "result": []
  },
  {
    "postal": "M4G8P7",
    "result": []
  },
  {
    "postal": "M4G7S7",
    "result": []
  },
  {
    "postal": "M4G4C2",
    "result": []
  },
  {
    "postal": "M4G5Y0",
    "result": []
  },
  {
    "postal": "M4G2V7",
    "result": [
      {
        "electoralDistricts": [
          {
            "election": null,
            "id": 22,
            "name": "Don Valley West"
          }
        ],
        "pollDivisionIds": [
          10137754
        ],
        "postalCode": "M4G2V7",
        "streetName": "GLENVALE",
        "streetDirectionId": null,
        "streetTypeId": "BLVD",
        "placeName": "EAST YORK",
        "streetNameDisplayText": "GLENVALE BLVD, EAST YORK"
      }
    ]
  },
  {
    "postal": "M4G8P5",
    "result": []
  },
  {
    "postal": "M4G5P5",
    "result": []
  },
  {
    "postal": "M4G5Z0",
    "result": []
  },
  {
    "postal": "M4G9B0",
    "result": []
  },
  {
    "postal": "M4G1L0",
    "result": []
  },
  {
    "postal": "M4G0B5",
    "result": []
  },
  {
    "postal": "M4G3L2",
    "result": [
      {
        "electoralDistricts": [
          {
            "election": null,
            "id": 22,
            "name": "Don Valley West"
          }
        ],
        "pollDivisionIds": [
          10137754
        ],
        "postalCode": "M4G3L2",
        "streetName": "BESSBOROUGH",
        "streetDirectionId": null,
        "streetTypeId": "DR",
        "placeName": "EAST YORK",
        "streetNameDisplayText": "BESSBOROUGH DR, EAST YORK"
      }
    ]
  },
  {
    "postal": "M4G3B7",
    "result": [
      {
        "electoralDistricts": [
          {
            "election": null,
            "id": 22,
            "name": "Don Valley West"
          }
        ],
        "pollDivisionIds": [
          10137759
        ],
        "postalCode": "M4G3B7",
        "streetName": "BAYVIEW",
        "streetDirectionId": null,
        "streetTypeId": "AVE",
        "placeName": "TORONTO",
        "streetNameDisplayText": "BAYVIEW AVE, TORONTO"
      }
    ]
  },
  {
    "postal": "M4G8L1",
    "result": []
  },
  {
    "postal": "M4G5M4",
    "result": []
  },
  {
    "postal": "M4G4G9",
    "result": [
      {
        "electoralDistricts": [
          {
            "election": null,
            "id": 22,
            "name": "Don Valley West"
          }
        ],
        "pollDivisionIds": [
          10137756
        ],
        "postalCode": "M4G4G9",
        "streetName": "EGLINTON",
        "streetDirectionId": "E",
        "streetTypeId": "AVE",
        "placeName": "EAST YORK",
        "streetNameDisplayText": "EGLINTON AVE E, EAST YORK"
      }
    ]
  },
  {
    "postal": "M4G0P0",
    "result": []
  },
  {
    "postal": "M4G8G2",
    "result": []
  },
  {
    "postal": "M4G1V9",
    "result": []
  },
  {
    "postal": "M4G8N8",
    "result": []
  },
  {
    "postal": "M4G6S8",
    "result": []
  },
  {
    "postal": "M4G8H2",
    "result": []
  },
  {
    "postal": "M4G5R8",
    "result": []
  },
  {
    "postal": "M4G5L4",
    "result": []
  },
  {
    "postal": "M4G9E1",
    "result": []
  },
  {
    "postal": "M4G1C4",
    "result": [
      {
        "electoralDistricts": [
          {
            "election": null,
            "id": 22,
            "name": "Don Valley West"
          }
        ],
        "pollDivisionIds": [
          10137768
        ],
        "postalCode": "M4G1C4",
        "streetName": "EVERGREEN",
        "streetDirectionId": null,
        "streetTypeId": "GDNS",
        "placeName": "EAST YORK",
        "streetNameDisplayText": "EVERGREEN GDNS, EAST YORK"
      }
    ]
  },
  {
    "postal": "M4G8W5",
    "result": []
  },
  {
    "postal": "M4G1Y4",
    "result": [
      {
        "electoralDistricts": [
          {
            "election": null,
            "id": 22,
            "name": "Don Valley West"
          }
        ],
        "pollDivisionIds": [
          10137760
        ],
        "postalCode": "M4G1Y4",
        "streetName": "FIELD",
        "streetDirectionId": null,
        "streetTypeId": "AVE",
        "placeName": "EAST YORK",
        "streetNameDisplayText": "FIELD AVE, EAST YORK"
      }
    ]
  },
  {
    "postal": "M4G1C0",
    "result": []
  },
  {
    "postal": "M4G2J2",
    "result": []
  },
  {
    "postal": "M4G2J0",
    "result": []
  },
  {
    "postal": "M4G7A3",
    "result": []
  },
  {
    "postal": "M4G8M1",
    "result": []
  },
  {
    "postal": "M4G7T9",
    "result": []
  },
  {
    "postal": "M4G6C0",
    "result": []
  },
  {
    "postal": "M4G7X1",
    "result": []
  },
  {
    "postal": "M4G0G1",
    "result": []
  },
  {
    "postal": "M4G4X2",
    "result": []
  },
  {
    "postal": "M4G0N6",
    "result": []
  },
  {
    "postal": "M4G8E3",
    "result": []
  },
  {
    "postal": "M4G5S8",
    "result": []
  },
  {
    "postal": "M4G0R0",
    "result": []
  },
  {
    "postal": "M4G6J6",
    "result": []
  },
  {
    "postal": "M4G4B4",
    "result": []
  },
  {
    "postal": "M4G7E3",
    "result": []
  },
  {
    "postal": "M4G3N6",
    "result": [
      {
        "electoralDistricts": [
          {
            "election": null,
            "id": 22,
            "name": "Don Valley West"
          }
        ],
        "pollDivisionIds": [
          10137760
        ],
        "postalCode": "M4G3N6",
        "streetName": "HANNA",
        "streetDirectionId": null,
        "streetTypeId": "RD",
        "placeName": "EAST YORK",
        "streetNameDisplayText": "HANNA RD, EAST YORK"
      }
    ]
  },
  {
    "postal": "M4G3X6",
    "result": [
      {
        "electoralDistricts": [
          {
            "election": null,
            "id": 22,
            "name": "Don Valley West"
          }
        ],
        "pollDivisionIds": [
          10137757
        ],
        "postalCode": "M4G3X6",
        "streetName": "LAIRD",
        "streetDirectionId": null,
        "streetTypeId": "DR",
        "placeName": "EAST YORK",
        "streetNameDisplayText": "LAIRD DR, EAST YORK"
      }
    ]
  },
  {
    "postal": "M4G8L0",
    "result": []
  },
  {
    "postal": "M4G8N1",
    "result": []
  },
  {
    "postal": "M4G4J0",
    "result": []
  },
  {
    "postal": "M4G0X7",
    "result": []
  },
  {
    "postal": "M4G6S4",
    "result": []
  },
  {
    "postal": "M4G0Z0",
    "result": []
  },
  {
    "postal": "M4G9X8",
    "result": []
  },
  {
    "postal": "M4G3H3",
    "result": [
      {
        "electoralDistricts": [
          {
            "election": null,
            "id": 22,
            "name": "Don Valley West"
          }
        ],
        "pollDivisionIds": [
          10137760
        ],
        "postalCode": "M4G3H3",
        "streetName": "MACNAUGHTON",
        "streetDirectionId": null,
        "streetTypeId": "RD",
        "placeName": "EAST YORK",
        "streetNameDisplayText": "MACNAUGHTON RD, EAST YORK"
      }
    ]
  },
  {
    "postal": "M4G7S2",
    "result": []
  },
  {
    "postal": "M4G3T3",
    "result": []
  },
  {
    "postal": "M4G9P3",
    "result": []
  },
  {
    "postal": "M4G4H8",
    "result": [
      {
        "electoralDistricts": [
          {
            "election": null,
            "id": 22,
            "name": "Don Valley West"
          }
        ],
        "pollDivisionIds": [
          10137761
        ],
        "postalCode": "M4G4H8",
        "streetName": "HANNA",
        "streetDirectionId": null,
        "streetTypeId": "RD",
        "placeName": "EAST YORK",
        "streetNameDisplayText": "HANNA RD, EAST YORK"
      }
    ]
  },
  {
    "postal": "M4G6R1",
    "result": []
  },
  {
    "postal": "M4G1S0",
    "result": []
  },
  {
    "postal": "M4G3W8",
    "result": [
      {
        "electoralDistricts": [
          {
            "election": null,
            "id": 22,
            "name": "Don Valley West"
          }
        ],
        "pollDivisionIds": [
          10137756
        ],
        "postalCode": "M4G3W8",
        "streetName": "LAIRD",
        "streetDirectionId": null,
        "streetTypeId": "DR",
        "placeName": "EAST YORK",
        "streetNameDisplayText": "LAIRD DR, EAST YORK"
      }
    ]
  },
  {
    "postal": "M4G4S3",
    "result": []
  },
  {
    "postal": "M4G1B6",
    "result": [
      {
        "electoralDistricts": [
          {
            "election": null,
            "id": 22,
            "name": "Don Valley West"
          }
        ],
        "pollDivisionIds": [
          10137769
        ],
        "postalCode": "M4G1B6",
        "streetName": "HEATH",
        "streetDirectionId": "E",
        "streetTypeId": "ST",
        "placeName": "EAST YORK",
        "streetNameDisplayText": "HEATH ST E, EAST YORK"
      }
    ]
  },
  {
    "postal": "M4G8R3",
    "result": []
  },
  {
    "postal": "M4G4V9",
    "result": []
  },
  {
    "postal": "M4G9W4",
    "result": []
  },
  {
    "postal": "M4G3T4",
    "result": [
      {
        "electoralDistricts": [
          {
            "election": null,
            "id": 22,
            "name": "Don Valley West"
          }
        ],
        "pollDivisionIds": [
          10137761
        ],
        "postalCode": "M4G3T4",
        "streetName": "LAIRD",
        "streetDirectionId": null,
        "streetTypeId": "DR",
        "placeName": "EAST YORK",
        "streetNameDisplayText": "LAIRD DR, EAST YORK"
      }
    ]
  },
  {
    "postal": "M4G5C7",
    "result": []
  },
  {
    "postal": "M4G3Y1",
    "result": [
      {
        "electoralDistricts": [
          {
            "election": null,
            "id": 22,
            "name": "Don Valley West"
          }
        ],
        "pollDivisionIds": [
          10137754
        ],
        "postalCode": "M4G3Y1",
        "streetName": "LAIRD",
        "streetDirectionId": null,
        "streetTypeId": "DR",
        "placeName": "EAST YORK",
        "streetNameDisplayText": "LAIRD DR, EAST YORK"
      }
    ]
  },
  {
    "postal": "M4G5V0",
    "result": []
  },
  {
    "postal": "M4G8G8",
    "result": []
  },
  {
    "postal": "M4G8B1",
    "result": []
  },
  {
    "postal": "M4G4P5",
    "result": []
  },
  {
    "postal": "M4G7B2",
    "result": []
  },
  {
    "postal": "M4G0R2",
    "result": []
  },
  {
    "postal": "M4G4M4",
    "result": []
  },
  {
    "postal": "M4G7M4",
    "result": []
  },
  {
    "postal": "M4G9S7",
    "result": []
  },
  {
    "postal": "M4G5Z7",
    "result": []
  },
  {
    "postal": "M4G7J7",
    "result": []
  },
  {
    "postal": "M4G8R8",
    "result": []
  },
  {
    "postal": "M4G9X1",
    "result": []
  },
  {
    "postal": "M4G5M9",
    "result": []
  },
  {
    "postal": "M4G9B4",
    "result": []
  },
  {
    "postal": "M4G0L9",
    "result": []
  },
  {
    "postal": "M4G9G4",
    "result": []
  },
  {
    "postal": "M4G1J4",
    "result": [
      {
        "electoralDistricts": [
          {
            "election": null,
            "id": 22,
            "name": "Don Valley West"
          }
        ],
        "pollDivisionIds": [
          10137761
        ],
        "postalCode": "M4G1J4",
        "streetName": "SUTHERLAND",
        "streetDirectionId": null,
        "streetTypeId": "DR",
        "placeName": "EAST YORK",
        "streetNameDisplayText": "SUTHERLAND DR, EAST YORK"
      }
    ]
  },
  {
    "postal": "M4G0W6",
    "result": []
  }
]
