[
  {
    "postal": "L3M9J6",
    "result": []
  },
  {
    "postal": "L3M9Z5",
    "result": []
  },
  {
    "postal": "L3M7H8",
    "result": []
  },
  {
    "postal": "L3M0P6",
    "result": []
  },
  {
    "postal": "L3M0S7",
    "result": []
  },
  {
    "postal": "L3M8B9",
    "result": []
  },
  {
    "postal": "L3M2A6",
    "result": [
      {
        "electoralDistricts": [
          {
            "election": null,
            "id": 70,
            "name": "Niagara West"
          }
        ],
        "pollDivisionIds": [
          10140054
        ],
        "postalCode": "L3M2A6",
        "streetName": "LAKE",
        "streetDirectionId": null,
        "streetTypeId": "ST",
        "placeName": "GRIMSBY",
        "streetNameDisplayText": "LAKE ST, GRIMSBY"
      }
    ]
  },
  {
    "postal": "L3M7V2",
    "result": []
  },
  {
    "postal": "L3M9P4",
    "result": []
  },
  {
    "postal": "L3M6G0",
    "result": []
  },
  {
    "postal": "L3M2K0",
    "result": []
  },
  {
    "postal": "L3M7N6",
    "result": []
  },
  {
    "postal": "L3M5R3",
    "result": [
      {
        "electoralDistricts": [
          {
            "election": null,
            "id": 70,
            "name": "Niagara West"
          }
        ],
        "pollDivisionIds": [
          10140051
        ],
        "postalCode": "L3M5R3",
        "streetName": "ROBERTS",
        "streetDirectionId": null,
        "streetTypeId": "RD",
        "placeName": "GRIMSBY",
        "streetNameDisplayText": "ROBERTS RD, GRIMSBY"
      }
    ]
  },
  {
    "postal": "L3M7K0",
    "result": []
  },
  {
    "postal": "L3M3R2",
    "result": [
      {
        "electoralDistricts": [
          {
            "election": null,
            "id": 70,
            "name": "Niagara West"
          }
        ],
        "pollDivisionIds": [
          10140050
        ],
        "postalCode": "L3M3R2",
        "streetName": "DIANA",
        "streetDirectionId": null,
        "streetTypeId": "AVE",
        "placeName": "GRIMSBY",
        "streetNameDisplayText": "DIANA AVE, GRIMSBY"
      }
    ]
  },
  {
    "postal": "L3M0J1",
    "result": []
  },
  {
    "postal": "L3M0B0",
    "result": []
  },
  {
    "postal": "L3M5Z2",
    "result": []
  },
  {
    "postal": "L3M7P3",
    "result": []
  },
  {
    "postal": "L3M2K3",
    "result": [
      {
        "electoralDistricts": [
          {
            "election": null,
            "id": 70,
            "name": "Niagara West"
          }
        ],
        "pollDivisionIds": [
          10140050
        ],
        "postalCode": "L3M2K3",
        "streetName": "ALMOND",
        "streetDirectionId": null,
        "streetTypeId": "GDNS",
        "placeName": "GRIMSBY",
        "streetNameDisplayText": "ALMOND GDNS, GRIMSBY"
      }
    ]
  },
  {
    "postal": "L3M7Y6",
    "result": []
  },
  {
    "postal": "L3M1L9",
    "result": [
      {
        "electoralDistricts": [
          {
            "election": null,
            "id": 70,
            "name": "Niagara West"
          }
        ],
        "pollDivisionIds": [
          10140049
        ],
        "postalCode": "L3M1L9",
        "streetName": "LIVINGSTON",
        "streetDirectionId": null,
        "streetTypeId": "AVE",
        "placeName": "GRIMSBY",
        "streetNameDisplayText": "LIVINGSTON AVE, GRIMSBY"
      }
    ]
  },
  {
    "postal": "L3M8T0",
    "result": []
  },
  {
    "postal": "L3M3K8",
    "result": [
      {
        "electoralDistricts": [
          {
            "election": null,
            "id": 70,
            "name": "Niagara West"
          }
        ],
        "pollDivisionIds": [
          10140050
        ],
        "postalCode": "L3M3K8",
        "streetName": "ELIZABETH",
        "streetDirectionId": null,
        "streetTypeId": "ST",
        "placeName": "GRIMSBY",
        "streetNameDisplayText": "ELIZABETH ST, GRIMSBY"
      }
    ]
  },
  {
    "postal": "L3M5W9",
    "result": []
  },
  {
    "postal": "L3M6T9",
    "result": []
  },
  {
    "postal": "L3M4H1",
    "result": [
      {
        "electoralDistricts": [
          {
            "election": null,
            "id": 70,
            "name": "Niagara West"
          }
        ],
        "pollDivisionIds": [
          10140053
        ],
        "postalCode": "L3M4H1",
        "streetName": "MAIN",
        "streetDirectionId": "W",
        "streetTypeId": "ST",
        "placeName": "GRIMSBY",
        "streetNameDisplayText": "MAIN ST W, GRIMSBY"
      }
    ]
  },
  {
    "postal": "L3M7A2",
    "result": []
  },
  {
    "postal": "L3M5G0",
    "result": []
  },
  {
    "postal": "L3M8V5",
    "result": []
  },
  {
    "postal": "L3M2Y8",
    "result": [
      {
        "electoralDistricts": [
          {
            "election": null,
            "id": 70,
            "name": "Niagara West"
          }
        ],
        "pollDivisionIds": [
          10140055
        ],
        "postalCode": "L3M2Y8",
        "streetName": "BURGESS",
        "streetDirectionId": null,
        "streetTypeId": "DR",
        "placeName": "GRIMSBY",
        "streetNameDisplayText": "BURGESS DR, GRIMSBY"
      }
    ]
  },
  {
    "postal": "L3M2B6",
    "result": [
      {
        "electoralDistricts": [
          {
            "election": null,
            "id": 70,
            "name": "Niagara West"
          }
        ],
        "pollDivisionIds": [
          10140050
        ],
        "postalCode": "L3M2B6",
        "streetName": "OLIVE",
        "streetDirectionId": null,
        "streetTypeId": "ST",
        "placeName": "GRIMSBY",
        "streetNameDisplayText": "OLIVE ST, GRIMSBY"
      }
    ]
  },
  {
    "postal": "L3M4W8",
    "result": []
  },
  {
    "postal": "L3M8H7",
    "result": []
  },
  {
    "postal": "L3M5P1",
    "result": [
      {
        "electoralDistricts": [
          {
            "election": null,
            "id": 70,
            "name": "Niagara West"
          }
        ],
        "pollDivisionIds": [
          10140049
        ],
        "postalCode": "L3M5P1",
        "streetName": "LIVINGSTON",
        "streetDirectionId": null,
        "streetTypeId": "AVE",
        "placeName": "GRIMSBY",
        "streetNameDisplayText": "LIVINGSTON AVE, GRIMSBY"
      }
    ]
  },
  {
    "postal": "L3M2B8",
    "result": [
      {
        "electoralDistricts": [
          {
            "election": null,
            "id": 70,
            "name": "Niagara West"
          }
        ],
        "pollDivisionIds": [
          10140050
        ],
        "postalCode": "L3M2B8",
        "streetName": "OLIVE",
        "streetDirectionId": null,
        "streetTypeId": "ST",
        "placeName": "GRIMSBY",
        "streetNameDisplayText": "OLIVE ST, GRIMSBY"
      }
    ]
  },
  {
    "postal": "L3M0P2",
    "result": []
  },
  {
    "postal": "L3M9M1",
    "result": []
  },
  {
    "postal": "L3M3G0",
    "result": []
  },
  {
    "postal": "L3M9Z2",
    "result": []
  },
  {
    "postal": "L3M2A0",
    "result": []
  },
  {
    "postal": "L3M6Y0",
    "result": []
  },
  {
    "postal": "L3M2Z8",
    "result": [
      {
        "electoralDistricts": [
          {
            "election": null,
            "id": 70,
            "name": "Niagara West"
          }
        ],
        "pollDivisionIds": [
          10140055
        ],
        "postalCode": "L3M2Z8",
        "streetName": "NELLES",
        "streetDirectionId": "N",
        "streetTypeId": "RD",
        "placeName": "GRIMSBY",
        "streetNameDisplayText": "NELLES RD N, GRIMSBY"
      }
    ]
  },
  {
    "postal": "L3M7Y3",
    "result": []
  },
  {
    "postal": "L3M6Z5",
    "result": []
  },
  {
    "postal": "L3M6E0",
    "result": []
  },
  {
    "postal": "L3M9B7",
    "result": []
  },
  {
    "postal": "L3M9S5",
    "result": []
  },
  {
    "postal": "L3M3X3",
    "result": [
      {
        "electoralDistricts": [
          {
            "election": null,
            "id": 70,
            "name": "Niagara West"
          }
        ],
        "pollDivisionIds": [
          10140051
        ],
        "postalCode": "L3M3X3",
        "streetName": "ORIOLE",
        "streetDirectionId": null,
        "streetTypeId": "CRES",
        "placeName": "GRIMSBY",
        "streetNameDisplayText": "ORIOLE CRES, GRIMSBY"
      }
    ]
  },
  {
    "postal": "L3M7R5",
    "result": []
  },
  {
    "postal": "L3M2X3",
    "result": []
  },
  {
    "postal": "L3M8Z9",
    "result": []
  },
  {
    "postal": "L3M0N4",
    "result": []
  },
  {
    "postal": "L3M1K1",
    "result": [
      {
        "electoralDistricts": [
          {
            "election": null,
            "id": 70,
            "name": "Niagara West"
          }
        ],
        "pollDivisionIds": [
          10140053
        ],
        "postalCode": "L3M1K1",
        "streetName": "HAZELWOOD",
        "streetDirectionId": null,
        "streetTypeId": "AVE",
        "placeName": "GRIMSBY",
        "streetNameDisplayText": "HAZELWOOD AVE, GRIMSBY"
      }
    ]
  },
  {
    "postal": "L3M1S3",
    "result": [
      {
        "electoralDistricts": [
          {
            "election": null,
            "id": 70,
            "name": "Niagara West"
          }
        ],
        "pollDivisionIds": [
          10140052,
          10140053
        ],
        "postalCode": "L3M1S3",
        "streetName": "MAIN",
        "streetDirectionId": "W",
        "streetTypeId": "ST",
        "placeName": "GRIMSBY",
        "streetNameDisplayText": "MAIN ST W, GRIMSBY"
      }
    ]
  },
  {
    "postal": "L3M6M4",
    "result": []
  },
  {
    "postal": "L3M9A9",
    "result": []
  },
  {
    "postal": "L3M9Z9",
    "result": []
  },
  {
    "postal": "L3M6T4",
    "result": []
  },
  {
    "postal": "L3M0B2",
    "result": [
      {
        "electoralDistricts": [
          {
            "election": null,
            "id": 70,
            "name": "Niagara West"
          }
        ],
        "pollDivisionIds": [
          10140051
        ],
        "postalCode": "L3M0B2",
        "streetName": "WILLOW",
        "streetDirectionId": null,
        "streetTypeId": "LANE",
        "placeName": "GRIMSBY",
        "streetNameDisplayText": "WILLOW LANE, GRIMSBY"
      }
    ]
  },
  {
    "postal": "L3M2L9",
    "result": [
      {
        "electoralDistricts": [
          {
            "election": null,
            "id": 70,
            "name": "Niagara West"
          }
        ],
        "pollDivisionIds": [
          10140056
        ],
        "postalCode": "L3M2L9",
        "streetName": "LAWRENCE",
        "streetDirectionId": null,
        "streetTypeId": "AVE",
        "placeName": "GRIMSBY",
        "streetNameDisplayText": "LAWRENCE AVE, GRIMSBY"
      }
    ]
  },
  {
    "postal": "L3M8K9",
    "result": []
  },
  {
    "postal": "L3M2H9",
    "result": [
      {
        "electoralDistricts": [
          {
            "election": null,
            "id": 70,
            "name": "Niagara West"
          }
        ],
        "pollDivisionIds": [
          10140050
        ],
        "postalCode": "L3M2H9",
        "streetName": "LORNE",
        "streetDirectionId": null,
        "streetTypeId": "AVE",
        "placeName": "GRIMSBY",
        "streetNameDisplayText": "LORNE AVE, GRIMSBY"
      }
    ]
  },
  {
    "postal": "L3M3Z6",
    "result": [
      {
        "electoralDistricts": [
          {
            "election": null,
            "id": 70,
            "name": "Niagara West"
          }
        ],
        "pollDivisionIds": [
          10140049
        ],
        "postalCode": "L3M3Z6",
        "streetName": "ROSEDALE",
        "streetDirectionId": null,
        "streetTypeId": "ST",
        "placeName": "GRIMSBY",
        "streetNameDisplayText": "ROSEDALE ST, GRIMSBY"
      }
    ]
  },
  {
    "postal": "L3M3B0",
    "result": []
  },
  {
    "postal": "L3M2H8",
    "result": [
      {
        "electoralDistricts": [
          {
            "election": null,
            "id": 70,
            "name": "Niagara West"
          }
        ],
        "pollDivisionIds": [
          10140050
        ],
        "postalCode": "L3M2H8",
        "streetName": "LORNE",
        "streetDirectionId": null,
        "streetTypeId": "AVE",
        "placeName": "GRIMSBY",
        "streetNameDisplayText": "LORNE AVE, GRIMSBY"
      }
    ]
  },
  {
    "postal": "L3M3X2",
    "result": [
      {
        "electoralDistricts": [
          {
            "election": null,
            "id": 70,
            "name": "Niagara West"
          }
        ],
        "pollDivisionIds": [
          10140051
        ],
        "postalCode": "L3M3X2",
        "streetName": "ROBERTS",
        "streetDirectionId": null,
        "streetTypeId": "RD",
        "placeName": "GRIMSBY",
        "streetNameDisplayText": "ROBERTS RD, GRIMSBY"
      }
    ]
  },
  {
    "postal": "L3M2E9",
    "result": [
      {
        "electoralDistricts": [
          {
            "election": null,
            "id": 70,
            "name": "Niagara West"
          }
        ],
        "pollDivisionIds": [
          10140054
        ],
        "postalCode": "L3M2E9",
        "streetName": "VICTORIA",
        "streetDirectionId": null,
        "streetTypeId": "TERR",
        "placeName": "GRIMSBY",
        "streetNameDisplayText": "VICTORIA TERR, GRIMSBY"
      }
    ]
  },
  {
    "postal": "L3M9P6",
    "result": []
  },
  {
    "postal": "L3M9E2",
    "result": []
  },
  {
    "postal": "L3M9H2",
    "result": []
  },
  {
    "postal": "L3M1S8",
    "result": [
      {
        "electoralDistricts": [
          {
            "election": null,
            "id": 70,
            "name": "Niagara West"
          }
        ],
        "pollDivisionIds": [
          10140049,
          10140051
        ],
        "postalCode": "L3M1S8",
        "streetName": "MAIN",
        "streetDirectionId": "W",
        "streetTypeId": "ST",
        "placeName": "GRIMSBY",
        "streetNameDisplayText": "MAIN ST W, GRIMSBY"
      }
    ]
  },
  {
    "postal": "L3M3M6",
    "result": [
      {
        "electoralDistricts": [
          {
            "election": null,
            "id": 70,
            "name": "Niagara West"
          }
        ],
        "pollDivisionIds": [
          10140052
        ],
        "postalCode": "L3M3M6",
        "streetName": "PATTON",
        "streetDirectionId": null,
        "streetTypeId": "ST",
        "placeName": "GRIMSBY",
        "streetNameDisplayText": "PATTON ST, GRIMSBY"
      }
    ]
  },
  {
    "postal": "L3M6Z8",
    "result": []
  },
  {
    "postal": "L3M4J2",
    "result": [
      {
        "electoralDistricts": [
          {
            "election": null,
            "id": 70,
            "name": "Niagara West"
          }
        ],
        "pollDivisionIds": [
          10140052
        ],
        "postalCode": "L3M4J2",
        "streetName": "DEBORA",
        "streetDirectionId": null,
        "streetTypeId": "DR",
        "placeName": "GRIMSBY",
        "streetNameDisplayText": "DEBORA DR, GRIMSBY"
      }
    ]
  },
  {
    "postal": "L3M9Y1",
    "result": []
  },
  {
    "postal": "L3M8V6",
    "result": []
  },
  {
    "postal": "L3M6B2",
    "result": []
  },
  {
    "postal": "L3M1P8",
    "result": [
      {
        "electoralDistricts": [
          {
            "election": null,
            "id": 70,
            "name": "Niagara West"
          }
        ],
        "pollDivisionIds": [
          10140056
        ],
        "postalCode": "L3M1P8",
        "streetName": "MAIN",
        "streetDirectionId": "E",
        "streetTypeId": "ST",
        "placeName": "GRIMSBY",
        "streetNameDisplayText": "MAIN ST E, GRIMSBY"
      }
    ]
  },
  {
    "postal": "L3M0V8",
    "result": []
  },
  {
    "postal": "L3M4Y0",
    "result": []
  },
  {
    "postal": "L3M2T4",
    "result": []
  },
  {
    "postal": "L3M2S3",
    "result": []
  },
  {
    "postal": "L3M0K0",
    "result": []
  },
  {
    "postal": "L3M5N1",
    "result": [
      {
        "electoralDistricts": [
          {
            "election": null,
            "id": 70,
            "name": "Niagara West"
          }
        ],
        "pollDivisionIds": [
          10140049
        ],
        "postalCode": "L3M5N1",
        "streetName": "MAGNOLIA",
        "streetDirectionId": null,
        "streetTypeId": "CRES",
        "placeName": "GRIMSBY",
        "streetNameDisplayText": "MAGNOLIA CRES, GRIMSBY"
      }
    ]
  },
  {
    "postal": "L3M7T0",
    "result": []
  },
  {
    "postal": "L3M9N2",
    "result": []
  },
  {
    "postal": "L3M5L1",
    "result": [
      {
        "electoralDistricts": [
          {
            "election": null,
            "id": 70,
            "name": "Niagara West"
          }
        ],
        "pollDivisionIds": [
          10140056
        ],
        "postalCode": "L3M5L1",
        "streetName": "GRIFFITH",
        "streetDirectionId": null,
        "streetTypeId": "DR",
        "placeName": "GRIMSBY",
        "streetNameDisplayText": "GRIFFITH DR, GRIMSBY"
      },
      {
        "electoralDistricts": [
          {
            "election": null,
            "id": 70,
            "name": "Niagara West"
          }
        ],
        "pollDivisionIds": [
          10140056
        ],
        "postalCode": "L3M5L1",
        "streetName": "UDELL",
        "streetDirectionId": null,
        "streetTypeId": "WAY",
        "placeName": "GRIMSBY",
        "streetNameDisplayText": "UDELL WAY, GRIMSBY"
      }
    ]
  },
  {
    "postal": "L3M7G5",
    "result": []
  },
  {
    "postal": "L3M6K2",
    "result": []
  },
  {
    "postal": "L3M6P9",
    "result": []
  },
  {
    "postal": "L3M0E6",
    "result": [
      {
        "electoralDistricts": [
          {
            "election": null,
            "id": 70,
            "name": "Niagara West"
          }
        ],
        "pollDivisionIds": [
          10140049
        ],
        "postalCode": "L3M0E6",
        "streetName": "DONLAND",
        "streetDirectionId": null,
        "streetTypeId": "AVE",
        "placeName": "GRIMSBY",
        "streetNameDisplayText": "DONLAND AVE, GRIMSBY"
      },
      {
        "electoralDistricts": [
          {
            "election": null,
            "id": 70,
            "name": "Niagara West"
          }
        ],
        "pollDivisionIds": [
          10140049
        ],
        "postalCode": "L3M0E6",
        "streetName": "LAMPMAN",
        "streetDirectionId": null,
        "streetTypeId": "DR",
        "placeName": "GRIMSBY",
        "streetNameDisplayText": "LAMPMAN DR, GRIMSBY"
      }
    ]
  },
  {
    "postal": "L3M8R9",
    "result": []
  },
  {
    "postal": "L3M3G9",
    "result": [
      {
        "electoralDistricts": [
          {
            "election": null,
            "id": 70,
            "name": "Niagara West"
          }
        ],
        "pollDivisionIds": [
          10140052
        ],
        "postalCode": "L3M3G9",
        "streetName": "ONTARIO",
        "streetDirectionId": null,
        "streetTypeId": "ST",
        "placeName": "GRIMSBY",
        "streetNameDisplayText": "ONTARIO ST, GRIMSBY"
      }
    ]
  },
  {
    "postal": "L3M0V7",
    "result": []
  },
  {
    "postal": "L3M2Z1",
    "result": [
      {
        "electoralDistricts": [
          {
            "election": null,
            "id": 70,
            "name": "Niagara West"
          }
        ],
        "pollDivisionIds": [
          10140055
        ],
        "postalCode": "L3M2Z1",
        "streetName": "BURGESS",
        "streetDirectionId": null,
        "streetTypeId": "DR",
        "placeName": "GRIMSBY",
        "streetNameDisplayText": "BURGESS DR, GRIMSBY"
      }
    ]
  },
  {
    "postal": "L3M7N1",
    "result": []
  },
  {
    "postal": "L3M3C6",
    "result": [
      {
        "electoralDistricts": [
          {
            "election": null,
            "id": 70,
            "name": "Niagara West"
          }
        ],
        "pollDivisionIds": [
          10140053
        ],
        "postalCode": "L3M3C6",
        "streetName": "ROBINSON",
        "streetDirectionId": "S",
        "streetTypeId": "ST",
        "placeName": "GRIMSBY",
        "streetNameDisplayText": "ROBINSON ST S, GRIMSBY"
      }
    ]
  },
  {
    "postal": "L3M4M1",
    "result": [
      {
        "electoralDistricts": [
          {
            "election": null,
            "id": 70,
            "name": "Niagara West"
          }
        ],
        "pollDivisionIds": [
          10140054
        ],
        "postalCode": "L3M4M1",
        "streetName": "LAKE",
        "streetDirectionId": null,
        "streetTypeId": "ST",
        "placeName": "GRIMSBY",
        "streetNameDisplayText": "LAKE ST, GRIMSBY"
      }
    ]
  },
  {
    "postal": "L3M9K2",
    "result": []
  },
  {
    "postal": "L3M9S6",
    "result": []
  },
  {
    "postal": "L3M4X1",
    "result": [
      {
        "electoralDistricts": [
          {
            "election": null,
            "id": 70,
            "name": "Niagara West"
          }
        ],
        "pollDivisionIds": [
          10140051
        ],
        "postalCode": "L3M4X1",
        "streetName": "LIVINGSTON",
        "streetDirectionId": null,
        "streetTypeId": "AVE",
        "placeName": "GRIMSBY",
        "streetNameDisplayText": "LIVINGSTON AVE, GRIMSBY"
      }
    ]
  },
  {
    "postal": "L3M8W2",
    "result": []
  },
  {
    "postal": "L3M7N2",
    "result": []
  },
  {
    "postal": "L3M8S3",
    "result": []
  },
  {
    "postal": "L3M4V0",
    "result": []
  },
  {
    "postal": "L3M6W4",
    "result": []
  },
  {
    "postal": "L3M5M1",
    "result": [
      {
        "electoralDistricts": [
          {
            "election": null,
            "id": 70,
            "name": "Niagara West"
          }
        ],
        "pollDivisionIds": [
          10140049
        ],
        "postalCode": "L3M5M1",
        "streetName": "ASPEN",
        "streetDirectionId": null,
        "streetTypeId": "DR",
        "placeName": "GRIMSBY",
        "streetNameDisplayText": "ASPEN DR, GRIMSBY"
      }
    ]
  },
  {
    "postal": "L3M0S4",
    "result": []
  },
  {
    "postal": "L3M5X6",
    "result": []
  },
  {
    "postal": "L3M8L5",
    "result": []
  },
  {
    "postal": "L3M5M8",
    "result": [
      {
        "electoralDistricts": [
          {
            "election": null,
            "id": 70,
            "name": "Niagara West"
          }
        ],
        "pollDivisionIds": [
          10140049
        ],
        "postalCode": "L3M5M8",
        "streetName": "CEDAR",
        "streetDirectionId": null,
        "streetTypeId": "ST",
        "placeName": "GRIMSBY",
        "streetNameDisplayText": "CEDAR ST, GRIMSBY"
      }
    ]
  },
  {
    "postal": "L3M2G3",
    "result": [
      {
        "electoralDistricts": [
          {
            "election": null,
            "id": 70,
            "name": "Niagara West"
          }
        ],
        "pollDivisionIds": [
          10140054
        ],
        "postalCode": "L3M2G3",
        "streetName": "TUPPER",
        "streetDirectionId": null,
        "streetTypeId": "BLVD",
        "placeName": "GRIMSBY",
        "streetNameDisplayText": "TUPPER BLVD, GRIMSBY"
      }
    ]
  },
  {
    "postal": "L3M8E4",
    "result": []
  },
  {
    "postal": "L3M7S9",
    "result": []
  },
  {
    "postal": "L3M1K3",
    "result": [
      {
        "electoralDistricts": [
          {
            "election": null,
            "id": 70,
            "name": "Niagara West"
          }
        ],
        "pollDivisionIds": [
          10140053
        ],
        "postalCode": "L3M1K3",
        "streetName": "HAZELWOOD",
        "streetDirectionId": null,
        "streetTypeId": "AVE",
        "placeName": "GRIMSBY",
        "streetNameDisplayText": "HAZELWOOD AVE, GRIMSBY"
      }
    ]
  },
  {
    "postal": "L3M4E1",
    "result": [
      {
        "electoralDistricts": [
          {
            "election": null,
            "id": 70,
            "name": "Niagara West"
          }
        ],
        "pollDivisionIds": [
          10140049
        ],
        "postalCode": "L3M4E1",
        "streetName": "LEAWOOD",
        "streetDirectionId": null,
        "streetTypeId": "DR",
        "placeName": "GRIMSBY",
        "streetNameDisplayText": "LEAWOOD DR, GRIMSBY"
      }
    ]
  },
  {
    "postal": "L3M4R2",
    "result": [
      {
        "electoralDistricts": [
          {
            "election": null,
            "id": 70,
            "name": "Niagara West"
          }
        ],
        "pollDivisionIds": [
          10140057
        ],
        "postalCode": "L3M4R2",
        "streetName": "MISTY",
        "streetDirectionId": null,
        "streetTypeId": "CRT",
        "placeName": "GRIMSBY",
        "streetNameDisplayText": "MISTY CRT, GRIMSBY"
      }
    ]
  },
  {
    "postal": "L3M6T0",
    "result": []
  },
  {
    "postal": "L3M3K5",
    "result": [
      {
        "electoralDistricts": [
          {
            "election": null,
            "id": 70,
            "name": "Niagara West"
          }
        ],
        "pollDivisionIds": [
          10140052
        ],
        "postalCode": "L3M3K5",
        "streetName": "ELIZABETH",
        "streetDirectionId": null,
        "streetTypeId": "ST",
        "placeName": "GRIMSBY",
        "streetNameDisplayText": "ELIZABETH ST, GRIMSBY"
      }
    ]
  },
  {
    "postal": "L3M3S3",
    "result": [
      {
        "electoralDistricts": [
          {
            "election": null,
            "id": 70,
            "name": "Niagara West"
          }
        ],
        "pollDivisionIds": [
          10140053
        ],
        "postalCode": "L3M3S3",
        "streetName": "KIDD",
        "streetDirectionId": null,
        "streetTypeId": "AVE",
        "placeName": "GRIMSBY",
        "streetNameDisplayText": "KIDD AVE, GRIMSBY"
      }
    ]
  },
  {
    "postal": "L3M3L4",
    "result": [
      {
        "electoralDistricts": [
          {
            "election": null,
            "id": 70,
            "name": "Niagara West"
          }
        ],
        "pollDivisionIds": [
          10140050
        ],
        "postalCode": "L3M3L4",
        "streetName": "FAIRVIEW",
        "streetDirectionId": null,
        "streetTypeId": "RD",
        "placeName": "GRIMSBY",
        "streetNameDisplayText": "FAIRVIEW RD, GRIMSBY"
      }
    ]
  },
  {
    "postal": "L3M9Y2",
    "result": []
  },
  {
    "postal": "L3M1E0",
    "result": []
  },
  {
    "postal": "L3M9A4",
    "result": []
  },
  {
    "postal": "L3M1L3",
    "result": [
      {
        "electoralDistricts": [
          {
            "election": null,
            "id": 70,
            "name": "Niagara West"
          }
        ],
        "pollDivisionIds": [
          10140053
        ],
        "postalCode": "L3M1L3",
        "streetName": "LIVINGSTON",
        "streetDirectionId": null,
        "streetTypeId": "AVE",
        "placeName": "GRIMSBY",
        "streetNameDisplayText": "LIVINGSTON AVE, GRIMSBY"
      }
    ]
  },
  {
    "postal": "L3M6N1",
    "result": []
  },
  {
    "postal": "L3M6G7",
    "result": []
  },
  {
    "postal": "L3M7W1",
    "result": []
  },
  {
    "postal": "L3M4M6",
    "result": [
      {
        "electoralDistricts": [
          {
            "election": null,
            "id": 70,
            "name": "Niagara West"
          }
        ],
        "pollDivisionIds": [
          10140054
        ],
        "postalCode": "L3M4M6",
        "streetName": "LAKE",
        "streetDirectionId": null,
        "streetTypeId": "ST",
        "placeName": "GRIMSBY",
        "streetNameDisplayText": "LAKE ST, GRIMSBY"
      }
    ]
  },
  {
    "postal": "L3M1K0",
    "result": []
  },
  {
    "postal": "L3M3E2",
    "result": [
      {
        "electoralDistricts": [
          {
            "election": null,
            "id": 70,
            "name": "Niagara West"
          }
        ],
        "pollDivisionIds": [
          10140052
        ],
        "postalCode": "L3M3E2",
        "streetName": "ROBINSON",
        "streetDirectionId": "N",
        "streetTypeId": "ST",
        "placeName": "GRIMSBY",
        "streetNameDisplayText": "ROBINSON ST N, GRIMSBY"
      }
    ]
  },
  {
    "postal": "L3M5H4",
    "result": [
      {
        "electoralDistricts": [
          {
            "election": null,
            "id": 70,
            "name": "Niagara West"
          }
        ],
        "pollDivisionIds": [
          10140055
        ],
        "postalCode": "L3M5H4",
        "streetName": "COLONIAL",
        "streetDirectionId": null,
        "streetTypeId": "CRES",
        "placeName": "GRIMSBY",
        "streetNameDisplayText": "COLONIAL CRES, GRIMSBY"
      },
      {
        "electoralDistricts": [
          {
            "election": null,
            "id": 70,
            "name": "Niagara West"
          }
        ],
        "pollDivisionIds": [
          10140055
        ],
        "postalCode": "L3M5H4",
        "streetName": "HEDGE LAWN",
        "streetDirectionId": null,
        "streetTypeId": "DR",
        "placeName": "GRIMSBY",
        "streetNameDisplayText": "HEDGE LAWN DR, GRIMSBY"
      }
    ]
  },
  {
    "postal": "L3M1K7",
    "result": [
      {
        "electoralDistricts": [
          {
            "election": null,
            "id": 70,
            "name": "Niagara West"
          }
        ],
        "pollDivisionIds": [
          10140052
        ],
        "postalCode": "L3M1K7",
        "streetName": "LIVINGSTON",
        "streetDirectionId": null,
        "streetTypeId": "AVE",
        "placeName": "GRIMSBY",
        "streetNameDisplayText": "LIVINGSTON AVE, GRIMSBY"
      }
    ]
  },
  {
    "postal": "L3M0H0",
    "result": []
  },
  {
    "postal": "L3M0J3",
    "result": []
  },
  {
    "postal": "L3M1X6",
    "result": [
      {
        "electoralDistricts": [
          {
            "election": null,
            "id": 70,
            "name": "Niagara West"
          }
        ],
        "pollDivisionIds": [
          10140056
        ],
        "postalCode": "L3M1X6",
        "streetName": "CENTRAL",
        "streetDirectionId": null,
        "streetTypeId": "AVE",
        "placeName": "GRIMSBY",
        "streetNameDisplayText": "CENTRAL AVE, GRIMSBY"
      }
    ]
  },
  {
    "postal": "L3M2Z6",
    "result": [
      {
        "electoralDistricts": [
          {
            "election": null,
            "id": 70,
            "name": "Niagara West"
          }
        ],
        "pollDivisionIds": [
          10140055
        ],
        "postalCode": "L3M2Z6",
        "streetName": "NELLES",
        "streetDirectionId": "N",
        "streetTypeId": "RD",
        "placeName": "GRIMSBY",
        "streetNameDisplayText": "NELLES RD N, GRIMSBY"
      }
    ]
  },
  {
    "postal": "L3M4R9",
    "result": [
      {
        "electoralDistricts": [
          {
            "election": null,
            "id": 70,
            "name": "Niagara West"
          }
        ],
        "pollDivisionIds": [
          10140057
        ],
        "postalCode": "L3M4R9",
        "streetName": "NOMAD",
        "streetDirectionId": null,
        "streetTypeId": "CRT",
        "placeName": "GRIMSBY",
        "streetNameDisplayText": "NOMAD CRT, GRIMSBY"
      }
    ]
  },
  {
    "postal": "L3M0W8",
    "result": []
  },
  {
    "postal": "L3M1L4",
    "result": [
      {
        "electoralDistricts": [
          {
            "election": null,
            "id": 70,
            "name": "Niagara West"
          }
        ],
        "pollDivisionIds": [
          10140053
        ],
        "postalCode": "L3M1L4",
        "streetName": "LIVINGSTON",
        "streetDirectionId": null,
        "streetTypeId": "AVE",
        "placeName": "GRIMSBY",
        "streetNameDisplayText": "LIVINGSTON AVE, GRIMSBY"
      }
    ]
  },
  {
    "postal": "L3M0C8",
    "result": [
      {
        "electoralDistricts": [
          {
            "election": null,
            "id": 70,
            "name": "Niagara West"
          }
        ],
        "pollDivisionIds": [
          10140048
        ],
        "postalCode": "L3M0C8",
        "streetName": "WINSTON",
        "streetDirectionId": null,
        "streetTypeId": "RD",
        "placeName": "GRIMSBY",
        "streetNameDisplayText": "WINSTON RD, GRIMSBY"
      }
    ]
  },
  {
    "postal": "L3M9X7",
    "result": []
  },
  {
    "postal": "L3M4T1",
    "result": [
      {
        "electoralDistricts": [
          {
            "election": null,
            "id": 70,
            "name": "Niagara West"
          }
        ],
        "pollDivisionIds": [
          10140054
        ],
        "postalCode": "L3M4T1",
        "streetName": "BAL HARBOUR",
        "streetDirectionId": null,
        "streetTypeId": "DR",
        "placeName": "GRIMSBY",
        "streetNameDisplayText": "BAL HARBOUR DR, GRIMSBY"
      }
    ]
  },
  {
    "postal": "L3M0M0",
    "result": []
  },
  {
    "postal": "L3M6A2",
    "result": []
  },
  {
    "postal": "L3M9S8",
    "result": []
  },
  {
    "postal": "L3M9T4",
    "result": []
  },
  {
    "postal": "L3M9Y4",
    "result": []
  },
  {
    "postal": "L3M6G5",
    "result": []
  },
  {
    "postal": "L3M6H9",
    "result": []
  },
  {
    "postal": "L3M2P3",
    "result": [
      {
        "electoralDistricts": [
          {
            "election": null,
            "id": 70,
            "name": "Niagara West"
          }
        ],
        "pollDivisionIds": [
          10140056
        ],
        "postalCode": "L3M2P3",
        "streetName": "PARK",
        "streetDirectionId": "N",
        "streetTypeId": "RD",
        "placeName": "GRIMSBY",
        "streetNameDisplayText": "PARK RD N, GRIMSBY"
      }
    ]
  },
  {
    "postal": "L3M1T6",
    "result": [
      {
        "electoralDistricts": [
          {
            "election": null,
            "id": 70,
            "name": "Niagara West"
          }
        ],
        "pollDivisionIds": [
          10140049
        ],
        "postalCode": "L3M1T6",
        "streetName": "MAIN",
        "streetDirectionId": "W",
        "streetTypeId": "ST",
        "placeName": "GRIMSBY",
        "streetNameDisplayText": "MAIN ST W, GRIMSBY"
      }
    ]
  },
  {
    "postal": "L3M4P6",
    "result": [
      {
        "electoralDistricts": [
          {
            "election": null,
            "id": 70,
            "name": "Niagara West"
          }
        ],
        "pollDivisionIds": [
          10140054
        ],
        "postalCode": "L3M4P6",
        "streetName": "SAMUEL",
        "streetDirectionId": null,
        "streetTypeId": "RD",
        "placeName": "GRIMSBY",
        "streetNameDisplayText": "SAMUEL RD, GRIMSBY"
      }
    ]
  },
  {
    "postal": "L3M3K1",
    "result": [
      {
        "electoralDistricts": [
          {
            "election": null,
            "id": 70,
            "name": "Niagara West"
          }
        ],
        "pollDivisionIds": [
          10140053
        ],
        "postalCode": "L3M3K1",
        "streetName": "MOUNTAIN",
        "streetDirectionId": null,
        "streetTypeId": "ST",
        "placeName": "GRIMSBY",
        "streetNameDisplayText": "MOUNTAIN ST, GRIMSBY"
      }
    ]
  },
  {
    "postal": "L3M6X4",
    "result": []
  },
  {
    "postal": "L3M4M8",
    "result": [
      {
        "electoralDistricts": [
          {
            "election": null,
            "id": 70,
            "name": "Niagara West"
          }
        ],
        "pollDivisionIds": [
          10140054
        ],
        "postalCode": "L3M4M8",
        "streetName": "LAKE",
        "streetDirectionId": null,
        "streetTypeId": "ST",
        "placeName": "GRIMSBY",
        "streetNameDisplayText": "LAKE ST, GRIMSBY"
      }
    ]
  },
  {
    "postal": "L3M2Y1",
    "result": [
      {
        "electoralDistricts": [
          {
            "election": null,
            "id": 70,
            "name": "Niagara West"
          }
        ],
        "pollDivisionIds": [
          10140055
        ],
        "postalCode": "L3M2Y1",
        "streetName": "SUNNYLEA",
        "streetDirectionId": null,
        "streetTypeId": "CRES",
        "placeName": "GRIMSBY",
        "streetNameDisplayText": "SUNNYLEA CRES, GRIMSBY"
      }
    ]
  },
  {
    "postal": "L3M6M1",
    "result": []
  },
  {
    "postal": "L3M5L8",
    "result": [
      {
        "electoralDistricts": [
          {
            "election": null,
            "id": 70,
            "name": "Niagara West"
          }
        ],
        "pollDivisionIds": [
          10140049
        ],
        "postalCode": "L3M5L8",
        "streetName": "ASPEN",
        "streetDirectionId": null,
        "streetTypeId": "DR",
        "placeName": "GRIMSBY",
        "streetNameDisplayText": "ASPEN DR, GRIMSBY"
      },
      {
        "electoralDistricts": [
          {
            "election": null,
            "id": 70,
            "name": "Niagara West"
          }
        ],
        "pollDivisionIds": [
          10140049
        ],
        "postalCode": "L3M5L8",
        "streetName": "CEDAR",
        "streetDirectionId": null,
        "streetTypeId": "ST",
        "placeName": "GRIMSBY",
        "streetNameDisplayText": "CEDAR ST, GRIMSBY"
      }
    ]
  },
  {
    "postal": "L3M3P6",
    "result": [
      {
        "electoralDistricts": [
          {
            "election": null,
            "id": 70,
            "name": "Niagara West"
          }
        ],
        "pollDivisionIds": [
          10140050
        ],
        "postalCode": "L3M3P6",
        "streetName": "MURRAY",
        "streetDirectionId": null,
        "streetTypeId": "ST",
        "placeName": "GRIMSBY",
        "streetNameDisplayText": "MURRAY ST, GRIMSBY"
      }
    ]
  },
  {
    "postal": "L3M9A5",
    "result": []
  },
  {
    "postal": "L3M7K1",
    "result": []
  },
  {
    "postal": "L3M3J4",
    "result": [
      {
        "electoralDistricts": [
          {
            "election": null,
            "id": 70,
            "name": "Niagara West"
          }
        ],
        "pollDivisionIds": [
          10140050
        ],
        "postalCode": "L3M3J4",
        "streetName": "WHITTAKER",
        "streetDirectionId": null,
        "streetTypeId": "AVE",
        "placeName": "GRIMSBY",
        "streetNameDisplayText": "WHITTAKER AVE, GRIMSBY"
      }
    ]
  },
  {
    "postal": "L3M5E7",
    "result": [
      {
        "electoralDistricts": [
          {
            "election": null,
            "id": 70,
            "name": "Niagara West"
          }
        ],
        "pollDivisionIds": [
          10140056
        ],
        "postalCode": "L3M5E7",
        "streetName": "IROQUOIS",
        "streetDirectionId": null,
        "streetTypeId": "TRAIL",
        "placeName": "GRIMSBY",
        "streetNameDisplayText": "IROQUOIS TRAIL, GRIMSBY"
      }
    ]
  },
  {
    "postal": "L3M3A7",
    "result": [
      {
        "electoralDistricts": [
          {
            "election": null,
            "id": 70,
            "name": "Niagara West"
          }
        ],
        "pollDivisionIds": [
          10140055
        ],
        "postalCode": "L3M3A7",
        "streetName": "STRATHEARN",
        "streetDirectionId": null,
        "streetTypeId": "AVE",
        "placeName": "GRIMSBY",
        "streetNameDisplayText": "STRATHEARN AVE, GRIMSBY"
      }
    ]
  },
  {
    "postal": "L3M1B9",
    "result": [
      {
        "electoralDistricts": [
          {
            "election": null,
            "id": 70,
            "name": "Niagara West"
          }
        ],
        "pollDivisionIds": [
          10140049
        ],
        "postalCode": "L3M1B9",
        "streetName": "ELGIN",
        "streetDirectionId": null,
        "streetTypeId": "ST",
        "placeName": "GRIMSBY",
        "streetNameDisplayText": "ELGIN ST, GRIMSBY"
      }
    ]
  },
  {
    "postal": "L3M9E8",
    "result": []
  },
  {
    "postal": "L3M1C9",
    "result": [
      {
        "electoralDistricts": [
          {
            "election": null,
            "id": 70,
            "name": "Niagara West"
          }
        ],
        "pollDivisionIds": [
          10140049
        ],
        "postalCode": "L3M1C9",
        "streetName": "ELMER",
        "streetDirectionId": null,
        "streetTypeId": "ST",
        "placeName": "GRIMSBY",
        "streetNameDisplayText": "ELMER ST, GRIMSBY"
      }
    ]
  },
  {
    "postal": "L3M3B5",
    "result": [
      {
        "electoralDistricts": [
          {
            "election": null,
            "id": 70,
            "name": "Niagara West"
          }
        ],
        "pollDivisionIds": [
          10140053
        ],
        "postalCode": "L3M3B5",
        "streetName": "CHERRYHILL",
        "streetDirectionId": null,
        "streetTypeId": "DR",
        "placeName": "GRIMSBY",
        "streetNameDisplayText": "CHERRYHILL DR, GRIMSBY"
      }
    ]
  },
  {
    "postal": "L3M8R0",
    "result": []
  },
  {
    "postal": "L3M3P2",
    "result": [
      {
        "electoralDistricts": [
          {
            "election": null,
            "id": 70,
            "name": "Niagara West"
          }
        ],
        "pollDivisionIds": [
          10140050
        ],
        "postalCode": "L3M3P2",
        "streetName": "MURRAY",
        "streetDirectionId": null,
        "streetTypeId": "ST",
        "placeName": "GRIMSBY",
        "streetNameDisplayText": "MURRAY ST, GRIMSBY"
      }
    ]
  },
  {
    "postal": "L3M5V4",
    "result": []
  },
  {
    "postal": "L3M4H0",
    "result": []
  },
  {
    "postal": "L3M4S7",
    "result": [
      {
        "electoralDistricts": [
          {
            "election": null,
            "id": 70,
            "name": "Niagara West"
          }
        ],
        "pollDivisionIds": [
          10140049
        ],
        "postalCode": "L3M4S7",
        "streetName": "CASABLANCA",
        "streetDirectionId": null,
        "streetTypeId": "BLVD",
        "placeName": "GRIMSBY",
        "streetNameDisplayText": "CASABLANCA BLVD, GRIMSBY"
      }
    ]
  },
  {
    "postal": "L3M6C2",
    "result": []
  },
  {
    "postal": "L3M8W3",
    "result": []
  },
  {
    "postal": "L3M4M5",
    "result": [
      {
        "electoralDistricts": [
          {
            "election": null,
            "id": 70,
            "name": "Niagara West"
          }
        ],
        "pollDivisionIds": [
          10140057,
          10140054
        ],
        "postalCode": "L3M4M5",
        "streetName": "LAKE",
        "streetDirectionId": null,
        "streetTypeId": "ST",
        "placeName": "GRIMSBY",
        "streetNameDisplayText": "LAKE ST, GRIMSBY"
      }
    ]
  },
  {
    "postal": "L3M5T1",
    "result": [
      {
        "electoralDistricts": [
          {
            "election": null,
            "id": 70,
            "name": "Niagara West"
          }
        ],
        "pollDivisionIds": [
          10140056
        ],
        "postalCode": "L3M5T1",
        "streetName": "TEETER",
        "streetDirectionId": null,
        "streetTypeId": "PL",
        "placeName": "GRIMSBY",
        "streetNameDisplayText": "TEETER PL, GRIMSBY"
      },
      {
        "electoralDistricts": [
          {
            "election": null,
            "id": 70,
            "name": "Niagara West"
          }
        ],
        "pollDivisionIds": [
          10140056
        ],
        "postalCode": "L3M5T1",
        "streetName": "TEETER",
        "streetDirectionId": null,
        "streetTypeId": "PLACE",
        "placeName": "GRIMSBY",
        "streetNameDisplayText": "TEETER PLACE, GRIMSBY"
      }
    ]
  },
  {
    "postal": "L3M3B3",
    "result": [
      {
        "electoralDistricts": [
          {
            "election": null,
            "id": 70,
            "name": "Niagara West"
          }
        ],
        "pollDivisionIds": [
          10140053
        ],
        "postalCode": "L3M3B3",
        "streetName": "CHERRYHILL",
        "streetDirectionId": null,
        "streetTypeId": "DR",
        "placeName": "GRIMSBY",
        "streetNameDisplayText": "CHERRYHILL DR, GRIMSBY"
      }
    ]
  },
  {
    "postal": "L3M6C6",
    "result": []
  },
  {
    "postal": "L3M7N8",
    "result": []
  },
  {
    "postal": "L3M2Y3",
    "result": [
      {
        "electoralDistricts": [
          {
            "election": null,
            "id": 70,
            "name": "Niagara West"
          }
        ],
        "pollDivisionIds": [
          10140055
        ],
        "postalCode": "L3M2Y3",
        "streetName": "GOVERNOR'S",
        "streetDirectionId": null,
        "streetTypeId": "RD",
        "placeName": "GRIMSBY",
        "streetNameDisplayText": "GOVERNOR'S RD, GRIMSBY"
      }
    ]
  },
  {
    "postal": "L3M2R6",
    "result": [
      {
        "electoralDistricts": [
          {
            "election": null,
            "id": 70,
            "name": "Niagara West"
          }
        ],
        "pollDivisionIds": [
          10140054
        ],
        "postalCode": "L3M2R6",
        "streetName": "GRAND",
        "streetDirectionId": null,
        "streetTypeId": "AVE",
        "placeName": "GRIMSBY",
        "streetNameDisplayText": "GRAND AVE, GRIMSBY"
      }
    ]
  },
  {
    "postal": "L3M7N3",
    "result": []
  },
  {
    "postal": "L3M8J2",
    "result": []
  },
  {
    "postal": "L3M6A9",
    "result": []
  },
  {
    "postal": "L3M3V2",
    "result": [
      {
        "electoralDistricts": [
          {
            "election": null,
            "id": 70,
            "name": "Niagara West"
          }
        ],
        "pollDivisionIds": [
          10140050
        ],
        "postalCode": "L3M3V2",
        "streetName": "VIKING",
        "streetDirectionId": null,
        "streetTypeId": "DR",
        "placeName": "GRIMSBY",
        "streetNameDisplayText": "VIKING DR, GRIMSBY"
      }
    ]
  },
  {
    "postal": "L3M2N3",
    "result": [
      {
        "electoralDistricts": [
          {
            "election": null,
            "id": 70,
            "name": "Niagara West"
          }
        ],
        "pollDivisionIds": [
          10140054
        ],
        "postalCode": "L3M2N3",
        "streetName": "BENDAMERE",
        "streetDirectionId": null,
        "streetTypeId": "DR",
        "placeName": "GRIMSBY",
        "streetNameDisplayText": "BENDAMERE DR, GRIMSBY"
      }
    ]
  },
  {
    "postal": "L3M1S5",
    "result": [
      {
        "electoralDistricts": [
          {
            "election": null,
            "id": 70,
            "name": "Niagara West"
          }
        ],
        "pollDivisionIds": [
          10140051
        ],
        "postalCode": "L3M1S5",
        "streetName": "MAIN",
        "streetDirectionId": "W",
        "streetTypeId": "ST",
        "placeName": "GRIMSBY",
        "streetNameDisplayText": "MAIN ST W, GRIMSBY"
      }
    ]
  },
  {
    "postal": "L3M4T7",
    "result": []
  },
  {
    "postal": "L3M6Y7",
    "result": []
  },
  {
    "postal": "L3M0W7",
    "result": []
  },
  {
    "postal": "L3M2W9",
    "result": [
      {
        "electoralDistricts": [
          {
            "election": null,
            "id": 70,
            "name": "Niagara West"
          }
        ],
        "pollDivisionIds": [
          10140055
        ],
        "postalCode": "L3M2W9",
        "streetName": "BAKER",
        "streetDirectionId": "N",
        "streetTypeId": "RD",
        "placeName": "GRIMSBY",
        "streetNameDisplayText": "BAKER RD N, GRIMSBY"
      }
    ]
  },
  {
    "postal": "L3M8V0",
    "result": []
  },
  {
    "postal": "L3M0H4",
    "result": [
      {
        "electoralDistricts": [
          {
            "election": null,
            "id": 70,
            "name": "Niagara West"
          }
        ],
        "pollDivisionIds": [
          10140047
        ],
        "postalCode": "L3M0H4",
        "streetName": "BEAU CHATEL",
        "streetDirectionId": null,
        "streetTypeId": "LANE",
        "placeName": "GRIMSBY",
        "streetNameDisplayText": "BEAU CHATEL LANE, GRIMSBY"
      },
      {
        "electoralDistricts": [
          {
            "election": null,
            "id": 70,
            "name": "Niagara West"
          }
        ],
        "pollDivisionIds": [
          10140047
        ],
        "postalCode": "L3M0H4",
        "streetName": "DUNROBIN",
        "streetDirectionId": null,
        "streetTypeId": "LANE",
        "placeName": "GRIMSBY",
        "streetNameDisplayText": "DUNROBIN LANE, GRIMSBY"
      },
      {
        "electoralDistricts": [
          {
            "election": null,
            "id": 70,
            "name": "Niagara West"
          }
        ],
        "pollDivisionIds": [
          10140047
        ],
        "postalCode": "L3M0H4",
        "streetName": "WHITE STAR",
        "streetDirectionId": null,
        "streetTypeId": "LANE",
        "placeName": "GRIMSBY",
        "streetNameDisplayText": "WHITE STAR LANE, GRIMSBY"
      }
    ]
  },
  {
    "postal": "L3M2T1",
    "result": [
      {
        "electoralDistricts": [
          {
            "election": null,
            "id": 70,
            "name": "Niagara West"
          }
        ],
        "pollDivisionIds": [
          10140054
        ],
        "postalCode": "L3M2T1",
        "streetName": "FIFTH",
        "streetDirectionId": null,
        "streetTypeId": "ST",
        "placeName": "GRIMSBY",
        "streetNameDisplayText": "FIFTH ST, GRIMSBY"
      }
    ]
  },
  {
    "postal": "L3M1B1",
    "result": [
      {
        "electoralDistricts": [
          {
            "election": null,
            "id": 70,
            "name": "Niagara West"
          }
        ],
        "pollDivisionIds": [
          10140055
        ],
        "postalCode": "L3M1B1",
        "streetName": "DORCHESTER",
        "streetDirectionId": null,
        "streetTypeId": "DR",
        "placeName": "GRIMSBY",
        "streetNameDisplayText": "DORCHESTER DR, GRIMSBY"
      }
    ]
  },
  {
    "postal": "L3M8B6",
    "result": []
  },
  {
    "postal": "L3M6H1",
    "result": []
  },
  {
    "postal": "L3M8T8",
    "result": []
  },
  {
    "postal": "L3M0T4",
    "result": []
  },
  {
    "postal": "L3M2C4",
    "result": [
      {
        "electoralDistricts": [
          {
            "election": null,
            "id": 70,
            "name": "Niagara West"
          }
        ],
        "pollDivisionIds": [
          10140050
        ],
        "postalCode": "L3M2C4",
        "streetName": "OLIVE",
        "streetDirectionId": null,
        "streetTypeId": "ST",
        "placeName": "GRIMSBY",
        "streetNameDisplayText": "OLIVE ST, GRIMSBY"
      }
    ]
  },
  {
    "postal": "L3M8N3",
    "result": []
  },
  {
    "postal": "L3M4L8",
    "result": [
      {
        "electoralDistricts": [
          {
            "election": null,
            "id": 70,
            "name": "Niagara West"
          }
        ],
        "pollDivisionIds": [
          10140054
        ],
        "postalCode": "L3M4L8",
        "streetName": "WOODEDEN",
        "streetDirectionId": null,
        "streetTypeId": "RD",
        "placeName": "GRIMSBY",
        "streetNameDisplayText": "WOODEDEN RD, GRIMSBY"
      }
    ]
  },
  {
    "postal": "L3M2B5",
    "result": [
      {
        "electoralDistricts": [
          {
            "election": null,
            "id": 70,
            "name": "Niagara West"
          }
        ],
        "pollDivisionIds": [
          10140050
        ],
        "postalCode": "L3M2B5",
        "streetName": "OLIVE",
        "streetDirectionId": null,
        "streetTypeId": "ST",
        "placeName": "GRIMSBY",
        "streetNameDisplayText": "OLIVE ST, GRIMSBY"
      }
    ]
  },
  {
    "postal": "L3M3H1",
    "result": [
      {
        "electoralDistricts": [
          {
            "election": null,
            "id": 70,
            "name": "Niagara West"
          }
        ],
        "pollDivisionIds": [
          10140052
        ],
        "postalCode": "L3M3H1",
        "streetName": "ONTARIO",
        "streetDirectionId": null,
        "streetTypeId": "ST",
        "placeName": "GRIMSBY",
        "streetNameDisplayText": "ONTARIO ST, GRIMSBY"
      }
    ]
  },
  {
    "postal": "L3M4Y1",
    "result": [
      {
        "electoralDistricts": [
          {
            "election": null,
            "id": 70,
            "name": "Niagara West"
          }
        ],
        "pollDivisionIds": [
          10140056
        ],
        "postalCode": "L3M4Y1",
        "streetName": "DRIFTWOOD",
        "streetDirectionId": null,
        "streetTypeId": "CRT",
        "placeName": "GRIMSBY",
        "streetNameDisplayText": "DRIFTWOOD CRT, GRIMSBY"
      }
    ]
  },
  {
    "postal": "L3M7E2",
    "result": []
  },
  {
    "postal": "L3M2P5",
    "result": []
  },
  {
    "postal": "L3M8R7",
    "result": []
  },
  {
    "postal": "L3M9P1",
    "result": []
  },
  {
    "postal": "L3M3B8",
    "result": [
      {
        "electoralDistricts": [
          {
            "election": null,
            "id": 70,
            "name": "Niagara West"
          }
        ],
        "pollDivisionIds": [
          10140052
        ],
        "postalCode": "L3M3B8",
        "streetName": "MAPLE",
        "streetDirectionId": null,
        "streetTypeId": "AVE",
        "placeName": "GRIMSBY",
        "streetNameDisplayText": "MAPLE AVE, GRIMSBY"
      }
    ]
  },
  {
    "postal": "L3M3P7",
    "result": [
      {
        "electoralDistricts": [
          {
            "election": null,
            "id": 70,
            "name": "Niagara West"
          }
        ],
        "pollDivisionIds": [
          10140050
        ],
        "postalCode": "L3M3P7",
        "streetName": "MURRAY",
        "streetDirectionId": null,
        "streetTypeId": "ST",
        "placeName": "GRIMSBY",
        "streetNameDisplayText": "MURRAY ST, GRIMSBY"
      }
    ]
  },
  {
    "postal": "L3M9B2",
    "result": []
  },
  {
    "postal": "L3M6Z3",
    "result": []
  },
  {
    "postal": "L3M4N5",
    "result": [
      {
        "electoralDistricts": [
          {
            "election": null,
            "id": 70,
            "name": "Niagara West"
          }
        ],
        "pollDivisionIds": [
          10140097
        ],
        "postalCode": "L3M4N5",
        "streetName": "BARTLETT",
        "streetDirectionId": null,
        "streetTypeId": "AVE",
        "placeName": "GRIMSBY",
        "streetNameDisplayText": "BARTLETT AVE, GRIMSBY"
      }
    ]
  },
  {
    "postal": "L3M8T3",
    "result": []
  },
  {
    "postal": "L3M1V2",
    "result": [
      {
        "electoralDistricts": [
          {
            "election": null,
            "id": 70,
            "name": "Niagara West"
          }
        ],
        "pollDivisionIds": [
          10140056
        ],
        "postalCode": "L3M1V2",
        "streetName": "MARILYN",
        "streetDirectionId": null,
        "streetTypeId": "ST",
        "placeName": "GRIMSBY",
        "streetNameDisplayText": "MARILYN ST, GRIMSBY"
      }
    ]
  },
  {
    "postal": "L3M1Y0",
    "result": []
  },
  {
    "postal": "L3M3G6",
    "result": []
  },
  {
    "postal": "L3M3H7",
    "result": [
      {
        "electoralDistricts": [
          {
            "election": null,
            "id": 70,
            "name": "Niagara West"
          }
        ],
        "pollDivisionIds": [
          10140050
        ],
        "postalCode": "L3M3H7",
        "streetName": "OLD ORCHARD",
        "streetDirectionId": null,
        "streetTypeId": "AVE",
        "placeName": "GRIMSBY",
        "streetNameDisplayText": "OLD ORCHARD AVE, GRIMSBY"
      }
    ]
  },
  {
    "postal": "L3M7X8",
    "result": []
  },
  {
    "postal": "L3M0C7",
    "result": [
      {
        "electoralDistricts": [
          {
            "election": null,
            "id": 70,
            "name": "Niagara West"
          }
        ],
        "pollDivisionIds": [
          10140050
        ],
        "postalCode": "L3M0C7",
        "streetName": "DIANA",
        "streetDirectionId": null,
        "streetTypeId": "AVE",
        "placeName": "GRIMSBY",
        "streetNameDisplayText": "DIANA AVE, GRIMSBY"
      },
      {
        "electoralDistricts": [
          {
            "election": null,
            "id": 70,
            "name": "Niagara West"
          }
        ],
        "pollDivisionIds": [
          10140050
        ],
        "postalCode": "L3M0C7",
        "streetName": "LORNE",
        "streetDirectionId": null,
        "streetTypeId": "AVE",
        "placeName": "GRIMSBY",
        "streetNameDisplayText": "LORNE AVE, GRIMSBY"
      },
      {
        "electoralDistricts": [
          {
            "election": null,
            "id": 70,
            "name": "Niagara West"
          }
        ],
        "pollDivisionIds": [
          10140050
        ],
        "postalCode": "L3M0C7",
        "streetName": "MURRAY",
        "streetDirectionId": null,
        "streetTypeId": "ST",
        "placeName": "GRIMSBY",
        "streetNameDisplayText": "MURRAY ST, GRIMSBY"
      }
    ]
  },
  {
    "postal": "L3M0W9",
    "result": []
  },
  {
    "postal": "L3M8E6",
    "result": []
  },
  {
    "postal": "L3M9Z8",
    "result": []
  },
  {
    "postal": "L3M3P4",
    "result": [
      {
        "electoralDistricts": [
          {
            "election": null,
            "id": 70,
            "name": "Niagara West"
          }
        ],
        "pollDivisionIds": [
          10140050
        ],
        "postalCode": "L3M3P4",
        "streetName": "MURRAY",
        "streetDirectionId": null,
        "streetTypeId": "ST",
        "placeName": "GRIMSBY",
        "streetNameDisplayText": "MURRAY ST, GRIMSBY"
      }
    ]
  },
  {
    "postal": "L3M6L8",
    "result": []
  },
  {
    "postal": "L3M2R4",
    "result": [
      {
        "electoralDistricts": [
          {
            "election": null,
            "id": 70,
            "name": "Niagara West"
          }
        ],
        "pollDivisionIds": [
          10140054
        ],
        "postalCode": "L3M2R4",
        "streetName": "CENTRE",
        "streetDirectionId": null,
        "streetTypeId": "ST",
        "placeName": "GRIMSBY",
        "streetNameDisplayText": "CENTRE ST, GRIMSBY"
      }
    ]
  },
  {
    "postal": "L3M2W1",
    "result": [
      {
        "electoralDistricts": [
          {
            "election": null,
            "id": 70,
            "name": "Niagara West"
          }
        ],
        "pollDivisionIds": [
          10140054
        ],
        "postalCode": "L3M2W1",
        "streetName": "FOURTEENTH",
        "streetDirectionId": null,
        "streetTypeId": "ST",
        "placeName": "GRIMSBY",
        "streetNameDisplayText": "FOURTEENTH ST, GRIMSBY"
      }
    ]
  },
  {
    "postal": "L3M9H8",
    "result": []
  },
  {
    "postal": "L3M8X9",
    "result": []
  },
  {
    "postal": "L3M7H4",
    "result": []
  },
  {
    "postal": "L3M3J1",
    "result": [
      {
        "electoralDistricts": [
          {
            "election": null,
            "id": 70,
            "name": "Niagara West"
          }
        ],
        "pollDivisionIds": [
          10140050
        ],
        "postalCode": "L3M3J1",
        "streetName": "WHITTAKER",
        "streetDirectionId": null,
        "streetTypeId": "AVE",
        "placeName": "GRIMSBY",
        "streetNameDisplayText": "WHITTAKER AVE, GRIMSBY"
      }
    ]
  },
  {
    "postal": "L3M1P4",
    "result": [
      {
        "electoralDistricts": [
          {
            "election": null,
            "id": 70,
            "name": "Niagara West"
          }
        ],
        "pollDivisionIds": [
          10140055
        ],
        "postalCode": "L3M1P4",
        "streetName": "MAIN",
        "streetDirectionId": "E",
        "streetTypeId": "ST",
        "placeName": "GRIMSBY",
        "streetNameDisplayText": "MAIN ST E, GRIMSBY"
      }
    ]
  },
  {
    "postal": "L3M2A3",
    "result": [
      {
        "electoralDistricts": [
          {
            "election": null,
            "id": 70,
            "name": "Niagara West"
          }
        ],
        "pollDivisionIds": [
          10140054
        ],
        "postalCode": "L3M2A3",
        "streetName": "FAIR",
        "streetDirectionId": null,
        "streetTypeId": "AVE",
        "placeName": "GRIMSBY",
        "streetNameDisplayText": "FAIR AVE, GRIMSBY"
      }
    ]
  },
  {
    "postal": "L3M0Z1",
    "result": []
  },
  {
    "postal": "L3M1C1",
    "result": [
      {
        "electoralDistricts": [
          {
            "election": null,
            "id": 70,
            "name": "Niagara West"
          }
        ],
        "pollDivisionIds": [
          10140049
        ],
        "postalCode": "L3M1C1",
        "streetName": "QUEENS",
        "streetDirectionId": null,
        "streetTypeId": "CRT",
        "placeName": "GRIMSBY",
        "streetNameDisplayText": "QUEENS CRT, GRIMSBY"
      }
    ]
  },
  {
    "postal": "L3M0H3",
    "result": [
      {
        "electoralDistricts": [
          {
            "election": null,
            "id": 70,
            "name": "Niagara West"
          }
        ],
        "pollDivisionIds": [
          10140051,
          10140067
        ],
        "postalCode": "L3M0H3",
        "streetName": "PIERRE TRUDEAU",
        "streetDirectionId": null,
        "streetTypeId": "LANE",
        "placeName": "GRIMSBY",
        "streetNameDisplayText": "PIERRE TRUDEAU LANE, GRIMSBY"
      }
    ]
  },
  {
    "postal": "L3M7B0",
    "result": []
  },
  {
    "postal": "L3M5K2",
    "result": [
      {
        "electoralDistricts": [
          {
            "election": null,
            "id": 70,
            "name": "Niagara West"
          }
        ],
        "pollDivisionIds": [
          10140054
        ],
        "postalCode": "L3M5K2",
        "streetName": "RED HAVEN",
        "streetDirectionId": null,
        "streetTypeId": "DR",
        "placeName": "GRIMSBY",
        "streetNameDisplayText": "RED HAVEN DR, GRIMSBY"
      }
    ]
  },
  {
    "postal": "L3M1E9",
    "result": [
      {
        "electoralDistricts": [
          {
            "election": null,
            "id": 70,
            "name": "Niagara West"
          }
        ],
        "pollDivisionIds": [
          10140053
        ],
        "postalCode": "L3M1E9",
        "streetName": "PEACHWOOD",
        "streetDirectionId": null,
        "streetTypeId": "PL",
        "placeName": "GRIMSBY",
        "streetNameDisplayText": "PEACHWOOD PL, GRIMSBY"
      }
    ]
  },
  {
    "postal": "L3M9W7",
    "result": []
  },
  {
    "postal": "L3M5W6",
    "result": []
  },
  {
    "postal": "L3M6S6",
    "result": []
  },
  {
    "postal": "L3M2P8",
    "result": [
      {
        "electoralDistricts": [
          {
            "election": null,
            "id": 70,
            "name": "Niagara West"
          }
        ],
        "pollDivisionIds": [
          10140054
        ],
        "postalCode": "L3M2P8",
        "streetName": "PARK",
        "streetDirectionId": "N",
        "streetTypeId": "RD",
        "placeName": "GRIMSBY",
        "streetNameDisplayText": "PARK RD N, GRIMSBY"
      }
    ]
  },
  {
    "postal": "L3M4P8",
    "result": [
      {
        "electoralDistricts": [
          {
            "election": null,
            "id": 70,
            "name": "Niagara West"
          }
        ],
        "pollDivisionIds": [
          10140057
        ],
        "postalCode": "L3M4P8",
        "streetName": "CHEVAL",
        "streetDirectionId": null,
        "streetTypeId": "DR",
        "placeName": "GRIMSBY",
        "streetNameDisplayText": "CHEVAL DR, GRIMSBY"
      }
    ]
  },
  {
    "postal": "L3M0V9",
    "result": []
  },
  {
    "postal": "L3M5Y2",
    "result": []
  },
  {
    "postal": "L3M7Z7",
    "result": []
  },
  {
    "postal": "L3M6Y8",
    "result": []
  },
  {
    "postal": "L3M2G7",
    "result": [
      {
        "electoralDistricts": [
          {
            "election": null,
            "id": 70,
            "name": "Niagara West"
          }
        ],
        "pollDivisionIds": [
          10140054
        ],
        "postalCode": "L3M2G7",
        "streetName": "LAKE",
        "streetDirectionId": null,
        "streetTypeId": "ST",
        "placeName": "GRIMSBY",
        "streetNameDisplayText": "LAKE ST, GRIMSBY"
      }
    ]
  },
  {
    "postal": "L3M8C1",
    "result": []
  },
  {
    "postal": "L3M5C5",
    "result": [
      {
        "electoralDistricts": [
          {
            "election": null,
            "id": 70,
            "name": "Niagara West"
          }
        ],
        "pollDivisionIds": [
          10140050
        ],
        "postalCode": "L3M5C5",
        "streetName": "KERMAN",
        "streetDirectionId": null,
        "streetTypeId": "AVE",
        "placeName": "GRIMSBY",
        "streetNameDisplayText": "KERMAN AVE, GRIMSBY"
      }
    ]
  },
  {
    "postal": "L3M2X8",
    "result": [
      {
        "electoralDistricts": [
          {
            "election": null,
            "id": 70,
            "name": "Niagara West"
          }
        ],
        "pollDivisionIds": [
          10140055
        ],
        "postalCode": "L3M2X8",
        "streetName": "LYNNWOOD",
        "streetDirectionId": null,
        "streetTypeId": "AVE",
        "placeName": "GRIMSBY",
        "streetNameDisplayText": "LYNNWOOD AVE, GRIMSBY"
      }
    ]
  },
  {
    "postal": "L3M1W5",
    "result": [
      {
        "electoralDistricts": [
          {
            "election": null,
            "id": 70,
            "name": "Niagara West"
          }
        ],
        "pollDivisionIds": [
          10140055
        ],
        "postalCode": "L3M1W5",
        "streetName": "BEVERLY",
        "streetDirectionId": null,
        "streetTypeId": "ST",
        "placeName": "GRIMSBY",
        "streetNameDisplayText": "BEVERLY ST, GRIMSBY"
      }
    ]
  },
  {
    "postal": "L3M7G0",
    "result": []
  },
  {
    "postal": "L3M8J8",
    "result": []
  },
  {
    "postal": "L3M3Y0",
    "result": []
  },
  {
    "postal": "L3M9T7",
    "result": []
  },
  {
    "postal": "L3M5P4",
    "result": [
      {
        "electoralDistricts": [
          {
            "election": null,
            "id": 70,
            "name": "Niagara West"
          }
        ],
        "pollDivisionIds": [
          10140056
        ],
        "postalCode": "L3M5P4",
        "streetName": "KENYON",
        "streetDirectionId": null,
        "streetTypeId": "CRES",
        "placeName": "GRIMSBY",
        "streetNameDisplayText": "KENYON CRES, GRIMSBY"
      }
    ]
  },
  {
    "postal": "L3M4B0",
    "result": []
  },
  {
    "postal": "L3M9N8",
    "result": []
  },
  {
    "postal": "L3M4A7",
    "result": [
      {
        "electoralDistricts": [
          {
            "election": null,
            "id": 70,
            "name": "Niagara West"
          }
        ],
        "pollDivisionIds": [
          10140049
        ],
        "postalCode": "L3M4A7",
        "streetName": "OAKES",
        "streetDirectionId": "S",
        "streetTypeId": "RD",
        "placeName": "GRIMSBY",
        "streetNameDisplayText": "OAKES RD S, GRIMSBY"
      }
    ]
  },
  {
    "postal": "L3M4H9",
    "result": [
      {
        "electoralDistricts": [
          {
            "election": null,
            "id": 70,
            "name": "Niagara West"
          }
        ],
        "pollDivisionIds": [
          10140052
        ],
        "postalCode": "L3M4H9",
        "streetName": "IVAN",
        "streetDirectionId": null,
        "streetTypeId": "AVE",
        "placeName": "GRIMSBY",
        "streetNameDisplayText": "IVAN AVE, GRIMSBY"
      }
    ]
  },
  {
    "postal": "L3M6X1",
    "result": []
  },
  {
    "postal": "L3M9Y7",
    "result": []
  },
  {
    "postal": "L3M2Y5",
    "result": [
      {
        "electoralDistricts": [
          {
            "election": null,
            "id": 70,
            "name": "Niagara West"
          }
        ],
        "pollDivisionIds": [
          10140055
        ],
        "postalCode": "L3M2Y5",
        "streetName": "MCNAB",
        "streetDirectionId": null,
        "streetTypeId": "DR",
        "placeName": "GRIMSBY",
        "streetNameDisplayText": "MCNAB DR, GRIMSBY"
      }
    ]
  },
  {
    "postal": "L3M8L7",
    "result": []
  },
  {
    "postal": "L3M2A8",
    "result": [
      {
        "electoralDistricts": [
          {
            "election": null,
            "id": 70,
            "name": "Niagara West"
          }
        ],
        "pollDivisionIds": [
          10140054
        ],
        "postalCode": "L3M2A8",
        "streetName": "LAKE",
        "streetDirectionId": null,
        "streetTypeId": "ST",
        "placeName": "GRIMSBY",
        "streetNameDisplayText": "LAKE ST, GRIMSBY"
      }
    ]
  },
  {
    "postal": "L3M2K9",
    "result": [
      {
        "electoralDistricts": [
          {
            "election": null,
            "id": 70,
            "name": "Niagara West"
          }
        ],
        "pollDivisionIds": [
          10140050
        ],
        "postalCode": "L3M2K9",
        "streetName": "LAKESIDE",
        "streetDirectionId": null,
        "streetTypeId": "DR",
        "placeName": "GRIMSBY",
        "streetNameDisplayText": "LAKESIDE DR, GRIMSBY"
      }
    ]
  },
  {
    "postal": "L3M3E5",
    "result": [
      {
        "electoralDistricts": [
          {
            "election": null,
            "id": 70,
            "name": "Niagara West"
          }
        ],
        "pollDivisionIds": [
          10140053
        ],
        "postalCode": "L3M3E5",
        "streetName": "KINGSWAY",
        "streetDirectionId": null,
        "streetTypeId": "BLVD",
        "placeName": "GRIMSBY",
        "streetNameDisplayText": "KINGSWAY BLVD, GRIMSBY"
      }
    ]
  },
  {
    "postal": "L3M8N6",
    "result": []
  },
  {
    "postal": "L3M8J4",
    "result": []
  },
  {
    "postal": "L3M4R7",
    "result": [
      {
        "electoralDistricts": [
          {
            "election": null,
            "id": 70,
            "name": "Niagara West"
          }
        ],
        "pollDivisionIds": [
          10140053
        ],
        "postalCode": "L3M4R7",
        "streetName": "ELM",
        "streetDirectionId": null,
        "streetTypeId": "ST",
        "placeName": "GRIMSBY",
        "streetNameDisplayText": "ELM ST, GRIMSBY"
      }
    ]
  },
  {
    "postal": "L3M9K1",
    "result": []
  },
  {
    "postal": "L3M8E1",
    "result": []
  },
  {
    "postal": "L3M0R1",
    "result": []
  },
  {
    "postal": "L3M4J3",
    "result": [
      {
        "electoralDistricts": [
          {
            "election": null,
            "id": 70,
            "name": "Niagara West"
          }
        ],
        "pollDivisionIds": [
          10140052
        ],
        "postalCode": "L3M4J3",
        "streetName": "DEBORA",
        "streetDirectionId": null,
        "streetTypeId": "DR",
        "placeName": "GRIMSBY",
        "streetNameDisplayText": "DEBORA DR, GRIMSBY"
      }
    ]
  },
  {
    "postal": "L3M7E7",
    "result": []
  },
  {
    "postal": "L3M0J0",
    "result": []
  },
  {
    "postal": "L3M7R8",
    "result": []
  },
  {
    "postal": "L3M9X0",
    "result": []
  },
  {
    "postal": "L3M7P6",
    "result": []
  },
  {
    "postal": "L3M0R7",
    "result": []
  },
  {
    "postal": "L3M5W1",
    "result": []
  },
  {
    "postal": "L3M0K4",
    "result": []
  },
  {
    "postal": "L3M7N9",
    "result": []
  },
  {
    "postal": "L3M1N0",
    "result": []
  },
  {
    "postal": "L3M6P3",
    "result": []
  },
  {
    "postal": "L3M5A1",
    "result": [
      {
        "electoralDistricts": [
          {
            "election": null,
            "id": 70,
            "name": "Niagara West"
          }
        ],
        "pollDivisionIds": [
          10140054
        ],
        "postalCode": "L3M5A1",
        "streetName": "REMBRANDT",
        "streetDirectionId": null,
        "streetTypeId": "DR",
        "placeName": "GRIMSBY",
        "streetNameDisplayText": "REMBRANDT DR, GRIMSBY"
      }
    ]
  },
  {
    "postal": "L3M9M9",
    "result": []
  },
  {
    "postal": "L3M7T6",
    "result": []
  },
  {
    "postal": "L3M3X0",
    "result": []
  },
  {
    "postal": "L3M2T0",
    "result": []
  },
  {
    "postal": "L3M5X9",
    "result": []
  },
  {
    "postal": "L3M2R3",
    "result": [
      {
        "electoralDistricts": [
          {
            "election": null,
            "id": 70,
            "name": "Niagara West"
          }
        ],
        "pollDivisionIds": [
          10140056
        ],
        "postalCode": "L3M2R3",
        "streetName": "DEER PARK",
        "streetDirectionId": null,
        "streetTypeId": "CRT",
        "placeName": "GRIMSBY",
        "streetNameDisplayText": "DEER PARK CRT, GRIMSBY"
      }
    ]
  },
  {
    "postal": "L3M5N2",
    "result": [
      {
        "electoralDistricts": [
          {
            "election": null,
            "id": 70,
            "name": "Niagara West"
          }
        ],
        "pollDivisionIds": [
          10140051
        ],
        "postalCode": "L3M5N2",
        "streetName": "ROBERTS",
        "streetDirectionId": null,
        "streetTypeId": "RD",
        "placeName": "GRIMSBY",
        "streetNameDisplayText": "ROBERTS RD, GRIMSBY"
      }
    ]
  },
  {
    "postal": "L3M4Y7",
    "result": [
      {
        "electoralDistricts": [
          {
            "election": null,
            "id": 70,
            "name": "Niagara West"
          }
        ],
        "pollDivisionIds": [
          10140055
        ],
        "postalCode": "L3M4Y7",
        "streetName": "SANDRA",
        "streetDirectionId": null,
        "streetTypeId": "CRES",
        "placeName": "GRIMSBY",
        "streetNameDisplayText": "SANDRA CRES, GRIMSBY"
      }
    ]
  },
  {
    "postal": "L3M7M0",
    "result": []
  },
  {
    "postal": "L3M8P3",
    "result": []
  },
  {
    "postal": "L3M3N3",
    "result": [
      {
        "electoralDistricts": [
          {
            "election": null,
            "id": 70,
            "name": "Niagara West"
          }
        ],
        "pollDivisionIds": [
          10140050
        ],
        "postalCode": "L3M3N3",
        "streetName": "STEWART",
        "streetDirectionId": null,
        "streetTypeId": "ST",
        "placeName": "GRIMSBY",
        "streetNameDisplayText": "STEWART ST, GRIMSBY"
      }
    ]
  },
  {
    "postal": "L3M7S3",
    "result": []
  },
  {
    "postal": "L3M3V9",
    "result": [
      {
        "electoralDistricts": [
          {
            "election": null,
            "id": 70,
            "name": "Niagara West"
          }
        ],
        "pollDivisionIds": [
          10140050
        ],
        "postalCode": "L3M3V9",
        "streetName": "CENTENNIAL",
        "streetDirectionId": null,
        "streetTypeId": "DR",
        "placeName": "GRIMSBY",
        "streetNameDisplayText": "CENTENNIAL DR, GRIMSBY"
      }
    ]
  },
  {
    "postal": "L3M9N7",
    "result": []
  },
  {
    "postal": "L3M0G4",
    "result": []
  },
  {
    "postal": "L3M2E2",
    "result": [
      {
        "electoralDistricts": [
          {
            "election": null,
            "id": 70,
            "name": "Niagara West"
          }
        ],
        "pollDivisionIds": [
          10140050
        ],
        "postalCode": "L3M2E2",
        "streetName": "KAREN",
        "streetDirectionId": null,
        "streetTypeId": "CRES",
        "placeName": "GRIMSBY",
        "streetNameDisplayText": "KAREN CRES, GRIMSBY"
      }
    ]
  },
  {
    "postal": "L3M7W8",
    "result": []
  },
  {
    "postal": "L3M7M5",
    "result": []
  },
  {
    "postal": "L3M5W8",
    "result": []
  },
  {
    "postal": "L3M5E5",
    "result": []
  },
  {
    "postal": "L3M1P9",
    "result": [
      {
        "electoralDistricts": [
          {
            "election": null,
            "id": 70,
            "name": "Niagara West"
          }
        ],
        "pollDivisionIds": [
          10140056
        ],
        "postalCode": "L3M1P9",
        "streetName": "MAIN",
        "streetDirectionId": "E",
        "streetTypeId": "ST",
        "placeName": "GRIMSBY",
        "streetNameDisplayText": "MAIN ST E, GRIMSBY"
      }
    ]
  },
  {
    "postal": "L3M8V8",
    "result": []
  },
  {
    "postal": "L3M9G8",
    "result": []
  },
  {
    "postal": "L3M8H9",
    "result": []
  },
  {
    "postal": "L3M1Z1",
    "result": [
      {
        "electoralDistricts": [
          {
            "election": null,
            "id": 70,
            "name": "Niagara West"
          }
        ],
        "pollDivisionIds": [
          10140050
        ],
        "postalCode": "L3M1Z1",
        "streetName": "ELDRID",
        "streetDirectionId": null,
        "streetTypeId": "CRT",
        "placeName": "GRIMSBY",
        "streetNameDisplayText": "ELDRID CRT, GRIMSBY"
      }
    ]
  },
  {
    "postal": "L3M8M3",
    "result": []
  },
  {
    "postal": "L3M5H6",
    "result": [
      {
        "electoralDistricts": [
          {
            "election": null,
            "id": 70,
            "name": "Niagara West"
          }
        ],
        "pollDivisionIds": [
          10140055
        ],
        "postalCode": "L3M5H6",
        "streetName": "BAKER",
        "streetDirectionId": "S",
        "streetTypeId": "RD",
        "placeName": "GRIMSBY",
        "streetNameDisplayText": "BAKER RD S, GRIMSBY"
      }
    ]
  },
  {
    "postal": "L3M7W7",
    "result": []
  },
  {
    "postal": "L3M4L0",
    "result": []
  },
  {
    "postal": "L3M2N1",
    "result": [
      {
        "electoralDistricts": [
          {
            "election": null,
            "id": 70,
            "name": "Niagara West"
          }
        ],
        "pollDivisionIds": [
          10140056
        ],
        "postalCode": "L3M2N1",
        "streetName": "CHERRYWOOD",
        "streetDirectionId": null,
        "streetTypeId": "AVE",
        "placeName": "GRIMSBY",
        "streetNameDisplayText": "CHERRYWOOD AVE, GRIMSBY"
      }
    ]
  },
  {
    "postal": "L3M2H4",
    "result": [
      {
        "electoralDistricts": [
          {
            "election": null,
            "id": 70,
            "name": "Niagara West"
          }
        ],
        "pollDivisionIds": [
          10140050
        ],
        "postalCode": "L3M2H4",
        "streetName": "LORNE",
        "streetDirectionId": null,
        "streetTypeId": "AVE",
        "placeName": "GRIMSBY",
        "streetNameDisplayText": "LORNE AVE, GRIMSBY"
      }
    ]
  },
  {
    "postal": "L3M5C8",
    "result": [
      {
        "electoralDistricts": [
          {
            "election": null,
            "id": 70,
            "name": "Niagara West"
          }
        ],
        "pollDivisionIds": [
          10140050
        ],
        "postalCode": "L3M5C8",
        "streetName": "OLIVE",
        "streetDirectionId": null,
        "streetTypeId": "ST",
        "placeName": "GRIMSBY",
        "streetNameDisplayText": "OLIVE ST, GRIMSBY"
      }
    ]
  },
  {
    "postal": "L3M8B0",
    "result": []
  },
  {
    "postal": "L3M1T4",
    "result": [
      {
        "electoralDistricts": [
          {
            "election": null,
            "id": 70,
            "name": "Niagara West"
          }
        ],
        "pollDivisionIds": [
          10140049
        ],
        "postalCode": "L3M1T4",
        "streetName": "MAIN",
        "streetDirectionId": "W",
        "streetTypeId": "ST",
        "placeName": "GRIMSBY",
        "streetNameDisplayText": "MAIN ST W, GRIMSBY"
      }
    ]
  },
  {
    "postal": "L3M7N7",
    "result": []
  },
  {
    "postal": "L3M4L3",
    "result": [
      {
        "electoralDistricts": [
          {
            "election": null,
            "id": 70,
            "name": "Niagara West"
          }
        ],
        "pollDivisionIds": [
          10140052
        ],
        "postalCode": "L3M4L3",
        "streetName": "DEBORA",
        "streetDirectionId": null,
        "streetTypeId": "DR",
        "placeName": "GRIMSBY",
        "streetNameDisplayText": "DEBORA DR, GRIMSBY"
      }
    ]
  },
  {
    "postal": "L3M2N2",
    "result": [
      {
        "electoralDistricts": [
          {
            "election": null,
            "id": 70,
            "name": "Niagara West"
          }
        ],
        "pollDivisionIds": [
          10140054
        ],
        "postalCode": "L3M2N2",
        "streetName": "BENDAMERE",
        "streetDirectionId": null,
        "streetTypeId": "DR",
        "placeName": "GRIMSBY",
        "streetNameDisplayText": "BENDAMERE DR, GRIMSBY"
      }
    ]
  },
  {
    "postal": "L3M4N8",
    "result": [
      {
        "electoralDistricts": [
          {
            "election": null,
            "id": 70,
            "name": "Niagara West"
          }
        ],
        "pollDivisionIds": [
          10140057
        ],
        "postalCode": "L3M4N8",
        "streetName": "BANBURRY",
        "streetDirectionId": null,
        "streetTypeId": "CRES",
        "placeName": "GRIMSBY",
        "streetNameDisplayText": "BANBURRY CRES, GRIMSBY"
      }
    ]
  },
  {
    "postal": "L3M3M5",
    "result": [
      {
        "electoralDistricts": [
          {
            "election": null,
            "id": 70,
            "name": "Niagara West"
          }
        ],
        "pollDivisionIds": [
          10140052
        ],
        "postalCode": "L3M3M5",
        "streetName": "PATTON",
        "streetDirectionId": null,
        "streetTypeId": "ST",
        "placeName": "GRIMSBY",
        "streetNameDisplayText": "PATTON ST, GRIMSBY"
      }
    ]
  },
  {
    "postal": "L3M6H7",
    "result": []
  },
  {
    "postal": "L3M8Y8",
    "result": []
  },
  {
    "postal": "L3M5R9",
    "result": [
      {
        "electoralDistricts": [
          {
            "election": null,
            "id": 70,
            "name": "Niagara West"
          }
        ],
        "pollDivisionIds": [
          10140056
        ],
        "postalCode": "L3M5R9",
        "streetName": "RIESLING",
        "streetDirectionId": null,
        "streetTypeId": "ST",
        "placeName": "GRIMSBY",
        "streetNameDisplayText": "RIESLING ST, GRIMSBY"
      },
      {
        "electoralDistricts": [
          {
            "election": null,
            "id": 70,
            "name": "Niagara West"
          }
        ],
        "pollDivisionIds": [
          10140056
        ],
        "postalCode": "L3M5R9",
        "streetName": "VINIFERA",
        "streetDirectionId": null,
        "streetTypeId": "DR",
        "placeName": "GRIMSBY",
        "streetNameDisplayText": "VINIFERA DR, GRIMSBY"
      }
    ]
  },
  {
    "postal": "L3M8G3",
    "result": []
  },
  {
    "postal": "L3M4N7",
    "result": [
      {
        "electoralDistricts": [
          {
            "election": null,
            "id": 70,
            "name": "Niagara West"
          }
        ],
        "pollDivisionIds": [
          10140049
        ],
        "postalCode": "L3M4N7",
        "streetName": "KELSON",
        "streetDirectionId": "S",
        "streetTypeId": "AVE",
        "placeName": "GRIMSBY",
        "streetNameDisplayText": "KELSON AVE S, GRIMSBY"
      }
    ]
  },
  {
    "postal": "L3M0B9",
    "result": [
      {
        "electoralDistricts": [
          {
            "election": null,
            "id": 70,
            "name": "Niagara West"
          }
        ],
        "pollDivisionIds": [
          10140049
        ],
        "postalCode": "L3M0B9",
        "streetName": "ASPEN",
        "streetDirectionId": null,
        "streetTypeId": "DR",
        "placeName": "GRIMSBY",
        "streetNameDisplayText": "ASPEN DR, GRIMSBY"
      },
      {
        "electoralDistricts": [
          {
            "election": null,
            "id": 70,
            "name": "Niagara West"
          }
        ],
        "pollDivisionIds": [
          10140049
        ],
        "postalCode": "L3M0B9",
        "streetName": "CHESTNUT",
        "streetDirectionId": null,
        "streetTypeId": "DR",
        "placeName": "GRIMSBY",
        "streetNameDisplayText": "CHESTNUT DR, GRIMSBY"
      }
    ]
  },
  {
    "postal": "L3M9K7",
    "result": []
  },
  {
    "postal": "L3M9K9",
    "result": []
  },
  {
    "postal": "L3M3Z2",
    "result": [
      {
        "electoralDistricts": [
          {
            "election": null,
            "id": 70,
            "name": "Niagara West"
          }
        ],
        "pollDivisionIds": [
          10140049
        ],
        "postalCode": "L3M3Z2",
        "streetName": "CASABLANCA",
        "streetDirectionId": null,
        "streetTypeId": "BLVD",
        "placeName": "GRIMSBY",
        "streetNameDisplayText": "CASABLANCA BLVD, GRIMSBY"
      }
    ]
  },
  {
    "postal": "L3M6W7",
    "result": []
  },
  {
    "postal": "L3M0P1",
    "result": []
  },
  {
    "postal": "L3M3A0",
    "result": []
  },
  {
    "postal": "L3M8L9",
    "result": []
  },
  {
    "postal": "L3M6X0",
    "result": []
  },
  {
    "postal": "L3M3E9",
    "result": [
      {
        "electoralDistricts": [
          {
            "election": null,
            "id": 70,
            "name": "Niagara West"
          }
        ],
        "pollDivisionIds": [
          10140053
        ],
        "postalCode": "L3M3E9",
        "streetName": "KINGSWAY",
        "streetDirectionId": null,
        "streetTypeId": "CRES",
        "placeName": "GRIMSBY",
        "streetNameDisplayText": "KINGSWAY CRES, GRIMSBY"
      }
    ]
  },
  {
    "postal": "L3M0S5",
    "result": []
  },
  {
    "postal": "L3M1A2",
    "result": [
      {
        "electoralDistricts": [
          {
            "election": null,
            "id": 70,
            "name": "Niagara West"
          }
        ],
        "pollDivisionIds": [
          10140049
        ],
        "postalCode": "L3M1A2",
        "streetName": "FOREST HILL",
        "streetDirectionId": null,
        "streetTypeId": "RD",
        "placeName": "GRIMSBY",
        "streetNameDisplayText": "FOREST HILL RD, GRIMSBY"
      }
    ]
  },
  {
    "postal": "L3M5V8",
    "result": []
  },
  {
    "postal": "L3M8C5",
    "result": []
  },
  {
    "postal": "L3M6N0",
    "result": []
  },
  {
    "postal": "L3M9E6",
    "result": []
  },
  {
    "postal": "L3M5J7",
    "result": [
      {
        "electoralDistricts": [
          {
            "election": null,
            "id": 70,
            "name": "Niagara West"
          }
        ],
        "pollDivisionIds": [
          10140054
        ],
        "postalCode": "L3M5J7",
        "streetName": "RED HAVEN",
        "streetDirectionId": null,
        "streetTypeId": "DR",
        "placeName": "GRIMSBY",
        "streetNameDisplayText": "RED HAVEN DR, GRIMSBY"
      }
    ]
  },
  {
    "postal": "L3M2R2",
    "result": [
      {
        "electoralDistricts": [
          {
            "election": null,
            "id": 70,
            "name": "Niagara West"
          }
        ],
        "pollDivisionIds": [
          10140056
        ],
        "postalCode": "L3M2R2",
        "streetName": "DEER PARK",
        "streetDirectionId": null,
        "streetTypeId": "CRT",
        "placeName": "GRIMSBY",
        "streetNameDisplayText": "DEER PARK CRT, GRIMSBY"
      }
    ]
  },
  {
    "postal": "L3M0P5",
    "result": []
  },
  {
    "postal": "L3M5A7",
    "result": [
      {
        "electoralDistricts": [
          {
            "election": null,
            "id": 70,
            "name": "Niagara West"
          }
        ],
        "pollDivisionIds": [
          10140050
        ],
        "postalCode": "L3M5A7",
        "streetName": "OLIVE",
        "streetDirectionId": null,
        "streetTypeId": "ST",
        "placeName": "GRIMSBY",
        "streetNameDisplayText": "OLIVE ST, GRIMSBY"
      },
      {
        "electoralDistricts": [
          {
            "election": null,
            "id": 70,
            "name": "Niagara West"
          }
        ],
        "pollDivisionIds": [
          10140050
        ],
        "postalCode": "L3M5A7",
        "streetName": "PRINCESS",
        "streetDirectionId": null,
        "streetTypeId": "BLVD",
        "placeName": "GRIMSBY",
        "streetNameDisplayText": "PRINCESS BLVD, GRIMSBY"
      }
    ]
  },
  {
    "postal": "L3M1G1",
    "result": [
      {
        "electoralDistricts": [
          {
            "election": null,
            "id": 70,
            "name": "Niagara West"
          }
        ],
        "pollDivisionIds": [
          10140053
        ],
        "postalCode": "L3M1G1",
        "streetName": "PEACHWOOD",
        "streetDirectionId": null,
        "streetTypeId": "PL",
        "placeName": "GRIMSBY",
        "streetNameDisplayText": "PEACHWOOD PL, GRIMSBY"
      }
    ]
  },
  {
    "postal": "L3M9R6",
    "result": []
  },
  {
    "postal": "L3M4Z9",
    "result": [
      {
        "electoralDistricts": [
          {
            "election": null,
            "id": 70,
            "name": "Niagara West"
          }
        ],
        "pollDivisionIds": [
          10140054
        ],
        "postalCode": "L3M4Z9",
        "streetName": "REMBRANDT",
        "streetDirectionId": null,
        "streetTypeId": "DR",
        "placeName": "GRIMSBY",
        "streetNameDisplayText": "REMBRANDT DR, GRIMSBY"
      }
    ]
  },
  {
    "postal": "L3M1V5",
    "result": [
      {
        "electoralDistricts": [
          {
            "election": null,
            "id": 70,
            "name": "Niagara West"
          }
        ],
        "pollDivisionIds": [
          10140055
        ],
        "postalCode": "L3M1V5",
        "streetName": "MOUNTVIEW",
        "streetDirectionId": null,
        "streetTypeId": "AVE",
        "placeName": "GRIMSBY",
        "streetNameDisplayText": "MOUNTVIEW AVE, GRIMSBY"
      }
    ]
  },
  {
    "postal": "L3M9Y5",
    "result": []
  },
  {
    "postal": "L3M1P2",
    "result": [
      {
        "electoralDistricts": [
          {
            "election": null,
            "id": 70,
            "name": "Niagara West"
          }
        ],
        "pollDivisionIds": [
          10140094,
          10140055
        ],
        "postalCode": "L3M1P2",
        "streetName": "MAIN",
        "streetDirectionId": "E",
        "streetTypeId": "ST",
        "placeName": "GRIMSBY",
        "streetNameDisplayText": "MAIN ST E, GRIMSBY"
      }
    ]
  },
  {
    "postal": "L3M5X0",
    "result": []
  },
  {
    "postal": "L3M7B8",
    "result": []
  },
  {
    "postal": "L3M0C6",
    "result": [
      {
        "electoralDistricts": [
          {
            "election": null,
            "id": 70,
            "name": "Niagara West"
          }
        ],
        "pollDivisionIds": [
          10140056
        ],
        "postalCode": "L3M0C6",
        "streetName": "MARY",
        "streetDirectionId": null,
        "streetTypeId": "DR",
        "placeName": "GRIMSBY",
        "streetNameDisplayText": "MARY DR, GRIMSBY"
      }
    ]
  },
  {
    "postal": "L3M6G1",
    "result": []
  },
  {
    "postal": "L3M3K3",
    "result": [
      {
        "electoralDistricts": [
          {
            "election": null,
            "id": 70,
            "name": "Niagara West"
          }
        ],
        "pollDivisionIds": [
          10140052
        ],
        "postalCode": "L3M3K3",
        "streetName": "ELIZABETH",
        "streetDirectionId": null,
        "streetTypeId": "ST",
        "placeName": "GRIMSBY",
        "streetNameDisplayText": "ELIZABETH ST, GRIMSBY"
      }
    ]
  },
  {
    "postal": "L3M9R0",
    "result": []
  },
  {
    "postal": "L3M4R8",
    "result": [
      {
        "electoralDistricts": [
          {
            "election": null,
            "id": 70,
            "name": "Niagara West"
          }
        ],
        "pollDivisionIds": [
          10140057
        ],
        "postalCode": "L3M4R8",
        "streetName": "BANBURRY",
        "streetDirectionId": null,
        "streetTypeId": "CRES",
        "placeName": "GRIMSBY",
        "streetNameDisplayText": "BANBURRY CRES, GRIMSBY"
      }
    ]
  },
  {
    "postal": "L3M5P9",
    "result": [
      {
        "electoralDistricts": [
          {
            "election": null,
            "id": 70,
            "name": "Niagara West"
          }
        ],
        "pollDivisionIds": [
          10140051
        ],
        "postalCode": "L3M5P9",
        "streetName": "HICKORY",
        "streetDirectionId": null,
        "streetTypeId": "CRES",
        "placeName": "GRIMSBY",
        "streetNameDisplayText": "HICKORY CRES, GRIMSBY"
      }
    ]
  },
  {
    "postal": "L3M8N4",
    "result": []
  },
  {
    "postal": "L3M8H4",
    "result": []
  },
  {
    "postal": "L3M4V1",
    "result": []
  },
  {
    "postal": "L3M1K5",
    "result": [
      {
        "electoralDistricts": [
          {
            "election": null,
            "id": 70,
            "name": "Niagara West"
          }
        ],
        "pollDivisionIds": [
          10140052
        ],
        "postalCode": "L3M1K5",
        "streetName": "LIVINGSTON",
        "streetDirectionId": null,
        "streetTypeId": "AVE",
        "placeName": "GRIMSBY",
        "streetNameDisplayText": "LIVINGSTON AVE, GRIMSBY"
      }
    ]
  },
  {
    "postal": "L3M1Z5",
    "result": [
      {
        "electoralDistricts": [
          {
            "election": null,
            "id": 70,
            "name": "Niagara West"
          }
        ],
        "pollDivisionIds": [
          10140054
        ],
        "postalCode": "L3M1Z5",
        "streetName": "LAKE",
        "streetDirectionId": null,
        "streetTypeId": "ST",
        "placeName": "GRIMSBY",
        "streetNameDisplayText": "LAKE ST, GRIMSBY"
      }
    ]
  },
  {
    "postal": "L3M9L9",
    "result": []
  },
  {
    "postal": "L3M5L2",
    "result": [
      {
        "electoralDistricts": [
          {
            "election": null,
            "id": 70,
            "name": "Niagara West"
          }
        ],
        "pollDivisionIds": [
          10140056
        ],
        "postalCode": "L3M5L2",
        "streetName": "GRIFFITH",
        "streetDirectionId": null,
        "streetTypeId": "DR",
        "placeName": "GRIMSBY",
        "streetNameDisplayText": "GRIFFITH DR, GRIMSBY"
      }
    ]
  },
  {
    "postal": "L3M0M2",
    "result": []
  },
  {
    "postal": "L3M1K8",
    "result": [
      {
        "electoralDistricts": [
          {
            "election": null,
            "id": 70,
            "name": "Niagara West"
          }
        ],
        "pollDivisionIds": [
          10140053
        ],
        "postalCode": "L3M1K8",
        "streetName": "LIVINGSTON",
        "streetDirectionId": null,
        "streetTypeId": "AVE",
        "placeName": "GRIMSBY",
        "streetNameDisplayText": "LIVINGSTON AVE, GRIMSBY"
      }
    ]
  },
  {
    "postal": "L3M3M7",
    "result": []
  },
  {
    "postal": "L3M1B2",
    "result": [
      {
        "electoralDistricts": [
          {
            "election": null,
            "id": 70,
            "name": "Niagara West"
          }
        ],
        "pollDivisionIds": [
          10140056
        ],
        "postalCode": "L3M1B2",
        "streetName": "BELL",
        "streetDirectionId": null,
        "streetTypeId": "AVE",
        "placeName": "GRIMSBY",
        "streetNameDisplayText": "BELL AVE, GRIMSBY"
      }
    ]
  },
  {
    "postal": "L3M0H9",
    "result": []
  },
  {
    "postal": "L3M8M4",
    "result": []
  },
  {
    "postal": "L3M2M5",
    "result": [
      {
        "electoralDistricts": [
          {
            "election": null,
            "id": 70,
            "name": "Niagara West"
          }
        ],
        "pollDivisionIds": [
          10140054
        ],
        "postalCode": "L3M2M5",
        "streetName": "BOOK",
        "streetDirectionId": null,
        "streetTypeId": "RD",
        "placeName": "GRIMSBY",
        "streetNameDisplayText": "BOOK RD, GRIMSBY"
      }
    ]
  },
  {
    "postal": "L3M0T9",
    "result": []
  },
  {
    "postal": "L3M3P1",
    "result": [
      {
        "electoralDistricts": [
          {
            "election": null,
            "id": 70,
            "name": "Niagara West"
          }
        ],
        "pollDivisionIds": [
          10140052
        ],
        "postalCode": "L3M3P1",
        "streetName": "MURRAY",
        "streetDirectionId": null,
        "streetTypeId": "ST",
        "placeName": "GRIMSBY",
        "streetNameDisplayText": "MURRAY ST, GRIMSBY"
      }
    ]
  },
  {
    "postal": "L3M1R6",
    "result": [
      {
        "electoralDistricts": [
          {
            "election": null,
            "id": 70,
            "name": "Niagara West"
          }
        ],
        "pollDivisionIds": [
          10140052
        ],
        "postalCode": "L3M1R6",
        "streetName": "MAIN",
        "streetDirectionId": "W",
        "streetTypeId": "ST",
        "placeName": "GRIMSBY",
        "streetNameDisplayText": "MAIN ST W, GRIMSBY"
      }
    ]
  },
  {
    "postal": "L3M9V5",
    "result": []
  },
  {
    "postal": "L3M9T0",
    "result": []
  },
  {
    "postal": "L3M0A9",
    "result": [
      {
        "electoralDistricts": [
          {
            "election": null,
            "id": 70,
            "name": "Niagara West"
          }
        ],
        "pollDivisionIds": [
          10140051
        ],
        "postalCode": "L3M0A9",
        "streetName": "EVERGREENS",
        "streetDirectionId": null,
        "streetTypeId": "DR",
        "placeName": "GRIMSBY",
        "streetNameDisplayText": "EVERGREENS DR, GRIMSBY"
      },
      {
        "electoralDistricts": [
          {
            "election": null,
            "id": 70,
            "name": "Niagara West"
          }
        ],
        "pollDivisionIds": [
          10140051
        ],
        "postalCode": "L3M0A9",
        "streetName": "HEMLOCK",
        "streetDirectionId": null,
        "streetTypeId": "WAY",
        "placeName": "GRIMSBY",
        "streetNameDisplayText": "HEMLOCK WAY, GRIMSBY"
      },
      {
        "electoralDistricts": [
          {
            "election": null,
            "id": 70,
            "name": "Niagara West"
          }
        ],
        "pollDivisionIds": [
          10140051
        ],
        "postalCode": "L3M0A9",
        "streetName": "SYCAMORE",
        "streetDirectionId": null,
        "streetTypeId": "CRES",
        "placeName": "GRIMSBY",
        "streetNameDisplayText": "SYCAMORE CRES, GRIMSBY"
      },
      {
        "electoralDistricts": [
          {
            "election": null,
            "id": 70,
            "name": "Niagara West"
          }
        ],
        "pollDivisionIds": [
          10140051
        ],
        "postalCode": "L3M0A9",
        "streetName": "TRILLIUM",
        "streetDirectionId": null,
        "streetTypeId": "LANE",
        "placeName": "GRIMSBY",
        "streetNameDisplayText": "TRILLIUM LANE, GRIMSBY"
      }
    ]
  },
  {
    "postal": "L3M1M3",
    "result": [
      {
        "electoralDistricts": [
          {
            "election": null,
            "id": 70,
            "name": "Niagara West"
          }
        ],
        "pollDivisionIds": [
          10140049
        ],
        "postalCode": "L3M1M3",
        "streetName": "WALNUT",
        "streetDirectionId": null,
        "streetTypeId": "ST",
        "placeName": "GRIMSBY",
        "streetNameDisplayText": "WALNUT ST, GRIMSBY"
      }
    ]
  },
  {
    "postal": "L3M1W8",
    "result": [
      {
        "electoralDistricts": [
          {
            "election": null,
            "id": 70,
            "name": "Niagara West"
          }
        ],
        "pollDivisionIds": [
          10140052
        ],
        "postalCode": "L3M1W8",
        "streetName": "IVAN",
        "streetDirectionId": null,
        "streetTypeId": "AVE",
        "placeName": "GRIMSBY",
        "streetNameDisplayText": "IVAN AVE, GRIMSBY"
      }
    ]
  },
  {
    "postal": "L3M9J1",
    "result": []
  },
  {
    "postal": "L3M8N5",
    "result": []
  },
  {
    "postal": "L3M5X1",
    "result": []
  },
  {
    "postal": "L3M6S2",
    "result": []
  },
  {
    "postal": "L3M2A2",
    "result": []
  },
  {
    "postal": "L3M6A6",
    "result": []
  },
  {
    "postal": "L3M0S3",
    "result": []
  },
  {
    "postal": "L3M3E7",
    "result": [
      {
        "electoralDistricts": [
          {
            "election": null,
            "id": 70,
            "name": "Niagara West"
          }
        ],
        "pollDivisionIds": [
          10140053
        ],
        "postalCode": "L3M3E7",
        "streetName": "KINGSWAY",
        "streetDirectionId": null,
        "streetTypeId": "BLVD",
        "placeName": "GRIMSBY",
        "streetNameDisplayText": "KINGSWAY BLVD, GRIMSBY"
      }
    ]
  },
  {
    "postal": "L3M5R7",
    "result": [
      {
        "electoralDistricts": [
          {
            "election": null,
            "id": 70,
            "name": "Niagara West"
          }
        ],
        "pollDivisionIds": [
          10140049
        ],
        "postalCode": "L3M5R7",
        "streetName": "LIVINGSTON",
        "streetDirectionId": null,
        "streetTypeId": "AVE",
        "placeName": "GRIMSBY",
        "streetNameDisplayText": "LIVINGSTON AVE, GRIMSBY"
      }
    ]
  },
  {
    "postal": "L3M3R6",
    "result": [
      {
        "electoralDistricts": [
          {
            "election": null,
            "id": 70,
            "name": "Niagara West"
          }
        ],
        "pollDivisionIds": [
          10140050
        ],
        "postalCode": "L3M3R6",
        "streetName": "DIANA",
        "streetDirectionId": null,
        "streetTypeId": "AVE",
        "placeName": "GRIMSBY",
        "streetNameDisplayText": "DIANA AVE, GRIMSBY"
      }
    ]
  },
  {
    "postal": "L3M6K4",
    "result": []
  },
  {
    "postal": "L3M2W5",
    "result": []
  },
  {
    "postal": "L3M8W4",
    "result": []
  },
  {
    "postal": "L3M9C2",
    "result": []
  },
  {
    "postal": "L3M2C0",
    "result": []
  },
  {
    "postal": "L3M0E1",
    "result": []
  },
  {
    "postal": "L3M1K9",
    "result": [
      {
        "electoralDistricts": [
          {
            "election": null,
            "id": 70,
            "name": "Niagara West"
          }
        ],
        "pollDivisionIds": [
          10140052
        ],
        "postalCode": "L3M1K9",
        "streetName": "LIVINGSTON",
        "streetDirectionId": null,
        "streetTypeId": "AVE",
        "placeName": "GRIMSBY",
        "streetNameDisplayText": "LIVINGSTON AVE, GRIMSBY"
      }
    ]
  },
  {
    "postal": "L3M1G7",
    "result": [
      {
        "electoralDistricts": [
          {
            "election": null,
            "id": 70,
            "name": "Niagara West"
          }
        ],
        "pollDivisionIds": [
          10140053
        ],
        "postalCode": "L3M1G7",
        "streetName": "MELROSE",
        "streetDirectionId": null,
        "streetTypeId": "AVE",
        "placeName": "GRIMSBY",
        "streetNameDisplayText": "MELROSE AVE, GRIMSBY"
      }
    ]
  },
  {
    "postal": "L3M4E9",
    "result": []
  },
  {
    "postal": "L3M9P0",
    "result": []
  },
  {
    "postal": "L3M5H3",
    "result": [
      {
        "electoralDistricts": [
          {
            "election": null,
            "id": 70,
            "name": "Niagara West"
          }
        ],
        "pollDivisionIds": [
          10140055
        ],
        "postalCode": "L3M5H3",
        "streetName": "COLONIAL",
        "streetDirectionId": null,
        "streetTypeId": "CRES",
        "placeName": "GRIMSBY",
        "streetNameDisplayText": "COLONIAL CRES, GRIMSBY"
      }
    ]
  },
  {
    "postal": "L3M9X6",
    "result": []
  },
  {
    "postal": "L3M5N7",
    "result": [
      {
        "electoralDistricts": [
          {
            "election": null,
            "id": 70,
            "name": "Niagara West"
          }
        ],
        "pollDivisionIds": [
          10140056
        ],
        "postalCode": "L3M5N7",
        "streetName": "MUSCAT",
        "streetDirectionId": null,
        "streetTypeId": "DR",
        "placeName": "GRIMSBY",
        "streetNameDisplayText": "MUSCAT DR, GRIMSBY"
      },
      {
        "electoralDistricts": [
          {
            "election": null,
            "id": 70,
            "name": "Niagara West"
          }
        ],
        "pollDivisionIds": [
          10140056
        ],
        "postalCode": "L3M5N7",
        "streetName": "VINTNERS",
        "streetDirectionId": null,
        "streetTypeId": "LANE",
        "placeName": "GRIMSBY",
        "streetNameDisplayText": "VINTNERS LANE, GRIMSBY"
      }
    ]
  },
  {
    "postal": "L3M5A6",
    "result": [
      {
        "electoralDistricts": [
          {
            "election": null,
            "id": 70,
            "name": "Niagara West"
          }
        ],
        "pollDivisionIds": [
          10140050
        ],
        "postalCode": "L3M5A6",
        "streetName": "OLIVE",
        "streetDirectionId": null,
        "streetTypeId": "ST",
        "placeName": "GRIMSBY",
        "streetNameDisplayText": "OLIVE ST, GRIMSBY"
      },
      {
        "electoralDistricts": [
          {
            "election": null,
            "id": 70,
            "name": "Niagara West"
          }
        ],
        "pollDivisionIds": [
          10140050
        ],
        "postalCode": "L3M5A6",
        "streetName": "PRINCESS",
        "streetDirectionId": null,
        "streetTypeId": "BLVD",
        "placeName": "GRIMSBY",
        "streetNameDisplayText": "PRINCESS BLVD, GRIMSBY"
      }
    ]
  },
  {
    "postal": "L3M4M0",
    "result": []
  },
  {
    "postal": "L3M3V6",
    "result": [
      {
        "electoralDistricts": [
          {
            "election": null,
            "id": 70,
            "name": "Niagara West"
          }
        ],
        "pollDivisionIds": [
          10140052
        ],
        "postalCode": "L3M3V6",
        "streetName": "GLENWOOD",
        "streetDirectionId": null,
        "streetTypeId": "AVE",
        "placeName": "GRIMSBY",
        "streetNameDisplayText": "GLENWOOD AVE, GRIMSBY"
      }
    ]
  },
  {
    "postal": "L3M1L7",
    "result": [
      {
        "electoralDistricts": [
          {
            "election": null,
            "id": 70,
            "name": "Niagara West"
          }
        ],
        "pollDivisionIds": [
          10140049
        ],
        "postalCode": "L3M1L7",
        "streetName": "LIVINGSTON",
        "streetDirectionId": null,
        "streetTypeId": "AVE",
        "placeName": "GRIMSBY",
        "streetNameDisplayText": "LIVINGSTON AVE, GRIMSBY"
      }
    ]
  },
  {
    "postal": "L3M2P9",
    "result": [
      {
        "electoralDistricts": [
          {
            "election": null,
            "id": 70,
            "name": "Niagara West"
          }
        ],
        "pollDivisionIds": [
          10140054
        ],
        "postalCode": "L3M2P9",
        "streetName": "PARK",
        "streetDirectionId": "N",
        "streetTypeId": "RD",
        "placeName": "GRIMSBY",
        "streetNameDisplayText": "PARK RD N, GRIMSBY"
      }
    ]
  },
  {
    "postal": "L3M5T4",
    "result": [
      {
        "electoralDistricts": [
          {
            "election": null,
            "id": 70,
            "name": "Niagara West"
          }
        ],
        "pollDivisionIds": [
          10140055
        ],
        "postalCode": "L3M5T4",
        "streetName": "CENTRAL",
        "streetDirectionId": null,
        "streetTypeId": "AVE",
        "placeName": "GRIMSBY",
        "streetNameDisplayText": "CENTRAL AVE, GRIMSBY"
      },
      {
        "electoralDistricts": [
          {
            "election": null,
            "id": 70,
            "name": "Niagara West"
          }
        ],
        "pollDivisionIds": [
          10140055
        ],
        "postalCode": "L3M5T4",
        "streetName": "PLUM TREE",
        "streetDirectionId": null,
        "streetTypeId": "LANE",
        "placeName": "GRIMSBY",
        "streetNameDisplayText": "PLUM TREE LANE, GRIMSBY"
      }
    ]
  },
  {
    "postal": "L3M5Z1",
    "result": []
  },
  {
    "postal": "L3M2X0",
    "result": []
  },
  {
    "postal": "L3M6Z2",
    "result": []
  },
  {
    "postal": "L3M0E0",
    "result": []
  },
  {
    "postal": "L3M3Z5",
    "result": [
      {
        "electoralDistricts": [
          {
            "election": null,
            "id": 70,
            "name": "Niagara West"
          }
        ],
        "pollDivisionIds": [
          10140049
        ],
        "postalCode": "L3M3Z5",
        "streetName": "ROSEDALE",
        "streetDirectionId": null,
        "streetTypeId": "ST",
        "placeName": "GRIMSBY",
        "streetNameDisplayText": "ROSEDALE ST, GRIMSBY"
      }
    ]
  },
  {
    "postal": "L3M8H3",
    "result": []
  },
  {
    "postal": "L3M7S6",
    "result": []
  },
  {
    "postal": "L3M4C1",
    "result": [
      {
        "electoralDistricts": [
          {
            "election": null,
            "id": 70,
            "name": "Niagara West"
          }
        ],
        "pollDivisionIds": [
          10140049
        ],
        "postalCode": "L3M4C1",
        "streetName": "CRAIG",
        "streetDirectionId": null,
        "streetTypeId": "BLVD",
        "placeName": "GRIMSBY",
        "streetNameDisplayText": "CRAIG BLVD, GRIMSBY"
      }
    ]
  },
  {
    "postal": "L3M3K2",
    "result": [
      {
        "electoralDistricts": [
          {
            "election": null,
            "id": 70,
            "name": "Niagara West"
          }
        ],
        "pollDivisionIds": [
          10140053
        ],
        "postalCode": "L3M3K2",
        "streetName": "MOUNTAIN",
        "streetDirectionId": null,
        "streetTypeId": "ST",
        "placeName": "GRIMSBY",
        "streetNameDisplayText": "MOUNTAIN ST, GRIMSBY"
      }
    ]
  },
  {
    "postal": "L3M1Y5",
    "result": [
      {
        "electoralDistricts": [
          {
            "election": null,
            "id": 70,
            "name": "Niagara West"
          }
        ],
        "pollDivisionIds": [
          10140052
        ],
        "postalCode": "L3M1Y5",
        "streetName": "CLARKE",
        "streetDirectionId": null,
        "streetTypeId": "ST",
        "placeName": "GRIMSBY",
        "streetNameDisplayText": "CLARKE ST, GRIMSBY"
      }
    ]
  },
  {
    "postal": "L3M6P6",
    "result": []
  },
  {
    "postal": "L3M3N9",
    "result": [
      {
        "electoralDistricts": [
          {
            "election": null,
            "id": 70,
            "name": "Niagara West"
          }
        ],
        "pollDivisionIds": [
          10140052
        ],
        "postalCode": "L3M3N9",
        "streetName": "MURRAY",
        "streetDirectionId": null,
        "streetTypeId": "ST",
        "placeName": "GRIMSBY",
        "streetNameDisplayText": "MURRAY ST, GRIMSBY"
      }
    ]
  },
  {
    "postal": "L3M3W2",
    "result": [
      {
        "electoralDistricts": [
          {
            "election": null,
            "id": 70,
            "name": "Niagara West"
          }
        ],
        "pollDivisionIds": [
          10140053
        ],
        "postalCode": "L3M3W2",
        "streetName": "HAWTHORNE",
        "streetDirectionId": null,
        "streetTypeId": "DR",
        "placeName": "GRIMSBY",
        "streetNameDisplayText": "HAWTHORNE DR, GRIMSBY"
      }
    ]
  },
  {
    "postal": "L3M6H8",
    "result": []
  },
  {
    "postal": "L3M9T3",
    "result": []
  },
  {
    "postal": "L3M5L9",
    "result": [
      {
        "electoralDistricts": [
          {
            "election": null,
            "id": 70,
            "name": "Niagara West"
          }
        ],
        "pollDivisionIds": [
          10140049
        ],
        "postalCode": "L3M5L9",
        "streetName": "BEECH",
        "streetDirectionId": null,
        "streetTypeId": "ST",
        "placeName": "GRIMSBY",
        "streetNameDisplayText": "BEECH ST, GRIMSBY"
      }
    ]
  },
  {
    "postal": "L3M7X7",
    "result": []
  },
  {
    "postal": "L3M3J5",
    "result": [
      {
        "electoralDistricts": [
          {
            "election": null,
            "id": 70,
            "name": "Niagara West"
          }
        ],
        "pollDivisionIds": [
          10140053
        ],
        "postalCode": "L3M3J5",
        "streetName": "MOUNTAIN",
        "streetDirectionId": null,
        "streetTypeId": "ST",
        "placeName": "GRIMSBY",
        "streetNameDisplayText": "MOUNTAIN ST, GRIMSBY"
      }
    ]
  },
  {
    "postal": "L3M4J5",
    "result": [
      {
        "electoralDistricts": [
          {
            "election": null,
            "id": 70,
            "name": "Niagara West"
          }
        ],
        "pollDivisionIds": [
          10140052
        ],
        "postalCode": "L3M4J5",
        "streetName": "JULIANA",
        "streetDirectionId": null,
        "streetTypeId": "RD",
        "placeName": "GRIMSBY",
        "streetNameDisplayText": "JULIANA RD, GRIMSBY"
      }
    ]
  },
  {
    "postal": "L3M6J2",
    "result": []
  },
  {
    "postal": "L3M5V6",
    "result": []
  },
  {
    "postal": "L3M3N2",
    "result": [
      {
        "electoralDistricts": [
          {
            "election": null,
            "id": 70,
            "name": "Niagara West"
          }
        ],
        "pollDivisionIds": [
          10140050
        ],
        "postalCode": "L3M3N2",
        "streetName": "STEWART",
        "streetDirectionId": null,
        "streetTypeId": "ST",
        "placeName": "GRIMSBY",
        "streetNameDisplayText": "STEWART ST, GRIMSBY"
      }
    ]
  },
  {
    "postal": "L3M3B1",
    "result": [
      {
        "electoralDistricts": [
          {
            "election": null,
            "id": 70,
            "name": "Niagara West"
          }
        ],
        "pollDivisionIds": [
          10140053
        ],
        "postalCode": "L3M3B1",
        "streetName": "ORCHARD",
        "streetDirectionId": null,
        "streetTypeId": "PKY",
        "placeName": "GRIMSBY",
        "streetNameDisplayText": "ORCHARD PKY, GRIMSBY"
      }
    ]
  },
  {
    "postal": "L3M8B5",
    "result": []
  },
  {
    "postal": "L3M0K1",
    "result": []
  },
  {
    "postal": "L3M7M7",
    "result": []
  },
  {
    "postal": "L3M2M2",
    "result": [
      {
        "electoralDistricts": [
          {
            "election": null,
            "id": 70,
            "name": "Niagara West"
          }
        ],
        "pollDivisionIds": [
          10140056
        ],
        "postalCode": "L3M2M2",
        "streetName": "BOOK",
        "streetDirectionId": null,
        "streetTypeId": "RD",
        "placeName": "GRIMSBY",
        "streetNameDisplayText": "BOOK RD, GRIMSBY"
      }
    ]
  },
  {
    "postal": "L3M9N3",
    "result": []
  },
  {
    "postal": "L3M4Y8",
    "result": [
      {
        "electoralDistricts": [
          {
            "election": null,
            "id": 70,
            "name": "Niagara West"
          }
        ],
        "pollDivisionIds": [
          10140055
        ],
        "postalCode": "L3M4Y8",
        "streetName": "SANDRA",
        "streetDirectionId": null,
        "streetTypeId": "CRES",
        "placeName": "GRIMSBY",
        "streetNameDisplayText": "SANDRA CRES, GRIMSBY"
      }
    ]
  },
  {
    "postal": "L3M3V7",
    "result": [
      {
        "electoralDistricts": [
          {
            "election": null,
            "id": 70,
            "name": "Niagara West"
          }
        ],
        "pollDivisionIds": [
          10140052
        ],
        "postalCode": "L3M3V7",
        "streetName": "GLENWOOD",
        "streetDirectionId": null,
        "streetTypeId": "AVE",
        "placeName": "GRIMSBY",
        "streetNameDisplayText": "GLENWOOD AVE, GRIMSBY"
      }
    ]
  },
  {
    "postal": "L3M8Z1",
    "result": []
  },
  {
    "postal": "L3M7B3",
    "result": []
  },
  {
    "postal": "L3M3A8",
    "result": [
      {
        "electoralDistricts": [
          {
            "election": null,
            "id": 70,
            "name": "Niagara West"
          }
        ],
        "pollDivisionIds": [
          10140053
        ],
        "postalCode": "L3M3A8",
        "streetName": "ORCHARD",
        "streetDirectionId": null,
        "streetTypeId": "PKY",
        "placeName": "GRIMSBY",
        "streetNameDisplayText": "ORCHARD PKY, GRIMSBY"
      }
    ]
  },
  {
    "postal": "L3M7V5",
    "result": []
  },
  {
    "postal": "L3M2T2",
    "result": [
      {
        "electoralDistricts": [
          {
            "election": null,
            "id": 70,
            "name": "Niagara West"
          }
        ],
        "pollDivisionIds": [
          10140054
        ],
        "postalCode": "L3M2T2",
        "streetName": "SIXTH",
        "streetDirectionId": null,
        "streetTypeId": "ST",
        "placeName": "GRIMSBY",
        "streetNameDisplayText": "SIXTH ST, GRIMSBY"
      }
    ]
  },
  {
    "postal": "L3M6L3",
    "result": []
  },
  {
    "postal": "L3M0L2",
    "result": []
  },
  {
    "postal": "L3M5Y8",
    "result": []
  },
  {
    "postal": "L3M0B8",
    "result": [
      {
        "electoralDistricts": [
          {
            "election": null,
            "id": 70,
            "name": "Niagara West"
          }
        ],
        "pollDivisionIds": [
          10140049
        ],
        "postalCode": "L3M0B8",
        "streetName": "ASPEN",
        "streetDirectionId": null,
        "streetTypeId": "DR",
        "placeName": "GRIMSBY",
        "streetNameDisplayText": "ASPEN DR, GRIMSBY"
      },
      {
        "electoralDistricts": [
          {
            "election": null,
            "id": 70,
            "name": "Niagara West"
          }
        ],
        "pollDivisionIds": [
          10140049
        ],
        "postalCode": "L3M0B8",
        "streetName": "MULBERRY",
        "streetDirectionId": null,
        "streetTypeId": "LANE",
        "placeName": "GRIMSBY",
        "streetNameDisplayText": "MULBERRY LANE, GRIMSBY"
      },
      {
        "electoralDistricts": [
          {
            "election": null,
            "id": 70,
            "name": "Niagara West"
          }
        ],
        "pollDivisionIds": [
          10140049
        ],
        "postalCode": "L3M0B8",
        "streetName": "TULIP",
        "streetDirectionId": null,
        "streetTypeId": "ST",
        "placeName": "GRIMSBY",
        "streetNameDisplayText": "TULIP ST, GRIMSBY"
      }
    ]
  },
  {
    "postal": "L3M6R5",
    "result": []
  },
  {
    "postal": "L3M8W6",
    "result": []
  },
  {
    "postal": "L3M8G6",
    "result": []
  },
  {
    "postal": "L3M6X3",
    "result": []
  },
  {
    "postal": "L3M7R7",
    "result": []
  },
  {
    "postal": "L3M4B6",
    "result": [
      {
        "electoralDistricts": [
          {
            "election": null,
            "id": 70,
            "name": "Niagara West"
          }
        ],
        "pollDivisionIds": [
          10140049
        ],
        "postalCode": "L3M4B6",
        "streetName": "CLINE MOUNTAIN",
        "streetDirectionId": "S",
        "streetTypeId": "RD",
        "placeName": "GRIMSBY",
        "streetNameDisplayText": "CLINE MOUNTAIN RD S, GRIMSBY"
      }
    ]
  },
  {
    "postal": "L3M3P9",
    "result": [
      {
        "electoralDistricts": [
          {
            "election": null,
            "id": 70,
            "name": "Niagara West"
          }
        ],
        "pollDivisionIds": [
          10140053
        ],
        "postalCode": "L3M3P9",
        "streetName": "NELLES",
        "streetDirectionId": null,
        "streetTypeId": "BLVD",
        "placeName": "GRIMSBY",
        "streetNameDisplayText": "NELLES BLVD, GRIMSBY"
      }
    ]
  },
  {
    "postal": "L3M2T3",
    "result": [
      {
        "electoralDistricts": [
          {
            "election": null,
            "id": 70,
            "name": "Niagara West"
          }
        ],
        "pollDivisionIds": [
          10140054
        ],
        "postalCode": "L3M2T3",
        "streetName": "SIXTH",
        "streetDirectionId": null,
        "streetTypeId": "ST",
        "placeName": "GRIMSBY",
        "streetNameDisplayText": "SIXTH ST, GRIMSBY"
      }
    ]
  },
  {
    "postal": "L3M1M4",
    "result": [
      {
        "electoralDistricts": [
          {
            "election": null,
            "id": 70,
            "name": "Niagara West"
          }
        ],
        "pollDivisionIds": [
          10140049
        ],
        "postalCode": "L3M1M4",
        "streetName": "VINE",
        "streetDirectionId": null,
        "streetTypeId": "RD",
        "placeName": "GRIMSBY",
        "streetNameDisplayText": "VINE RD, GRIMSBY"
      }
    ]
  },
  {
    "postal": "L3M0H1",
    "result": [
      {
        "electoralDistricts": [
          {
            "election": null,
            "id": 70,
            "name": "Niagara West"
          }
        ],
        "pollDivisionIds": [
          10140048
        ],
        "postalCode": "L3M0H1",
        "streetName": "ESPLANADE",
        "streetDirectionId": null,
        "streetTypeId": "LANE",
        "placeName": "GRIMSBY",
        "streetNameDisplayText": "ESPLANADE LANE, GRIMSBY"
      }
    ]
  },
  {
    "postal": "L3M9W3",
    "result": []
  },
  {
    "postal": "L3M6P1",
    "result": []
  },
  {
    "postal": "L3M7G2",
    "result": []
  },
  {
    "postal": "L3M4J9",
    "result": [
      {
        "electoralDistricts": [
          {
            "election": null,
            "id": 70,
            "name": "Niagara West"
          }
        ],
        "pollDivisionIds": [
          10140052
        ],
        "postalCode": "L3M4J9",
        "streetName": "ROBINSON",
        "streetDirectionId": "N",
        "streetTypeId": "ST",
        "placeName": "GRIMSBY",
        "streetNameDisplayText": "ROBINSON ST N, GRIMSBY"
      }
    ]
  },
  {
    "postal": "L3M9E4",
    "result": []
  },
  {
    "postal": "L3M8H0",
    "result": []
  },
  {
    "postal": "L3M4M7",
    "result": [
      {
        "electoralDistricts": [
          {
            "election": null,
            "id": 70,
            "name": "Niagara West"
          }
        ],
        "pollDivisionIds": [
          10140054
        ],
        "postalCode": "L3M4M7",
        "streetName": "LAKE",
        "streetDirectionId": null,
        "streetTypeId": "ST",
        "placeName": "GRIMSBY",
        "streetNameDisplayText": "LAKE ST, GRIMSBY"
      }
    ]
  },
  {
    "postal": "L3M2G9",
    "result": [
      {
        "electoralDistricts": [
          {
            "election": null,
            "id": 70,
            "name": "Niagara West"
          }
        ],
        "pollDivisionIds": [
          10140050
        ],
        "postalCode": "L3M2G9",
        "streetName": "CHERRY",
        "streetDirectionId": null,
        "streetTypeId": "AVE",
        "placeName": "GRIMSBY",
        "streetNameDisplayText": "CHERRY AVE, GRIMSBY"
      }
    ]
  },
  {
    "postal": "L3M8T2",
    "result": []
  },
  {
    "postal": "L3M7G7",
    "result": []
  },
  {
    "postal": "L3M4Z3",
    "result": [
      {
        "electoralDistricts": [
          {
            "election": null,
            "id": 70,
            "name": "Niagara West"
          }
        ],
        "pollDivisionIds": [
          10140055,
          10140095
        ],
        "postalCode": "L3M4Z3",
        "streetName": "CENTRAL",
        "streetDirectionId": null,
        "streetTypeId": "AVE",
        "placeName": "GRIMSBY",
        "streetNameDisplayText": "CENTRAL AVE, GRIMSBY"
      },
      {
        "electoralDistricts": [
          {
            "election": null,
            "id": 70,
            "name": "Niagara West"
          }
        ],
        "pollDivisionIds": [
          10140055
        ],
        "postalCode": "L3M4Z3",
        "streetName": "SANDRA",
        "streetDirectionId": null,
        "streetTypeId": "CRES",
        "placeName": "GRIMSBY",
        "streetNameDisplayText": "SANDRA CRES, GRIMSBY"
      }
    ]
  },
  {
    "postal": "L3M5B3",
    "result": [
      {
        "electoralDistricts": [
          {
            "election": null,
            "id": 70,
            "name": "Niagara West"
          }
        ],
        "pollDivisionIds": [
          10140054
        ],
        "postalCode": "L3M5B3",
        "streetName": "ANNE",
        "streetDirectionId": null,
        "streetTypeId": "CRT",
        "placeName": "GRIMSBY",
        "streetNameDisplayText": "ANNE CRT, GRIMSBY"
      }
    ]
  },
  {
    "postal": "L3M1S7",
    "result": [
      {
        "electoralDistricts": [
          {
            "election": null,
            "id": 70,
            "name": "Niagara West"
          }
        ],
        "pollDivisionIds": [
          10140049
        ],
        "postalCode": "L3M1S7",
        "streetName": "MAIN",
        "streetDirectionId": "W",
        "streetTypeId": "ST",
        "placeName": "GRIMSBY",
        "streetNameDisplayText": "MAIN ST W, GRIMSBY"
      }
    ]
  },
  {
    "postal": "L3M2N7",
    "result": [
      {
        "electoralDistricts": [
          {
            "election": null,
            "id": 70,
            "name": "Niagara West"
          }
        ],
        "pollDivisionIds": [
          10140054
        ],
        "postalCode": "L3M2N7",
        "streetName": "MARR",
        "streetDirectionId": null,
        "streetTypeId": "AVE",
        "placeName": "GRIMSBY",
        "streetNameDisplayText": "MARR AVE, GRIMSBY"
      }
    ]
  },
  {
    "postal": "L3M0H8",
    "result": [
      {
        "electoralDistricts": [
          {
            "election": null,
            "id": 70,
            "name": "Niagara West"
          }
        ],
        "pollDivisionIds": [
          10140056
        ],
        "postalCode": "L3M0H8",
        "streetName": "QUEEN JULIANA",
        "streetDirectionId": null,
        "streetTypeId": "CRT",
        "placeName": "GRIMSBY",
        "streetNameDisplayText": "QUEEN JULIANA CRT, GRIMSBY"
      }
    ]
  },
  {
    "postal": "L3M7Z4",
    "result": []
  },
  {
    "postal": "L3M7B1",
    "result": []
  },
  {
    "postal": "L3M7P8",
    "result": []
  },
  {
    "postal": "L3M7N0",
    "result": []
  },
  {
    "postal": "L3M3Y5",
    "result": [
      {
        "electoralDistricts": [
          {
            "election": null,
            "id": 70,
            "name": "Niagara West"
          }
        ],
        "pollDivisionIds": [
          10140049
        ],
        "postalCode": "L3M3Y5",
        "streetName": "GEORGE",
        "streetDirectionId": null,
        "streetTypeId": "ST",
        "placeName": "GRIMSBY",
        "streetNameDisplayText": "GEORGE ST, GRIMSBY"
      }
    ]
  },
  {
    "postal": "L3M6K1",
    "result": []
  },
  {
    "postal": "L3M9X5",
    "result": []
  },
  {
    "postal": "L3M7S5",
    "result": []
  },
  {
    "postal": "L3M0A4",
    "result": [
      {
        "electoralDistricts": [
          {
            "election": null,
            "id": 70,
            "name": "Niagara West"
          }
        ],
        "pollDivisionIds": [
          10140056
        ],
        "postalCode": "L3M0A4",
        "streetName": "HEWITT",
        "streetDirectionId": null,
        "streetTypeId": "DR",
        "placeName": "GRIMSBY",
        "streetNameDisplayText": "HEWITT DR, GRIMSBY"
      }
    ]
  },
  {
    "postal": "L3M4T5",
    "result": []
  },
  {
    "postal": "L3M5K1",
    "result": [
      {
        "electoralDistricts": [
          {
            "election": null,
            "id": 70,
            "name": "Niagara West"
          }
        ],
        "pollDivisionIds": [
          10140054
        ],
        "postalCode": "L3M5K1",
        "streetName": "RED HAVEN",
        "streetDirectionId": null,
        "streetTypeId": "DR",
        "placeName": "GRIMSBY",
        "streetNameDisplayText": "RED HAVEN DR, GRIMSBY"
      }
    ]
  },
  {
    "postal": "L3M0Z9",
    "result": []
  },
  {
    "postal": "L3M7T2",
    "result": []
  },
  {
    "postal": "L3M1L5",
    "result": [
      {
        "electoralDistricts": [
          {
            "election": null,
            "id": 70,
            "name": "Niagara West"
          }
        ],
        "pollDivisionIds": [
          10140052
        ],
        "postalCode": "L3M1L5",
        "streetName": "LIVINGSTON",
        "streetDirectionId": null,
        "streetTypeId": "AVE",
        "placeName": "GRIMSBY",
        "streetNameDisplayText": "LIVINGSTON AVE, GRIMSBY"
      }
    ]
  },
  {
    "postal": "L3M3N5",
    "result": [
      {
        "electoralDistricts": [
          {
            "election": null,
            "id": 70,
            "name": "Niagara West"
          }
        ],
        "pollDivisionIds": [
          10140050
        ],
        "postalCode": "L3M3N5",
        "streetName": "STEWART",
        "streetDirectionId": null,
        "streetTypeId": "ST",
        "placeName": "GRIMSBY",
        "streetNameDisplayText": "STEWART ST, GRIMSBY"
      }
    ]
  },
  {
    "postal": "L3M6H4",
    "result": []
  },
  {
    "postal": "L3M5A5",
    "result": [
      {
        "electoralDistricts": [
          {
            "election": null,
            "id": 70,
            "name": "Niagara West"
          }
        ],
        "pollDivisionIds": [
          10140056
        ],
        "postalCode": "L3M5A5",
        "streetName": "SOUTH SERVICE",
        "streetDirectionId": null,
        "streetTypeId": "RD",
        "placeName": "GRIMSBY",
        "streetNameDisplayText": "SOUTH SERVICE RD, GRIMSBY"
      }
    ]
  },
  {
    "postal": "L3M3R9",
    "result": [
      {
        "electoralDistricts": [
          {
            "election": null,
            "id": 70,
            "name": "Niagara West"
          }
        ],
        "pollDivisionIds": [
          10140053
        ],
        "postalCode": "L3M3R9",
        "streetName": "ST ANDREWS",
        "streetDirectionId": null,
        "streetTypeId": "AVE",
        "placeName": "GRIMSBY",
        "streetNameDisplayText": "ST ANDREWS AVE, GRIMSBY"
      }
    ]
  },
  {
    "postal": "L3M7L8",
    "result": []
  },
  {
    "postal": "L3M6T6",
    "result": []
  },
  {
    "postal": "L3M7Y7",
    "result": []
  },
  {
    "postal": "L3M3M8",
    "result": [
      {
        "electoralDistricts": [
          {
            "election": null,
            "id": 70,
            "name": "Niagara West"
          }
        ],
        "pollDivisionIds": [
          10140050
        ],
        "postalCode": "L3M3M8",
        "streetName": "STEWART",
        "streetDirectionId": null,
        "streetTypeId": "ST",
        "placeName": "GRIMSBY",
        "streetNameDisplayText": "STEWART ST, GRIMSBY"
      }
    ]
  },
  {
    "postal": "L3M2E0",
    "result": []
  },
  {
    "postal": "L3M4B5",
    "result": [
      {
        "electoralDistricts": [
          {
            "election": null,
            "id": 70,
            "name": "Niagara West"
          }
        ],
        "pollDivisionIds": [
          10140049
        ],
        "postalCode": "L3M4B5",
        "streetName": "CLINE MOUNTAIN",
        "streetDirectionId": "S",
        "streetTypeId": "RD",
        "placeName": "GRIMSBY",
        "streetNameDisplayText": "CLINE MOUNTAIN RD S, GRIMSBY"
      }
    ]
  },
  {
    "postal": "L3M1J3",
    "result": [
      {
        "electoralDistricts": [
          {
            "election": null,
            "id": 70,
            "name": "Niagara West"
          }
        ],
        "pollDivisionIds": [
          10140049
        ],
        "postalCode": "L3M1J3",
        "streetName": "GEDDES",
        "streetDirectionId": null,
        "streetTypeId": "ST",
        "placeName": "GRIMSBY",
        "streetNameDisplayText": "GEDDES ST, GRIMSBY"
      }
    ]
  },
  {
    "postal": "L3M5S6",
    "result": [
      {
        "electoralDistricts": [
          {
            "election": null,
            "id": 70,
            "name": "Niagara West"
          }
        ],
        "pollDivisionIds": [
          10140056
        ],
        "postalCode": "L3M5S6",
        "streetName": "CHARDONNAY",
        "streetDirectionId": null,
        "streetTypeId": "PL",
        "placeName": "GRIMSBY",
        "streetNameDisplayText": "CHARDONNAY PL, GRIMSBY"
      },
      {
        "electoralDistricts": [
          {
            "election": null,
            "id": 70,
            "name": "Niagara West"
          }
        ],
        "pollDivisionIds": [
          10140056
        ],
        "postalCode": "L3M5S6",
        "streetName": "VINIFERA",
        "streetDirectionId": null,
        "streetTypeId": "DR",
        "placeName": "GRIMSBY",
        "streetNameDisplayText": "VINIFERA DR, GRIMSBY"
      }
    ]
  },
  {
    "postal": "L3M8P7",
    "result": []
  },
  {
    "postal": "L3M7S7",
    "result": []
  },
  {
    "postal": "L3M4C2",
    "result": [
      {
        "electoralDistricts": [
          {
            "election": null,
            "id": 70,
            "name": "Niagara West"
          }
        ],
        "pollDivisionIds": [
          10140049
        ],
        "postalCode": "L3M4C2",
        "streetName": "CRAIG",
        "streetDirectionId": null,
        "streetTypeId": "BLVD",
        "placeName": "GRIMSBY",
        "streetNameDisplayText": "CRAIG BLVD, GRIMSBY"
      }
    ]
  },
  {
    "postal": "L3M5Y0",
    "result": []
  },
  {
    "postal": "L3M2V7",
    "result": [
      {
        "electoralDistricts": [
          {
            "election": null,
            "id": 70,
            "name": "Niagara West"
          }
        ],
        "pollDivisionIds": [
          10140054
        ],
        "postalCode": "L3M2V7",
        "streetName": "TWELFTH",
        "streetDirectionId": null,
        "streetTypeId": "ST",
        "placeName": "GRIMSBY",
        "streetNameDisplayText": "TWELFTH ST, GRIMSBY"
      }
    ]
  },
  {
    "postal": "L3M8P5",
    "result": []
  },
  {
    "postal": "L3M5P5",
    "result": [
      {
        "electoralDistricts": [
          {
            "election": null,
            "id": 70,
            "name": "Niagara West"
          }
        ],
        "pollDivisionIds": [
          10140056
        ],
        "postalCode": "L3M5P5",
        "streetName": "BARTLETT",
        "streetDirectionId": null,
        "streetTypeId": "AVE",
        "placeName": "GRIMSBY",
        "streetNameDisplayText": "BARTLETT AVE, GRIMSBY"
      },
      {
        "electoralDistricts": [
          {
            "election": null,
            "id": 70,
            "name": "Niagara West"
          }
        ],
        "pollDivisionIds": [
          10140056
        ],
        "postalCode": "L3M5P5",
        "streetName": "GOLF WOODS",
        "streetDirectionId": null,
        "streetTypeId": "DR",
        "placeName": "GRIMSBY",
        "streetNameDisplayText": "GOLF WOODS DR, GRIMSBY"
      },
      {
        "electoralDistricts": [
          {
            "election": null,
            "id": 70,
            "name": "Niagara West"
          }
        ],
        "pollDivisionIds": [
          10140056
        ],
        "postalCode": "L3M5P5",
        "streetName": "VINTNERS",
        "streetDirectionId": null,
        "streetTypeId": "LANE",
        "placeName": "GRIMSBY",
        "streetNameDisplayText": "VINTNERS LANE, GRIMSBY"
      }
    ]
  },
  {
    "postal": "L3M5Z0",
    "result": []
  },
  {
    "postal": "L3M9B0",
    "result": []
  },
  {
    "postal": "L3M1L0",
    "result": []
  },
  {
    "postal": "L3M0B5",
    "result": [
      {
        "electoralDistricts": [
          {
            "election": null,
            "id": 70,
            "name": "Niagara West"
          }
        ],
        "pollDivisionIds": [
          10140051
        ],
        "postalCode": "L3M0B5",
        "streetName": "HEMLOCK",
        "streetDirectionId": null,
        "streetTypeId": "WAY",
        "placeName": "GRIMSBY",
        "streetNameDisplayText": "HEMLOCK WAY, GRIMSBY"
      }
    ]
  },
  {
    "postal": "L3M3L2",
    "result": [
      {
        "electoralDistricts": [
          {
            "election": null,
            "id": 70,
            "name": "Niagara West"
          }
        ],
        "pollDivisionIds": [
          10140050
        ],
        "postalCode": "L3M3L2",
        "streetName": "FAIRVIEW",
        "streetDirectionId": null,
        "streetTypeId": "RD",
        "placeName": "GRIMSBY",
        "streetNameDisplayText": "FAIRVIEW RD, GRIMSBY"
      }
    ]
  },
  {
    "postal": "L3M3B7",
    "result": [
      {
        "electoralDistricts": [
          {
            "election": null,
            "id": 70,
            "name": "Niagara West"
          }
        ],
        "pollDivisionIds": [
          10140052
        ],
        "postalCode": "L3M3B7",
        "streetName": "MAPLE",
        "streetDirectionId": null,
        "streetTypeId": "AVE",
        "placeName": "GRIMSBY",
        "streetNameDisplayText": "MAPLE AVE, GRIMSBY"
      }
    ]
  },
  {
    "postal": "L3M8L1",
    "result": []
  },
  {
    "postal": "L3M5M4",
    "result": [
      {
        "electoralDistricts": [
          {
            "election": null,
            "id": 70,
            "name": "Niagara West"
          }
        ],
        "pollDivisionIds": [
          10140056
        ],
        "postalCode": "L3M5M4",
        "streetName": "ARROWHEAD",
        "streetDirectionId": null,
        "streetTypeId": "LANE",
        "placeName": "GRIMSBY",
        "streetNameDisplayText": "ARROWHEAD LANE, GRIMSBY"
      },
      {
        "electoralDistricts": [
          {
            "election": null,
            "id": 70,
            "name": "Niagara West"
          }
        ],
        "pollDivisionIds": [
          10140056
        ],
        "postalCode": "L3M5M4",
        "streetName": "TOMAHAWK",
        "streetDirectionId": null,
        "streetTypeId": "DR",
        "placeName": "GRIMSBY",
        "streetNameDisplayText": "TOMAHAWK DR, GRIMSBY"
      }
    ]
  },
  {
    "postal": "L3M4G9",
    "result": []
  },
  {
    "postal": "L3M0P0",
    "result": []
  },
  {
    "postal": "L3M8G2",
    "result": []
  },
  {
    "postal": "L3M1V9",
    "result": [
      {
        "electoralDistricts": [
          {
            "election": null,
            "id": 70,
            "name": "Niagara West"
          }
        ],
        "pollDivisionIds": [
          10140055
        ],
        "postalCode": "L3M1V9",
        "streetName": "BROOKSIDE",
        "streetDirectionId": null,
        "streetTypeId": "AVE",
        "placeName": "GRIMSBY",
        "streetNameDisplayText": "BROOKSIDE AVE, GRIMSBY"
      }
    ]
  },
  {
    "postal": "L3M8N8",
    "result": []
  },
  {
    "postal": "L3M6S8",
    "result": []
  },
  {
    "postal": "L3M8H2",
    "result": []
  },
  {
    "postal": "L3M5R8",
    "result": [
      {
        "electoralDistricts": [
          {
            "election": null,
            "id": 70,
            "name": "Niagara West"
          }
        ],
        "pollDivisionIds": [
          10140056
        ],
        "postalCode": "L3M5R8",
        "streetName": "CABERNET",
        "streetDirectionId": null,
        "streetTypeId": "ST",
        "placeName": "GRIMSBY",
        "streetNameDisplayText": "CABERNET ST, GRIMSBY"
      },
      {
        "electoralDistricts": [
          {
            "election": null,
            "id": 70,
            "name": "Niagara West"
          }
        ],
        "pollDivisionIds": [
          10140056
        ],
        "postalCode": "L3M5R8",
        "streetName": "VIDAL",
        "streetDirectionId": null,
        "streetTypeId": "CRT",
        "placeName": "GRIMSBY",
        "streetNameDisplayText": "VIDAL CRT, GRIMSBY"
      },
      {
        "electoralDistricts": [
          {
            "election": null,
            "id": 70,
            "name": "Niagara West"
          }
        ],
        "pollDivisionIds": [
          10140056
        ],
        "postalCode": "L3M5R8",
        "streetName": "VINIFERA",
        "streetDirectionId": null,
        "streetTypeId": "DR",
        "placeName": "GRIMSBY",
        "streetNameDisplayText": "VINIFERA DR, GRIMSBY"
      }
    ]
  },
  {
    "postal": "L3M5L4",
    "result": [
      {
        "electoralDistricts": [
          {
            "election": null,
            "id": 70,
            "name": "Niagara West"
          }
        ],
        "pollDivisionIds": [
          10140054
        ],
        "postalCode": "L3M5L4",
        "streetName": "MARGARET",
        "streetDirectionId": null,
        "streetTypeId": "AVE",
        "placeName": "GRIMSBY",
        "streetNameDisplayText": "MARGARET AVE, GRIMSBY"
      },
      {
        "electoralDistricts": [
          {
            "election": null,
            "id": 70,
            "name": "Niagara West"
          }
        ],
        "pollDivisionIds": [
          10140054
        ],
        "postalCode": "L3M5L4",
        "streetName": "PALMER",
        "streetDirectionId": null,
        "streetTypeId": "RD",
        "placeName": "GRIMSBY",
        "streetNameDisplayText": "PALMER RD, GRIMSBY"
      },
      {
        "electoralDistricts": [
          {
            "election": null,
            "id": 70,
            "name": "Niagara West"
          }
        ],
        "pollDivisionIds": [
          10140054
        ],
        "postalCode": "L3M5L4",
        "streetName": "RED HAVEN",
        "streetDirectionId": null,
        "streetTypeId": "DR",
        "placeName": "GRIMSBY",
        "streetNameDisplayText": "RED HAVEN DR, GRIMSBY"
      }
    ]
  },
  {
    "postal": "L3M9E1",
    "result": []
  },
  {
    "postal": "L3M1C4",
    "result": [
      {
        "electoralDistricts": [
          {
            "election": null,
            "id": 70,
            "name": "Niagara West"
          }
        ],
        "pollDivisionIds": [
          10140049
        ],
        "postalCode": "L3M1C4",
        "streetName": "WOODCREST",
        "streetDirectionId": null,
        "streetTypeId": "DR",
        "placeName": "GRIMSBY",
        "streetNameDisplayText": "WOODCREST DR, GRIMSBY"
      }
    ]
  },
  {
    "postal": "L3M8W5",
    "result": []
  },
  {
    "postal": "L3M1Y4",
    "result": [
      {
        "electoralDistricts": [
          {
            "election": null,
            "id": 70,
            "name": "Niagara West"
          }
        ],
        "pollDivisionIds": [
          10140052
        ],
        "postalCode": "L3M1Y4",
        "streetName": "LINCOLN",
        "streetDirectionId": null,
        "streetTypeId": "AVE",
        "placeName": "GRIMSBY",
        "streetNameDisplayText": "LINCOLN AVE, GRIMSBY"
      }
    ]
  },
  {
    "postal": "L3M1C0",
    "result": []
  },
  {
    "postal": "L3M2J2",
    "result": [
      {
        "electoralDistricts": [
          {
            "election": null,
            "id": 70,
            "name": "Niagara West"
          }
        ],
        "pollDivisionIds": [
          10140050
        ],
        "postalCode": "L3M2J2",
        "streetName": "FOREST",
        "streetDirectionId": null,
        "streetTypeId": "RD",
        "placeName": "GRIMSBY",
        "streetNameDisplayText": "FOREST RD, GRIMSBY"
      }
    ]
  },
  {
    "postal": "L3M2J0",
    "result": []
  },
  {
    "postal": "L3M7A3",
    "result": []
  },
  {
    "postal": "L3M8M1",
    "result": []
  },
  {
    "postal": "L3M7T9",
    "result": []
  },
  {
    "postal": "L3M6C0",
    "result": []
  },
  {
    "postal": "L3M7X1",
    "result": []
  },
  {
    "postal": "L3M0G1",
    "result": [
      {
        "electoralDistricts": [
          {
            "election": null,
            "id": 70,
            "name": "Niagara West"
          }
        ],
        "pollDivisionIds": [
          10140047
        ],
        "postalCode": "L3M0G1",
        "streetName": "LAKELAWN",
        "streetDirectionId": null,
        "streetTypeId": "RD",
        "placeName": "GRIMSBY",
        "streetNameDisplayText": "LAKELAWN RD, GRIMSBY"
      }
    ]
  },
  {
    "postal": "L3M4X2",
    "result": [
      {
        "electoralDistricts": [
          {
            "election": null,
            "id": 70,
            "name": "Niagara West"
          }
        ],
        "pollDivisionIds": [
          10140049
        ],
        "postalCode": "L3M4X2",
        "streetName": "LIVINGSTON",
        "streetDirectionId": null,
        "streetTypeId": "AVE",
        "placeName": "GRIMSBY",
        "streetNameDisplayText": "LIVINGSTON AVE, GRIMSBY"
      }
    ]
  },
  {
    "postal": "L3M0N6",
    "result": []
  },
  {
    "postal": "L3M8E3",
    "result": []
  },
  {
    "postal": "L3M5S8",
    "result": [
      {
        "electoralDistricts": [
          {
            "election": null,
            "id": 70,
            "name": "Niagara West"
          }
        ],
        "pollDivisionIds": [
          10140051
        ],
        "postalCode": "L3M5S8",
        "streetName": "LIVINGSTON",
        "streetDirectionId": null,
        "streetTypeId": "AVE",
        "placeName": "GRIMSBY",
        "streetNameDisplayText": "LIVINGSTON AVE, GRIMSBY"
      }
    ]
  },
  {
    "postal": "L3M0R0",
    "result": []
  },
  {
    "postal": "L3M6J6",
    "result": []
  },
  {
    "postal": "L3M4B4",
    "result": [
      {
        "electoralDistricts": [
          {
            "election": null,
            "id": 70,
            "name": "Niagara West"
          }
        ],
        "pollDivisionIds": [
          10140049
        ],
        "postalCode": "L3M4B4",
        "streetName": "CLINE MOUNTAIN",
        "streetDirectionId": "S",
        "streetTypeId": "RD",
        "placeName": "GRIMSBY",
        "streetNameDisplayText": "CLINE MOUNTAIN RD S, GRIMSBY"
      }
    ]
  },
  {
    "postal": "L3M7E3",
    "result": []
  },
  {
    "postal": "L3M3N6",
    "result": [
      {
        "electoralDistricts": [
          {
            "election": null,
            "id": 70,
            "name": "Niagara West"
          }
        ],
        "pollDivisionIds": [
          10140053
        ],
        "postalCode": "L3M3N6",
        "streetName": "MURRAY",
        "streetDirectionId": null,
        "streetTypeId": "ST",
        "placeName": "GRIMSBY",
        "streetNameDisplayText": "MURRAY ST, GRIMSBY"
      }
    ]
  },
  {
    "postal": "L3M3X6",
    "result": [
      {
        "electoralDistricts": [
          {
            "election": null,
            "id": 70,
            "name": "Niagara West"
          }
        ],
        "pollDivisionIds": [
          10140051
        ],
        "postalCode": "L3M3X6",
        "streetName": "ORIOLE",
        "streetDirectionId": null,
        "streetTypeId": "CRES",
        "placeName": "GRIMSBY",
        "streetNameDisplayText": "ORIOLE CRES, GRIMSBY"
      }
    ]
  },
  {
    "postal": "L3M8L0",
    "result": []
  },
  {
    "postal": "L3M8N1",
    "result": []
  },
  {
    "postal": "L3M4J0",
    "result": []
  },
  {
    "postal": "L3M0X7",
    "result": []
  },
  {
    "postal": "L3M6S4",
    "result": []
  },
  {
    "postal": "L3M0Z0",
    "result": []
  },
  {
    "postal": "L3M9X8",
    "result": []
  },
  {
    "postal": "L3M3H3",
    "result": [
      {
        "electoralDistricts": [
          {
            "election": null,
            "id": 70,
            "name": "Niagara West"
          }
        ],
        "pollDivisionIds": [
          10140052
        ],
        "postalCode": "L3M3H3",
        "streetName": "ONTARIO",
        "streetDirectionId": null,
        "streetTypeId": "ST",
        "placeName": "GRIMSBY",
        "streetNameDisplayText": "ONTARIO ST, GRIMSBY"
      }
    ]
  },
  {
    "postal": "L3M7S2",
    "result": []
  },
  {
    "postal": "L3M3T3",
    "result": [
      {
        "electoralDistricts": [
          {
            "election": null,
            "id": 70,
            "name": "Niagara West"
          }
        ],
        "pollDivisionIds": [
          10140052
        ],
        "postalCode": "L3M3T3",
        "streetName": "SLESSOR",
        "streetDirectionId": null,
        "streetTypeId": "BLVD",
        "placeName": "GRIMSBY",
        "streetNameDisplayText": "SLESSOR BLVD, GRIMSBY"
      }
    ]
  },
  {
    "postal": "L3M9P3",
    "result": []
  },
  {
    "postal": "L3M4H8",
    "result": []
  },
  {
    "postal": "L3M6R1",
    "result": []
  },
  {
    "postal": "L3M1S0",
    "result": []
  },
  {
    "postal": "L3M3W8",
    "result": [
      {
        "electoralDistricts": [
          {
            "election": null,
            "id": 70,
            "name": "Niagara West"
          }
        ],
        "pollDivisionIds": [
          10140050
        ],
        "postalCode": "L3M3W8",
        "streetName": "KERMAN",
        "streetDirectionId": null,
        "streetTypeId": "AVE",
        "placeName": "GRIMSBY",
        "streetNameDisplayText": "KERMAN AVE, GRIMSBY"
      }
    ]
  },
  {
    "postal": "L3M4S3",
    "result": [
      {
        "electoralDistricts": [
          {
            "election": null,
            "id": 70,
            "name": "Niagara West"
          }
        ],
        "pollDivisionIds": [
          10140053
        ],
        "postalCode": "L3M4S3",
        "streetName": "ANDERSON",
        "streetDirectionId": null,
        "streetTypeId": "DR",
        "placeName": "GRIMSBY",
        "streetNameDisplayText": "ANDERSON DR, GRIMSBY"
      }
    ]
  },
  {
    "postal": "L3M1B6",
    "result": [
      {
        "electoralDistricts": [
          {
            "election": null,
            "id": 70,
            "name": "Niagara West"
          }
        ],
        "pollDivisionIds": [
          10140056
        ],
        "postalCode": "L3M1B6",
        "streetName": "TERRACE",
        "streetDirectionId": null,
        "streetTypeId": "DR",
        "placeName": "GRIMSBY",
        "streetNameDisplayText": "TERRACE DR, GRIMSBY"
      }
    ]
  },
  {
    "postal": "L3M8R3",
    "result": []
  },
  {
    "postal": "L3M4V9",
    "result": [
      {
        "electoralDistricts": [
          {
            "election": null,
            "id": 70,
            "name": "Niagara West"
          }
        ],
        "pollDivisionIds": [
          10140056
        ],
        "postalCode": "L3M4V9",
        "streetName": "CENTRAL",
        "streetDirectionId": null,
        "streetTypeId": "AVE",
        "placeName": "GRIMSBY",
        "streetNameDisplayText": "CENTRAL AVE, GRIMSBY"
      }
    ]
  },
  {
    "postal": "L3M9W4",
    "result": []
  },
  {
    "postal": "L3M3T4",
    "result": [
      {
        "electoralDistricts": [
          {
            "election": null,
            "id": 70,
            "name": "Niagara West"
          }
        ],
        "pollDivisionIds": [
          10140050
        ],
        "postalCode": "L3M3T4",
        "streetName": "WOODLAWN",
        "streetDirectionId": null,
        "streetTypeId": "CRT",
        "placeName": "GRIMSBY",
        "streetNameDisplayText": "WOODLAWN CRT, GRIMSBY"
      }
    ]
  },
  {
    "postal": "L3M5C7",
    "result": [
      {
        "electoralDistricts": [
          {
            "election": null,
            "id": 70,
            "name": "Niagara West"
          }
        ],
        "pollDivisionIds": [
          10140054
        ],
        "postalCode": "L3M5C7",
        "streetName": "ADMIRAL",
        "streetDirectionId": null,
        "streetTypeId": "CIR",
        "placeName": "GRIMSBY",
        "streetNameDisplayText": "ADMIRAL CIR, GRIMSBY"
      },
      {
        "electoralDistricts": [
          {
            "election": null,
            "id": 70,
            "name": "Niagara West"
          }
        ],
        "pollDivisionIds": [
          10140054
        ],
        "postalCode": "L3M5C7",
        "streetName": "STONE GATE",
        "streetDirectionId": null,
        "streetTypeId": "DR",
        "placeName": "GRIMSBY",
        "streetNameDisplayText": "STONE GATE DR, GRIMSBY"
      }
    ]
  },
  {
    "postal": "L3M3Y1",
    "result": [
      {
        "electoralDistricts": [
          {
            "election": null,
            "id": 70,
            "name": "Niagara West"
          }
        ],
        "pollDivisionIds": [
          10140051
        ],
        "postalCode": "L3M3Y1",
        "streetName": "GARDEN",
        "streetDirectionId": null,
        "streetTypeId": "DR",
        "placeName": "GRIMSBY",
        "streetNameDisplayText": "GARDEN DR, GRIMSBY"
      }
    ]
  },
  {
    "postal": "L3M5V0",
    "result": []
  },
  {
    "postal": "L3M8G8",
    "result": []
  },
  {
    "postal": "L3M8B1",
    "result": []
  },
  {
    "postal": "L3M4P5",
    "result": [
      {
        "electoralDistricts": [
          {
            "election": null,
            "id": 70,
            "name": "Niagara West"
          }
        ],
        "pollDivisionIds": [
          10140054
        ],
        "postalCode": "L3M4P5",
        "streetName": "BLUE FOREST",
        "streetDirectionId": null,
        "streetTypeId": "DR",
        "placeName": "GRIMSBY",
        "streetNameDisplayText": "BLUE FOREST DR, GRIMSBY"
      }
    ]
  },
  {
    "postal": "L3M7B2",
    "result": []
  },
  {
    "postal": "L3M0R2",
    "result": []
  },
  {
    "postal": "L3M4M4",
    "result": [
      {
        "electoralDistricts": [
          {
            "election": null,
            "id": 70,
            "name": "Niagara West"
          }
        ],
        "pollDivisionIds": [
          10140050
        ],
        "postalCode": "L3M4M4",
        "streetName": "NORTH SERVICE",
        "streetDirectionId": null,
        "streetTypeId": "RD",
        "placeName": "GRIMSBY",
        "streetNameDisplayText": "NORTH SERVICE RD, GRIMSBY"
      }
    ]
  },
  {
    "postal": "L3M7M4",
    "result": []
  },
  {
    "postal": "L3M9S7",
    "result": []
  },
  {
    "postal": "L3M5Z7",
    "result": []
  },
  {
    "postal": "L3M7J7",
    "result": []
  },
  {
    "postal": "L3M8R8",
    "result": []
  },
  {
    "postal": "L3M9X1",
    "result": []
  },
  {
    "postal": "L3M5M9",
    "result": [
      {
        "electoralDistricts": [
          {
            "election": null,
            "id": 70,
            "name": "Niagara West"
          }
        ],
        "pollDivisionIds": [
          10140049
        ],
        "postalCode": "L3M5M9",
        "streetName": "ELDERBERRY",
        "streetDirectionId": null,
        "streetTypeId": "AVE",
        "placeName": "GRIMSBY",
        "streetNameDisplayText": "ELDERBERRY AVE, GRIMSBY"
      },
      {
        "electoralDistricts": [
          {
            "election": null,
            "id": 70,
            "name": "Niagara West"
          }
        ],
        "pollDivisionIds": [
          10140049
        ],
        "postalCode": "L3M5M9",
        "streetName": "MAGNOLIA",
        "streetDirectionId": null,
        "streetTypeId": "CRES",
        "placeName": "GRIMSBY",
        "streetNameDisplayText": "MAGNOLIA CRES, GRIMSBY"
      }
    ]
  },
  {
    "postal": "L3M9B4",
    "result": []
  },
  {
    "postal": "L3M0L9",
    "result": []
  },
  {
    "postal": "L3M9G4",
    "result": []
  },
  {
    "postal": "L3M1J4",
    "result": [
      {
        "electoralDistricts": [
          {
            "election": null,
            "id": 70,
            "name": "Niagara West"
          }
        ],
        "pollDivisionIds": [
          10140049
        ],
        "postalCode": "L3M1J4",
        "streetName": "GEDDES",
        "streetDirectionId": null,
        "streetTypeId": "ST",
        "placeName": "GRIMSBY",
        "streetNameDisplayText": "GEDDES ST, GRIMSBY"
      }
    ]
  },
  {
    "postal": "L3M0W6",
    "result": []
  }
]
