[
  {
    "postal": "N2K9J6",
    "result": []
  },
  {
    "postal": "N2K9Z5",
    "result": []
  },
  {
    "postal": "N2K7H8",
    "result": []
  },
  {
    "postal": "N2K0P6",
    "result": []
  },
  {
    "postal": "N2K0S7",
    "result": []
  },
  {
    "postal": "N2K8B9",
    "result": []
  },
  {
    "postal": "N2K2A6",
    "result": [
      {
        "electoralDistricts": [
          {
            "election": null,
            "id": 114,
            "name": "Waterloo"
          }
        ],
        "pollDivisionIds": [
          10126556
        ],
        "postalCode": "N2K2A6",
        "streetName": "BING",
        "streetDirectionId": null,
        "streetTypeId": "CRES",
        "placeName": "WATERLOO",
        "streetNameDisplayText": "BING CRES, WATERLOO"
      }
    ]
  },
  {
    "postal": "N2K7V2",
    "result": []
  },
  {
    "postal": "N2K9P4",
    "result": []
  },
  {
    "postal": "N2K6G0",
    "result": []
  },
  {
    "postal": "N2K2K0",
    "result": []
  },
  {
    "postal": "N2K7N6",
    "result": []
  },
  {
    "postal": "N2K5R3",
    "result": []
  },
  {
    "postal": "N2K7K0",
    "result": []
  },
  {
    "postal": "N2K3R2",
    "result": [
      {
        "electoralDistricts": [
          {
            "election": null,
            "id": 114,
            "name": "Waterloo"
          }
        ],
        "pollDivisionIds": [
          10126556
        ],
        "postalCode": "N2K3R2",
        "streetName": "STONEBURY",
        "streetDirectionId": null,
        "streetTypeId": "CRES",
        "placeName": "WATERLOO",
        "streetNameDisplayText": "STONEBURY CRES, WATERLOO"
      }
    ]
  },
  {
    "postal": "N2K0J1",
    "result": []
  },
  {
    "postal": "N2K0B0",
    "result": []
  },
  {
    "postal": "N2K5Z2",
    "result": []
  },
  {
    "postal": "N2K7P3",
    "result": []
  },
  {
    "postal": "N2K2K3",
    "result": [
      {
        "electoralDistricts": [
          {
            "election": null,
            "id": 114,
            "name": "Waterloo"
          }
        ],
        "pollDivisionIds": [
          10126570
        ],
        "postalCode": "N2K2K3",
        "streetName": "LEXINGTON",
        "streetDirectionId": null,
        "streetTypeId": "RD",
        "placeName": "WATERLOO",
        "streetNameDisplayText": "LEXINGTON RD, WATERLOO"
      }
    ]
  },
  {
    "postal": "N2K7Y6",
    "result": []
  },
  {
    "postal": "N2K1L9",
    "result": [
      {
        "electoralDistricts": [
          {
            "election": null,
            "id": 114,
            "name": "Waterloo"
          }
        ],
        "pollDivisionIds": [
          10126572
        ],
        "postalCode": "N2K1L9",
        "streetName": "BRIDGEPORT",
        "streetDirectionId": null,
        "streetTypeId": "RD",
        "placeName": "KITCHENER",
        "streetNameDisplayText": "BRIDGEPORT RD, KITCHENER"
      },
      {
        "electoralDistricts": [
          {
            "election": null,
            "id": 114,
            "name": "Waterloo"
          }
        ],
        "pollDivisionIds": [
          10126572
        ],
        "postalCode": "N2K1L9",
        "streetName": "LANCASTER",
        "streetDirectionId": "W",
        "streetTypeId": "ST",
        "placeName": "KITCHENER",
        "streetNameDisplayText": "LANCASTER ST W, KITCHENER"
      }
    ]
  },
  {
    "postal": "N2K8T0",
    "result": []
  },
  {
    "postal": "N2K3K8",
    "result": [
      {
        "electoralDistricts": [
          {
            "election": null,
            "id": 114,
            "name": "Waterloo"
          }
        ],
        "pollDivisionIds": [
          10126570
        ],
        "postalCode": "N2K3K8",
        "streetName": "AUBURN",
        "streetDirectionId": null,
        "streetTypeId": "DR",
        "placeName": "WATERLOO",
        "streetNameDisplayText": "AUBURN DR, WATERLOO"
      },
      {
        "electoralDistricts": [
          {
            "election": null,
            "id": 114,
            "name": "Waterloo"
          }
        ],
        "pollDivisionIds": [
          10126570
        ],
        "postalCode": "N2K3K8",
        "streetName": "CANTERBURY",
        "streetDirectionId": null,
        "streetTypeId": "DR",
        "placeName": "WATERLOO",
        "streetNameDisplayText": "CANTERBURY DR, WATERLOO"
      },
      {
        "electoralDistricts": [
          {
            "election": null,
            "id": 114,
            "name": "Waterloo"
          }
        ],
        "pollDivisionIds": [
          10126570
        ],
        "postalCode": "N2K3K8",
        "streetName": "DAYNA",
        "streetDirectionId": null,
        "streetTypeId": "CRES",
        "placeName": "WATERLOO",
        "streetNameDisplayText": "DAYNA CRES, WATERLOO"
      }
    ]
  },
  {
    "postal": "N2K5W9",
    "result": []
  },
  {
    "postal": "N2K6T9",
    "result": []
  },
  {
    "postal": "N2K4H1",
    "result": [
      {
        "electoralDistricts": [
          {
            "election": null,
            "id": 114,
            "name": "Waterloo"
          }
        ],
        "pollDivisionIds": [
          10126568
        ],
        "postalCode": "N2K4H1",
        "streetName": "TOMAN",
        "streetDirectionId": null,
        "streetTypeId": "DR",
        "placeName": "WATERLOO",
        "streetNameDisplayText": "TOMAN DR, WATERLOO"
      }
    ]
  },
  {
    "postal": "N2K7A2",
    "result": []
  },
  {
    "postal": "N2K5G0",
    "result": []
  },
  {
    "postal": "N2K8V5",
    "result": []
  },
  {
    "postal": "N2K2Y8",
    "result": [
      {
        "electoralDistricts": [
          {
            "election": null,
            "id": 114,
            "name": "Waterloo"
          }
        ],
        "pollDivisionIds": [
          10126571
        ],
        "postalCode": "N2K2Y8",
        "streetName": "HOLLINGER",
        "streetDirectionId": null,
        "streetTypeId": "CRES",
        "placeName": "KITCHENER",
        "streetNameDisplayText": "HOLLINGER CRES, KITCHENER"
      }
    ]
  },
  {
    "postal": "N2K2B6",
    "result": []
  },
  {
    "postal": "N2K4W8",
    "result": []
  },
  {
    "postal": "N2K8H7",
    "result": []
  },
  {
    "postal": "N2K5P1",
    "result": []
  },
  {
    "postal": "N2K2B8",
    "result": [
      {
        "electoralDistricts": [
          {
            "election": null,
            "id": 114,
            "name": "Waterloo"
          }
        ],
        "pollDivisionIds": [
          10126565
        ],
        "postalCode": "N2K2B8",
        "streetName": "HAMSTEAD",
        "streetDirectionId": null,
        "streetTypeId": "CRT",
        "placeName": "WATERLOO",
        "streetNameDisplayText": "HAMSTEAD CRT, WATERLOO"
      }
    ]
  },
  {
    "postal": "N2K0P2",
    "result": []
  },
  {
    "postal": "N2K9M1",
    "result": []
  },
  {
    "postal": "N2K3G0",
    "result": []
  },
  {
    "postal": "N2K9Z2",
    "result": []
  },
  {
    "postal": "N2K2A0",
    "result": []
  },
  {
    "postal": "N2K6Y0",
    "result": []
  },
  {
    "postal": "N2K2Z8",
    "result": []
  },
  {
    "postal": "N2K7Y3",
    "result": []
  },
  {
    "postal": "N2K6Z5",
    "result": []
  },
  {
    "postal": "N2K6E0",
    "result": []
  },
  {
    "postal": "N2K9B7",
    "result": []
  },
  {
    "postal": "N2K9S5",
    "result": []
  },
  {
    "postal": "N2K3X3",
    "result": [
      {
        "electoralDistricts": [
          {
            "election": null,
            "id": 114,
            "name": "Waterloo"
          }
        ],
        "pollDivisionIds": [
          10126569
        ],
        "postalCode": "N2K3X3",
        "streetName": "CAVELLETTI",
        "streetDirectionId": null,
        "streetTypeId": "CRT",
        "placeName": "WATERLOO",
        "streetNameDisplayText": "CAVELLETTI CRT, WATERLOO"
      }
    ]
  },
  {
    "postal": "N2K7R5",
    "result": []
  },
  {
    "postal": "N2K2X3",
    "result": [
      {
        "electoralDistricts": [
          {
            "election": null,
            "id": 114,
            "name": "Waterloo"
          }
        ],
        "pollDivisionIds": [
          10126570
        ],
        "postalCode": "N2K2X3",
        "streetName": "HILLSIDE",
        "streetDirectionId": null,
        "streetTypeId": "ST",
        "placeName": "WATERLOO",
        "streetNameDisplayText": "HILLSIDE ST, WATERLOO"
      }
    ]
  },
  {
    "postal": "N2K8Z9",
    "result": []
  },
  {
    "postal": "N2K0N4",
    "result": []
  },
  {
    "postal": "N2K1K1",
    "result": [
      {
        "electoralDistricts": [
          {
            "election": null,
            "id": 114,
            "name": "Waterloo"
          }
        ],
        "pollDivisionIds": [
          10126571
        ],
        "postalCode": "N2K1K1",
        "streetName": "BRIDGE",
        "streetDirectionId": "E",
        "streetTypeId": "ST",
        "placeName": "KITCHENER",
        "streetNameDisplayText": "BRIDGE ST E, KITCHENER"
      }
    ]
  },
  {
    "postal": "N2K1S3",
    "result": [
      {
        "electoralDistricts": [
          {
            "election": null,
            "id": 114,
            "name": "Waterloo"
          }
        ],
        "pollDivisionIds": [
          10126572
        ],
        "postalCode": "N2K1S3",
        "streetName": "WOOLWICH",
        "streetDirectionId": null,
        "streetTypeId": "ST",
        "placeName": "KITCHENER",
        "streetNameDisplayText": "WOOLWICH ST, KITCHENER"
      }
    ]
  },
  {
    "postal": "N2K6M4",
    "result": []
  },
  {
    "postal": "N2K9A9",
    "result": []
  },
  {
    "postal": "N2K9Z9",
    "result": []
  },
  {
    "postal": "N2K6T4",
    "result": []
  },
  {
    "postal": "N2K0B2",
    "result": [
      {
        "electoralDistricts": [
          {
            "election": null,
            "id": 114,
            "name": "Waterloo"
          }
        ],
        "pollDivisionIds": [
          10126570
        ],
        "postalCode": "N2K0B2",
        "streetName": "CONDOR",
        "streetDirectionId": null,
        "streetTypeId": "ST",
        "placeName": "KITCHENER",
        "streetNameDisplayText": "CONDOR ST, KITCHENER"
      },
      {
        "electoralDistricts": [
          {
            "election": null,
            "id": 114,
            "name": "Waterloo"
          }
        ],
        "pollDivisionIds": [
          10126570
        ],
        "postalCode": "N2K0B2",
        "streetName": "REDTAIL",
        "streetDirectionId": null,
        "streetTypeId": "ST",
        "placeName": "KITCHENER",
        "streetNameDisplayText": "REDTAIL ST, KITCHENER"
      }
    ]
  },
  {
    "postal": "N2K2L9",
    "result": [
      {
        "electoralDistricts": [
          {
            "election": null,
            "id": 114,
            "name": "Waterloo"
          }
        ],
        "pollDivisionIds": [
          10126565
        ],
        "postalCode": "N2K2L9",
        "streetName": "LEE",
        "streetDirectionId": null,
        "streetTypeId": "CIR",
        "placeName": "WATERLOO",
        "streetNameDisplayText": "LEE CIR, WATERLOO"
      }
    ]
  },
  {
    "postal": "N2K8K9",
    "result": []
  },
  {
    "postal": "N2K2H9",
    "result": [
      {
        "electoralDistricts": [
          {
            "election": null,
            "id": 114,
            "name": "Waterloo"
          }
        ],
        "pollDivisionIds": [
          10126565
        ],
        "postalCode": "N2K2H9",
        "streetName": "SHALLMAR",
        "streetDirectionId": null,
        "streetTypeId": "CRT",
        "placeName": "WATERLOO",
        "streetNameDisplayText": "SHALLMAR CRT, WATERLOO"
      }
    ]
  },
  {
    "postal": "N2K3Z6",
    "result": [
      {
        "electoralDistricts": [
          {
            "election": null,
            "id": 114,
            "name": "Waterloo"
          }
        ],
        "pollDivisionIds": [
          10126556
        ],
        "postalCode": "N2K3Z6",
        "streetName": "CANSO",
        "streetDirectionId": null,
        "streetTypeId": "PL",
        "placeName": "WATERLOO",
        "streetNameDisplayText": "CANSO PL, WATERLOO"
      },
      {
        "electoralDistricts": [
          {
            "election": null,
            "id": 114,
            "name": "Waterloo"
          }
        ],
        "pollDivisionIds": [
          10126556
        ],
        "postalCode": "N2K3Z6",
        "streetName": "WINDJAMMER",
        "streetDirectionId": null,
        "streetTypeId": "WAY",
        "placeName": "WATERLOO",
        "streetNameDisplayText": "WINDJAMMER WAY, WATERLOO"
      }
    ]
  },
  {
    "postal": "N2K3B0",
    "result": []
  },
  {
    "postal": "N2K2H8",
    "result": [
      {
        "electoralDistricts": [
          {
            "election": null,
            "id": 114,
            "name": "Waterloo"
          }
        ],
        "pollDivisionIds": [
          10126565
        ],
        "postalCode": "N2K2H8",
        "streetName": "SHALLMAR",
        "streetDirectionId": null,
        "streetTypeId": "CRT",
        "placeName": "WATERLOO",
        "streetNameDisplayText": "SHALLMAR CRT, WATERLOO"
      }
    ]
  },
  {
    "postal": "N2K3X2",
    "result": [
      {
        "electoralDistricts": [
          {
            "election": null,
            "id": 114,
            "name": "Waterloo"
          }
        ],
        "pollDivisionIds": [
          10126569
        ],
        "postalCode": "N2K3X2",
        "streetName": "MARENGO",
        "streetDirectionId": null,
        "streetTypeId": "CRT",
        "placeName": "WATERLOO",
        "streetNameDisplayText": "MARENGO CRT, WATERLOO"
      },
      {
        "electoralDistricts": [
          {
            "election": null,
            "id": 114,
            "name": "Waterloo"
          }
        ],
        "pollDivisionIds": [
          10126569
        ],
        "postalCode": "N2K3X2",
        "streetName": "PASTERN",
        "streetDirectionId": null,
        "streetTypeId": "TRAIL",
        "placeName": "WATERLOO",
        "streetNameDisplayText": "PASTERN TRAIL, WATERLOO"
      }
    ]
  },
  {
    "postal": "N2K2E9",
    "result": [
      {
        "electoralDistricts": [
          {
            "election": null,
            "id": 114,
            "name": "Waterloo"
          }
        ],
        "pollDivisionIds": [
          10126565
        ],
        "postalCode": "N2K2E9",
        "streetName": "ALLISON",
        "streetDirectionId": null,
        "streetTypeId": "CRT",
        "placeName": "WATERLOO",
        "streetNameDisplayText": "ALLISON CRT, WATERLOO"
      }
    ]
  },
  {
    "postal": "N2K9P6",
    "result": []
  },
  {
    "postal": "N2K9E2",
    "result": []
  },
  {
    "postal": "N2K9H2",
    "result": []
  },
  {
    "postal": "N2K1S8",
    "result": [
      {
        "electoralDistricts": [
          {
            "election": null,
            "id": 114,
            "name": "Waterloo"
          }
        ],
        "pollDivisionIds": [
          10126572
        ],
        "postalCode": "N2K1S8",
        "streetName": "HILLCREST",
        "streetDirectionId": null,
        "streetTypeId": "LANE",
        "placeName": "KITCHENER",
        "streetNameDisplayText": "HILLCREST LANE, KITCHENER"
      }
    ]
  },
  {
    "postal": "N2K3M6",
    "result": [
      {
        "electoralDistricts": [
          {
            "election": null,
            "id": 114,
            "name": "Waterloo"
          }
        ],
        "pollDivisionIds": [
          10126565
        ],
        "postalCode": "N2K3M6",
        "streetName": "EIWO",
        "streetDirectionId": null,
        "streetTypeId": "CRT",
        "placeName": "WATERLOO",
        "streetNameDisplayText": "EIWO CRT, WATERLOO"
      }
    ]
  },
  {
    "postal": "N2K6Z8",
    "result": []
  },
  {
    "postal": "N2K4J2",
    "result": [
      {
        "electoralDistricts": [
          {
            "election": null,
            "id": 114,
            "name": "Waterloo"
          }
        ],
        "pollDivisionIds": [
          10126570
        ],
        "postalCode": "N2K4J2",
        "streetName": "FALCONRIDGE",
        "streetDirectionId": null,
        "streetTypeId": "CRES",
        "placeName": "KITCHENER",
        "streetNameDisplayText": "FALCONRIDGE CRES, KITCHENER"
      },
      {
        "electoralDistricts": [
          {
            "election": null,
            "id": 114,
            "name": "Waterloo"
          }
        ],
        "pollDivisionIds": [
          10126570
        ],
        "postalCode": "N2K4J2",
        "streetName": "FALCONRIDGE",
        "streetDirectionId": null,
        "streetTypeId": "DR",
        "placeName": "KITCHENER",
        "streetNameDisplayText": "FALCONRIDGE DR, KITCHENER"
      },
      {
        "electoralDistricts": [
          {
            "election": null,
            "id": 114,
            "name": "Waterloo"
          }
        ],
        "pollDivisionIds": [
          10126570,
          10126572
        ],
        "postalCode": "N2K4J2",
        "streetName": "HAWKSWOOD",
        "streetDirectionId": null,
        "streetTypeId": "DR",
        "placeName": "KITCHENER",
        "streetNameDisplayText": "HAWKSWOOD DR, KITCHENER"
      }
    ]
  },
  {
    "postal": "N2K9Y1",
    "result": []
  },
  {
    "postal": "N2K8V6",
    "result": []
  },
  {
    "postal": "N2K6B2",
    "result": []
  },
  {
    "postal": "N2K1P8",
    "result": [
      {
        "electoralDistricts": [
          {
            "election": null,
            "id": 114,
            "name": "Waterloo"
          }
        ],
        "pollDivisionIds": [
          10126569
        ],
        "postalCode": "N2K1P8",
        "streetName": "SPRINGDALE",
        "streetDirectionId": null,
        "streetTypeId": "DR",
        "placeName": "KITCHENER",
        "streetNameDisplayText": "SPRINGDALE DR, KITCHENER"
      }
    ]
  },
  {
    "postal": "N2K0V8",
    "result": []
  },
  {
    "postal": "N2K4Y0",
    "result": []
  },
  {
    "postal": "N2K2T4",
    "result": [
      {
        "electoralDistricts": [
          {
            "election": null,
            "id": 114,
            "name": "Waterloo"
          }
        ],
        "pollDivisionIds": [
          10126556
        ],
        "postalCode": "N2K2T4",
        "streetName": "WISSLER",
        "streetDirectionId": null,
        "streetTypeId": "RD",
        "placeName": "WATERLOO",
        "streetNameDisplayText": "WISSLER RD, WATERLOO"
      }
    ]
  },
  {
    "postal": "N2K2S3",
    "result": [
      {
        "electoralDistricts": [
          {
            "election": null,
            "id": 114,
            "name": "Waterloo"
          }
        ],
        "pollDivisionIds": [
          10126560
        ],
        "postalCode": "N2K2S3",
        "streetName": "ANNDALE",
        "streetDirectionId": null,
        "streetTypeId": "RD",
        "placeName": "WATERLOO",
        "streetNameDisplayText": "ANNDALE RD, WATERLOO"
      }
    ]
  },
  {
    "postal": "N2K0K0",
    "result": []
  },
  {
    "postal": "N2K5N1",
    "result": []
  },
  {
    "postal": "N2K7T0",
    "result": []
  },
  {
    "postal": "N2K9N2",
    "result": []
  },
  {
    "postal": "N2K5L1",
    "result": []
  },
  {
    "postal": "N2K7G5",
    "result": []
  },
  {
    "postal": "N2K6K2",
    "result": []
  },
  {
    "postal": "N2K6P9",
    "result": []
  },
  {
    "postal": "N2K0E6",
    "result": [
      {
        "electoralDistricts": [
          {
            "election": null,
            "id": 114,
            "name": "Waterloo"
          }
        ],
        "pollDivisionIds": [
          10126568
        ],
        "postalCode": "N2K0E6",
        "streetName": "CHESTNUT",
        "streetDirectionId": null,
        "streetTypeId": "RIDGE",
        "placeName": "WATERLOO",
        "streetNameDisplayText": "CHESTNUT RIDGE, WATERLOO"
      }
    ]
  },
  {
    "postal": "N2K8R9",
    "result": []
  },
  {
    "postal": "N2K3G9",
    "result": [
      {
        "electoralDistricts": [
          {
            "election": null,
            "id": 114,
            "name": "Waterloo"
          }
        ],
        "pollDivisionIds": [
          10126556
        ],
        "postalCode": "N2K3G9",
        "streetName": "RUSTIC",
        "streetDirectionId": null,
        "streetTypeId": "CRT",
        "placeName": "WATERLOO",
        "streetNameDisplayText": "RUSTIC CRT, WATERLOO"
      }
    ]
  },
  {
    "postal": "N2K0V7",
    "result": []
  },
  {
    "postal": "N2K2Z1",
    "result": [
      {
        "electoralDistricts": [
          {
            "election": null,
            "id": 114,
            "name": "Waterloo"
          }
        ],
        "pollDivisionIds": [
          10126571
        ],
        "postalCode": "N2K2Z1",
        "streetName": "HOLLINGER",
        "streetDirectionId": null,
        "streetTypeId": "CRES",
        "placeName": "KITCHENER",
        "streetNameDisplayText": "HOLLINGER CRES, KITCHENER"
      }
    ]
  },
  {
    "postal": "N2K7N1",
    "result": []
  },
  {
    "postal": "N2K3C6",
    "result": [
      {
        "electoralDistricts": [
          {
            "election": null,
            "id": 114,
            "name": "Waterloo"
          }
        ],
        "pollDivisionIds": [
          10126556
        ],
        "postalCode": "N2K3C6",
        "streetName": "WISSLER",
        "streetDirectionId": null,
        "streetTypeId": "RD",
        "placeName": "WATERLOO",
        "streetNameDisplayText": "WISSLER RD, WATERLOO"
      }
    ]
  },
  {
    "postal": "N2K4M1",
    "result": [
      {
        "electoralDistricts": [
          {
            "election": null,
            "id": 114,
            "name": "Waterloo"
          }
        ],
        "pollDivisionIds": [
          10142554
        ],
        "postalCode": "N2K4M1",
        "streetName": "NEW HAMPSHIRE",
        "streetDirectionId": null,
        "streetTypeId": "ST",
        "placeName": "WATERLOO",
        "streetNameDisplayText": "NEW HAMPSHIRE ST, WATERLOO"
      }
    ]
  },
  {
    "postal": "N2K9K2",
    "result": []
  },
  {
    "postal": "N2K9S6",
    "result": []
  },
  {
    "postal": "N2K4X1",
    "result": []
  },
  {
    "postal": "N2K8W2",
    "result": []
  },
  {
    "postal": "N2K7N2",
    "result": []
  },
  {
    "postal": "N2K8S3",
    "result": []
  },
  {
    "postal": "N2K4V0",
    "result": []
  },
  {
    "postal": "N2K6W4",
    "result": []
  },
  {
    "postal": "N2K5M1",
    "result": []
  },
  {
    "postal": "N2K0S4",
    "result": []
  },
  {
    "postal": "N2K5X6",
    "result": []
  },
  {
    "postal": "N2K8L5",
    "result": []
  },
  {
    "postal": "N2K5M8",
    "result": []
  },
  {
    "postal": "N2K2G3",
    "result": [
      {
        "electoralDistricts": [
          {
            "election": null,
            "id": 114,
            "name": "Waterloo"
          }
        ],
        "pollDivisionIds": [
          10126565
        ],
        "postalCode": "N2K2G3",
        "streetName": "LEE",
        "streetDirectionId": null,
        "streetTypeId": "AVE",
        "placeName": "WATERLOO",
        "streetNameDisplayText": "LEE AVE, WATERLOO"
      }
    ]
  },
  {
    "postal": "N2K8E4",
    "result": []
  },
  {
    "postal": "N2K7S9",
    "result": []
  },
  {
    "postal": "N2K1K3",
    "result": []
  },
  {
    "postal": "N2K4E1",
    "result": [
      {
        "electoralDistricts": [
          {
            "election": null,
            "id": 114,
            "name": "Waterloo"
          }
        ],
        "pollDivisionIds": [
          10126570
        ],
        "postalCode": "N2K4E1",
        "streetName": "DANSBURY",
        "streetDirectionId": null,
        "streetTypeId": "DR",
        "placeName": "WATERLOO",
        "streetNameDisplayText": "DANSBURY DR, WATERLOO"
      },
      {
        "electoralDistricts": [
          {
            "election": null,
            "id": 114,
            "name": "Waterloo"
          }
        ],
        "pollDivisionIds": [
          10126570
        ],
        "postalCode": "N2K4E1",
        "streetName": "PASTERN",
        "streetDirectionId": null,
        "streetTypeId": "TRAIL",
        "placeName": "WATERLOO",
        "streetNameDisplayText": "PASTERN TRAIL, WATERLOO"
      }
    ]
  },
  {
    "postal": "N2K4R2",
    "result": []
  },
  {
    "postal": "N2K6T0",
    "result": []
  },
  {
    "postal": "N2K3K5",
    "result": [
      {
        "electoralDistricts": [
          {
            "election": null,
            "id": 114,
            "name": "Waterloo"
          }
        ],
        "pollDivisionIds": [
          10126570
        ],
        "postalCode": "N2K3K5",
        "streetName": "ALLENBY",
        "streetDirectionId": null,
        "streetTypeId": "CRT",
        "placeName": "WATERLOO",
        "streetNameDisplayText": "ALLENBY CRT, WATERLOO"
      },
      {
        "electoralDistricts": [
          {
            "election": null,
            "id": 114,
            "name": "Waterloo"
          }
        ],
        "pollDivisionIds": [
          10126570
        ],
        "postalCode": "N2K3K5",
        "streetName": "AUBURN",
        "streetDirectionId": null,
        "streetTypeId": "DR",
        "placeName": "WATERLOO",
        "streetNameDisplayText": "AUBURN DR, WATERLOO"
      }
    ]
  },
  {
    "postal": "N2K3S3",
    "result": [
      {
        "electoralDistricts": [
          {
            "election": null,
            "id": 114,
            "name": "Waterloo"
          }
        ],
        "pollDivisionIds": [
          10126572
        ],
        "postalCode": "N2K3S3",
        "streetName": "RIVERBEND",
        "streetDirectionId": null,
        "streetTypeId": "DR",
        "placeName": "KITCHENER",
        "streetNameDisplayText": "RIVERBEND DR, KITCHENER"
      }
    ]
  },
  {
    "postal": "N2K3L4",
    "result": [
      {
        "electoralDistricts": [
          {
            "election": null,
            "id": 114,
            "name": "Waterloo"
          }
        ],
        "pollDivisionIds": [
          10126556
        ],
        "postalCode": "N2K3L4",
        "streetName": "MANORWOOD",
        "streetDirectionId": null,
        "streetTypeId": "CRT",
        "placeName": "WATERLOO",
        "streetNameDisplayText": "MANORWOOD CRT, WATERLOO"
      },
      {
        "electoralDistricts": [
          {
            "election": null,
            "id": 114,
            "name": "Waterloo"
          }
        ],
        "pollDivisionIds": [
          10126556
        ],
        "postalCode": "N2K3L4",
        "streetName": "OLD ABBEY",
        "streetDirectionId": null,
        "streetTypeId": "RD",
        "placeName": "WATERLOO",
        "streetNameDisplayText": "OLD ABBEY RD, WATERLOO"
      }
    ]
  },
  {
    "postal": "N2K9Y2",
    "result": []
  },
  {
    "postal": "N2K1E0",
    "result": []
  },
  {
    "postal": "N2K9A4",
    "result": []
  },
  {
    "postal": "N2K1L3",
    "result": [
      {
        "electoralDistricts": [
          {
            "election": null,
            "id": 114,
            "name": "Waterloo"
          }
        ],
        "pollDivisionIds": [
          10126560,
          10126570
        ],
        "postalCode": "N2K1L3",
        "streetName": "BRIDGE",
        "streetDirectionId": "W",
        "streetTypeId": "ST",
        "placeName": "WATERLOO",
        "streetNameDisplayText": "BRIDGE ST W, WATERLOO"
      }
    ]
  },
  {
    "postal": "N2K6N1",
    "result": []
  },
  {
    "postal": "N2K6G7",
    "result": []
  },
  {
    "postal": "N2K7W1",
    "result": []
  },
  {
    "postal": "N2K4M6",
    "result": [
      {
        "electoralDistricts": [
          {
            "election": null,
            "id": 114,
            "name": "Waterloo"
          }
        ],
        "pollDivisionIds": [
          10126568,
          10126564
        ],
        "postalCode": "N2K4M6",
        "streetName": "NEW HAMPSHIRE",
        "streetDirectionId": null,
        "streetTypeId": "ST",
        "placeName": "WATERLOO",
        "streetNameDisplayText": "NEW HAMPSHIRE ST, WATERLOO"
      },
      {
        "electoralDistricts": [
          {
            "election": null,
            "id": 114,
            "name": "Waterloo"
          }
        ],
        "pollDivisionIds": [
          10126568
        ],
        "postalCode": "N2K4M6",
        "streetName": "SCHOONER",
        "streetDirectionId": null,
        "streetTypeId": "CRES",
        "placeName": "WATERLOO",
        "streetNameDisplayText": "SCHOONER CRES, WATERLOO"
      }
    ]
  },
  {
    "postal": "N2K1K0",
    "result": []
  },
  {
    "postal": "N2K3E2",
    "result": [
      {
        "electoralDistricts": [
          {
            "election": null,
            "id": 114,
            "name": "Waterloo"
          }
        ],
        "pollDivisionIds": [
          10126570
        ],
        "postalCode": "N2K3E2",
        "streetName": "AUBURN",
        "streetDirectionId": null,
        "streetTypeId": "DR",
        "placeName": "WATERLOO",
        "streetNameDisplayText": "AUBURN DR, WATERLOO"
      }
    ]
  },
  {
    "postal": "N2K5H4",
    "result": []
  },
  {
    "postal": "N2K1K7",
    "result": [
      {
        "electoralDistricts": [
          {
            "election": null,
            "id": 114,
            "name": "Waterloo"
          }
        ],
        "pollDivisionIds": [
          10126569
        ],
        "postalCode": "N2K1K7",
        "streetName": "BRIDGE",
        "streetDirectionId": "W",
        "streetTypeId": "ST",
        "placeName": "KITCHENER",
        "streetNameDisplayText": "BRIDGE ST W, KITCHENER"
      }
    ]
  },
  {
    "postal": "N2K0H0",
    "result": []
  },
  {
    "postal": "N2K0J3",
    "result": []
  },
  {
    "postal": "N2K1X6",
    "result": [
      {
        "electoralDistricts": [
          {
            "election": null,
            "id": 114,
            "name": "Waterloo"
          }
        ],
        "pollDivisionIds": [
          10126560
        ],
        "postalCode": "N2K1X6",
        "streetName": "NORMANDY",
        "streetDirectionId": null,
        "streetTypeId": "AVE",
        "placeName": "WATERLOO",
        "streetNameDisplayText": "NORMANDY AVE, WATERLOO"
      }
    ]
  },
  {
    "postal": "N2K2Z6",
    "result": [
      {
        "electoralDistricts": [
          {
            "election": null,
            "id": 114,
            "name": "Waterloo"
          }
        ],
        "pollDivisionIds": [
          10126560
        ],
        "postalCode": "N2K2Z6",
        "streetName": "FOXHUNT",
        "streetDirectionId": null,
        "streetTypeId": "RD",
        "placeName": "WATERLOO",
        "streetNameDisplayText": "FOXHUNT RD, WATERLOO"
      }
    ]
  },
  {
    "postal": "N2K4R9",
    "result": []
  },
  {
    "postal": "N2K0W8",
    "result": []
  },
  {
    "postal": "N2K1L4",
    "result": [
      {
        "electoralDistricts": [
          {
            "election": null,
            "id": 114,
            "name": "Waterloo"
          }
        ],
        "pollDivisionIds": [
          10126556,
          10126570
        ],
        "postalCode": "N2K1L4",
        "streetName": "BRIDGE",
        "streetDirectionId": "W",
        "streetTypeId": "ST",
        "placeName": "WATERLOO",
        "streetNameDisplayText": "BRIDGE ST W, WATERLOO"
      },
      {
        "electoralDistricts": [
          {
            "election": null,
            "id": 114,
            "name": "Waterloo"
          }
        ],
        "pollDivisionIds": [
          10126556
        ],
        "postalCode": "N2K1L4",
        "streetName": "BRIDGE",
        "streetDirectionId": null,
        "streetTypeId": "ST",
        "placeName": "WATERLOO",
        "streetNameDisplayText": "BRIDGE ST, WATERLOO"
      }
    ]
  },
  {
    "postal": "N2K0C8",
    "result": [
      {
        "electoralDistricts": [
          {
            "election": null,
            "id": 114,
            "name": "Waterloo"
          }
        ],
        "pollDivisionIds": [
          10126572
        ],
        "postalCode": "N2K0C8",
        "streetName": "CARRIAGE",
        "streetDirectionId": null,
        "streetTypeId": "WAY",
        "placeName": "WATERLOO",
        "streetNameDisplayText": "CARRIAGE WAY, WATERLOO"
      },
      {
        "electoralDistricts": [
          {
            "election": null,
            "id": 114,
            "name": "Waterloo"
          }
        ],
        "pollDivisionIds": [
          10126572
        ],
        "postalCode": "N2K0C8",
        "streetName": "WOOLWICH",
        "streetDirectionId": "N",
        "streetTypeId": "ST",
        "placeName": "WATERLOO",
        "streetNameDisplayText": "WOOLWICH ST N, WATERLOO"
      }
    ]
  },
  {
    "postal": "N2K9X7",
    "result": []
  },
  {
    "postal": "N2K4T1",
    "result": []
  },
  {
    "postal": "N2K0M0",
    "result": []
  },
  {
    "postal": "N2K6A2",
    "result": []
  },
  {
    "postal": "N2K9S8",
    "result": []
  },
  {
    "postal": "N2K9T4",
    "result": []
  },
  {
    "postal": "N2K9Y4",
    "result": []
  },
  {
    "postal": "N2K6G5",
    "result": []
  },
  {
    "postal": "N2K6H9",
    "result": []
  },
  {
    "postal": "N2K2P3",
    "result": [
      {
        "electoralDistricts": [
          {
            "election": null,
            "id": 114,
            "name": "Waterloo"
          }
        ],
        "pollDivisionIds": [
          10126570
        ],
        "postalCode": "N2K2P3",
        "streetName": "HILLSIDE",
        "streetDirectionId": null,
        "streetTypeId": "ST",
        "placeName": "WATERLOO",
        "streetNameDisplayText": "HILLSIDE ST, WATERLOO"
      }
    ]
  },
  {
    "postal": "N2K1T6",
    "result": [
      {
        "electoralDistricts": [
          {
            "election": null,
            "id": 114,
            "name": "Waterloo"
          }
        ],
        "pollDivisionIds": [
          10126565
        ],
        "postalCode": "N2K1T6",
        "streetName": "BRAEMORE",
        "streetDirectionId": null,
        "streetTypeId": "AVE",
        "placeName": "WATERLOO",
        "streetNameDisplayText": "BRAEMORE AVE, WATERLOO"
      },
      {
        "electoralDistricts": [
          {
            "election": null,
            "id": 114,
            "name": "Waterloo"
          }
        ],
        "pollDivisionIds": [
          10126565
        ],
        "postalCode": "N2K1T6",
        "streetName": "BRAEMORE",
        "streetDirectionId": null,
        "streetTypeId": "CIR",
        "placeName": "WATERLOO",
        "streetNameDisplayText": "BRAEMORE CIR, WATERLOO"
      }
    ]
  },
  {
    "postal": "N2K4P6",
    "result": [
      {
        "electoralDistricts": [
          {
            "election": null,
            "id": 114,
            "name": "Waterloo"
          }
        ],
        "pollDivisionIds": [
          10126571
        ],
        "postalCode": "N2K4P6",
        "streetName": "PAIGE",
        "streetDirectionId": null,
        "streetTypeId": "ST",
        "placeName": "KITCHENER",
        "streetNameDisplayText": "PAIGE ST, KITCHENER"
      }
    ]
  },
  {
    "postal": "N2K3K1",
    "result": [
      {
        "electoralDistricts": [
          {
            "election": null,
            "id": 114,
            "name": "Waterloo"
          }
        ],
        "pollDivisionIds": [
          10126560
        ],
        "postalCode": "N2K3K1",
        "streetName": "MAYBERRY",
        "streetDirectionId": null,
        "streetTypeId": "CRT",
        "placeName": "WATERLOO",
        "streetNameDisplayText": "MAYBERRY CRT, WATERLOO"
      }
    ]
  },
  {
    "postal": "N2K6X4",
    "result": []
  },
  {
    "postal": "N2K4M8",
    "result": [
      {
        "electoralDistricts": [
          {
            "election": null,
            "id": 114,
            "name": "Waterloo"
          }
        ],
        "pollDivisionIds": [
          10126568
        ],
        "postalCode": "N2K4M8",
        "streetName": "LABRADOR",
        "streetDirectionId": null,
        "streetTypeId": "DR",
        "placeName": "WATERLOO",
        "streetNameDisplayText": "LABRADOR DR, WATERLOO"
      }
    ]
  },
  {
    "postal": "N2K2Y1",
    "result": [
      {
        "electoralDistricts": [
          {
            "election": null,
            "id": 114,
            "name": "Waterloo"
          }
        ],
        "pollDivisionIds": [
          10126570
        ],
        "postalCode": "N2K2Y1",
        "streetName": "BERTHA",
        "streetDirectionId": null,
        "streetTypeId": "ST",
        "placeName": "WATERLOO",
        "streetNameDisplayText": "BERTHA ST, WATERLOO"
      }
    ]
  },
  {
    "postal": "N2K6M1",
    "result": []
  },
  {
    "postal": "N2K5L8",
    "result": []
  },
  {
    "postal": "N2K3P6",
    "result": [
      {
        "electoralDistricts": [
          {
            "election": null,
            "id": 114,
            "name": "Waterloo"
          }
        ],
        "pollDivisionIds": [
          10126552
        ],
        "postalCode": "N2K3P6",
        "streetName": "BARWICK",
        "streetDirectionId": null,
        "streetTypeId": "CRES",
        "placeName": "WATERLOO",
        "streetNameDisplayText": "BARWICK CRES, WATERLOO"
      }
    ]
  },
  {
    "postal": "N2K9A5",
    "result": []
  },
  {
    "postal": "N2K7K1",
    "result": []
  },
  {
    "postal": "N2K3J4",
    "result": [
      {
        "electoralDistricts": [
          {
            "election": null,
            "id": 114,
            "name": "Waterloo"
          }
        ],
        "pollDivisionIds": [
          10126570
        ],
        "postalCode": "N2K3J4",
        "streetName": "STRAWBERRY",
        "streetDirectionId": null,
        "streetTypeId": "CRES",
        "placeName": "WATERLOO",
        "streetNameDisplayText": "STRAWBERRY CRES, WATERLOO"
      }
    ]
  },
  {
    "postal": "N2K5E7",
    "result": []
  },
  {
    "postal": "N2K3A7",
    "result": []
  },
  {
    "postal": "N2K1B9",
    "result": [
      {
        "electoralDistricts": [
          {
            "election": null,
            "id": 114,
            "name": "Waterloo"
          }
        ],
        "pollDivisionIds": [
          10126571
        ],
        "postalCode": "N2K1B9",
        "streetName": "SCHWEITZER",
        "streetDirectionId": null,
        "streetTypeId": "ST",
        "placeName": "KITCHENER",
        "streetNameDisplayText": "SCHWEITZER ST, KITCHENER"
      }
    ]
  },
  {
    "postal": "N2K9E8",
    "result": []
  },
  {
    "postal": "N2K1C9",
    "result": [
      {
        "electoralDistricts": [
          {
            "election": null,
            "id": 114,
            "name": "Waterloo"
          }
        ],
        "pollDivisionIds": [
          10126571
        ],
        "postalCode": "N2K1C9",
        "streetName": "NELSON",
        "streetDirectionId": null,
        "streetTypeId": "AVE",
        "placeName": "KITCHENER",
        "streetNameDisplayText": "NELSON AVE, KITCHENER"
      }
    ]
  },
  {
    "postal": "N2K3B5",
    "result": [
      {
        "electoralDistricts": [
          {
            "election": null,
            "id": 114,
            "name": "Waterloo"
          }
        ],
        "pollDivisionIds": [
          10126570
        ],
        "postalCode": "N2K3B5",
        "streetName": "CAMILLE",
        "streetDirectionId": null,
        "streetTypeId": "CRES",
        "placeName": "WATERLOO",
        "streetNameDisplayText": "CAMILLE CRES, WATERLOO"
      },
      {
        "electoralDistricts": [
          {
            "election": null,
            "id": 114,
            "name": "Waterloo"
          }
        ],
        "pollDivisionIds": [
          10126570
        ],
        "postalCode": "N2K3B5",
        "streetName": "DANSBURY",
        "streetDirectionId": null,
        "streetTypeId": "DR",
        "placeName": "WATERLOO",
        "streetNameDisplayText": "DANSBURY DR, WATERLOO"
      }
    ]
  },
  {
    "postal": "N2K8R0",
    "result": []
  },
  {
    "postal": "N2K3P2",
    "result": [
      {
        "electoralDistricts": [
          {
            "election": null,
            "id": 114,
            "name": "Waterloo"
          }
        ],
        "pollDivisionIds": [
          10126552
        ],
        "postalCode": "N2K3P2",
        "streetName": "HALLMARK",
        "streetDirectionId": null,
        "streetTypeId": "DR",
        "placeName": "WATERLOO",
        "streetNameDisplayText": "HALLMARK DR, WATERLOO"
      },
      {
        "electoralDistricts": [
          {
            "election": null,
            "id": 114,
            "name": "Waterloo"
          }
        ],
        "pollDivisionIds": [
          10126552
        ],
        "postalCode": "N2K3P2",
        "streetName": "OLD ABBEY",
        "streetDirectionId": null,
        "streetTypeId": "RD",
        "placeName": "WATERLOO",
        "streetNameDisplayText": "OLD ABBEY RD, WATERLOO"
      }
    ]
  },
  {
    "postal": "N2K5V4",
    "result": []
  },
  {
    "postal": "N2K4H0",
    "result": []
  },
  {
    "postal": "N2K4S7",
    "result": []
  },
  {
    "postal": "N2K6C2",
    "result": []
  },
  {
    "postal": "N2K8W3",
    "result": []
  },
  {
    "postal": "N2K4M5",
    "result": [
      {
        "electoralDistricts": [
          {
            "election": null,
            "id": 114,
            "name": "Waterloo"
          }
        ],
        "pollDivisionIds": [
          10126564,
          10126568
        ],
        "postalCode": "N2K4M5",
        "streetName": "NEW HAMPSHIRE",
        "streetDirectionId": null,
        "streetTypeId": "ST",
        "placeName": "WATERLOO",
        "streetNameDisplayText": "NEW HAMPSHIRE ST, WATERLOO"
      },
      {
        "electoralDistricts": [
          {
            "election": null,
            "id": 114,
            "name": "Waterloo"
          }
        ],
        "pollDivisionIds": [
          10126568
        ],
        "postalCode": "N2K4M5",
        "streetName": "SCHOONER",
        "streetDirectionId": null,
        "streetTypeId": "CRES",
        "placeName": "WATERLOO",
        "streetNameDisplayText": "SCHOONER CRES, WATERLOO"
      }
    ]
  },
  {
    "postal": "N2K5T1",
    "result": []
  },
  {
    "postal": "N2K3B3",
    "result": [
      {
        "electoralDistricts": [
          {
            "election": null,
            "id": 114,
            "name": "Waterloo"
          }
        ],
        "pollDivisionIds": [
          10126570
        ],
        "postalCode": "N2K3B3",
        "streetName": "CAMILLE",
        "streetDirectionId": null,
        "streetTypeId": "CRES",
        "placeName": "WATERLOO",
        "streetNameDisplayText": "CAMILLE CRES, WATERLOO"
      }
    ]
  },
  {
    "postal": "N2K6C6",
    "result": []
  },
  {
    "postal": "N2K7N8",
    "result": []
  },
  {
    "postal": "N2K2Y3",
    "result": []
  },
  {
    "postal": "N2K2R6",
    "result": [
      {
        "electoralDistricts": [
          {
            "election": null,
            "id": 114,
            "name": "Waterloo"
          }
        ],
        "pollDivisionIds": [
          10126560
        ],
        "postalCode": "N2K2R6",
        "streetName": "ANNDALE",
        "streetDirectionId": null,
        "streetTypeId": "RD",
        "placeName": "WATERLOO",
        "streetNameDisplayText": "ANNDALE RD, WATERLOO"
      }
    ]
  },
  {
    "postal": "N2K7N3",
    "result": []
  },
  {
    "postal": "N2K8J2",
    "result": []
  },
  {
    "postal": "N2K6A9",
    "result": []
  },
  {
    "postal": "N2K3V2",
    "result": [
      {
        "electoralDistricts": [
          {
            "election": null,
            "id": 114,
            "name": "Waterloo"
          }
        ],
        "pollDivisionIds": [
          10126570
        ],
        "postalCode": "N2K3V2",
        "streetName": "UNIVERSITY",
        "streetDirectionId": "E",
        "streetTypeId": "AVE",
        "placeName": "WATERLOO",
        "streetNameDisplayText": "UNIVERSITY AVE E, WATERLOO"
      }
    ]
  },
  {
    "postal": "N2K2N3",
    "result": [
      {
        "electoralDistricts": [
          {
            "election": null,
            "id": 114,
            "name": "Waterloo"
          }
        ],
        "pollDivisionIds": [
          10126565
        ],
        "postalCode": "N2K2N3",
        "streetName": "DANSBURY",
        "streetDirectionId": null,
        "streetTypeId": "DR",
        "placeName": "WATERLOO",
        "streetNameDisplayText": "DANSBURY DR, WATERLOO"
      }
    ]
  },
  {
    "postal": "N2K1S5",
    "result": [
      {
        "electoralDistricts": [
          {
            "election": null,
            "id": 114,
            "name": "Waterloo"
          }
        ],
        "pollDivisionIds": [
          10126570,
          10126572,
          10126569
        ],
        "postalCode": "N2K1S5",
        "streetName": "WOOLWICH",
        "streetDirectionId": "N",
        "streetTypeId": "ST",
        "placeName": "WATERLOO",
        "streetNameDisplayText": "WOOLWICH ST N, WATERLOO"
      },
      {
        "electoralDistricts": [
          {
            "election": null,
            "id": 48,
            "name": "Kitchener—Conestoga"
          }
        ],
        "pollDivisionIds": [
          10139250
        ],
        "postalCode": "N2K1S5",
        "streetName": "WOOLWICH",
        "streetDirectionId": "S",
        "streetTypeId": "ST",
        "placeName": "BRESLAU",
        "streetNameDisplayText": "WOOLWICH ST S, BRESLAU"
      },
      {
        "electoralDistricts": [
          {
            "election": null,
            "id": 48,
            "name": "Kitchener—Conestoga"
          }
        ],
        "pollDivisionIds": [
          10139250
        ],
        "postalCode": "N2K1S5",
        "streetName": "WOOLWICH",
        "streetDirectionId": "S",
        "streetTypeId": "ST",
        "placeName": "WATERLOO",
        "streetNameDisplayText": "WOOLWICH ST S, WATERLOO"
      },
      {
        "electoralDistricts": [
          {
            "election": null,
            "id": 114,
            "name": "Waterloo"
          }
        ],
        "pollDivisionIds": [
          10126572,
          10126570,
          10126569
        ],
        "postalCode": "N2K1S5",
        "streetName": "WOOLWICH",
        "streetDirectionId": null,
        "streetTypeId": "ST",
        "placeName": "WATERLOO",
        "streetNameDisplayText": "WOOLWICH ST, WATERLOO"
      }
    ]
  },
  {
    "postal": "N2K4T7",
    "result": []
  },
  {
    "postal": "N2K6Y7",
    "result": []
  },
  {
    "postal": "N2K0W7",
    "result": []
  },
  {
    "postal": "N2K2W9",
    "result": [
      {
        "electoralDistricts": [
          {
            "election": null,
            "id": 114,
            "name": "Waterloo"
          }
        ],
        "pollDivisionIds": [
          10126556
        ],
        "postalCode": "N2K2W9",
        "streetName": "ROSEBRIAR",
        "streetDirectionId": null,
        "streetTypeId": "CRT",
        "placeName": "WATERLOO",
        "streetNameDisplayText": "ROSEBRIAR CRT, WATERLOO"
      }
    ]
  },
  {
    "postal": "N2K8V0",
    "result": []
  },
  {
    "postal": "N2K0H4",
    "result": []
  },
  {
    "postal": "N2K2T1",
    "result": [
      {
        "electoralDistricts": [
          {
            "election": null,
            "id": 114,
            "name": "Waterloo"
          }
        ],
        "pollDivisionIds": [
          10126560
        ],
        "postalCode": "N2K2T1",
        "streetName": "REDFOX",
        "streetDirectionId": null,
        "streetTypeId": "RD",
        "placeName": "WATERLOO",
        "streetNameDisplayText": "REDFOX RD, WATERLOO"
      }
    ]
  },
  {
    "postal": "N2K1B1",
    "result": [
      {
        "electoralDistricts": [
          {
            "election": null,
            "id": 48,
            "name": "Kitchener—Conestoga"
          }
        ],
        "pollDivisionIds": [
          10139249
        ],
        "postalCode": "N2K1B1",
        "streetName": "BLOOMINGDALE",
        "streetDirectionId": "N",
        "streetTypeId": "RD",
        "placeName": "KITCHENER",
        "streetNameDisplayText": "BLOOMINGDALE RD N, KITCHENER"
      }
    ]
  },
  {
    "postal": "N2K8B6",
    "result": []
  },
  {
    "postal": "N2K6H1",
    "result": []
  },
  {
    "postal": "N2K8T8",
    "result": []
  },
  {
    "postal": "N2K0T4",
    "result": []
  },
  {
    "postal": "N2K2C4",
    "result": [
      {
        "electoralDistricts": [
          {
            "election": null,
            "id": 114,
            "name": "Waterloo"
          }
        ],
        "pollDivisionIds": [
          10126565
        ],
        "postalCode": "N2K2C4",
        "streetName": "DUNVEGAN",
        "streetDirectionId": null,
        "streetTypeId": "DR",
        "placeName": "WATERLOO",
        "streetNameDisplayText": "DUNVEGAN DR, WATERLOO"
      }
    ]
  },
  {
    "postal": "N2K8N3",
    "result": []
  },
  {
    "postal": "N2K4L8",
    "result": [
      {
        "electoralDistricts": [
          {
            "election": null,
            "id": 114,
            "name": "Waterloo"
          }
        ],
        "pollDivisionIds": [
          10126568
        ],
        "postalCode": "N2K4L8",
        "streetName": "NEW HAMPSHIRE",
        "streetDirectionId": null,
        "streetTypeId": "ST",
        "placeName": "WATERLOO",
        "streetNameDisplayText": "NEW HAMPSHIRE ST, WATERLOO"
      },
      {
        "electoralDistricts": [
          {
            "election": null,
            "id": 114,
            "name": "Waterloo"
          }
        ],
        "pollDivisionIds": [
          10126568
        ],
        "postalCode": "N2K4L8",
        "streetName": "WHITE CAP",
        "streetDirectionId": null,
        "streetTypeId": "AVE",
        "placeName": "WATERLOO",
        "streetNameDisplayText": "WHITE CAP AVE, WATERLOO"
      },
      {
        "electoralDistricts": [
          {
            "election": null,
            "id": 114,
            "name": "Waterloo"
          }
        ],
        "pollDivisionIds": [
          10126568
        ],
        "postalCode": "N2K4L8",
        "streetName": "WHITECAP",
        "streetDirectionId": null,
        "streetTypeId": "AVE",
        "placeName": "WATERLOO",
        "streetNameDisplayText": "WHITECAP AVE, WATERLOO"
      }
    ]
  },
  {
    "postal": "N2K2B5",
    "result": []
  },
  {
    "postal": "N2K3H1",
    "result": [
      {
        "electoralDistricts": [
          {
            "election": null,
            "id": 114,
            "name": "Waterloo"
          }
        ],
        "pollDivisionIds": [
          10126556
        ],
        "postalCode": "N2K3H1",
        "streetName": "RUSTIC",
        "streetDirectionId": null,
        "streetTypeId": "CRT",
        "placeName": "WATERLOO",
        "streetNameDisplayText": "RUSTIC CRT, WATERLOO"
      }
    ]
  },
  {
    "postal": "N2K4Y1",
    "result": []
  },
  {
    "postal": "N2K7E2",
    "result": []
  },
  {
    "postal": "N2K2P5",
    "result": [
      {
        "electoralDistricts": [
          {
            "election": null,
            "id": 114,
            "name": "Waterloo"
          }
        ],
        "pollDivisionIds": [
          10126556
        ],
        "postalCode": "N2K2P5",
        "streetName": "HILLSIDE",
        "streetDirectionId": null,
        "streetTypeId": "ST",
        "placeName": "WATERLOO",
        "streetNameDisplayText": "HILLSIDE ST, WATERLOO"
      }
    ]
  },
  {
    "postal": "N2K8R7",
    "result": []
  },
  {
    "postal": "N2K9P1",
    "result": []
  },
  {
    "postal": "N2K3B8",
    "result": [
      {
        "electoralDistricts": [
          {
            "election": null,
            "id": 114,
            "name": "Waterloo"
          }
        ],
        "pollDivisionIds": [
          10126570
        ],
        "postalCode": "N2K3B8",
        "streetName": "CAMILLE",
        "streetDirectionId": null,
        "streetTypeId": "CRES",
        "placeName": "WATERLOO",
        "streetNameDisplayText": "CAMILLE CRES, WATERLOO"
      }
    ]
  },
  {
    "postal": "N2K3P7",
    "result": [
      {
        "electoralDistricts": [
          {
            "election": null,
            "id": 114,
            "name": "Waterloo"
          }
        ],
        "pollDivisionIds": [
          10126570
        ],
        "postalCode": "N2K3P7",
        "streetName": "DANSBURY",
        "streetDirectionId": null,
        "streetTypeId": "DR",
        "placeName": "WATERLOO",
        "streetNameDisplayText": "DANSBURY DR, WATERLOO"
      },
      {
        "electoralDistricts": [
          {
            "election": null,
            "id": 114,
            "name": "Waterloo"
          }
        ],
        "pollDivisionIds": [
          10126570
        ],
        "postalCode": "N2K3P7",
        "streetName": "MEADOWVALE",
        "streetDirectionId": null,
        "streetTypeId": "PL",
        "placeName": "WATERLOO",
        "streetNameDisplayText": "MEADOWVALE PL, WATERLOO"
      },
      {
        "electoralDistricts": [
          {
            "election": null,
            "id": 114,
            "name": "Waterloo"
          }
        ],
        "pollDivisionIds": [
          10126570
        ],
        "postalCode": "N2K3P7",
        "streetName": "MEADOWVALE",
        "streetDirectionId": null,
        "streetTypeId": "RD",
        "placeName": "WATERLOO",
        "streetNameDisplayText": "MEADOWVALE RD, WATERLOO"
      }
    ]
  },
  {
    "postal": "N2K9B2",
    "result": []
  },
  {
    "postal": "N2K6Z3",
    "result": []
  },
  {
    "postal": "N2K4N5",
    "result": [
      {
        "electoralDistricts": [
          {
            "election": null,
            "id": 114,
            "name": "Waterloo"
          }
        ],
        "pollDivisionIds": [
          10126564
        ],
        "postalCode": "N2K4N5",
        "streetName": "CHESAPEAKE",
        "streetDirectionId": null,
        "streetTypeId": "DR",
        "placeName": "WATERLOO",
        "streetNameDisplayText": "CHESAPEAKE DR, WATERLOO"
      },
      {
        "electoralDistricts": [
          {
            "election": null,
            "id": 114,
            "name": "Waterloo"
          }
        ],
        "pollDivisionIds": [
          10126564
        ],
        "postalCode": "N2K4N5",
        "streetName": "PLEASANT BAY",
        "streetDirectionId": null,
        "streetTypeId": "CRT",
        "placeName": "WATERLOO",
        "streetNameDisplayText": "PLEASANT BAY CRT, WATERLOO"
      }
    ]
  },
  {
    "postal": "N2K8T3",
    "result": []
  },
  {
    "postal": "N2K1V2",
    "result": [
      {
        "electoralDistricts": [
          {
            "election": null,
            "id": 114,
            "name": "Waterloo"
          }
        ],
        "pollDivisionIds": [
          10126565
        ],
        "postalCode": "N2K1V2",
        "streetName": "SOUTHWICK",
        "streetDirectionId": null,
        "streetTypeId": "PL",
        "placeName": "WATERLOO",
        "streetNameDisplayText": "SOUTHWICK PL, WATERLOO"
      }
    ]
  },
  {
    "postal": "N2K1Y0",
    "result": []
  },
  {
    "postal": "N2K3G6",
    "result": [
      {
        "electoralDistricts": [
          {
            "election": null,
            "id": 114,
            "name": "Waterloo"
          }
        ],
        "pollDivisionIds": [
          10126565
        ],
        "postalCode": "N2K3G6",
        "streetName": "CADBURY",
        "streetDirectionId": null,
        "streetTypeId": "CRT",
        "placeName": "WATERLOO",
        "streetNameDisplayText": "CADBURY CRT, WATERLOO"
      }
    ]
  },
  {
    "postal": "N2K3H7",
    "result": [
      {
        "electoralDistricts": [
          {
            "election": null,
            "id": 114,
            "name": "Waterloo"
          }
        ],
        "pollDivisionIds": [
          10126556
        ],
        "postalCode": "N2K3H7",
        "streetName": "DEER RUN",
        "streetDirectionId": null,
        "streetTypeId": "DR",
        "placeName": "WATERLOO",
        "streetNameDisplayText": "DEER RUN DR, WATERLOO"
      }
    ]
  },
  {
    "postal": "N2K7X8",
    "result": []
  },
  {
    "postal": "N2K0C7",
    "result": [
      {
        "electoralDistricts": [
          {
            "election": null,
            "id": 114,
            "name": "Waterloo"
          }
        ],
        "pollDivisionIds": [
          10126572
        ],
        "postalCode": "N2K0C7",
        "streetName": "EAGLECREST",
        "streetDirectionId": null,
        "streetTypeId": "ST",
        "placeName": "KITCHENER",
        "streetNameDisplayText": "EAGLECREST ST, KITCHENER"
      },
      {
        "electoralDistricts": [
          {
            "election": null,
            "id": 114,
            "name": "Waterloo"
          }
        ],
        "pollDivisionIds": [
          10126572
        ],
        "postalCode": "N2K0C7",
        "streetName": "GREYHAWK",
        "streetDirectionId": null,
        "streetTypeId": "ST",
        "placeName": "KITCHENER",
        "streetNameDisplayText": "GREYHAWK ST, KITCHENER"
      }
    ]
  },
  {
    "postal": "N2K0W9",
    "result": []
  },
  {
    "postal": "N2K8E6",
    "result": []
  },
  {
    "postal": "N2K9Z8",
    "result": []
  },
  {
    "postal": "N2K3P4",
    "result": [
      {
        "electoralDistricts": [
          {
            "election": null,
            "id": 114,
            "name": "Waterloo"
          }
        ],
        "pollDivisionIds": [
          10126552
        ],
        "postalCode": "N2K3P4",
        "streetName": "BARWICK",
        "streetDirectionId": null,
        "streetTypeId": "CRES",
        "placeName": "WATERLOO",
        "streetNameDisplayText": "BARWICK CRES, WATERLOO"
      },
      {
        "electoralDistricts": [
          {
            "election": null,
            "id": 114,
            "name": "Waterloo"
          }
        ],
        "pollDivisionIds": [
          10126552
        ],
        "postalCode": "N2K3P4",
        "streetName": "STANWOOD",
        "streetDirectionId": null,
        "streetTypeId": "CRES",
        "placeName": "WATERLOO",
        "streetNameDisplayText": "STANWOOD CRES, WATERLOO"
      }
    ]
  },
  {
    "postal": "N2K6L8",
    "result": []
  },
  {
    "postal": "N2K2R4",
    "result": [
      {
        "electoralDistricts": [
          {
            "election": null,
            "id": 114,
            "name": "Waterloo"
          }
        ],
        "pollDivisionIds": [
          10126560
        ],
        "postalCode": "N2K2R4",
        "streetName": "ANITA",
        "streetDirectionId": null,
        "streetTypeId": "CRT",
        "placeName": "WATERLOO",
        "streetNameDisplayText": "ANITA CRT, WATERLOO"
      }
    ]
  },
  {
    "postal": "N2K2W1",
    "result": [
      {
        "electoralDistricts": [
          {
            "election": null,
            "id": 114,
            "name": "Waterloo"
          }
        ],
        "pollDivisionIds": [
          10126556
        ],
        "postalCode": "N2K2W1",
        "streetName": "EASTGATE",
        "streetDirectionId": null,
        "streetTypeId": "WALK",
        "placeName": "WATERLOO",
        "streetNameDisplayText": "EASTGATE WALK, WATERLOO"
      }
    ]
  },
  {
    "postal": "N2K9H8",
    "result": []
  },
  {
    "postal": "N2K8X9",
    "result": []
  },
  {
    "postal": "N2K7H4",
    "result": []
  },
  {
    "postal": "N2K3J1",
    "result": [
      {
        "electoralDistricts": [
          {
            "election": null,
            "id": 114,
            "name": "Waterloo"
          }
        ],
        "pollDivisionIds": [
          10126570
        ],
        "postalCode": "N2K3J1",
        "streetName": "TIMLOCK",
        "streetDirectionId": null,
        "streetTypeId": "PL",
        "placeName": "WATERLOO",
        "streetNameDisplayText": "TIMLOCK PL, WATERLOO"
      }
    ]
  },
  {
    "postal": "N2K1P4",
    "result": [
      {
        "electoralDistricts": [
          {
            "election": null,
            "id": 114,
            "name": "Waterloo"
          }
        ],
        "pollDivisionIds": [
          10126572
        ],
        "postalCode": "N2K1P4",
        "streetName": "LANG",
        "streetDirectionId": null,
        "streetTypeId": "CRES",
        "placeName": "KITCHENER",
        "streetNameDisplayText": "LANG CRES, KITCHENER"
      }
    ]
  },
  {
    "postal": "N2K2A3",
    "result": [
      {
        "electoralDistricts": [
          {
            "election": null,
            "id": 114,
            "name": "Waterloo"
          }
        ],
        "pollDivisionIds": [
          10126560
        ],
        "postalCode": "N2K2A3",
        "streetName": "GRANT",
        "streetDirectionId": null,
        "streetTypeId": "CRES",
        "placeName": "WATERLOO",
        "streetNameDisplayText": "GRANT CRES, WATERLOO"
      }
    ]
  },
  {
    "postal": "N2K0Z1",
    "result": []
  },
  {
    "postal": "N2K1C1",
    "result": [
      {
        "electoralDistricts": [
          {
            "election": null,
            "id": 114,
            "name": "Waterloo"
          }
        ],
        "pollDivisionIds": [
          10126571
        ],
        "postalCode": "N2K1C1",
        "streetName": "SCHWEITZER",
        "streetDirectionId": null,
        "streetTypeId": "ST",
        "placeName": "KITCHENER",
        "streetNameDisplayText": "SCHWEITZER ST, KITCHENER"
      }
    ]
  },
  {
    "postal": "N2K0H3",
    "result": []
  },
  {
    "postal": "N2K7B0",
    "result": []
  },
  {
    "postal": "N2K5K2",
    "result": []
  },
  {
    "postal": "N2K1E9",
    "result": [
      {
        "electoralDistricts": [
          {
            "election": null,
            "id": 114,
            "name": "Waterloo"
          }
        ],
        "pollDivisionIds": [
          10126571
        ],
        "postalCode": "N2K1E9",
        "streetName": "DANIEL",
        "streetDirectionId": null,
        "streetTypeId": "AVE",
        "placeName": "KITCHENER",
        "streetNameDisplayText": "DANIEL AVE, KITCHENER"
      }
    ]
  },
  {
    "postal": "N2K9W7",
    "result": []
  },
  {
    "postal": "N2K5W6",
    "result": []
  },
  {
    "postal": "N2K6S6",
    "result": []
  },
  {
    "postal": "N2K2P8",
    "result": [
      {
        "electoralDistricts": [
          {
            "election": null,
            "id": 114,
            "name": "Waterloo"
          }
        ],
        "pollDivisionIds": [
          10126560
        ],
        "postalCode": "N2K2P8",
        "streetName": "ANNDALE",
        "streetDirectionId": null,
        "streetTypeId": "RD",
        "placeName": "WATERLOO",
        "streetNameDisplayText": "ANNDALE RD, WATERLOO"
      }
    ]
  },
  {
    "postal": "N2K4P8",
    "result": []
  },
  {
    "postal": "N2K0V9",
    "result": []
  },
  {
    "postal": "N2K5Y2",
    "result": []
  },
  {
    "postal": "N2K7Z7",
    "result": []
  },
  {
    "postal": "N2K6Y8",
    "result": []
  },
  {
    "postal": "N2K2G7",
    "result": [
      {
        "electoralDistricts": [
          {
            "election": null,
            "id": 114,
            "name": "Waterloo"
          }
        ],
        "pollDivisionIds": [
          10126565
        ],
        "postalCode": "N2K2G7",
        "streetName": "MOSSOM",
        "streetDirectionId": null,
        "streetTypeId": "PL",
        "placeName": "WATERLOO",
        "streetNameDisplayText": "MOSSOM PL, WATERLOO"
      }
    ]
  },
  {
    "postal": "N2K8C1",
    "result": []
  },
  {
    "postal": "N2K5C5",
    "result": []
  },
  {
    "postal": "N2K2X8",
    "result": []
  },
  {
    "postal": "N2K1W5",
    "result": [
      {
        "electoralDistricts": [
          {
            "election": null,
            "id": 114,
            "name": "Waterloo"
          }
        ],
        "pollDivisionIds": [
          10126565
        ],
        "postalCode": "N2K1W5",
        "streetName": "CREIGHTON",
        "streetDirectionId": null,
        "streetTypeId": "CRT",
        "placeName": "WATERLOO",
        "streetNameDisplayText": "CREIGHTON CRT, WATERLOO"
      }
    ]
  },
  {
    "postal": "N2K7G0",
    "result": []
  },
  {
    "postal": "N2K8J8",
    "result": []
  },
  {
    "postal": "N2K3Y0",
    "result": []
  },
  {
    "postal": "N2K9T7",
    "result": []
  },
  {
    "postal": "N2K5P4",
    "result": []
  },
  {
    "postal": "N2K4B0",
    "result": []
  },
  {
    "postal": "N2K9N8",
    "result": []
  },
  {
    "postal": "N2K4A7",
    "result": [
      {
        "electoralDistricts": [
          {
            "election": null,
            "id": 114,
            "name": "Waterloo"
          }
        ],
        "pollDivisionIds": [
          10126556
        ],
        "postalCode": "N2K4A7",
        "streetName": "BRIGANTINE",
        "streetDirectionId": null,
        "streetTypeId": "DR",
        "placeName": "WATERLOO",
        "streetNameDisplayText": "BRIGANTINE DR, WATERLOO"
      },
      {
        "electoralDistricts": [
          {
            "election": null,
            "id": 114,
            "name": "Waterloo"
          }
        ],
        "pollDivisionIds": [
          10126556
        ],
        "postalCode": "N2K4A7",
        "streetName": "FOX COVE",
        "streetDirectionId": null,
        "streetTypeId": "PL",
        "placeName": "WATERLOO",
        "streetNameDisplayText": "FOX COVE PL, WATERLOO"
      }
    ]
  },
  {
    "postal": "N2K4H9",
    "result": [
      {
        "electoralDistricts": [
          {
            "election": null,
            "id": 114,
            "name": "Waterloo"
          }
        ],
        "pollDivisionIds": [
          10126570
        ],
        "postalCode": "N2K4H9",
        "streetName": "FALCONRIDGE",
        "streetDirectionId": null,
        "streetTypeId": "CRES",
        "placeName": "KITCHENER",
        "streetNameDisplayText": "FALCONRIDGE CRES, KITCHENER"
      },
      {
        "electoralDistricts": [
          {
            "election": null,
            "id": 114,
            "name": "Waterloo"
          }
        ],
        "pollDivisionIds": [
          10126570
        ],
        "postalCode": "N2K4H9",
        "streetName": "FALCONRIDGE",
        "streetDirectionId": null,
        "streetTypeId": "DR",
        "placeName": "KITCHENER",
        "streetNameDisplayText": "FALCONRIDGE DR, KITCHENER"
      },
      {
        "electoralDistricts": [
          {
            "election": null,
            "id": 114,
            "name": "Waterloo"
          }
        ],
        "pollDivisionIds": [
          10126570
        ],
        "postalCode": "N2K4H9",
        "streetName": "REDTAIL",
        "streetDirectionId": null,
        "streetTypeId": "ST",
        "placeName": "KITCHENER",
        "streetNameDisplayText": "REDTAIL ST, KITCHENER"
      }
    ]
  },
  {
    "postal": "N2K6X1",
    "result": []
  },
  {
    "postal": "N2K9Y7",
    "result": []
  },
  {
    "postal": "N2K2Y5",
    "result": [
      {
        "electoralDistricts": [
          {
            "election": null,
            "id": 114,
            "name": "Waterloo"
          }
        ],
        "pollDivisionIds": [
          10126571
        ],
        "postalCode": "N2K2Y5",
        "streetName": "BRIDGE",
        "streetDirectionId": "E",
        "streetTypeId": "ST",
        "placeName": "KITCHENER",
        "streetNameDisplayText": "BRIDGE ST E, KITCHENER"
      }
    ]
  },
  {
    "postal": "N2K8L7",
    "result": []
  },
  {
    "postal": "N2K2A8",
    "result": [
      {
        "electoralDistricts": [
          {
            "election": null,
            "id": 114,
            "name": "Waterloo"
          }
        ],
        "pollDivisionIds": [
          10126556
        ],
        "postalCode": "N2K2A8",
        "streetName": "RUSTIC",
        "streetDirectionId": null,
        "streetTypeId": "DR",
        "placeName": "WATERLOO",
        "streetNameDisplayText": "RUSTIC DR, WATERLOO"
      }
    ]
  },
  {
    "postal": "N2K2K9",
    "result": []
  },
  {
    "postal": "N2K3E5",
    "result": [
      {
        "electoralDistricts": [
          {
            "election": null,
            "id": 114,
            "name": "Waterloo"
          }
        ],
        "pollDivisionIds": [
          10126560
        ],
        "postalCode": "N2K3E5",
        "streetName": "SCOTCHMERE",
        "streetDirectionId": null,
        "streetTypeId": "CRT",
        "placeName": "WATERLOO",
        "streetNameDisplayText": "SCOTCHMERE CRT, WATERLOO"
      }
    ]
  },
  {
    "postal": "N2K8N6",
    "result": []
  },
  {
    "postal": "N2K8J4",
    "result": []
  },
  {
    "postal": "N2K4R7",
    "result": []
  },
  {
    "postal": "N2K9K1",
    "result": []
  },
  {
    "postal": "N2K8E1",
    "result": []
  },
  {
    "postal": "N2K0R1",
    "result": []
  },
  {
    "postal": "N2K4J3",
    "result": [
      {
        "electoralDistricts": [
          {
            "election": null,
            "id": 114,
            "name": "Waterloo"
          }
        ],
        "pollDivisionIds": [
          10126572
        ],
        "postalCode": "N2K4J3",
        "streetName": "COOPERSHAWK",
        "streetDirectionId": null,
        "streetTypeId": "ST",
        "placeName": "KITCHENER",
        "streetNameDisplayText": "COOPERSHAWK ST, KITCHENER"
      },
      {
        "electoralDistricts": [
          {
            "election": null,
            "id": 114,
            "name": "Waterloo"
          }
        ],
        "pollDivisionIds": [
          10126572
        ],
        "postalCode": "N2K4J3",
        "streetName": "EAGLECREST",
        "streetDirectionId": null,
        "streetTypeId": "ST",
        "placeName": "KITCHENER",
        "streetNameDisplayText": "EAGLECREST ST, KITCHENER"
      },
      {
        "electoralDistricts": [
          {
            "election": null,
            "id": 114,
            "name": "Waterloo"
          }
        ],
        "pollDivisionIds": [
          10126570,
          10126572
        ],
        "postalCode": "N2K4J3",
        "streetName": "HAWKSWOOD",
        "streetDirectionId": null,
        "streetTypeId": "DR",
        "placeName": "KITCHENER",
        "streetNameDisplayText": "HAWKSWOOD DR, KITCHENER"
      }
    ]
  },
  {
    "postal": "N2K7E7",
    "result": []
  },
  {
    "postal": "N2K0J0",
    "result": []
  },
  {
    "postal": "N2K7R8",
    "result": []
  },
  {
    "postal": "N2K9X0",
    "result": []
  },
  {
    "postal": "N2K7P6",
    "result": []
  },
  {
    "postal": "N2K0R7",
    "result": []
  },
  {
    "postal": "N2K5W1",
    "result": []
  },
  {
    "postal": "N2K0K4",
    "result": []
  },
  {
    "postal": "N2K7N9",
    "result": []
  },
  {
    "postal": "N2K1N0",
    "result": []
  },
  {
    "postal": "N2K6P3",
    "result": []
  },
  {
    "postal": "N2K5A1",
    "result": []
  },
  {
    "postal": "N2K9M9",
    "result": []
  },
  {
    "postal": "N2K7T6",
    "result": []
  },
  {
    "postal": "N2K3X0",
    "result": []
  },
  {
    "postal": "N2K2T0",
    "result": []
  },
  {
    "postal": "N2K5X9",
    "result": []
  },
  {
    "postal": "N2K2R3",
    "result": [
      {
        "electoralDistricts": [
          {
            "election": null,
            "id": 114,
            "name": "Waterloo"
          }
        ],
        "pollDivisionIds": [
          10126560
        ],
        "postalCode": "N2K2R3",
        "streetName": "GLENECHO",
        "streetDirectionId": null,
        "streetTypeId": "CRT",
        "placeName": "WATERLOO",
        "streetNameDisplayText": "GLENECHO CRT, WATERLOO"
      }
    ]
  },
  {
    "postal": "N2K5N2",
    "result": []
  },
  {
    "postal": "N2K4Y7",
    "result": []
  },
  {
    "postal": "N2K7M0",
    "result": []
  },
  {
    "postal": "N2K8P3",
    "result": []
  },
  {
    "postal": "N2K3N3",
    "result": [
      {
        "electoralDistricts": [
          {
            "election": null,
            "id": 114,
            "name": "Waterloo"
          }
        ],
        "pollDivisionIds": [
          10126556
        ],
        "postalCode": "N2K3N3",
        "streetName": "OLD ABBEY",
        "streetDirectionId": null,
        "streetTypeId": "RD",
        "placeName": "WATERLOO",
        "streetNameDisplayText": "OLD ABBEY RD, WATERLOO"
      }
    ]
  },
  {
    "postal": "N2K7S3",
    "result": []
  },
  {
    "postal": "N2K3V9",
    "result": [
      {
        "electoralDistricts": [
          {
            "election": null,
            "id": 114,
            "name": "Waterloo"
          }
        ],
        "pollDivisionIds": [
          10126571
        ],
        "postalCode": "N2K3V9",
        "streetName": "STANLEY",
        "streetDirectionId": null,
        "streetTypeId": "AVE",
        "placeName": "KITCHENER",
        "streetNameDisplayText": "STANLEY AVE, KITCHENER"
      },
      {
        "electoralDistricts": [
          {
            "election": null,
            "id": 114,
            "name": "Waterloo"
          }
        ],
        "pollDivisionIds": [
          10126571
        ],
        "postalCode": "N2K3V9",
        "streetName": "TAGGE",
        "streetDirectionId": null,
        "streetTypeId": "ST",
        "placeName": "KITCHENER",
        "streetNameDisplayText": "TAGGE ST, KITCHENER"
      }
    ]
  },
  {
    "postal": "N2K9N7",
    "result": []
  },
  {
    "postal": "N2K0G4",
    "result": []
  },
  {
    "postal": "N2K2E2",
    "result": [
      {
        "electoralDistricts": [
          {
            "election": null,
            "id": 114,
            "name": "Waterloo"
          }
        ],
        "pollDivisionIds": [
          10126560
        ],
        "postalCode": "N2K2E2",
        "streetName": "COLONIAL",
        "streetDirectionId": null,
        "streetTypeId": "DR",
        "placeName": "WATERLOO",
        "streetNameDisplayText": "COLONIAL DR, WATERLOO"
      }
    ]
  },
  {
    "postal": "N2K7W8",
    "result": []
  },
  {
    "postal": "N2K7M5",
    "result": []
  },
  {
    "postal": "N2K5W8",
    "result": []
  },
  {
    "postal": "N2K5E5",
    "result": []
  },
  {
    "postal": "N2K1P9",
    "result": [
      {
        "electoralDistricts": [
          {
            "election": null,
            "id": 114,
            "name": "Waterloo"
          }
        ],
        "pollDivisionIds": [
          10126569
        ],
        "postalCode": "N2K1P9",
        "streetName": "SPRINGDALE",
        "streetDirectionId": null,
        "streetTypeId": "DR",
        "placeName": "KITCHENER",
        "streetNameDisplayText": "SPRINGDALE DR, KITCHENER"
      }
    ]
  },
  {
    "postal": "N2K8V8",
    "result": []
  },
  {
    "postal": "N2K9G8",
    "result": []
  },
  {
    "postal": "N2K8H9",
    "result": []
  },
  {
    "postal": "N2K1Z1",
    "result": [
      {
        "electoralDistricts": [
          {
            "election": null,
            "id": 114,
            "name": "Waterloo"
          }
        ],
        "pollDivisionIds": [
          10126560
        ],
        "postalCode": "N2K1Z1",
        "streetName": "GREEN ACRES",
        "streetDirectionId": null,
        "streetTypeId": "DR",
        "placeName": "WATERLOO",
        "streetNameDisplayText": "GREEN ACRES DR, WATERLOO"
      }
    ]
  },
  {
    "postal": "N2K8M3",
    "result": []
  },
  {
    "postal": "N2K5H6",
    "result": []
  },
  {
    "postal": "N2K7W7",
    "result": []
  },
  {
    "postal": "N2K4L0",
    "result": []
  },
  {
    "postal": "N2K2N1",
    "result": [
      {
        "electoralDistricts": [
          {
            "election": null,
            "id": 114,
            "name": "Waterloo"
          }
        ],
        "pollDivisionIds": [
          10126560
        ],
        "postalCode": "N2K2N1",
        "streetName": "CASTLEFIELD",
        "streetDirectionId": null,
        "streetTypeId": "AVE",
        "placeName": "WATERLOO",
        "streetNameDisplayText": "CASTLEFIELD AVE, WATERLOO"
      }
    ]
  },
  {
    "postal": "N2K2H4",
    "result": []
  },
  {
    "postal": "N2K5C8",
    "result": []
  },
  {
    "postal": "N2K8B0",
    "result": []
  },
  {
    "postal": "N2K1T4",
    "result": [
      {
        "electoralDistricts": [
          {
            "election": null,
            "id": 114,
            "name": "Waterloo"
          }
        ],
        "pollDivisionIds": [
          10126572
        ],
        "postalCode": "N2K1T4",
        "streetName": "SUNBRIDGE",
        "streetDirectionId": null,
        "streetTypeId": "CRES",
        "placeName": "KITCHENER",
        "streetNameDisplayText": "SUNBRIDGE CRES, KITCHENER"
      }
    ]
  },
  {
    "postal": "N2K7N7",
    "result": []
  },
  {
    "postal": "N2K4L3",
    "result": [
      {
        "electoralDistricts": [
          {
            "election": null,
            "id": 114,
            "name": "Waterloo"
          }
        ],
        "pollDivisionIds": [
          10142554,
          10126568
        ],
        "postalCode": "N2K4L3",
        "streetName": "ATLANTIC",
        "streetDirectionId": null,
        "streetTypeId": "BLVD",
        "placeName": "WATERLOO",
        "streetNameDisplayText": "ATLANTIC BLVD, WATERLOO"
      }
    ]
  },
  {
    "postal": "N2K2N2",
    "result": [
      {
        "electoralDistricts": [
          {
            "election": null,
            "id": 114,
            "name": "Waterloo"
          }
        ],
        "pollDivisionIds": [
          10126565
        ],
        "postalCode": "N2K2N2",
        "streetName": "DANSBURY",
        "streetDirectionId": null,
        "streetTypeId": "DR",
        "placeName": "WATERLOO",
        "streetNameDisplayText": "DANSBURY DR, WATERLOO"
      }
    ]
  },
  {
    "postal": "N2K4N8",
    "result": [
      {
        "electoralDistricts": [
          {
            "election": null,
            "id": 114,
            "name": "Waterloo"
          }
        ],
        "pollDivisionIds": [
          10126570
        ],
        "postalCode": "N2K4N8",
        "streetName": "COLT",
        "streetDirectionId": null,
        "streetTypeId": "ST",
        "placeName": "WATERLOO",
        "streetNameDisplayText": "COLT ST, WATERLOO"
      }
    ]
  },
  {
    "postal": "N2K3M5",
    "result": [
      {
        "electoralDistricts": [
          {
            "election": null,
            "id": 114,
            "name": "Waterloo"
          }
        ],
        "pollDivisionIds": [
          10126570
        ],
        "postalCode": "N2K3M5",
        "streetName": "DAYNA",
        "streetDirectionId": null,
        "streetTypeId": "CRES",
        "placeName": "WATERLOO",
        "streetNameDisplayText": "DAYNA CRES, WATERLOO"
      }
    ]
  },
  {
    "postal": "N2K6H7",
    "result": []
  },
  {
    "postal": "N2K8Y8",
    "result": []
  },
  {
    "postal": "N2K5R9",
    "result": []
  },
  {
    "postal": "N2K8G3",
    "result": []
  },
  {
    "postal": "N2K4N7",
    "result": [
      {
        "electoralDistricts": [
          {
            "election": null,
            "id": 114,
            "name": "Waterloo"
          }
        ],
        "pollDivisionIds": [
          10126556
        ],
        "postalCode": "N2K4N7",
        "streetName": "MARINER",
        "streetDirectionId": null,
        "streetTypeId": "DR",
        "placeName": "WATERLOO",
        "streetNameDisplayText": "MARINER DR, WATERLOO"
      }
    ]
  },
  {
    "postal": "N2K0B9",
    "result": [
      {
        "electoralDistricts": [
          {
            "election": null,
            "id": 114,
            "name": "Waterloo"
          }
        ],
        "pollDivisionIds": [
          10126568
        ],
        "postalCode": "N2K0B9",
        "streetName": "GREY SILO",
        "streetDirectionId": null,
        "streetTypeId": "RD",
        "placeName": "WATERLOO",
        "streetNameDisplayText": "GREY SILO RD, WATERLOO"
      }
    ]
  },
  {
    "postal": "N2K9K7",
    "result": []
  },
  {
    "postal": "N2K9K9",
    "result": []
  },
  {
    "postal": "N2K3Z2",
    "result": [
      {
        "electoralDistricts": [
          {
            "election": null,
            "id": 114,
            "name": "Waterloo"
          }
        ],
        "pollDivisionIds": [
          10126556
        ],
        "postalCode": "N2K3Z2",
        "streetName": "WISSLER",
        "streetDirectionId": null,
        "streetTypeId": "RD",
        "placeName": "WATERLOO",
        "streetNameDisplayText": "WISSLER RD, WATERLOO"
      }
    ]
  },
  {
    "postal": "N2K6W7",
    "result": []
  },
  {
    "postal": "N2K0P1",
    "result": []
  },
  {
    "postal": "N2K3A0",
    "result": []
  },
  {
    "postal": "N2K8L9",
    "result": []
  },
  {
    "postal": "N2K6X0",
    "result": []
  },
  {
    "postal": "N2K3E9",
    "result": [
      {
        "electoralDistricts": [
          {
            "election": null,
            "id": 114,
            "name": "Waterloo"
          }
        ],
        "pollDivisionIds": [
          10126560
        ],
        "postalCode": "N2K3E9",
        "streetName": "HUNTERSWOOD",
        "streetDirectionId": null,
        "streetTypeId": "CRT",
        "placeName": "WATERLOO",
        "streetNameDisplayText": "HUNTERSWOOD CRT, WATERLOO"
      }
    ]
  },
  {
    "postal": "N2K0S5",
    "result": []
  },
  {
    "postal": "N2K1A2",
    "result": [
      {
        "electoralDistricts": [
          {
            "election": null,
            "id": 114,
            "name": "Waterloo"
          }
        ],
        "pollDivisionIds": [
          10126571
        ],
        "postalCode": "N2K1A2",
        "streetName": "BLOOMINGDALE",
        "streetDirectionId": "N",
        "streetTypeId": "RD",
        "placeName": "KITCHENER",
        "streetNameDisplayText": "BLOOMINGDALE RD N, KITCHENER"
      }
    ]
  },
  {
    "postal": "N2K5V8",
    "result": []
  },
  {
    "postal": "N2K8C5",
    "result": []
  },
  {
    "postal": "N2K6N0",
    "result": []
  },
  {
    "postal": "N2K9E6",
    "result": []
  },
  {
    "postal": "N2K5J7",
    "result": []
  },
  {
    "postal": "N2K2R2",
    "result": [
      {
        "electoralDistricts": [
          {
            "election": null,
            "id": 114,
            "name": "Waterloo"
          }
        ],
        "pollDivisionIds": [
          10126560
        ],
        "postalCode": "N2K2R2",
        "streetName": "BLUESTREAM",
        "streetDirectionId": null,
        "streetTypeId": "RD",
        "placeName": "WATERLOO",
        "streetNameDisplayText": "BLUESTREAM RD, WATERLOO"
      }
    ]
  },
  {
    "postal": "N2K0P5",
    "result": []
  },
  {
    "postal": "N2K5A7",
    "result": []
  },
  {
    "postal": "N2K1G1",
    "result": [
      {
        "electoralDistricts": [
          {
            "election": null,
            "id": 114,
            "name": "Waterloo"
          }
        ],
        "pollDivisionIds": [
          10126571
        ],
        "postalCode": "N2K1G1",
        "streetName": "DANIEL",
        "streetDirectionId": null,
        "streetTypeId": "AVE",
        "placeName": "KITCHENER",
        "streetNameDisplayText": "DANIEL AVE, KITCHENER"
      }
    ]
  },
  {
    "postal": "N2K9R6",
    "result": []
  },
  {
    "postal": "N2K4Z9",
    "result": []
  },
  {
    "postal": "N2K1V5",
    "result": [
      {
        "electoralDistricts": [
          {
            "election": null,
            "id": 114,
            "name": "Waterloo"
          }
        ],
        "pollDivisionIds": [
          10126565
        ],
        "postalCode": "N2K1V5",
        "streetName": "PITTSFORD",
        "streetDirectionId": null,
        "streetTypeId": "CLOSE",
        "placeName": "WATERLOO",
        "streetNameDisplayText": "PITTSFORD CLOSE, WATERLOO"
      }
    ]
  },
  {
    "postal": "N2K9Y5",
    "result": []
  },
  {
    "postal": "N2K1P2",
    "result": [
      {
        "electoralDistricts": [
          {
            "election": null,
            "id": 114,
            "name": "Waterloo"
          }
        ],
        "pollDivisionIds": [
          10126572
        ],
        "postalCode": "N2K1P2",
        "streetName": "LANG",
        "streetDirectionId": null,
        "streetTypeId": "CRES",
        "placeName": "KITCHENER",
        "streetNameDisplayText": "LANG CRES, KITCHENER"
      }
    ]
  },
  {
    "postal": "N2K5X0",
    "result": []
  },
  {
    "postal": "N2K7B8",
    "result": []
  },
  {
    "postal": "N2K0C6",
    "result": [
      {
        "electoralDistricts": [
          {
            "election": null,
            "id": 114,
            "name": "Waterloo"
          }
        ],
        "pollDivisionIds": [
          10126572
        ],
        "postalCode": "N2K0C6",
        "streetName": "CARRIAGE",
        "streetDirectionId": null,
        "streetTypeId": "WAY",
        "placeName": "WATERLOO",
        "streetNameDisplayText": "CARRIAGE WAY, WATERLOO"
      }
    ]
  },
  {
    "postal": "N2K6G1",
    "result": []
  },
  {
    "postal": "N2K3K3",
    "result": [
      {
        "electoralDistricts": [
          {
            "election": null,
            "id": 114,
            "name": "Waterloo"
          }
        ],
        "pollDivisionIds": [
          10126565
        ],
        "postalCode": "N2K3K3",
        "streetName": "BRIDGE",
        "streetDirectionId": "W",
        "streetTypeId": "ST",
        "placeName": "WATERLOO",
        "streetNameDisplayText": "BRIDGE ST W, WATERLOO"
      }
    ]
  },
  {
    "postal": "N2K9R0",
    "result": []
  },
  {
    "postal": "N2K4R8",
    "result": []
  },
  {
    "postal": "N2K5P9",
    "result": []
  },
  {
    "postal": "N2K8N4",
    "result": []
  },
  {
    "postal": "N2K8H4",
    "result": []
  },
  {
    "postal": "N2K4V1",
    "result": []
  },
  {
    "postal": "N2K1K5",
    "result": [
      {
        "electoralDistricts": [
          {
            "election": null,
            "id": 114,
            "name": "Waterloo"
          }
        ],
        "pollDivisionIds": [
          10126572
        ],
        "postalCode": "N2K1K5",
        "streetName": "BRIDGE",
        "streetDirectionId": "W",
        "streetTypeId": "ST",
        "placeName": "KITCHENER",
        "streetNameDisplayText": "BRIDGE ST W, KITCHENER"
      }
    ]
  },
  {
    "postal": "N2K1Z5",
    "result": [
      {
        "electoralDistricts": [
          {
            "election": null,
            "id": 114,
            "name": "Waterloo"
          }
        ],
        "pollDivisionIds": [
          10126560
        ],
        "postalCode": "N2K1Z5",
        "streetName": "COLONIAL",
        "streetDirectionId": null,
        "streetTypeId": "DR",
        "placeName": "WATERLOO",
        "streetNameDisplayText": "COLONIAL DR, WATERLOO"
      }
    ]
  },
  {
    "postal": "N2K9L9",
    "result": []
  },
  {
    "postal": "N2K5L2",
    "result": []
  },
  {
    "postal": "N2K0M2",
    "result": []
  },
  {
    "postal": "N2K1K8",
    "result": [
      {
        "electoralDistricts": [
          {
            "election": null,
            "id": 114,
            "name": "Waterloo"
          }
        ],
        "pollDivisionIds": [
          10126569
        ],
        "postalCode": "N2K1K8",
        "streetName": "BRIDGE",
        "streetDirectionId": "W",
        "streetTypeId": "ST",
        "placeName": "WATERLOO",
        "streetNameDisplayText": "BRIDGE ST W, WATERLOO"
      }
    ]
  },
  {
    "postal": "N2K3M7",
    "result": [
      {
        "electoralDistricts": [
          {
            "election": null,
            "id": 114,
            "name": "Waterloo"
          }
        ],
        "pollDivisionIds": [
          10126569
        ],
        "postalCode": "N2K3M7",
        "streetName": "UNIVERSITY",
        "streetDirectionId": "E",
        "streetTypeId": "AVE",
        "placeName": "WATERLOO",
        "streetNameDisplayText": "UNIVERSITY AVE E, WATERLOO"
      }
    ]
  },
  {
    "postal": "N2K1B2",
    "result": [
      {
        "electoralDistricts": [
          {
            "election": null,
            "id": 114,
            "name": "Waterloo"
          }
        ],
        "pollDivisionIds": [
          10126571
        ],
        "postalCode": "N2K1B2",
        "streetName": "GRAND",
        "streetDirectionId": null,
        "streetTypeId": "AVE",
        "placeName": "KITCHENER",
        "streetNameDisplayText": "GRAND AVE, KITCHENER"
      }
    ]
  },
  {
    "postal": "N2K0H9",
    "result": []
  },
  {
    "postal": "N2K8M4",
    "result": []
  },
  {
    "postal": "N2K2M5",
    "result": [
      {
        "electoralDistricts": [
          {
            "election": null,
            "id": 114,
            "name": "Waterloo"
          }
        ],
        "pollDivisionIds": [
          10126560
        ],
        "postalCode": "N2K2M5",
        "streetName": "WHITMORE",
        "streetDirectionId": null,
        "streetTypeId": "DR",
        "placeName": "WATERLOO",
        "streetNameDisplayText": "WHITMORE DR, WATERLOO"
      }
    ]
  },
  {
    "postal": "N2K0T9",
    "result": []
  },
  {
    "postal": "N2K3P1",
    "result": [
      {
        "electoralDistricts": [
          {
            "election": null,
            "id": 114,
            "name": "Waterloo"
          }
        ],
        "pollDivisionIds": [
          10126556
        ],
        "postalCode": "N2K3P1",
        "streetName": "BAYHAMPTON",
        "streetDirectionId": null,
        "streetTypeId": "CRES",
        "placeName": "WATERLOO",
        "streetNameDisplayText": "BAYHAMPTON CRES, WATERLOO"
      },
      {
        "electoralDistricts": [
          {
            "election": null,
            "id": 114,
            "name": "Waterloo"
          }
        ],
        "pollDivisionIds": [
          10126556
        ],
        "postalCode": "N2K3P1",
        "streetName": "OLD ABBEY",
        "streetDirectionId": null,
        "streetTypeId": "RD",
        "placeName": "WATERLOO",
        "streetNameDisplayText": "OLD ABBEY RD, WATERLOO"
      }
    ]
  },
  {
    "postal": "N2K1R6",
    "result": []
  },
  {
    "postal": "N2K9V5",
    "result": []
  },
  {
    "postal": "N2K9T0",
    "result": []
  },
  {
    "postal": "N2K0A9",
    "result": []
  },
  {
    "postal": "N2K1M3",
    "result": [
      {
        "electoralDistricts": [
          {
            "election": null,
            "id": 114,
            "name": "Waterloo"
          }
        ],
        "pollDivisionIds": [
          10126572
        ],
        "postalCode": "N2K1M3",
        "streetName": "LANCASTER",
        "streetDirectionId": "W",
        "streetTypeId": "ST",
        "placeName": "KITCHENER",
        "streetNameDisplayText": "LANCASTER ST W, KITCHENER"
      }
    ]
  },
  {
    "postal": "N2K1W8",
    "result": [
      {
        "electoralDistricts": [
          {
            "election": null,
            "id": 114,
            "name": "Waterloo"
          }
        ],
        "pollDivisionIds": [
          10126560
        ],
        "postalCode": "N2K1W8",
        "streetName": "ANNDALE",
        "streetDirectionId": null,
        "streetTypeId": "RD",
        "placeName": "WATERLOO",
        "streetNameDisplayText": "ANNDALE RD, WATERLOO"
      }
    ]
  },
  {
    "postal": "N2K9J1",
    "result": []
  },
  {
    "postal": "N2K8N5",
    "result": []
  },
  {
    "postal": "N2K5X1",
    "result": []
  },
  {
    "postal": "N2K6S2",
    "result": []
  },
  {
    "postal": "N2K2A2",
    "result": [
      {
        "electoralDistricts": [
          {
            "election": null,
            "id": 114,
            "name": "Waterloo"
          }
        ],
        "pollDivisionIds": [
          10126560
        ],
        "postalCode": "N2K2A2",
        "streetName": "GRANT",
        "streetDirectionId": null,
        "streetTypeId": "CRES",
        "placeName": "WATERLOO",
        "streetNameDisplayText": "GRANT CRES, WATERLOO"
      }
    ]
  },
  {
    "postal": "N2K6A6",
    "result": []
  },
  {
    "postal": "N2K0S3",
    "result": []
  },
  {
    "postal": "N2K3E7",
    "result": [
      {
        "electoralDistricts": [
          {
            "election": null,
            "id": 114,
            "name": "Waterloo"
          }
        ],
        "pollDivisionIds": [
          10126560
        ],
        "postalCode": "N2K3E7",
        "streetName": "HUNTERSWOOD",
        "streetDirectionId": null,
        "streetTypeId": "CRT",
        "placeName": "WATERLOO",
        "streetNameDisplayText": "HUNTERSWOOD CRT, WATERLOO"
      }
    ]
  },
  {
    "postal": "N2K5R7",
    "result": []
  },
  {
    "postal": "N2K3R6",
    "result": [
      {
        "electoralDistricts": [
          {
            "election": null,
            "id": 114,
            "name": "Waterloo"
          }
        ],
        "pollDivisionIds": [
          10126571
        ],
        "postalCode": "N2K3R6",
        "streetName": "TAGGE",
        "streetDirectionId": null,
        "streetTypeId": "CRES",
        "placeName": "KITCHENER",
        "streetNameDisplayText": "TAGGE CRES, KITCHENER"
      },
      {
        "electoralDistricts": [
          {
            "election": null,
            "id": 114,
            "name": "Waterloo"
          }
        ],
        "pollDivisionIds": [
          10126571
        ],
        "postalCode": "N2K3R6",
        "streetName": "TAGGE",
        "streetDirectionId": null,
        "streetTypeId": "ST",
        "placeName": "KITCHENER",
        "streetNameDisplayText": "TAGGE ST, KITCHENER"
      }
    ]
  },
  {
    "postal": "N2K6K4",
    "result": []
  },
  {
    "postal": "N2K2W5",
    "result": [
      {
        "electoralDistricts": [
          {
            "election": null,
            "id": 114,
            "name": "Waterloo"
          }
        ],
        "pollDivisionIds": [
          10126556
        ],
        "postalCode": "N2K2W5",
        "streetName": "OLD ABBEY",
        "streetDirectionId": null,
        "streetTypeId": "RD",
        "placeName": "WATERLOO",
        "streetNameDisplayText": "OLD ABBEY RD, WATERLOO"
      }
    ]
  },
  {
    "postal": "N2K8W4",
    "result": []
  },
  {
    "postal": "N2K9C2",
    "result": []
  },
  {
    "postal": "N2K2C0",
    "result": []
  },
  {
    "postal": "N2K0E1",
    "result": [
      {
        "electoralDistricts": [
          {
            "election": null,
            "id": 114,
            "name": "Waterloo"
          }
        ],
        "pollDivisionIds": [
          10126568
        ],
        "postalCode": "N2K0E1",
        "streetName": "GREY SILO",
        "streetDirectionId": null,
        "streetTypeId": "RD",
        "placeName": "WATERLOO",
        "streetNameDisplayText": "GREY SILO RD, WATERLOO"
      },
      {
        "electoralDistricts": [
          {
            "election": null,
            "id": 114,
            "name": "Waterloo"
          }
        ],
        "pollDivisionIds": [
          10126568
        ],
        "postalCode": "N2K0E1",
        "streetName": "GRISTMILL",
        "streetDirectionId": null,
        "streetTypeId": "ST",
        "placeName": "WATERLOO",
        "streetNameDisplayText": "GRISTMILL ST, WATERLOO"
      },
      {
        "electoralDistricts": [
          {
            "election": null,
            "id": 114,
            "name": "Waterloo"
          }
        ],
        "pollDivisionIds": [
          10126568
        ],
        "postalCode": "N2K0E1",
        "streetName": "MILLSTREAM",
        "streetDirectionId": null,
        "streetTypeId": "DR",
        "placeName": "WATERLOO",
        "streetNameDisplayText": "MILLSTREAM DR, WATERLOO"
      }
    ]
  },
  {
    "postal": "N2K1K9",
    "result": [
      {
        "electoralDistricts": [
          {
            "election": null,
            "id": 114,
            "name": "Waterloo"
          }
        ],
        "pollDivisionIds": [
          10126569
        ],
        "postalCode": "N2K1K9",
        "streetName": "BRIDGE",
        "streetDirectionId": "W",
        "streetTypeId": "ST",
        "placeName": "WATERLOO",
        "streetNameDisplayText": "BRIDGE ST W, WATERLOO"
      }
    ]
  },
  {
    "postal": "N2K1G7",
    "result": [
      {
        "electoralDistricts": [
          {
            "election": null,
            "id": 114,
            "name": "Waterloo"
          }
        ],
        "pollDivisionIds": [
          10126571
        ],
        "postalCode": "N2K1G7",
        "streetName": "TYSON",
        "streetDirectionId": null,
        "streetTypeId": "DR",
        "placeName": "KITCHENER",
        "streetNameDisplayText": "TYSON DR, KITCHENER"
      }
    ]
  },
  {
    "postal": "N2K4E9",
    "result": [
      {
        "electoralDistricts": [
          {
            "election": null,
            "id": 114,
            "name": "Waterloo"
          }
        ],
        "pollDivisionIds": [
          10126556,
          10126564
        ],
        "postalCode": "N2K4E9",
        "streetName": "BONAVISTA",
        "streetDirectionId": null,
        "streetTypeId": "DR",
        "placeName": "WATERLOO",
        "streetNameDisplayText": "BONAVISTA DR, WATERLOO"
      }
    ]
  },
  {
    "postal": "N2K9P0",
    "result": []
  },
  {
    "postal": "N2K5H3",
    "result": []
  },
  {
    "postal": "N2K9X6",
    "result": []
  },
  {
    "postal": "N2K5N7",
    "result": []
  },
  {
    "postal": "N2K5A6",
    "result": []
  },
  {
    "postal": "N2K4M0",
    "result": []
  },
  {
    "postal": "N2K3V6",
    "result": [
      {
        "electoralDistricts": [
          {
            "election": null,
            "id": 114,
            "name": "Waterloo"
          }
        ],
        "pollDivisionIds": [
          10126570
        ],
        "postalCode": "N2K3V6",
        "streetName": "PASTERN",
        "streetDirectionId": null,
        "streetTypeId": "TRAIL",
        "placeName": "WATERLOO",
        "streetNameDisplayText": "PASTERN TRAIL, WATERLOO"
      }
    ]
  },
  {
    "postal": "N2K1L7",
    "result": [
      {
        "electoralDistricts": [
          {
            "election": null,
            "id": 114,
            "name": "Waterloo"
          }
        ],
        "pollDivisionIds": [
          10126572
        ],
        "postalCode": "N2K1L7",
        "streetName": "LANCASTER",
        "streetDirectionId": "W",
        "streetTypeId": "ST",
        "placeName": "KITCHENER",
        "streetNameDisplayText": "LANCASTER ST W, KITCHENER"
      }
    ]
  },
  {
    "postal": "N2K2P9",
    "result": [
      {
        "electoralDistricts": [
          {
            "election": null,
            "id": 114,
            "name": "Waterloo"
          }
        ],
        "pollDivisionIds": [
          10126560
        ],
        "postalCode": "N2K2P9",
        "streetName": "ANNDALE",
        "streetDirectionId": null,
        "streetTypeId": "RD",
        "placeName": "WATERLOO",
        "streetNameDisplayText": "ANNDALE RD, WATERLOO"
      }
    ]
  },
  {
    "postal": "N2K5T4",
    "result": []
  },
  {
    "postal": "N2K5Z1",
    "result": []
  },
  {
    "postal": "N2K2X0",
    "result": []
  },
  {
    "postal": "N2K6Z2",
    "result": []
  },
  {
    "postal": "N2K0E0",
    "result": []
  },
  {
    "postal": "N2K3Z5",
    "result": [
      {
        "electoralDistricts": [
          {
            "election": null,
            "id": 114,
            "name": "Waterloo"
          }
        ],
        "pollDivisionIds": [
          10126556
        ],
        "postalCode": "N2K3Z5",
        "streetName": "WINDJAMMER",
        "streetDirectionId": null,
        "streetTypeId": "WAY",
        "placeName": "WATERLOO",
        "streetNameDisplayText": "WINDJAMMER WAY, WATERLOO"
      }
    ]
  },
  {
    "postal": "N2K8H3",
    "result": []
  },
  {
    "postal": "N2K7S6",
    "result": []
  },
  {
    "postal": "N2K4C1",
    "result": [
      {
        "electoralDistricts": [
          {
            "election": null,
            "id": 114,
            "name": "Waterloo"
          }
        ],
        "pollDivisionIds": [
          10126564
        ],
        "postalCode": "N2K4C1",
        "streetName": "EASTBRIDGE",
        "streetDirectionId": null,
        "streetTypeId": "BLVD",
        "placeName": "WATERLOO",
        "streetNameDisplayText": "EASTBRIDGE BLVD, WATERLOO"
      },
      {
        "electoralDistricts": [
          {
            "election": null,
            "id": 114,
            "name": "Waterloo"
          }
        ],
        "pollDivisionIds": [
          10126564
        ],
        "postalCode": "N2K4C1",
        "streetName": "GASPE",
        "streetDirectionId": null,
        "streetTypeId": "DR",
        "placeName": "WATERLOO",
        "streetNameDisplayText": "GASPE DR, WATERLOO"
      },
      {
        "electoralDistricts": [
          {
            "election": null,
            "id": 114,
            "name": "Waterloo"
          }
        ],
        "pollDivisionIds": [
          10126564
        ],
        "postalCode": "N2K4C1",
        "streetName": "YARMOUTH",
        "streetDirectionId": null,
        "streetTypeId": "DR",
        "placeName": "WATERLOO",
        "streetNameDisplayText": "YARMOUTH DR, WATERLOO"
      }
    ]
  },
  {
    "postal": "N2K3K2",
    "result": [
      {
        "electoralDistricts": [
          {
            "election": null,
            "id": 114,
            "name": "Waterloo"
          }
        ],
        "pollDivisionIds": [
          10126560
        ],
        "postalCode": "N2K3K2",
        "streetName": "MAYBERRY",
        "streetDirectionId": null,
        "streetTypeId": "CRT",
        "placeName": "WATERLOO",
        "streetNameDisplayText": "MAYBERRY CRT, WATERLOO"
      }
    ]
  },
  {
    "postal": "N2K1Y5",
    "result": [
      {
        "electoralDistricts": [
          {
            "election": null,
            "id": 114,
            "name": "Waterloo"
          }
        ],
        "pollDivisionIds": [
          10126560
        ],
        "postalCode": "N2K1Y5",
        "streetName": "OXBOW",
        "streetDirectionId": null,
        "streetTypeId": "RD",
        "placeName": "WATERLOO",
        "streetNameDisplayText": "OXBOW RD, WATERLOO"
      }
    ]
  },
  {
    "postal": "N2K6P6",
    "result": []
  },
  {
    "postal": "N2K3N9",
    "result": [
      {
        "electoralDistricts": [
          {
            "election": null,
            "id": 114,
            "name": "Waterloo"
          }
        ],
        "pollDivisionIds": [
          10126556
        ],
        "postalCode": "N2K3N9",
        "streetName": "BAYHAMPTON",
        "streetDirectionId": null,
        "streetTypeId": "CRES",
        "placeName": "WATERLOO",
        "streetNameDisplayText": "BAYHAMPTON CRES, WATERLOO"
      },
      {
        "electoralDistricts": [
          {
            "election": null,
            "id": 114,
            "name": "Waterloo"
          }
        ],
        "pollDivisionIds": [
          10126556
        ],
        "postalCode": "N2K3N9",
        "streetName": "HARPER",
        "streetDirectionId": null,
        "streetTypeId": "PL",
        "placeName": "WATERLOO",
        "streetNameDisplayText": "HARPER PL, WATERLOO"
      }
    ]
  },
  {
    "postal": "N2K3W2",
    "result": [
      {
        "electoralDistricts": [
          {
            "election": null,
            "id": 114,
            "name": "Waterloo"
          }
        ],
        "pollDivisionIds": [
          10126571
        ],
        "postalCode": "N2K3W2",
        "streetName": "SCHUELLER",
        "streetDirectionId": null,
        "streetTypeId": "ST",
        "placeName": "KITCHENER",
        "streetNameDisplayText": "SCHUELLER ST, KITCHENER"
      },
      {
        "electoralDistricts": [
          {
            "election": null,
            "id": 114,
            "name": "Waterloo"
          }
        ],
        "pollDivisionIds": [
          10126571
        ],
        "postalCode": "N2K3W2",
        "streetName": "STANLEY",
        "streetDirectionId": null,
        "streetTypeId": "AVE",
        "placeName": "KITCHENER",
        "streetNameDisplayText": "STANLEY AVE, KITCHENER"
      }
    ]
  },
  {
    "postal": "N2K6H8",
    "result": []
  },
  {
    "postal": "N2K9T3",
    "result": []
  },
  {
    "postal": "N2K5L9",
    "result": []
  },
  {
    "postal": "N2K7X7",
    "result": []
  },
  {
    "postal": "N2K3J5",
    "result": [
      {
        "electoralDistricts": [
          {
            "election": null,
            "id": 114,
            "name": "Waterloo"
          }
        ],
        "pollDivisionIds": [
          10126570
        ],
        "postalCode": "N2K3J5",
        "streetName": "AUBURN",
        "streetDirectionId": null,
        "streetTypeId": "DR",
        "placeName": "WATERLOO",
        "streetNameDisplayText": "AUBURN DR, WATERLOO"
      },
      {
        "electoralDistricts": [
          {
            "election": null,
            "id": 114,
            "name": "Waterloo"
          }
        ],
        "pollDivisionIds": [
          10126570
        ],
        "postalCode": "N2K3J5",
        "streetName": "CARENE",
        "streetDirectionId": null,
        "streetTypeId": "CRT",
        "placeName": "WATERLOO",
        "streetNameDisplayText": "CARENE CRT, WATERLOO"
      }
    ]
  },
  {
    "postal": "N2K4J5",
    "result": [
      {
        "electoralDistricts": [
          {
            "election": null,
            "id": 114,
            "name": "Waterloo"
          }
        ],
        "pollDivisionIds": [
          10126570,
          10126572
        ],
        "postalCode": "N2K4J5",
        "streetName": "HAWKSWOOD",
        "streetDirectionId": null,
        "streetTypeId": "DR",
        "placeName": "KITCHENER",
        "streetNameDisplayText": "HAWKSWOOD DR, KITCHENER"
      },
      {
        "electoralDistricts": [
          {
            "election": null,
            "id": 114,
            "name": "Waterloo"
          }
        ],
        "pollDivisionIds": [
          10126572
        ],
        "postalCode": "N2K4J5",
        "streetName": "OWL RIDGE",
        "streetDirectionId": null,
        "streetTypeId": "ST",
        "placeName": "KITCHENER",
        "streetNameDisplayText": "OWL RIDGE ST, KITCHENER"
      },
      {
        "electoralDistricts": [
          {
            "election": null,
            "id": 114,
            "name": "Waterloo"
          }
        ],
        "pollDivisionIds": [
          10126570
        ],
        "postalCode": "N2K4J5",
        "streetName": "REDTAIL",
        "streetDirectionId": null,
        "streetTypeId": "ST",
        "placeName": "KITCHENER",
        "streetNameDisplayText": "REDTAIL ST, KITCHENER"
      }
    ]
  },
  {
    "postal": "N2K6J2",
    "result": []
  },
  {
    "postal": "N2K5V6",
    "result": []
  },
  {
    "postal": "N2K3N2",
    "result": [
      {
        "electoralDistricts": [
          {
            "election": null,
            "id": 114,
            "name": "Waterloo"
          }
        ],
        "pollDivisionIds": [
          10126565
        ],
        "postalCode": "N2K3N2",
        "streetName": "UNIVERSITY",
        "streetDirectionId": "E",
        "streetTypeId": "AVE",
        "placeName": "WATERLOO",
        "streetNameDisplayText": "UNIVERSITY AVE E, WATERLOO"
      }
    ]
  },
  {
    "postal": "N2K3B1",
    "result": [
      {
        "electoralDistricts": [
          {
            "election": null,
            "id": 114,
            "name": "Waterloo"
          }
        ],
        "pollDivisionIds": [
          10126560
        ],
        "postalCode": "N2K3B1",
        "streetName": "BLUESTREAM",
        "streetDirectionId": null,
        "streetTypeId": "RD",
        "placeName": "WATERLOO",
        "streetNameDisplayText": "BLUESTREAM RD, WATERLOO"
      }
    ]
  },
  {
    "postal": "N2K8B5",
    "result": []
  },
  {
    "postal": "N2K0K1",
    "result": []
  },
  {
    "postal": "N2K7M7",
    "result": []
  },
  {
    "postal": "N2K2M2",
    "result": [
      {
        "electoralDistricts": [
          {
            "election": null,
            "id": 114,
            "name": "Waterloo"
          }
        ],
        "pollDivisionIds": [
          10126565
        ],
        "postalCode": "N2K2M2",
        "streetName": "CONCORDIA",
        "streetDirectionId": null,
        "streetTypeId": "CRES",
        "placeName": "WATERLOO",
        "streetNameDisplayText": "CONCORDIA CRES, WATERLOO"
      }
    ]
  },
  {
    "postal": "N2K9N3",
    "result": []
  },
  {
    "postal": "N2K4Y8",
    "result": []
  },
  {
    "postal": "N2K3V7",
    "result": [
      {
        "electoralDistricts": [
          {
            "election": null,
            "id": 114,
            "name": "Waterloo"
          }
        ],
        "pollDivisionIds": [
          10126571
        ],
        "postalCode": "N2K3V7",
        "streetName": "INGE",
        "streetDirectionId": null,
        "streetTypeId": "CRT",
        "placeName": "KITCHENER",
        "streetNameDisplayText": "INGE CRT, KITCHENER"
      },
      {
        "electoralDistricts": [
          {
            "election": null,
            "id": 114,
            "name": "Waterloo"
          }
        ],
        "pollDivisionIds": [
          10126571
        ],
        "postalCode": "N2K3V7",
        "streetName": "STANLEY",
        "streetDirectionId": null,
        "streetTypeId": "AVE",
        "placeName": "KITCHENER",
        "streetNameDisplayText": "STANLEY AVE, KITCHENER"
      }
    ]
  },
  {
    "postal": "N2K8Z1",
    "result": []
  },
  {
    "postal": "N2K7B3",
    "result": []
  },
  {
    "postal": "N2K3A8",
    "result": []
  },
  {
    "postal": "N2K7V5",
    "result": []
  },
  {
    "postal": "N2K2T2",
    "result": [
      {
        "electoralDistricts": [
          {
            "election": null,
            "id": 114,
            "name": "Waterloo"
          }
        ],
        "pollDivisionIds": [
          10126570
        ],
        "postalCode": "N2K2T2",
        "streetName": "CRIMSON",
        "streetDirectionId": null,
        "streetTypeId": "CRES",
        "placeName": "WATERLOO",
        "streetNameDisplayText": "CRIMSON CRES, WATERLOO"
      }
    ]
  },
  {
    "postal": "N2K6L3",
    "result": []
  },
  {
    "postal": "N2K0L2",
    "result": []
  },
  {
    "postal": "N2K5Y8",
    "result": []
  },
  {
    "postal": "N2K0B8",
    "result": [
      {
        "electoralDistricts": [
          {
            "election": null,
            "id": 114,
            "name": "Waterloo"
          }
        ],
        "pollDivisionIds": [
          10126572
        ],
        "postalCode": "N2K0B8",
        "streetName": "EAGLECREST",
        "streetDirectionId": null,
        "streetTypeId": "ST",
        "placeName": "KITCHENER",
        "streetNameDisplayText": "EAGLECREST ST, KITCHENER"
      }
    ]
  },
  {
    "postal": "N2K6R5",
    "result": []
  },
  {
    "postal": "N2K8W6",
    "result": []
  },
  {
    "postal": "N2K8G6",
    "result": []
  },
  {
    "postal": "N2K6X3",
    "result": []
  },
  {
    "postal": "N2K7R7",
    "result": []
  },
  {
    "postal": "N2K4B6",
    "result": [
      {
        "electoralDistricts": [
          {
            "election": null,
            "id": 114,
            "name": "Waterloo"
          }
        ],
        "pollDivisionIds": [
          10126564
        ],
        "postalCode": "N2K4B6",
        "streetName": "MOORING POST",
        "streetDirectionId": null,
        "streetTypeId": "LANE",
        "placeName": "WATERLOO",
        "streetNameDisplayText": "MOORING POST LANE, WATERLOO"
      },
      {
        "electoralDistricts": [
          {
            "election": null,
            "id": 114,
            "name": "Waterloo"
          }
        ],
        "pollDivisionIds": [
          10126564
        ],
        "postalCode": "N2K4B6",
        "streetName": "SANDY COVE",
        "streetDirectionId": null,
        "streetTypeId": "CRES",
        "placeName": "WATERLOO",
        "streetNameDisplayText": "SANDY COVE CRES, WATERLOO"
      }
    ]
  },
  {
    "postal": "N2K3P9",
    "result": [
      {
        "electoralDistricts": [
          {
            "election": null,
            "id": 114,
            "name": "Waterloo"
          }
        ],
        "pollDivisionIds": [
          10126556
        ],
        "postalCode": "N2K3P9",
        "streetName": "NORTHFIELD",
        "streetDirectionId": "E",
        "streetTypeId": "DR",
        "placeName": "WATERLOO",
        "streetNameDisplayText": "NORTHFIELD DR E, WATERLOO"
      }
    ]
  },
  {
    "postal": "N2K2T3",
    "result": []
  },
  {
    "postal": "N2K1M4",
    "result": []
  },
  {
    "postal": "N2K0H1",
    "result": []
  },
  {
    "postal": "N2K9W3",
    "result": []
  },
  {
    "postal": "N2K6P1",
    "result": []
  },
  {
    "postal": "N2K7G2",
    "result": []
  },
  {
    "postal": "N2K4J9",
    "result": [
      {
        "electoralDistricts": [
          {
            "election": null,
            "id": 114,
            "name": "Waterloo"
          }
        ],
        "pollDivisionIds": [
          10126572
        ],
        "postalCode": "N2K4J9",
        "streetName": "FALCONRIDGE",
        "streetDirectionId": null,
        "streetTypeId": "DR",
        "placeName": "KITCHENER",
        "streetNameDisplayText": "FALCONRIDGE DR, KITCHENER"
      }
    ]
  },
  {
    "postal": "N2K9E4",
    "result": []
  },
  {
    "postal": "N2K8H0",
    "result": []
  },
  {
    "postal": "N2K4M7",
    "result": [
      {
        "electoralDistricts": [
          {
            "election": null,
            "id": 114,
            "name": "Waterloo"
          }
        ],
        "pollDivisionIds": [
          10126568,
          10126564
        ],
        "postalCode": "N2K4M7",
        "streetName": "NEW BEDFORD",
        "streetDirectionId": null,
        "streetTypeId": "DR",
        "placeName": "WATERLOO",
        "streetNameDisplayText": "NEW BEDFORD DR, WATERLOO"
      },
      {
        "electoralDistricts": [
          {
            "election": null,
            "id": 114,
            "name": "Waterloo"
          }
        ],
        "pollDivisionIds": [
          10126568,
          10126564
        ],
        "postalCode": "N2K4M7",
        "streetName": "NEW HAMPSHIRE",
        "streetDirectionId": null,
        "streetTypeId": "ST",
        "placeName": "WATERLOO",
        "streetNameDisplayText": "NEW HAMPSHIRE ST, WATERLOO"
      }
    ]
  },
  {
    "postal": "N2K2G9",
    "result": [
      {
        "electoralDistricts": [
          {
            "election": null,
            "id": 114,
            "name": "Waterloo"
          }
        ],
        "pollDivisionIds": [
          10126560
        ],
        "postalCode": "N2K2G9",
        "streetName": "GREEN ACRES",
        "streetDirectionId": null,
        "streetTypeId": "DR",
        "placeName": "WATERLOO",
        "streetNameDisplayText": "GREEN ACRES DR, WATERLOO"
      }
    ]
  },
  {
    "postal": "N2K8T2",
    "result": []
  },
  {
    "postal": "N2K7G7",
    "result": []
  },
  {
    "postal": "N2K4Z3",
    "result": []
  },
  {
    "postal": "N2K5B3",
    "result": []
  },
  {
    "postal": "N2K1S7",
    "result": [
      {
        "electoralDistricts": [
          {
            "election": null,
            "id": 114,
            "name": "Waterloo"
          }
        ],
        "pollDivisionIds": [
          10126572
        ],
        "postalCode": "N2K1S7",
        "streetName": "WOOLWICH",
        "streetDirectionId": "N",
        "streetTypeId": "ST",
        "placeName": "KITCHENER",
        "streetNameDisplayText": "WOOLWICH ST N, KITCHENER"
      },
      {
        "electoralDistricts": [
          {
            "election": null,
            "id": 114,
            "name": "Waterloo"
          }
        ],
        "pollDivisionIds": [
          10126572,
          10126570
        ],
        "postalCode": "N2K1S7",
        "streetName": "WOOLWICH",
        "streetDirectionId": null,
        "streetTypeId": "ST",
        "placeName": "KITCHENER",
        "streetNameDisplayText": "WOOLWICH ST, KITCHENER"
      }
    ]
  },
  {
    "postal": "N2K2N7",
    "result": [
      {
        "electoralDistricts": [
          {
            "election": null,
            "id": 114,
            "name": "Waterloo"
          }
        ],
        "pollDivisionIds": [
          10126560
        ],
        "postalCode": "N2K2N7",
        "streetName": "ANNDALE",
        "streetDirectionId": null,
        "streetTypeId": "RD",
        "placeName": "WATERLOO",
        "streetNameDisplayText": "ANNDALE RD, WATERLOO"
      }
    ]
  },
  {
    "postal": "N2K0H8",
    "result": []
  },
  {
    "postal": "N2K7Z4",
    "result": []
  },
  {
    "postal": "N2K7B1",
    "result": []
  },
  {
    "postal": "N2K7P8",
    "result": []
  },
  {
    "postal": "N2K7N0",
    "result": []
  },
  {
    "postal": "N2K3Y5",
    "result": [
      {
        "electoralDistricts": [
          {
            "election": null,
            "id": 114,
            "name": "Waterloo"
          }
        ],
        "pollDivisionIds": [
          10126556
        ],
        "postalCode": "N2K3Y5",
        "streetName": "CITADEL",
        "streetDirectionId": null,
        "streetTypeId": "CRT",
        "placeName": "WATERLOO",
        "streetNameDisplayText": "CITADEL CRT, WATERLOO"
      },
      {
        "electoralDistricts": [
          {
            "election": null,
            "id": 114,
            "name": "Waterloo"
          }
        ],
        "pollDivisionIds": [
          10126556
        ],
        "postalCode": "N2K3Y5",
        "streetName": "WINDJAMMER",
        "streetDirectionId": null,
        "streetTypeId": "WAY",
        "placeName": "WATERLOO",
        "streetNameDisplayText": "WINDJAMMER WAY, WATERLOO"
      }
    ]
  },
  {
    "postal": "N2K6K1",
    "result": []
  },
  {
    "postal": "N2K9X5",
    "result": []
  },
  {
    "postal": "N2K7S5",
    "result": []
  },
  {
    "postal": "N2K0A4",
    "result": [
      {
        "electoralDistricts": [
          {
            "election": null,
            "id": 114,
            "name": "Waterloo"
          }
        ],
        "pollDivisionIds": [
          10126570
        ],
        "postalCode": "N2K0A4",
        "streetName": "MAVERICK",
        "streetDirectionId": null,
        "streetTypeId": "ST",
        "placeName": "WATERLOO",
        "streetNameDisplayText": "MAVERICK ST, WATERLOO"
      }
    ]
  },
  {
    "postal": "N2K4T5",
    "result": []
  },
  {
    "postal": "N2K5K1",
    "result": []
  },
  {
    "postal": "N2K0Z9",
    "result": []
  },
  {
    "postal": "N2K7T2",
    "result": []
  },
  {
    "postal": "N2K1L5",
    "result": [
      {
        "electoralDistricts": [
          {
            "election": null,
            "id": 114,
            "name": "Waterloo"
          }
        ],
        "pollDivisionIds": [
          10126560
        ],
        "postalCode": "N2K1L5",
        "streetName": "BRIDGE",
        "streetDirectionId": "W",
        "streetTypeId": "ST",
        "placeName": "WATERLOO",
        "streetNameDisplayText": "BRIDGE ST W, WATERLOO"
      }
    ]
  },
  {
    "postal": "N2K3N5",
    "result": [
      {
        "electoralDistricts": [
          {
            "election": null,
            "id": 114,
            "name": "Waterloo"
          }
        ],
        "pollDivisionIds": [
          10126565
        ],
        "postalCode": "N2K3N5",
        "streetName": "BOETTGER",
        "streetDirectionId": null,
        "streetTypeId": "PL",
        "placeName": "WATERLOO",
        "streetNameDisplayText": "BOETTGER PL, WATERLOO"
      }
    ]
  },
  {
    "postal": "N2K6H4",
    "result": []
  },
  {
    "postal": "N2K5A5",
    "result": []
  },
  {
    "postal": "N2K3R9",
    "result": [
      {
        "electoralDistricts": [
          {
            "election": null,
            "id": 114,
            "name": "Waterloo"
          }
        ],
        "pollDivisionIds": [
          10126552
        ],
        "postalCode": "N2K3R9",
        "streetName": "KINGSCOURT",
        "streetDirectionId": null,
        "streetTypeId": "DR",
        "placeName": "WATERLOO",
        "streetNameDisplayText": "KINGSCOURT DR, WATERLOO"
      }
    ]
  },
  {
    "postal": "N2K7L8",
    "result": []
  },
  {
    "postal": "N2K6T6",
    "result": []
  },
  {
    "postal": "N2K7Y7",
    "result": []
  },
  {
    "postal": "N2K3M8",
    "result": [
      {
        "electoralDistricts": [
          {
            "election": null,
            "id": 114,
            "name": "Waterloo"
          }
        ],
        "pollDivisionIds": [
          10126570
        ],
        "postalCode": "N2K3M8",
        "streetName": "FORESTLAWN",
        "streetDirectionId": null,
        "streetTypeId": "RD",
        "placeName": "WATERLOO",
        "streetNameDisplayText": "FORESTLAWN RD, WATERLOO"
      }
    ]
  },
  {
    "postal": "N2K2E0",
    "result": []
  },
  {
    "postal": "N2K4B5",
    "result": [
      {
        "electoralDistricts": [
          {
            "election": null,
            "id": 114,
            "name": "Waterloo"
          }
        ],
        "pollDivisionIds": [
          10126564
        ],
        "postalCode": "N2K4B5",
        "streetName": "CLIPPER",
        "streetDirectionId": null,
        "streetTypeId": "DR",
        "placeName": "WATERLOO",
        "streetNameDisplayText": "CLIPPER DR, WATERLOO"
      },
      {
        "electoralDistricts": [
          {
            "election": null,
            "id": 114,
            "name": "Waterloo"
          }
        ],
        "pollDivisionIds": [
          10126564
        ],
        "postalCode": "N2K4B5",
        "streetName": "MOORING POST",
        "streetDirectionId": null,
        "streetTypeId": "LANE",
        "placeName": "WATERLOO",
        "streetNameDisplayText": "MOORING POST LANE, WATERLOO"
      }
    ]
  },
  {
    "postal": "N2K1J3",
    "result": [
      {
        "electoralDistricts": [
          {
            "election": null,
            "id": 114,
            "name": "Waterloo"
          }
        ],
        "pollDivisionIds": [
          10126571
        ],
        "postalCode": "N2K1J3",
        "streetName": "BRIDGE",
        "streetDirectionId": "E",
        "streetTypeId": "ST",
        "placeName": "KITCHENER",
        "streetNameDisplayText": "BRIDGE ST E, KITCHENER"
      }
    ]
  },
  {
    "postal": "N2K5S6",
    "result": []
  },
  {
    "postal": "N2K8P7",
    "result": []
  },
  {
    "postal": "N2K7S7",
    "result": []
  },
  {
    "postal": "N2K4C2",
    "result": [
      {
        "electoralDistricts": [
          {
            "election": null,
            "id": 114,
            "name": "Waterloo"
          }
        ],
        "pollDivisionIds": [
          10126564
        ],
        "postalCode": "N2K4C2",
        "streetName": "GASPE",
        "streetDirectionId": null,
        "streetTypeId": "DR",
        "placeName": "WATERLOO",
        "streetNameDisplayText": "GASPE DR, WATERLOO"
      },
      {
        "electoralDistricts": [
          {
            "election": null,
            "id": 114,
            "name": "Waterloo"
          }
        ],
        "pollDivisionIds": [
          10126564
        ],
        "postalCode": "N2K4C2",
        "streetName": "YARMOUTH",
        "streetDirectionId": null,
        "streetTypeId": "DR",
        "placeName": "WATERLOO",
        "streetNameDisplayText": "YARMOUTH DR, WATERLOO"
      }
    ]
  },
  {
    "postal": "N2K5Y0",
    "result": []
  },
  {
    "postal": "N2K2V7",
    "result": [
      {
        "electoralDistricts": [
          {
            "election": null,
            "id": 114,
            "name": "Waterloo"
          }
        ],
        "pollDivisionIds": [
          10126560
        ],
        "postalCode": "N2K2V7",
        "streetName": "REDFOX",
        "streetDirectionId": null,
        "streetTypeId": "RD",
        "placeName": "WATERLOO",
        "streetNameDisplayText": "REDFOX RD, WATERLOO"
      }
    ]
  },
  {
    "postal": "N2K8P5",
    "result": []
  },
  {
    "postal": "N2K5P5",
    "result": []
  },
  {
    "postal": "N2K5Z0",
    "result": []
  },
  {
    "postal": "N2K9B0",
    "result": []
  },
  {
    "postal": "N2K1L0",
    "result": []
  },
  {
    "postal": "N2K0B5",
    "result": [
      {
        "electoralDistricts": [
          {
            "election": null,
            "id": 114,
            "name": "Waterloo"
          }
        ],
        "pollDivisionIds": [
          10126568
        ],
        "postalCode": "N2K0B5",
        "streetName": "COPPER RIDGE",
        "streetDirectionId": null,
        "streetTypeId": "DR",
        "placeName": "WATERLOO",
        "streetNameDisplayText": "COPPER RIDGE DR, WATERLOO"
      },
      {
        "electoralDistricts": [
          {
            "election": null,
            "id": 114,
            "name": "Waterloo"
          }
        ],
        "pollDivisionIds": [
          10126568
        ],
        "postalCode": "N2K0B5",
        "streetName": "DEERFOOT",
        "streetDirectionId": null,
        "streetTypeId": "TRAIL",
        "placeName": "WATERLOO",
        "streetNameDisplayText": "DEERFOOT TRAIL, WATERLOO"
      }
    ]
  },
  {
    "postal": "N2K3L2",
    "result": [
      {
        "electoralDistricts": [
          {
            "election": null,
            "id": 114,
            "name": "Waterloo"
          }
        ],
        "pollDivisionIds": [
          10126556
        ],
        "postalCode": "N2K3L2",
        "streetName": "HUNTERS",
        "streetDirectionId": null,
        "streetTypeId": "PL",
        "placeName": "WATERLOO",
        "streetNameDisplayText": "HUNTERS PL, WATERLOO"
      }
    ]
  },
  {
    "postal": "N2K3B7",
    "result": [
      {
        "electoralDistricts": [
          {
            "election": null,
            "id": 114,
            "name": "Waterloo"
          }
        ],
        "pollDivisionIds": [
          10126570
        ],
        "postalCode": "N2K3B7",
        "streetName": "CAMILLE",
        "streetDirectionId": null,
        "streetTypeId": "CRES",
        "placeName": "WATERLOO",
        "streetNameDisplayText": "CAMILLE CRES, WATERLOO"
      }
    ]
  },
  {
    "postal": "N2K8L1",
    "result": []
  },
  {
    "postal": "N2K5M4",
    "result": []
  },
  {
    "postal": "N2K4G9",
    "result": [
      {
        "electoralDistricts": [
          {
            "election": null,
            "id": 114,
            "name": "Waterloo"
          }
        ],
        "pollDivisionIds": [
          10126569,
          10126570
        ],
        "postalCode": "N2K4G9",
        "streetName": "AUBURN",
        "streetDirectionId": null,
        "streetTypeId": "DR",
        "placeName": "WATERLOO",
        "streetNameDisplayText": "AUBURN DR, WATERLOO"
      }
    ]
  },
  {
    "postal": "N2K0P0",
    "result": []
  },
  {
    "postal": "N2K8G2",
    "result": []
  },
  {
    "postal": "N2K1V9",
    "result": [
      {
        "electoralDistricts": [
          {
            "election": null,
            "id": 114,
            "name": "Waterloo"
          }
        ],
        "pollDivisionIds": [
          10126565
        ],
        "postalCode": "N2K1V9",
        "streetName": "SANDOWNE",
        "streetDirectionId": null,
        "streetTypeId": "DR",
        "placeName": "WATERLOO",
        "streetNameDisplayText": "SANDOWNE DR, WATERLOO"
      }
    ]
  },
  {
    "postal": "N2K8N8",
    "result": []
  },
  {
    "postal": "N2K6S8",
    "result": []
  },
  {
    "postal": "N2K8H2",
    "result": []
  },
  {
    "postal": "N2K5R8",
    "result": []
  },
  {
    "postal": "N2K5L4",
    "result": []
  },
  {
    "postal": "N2K9E1",
    "result": []
  },
  {
    "postal": "N2K1C4",
    "result": [
      {
        "electoralDistricts": [
          {
            "election": null,
            "id": 114,
            "name": "Waterloo"
          }
        ],
        "pollDivisionIds": [
          10126571
        ],
        "postalCode": "N2K1C4",
        "streetName": "STANLEY",
        "streetDirectionId": null,
        "streetTypeId": "AVE",
        "placeName": "KITCHENER",
        "streetNameDisplayText": "STANLEY AVE, KITCHENER"
      }
    ]
  },
  {
    "postal": "N2K8W5",
    "result": []
  },
  {
    "postal": "N2K1Y4",
    "result": [
      {
        "electoralDistricts": [
          {
            "election": null,
            "id": 114,
            "name": "Waterloo"
          }
        ],
        "pollDivisionIds": [
          10126560
        ],
        "postalCode": "N2K1Y4",
        "streetName": "PILGRIM",
        "streetDirectionId": null,
        "streetTypeId": "CIR",
        "placeName": "WATERLOO",
        "streetNameDisplayText": "PILGRIM CIR, WATERLOO"
      }
    ]
  },
  {
    "postal": "N2K1C0",
    "result": []
  },
  {
    "postal": "N2K2J2",
    "result": [
      {
        "electoralDistricts": [
          {
            "election": null,
            "id": 114,
            "name": "Waterloo"
          }
        ],
        "pollDivisionIds": [
          10126570
        ],
        "postalCode": "N2K2J2",
        "streetName": "CEDARCLIFFE",
        "streetDirectionId": null,
        "streetTypeId": "DR",
        "placeName": "WATERLOO",
        "streetNameDisplayText": "CEDARCLIFFE DR, WATERLOO"
      }
    ]
  },
  {
    "postal": "N2K2J0",
    "result": []
  },
  {
    "postal": "N2K7A3",
    "result": []
  },
  {
    "postal": "N2K8M1",
    "result": []
  },
  {
    "postal": "N2K7T9",
    "result": []
  },
  {
    "postal": "N2K6C0",
    "result": []
  },
  {
    "postal": "N2K7X1",
    "result": []
  },
  {
    "postal": "N2K0G1",
    "result": []
  },
  {
    "postal": "N2K4X2",
    "result": []
  },
  {
    "postal": "N2K0N6",
    "result": []
  },
  {
    "postal": "N2K8E3",
    "result": []
  },
  {
    "postal": "N2K5S8",
    "result": []
  },
  {
    "postal": "N2K0R0",
    "result": []
  },
  {
    "postal": "N2K6J6",
    "result": []
  },
  {
    "postal": "N2K4B4",
    "result": [
      {
        "electoralDistricts": [
          {
            "election": null,
            "id": 114,
            "name": "Waterloo"
          }
        ],
        "pollDivisionIds": [
          10126564
        ],
        "postalCode": "N2K4B4",
        "streetName": "CLIPPER",
        "streetDirectionId": null,
        "streetTypeId": "DR",
        "placeName": "WATERLOO",
        "streetNameDisplayText": "CLIPPER DR, WATERLOO"
      },
      {
        "electoralDistricts": [
          {
            "election": null,
            "id": 114,
            "name": "Waterloo"
          }
        ],
        "pollDivisionIds": [
          10126564
        ],
        "postalCode": "N2K4B4",
        "streetName": "SPRING TIDE",
        "streetDirectionId": null,
        "streetTypeId": "CRT",
        "placeName": "WATERLOO",
        "streetNameDisplayText": "SPRING TIDE CRT, WATERLOO"
      }
    ]
  },
  {
    "postal": "N2K7E3",
    "result": []
  },
  {
    "postal": "N2K3N6",
    "result": [
      {
        "electoralDistricts": [
          {
            "election": null,
            "id": 114,
            "name": "Waterloo"
          }
        ],
        "pollDivisionIds": [
          10126552
        ],
        "postalCode": "N2K3N6",
        "streetName": "KINGSCOURT",
        "streetDirectionId": null,
        "streetTypeId": "DR",
        "placeName": "WATERLOO",
        "streetNameDisplayText": "KINGSCOURT DR, WATERLOO"
      }
    ]
  },
  {
    "postal": "N2K3X6",
    "result": [
      {
        "electoralDistricts": [
          {
            "election": null,
            "id": 114,
            "name": "Waterloo"
          }
        ],
        "pollDivisionIds": [
          10126569
        ],
        "postalCode": "N2K3X6",
        "streetName": "CAVELLETTI",
        "streetDirectionId": null,
        "streetTypeId": "CRT",
        "placeName": "WATERLOO",
        "streetNameDisplayText": "CAVELLETTI CRT, WATERLOO"
      },
      {
        "electoralDistricts": [
          {
            "election": null,
            "id": 114,
            "name": "Waterloo"
          }
        ],
        "pollDivisionIds": [
          10126569
        ],
        "postalCode": "N2K3X6",
        "streetName": "PASTERN",
        "streetDirectionId": null,
        "streetTypeId": "TRAIL",
        "placeName": "WATERLOO",
        "streetNameDisplayText": "PASTERN TRAIL, WATERLOO"
      }
    ]
  },
  {
    "postal": "N2K8L0",
    "result": []
  },
  {
    "postal": "N2K8N1",
    "result": []
  },
  {
    "postal": "N2K4J0",
    "result": []
  },
  {
    "postal": "N2K0X7",
    "result": []
  },
  {
    "postal": "N2K6S4",
    "result": []
  },
  {
    "postal": "N2K0Z0",
    "result": []
  },
  {
    "postal": "N2K9X8",
    "result": []
  },
  {
    "postal": "N2K3H3",
    "result": [
      {
        "electoralDistricts": [
          {
            "election": null,
            "id": 114,
            "name": "Waterloo"
          }
        ],
        "pollDivisionIds": [
          10126556
        ],
        "postalCode": "N2K3H3",
        "streetName": "DEER RUN",
        "streetDirectionId": null,
        "streetTypeId": "DR",
        "placeName": "WATERLOO",
        "streetNameDisplayText": "DEER RUN DR, WATERLOO"
      }
    ]
  },
  {
    "postal": "N2K7S2",
    "result": []
  },
  {
    "postal": "N2K3T3",
    "result": [
      {
        "electoralDistricts": [
          {
            "election": null,
            "id": 114,
            "name": "Waterloo"
          }
        ],
        "pollDivisionIds": [
          10126569
        ],
        "postalCode": "N2K3T3",
        "streetName": "AUBURN",
        "streetDirectionId": null,
        "streetTypeId": "DR",
        "placeName": "WATERLOO",
        "streetNameDisplayText": "AUBURN DR, WATERLOO"
      },
      {
        "electoralDistricts": [
          {
            "election": null,
            "id": 114,
            "name": "Waterloo"
          }
        ],
        "pollDivisionIds": [
          10126569
        ],
        "postalCode": "N2K3T3",
        "streetName": "PERCHERON",
        "streetDirectionId": null,
        "streetTypeId": "CRT",
        "placeName": "WATERLOO",
        "streetNameDisplayText": "PERCHERON CRT, WATERLOO"
      },
      {
        "electoralDistricts": [
          {
            "election": null,
            "id": 114,
            "name": "Waterloo"
          }
        ],
        "pollDivisionIds": [
          10126569,
          10126570
        ],
        "postalCode": "N2K3T3",
        "streetName": "ROSETTE",
        "streetDirectionId": null,
        "streetTypeId": "DR",
        "placeName": "WATERLOO",
        "streetNameDisplayText": "ROSETTE DR, WATERLOO"
      }
    ]
  },
  {
    "postal": "N2K9P3",
    "result": []
  },
  {
    "postal": "N2K4H8",
    "result": [
      {
        "electoralDistricts": [
          {
            "election": null,
            "id": 114,
            "name": "Waterloo"
          }
        ],
        "pollDivisionIds": [
          10126564
        ],
        "postalCode": "N2K4H8",
        "streetName": "BREAKWATER",
        "streetDirectionId": null,
        "streetTypeId": "CRES",
        "placeName": "WATERLOO",
        "streetNameDisplayText": "BREAKWATER CRES, WATERLOO"
      }
    ]
  },
  {
    "postal": "N2K6R1",
    "result": []
  },
  {
    "postal": "N2K1S0",
    "result": []
  },
  {
    "postal": "N2K3W8",
    "result": [
      {
        "electoralDistricts": [
          {
            "election": null,
            "id": 114,
            "name": "Waterloo"
          }
        ],
        "pollDivisionIds": [
          10126569
        ],
        "postalCode": "N2K3W8",
        "streetName": "CARRIAGE HOUSE",
        "streetDirectionId": null,
        "streetTypeId": "CRT",
        "placeName": "WATERLOO",
        "streetNameDisplayText": "CARRIAGE HOUSE CRT, WATERLOO"
      },
      {
        "electoralDistricts": [
          {
            "election": null,
            "id": 114,
            "name": "Waterloo"
          }
        ],
        "pollDivisionIds": [
          10126569,
          10126570
        ],
        "postalCode": "N2K3W8",
        "streetName": "PASTERN",
        "streetDirectionId": null,
        "streetTypeId": "TRAIL",
        "placeName": "WATERLOO",
        "streetNameDisplayText": "PASTERN TRAIL, WATERLOO"
      }
    ]
  },
  {
    "postal": "N2K4S3",
    "result": []
  },
  {
    "postal": "N2K1B6",
    "result": [
      {
        "electoralDistricts": [
          {
            "election": null,
            "id": 114,
            "name": "Waterloo"
          }
        ],
        "pollDivisionIds": [
          10126571
        ],
        "postalCode": "N2K1B6",
        "streetName": "SCHWEITZER",
        "streetDirectionId": null,
        "streetTypeId": "ST",
        "placeName": "KITCHENER",
        "streetNameDisplayText": "SCHWEITZER ST, KITCHENER"
      }
    ]
  },
  {
    "postal": "N2K8R3",
    "result": []
  },
  {
    "postal": "N2K4V9",
    "result": []
  },
  {
    "postal": "N2K9W4",
    "result": []
  },
  {
    "postal": "N2K3T4",
    "result": [
      {
        "electoralDistricts": [
          {
            "election": null,
            "id": 114,
            "name": "Waterloo"
          }
        ],
        "pollDivisionIds": [
          10126569
        ],
        "postalCode": "N2K3T4",
        "streetName": "PERCHERON",
        "streetDirectionId": null,
        "streetTypeId": "CRT",
        "placeName": "WATERLOO",
        "streetNameDisplayText": "PERCHERON CRT, WATERLOO"
      }
    ]
  },
  {
    "postal": "N2K5C7",
    "result": []
  },
  {
    "postal": "N2K3Y1",
    "result": [
      {
        "electoralDistricts": [
          {
            "election": null,
            "id": 114,
            "name": "Waterloo"
          }
        ],
        "pollDivisionIds": [
          10126570
        ],
        "postalCode": "N2K3Y1",
        "streetName": "FORESTLAWN",
        "streetDirectionId": null,
        "streetTypeId": "RD",
        "placeName": "WATERLOO",
        "streetNameDisplayText": "FORESTLAWN RD, WATERLOO"
      }
    ]
  },
  {
    "postal": "N2K5V0",
    "result": []
  },
  {
    "postal": "N2K8G8",
    "result": []
  },
  {
    "postal": "N2K8B1",
    "result": []
  },
  {
    "postal": "N2K4P5",
    "result": [
      {
        "electoralDistricts": [
          {
            "election": null,
            "id": 114,
            "name": "Waterloo"
          }
        ],
        "pollDivisionIds": [
          10126571
        ],
        "postalCode": "N2K4P5",
        "streetName": "PAIGE",
        "streetDirectionId": null,
        "streetTypeId": "PL",
        "placeName": "KITCHENER",
        "streetNameDisplayText": "PAIGE PL, KITCHENER"
      },
      {
        "electoralDistricts": [
          {
            "election": null,
            "id": 114,
            "name": "Waterloo"
          }
        ],
        "pollDivisionIds": [
          10126571
        ],
        "postalCode": "N2K4P5",
        "streetName": "PAIGE",
        "streetDirectionId": null,
        "streetTypeId": "ST",
        "placeName": "KITCHENER",
        "streetNameDisplayText": "PAIGE ST, KITCHENER"
      }
    ]
  },
  {
    "postal": "N2K7B2",
    "result": []
  },
  {
    "postal": "N2K0R2",
    "result": []
  },
  {
    "postal": "N2K4M4",
    "result": [
      {
        "electoralDistricts": [
          {
            "election": null,
            "id": 114,
            "name": "Waterloo"
          }
        ],
        "pollDivisionIds": [
          10126568,
          10126564
        ],
        "postalCode": "N2K4M4",
        "streetName": "SHEDIAC",
        "streetDirectionId": null,
        "streetTypeId": "CRES",
        "placeName": "WATERLOO",
        "streetNameDisplayText": "SHEDIAC CRES, WATERLOO"
      }
    ]
  },
  {
    "postal": "N2K7M4",
    "result": []
  },
  {
    "postal": "N2K9S7",
    "result": []
  },
  {
    "postal": "N2K5Z7",
    "result": []
  },
  {
    "postal": "N2K7J7",
    "result": []
  },
  {
    "postal": "N2K8R8",
    "result": []
  },
  {
    "postal": "N2K9X1",
    "result": []
  },
  {
    "postal": "N2K5M9",
    "result": []
  },
  {
    "postal": "N2K9B4",
    "result": []
  },
  {
    "postal": "N2K0L9",
    "result": []
  },
  {
    "postal": "N2K9G4",
    "result": []
  },
  {
    "postal": "N2K1J4",
    "result": [
      {
        "electoralDistricts": [
          {
            "election": null,
            "id": 114,
            "name": "Waterloo"
          }
        ],
        "pollDivisionIds": [
          10126571
        ],
        "postalCode": "N2K1J4",
        "streetName": "BRIDGE",
        "streetDirectionId": "E",
        "streetTypeId": "ST",
        "placeName": "KITCHENER",
        "streetNameDisplayText": "BRIDGE ST E, KITCHENER"
      }
    ]
  },
  {
    "postal": "N2K0W6",
    "result": []
  }
]
