[
  {
    "postal": "N7A9J6",
    "result": []
  },
  {
    "postal": "N7A9Z5",
    "result": []
  },
  {
    "postal": "N7A7H8",
    "result": []
  },
  {
    "postal": "N7A0P6",
    "result": []
  },
  {
    "postal": "N7A0S7",
    "result": []
  },
  {
    "postal": "N7A8B9",
    "result": []
  },
  {
    "postal": "N7A2A6",
    "result": [
      {
        "electoralDistricts": [
          {
            "election": null,
            "id": 42,
            "name": "Huron—Bruce"
          }
        ],
        "pollDivisionIds": [
          10138881
        ],
        "postalCode": "N7A2A6",
        "streetName": "CAYLEY",
        "streetDirectionId": null,
        "streetTypeId": "ST",
        "placeName": "GODERICH",
        "streetNameDisplayText": "CAYLEY ST, GODERICH"
      }
    ]
  },
  {
    "postal": "N7A7V2",
    "result": []
  },
  {
    "postal": "N7A9P4",
    "result": []
  },
  {
    "postal": "N7A6G0",
    "result": []
  },
  {
    "postal": "N7A2K0",
    "result": []
  },
  {
    "postal": "N7A7N6",
    "result": []
  },
  {
    "postal": "N7A5R3",
    "result": []
  },
  {
    "postal": "N7A7K0",
    "result": []
  },
  {
    "postal": "N7A3R2",
    "result": [
      {
        "electoralDistricts": [
          {
            "election": null,
            "id": 42,
            "name": "Huron—Bruce"
          }
        ],
        "pollDivisionIds": [
          10138883
        ],
        "postalCode": "N7A3R2",
        "streetName": "COMOX",
        "streetDirectionId": null,
        "streetTypeId": "CRES",
        "placeName": "GODERICH",
        "streetNameDisplayText": "COMOX CRES, GODERICH"
      }
    ]
  },
  {
    "postal": "N7A0J1",
    "result": []
  },
  {
    "postal": "N7A0B0",
    "result": []
  },
  {
    "postal": "N7A5Z2",
    "result": []
  },
  {
    "postal": "N7A7P3",
    "result": []
  },
  {
    "postal": "N7A2K3",
    "result": [
      {
        "electoralDistricts": [
          {
            "election": null,
            "id": 42,
            "name": "Huron—Bruce"
          }
        ],
        "pollDivisionIds": [
          10138882
        ],
        "postalCode": "N7A2K3",
        "streetName": "WEST",
        "streetDirectionId": null,
        "streetTypeId": "ST",
        "placeName": "GODERICH",
        "streetNameDisplayText": "WEST ST, GODERICH"
      }
    ]
  },
  {
    "postal": "N7A7Y6",
    "result": []
  },
  {
    "postal": "N7A1L9",
    "result": [
      {
        "electoralDistricts": [
          {
            "election": null,
            "id": 42,
            "name": "Huron—Bruce"
          }
        ],
        "pollDivisionIds": [
          10138883
        ],
        "postalCode": "N7A1L9",
        "streetName": "ST DAVID",
        "streetDirectionId": null,
        "streetTypeId": "ST",
        "placeName": "GODERICH",
        "streetNameDisplayText": "ST DAVID ST, GODERICH"
      },
      {
        "electoralDistricts": [
          {
            "election": null,
            "id": 42,
            "name": "Huron—Bruce"
          }
        ],
        "pollDivisionIds": [
          10138883
        ],
        "postalCode": "N7A1L9",
        "streetName": "ST. DAVID",
        "streetDirectionId": null,
        "streetTypeId": "ST",
        "placeName": "GODERICH",
        "streetNameDisplayText": "ST. DAVID ST, GODERICH"
      }
    ]
  },
  {
    "postal": "N7A8T0",
    "result": []
  },
  {
    "postal": "N7A3K8",
    "result": [
      {
        "electoralDistricts": [
          {
            "election": null,
            "id": 42,
            "name": "Huron—Bruce"
          }
        ],
        "pollDivisionIds": [
          10138881
        ],
        "postalCode": "N7A3K8",
        "streetName": "CAMERON",
        "streetDirectionId": null,
        "streetTypeId": "ST",
        "placeName": "GODERICH",
        "streetNameDisplayText": "CAMERON ST, GODERICH"
      }
    ]
  },
  {
    "postal": "N7A5W9",
    "result": []
  },
  {
    "postal": "N7A6T9",
    "result": []
  },
  {
    "postal": "N7A4H1",
    "result": [
      {
        "electoralDistricts": [
          {
            "election": null,
            "id": 42,
            "name": "Huron—Bruce"
          }
        ],
        "pollDivisionIds": [
          10138883
        ],
        "postalCode": "N7A4H1",
        "streetName": "SUNCOAST",
        "streetDirectionId": "W",
        "streetTypeId": "DR",
        "placeName": "GODERICH",
        "streetNameDisplayText": "SUNCOAST DR W, GODERICH"
      }
    ]
  },
  {
    "postal": "N7A7A2",
    "result": []
  },
  {
    "postal": "N7A5G0",
    "result": []
  },
  {
    "postal": "N7A8V5",
    "result": []
  },
  {
    "postal": "N7A2Y8",
    "result": []
  },
  {
    "postal": "N7A2B6",
    "result": [
      {
        "electoralDistricts": [
          {
            "election": null,
            "id": 42,
            "name": "Huron—Bruce"
          }
        ],
        "pollDivisionIds": [
          10138881
        ],
        "postalCode": "N7A2B6",
        "streetName": "BRITANNIA",
        "streetDirectionId": "W",
        "streetTypeId": "RD",
        "placeName": "GODERICH",
        "streetNameDisplayText": "BRITANNIA RD W, GODERICH"
      }
    ]
  },
  {
    "postal": "N7A4W8",
    "result": []
  },
  {
    "postal": "N7A8H7",
    "result": []
  },
  {
    "postal": "N7A5P1",
    "result": []
  },
  {
    "postal": "N7A2B8",
    "result": [
      {
        "electoralDistricts": [
          {
            "election": null,
            "id": 42,
            "name": "Huron—Bruce"
          }
        ],
        "pollDivisionIds": [
          10138881
        ],
        "postalCode": "N7A2B8",
        "streetName": "BRITANNIA",
        "streetDirectionId": "W",
        "streetTypeId": "RD",
        "placeName": "GODERICH",
        "streetNameDisplayText": "BRITANNIA RD W, GODERICH"
      }
    ]
  },
  {
    "postal": "N7A0P2",
    "result": []
  },
  {
    "postal": "N7A9M1",
    "result": []
  },
  {
    "postal": "N7A3G0",
    "result": []
  },
  {
    "postal": "N7A9Z2",
    "result": []
  },
  {
    "postal": "N7A2A0",
    "result": []
  },
  {
    "postal": "N7A6Y0",
    "result": []
  },
  {
    "postal": "N7A2Z8",
    "result": [
      {
        "electoralDistricts": [
          {
            "election": null,
            "id": 42,
            "name": "Huron—Bruce"
          }
        ],
        "pollDivisionIds": [
          10138883
        ],
        "postalCode": "N7A2Z8",
        "streetName": "HURON",
        "streetDirectionId": null,
        "streetTypeId": "RD",
        "placeName": "GODERICH",
        "streetNameDisplayText": "HURON RD, GODERICH"
      }
    ]
  },
  {
    "postal": "N7A7Y3",
    "result": []
  },
  {
    "postal": "N7A6Z5",
    "result": []
  },
  {
    "postal": "N7A6E0",
    "result": []
  },
  {
    "postal": "N7A9B7",
    "result": []
  },
  {
    "postal": "N7A9S5",
    "result": []
  },
  {
    "postal": "N7A3X3",
    "result": [
      {
        "electoralDistricts": [
          {
            "election": null,
            "id": 42,
            "name": "Huron—Bruce"
          }
        ],
        "pollDivisionIds": [
          10138881
        ],
        "postalCode": "N7A3X3",
        "streetName": "WILSON",
        "streetDirectionId": null,
        "streetTypeId": "ST",
        "placeName": "GODERICH",
        "streetNameDisplayText": "WILSON ST, GODERICH"
      }
    ]
  },
  {
    "postal": "N7A7R5",
    "result": []
  },
  {
    "postal": "N7A2X3",
    "result": [
      {
        "electoralDistricts": [
          {
            "election": null,
            "id": 42,
            "name": "Huron—Bruce"
          }
        ],
        "pollDivisionIds": [
          10138883
        ],
        "postalCode": "N7A2X3",
        "streetName": "MAITLAND",
        "streetDirectionId": "S",
        "streetTypeId": "RD",
        "placeName": "GODERICH",
        "streetNameDisplayText": "MAITLAND RD S, GODERICH"
      }
    ]
  },
  {
    "postal": "N7A8Z9",
    "result": []
  },
  {
    "postal": "N7A0N4",
    "result": []
  },
  {
    "postal": "N7A1K1",
    "result": [
      {
        "electoralDistricts": [
          {
            "election": null,
            "id": 42,
            "name": "Huron—Bruce"
          }
        ],
        "pollDivisionIds": [
          10138883
        ],
        "postalCode": "N7A1K1",
        "streetName": "PICTON",
        "streetDirectionId": "E",
        "streetTypeId": "ST",
        "placeName": "GODERICH",
        "streetNameDisplayText": "PICTON ST E, GODERICH"
      }
    ]
  },
  {
    "postal": "N7A1S3",
    "result": [
      {
        "electoralDistricts": [
          {
            "election": null,
            "id": 42,
            "name": "Huron—Bruce"
          }
        ],
        "pollDivisionIds": [
          10138882
        ],
        "postalCode": "N7A1S3",
        "streetName": "NELSON",
        "streetDirectionId": "E",
        "streetTypeId": "ST",
        "placeName": "GODERICH",
        "streetNameDisplayText": "NELSON ST E, GODERICH"
      }
    ]
  },
  {
    "postal": "N7A6M4",
    "result": []
  },
  {
    "postal": "N7A9A9",
    "result": []
  },
  {
    "postal": "N7A9Z9",
    "result": []
  },
  {
    "postal": "N7A6T4",
    "result": []
  },
  {
    "postal": "N7A0B2",
    "result": [
      {
        "electoralDistricts": [
          {
            "election": null,
            "id": 42,
            "name": "Huron—Bruce"
          }
        ],
        "pollDivisionIds": [
          10138879,
          10138874,
          10138883
        ],
        "postalCode": "N7A0B2",
        "streetName": "HURON HEIGHTS",
        "streetDirectionId": null,
        "streetTypeId": "DR",
        "placeName": "GODERICH",
        "streetNameDisplayText": "HURON HEIGHTS DR, GODERICH"
      }
    ]
  },
  {
    "postal": "N7A2L9",
    "result": [
      {
        "electoralDistricts": [
          {
            "election": null,
            "id": 42,
            "name": "Huron—Bruce"
          }
        ],
        "pollDivisionIds": [
          10138882
        ],
        "postalCode": "N7A2L9",
        "streetName": "ST GEORGES",
        "streetDirectionId": null,
        "streetTypeId": "CRES",
        "placeName": "GODERICH",
        "streetNameDisplayText": "ST GEORGES CRES, GODERICH"
      }
    ]
  },
  {
    "postal": "N7A8K9",
    "result": []
  },
  {
    "postal": "N7A2H9",
    "result": [
      {
        "electoralDistricts": [
          {
            "election": null,
            "id": 42,
            "name": "Huron—Bruce"
          }
        ],
        "pollDivisionIds": [
          10138881
        ],
        "postalCode": "N7A2H9",
        "streetName": "ESSEX",
        "streetDirectionId": null,
        "streetTypeId": "ST",
        "placeName": "GODERICH",
        "streetNameDisplayText": "ESSEX ST, GODERICH"
      }
    ]
  },
  {
    "postal": "N7A3Z6",
    "result": [
      {
        "electoralDistricts": [
          {
            "election": null,
            "id": 42,
            "name": "Huron—Bruce"
          }
        ],
        "pollDivisionIds": [
          10138883
        ],
        "postalCode": "N7A3Z6",
        "streetName": "GIBBONS",
        "streetDirectionId": null,
        "streetTypeId": "ST",
        "placeName": "GODERICH",
        "streetNameDisplayText": "GIBBONS ST, GODERICH"
      }
    ]
  },
  {
    "postal": "N7A3B0",
    "result": []
  },
  {
    "postal": "N7A2H8",
    "result": [
      {
        "electoralDistricts": [
          {
            "election": null,
            "id": 42,
            "name": "Huron—Bruce"
          }
        ],
        "pollDivisionIds": [
          10138881
        ],
        "postalCode": "N7A2H8",
        "streetName": "ESSEX",
        "streetDirectionId": null,
        "streetTypeId": "ST",
        "placeName": "GODERICH",
        "streetNameDisplayText": "ESSEX ST, GODERICH"
      }
    ]
  },
  {
    "postal": "N7A3X2",
    "result": [
      {
        "electoralDistricts": [
          {
            "election": null,
            "id": 42,
            "name": "Huron—Bruce"
          }
        ],
        "pollDivisionIds": [
          10138881
        ],
        "postalCode": "N7A3X2",
        "streetName": "WILSON",
        "streetDirectionId": null,
        "streetTypeId": "ST",
        "placeName": "GODERICH",
        "streetNameDisplayText": "WILSON ST, GODERICH"
      }
    ]
  },
  {
    "postal": "N7A2E9",
    "result": [
      {
        "electoralDistricts": [
          {
            "election": null,
            "id": 42,
            "name": "Huron—Bruce"
          }
        ],
        "pollDivisionIds": [
          10138881
        ],
        "postalCode": "N7A2E9",
        "streetName": "ELGIN",
        "streetDirectionId": "W",
        "streetTypeId": "AVE",
        "placeName": "GODERICH",
        "streetNameDisplayText": "ELGIN AVE W, GODERICH"
      }
    ]
  },
  {
    "postal": "N7A9P6",
    "result": []
  },
  {
    "postal": "N7A9E2",
    "result": []
  },
  {
    "postal": "N7A9H2",
    "result": []
  },
  {
    "postal": "N7A1S8",
    "result": [
      {
        "electoralDistricts": [
          {
            "election": null,
            "id": 42,
            "name": "Huron—Bruce"
          }
        ],
        "pollDivisionIds": [
          10138879
        ],
        "postalCode": "N7A1S8",
        "streetName": "BRUCE",
        "streetDirectionId": "E",
        "streetTypeId": "ST",
        "placeName": "GODERICH",
        "streetNameDisplayText": "BRUCE ST E, GODERICH"
      }
    ]
  },
  {
    "postal": "N7A3M6",
    "result": [
      {
        "electoralDistricts": [
          {
            "election": null,
            "id": 42,
            "name": "Huron—Bruce"
          }
        ],
        "pollDivisionIds": [
          10138883
        ],
        "postalCode": "N7A3M6",
        "streetName": "SOUTH",
        "streetDirectionId": null,
        "streetTypeId": "ST",
        "placeName": "GODERICH",
        "streetNameDisplayText": "SOUTH ST, GODERICH"
      }
    ]
  },
  {
    "postal": "N7A6Z8",
    "result": []
  },
  {
    "postal": "N7A4J2",
    "result": []
  },
  {
    "postal": "N7A9Y1",
    "result": []
  },
  {
    "postal": "N7A8V6",
    "result": []
  },
  {
    "postal": "N7A6B2",
    "result": []
  },
  {
    "postal": "N7A1P8",
    "result": [
      {
        "electoralDistricts": [
          {
            "election": null,
            "id": 42,
            "name": "Huron—Bruce"
          }
        ],
        "pollDivisionIds": [
          10138882
        ],
        "postalCode": "N7A1P8",
        "streetName": "HAMILTON",
        "streetDirectionId": null,
        "streetTypeId": "ST",
        "placeName": "GODERICH",
        "streetNameDisplayText": "HAMILTON ST, GODERICH"
      }
    ]
  },
  {
    "postal": "N7A0V8",
    "result": []
  },
  {
    "postal": "N7A4Y0",
    "result": []
  },
  {
    "postal": "N7A2T4",
    "result": [
      {
        "electoralDistricts": [
          {
            "election": null,
            "id": 42,
            "name": "Huron—Bruce"
          }
        ],
        "pollDivisionIds": [
          10138868,
          10138882
        ],
        "postalCode": "N7A2T4",
        "streetName": "NORTH",
        "streetDirectionId": null,
        "streetTypeId": "ST",
        "placeName": "GODERICH",
        "streetNameDisplayText": "NORTH ST, GODERICH"
      }
    ]
  },
  {
    "postal": "N7A2S3",
    "result": [
      {
        "electoralDistricts": [
          {
            "election": null,
            "id": 42,
            "name": "Huron—Bruce"
          }
        ],
        "pollDivisionIds": [
          10138879
        ],
        "postalCode": "N7A2S3",
        "streetName": "VICTORIA",
        "streetDirectionId": "N",
        "streetTypeId": "ST",
        "placeName": "GODERICH",
        "streetNameDisplayText": "VICTORIA ST N, GODERICH"
      }
    ]
  },
  {
    "postal": "N7A0K0",
    "result": []
  },
  {
    "postal": "N7A5N1",
    "result": []
  },
  {
    "postal": "N7A7T0",
    "result": []
  },
  {
    "postal": "N7A9N2",
    "result": []
  },
  {
    "postal": "N7A5L1",
    "result": []
  },
  {
    "postal": "N7A7G5",
    "result": []
  },
  {
    "postal": "N7A6K2",
    "result": []
  },
  {
    "postal": "N7A6P9",
    "result": []
  },
  {
    "postal": "N7A0E6",
    "result": []
  },
  {
    "postal": "N7A8R9",
    "result": []
  },
  {
    "postal": "N7A3G9",
    "result": [
      {
        "electoralDistricts": [
          {
            "election": null,
            "id": 42,
            "name": "Huron—Bruce"
          }
        ],
        "pollDivisionIds": [
          10138881
        ],
        "postalCode": "N7A3G9",
        "streetName": "STRANG",
        "streetDirectionId": null,
        "streetTypeId": "CRT",
        "placeName": "GODERICH",
        "streetNameDisplayText": "STRANG CRT, GODERICH"
      }
    ]
  },
  {
    "postal": "N7A0V7",
    "result": []
  },
  {
    "postal": "N7A2Z1",
    "result": [
      {
        "electoralDistricts": [
          {
            "election": null,
            "id": 42,
            "name": "Huron—Bruce"
          }
        ],
        "pollDivisionIds": [
          10138883
        ],
        "postalCode": "N7A2Z1",
        "streetName": "CAMBRIDGE",
        "streetDirectionId": null,
        "streetTypeId": "ST",
        "placeName": "GODERICH",
        "streetNameDisplayText": "CAMBRIDGE ST, GODERICH"
      }
    ]
  },
  {
    "postal": "N7A7N1",
    "result": []
  },
  {
    "postal": "N7A3C6",
    "result": [
      {
        "electoralDistricts": [
          {
            "election": null,
            "id": 42,
            "name": "Huron—Bruce"
          }
        ],
        "pollDivisionIds": [
          10138883
        ],
        "postalCode": "N7A3C6",
        "streetName": "HINCKS",
        "streetDirectionId": null,
        "streetTypeId": "ST",
        "placeName": "GODERICH",
        "streetNameDisplayText": "HINCKS ST, GODERICH"
      },
      {
        "electoralDistricts": [
          {
            "election": null,
            "id": 42,
            "name": "Huron—Bruce"
          }
        ],
        "pollDivisionIds": [
          10138883
        ],
        "postalCode": "N7A3C6",
        "streetName": "YOUNG",
        "streetDirectionId": null,
        "streetTypeId": "ST",
        "placeName": "GODERICH",
        "streetNameDisplayText": "YOUNG ST, GODERICH"
      }
    ]
  },
  {
    "postal": "N7A4M1",
    "result": [
      {
        "electoralDistricts": [
          {
            "election": null,
            "id": 42,
            "name": "Huron—Bruce"
          }
        ],
        "pollDivisionIds": [
          10138883
        ],
        "postalCode": "N7A4M1",
        "streetName": "MACEWAN",
        "streetDirectionId": null,
        "streetTypeId": "ST",
        "placeName": "GODERICH",
        "streetNameDisplayText": "MACEWAN ST, GODERICH"
      }
    ]
  },
  {
    "postal": "N7A9K2",
    "result": []
  },
  {
    "postal": "N7A9S6",
    "result": []
  },
  {
    "postal": "N7A4X1",
    "result": []
  },
  {
    "postal": "N7A8W2",
    "result": []
  },
  {
    "postal": "N7A7N2",
    "result": []
  },
  {
    "postal": "N7A8S3",
    "result": []
  },
  {
    "postal": "N7A4V0",
    "result": []
  },
  {
    "postal": "N7A6W4",
    "result": []
  },
  {
    "postal": "N7A5M1",
    "result": []
  },
  {
    "postal": "N7A0S4",
    "result": []
  },
  {
    "postal": "N7A5X6",
    "result": []
  },
  {
    "postal": "N7A8L5",
    "result": []
  },
  {
    "postal": "N7A5M8",
    "result": []
  },
  {
    "postal": "N7A2G3",
    "result": []
  },
  {
    "postal": "N7A8E4",
    "result": []
  },
  {
    "postal": "N7A7S9",
    "result": []
  },
  {
    "postal": "N7A1K3",
    "result": [
      {
        "electoralDistricts": [
          {
            "election": null,
            "id": 42,
            "name": "Huron—Bruce"
          }
        ],
        "pollDivisionIds": [
          10138881,
          10138882
        ],
        "postalCode": "N7A1K3",
        "streetName": "ELGIN",
        "streetDirectionId": "E",
        "streetTypeId": "AVE",
        "placeName": "GODERICH",
        "streetNameDisplayText": "ELGIN AVE E, GODERICH"
      }
    ]
  },
  {
    "postal": "N7A4E1",
    "result": [
      {
        "electoralDistricts": [
          {
            "election": null,
            "id": 42,
            "name": "Huron—Bruce"
          }
        ],
        "pollDivisionIds": [
          10138881
        ],
        "postalCode": "N7A4E1",
        "streetName": "ELDON",
        "streetDirectionId": null,
        "streetTypeId": "ST",
        "placeName": "GODERICH",
        "streetNameDisplayText": "ELDON ST, GODERICH"
      }
    ]
  },
  {
    "postal": "N7A4R2",
    "result": []
  },
  {
    "postal": "N7A6T0",
    "result": []
  },
  {
    "postal": "N7A3K5",
    "result": [
      {
        "electoralDistricts": [
          {
            "election": null,
            "id": 42,
            "name": "Huron—Bruce"
          }
        ],
        "pollDivisionIds": [
          10138881
        ],
        "postalCode": "N7A3K5",
        "streetName": "STANLEY",
        "streetDirectionId": null,
        "streetTypeId": "ST",
        "placeName": "GODERICH",
        "streetNameDisplayText": "STANLEY ST, GODERICH"
      }
    ]
  },
  {
    "postal": "N7A3S3",
    "result": [
      {
        "electoralDistricts": [
          {
            "election": null,
            "id": 42,
            "name": "Huron—Bruce"
          }
        ],
        "pollDivisionIds": [
          10138882
        ],
        "postalCode": "N7A3S3",
        "streetName": "WELLINGTON",
        "streetDirectionId": "S",
        "streetTypeId": "ST",
        "placeName": "GODERICH",
        "streetNameDisplayText": "WELLINGTON ST S, GODERICH"
      }
    ]
  },
  {
    "postal": "N7A3L4",
    "result": [
      {
        "electoralDistricts": [
          {
            "election": null,
            "id": 42,
            "name": "Huron—Bruce"
          }
        ],
        "pollDivisionIds": [
          10138881,
          10138868
        ],
        "postalCode": "N7A3L4",
        "streetName": "SOUTH",
        "streetDirectionId": null,
        "streetTypeId": "ST",
        "placeName": "GODERICH",
        "streetNameDisplayText": "SOUTH ST, GODERICH"
      }
    ]
  },
  {
    "postal": "N7A9Y2",
    "result": []
  },
  {
    "postal": "N7A1E0",
    "result": []
  },
  {
    "postal": "N7A9A4",
    "result": []
  },
  {
    "postal": "N7A1L3",
    "result": [
      {
        "electoralDistricts": [
          {
            "election": null,
            "id": 42,
            "name": "Huron—Bruce"
          }
        ],
        "pollDivisionIds": [
          10138883
        ],
        "postalCode": "N7A1L3",
        "streetName": "PARK",
        "streetDirectionId": null,
        "streetTypeId": "ST",
        "placeName": "GODERICH",
        "streetNameDisplayText": "PARK ST, GODERICH"
      }
    ]
  },
  {
    "postal": "N7A6N1",
    "result": []
  },
  {
    "postal": "N7A6G7",
    "result": []
  },
  {
    "postal": "N7A7W1",
    "result": []
  },
  {
    "postal": "N7A4M6",
    "result": [
      {
        "electoralDistricts": [
          {
            "election": null,
            "id": 42,
            "name": "Huron—Bruce"
          }
        ],
        "pollDivisionIds": [
          10138883
        ],
        "postalCode": "N7A4M6",
        "streetName": "BETHUNE",
        "streetDirectionId": null,
        "streetTypeId": "CRES",
        "placeName": "GODERICH",
        "streetNameDisplayText": "BETHUNE CRES, GODERICH"
      }
    ]
  },
  {
    "postal": "N7A1K0",
    "result": []
  },
  {
    "postal": "N7A3E2",
    "result": []
  },
  {
    "postal": "N7A5H4",
    "result": []
  },
  {
    "postal": "N7A1K7",
    "result": [
      {
        "electoralDistricts": [
          {
            "election": null,
            "id": 42,
            "name": "Huron—Bruce"
          }
        ],
        "pollDivisionIds": [
          10138883
        ],
        "postalCode": "N7A1K7",
        "streetName": "ELGIN",
        "streetDirectionId": "E",
        "streetTypeId": "AVE",
        "placeName": "GODERICH",
        "streetNameDisplayText": "ELGIN AVE E, GODERICH"
      }
    ]
  },
  {
    "postal": "N7A0H0",
    "result": []
  },
  {
    "postal": "N7A0J3",
    "result": []
  },
  {
    "postal": "N7A1X6",
    "result": []
  },
  {
    "postal": "N7A2Z6",
    "result": [
      {
        "electoralDistricts": [
          {
            "election": null,
            "id": 42,
            "name": "Huron—Bruce"
          }
        ],
        "pollDivisionIds": [
          10138883
        ],
        "postalCode": "N7A2Z6",
        "streetName": "HURON",
        "streetDirectionId": null,
        "streetTypeId": "RD",
        "placeName": "GODERICH",
        "streetNameDisplayText": "HURON RD, GODERICH"
      }
    ]
  },
  {
    "postal": "N7A4R9",
    "result": []
  },
  {
    "postal": "N7A0W8",
    "result": []
  },
  {
    "postal": "N7A1L4",
    "result": [
      {
        "electoralDistricts": [
          {
            "election": null,
            "id": 42,
            "name": "Huron—Bruce"
          }
        ],
        "pollDivisionIds": [
          10138883
        ],
        "postalCode": "N7A1L4",
        "streetName": "ST DAVID",
        "streetDirectionId": null,
        "streetTypeId": "ST",
        "placeName": "GODERICH",
        "streetNameDisplayText": "ST DAVID ST, GODERICH"
      },
      {
        "electoralDistricts": [
          {
            "election": null,
            "id": 42,
            "name": "Huron—Bruce"
          }
        ],
        "pollDivisionIds": [
          10138883
        ],
        "postalCode": "N7A1L4",
        "streetName": "ST. DAVID",
        "streetDirectionId": null,
        "streetTypeId": "ST",
        "placeName": "GODERICH",
        "streetNameDisplayText": "ST. DAVID ST, GODERICH"
      }
    ]
  },
  {
    "postal": "N7A0C8",
    "result": []
  },
  {
    "postal": "N7A9X7",
    "result": []
  },
  {
    "postal": "N7A4T1",
    "result": []
  },
  {
    "postal": "N7A0M0",
    "result": []
  },
  {
    "postal": "N7A6A2",
    "result": []
  },
  {
    "postal": "N7A9S8",
    "result": []
  },
  {
    "postal": "N7A9T4",
    "result": []
  },
  {
    "postal": "N7A9Y4",
    "result": []
  },
  {
    "postal": "N7A6G5",
    "result": []
  },
  {
    "postal": "N7A6H9",
    "result": []
  },
  {
    "postal": "N7A2P3",
    "result": [
      {
        "electoralDistricts": [
          {
            "election": null,
            "id": 42,
            "name": "Huron—Bruce"
          }
        ],
        "pollDivisionIds": [
          10138882
        ],
        "postalCode": "N7A2P3",
        "streetName": "CAMBRIA",
        "streetDirectionId": "N",
        "streetTypeId": "RD",
        "placeName": "GODERICH",
        "streetNameDisplayText": "CAMBRIA RD N, GODERICH"
      }
    ]
  },
  {
    "postal": "N7A1T6",
    "result": [
      {
        "electoralDistricts": [
          {
            "election": null,
            "id": 42,
            "name": "Huron—Bruce"
          }
        ],
        "pollDivisionIds": [
          10138879
        ],
        "postalCode": "N7A1T6",
        "streetName": "TRAFALGAR",
        "streetDirectionId": null,
        "streetTypeId": "ST",
        "placeName": "GODERICH",
        "streetNameDisplayText": "TRAFALGAR ST, GODERICH"
      }
    ]
  },
  {
    "postal": "N7A4P6",
    "result": []
  },
  {
    "postal": "N7A3K1",
    "result": [
      {
        "electoralDistricts": [
          {
            "election": null,
            "id": 42,
            "name": "Huron—Bruce"
          }
        ],
        "pollDivisionIds": [
          10138881
        ],
        "postalCode": "N7A3K1",
        "streetName": "KINGSTON",
        "streetDirectionId": null,
        "streetTypeId": "ST",
        "placeName": "GODERICH",
        "streetNameDisplayText": "KINGSTON ST, GODERICH"
      }
    ]
  },
  {
    "postal": "N7A6X4",
    "result": []
  },
  {
    "postal": "N7A4M8",
    "result": [
      {
        "electoralDistricts": [
          {
            "election": null,
            "id": 42,
            "name": "Huron—Bruce"
          }
        ],
        "pollDivisionIds": [
          10138883
        ],
        "postalCode": "N7A4M8",
        "streetName": "MARTHA",
        "streetDirectionId": null,
        "streetTypeId": "ST",
        "placeName": "GODERICH",
        "streetNameDisplayText": "MARTHA ST, GODERICH"
      }
    ]
  },
  {
    "postal": "N7A2Y1",
    "result": [
      {
        "electoralDistricts": [
          {
            "election": null,
            "id": 42,
            "name": "Huron—Bruce"
          }
        ],
        "pollDivisionIds": [
          10138883
        ],
        "postalCode": "N7A2Y1",
        "streetName": "HORTON",
        "streetDirectionId": null,
        "streetTypeId": "ST",
        "placeName": "GODERICH",
        "streetNameDisplayText": "HORTON ST, GODERICH"
      }
    ]
  },
  {
    "postal": "N7A6M1",
    "result": []
  },
  {
    "postal": "N7A5L8",
    "result": []
  },
  {
    "postal": "N7A3P6",
    "result": [
      {
        "electoralDistricts": [
          {
            "election": null,
            "id": 42,
            "name": "Huron—Bruce"
          }
        ],
        "pollDivisionIds": [
          10138882
        ],
        "postalCode": "N7A3P6",
        "streetName": "WATERLOO",
        "streetDirectionId": "S",
        "streetTypeId": "ST",
        "placeName": "GODERICH",
        "streetNameDisplayText": "WATERLOO ST S, GODERICH"
      }
    ]
  },
  {
    "postal": "N7A9A5",
    "result": []
  },
  {
    "postal": "N7A7K1",
    "result": []
  },
  {
    "postal": "N7A3J4",
    "result": [
      {
        "electoralDistricts": [
          {
            "election": null,
            "id": 42,
            "name": "Huron—Bruce"
          }
        ],
        "pollDivisionIds": [
          10138881
        ],
        "postalCode": "N7A3J4",
        "streetName": "GIBBONS",
        "streetDirectionId": null,
        "streetTypeId": "ST",
        "placeName": "GODERICH",
        "streetNameDisplayText": "GIBBONS ST, GODERICH"
      }
    ]
  },
  {
    "postal": "N7A5E7",
    "result": []
  },
  {
    "postal": "N7A3A7",
    "result": [
      {
        "electoralDistricts": [
          {
            "election": null,
            "id": 42,
            "name": "Huron—Bruce"
          }
        ],
        "pollDivisionIds": [
          10138883
        ],
        "postalCode": "N7A3A7",
        "streetName": "MARY",
        "streetDirectionId": null,
        "streetTypeId": "ST",
        "placeName": "GODERICH",
        "streetNameDisplayText": "MARY ST, GODERICH"
      }
    ]
  },
  {
    "postal": "N7A1B9",
    "result": [
      {
        "electoralDistricts": [
          {
            "election": null,
            "id": 42,
            "name": "Huron—Bruce"
          }
        ],
        "pollDivisionIds": [
          10138883
        ],
        "postalCode": "N7A1B9",
        "streetName": "WELLS",
        "streetDirectionId": null,
        "streetTypeId": "ST",
        "placeName": "GODERICH",
        "streetNameDisplayText": "WELLS ST, GODERICH"
      }
    ]
  },
  {
    "postal": "N7A9E8",
    "result": []
  },
  {
    "postal": "N7A1C9",
    "result": [
      {
        "electoralDistricts": [
          {
            "election": null,
            "id": 42,
            "name": "Huron—Bruce"
          }
        ],
        "pollDivisionIds": [
          10138881
        ],
        "postalCode": "N7A1C9",
        "streetName": "BLAKE",
        "streetDirectionId": "E",
        "streetTypeId": "ST",
        "placeName": "GODERICH",
        "streetNameDisplayText": "BLAKE ST E, GODERICH"
      }
    ]
  },
  {
    "postal": "N7A3B5",
    "result": [
      {
        "electoralDistricts": [
          {
            "election": null,
            "id": 42,
            "name": "Huron—Bruce"
          }
        ],
        "pollDivisionIds": [
          10138883
        ],
        "postalCode": "N7A3B5",
        "streetName": "JONES",
        "streetDirectionId": null,
        "streetTypeId": "ST",
        "placeName": "GODERICH",
        "streetNameDisplayText": "JONES ST, GODERICH"
      }
    ]
  },
  {
    "postal": "N7A8R0",
    "result": []
  },
  {
    "postal": "N7A3P2",
    "result": [
      {
        "electoralDistricts": [
          {
            "election": null,
            "id": 42,
            "name": "Huron—Bruce"
          }
        ],
        "pollDivisionIds": [
          10138882
        ],
        "postalCode": "N7A3P2",
        "streetName": "WATERLOO",
        "streetDirectionId": "S",
        "streetTypeId": "ST",
        "placeName": "GODERICH",
        "streetNameDisplayText": "WATERLOO ST S, GODERICH"
      }
    ]
  },
  {
    "postal": "N7A5V4",
    "result": []
  },
  {
    "postal": "N7A4H0",
    "result": []
  },
  {
    "postal": "N7A4S7",
    "result": []
  },
  {
    "postal": "N7A6C2",
    "result": []
  },
  {
    "postal": "N7A8W3",
    "result": []
  },
  {
    "postal": "N7A4M5",
    "result": [
      {
        "electoralDistricts": [
          {
            "election": null,
            "id": 42,
            "name": "Huron—Bruce"
          }
        ],
        "pollDivisionIds": [
          10138883
        ],
        "postalCode": "N7A4M5",
        "streetName": "WARREN",
        "streetDirectionId": null,
        "streetTypeId": "ST",
        "placeName": "GODERICH",
        "streetNameDisplayText": "WARREN ST, GODERICH"
      }
    ]
  },
  {
    "postal": "N7A5T1",
    "result": []
  },
  {
    "postal": "N7A3B3",
    "result": [
      {
        "electoralDistricts": [
          {
            "election": null,
            "id": 42,
            "name": "Huron—Bruce"
          }
        ],
        "pollDivisionIds": [
          10138883
        ],
        "postalCode": "N7A3B3",
        "streetName": "MARY",
        "streetDirectionId": null,
        "streetTypeId": "ST",
        "placeName": "GODERICH",
        "streetNameDisplayText": "MARY ST, GODERICH"
      }
    ]
  },
  {
    "postal": "N7A6C6",
    "result": []
  },
  {
    "postal": "N7A7N8",
    "result": []
  },
  {
    "postal": "N7A2Y3",
    "result": [
      {
        "electoralDistricts": [
          {
            "election": null,
            "id": 42,
            "name": "Huron—Bruce"
          }
        ],
        "pollDivisionIds": [
          10138883
        ],
        "postalCode": "N7A2Y3",
        "streetName": "ALBERT",
        "streetDirectionId": "S",
        "streetTypeId": "ST",
        "placeName": "GODERICH",
        "streetNameDisplayText": "ALBERT ST S, GODERICH"
      }
    ]
  },
  {
    "postal": "N7A2R6",
    "result": [
      {
        "electoralDistricts": [
          {
            "election": null,
            "id": 42,
            "name": "Huron—Bruce"
          }
        ],
        "pollDivisionIds": [
          10138882
        ],
        "postalCode": "N7A2R6",
        "streetName": "VICTORIA",
        "streetDirectionId": "N",
        "streetTypeId": "ST",
        "placeName": "GODERICH",
        "streetNameDisplayText": "VICTORIA ST N, GODERICH"
      }
    ]
  },
  {
    "postal": "N7A7N3",
    "result": []
  },
  {
    "postal": "N7A8J2",
    "result": []
  },
  {
    "postal": "N7A6A9",
    "result": []
  },
  {
    "postal": "N7A3V2",
    "result": [
      {
        "electoralDistricts": [
          {
            "election": null,
            "id": 42,
            "name": "Huron—Bruce"
          }
        ],
        "pollDivisionIds": [
          10138881
        ],
        "postalCode": "N7A3V2",
        "streetName": "WIDDER",
        "streetDirectionId": null,
        "streetTypeId": "ST",
        "placeName": "GODERICH",
        "streetNameDisplayText": "WIDDER ST, GODERICH"
      }
    ]
  },
  {
    "postal": "N7A2N3",
    "result": [
      {
        "electoralDistricts": [
          {
            "election": null,
            "id": 42,
            "name": "Huron—Bruce"
          }
        ],
        "pollDivisionIds": [
          10138882
        ],
        "postalCode": "N7A2N3",
        "streetName": "ALBERT",
        "streetDirectionId": "N",
        "streetTypeId": "ST",
        "placeName": "GODERICH",
        "streetNameDisplayText": "ALBERT ST N, GODERICH"
      }
    ]
  },
  {
    "postal": "N7A1S5",
    "result": [
      {
        "electoralDistricts": [
          {
            "election": null,
            "id": 42,
            "name": "Huron—Bruce"
          }
        ],
        "pollDivisionIds": [
          10138882
        ],
        "postalCode": "N7A1S5",
        "streetName": "NELSON",
        "streetDirectionId": "E",
        "streetTypeId": "ST",
        "placeName": "GODERICH",
        "streetNameDisplayText": "NELSON ST E, GODERICH"
      }
    ]
  },
  {
    "postal": "N7A4T7",
    "result": []
  },
  {
    "postal": "N7A6Y7",
    "result": []
  },
  {
    "postal": "N7A0W7",
    "result": []
  },
  {
    "postal": "N7A2W9",
    "result": []
  },
  {
    "postal": "N7A8V0",
    "result": []
  },
  {
    "postal": "N7A0H4",
    "result": []
  },
  {
    "postal": "N7A2T1",
    "result": [
      {
        "electoralDistricts": [
          {
            "election": null,
            "id": 42,
            "name": "Huron—Bruce"
          }
        ],
        "pollDivisionIds": [
          10138879
        ],
        "postalCode": "N7A2T1",
        "streetName": "VICTORIA",
        "streetDirectionId": "N",
        "streetTypeId": "ST",
        "placeName": "GODERICH",
        "streetNameDisplayText": "VICTORIA ST N, GODERICH"
      }
    ]
  },
  {
    "postal": "N7A1B1",
    "result": [
      {
        "electoralDistricts": [
          {
            "election": null,
            "id": 42,
            "name": "Huron—Bruce"
          }
        ],
        "pollDivisionIds": [
          10138883
        ],
        "postalCode": "N7A1B1",
        "streetName": "MAPLE",
        "streetDirectionId": null,
        "streetTypeId": "ST",
        "placeName": "GODERICH",
        "streetNameDisplayText": "MAPLE ST, GODERICH"
      }
    ]
  },
  {
    "postal": "N7A8B6",
    "result": []
  },
  {
    "postal": "N7A6H1",
    "result": []
  },
  {
    "postal": "N7A8T8",
    "result": []
  },
  {
    "postal": "N7A0T4",
    "result": []
  },
  {
    "postal": "N7A2C4",
    "result": [
      {
        "electoralDistricts": [
          {
            "election": null,
            "id": 42,
            "name": "Huron—Bruce"
          }
        ],
        "pollDivisionIds": [
          10138882
        ],
        "postalCode": "N7A2C4",
        "streetName": "PICTON",
        "streetDirectionId": "W",
        "streetTypeId": "ST",
        "placeName": "GODERICH",
        "streetNameDisplayText": "PICTON ST W, GODERICH"
      }
    ]
  },
  {
    "postal": "N7A8N3",
    "result": []
  },
  {
    "postal": "N7A4L8",
    "result": [
      {
        "electoralDistricts": [
          {
            "election": null,
            "id": 42,
            "name": "Huron—Bruce"
          }
        ],
        "pollDivisionIds": [
          10138883
        ],
        "postalCode": "N7A4L8",
        "streetName": "BALVINA",
        "streetDirectionId": "E",
        "streetTypeId": "DR",
        "placeName": "GODERICH",
        "streetNameDisplayText": "BALVINA DR E, GODERICH"
      }
    ]
  },
  {
    "postal": "N7A2B5",
    "result": [
      {
        "electoralDistricts": [
          {
            "election": null,
            "id": 42,
            "name": "Huron—Bruce"
          }
        ],
        "pollDivisionIds": [
          10138881
        ],
        "postalCode": "N7A2B5",
        "streetName": "BRITANNIA",
        "streetDirectionId": "W",
        "streetTypeId": "RD",
        "placeName": "GODERICH",
        "streetNameDisplayText": "BRITANNIA RD W, GODERICH"
      }
    ]
  },
  {
    "postal": "N7A3H1",
    "result": [
      {
        "electoralDistricts": [
          {
            "election": null,
            "id": 42,
            "name": "Huron—Bruce"
          }
        ],
        "pollDivisionIds": [
          10138881
        ],
        "postalCode": "N7A3H1",
        "streetName": "STRANG",
        "streetDirectionId": null,
        "streetTypeId": "CRT",
        "placeName": "GODERICH",
        "streetNameDisplayText": "STRANG CRT, GODERICH"
      }
    ]
  },
  {
    "postal": "N7A4Y1",
    "result": []
  },
  {
    "postal": "N7A7E2",
    "result": []
  },
  {
    "postal": "N7A2P5",
    "result": [
      {
        "electoralDistricts": [
          {
            "election": null,
            "id": 42,
            "name": "Huron—Bruce"
          }
        ],
        "pollDivisionIds": [
          10138879
        ],
        "postalCode": "N7A2P5",
        "streetName": "CAMBRIA",
        "streetDirectionId": "N",
        "streetTypeId": "RD",
        "placeName": "GODERICH",
        "streetNameDisplayText": "CAMBRIA RD N, GODERICH"
      }
    ]
  },
  {
    "postal": "N7A8R7",
    "result": []
  },
  {
    "postal": "N7A9P1",
    "result": []
  },
  {
    "postal": "N7A3B8",
    "result": [
      {
        "electoralDistricts": [
          {
            "election": null,
            "id": 42,
            "name": "Huron—Bruce"
          }
        ],
        "pollDivisionIds": [
          10138883
        ],
        "postalCode": "N7A3B8",
        "streetName": "JONES",
        "streetDirectionId": null,
        "streetTypeId": "ST",
        "placeName": "GODERICH",
        "streetNameDisplayText": "JONES ST, GODERICH"
      }
    ]
  },
  {
    "postal": "N7A3P7",
    "result": [
      {
        "electoralDistricts": [
          {
            "election": null,
            "id": 42,
            "name": "Huron—Bruce"
          }
        ],
        "pollDivisionIds": [
          10138882
        ],
        "postalCode": "N7A3P7",
        "streetName": "WATERLOO",
        "streetDirectionId": "S",
        "streetTypeId": "ST",
        "placeName": "GODERICH",
        "streetNameDisplayText": "WATERLOO ST S, GODERICH"
      }
    ]
  },
  {
    "postal": "N7A9B2",
    "result": []
  },
  {
    "postal": "N7A6Z3",
    "result": []
  },
  {
    "postal": "N7A4N5",
    "result": [
      {
        "electoralDistricts": [
          {
            "election": null,
            "id": 42,
            "name": "Huron—Bruce"
          }
        ],
        "pollDivisionIds": [
          10138883
        ],
        "postalCode": "N7A4N5",
        "streetName": "CAMBRIA",
        "streetDirectionId": "S",
        "streetTypeId": "RD",
        "placeName": "GODERICH",
        "streetNameDisplayText": "CAMBRIA RD S, GODERICH"
      }
    ]
  },
  {
    "postal": "N7A8T3",
    "result": []
  },
  {
    "postal": "N7A1V2",
    "result": [
      {
        "electoralDistricts": [
          {
            "election": null,
            "id": 42,
            "name": "Huron—Bruce"
          }
        ],
        "pollDivisionIds": [
          10138879
        ],
        "postalCode": "N7A1V2",
        "streetName": "ANGLESEA",
        "streetDirectionId": null,
        "streetTypeId": "ST",
        "placeName": "GODERICH",
        "streetNameDisplayText": "ANGLESEA ST, GODERICH"
      }
    ]
  },
  {
    "postal": "N7A1Y0",
    "result": []
  },
  {
    "postal": "N7A3G6",
    "result": [
      {
        "electoralDistricts": [
          {
            "election": null,
            "id": 42,
            "name": "Huron—Bruce"
          }
        ],
        "pollDivisionIds": [
          10138881
        ],
        "postalCode": "N7A3G6",
        "streetName": "BAYFIELD",
        "streetDirectionId": null,
        "streetTypeId": "RD",
        "placeName": "GODERICH",
        "streetNameDisplayText": "BAYFIELD RD, GODERICH"
      }
    ]
  },
  {
    "postal": "N7A3H7",
    "result": [
      {
        "electoralDistricts": [
          {
            "election": null,
            "id": 42,
            "name": "Huron—Bruce"
          }
        ],
        "pollDivisionIds": [
          10138881
        ],
        "postalCode": "N7A3H7",
        "streetName": "VICTORIA",
        "streetDirectionId": "S",
        "streetTypeId": "ST",
        "placeName": "GODERICH",
        "streetNameDisplayText": "VICTORIA ST S, GODERICH"
      }
    ]
  },
  {
    "postal": "N7A7X8",
    "result": []
  },
  {
    "postal": "N7A0C7",
    "result": []
  },
  {
    "postal": "N7A0W9",
    "result": []
  },
  {
    "postal": "N7A8E6",
    "result": []
  },
  {
    "postal": "N7A9Z8",
    "result": []
  },
  {
    "postal": "N7A3P4",
    "result": [
      {
        "electoralDistricts": [
          {
            "election": null,
            "id": 42,
            "name": "Huron—Bruce"
          }
        ],
        "pollDivisionIds": [
          10138882
        ],
        "postalCode": "N7A3P4",
        "streetName": "WATERLOO",
        "streetDirectionId": "S",
        "streetTypeId": "ST",
        "placeName": "GODERICH",
        "streetNameDisplayText": "WATERLOO ST S, GODERICH"
      }
    ]
  },
  {
    "postal": "N7A6L8",
    "result": []
  },
  {
    "postal": "N7A2R4",
    "result": [
      {
        "electoralDistricts": [
          {
            "election": null,
            "id": 42,
            "name": "Huron—Bruce"
          }
        ],
        "pollDivisionIds": [
          10138883
        ],
        "postalCode": "N7A2R4",
        "streetName": "VICTORIA",
        "streetDirectionId": "N",
        "streetTypeId": "AVE",
        "placeName": "GODERICH",
        "streetNameDisplayText": "VICTORIA AVE N, GODERICH"
      },
      {
        "electoralDistricts": [
          {
            "election": null,
            "id": 42,
            "name": "Huron—Bruce"
          }
        ],
        "pollDivisionIds": [
          10138882
        ],
        "postalCode": "N7A2R4",
        "streetName": "VICTORIA",
        "streetDirectionId": "N",
        "streetTypeId": "ST",
        "placeName": "GODERICH",
        "streetNameDisplayText": "VICTORIA ST N, GODERICH"
      }
    ]
  },
  {
    "postal": "N7A2W1",
    "result": [
      {
        "electoralDistricts": [
          {
            "election": null,
            "id": 42,
            "name": "Huron—Bruce"
          }
        ],
        "pollDivisionIds": [
          10138882
        ],
        "postalCode": "N7A2W1",
        "streetName": "WATERLOO",
        "streetDirectionId": "N",
        "streetTypeId": "ST",
        "placeName": "GODERICH",
        "streetNameDisplayText": "WATERLOO ST N, GODERICH"
      }
    ]
  },
  {
    "postal": "N7A9H8",
    "result": []
  },
  {
    "postal": "N7A8X9",
    "result": []
  },
  {
    "postal": "N7A7H4",
    "result": []
  },
  {
    "postal": "N7A3J1",
    "result": [
      {
        "electoralDistricts": [
          {
            "election": null,
            "id": 42,
            "name": "Huron—Bruce"
          }
        ],
        "pollDivisionIds": [
          10138883
        ],
        "postalCode": "N7A3J1",
        "streetName": "VICTORIA",
        "streetDirectionId": "S",
        "streetTypeId": "ST",
        "placeName": "GODERICH",
        "streetNameDisplayText": "VICTORIA ST S, GODERICH"
      }
    ]
  },
  {
    "postal": "N7A1P4",
    "result": [
      {
        "electoralDistricts": [
          {
            "election": null,
            "id": 42,
            "name": "Huron—Bruce"
          }
        ],
        "pollDivisionIds": [
          10138882
        ],
        "postalCode": "N7A1P4",
        "streetName": "NEWGATE",
        "streetDirectionId": null,
        "streetTypeId": "ST",
        "placeName": "GODERICH",
        "streetNameDisplayText": "NEWGATE ST, GODERICH"
      }
    ]
  },
  {
    "postal": "N7A2A3",
    "result": [
      {
        "electoralDistricts": [
          {
            "election": null,
            "id": 42,
            "name": "Huron—Bruce"
          }
        ],
        "pollDivisionIds": [
          10138881
        ],
        "postalCode": "N7A2A3",
        "streetName": "CAYLEY",
        "streetDirectionId": null,
        "streetTypeId": "ST",
        "placeName": "GODERICH",
        "streetNameDisplayText": "CAYLEY ST, GODERICH"
      }
    ]
  },
  {
    "postal": "N7A0Z1",
    "result": []
  },
  {
    "postal": "N7A1C1",
    "result": [
      {
        "electoralDistricts": [
          {
            "election": null,
            "id": 42,
            "name": "Huron—Bruce"
          }
        ],
        "pollDivisionIds": [
          10138883
        ],
        "postalCode": "N7A1C1",
        "streetName": "WELLS",
        "streetDirectionId": null,
        "streetTypeId": "ST",
        "placeName": "GODERICH",
        "streetNameDisplayText": "WELLS ST, GODERICH"
      }
    ]
  },
  {
    "postal": "N7A0H3",
    "result": []
  },
  {
    "postal": "N7A7B0",
    "result": []
  },
  {
    "postal": "N7A5K2",
    "result": []
  },
  {
    "postal": "N7A1E9",
    "result": [
      {
        "electoralDistricts": [
          {
            "election": null,
            "id": 42,
            "name": "Huron—Bruce"
          }
        ],
        "pollDivisionIds": [
          10138883
        ],
        "postalCode": "N7A1E9",
        "streetName": "OXFORD",
        "streetDirectionId": null,
        "streetTypeId": "ST",
        "placeName": "GODERICH",
        "streetNameDisplayText": "OXFORD ST, GODERICH"
      }
    ]
  },
  {
    "postal": "N7A9W7",
    "result": []
  },
  {
    "postal": "N7A5W6",
    "result": []
  },
  {
    "postal": "N7A6S6",
    "result": []
  },
  {
    "postal": "N7A2P8",
    "result": [
      {
        "electoralDistricts": [
          {
            "election": null,
            "id": 42,
            "name": "Huron—Bruce"
          }
        ],
        "pollDivisionIds": [
          10138879
        ],
        "postalCode": "N7A2P8",
        "streetName": "CAMBRIA",
        "streetDirectionId": "N",
        "streetTypeId": "RD",
        "placeName": "GODERICH",
        "streetNameDisplayText": "CAMBRIA RD N, GODERICH"
      }
    ]
  },
  {
    "postal": "N7A4P8",
    "result": []
  },
  {
    "postal": "N7A0V9",
    "result": []
  },
  {
    "postal": "N7A5Y2",
    "result": []
  },
  {
    "postal": "N7A7Z7",
    "result": []
  },
  {
    "postal": "N7A6Y8",
    "result": []
  },
  {
    "postal": "N7A2G7",
    "result": [
      {
        "electoralDistricts": [
          {
            "election": null,
            "id": 42,
            "name": "Huron—Bruce"
          }
        ],
        "pollDivisionIds": [
          10138882
        ],
        "postalCode": "N7A2G7",
        "streetName": "QUEBEC",
        "streetDirectionId": null,
        "streetTypeId": "ST",
        "placeName": "GODERICH",
        "streetNameDisplayText": "QUEBEC ST, GODERICH"
      }
    ]
  },
  {
    "postal": "N7A8C1",
    "result": []
  },
  {
    "postal": "N7A5C5",
    "result": []
  },
  {
    "postal": "N7A2X8",
    "result": [
      {
        "electoralDistricts": [
          {
            "election": null,
            "id": 42,
            "name": "Huron—Bruce"
          }
        ],
        "pollDivisionIds": [
          10138883
        ],
        "postalCode": "N7A2X8",
        "streetName": "REGENT",
        "streetDirectionId": null,
        "streetTypeId": "ST",
        "placeName": "GODERICH",
        "streetNameDisplayText": "REGENT ST, GODERICH"
      }
    ]
  },
  {
    "postal": "N7A1W5",
    "result": [
      {
        "electoralDistricts": [
          {
            "election": null,
            "id": 42,
            "name": "Huron—Bruce"
          }
        ],
        "pollDivisionIds": [
          10138919,
          10138882
        ],
        "postalCode": "N7A1W5",
        "streetName": "NAPIER",
        "streetDirectionId": null,
        "streetTypeId": "ST",
        "placeName": "GODERICH",
        "streetNameDisplayText": "NAPIER ST, GODERICH"
      }
    ]
  },
  {
    "postal": "N7A7G0",
    "result": []
  },
  {
    "postal": "N7A8J8",
    "result": []
  },
  {
    "postal": "N7A3Y0",
    "result": []
  },
  {
    "postal": "N7A9T7",
    "result": []
  },
  {
    "postal": "N7A5P4",
    "result": []
  },
  {
    "postal": "N7A4B0",
    "result": []
  },
  {
    "postal": "N7A9N8",
    "result": []
  },
  {
    "postal": "N7A4A7",
    "result": [
      {
        "electoralDistricts": [
          {
            "election": null,
            "id": 42,
            "name": "Huron—Bruce"
          }
        ],
        "pollDivisionIds": [
          10138883
        ],
        "postalCode": "N7A4A7",
        "streetName": "BENNETT",
        "streetDirectionId": "E",
        "streetTypeId": "ST",
        "placeName": "GODERICH",
        "streetNameDisplayText": "BENNETT ST E, GODERICH"
      }
    ]
  },
  {
    "postal": "N7A4H9",
    "result": [
      {
        "electoralDistricts": [
          {
            "election": null,
            "id": 42,
            "name": "Huron—Bruce"
          }
        ],
        "pollDivisionIds": [
          10138883
        ],
        "postalCode": "N7A4H9",
        "streetName": "KROHMER",
        "streetDirectionId": null,
        "streetTypeId": "DR",
        "placeName": "GODERICH",
        "streetNameDisplayText": "KROHMER DR, GODERICH"
      }
    ]
  },
  {
    "postal": "N7A6X1",
    "result": []
  },
  {
    "postal": "N7A9Y7",
    "result": []
  },
  {
    "postal": "N7A2Y5",
    "result": [
      {
        "electoralDistricts": [
          {
            "election": null,
            "id": 42,
            "name": "Huron—Bruce"
          }
        ],
        "pollDivisionIds": [
          10138883
        ],
        "postalCode": "N7A2Y5",
        "streetName": "CAMBRIDGE",
        "streetDirectionId": null,
        "streetTypeId": "ST",
        "placeName": "GODERICH",
        "streetNameDisplayText": "CAMBRIDGE ST, GODERICH"
      }
    ]
  },
  {
    "postal": "N7A8L7",
    "result": []
  },
  {
    "postal": "N7A2A8",
    "result": [
      {
        "electoralDistricts": [
          {
            "election": null,
            "id": 42,
            "name": "Huron—Bruce"
          }
        ],
        "pollDivisionIds": [
          10138881
        ],
        "postalCode": "N7A2A8",
        "streetName": "BRITANNIA",
        "streetDirectionId": "W",
        "streetTypeId": "RD",
        "placeName": "GODERICH",
        "streetNameDisplayText": "BRITANNIA RD W, GODERICH"
      }
    ]
  },
  {
    "postal": "N7A2K9",
    "result": [
      {
        "electoralDistricts": [
          {
            "election": null,
            "id": 42,
            "name": "Huron—Bruce"
          }
        ],
        "pollDivisionIds": [
          10138881
        ],
        "postalCode": "N7A2K9",
        "streetName": "WEST",
        "streetDirectionId": null,
        "streetTypeId": "ST",
        "placeName": "GODERICH",
        "streetNameDisplayText": "WEST ST, GODERICH"
      }
    ]
  },
  {
    "postal": "N7A3E5",
    "result": [
      {
        "electoralDistricts": [
          {
            "election": null,
            "id": 42,
            "name": "Huron—Bruce"
          }
        ],
        "pollDivisionIds": [
          10138883
        ],
        "postalCode": "N7A3E5",
        "streetName": "CAMBRIA",
        "streetDirectionId": "S",
        "streetTypeId": "RD",
        "placeName": "GODERICH",
        "streetNameDisplayText": "CAMBRIA RD S, GODERICH"
      }
    ]
  },
  {
    "postal": "N7A8N6",
    "result": []
  },
  {
    "postal": "N7A8J4",
    "result": []
  },
  {
    "postal": "N7A4R7",
    "result": []
  },
  {
    "postal": "N7A9K1",
    "result": []
  },
  {
    "postal": "N7A8E1",
    "result": []
  },
  {
    "postal": "N7A0R1",
    "result": []
  },
  {
    "postal": "N7A4J3",
    "result": []
  },
  {
    "postal": "N7A7E7",
    "result": []
  },
  {
    "postal": "N7A0J0",
    "result": []
  },
  {
    "postal": "N7A7R8",
    "result": []
  },
  {
    "postal": "N7A9X0",
    "result": []
  },
  {
    "postal": "N7A7P6",
    "result": []
  },
  {
    "postal": "N7A0R7",
    "result": []
  },
  {
    "postal": "N7A5W1",
    "result": []
  },
  {
    "postal": "N7A0K4",
    "result": []
  },
  {
    "postal": "N7A7N9",
    "result": []
  },
  {
    "postal": "N7A1N0",
    "result": []
  },
  {
    "postal": "N7A6P3",
    "result": []
  },
  {
    "postal": "N7A5A1",
    "result": []
  },
  {
    "postal": "N7A9M9",
    "result": []
  },
  {
    "postal": "N7A7T6",
    "result": []
  },
  {
    "postal": "N7A3X0",
    "result": []
  },
  {
    "postal": "N7A2T0",
    "result": []
  },
  {
    "postal": "N7A5X9",
    "result": []
  },
  {
    "postal": "N7A2R3",
    "result": [
      {
        "electoralDistricts": [
          {
            "election": null,
            "id": 42,
            "name": "Huron—Bruce"
          }
        ],
        "pollDivisionIds": [
          10138879
        ],
        "postalCode": "N7A2R3",
        "streetName": "CAMBRIA",
        "streetDirectionId": "N",
        "streetTypeId": "RD",
        "placeName": "GODERICH",
        "streetNameDisplayText": "CAMBRIA RD N, GODERICH"
      }
    ]
  },
  {
    "postal": "N7A5N2",
    "result": []
  },
  {
    "postal": "N7A4Y7",
    "result": []
  },
  {
    "postal": "N7A7M0",
    "result": []
  },
  {
    "postal": "N7A8P3",
    "result": []
  },
  {
    "postal": "N7A3N3",
    "result": [
      {
        "electoralDistricts": [
          {
            "election": null,
            "id": 42,
            "name": "Huron—Bruce"
          }
        ],
        "pollDivisionIds": [
          10138881
        ],
        "postalCode": "N7A3N3",
        "streetName": "BRITANNIA",
        "streetDirectionId": "E",
        "streetTypeId": "RD",
        "placeName": "GODERICH",
        "streetNameDisplayText": "BRITANNIA RD E, GODERICH"
      },
      {
        "electoralDistricts": [
          {
            "election": null,
            "id": 42,
            "name": "Huron—Bruce"
          }
        ],
        "pollDivisionIds": [
          10138881
        ],
        "postalCode": "N7A3N3",
        "streetName": "KEAYS",
        "streetDirectionId": null,
        "streetTypeId": "ST",
        "placeName": "GODERICH",
        "streetNameDisplayText": "KEAYS ST, GODERICH"
      }
    ]
  },
  {
    "postal": "N7A7S3",
    "result": []
  },
  {
    "postal": "N7A3V9",
    "result": [
      {
        "electoralDistricts": [
          {
            "election": null,
            "id": 42,
            "name": "Huron—Bruce"
          }
        ],
        "pollDivisionIds": [
          10138881
        ],
        "postalCode": "N7A3V9",
        "streetName": "WELLESLEY",
        "streetDirectionId": null,
        "streetTypeId": "ST",
        "placeName": "GODERICH",
        "streetNameDisplayText": "WELLESLEY ST, GODERICH"
      }
    ]
  },
  {
    "postal": "N7A9N7",
    "result": []
  },
  {
    "postal": "N7A0G4",
    "result": []
  },
  {
    "postal": "N7A2E2",
    "result": [
      {
        "electoralDistricts": [
          {
            "election": null,
            "id": 42,
            "name": "Huron—Bruce"
          }
        ],
        "pollDivisionIds": [
          10138882
        ],
        "postalCode": "N7A2E2",
        "streetName": "ELGIN",
        "streetDirectionId": "W",
        "streetTypeId": "AVE",
        "placeName": "GODERICH",
        "streetNameDisplayText": "ELGIN AVE W, GODERICH"
      }
    ]
  },
  {
    "postal": "N7A7W8",
    "result": []
  },
  {
    "postal": "N7A7M5",
    "result": []
  },
  {
    "postal": "N7A5W8",
    "result": []
  },
  {
    "postal": "N7A5E5",
    "result": []
  },
  {
    "postal": "N7A1P9",
    "result": [
      {
        "electoralDistricts": [
          {
            "election": null,
            "id": 42,
            "name": "Huron—Bruce"
          }
        ],
        "pollDivisionIds": [
          10138882
        ],
        "postalCode": "N7A1P9",
        "streetName": "HAMILTON",
        "streetDirectionId": null,
        "streetTypeId": "ST",
        "placeName": "GODERICH",
        "streetNameDisplayText": "HAMILTON ST, GODERICH"
      }
    ]
  },
  {
    "postal": "N7A8V8",
    "result": []
  },
  {
    "postal": "N7A9G8",
    "result": []
  },
  {
    "postal": "N7A8H9",
    "result": []
  },
  {
    "postal": "N7A1Z1",
    "result": [
      {
        "electoralDistricts": [
          {
            "election": null,
            "id": 42,
            "name": "Huron—Bruce"
          }
        ],
        "pollDivisionIds": [
          10138881
        ],
        "postalCode": "N7A1Z1",
        "streetName": "BLAKE",
        "streetDirectionId": "W",
        "streetTypeId": "ST",
        "placeName": "GODERICH",
        "streetNameDisplayText": "BLAKE ST W, GODERICH"
      }
    ]
  },
  {
    "postal": "N7A8M3",
    "result": []
  },
  {
    "postal": "N7A5H6",
    "result": []
  },
  {
    "postal": "N7A7W7",
    "result": []
  },
  {
    "postal": "N7A4L0",
    "result": []
  },
  {
    "postal": "N7A2N1",
    "result": [
      {
        "electoralDistricts": [
          {
            "election": null,
            "id": 42,
            "name": "Huron—Bruce"
          }
        ],
        "pollDivisionIds": [
          10138882
        ],
        "postalCode": "N7A2N1",
        "streetName": "MAITLAND",
        "streetDirectionId": "N",
        "streetTypeId": "RD",
        "placeName": "GODERICH",
        "streetNameDisplayText": "MAITLAND RD N, GODERICH"
      }
    ]
  },
  {
    "postal": "N7A2H4",
    "result": [
      {
        "electoralDistricts": [
          {
            "election": null,
            "id": 42,
            "name": "Huron—Bruce"
          }
        ],
        "pollDivisionIds": [
          10138881
        ],
        "postalCode": "N7A2H4",
        "streetName": "ESSEX",
        "streetDirectionId": null,
        "streetTypeId": "ST",
        "placeName": "GODERICH",
        "streetNameDisplayText": "ESSEX ST, GODERICH"
      }
    ]
  },
  {
    "postal": "N7A5C8",
    "result": []
  },
  {
    "postal": "N7A8B0",
    "result": []
  },
  {
    "postal": "N7A1T4",
    "result": [
      {
        "electoralDistricts": [
          {
            "election": null,
            "id": 42,
            "name": "Huron—Bruce"
          }
        ],
        "pollDivisionIds": [
          10138879
        ],
        "postalCode": "N7A1T4",
        "streetName": "TRAFALGAR",
        "streetDirectionId": null,
        "streetTypeId": "ST",
        "placeName": "GODERICH",
        "streetNameDisplayText": "TRAFALGAR ST, GODERICH"
      }
    ]
  },
  {
    "postal": "N7A7N7",
    "result": []
  },
  {
    "postal": "N7A4L3",
    "result": [
      {
        "electoralDistricts": [
          {
            "election": null,
            "id": 42,
            "name": "Huron—Bruce"
          }
        ],
        "pollDivisionIds": [
          10138883
        ],
        "postalCode": "N7A4L3",
        "streetName": "BALVINA",
        "streetDirectionId": "W",
        "streetTypeId": "DR",
        "placeName": "GODERICH",
        "streetNameDisplayText": "BALVINA DR W, GODERICH"
      },
      {
        "electoralDistricts": [
          {
            "election": null,
            "id": 42,
            "name": "Huron—Bruce"
          }
        ],
        "pollDivisionIds": [
          10138883
        ],
        "postalCode": "N7A4L3",
        "streetName": "LEE",
        "streetDirectionId": null,
        "streetTypeId": "CRES",
        "placeName": "GODERICH",
        "streetNameDisplayText": "LEE CRES, GODERICH"
      }
    ]
  },
  {
    "postal": "N7A2N2",
    "result": [
      {
        "electoralDistricts": [
          {
            "election": null,
            "id": 42,
            "name": "Huron—Bruce"
          }
        ],
        "pollDivisionIds": [
          10138882
        ],
        "postalCode": "N7A2N2",
        "streetName": "ALBERT",
        "streetDirectionId": "N",
        "streetTypeId": "ST",
        "placeName": "GODERICH",
        "streetNameDisplayText": "ALBERT ST N, GODERICH"
      }
    ]
  },
  {
    "postal": "N7A4N8",
    "result": [
      {
        "electoralDistricts": [
          {
            "election": null,
            "id": 42,
            "name": "Huron—Bruce"
          }
        ],
        "pollDivisionIds": [
          10138879
        ],
        "postalCode": "N7A4N8",
        "streetName": "CAMBRIA",
        "streetDirectionId": "N",
        "streetTypeId": "RD",
        "placeName": "GODERICH",
        "streetNameDisplayText": "CAMBRIA RD N, GODERICH"
      }
    ]
  },
  {
    "postal": "N7A3M5",
    "result": [
      {
        "electoralDistricts": [
          {
            "election": null,
            "id": 42,
            "name": "Huron—Bruce"
          }
        ],
        "pollDivisionIds": [
          10138881
        ],
        "postalCode": "N7A3M5",
        "streetName": "SOUTH",
        "streetDirectionId": null,
        "streetTypeId": "ST",
        "placeName": "GODERICH",
        "streetNameDisplayText": "SOUTH ST, GODERICH"
      }
    ]
  },
  {
    "postal": "N7A6H7",
    "result": []
  },
  {
    "postal": "N7A8Y8",
    "result": []
  },
  {
    "postal": "N7A5R9",
    "result": []
  },
  {
    "postal": "N7A8G3",
    "result": []
  },
  {
    "postal": "N7A4N7",
    "result": [
      {
        "electoralDistricts": [
          {
            "election": null,
            "id": 42,
            "name": "Huron—Bruce"
          }
        ],
        "pollDivisionIds": [
          10138883
        ],
        "postalCode": "N7A4N7",
        "streetName": "SUNCOAST",
        "streetDirectionId": "E",
        "streetTypeId": "DR",
        "placeName": "GODERICH",
        "streetNameDisplayText": "SUNCOAST DR E, GODERICH"
      }
    ]
  },
  {
    "postal": "N7A0B9",
    "result": []
  },
  {
    "postal": "N7A9K7",
    "result": []
  },
  {
    "postal": "N7A9K9",
    "result": []
  },
  {
    "postal": "N7A3Z2",
    "result": [
      {
        "electoralDistricts": [
          {
            "election": null,
            "id": 42,
            "name": "Huron—Bruce"
          }
        ],
        "pollDivisionIds": [
          10138883
        ],
        "postalCode": "N7A3Z2",
        "streetName": "GAIRBRAID",
        "streetDirectionId": null,
        "streetTypeId": "RD",
        "placeName": "GODERICH",
        "streetNameDisplayText": "GAIRBRAID RD, GODERICH"
      },
      {
        "electoralDistricts": [
          {
            "election": null,
            "id": 42,
            "name": "Huron—Bruce"
          }
        ],
        "pollDivisionIds": [
          10138879
        ],
        "postalCode": "N7A3Z2",
        "streetName": "NORTH HARBOUR",
        "streetDirectionId": "W",
        "streetTypeId": "RD",
        "placeName": "GODERICH",
        "streetNameDisplayText": "NORTH HARBOUR RD W, GODERICH"
      }
    ]
  },
  {
    "postal": "N7A6W7",
    "result": []
  },
  {
    "postal": "N7A0P1",
    "result": []
  },
  {
    "postal": "N7A3A0",
    "result": []
  },
  {
    "postal": "N7A8L9",
    "result": []
  },
  {
    "postal": "N7A6X0",
    "result": []
  },
  {
    "postal": "N7A3E9",
    "result": [
      {
        "electoralDistricts": [
          {
            "election": null,
            "id": 42,
            "name": "Huron—Bruce"
          }
        ],
        "pollDivisionIds": [
          10138883
        ],
        "postalCode": "N7A3E9",
        "streetName": "PALMERSTON",
        "streetDirectionId": null,
        "streetTypeId": "ST",
        "placeName": "GODERICH",
        "streetNameDisplayText": "PALMERSTON ST, GODERICH"
      }
    ]
  },
  {
    "postal": "N7A0S5",
    "result": []
  },
  {
    "postal": "N7A1A2",
    "result": [
      {
        "electoralDistricts": [
          {
            "election": null,
            "id": 42,
            "name": "Huron—Bruce"
          }
        ],
        "pollDivisionIds": [
          10138883
        ],
        "postalCode": "N7A1A2",
        "streetName": "BENNETT",
        "streetDirectionId": "E",
        "streetTypeId": "ST",
        "placeName": "GODERICH",
        "streetNameDisplayText": "BENNETT ST E, GODERICH"
      }
    ]
  },
  {
    "postal": "N7A5V8",
    "result": []
  },
  {
    "postal": "N7A8C5",
    "result": []
  },
  {
    "postal": "N7A6N0",
    "result": []
  },
  {
    "postal": "N7A9E6",
    "result": []
  },
  {
    "postal": "N7A5J7",
    "result": []
  },
  {
    "postal": "N7A2R2",
    "result": [
      {
        "electoralDistricts": [
          {
            "election": null,
            "id": 42,
            "name": "Huron—Bruce"
          }
        ],
        "pollDivisionIds": [
          10138879
        ],
        "postalCode": "N7A2R2",
        "streetName": "CAMBRIA",
        "streetDirectionId": "N",
        "streetTypeId": "RD",
        "placeName": "GODERICH",
        "streetNameDisplayText": "CAMBRIA RD N, GODERICH"
      }
    ]
  },
  {
    "postal": "N7A0P5",
    "result": []
  },
  {
    "postal": "N7A5A7",
    "result": []
  },
  {
    "postal": "N7A1G1",
    "result": [
      {
        "electoralDistricts": [
          {
            "election": null,
            "id": 42,
            "name": "Huron—Bruce"
          }
        ],
        "pollDivisionIds": [
          10138883
        ],
        "postalCode": "N7A1G1",
        "streetName": "OXFORD",
        "streetDirectionId": null,
        "streetTypeId": "ST",
        "placeName": "GODERICH",
        "streetNameDisplayText": "OXFORD ST, GODERICH"
      }
    ]
  },
  {
    "postal": "N7A9R6",
    "result": []
  },
  {
    "postal": "N7A4Z9",
    "result": []
  },
  {
    "postal": "N7A1V5",
    "result": [
      {
        "electoralDistricts": [
          {
            "election": null,
            "id": 42,
            "name": "Huron—Bruce"
          }
        ],
        "pollDivisionIds": [
          10138879
        ],
        "postalCode": "N7A1V5",
        "streetName": "ANGLESEA",
        "streetDirectionId": null,
        "streetTypeId": "ST",
        "placeName": "GODERICH",
        "streetNameDisplayText": "ANGLESEA ST, GODERICH"
      }
    ]
  },
  {
    "postal": "N7A9Y5",
    "result": []
  },
  {
    "postal": "N7A1P2",
    "result": [
      {
        "electoralDistricts": [
          {
            "election": null,
            "id": 42,
            "name": "Huron—Bruce"
          }
        ],
        "pollDivisionIds": [
          10138882
        ],
        "postalCode": "N7A1P2",
        "streetName": "NEWGATE",
        "streetDirectionId": null,
        "streetTypeId": "ST",
        "placeName": "GODERICH",
        "streetNameDisplayText": "NEWGATE ST, GODERICH"
      }
    ]
  },
  {
    "postal": "N7A5X0",
    "result": []
  },
  {
    "postal": "N7A7B8",
    "result": []
  },
  {
    "postal": "N7A0C6",
    "result": []
  },
  {
    "postal": "N7A6G1",
    "result": []
  },
  {
    "postal": "N7A3K3",
    "result": [
      {
        "electoralDistricts": [
          {
            "election": null,
            "id": 42,
            "name": "Huron—Bruce"
          }
        ],
        "pollDivisionIds": [
          10138883
        ],
        "postalCode": "N7A3K3",
        "streetName": "KINGSTON",
        "streetDirectionId": null,
        "streetTypeId": "ST",
        "placeName": "GODERICH",
        "streetNameDisplayText": "KINGSTON ST, GODERICH"
      }
    ]
  },
  {
    "postal": "N7A9R0",
    "result": []
  },
  {
    "postal": "N7A4R8",
    "result": []
  },
  {
    "postal": "N7A5P9",
    "result": []
  },
  {
    "postal": "N7A8N4",
    "result": []
  },
  {
    "postal": "N7A8H4",
    "result": []
  },
  {
    "postal": "N7A4V1",
    "result": []
  },
  {
    "postal": "N7A1K5",
    "result": [
      {
        "electoralDistricts": [
          {
            "election": null,
            "id": 42,
            "name": "Huron—Bruce"
          }
        ],
        "pollDivisionIds": [
          10138883
        ],
        "postalCode": "N7A1K5",
        "streetName": "ELGIN",
        "streetDirectionId": "E",
        "streetTypeId": "AVE",
        "placeName": "GODERICH",
        "streetNameDisplayText": "ELGIN AVE E, GODERICH"
      }
    ]
  },
  {
    "postal": "N7A1Z5",
    "result": []
  },
  {
    "postal": "N7A9L9",
    "result": []
  },
  {
    "postal": "N7A5L2",
    "result": []
  },
  {
    "postal": "N7A0M2",
    "result": []
  },
  {
    "postal": "N7A1K8",
    "result": [
      {
        "electoralDistricts": [
          {
            "election": null,
            "id": 42,
            "name": "Huron—Bruce"
          }
        ],
        "pollDivisionIds": [
          10138883
        ],
        "postalCode": "N7A1K8",
        "streetName": "PARK",
        "streetDirectionId": null,
        "streetTypeId": "ST",
        "placeName": "GODERICH",
        "streetNameDisplayText": "PARK ST, GODERICH"
      }
    ]
  },
  {
    "postal": "N7A3M7",
    "result": [
      {
        "electoralDistricts": [
          {
            "election": null,
            "id": 42,
            "name": "Huron—Bruce"
          }
        ],
        "pollDivisionIds": [
          10138883
        ],
        "postalCode": "N7A3M7",
        "streetName": "SOUTH",
        "streetDirectionId": null,
        "streetTypeId": "ST",
        "placeName": "GODERICH",
        "streetNameDisplayText": "SOUTH ST, GODERICH"
      }
    ]
  },
  {
    "postal": "N7A1B2",
    "result": [
      {
        "electoralDistricts": [
          {
            "election": null,
            "id": 42,
            "name": "Huron—Bruce"
          }
        ],
        "pollDivisionIds": [
          10138883
        ],
        "postalCode": "N7A1B2",
        "streetName": "MAPLE",
        "streetDirectionId": null,
        "streetTypeId": "ST",
        "placeName": "GODERICH",
        "streetNameDisplayText": "MAPLE ST, GODERICH"
      }
    ]
  },
  {
    "postal": "N7A0H9",
    "result": []
  },
  {
    "postal": "N7A8M4",
    "result": []
  },
  {
    "postal": "N7A2M5",
    "result": [
      {
        "electoralDistricts": [
          {
            "election": null,
            "id": 42,
            "name": "Huron—Bruce"
          }
        ],
        "pollDivisionIds": [
          10138879
        ],
        "postalCode": "N7A2M5",
        "streetName": "BRUCE",
        "streetDirectionId": "W",
        "streetTypeId": "ST",
        "placeName": "GODERICH",
        "streetNameDisplayText": "BRUCE ST W, GODERICH"
      }
    ]
  },
  {
    "postal": "N7A0T9",
    "result": []
  },
  {
    "postal": "N7A3P1",
    "result": [
      {
        "electoralDistricts": [
          {
            "election": null,
            "id": 42,
            "name": "Huron—Bruce"
          }
        ],
        "pollDivisionIds": [
          10138882
        ],
        "postalCode": "N7A3P1",
        "streetName": "WATERLOO",
        "streetDirectionId": "S",
        "streetTypeId": "ST",
        "placeName": "GODERICH",
        "streetNameDisplayText": "WATERLOO ST S, GODERICH"
      }
    ]
  },
  {
    "postal": "N7A1R6",
    "result": [
      {
        "electoralDistricts": [
          {
            "election": null,
            "id": 42,
            "name": "Huron—Bruce"
          }
        ],
        "pollDivisionIds": [
          10138882
        ],
        "postalCode": "N7A1R6",
        "streetName": "NELSON",
        "streetDirectionId": "E",
        "streetTypeId": "ST",
        "placeName": "GODERICH",
        "streetNameDisplayText": "NELSON ST E, GODERICH"
      }
    ]
  },
  {
    "postal": "N7A9V5",
    "result": []
  },
  {
    "postal": "N7A9T0",
    "result": []
  },
  {
    "postal": "N7A0A9",
    "result": []
  },
  {
    "postal": "N7A1M3",
    "result": [
      {
        "electoralDistricts": [
          {
            "election": null,
            "id": 42,
            "name": "Huron—Bruce"
          }
        ],
        "pollDivisionIds": [
          10138882
        ],
        "postalCode": "N7A1M3",
        "streetName": "COURT HOUSE",
        "streetDirectionId": null,
        "streetTypeId": "SQ",
        "placeName": "GODERICH",
        "streetNameDisplayText": "COURT HOUSE SQ, GODERICH"
      }
    ]
  },
  {
    "postal": "N7A1W8",
    "result": [
      {
        "electoralDistricts": [
          {
            "election": null,
            "id": 42,
            "name": "Huron—Bruce"
          }
        ],
        "pollDivisionIds": [
          10138879
        ],
        "postalCode": "N7A1W8",
        "streetName": "GLOUCESTER",
        "streetDirectionId": null,
        "streetTypeId": "TERR",
        "placeName": "GODERICH",
        "streetNameDisplayText": "GLOUCESTER TERR, GODERICH"
      }
    ]
  },
  {
    "postal": "N7A9J1",
    "result": []
  },
  {
    "postal": "N7A8N5",
    "result": []
  },
  {
    "postal": "N7A5X1",
    "result": []
  },
  {
    "postal": "N7A6S2",
    "result": []
  },
  {
    "postal": "N7A2A2",
    "result": [
      {
        "electoralDistricts": [
          {
            "election": null,
            "id": 42,
            "name": "Huron—Bruce"
          }
        ],
        "pollDivisionIds": [
          10138881
        ],
        "postalCode": "N7A2A2",
        "streetName": "CAYLEY",
        "streetDirectionId": null,
        "streetTypeId": "ST",
        "placeName": "GODERICH",
        "streetNameDisplayText": "CAYLEY ST, GODERICH"
      }
    ]
  },
  {
    "postal": "N7A6A6",
    "result": []
  },
  {
    "postal": "N7A0S3",
    "result": []
  },
  {
    "postal": "N7A3E7",
    "result": [
      {
        "electoralDistricts": [
          {
            "election": null,
            "id": 42,
            "name": "Huron—Bruce"
          }
        ],
        "pollDivisionIds": [
          10138883
        ],
        "postalCode": "N7A3E7",
        "streetName": "PALMERSTON",
        "streetDirectionId": null,
        "streetTypeId": "ST",
        "placeName": "GODERICH",
        "streetNameDisplayText": "PALMERSTON ST, GODERICH"
      }
    ]
  },
  {
    "postal": "N7A5R7",
    "result": []
  },
  {
    "postal": "N7A3R6",
    "result": [
      {
        "electoralDistricts": [
          {
            "election": null,
            "id": 42,
            "name": "Huron—Bruce"
          }
        ],
        "pollDivisionIds": [
          10138883
        ],
        "postalCode": "N7A3R6",
        "streetName": "OAK",
        "streetDirectionId": null,
        "streetTypeId": "ST",
        "placeName": "GODERICH",
        "streetNameDisplayText": "OAK ST, GODERICH"
      }
    ]
  },
  {
    "postal": "N7A6K4",
    "result": []
  },
  {
    "postal": "N7A2W5",
    "result": [
      {
        "electoralDistricts": [
          {
            "election": null,
            "id": 42,
            "name": "Huron—Bruce"
          }
        ],
        "pollDivisionIds": [
          10138882
        ],
        "postalCode": "N7A2W5",
        "streetName": "WATERLOO",
        "streetDirectionId": "N",
        "streetTypeId": "ST",
        "placeName": "GODERICH",
        "streetNameDisplayText": "WATERLOO ST N, GODERICH"
      }
    ]
  },
  {
    "postal": "N7A8W4",
    "result": []
  },
  {
    "postal": "N7A9C2",
    "result": []
  },
  {
    "postal": "N7A2C0",
    "result": []
  },
  {
    "postal": "N7A0E1",
    "result": []
  },
  {
    "postal": "N7A1K9",
    "result": [
      {
        "electoralDistricts": [
          {
            "election": null,
            "id": 42,
            "name": "Huron—Bruce"
          }
        ],
        "pollDivisionIds": [
          10138883
        ],
        "postalCode": "N7A1K9",
        "streetName": "PARK",
        "streetDirectionId": null,
        "streetTypeId": "ST",
        "placeName": "GODERICH",
        "streetNameDisplayText": "PARK ST, GODERICH"
      }
    ]
  },
  {
    "postal": "N7A1G7",
    "result": [
      {
        "electoralDistricts": [
          {
            "election": null,
            "id": 42,
            "name": "Huron—Bruce"
          }
        ],
        "pollDivisionIds": [
          10138883
        ],
        "postalCode": "N7A1G7",
        "streetName": "STONEHOUSE",
        "streetDirectionId": null,
        "streetTypeId": "ST",
        "placeName": "GODERICH",
        "streetNameDisplayText": "STONEHOUSE ST, GODERICH"
      }
    ]
  },
  {
    "postal": "N7A4E9",
    "result": [
      {
        "electoralDistricts": [
          {
            "election": null,
            "id": 42,
            "name": "Huron—Bruce"
          }
        ],
        "pollDivisionIds": [
          10138883
        ],
        "postalCode": "N7A4E9",
        "streetName": "BAYFIELD",
        "streetDirectionId": null,
        "streetTypeId": "RD",
        "placeName": "GODERICH",
        "streetNameDisplayText": "BAYFIELD RD, GODERICH"
      }
    ]
  },
  {
    "postal": "N7A9P0",
    "result": []
  },
  {
    "postal": "N7A5H3",
    "result": []
  },
  {
    "postal": "N7A9X6",
    "result": []
  },
  {
    "postal": "N7A5N7",
    "result": []
  },
  {
    "postal": "N7A5A6",
    "result": []
  },
  {
    "postal": "N7A4M0",
    "result": []
  },
  {
    "postal": "N7A3V6",
    "result": [
      {
        "electoralDistricts": [
          {
            "election": null,
            "id": 42,
            "name": "Huron—Bruce"
          }
        ],
        "pollDivisionIds": [
          10138881
        ],
        "postalCode": "N7A3V6",
        "streetName": "WELLESLEY",
        "streetDirectionId": null,
        "streetTypeId": "ST",
        "placeName": "GODERICH",
        "streetNameDisplayText": "WELLESLEY ST, GODERICH"
      }
    ]
  },
  {
    "postal": "N7A1L7",
    "result": [
      {
        "electoralDistricts": [
          {
            "election": null,
            "id": 42,
            "name": "Huron—Bruce"
          }
        ],
        "pollDivisionIds": [
          10138883
        ],
        "postalCode": "N7A1L7",
        "streetName": "ST DAVID",
        "streetDirectionId": null,
        "streetTypeId": "ST",
        "placeName": "GODERICH",
        "streetNameDisplayText": "ST DAVID ST, GODERICH"
      }
    ]
  },
  {
    "postal": "N7A2P9",
    "result": [
      {
        "electoralDistricts": [
          {
            "election": null,
            "id": 42,
            "name": "Huron—Bruce"
          }
        ],
        "pollDivisionIds": [
          10138879
        ],
        "postalCode": "N7A2P9",
        "streetName": "CAMBRIA",
        "streetDirectionId": "N",
        "streetTypeId": "RD",
        "placeName": "GODERICH",
        "streetNameDisplayText": "CAMBRIA RD N, GODERICH"
      }
    ]
  },
  {
    "postal": "N7A5T4",
    "result": []
  },
  {
    "postal": "N7A5Z1",
    "result": []
  },
  {
    "postal": "N7A2X0",
    "result": []
  },
  {
    "postal": "N7A6Z2",
    "result": []
  },
  {
    "postal": "N7A0E0",
    "result": []
  },
  {
    "postal": "N7A3Z5",
    "result": [
      {
        "electoralDistricts": [
          {
            "election": null,
            "id": 42,
            "name": "Huron—Bruce"
          }
        ],
        "pollDivisionIds": [
          10138883
        ],
        "postalCode": "N7A3Z5",
        "streetName": "CYPRESS",
        "streetDirectionId": null,
        "streetTypeId": "ST",
        "placeName": "GODERICH",
        "streetNameDisplayText": "CYPRESS ST, GODERICH"
      }
    ]
  },
  {
    "postal": "N7A8H3",
    "result": []
  },
  {
    "postal": "N7A7S6",
    "result": []
  },
  {
    "postal": "N7A4C1",
    "result": [
      {
        "electoralDistricts": [
          {
            "election": null,
            "id": 42,
            "name": "Huron—Bruce"
          }
        ],
        "pollDivisionIds": [
          10138883
        ],
        "postalCode": "N7A4C1",
        "streetName": "WALNUT",
        "streetDirectionId": "S",
        "streetTypeId": "ST",
        "placeName": "GODERICH",
        "streetNameDisplayText": "WALNUT ST S, GODERICH"
      }
    ]
  },
  {
    "postal": "N7A3K2",
    "result": [
      {
        "electoralDistricts": [
          {
            "election": null,
            "id": 42,
            "name": "Huron—Bruce"
          }
        ],
        "pollDivisionIds": [
          10138883
        ],
        "postalCode": "N7A3K2",
        "streetName": "KINGSTON",
        "streetDirectionId": null,
        "streetTypeId": "ST",
        "placeName": "GODERICH",
        "streetNameDisplayText": "KINGSTON ST, GODERICH"
      }
    ]
  },
  {
    "postal": "N7A1Y5",
    "result": [
      {
        "electoralDistricts": [
          {
            "election": null,
            "id": 42,
            "name": "Huron—Bruce"
          }
        ],
        "pollDivisionIds": [
          10138881
        ],
        "postalCode": "N7A1Y5",
        "streetName": "SHORE",
        "streetDirectionId": null,
        "streetTypeId": "CRES",
        "placeName": "GODERICH",
        "streetNameDisplayText": "SHORE CRES, GODERICH"
      }
    ]
  },
  {
    "postal": "N7A6P6",
    "result": []
  },
  {
    "postal": "N7A3N9",
    "result": [
      {
        "electoralDistricts": [
          {
            "election": null,
            "id": 42,
            "name": "Huron—Bruce"
          }
        ],
        "pollDivisionIds": [
          10138882
        ],
        "postalCode": "N7A3N9",
        "streetName": "WATERLOO",
        "streetDirectionId": "S",
        "streetTypeId": "ST",
        "placeName": "GODERICH",
        "streetNameDisplayText": "WATERLOO ST S, GODERICH"
      }
    ]
  },
  {
    "postal": "N7A3W2",
    "result": [
      {
        "electoralDistricts": [
          {
            "election": null,
            "id": 42,
            "name": "Huron—Bruce"
          }
        ],
        "pollDivisionIds": [
          10138881
        ],
        "postalCode": "N7A3W2",
        "streetName": "WELLESLEY",
        "streetDirectionId": null,
        "streetTypeId": "ST",
        "placeName": "GODERICH",
        "streetNameDisplayText": "WELLESLEY ST, GODERICH"
      }
    ]
  },
  {
    "postal": "N7A6H8",
    "result": []
  },
  {
    "postal": "N7A9T3",
    "result": []
  },
  {
    "postal": "N7A5L9",
    "result": []
  },
  {
    "postal": "N7A7X7",
    "result": []
  },
  {
    "postal": "N7A3J5",
    "result": [
      {
        "electoralDistricts": [
          {
            "election": null,
            "id": 42,
            "name": "Huron—Bruce"
          }
        ],
        "pollDivisionIds": [
          10138881
        ],
        "postalCode": "N7A3J5",
        "streetName": "GIBBONS",
        "streetDirectionId": null,
        "streetTypeId": "ST",
        "placeName": "GODERICH",
        "streetNameDisplayText": "GIBBONS ST, GODERICH"
      }
    ]
  },
  {
    "postal": "N7A4J5",
    "result": []
  },
  {
    "postal": "N7A6J2",
    "result": []
  },
  {
    "postal": "N7A5V6",
    "result": []
  },
  {
    "postal": "N7A3N2",
    "result": [
      {
        "electoralDistricts": [
          {
            "election": null,
            "id": 42,
            "name": "Huron—Bruce"
          }
        ],
        "pollDivisionIds": [
          10138881
        ],
        "postalCode": "N7A3N2",
        "streetName": "KEAYS",
        "streetDirectionId": null,
        "streetTypeId": "ST",
        "placeName": "GODERICH",
        "streetNameDisplayText": "KEAYS ST, GODERICH"
      }
    ]
  },
  {
    "postal": "N7A3B1",
    "result": [
      {
        "electoralDistricts": [
          {
            "election": null,
            "id": 42,
            "name": "Huron—Bruce"
          }
        ],
        "pollDivisionIds": [
          10138883
        ],
        "postalCode": "N7A3B1",
        "streetName": "MARY",
        "streetDirectionId": null,
        "streetTypeId": "ST",
        "placeName": "GODERICH",
        "streetNameDisplayText": "MARY ST, GODERICH"
      }
    ]
  },
  {
    "postal": "N7A8B5",
    "result": []
  },
  {
    "postal": "N7A0K1",
    "result": []
  },
  {
    "postal": "N7A7M7",
    "result": []
  },
  {
    "postal": "N7A2M2",
    "result": [
      {
        "electoralDistricts": [
          {
            "election": null,
            "id": 42,
            "name": "Huron—Bruce"
          }
        ],
        "pollDivisionIds": [
          10138882
        ],
        "postalCode": "N7A2M2",
        "streetName": "NELSON",
        "streetDirectionId": "W",
        "streetTypeId": "ST",
        "placeName": "GODERICH",
        "streetNameDisplayText": "NELSON ST W, GODERICH"
      }
    ]
  },
  {
    "postal": "N7A9N3",
    "result": []
  },
  {
    "postal": "N7A4Y8",
    "result": []
  },
  {
    "postal": "N7A3V7",
    "result": [
      {
        "electoralDistricts": [
          {
            "election": null,
            "id": 42,
            "name": "Huron—Bruce"
          }
        ],
        "pollDivisionIds": [
          10138881
        ],
        "postalCode": "N7A3V7",
        "streetName": "WELLESLEY",
        "streetDirectionId": null,
        "streetTypeId": "ST",
        "placeName": "GODERICH",
        "streetNameDisplayText": "WELLESLEY ST, GODERICH"
      }
    ]
  },
  {
    "postal": "N7A8Z1",
    "result": []
  },
  {
    "postal": "N7A7B3",
    "result": []
  },
  {
    "postal": "N7A3A8",
    "result": [
      {
        "electoralDistricts": [
          {
            "election": null,
            "id": 42,
            "name": "Huron—Bruce"
          }
        ],
        "pollDivisionIds": [
          10138883
        ],
        "postalCode": "N7A3A8",
        "streetName": "MARY",
        "streetDirectionId": null,
        "streetTypeId": "ST",
        "placeName": "GODERICH",
        "streetNameDisplayText": "MARY ST, GODERICH"
      }
    ]
  },
  {
    "postal": "N7A7V5",
    "result": []
  },
  {
    "postal": "N7A2T2",
    "result": [
      {
        "electoralDistricts": [
          {
            "election": null,
            "id": 42,
            "name": "Huron—Bruce"
          }
        ],
        "pollDivisionIds": [
          10138882
        ],
        "postalCode": "N7A2T2",
        "streetName": "ST. ANDREW",
        "streetDirectionId": null,
        "streetTypeId": "ST",
        "placeName": "GODERICH",
        "streetNameDisplayText": "ST. ANDREW ST, GODERICH"
      }
    ]
  },
  {
    "postal": "N7A6L3",
    "result": []
  },
  {
    "postal": "N7A0L2",
    "result": []
  },
  {
    "postal": "N7A5Y8",
    "result": []
  },
  {
    "postal": "N7A0B8",
    "result": []
  },
  {
    "postal": "N7A6R5",
    "result": []
  },
  {
    "postal": "N7A8W6",
    "result": []
  },
  {
    "postal": "N7A8G6",
    "result": []
  },
  {
    "postal": "N7A6X3",
    "result": []
  },
  {
    "postal": "N7A7R7",
    "result": []
  },
  {
    "postal": "N7A4B6",
    "result": []
  },
  {
    "postal": "N7A3P9",
    "result": [
      {
        "electoralDistricts": [
          {
            "election": null,
            "id": 42,
            "name": "Huron—Bruce"
          }
        ],
        "pollDivisionIds": [
          10138881
        ],
        "postalCode": "N7A3P9",
        "streetName": "CATHERINE",
        "streetDirectionId": null,
        "streetTypeId": "ST",
        "placeName": "GODERICH",
        "streetNameDisplayText": "CATHERINE ST, GODERICH"
      }
    ]
  },
  {
    "postal": "N7A2T3",
    "result": [
      {
        "electoralDistricts": [
          {
            "election": null,
            "id": 42,
            "name": "Huron—Bruce"
          }
        ],
        "pollDivisionIds": [
          10138882
        ],
        "postalCode": "N7A2T3",
        "streetName": "ST. ANDREW",
        "streetDirectionId": null,
        "streetTypeId": "ST",
        "placeName": "GODERICH",
        "streetNameDisplayText": "ST. ANDREW ST, GODERICH"
      }
    ]
  },
  {
    "postal": "N7A1M4",
    "result": [
      {
        "electoralDistricts": [
          {
            "election": null,
            "id": 42,
            "name": "Huron—Bruce"
          }
        ],
        "pollDivisionIds": [
          10138882
        ],
        "postalCode": "N7A1M4",
        "streetName": "COURT HOUSE",
        "streetDirectionId": null,
        "streetTypeId": "SQ",
        "placeName": "GODERICH",
        "streetNameDisplayText": "COURT HOUSE SQ, GODERICH"
      }
    ]
  },
  {
    "postal": "N7A0H1",
    "result": []
  },
  {
    "postal": "N7A9W3",
    "result": []
  },
  {
    "postal": "N7A6P1",
    "result": []
  },
  {
    "postal": "N7A7G2",
    "result": []
  },
  {
    "postal": "N7A4J9",
    "result": [
      {
        "electoralDistricts": [
          {
            "election": null,
            "id": 42,
            "name": "Huron—Bruce"
          }
        ],
        "pollDivisionIds": [
          10138883
        ],
        "postalCode": "N7A4J9",
        "streetName": "DOOLITTLE",
        "streetDirectionId": null,
        "streetTypeId": "LANE",
        "placeName": "GODERICH",
        "streetNameDisplayText": "DOOLITTLE LANE, GODERICH"
      }
    ]
  },
  {
    "postal": "N7A9E4",
    "result": []
  },
  {
    "postal": "N7A8H0",
    "result": []
  },
  {
    "postal": "N7A4M7",
    "result": [
      {
        "electoralDistricts": [
          {
            "election": null,
            "id": 42,
            "name": "Huron—Bruce"
          }
        ],
        "pollDivisionIds": [
          10138883
        ],
        "postalCode": "N7A4M7",
        "streetName": "BETHUNE",
        "streetDirectionId": null,
        "streetTypeId": "CRES",
        "placeName": "GODERICH",
        "streetNameDisplayText": "BETHUNE CRES, GODERICH"
      },
      {
        "electoralDistricts": [
          {
            "election": null,
            "id": 42,
            "name": "Huron—Bruce"
          }
        ],
        "pollDivisionIds": [
          10138883
        ],
        "postalCode": "N7A4M7",
        "streetName": "WARREN",
        "streetDirectionId": null,
        "streetTypeId": "ST",
        "placeName": "GODERICH",
        "streetNameDisplayText": "WARREN ST, GODERICH"
      }
    ]
  },
  {
    "postal": "N7A2G9",
    "result": [
      {
        "electoralDistricts": [
          {
            "election": null,
            "id": 42,
            "name": "Huron—Bruce"
          }
        ],
        "pollDivisionIds": [
          10138881
        ],
        "postalCode": "N7A2G9",
        "streetName": "QUEBEC",
        "streetDirectionId": null,
        "streetTypeId": "ST",
        "placeName": "GODERICH",
        "streetNameDisplayText": "QUEBEC ST, GODERICH"
      }
    ]
  },
  {
    "postal": "N7A8T2",
    "result": []
  },
  {
    "postal": "N7A7G7",
    "result": []
  },
  {
    "postal": "N7A4Z3",
    "result": []
  },
  {
    "postal": "N7A5B3",
    "result": []
  },
  {
    "postal": "N7A1S7",
    "result": [
      {
        "electoralDistricts": [
          {
            "election": null,
            "id": 42,
            "name": "Huron—Bruce"
          }
        ],
        "pollDivisionIds": [
          10138879
        ],
        "postalCode": "N7A1S7",
        "streetName": "BRUCE",
        "streetDirectionId": "E",
        "streetTypeId": "ST",
        "placeName": "GODERICH",
        "streetNameDisplayText": "BRUCE ST E, GODERICH"
      }
    ]
  },
  {
    "postal": "N7A2N7",
    "result": [
      {
        "electoralDistricts": [
          {
            "election": null,
            "id": 42,
            "name": "Huron—Bruce"
          }
        ],
        "pollDivisionIds": [
          10138882
        ],
        "postalCode": "N7A2N7",
        "streetName": "CAMBRIA",
        "streetDirectionId": "N",
        "streetTypeId": "RD",
        "placeName": "GODERICH",
        "streetNameDisplayText": "CAMBRIA RD N, GODERICH"
      }
    ]
  },
  {
    "postal": "N7A0H8",
    "result": []
  },
  {
    "postal": "N7A7Z4",
    "result": []
  },
  {
    "postal": "N7A7B1",
    "result": []
  },
  {
    "postal": "N7A7P8",
    "result": []
  },
  {
    "postal": "N7A7N0",
    "result": []
  },
  {
    "postal": "N7A3Y5",
    "result": [
      {
        "electoralDistricts": [
          {
            "election": null,
            "id": 42,
            "name": "Huron—Bruce"
          }
        ],
        "pollDivisionIds": [
          10138882
        ],
        "postalCode": "N7A3Y5",
        "streetName": "MILLAR",
        "streetDirectionId": null,
        "streetTypeId": "ST",
        "placeName": "GODERICH",
        "streetNameDisplayText": "MILLAR ST, GODERICH"
      },
      {
        "electoralDistricts": [
          {
            "election": null,
            "id": 42,
            "name": "Huron—Bruce"
          }
        ],
        "pollDivisionIds": [
          10138868
        ],
        "postalCode": "N7A3Y5",
        "streetName": "SOUTH",
        "streetDirectionId": null,
        "streetTypeId": "ST",
        "placeName": "GODERICH",
        "streetNameDisplayText": "SOUTH ST, GODERICH"
      }
    ]
  },
  {
    "postal": "N7A6K1",
    "result": []
  },
  {
    "postal": "N7A9X5",
    "result": []
  },
  {
    "postal": "N7A7S5",
    "result": []
  },
  {
    "postal": "N7A0A4",
    "result": [
      {
        "electoralDistricts": [
          {
            "election": null,
            "id": 42,
            "name": "Huron—Bruce"
          }
        ],
        "pollDivisionIds": [
          10138883
        ],
        "postalCode": "N7A0A4",
        "streetName": "MAITLAND",
        "streetDirectionId": "S",
        "streetTypeId": "RD",
        "placeName": "GODERICH",
        "streetNameDisplayText": "MAITLAND RD S, GODERICH"
      }
    ]
  },
  {
    "postal": "N7A4T5",
    "result": []
  },
  {
    "postal": "N7A5K1",
    "result": []
  },
  {
    "postal": "N7A0Z9",
    "result": []
  },
  {
    "postal": "N7A7T2",
    "result": []
  },
  {
    "postal": "N7A1L5",
    "result": [
      {
        "electoralDistricts": [
          {
            "election": null,
            "id": 42,
            "name": "Huron—Bruce"
          }
        ],
        "pollDivisionIds": [
          10138881
        ],
        "postalCode": "N7A1L5",
        "streetName": "KINGSTON",
        "streetDirectionId": null,
        "streetTypeId": "ST",
        "placeName": "GODERICH",
        "streetNameDisplayText": "KINGSTON ST, GODERICH"
      },
      {
        "electoralDistricts": [
          {
            "election": null,
            "id": 42,
            "name": "Huron—Bruce"
          }
        ],
        "pollDivisionIds": [
          10138883
        ],
        "postalCode": "N7A1L5",
        "streetName": "ST DAVID",
        "streetDirectionId": null,
        "streetTypeId": "ST",
        "placeName": "GODERICH",
        "streetNameDisplayText": "ST DAVID ST, GODERICH"
      }
    ]
  },
  {
    "postal": "N7A3N5",
    "result": [
      {
        "electoralDistricts": [
          {
            "election": null,
            "id": 42,
            "name": "Huron—Bruce"
          }
        ],
        "pollDivisionIds": [
          10138881
        ],
        "postalCode": "N7A3N5",
        "streetName": "MCDONALD",
        "streetDirectionId": null,
        "streetTypeId": "ST",
        "placeName": "GODERICH",
        "streetNameDisplayText": "MCDONALD ST, GODERICH"
      }
    ]
  },
  {
    "postal": "N7A6H4",
    "result": []
  },
  {
    "postal": "N7A5A5",
    "result": []
  },
  {
    "postal": "N7A3R9",
    "result": [
      {
        "electoralDistricts": [
          {
            "election": null,
            "id": 42,
            "name": "Huron—Bruce"
          }
        ],
        "pollDivisionIds": [
          10138881
        ],
        "postalCode": "N7A3R9",
        "streetName": "ELDON",
        "streetDirectionId": null,
        "streetTypeId": "ST",
        "placeName": "GODERICH",
        "streetNameDisplayText": "ELDON ST, GODERICH"
      }
    ]
  },
  {
    "postal": "N7A7L8",
    "result": []
  },
  {
    "postal": "N7A6T6",
    "result": []
  },
  {
    "postal": "N7A7Y7",
    "result": []
  },
  {
    "postal": "N7A3M8",
    "result": [
      {
        "electoralDistricts": [
          {
            "election": null,
            "id": 42,
            "name": "Huron—Bruce"
          }
        ],
        "pollDivisionIds": [
          10138868,
          10138882
        ],
        "postalCode": "N7A3M8",
        "streetName": "MARKET",
        "streetDirectionId": null,
        "streetTypeId": "ST",
        "placeName": "GODERICH",
        "streetNameDisplayText": "MARKET ST, GODERICH"
      }
    ]
  },
  {
    "postal": "N7A2E0",
    "result": []
  },
  {
    "postal": "N7A4B5",
    "result": [
      {
        "electoralDistricts": [
          {
            "election": null,
            "id": 42,
            "name": "Huron—Bruce"
          }
        ],
        "pollDivisionIds": [
          10138881
        ],
        "postalCode": "N7A4B5",
        "streetName": "RICH",
        "streetDirectionId": null,
        "streetTypeId": "ST",
        "placeName": "GODERICH",
        "streetNameDisplayText": "RICH ST, GODERICH"
      }
    ]
  },
  {
    "postal": "N7A1J3",
    "result": []
  },
  {
    "postal": "N7A5S6",
    "result": []
  },
  {
    "postal": "N7A8P7",
    "result": []
  },
  {
    "postal": "N7A7S7",
    "result": []
  },
  {
    "postal": "N7A4C2",
    "result": [
      {
        "electoralDistricts": [
          {
            "election": null,
            "id": 42,
            "name": "Huron—Bruce"
          }
        ],
        "pollDivisionIds": [
          10138883
        ],
        "postalCode": "N7A4C2",
        "streetName": "DAWNROSE",
        "streetDirectionId": null,
        "streetTypeId": "DR",
        "placeName": "GODERICH",
        "streetNameDisplayText": "DAWNROSE DR, GODERICH"
      }
    ]
  },
  {
    "postal": "N7A5Y0",
    "result": []
  },
  {
    "postal": "N7A2V7",
    "result": [
      {
        "electoralDistricts": [
          {
            "election": null,
            "id": 42,
            "name": "Huron—Bruce"
          }
        ],
        "pollDivisionIds": [
          10138882
        ],
        "postalCode": "N7A2V7",
        "streetName": "COLBORNE",
        "streetDirectionId": null,
        "streetTypeId": "ST",
        "placeName": "GODERICH",
        "streetNameDisplayText": "COLBORNE ST, GODERICH"
      }
    ]
  },
  {
    "postal": "N7A8P5",
    "result": []
  },
  {
    "postal": "N7A5P5",
    "result": []
  },
  {
    "postal": "N7A5Z0",
    "result": []
  },
  {
    "postal": "N7A9B0",
    "result": []
  },
  {
    "postal": "N7A1L0",
    "result": []
  },
  {
    "postal": "N7A0B5",
    "result": [
      {
        "electoralDistricts": [
          {
            "election": null,
            "id": 42,
            "name": "Huron—Bruce"
          }
        ],
        "pollDivisionIds": [
          10138881,
          10138883
        ],
        "postalCode": "N7A0B5",
        "streetName": "THE",
        "streetDirectionId": null,
        "streetTypeId": "WAY",
        "placeName": "GODERICH",
        "streetNameDisplayText": "THE WAY, GODERICH"
      }
    ]
  },
  {
    "postal": "N7A3L2",
    "result": [
      {
        "electoralDistricts": [
          {
            "election": null,
            "id": 42,
            "name": "Huron—Bruce"
          }
        ],
        "pollDivisionIds": [
          10138881
        ],
        "postalCode": "N7A3L2",
        "streetName": "CAMERON",
        "streetDirectionId": null,
        "streetTypeId": "ST",
        "placeName": "GODERICH",
        "streetNameDisplayText": "CAMERON ST, GODERICH"
      }
    ]
  },
  {
    "postal": "N7A3B7",
    "result": [
      {
        "electoralDistricts": [
          {
            "election": null,
            "id": 42,
            "name": "Huron—Bruce"
          }
        ],
        "pollDivisionIds": [
          10138883
        ],
        "postalCode": "N7A3B7",
        "streetName": "JONES",
        "streetDirectionId": null,
        "streetTypeId": "ST",
        "placeName": "GODERICH",
        "streetNameDisplayText": "JONES ST, GODERICH"
      }
    ]
  },
  {
    "postal": "N7A8L1",
    "result": []
  },
  {
    "postal": "N7A5M4",
    "result": []
  },
  {
    "postal": "N7A4G9",
    "result": [
      {
        "electoralDistricts": [
          {
            "election": null,
            "id": 42,
            "name": "Huron—Bruce"
          }
        ],
        "pollDivisionIds": [
          10138883
        ],
        "postalCode": "N7A4G9",
        "streetName": "WARREN",
        "streetDirectionId": null,
        "streetTypeId": "ST",
        "placeName": "GODERICH",
        "streetNameDisplayText": "WARREN ST, GODERICH"
      }
    ]
  },
  {
    "postal": "N7A0P0",
    "result": []
  },
  {
    "postal": "N7A8G2",
    "result": []
  },
  {
    "postal": "N7A1V9",
    "result": []
  },
  {
    "postal": "N7A8N8",
    "result": []
  },
  {
    "postal": "N7A6S8",
    "result": []
  },
  {
    "postal": "N7A8H2",
    "result": []
  },
  {
    "postal": "N7A5R8",
    "result": []
  },
  {
    "postal": "N7A5L4",
    "result": []
  },
  {
    "postal": "N7A9E1",
    "result": []
  },
  {
    "postal": "N7A1C4",
    "result": [
      {
        "electoralDistricts": [
          {
            "election": null,
            "id": 42,
            "name": "Huron—Bruce"
          }
        ],
        "pollDivisionIds": [
          10138883
        ],
        "postalCode": "N7A1C4",
        "streetName": "WALNUT",
        "streetDirectionId": null,
        "streetTypeId": "ST",
        "placeName": "GODERICH",
        "streetNameDisplayText": "WALNUT ST, GODERICH"
      }
    ]
  },
  {
    "postal": "N7A8W5",
    "result": []
  },
  {
    "postal": "N7A1Y4",
    "result": [
      {
        "electoralDistricts": [
          {
            "election": null,
            "id": 42,
            "name": "Huron—Bruce"
          }
        ],
        "pollDivisionIds": [
          10138881
        ],
        "postalCode": "N7A1Y4",
        "streetName": "SHORE",
        "streetDirectionId": null,
        "streetTypeId": "CRES",
        "placeName": "GODERICH",
        "streetNameDisplayText": "SHORE CRES, GODERICH"
      }
    ]
  },
  {
    "postal": "N7A1C0",
    "result": []
  },
  {
    "postal": "N7A2J2",
    "result": [
      {
        "electoralDistricts": [
          {
            "election": null,
            "id": 42,
            "name": "Huron—Bruce"
          }
        ],
        "pollDivisionIds": [
          10138881
        ],
        "postalCode": "N7A2J2",
        "streetName": "COBOURG",
        "streetDirectionId": null,
        "streetTypeId": "ST",
        "placeName": "GODERICH",
        "streetNameDisplayText": "COBOURG ST, GODERICH"
      }
    ]
  },
  {
    "postal": "N7A2J0",
    "result": []
  },
  {
    "postal": "N7A7A3",
    "result": []
  },
  {
    "postal": "N7A8M1",
    "result": []
  },
  {
    "postal": "N7A7T9",
    "result": []
  },
  {
    "postal": "N7A6C0",
    "result": []
  },
  {
    "postal": "N7A7X1",
    "result": []
  },
  {
    "postal": "N7A0G1",
    "result": []
  },
  {
    "postal": "N7A4X2",
    "result": []
  },
  {
    "postal": "N7A0N6",
    "result": []
  },
  {
    "postal": "N7A8E3",
    "result": []
  },
  {
    "postal": "N7A5S8",
    "result": []
  },
  {
    "postal": "N7A0R0",
    "result": []
  },
  {
    "postal": "N7A6J6",
    "result": []
  },
  {
    "postal": "N7A4B4",
    "result": [
      {
        "electoralDistricts": [
          {
            "election": null,
            "id": 42,
            "name": "Huron—Bruce"
          }
        ],
        "pollDivisionIds": [
          10138883
        ],
        "postalCode": "N7A4B4",
        "streetName": "SUNCOAST",
        "streetDirectionId": "E",
        "streetTypeId": "DR",
        "placeName": "GODERICH",
        "streetNameDisplayText": "SUNCOAST DR E, GODERICH"
      }
    ]
  },
  {
    "postal": "N7A7E3",
    "result": []
  },
  {
    "postal": "N7A3N6",
    "result": [
      {
        "electoralDistricts": [
          {
            "election": null,
            "id": 42,
            "name": "Huron—Bruce"
          }
        ],
        "pollDivisionIds": [
          10138881
        ],
        "postalCode": "N7A3N6",
        "streetName": "MCDONALD",
        "streetDirectionId": null,
        "streetTypeId": "ST",
        "placeName": "GODERICH",
        "streetNameDisplayText": "MCDONALD ST, GODERICH"
      }
    ]
  },
  {
    "postal": "N7A3X6",
    "result": [
      {
        "electoralDistricts": [
          {
            "election": null,
            "id": 42,
            "name": "Huron—Bruce"
          }
        ],
        "pollDivisionIds": [
          10138883
        ],
        "postalCode": "N7A3X6",
        "streetName": "LAKESIDE",
        "streetDirectionId": null,
        "streetTypeId": "DR",
        "placeName": "GODERICH",
        "streetNameDisplayText": "LAKESIDE DR, GODERICH"
      }
    ]
  },
  {
    "postal": "N7A8L0",
    "result": []
  },
  {
    "postal": "N7A8N1",
    "result": []
  },
  {
    "postal": "N7A4J0",
    "result": []
  },
  {
    "postal": "N7A0X7",
    "result": []
  },
  {
    "postal": "N7A6S4",
    "result": []
  },
  {
    "postal": "N7A0Z0",
    "result": []
  },
  {
    "postal": "N7A9X8",
    "result": []
  },
  {
    "postal": "N7A3H3",
    "result": [
      {
        "electoralDistricts": [
          {
            "election": null,
            "id": 42,
            "name": "Huron—Bruce"
          }
        ],
        "pollDivisionIds": [
          10138883
        ],
        "postalCode": "N7A3H3",
        "streetName": "VICTORIA",
        "streetDirectionId": "S",
        "streetTypeId": "ST",
        "placeName": "GODERICH",
        "streetNameDisplayText": "VICTORIA ST S, GODERICH"
      }
    ]
  },
  {
    "postal": "N7A7S2",
    "result": []
  },
  {
    "postal": "N7A3T3",
    "result": [
      {
        "electoralDistricts": [
          {
            "election": null,
            "id": 42,
            "name": "Huron—Bruce"
          }
        ],
        "pollDivisionIds": [
          10138881,
          10138884
        ],
        "postalCode": "N7A3T3",
        "streetName": "WELLINGTON",
        "streetDirectionId": "S",
        "streetTypeId": "ST",
        "placeName": "GODERICH",
        "streetNameDisplayText": "WELLINGTON ST S, GODERICH"
      }
    ]
  },
  {
    "postal": "N7A9P3",
    "result": []
  },
  {
    "postal": "N7A4H8",
    "result": [
      {
        "electoralDistricts": [
          {
            "election": null,
            "id": 42,
            "name": "Huron—Bruce"
          }
        ],
        "pollDivisionIds": [
          10138883
        ],
        "postalCode": "N7A4H8",
        "streetName": "SUNCOAST",
        "streetDirectionId": "E",
        "streetTypeId": "DR",
        "placeName": "GODERICH",
        "streetNameDisplayText": "SUNCOAST DR E, GODERICH"
      }
    ]
  },
  {
    "postal": "N7A6R1",
    "result": []
  },
  {
    "postal": "N7A1S0",
    "result": []
  },
  {
    "postal": "N7A3W8",
    "result": [
      {
        "electoralDistricts": [
          {
            "election": null,
            "id": 42,
            "name": "Huron—Bruce"
          }
        ],
        "pollDivisionIds": [
          10138881
        ],
        "postalCode": "N7A3W8",
        "streetName": "WARREN",
        "streetDirectionId": null,
        "streetTypeId": "ST",
        "placeName": "GODERICH",
        "streetNameDisplayText": "WARREN ST, GODERICH"
      }
    ]
  },
  {
    "postal": "N7A4S3",
    "result": []
  },
  {
    "postal": "N7A1B6",
    "result": [
      {
        "electoralDistricts": [
          {
            "election": null,
            "id": 42,
            "name": "Huron—Bruce"
          }
        ],
        "pollDivisionIds": [
          10138883
        ],
        "postalCode": "N7A1B6",
        "streetName": "MAPLE",
        "streetDirectionId": null,
        "streetTypeId": "ST",
        "placeName": "GODERICH",
        "streetNameDisplayText": "MAPLE ST, GODERICH"
      }
    ]
  },
  {
    "postal": "N7A8R3",
    "result": []
  },
  {
    "postal": "N7A4V9",
    "result": []
  },
  {
    "postal": "N7A9W4",
    "result": []
  },
  {
    "postal": "N7A3T4",
    "result": [
      {
        "electoralDistricts": [
          {
            "election": null,
            "id": 42,
            "name": "Huron—Bruce"
          }
        ],
        "pollDivisionIds": [
          10138881
        ],
        "postalCode": "N7A3T4",
        "streetName": "WELLINGTON",
        "streetDirectionId": "S",
        "streetTypeId": "ST",
        "placeName": "GODERICH",
        "streetNameDisplayText": "WELLINGTON ST S, GODERICH"
      }
    ]
  },
  {
    "postal": "N7A5C7",
    "result": []
  },
  {
    "postal": "N7A3Y1",
    "result": [
      {
        "electoralDistricts": [
          {
            "election": null,
            "id": 42,
            "name": "Huron—Bruce"
          }
        ],
        "pollDivisionIds": [
          10138883
        ],
        "postalCode": "N7A3Y1",
        "streetName": "BENMILLER",
        "streetDirectionId": null,
        "streetTypeId": "LINE",
        "placeName": "CLINTON",
        "streetNameDisplayText": "BENMILLER LINE, CLINTON"
      },
      {
        "electoralDistricts": [
          {
            "election": null,
            "id": 42,
            "name": "Huron—Bruce"
          }
        ],
        "pollDivisionIds": [
          10138882
        ],
        "postalCode": "N7A3Y1",
        "streetName": "BENMILLER",
        "streetDirectionId": null,
        "streetTypeId": "LINE",
        "placeName": "GODERICH",
        "streetNameDisplayText": "BENMILLER LINE, GODERICH"
      },
      {
        "electoralDistricts": [
          {
            "election": null,
            "id": 42,
            "name": "Huron—Bruce"
          }
        ],
        "pollDivisionIds": [
          10138882
        ],
        "postalCode": "N7A3Y1",
        "streetName": "BISSET'S",
        "streetDirectionId": null,
        "streetTypeId": "HILL",
        "placeName": "GODERICH",
        "streetNameDisplayText": "BISSET'S HILL, GODERICH"
      },
      {
        "electoralDistricts": [
          {
            "election": null,
            "id": 42,
            "name": "Huron—Bruce"
          }
        ],
        "pollDivisionIds": [
          10138882
        ],
        "postalCode": "N7A3Y1",
        "streetName": "BISSETTS",
        "streetDirectionId": null,
        "streetTypeId": "HILL",
        "placeName": "GODERICH",
        "streetNameDisplayText": "BISSETTS HILL, GODERICH"
      },
      {
        "electoralDistricts": [
          {
            "election": null,
            "id": 42,
            "name": "Huron—Bruce"
          }
        ],
        "pollDivisionIds": [
          10138882
        ],
        "postalCode": "N7A3Y1",
        "streetName": "BLACK HOLE",
        "streetDirectionId": null,
        "streetTypeId": "RD",
        "placeName": "GODERICH",
        "streetNameDisplayText": "BLACK HOLE RD, GODERICH"
      },
      {
        "electoralDistricts": [
          {
            "election": null,
            "id": 42,
            "name": "Huron—Bruce"
          }
        ],
        "pollDivisionIds": [
          10138882
        ],
        "postalCode": "N7A3Y1",
        "streetName": "BRINERY",
        "streetDirectionId": null,
        "streetTypeId": "RD",
        "placeName": "GODERICH",
        "streetNameDisplayText": "BRINERY RD, GODERICH"
      },
      {
        "electoralDistricts": [
          {
            "election": null,
            "id": 42,
            "name": "Huron—Bruce"
          }
        ],
        "pollDivisionIds": [
          10138875,
          10138882
        ],
        "postalCode": "N7A3Y1",
        "streetName": "C.P.",
        "streetDirectionId": null,
        "streetTypeId": "LINE",
        "placeName": "GODERICH",
        "streetNameDisplayText": "C.P. LINE, GODERICH"
      },
      {
        "electoralDistricts": [
          {
            "election": null,
            "id": 42,
            "name": "Huron—Bruce"
          }
        ],
        "pollDivisionIds": [
          10138882
        ],
        "postalCode": "N7A3Y1",
        "streetName": "CHERRYDALE",
        "streetDirectionId": null,
        "streetTypeId": "RD",
        "placeName": "GODERICH",
        "streetNameDisplayText": "CHERRYDALE RD, GODERICH"
      },
      {
        "electoralDistricts": [
          {
            "election": null,
            "id": 42,
            "name": "Huron—Bruce"
          }
        ],
        "pollDivisionIds": [
          10138882
        ],
        "postalCode": "N7A3Y1",
        "streetName": "COLBORNE",
        "streetDirectionId": null,
        "streetTypeId": "PL",
        "placeName": "GODERICH",
        "streetNameDisplayText": "COLBORNE PL, GODERICH"
      },
      {
        "electoralDistricts": [
          {
            "election": null,
            "id": 42,
            "name": "Huron—Bruce"
          }
        ],
        "pollDivisionIds": [
          10138868
        ],
        "postalCode": "N7A3Y1",
        "streetName": "COLBORNE",
        "streetDirectionId": "N",
        "streetTypeId": "ST",
        "placeName": "GODERICH",
        "streetNameDisplayText": "COLBORNE ST N, GODERICH"
      },
      {
        "electoralDistricts": [
          {
            "election": null,
            "id": 42,
            "name": "Huron—Bruce"
          }
        ],
        "pollDivisionIds": [
          10138882
        ],
        "postalCode": "N7A3Y1",
        "streetName": "COLBORNE",
        "streetDirectionId": null,
        "streetTypeId": "ST",
        "placeName": "GODERICH",
        "streetNameDisplayText": "COLBORNE ST, GODERICH"
      },
      {
        "electoralDistricts": [
          {
            "election": null,
            "id": 42,
            "name": "Huron—Bruce"
          }
        ],
        "pollDivisionIds": [
          10138882
        ],
        "postalCode": "N7A3Y1",
        "streetName": "DUNLOP",
        "streetDirectionId": null,
        "streetTypeId": "DR",
        "placeName": "GODERICH",
        "streetNameDisplayText": "DUNLOP DR, GODERICH"
      },
      {
        "electoralDistricts": [
          {
            "election": null,
            "id": 42,
            "name": "Huron—Bruce"
          }
        ],
        "pollDivisionIds": [
          10138887
        ],
        "postalCode": "N7A3Y1",
        "streetName": "DUNLOP",
        "streetDirectionId": null,
        "streetTypeId": "ST",
        "placeName": "CLINTON",
        "streetNameDisplayText": "DUNLOP ST, CLINTON"
      },
      {
        "electoralDistricts": [
          {
            "election": null,
            "id": 42,
            "name": "Huron—Bruce"
          }
        ],
        "pollDivisionIds": [
          10138882
        ],
        "postalCode": "N7A3Y1",
        "streetName": "FALLS RESERVE",
        "streetDirectionId": null,
        "streetTypeId": "LINE",
        "placeName": "GODERICH",
        "streetNameDisplayText": "FALLS RESERVE LINE, GODERICH"
      },
      {
        "electoralDistricts": [
          {
            "election": null,
            "id": 42,
            "name": "Huron—Bruce"
          }
        ],
        "pollDivisionIds": [
          10138882
        ],
        "postalCode": "N7A3Y1",
        "streetName": "FERN",
        "streetDirectionId": null,
        "streetTypeId": "DR",
        "placeName": "GODERICH",
        "streetNameDisplayText": "FERN DR, GODERICH"
      },
      {
        "electoralDistricts": [
          {
            "election": null,
            "id": 42,
            "name": "Huron—Bruce"
          }
        ],
        "pollDivisionIds": [
          10138882
        ],
        "postalCode": "N7A3Y1",
        "streetName": "GALT",
        "streetDirectionId": null,
        "streetTypeId": "PL",
        "placeName": "ASHFIELD-COLBORNE-WAWANOSH",
        "streetNameDisplayText": "GALT PL, ASHFIELD-COLBORNE-WAWANOSH"
      },
      {
        "electoralDistricts": [
          {
            "election": null,
            "id": 42,
            "name": "Huron—Bruce"
          }
        ],
        "pollDivisionIds": [
          10138882
        ],
        "postalCode": "N7A3Y1",
        "streetName": "GALT",
        "streetDirectionId": null,
        "streetTypeId": "PL",
        "placeName": "GODERICH",
        "streetNameDisplayText": "GALT PL, GODERICH"
      },
      {
        "electoralDistricts": [
          {
            "election": null,
            "id": 42,
            "name": "Huron—Bruce"
          }
        ],
        "pollDivisionIds": [
          10138882
        ],
        "postalCode": "N7A3Y1",
        "streetName": "GLEDHILL",
        "streetDirectionId": null,
        "streetTypeId": "LANE",
        "placeName": "GODERICH",
        "streetNameDisplayText": "GLEDHILL LANE, GODERICH"
      },
      {
        "electoralDistricts": [
          {
            "election": null,
            "id": 42,
            "name": "Huron—Bruce"
          }
        ],
        "pollDivisionIds": [
          10138882
        ],
        "postalCode": "N7A3Y1",
        "streetName": "GRIST MILL",
        "streetDirectionId": null,
        "streetTypeId": "LINE",
        "placeName": "GODERICH",
        "streetNameDisplayText": "GRIST MILL LINE, GODERICH"
      },
      {
        "electoralDistricts": [
          {
            "election": null,
            "id": 42,
            "name": "Huron—Bruce"
          }
        ],
        "pollDivisionIds": [
          10138875
        ],
        "postalCode": "N7A3Y1",
        "streetName": "HILLS",
        "streetDirectionId": null,
        "streetTypeId": "RD",
        "placeName": "GODERICH",
        "streetNameDisplayText": "HILLS RD, GODERICH"
      },
      {
        "electoralDistricts": [
          {
            "election": null,
            "id": 42,
            "name": "Huron—Bruce"
          }
        ],
        "pollDivisionIds": [
          10138882
        ],
        "postalCode": "N7A3Y1",
        "streetName": "IVEY",
        "streetDirectionId": null,
        "streetTypeId": "RD",
        "placeName": "GODERICH",
        "streetNameDisplayText": "IVEY RD, GODERICH"
      },
      {
        "electoralDistricts": [
          {
            "election": null,
            "id": 42,
            "name": "Huron—Bruce"
          }
        ],
        "pollDivisionIds": [
          10138875,
          10138882
        ],
        "postalCode": "N7A3Y1",
        "streetName": "LITTLE LAKES",
        "streetDirectionId": null,
        "streetTypeId": "RD",
        "placeName": "GODERICH",
        "streetNameDisplayText": "LITTLE LAKES RD, GODERICH"
      },
      {
        "electoralDistricts": [
          {
            "election": null,
            "id": 42,
            "name": "Huron—Bruce"
          }
        ],
        "pollDivisionIds": [
          10138882
        ],
        "postalCode": "N7A3Y1",
        "streetName": "LONDESBORO",
        "streetDirectionId": null,
        "streetTypeId": "RD",
        "placeName": "GODERICH",
        "streetNameDisplayText": "LONDESBORO RD, GODERICH"
      },
      {
        "electoralDistricts": [
          {
            "election": null,
            "id": 42,
            "name": "Huron—Bruce"
          }
        ],
        "pollDivisionIds": [
          10138882,
          10138875
        ],
        "postalCode": "N7A3Y1",
        "streetName": "LUCKNOW",
        "streetDirectionId": null,
        "streetTypeId": "LINE",
        "placeName": "GODERICH",
        "streetNameDisplayText": "LUCKNOW LINE, GODERICH"
      },
      {
        "electoralDistricts": [
          {
            "election": null,
            "id": 42,
            "name": "Huron—Bruce"
          }
        ],
        "pollDivisionIds": [
          10138882
        ],
        "postalCode": "N7A3Y1",
        "streetName": "MAIN",
        "streetDirectionId": null,
        "streetTypeId": "ST",
        "placeName": "GODERICH",
        "streetNameDisplayText": "MAIN ST, GODERICH"
      },
      {
        "electoralDistricts": [
          {
            "election": null,
            "id": 42,
            "name": "Huron—Bruce"
          }
        ],
        "pollDivisionIds": [
          10138882
        ],
        "postalCode": "N7A3Y1",
        "streetName": "MAITLAND",
        "streetDirectionId": null,
        "streetTypeId": "AVE",
        "placeName": "GODERICH",
        "streetNameDisplayText": "MAITLAND AVE, GODERICH"
      },
      {
        "electoralDistricts": [
          {
            "election": null,
            "id": 42,
            "name": "Huron—Bruce"
          }
        ],
        "pollDivisionIds": [
          10138882
        ],
        "postalCode": "N7A3Y1",
        "streetName": "MILLAR",
        "streetDirectionId": null,
        "streetTypeId": "ST",
        "placeName": "GODERICH",
        "streetNameDisplayText": "MILLAR ST, GODERICH"
      },
      {
        "electoralDistricts": [
          {
            "election": null,
            "id": 42,
            "name": "Huron—Bruce"
          }
        ],
        "pollDivisionIds": [
          10138875,
          10138882
        ],
        "postalCode": "N7A3Y1",
        "streetName": "MORRIS TRACT",
        "streetDirectionId": null,
        "streetTypeId": "LINE",
        "placeName": "GODERICH",
        "streetNameDisplayText": "MORRIS TRACT LINE, GODERICH"
      },
      {
        "electoralDistricts": [
          {
            "election": null,
            "id": 42,
            "name": "Huron—Bruce"
          }
        ],
        "pollDivisionIds": [
          10138882
        ],
        "postalCode": "N7A3Y1",
        "streetName": "PFRIMMER",
        "streetDirectionId": null,
        "streetTypeId": "RD",
        "placeName": "GODERICH",
        "streetNameDisplayText": "PFRIMMER RD, GODERICH"
      },
      {
        "electoralDistricts": [
          {
            "election": null,
            "id": 42,
            "name": "Huron—Bruce"
          }
        ],
        "pollDivisionIds": [
          10138882,
          10138875
        ],
        "postalCode": "N7A3Y1",
        "streetName": "RIVER",
        "streetDirectionId": null,
        "streetTypeId": "LINE",
        "placeName": "GODERICH",
        "streetNameDisplayText": "RIVER LINE, GODERICH"
      },
      {
        "electoralDistricts": [
          {
            "election": null,
            "id": 42,
            "name": "Huron—Bruce"
          }
        ],
        "pollDivisionIds": [
          10138882
        ],
        "postalCode": "N7A3Y1",
        "streetName": "SALTFORD",
        "streetDirectionId": null,
        "streetTypeId": "RD",
        "placeName": "GODERICH",
        "streetNameDisplayText": "SALTFORD RD, GODERICH"
      },
      {
        "electoralDistricts": [
          {
            "election": null,
            "id": 42,
            "name": "Huron—Bruce"
          }
        ],
        "pollDivisionIds": [
          10138875,
          10138882
        ],
        "postalCode": "N7A3Y1",
        "streetName": "SHARPES CREEK",
        "streetDirectionId": null,
        "streetTypeId": "LINE",
        "placeName": "GODERICH",
        "streetNameDisplayText": "SHARPES CREEK LINE, GODERICH"
      },
      {
        "electoralDistricts": [
          {
            "election": null,
            "id": 42,
            "name": "Huron—Bruce"
          }
        ],
        "pollDivisionIds": [
          10138882
        ],
        "postalCode": "N7A3Y1",
        "streetName": "WESTMOUNT",
        "streetDirectionId": null,
        "streetTypeId": "LINE",
        "placeName": "GODERICH",
        "streetNameDisplayText": "WESTMOUNT LINE, GODERICH"
      },
      {
        "electoralDistricts": [
          {
            "election": null,
            "id": 42,
            "name": "Huron—Bruce"
          }
        ],
        "pollDivisionIds": [
          10138882
        ],
        "postalCode": "N7A3Y1",
        "streetName": "WESTMOUNT",
        "streetDirectionId": null,
        "streetTypeId": "RD",
        "placeName": "GODERICH",
        "streetNameDisplayText": "WESTMOUNT RD, GODERICH"
      }
    ]
  },
  {
    "postal": "N7A5V0",
    "result": []
  },
  {
    "postal": "N7A8G8",
    "result": []
  },
  {
    "postal": "N7A8B1",
    "result": []
  },
  {
    "postal": "N7A4P5",
    "result": []
  },
  {
    "postal": "N7A7B2",
    "result": []
  },
  {
    "postal": "N7A0R2",
    "result": []
  },
  {
    "postal": "N7A4M4",
    "result": [
      {
        "electoralDistricts": [
          {
            "election": null,
            "id": 42,
            "name": "Huron—Bruce"
          }
        ],
        "pollDivisionIds": [
          10138883
        ],
        "postalCode": "N7A4M4",
        "streetName": "MACEWAN",
        "streetDirectionId": null,
        "streetTypeId": "ST",
        "placeName": "GODERICH",
        "streetNameDisplayText": "MACEWAN ST, GODERICH"
      }
    ]
  },
  {
    "postal": "N7A7M4",
    "result": []
  },
  {
    "postal": "N7A9S7",
    "result": []
  },
  {
    "postal": "N7A5Z7",
    "result": []
  },
  {
    "postal": "N7A7J7",
    "result": []
  },
  {
    "postal": "N7A8R8",
    "result": []
  },
  {
    "postal": "N7A9X1",
    "result": []
  },
  {
    "postal": "N7A5M9",
    "result": []
  },
  {
    "postal": "N7A9B4",
    "result": []
  },
  {
    "postal": "N7A0L9",
    "result": []
  },
  {
    "postal": "N7A9G4",
    "result": []
  },
  {
    "postal": "N7A1J4",
    "result": [
      {
        "electoralDistricts": [
          {
            "election": null,
            "id": 42,
            "name": "Huron—Bruce"
          }
        ],
        "pollDivisionIds": [
          10138881
        ],
        "postalCode": "N7A1J4",
        "streetName": "PICTON",
        "streetDirectionId": "E",
        "streetTypeId": "ST",
        "placeName": "GODERICH",
        "streetNameDisplayText": "PICTON ST E, GODERICH"
      }
    ]
  },
  {
    "postal": "N7A0W6",
    "result": []
  }
]
