[
  {
    "postal": "M6J9J6",
    "result": []
  },
  {
    "postal": "M6J9Z5",
    "result": []
  },
  {
    "postal": "M6J7H8",
    "result": []
  },
  {
    "postal": "M6J0P6",
    "result": []
  },
  {
    "postal": "M6J0S7",
    "result": []
  },
  {
    "postal": "M6J8B9",
    "result": []
  },
  {
    "postal": "M6J2A6",
    "result": [
      {
        "electoralDistricts": [
          {
            "election": null,
            "id": 19,
            "name": "Davenport"
          }
        ],
        "pollDivisionIds": [
          10136105
        ],
        "postalCode": "M6J2A6",
        "streetName": "OSSINGTON",
        "streetDirectionId": null,
        "streetTypeId": "CRES",
        "placeName": "TORONTO",
        "streetNameDisplayText": "OSSINGTON CRES, TORONTO"
      }
    ]
  },
  {
    "postal": "M6J7V2",
    "result": []
  },
  {
    "postal": "M6J9P4",
    "result": []
  },
  {
    "postal": "M6J6G0",
    "result": []
  },
  {
    "postal": "M6J2K0",
    "result": []
  },
  {
    "postal": "M6J7N6",
    "result": []
  },
  {
    "postal": "M6J5R3",
    "result": []
  },
  {
    "postal": "M6J7K0",
    "result": []
  },
  {
    "postal": "M6J3R2",
    "result": []
  },
  {
    "postal": "M6J0J1",
    "result": []
  },
  {
    "postal": "M6J0B0",
    "result": []
  },
  {
    "postal": "M6J5Z2",
    "result": []
  },
  {
    "postal": "M6J7P3",
    "result": []
  },
  {
    "postal": "M6J2K3",
    "result": [
      {
        "electoralDistricts": [
          {
            "election": null,
            "id": 101,
            "name": "Spadina—Fort York"
          }
        ],
        "pollDivisionIds": [
          10141942
        ],
        "postalCode": "M6J2K3",
        "streetName": "MANNING",
        "streetDirectionId": null,
        "streetTypeId": "AVE",
        "placeName": "TORONTO",
        "streetNameDisplayText": "MANNING AVE, TORONTO"
      }
    ]
  },
  {
    "postal": "M6J7Y6",
    "result": []
  },
  {
    "postal": "M6J1L9",
    "result": [
      {
        "electoralDistricts": [
          {
            "election": null,
            "id": 101,
            "name": "Spadina—Fort York"
          }
        ],
        "pollDivisionIds": [
          10141942
        ],
        "postalCode": "M6J1L9",
        "streetName": "ROBINSON",
        "streetDirectionId": null,
        "streetTypeId": "ST",
        "placeName": "TORONTO",
        "streetNameDisplayText": "ROBINSON ST, TORONTO"
      }
    ]
  },
  {
    "postal": "M6J8T0",
    "result": []
  },
  {
    "postal": "M6J3K8",
    "result": [
      {
        "electoralDistricts": [
          {
            "election": null,
            "id": 19,
            "name": "Davenport"
          }
        ],
        "pollDivisionIds": [
          10143812
        ],
        "postalCode": "M6J3K8",
        "streetName": "GLADSTONE",
        "streetDirectionId": null,
        "streetTypeId": "AVE",
        "placeName": "TORONTO",
        "streetNameDisplayText": "GLADSTONE AVE, TORONTO"
      }
    ]
  },
  {
    "postal": "M6J5W9",
    "result": []
  },
  {
    "postal": "M6J6T9",
    "result": []
  },
  {
    "postal": "M6J4H1",
    "result": []
  },
  {
    "postal": "M6J7A2",
    "result": []
  },
  {
    "postal": "M6J5G0",
    "result": []
  },
  {
    "postal": "M6J8V5",
    "result": []
  },
  {
    "postal": "M6J2Y8",
    "result": [
      {
        "electoralDistricts": [
          {
            "election": null,
            "id": 101,
            "name": "Spadina—Fort York"
          }
        ],
        "pollDivisionIds": [
          10141940
        ],
        "postalCode": "M6J2Y8",
        "streetName": "OSSINGTON",
        "streetDirectionId": null,
        "streetTypeId": "AVE",
        "placeName": "TORONTO",
        "streetNameDisplayText": "OSSINGTON AVE, TORONTO"
      }
    ]
  },
  {
    "postal": "M6J2B6",
    "result": [
      {
        "electoralDistricts": [
          {
            "election": null,
            "id": 112,
            "name": "University—Rosedale"
          }
        ],
        "pollDivisionIds": [
          10136381
        ],
        "postalCode": "M6J2B6",
        "streetName": "HENDERSON",
        "streetDirectionId": null,
        "streetTypeId": "AVE",
        "placeName": "TORONTO",
        "streetNameDisplayText": "HENDERSON AVE, TORONTO"
      }
    ]
  },
  {
    "postal": "M6J4W8",
    "result": []
  },
  {
    "postal": "M6J8H7",
    "result": []
  },
  {
    "postal": "M6J5P1",
    "result": []
  },
  {
    "postal": "M6J2B8",
    "result": [
      {
        "electoralDistricts": [
          {
            "election": null,
            "id": 112,
            "name": "University—Rosedale"
          }
        ],
        "pollDivisionIds": [
          10136381
        ],
        "postalCode": "M6J2B8",
        "streetName": "HENDERSON",
        "streetDirectionId": null,
        "streetTypeId": "AVE",
        "placeName": "TORONTO",
        "streetNameDisplayText": "HENDERSON AVE, TORONTO"
      }
    ]
  },
  {
    "postal": "M6J0P2",
    "result": []
  },
  {
    "postal": "M6J9M1",
    "result": []
  },
  {
    "postal": "M6J3G0",
    "result": []
  },
  {
    "postal": "M6J9Z2",
    "result": []
  },
  {
    "postal": "M6J2A0",
    "result": []
  },
  {
    "postal": "M6J6Y0",
    "result": []
  },
  {
    "postal": "M6J2Z8",
    "result": [
      {
        "electoralDistricts": [
          {
            "election": null,
            "id": 101,
            "name": "Spadina—Fort York"
          }
        ],
        "pollDivisionIds": [
          10141940
        ],
        "postalCode": "M6J2Z8",
        "streetName": "OSSINGTON",
        "streetDirectionId": null,
        "streetTypeId": "AVE",
        "placeName": "TORONTO",
        "streetNameDisplayText": "OSSINGTON AVE, TORONTO"
      }
    ]
  },
  {
    "postal": "M6J7Y3",
    "result": []
  },
  {
    "postal": "M6J6Z5",
    "result": []
  },
  {
    "postal": "M6J6E0",
    "result": []
  },
  {
    "postal": "M6J9B7",
    "result": []
  },
  {
    "postal": "M6J9S5",
    "result": []
  },
  {
    "postal": "M6J3X3",
    "result": [
      {
        "electoralDistricts": [
          {
            "election": null,
            "id": 101,
            "name": "Spadina—Fort York"
          }
        ],
        "pollDivisionIds": [
          10143934
        ],
        "postalCode": "M6J3X3",
        "streetName": "SHANK",
        "streetDirectionId": null,
        "streetTypeId": "ST",
        "placeName": "TORONTO",
        "streetNameDisplayText": "SHANK ST, TORONTO"
      }
    ]
  },
  {
    "postal": "M6J7R5",
    "result": []
  },
  {
    "postal": "M6J2X3",
    "result": [
      {
        "electoralDistricts": [
          {
            "election": null,
            "id": 112,
            "name": "University—Rosedale"
          }
        ],
        "pollDivisionIds": [
          10136377
        ],
        "postalCode": "M6J2X3",
        "streetName": "SHAW",
        "streetDirectionId": null,
        "streetTypeId": "ST",
        "placeName": "TORONTO",
        "streetNameDisplayText": "SHAW ST, TORONTO"
      }
    ]
  },
  {
    "postal": "M6J8Z9",
    "result": []
  },
  {
    "postal": "M6J0N4",
    "result": []
  },
  {
    "postal": "M6J1K1",
    "result": [
      {
        "electoralDistricts": [
          {
            "election": null,
            "id": 101,
            "name": "Spadina—Fort York"
          }
        ],
        "pollDivisionIds": [
          10141943
        ],
        "postalCode": "M6J1K1",
        "streetName": "WOLSELEY",
        "streetDirectionId": null,
        "streetTypeId": "ST",
        "placeName": "TORONTO",
        "streetNameDisplayText": "WOLSELEY ST, TORONTO"
      }
    ]
  },
  {
    "postal": "M6J1S3",
    "result": [
      {
        "electoralDistricts": [
          {
            "election": null,
            "id": 101,
            "name": "Spadina—Fort York"
          }
        ],
        "pollDivisionIds": [
          10141942
        ],
        "postalCode": "M6J1S3",
        "streetName": "ANDREWS",
        "streetDirectionId": null,
        "streetTypeId": "AVE",
        "placeName": "TORONTO",
        "streetNameDisplayText": "ANDREWS AVE, TORONTO"
      }
    ]
  },
  {
    "postal": "M6J6M4",
    "result": []
  },
  {
    "postal": "M6J9A9",
    "result": []
  },
  {
    "postal": "M6J9Z9",
    "result": []
  },
  {
    "postal": "M6J6T4",
    "result": []
  },
  {
    "postal": "M6J0B2",
    "result": [
      {
        "electoralDistricts": [
          {
            "election": null,
            "id": 19,
            "name": "Davenport"
          }
        ],
        "pollDivisionIds": [
          10143812
        ],
        "postalCode": "M6J0B2",
        "streetName": "GLADSTONE",
        "streetDirectionId": null,
        "streetTypeId": "AVE",
        "placeName": "TORONTO",
        "streetNameDisplayText": "GLADSTONE AVE, TORONTO"
      }
    ]
  },
  {
    "postal": "M6J2L9",
    "result": [
      {
        "electoralDistricts": [
          {
            "election": null,
            "id": 101,
            "name": "Spadina—Fort York"
          }
        ],
        "pollDivisionIds": [
          10141951
        ],
        "postalCode": "M6J2L9",
        "streetName": "NIAGARA",
        "streetDirectionId": null,
        "streetTypeId": "ST",
        "placeName": "TORONTO",
        "streetNameDisplayText": "NIAGARA ST, TORONTO"
      }
    ]
  },
  {
    "postal": "M6J8K9",
    "result": []
  },
  {
    "postal": "M6J2H9",
    "result": [
      {
        "electoralDistricts": [
          {
            "election": null,
            "id": 101,
            "name": "Spadina—Fort York"
          }
        ],
        "pollDivisionIds": [
          10141942
        ],
        "postalCode": "M6J2H9",
        "streetName": "PALMERSTON",
        "streetDirectionId": null,
        "streetTypeId": "AVE",
        "placeName": "TORONTO",
        "streetNameDisplayText": "PALMERSTON AVE, TORONTO"
      }
    ]
  },
  {
    "postal": "M6J3Z6",
    "result": []
  },
  {
    "postal": "M6J3B0",
    "result": []
  },
  {
    "postal": "M6J2H8",
    "result": [
      {
        "electoralDistricts": [
          {
            "election": null,
            "id": 101,
            "name": "Spadina—Fort York"
          }
        ],
        "pollDivisionIds": [
          10141942
        ],
        "postalCode": "M6J2H8",
        "streetName": "PALMERSTON",
        "streetDirectionId": null,
        "streetTypeId": "AVE",
        "placeName": "TORONTO",
        "streetNameDisplayText": "PALMERSTON AVE, TORONTO"
      }
    ]
  },
  {
    "postal": "M6J3X2",
    "result": [
      {
        "electoralDistricts": [
          {
            "election": null,
            "id": 112,
            "name": "University—Rosedale"
          }
        ],
        "pollDivisionIds": [
          10136382,
          10136380
        ],
        "postalCode": "M6J3X2",
        "streetName": "MARKHAM",
        "streetDirectionId": null,
        "streetTypeId": "ST",
        "placeName": "TORONTO",
        "streetNameDisplayText": "MARKHAM ST, TORONTO"
      }
    ]
  },
  {
    "postal": "M6J2E9",
    "result": [
      {
        "electoralDistricts": [
          {
            "election": null,
            "id": 101,
            "name": "Spadina—Fort York"
          }
        ],
        "pollDivisionIds": [
          10141942
        ],
        "postalCode": "M6J2E9",
        "streetName": "MARKHAM",
        "streetDirectionId": null,
        "streetTypeId": "ST",
        "placeName": "TORONTO",
        "streetNameDisplayText": "MARKHAM ST, TORONTO"
      }
    ]
  },
  {
    "postal": "M6J9P6",
    "result": []
  },
  {
    "postal": "M6J9E2",
    "result": []
  },
  {
    "postal": "M6J9H2",
    "result": []
  },
  {
    "postal": "M6J1S8",
    "result": [
      {
        "electoralDistricts": [
          {
            "election": null,
            "id": 19,
            "name": "Davenport"
          }
        ],
        "pollDivisionIds": [
          10136120,
          10143812
        ],
        "postalCode": "M6J1S8",
        "streetName": "CROSS",
        "streetDirectionId": null,
        "streetTypeId": "ST",
        "placeName": "TORONTO",
        "streetNameDisplayText": "CROSS ST, TORONTO"
      }
    ]
  },
  {
    "postal": "M6J3M6",
    "result": []
  },
  {
    "postal": "M6J6Z8",
    "result": []
  },
  {
    "postal": "M6J4J2",
    "result": []
  },
  {
    "postal": "M6J9Y1",
    "result": []
  },
  {
    "postal": "M6J8V6",
    "result": []
  },
  {
    "postal": "M6J6B2",
    "result": []
  },
  {
    "postal": "M6J1P8",
    "result": [
      {
        "electoralDistricts": [
          {
            "election": null,
            "id": 19,
            "name": "Davenport"
          }
        ],
        "pollDivisionIds": [
          10143812
        ],
        "postalCode": "M6J1P8",
        "streetName": "WATERLOO",
        "streetDirectionId": null,
        "streetTypeId": "AVE",
        "placeName": "TORONTO",
        "streetNameDisplayText": "WATERLOO AVE, TORONTO"
      }
    ]
  },
  {
    "postal": "M6J0V8",
    "result": []
  },
  {
    "postal": "M6J4Y0",
    "result": []
  },
  {
    "postal": "M6J2T4",
    "result": [
      {
        "electoralDistricts": [
          {
            "election": null,
            "id": 101,
            "name": "Spadina—Fort York"
          }
        ],
        "pollDivisionIds": [
          10143934
        ],
        "postalCode": "M6J2T4",
        "streetName": "MASSEY",
        "streetDirectionId": null,
        "streetTypeId": "ST",
        "placeName": "TORONTO",
        "streetNameDisplayText": "MASSEY ST, TORONTO"
      }
    ]
  },
  {
    "postal": "M6J2S3",
    "result": [
      {
        "electoralDistricts": [
          {
            "election": null,
            "id": 112,
            "name": "University—Rosedale"
          }
        ],
        "pollDivisionIds": [
          10136382
        ],
        "postalCode": "M6J2S3",
        "streetName": "GRACE",
        "streetDirectionId": null,
        "streetTypeId": "ST",
        "placeName": "TORONTO",
        "streetNameDisplayText": "GRACE ST, TORONTO"
      }
    ]
  },
  {
    "postal": "M6J0K0",
    "result": []
  },
  {
    "postal": "M6J5N1",
    "result": []
  },
  {
    "postal": "M6J7T0",
    "result": []
  },
  {
    "postal": "M6J9N2",
    "result": []
  },
  {
    "postal": "M6J5L1",
    "result": []
  },
  {
    "postal": "M6J7G5",
    "result": []
  },
  {
    "postal": "M6J6K2",
    "result": []
  },
  {
    "postal": "M6J6P9",
    "result": []
  },
  {
    "postal": "M6J0E6",
    "result": []
  },
  {
    "postal": "M6J8R9",
    "result": []
  },
  {
    "postal": "M6J3G9",
    "result": [
      {
        "electoralDistricts": [
          {
            "election": null,
            "id": 19,
            "name": "Davenport"
          }
        ],
        "pollDivisionIds": [
          10136105
        ],
        "postalCode": "M6J3G9",
        "streetName": "LISGAR",
        "streetDirectionId": null,
        "streetTypeId": "ST",
        "placeName": "TORONTO",
        "streetNameDisplayText": "LISGAR ST, TORONTO"
      }
    ]
  },
  {
    "postal": "M6J0V7",
    "result": []
  },
  {
    "postal": "M6J2Z1",
    "result": []
  },
  {
    "postal": "M6J7N1",
    "result": []
  },
  {
    "postal": "M6J3C6",
    "result": [
      {
        "electoralDistricts": [
          {
            "election": null,
            "id": 101,
            "name": "Spadina—Fort York"
          }
        ],
        "pollDivisionIds": [
          10141940
        ],
        "postalCode": "M6J3C6",
        "streetName": "DOVERCOURT",
        "streetDirectionId": null,
        "streetTypeId": "RD",
        "placeName": "TORONTO",
        "streetNameDisplayText": "DOVERCOURT RD, TORONTO"
      }
    ]
  },
  {
    "postal": "M6J4M1",
    "result": []
  },
  {
    "postal": "M6J9K2",
    "result": []
  },
  {
    "postal": "M6J9S6",
    "result": []
  },
  {
    "postal": "M6J4X1",
    "result": []
  },
  {
    "postal": "M6J8W2",
    "result": []
  },
  {
    "postal": "M6J7N2",
    "result": []
  },
  {
    "postal": "M6J8S3",
    "result": []
  },
  {
    "postal": "M6J4V0",
    "result": []
  },
  {
    "postal": "M6J6W4",
    "result": []
  },
  {
    "postal": "M6J5M1",
    "result": []
  },
  {
    "postal": "M6J0S4",
    "result": []
  },
  {
    "postal": "M6J5X6",
    "result": []
  },
  {
    "postal": "M6J8L5",
    "result": []
  },
  {
    "postal": "M6J5M8",
    "result": []
  },
  {
    "postal": "M6J2G3",
    "result": [
      {
        "electoralDistricts": [
          {
            "election": null,
            "id": 101,
            "name": "Spadina—Fort York"
          }
        ],
        "pollDivisionIds": [
          10141943
        ],
        "postalCode": "M6J2G3",
        "streetName": "MARKHAM",
        "streetDirectionId": null,
        "streetTypeId": "ST",
        "placeName": "TORONTO",
        "streetNameDisplayText": "MARKHAM ST, TORONTO"
      }
    ]
  },
  {
    "postal": "M6J8E4",
    "result": []
  },
  {
    "postal": "M6J7S9",
    "result": []
  },
  {
    "postal": "M6J1K3",
    "result": [
      {
        "electoralDistricts": [
          {
            "election": null,
            "id": 101,
            "name": "Spadina—Fort York"
          }
        ],
        "pollDivisionIds": [
          10141942
        ],
        "postalCode": "M6J1K3",
        "streetName": "WOLSELEY",
        "streetDirectionId": null,
        "streetTypeId": "ST",
        "placeName": "TORONTO",
        "streetNameDisplayText": "WOLSELEY ST, TORONTO"
      }
    ]
  },
  {
    "postal": "M6J4E1",
    "result": []
  },
  {
    "postal": "M6J4R2",
    "result": []
  },
  {
    "postal": "M6J6T0",
    "result": []
  },
  {
    "postal": "M6J3K5",
    "result": [
      {
        "electoralDistricts": [
          {
            "election": null,
            "id": 19,
            "name": "Davenport"
          }
        ],
        "pollDivisionIds": [
          10143812
        ],
        "postalCode": "M6J3K5",
        "streetName": "NORTHCOTE",
        "streetDirectionId": null,
        "streetTypeId": "AVE",
        "placeName": "TORONTO",
        "streetNameDisplayText": "NORTHCOTE AVE, TORONTO"
      }
    ]
  },
  {
    "postal": "M6J3S3",
    "result": [
      {
        "electoralDistricts": [
          {
            "election": null,
            "id": 112,
            "name": "University—Rosedale"
          }
        ],
        "pollDivisionIds": [
          10136382
        ],
        "postalCode": "M6J3S3",
        "streetName": "DUNDAS",
        "streetDirectionId": "W",
        "streetTypeId": "ST",
        "placeName": "TORONTO",
        "streetNameDisplayText": "DUNDAS ST W, TORONTO"
      }
    ]
  },
  {
    "postal": "M6J3L4",
    "result": [
      {
        "electoralDistricts": [
          {
            "election": null,
            "id": 19,
            "name": "Davenport"
          }
        ],
        "pollDivisionIds": [
          10136103
        ],
        "postalCode": "M6J3L4",
        "streetName": "GLADSTONE",
        "streetDirectionId": null,
        "streetTypeId": "AVE",
        "placeName": "TORONTO",
        "streetNameDisplayText": "GLADSTONE AVE, TORONTO"
      }
    ]
  },
  {
    "postal": "M6J9Y2",
    "result": []
  },
  {
    "postal": "M6J1E0",
    "result": []
  },
  {
    "postal": "M6J9A4",
    "result": []
  },
  {
    "postal": "M6J1L3",
    "result": [
      {
        "electoralDistricts": [
          {
            "election": null,
            "id": 101,
            "name": "Spadina—Fort York"
          }
        ],
        "pollDivisionIds": [
          10141942
        ],
        "postalCode": "M6J1L3",
        "streetName": "ROBINSON",
        "streetDirectionId": null,
        "streetTypeId": "ST",
        "placeName": "TORONTO",
        "streetNameDisplayText": "ROBINSON ST, TORONTO"
      }
    ]
  },
  {
    "postal": "M6J6N1",
    "result": []
  },
  {
    "postal": "M6J6G7",
    "result": []
  },
  {
    "postal": "M6J7W1",
    "result": []
  },
  {
    "postal": "M6J4M6",
    "result": []
  },
  {
    "postal": "M6J1K0",
    "result": []
  },
  {
    "postal": "M6J3E2",
    "result": [
      {
        "electoralDistricts": [
          {
            "election": null,
            "id": 19,
            "name": "Davenport"
          }
        ],
        "pollDivisionIds": [
          10136105
        ],
        "postalCode": "M6J3E2",
        "streetName": "DOVERCOURT",
        "streetDirectionId": null,
        "streetTypeId": "RD",
        "placeName": "TORONTO",
        "streetNameDisplayText": "DOVERCOURT RD, TORONTO"
      }
    ]
  },
  {
    "postal": "M6J5H4",
    "result": []
  },
  {
    "postal": "M6J1K7",
    "result": [
      {
        "electoralDistricts": [
          {
            "election": null,
            "id": 101,
            "name": "Spadina—Fort York"
          }
        ],
        "pollDivisionIds": [
          10143934
        ],
        "postalCode": "M6J1K7",
        "streetName": "CROCKER",
        "streetDirectionId": null,
        "streetTypeId": "AVE",
        "placeName": "TORONTO",
        "streetNameDisplayText": "CROCKER AVE, TORONTO"
      }
    ]
  },
  {
    "postal": "M6J0H0",
    "result": []
  },
  {
    "postal": "M6J0J3",
    "result": []
  },
  {
    "postal": "M6J1X6",
    "result": [
      {
        "electoralDistricts": [
          {
            "election": null,
            "id": 101,
            "name": "Spadina—Fort York"
          }
        ],
        "pollDivisionIds": [
          10141940
        ],
        "postalCode": "M6J1X6",
        "streetName": "DUNDAS",
        "streetDirectionId": "W",
        "streetTypeId": "ST",
        "placeName": "TORONTO",
        "streetNameDisplayText": "DUNDAS ST W, TORONTO"
      }
    ]
  },
  {
    "postal": "M6J2Z6",
    "result": [
      {
        "electoralDistricts": [
          {
            "election": null,
            "id": 101,
            "name": "Spadina—Fort York"
          }
        ],
        "pollDivisionIds": [
          10141940
        ],
        "postalCode": "M6J2Z6",
        "streetName": "OSSINGTON",
        "streetDirectionId": null,
        "streetTypeId": "AVE",
        "placeName": "TORONTO",
        "streetNameDisplayText": "OSSINGTON AVE, TORONTO"
      }
    ]
  },
  {
    "postal": "M6J4R9",
    "result": []
  },
  {
    "postal": "M6J0W8",
    "result": []
  },
  {
    "postal": "M6J1L4",
    "result": [
      {
        "electoralDistricts": [
          {
            "election": null,
            "id": 112,
            "name": "University—Rosedale"
          },
          {
            "election": null,
            "id": 101,
            "name": "Spadina—Fort York"
          }
        ],
        "pollDivisionIds": [
          10136388,
          10141942
        ],
        "postalCode": "M6J1L4",
        "streetName": "ROBINSON",
        "streetDirectionId": null,
        "streetTypeId": "ST",
        "placeName": "TORONTO",
        "streetNameDisplayText": "ROBINSON ST, TORONTO"
      }
    ]
  },
  {
    "postal": "M6J0C8",
    "result": []
  },
  {
    "postal": "M6J9X7",
    "result": []
  },
  {
    "postal": "M6J4T1",
    "result": []
  },
  {
    "postal": "M6J0M0",
    "result": []
  },
  {
    "postal": "M6J6A2",
    "result": []
  },
  {
    "postal": "M6J9S8",
    "result": []
  },
  {
    "postal": "M6J9T4",
    "result": []
  },
  {
    "postal": "M6J9Y4",
    "result": []
  },
  {
    "postal": "M6J6G5",
    "result": []
  },
  {
    "postal": "M6J6H9",
    "result": []
  },
  {
    "postal": "M6J2P3",
    "result": [
      {
        "electoralDistricts": [
          {
            "election": null,
            "id": 101,
            "name": "Spadina—Fort York"
          }
        ],
        "pollDivisionIds": [
          10143934
        ],
        "postalCode": "M6J2P3",
        "streetName": "BELLWOODS",
        "streetDirectionId": null,
        "streetTypeId": "AVE",
        "placeName": "TORONTO",
        "streetNameDisplayText": "BELLWOODS AVE, TORONTO"
      }
    ]
  },
  {
    "postal": "M6J1T6",
    "result": [
      {
        "electoralDistricts": [
          {
            "election": null,
            "id": 19,
            "name": "Davenport"
          }
        ],
        "pollDivisionIds": [
          10143812
        ],
        "postalCode": "M6J1T6",
        "streetName": "COLLAHIE",
        "streetDirectionId": null,
        "streetTypeId": "ST",
        "placeName": "TORONTO",
        "streetNameDisplayText": "COLLAHIE ST, TORONTO"
      }
    ]
  },
  {
    "postal": "M6J4P6",
    "result": []
  },
  {
    "postal": "M6J3K1",
    "result": [
      {
        "electoralDistricts": [
          {
            "election": null,
            "id": 19,
            "name": "Davenport"
          }
        ],
        "pollDivisionIds": [
          10136103,
          10136105
        ],
        "postalCode": "M6J3K1",
        "streetName": "RUSHOLME",
        "streetDirectionId": null,
        "streetTypeId": "DR",
        "placeName": "TORONTO",
        "streetNameDisplayText": "RUSHOLME DR, TORONTO"
      }
    ]
  },
  {
    "postal": "M6J6X4",
    "result": []
  },
  {
    "postal": "M6J4M8",
    "result": []
  },
  {
    "postal": "M6J2Y1",
    "result": [
      {
        "electoralDistricts": [
          {
            "election": null,
            "id": 101,
            "name": "Spadina—Fort York"
          }
        ],
        "pollDivisionIds": [
          10141940
        ],
        "postalCode": "M6J2Y1",
        "streetName": "GIVINS",
        "streetDirectionId": null,
        "streetTypeId": "ST",
        "placeName": "TORONTO",
        "streetNameDisplayText": "GIVINS ST, TORONTO"
      }
    ]
  },
  {
    "postal": "M6J6M1",
    "result": []
  },
  {
    "postal": "M6J5L8",
    "result": []
  },
  {
    "postal": "M6J3P6",
    "result": []
  },
  {
    "postal": "M6J9A5",
    "result": []
  },
  {
    "postal": "M6J7K1",
    "result": []
  },
  {
    "postal": "M6J3J4",
    "result": [
      {
        "electoralDistricts": [
          {
            "election": null,
            "id": 19,
            "name": "Davenport"
          }
        ],
        "pollDivisionIds": [
          10143812
        ],
        "postalCode": "M6J3J4",
        "streetName": "BEACONSFIELD",
        "streetDirectionId": null,
        "streetTypeId": "AVE",
        "placeName": "TORONTO",
        "streetNameDisplayText": "BEACONSFIELD AVE, TORONTO"
      }
    ]
  },
  {
    "postal": "M6J5E7",
    "result": []
  },
  {
    "postal": "M6J3A7",
    "result": [
      {
        "electoralDistricts": [
          {
            "election": null,
            "id": 19,
            "name": "Davenport"
          }
        ],
        "pollDivisionIds": [
          10136102
        ],
        "postalCode": "M6J3A7",
        "streetName": "OSSINGTON",
        "streetDirectionId": null,
        "streetTypeId": "AVE",
        "placeName": "TORONTO",
        "streetNameDisplayText": "OSSINGTON AVE, TORONTO"
      }
    ]
  },
  {
    "postal": "M6J1B9",
    "result": [
      {
        "electoralDistricts": [
          {
            "election": null,
            "id": 101,
            "name": "Spadina—Fort York"
          }
        ],
        "pollDivisionIds": [
          10141951
        ],
        "postalCode": "M6J1B9",
        "streetName": "MITCHELL",
        "streetDirectionId": null,
        "streetTypeId": "AVE",
        "placeName": "TORONTO",
        "streetNameDisplayText": "MITCHELL AVE, TORONTO"
      }
    ]
  },
  {
    "postal": "M6J9E8",
    "result": []
  },
  {
    "postal": "M6J1C9",
    "result": [
      {
        "electoralDistricts": [
          {
            "election": null,
            "id": 101,
            "name": "Spadina—Fort York"
          }
        ],
        "pollDivisionIds": [
          10141940,
          10143934
        ],
        "postalCode": "M6J1C9",
        "streetName": "RICHMOND",
        "streetDirectionId": "W",
        "streetTypeId": "ST",
        "placeName": "TORONTO",
        "streetNameDisplayText": "RICHMOND ST W, TORONTO"
      }
    ]
  },
  {
    "postal": "M6J3B5",
    "result": [
      {
        "electoralDistricts": [
          {
            "election": null,
            "id": 101,
            "name": "Spadina—Fort York"
          }
        ],
        "pollDivisionIds": [
          10141940
        ],
        "postalCode": "M6J3B5",
        "streetName": "GROVE",
        "streetDirectionId": null,
        "streetTypeId": "AVE",
        "placeName": "TORONTO",
        "streetNameDisplayText": "GROVE AVE, TORONTO"
      }
    ]
  },
  {
    "postal": "M6J8R0",
    "result": []
  },
  {
    "postal": "M6J3P2",
    "result": [
      {
        "electoralDistricts": [
          {
            "election": null,
            "id": 101,
            "name": "Spadina—Fort York"
          }
        ],
        "pollDivisionIds": [
          10141951
        ],
        "postalCode": "M6J3P2",
        "streetName": "PORTUGAL",
        "streetDirectionId": null,
        "streetTypeId": "SQ",
        "placeName": "TORONTO",
        "streetNameDisplayText": "PORTUGAL SQ, TORONTO"
      }
    ]
  },
  {
    "postal": "M6J5V4",
    "result": []
  },
  {
    "postal": "M6J4H0",
    "result": []
  },
  {
    "postal": "M6J4S7",
    "result": []
  },
  {
    "postal": "M6J6C2",
    "result": []
  },
  {
    "postal": "M6J8W3",
    "result": []
  },
  {
    "postal": "M6J4M5",
    "result": []
  },
  {
    "postal": "M6J5T1",
    "result": []
  },
  {
    "postal": "M6J3B3",
    "result": [
      {
        "electoralDistricts": [
          {
            "election": null,
            "id": 19,
            "name": "Davenport"
          }
        ],
        "pollDivisionIds": [
          10136105
        ],
        "postalCode": "M6J3B3",
        "streetName": "LAKEVIEW",
        "streetDirectionId": null,
        "streetTypeId": "AVE",
        "placeName": "TORONTO",
        "streetNameDisplayText": "LAKEVIEW AVE, TORONTO"
      }
    ]
  },
  {
    "postal": "M6J6C6",
    "result": []
  },
  {
    "postal": "M6J7N8",
    "result": []
  },
  {
    "postal": "M6J2Y3",
    "result": [
      {
        "electoralDistricts": [
          {
            "election": null,
            "id": 112,
            "name": "University—Rosedale"
          }
        ],
        "pollDivisionIds": [
          10136377
        ],
        "postalCode": "M6J2Y3",
        "streetName": "ROXTON",
        "streetDirectionId": null,
        "streetTypeId": "RD",
        "placeName": "TORONTO",
        "streetNameDisplayText": "ROXTON RD, TORONTO"
      }
    ]
  },
  {
    "postal": "M6J2R6",
    "result": [
      {
        "electoralDistricts": [
          {
            "election": null,
            "id": 101,
            "name": "Spadina—Fort York"
          }
        ],
        "pollDivisionIds": [
          10143934
        ],
        "postalCode": "M6J2R6",
        "streetName": "GORE VALE",
        "streetDirectionId": null,
        "streetTypeId": "AVE",
        "placeName": "TORONTO",
        "streetNameDisplayText": "GORE VALE AVE, TORONTO"
      }
    ]
  },
  {
    "postal": "M6J7N3",
    "result": []
  },
  {
    "postal": "M6J8J2",
    "result": []
  },
  {
    "postal": "M6J6A9",
    "result": []
  },
  {
    "postal": "M6J3V2",
    "result": [
      {
        "electoralDistricts": [
          {
            "election": null,
            "id": 101,
            "name": "Spadina—Fort York"
          }
        ],
        "pollDivisionIds": [
          10141940
        ],
        "postalCode": "M6J3V2",
        "streetName": "SKEY",
        "streetDirectionId": null,
        "streetTypeId": "LANE",
        "placeName": "TORONTO",
        "streetNameDisplayText": "SKEY LANE, TORONTO"
      }
    ]
  },
  {
    "postal": "M6J2N3",
    "result": [
      {
        "electoralDistricts": [
          {
            "election": null,
            "id": 112,
            "name": "University—Rosedale"
          }
        ],
        "pollDivisionIds": [
          10136382
        ],
        "postalCode": "M6J2N3",
        "streetName": "CLAREMONT",
        "streetDirectionId": null,
        "streetTypeId": "ST",
        "placeName": "TORONTO",
        "streetNameDisplayText": "CLAREMONT ST, TORONTO"
      }
    ]
  },
  {
    "postal": "M6J1S5",
    "result": [
      {
        "electoralDistricts": [
          {
            "election": null,
            "id": 101,
            "name": "Spadina—Fort York"
          }
        ],
        "pollDivisionIds": [
          10141940
        ],
        "postalCode": "M6J1S5",
        "streetName": "ROLYAT",
        "streetDirectionId": null,
        "streetTypeId": "ST",
        "placeName": "TORONTO",
        "streetNameDisplayText": "ROLYAT ST, TORONTO"
      },
      {
        "electoralDistricts": [
          {
            "election": null,
            "id": 101,
            "name": "Spadina—Fort York"
          }
        ],
        "pollDivisionIds": [
          10141940
        ],
        "postalCode": "M6J1S5",
        "streetName": "ROYLAT",
        "streetDirectionId": null,
        "streetTypeId": "ST",
        "placeName": "TORONTO",
        "streetNameDisplayText": "ROYLAT ST, TORONTO"
      }
    ]
  },
  {
    "postal": "M6J4T7",
    "result": []
  },
  {
    "postal": "M6J6Y7",
    "result": []
  },
  {
    "postal": "M6J0W7",
    "result": []
  },
  {
    "postal": "M6J2W9",
    "result": [
      {
        "electoralDistricts": [
          {
            "election": null,
            "id": 101,
            "name": "Spadina—Fort York"
          }
        ],
        "pollDivisionIds": [
          10141940
        ],
        "postalCode": "M6J2W9",
        "streetName": "SHAW",
        "streetDirectionId": null,
        "streetTypeId": "ST",
        "placeName": "TORONTO",
        "streetNameDisplayText": "SHAW ST, TORONTO"
      }
    ]
  },
  {
    "postal": "M6J8V0",
    "result": []
  },
  {
    "postal": "M6J0H4",
    "result": []
  },
  {
    "postal": "M6J2T1",
    "result": [
      {
        "electoralDistricts": [
          {
            "election": null,
            "id": 101,
            "name": "Spadina—Fort York"
          }
        ],
        "pollDivisionIds": [
          10143934
        ],
        "postalCode": "M6J2T1",
        "streetName": "STRACHAN",
        "streetDirectionId": null,
        "streetTypeId": "AVE",
        "placeName": "TORONTO",
        "streetNameDisplayText": "STRACHAN AVE, TORONTO"
      }
    ]
  },
  {
    "postal": "M6J1B1",
    "result": [
      {
        "electoralDistricts": [
          {
            "election": null,
            "id": 101,
            "name": "Spadina—Fort York"
          }
        ],
        "pollDivisionIds": [
          10143934
        ],
        "postalCode": "M6J1B1",
        "streetName": "ADELAIDE",
        "streetDirectionId": "W",
        "streetTypeId": "ST",
        "placeName": "TORONTO",
        "streetNameDisplayText": "ADELAIDE ST W, TORONTO"
      }
    ]
  },
  {
    "postal": "M6J8B6",
    "result": []
  },
  {
    "postal": "M6J6H1",
    "result": []
  },
  {
    "postal": "M6J8T8",
    "result": []
  },
  {
    "postal": "M6J0T4",
    "result": []
  },
  {
    "postal": "M6J2C4",
    "result": [
      {
        "electoralDistricts": [
          {
            "election": null,
            "id": 19,
            "name": "Davenport"
          }
        ],
        "pollDivisionIds": [
          10136105
        ],
        "postalCode": "M6J2C4",
        "streetName": "ST ANNES",
        "streetDirectionId": null,
        "streetTypeId": "RD",
        "placeName": "TORONTO",
        "streetNameDisplayText": "ST ANNES RD, TORONTO"
      },
      {
        "electoralDistricts": [
          {
            "election": null,
            "id": 112,
            "name": "University—Rosedale"
          }
        ],
        "pollDivisionIds": [
          10136377
        ],
        "postalCode": "M6J2C4",
        "streetName": "ST. ANNES",
        "streetDirectionId": null,
        "streetTypeId": "RD",
        "placeName": "TORONTO",
        "streetNameDisplayText": "ST. ANNES RD, TORONTO"
      }
    ]
  },
  {
    "postal": "M6J8N3",
    "result": []
  },
  {
    "postal": "M6J4L8",
    "result": []
  },
  {
    "postal": "M6J2B5",
    "result": [
      {
        "electoralDistricts": [
          {
            "election": null,
            "id": 19,
            "name": "Davenport"
          }
        ],
        "pollDivisionIds": [
          10136105
        ],
        "postalCode": "M6J2B5",
        "streetName": "CHURCHILL",
        "streetDirectionId": null,
        "streetTypeId": "AVE",
        "placeName": "TORONTO",
        "streetNameDisplayText": "CHURCHILL AVE, TORONTO"
      }
    ]
  },
  {
    "postal": "M6J3H1",
    "result": [
      {
        "electoralDistricts": [
          {
            "election": null,
            "id": 19,
            "name": "Davenport"
          }
        ],
        "pollDivisionIds": [
          10136105
        ],
        "postalCode": "M6J3H1",
        "streetName": "LISGAR",
        "streetDirectionId": null,
        "streetTypeId": "ST",
        "placeName": "TORONTO",
        "streetNameDisplayText": "LISGAR ST, TORONTO"
      }
    ]
  },
  {
    "postal": "M6J4Y1",
    "result": []
  },
  {
    "postal": "M6J7E2",
    "result": []
  },
  {
    "postal": "M6J2P5",
    "result": [
      {
        "electoralDistricts": [
          {
            "election": null,
            "id": 101,
            "name": "Spadina—Fort York"
          }
        ],
        "pollDivisionIds": [
          10143934
        ],
        "postalCode": "M6J2P5",
        "streetName": "BELLWOODS",
        "streetDirectionId": null,
        "streetTypeId": "AVE",
        "placeName": "TORONTO",
        "streetNameDisplayText": "BELLWOODS AVE, TORONTO"
      }
    ]
  },
  {
    "postal": "M6J8R7",
    "result": []
  },
  {
    "postal": "M6J9P1",
    "result": []
  },
  {
    "postal": "M6J3B8",
    "result": [
      {
        "electoralDistricts": [
          {
            "election": null,
            "id": 101,
            "name": "Spadina—Fort York"
          }
        ],
        "pollDivisionIds": [
          10141940
        ],
        "postalCode": "M6J3B8",
        "streetName": "FENNINGS",
        "streetDirectionId": null,
        "streetTypeId": "ST",
        "placeName": "TORONTO",
        "streetNameDisplayText": "FENNINGS ST, TORONTO"
      },
      {
        "electoralDistricts": [
          {
            "election": null,
            "id": 101,
            "name": "Spadina—Fort York"
          }
        ],
        "pollDivisionIds": [
          10141940
        ],
        "postalCode": "M6J3B8",
        "streetName": "FENNINGS",
        "streetDirectionId": null,
        "streetTypeId": "ST",
        "placeName": "TORONTO, ON",
        "streetNameDisplayText": "FENNINGS ST, TORONTO, ON"
      }
    ]
  },
  {
    "postal": "M6J3P7",
    "result": [
      {
        "electoralDistricts": [
          {
            "election": null,
            "id": 101,
            "name": "Spadina—Fort York"
          }
        ],
        "pollDivisionIds": [
          10143934
        ],
        "postalCode": "M6J3P7",
        "streetName": "RICHMOND",
        "streetDirectionId": "W",
        "streetTypeId": "ST",
        "placeName": "TORONTO",
        "streetNameDisplayText": "RICHMOND ST W, TORONTO"
      }
    ]
  },
  {
    "postal": "M6J9B2",
    "result": []
  },
  {
    "postal": "M6J6Z3",
    "result": []
  },
  {
    "postal": "M6J4N5",
    "result": []
  },
  {
    "postal": "M6J8T3",
    "result": []
  },
  {
    "postal": "M6J1V2",
    "result": [
      {
        "electoralDistricts": [
          {
            "election": null,
            "id": 110,
            "name": "Toronto—Danforth"
          }
        ],
        "pollDivisionIds": [
          10142528
        ],
        "postalCode": "M6J1V2",
        "streetName": "DUNDAS",
        "streetDirectionId": "E",
        "streetTypeId": "ST",
        "placeName": "TORONTO",
        "streetNameDisplayText": "DUNDAS ST E, TORONTO"
      },
      {
        "electoralDistricts": [
          {
            "election": null,
            "id": 101,
            "name": "Spadina—Fort York"
          }
        ],
        "pollDivisionIds": [
          10141942
        ],
        "postalCode": "M6J1V2",
        "streetName": "DUNDAS",
        "streetDirectionId": "W",
        "streetTypeId": "ST",
        "placeName": "TORONTO",
        "streetNameDisplayText": "DUNDAS ST W, TORONTO"
      }
    ]
  },
  {
    "postal": "M6J1Y0",
    "result": []
  },
  {
    "postal": "M6J3G6",
    "result": [
      {
        "electoralDistricts": [
          {
            "election": null,
            "id": 19,
            "name": "Davenport"
          }
        ],
        "pollDivisionIds": [
          10143812
        ],
        "postalCode": "M6J3G6",
        "streetName": "LISGAR",
        "streetDirectionId": null,
        "streetTypeId": "ST",
        "placeName": "TORONTO",
        "streetNameDisplayText": "LISGAR ST, TORONTO"
      }
    ]
  },
  {
    "postal": "M6J3H7",
    "result": [
      {
        "electoralDistricts": [
          {
            "election": null,
            "id": 19,
            "name": "Davenport"
          }
        ],
        "pollDivisionIds": [
          10136105
        ],
        "postalCode": "M6J3H7",
        "streetName": "RUSHOLME",
        "streetDirectionId": null,
        "streetTypeId": "RD",
        "placeName": "TORONTO",
        "streetNameDisplayText": "RUSHOLME RD, TORONTO"
      }
    ]
  },
  {
    "postal": "M6J7X8",
    "result": []
  },
  {
    "postal": "M6J0C7",
    "result": [
      {
        "electoralDistricts": [
          {
            "election": null,
            "id": 19,
            "name": "Davenport"
          }
        ],
        "pollDivisionIds": [
          10143812
        ],
        "postalCode": "M6J0C7",
        "streetName": "LISGAR",
        "streetDirectionId": null,
        "streetTypeId": "ST",
        "placeName": "TORONTO",
        "streetNameDisplayText": "LISGAR ST, TORONTO"
      }
    ]
  },
  {
    "postal": "M6J0W9",
    "result": []
  },
  {
    "postal": "M6J8E6",
    "result": []
  },
  {
    "postal": "M6J9Z8",
    "result": []
  },
  {
    "postal": "M6J3P4",
    "result": []
  },
  {
    "postal": "M6J6L8",
    "result": []
  },
  {
    "postal": "M6J2R4",
    "result": [
      {
        "electoralDistricts": [
          {
            "election": null,
            "id": 101,
            "name": "Spadina—Fort York"
          }
        ],
        "pollDivisionIds": [
          10143934
        ],
        "postalCode": "M6J2R4",
        "streetName": "STANLEY",
        "streetDirectionId": null,
        "streetTypeId": "TERR",
        "placeName": "TORONTO",
        "streetNameDisplayText": "STANLEY TERR, TORONTO"
      }
    ]
  },
  {
    "postal": "M6J2W1",
    "result": [
      {
        "electoralDistricts": [
          {
            "election": null,
            "id": 112,
            "name": "University—Rosedale"
          }
        ],
        "pollDivisionIds": [
          10136377
        ],
        "postalCode": "M6J2W1",
        "streetName": "CRAWFORD",
        "streetDirectionId": null,
        "streetTypeId": "ST",
        "placeName": "TORONTO",
        "streetNameDisplayText": "CRAWFORD ST, TORONTO"
      }
    ]
  },
  {
    "postal": "M6J9H8",
    "result": []
  },
  {
    "postal": "M6J8X9",
    "result": []
  },
  {
    "postal": "M6J7H4",
    "result": []
  },
  {
    "postal": "M6J3J1",
    "result": [
      {
        "electoralDistricts": [
          {
            "election": null,
            "id": 19,
            "name": "Davenport"
          }
        ],
        "pollDivisionIds": [
          10143812
        ],
        "postalCode": "M6J3J1",
        "streetName": "BEACONSFIELD",
        "streetDirectionId": null,
        "streetTypeId": "AVE",
        "placeName": "TORONTO",
        "streetNameDisplayText": "BEACONSFIELD AVE, TORONTO"
      }
    ]
  },
  {
    "postal": "M6J1P4",
    "result": [
      {
        "electoralDistricts": [
          {
            "election": null,
            "id": 19,
            "name": "Davenport"
          }
        ],
        "pollDivisionIds": [
          10143812
        ],
        "postalCode": "M6J1P4",
        "streetName": "ARGYLE",
        "streetDirectionId": null,
        "streetTypeId": "ST",
        "placeName": "TORONTO",
        "streetNameDisplayText": "ARGYLE ST, TORONTO"
      }
    ]
  },
  {
    "postal": "M6J2A3",
    "result": [
      {
        "electoralDistricts": [
          {
            "election": null,
            "id": 19,
            "name": "Davenport"
          }
        ],
        "pollDivisionIds": [
          10136105
        ],
        "postalCode": "M6J2A3",
        "streetName": "HARRISON",
        "streetDirectionId": null,
        "streetTypeId": "ST",
        "placeName": "TORONTO",
        "streetNameDisplayText": "HARRISON ST, TORONTO"
      }
    ]
  },
  {
    "postal": "M6J0Z1",
    "result": []
  },
  {
    "postal": "M6J1C1",
    "result": [
      {
        "electoralDistricts": [
          {
            "election": null,
            "id": 101,
            "name": "Spadina—Fort York"
          }
        ],
        "pollDivisionIds": [
          10143934
        ],
        "postalCode": "M6J1C1",
        "streetName": "MITCHELL",
        "streetDirectionId": null,
        "streetTypeId": "AVE",
        "placeName": "TORONTO",
        "streetNameDisplayText": "MITCHELL AVE, TORONTO"
      }
    ]
  },
  {
    "postal": "M6J0H3",
    "result": []
  },
  {
    "postal": "M6J7B0",
    "result": []
  },
  {
    "postal": "M6J5K2",
    "result": []
  },
  {
    "postal": "M6J1E9",
    "result": [
      {
        "electoralDistricts": [
          {
            "election": null,
            "id": 101,
            "name": "Spadina—Fort York"
          }
        ],
        "pollDivisionIds": [
          10143934
        ],
        "postalCode": "M6J1E9",
        "streetName": "QUEEN",
        "streetDirectionId": "W",
        "streetTypeId": "ST",
        "placeName": "TORONTO",
        "streetNameDisplayText": "QUEEN ST W, TORONTO"
      }
    ]
  },
  {
    "postal": "M6J9W7",
    "result": []
  },
  {
    "postal": "M6J5W6",
    "result": []
  },
  {
    "postal": "M6J6S6",
    "result": []
  },
  {
    "postal": "M6J2P8",
    "result": [
      {
        "electoralDistricts": [
          {
            "election": null,
            "id": 112,
            "name": "University—Rosedale"
          }
        ],
        "pollDivisionIds": [
          10136382
        ],
        "postalCode": "M6J2P8",
        "streetName": "BELLWOODS",
        "streetDirectionId": null,
        "streetTypeId": "AVE",
        "placeName": "TORONTO",
        "streetNameDisplayText": "BELLWOODS AVE, TORONTO"
      }
    ]
  },
  {
    "postal": "M6J4P8",
    "result": []
  },
  {
    "postal": "M6J0V9",
    "result": []
  },
  {
    "postal": "M6J5Y2",
    "result": []
  },
  {
    "postal": "M6J7Z7",
    "result": []
  },
  {
    "postal": "M6J6Y8",
    "result": []
  },
  {
    "postal": "M6J2G7",
    "result": [
      {
        "electoralDistricts": [
          {
            "election": null,
            "id": 111,
            "name": "Toronto—St. Paul's"
          },
          {
            "election": null,
            "id": 112,
            "name": "University—Rosedale"
          }
        ],
        "pollDivisionIds": [
          10136028,
          10136382
        ],
        "postalCode": "M6J2G7",
        "streetName": "MARKHAM",
        "streetDirectionId": null,
        "streetTypeId": "ST",
        "placeName": "TORONTO",
        "streetNameDisplayText": "MARKHAM ST, TORONTO"
      }
    ]
  },
  {
    "postal": "M6J8C1",
    "result": []
  },
  {
    "postal": "M6J5C5",
    "result": []
  },
  {
    "postal": "M6J2X8",
    "result": [
      {
        "electoralDistricts": [
          {
            "election": null,
            "id": 101,
            "name": "Spadina—Fort York"
          }
        ],
        "pollDivisionIds": [
          10141940
        ],
        "postalCode": "M6J2X8",
        "streetName": "GIVINS",
        "streetDirectionId": null,
        "streetTypeId": "ST",
        "placeName": "TORONTO",
        "streetNameDisplayText": "GIVINS ST, TORONTO"
      }
    ]
  },
  {
    "postal": "M6J1W5",
    "result": [
      {
        "electoralDistricts": [
          {
            "election": null,
            "id": 112,
            "name": "University—Rosedale"
          }
        ],
        "pollDivisionIds": [
          10136377
        ],
        "postalCode": "M6J1W5",
        "streetName": "DUNDAS",
        "streetDirectionId": "W",
        "streetTypeId": "ST",
        "placeName": "TORONTO",
        "streetNameDisplayText": "DUNDAS ST W, TORONTO"
      }
    ]
  },
  {
    "postal": "M6J7G0",
    "result": []
  },
  {
    "postal": "M6J8J8",
    "result": []
  },
  {
    "postal": "M6J3Y0",
    "result": []
  },
  {
    "postal": "M6J9T7",
    "result": []
  },
  {
    "postal": "M6J5P4",
    "result": []
  },
  {
    "postal": "M6J4B0",
    "result": []
  },
  {
    "postal": "M6J9N8",
    "result": []
  },
  {
    "postal": "M6J4A7",
    "result": []
  },
  {
    "postal": "M6J4H9",
    "result": []
  },
  {
    "postal": "M6J6X1",
    "result": []
  },
  {
    "postal": "M6J9Y7",
    "result": []
  },
  {
    "postal": "M6J2Y5",
    "result": [
      {
        "electoralDistricts": [
          {
            "election": null,
            "id": 112,
            "name": "University—Rosedale"
          }
        ],
        "pollDivisionIds": [
          10136377
        ],
        "postalCode": "M6J2Y5",
        "streetName": "ROXTON",
        "streetDirectionId": null,
        "streetTypeId": "RD",
        "placeName": "TORONTO",
        "streetNameDisplayText": "ROXTON RD, TORONTO"
      }
    ]
  },
  {
    "postal": "M6J8L7",
    "result": []
  },
  {
    "postal": "M6J2A8",
    "result": [
      {
        "electoralDistricts": [
          {
            "election": null,
            "id": 19,
            "name": "Davenport"
          }
        ],
        "pollDivisionIds": [
          10136103
        ],
        "postalCode": "M6J2A8",
        "streetName": "LANGEMARK",
        "streetDirectionId": null,
        "streetTypeId": "AVE",
        "placeName": "TORONTO",
        "streetNameDisplayText": "LANGEMARK AVE, TORONTO"
      }
    ]
  },
  {
    "postal": "M6J2K9",
    "result": [
      {
        "electoralDistricts": [
          {
            "election": null,
            "id": 112,
            "name": "University—Rosedale"
          }
        ],
        "pollDivisionIds": [
          10136382,
          10136381
        ],
        "postalCode": "M6J2K9",
        "streetName": "MANNING",
        "streetDirectionId": null,
        "streetTypeId": "AVE",
        "placeName": "TORONTO",
        "streetNameDisplayText": "MANNING AVE, TORONTO"
      }
    ]
  },
  {
    "postal": "M6J3E5",
    "result": [
      {
        "electoralDistricts": [
          {
            "election": null,
            "id": 19,
            "name": "Davenport"
          }
        ],
        "pollDivisionIds": [
          10136102
        ],
        "postalCode": "M6J3E5",
        "streetName": "DOVERCOURT",
        "streetDirectionId": null,
        "streetTypeId": "RD",
        "placeName": "TORONTO",
        "streetNameDisplayText": "DOVERCOURT RD, TORONTO"
      }
    ]
  },
  {
    "postal": "M6J8N6",
    "result": []
  },
  {
    "postal": "M6J8J4",
    "result": []
  },
  {
    "postal": "M6J4R7",
    "result": []
  },
  {
    "postal": "M6J9K1",
    "result": []
  },
  {
    "postal": "M6J8E1",
    "result": []
  },
  {
    "postal": "M6J0R1",
    "result": []
  },
  {
    "postal": "M6J4J3",
    "result": []
  },
  {
    "postal": "M6J7E7",
    "result": []
  },
  {
    "postal": "M6J0J0",
    "result": []
  },
  {
    "postal": "M6J7R8",
    "result": []
  },
  {
    "postal": "M6J9X0",
    "result": []
  },
  {
    "postal": "M6J7P6",
    "result": []
  },
  {
    "postal": "M6J0R7",
    "result": []
  },
  {
    "postal": "M6J5W1",
    "result": []
  },
  {
    "postal": "M6J0K4",
    "result": []
  },
  {
    "postal": "M6J7N9",
    "result": []
  },
  {
    "postal": "M6J1N0",
    "result": []
  },
  {
    "postal": "M6J6P3",
    "result": []
  },
  {
    "postal": "M6J5A1",
    "result": []
  },
  {
    "postal": "M6J9M9",
    "result": []
  },
  {
    "postal": "M6J7T6",
    "result": []
  },
  {
    "postal": "M6J3X0",
    "result": []
  },
  {
    "postal": "M6J2T0",
    "result": []
  },
  {
    "postal": "M6J5X9",
    "result": []
  },
  {
    "postal": "M6J2R3",
    "result": [
      {
        "electoralDistricts": [
          {
            "election": null,
            "id": 112,
            "name": "University—Rosedale"
          }
        ],
        "pollDivisionIds": [
          10136382
        ],
        "postalCode": "M6J2R3",
        "streetName": "BELLWOODS",
        "streetDirectionId": null,
        "streetTypeId": "AVE",
        "placeName": "TORONTO",
        "streetNameDisplayText": "BELLWOODS AVE, TORONTO"
      }
    ]
  },
  {
    "postal": "M6J5N2",
    "result": []
  },
  {
    "postal": "M6J4Y7",
    "result": []
  },
  {
    "postal": "M6J7M0",
    "result": []
  },
  {
    "postal": "M6J8P3",
    "result": []
  },
  {
    "postal": "M6J3N3",
    "result": []
  },
  {
    "postal": "M6J7S3",
    "result": []
  },
  {
    "postal": "M6J3V9",
    "result": [
      {
        "electoralDistricts": [
          {
            "election": null,
            "id": 101,
            "name": "Spadina—Fort York"
          }
        ],
        "pollDivisionIds": [
          10143934
        ],
        "postalCode": "M6J3V9",
        "streetName": "WALNUT",
        "streetDirectionId": null,
        "streetTypeId": "AVE",
        "placeName": "TORONTO",
        "streetNameDisplayText": "WALNUT AVE, TORONTO"
      }
    ]
  },
  {
    "postal": "M6J9N7",
    "result": []
  },
  {
    "postal": "M6J0G4",
    "result": [
      {
        "electoralDistricts": [
          {
            "election": null,
            "id": 19,
            "name": "Davenport"
          }
        ],
        "pollDivisionIds": [
          10143812
        ],
        "postalCode": "M6J0G4",
        "streetName": "DOVERCOURT",
        "streetDirectionId": null,
        "streetTypeId": "RD",
        "placeName": "TORONTO",
        "streetNameDisplayText": "DOVERCOURT RD, TORONTO"
      }
    ]
  },
  {
    "postal": "M6J2E2",
    "result": [
      {
        "electoralDistricts": [
          {
            "election": null,
            "id": 19,
            "name": "Davenport"
          }
        ],
        "pollDivisionIds": [
          10136103
        ],
        "postalCode": "M6J2E2",
        "streetName": "PARR",
        "streetDirectionId": null,
        "streetTypeId": "ST",
        "placeName": "TORONTO",
        "streetNameDisplayText": "PARR ST, TORONTO"
      }
    ]
  },
  {
    "postal": "M6J7W8",
    "result": []
  },
  {
    "postal": "M6J7M5",
    "result": []
  },
  {
    "postal": "M6J5W8",
    "result": []
  },
  {
    "postal": "M6J5E5",
    "result": []
  },
  {
    "postal": "M6J1P9",
    "result": [
      {
        "electoralDistricts": [
          {
            "election": null,
            "id": 101,
            "name": "Spadina—Fort York"
          }
        ],
        "pollDivisionIds": [
          10141940
        ],
        "postalCode": "M6J1P9",
        "streetName": "FOXLEY",
        "streetDirectionId": null,
        "streetTypeId": "ST",
        "placeName": "TORONTO",
        "streetNameDisplayText": "FOXLEY ST, TORONTO"
      }
    ]
  },
  {
    "postal": "M6J8V8",
    "result": []
  },
  {
    "postal": "M6J9G8",
    "result": []
  },
  {
    "postal": "M6J8H9",
    "result": []
  },
  {
    "postal": "M6J1Z1",
    "result": [
      {
        "electoralDistricts": [
          {
            "election": null,
            "id": 112,
            "name": "University—Rosedale"
          }
        ],
        "pollDivisionIds": [
          10136382
        ],
        "postalCode": "M6J1Z1",
        "streetName": "PLYMOUTH",
        "streetDirectionId": null,
        "streetTypeId": "AVE",
        "placeName": "TORONTO",
        "streetNameDisplayText": "PLYMOUTH AVE, TORONTO"
      }
    ]
  },
  {
    "postal": "M6J8M3",
    "result": []
  },
  {
    "postal": "M6J5H6",
    "result": []
  },
  {
    "postal": "M6J7W7",
    "result": []
  },
  {
    "postal": "M6J4L0",
    "result": []
  },
  {
    "postal": "M6J2N1",
    "result": [
      {
        "electoralDistricts": [
          {
            "election": null,
            "id": 112,
            "name": "University—Rosedale"
          }
        ],
        "pollDivisionIds": [
          10136382
        ],
        "postalCode": "M6J2N1",
        "streetName": "CLAREMONT",
        "streetDirectionId": null,
        "streetTypeId": "ST",
        "placeName": "TORONTO",
        "streetNameDisplayText": "CLAREMONT ST, TORONTO"
      }
    ]
  },
  {
    "postal": "M6J2H4",
    "result": [
      {
        "electoralDistricts": [
          {
            "election": null,
            "id": 101,
            "name": "Spadina—Fort York"
          }
        ],
        "pollDivisionIds": [
          10141951
        ],
        "postalCode": "M6J2H4",
        "streetName": "TECUMSETH",
        "streetDirectionId": null,
        "streetTypeId": "ST",
        "placeName": "TORONTO",
        "streetNameDisplayText": "TECUMSETH ST, TORONTO"
      }
    ]
  },
  {
    "postal": "M6J5C8",
    "result": []
  },
  {
    "postal": "M6J8B0",
    "result": []
  },
  {
    "postal": "M6J1T4",
    "result": [
      {
        "electoralDistricts": [
          {
            "election": null,
            "id": 19,
            "name": "Davenport"
          }
        ],
        "pollDivisionIds": [
          10143812
        ],
        "postalCode": "M6J1T4",
        "streetName": "STONEHOUSE",
        "streetDirectionId": null,
        "streetTypeId": "CRES",
        "placeName": "TORONTO",
        "streetNameDisplayText": "STONEHOUSE CRES, TORONTO"
      }
    ]
  },
  {
    "postal": "M6J7N7",
    "result": []
  },
  {
    "postal": "M6J4L3",
    "result": []
  },
  {
    "postal": "M6J2N2",
    "result": [
      {
        "electoralDistricts": [
          {
            "election": null,
            "id": 112,
            "name": "University—Rosedale"
          }
        ],
        "pollDivisionIds": [
          10136382
        ],
        "postalCode": "M6J2N2",
        "streetName": "CLAREMONT",
        "streetDirectionId": null,
        "streetTypeId": "ST",
        "placeName": "TORONTO",
        "streetNameDisplayText": "CLAREMONT ST, TORONTO"
      }
    ]
  },
  {
    "postal": "M6J4N8",
    "result": []
  },
  {
    "postal": "M6J3M5",
    "result": []
  },
  {
    "postal": "M6J6H7",
    "result": []
  },
  {
    "postal": "M6J8Y8",
    "result": []
  },
  {
    "postal": "M6J5R9",
    "result": []
  },
  {
    "postal": "M6J8G3",
    "result": []
  },
  {
    "postal": "M6J4N7",
    "result": []
  },
  {
    "postal": "M6J0B9",
    "result": [
      {
        "electoralDistricts": [
          {
            "election": null,
            "id": 19,
            "name": "Davenport"
          }
        ],
        "pollDivisionIds": [
          10143812
        ],
        "postalCode": "M6J0B9",
        "streetName": "LISGAR",
        "streetDirectionId": null,
        "streetTypeId": "ST",
        "placeName": "TORONTO",
        "streetNameDisplayText": "LISGAR ST, TORONTO"
      }
    ]
  },
  {
    "postal": "M6J9K7",
    "result": []
  },
  {
    "postal": "M6J9K9",
    "result": []
  },
  {
    "postal": "M6J3Z2",
    "result": []
  },
  {
    "postal": "M6J6W7",
    "result": []
  },
  {
    "postal": "M6J0P1",
    "result": []
  },
  {
    "postal": "M6J3A0",
    "result": []
  },
  {
    "postal": "M6J8L9",
    "result": []
  },
  {
    "postal": "M6J6X0",
    "result": []
  },
  {
    "postal": "M6J3E9",
    "result": [
      {
        "electoralDistricts": [
          {
            "election": null,
            "id": 19,
            "name": "Davenport"
          }
        ],
        "pollDivisionIds": [
          10136105
        ],
        "postalCode": "M6J3E9",
        "streetName": "COOLMINE",
        "streetDirectionId": null,
        "streetTypeId": "RD",
        "placeName": "TORONTO",
        "streetNameDisplayText": "COOLMINE RD, TORONTO"
      }
    ]
  },
  {
    "postal": "M6J0S5",
    "result": []
  },
  {
    "postal": "M6J1A2",
    "result": [
      {
        "electoralDistricts": [
          {
            "election": null,
            "id": 101,
            "name": "Spadina—Fort York"
          }
        ],
        "pollDivisionIds": [
          10141951
        ],
        "postalCode": "M6J1A2",
        "streetName": "WHITAKER",
        "streetDirectionId": null,
        "streetTypeId": "AVE",
        "placeName": "TORONTO",
        "streetNameDisplayText": "WHITAKER AVE, TORONTO"
      }
    ]
  },
  {
    "postal": "M6J5V8",
    "result": []
  },
  {
    "postal": "M6J8C5",
    "result": []
  },
  {
    "postal": "M6J6N0",
    "result": []
  },
  {
    "postal": "M6J9E6",
    "result": []
  },
  {
    "postal": "M6J5J7",
    "result": []
  },
  {
    "postal": "M6J2R2",
    "result": [
      {
        "electoralDistricts": [
          {
            "election": null,
            "id": 112,
            "name": "University—Rosedale"
          }
        ],
        "pollDivisionIds": [
          10136382
        ],
        "postalCode": "M6J2R2",
        "streetName": "BELLWOODS",
        "streetDirectionId": null,
        "streetTypeId": "AVE",
        "placeName": "TORONTO",
        "streetNameDisplayText": "BELLWOODS AVE, TORONTO"
      }
    ]
  },
  {
    "postal": "M6J0P5",
    "result": []
  },
  {
    "postal": "M6J5A7",
    "result": []
  },
  {
    "postal": "M6J1G1",
    "result": [
      {
        "electoralDistricts": [
          {
            "election": null,
            "id": 110,
            "name": "Toronto—Danforth"
          }
        ],
        "pollDivisionIds": [
          10142529
        ],
        "postalCode": "M6J1G1",
        "streetName": "QUEEN",
        "streetDirectionId": "E",
        "streetTypeId": "ST",
        "placeName": "TORONTO",
        "streetNameDisplayText": "QUEEN ST E, TORONTO"
      },
      {
        "electoralDistricts": [
          {
            "election": null,
            "id": 101,
            "name": "Spadina—Fort York"
          }
        ],
        "pollDivisionIds": [
          10143934,
          10141951
        ],
        "postalCode": "M6J1G1",
        "streetName": "QUEEN",
        "streetDirectionId": "W",
        "streetTypeId": "ST",
        "placeName": "TORONTO",
        "streetNameDisplayText": "QUEEN ST W, TORONTO"
      }
    ]
  },
  {
    "postal": "M6J9R6",
    "result": []
  },
  {
    "postal": "M6J4Z9",
    "result": []
  },
  {
    "postal": "M6J1V5",
    "result": [
      {
        "electoralDistricts": [
          {
            "election": null,
            "id": 112,
            "name": "University—Rosedale"
          }
        ],
        "pollDivisionIds": [
          10136382
        ],
        "postalCode": "M6J1V5",
        "streetName": "DUNDAS",
        "streetDirectionId": "W",
        "streetTypeId": "ST",
        "placeName": "TORONTO",
        "streetNameDisplayText": "DUNDAS ST W, TORONTO"
      }
    ]
  },
  {
    "postal": "M6J9Y5",
    "result": []
  },
  {
    "postal": "M6J1P2",
    "result": [
      {
        "electoralDistricts": [
          {
            "election": null,
            "id": 19,
            "name": "Davenport"
          }
        ],
        "pollDivisionIds": [
          10143812
        ],
        "postalCode": "M6J1P2",
        "streetName": "ARGYLE",
        "streetDirectionId": null,
        "streetTypeId": "ST",
        "placeName": "TORONTO",
        "streetNameDisplayText": "ARGYLE ST, TORONTO"
      }
    ]
  },
  {
    "postal": "M6J5X0",
    "result": []
  },
  {
    "postal": "M6J7B8",
    "result": []
  },
  {
    "postal": "M6J0C6",
    "result": [
      {
        "electoralDistricts": [
          {
            "election": null,
            "id": 19,
            "name": "Davenport"
          }
        ],
        "pollDivisionIds": [
          10143812
        ],
        "postalCode": "M6J0C6",
        "streetName": "ABELL",
        "streetDirectionId": null,
        "streetTypeId": "ST",
        "placeName": "TORONTO",
        "streetNameDisplayText": "ABELL ST, TORONTO"
      }
    ]
  },
  {
    "postal": "M6J6G1",
    "result": []
  },
  {
    "postal": "M6J3K3",
    "result": [
      {
        "electoralDistricts": [
          {
            "election": null,
            "id": 19,
            "name": "Davenport"
          }
        ],
        "pollDivisionIds": [
          10143812
        ],
        "postalCode": "M6J3K3",
        "streetName": "NORTHCOTE",
        "streetDirectionId": null,
        "streetTypeId": "AVE",
        "placeName": "TORONTO",
        "streetNameDisplayText": "NORTHCOTE AVE, TORONTO"
      }
    ]
  },
  {
    "postal": "M6J9R0",
    "result": []
  },
  {
    "postal": "M6J4R8",
    "result": []
  },
  {
    "postal": "M6J5P9",
    "result": []
  },
  {
    "postal": "M6J8N4",
    "result": []
  },
  {
    "postal": "M6J8H4",
    "result": []
  },
  {
    "postal": "M6J4V1",
    "result": []
  },
  {
    "postal": "M6J1K5",
    "result": [
      {
        "electoralDistricts": [
          {
            "election": null,
            "id": 101,
            "name": "Spadina—Fort York"
          }
        ],
        "pollDivisionIds": [
          10141942
        ],
        "postalCode": "M6J1K5",
        "streetName": "CROCKER",
        "streetDirectionId": null,
        "streetTypeId": "AVE",
        "placeName": "TORONTO",
        "streetNameDisplayText": "CROCKER AVE, TORONTO"
      }
    ]
  },
  {
    "postal": "M6J1Z5",
    "result": [
      {
        "electoralDistricts": [
          {
            "election": null,
            "id": 112,
            "name": "University—Rosedale"
          }
        ],
        "pollDivisionIds": [
          10136382
        ],
        "postalCode": "M6J1Z5",
        "streetName": "TREFORD",
        "streetDirectionId": null,
        "streetTypeId": "PL",
        "placeName": "TORONTO",
        "streetNameDisplayText": "TREFORD PL, TORONTO"
      }
    ]
  },
  {
    "postal": "M6J9L9",
    "result": []
  },
  {
    "postal": "M6J5L2",
    "result": []
  },
  {
    "postal": "M6J0M2",
    "result": []
  },
  {
    "postal": "M6J1K8",
    "result": [
      {
        "electoralDistricts": [
          {
            "election": null,
            "id": 101,
            "name": "Spadina—Fort York"
          }
        ],
        "pollDivisionIds": [
          10141940
        ],
        "postalCode": "M6J1K8",
        "streetName": "REBECCA",
        "streetDirectionId": null,
        "streetTypeId": "ST",
        "placeName": "TORONTO",
        "streetNameDisplayText": "REBECCA ST, TORONTO"
      }
    ]
  },
  {
    "postal": "M6J3M7",
    "result": [
      {
        "electoralDistricts": [
          {
            "election": null,
            "id": 110,
            "name": "Toronto—Danforth"
          }
        ],
        "pollDivisionIds": [
          10142508
        ],
        "postalCode": "M6J3M7",
        "streetName": "GERTRUDE",
        "streetDirectionId": null,
        "streetTypeId": "PL",
        "placeName": "TORONTO",
        "streetNameDisplayText": "GERTRUDE PL, TORONTO"
      }
    ]
  },
  {
    "postal": "M6J1B2",
    "result": [
      {
        "electoralDistricts": [
          {
            "election": null,
            "id": 101,
            "name": "Spadina—Fort York"
          }
        ],
        "pollDivisionIds": [
          10143934
        ],
        "postalCode": "M6J1B2",
        "streetName": "ADELAIDE",
        "streetDirectionId": "W",
        "streetTypeId": "ST",
        "placeName": "TORONTO",
        "streetNameDisplayText": "ADELAIDE ST W, TORONTO"
      }
    ]
  },
  {
    "postal": "M6J0H9",
    "result": []
  },
  {
    "postal": "M6J8M4",
    "result": []
  },
  {
    "postal": "M6J2M5",
    "result": [
      {
        "electoralDistricts": [
          {
            "election": null,
            "id": 101,
            "name": "Spadina—Fort York"
          }
        ],
        "pollDivisionIds": [
          10141942
        ],
        "postalCode": "M6J2M5",
        "streetName": "A CLAREMONT",
        "streetDirectionId": null,
        "streetTypeId": "ST",
        "placeName": "TORONTO",
        "streetNameDisplayText": "A CLAREMONT ST, TORONTO"
      },
      {
        "electoralDistricts": [
          {
            "election": null,
            "id": 101,
            "name": "Spadina—Fort York"
          }
        ],
        "pollDivisionIds": [
          10141942
        ],
        "postalCode": "M6J2M5",
        "streetName": "CLAREMONT",
        "streetDirectionId": null,
        "streetTypeId": "ST",
        "placeName": "TORONTO",
        "streetNameDisplayText": "CLAREMONT ST, TORONTO"
      }
    ]
  },
  {
    "postal": "M6J0T9",
    "result": []
  },
  {
    "postal": "M6J3P1",
    "result": [
      {
        "electoralDistricts": [
          {
            "election": null,
            "id": 101,
            "name": "Spadina—Fort York"
          }
        ],
        "pollDivisionIds": [
          10141951
        ],
        "postalCode": "M6J3P1",
        "streetName": "PORTUGAL",
        "streetDirectionId": null,
        "streetTypeId": "SQ",
        "placeName": "TORONTO",
        "streetNameDisplayText": "PORTUGAL SQ, TORONTO"
      }
    ]
  },
  {
    "postal": "M6J1R6",
    "result": [
      {
        "electoralDistricts": [
          {
            "election": null,
            "id": 19,
            "name": "Davenport"
          }
        ],
        "pollDivisionIds": [
          10143812
        ],
        "postalCode": "M6J1R6",
        "streetName": "AFTON",
        "streetDirectionId": null,
        "streetTypeId": "AVE",
        "placeName": "TORONTO",
        "streetNameDisplayText": "AFTON AVE, TORONTO"
      }
    ]
  },
  {
    "postal": "M6J9V5",
    "result": []
  },
  {
    "postal": "M6J9T0",
    "result": []
  },
  {
    "postal": "M6J0A9",
    "result": [
      {
        "electoralDistricts": [
          {
            "election": null,
            "id": 19,
            "name": "Davenport"
          }
        ],
        "pollDivisionIds": [
          10143812
        ],
        "postalCode": "M6J0A9",
        "streetName": "ABELL",
        "streetDirectionId": null,
        "streetTypeId": "ST",
        "placeName": "TORONTO",
        "streetNameDisplayText": "ABELL ST, TORONTO"
      }
    ]
  },
  {
    "postal": "M6J1M3",
    "result": [
      {
        "electoralDistricts": [
          {
            "election": null,
            "id": 19,
            "name": "Davenport"
          }
        ],
        "pollDivisionIds": [
          10143812
        ],
        "postalCode": "M6J1M3",
        "streetName": "PEEL",
        "streetDirectionId": null,
        "streetTypeId": "AVE",
        "placeName": "TORONTO",
        "streetNameDisplayText": "PEEL AVE, TORONTO"
      }
    ]
  },
  {
    "postal": "M6J1W8",
    "result": [
      {
        "electoralDistricts": [
          {
            "election": null,
            "id": 112,
            "name": "University—Rosedale"
          }
        ],
        "pollDivisionIds": [
          10136377
        ],
        "postalCode": "M6J1W8",
        "streetName": "DUNDAS",
        "streetDirectionId": "W",
        "streetTypeId": "ST",
        "placeName": "TORONTO",
        "streetNameDisplayText": "DUNDAS ST W, TORONTO"
      }
    ]
  },
  {
    "postal": "M6J9J1",
    "result": []
  },
  {
    "postal": "M6J8N5",
    "result": []
  },
  {
    "postal": "M6J5X1",
    "result": []
  },
  {
    "postal": "M6J6S2",
    "result": []
  },
  {
    "postal": "M6J2A2",
    "result": [
      {
        "electoralDistricts": [
          {
            "election": null,
            "id": 19,
            "name": "Davenport"
          }
        ],
        "pollDivisionIds": [
          10136105
        ],
        "postalCode": "M6J2A2",
        "streetName": "HARRISON",
        "streetDirectionId": null,
        "streetTypeId": "ST",
        "placeName": "TORONTO",
        "streetNameDisplayText": "HARRISON ST, TORONTO"
      }
    ]
  },
  {
    "postal": "M6J6A6",
    "result": []
  },
  {
    "postal": "M6J0S3",
    "result": []
  },
  {
    "postal": "M6J3E7",
    "result": [
      {
        "electoralDistricts": [
          {
            "election": null,
            "id": 19,
            "name": "Davenport"
          }
        ],
        "pollDivisionIds": [
          10136105
        ],
        "postalCode": "M6J3E7",
        "streetName": "DOVERCOURT",
        "streetDirectionId": null,
        "streetTypeId": "RD",
        "placeName": "TORONTO",
        "streetNameDisplayText": "DOVERCOURT RD, TORONTO"
      }
    ]
  },
  {
    "postal": "M6J5R7",
    "result": []
  },
  {
    "postal": "M6J3R6",
    "result": [
      {
        "electoralDistricts": [
          {
            "election": null,
            "id": 101,
            "name": "Spadina—Fort York"
          }
        ],
        "pollDivisionIds": [
          10141951
        ],
        "postalCode": "M6J3R6",
        "streetName": "MICHENER",
        "streetDirectionId": null,
        "streetTypeId": "CRT",
        "placeName": "TORONTO",
        "streetNameDisplayText": "MICHENER CRT, TORONTO"
      }
    ]
  },
  {
    "postal": "M6J6K4",
    "result": []
  },
  {
    "postal": "M6J2W5",
    "result": [
      {
        "electoralDistricts": [
          {
            "election": null,
            "id": 101,
            "name": "Spadina—Fort York"
          }
        ],
        "pollDivisionIds": [
          10143934
        ],
        "postalCode": "M6J2W5",
        "streetName": "SHAW",
        "streetDirectionId": null,
        "streetTypeId": "ST",
        "placeName": "TORONTO",
        "streetNameDisplayText": "SHAW ST, TORONTO"
      }
    ]
  },
  {
    "postal": "M6J8W4",
    "result": []
  },
  {
    "postal": "M6J9C2",
    "result": []
  },
  {
    "postal": "M6J2C0",
    "result": []
  },
  {
    "postal": "M6J0E1",
    "result": []
  },
  {
    "postal": "M6J1K9",
    "result": [
      {
        "electoralDistricts": [
          {
            "election": null,
            "id": 101,
            "name": "Spadina—Fort York"
          }
        ],
        "pollDivisionIds": [
          10141943,
          10141942
        ],
        "postalCode": "M6J1K9",
        "streetName": "ROBINSON",
        "streetDirectionId": null,
        "streetTypeId": "ST",
        "placeName": "TORONTO",
        "streetNameDisplayText": "ROBINSON ST, TORONTO"
      }
    ]
  },
  {
    "postal": "M6J1G7",
    "result": [
      {
        "electoralDistricts": [
          {
            "election": null,
            "id": 101,
            "name": "Spadina—Fort York"
          }
        ],
        "pollDivisionIds": [
          10141959,
          10143934,
          10141951
        ],
        "postalCode": "M6J1G7",
        "streetName": "QUEEN",
        "streetDirectionId": "W",
        "streetTypeId": "ST",
        "placeName": "TORONTO",
        "streetNameDisplayText": "QUEEN ST W, TORONTO"
      }
    ]
  },
  {
    "postal": "M6J4E9",
    "result": []
  },
  {
    "postal": "M6J9P0",
    "result": []
  },
  {
    "postal": "M6J5H3",
    "result": []
  },
  {
    "postal": "M6J9X6",
    "result": []
  },
  {
    "postal": "M6J5N7",
    "result": []
  },
  {
    "postal": "M6J5A6",
    "result": []
  },
  {
    "postal": "M6J4M0",
    "result": []
  },
  {
    "postal": "M6J3V6",
    "result": [
      {
        "electoralDistricts": [
          {
            "election": null,
            "id": 101,
            "name": "Spadina—Fort York"
          }
        ],
        "pollDivisionIds": [
          10141951,
          10143934
        ],
        "postalCode": "M6J3V6",
        "streetName": "ADELAIDE",
        "streetDirectionId": "W",
        "streetTypeId": "ST",
        "placeName": "TORONTO",
        "streetNameDisplayText": "ADELAIDE ST W, TORONTO"
      }
    ]
  },
  {
    "postal": "M6J1L7",
    "result": [
      {
        "electoralDistricts": [
          {
            "election": null,
            "id": 101,
            "name": "Spadina—Fort York"
          }
        ],
        "pollDivisionIds": [
          10141942
        ],
        "postalCode": "M6J1L7",
        "streetName": "ROBINSON",
        "streetDirectionId": null,
        "streetTypeId": "ST",
        "placeName": "TORONTO",
        "streetNameDisplayText": "ROBINSON ST, TORONTO"
      }
    ]
  },
  {
    "postal": "M6J2P9",
    "result": [
      {
        "electoralDistricts": [
          {
            "election": null,
            "id": 112,
            "name": "University—Rosedale"
          }
        ],
        "pollDivisionIds": [
          10136382
        ],
        "postalCode": "M6J2P9",
        "streetName": "BELLWOODS",
        "streetDirectionId": null,
        "streetTypeId": "AVE",
        "placeName": "TORONTO",
        "streetNameDisplayText": "BELLWOODS AVE, TORONTO"
      }
    ]
  },
  {
    "postal": "M6J5T4",
    "result": []
  },
  {
    "postal": "M6J5Z1",
    "result": []
  },
  {
    "postal": "M6J2X0",
    "result": []
  },
  {
    "postal": "M6J6Z2",
    "result": []
  },
  {
    "postal": "M6J0E0",
    "result": []
  },
  {
    "postal": "M6J3Z5",
    "result": []
  },
  {
    "postal": "M6J8H3",
    "result": []
  },
  {
    "postal": "M6J7S6",
    "result": []
  },
  {
    "postal": "M6J4C1",
    "result": []
  },
  {
    "postal": "M6J3K2",
    "result": [
      {
        "electoralDistricts": [
          {
            "election": null,
            "id": 19,
            "name": "Davenport"
          }
        ],
        "pollDivisionIds": [
          10143812
        ],
        "postalCode": "M6J3K2",
        "streetName": "NORTHCOTE",
        "streetDirectionId": null,
        "streetTypeId": "AVE",
        "placeName": "TORONTO",
        "streetNameDisplayText": "NORTHCOTE AVE, TORONTO"
      }
    ]
  },
  {
    "postal": "M6J1Y5",
    "result": [
      {
        "electoralDistricts": [
          {
            "election": null,
            "id": 19,
            "name": "Davenport"
          }
        ],
        "pollDivisionIds": [
          10136103
        ],
        "postalCode": "M6J1Y5",
        "streetName": "DUNDAS",
        "streetDirectionId": "W",
        "streetTypeId": "ST",
        "placeName": "TORONTO",
        "streetNameDisplayText": "DUNDAS ST W, TORONTO"
      }
    ]
  },
  {
    "postal": "M6J6P6",
    "result": []
  },
  {
    "postal": "M6J3N9",
    "result": []
  },
  {
    "postal": "M6J3W2",
    "result": []
  },
  {
    "postal": "M6J6H8",
    "result": []
  },
  {
    "postal": "M6J9T3",
    "result": []
  },
  {
    "postal": "M6J5L9",
    "result": []
  },
  {
    "postal": "M6J7X7",
    "result": []
  },
  {
    "postal": "M6J3J5",
    "result": [
      {
        "electoralDistricts": [
          {
            "election": null,
            "id": 19,
            "name": "Davenport"
          }
        ],
        "pollDivisionIds": [
          10143812
        ],
        "postalCode": "M6J3J5",
        "streetName": "BEACONSFIELD",
        "streetDirectionId": null,
        "streetTypeId": "AVE",
        "placeName": "TORONTO",
        "streetNameDisplayText": "BEACONSFIELD AVE, TORONTO"
      }
    ]
  },
  {
    "postal": "M6J4J5",
    "result": []
  },
  {
    "postal": "M6J6J2",
    "result": []
  },
  {
    "postal": "M6J5V6",
    "result": []
  },
  {
    "postal": "M6J3N2",
    "result": []
  },
  {
    "postal": "M6J3B1",
    "result": [
      {
        "electoralDistricts": [
          {
            "election": null,
            "id": 19,
            "name": "Davenport"
          }
        ],
        "pollDivisionIds": [
          10136105
        ],
        "postalCode": "M6J3B1",
        "streetName": "LAKEVIEW",
        "streetDirectionId": null,
        "streetTypeId": "AVE",
        "placeName": "TORONTO",
        "streetNameDisplayText": "LAKEVIEW AVE, TORONTO"
      }
    ]
  },
  {
    "postal": "M6J8B5",
    "result": []
  },
  {
    "postal": "M6J0K1",
    "result": []
  },
  {
    "postal": "M6J7M7",
    "result": []
  },
  {
    "postal": "M6J2M2",
    "result": [
      {
        "electoralDistricts": [
          {
            "election": null,
            "id": 101,
            "name": "Spadina—Fort York"
          }
        ],
        "pollDivisionIds": [
          10143934
        ],
        "postalCode": "M6J2M2",
        "streetName": "CLAREMONT",
        "streetDirectionId": null,
        "streetTypeId": "ST",
        "placeName": "TORONTO",
        "streetNameDisplayText": "CLAREMONT ST, TORONTO"
      }
    ]
  },
  {
    "postal": "M6J9N3",
    "result": []
  },
  {
    "postal": "M6J4Y8",
    "result": []
  },
  {
    "postal": "M6J3V7",
    "result": []
  },
  {
    "postal": "M6J8Z1",
    "result": []
  },
  {
    "postal": "M6J7B3",
    "result": []
  },
  {
    "postal": "M6J3A8",
    "result": [
      {
        "electoralDistricts": [
          {
            "election": null,
            "id": 101,
            "name": "Spadina—Fort York"
          }
        ],
        "pollDivisionIds": [
          10141940
        ],
        "postalCode": "M6J3A8",
        "streetName": "BROOKFIELD",
        "streetDirectionId": null,
        "streetTypeId": "ST",
        "placeName": "TORONTO",
        "streetNameDisplayText": "BROOKFIELD ST, TORONTO"
      }
    ]
  },
  {
    "postal": "M6J7V5",
    "result": []
  },
  {
    "postal": "M6J2T2",
    "result": [
      {
        "electoralDistricts": [
          {
            "election": null,
            "id": 112,
            "name": "University—Rosedale"
          }
        ],
        "pollDivisionIds": [
          10136377
        ],
        "postalCode": "M6J2T2",
        "streetName": "BEATRICE",
        "streetDirectionId": null,
        "streetTypeId": "ST",
        "placeName": "TORONTO",
        "streetNameDisplayText": "BEATRICE ST, TORONTO"
      }
    ]
  },
  {
    "postal": "M6J6L3",
    "result": []
  },
  {
    "postal": "M6J0L2",
    "result": []
  },
  {
    "postal": "M6J5Y8",
    "result": []
  },
  {
    "postal": "M6J0B8",
    "result": [
      {
        "electoralDistricts": [
          {
            "election": null,
            "id": 19,
            "name": "Davenport"
          }
        ],
        "pollDivisionIds": [
          10143812
        ],
        "postalCode": "M6J0B8",
        "streetName": "LISGAR",
        "streetDirectionId": null,
        "streetTypeId": "ST",
        "placeName": "TORONTO",
        "streetNameDisplayText": "LISGAR ST, TORONTO"
      }
    ]
  },
  {
    "postal": "M6J6R5",
    "result": []
  },
  {
    "postal": "M6J8W6",
    "result": []
  },
  {
    "postal": "M6J8G6",
    "result": []
  },
  {
    "postal": "M6J6X3",
    "result": []
  },
  {
    "postal": "M6J7R7",
    "result": []
  },
  {
    "postal": "M6J4B6",
    "result": []
  },
  {
    "postal": "M6J3P9",
    "result": [
      {
        "electoralDistricts": [
          {
            "election": null,
            "id": 101,
            "name": "Spadina—Fort York"
          }
        ],
        "pollDivisionIds": [
          10143934
        ],
        "postalCode": "M6J3P9",
        "streetName": "STANLEY",
        "streetDirectionId": null,
        "streetTypeId": "TERR",
        "placeName": "TORONTO",
        "streetNameDisplayText": "STANLEY TERR, TORONTO"
      }
    ]
  },
  {
    "postal": "M6J2T3",
    "result": [
      {
        "electoralDistricts": [
          {
            "election": null,
            "id": 112,
            "name": "University—Rosedale"
          }
        ],
        "pollDivisionIds": [
          10136377
        ],
        "postalCode": "M6J2T3",
        "streetName": "BEATRICE",
        "streetDirectionId": null,
        "streetTypeId": "ST",
        "placeName": "TORONTO",
        "streetNameDisplayText": "BEATRICE ST, TORONTO"
      }
    ]
  },
  {
    "postal": "M6J1M4",
    "result": [
      {
        "electoralDistricts": [
          {
            "election": null,
            "id": 19,
            "name": "Davenport"
          }
        ],
        "pollDivisionIds": [
          10143812
        ],
        "postalCode": "M6J1M4",
        "streetName": "PEEL",
        "streetDirectionId": null,
        "streetTypeId": "AVE",
        "placeName": "TORONTO",
        "streetNameDisplayText": "PEEL AVE, TORONTO"
      }
    ]
  },
  {
    "postal": "M6J0H1",
    "result": []
  },
  {
    "postal": "M6J9W3",
    "result": []
  },
  {
    "postal": "M6J6P1",
    "result": []
  },
  {
    "postal": "M6J7G2",
    "result": []
  },
  {
    "postal": "M6J4J9",
    "result": []
  },
  {
    "postal": "M6J9E4",
    "result": []
  },
  {
    "postal": "M6J8H0",
    "result": []
  },
  {
    "postal": "M6J4M7",
    "result": []
  },
  {
    "postal": "M6J2G9",
    "result": [
      {
        "electoralDistricts": [
          {
            "election": null,
            "id": 101,
            "name": "Spadina—Fort York"
          }
        ],
        "pollDivisionIds": [
          10141951
        ],
        "postalCode": "M6J2G9",
        "streetName": "TECUMSETH",
        "streetDirectionId": "W",
        "streetTypeId": "ST",
        "placeName": "TORONTO",
        "streetNameDisplayText": "TECUMSETH ST W, TORONTO"
      },
      {
        "electoralDistricts": [
          {
            "election": null,
            "id": 101,
            "name": "Spadina—Fort York"
          }
        ],
        "pollDivisionIds": [
          10141951
        ],
        "postalCode": "M6J2G9",
        "streetName": "TECUMSETH",
        "streetDirectionId": null,
        "streetTypeId": "ST",
        "placeName": "TORONTO",
        "streetNameDisplayText": "TECUMSETH ST, TORONTO"
      }
    ]
  },
  {
    "postal": "M6J8T2",
    "result": []
  },
  {
    "postal": "M6J7G7",
    "result": []
  },
  {
    "postal": "M6J4Z3",
    "result": []
  },
  {
    "postal": "M6J5B3",
    "result": []
  },
  {
    "postal": "M6J1S7",
    "result": [
      {
        "electoralDistricts": [
          {
            "election": null,
            "id": 19,
            "name": "Davenport"
          }
        ],
        "pollDivisionIds": [
          10143812
        ],
        "postalCode": "M6J1S7",
        "streetName": "CROSS",
        "streetDirectionId": null,
        "streetTypeId": "ST",
        "placeName": "TORONTO",
        "streetNameDisplayText": "CROSS ST, TORONTO"
      }
    ]
  },
  {
    "postal": "M6J2N7",
    "result": [
      {
        "electoralDistricts": [
          {
            "election": null,
            "id": 112,
            "name": "University—Rosedale"
          }
        ],
        "pollDivisionIds": [
          10136381
        ],
        "postalCode": "M6J2N7",
        "streetName": "CLINTON",
        "streetDirectionId": null,
        "streetTypeId": "ST",
        "placeName": "TORONTO",
        "streetNameDisplayText": "CLINTON ST, TORONTO"
      }
    ]
  },
  {
    "postal": "M6J0H8",
    "result": []
  },
  {
    "postal": "M6J7Z4",
    "result": []
  },
  {
    "postal": "M6J7B1",
    "result": []
  },
  {
    "postal": "M6J7P8",
    "result": []
  },
  {
    "postal": "M6J7N0",
    "result": []
  },
  {
    "postal": "M6J3Y5",
    "result": []
  },
  {
    "postal": "M6J6K1",
    "result": []
  },
  {
    "postal": "M6J9X5",
    "result": []
  },
  {
    "postal": "M6J7S5",
    "result": []
  },
  {
    "postal": "M6J0A4",
    "result": [
      {
        "electoralDistricts": [
          {
            "election": null,
            "id": 19,
            "name": "Davenport"
          }
        ],
        "pollDivisionIds": [
          10143812
        ],
        "postalCode": "M6J0A4",
        "streetName": "QUEEN",
        "streetDirectionId": "W",
        "streetTypeId": "ST",
        "placeName": "TORONTO",
        "streetNameDisplayText": "QUEEN ST W, TORONTO"
      }
    ]
  },
  {
    "postal": "M6J4T5",
    "result": []
  },
  {
    "postal": "M6J5K1",
    "result": []
  },
  {
    "postal": "M6J0Z9",
    "result": []
  },
  {
    "postal": "M6J7T2",
    "result": []
  },
  {
    "postal": "M6J1L5",
    "result": [
      {
        "electoralDistricts": [
          {
            "election": null,
            "id": 101,
            "name": "Spadina—Fort York"
          }
        ],
        "pollDivisionIds": [
          10141942
        ],
        "postalCode": "M6J1L5",
        "streetName": "ROBINSON",
        "streetDirectionId": null,
        "streetTypeId": "ST",
        "placeName": "TORONTO",
        "streetNameDisplayText": "ROBINSON ST, TORONTO"
      }
    ]
  },
  {
    "postal": "M6J3N5",
    "result": [
      {
        "electoralDistricts": [
          {
            "election": null,
            "id": 101,
            "name": "Spadina—Fort York"
          }
        ],
        "pollDivisionIds": [
          10143934
        ],
        "postalCode": "M6J3N5",
        "streetName": "WALNUT",
        "streetDirectionId": null,
        "streetTypeId": "AVE",
        "placeName": "TORONTO",
        "streetNameDisplayText": "WALNUT AVE, TORONTO"
      }
    ]
  },
  {
    "postal": "M6J6H4",
    "result": []
  },
  {
    "postal": "M6J5A5",
    "result": []
  },
  {
    "postal": "M6J3R9",
    "result": []
  },
  {
    "postal": "M6J7L8",
    "result": []
  },
  {
    "postal": "M6J6T6",
    "result": []
  },
  {
    "postal": "M6J7Y7",
    "result": []
  },
  {
    "postal": "M6J3M8",
    "result": []
  },
  {
    "postal": "M6J2E0",
    "result": []
  },
  {
    "postal": "M6J4B5",
    "result": []
  },
  {
    "postal": "M6J1J3",
    "result": [
      {
        "electoralDistricts": [
          {
            "election": null,
            "id": 19,
            "name": "Davenport"
          }
        ],
        "pollDivisionIds": [
          10143812
        ],
        "postalCode": "M6J1J3",
        "streetName": "QUEEN",
        "streetDirectionId": "W",
        "streetTypeId": "ST",
        "placeName": "TORONTO",
        "streetNameDisplayText": "QUEEN ST W, TORONTO"
      }
    ]
  },
  {
    "postal": "M6J5S6",
    "result": []
  },
  {
    "postal": "M6J8P7",
    "result": []
  },
  {
    "postal": "M6J7S7",
    "result": []
  },
  {
    "postal": "M6J4C2",
    "result": []
  },
  {
    "postal": "M6J5Y0",
    "result": []
  },
  {
    "postal": "M6J2V7",
    "result": [
      {
        "electoralDistricts": [
          {
            "election": null,
            "id": 112,
            "name": "University—Rosedale"
          }
        ],
        "pollDivisionIds": [
          10136377
        ],
        "postalCode": "M6J2V7",
        "streetName": "CRAWFORD",
        "streetDirectionId": null,
        "streetTypeId": "ST",
        "placeName": "TORONTO",
        "streetNameDisplayText": "CRAWFORD ST, TORONTO"
      }
    ]
  },
  {
    "postal": "M6J8P5",
    "result": []
  },
  {
    "postal": "M6J5P5",
    "result": []
  },
  {
    "postal": "M6J5Z0",
    "result": []
  },
  {
    "postal": "M6J9B0",
    "result": []
  },
  {
    "postal": "M6J1L0",
    "result": []
  },
  {
    "postal": "M6J0B5",
    "result": []
  },
  {
    "postal": "M6J3L2",
    "result": [
      {
        "electoralDistricts": [
          {
            "election": null,
            "id": 19,
            "name": "Davenport"
          }
        ],
        "pollDivisionIds": [
          10143812
        ],
        "postalCode": "M6J3L2",
        "streetName": "GLADSTONE",
        "streetDirectionId": null,
        "streetTypeId": "AVE",
        "placeName": "TORONTO",
        "streetNameDisplayText": "GLADSTONE AVE, TORONTO"
      }
    ]
  },
  {
    "postal": "M6J3B7",
    "result": [
      {
        "electoralDistricts": [
          {
            "election": null,
            "id": 101,
            "name": "Spadina—Fort York"
          }
        ],
        "pollDivisionIds": [
          10141940
        ],
        "postalCode": "M6J3B7",
        "streetName": "GROVE",
        "streetDirectionId": null,
        "streetTypeId": "AVE",
        "placeName": "TORONTO",
        "streetNameDisplayText": "GROVE AVE, TORONTO"
      }
    ]
  },
  {
    "postal": "M6J8L1",
    "result": []
  },
  {
    "postal": "M6J5M4",
    "result": []
  },
  {
    "postal": "M6J4G9",
    "result": []
  },
  {
    "postal": "M6J0P0",
    "result": []
  },
  {
    "postal": "M6J8G2",
    "result": []
  },
  {
    "postal": "M6J1V9",
    "result": [
      {
        "electoralDistricts": [
          {
            "election": null,
            "id": 101,
            "name": "Spadina—Fort York"
          }
        ],
        "pollDivisionIds": [
          10141942
        ],
        "postalCode": "M6J1V9",
        "streetName": "DUNDAS",
        "streetDirectionId": "W",
        "streetTypeId": "ST",
        "placeName": "TORONTO",
        "streetNameDisplayText": "DUNDAS ST W, TORONTO"
      }
    ]
  },
  {
    "postal": "M6J8N8",
    "result": []
  },
  {
    "postal": "M6J6S8",
    "result": []
  },
  {
    "postal": "M6J8H2",
    "result": []
  },
  {
    "postal": "M6J5R8",
    "result": []
  },
  {
    "postal": "M6J5L4",
    "result": []
  },
  {
    "postal": "M6J9E1",
    "result": []
  },
  {
    "postal": "M6J1C4",
    "result": [
      {
        "electoralDistricts": [
          {
            "election": null,
            "id": 101,
            "name": "Spadina—Fort York"
          }
        ],
        "pollDivisionIds": [
          10141951
        ],
        "postalCode": "M6J1C4",
        "streetName": "RICHMOND",
        "streetDirectionId": "W",
        "streetTypeId": "ST",
        "placeName": "TORONTO",
        "streetNameDisplayText": "RICHMOND ST W, TORONTO"
      }
    ]
  },
  {
    "postal": "M6J8W5",
    "result": []
  },
  {
    "postal": "M6J1Y4",
    "result": [
      {
        "electoralDistricts": [
          {
            "election": null,
            "id": 19,
            "name": "Davenport"
          }
        ],
        "pollDivisionIds": [
          10136103
        ],
        "postalCode": "M6J1Y4",
        "streetName": "DUNDAS",
        "streetDirectionId": "W",
        "streetTypeId": "ST",
        "placeName": "TORONTO",
        "streetNameDisplayText": "DUNDAS ST W, TORONTO"
      }
    ]
  },
  {
    "postal": "M6J1C0",
    "result": []
  },
  {
    "postal": "M6J2J2",
    "result": [
      {
        "electoralDistricts": [
          {
            "election": null,
            "id": 101,
            "name": "Spadina—Fort York"
          }
        ],
        "pollDivisionIds": [
          10141942
        ],
        "postalCode": "M6J2J2",
        "streetName": "PALMERSTON",
        "streetDirectionId": null,
        "streetTypeId": "AVE",
        "placeName": "TORONTO",
        "streetNameDisplayText": "PALMERSTON AVE, TORONTO"
      }
    ]
  },
  {
    "postal": "M6J2J0",
    "result": []
  },
  {
    "postal": "M6J7A3",
    "result": []
  },
  {
    "postal": "M6J8M1",
    "result": []
  },
  {
    "postal": "M6J7T9",
    "result": []
  },
  {
    "postal": "M6J6C0",
    "result": []
  },
  {
    "postal": "M6J7X1",
    "result": []
  },
  {
    "postal": "M6J0G1",
    "result": [
      {
        "electoralDistricts": [
          {
            "election": null,
            "id": 101,
            "name": "Spadina—Fort York"
          }
        ],
        "pollDivisionIds": [
          10141940
        ],
        "postalCode": "M6J0G1",
        "streetName": "OSSINGTON",
        "streetDirectionId": null,
        "streetTypeId": "AVE",
        "placeName": "TORONTO",
        "streetNameDisplayText": "OSSINGTON AVE, TORONTO"
      }
    ]
  },
  {
    "postal": "M6J4X2",
    "result": []
  },
  {
    "postal": "M6J0N6",
    "result": []
  },
  {
    "postal": "M6J8E3",
    "result": []
  },
  {
    "postal": "M6J5S8",
    "result": []
  },
  {
    "postal": "M6J0R0",
    "result": []
  },
  {
    "postal": "M6J6J6",
    "result": []
  },
  {
    "postal": "M6J4B4",
    "result": []
  },
  {
    "postal": "M6J7E3",
    "result": []
  },
  {
    "postal": "M6J3N6",
    "result": []
  },
  {
    "postal": "M6J3X6",
    "result": [
      {
        "electoralDistricts": [
          {
            "election": null,
            "id": 19,
            "name": "Davenport"
          }
        ],
        "pollDivisionIds": [
          10143812
        ],
        "postalCode": "M6J3X6",
        "streetName": "LISGAR",
        "streetDirectionId": null,
        "streetTypeId": "ST",
        "placeName": "TORONTO",
        "streetNameDisplayText": "LISGAR ST, TORONTO"
      }
    ]
  },
  {
    "postal": "M6J8L0",
    "result": []
  },
  {
    "postal": "M6J8N1",
    "result": []
  },
  {
    "postal": "M6J4J0",
    "result": []
  },
  {
    "postal": "M6J0X7",
    "result": []
  },
  {
    "postal": "M6J6S4",
    "result": []
  },
  {
    "postal": "M6J0Z0",
    "result": []
  },
  {
    "postal": "M6J9X8",
    "result": []
  },
  {
    "postal": "M6J3H3",
    "result": [
      {
        "electoralDistricts": [
          {
            "election": null,
            "id": 19,
            "name": "Davenport"
          }
        ],
        "pollDivisionIds": [
          10136102,
          10136105,
          10136101
        ],
        "postalCode": "M6J3H3",
        "streetName": "RUSHOLME",
        "streetDirectionId": null,
        "streetTypeId": "RD",
        "placeName": "TORONTO",
        "streetNameDisplayText": "RUSHOLME RD, TORONTO"
      }
    ]
  },
  {
    "postal": "M6J7S2",
    "result": []
  },
  {
    "postal": "M6J3T3",
    "result": []
  },
  {
    "postal": "M6J9P3",
    "result": []
  },
  {
    "postal": "M6J4H8",
    "result": []
  },
  {
    "postal": "M6J6R1",
    "result": []
  },
  {
    "postal": "M6J1S0",
    "result": []
  },
  {
    "postal": "M6J3W8",
    "result": [
      {
        "electoralDistricts": [
          {
            "election": null,
            "id": 101,
            "name": "Spadina—Fort York"
          }
        ],
        "pollDivisionIds": [
          10141951
        ],
        "postalCode": "M6J3W8",
        "streetName": "JOSEPH SALSBERG",
        "streetDirectionId": null,
        "streetTypeId": "LANE",
        "placeName": "TORONTO",
        "streetNameDisplayText": "JOSEPH SALSBERG LANE, TORONTO"
      }
    ]
  },
  {
    "postal": "M6J4S3",
    "result": []
  },
  {
    "postal": "M6J1B6",
    "result": [
      {
        "electoralDistricts": [
          {
            "election": null,
            "id": 101,
            "name": "Spadina—Fort York"
          }
        ],
        "pollDivisionIds": [
          10143934
        ],
        "postalCode": "M6J1B6",
        "streetName": "ADELAIDE",
        "streetDirectionId": "W",
        "streetTypeId": "ST",
        "placeName": "TORONTO",
        "streetNameDisplayText": "ADELAIDE ST W, TORONTO"
      }
    ]
  },
  {
    "postal": "M6J8R3",
    "result": []
  },
  {
    "postal": "M6J4V9",
    "result": []
  },
  {
    "postal": "M6J9W4",
    "result": []
  },
  {
    "postal": "M6J3T4",
    "result": []
  },
  {
    "postal": "M6J5C7",
    "result": []
  },
  {
    "postal": "M6J3Y1",
    "result": []
  },
  {
    "postal": "M6J5V0",
    "result": []
  },
  {
    "postal": "M6J8G8",
    "result": []
  },
  {
    "postal": "M6J8B1",
    "result": []
  },
  {
    "postal": "M6J4P5",
    "result": []
  },
  {
    "postal": "M6J7B2",
    "result": []
  },
  {
    "postal": "M6J0R2",
    "result": []
  },
  {
    "postal": "M6J4M4",
    "result": []
  },
  {
    "postal": "M6J7M4",
    "result": []
  },
  {
    "postal": "M6J9S7",
    "result": []
  },
  {
    "postal": "M6J5Z7",
    "result": []
  },
  {
    "postal": "M6J7J7",
    "result": []
  },
  {
    "postal": "M6J8R8",
    "result": []
  },
  {
    "postal": "M6J9X1",
    "result": []
  },
  {
    "postal": "M6J5M9",
    "result": []
  },
  {
    "postal": "M6J9B4",
    "result": []
  },
  {
    "postal": "M6J0L9",
    "result": []
  },
  {
    "postal": "M6J9G4",
    "result": []
  },
  {
    "postal": "M6J1J4",
    "result": [
      {
        "electoralDistricts": [
          {
            "election": null,
            "id": 19,
            "name": "Davenport"
          }
        ],
        "pollDivisionIds": [
          10143812
        ],
        "postalCode": "M6J1J4",
        "streetName": "QUEEN",
        "streetDirectionId": "W",
        "streetTypeId": "ST",
        "placeName": "TORONTO",
        "streetNameDisplayText": "QUEEN ST W, TORONTO"
      }
    ]
  },
  {
    "postal": "M6J0W6",
    "result": []
  },
  {
    "postal": "M6J4C5",
    "result": []
  },
  {
    "postal": "M6J7E4",
    "result": []
  },
  {
    "postal": "M6J1R9",
    "result": [
      {
        "electoralDistricts": [
          {
            "election": null,
            "id": 19,
            "name": "Davenport"
          }
        ],
        "pollDivisionIds": [
          10143812
        ],
        "postalCode": "M6J1R9",
        "streetName": "AFTON",
        "streetDirectionId": null,
        "streetTypeId": "AVE",
        "placeName": "TORONTO",
        "streetNameDisplayText": "AFTON AVE, TORONTO"
      }
    ]
  },
  {
    "postal": "M6J2P0",
    "result": []
  },
  {
    "postal": "M6J5S4",
    "result": []
  },
  {
    "postal": "M6J5K8",
    "result": []
  },
  {
    "postal": "M6J8K4",
    "result": []
  },
  {
    "postal": "M6J7C1",
    "result": []
  },
  {
    "postal": "M6J7K9",
    "result": []
  },
  {
    "postal": "M6J5J1",
    "result": []
  },
  {
    "postal": "M6J4P9",
    "result": []
  },
  {
    "postal": "M6J0N2",
    "result": []
  },
  {
    "postal": "M6J2G6",
    "result": [
      {
        "electoralDistricts": [
          {
            "election": null,
            "id": 112,
            "name": "University—Rosedale"
          }
        ],
        "pollDivisionIds": [
          10136382
        ],
        "postalCode": "M6J2G6",
        "streetName": "MARKHAM",
        "streetDirectionId": null,
        "streetTypeId": "ST",
        "placeName": "TORONTO",
        "streetNameDisplayText": "MARKHAM ST, TORONTO"
      }
    ]
  },
  {
    "postal": "M6J6P4",
    "result": []
  },
  {
    "postal": "M6J3J0",
    "result": []
  },
  {
    "postal": "M6J8X4",
    "result": []
  },
  {
    "postal": "M6J1Y3",
    "result": [
      {
        "electoralDistricts": [
          {
            "election": null,
            "id": 19,
            "name": "Davenport"
          }
        ],
        "pollDivisionIds": [
          10136105
        ],
        "postalCode": "M6J1Y3",
        "streetName": "DUNDAS",
        "streetDirectionId": "W",
        "streetTypeId": "ST",
        "placeName": "TORONTO",
        "streetNameDisplayText": "DUNDAS ST W, TORONTO"
      }
    ]
  },
  {
    "postal": "M6J1A8",
    "result": [
      {
        "electoralDistricts": [
          {
            "election": null,
            "id": 101,
            "name": "Spadina—Fort York"
          }
        ],
        "pollDivisionIds": [
          10141951,
          10143934
        ],
        "postalCode": "M6J1A8",
        "streetName": "ADELAIDE",
        "streetDirectionId": "W",
        "streetTypeId": "ST",
        "placeName": "TORONTO",
        "streetNameDisplayText": "ADELAIDE ST W, TORONTO"
      }
    ]
  },
  {
    "postal": "M6J6Y5",
    "result": []
  },
  {
    "postal": "M6J0J6",
    "result": []
  },
  {
    "postal": "M6J2C9",
    "result": [
      {
        "electoralDistricts": [
          {
            "election": null,
            "id": 19,
            "name": "Davenport"
          }
        ],
        "pollDivisionIds": [
          10136100
        ],
        "postalCode": "M6J2C9",
        "streetName": "RUSHOLME PARK",
        "streetDirectionId": null,
        "streetTypeId": "CRES",
        "placeName": "TORONTO",
        "streetNameDisplayText": "RUSHOLME PARK CRES, TORONTO"
      }
    ]
  },
  {
    "postal": "M6J8J6",
    "result": []
  },
  {
    "postal": "M6J8T4",
    "result": []
  },
  {
    "postal": "M6J1P7",
    "result": [
      {
        "electoralDistricts": [
          {
            "election": null,
            "id": 19,
            "name": "Davenport"
          }
        ],
        "pollDivisionIds": [
          10143812
        ],
        "postalCode": "M6J1P7",
        "streetName": "ARGYLE",
        "streetDirectionId": null,
        "streetTypeId": "ST",
        "placeName": "TORONTO",
        "streetNameDisplayText": "ARGYLE ST, TORONTO"
      }
    ]
  },
  {
    "postal": "M6J9V9",
    "result": []
  },
  {
    "postal": "M6J0M1",
    "result": []
  },
  {
    "postal": "M6J6K5",
    "result": []
  },
  {
    "postal": "M6J2T5",
    "result": [
      {
        "electoralDistricts": [
          {
            "election": null,
            "id": 101,
            "name": "Spadina—Fort York"
          }
        ],
        "pollDivisionIds": [
          10143934
        ],
        "postalCode": "M6J2T5",
        "streetName": "MASSEY",
        "streetDirectionId": null,
        "streetTypeId": "ST",
        "placeName": "TORONTO",
        "streetNameDisplayText": "MASSEY ST, TORONTO"
      }
    ]
  },
  {
    "postal": "M6J7E9",
    "result": []
  },
  {
    "postal": "M6J5K5",
    "result": []
  },
  {
    "postal": "M6J3R5",
    "result": [
      {
        "electoralDistricts": [
          {
            "election": null,
            "id": 101,
            "name": "Spadina—Fort York"
          }
        ],
        "pollDivisionIds": [
          10141951
        ],
        "postalCode": "M6J3R5",
        "streetName": "TECUMSETH",
        "streetDirectionId": null,
        "streetTypeId": "ST",
        "placeName": "TORONTO",
        "streetNameDisplayText": "TECUMSETH ST, TORONTO"
      }
    ]
  },
  {
    "postal": "M6J5B1",
    "result": []
  },
  {
    "postal": "M6J2P1",
    "result": [
      {
        "electoralDistricts": [
          {
            "election": null,
            "id": 112,
            "name": "University—Rosedale"
          }
        ],
        "pollDivisionIds": [
          10136381
        ],
        "postalCode": "M6J2P1",
        "streetName": "CLINTON",
        "streetDirectionId": null,
        "streetTypeId": "ST",
        "placeName": "TORONTO",
        "streetNameDisplayText": "CLINTON ST, TORONTO"
      }
    ]
  },
  {
    "postal": "M6J7L0",
    "result": []
  },
  {
    "postal": "M6J3L6",
    "result": [
      {
        "electoralDistricts": [
          {
            "election": null,
            "id": 19,
            "name": "Davenport"
          }
        ],
        "pollDivisionIds": [
          10136103
        ],
        "postalCode": "M6J3L6",
        "streetName": "GLADSTONE",
        "streetDirectionId": null,
        "streetTypeId": "AVE",
        "placeName": "TORONTO",
        "streetNameDisplayText": "GLADSTONE AVE, TORONTO"
      }
    ]
  },
  {
    "postal": "M6J2A4",
    "result": [
      {
        "electoralDistricts": [
          {
            "election": null,
            "id": 19,
            "name": "Davenport"
          }
        ],
        "pollDivisionIds": [
          10136105
        ],
        "postalCode": "M6J2A4",
        "streetName": "HARRISON",
        "streetDirectionId": null,
        "streetTypeId": "ST",
        "placeName": "TORONTO",
        "streetNameDisplayText": "HARRISON ST, TORONTO"
      }
    ]
  },
  {
    "postal": "M6J8S0",
    "result": []
  },
  {
    "postal": "M6J3L5",
    "result": [
      {
        "electoralDistricts": [
          {
            "election": null,
            "id": 19,
            "name": "Davenport"
          }
        ],
        "pollDivisionIds": [
          10136103
        ],
        "postalCode": "M6J3L5",
        "streetName": "GLADSTONE",
        "streetDirectionId": null,
        "streetTypeId": "AVE",
        "placeName": "TORONTO",
        "streetNameDisplayText": "GLADSTONE AVE, TORONTO"
      }
    ]
  },
  {
    "postal": "M6J2R5",
    "result": [
      {
        "electoralDistricts": [
          {
            "election": null,
            "id": 101,
            "name": "Spadina—Fort York"
          }
        ],
        "pollDivisionIds": [
          10141942,
          10141940,
          10143934
        ],
        "postalCode": "M6J2R5",
        "streetName": "GORE VALE",
        "streetDirectionId": null,
        "streetTypeId": "AVE",
        "placeName": "TORONTO",
        "streetNameDisplayText": "GORE VALE AVE, TORONTO"
      }
    ]
  },
  {
    "postal": "M6J9T6",
    "result": []
  },
  {
    "postal": "M6J8Z2",
    "result": []
  },
  {
    "postal": "M6J0E9",
    "result": [
      {
        "electoralDistricts": [
          {
            "election": null,
            "id": 19,
            "name": "Davenport"
          }
        ],
        "pollDivisionIds": [
          10143812
        ],
        "postalCode": "M6J0E9",
        "streetName": "GLADSTONE",
        "streetDirectionId": null,
        "streetTypeId": "AVE",
        "placeName": "TORONTO",
        "streetNameDisplayText": "GLADSTONE AVE, TORONTO"
      }
    ]
  },
  {
    "postal": "M6J8C0",
    "result": []
  },
  {
    "postal": "M6J3K7",
    "result": [
      {
        "electoralDistricts": [
          {
            "election": null,
            "id": 19,
            "name": "Davenport"
          }
        ],
        "pollDivisionIds": [
          10143812
        ],
        "postalCode": "M6J3K7",
        "streetName": "GLADSTONE",
        "streetDirectionId": null,
        "streetTypeId": "AVE",
        "placeName": "TORONTO",
        "streetNameDisplayText": "GLADSTONE AVE, TORONTO"
      }
    ]
  },
  {
    "postal": "M6J2H3",
    "result": []
  },
  {
    "postal": "M6J2Y6",
    "result": [
      {
        "electoralDistricts": [
          {
            "election": null,
            "id": 101,
            "name": "Spadina—Fort York"
          }
        ],
        "pollDivisionIds": [
          10141940
        ],
        "postalCode": "M6J2Y6",
        "streetName": "ARGYLE",
        "streetDirectionId": null,
        "streetTypeId": "PL",
        "placeName": "TORONTO",
        "streetNameDisplayText": "ARGYLE PL, TORONTO"
      }
    ]
  },
  {
    "postal": "M6J7M2",
    "result": []
  },
  {
    "postal": "M6J6E2",
    "result": []
  },
  {
    "postal": "M6J3R0",
    "result": []
  },
  {
    "postal": "M6J4J7",
    "result": []
  },
  {
    "postal": "M6J6N8",
    "result": []
  },
  {
    "postal": "M6J0J7",
    "result": []
  },
  {
    "postal": "M6J7P2",
    "result": []
  },
  {
    "postal": "M6J3T8",
    "result": [
      {
        "electoralDistricts": [
          {
            "election": null,
            "id": 101,
            "name": "Spadina—Fort York"
          }
        ],
        "pollDivisionIds": [
          10143934
        ],
        "postalCode": "M6J3T8",
        "streetName": "SHANK",
        "streetDirectionId": null,
        "streetTypeId": "ST",
        "placeName": "TORONTO",
        "streetNameDisplayText": "SHANK ST, TORONTO"
      }
    ]
  },
  {
    "postal": "M6J3S7",
    "result": [
      {
        "electoralDistricts": [
          {
            "election": null,
            "id": 19,
            "name": "Davenport"
          }
        ],
        "pollDivisionIds": [
          10143812
        ],
        "postalCode": "M6J3S7",
        "streetName": "SUDBURY",
        "streetDirectionId": null,
        "streetTypeId": "ST",
        "placeName": "TORONTO",
        "streetNameDisplayText": "SUDBURY ST, TORONTO"
      }
    ]
  },
  {
    "postal": "M6J2S7",
    "result": [
      {
        "electoralDistricts": [
          {
            "election": null,
            "id": 101,
            "name": "Spadina—Fort York"
          }
        ],
        "pollDivisionIds": [
          10143934
        ],
        "postalCode": "M6J2S7",
        "streetName": "STRACHAN",
        "streetDirectionId": null,
        "streetTypeId": "AVE",
        "placeName": "TORONTO",
        "streetNameDisplayText": "STRACHAN AVE, TORONTO"
      }
    ]
  },
  {
    "postal": "M6J1S4",
    "result": [
      {
        "electoralDistricts": [
          {
            "election": null,
            "id": 101,
            "name": "Spadina—Fort York"
          }
        ],
        "pollDivisionIds": [
          10143934,
          10141942
        ],
        "postalCode": "M6J1S4",
        "streetName": "BELLWOODS",
        "streetDirectionId": null,
        "streetTypeId": "PK",
        "placeName": "TORONTO",
        "streetNameDisplayText": "BELLWOODS PK, TORONTO"
      }
    ]
  },
  {
    "postal": "M6J1L8",
    "result": [
      {
        "electoralDistricts": [
          {
            "election": null,
            "id": 101,
            "name": "Spadina—Fort York"
          }
        ],
        "pollDivisionIds": [
          10141942
        ],
        "postalCode": "M6J1L8",
        "streetName": "ROBINSON",
        "streetDirectionId": null,
        "streetTypeId": "ST",
        "placeName": "TORONTO",
        "streetNameDisplayText": "ROBINSON ST, TORONTO"
      }
    ]
  },
  {
    "postal": "M6J8E9",
    "result": []
  },
  {
    "postal": "M6J0T0",
    "result": []
  },
  {
    "postal": "M6J3G4",
    "result": [
      {
        "electoralDistricts": [
          {
            "election": null,
            "id": 19,
            "name": "Davenport"
          }
        ],
        "pollDivisionIds": [
          10143812
        ],
        "postalCode": "M6J3G4",
        "streetName": "LISGAR",
        "streetDirectionId": null,
        "streetTypeId": "ST",
        "placeName": "TORONTO",
        "streetNameDisplayText": "LISGAR ST, TORONTO"
      },
      {
        "electoralDistricts": [
          {
            "election": null,
            "id": 101,
            "name": "Spadina—Fort York"
          }
        ],
        "pollDivisionIds": [
          10141951
        ],
        "postalCode": "M6J3G4",
        "streetName": "PORTLAND",
        "streetDirectionId": null,
        "streetTypeId": "ST",
        "placeName": "TORONTO, ON",
        "streetNameDisplayText": "PORTLAND ST, TORONTO, ON"
      }
    ]
  },
  {
    "postal": "M6J0V6",
    "result": []
  },
  {
    "postal": "M6J4W1",
    "result": []
  },
  {
    "postal": "M6J9G9",
    "result": []
  },
  {
    "postal": "M6J5W4",
    "result": []
  },
  {
    "postal": "M6J7M8",
    "result": []
  },
  {
    "postal": "M6J2C2",
    "result": [
      {
        "electoralDistricts": [
          {
            "election": null,
            "id": 19,
            "name": "Davenport"
          }
        ],
        "pollDivisionIds": [
          10136105
        ],
        "postalCode": "M6J2C2",
        "streetName": "ST ANNE'S",
        "streetDirectionId": null,
        "streetTypeId": "RD",
        "placeName": "TORONTO",
        "streetNameDisplayText": "ST ANNE'S RD, TORONTO"
      }
    ]
  },
  {
    "postal": "M6J4Y2",
    "result": []
  },
  {
    "postal": "M6J9X9",
    "result": []
  },
  {
    "postal": "M6J3T0",
    "result": []
  },
  {
    "postal": "M6J4T8",
    "result": []
  },
  {
    "postal": "M6J9C4",
    "result": []
  },
  {
    "postal": "M6J8P2",
    "result": []
  },
  {
    "postal": "M6J0Y8",
    "result": []
  },
  {
    "postal": "M6J1G8",
    "result": [
      {
        "electoralDistricts": [
          {
            "election": null,
            "id": 101,
            "name": "Spadina—Fort York"
          }
        ],
        "pollDivisionIds": [
          10143934,
          10141940
        ],
        "postalCode": "M6J1G8",
        "streetName": "QUEEN",
        "streetDirectionId": "W",
        "streetTypeId": "ST",
        "placeName": "TORONTO",
        "streetNameDisplayText": "QUEEN ST W, TORONTO"
      }
    ]
  },
  {
    "postal": "M6J2T6",
    "result": [
      {
        "electoralDistricts": [
          {
            "election": null,
            "id": 112,
            "name": "University—Rosedale"
          }
        ],
        "pollDivisionIds": [
          10136377,
          10136376
        ],
        "postalCode": "M6J2T6",
        "streetName": "MONTROSE",
        "streetDirectionId": null,
        "streetTypeId": "AVE",
        "placeName": "TORONTO",
        "streetNameDisplayText": "MONTROSE AVE, TORONTO"
      }
    ]
  },
  {
    "postal": "M6J1N7",
    "result": [
      {
        "electoralDistricts": [
          {
            "election": null,
            "id": 101,
            "name": "Spadina—Fort York"
          }
        ],
        "pollDivisionIds": [
          10141940
        ],
        "postalCode": "M6J1N7",
        "streetName": "ARGYLE",
        "streetDirectionId": null,
        "streetTypeId": "ST",
        "placeName": "TORONTO",
        "streetNameDisplayText": "ARGYLE ST, TORONTO"
      }
    ]
  },
  {
    "postal": "M6J0L6",
    "result": []
  },
  {
    "postal": "M6J9V4",
    "result": []
  },
  {
    "postal": "M6J2V1",
    "result": [
      {
        "electoralDistricts": [
          {
            "election": null,
            "id": 101,
            "name": "Spadina—Fort York"
          }
        ],
        "pollDivisionIds": [
          10143934
        ],
        "postalCode": "M6J2V1",
        "streetName": "CRAWFORD",
        "streetDirectionId": null,
        "streetTypeId": "ST",
        "placeName": "TORONTO",
        "streetNameDisplayText": "CRAWFORD ST, TORONTO"
      }
    ]
  },
  {
    "postal": "M6J3L8",
    "result": [
      {
        "electoralDistricts": [
          {
            "election": null,
            "id": 19,
            "name": "Davenport"
          }
        ],
        "pollDivisionIds": [
          10136103
        ],
        "postalCode": "M6J3L8",
        "streetName": "GLADSTONE",
        "streetDirectionId": null,
        "streetTypeId": "AVE",
        "placeName": "TORONTO",
        "streetNameDisplayText": "GLADSTONE AVE, TORONTO"
      }
    ]
  },
  {
    "postal": "M6J2R8",
    "result": [
      {
        "electoralDistricts": [
          {
            "election": null,
            "id": 101,
            "name": "Spadina—Fort York"
          }
        ],
        "pollDivisionIds": [
          10143934
        ],
        "postalCode": "M6J2R8",
        "streetName": "STAFFORD",
        "streetDirectionId": null,
        "streetTypeId": "ST",
        "placeName": "TORONTO",
        "streetNameDisplayText": "STAFFORD ST, TORONTO"
      }
    ]
  },
  {
    "postal": "M6J5C1",
    "result": []
  },
  {
    "postal": "M6J4W3",
    "result": []
  },
  {
    "postal": "M6J5X5",
    "result": []
  },
  {
    "postal": "M6J9W5",
    "result": []
  },
  {
    "postal": "M6J3C4",
    "result": [
      {
        "electoralDistricts": [
          {
            "election": null,
            "id": 19,
            "name": "Davenport"
          }
        ],
        "pollDivisionIds": [
          10143812
        ],
        "postalCode": "M6J3C4",
        "streetName": "DOVERCOURT",
        "streetDirectionId": null,
        "streetTypeId": "RD",
        "placeName": "TORONTO",
        "streetNameDisplayText": "DOVERCOURT RD, TORONTO"
      }
    ]
  },
  {
    "postal": "M6J1N6",
    "result": [
      {
        "electoralDistricts": [
          {
            "election": null,
            "id": 101,
            "name": "Spadina—Fort York"
          }
        ],
        "pollDivisionIds": [
          10141940
        ],
        "postalCode": "M6J1N6",
        "streetName": "ARGYLE",
        "streetDirectionId": null,
        "streetTypeId": "ST",
        "placeName": "TORONTO",
        "streetNameDisplayText": "ARGYLE ST, TORONTO"
      }
    ]
  },
  {
    "postal": "M6J9S9",
    "result": []
  },
  {
    "postal": "M6J9M2",
    "result": []
  },
  {
    "postal": "M6J8Y4",
    "result": []
  },
  {
    "postal": "M6J7S4",
    "result": []
  },
  {
    "postal": "M6J0K6",
    "result": []
  },
  {
    "postal": "M6J1W3",
    "result": [
      {
        "electoralDistricts": [
          {
            "election": null,
            "id": 112,
            "name": "University—Rosedale"
          }
        ],
        "pollDivisionIds": [
          10136382
        ],
        "postalCode": "M6J1W3",
        "streetName": "DUNDAS",
        "streetDirectionId": "W",
        "streetTypeId": "ST",
        "placeName": "TORONTO",
        "streetNameDisplayText": "DUNDAS ST W, TORONTO"
      }
    ]
  },
  {
    "postal": "M6J7R2",
    "result": []
  },
  {
    "postal": "M6J2Y9",
    "result": [
      {
        "electoralDistricts": [
          {
            "election": null,
            "id": 101,
            "name": "Spadina—Fort York"
          }
        ],
        "pollDivisionIds": [
          10141940
        ],
        "postalCode": "M6J2Y9",
        "streetName": "OSSINGTON",
        "streetDirectionId": null,
        "streetTypeId": "AVE",
        "placeName": "TORONTO",
        "streetNameDisplayText": "OSSINGTON AVE, TORONTO"
      }
    ]
  },
  {
    "postal": "M6J7G4",
    "result": []
  },
  {
    "postal": "M6J7E5",
    "result": []
  },
  {
    "postal": "M6J9G2",
    "result": []
  },
  {
    "postal": "M6J7Y8",
    "result": []
  },
  {
    "postal": "M6J9V2",
    "result": []
  },
  {
    "postal": "M6J3T7",
    "result": [
      {
        "electoralDistricts": [
          {
            "election": null,
            "id": 101,
            "name": "Spadina—Fort York"
          }
        ],
        "pollDivisionIds": [
          10143934
        ],
        "postalCode": "M6J3T7",
        "streetName": "MASSEY",
        "streetDirectionId": null,
        "streetTypeId": "ST",
        "placeName": "TORONTO",
        "streetNameDisplayText": "MASSEY ST, TORONTO"
      }
    ]
  },
  {
    "postal": "M6J1H0",
    "result": []
  },
  {
    "postal": "M6J1M7",
    "result": [
      {
        "electoralDistricts": [
          {
            "election": null,
            "id": 101,
            "name": "Spadina—Fort York"
          }
        ],
        "pollDivisionIds": [
          10141940
        ],
        "postalCode": "M6J1M7",
        "streetName": "HUMBERT",
        "streetDirectionId": null,
        "streetTypeId": "ST",
        "placeName": "TORONTO",
        "streetNameDisplayText": "HUMBERT ST, TORONTO"
      }
    ]
  },
  {
    "postal": "M6J8V4",
    "result": []
  },
  {
    "postal": "M6J4M2",
    "result": []
  },
  {
    "postal": "M6J0X2",
    "result": []
  },
  {
    "postal": "M6J5Z4",
    "result": []
  },
  {
    "postal": "M6J6V4",
    "result": []
  },
  {
    "postal": "M6J8J3",
    "result": []
  },
  {
    "postal": "M6J8E5",
    "result": []
  },
  {
    "postal": "M6J2V5",
    "result": [
      {
        "electoralDistricts": [
          {
            "election": null,
            "id": 101,
            "name": "Spadina—Fort York"
          }
        ],
        "pollDivisionIds": [
          10143934
        ],
        "postalCode": "M6J2V5",
        "streetName": "CRAWFORD",
        "streetDirectionId": null,
        "streetTypeId": "ST",
        "placeName": "TORONTO",
        "streetNameDisplayText": "CRAWFORD ST, TORONTO"
      }
    ]
  },
  {
    "postal": "M6J7S1",
    "result": []
  },
  {
    "postal": "M6J6V3",
    "result": []
  },
  {
    "postal": "M6J2L8",
    "result": [
      {
        "electoralDistricts": [
          {
            "election": null,
            "id": 101,
            "name": "Spadina—Fort York"
          }
        ],
        "pollDivisionIds": [
          10141951
        ],
        "postalCode": "M6J2L8",
        "streetName": "NIAGARA",
        "streetDirectionId": null,
        "streetTypeId": "ST",
        "placeName": "TORONTO",
        "streetNameDisplayText": "NIAGARA ST, TORONTO"
      }
    ]
  },
  {
    "postal": "M6J9V0",
    "result": []
  },
  {
    "postal": "M6J3M4",
    "result": [
      {
        "electoralDistricts": [
          {
            "election": null,
            "id": 19,
            "name": "Davenport"
          }
        ],
        "pollDivisionIds": [
          10136103
        ],
        "postalCode": "M6J3M4",
        "streetName": "FEDERAL",
        "streetDirectionId": null,
        "streetTypeId": "ST",
        "placeName": "TORONTO",
        "streetNameDisplayText": "FEDERAL ST, TORONTO"
      }
    ]
  },
  {
    "postal": "M6J5B2",
    "result": []
  },
  {
    "postal": "M6J3X5",
    "result": [
      {
        "electoralDistricts": [
          {
            "election": null,
            "id": 101,
            "name": "Spadina—Fort York"
          }
        ],
        "pollDivisionIds": [
          10141940,
          10143934
        ],
        "postalCode": "M6J3X5",
        "streetName": "QUEEN",
        "streetDirectionId": "W",
        "streetTypeId": "ST",
        "placeName": "TORONTO",
        "streetNameDisplayText": "QUEEN ST W, TORONTO"
      }
    ]
  },
  {
    "postal": "M6J9R7",
    "result": []
  },
  {
    "postal": "M6J2X2",
    "result": [
      {
        "electoralDistricts": [
          {
            "election": null,
            "id": 112,
            "name": "University—Rosedale"
          }
        ],
        "pollDivisionIds": [
          10136377,
          10136436
        ],
        "postalCode": "M6J2X2",
        "streetName": "SHAW",
        "streetDirectionId": null,
        "streetTypeId": "ST",
        "placeName": "TORONTO",
        "streetNameDisplayText": "SHAW ST, TORONTO"
      }
    ]
  },
  {
    "postal": "M6J8Z6",
    "result": []
  },
  {
    "postal": "M6J4R4",
    "result": []
  },
  {
    "postal": "M6J2R1",
    "result": [
      {
        "electoralDistricts": [
          {
            "election": null,
            "id": 112,
            "name": "University—Rosedale"
          }
        ],
        "pollDivisionIds": [
          10136382
        ],
        "postalCode": "M6J2R1",
        "streetName": "BELLWOODS",
        "streetDirectionId": null,
        "streetTypeId": "AVE",
        "placeName": "TORONTO",
        "streetNameDisplayText": "BELLWOODS AVE, TORONTO"
      }
    ]
  },
  {
    "postal": "M6J3R8",
    "result": [
      {
        "electoralDistricts": [
          {
            "election": null,
            "id": 101,
            "name": "Spadina—Fort York"
          }
        ],
        "pollDivisionIds": [
          10141951
        ],
        "postalCode": "M6J3R8",
        "streetName": "ADELAIDE",
        "streetDirectionId": "W",
        "streetTypeId": "ST",
        "placeName": "TORONTO",
        "streetNameDisplayText": "ADELAIDE ST W, TORONTO"
      }
    ]
  },
  {
    "postal": "M6J9A1",
    "result": []
  },
  {
    "postal": "M6J8L3",
    "result": []
  },
  {
    "postal": "M6J9K4",
    "result": []
  },
  {
    "postal": "M6J9S3",
    "result": []
  },
  {
    "postal": "M6J8N7",
    "result": []
  },
  {
    "postal": "M6J1C6",
    "result": []
  },
  {
    "postal": "M6J3Z8",
    "result": []
  },
  {
    "postal": "M6J8G5",
    "result": []
  },
  {
    "postal": "M6J5R6",
    "result": []
  },
  {
    "postal": "M6J2W3",
    "result": [
      {
        "electoralDistricts": [
          {
            "election": null,
            "id": 101,
            "name": "Spadina—Fort York"
          }
        ],
        "pollDivisionIds": [
          10143934
        ],
        "postalCode": "M6J2W3",
        "streetName": "SHAW",
        "streetDirectionId": null,
        "streetTypeId": "ST",
        "placeName": "TORONTO",
        "streetNameDisplayText": "SHAW ST, TORONTO"
      }
    ]
  },
  {
    "postal": "M6J0A0",
    "result": []
  },
  {
    "postal": "M6J6P8",
    "result": []
  },
  {
    "postal": "M6J8N9",
    "result": []
  },
  {
    "postal": "M6J0S9",
    "result": []
  },
  {
    "postal": "M6J8G0",
    "result": []
  },
  {
    "postal": "M6J8C7",
    "result": []
  },
  {
    "postal": "M6J5X8",
    "result": []
  },
  {
    "postal": "M6J7E8",
    "result": []
  },
  {
    "postal": "M6J6X2",
    "result": []
  },
  {
    "postal": "M6J4C6",
    "result": []
  },
  {
    "postal": "M6J7H2",
    "result": []
  },
  {
    "postal": "M6J4R0",
    "result": []
  },
  {
    "postal": "M6J6J3",
    "result": []
  },
  {
    "postal": "M6J4B8",
    "result": []
  },
  {
    "postal": "M6J6H6",
    "result": []
  },
  {
    "postal": "M6J0S1",
    "result": []
  },
  {
    "postal": "M6J4E3",
    "result": []
  },
  {
    "postal": "M6J7K2",
    "result": []
  },
  {
    "postal": "M6J7T8",
    "result": []
  },
  {
    "postal": "M6J0J9",
    "result": []
  },
  {
    "postal": "M6J5J9",
    "result": []
  },
  {
    "postal": "M6J5S7",
    "result": []
  },
  {
    "postal": "M6J0G9",
    "result": []
  },
  {
    "postal": "M6J3J9",
    "result": [
      {
        "electoralDistricts": [
          {
            "election": null,
            "id": 19,
            "name": "Davenport"
          }
        ],
        "pollDivisionIds": [
          10136103
        ],
        "postalCode": "M6J3J9",
        "streetName": "RUSHOLME",
        "streetDirectionId": null,
        "streetTypeId": "DR",
        "placeName": "TORONTO",
        "streetNameDisplayText": "RUSHOLME DR, TORONTO"
      }
    ]
  },
  {
    "postal": "M6J2Y0",
    "result": []
  },
  {
    "postal": "M6J8X5",
    "result": []
  },
  {
    "postal": "M6J2M7",
    "result": [
      {
        "electoralDistricts": [
          {
            "election": null,
            "id": 101,
            "name": "Spadina—Fort York"
          }
        ],
        "pollDivisionIds": [
          10141942,
          10141940
        ],
        "postalCode": "M6J2M7",
        "streetName": "CLAREMONT",
        "streetDirectionId": null,
        "streetTypeId": "ST",
        "placeName": "TORONTO",
        "streetNameDisplayText": "CLAREMONT ST, TORONTO"
      }
    ]
  },
  {
    "postal": "M6J9Z3",
    "result": []
  },
  {
    "postal": "M6J7W2",
    "result": []
  },
  {
    "postal": "M6J3W0",
    "result": []
  },
  {
    "postal": "M6J3M1",
    "result": [
      {
        "electoralDistricts": [
          {
            "election": null,
            "id": 19,
            "name": "Davenport"
          }
        ],
        "pollDivisionIds": [
          10136103
        ],
        "postalCode": "M6J3M1",
        "streetName": "MACKLEM",
        "streetDirectionId": null,
        "streetTypeId": "AVE",
        "placeName": "TORONTO",
        "streetNameDisplayText": "MACKLEM AVE, TORONTO"
      }
    ]
  },
  {
    "postal": "M6J6A5",
    "result": []
  },
  {
    "postal": "M6J2M9",
    "result": [
      {
        "electoralDistricts": [
          {
            "election": null,
            "id": 112,
            "name": "University—Rosedale"
          }
        ],
        "pollDivisionIds": [
          10136382
        ],
        "postalCode": "M6J2M9",
        "streetName": "CLAREMONT",
        "streetDirectionId": null,
        "streetTypeId": "ST",
        "placeName": "TORONTO",
        "streetNameDisplayText": "CLAREMONT ST, TORONTO"
      }
    ]
  },
  {
    "postal": "M6J5C3",
    "result": []
  },
  {
    "postal": "M6J0Y6",
    "result": []
  },
  {
    "postal": "M6J9H7",
    "result": []
  },
  {
    "postal": "M6J3L0",
    "result": []
  },
  {
    "postal": "M6J5N9",
    "result": []
  },
  {
    "postal": "M6J5E3",
    "result": []
  },
  {
    "postal": "M6J7M9",
    "result": []
  },
  {
    "postal": "M6J8N2",
    "result": []
  },
  {
    "postal": "M6J9H3",
    "result": []
  },
  {
    "postal": "M6J2K8",
    "result": [
      {
        "electoralDistricts": [
          {
            "election": null,
            "id": 112,
            "name": "University—Rosedale"
          }
        ],
        "pollDivisionIds": [
          10136382
        ],
        "postalCode": "M6J2K8",
        "streetName": "MANNING",
        "streetDirectionId": null,
        "streetTypeId": "AVE",
        "placeName": "TORONTO",
        "streetNameDisplayText": "MANNING AVE, TORONTO"
      }
    ]
  },
  {
    "postal": "M6J9L0",
    "result": []
  },
  {
    "postal": "M6J6L9",
    "result": []
  },
  {
    "postal": "M6J6A8",
    "result": []
  },
  {
    "postal": "M6J2K6",
    "result": [
      {
        "electoralDistricts": [
          {
            "election": null,
            "id": 101,
            "name": "Spadina—Fort York"
          }
        ],
        "pollDivisionIds": [
          10141940,
          10141942
        ],
        "postalCode": "M6J2K6",
        "streetName": "MANNING",
        "streetDirectionId": null,
        "streetTypeId": "AVE",
        "placeName": "TORONTO",
        "streetNameDisplayText": "MANNING AVE, TORONTO"
      }
    ]
  },
  {
    "postal": "M6J2M0",
    "result": []
  },
  {
    "postal": "M6J5X7",
    "result": []
  },
  {
    "postal": "M6J0M7",
    "result": []
  },
  {
    "postal": "M6J7A6",
    "result": []
  },
  {
    "postal": "M6J3C5",
    "result": [
      {
        "electoralDistricts": [
          {
            "election": null,
            "id": 101,
            "name": "Spadina—Fort York"
          }
        ],
        "pollDivisionIds": [
          10141940
        ],
        "postalCode": "M6J3C5",
        "streetName": "DOVERCOURT",
        "streetDirectionId": null,
        "streetTypeId": "RD",
        "placeName": "TORONTO",
        "streetNameDisplayText": "DOVERCOURT RD, TORONTO"
      }
    ]
  },
  {
    "postal": "M6J2P2",
    "result": [
      {
        "electoralDistricts": [
          {
            "election": null,
            "id": 112,
            "name": "University—Rosedale"
          }
        ],
        "pollDivisionIds": [
          10136381
        ],
        "postalCode": "M6J2P2",
        "streetName": "CLINTON",
        "streetDirectionId": null,
        "streetTypeId": "ST",
        "placeName": "TORONTO",
        "streetNameDisplayText": "CLINTON ST, TORONTO"
      }
    ]
  },
  {
    "postal": "M6J9N4",
    "result": []
  },
  {
    "postal": "M6J3M9",
    "result": []
  },
  {
    "postal": "M6J8K6",
    "result": []
  },
  {
    "postal": "M6J1L2",
    "result": [
      {
        "electoralDistricts": [
          {
            "election": null,
            "id": 101,
            "name": "Spadina—Fort York"
          }
        ],
        "pollDivisionIds": [
          10141942
        ],
        "postalCode": "M6J1L2",
        "streetName": "ROBINSON",
        "streetDirectionId": null,
        "streetTypeId": "ST",
        "placeName": "TORONTO",
        "streetNameDisplayText": "ROBINSON ST, TORONTO"
      }
    ]
  },
  {
    "postal": "M6J2Z9",
    "result": [
      {
        "electoralDistricts": [
          {
            "election": null,
            "id": 101,
            "name": "Spadina—Fort York"
          }
        ],
        "pollDivisionIds": [
          10141940
        ],
        "postalCode": "M6J2Z9",
        "streetName": "OSSINGTON",
        "streetDirectionId": null,
        "streetTypeId": "AVE",
        "placeName": "TORONTO",
        "streetNameDisplayText": "OSSINGTON AVE, TORONTO"
      }
    ]
  },
  {
    "postal": "M6J2S2",
    "result": [
      {
        "electoralDistricts": [
          {
            "election": null,
            "id": 112,
            "name": "University—Rosedale"
          }
        ],
        "pollDivisionIds": [
          10136377,
          10136381
        ],
        "postalCode": "M6J2S2",
        "streetName": "GRACE",
        "streetDirectionId": null,
        "streetTypeId": "ST",
        "placeName": "TORONTO",
        "streetNameDisplayText": "GRACE ST, TORONTO"
      }
    ]
  },
  {
    "postal": "M6J2W2",
    "result": [
      {
        "electoralDistricts": [
          {
            "election": null,
            "id": 101,
            "name": "Spadina—Fort York"
          }
        ],
        "pollDivisionIds": [
          10143934
        ],
        "postalCode": "M6J2W2",
        "streetName": "SHAW",
        "streetDirectionId": null,
        "streetTypeId": "ST",
        "placeName": "TORONTO",
        "streetNameDisplayText": "SHAW ST, TORONTO"
      }
    ]
  },
  {
    "postal": "M6J2C3",
    "result": [
      {
        "electoralDistricts": [
          {
            "election": null,
            "id": 19,
            "name": "Davenport"
          }
        ],
        "pollDivisionIds": [
          10136105,
          10136103
        ],
        "postalCode": "M6J2C3",
        "streetName": "ST ANNES",
        "streetDirectionId": null,
        "streetTypeId": "RD",
        "placeName": "TORONTO",
        "streetNameDisplayText": "ST ANNES RD, TORONTO"
      }
    ]
  },
  {
    "postal": "M6J6L7",
    "result": []
  },
  {
    "postal": "M6J3K0",
    "result": []
  },
  {
    "postal": "M6J3C1",
    "result": [
      {
        "electoralDistricts": [
          {
            "election": null,
            "id": 101,
            "name": "Spadina—Fort York"
          }
        ],
        "pollDivisionIds": [
          10141940
        ],
        "postalCode": "M6J3C1",
        "streetName": "DOVERCOURT",
        "streetDirectionId": null,
        "streetTypeId": "RD",
        "placeName": "TORONTO",
        "streetNameDisplayText": "DOVERCOURT RD, TORONTO"
      }
    ]
  },
  {
    "postal": "M6J6M9",
    "result": []
  },
  {
    "postal": "M6J4N9",
    "result": []
  },
  {
    "postal": "M6J3Y7",
    "result": []
  },
  {
    "postal": "M6J2A9",
    "result": [
      {
        "electoralDistricts": [
          {
            "election": null,
            "id": 112,
            "name": "University—Rosedale"
          }
        ],
        "pollDivisionIds": [
          10136382
        ],
        "postalCode": "M6J2A9",
        "streetName": "MANSFIELD",
        "streetDirectionId": null,
        "streetTypeId": "AVE",
        "placeName": "TORONTO",
        "streetNameDisplayText": "MANSFIELD AVE, TORONTO"
      }
    ]
  },
  {
    "postal": "M6J6H5",
    "result": []
  },
  {
    "postal": "M6J8B4",
    "result": []
  },
  {
    "postal": "M6J4Z2",
    "result": []
  },
  {
    "postal": "M6J9J0",
    "result": []
  },
  {
    "postal": "M6J7V7",
    "result": []
  },
  {
    "postal": "M6J5T5",
    "result": []
  },
  {
    "postal": "M6J4W5",
    "result": []
  },
  {
    "postal": "M6J1T8",
    "result": [
      {
        "electoralDistricts": [
          {
            "election": null,
            "id": 112,
            "name": "University—Rosedale"
          }
        ],
        "pollDivisionIds": [
          10136382
        ],
        "postalCode": "M6J1T8",
        "streetName": "DUNDAS",
        "streetDirectionId": "W",
        "streetTypeId": "ST",
        "placeName": "TORONTO",
        "streetNameDisplayText": "DUNDAS ST W, TORONTO"
      }
    ]
  },
  {
    "postal": "M6J9G6",
    "result": []
  },
  {
    "postal": "M6J1H3",
    "result": [
      {
        "electoralDistricts": [
          {
            "election": null,
            "id": 101,
            "name": "Spadina—Fort York"
          }
        ],
        "pollDivisionIds": [
          10143934
        ],
        "postalCode": "M6J1H3",
        "streetName": "QUEEN",
        "streetDirectionId": "W",
        "streetTypeId": "ST",
        "placeName": "TORONTO",
        "streetNameDisplayText": "QUEEN ST W, TORONTO"
      }
    ]
  },
  {
    "postal": "M6J5R5",
    "result": []
  },
  {
    "postal": "M6J8A4",
    "result": []
  },
  {
    "postal": "M6J3T6",
    "result": [
      {
        "electoralDistricts": [
          {
            "election": null,
            "id": 101,
            "name": "Spadina—Fort York"
          }
        ],
        "pollDivisionIds": [
          10143934
        ],
        "postalCode": "M6J3T6",
        "streetName": "CRAWFORD",
        "streetDirectionId": null,
        "streetTypeId": "ST",
        "placeName": "TORONTO",
        "streetNameDisplayText": "CRAWFORD ST, TORONTO"
      }
    ]
  },
  {
    "postal": "M6J9W8",
    "result": []
  },
  {
    "postal": "M6J0N3",
    "result": []
  },
  {
    "postal": "M6J7V0",
    "result": []
  },
  {
    "postal": "M6J8T5",
    "result": []
  },
  {
    "postal": "M6J5N3",
    "result": []
  },
  {
    "postal": "M6J5G9",
    "result": []
  },
  {
    "postal": "M6J3X8",
    "result": []
  },
  {
    "postal": "M6J9R3",
    "result": []
  },
  {
    "postal": "M6J2S1",
    "result": [
      {
        "electoralDistricts": [
          {
            "election": null,
            "id": 101,
            "name": "Spadina—Fort York"
          }
        ],
        "pollDivisionIds": [
          10141940,
          10143934
        ],
        "postalCode": "M6J2S1",
        "streetName": "STAFFORD",
        "streetDirectionId": null,
        "streetTypeId": "ST",
        "placeName": "TORONTO",
        "streetNameDisplayText": "STAFFORD ST, TORONTO"
      }
    ]
  },
  {
    "postal": "M6J9J7",
    "result": []
  },
  {
    "postal": "M6J2J3",
    "result": [
      {
        "electoralDistricts": [
          {
            "election": null,
            "id": 112,
            "name": "University—Rosedale"
          }
        ],
        "pollDivisionIds": [
          10136382
        ],
        "postalCode": "M6J2J3",
        "streetName": "PALMERSTON",
        "streetDirectionId": null,
        "streetTypeId": "AVE",
        "placeName": "TORONTO",
        "streetNameDisplayText": "PALMERSTON AVE, TORONTO"
      }
    ]
  },
  {
    "postal": "M6J3B6",
    "result": [
      {
        "electoralDistricts": [
          {
            "election": null,
            "id": 101,
            "name": "Spadina—Fort York"
          }
        ],
        "pollDivisionIds": [
          10141940
        ],
        "postalCode": "M6J3B6",
        "streetName": "GROVE",
        "streetDirectionId": null,
        "streetTypeId": "AVE",
        "placeName": "TORONTO",
        "streetNameDisplayText": "GROVE AVE, TORONTO"
      }
    ]
  },
  {
    "postal": "M6J8J0",
    "result": []
  },
  {
    "postal": "M6J7R4",
    "result": []
  },
  {
    "postal": "M6J8K8",
    "result": []
  },
  {
    "postal": "M6J4P3",
    "result": []
  },
  {
    "postal": "M6J0A2",
    "result": [
      {
        "electoralDistricts": [
          {
            "election": null,
            "id": 19,
            "name": "Davenport"
          }
        ],
        "pollDivisionIds": [
          10143812
        ],
        "postalCode": "M6J0A2",
        "streetName": "ABELL",
        "streetDirectionId": null,
        "streetTypeId": "ST",
        "placeName": "TORONTO",
        "streetNameDisplayText": "ABELL ST, TORONTO"
      }
    ]
  },
  {
    "postal": "M6J2G2",
    "result": [
      {
        "electoralDistricts": [
          {
            "election": null,
            "id": 101,
            "name": "Spadina—Fort York"
          }
        ],
        "pollDivisionIds": [
          10141942
        ],
        "postalCode": "M6J2G2",
        "streetName": "MARKHAM",
        "streetDirectionId": null,
        "streetTypeId": "ST",
        "placeName": "TORONTO",
        "streetNameDisplayText": "MARKHAM ST, TORONTO"
      }
    ]
  },
  {
    "postal": "M6J5Y9",
    "result": []
  },
  {
    "postal": "M6J7X0",
    "result": []
  },
  {
    "postal": "M6J7W3",
    "result": []
  },
  {
    "postal": "M6J7X5",
    "result": []
  },
  {
    "postal": "M6J5K6",
    "result": []
  },
  {
    "postal": "M6J5B6",
    "result": []
  },
  {
    "postal": "M6J7Z0",
    "result": []
  },
  {
    "postal": "M6J9H6",
    "result": []
  },
  {
    "postal": "M6J1B4",
    "result": [
      {
        "electoralDistricts": [
          {
            "election": null,
            "id": 101,
            "name": "Spadina—Fort York"
          }
        ],
        "pollDivisionIds": [
          10143934
        ],
        "postalCode": "M6J1B4",
        "streetName": "ADELAIDE",
        "streetDirectionId": "W",
        "streetTypeId": "ST",
        "placeName": "TORONTO",
        "streetNameDisplayText": "ADELAIDE ST W, TORONTO"
      }
    ]
  },
  {
    "postal": "M6J1A0",
    "result": []
  },
  {
    "postal": "M6J9A0",
    "result": []
  },
  {
    "postal": "M6J1M6",
    "result": [
      {
        "electoralDistricts": [
          {
            "election": null,
            "id": 101,
            "name": "Spadina—Fort York"
          }
        ],
        "pollDivisionIds": [
          10141940
        ],
        "postalCode": "M6J1M6",
        "streetName": "HUMBERT",
        "streetDirectionId": null,
        "streetTypeId": "ST",
        "placeName": "TORONTO",
        "streetNameDisplayText": "HUMBERT ST, TORONTO"
      }
    ]
  },
  {
    "postal": "M6J5H0",
    "result": []
  },
  {
    "postal": "M6J1K6",
    "result": [
      {
        "electoralDistricts": [
          {
            "election": null,
            "id": 101,
            "name": "Spadina—Fort York"
          }
        ],
        "pollDivisionIds": [
          10143934
        ],
        "postalCode": "M6J1K6",
        "streetName": "CROCKER",
        "streetDirectionId": null,
        "streetTypeId": "AVE",
        "placeName": "TORONTO",
        "streetNameDisplayText": "CROCKER AVE, TORONTO"
      }
    ]
  },
  {
    "postal": "M6J5E1",
    "result": []
  },
  {
    "postal": "M6J3T9",
    "result": [
      {
        "electoralDistricts": [
          {
            "election": null,
            "id": 101,
            "name": "Spadina—Fort York"
          }
        ],
        "pollDivisionIds": [
          10143934
        ],
        "postalCode": "M6J3T9",
        "streetName": "SHANK",
        "streetDirectionId": null,
        "streetTypeId": "ST",
        "placeName": "TORONTO",
        "streetNameDisplayText": "SHANK ST, TORONTO"
      }
    ]
  },
  {
    "postal": "M6J2M6",
    "result": []
  },
  {
    "postal": "M6J0G5",
    "result": []
  },
  {
    "postal": "M6J0Y2",
    "result": []
  },
  {
    "postal": "M6J2Y7",
    "result": [
      {
        "electoralDistricts": [
          {
            "election": null,
            "id": 101,
            "name": "Spadina—Fort York"
          }
        ],
        "pollDivisionIds": [
          10141942
        ],
        "postalCode": "M6J2Y7",
        "streetName": "EUCLID",
        "streetDirectionId": null,
        "streetTypeId": "AVE",
        "placeName": "TORONTO",
        "streetNameDisplayText": "EUCLID AVE, TORONTO"
      },
      {
        "electoralDistricts": [
          {
            "election": null,
            "id": 101,
            "name": "Spadina—Fort York"
          }
        ],
        "pollDivisionIds": [
          10141940
        ],
        "postalCode": "M6J2Y7",
        "streetName": "OSSINGTON",
        "streetDirectionId": null,
        "streetTypeId": "AVE",
        "placeName": "TORONTO",
        "streetNameDisplayText": "OSSINGTON AVE, TORONTO"
      }
    ]
  },
  {
    "postal": "M6J2J7",
    "result": [
      {
        "electoralDistricts": [
          {
            "election": null,
            "id": 101,
            "name": "Spadina—Fort York"
          }
        ],
        "pollDivisionIds": [
          10141940,
          10141942
        ],
        "postalCode": "M6J2J7",
        "streetName": "EUCLID",
        "streetDirectionId": null,
        "streetTypeId": "AVE",
        "placeName": "TORONTO",
        "streetNameDisplayText": "EUCLID AVE, TORONTO"
      }
    ]
  },
  {
    "postal": "M6J4K7",
    "result": []
  },
  {
    "postal": "M6J7P9",
    "result": []
  },
  {
    "postal": "M6J8X0",
    "result": []
  },
  {
    "postal": "M6J3X1",
    "result": [
      {
        "electoralDistricts": [
          {
            "election": null,
            "id": 101,
            "name": "Spadina—Fort York"
          }
        ],
        "pollDivisionIds": [
          10143934
        ],
        "postalCode": "M6J3X1",
        "streetName": "ADELAIDE",
        "streetDirectionId": "W",
        "streetTypeId": "ST",
        "placeName": "TORONTO",
        "streetNameDisplayText": "ADELAIDE ST W, TORONTO"
      }
    ]
  },
  {
    "postal": "M6J1R5",
    "result": [
      {
        "electoralDistricts": [
          {
            "election": null,
            "id": 101,
            "name": "Spadina—Fort York"
          }
        ],
        "pollDivisionIds": [
          10141940
        ],
        "postalCode": "M6J1R5",
        "streetName": "HALTON",
        "streetDirectionId": null,
        "streetTypeId": "ST",
        "placeName": "TORONTO",
        "streetNameDisplayText": "HALTON ST, TORONTO"
      }
    ]
  },
  {
    "postal": "M6J6X6",
    "result": []
  },
  {
    "postal": "M6J0Y1",
    "result": []
  },
  {
    "postal": "M6J8G1",
    "result": []
  },
  {
    "postal": "M6J3J3",
    "result": [
      {
        "electoralDistricts": [
          {
            "election": null,
            "id": 19,
            "name": "Davenport"
          }
        ],
        "pollDivisionIds": [
          10143812
        ],
        "postalCode": "M6J3J3",
        "streetName": "BEACONSFIELD",
        "streetDirectionId": null,
        "streetTypeId": "AVE",
        "placeName": "TORONTO",
        "streetNameDisplayText": "BEACONSFIELD AVE, TORONTO"
      }
    ]
  },
  {
    "postal": "M6J8C2",
    "result": []
  },
  {
    "postal": "M6J4X9",
    "result": []
  },
  {
    "postal": "M6J6G9",
    "result": []
  },
  {
    "postal": "M6J4M3",
    "result": []
  },
  {
    "postal": "M6J9P7",
    "result": []
  },
  {
    "postal": "M6J4E5",
    "result": []
  },
  {
    "postal": "M6J5K9",
    "result": []
  },
  {
    "postal": "M6J2V2",
    "result": [
      {
        "electoralDistricts": [
          {
            "election": null,
            "id": 101,
            "name": "Spadina—Fort York"
          }
        ],
        "pollDivisionIds": [
          10141940,
          10143934
        ],
        "postalCode": "M6J2V2",
        "streetName": "CRAWFORD",
        "streetDirectionId": null,
        "streetTypeId": "ST",
        "placeName": "TORONTO",
        "streetNameDisplayText": "CRAWFORD ST, TORONTO"
      }
    ]
  },
  {
    "postal": "M6J2N9",
    "result": [
      {
        "electoralDistricts": [
          {
            "election": null,
            "id": 112,
            "name": "University—Rosedale"
          }
        ],
        "pollDivisionIds": [
          10136381
        ],
        "postalCode": "M6J2N9",
        "streetName": "CLINTON",
        "streetDirectionId": null,
        "streetTypeId": "ST",
        "placeName": "TORONTO",
        "streetNameDisplayText": "CLINTON ST, TORONTO"
      }
    ]
  },
  {
    "postal": "M6J6L4",
    "result": []
  },
  {
    "postal": "M6J8E0",
    "result": []
  },
  {
    "postal": "M6J0N0",
    "result": []
  },
  {
    "postal": "M6J6R0",
    "result": []
  },
  {
    "postal": "M6J9C1",
    "result": []
  },
  {
    "postal": "M6J4H4",
    "result": []
  },
  {
    "postal": "M6J5W3",
    "result": []
  },
  {
    "postal": "M6J9N9",
    "result": []
  },
  {
    "postal": "M6J1V7",
    "result": [
      {
        "electoralDistricts": [
          {
            "election": null,
            "id": 112,
            "name": "University—Rosedale"
          }
        ],
        "pollDivisionIds": [
          10136382
        ],
        "postalCode": "M6J1V7",
        "streetName": "DUNDAS",
        "streetDirectionId": "W",
        "streetTypeId": "ST",
        "placeName": "TORONTO",
        "streetNameDisplayText": "DUNDAS ST W, TORONTO"
      }
    ]
  },
  {
    "postal": "M6J8J1",
    "result": []
  },
  {
    "postal": "M6J5V9",
    "result": []
  },
  {
    "postal": "M6J2S8",
    "result": [
      {
        "electoralDistricts": [
          {
            "election": null,
            "id": 101,
            "name": "Spadina—Fort York"
          }
        ],
        "pollDivisionIds": [
          10143934
        ],
        "postalCode": "M6J2S8",
        "streetName": "STRACHAN",
        "streetDirectionId": null,
        "streetTypeId": "AVE",
        "placeName": "TORONTO",
        "streetNameDisplayText": "STRACHAN AVE, TORONTO"
      }
    ]
  },
  {
    "postal": "M6J6P0",
    "result": []
  },
  {
    "postal": "M6J4J8",
    "result": []
  },
  {
    "postal": "M6J0N1",
    "result": []
  },
  {
    "postal": "M6J1Y7",
    "result": [
      {
        "electoralDistricts": [
          {
            "election": null,
            "id": 19,
            "name": "Davenport"
          }
        ],
        "pollDivisionIds": [
          10136103,
          10143812
        ],
        "postalCode": "M6J1Y7",
        "streetName": "DUNDAS",
        "streetDirectionId": "W",
        "streetTypeId": "ST",
        "placeName": "TORONTO",
        "streetNameDisplayText": "DUNDAS ST W, TORONTO"
      }
    ]
  },
  {
    "postal": "M6J7W5",
    "result": []
  },
  {
    "postal": "M6J3Z1",
    "result": []
  },
  {
    "postal": "M6J7M6",
    "result": []
  },
  {
    "postal": "M6J1W7",
    "result": [
      {
        "electoralDistricts": [
          {
            "election": null,
            "id": 112,
            "name": "University—Rosedale"
          }
        ],
        "pollDivisionIds": [
          10136377
        ],
        "postalCode": "M6J1W7",
        "streetName": "DUNDAS",
        "streetDirectionId": "W",
        "streetTypeId": "ST",
        "placeName": "TORONTO",
        "streetNameDisplayText": "DUNDAS ST W, TORONTO"
      }
    ]
  },
  {
    "postal": "M6J1X1",
    "result": [
      {
        "electoralDistricts": [
          {
            "election": null,
            "id": 112,
            "name": "University—Rosedale"
          }
        ],
        "pollDivisionIds": [
          10136437,
          10136377
        ],
        "postalCode": "M6J1X1",
        "streetName": "DUNDAS",
        "streetDirectionId": "W",
        "streetTypeId": "ST",
        "placeName": "TORONTO",
        "streetNameDisplayText": "DUNDAS ST W, TORONTO"
      }
    ]
  },
  {
    "postal": "M6J0C1",
    "result": []
  },
  {
    "postal": "M6J4N3",
    "result": []
  },
  {
    "postal": "M6J4S8",
    "result": []
  },
  {
    "postal": "M6J1H6",
    "result": [
      {
        "electoralDistricts": [
          {
            "election": null,
            "id": 101,
            "name": "Spadina—Fort York"
          }
        ],
        "pollDivisionIds": [
          10141940
        ],
        "postalCode": "M6J1H6",
        "streetName": "QUEEN",
        "streetDirectionId": "W",
        "streetTypeId": "ST",
        "placeName": "TORONTO",
        "streetNameDisplayText": "QUEEN ST W, TORONTO"
      }
    ]
  },
  {
    "postal": "M6J2Z4",
    "result": [
      {
        "electoralDistricts": [
          {
            "election": null,
            "id": 112,
            "name": "University—Rosedale"
          },
          {
            "election": null,
            "id": 101,
            "name": "Spadina—Fort York"
          }
        ],
        "pollDivisionIds": [
          10136376,
          10141940
        ],
        "postalCode": "M6J2Z4",
        "streetName": "OSSINGTON",
        "streetDirectionId": null,
        "streetTypeId": "AVE",
        "placeName": "TORONTO",
        "streetNameDisplayText": "OSSINGTON AVE, TORONTO"
      }
    ]
  },
  {
    "postal": "M6J7K3",
    "result": []
  },
  {
    "postal": "M6J8A2",
    "result": []
  },
  {
    "postal": "M6J6J1",
    "result": []
  },
  {
    "postal": "M6J5Z6",
    "result": []
  },
  {
    "postal": "M6J3Z0",
    "result": []
  },
  {
    "postal": "M6J8M0",
    "result": []
  },
  {
    "postal": "M6J1Z6",
    "result": [
      {
        "electoralDistricts": [
          {
            "election": null,
            "id": 112,
            "name": "University—Rosedale"
          }
        ],
        "pollDivisionIds": [
          10136382
        ],
        "postalCode": "M6J1Z6",
        "streetName": "TREFORD",
        "streetDirectionId": null,
        "streetTypeId": "PL",
        "placeName": "TORONTO",
        "streetNameDisplayText": "TREFORD PL, TORONTO"
      }
    ]
  },
  {
    "postal": "M6J8K7",
    "result": []
  },
  {
    "postal": "M6J1N3",
    "result": [
      {
        "electoralDistricts": [
          {
            "election": null,
            "id": 19,
            "name": "Davenport"
          }
        ],
        "pollDivisionIds": [
          10143812
        ],
        "postalCode": "M6J1N3",
        "streetName": "ALMA",
        "streetDirectionId": null,
        "streetTypeId": "AVE",
        "placeName": "TORONTO",
        "streetNameDisplayText": "ALMA AVE, TORONTO"
      }
    ]
  },
  {
    "postal": "M6J9S2",
    "result": []
  },
  {
    "postal": "M6J2K1",
    "result": [
      {
        "electoralDistricts": [
          {
            "election": null,
            "id": 101,
            "name": "Spadina—Fort York"
          },
          {
            "election": null,
            "id": 83,
            "name": "Parkdale—High Park"
          },
          {
            "election": null,
            "id": 112,
            "name": "University—Rosedale"
          }
        ],
        "pollDivisionIds": [
          10141944,
          10126449,
          10136382
        ],
        "postalCode": "M6J2K1",
        "streetName": "EUCLID",
        "streetDirectionId": null,
        "streetTypeId": "AVE",
        "placeName": "TORONTO",
        "streetNameDisplayText": "EUCLID AVE, TORONTO"
      }
    ]
  },
  {
    "postal": "M6J1E8",
    "result": [
      {
        "electoralDistricts": [
          {
            "election": null,
            "id": 101,
            "name": "Spadina—Fort York"
          }
        ],
        "pollDivisionIds": [
          10143934
        ],
        "postalCode": "M6J1E8",
        "streetName": "QUEEN",
        "streetDirectionId": "W",
        "streetTypeId": "ST",
        "placeName": "TORONTO",
        "streetNameDisplayText": "QUEEN ST W, TORONTO"
      }
    ]
  },
  {
    "postal": "M6J9B8",
    "result": []
  },
  {
    "postal": "M6J7X4",
    "result": []
  },
  {
    "postal": "M6J1Z4",
    "result": [
      {
        "electoralDistricts": [
          {
            "election": null,
            "id": 19,
            "name": "Davenport"
          }
        ],
        "pollDivisionIds": [
          10136105
        ],
        "postalCode": "M6J1Z4",
        "streetName": "BADEN",
        "streetDirectionId": null,
        "streetTypeId": "ST",
        "placeName": "TORONTO",
        "streetNameDisplayText": "BADEN ST, TORONTO"
      }
    ]
  },
  {
    "postal": "M6J2C7",
    "result": [
      {
        "electoralDistricts": [
          {
            "election": null,
            "id": 19,
            "name": "Davenport"
          }
        ],
        "pollDivisionIds": [
          10136105
        ],
        "postalCode": "M6J2C7",
        "streetName": "HEYDON PARK",
        "streetDirectionId": null,
        "streetTypeId": "RD",
        "placeName": "TORONTO",
        "streetNameDisplayText": "HEYDON PARK RD, TORONTO"
      }
    ]
  },
  {
    "postal": "M6J2E7",
    "result": [
      {
        "electoralDistricts": [
          {
            "election": null,
            "id": 19,
            "name": "Davenport"
          }
        ],
        "pollDivisionIds": [
          10136102
        ],
        "postalCode": "M6J2E7",
        "streetName": "SHANNON",
        "streetDirectionId": null,
        "streetTypeId": "ST",
        "placeName": "TORONTO",
        "streetNameDisplayText": "SHANNON ST, TORONTO"
      }
    ]
  },
  {
    "postal": "M6J3R1",
    "result": [
      {
        "electoralDistricts": [
          {
            "election": null,
            "id": 101,
            "name": "Spadina—Fort York"
          }
        ],
        "pollDivisionIds": [
          10143934
        ],
        "postalCode": "M6J3R1",
        "streetName": "STAFFORD",
        "streetDirectionId": null,
        "streetTypeId": "ST",
        "placeName": "TORONTO",
        "streetNameDisplayText": "STAFFORD ST, TORONTO"
      }
    ]
  },
  {
    "postal": "M6J4K4",
    "result": []
  },
  {
    "postal": "M6J9G3",
    "result": []
  },
  {
    "postal": "M6J6C9",
    "result": []
  },
  {
    "postal": "M6J9H5",
    "result": []
  },
  {
    "postal": "M6J1P5",
    "result": [
      {
        "electoralDistricts": [
          {
            "election": null,
            "id": 19,
            "name": "Davenport"
          }
        ],
        "pollDivisionIds": [
          10143812
        ],
        "postalCode": "M6J1P5",
        "streetName": "ARGYLE",
        "streetDirectionId": null,
        "streetTypeId": "ST",
        "placeName": "TORONTO",
        "streetNameDisplayText": "ARGYLE ST, TORONTO"
      }
    ]
  },
  {
    "postal": "M6J2J5",
    "result": [
      {
        "electoralDistricts": [
          {
            "election": null,
            "id": 101,
            "name": "Spadina—Fort York"
          }
        ],
        "pollDivisionIds": [
          10141942
        ],
        "postalCode": "M6J2J5",
        "streetName": "EUCLID",
        "streetDirectionId": null,
        "streetTypeId": "AVE",
        "placeName": "TORONTO",
        "streetNameDisplayText": "EUCLID AVE, TORONTO"
      }
    ]
  },
  {
    "postal": "M6J4W6",
    "result": []
  },
  {
    "postal": "M6J8M8",
    "result": []
  },
  {
    "postal": "M6J6C5",
    "result": []
  },
  {
    "postal": "M6J9H0",
    "result": []
  },
  {
    "postal": "M6J1X8",
    "result": [
      {
        "electoralDistricts": [
          {
            "election": null,
            "id": 109,
            "name": "Toronto Centre"
          },
          {
            "election": null,
            "id": 19,
            "name": "Davenport"
          }
        ],
        "pollDivisionIds": [
          10143889,
          10136105
        ],
        "postalCode": "M6J1X8",
        "streetName": "DUNDAS",
        "streetDirectionId": "W",
        "streetTypeId": "ST",
        "placeName": "TORONTO",
        "streetNameDisplayText": "DUNDAS ST W, TORONTO"
      }
    ]
  },
  {
    "postal": "M6J3H4",
    "result": [
      {
        "electoralDistricts": [
          {
            "election": null,
            "id": 19,
            "name": "Davenport"
          }
        ],
        "pollDivisionIds": [
          10136105
        ],
        "postalCode": "M6J3H4",
        "streetName": "RUSHOLME",
        "streetDirectionId": null,
        "streetTypeId": "RD",
        "placeName": "TORONTO",
        "streetNameDisplayText": "RUSHOLME RD, TORONTO"
      }
    ]
  },
  {
    "postal": "M6J4E7",
    "result": []
  },
  {
    "postal": "M6J8A0",
    "result": []
  },
  {
    "postal": "M6J1Z7",
    "result": [
      {
        "electoralDistricts": [
          {
            "election": null,
            "id": 112,
            "name": "University—Rosedale"
          }
        ],
        "pollDivisionIds": [
          10136377
        ],
        "postalCode": "M6J1Z7",
        "streetName": "HARRISON",
        "streetDirectionId": null,
        "streetTypeId": "ST",
        "placeName": "TORONTO",
        "streetNameDisplayText": "HARRISON ST, TORONTO"
      }
    ]
  },
  {
    "postal": "M6J7Z3",
    "result": []
  },
  {
    "postal": "M6J0L7",
    "result": [
      {
        "electoralDistricts": [
          {
            "election": null,
            "id": 19,
            "name": "Davenport"
          }
        ],
        "pollDivisionIds": [
          10143812
        ],
        "postalCode": "M6J0L7",
        "streetName": "LISGAR",
        "streetDirectionId": null,
        "streetTypeId": "ST",
        "placeName": "TORONTO",
        "streetNameDisplayText": "LISGAR ST, TORONTO"
      }
    ]
  },
  {
    "postal": "M6J2C6",
    "result": [
      {
        "electoralDistricts": [
          {
            "election": null,
            "id": 112,
            "name": "University—Rosedale"
          }
        ],
        "pollDivisionIds": [
          10136381
        ],
        "postalCode": "M6J2C6",
        "streetName": "GORE",
        "streetDirectionId": null,
        "streetTypeId": "ST",
        "placeName": "TORONTO",
        "streetNameDisplayText": "GORE ST, TORONTO"
      }
    ]
  },
  {
    "postal": "M6J6M3",
    "result": []
  },
  {
    "postal": "M6J2J1",
    "result": [
      {
        "electoralDistricts": [
          {
            "election": null,
            "id": 101,
            "name": "Spadina—Fort York"
          }
        ],
        "pollDivisionIds": [
          10141942,
          10141940
        ],
        "postalCode": "M6J2J1",
        "streetName": "PALMERSTON",
        "streetDirectionId": null,
        "streetTypeId": "AVE",
        "placeName": "TORONTO",
        "streetNameDisplayText": "PALMERSTON AVE, TORONTO"
      }
    ]
  },
  {
    "postal": "M6J3E3",
    "result": [
      {
        "electoralDistricts": [
          {
            "election": null,
            "id": 19,
            "name": "Davenport"
          }
        ],
        "pollDivisionIds": [
          10136105
        ],
        "postalCode": "M6J3E3",
        "streetName": "DOVERCOURT",
        "streetDirectionId": null,
        "streetTypeId": "RD",
        "placeName": "TORONTO",
        "streetNameDisplayText": "DOVERCOURT RD, TORONTO"
      }
    ]
  },
  {
    "postal": "M6J6Z9",
    "result": []
  },
  {
    "postal": "M6J3M3",
    "result": [
      {
        "electoralDistricts": [
          {
            "election": null,
            "id": 19,
            "name": "Davenport"
          }
        ],
        "pollDivisionIds": [
          10136103
        ],
        "postalCode": "M6J3M3",
        "streetName": "FEDERAL",
        "streetDirectionId": null,
        "streetTypeId": "ST",
        "placeName": "TORONTO",
        "streetNameDisplayText": "FEDERAL ST, TORONTO"
      }
    ]
  },
  {
    "postal": "M6J9B1",
    "result": []
  },
  {
    "postal": "M6J9J5",
    "result": []
  },
  {
    "postal": "M6J4V8",
    "result": []
  },
  {
    "postal": "M6J6W2",
    "result": []
  },
  {
    "postal": "M6J0V5",
    "result": []
  },
  {
    "postal": "M6J0Z8",
    "result": []
  },
  {
    "postal": "M6J5G2",
    "result": []
  },
  {
    "postal": "M6J4N4",
    "result": []
  },
  {
    "postal": "M6J8G7",
    "result": []
  },
  {
    "postal": "M6J8W1",
    "result": []
  },
  {
    "postal": "M6J1S6",
    "result": [
      {
        "electoralDistricts": [
          {
            "election": null,
            "id": 101,
            "name": "Spadina—Fort York"
          }
        ],
        "pollDivisionIds": [
          10141940
        ],
        "postalCode": "M6J1S6",
        "streetName": "ROLYAT",
        "streetDirectionId": null,
        "streetTypeId": "ST",
        "placeName": "TORONTO",
        "streetNameDisplayText": "ROLYAT ST, TORONTO"
      }
    ]
  },
  {
    "postal": "M6J4E0",
    "result": []
  },
  {
    "postal": "M6J4L9",
    "result": []
  },
  {
    "postal": "M6J5Z9",
    "result": []
  },
  {
    "postal": "M6J5V3",
    "result": []
  },
  {
    "postal": "M6J4V2",
    "result": []
  },
  {
    "postal": "M6J7C0",
    "result": []
  },
  {
    "postal": "M6J6L0",
    "result": []
  },
  {
    "postal": "M6J1S9",
    "result": [
      {
        "electoralDistricts": [
          {
            "election": null,
            "id": 19,
            "name": "Davenport"
          }
        ],
        "pollDivisionIds": [
          10143812,
          10136105
        ],
        "postalCode": "M6J1S9",
        "streetName": "MACKENZIE",
        "streetDirectionId": null,
        "streetTypeId": "CRES",
        "placeName": "TORONTO",
        "streetNameDisplayText": "MACKENZIE CRES, TORONTO"
      }
    ]
  },
  {
    "postal": "M6J7R6",
    "result": []
  },
  {
    "postal": "M6J7J0",
    "result": []
  },
  {
    "postal": "M6J5M0",
    "result": []
  },
  {
    "postal": "M6J2E5",
    "result": [
      {
        "electoralDistricts": [
          {
            "election": null,
            "id": 112,
            "name": "University—Rosedale"
          }
        ],
        "pollDivisionIds": [
          10136377
        ],
        "postalCode": "M6J2E5",
        "streetName": "SULLY",
        "streetDirectionId": null,
        "streetTypeId": "CRES",
        "placeName": "TORONTO",
        "streetNameDisplayText": "SULLY CRES, TORONTO"
      }
    ]
  },
  {
    "postal": "M6J7C7",
    "result": []
  },
  {
    "postal": "M6J5C0",
    "result": []
  },
  {
    "postal": "M6J8V9",
    "result": []
  },
  {
    "postal": "M6J7E0",
    "result": []
  },
  {
    "postal": "M6J6R4",
    "result": []
  },
  {
    "postal": "M6J3Z7",
    "result": []
  },
  {
    "postal": "M6J1J9",
    "result": [
      {
        "electoralDistricts": [
          {
            "election": null,
            "id": 101,
            "name": "Spadina—Fort York"
          }
        ],
        "pollDivisionIds": [
          10141942
        ],
        "postalCode": "M6J1J9",
        "streetName": "EUCLID",
        "streetDirectionId": null,
        "streetTypeId": "PL",
        "placeName": "TORONTO",
        "streetNameDisplayText": "EUCLID PL, TORONTO"
      }
    ]
  },
  {
    "postal": "M6J7K6",
    "result": []
  },
  {
    "postal": "M6J7Y5",
    "result": []
  },
  {
    "postal": "M6J1B7",
    "result": [
      {
        "electoralDistricts": [
          {
            "election": null,
            "id": 101,
            "name": "Spadina—Fort York"
          }
        ],
        "pollDivisionIds": [
          10143934
        ],
        "postalCode": "M6J1B7",
        "streetName": "ADELAIDE",
        "streetDirectionId": "W",
        "streetTypeId": "ST",
        "placeName": "TORONTO",
        "streetNameDisplayText": "ADELAIDE ST W, TORONTO"
      }
    ]
  },
  {
    "postal": "M6J4S9",
    "result": []
  },
  {
    "postal": "M6J9R9",
    "result": []
  },
  {
    "postal": "M6J5K7",
    "result": []
  },
  {
    "postal": "M6J6P2",
    "result": []
  },
  {
    "postal": "M6J2C5",
    "result": [
      {
        "electoralDistricts": [
          {
            "election": null,
            "id": 112,
            "name": "University—Rosedale"
          }
        ],
        "pollDivisionIds": [
          10136381
        ],
        "postalCode": "M6J2C5",
        "streetName": "GORE",
        "streetDirectionId": null,
        "streetTypeId": "ST",
        "placeName": "TORONTO",
        "streetNameDisplayText": "GORE ST, TORONTO"
      }
    ]
  },
  {
    "postal": "M6J2N0",
    "result": []
  },
  {
    "postal": "M6J1G0",
    "result": []
  },
  {
    "postal": "M6J4K5",
    "result": []
  },
  {
    "postal": "M6J9B5",
    "result": []
  },
  {
    "postal": "M6J6T5",
    "result": []
  },
  {
    "postal": "M6J1N8",
    "result": [
      {
        "electoralDistricts": [
          {
            "election": null,
            "id": 101,
            "name": "Spadina—Fort York"
          }
        ],
        "pollDivisionIds": [
          10141940
        ],
        "postalCode": "M6J1N8",
        "streetName": "ARGYLE",
        "streetDirectionId": null,
        "streetTypeId": "ST",
        "placeName": "TORONTO",
        "streetNameDisplayText": "ARGYLE ST, TORONTO"
      }
    ]
  },
  {
    "postal": "M6J0C0",
    "result": []
  },
  {
    "postal": "M6J0R9",
    "result": []
  },
  {
    "postal": "M6J7L1",
    "result": []
  },
  {
    "postal": "M6J3Y8",
    "result": []
  },
  {
    "postal": "M6J7X9",
    "result": []
  },
  {
    "postal": "M6J1A7",
    "result": []
  },
  {
    "postal": "M6J2T9",
    "result": [
      {
        "electoralDistricts": [
          {
            "election": null,
            "id": 112,
            "name": "University—Rosedale"
          }
        ],
        "pollDivisionIds": [
          10136377
        ],
        "postalCode": "M6J2T9",
        "streetName": "MONTROSE",
        "streetDirectionId": null,
        "streetTypeId": "AVE",
        "placeName": "TORONTO",
        "streetNameDisplayText": "MONTROSE AVE, TORONTO"
      },
      {
        "electoralDistricts": [
          {
            "election": null,
            "id": 101,
            "name": "Spadina—Fort York"
          }
        ],
        "pollDivisionIds": [
          10141940
        ],
        "postalCode": "M6J2T9",
        "streetName": "SHANK",
        "streetDirectionId": null,
        "streetTypeId": "ST",
        "placeName": "TORONTO, ON",
        "streetNameDisplayText": "SHANK ST, TORONTO, ON"
      }
    ]
  },
  {
    "postal": "M6J2E6",
    "result": [
      {
        "electoralDistricts": [
          {
            "election": null,
            "id": 19,
            "name": "Davenport"
          },
          {
            "election": null,
            "id": 112,
            "name": "University—Rosedale"
          }
        ],
        "pollDivisionIds": [
          10136102,
          10136377
        ],
        "postalCode": "M6J2E6",
        "streetName": "SHANNON",
        "streetDirectionId": null,
        "streetTypeId": "ST",
        "placeName": "TORONTO",
        "streetNameDisplayText": "SHANNON ST, TORONTO"
      }
    ]
  },
  {
    "postal": "M6J8Y1",
    "result": []
  },
  {
    "postal": "M6J0J5",
    "result": []
  },
  {
    "postal": "M6J4J1",
    "result": []
  },
  {
    "postal": "M6J1A5",
    "result": []
  },
  {
    "postal": "M6J6Z6",
    "result": []
  },
  {
    "postal": "M6J5K4",
    "result": []
  },
  {
    "postal": "M6J7R9",
    "result": []
  },
  {
    "postal": "M6J6G4",
    "result": []
  }
]
