[
  {
    "postal": "P7C9J6",
    "result": []
  },
  {
    "postal": "P7C9Z5",
    "result": []
  },
  {
    "postal": "P7C7H8",
    "result": []
  },
  {
    "postal": "P7C0P6",
    "result": []
  },
  {
    "postal": "P7C0S7",
    "result": []
  },
  {
    "postal": "P7C8B9",
    "result": []
  },
  {
    "postal": "P7C2A6",
    "result": [
      {
        "electoralDistricts": [
          {
            "election": null,
            "id": 105,
            "name": "Thunder Bay—Atikokan"
          }
        ],
        "pollDivisionIds": [
          10142319
        ],
        "postalCode": "P7C2A6",
        "streetName": "KENSINGTON",
        "streetDirectionId": null,
        "streetTypeId": "DR",
        "placeName": "THUNDER BAY",
        "streetNameDisplayText": "KENSINGTON DR, THUNDER BAY"
      }
    ]
  },
  {
    "postal": "P7C7V2",
    "result": []
  },
  {
    "postal": "P7C9P4",
    "result": []
  },
  {
    "postal": "P7C6G0",
    "result": []
  },
  {
    "postal": "P7C2K0",
    "result": []
  },
  {
    "postal": "P7C7N6",
    "result": []
  },
  {
    "postal": "P7C5R3",
    "result": [
      {
        "electoralDistricts": [
          {
            "election": null,
            "id": 105,
            "name": "Thunder Bay—Atikokan"
          }
        ],
        "pollDivisionIds": [
          10142312
        ],
        "postalCode": "P7C5R3",
        "streetName": "LOYOLA",
        "streetDirectionId": null,
        "streetTypeId": "PL",
        "placeName": "THUNDER BAY",
        "streetNameDisplayText": "LOYOLA PL, THUNDER BAY"
      }
    ]
  },
  {
    "postal": "P7C7K0",
    "result": []
  },
  {
    "postal": "P7C3R2",
    "result": [
      {
        "electoralDistricts": [
          {
            "election": null,
            "id": 105,
            "name": "Thunder Bay—Atikokan"
          }
        ],
        "pollDivisionIds": [
          10142329
        ],
        "postalCode": "P7C3R2",
        "streetName": "MAY",
        "streetDirectionId": "N",
        "streetTypeId": "ST",
        "placeName": "THUNDER BAY",
        "streetNameDisplayText": "MAY ST N, THUNDER BAY"
      }
    ]
  },
  {
    "postal": "P7C0J1",
    "result": []
  },
  {
    "postal": "P7C0B0",
    "result": []
  },
  {
    "postal": "P7C5Z2",
    "result": [
      {
        "electoralDistricts": [
          {
            "election": null,
            "id": 105,
            "name": "Thunder Bay—Atikokan"
          }
        ],
        "pollDivisionIds": [
          10142307
        ],
        "postalCode": "P7C5Z2",
        "streetName": "PORCUPINE",
        "streetDirectionId": null,
        "streetTypeId": "BLVD",
        "placeName": "THUNDER BAY",
        "streetNameDisplayText": "PORCUPINE BLVD, THUNDER BAY"
      },
      {
        "electoralDistricts": [
          {
            "election": null,
            "id": 105,
            "name": "Thunder Bay—Atikokan"
          }
        ],
        "pollDivisionIds": [
          10142307
        ],
        "postalCode": "P7C5Z2",
        "streetName": "WOLVERINE",
        "streetDirectionId": null,
        "streetTypeId": "CRES",
        "placeName": "THUNDER BAY",
        "streetNameDisplayText": "WOLVERINE CRES, THUNDER BAY"
      }
    ]
  },
  {
    "postal": "P7C7P3",
    "result": []
  },
  {
    "postal": "P7C2K3",
    "result": [
      {
        "electoralDistricts": [
          {
            "election": null,
            "id": 105,
            "name": "Thunder Bay—Atikokan"
          }
        ],
        "pollDivisionIds": [
          10142327
        ],
        "postalCode": "P7C2K3",
        "streetName": "PRUDEN",
        "streetDirectionId": null,
        "streetTypeId": "ST",
        "placeName": "THUNDER BAY",
        "streetNameDisplayText": "PRUDEN ST, THUNDER BAY"
      }
    ]
  },
  {
    "postal": "P7C7Y6",
    "result": []
  },
  {
    "postal": "P7C1L9",
    "result": [
      {
        "electoralDistricts": [
          {
            "election": null,
            "id": 105,
            "name": "Thunder Bay—Atikokan"
          }
        ],
        "pollDivisionIds": [
          10142316
        ],
        "postalCode": "P7C1L9",
        "streetName": "BRIAR",
        "streetDirectionId": null,
        "streetTypeId": "BAY",
        "placeName": "THUNDER BAY",
        "streetNameDisplayText": "BRIAR BAY, THUNDER BAY"
      }
    ]
  },
  {
    "postal": "P7C8T0",
    "result": []
  },
  {
    "postal": "P7C3K8",
    "result": [
      {
        "electoralDistricts": [
          {
            "election": null,
            "id": 105,
            "name": "Thunder Bay—Atikokan"
          }
        ],
        "pollDivisionIds": [
          10142333
        ],
        "postalCode": "P7C3K8",
        "streetName": "SIMPSON",
        "streetDirectionId": "N",
        "streetTypeId": "ST",
        "placeName": "THUNDER BAY",
        "streetNameDisplayText": "SIMPSON ST N, THUNDER BAY"
      },
      {
        "electoralDistricts": [
          {
            "election": null,
            "id": 105,
            "name": "Thunder Bay—Atikokan"
          }
        ],
        "pollDivisionIds": [
          10142333
        ],
        "postalCode": "P7C3K8",
        "streetName": "SIMPSON",
        "streetDirectionId": null,
        "streetTypeId": "ST",
        "placeName": "THUNDER BAY",
        "streetNameDisplayText": "SIMPSON ST, THUNDER BAY"
      }
    ]
  },
  {
    "postal": "P7C5W9",
    "result": [
      {
        "electoralDistricts": [
          {
            "election": null,
            "id": 105,
            "name": "Thunder Bay—Atikokan"
          }
        ],
        "pollDivisionIds": [
          10142312
        ],
        "postalCode": "P7C5W9",
        "streetName": "SENECA",
        "streetDirectionId": null,
        "streetTypeId": "CRES",
        "placeName": "THUNDER BAY",
        "streetNameDisplayText": "SENECA CRES, THUNDER BAY"
      }
    ]
  },
  {
    "postal": "P7C6T9",
    "result": []
  },
  {
    "postal": "P7C4H1",
    "result": [
      {
        "electoralDistricts": [
          {
            "election": null,
            "id": 105,
            "name": "Thunder Bay—Atikokan"
          }
        ],
        "pollDivisionIds": [
          10142327
        ],
        "postalCode": "P7C4H1",
        "streetName": "NORAH",
        "streetDirectionId": "N",
        "streetTypeId": "ST",
        "placeName": "THUNDER BAY",
        "streetNameDisplayText": "NORAH ST N, THUNDER BAY"
      }
    ]
  },
  {
    "postal": "P7C7A2",
    "result": []
  },
  {
    "postal": "P7C5G0",
    "result": []
  },
  {
    "postal": "P7C8V5",
    "result": []
  },
  {
    "postal": "P7C2Y8",
    "result": [
      {
        "electoralDistricts": [
          {
            "election": null,
            "id": 105,
            "name": "Thunder Bay—Atikokan"
          }
        ],
        "pollDivisionIds": [
          10142335
        ],
        "postalCode": "P7C2Y8",
        "streetName": "MCPHERSON",
        "streetDirectionId": null,
        "streetTypeId": "ST",
        "placeName": "THUNDER BAY",
        "streetNameDisplayText": "MCPHERSON ST, THUNDER BAY"
      }
    ]
  },
  {
    "postal": "P7C2B6",
    "result": [
      {
        "electoralDistricts": [
          {
            "election": null,
            "id": 105,
            "name": "Thunder Bay—Atikokan"
          }
        ],
        "pollDivisionIds": [
          10142319
        ],
        "postalCode": "P7C2B6",
        "streetName": "HUNTINGTON",
        "streetDirectionId": null,
        "streetTypeId": "CRT",
        "placeName": "THUNDER BAY",
        "streetNameDisplayText": "HUNTINGTON CRT, THUNDER BAY"
      }
    ]
  },
  {
    "postal": "P7C4W8",
    "result": []
  },
  {
    "postal": "P7C8H7",
    "result": []
  },
  {
    "postal": "P7C5P1",
    "result": [
      {
        "electoralDistricts": [
          {
            "election": null,
            "id": 105,
            "name": "Thunder Bay—Atikokan"
          }
        ],
        "pollDivisionIds": [
          10142308
        ],
        "postalCode": "P7C5P1",
        "streetName": "DALHOUSIE",
        "streetDirectionId": null,
        "streetTypeId": "DR",
        "placeName": "THUNDER BAY",
        "streetNameDisplayText": "DALHOUSIE DR, THUNDER BAY"
      }
    ]
  },
  {
    "postal": "P7C2B8",
    "result": [
      {
        "electoralDistricts": [
          {
            "election": null,
            "id": 105,
            "name": "Thunder Bay—Atikokan"
          }
        ],
        "pollDivisionIds": [
          10142312
        ],
        "postalCode": "P7C2B8",
        "streetName": "ASHLAND",
        "streetDirectionId": null,
        "streetTypeId": "PL",
        "placeName": "THUNDER BAY",
        "streetNameDisplayText": "ASHLAND PL, THUNDER BAY"
      }
    ]
  },
  {
    "postal": "P7C0P2",
    "result": []
  },
  {
    "postal": "P7C9M1",
    "result": []
  },
  {
    "postal": "P7C3G0",
    "result": []
  },
  {
    "postal": "P7C9Z2",
    "result": []
  },
  {
    "postal": "P7C2A0",
    "result": []
  },
  {
    "postal": "P7C6Y0",
    "result": []
  },
  {
    "postal": "P7C2Z8",
    "result": [
      {
        "electoralDistricts": [
          {
            "election": null,
            "id": 105,
            "name": "Thunder Bay—Atikokan"
          }
        ],
        "pollDivisionIds": [
          10142335
        ],
        "postalCode": "P7C2Z8",
        "streetName": "MCLEOD",
        "streetDirectionId": null,
        "streetTypeId": "ST",
        "placeName": "THUNDER BAY",
        "streetNameDisplayText": "MCLEOD ST, THUNDER BAY"
      }
    ]
  },
  {
    "postal": "P7C7Y3",
    "result": []
  },
  {
    "postal": "P7C6Z5",
    "result": []
  },
  {
    "postal": "P7C6E0",
    "result": []
  },
  {
    "postal": "P7C9B7",
    "result": []
  },
  {
    "postal": "P7C9S5",
    "result": []
  },
  {
    "postal": "P7C3X3",
    "result": [
      {
        "electoralDistricts": [
          {
            "election": null,
            "id": 105,
            "name": "Thunder Bay—Atikokan"
          }
        ],
        "pollDivisionIds": [
          10142327
        ],
        "postalCode": "P7C3X3",
        "streetName": "SYNDICATE",
        "streetDirectionId": "N",
        "streetTypeId": "AVE",
        "placeName": "THUNDER BAY",
        "streetNameDisplayText": "SYNDICATE AVE N, THUNDER BAY"
      }
    ]
  },
  {
    "postal": "P7C7R5",
    "result": []
  },
  {
    "postal": "P7C2X3",
    "result": [
      {
        "electoralDistricts": [
          {
            "election": null,
            "id": 105,
            "name": "Thunder Bay—Atikokan"
          }
        ],
        "pollDivisionIds": [
          10142333
        ],
        "postalCode": "P7C2X3",
        "streetName": "WILLIAM",
        "streetDirectionId": null,
        "streetTypeId": "ST",
        "placeName": "THUNDER BAY",
        "streetNameDisplayText": "WILLIAM ST, THUNDER BAY"
      }
    ]
  },
  {
    "postal": "P7C8Z9",
    "result": []
  },
  {
    "postal": "P7C0N4",
    "result": []
  },
  {
    "postal": "P7C1K1",
    "result": [
      {
        "electoralDistricts": [
          {
            "election": null,
            "id": 105,
            "name": "Thunder Bay—Atikokan"
          }
        ],
        "pollDivisionIds": [
          10142329
        ],
        "postalCode": "P7C1K1",
        "streetName": "MILES",
        "streetDirectionId": "E",
        "streetTypeId": "ST",
        "placeName": "THUNDER BAY",
        "streetNameDisplayText": "MILES ST E, THUNDER BAY"
      }
    ]
  },
  {
    "postal": "P7C1S3",
    "result": [
      {
        "electoralDistricts": [
          {
            "election": null,
            "id": 105,
            "name": "Thunder Bay—Atikokan"
          }
        ],
        "pollDivisionIds": [
          10142319
        ],
        "postalCode": "P7C1S3",
        "streetName": "BOLTON",
        "streetDirectionId": null,
        "streetTypeId": "CRES",
        "placeName": "THUNDER BAY",
        "streetNameDisplayText": "BOLTON CRES, THUNDER BAY"
      }
    ]
  },
  {
    "postal": "P7C6M4",
    "result": []
  },
  {
    "postal": "P7C9A9",
    "result": []
  },
  {
    "postal": "P7C9Z9",
    "result": []
  },
  {
    "postal": "P7C6T4",
    "result": []
  },
  {
    "postal": "P7C0B2",
    "result": [
      {
        "electoralDistricts": [
          {
            "election": null,
            "id": 105,
            "name": "Thunder Bay—Atikokan"
          }
        ],
        "pollDivisionIds": [
          10142307
        ],
        "postalCode": "P7C0B2",
        "streetName": "COUGAR",
        "streetDirectionId": null,
        "streetTypeId": "CRES",
        "placeName": "THUNDER BAY",
        "streetNameDisplayText": "COUGAR CRES, THUNDER BAY"
      }
    ]
  },
  {
    "postal": "P7C2L9",
    "result": [
      {
        "electoralDistricts": [
          {
            "election": null,
            "id": 105,
            "name": "Thunder Bay—Atikokan"
          }
        ],
        "pollDivisionIds": [
          10142327
        ],
        "postalCode": "P7C2L9",
        "streetName": "WEIGAND",
        "streetDirectionId": null,
        "streetTypeId": "AVE",
        "placeName": "THUNDER BAY",
        "streetNameDisplayText": "WEIGAND AVE, THUNDER BAY"
      }
    ]
  },
  {
    "postal": "P7C8K9",
    "result": []
  },
  {
    "postal": "P7C2H9",
    "result": [
      {
        "electoralDistricts": [
          {
            "election": null,
            "id": 105,
            "name": "Thunder Bay—Atikokan"
          }
        ],
        "pollDivisionIds": [
          10142333
        ],
        "postalCode": "P7C2H9",
        "streetName": "DEASE",
        "streetDirectionId": null,
        "streetTypeId": "ST",
        "placeName": "THUNDER BAY",
        "streetNameDisplayText": "DEASE ST, THUNDER BAY"
      }
    ]
  },
  {
    "postal": "P7C3Z6",
    "result": [
      {
        "electoralDistricts": [
          {
            "election": null,
            "id": 105,
            "name": "Thunder Bay—Atikokan"
          }
        ],
        "pollDivisionIds": [
          10142329
        ],
        "postalCode": "P7C3Z6",
        "streetName": "MCKELLAR",
        "streetDirectionId": "N",
        "streetTypeId": "ST",
        "placeName": "THUNDER BAY",
        "streetNameDisplayText": "MCKELLAR ST N, THUNDER BAY"
      }
    ]
  },
  {
    "postal": "P7C3B0",
    "result": []
  },
  {
    "postal": "P7C2H8",
    "result": [
      {
        "electoralDistricts": [
          {
            "election": null,
            "id": 105,
            "name": "Thunder Bay—Atikokan"
          }
        ],
        "pollDivisionIds": [
          10142329
        ],
        "postalCode": "P7C2H8",
        "streetName": "DEASE",
        "streetDirectionId": null,
        "streetTypeId": "ST",
        "placeName": "THUNDER BAY",
        "streetNameDisplayText": "DEASE ST, THUNDER BAY"
      }
    ]
  },
  {
    "postal": "P7C3X2",
    "result": [
      {
        "electoralDistricts": [
          {
            "election": null,
            "id": 105,
            "name": "Thunder Bay—Atikokan"
          }
        ],
        "pollDivisionIds": [
          10142327
        ],
        "postalCode": "P7C3X2",
        "streetName": "SYNDICATE",
        "streetDirectionId": "N",
        "streetTypeId": "AVE",
        "placeName": "THUNDER BAY",
        "streetNameDisplayText": "SYNDICATE AVE N, THUNDER BAY"
      }
    ]
  },
  {
    "postal": "P7C2E9",
    "result": [
      {
        "electoralDistricts": [
          {
            "election": null,
            "id": 105,
            "name": "Thunder Bay—Atikokan"
          }
        ],
        "pollDivisionIds": [
          10142319
        ],
        "postalCode": "P7C2E9",
        "streetName": "INGLEWOOD",
        "streetDirectionId": null,
        "streetTypeId": "CRES",
        "placeName": "THUNDER BAY",
        "streetNameDisplayText": "INGLEWOOD CRES, THUNDER BAY"
      }
    ]
  },
  {
    "postal": "P7C9P6",
    "result": []
  },
  {
    "postal": "P7C9E2",
    "result": []
  },
  {
    "postal": "P7C9H2",
    "result": []
  },
  {
    "postal": "P7C1S8",
    "result": [
      {
        "electoralDistricts": [
          {
            "election": null,
            "id": 105,
            "name": "Thunder Bay—Atikokan"
          }
        ],
        "pollDivisionIds": [
          10142319
        ],
        "postalCode": "P7C1S8",
        "streetName": "SILLESDALE",
        "streetDirectionId": null,
        "streetTypeId": "CRES",
        "placeName": "THUNDER BAY",
        "streetNameDisplayText": "SILLESDALE CRES, THUNDER BAY"
      }
    ]
  },
  {
    "postal": "P7C3M6",
    "result": [
      {
        "electoralDistricts": [
          {
            "election": null,
            "id": 105,
            "name": "Thunder Bay—Atikokan"
          }
        ],
        "pollDivisionIds": [
          10142333
        ],
        "postalCode": "P7C3M6",
        "streetName": "PRINCE ARTHUR",
        "streetDirectionId": null,
        "streetTypeId": "BLVD",
        "placeName": "THUNDER BAY",
        "streetNameDisplayText": "PRINCE ARTHUR BLVD, THUNDER BAY"
      }
    ]
  },
  {
    "postal": "P7C6Z8",
    "result": []
  },
  {
    "postal": "P7C4J2",
    "result": [
      {
        "electoralDistricts": [
          {
            "election": null,
            "id": 105,
            "name": "Thunder Bay—Atikokan"
          }
        ],
        "pollDivisionIds": [
          10142327
        ],
        "postalCode": "P7C4J2",
        "streetName": "FRANKLIN",
        "streetDirectionId": "N",
        "streetTypeId": "ST",
        "placeName": "THUNDER BAY",
        "streetNameDisplayText": "FRANKLIN ST N, THUNDER BAY"
      }
    ]
  },
  {
    "postal": "P7C9Y1",
    "result": []
  },
  {
    "postal": "P7C8V6",
    "result": []
  },
  {
    "postal": "P7C6B2",
    "result": [
      {
        "electoralDistricts": [
          {
            "election": null,
            "id": 105,
            "name": "Thunder Bay—Atikokan"
          }
        ],
        "pollDivisionIds": [
          10142307
        ],
        "postalCode": "P7C6B2",
        "streetName": "LYNX",
        "streetDirectionId": null,
        "streetTypeId": "CRES",
        "placeName": "THUNDER BAY",
        "streetNameDisplayText": "LYNX CRES, THUNDER BAY"
      },
      {
        "electoralDistricts": [
          {
            "election": null,
            "id": 105,
            "name": "Thunder Bay—Atikokan"
          }
        ],
        "pollDivisionIds": [
          10142307
        ],
        "postalCode": "P7C6B2",
        "streetName": "PORCUPINE",
        "streetDirectionId": null,
        "streetTypeId": "BLVD",
        "placeName": "THUNDER BAY",
        "streetNameDisplayText": "PORCUPINE BLVD, THUNDER BAY"
      }
    ]
  },
  {
    "postal": "P7C1P8",
    "result": [
      {
        "electoralDistricts": [
          {
            "election": null,
            "id": 105,
            "name": "Thunder Bay—Atikokan"
          }
        ],
        "pollDivisionIds": [
          10142322
        ],
        "postalCode": "P7C1P8",
        "streetName": "CUMMING",
        "streetDirectionId": null,
        "streetTypeId": "ST",
        "placeName": "THUNDER BAY",
        "streetNameDisplayText": "CUMMING ST, THUNDER BAY"
      }
    ]
  },
  {
    "postal": "P7C0V8",
    "result": []
  },
  {
    "postal": "P7C4Y0",
    "result": []
  },
  {
    "postal": "P7C2T4",
    "result": [
      {
        "electoralDistricts": [
          {
            "election": null,
            "id": 105,
            "name": "Thunder Bay—Atikokan"
          }
        ],
        "pollDivisionIds": [
          10142335
        ],
        "postalCode": "P7C2T4",
        "streetName": "ATLANTIC",
        "streetDirectionId": null,
        "streetTypeId": "AVE",
        "placeName": "THUNDER BAY",
        "streetNameDisplayText": "ATLANTIC AVE, THUNDER BAY"
      }
    ]
  },
  {
    "postal": "P7C2S3",
    "result": [
      {
        "electoralDistricts": [
          {
            "election": null,
            "id": 105,
            "name": "Thunder Bay—Atikokan"
          }
        ],
        "pollDivisionIds": [
          10142335
        ],
        "postalCode": "P7C2S3",
        "streetName": "PACIFIC",
        "streetDirectionId": null,
        "streetTypeId": "AVE",
        "placeName": "THUNDER BAY",
        "streetNameDisplayText": "PACIFIC AVE, THUNDER BAY"
      }
    ]
  },
  {
    "postal": "P7C0K0",
    "result": []
  },
  {
    "postal": "P7C5N1",
    "result": [
      {
        "electoralDistricts": [
          {
            "election": null,
            "id": 105,
            "name": "Thunder Bay—Atikokan"
          }
        ],
        "pollDivisionIds": [
          10142308
        ],
        "postalCode": "P7C5N1",
        "streetName": "MCMASTER",
        "streetDirectionId": null,
        "streetTypeId": "ST",
        "placeName": "THUNDER BAY",
        "streetNameDisplayText": "MCMASTER ST, THUNDER BAY"
      }
    ]
  },
  {
    "postal": "P7C7T0",
    "result": []
  },
  {
    "postal": "P7C9N2",
    "result": []
  },
  {
    "postal": "P7C5L1",
    "result": [
      {
        "electoralDistricts": [
          {
            "election": null,
            "id": 105,
            "name": "Thunder Bay—Atikokan"
          }
        ],
        "pollDivisionIds": [
          10142308
        ],
        "postalCode": "P7C5L1",
        "streetName": "THORNLOE",
        "streetDirectionId": null,
        "streetTypeId": "DR",
        "placeName": "THUNDER BAY",
        "streetNameDisplayText": "THORNLOE DR, THUNDER BAY"
      }
    ]
  },
  {
    "postal": "P7C7G5",
    "result": []
  },
  {
    "postal": "P7C6K2",
    "result": []
  },
  {
    "postal": "P7C6P9",
    "result": []
  },
  {
    "postal": "P7C0E6",
    "result": []
  },
  {
    "postal": "P7C8R9",
    "result": []
  },
  {
    "postal": "P7C3G9",
    "result": [
      {
        "electoralDistricts": [
          {
            "election": null,
            "id": 105,
            "name": "Thunder Bay—Atikokan"
          }
        ],
        "pollDivisionIds": [
          10142333,
          10142332,
          10142328
        ],
        "postalCode": "P7C3G9",
        "streetName": "HARDISTY",
        "streetDirectionId": "N",
        "streetTypeId": "ST",
        "placeName": "THUNDER BAY",
        "streetNameDisplayText": "HARDISTY ST N, THUNDER BAY"
      }
    ]
  },
  {
    "postal": "P7C0V7",
    "result": []
  },
  {
    "postal": "P7C2Z1",
    "result": [
      {
        "electoralDistricts": [
          {
            "election": null,
            "id": 105,
            "name": "Thunder Bay—Atikokan"
          }
        ],
        "pollDivisionIds": [
          10142335
        ],
        "postalCode": "P7C2Z1",
        "streetName": "MCPHERSON",
        "streetDirectionId": null,
        "streetTypeId": "ST",
        "placeName": "THUNDER BAY",
        "streetNameDisplayText": "MCPHERSON ST, THUNDER BAY"
      }
    ]
  },
  {
    "postal": "P7C7N1",
    "result": []
  },
  {
    "postal": "P7C3C6",
    "result": [
      {
        "electoralDistricts": [
          {
            "election": null,
            "id": 105,
            "name": "Thunder Bay—Atikokan"
          }
        ],
        "pollDivisionIds": [
          10142335
        ],
        "postalCode": "P7C3C6",
        "streetName": "MCTAVISH",
        "streetDirectionId": null,
        "streetTypeId": "ST",
        "placeName": "THUNDER BAY",
        "streetNameDisplayText": "MCTAVISH ST, THUNDER BAY"
      }
    ]
  },
  {
    "postal": "P7C4M1",
    "result": [
      {
        "electoralDistricts": [
          {
            "election": null,
            "id": 105,
            "name": "Thunder Bay—Atikokan"
          }
        ],
        "pollDivisionIds": [
          10142319
        ],
        "postalCode": "P7C4M1",
        "streetName": "WREN",
        "streetDirectionId": null,
        "streetTypeId": "CRT",
        "placeName": "THUNDER BAY",
        "streetNameDisplayText": "WREN CRT, THUNDER BAY"
      }
    ]
  },
  {
    "postal": "P7C9K2",
    "result": []
  },
  {
    "postal": "P7C9S6",
    "result": []
  },
  {
    "postal": "P7C4X1",
    "result": []
  },
  {
    "postal": "P7C8W2",
    "result": []
  },
  {
    "postal": "P7C7N2",
    "result": []
  },
  {
    "postal": "P7C8S3",
    "result": []
  },
  {
    "postal": "P7C4V0",
    "result": []
  },
  {
    "postal": "P7C6W4",
    "result": []
  },
  {
    "postal": "P7C5M1",
    "result": [
      {
        "electoralDistricts": [
          {
            "election": null,
            "id": 106,
            "name": "Thunder Bay—Superior North"
          }
        ],
        "pollDivisionIds": [
          10142392
        ],
        "postalCode": "P7C5M1",
        "streetName": "JAMES",
        "streetDirectionId": null,
        "streetTypeId": null,
        "placeName": "THUNDER BAY",
        "streetNameDisplayText": "JAMES, THUNDER BAY"
      },
      {
        "electoralDistricts": [
          {
            "election": null,
            "id": 105,
            "name": "Thunder Bay—Atikokan"
          }
        ],
        "pollDivisionIds": [
          10142312
        ],
        "postalCode": "P7C5M1",
        "streetName": "LAMBTON",
        "streetDirectionId": null,
        "streetTypeId": "CRES",
        "placeName": "THUNDER BAY",
        "streetNameDisplayText": "LAMBTON CRES, THUNDER BAY"
      },
      {
        "electoralDistricts": [
          {
            "election": null,
            "id": 105,
            "name": "Thunder Bay—Atikokan"
          }
        ],
        "pollDivisionIds": [
          10142312
        ],
        "postalCode": "P7C5M1",
        "streetName": "LAMBTON",
        "streetDirectionId": null,
        "streetTypeId": "PL",
        "placeName": "THUNDER BAY",
        "streetNameDisplayText": "LAMBTON PL, THUNDER BAY"
      }
    ]
  },
  {
    "postal": "P7C0S4",
    "result": []
  },
  {
    "postal": "P7C5X6",
    "result": [
      {
        "electoralDistricts": [
          {
            "election": null,
            "id": 105,
            "name": "Thunder Bay—Atikokan"
          }
        ],
        "pollDivisionIds": [
          10142312
        ],
        "postalCode": "P7C5X6",
        "streetName": "HUMBER",
        "streetDirectionId": null,
        "streetTypeId": "CRES",
        "placeName": "THUNDER BAY",
        "streetNameDisplayText": "HUMBER CRES, THUNDER BAY"
      }
    ]
  },
  {
    "postal": "P7C8L5",
    "result": []
  },
  {
    "postal": "P7C5M8",
    "result": [
      {
        "electoralDistricts": [
          {
            "election": null,
            "id": 105,
            "name": "Thunder Bay—Atikokan"
          }
        ],
        "pollDivisionIds": [
          10142312
        ],
        "postalCode": "P7C5M8",
        "streetName": "JAMES",
        "streetDirectionId": "N",
        "streetTypeId": "ST",
        "placeName": "THUNDER BAY",
        "streetNameDisplayText": "JAMES ST N, THUNDER BAY"
      }
    ]
  },
  {
    "postal": "P7C2G3",
    "result": [
      {
        "electoralDistricts": [
          {
            "election": null,
            "id": 105,
            "name": "Thunder Bay—Atikokan"
          }
        ],
        "pollDivisionIds": [
          10142332
        ],
        "postalCode": "P7C2G3",
        "streetName": "BETHUNE",
        "streetDirectionId": null,
        "streetTypeId": "ST",
        "placeName": "THUNDER BAY",
        "streetNameDisplayText": "BETHUNE ST, THUNDER BAY"
      }
    ]
  },
  {
    "postal": "P7C8E4",
    "result": []
  },
  {
    "postal": "P7C7S9",
    "result": []
  },
  {
    "postal": "P7C1K3",
    "result": [
      {
        "electoralDistricts": [
          {
            "election": null,
            "id": 105,
            "name": "Thunder Bay—Atikokan"
          }
        ],
        "pollDivisionIds": [
          10142322
        ],
        "postalCode": "P7C1K3",
        "streetName": "MILES",
        "streetDirectionId": "E",
        "streetTypeId": "ST",
        "placeName": "THUNDER BAY",
        "streetNameDisplayText": "MILES ST E, THUNDER BAY"
      }
    ]
  },
  {
    "postal": "P7C4E1",
    "result": [
      {
        "electoralDistricts": [
          {
            "election": null,
            "id": 105,
            "name": "Thunder Bay—Atikokan"
          }
        ],
        "pollDivisionIds": [
          10142327
        ],
        "postalCode": "P7C4E1",
        "streetName": "HAROLD",
        "streetDirectionId": "N",
        "streetTypeId": "ST",
        "placeName": "THUNDER BAY",
        "streetNameDisplayText": "HAROLD ST N, THUNDER BAY"
      }
    ]
  },
  {
    "postal": "P7C4R2",
    "result": [
      {
        "electoralDistricts": [
          {
            "election": null,
            "id": 105,
            "name": "Thunder Bay—Atikokan"
          }
        ],
        "pollDivisionIds": [
          10142319
        ],
        "postalCode": "P7C4R2",
        "streetName": "EDWARD",
        "streetDirectionId": "N",
        "streetTypeId": "ST",
        "placeName": "THUNDER BAY",
        "streetNameDisplayText": "EDWARD ST N, THUNDER BAY"
      }
    ]
  },
  {
    "postal": "P7C6T0",
    "result": []
  },
  {
    "postal": "P7C3K5",
    "result": [
      {
        "electoralDistricts": [
          {
            "election": null,
            "id": 105,
            "name": "Thunder Bay—Atikokan"
          }
        ],
        "pollDivisionIds": [
          10142333
        ],
        "postalCode": "P7C3K5",
        "streetName": "SIMPSON",
        "streetDirectionId": "N",
        "streetTypeId": "ST",
        "placeName": "THUNDER BAY",
        "streetNameDisplayText": "SIMPSON ST N, THUNDER BAY"
      },
      {
        "electoralDistricts": [
          {
            "election": null,
            "id": 105,
            "name": "Thunder Bay—Atikokan"
          }
        ],
        "pollDivisionIds": [
          10142333
        ],
        "postalCode": "P7C3K5",
        "streetName": "SIMPSON",
        "streetDirectionId": null,
        "streetTypeId": "ST",
        "placeName": "THUNDER BAY",
        "streetNameDisplayText": "SIMPSON ST, THUNDER BAY"
      }
    ]
  },
  {
    "postal": "P7C3S3",
    "result": [
      {
        "electoralDistricts": [
          {
            "election": null,
            "id": 105,
            "name": "Thunder Bay—Atikokan"
          }
        ],
        "pollDivisionIds": [
          10142330
        ],
        "postalCode": "P7C3S3",
        "streetName": "BRODIE",
        "streetDirectionId": "N",
        "streetTypeId": "ST",
        "placeName": "THUNDER BAY",
        "streetNameDisplayText": "BRODIE ST N, THUNDER BAY"
      },
      {
        "electoralDistricts": [
          {
            "election": null,
            "id": 105,
            "name": "Thunder Bay—Atikokan"
          }
        ],
        "pollDivisionIds": [
          10142330
        ],
        "postalCode": "P7C3S3",
        "streetName": "BRODIE",
        "streetDirectionId": "S",
        "streetTypeId": "ST",
        "placeName": "THUNDER BAY",
        "streetNameDisplayText": "BRODIE ST S, THUNDER BAY"
      }
    ]
  },
  {
    "postal": "P7C3L4",
    "result": [
      {
        "electoralDistricts": [
          {
            "election": null,
            "id": 105,
            "name": "Thunder Bay—Atikokan"
          }
        ],
        "pollDivisionIds": [
          10142333
        ],
        "postalCode": "P7C3L4",
        "streetName": "MCKENZIE",
        "streetDirectionId": null,
        "streetTypeId": "ST",
        "placeName": "THUNDER BAY",
        "streetNameDisplayText": "MCKENZIE ST, THUNDER BAY"
      }
    ]
  },
  {
    "postal": "P7C9Y2",
    "result": []
  },
  {
    "postal": "P7C1E0",
    "result": []
  },
  {
    "postal": "P7C9A4",
    "result": []
  },
  {
    "postal": "P7C1L3",
    "result": [
      {
        "electoralDistricts": [
          {
            "election": null,
            "id": 105,
            "name": "Thunder Bay—Atikokan"
          }
        ],
        "pollDivisionIds": [
          10142322
        ],
        "postalCode": "P7C1L3",
        "streetName": "WALNUT",
        "streetDirectionId": null,
        "streetTypeId": "ST",
        "placeName": "THUNDER BAY",
        "streetNameDisplayText": "WALNUT ST, THUNDER BAY"
      }
    ]
  },
  {
    "postal": "P7C6N1",
    "result": []
  },
  {
    "postal": "P7C6G7",
    "result": []
  },
  {
    "postal": "P7C7W1",
    "result": []
  },
  {
    "postal": "P7C4M6",
    "result": [
      {
        "electoralDistricts": [
          {
            "election": null,
            "id": 105,
            "name": "Thunder Bay—Atikokan"
          }
        ],
        "pollDivisionIds": [
          10142319
        ],
        "postalCode": "P7C4M6",
        "streetName": "WESTMINSTER",
        "streetDirectionId": null,
        "streetTypeId": "ST",
        "placeName": "THUNDER BAY",
        "streetNameDisplayText": "WESTMINSTER ST, THUNDER BAY"
      }
    ]
  },
  {
    "postal": "P7C1K0",
    "result": []
  },
  {
    "postal": "P7C3E2",
    "result": [
      {
        "electoralDistricts": [
          {
            "election": null,
            "id": 105,
            "name": "Thunder Bay—Atikokan"
          }
        ],
        "pollDivisionIds": [
          10142335
        ],
        "postalCode": "P7C3E2",
        "streetName": "MCDONALD",
        "streetDirectionId": null,
        "streetTypeId": "ST",
        "placeName": "THUNDER BAY",
        "streetNameDisplayText": "MCDONALD ST, THUNDER BAY"
      }
    ]
  },
  {
    "postal": "P7C5H4",
    "result": [
      {
        "electoralDistricts": [
          {
            "election": null,
            "id": 105,
            "name": "Thunder Bay—Atikokan"
          }
        ],
        "pollDivisionIds": [
          10142322
        ],
        "postalCode": "P7C5H4",
        "streetName": "DEASE",
        "streetDirectionId": null,
        "streetTypeId": "ST",
        "placeName": "THUNDER BAY",
        "streetNameDisplayText": "DEASE ST, THUNDER BAY"
      }
    ]
  },
  {
    "postal": "P7C1K7",
    "result": [
      {
        "electoralDistricts": [
          {
            "election": null,
            "id": 105,
            "name": "Thunder Bay—Atikokan"
          }
        ],
        "pollDivisionIds": [
          10142322
        ],
        "postalCode": "P7C1K7",
        "streetName": "WILLOW",
        "streetDirectionId": null,
        "streetTypeId": "PL",
        "placeName": "THUNDER BAY",
        "streetNameDisplayText": "WILLOW PL, THUNDER BAY"
      }
    ]
  },
  {
    "postal": "P7C0H0",
    "result": []
  },
  {
    "postal": "P7C0J3",
    "result": []
  },
  {
    "postal": "P7C1X6",
    "result": [
      {
        "electoralDistricts": [
          {
            "election": null,
            "id": 105,
            "name": "Thunder Bay—Atikokan"
          }
        ],
        "pollDivisionIds": [
          10142319
        ],
        "postalCode": "P7C1X6",
        "streetName": "SPRUCE",
        "streetDirectionId": null,
        "streetTypeId": "CRT",
        "placeName": "THUNDER BAY",
        "streetNameDisplayText": "SPRUCE CRT, THUNDER BAY"
      }
    ]
  },
  {
    "postal": "P7C2Z6",
    "result": [
      {
        "electoralDistricts": [
          {
            "election": null,
            "id": 105,
            "name": "Thunder Bay—Atikokan"
          }
        ],
        "pollDivisionIds": [
          10142335
        ],
        "postalCode": "P7C2Z6",
        "streetName": "MCLEOD",
        "streetDirectionId": null,
        "streetTypeId": "ST",
        "placeName": "THUNDER BAY",
        "streetNameDisplayText": "MCLEOD ST, THUNDER BAY"
      }
    ]
  },
  {
    "postal": "P7C4R9",
    "result": [
      {
        "electoralDistricts": [
          {
            "election": null,
            "id": 105,
            "name": "Thunder Bay—Atikokan"
          }
        ],
        "pollDivisionIds": [
          10142309
        ],
        "postalCode": "P7C4R9",
        "streetName": "LELAND",
        "streetDirectionId": "N",
        "streetTypeId": "AVE",
        "placeName": "THUNDER BAY",
        "streetNameDisplayText": "LELAND AVE N, THUNDER BAY"
      }
    ]
  },
  {
    "postal": "P7C0W8",
    "result": []
  },
  {
    "postal": "P7C1L4",
    "result": [
      {
        "electoralDistricts": [
          {
            "election": null,
            "id": 105,
            "name": "Thunder Bay—Atikokan"
          }
        ],
        "pollDivisionIds": [
          10142316
        ],
        "postalCode": "P7C1L4",
        "streetName": "BIRCHWOOD",
        "streetDirectionId": null,
        "streetTypeId": "CRES",
        "placeName": "THUNDER BAY",
        "streetNameDisplayText": "BIRCHWOOD CRES, THUNDER BAY"
      }
    ]
  },
  {
    "postal": "P7C0C8",
    "result": []
  },
  {
    "postal": "P7C9X7",
    "result": []
  },
  {
    "postal": "P7C4T1",
    "result": [
      {
        "electoralDistricts": [
          {
            "election": null,
            "id": 105,
            "name": "Thunder Bay—Atikokan"
          }
        ],
        "pollDivisionIds": [
          10142308
        ],
        "postalCode": "P7C4T1",
        "streetName": "JAMES",
        "streetDirectionId": "N",
        "streetTypeId": "ST",
        "placeName": "THUNDER BAY",
        "streetNameDisplayText": "JAMES ST N, THUNDER BAY"
      }
    ]
  },
  {
    "postal": "P7C0M0",
    "result": []
  },
  {
    "postal": "P7C6A2",
    "result": []
  },
  {
    "postal": "P7C9S8",
    "result": []
  },
  {
    "postal": "P7C9T4",
    "result": []
  },
  {
    "postal": "P7C9Y4",
    "result": []
  },
  {
    "postal": "P7C6G5",
    "result": []
  },
  {
    "postal": "P7C6H9",
    "result": []
  },
  {
    "postal": "P7C2P3",
    "result": [
      {
        "electoralDistricts": [
          {
            "election": null,
            "id": 105,
            "name": "Thunder Bay—Atikokan"
          }
        ],
        "pollDivisionIds": [
          10142333
        ],
        "postalCode": "P7C2P3",
        "streetName": "ROWAND",
        "streetDirectionId": null,
        "streetTypeId": "ST",
        "placeName": "THUNDER BAY",
        "streetNameDisplayText": "ROWAND ST, THUNDER BAY"
      }
    ]
  },
  {
    "postal": "P7C1T6",
    "result": [
      {
        "electoralDistricts": [
          {
            "election": null,
            "id": 105,
            "name": "Thunder Bay—Atikokan"
          }
        ],
        "pollDivisionIds": [
          10142319
        ],
        "postalCode": "P7C1T6",
        "streetName": "AGATE",
        "streetDirectionId": null,
        "streetTypeId": "BAY",
        "placeName": "THUNDER BAY",
        "streetNameDisplayText": "AGATE BAY, THUNDER BAY"
      }
    ]
  },
  {
    "postal": "P7C4P6",
    "result": [
      {
        "electoralDistricts": [
          {
            "election": null,
            "id": 105,
            "name": "Thunder Bay—Atikokan"
          }
        ],
        "pollDivisionIds": [
          10142319
        ],
        "postalCode": "P7C4P6",
        "streetName": "EDWARD",
        "streetDirectionId": "N",
        "streetTypeId": "ST",
        "placeName": "THUNDER BAY",
        "streetNameDisplayText": "EDWARD ST N, THUNDER BAY"
      }
    ]
  },
  {
    "postal": "P7C3K1",
    "result": [
      {
        "electoralDistricts": [
          {
            "election": null,
            "id": 105,
            "name": "Thunder Bay—Atikokan"
          }
        ],
        "pollDivisionIds": [
          10142333
        ],
        "postalCode": "P7C3K1",
        "streetName": "SIMPSON",
        "streetDirectionId": "N",
        "streetTypeId": "ST",
        "placeName": "THUNDER BAY",
        "streetNameDisplayText": "SIMPSON ST N, THUNDER BAY"
      },
      {
        "electoralDistricts": [
          {
            "election": null,
            "id": 105,
            "name": "Thunder Bay—Atikokan"
          }
        ],
        "pollDivisionIds": [
          10142333
        ],
        "postalCode": "P7C3K1",
        "streetName": "SIMPSON",
        "streetDirectionId": null,
        "streetTypeId": "ST",
        "placeName": "THUNDER BAY",
        "streetNameDisplayText": "SIMPSON ST, THUNDER BAY"
      }
    ]
  },
  {
    "postal": "P7C6X4",
    "result": []
  },
  {
    "postal": "P7C4M8",
    "result": [
      {
        "electoralDistricts": [
          {
            "election": null,
            "id": 105,
            "name": "Thunder Bay—Atikokan"
          }
        ],
        "pollDivisionIds": [
          10142319
        ],
        "postalCode": "P7C4M8",
        "streetName": "WESTMINSTER",
        "streetDirectionId": null,
        "streetTypeId": "ST",
        "placeName": "THUNDER BAY",
        "streetNameDisplayText": "WESTMINSTER ST, THUNDER BAY"
      }
    ]
  },
  {
    "postal": "P7C2Y1",
    "result": [
      {
        "electoralDistricts": [
          {
            "election": null,
            "id": 105,
            "name": "Thunder Bay—Atikokan"
          }
        ],
        "pollDivisionIds": [
          10142335
        ],
        "postalCode": "P7C2Y1",
        "streetName": "MCBAIN",
        "streetDirectionId": null,
        "streetTypeId": "ST",
        "placeName": "THUNDER BAY",
        "streetNameDisplayText": "MCBAIN ST, THUNDER BAY"
      }
    ]
  },
  {
    "postal": "P7C6M1",
    "result": []
  },
  {
    "postal": "P7C5L8",
    "result": [
      {
        "electoralDistricts": [
          {
            "election": null,
            "id": 105,
            "name": "Thunder Bay—Atikokan"
          }
        ],
        "pollDivisionIds": [
          10142312
        ],
        "postalCode": "P7C5L8",
        "streetName": "LAMBTON",
        "streetDirectionId": null,
        "streetTypeId": "CRES",
        "placeName": "THUNDER BAY",
        "streetNameDisplayText": "LAMBTON CRES, THUNDER BAY"
      }
    ]
  },
  {
    "postal": "P7C3P6",
    "result": [
      {
        "electoralDistricts": [
          {
            "election": null,
            "id": 105,
            "name": "Thunder Bay—Atikokan"
          }
        ],
        "pollDivisionIds": [
          10142332
        ],
        "postalCode": "P7C3P6",
        "streetName": "MAY",
        "streetDirectionId": "N",
        "streetTypeId": "ST",
        "placeName": "THUNDER BAY",
        "streetNameDisplayText": "MAY ST N, THUNDER BAY"
      }
    ]
  },
  {
    "postal": "P7C9A5",
    "result": []
  },
  {
    "postal": "P7C7K1",
    "result": []
  },
  {
    "postal": "P7C3J4",
    "result": [
      {
        "electoralDistricts": [
          {
            "election": null,
            "id": 105,
            "name": "Thunder Bay—Atikokan"
          }
        ],
        "pollDivisionIds": [
          10142333
        ],
        "postalCode": "P7C3J4",
        "streetName": "SIMPSON",
        "streetDirectionId": "N",
        "streetTypeId": "ST",
        "placeName": "THUNDER BAY",
        "streetNameDisplayText": "SIMPSON ST N, THUNDER BAY"
      },
      {
        "electoralDistricts": [
          {
            "election": null,
            "id": 105,
            "name": "Thunder Bay—Atikokan"
          }
        ],
        "pollDivisionIds": [
          10142333
        ],
        "postalCode": "P7C3J4",
        "streetName": "SIMPSON",
        "streetDirectionId": null,
        "streetTypeId": "ST",
        "placeName": "THUNDER BAY",
        "streetNameDisplayText": "SIMPSON ST, THUNDER BAY"
      }
    ]
  },
  {
    "postal": "P7C5E7",
    "result": [
      {
        "electoralDistricts": [
          {
            "election": null,
            "id": 105,
            "name": "Thunder Bay—Atikokan"
          }
        ],
        "pollDivisionIds": [
          10142312
        ],
        "postalCode": "P7C5E7",
        "streetName": "VALE",
        "streetDirectionId": null,
        "streetTypeId": "AVE",
        "placeName": "THUNDER BAY",
        "streetNameDisplayText": "VALE AVE, THUNDER BAY"
      }
    ]
  },
  {
    "postal": "P7C3A7",
    "result": [
      {
        "electoralDistricts": [
          {
            "election": null,
            "id": 105,
            "name": "Thunder Bay—Atikokan"
          }
        ],
        "pollDivisionIds": [
          10142335
        ],
        "postalCode": "P7C3A7",
        "streetName": "MCINTOSH",
        "streetDirectionId": null,
        "streetTypeId": "ST",
        "placeName": "THUNDER BAY",
        "streetNameDisplayText": "MCINTOSH ST, THUNDER BAY"
      }
    ]
  },
  {
    "postal": "P7C1B9",
    "result": [
      {
        "electoralDistricts": [
          {
            "election": null,
            "id": 105,
            "name": "Thunder Bay—Atikokan"
          }
        ],
        "pollDivisionIds": [
          10142326
        ],
        "postalCode": "P7C1B9",
        "streetName": "VICTORIA",
        "streetDirectionId": "E",
        "streetTypeId": "AVE",
        "placeName": "THUNDER BAY",
        "streetNameDisplayText": "VICTORIA AVE E, THUNDER BAY"
      }
    ]
  },
  {
    "postal": "P7C9E8",
    "result": []
  },
  {
    "postal": "P7C1C9",
    "result": []
  },
  {
    "postal": "P7C3B5",
    "result": [
      {
        "electoralDistricts": [
          {
            "election": null,
            "id": 105,
            "name": "Thunder Bay—Atikokan"
          }
        ],
        "pollDivisionIds": [
          10142335
        ],
        "postalCode": "P7C3B5",
        "streetName": "MCLAUGHLIN",
        "streetDirectionId": null,
        "streetTypeId": "ST",
        "placeName": "THUNDER BAY",
        "streetNameDisplayText": "MCLAUGHLIN ST, THUNDER BAY"
      }
    ]
  },
  {
    "postal": "P7C8R0",
    "result": []
  },
  {
    "postal": "P7C3P2",
    "result": [
      {
        "electoralDistricts": [
          {
            "election": null,
            "id": 105,
            "name": "Thunder Bay—Atikokan"
          }
        ],
        "pollDivisionIds": [
          10142330
        ],
        "postalCode": "P7C3P2",
        "streetName": "MAY",
        "streetDirectionId": "N",
        "streetTypeId": "ST",
        "placeName": "THUNDER BAY",
        "streetNameDisplayText": "MAY ST N, THUNDER BAY"
      }
    ]
  },
  {
    "postal": "P7C5V4",
    "result": [
      {
        "electoralDistricts": [
          {
            "election": null,
            "id": 105,
            "name": "Thunder Bay—Atikokan"
          }
        ],
        "pollDivisionIds": [
          10142332
        ],
        "postalCode": "P7C5V4",
        "streetName": "MAY",
        "streetDirectionId": "N",
        "streetTypeId": "ST",
        "placeName": "THUNDER BAY",
        "streetNameDisplayText": "MAY ST N, THUNDER BAY"
      }
    ]
  },
  {
    "postal": "P7C4H0",
    "result": []
  },
  {
    "postal": "P7C4S7",
    "result": [
      {
        "electoralDistricts": [
          {
            "election": null,
            "id": 105,
            "name": "Thunder Bay—Atikokan"
          }
        ],
        "pollDivisionIds": [
          10142312
        ],
        "postalCode": "P7C4S7",
        "streetName": "LIMBRICK",
        "streetDirectionId": null,
        "streetTypeId": "ST",
        "placeName": "THUNDER BAY",
        "streetNameDisplayText": "LIMBRICK ST, THUNDER BAY"
      }
    ]
  },
  {
    "postal": "P7C6C2",
    "result": []
  },
  {
    "postal": "P7C8W3",
    "result": []
  },
  {
    "postal": "P7C4M5",
    "result": [
      {
        "electoralDistricts": [
          {
            "election": null,
            "id": 105,
            "name": "Thunder Bay—Atikokan"
          }
        ],
        "pollDivisionIds": [
          10142319
        ],
        "postalCode": "P7C4M5",
        "streetName": "WESTMINSTER",
        "streetDirectionId": null,
        "streetTypeId": "ST",
        "placeName": "THUNDER BAY",
        "streetNameDisplayText": "WESTMINSTER ST, THUNDER BAY"
      }
    ]
  },
  {
    "postal": "P7C5T1",
    "result": [
      {
        "electoralDistricts": [
          {
            "election": null,
            "id": 105,
            "name": "Thunder Bay—Atikokan"
          }
        ],
        "pollDivisionIds": [
          10142312
        ],
        "postalCode": "P7C5T1",
        "streetName": "CONESTOGA",
        "streetDirectionId": null,
        "streetTypeId": "ST",
        "placeName": "THUNDER BAY",
        "streetNameDisplayText": "CONESTOGA ST, THUNDER BAY"
      }
    ]
  },
  {
    "postal": "P7C3B3",
    "result": [
      {
        "electoralDistricts": [
          {
            "election": null,
            "id": 105,
            "name": "Thunder Bay—Atikokan"
          }
        ],
        "pollDivisionIds": [
          10142335
        ],
        "postalCode": "P7C3B3",
        "streetName": "MCLAUGHLIN",
        "streetDirectionId": null,
        "streetTypeId": "ST",
        "placeName": "THUNDER BAY",
        "streetNameDisplayText": "MCLAUGHLIN ST, THUNDER BAY"
      }
    ]
  },
  {
    "postal": "P7C6C6",
    "result": []
  },
  {
    "postal": "P7C7N8",
    "result": []
  },
  {
    "postal": "P7C2Y3",
    "result": [
      {
        "electoralDistricts": [
          {
            "election": null,
            "id": 105,
            "name": "Thunder Bay—Atikokan"
          }
        ],
        "pollDivisionIds": [
          10142335
        ],
        "postalCode": "P7C2Y3",
        "streetName": "MCBAIN",
        "streetDirectionId": null,
        "streetTypeId": "ST",
        "placeName": "THUNDER BAY",
        "streetNameDisplayText": "MCBAIN ST, THUNDER BAY"
      }
    ]
  },
  {
    "postal": "P7C2R6",
    "result": [
      {
        "electoralDistricts": [
          {
            "election": null,
            "id": 105,
            "name": "Thunder Bay—Atikokan"
          }
        ],
        "pollDivisionIds": [
          10142333
        ],
        "postalCode": "P7C2R6",
        "streetName": "PACIFIC",
        "streetDirectionId": null,
        "streetTypeId": "AVE",
        "placeName": "THUNDER BAY",
        "streetNameDisplayText": "PACIFIC AVE, THUNDER BAY"
      }
    ]
  },
  {
    "postal": "P7C7N3",
    "result": []
  },
  {
    "postal": "P7C8J2",
    "result": []
  },
  {
    "postal": "P7C6A9",
    "result": []
  },
  {
    "postal": "P7C3V2",
    "result": [
      {
        "electoralDistricts": [
          {
            "election": null,
            "id": 105,
            "name": "Thunder Bay—Atikokan"
          }
        ],
        "pollDivisionIds": [
          10142327
        ],
        "postalCode": "P7C3V2",
        "streetName": "BRODIE",
        "streetDirectionId": "N",
        "streetTypeId": "ST",
        "placeName": "THUNDER BAY",
        "streetNameDisplayText": "BRODIE ST N, THUNDER BAY"
      }
    ]
  },
  {
    "postal": "P7C2N3",
    "result": [
      {
        "electoralDistricts": [
          {
            "election": null,
            "id": 105,
            "name": "Thunder Bay—Atikokan"
          }
        ],
        "pollDivisionIds": [
          10142333
        ],
        "postalCode": "P7C2N3",
        "streetName": "OGDEN",
        "streetDirectionId": null,
        "streetTypeId": "ST",
        "placeName": "THUNDER BAY",
        "streetNameDisplayText": "OGDEN ST, THUNDER BAY"
      }
    ]
  },
  {
    "postal": "P7C1S5",
    "result": [
      {
        "electoralDistricts": [
          {
            "election": null,
            "id": 105,
            "name": "Thunder Bay—Atikokan"
          }
        ],
        "pollDivisionIds": [
          10142319
        ],
        "postalCode": "P7C1S5",
        "streetName": "BOLTON",
        "streetDirectionId": null,
        "streetTypeId": "CRES",
        "placeName": "THUNDER BAY",
        "streetNameDisplayText": "BOLTON CRES, THUNDER BAY"
      }
    ]
  },
  {
    "postal": "P7C4T7",
    "result": []
  },
  {
    "postal": "P7C6Y7",
    "result": []
  },
  {
    "postal": "P7C0W7",
    "result": []
  },
  {
    "postal": "P7C2W9",
    "result": [
      {
        "electoralDistricts": [
          {
            "election": null,
            "id": 105,
            "name": "Thunder Bay—Atikokan"
          }
        ],
        "pollDivisionIds": [
          10142327
        ],
        "postalCode": "P7C2W9",
        "streetName": "FOREST",
        "streetDirectionId": null,
        "streetTypeId": "ST",
        "placeName": "THUNDER BAY",
        "streetNameDisplayText": "FOREST ST, THUNDER BAY"
      }
    ]
  },
  {
    "postal": "P7C8V0",
    "result": []
  },
  {
    "postal": "P7C0H4",
    "result": []
  },
  {
    "postal": "P7C2T1",
    "result": [
      {
        "electoralDistricts": [
          {
            "election": null,
            "id": 105,
            "name": "Thunder Bay—Atikokan"
          }
        ],
        "pollDivisionIds": [
          10142335
        ],
        "postalCode": "P7C2T1",
        "streetName": "ATLANTIC",
        "streetDirectionId": null,
        "streetTypeId": "AVE",
        "placeName": "THUNDER BAY",
        "streetNameDisplayText": "ATLANTIC AVE, THUNDER BAY"
      }
    ]
  },
  {
    "postal": "P7C1B1",
    "result": [
      {
        "electoralDistricts": [
          {
            "election": null,
            "id": 105,
            "name": "Thunder Bay—Atikokan"
          }
        ],
        "pollDivisionIds": [
          10142330
        ],
        "postalCode": "P7C1B1",
        "streetName": "VICTORIA",
        "streetDirectionId": "E",
        "streetTypeId": "AVE",
        "placeName": "THUNDER BAY",
        "streetNameDisplayText": "VICTORIA AVE E, THUNDER BAY"
      }
    ]
  },
  {
    "postal": "P7C8B6",
    "result": []
  },
  {
    "postal": "P7C6H1",
    "result": []
  },
  {
    "postal": "P7C8T8",
    "result": []
  },
  {
    "postal": "P7C0T4",
    "result": []
  },
  {
    "postal": "P7C2C4",
    "result": [
      {
        "electoralDistricts": [
          {
            "election": null,
            "id": 105,
            "name": "Thunder Bay—Atikokan"
          }
        ],
        "pollDivisionIds": [
          10142319
        ],
        "postalCode": "P7C2C4",
        "streetName": "UNIVERSITY",
        "streetDirectionId": null,
        "streetTypeId": "DR",
        "placeName": "THUNDER BAY",
        "streetNameDisplayText": "UNIVERSITY DR, THUNDER BAY"
      }
    ]
  },
  {
    "postal": "P7C8N3",
    "result": []
  },
  {
    "postal": "P7C4L8",
    "result": [
      {
        "electoralDistricts": [
          {
            "election": null,
            "id": 105,
            "name": "Thunder Bay—Atikokan"
          }
        ],
        "pollDivisionIds": [
          10142319
        ],
        "postalCode": "P7C4L8",
        "streetName": "FORD",
        "streetDirectionId": "N",
        "streetTypeId": "ST",
        "placeName": "THUNDER BAY",
        "streetNameDisplayText": "FORD ST N, THUNDER BAY"
      }
    ]
  },
  {
    "postal": "P7C2B5",
    "result": [
      {
        "electoralDistricts": [
          {
            "election": null,
            "id": 105,
            "name": "Thunder Bay—Atikokan"
          }
        ],
        "pollDivisionIds": [
          10142319
        ],
        "postalCode": "P7C2B5",
        "streetName": "HUNTINGTON",
        "streetDirectionId": null,
        "streetTypeId": "CRT",
        "placeName": "THUNDER BAY",
        "streetNameDisplayText": "HUNTINGTON CRT, THUNDER BAY"
      }
    ]
  },
  {
    "postal": "P7C3H1",
    "result": [
      {
        "electoralDistricts": [
          {
            "election": null,
            "id": 105,
            "name": "Thunder Bay—Atikokan"
          }
        ],
        "pollDivisionIds": [
          10142332
        ],
        "postalCode": "P7C3H1",
        "streetName": "SIMPSON",
        "streetDirectionId": "N",
        "streetTypeId": "ST",
        "placeName": "THUNDER BAY",
        "streetNameDisplayText": "SIMPSON ST N, THUNDER BAY"
      },
      {
        "electoralDistricts": [
          {
            "election": null,
            "id": 105,
            "name": "Thunder Bay—Atikokan"
          }
        ],
        "pollDivisionIds": [
          10142332
        ],
        "postalCode": "P7C3H1",
        "streetName": "SIMPSON",
        "streetDirectionId": null,
        "streetTypeId": "ST",
        "placeName": "THUNDER BAY",
        "streetNameDisplayText": "SIMPSON ST, THUNDER BAY"
      }
    ]
  },
  {
    "postal": "P7C4Y1",
    "result": []
  },
  {
    "postal": "P7C7E2",
    "result": []
  },
  {
    "postal": "P7C2P5",
    "result": [
      {
        "electoralDistricts": [
          {
            "election": null,
            "id": 105,
            "name": "Thunder Bay—Atikokan"
          }
        ],
        "pollDivisionIds": [
          10142333
        ],
        "postalCode": "P7C2P5",
        "streetName": "ROWAND",
        "streetDirectionId": null,
        "streetTypeId": "ST",
        "placeName": "THUNDER BAY",
        "streetNameDisplayText": "ROWAND ST, THUNDER BAY"
      }
    ]
  },
  {
    "postal": "P7C8R7",
    "result": []
  },
  {
    "postal": "P7C9P1",
    "result": []
  },
  {
    "postal": "P7C3B8",
    "result": [
      {
        "electoralDistricts": [
          {
            "election": null,
            "id": 105,
            "name": "Thunder Bay—Atikokan"
          }
        ],
        "pollDivisionIds": [
          10142335
        ],
        "postalCode": "P7C3B8",
        "streetName": "MCLAUGHLIN",
        "streetDirectionId": null,
        "streetTypeId": "ST",
        "placeName": "THUNDER BAY",
        "streetNameDisplayText": "MCLAUGHLIN ST, THUNDER BAY"
      }
    ]
  },
  {
    "postal": "P7C3P7",
    "result": []
  },
  {
    "postal": "P7C9B2",
    "result": []
  },
  {
    "postal": "P7C6Z3",
    "result": []
  },
  {
    "postal": "P7C4N5",
    "result": [
      {
        "electoralDistricts": [
          {
            "election": null,
            "id": 105,
            "name": "Thunder Bay—Atikokan"
          }
        ],
        "pollDivisionIds": [
          10142319
        ],
        "postalCode": "P7C4N5",
        "streetName": "WESTBURY",
        "streetDirectionId": null,
        "streetTypeId": "CRES",
        "placeName": "THUNDER BAY",
        "streetNameDisplayText": "WESTBURY CRES, THUNDER BAY"
      }
    ]
  },
  {
    "postal": "P7C8T3",
    "result": []
  },
  {
    "postal": "P7C1V2",
    "result": [
      {
        "electoralDistricts": [
          {
            "election": null,
            "id": 105,
            "name": "Thunder Bay—Atikokan"
          }
        ],
        "pollDivisionIds": [
          10142308
        ],
        "postalCode": "P7C1V2",
        "streetName": "LANSDOWNE",
        "streetDirectionId": null,
        "streetTypeId": "CRT",
        "placeName": "THUNDER BAY",
        "streetNameDisplayText": "LANSDOWNE CRT, THUNDER BAY"
      }
    ]
  },
  {
    "postal": "P7C1Y0",
    "result": []
  },
  {
    "postal": "P7C3G6",
    "result": [
      {
        "electoralDistricts": [
          {
            "election": null,
            "id": 105,
            "name": "Thunder Bay—Atikokan"
          }
        ],
        "pollDivisionIds": [
          10142333
        ],
        "postalCode": "P7C3G6",
        "streetName": "ALEXANDRA",
        "streetDirectionId": null,
        "streetTypeId": "ST",
        "placeName": "THUNDER BAY",
        "streetNameDisplayText": "ALEXANDRA ST, THUNDER BAY"
      }
    ]
  },
  {
    "postal": "P7C3H7",
    "result": [
      {
        "electoralDistricts": [
          {
            "election": null,
            "id": 105,
            "name": "Thunder Bay—Atikokan"
          }
        ],
        "pollDivisionIds": [
          10142332
        ],
        "postalCode": "P7C3H7",
        "streetName": "SIMPSON",
        "streetDirectionId": "N",
        "streetTypeId": "ST",
        "placeName": "THUNDER BAY",
        "streetNameDisplayText": "SIMPSON ST N, THUNDER BAY"
      },
      {
        "electoralDistricts": [
          {
            "election": null,
            "id": 105,
            "name": "Thunder Bay—Atikokan"
          }
        ],
        "pollDivisionIds": [
          10142332
        ],
        "postalCode": "P7C3H7",
        "streetName": "SIMPSON",
        "streetDirectionId": null,
        "streetTypeId": "ST",
        "placeName": "THUNDER BAY",
        "streetNameDisplayText": "SIMPSON ST, THUNDER BAY"
      }
    ]
  },
  {
    "postal": "P7C7X8",
    "result": []
  },
  {
    "postal": "P7C0C7",
    "result": []
  },
  {
    "postal": "P7C0W9",
    "result": []
  },
  {
    "postal": "P7C8E6",
    "result": []
  },
  {
    "postal": "P7C9Z8",
    "result": []
  },
  {
    "postal": "P7C3P4",
    "result": []
  },
  {
    "postal": "P7C6L8",
    "result": []
  },
  {
    "postal": "P7C2R4",
    "result": [
      {
        "electoralDistricts": [
          {
            "election": null,
            "id": 105,
            "name": "Thunder Bay—Atikokan"
          }
        ],
        "pollDivisionIds": [
          10142335
        ],
        "postalCode": "P7C2R4",
        "streetName": "CONNOLLY",
        "streetDirectionId": null,
        "streetTypeId": "ST",
        "placeName": "THUNDER BAY",
        "streetNameDisplayText": "CONNOLLY ST, THUNDER BAY"
      },
      {
        "electoralDistricts": [
          {
            "election": null,
            "id": 105,
            "name": "Thunder Bay—Atikokan"
          }
        ],
        "pollDivisionIds": [
          10142335
        ],
        "postalCode": "P7C2R4",
        "streetName": "MCINTOSH",
        "streetDirectionId": null,
        "streetTypeId": "ST",
        "placeName": "THUNDER BAY",
        "streetNameDisplayText": "MCINTOSH ST, THUNDER BAY"
      }
    ]
  },
  {
    "postal": "P7C2W1",
    "result": [
      {
        "electoralDistricts": [
          {
            "election": null,
            "id": 105,
            "name": "Thunder Bay—Atikokan"
          }
        ],
        "pollDivisionIds": [
          10142327
        ],
        "postalCode": "P7C2W1",
        "streetName": "NORTHERN",
        "streetDirectionId": null,
        "streetTypeId": "AVE",
        "placeName": "THUNDER BAY",
        "streetNameDisplayText": "NORTHERN AVE, THUNDER BAY"
      }
    ]
  },
  {
    "postal": "P7C9H8",
    "result": []
  },
  {
    "postal": "P7C8X9",
    "result": []
  },
  {
    "postal": "P7C7H4",
    "result": []
  },
  {
    "postal": "P7C3J1",
    "result": [
      {
        "electoralDistricts": [
          {
            "election": null,
            "id": 105,
            "name": "Thunder Bay—Atikokan"
          }
        ],
        "pollDivisionIds": [
          10142333
        ],
        "postalCode": "P7C3J1",
        "streetName": "SIMPSON",
        "streetDirectionId": "N",
        "streetTypeId": "ST",
        "placeName": "THUNDER BAY",
        "streetNameDisplayText": "SIMPSON ST N, THUNDER BAY"
      },
      {
        "electoralDistricts": [
          {
            "election": null,
            "id": 105,
            "name": "Thunder Bay—Atikokan"
          }
        ],
        "pollDivisionIds": [
          10142333
        ],
        "postalCode": "P7C3J1",
        "streetName": "SIMPSON",
        "streetDirectionId": null,
        "streetTypeId": "ST",
        "placeName": "THUNDER BAY",
        "streetNameDisplayText": "SIMPSON ST, THUNDER BAY"
      }
    ]
  },
  {
    "postal": "P7C1P4",
    "result": [
      {
        "electoralDistricts": [
          {
            "election": null,
            "id": 105,
            "name": "Thunder Bay—Atikokan"
          }
        ],
        "pollDivisionIds": [
          10142327
        ],
        "postalCode": "P7C1P4",
        "streetName": "CUMMING",
        "streetDirectionId": null,
        "streetTypeId": "ST",
        "placeName": "THUNDER BAY",
        "streetNameDisplayText": "CUMMING ST, THUNDER BAY"
      }
    ]
  },
  {
    "postal": "P7C2A3",
    "result": [
      {
        "electoralDistricts": [
          {
            "election": null,
            "id": 105,
            "name": "Thunder Bay—Atikokan"
          }
        ],
        "pollDivisionIds": [
          10142319
        ],
        "postalCode": "P7C2A3",
        "streetName": "KENSINGTON",
        "streetDirectionId": null,
        "streetTypeId": "DR",
        "placeName": "THUNDER BAY",
        "streetNameDisplayText": "KENSINGTON DR, THUNDER BAY"
      }
    ]
  },
  {
    "postal": "P7C0Z1",
    "result": []
  },
  {
    "postal": "P7C1C1",
    "result": [
      {
        "electoralDistricts": [
          {
            "election": null,
            "id": 105,
            "name": "Thunder Bay—Atikokan"
          }
        ],
        "pollDivisionIds": [
          10142329
        ],
        "postalCode": "P7C1C1",
        "streetName": "VICTORIA",
        "streetDirectionId": "E",
        "streetTypeId": "AVE",
        "placeName": "THUNDER BAY",
        "streetNameDisplayText": "VICTORIA AVE E, THUNDER BAY"
      }
    ]
  },
  {
    "postal": "P7C0H3",
    "result": []
  },
  {
    "postal": "P7C7B0",
    "result": []
  },
  {
    "postal": "P7C5K2",
    "result": [
      {
        "electoralDistricts": [
          {
            "election": null,
            "id": 105,
            "name": "Thunder Bay—Atikokan"
          }
        ],
        "pollDivisionIds": [
          10142308
        ],
        "postalCode": "P7C5K2",
        "streetName": "YALE",
        "streetDirectionId": null,
        "streetTypeId": "CRT",
        "placeName": "THUNDER BAY",
        "streetNameDisplayText": "YALE CRT, THUNDER BAY"
      }
    ]
  },
  {
    "postal": "P7C1E9",
    "result": [
      {
        "electoralDistricts": [
          {
            "election": null,
            "id": 105,
            "name": "Thunder Bay—Atikokan"
          }
        ],
        "pollDivisionIds": [
          10142317
        ],
        "postalCode": "P7C1E9",
        "streetName": "VICTORIA",
        "streetDirectionId": "E",
        "streetTypeId": "AVE",
        "placeName": "THUNDER BAY",
        "streetNameDisplayText": "VICTORIA AVE E, THUNDER BAY"
      }
    ]
  },
  {
    "postal": "P7C9W7",
    "result": []
  },
  {
    "postal": "P7C5W6",
    "result": []
  },
  {
    "postal": "P7C6S6",
    "result": []
  },
  {
    "postal": "P7C2P8",
    "result": [
      {
        "electoralDistricts": [
          {
            "election": null,
            "id": 105,
            "name": "Thunder Bay—Atikokan"
          }
        ],
        "pollDivisionIds": [
          10142335
        ],
        "postalCode": "P7C2P8",
        "streetName": "MCNAUGHTON",
        "streetDirectionId": null,
        "streetTypeId": "ST",
        "placeName": "THUNDER BAY",
        "streetNameDisplayText": "MCNAUGHTON ST, THUNDER BAY"
      }
    ]
  },
  {
    "postal": "P7C4P8",
    "result": [
      {
        "electoralDistricts": [
          {
            "election": null,
            "id": 105,
            "name": "Thunder Bay—Atikokan"
          }
        ],
        "pollDivisionIds": [
          10142319
        ],
        "postalCode": "P7C4P8",
        "streetName": "EDWARD",
        "streetDirectionId": "N",
        "streetTypeId": "ST",
        "placeName": "THUNDER BAY",
        "streetNameDisplayText": "EDWARD ST N, THUNDER BAY"
      },
      {
        "electoralDistricts": [
          {
            "election": null,
            "id": 105,
            "name": "Thunder Bay—Atikokan"
          }
        ],
        "pollDivisionIds": [
          10142314
        ],
        "postalCode": "P7C4P8",
        "streetName": "EDWARD",
        "streetDirectionId": "S",
        "streetTypeId": "ST",
        "placeName": "THUNDER BAY",
        "streetNameDisplayText": "EDWARD ST S, THUNDER BAY"
      }
    ]
  },
  {
    "postal": "P7C0V9",
    "result": []
  },
  {
    "postal": "P7C5Y2",
    "result": [
      {
        "electoralDistricts": [
          {
            "election": null,
            "id": 105,
            "name": "Thunder Bay—Atikokan"
          }
        ],
        "pollDivisionIds": [
          10142322
        ],
        "postalCode": "P7C5Y2",
        "streetName": "LILLIE",
        "streetDirectionId": "N",
        "streetTypeId": "ST",
        "placeName": "THUNDER BAY",
        "streetNameDisplayText": "LILLIE ST N, THUNDER BAY"
      }
    ]
  },
  {
    "postal": "P7C7Z7",
    "result": []
  },
  {
    "postal": "P7C6Y8",
    "result": []
  },
  {
    "postal": "P7C2G7",
    "result": [
      {
        "electoralDistricts": [
          {
            "election": null,
            "id": 105,
            "name": "Thunder Bay—Atikokan"
          }
        ],
        "pollDivisionIds": [
          10142332
        ],
        "postalCode": "P7C2G7",
        "streetName": "CAMERON",
        "streetDirectionId": null,
        "streetTypeId": "ST",
        "placeName": "THUNDER BAY",
        "streetNameDisplayText": "CAMERON ST, THUNDER BAY"
      }
    ]
  },
  {
    "postal": "P7C8C1",
    "result": []
  },
  {
    "postal": "P7C5C5",
    "result": [
      {
        "electoralDistricts": [
          {
            "election": null,
            "id": 105,
            "name": "Thunder Bay—Atikokan"
          }
        ],
        "pollDivisionIds": [
          10142308
        ],
        "postalCode": "P7C5C5",
        "streetName": "CHURCHILL",
        "streetDirectionId": "W",
        "streetTypeId": "DR",
        "placeName": "THUNDER BAY",
        "streetNameDisplayText": "CHURCHILL DR W, THUNDER BAY"
      }
    ]
  },
  {
    "postal": "P7C2X8",
    "result": [
      {
        "electoralDistricts": [
          {
            "election": null,
            "id": 105,
            "name": "Thunder Bay—Atikokan"
          }
        ],
        "pollDivisionIds": [
          10142335
        ],
        "postalCode": "P7C2X8",
        "streetName": "HARGRAVE",
        "streetDirectionId": null,
        "streetTypeId": "ST",
        "placeName": "THUNDER BAY",
        "streetNameDisplayText": "HARGRAVE ST, THUNDER BAY"
      }
    ]
  },
  {
    "postal": "P7C1W5",
    "result": [
      {
        "electoralDistricts": [
          {
            "election": null,
            "id": 105,
            "name": "Thunder Bay—Atikokan"
          }
        ],
        "pollDivisionIds": [
          10142319
        ],
        "postalCode": "P7C1W5",
        "streetName": "HEMLOCK",
        "streetDirectionId": null,
        "streetTypeId": "PL",
        "placeName": "THUNDER BAY",
        "streetNameDisplayText": "HEMLOCK PL, THUNDER BAY"
      }
    ]
  },
  {
    "postal": "P7C7G0",
    "result": []
  },
  {
    "postal": "P7C8J8",
    "result": []
  },
  {
    "postal": "P7C3Y0",
    "result": []
  },
  {
    "postal": "P7C9T7",
    "result": []
  },
  {
    "postal": "P7C5P4",
    "result": [
      {
        "electoralDistricts": [
          {
            "election": null,
            "id": 105,
            "name": "Thunder Bay—Atikokan"
          }
        ],
        "pollDivisionIds": [
          10142308
        ],
        "postalCode": "P7C5P4",
        "streetName": "DALHOUSIE",
        "streetDirectionId": null,
        "streetTypeId": "DR",
        "placeName": "THUNDER BAY",
        "streetNameDisplayText": "DALHOUSIE DR, THUNDER BAY"
      }
    ]
  },
  {
    "postal": "P7C4B0",
    "result": []
  },
  {
    "postal": "P7C9N8",
    "result": []
  },
  {
    "postal": "P7C4A7",
    "result": [
      {
        "electoralDistricts": [
          {
            "election": null,
            "id": 105,
            "name": "Thunder Bay—Atikokan"
          }
        ],
        "pollDivisionIds": [
          10142327
        ],
        "postalCode": "P7C4A7",
        "streetName": "MCKELLAR",
        "streetDirectionId": "N",
        "streetTypeId": "ST",
        "placeName": "THUNDER BAY",
        "streetNameDisplayText": "MCKELLAR ST N, THUNDER BAY"
      }
    ]
  },
  {
    "postal": "P7C4H9",
    "result": [
      {
        "electoralDistricts": [
          {
            "election": null,
            "id": 105,
            "name": "Thunder Bay—Atikokan"
          }
        ],
        "pollDivisionIds": [
          10142327
        ],
        "postalCode": "P7C4H9",
        "streetName": "FRANKLIN",
        "streetDirectionId": "N",
        "streetTypeId": "ST",
        "placeName": "THUNDER BAY",
        "streetNameDisplayText": "FRANKLIN ST N, THUNDER BAY"
      }
    ]
  },
  {
    "postal": "P7C6X1",
    "result": []
  },
  {
    "postal": "P7C9Y7",
    "result": []
  },
  {
    "postal": "P7C2Y5",
    "result": [
      {
        "electoralDistricts": [
          {
            "election": null,
            "id": 105,
            "name": "Thunder Bay—Atikokan"
          }
        ],
        "pollDivisionIds": [
          10142335
        ],
        "postalCode": "P7C2Y5",
        "streetName": "MCPHERSON",
        "streetDirectionId": null,
        "streetTypeId": "ST",
        "placeName": "THUNDER BAY",
        "streetNameDisplayText": "MCPHERSON ST, THUNDER BAY"
      }
    ]
  },
  {
    "postal": "P7C8L7",
    "result": []
  },
  {
    "postal": "P7C2A8",
    "result": [
      {
        "electoralDistricts": [
          {
            "election": null,
            "id": 105,
            "name": "Thunder Bay—Atikokan"
          }
        ],
        "pollDivisionIds": [
          10142319
        ],
        "postalCode": "P7C2A8",
        "streetName": "KENSINGTON",
        "streetDirectionId": null,
        "streetTypeId": "DR",
        "placeName": "THUNDER BAY",
        "streetNameDisplayText": "KENSINGTON DR, THUNDER BAY"
      }
    ]
  },
  {
    "postal": "P7C2K9",
    "result": [
      {
        "electoralDistricts": [
          {
            "election": null,
            "id": 105,
            "name": "Thunder Bay—Atikokan"
          }
        ],
        "pollDivisionIds": [
          10142333
        ],
        "postalCode": "P7C2K9",
        "streetName": "FINLAYSON",
        "streetDirectionId": null,
        "streetTypeId": "ST",
        "placeName": "THUNDER BAY",
        "streetNameDisplayText": "FINLAYSON ST, THUNDER BAY"
      }
    ]
  },
  {
    "postal": "P7C3E5",
    "result": [
      {
        "electoralDistricts": [
          {
            "election": null,
            "id": 105,
            "name": "Thunder Bay—Atikokan"
          }
        ],
        "pollDivisionIds": [
          10142333
        ],
        "postalCode": "P7C3E5",
        "streetName": "ATHABASCA",
        "streetDirectionId": null,
        "streetTypeId": "ST",
        "placeName": "THUNDER BAY",
        "streetNameDisplayText": "ATHABASCA ST, THUNDER BAY"
      }
    ]
  },
  {
    "postal": "P7C8N6",
    "result": []
  },
  {
    "postal": "P7C8J4",
    "result": []
  },
  {
    "postal": "P7C4R7",
    "result": [
      {
        "electoralDistricts": [
          {
            "election": null,
            "id": 105,
            "name": "Thunder Bay—Atikokan"
          }
        ],
        "pollDivisionIds": [
          10142319
        ],
        "postalCode": "P7C4R7",
        "streetName": "SHERBROOKE",
        "streetDirectionId": null,
        "streetTypeId": "ST",
        "placeName": "THUNDER BAY",
        "streetNameDisplayText": "SHERBROOKE ST, THUNDER BAY"
      }
    ]
  },
  {
    "postal": "P7C9K1",
    "result": []
  },
  {
    "postal": "P7C8E1",
    "result": []
  },
  {
    "postal": "P7C0R1",
    "result": []
  },
  {
    "postal": "P7C4J3",
    "result": [
      {
        "electoralDistricts": [
          {
            "election": null,
            "id": 105,
            "name": "Thunder Bay—Atikokan"
          }
        ],
        "pollDivisionIds": [
          10142327
        ],
        "postalCode": "P7C4J3",
        "streetName": "FRANKLIN",
        "streetDirectionId": "N",
        "streetTypeId": "ST",
        "placeName": "THUNDER BAY",
        "streetNameDisplayText": "FRANKLIN ST N, THUNDER BAY"
      }
    ]
  },
  {
    "postal": "P7C7E7",
    "result": []
  },
  {
    "postal": "P7C0J0",
    "result": []
  },
  {
    "postal": "P7C7R8",
    "result": []
  },
  {
    "postal": "P7C9X0",
    "result": []
  },
  {
    "postal": "P7C7P6",
    "result": []
  },
  {
    "postal": "P7C0R7",
    "result": []
  },
  {
    "postal": "P7C5W1",
    "result": [
      {
        "electoralDistricts": [
          {
            "election": null,
            "id": 105,
            "name": "Thunder Bay—Atikokan"
          }
        ],
        "pollDivisionIds": [
          10142312
        ],
        "postalCode": "P7C5W1",
        "streetName": "FANSHAW",
        "streetDirectionId": null,
        "streetTypeId": "ST",
        "placeName": "THUNDER BAY",
        "streetNameDisplayText": "FANSHAW ST, THUNDER BAY"
      }
    ]
  },
  {
    "postal": "P7C0K4",
    "result": []
  },
  {
    "postal": "P7C7N9",
    "result": []
  },
  {
    "postal": "P7C1N0",
    "result": []
  },
  {
    "postal": "P7C6P3",
    "result": []
  },
  {
    "postal": "P7C5A1",
    "result": [
      {
        "electoralDistricts": [
          {
            "election": null,
            "id": 105,
            "name": "Thunder Bay—Atikokan"
          }
        ],
        "pollDivisionIds": [
          10142308
        ],
        "postalCode": "P7C5A1",
        "streetName": "SIMON FRASER",
        "streetDirectionId": null,
        "streetTypeId": "DR",
        "placeName": "THUNDER BAY",
        "streetNameDisplayText": "SIMON FRASER DR, THUNDER BAY"
      }
    ]
  },
  {
    "postal": "P7C9M9",
    "result": []
  },
  {
    "postal": "P7C7T6",
    "result": []
  },
  {
    "postal": "P7C3X0",
    "result": []
  },
  {
    "postal": "P7C2T0",
    "result": []
  },
  {
    "postal": "P7C5X9",
    "result": [
      {
        "electoralDistricts": [
          {
            "election": null,
            "id": 105,
            "name": "Thunder Bay—Atikokan"
          }
        ],
        "pollDivisionIds": [
          10142330
        ],
        "postalCode": "P7C5X9",
        "streetName": "VICTORIA",
        "streetDirectionId": "E",
        "streetTypeId": "AVE",
        "placeName": "THUNDER BAY",
        "streetNameDisplayText": "VICTORIA AVE E, THUNDER BAY"
      }
    ]
  },
  {
    "postal": "P7C2R3",
    "result": [
      {
        "electoralDistricts": [
          {
            "election": null,
            "id": 105,
            "name": "Thunder Bay—Atikokan"
          }
        ],
        "pollDivisionIds": [
          10142335
        ],
        "postalCode": "P7C2R3",
        "streetName": "CONNOLLY",
        "streetDirectionId": null,
        "streetTypeId": "ST",
        "placeName": "THUNDER BAY",
        "streetNameDisplayText": "CONNOLLY ST, THUNDER BAY"
      }
    ]
  },
  {
    "postal": "P7C5N2",
    "result": [
      {
        "electoralDistricts": [
          {
            "election": null,
            "id": 105,
            "name": "Thunder Bay—Atikokan"
          }
        ],
        "pollDivisionIds": [
          10142312
        ],
        "postalCode": "P7C5N2",
        "streetName": "JAMES",
        "streetDirectionId": "N",
        "streetTypeId": "ST",
        "placeName": "THUNDER BAY",
        "streetNameDisplayText": "JAMES ST N, THUNDER BAY"
      }
    ]
  },
  {
    "postal": "P7C4Y7",
    "result": [
      {
        "electoralDistricts": [
          {
            "election": null,
            "id": 105,
            "name": "Thunder Bay—Atikokan"
          }
        ],
        "pollDivisionIds": [
          10142339
        ],
        "postalCode": "P7C4Y7",
        "streetName": "LILLIE",
        "streetDirectionId": "N",
        "streetTypeId": "ST",
        "placeName": "THUNDER BAY",
        "streetNameDisplayText": "LILLIE ST N, THUNDER BAY"
      }
    ]
  },
  {
    "postal": "P7C7M0",
    "result": []
  },
  {
    "postal": "P7C8P3",
    "result": []
  },
  {
    "postal": "P7C3N3",
    "result": [
      {
        "electoralDistricts": [
          {
            "election": null,
            "id": 105,
            "name": "Thunder Bay—Atikokan"
          }
        ],
        "pollDivisionIds": [
          10142333
        ],
        "postalCode": "P7C3N3",
        "streetName": "WILEY",
        "streetDirectionId": null,
        "streetTypeId": "ST",
        "placeName": "THUNDER BAY",
        "streetNameDisplayText": "WILEY ST, THUNDER BAY"
      }
    ]
  },
  {
    "postal": "P7C7S3",
    "result": []
  },
  {
    "postal": "P7C3V9",
    "result": [
      {
        "electoralDistricts": [
          {
            "election": null,
            "id": 105,
            "name": "Thunder Bay—Atikokan"
          }
        ],
        "pollDivisionIds": [
          10142291
        ],
        "postalCode": "P7C3V9",
        "streetName": "11+17",
        "streetDirectionId": null,
        "streetTypeId": "HWY",
        "placeName": "THUNDER BAY",
        "streetNameDisplayText": "11+17 HWY, THUNDER BAY"
      },
      {
        "electoralDistricts": [
          {
            "election": null,
            "id": 105,
            "name": "Thunder Bay—Atikokan"
          }
        ],
        "pollDivisionIds": [
          10142329
        ],
        "postalCode": "P7C3V9",
        "streetName": "SYNDICATE",
        "streetDirectionId": "N",
        "streetTypeId": "AVE",
        "placeName": "THUNDER BAY",
        "streetNameDisplayText": "SYNDICATE AVE N, THUNDER BAY"
      }
    ]
  },
  {
    "postal": "P7C9N7",
    "result": []
  },
  {
    "postal": "P7C0G4",
    "result": []
  },
  {
    "postal": "P7C2E2",
    "result": [
      {
        "electoralDistricts": [
          {
            "election": null,
            "id": 105,
            "name": "Thunder Bay—Atikokan"
          }
        ],
        "pollDivisionIds": [
          10142312
        ],
        "postalCode": "P7C2E2",
        "streetName": "BAYBERRY",
        "streetDirectionId": null,
        "streetTypeId": "CRES",
        "placeName": "THUNDER BAY",
        "streetNameDisplayText": "BAYBERRY CRES, THUNDER BAY"
      }
    ]
  },
  {
    "postal": "P7C7W8",
    "result": []
  },
  {
    "postal": "P7C7M5",
    "result": []
  },
  {
    "postal": "P7C5W8",
    "result": [
      {
        "electoralDistricts": [
          {
            "election": null,
            "id": 105,
            "name": "Thunder Bay—Atikokan"
          }
        ],
        "pollDivisionIds": [
          10142309
        ],
        "postalCode": "P7C5W8",
        "streetName": "FRONTENAC",
        "streetDirectionId": null,
        "streetTypeId": "BAY",
        "placeName": "THUNDER BAY",
        "streetNameDisplayText": "FRONTENAC BAY, THUNDER BAY"
      }
    ]
  },
  {
    "postal": "P7C5E5",
    "result": []
  },
  {
    "postal": "P7C1P9",
    "result": [
      {
        "electoralDistricts": [
          {
            "election": null,
            "id": 105,
            "name": "Thunder Bay—Atikokan"
          }
        ],
        "pollDivisionIds": [
          10142322
        ],
        "postalCode": "P7C1P9",
        "streetName": "MIREAULT",
        "streetDirectionId": null,
        "streetTypeId": "CRT",
        "placeName": "THUNDER BAY",
        "streetNameDisplayText": "MIREAULT CRT, THUNDER BAY"
      }
    ]
  },
  {
    "postal": "P7C8V8",
    "result": []
  },
  {
    "postal": "P7C9G8",
    "result": []
  },
  {
    "postal": "P7C8H9",
    "result": []
  },
  {
    "postal": "P7C1Z1",
    "result": [
      {
        "electoralDistricts": [
          {
            "election": null,
            "id": 105,
            "name": "Thunder Bay—Atikokan"
          }
        ],
        "pollDivisionIds": [
          10142319
        ],
        "postalCode": "P7C1Z1",
        "streetName": "REDWOOD",
        "streetDirectionId": "E",
        "streetTypeId": "AVE",
        "placeName": "THUNDER BAY",
        "streetNameDisplayText": "REDWOOD AVE E, THUNDER BAY"
      }
    ]
  },
  {
    "postal": "P7C8M3",
    "result": []
  },
  {
    "postal": "P7C5H6",
    "result": [
      {
        "electoralDistricts": [
          {
            "election": null,
            "id": 105,
            "name": "Thunder Bay—Atikokan"
          }
        ],
        "pollDivisionIds": [
          10142327
        ],
        "postalCode": "P7C5H6",
        "streetName": "HAROLD",
        "streetDirectionId": null,
        "streetTypeId": "CRES",
        "placeName": "THUNDER BAY",
        "streetNameDisplayText": "HAROLD CRES, THUNDER BAY"
      }
    ]
  },
  {
    "postal": "P7C7W7",
    "result": []
  },
  {
    "postal": "P7C4L0",
    "result": []
  },
  {
    "postal": "P7C2N1",
    "result": [
      {
        "electoralDistricts": [
          {
            "election": null,
            "id": 105,
            "name": "Thunder Bay—Atikokan"
          }
        ],
        "pollDivisionIds": [
          10142333
        ],
        "postalCode": "P7C2N1",
        "streetName": "OGDEN",
        "streetDirectionId": null,
        "streetTypeId": "ST",
        "placeName": "THUNDER BAY",
        "streetNameDisplayText": "OGDEN ST, THUNDER BAY"
      }
    ]
  },
  {
    "postal": "P7C2H4",
    "result": [
      {
        "electoralDistricts": [
          {
            "election": null,
            "id": 105,
            "name": "Thunder Bay—Atikokan"
          }
        ],
        "pollDivisionIds": [
          10142327
        ],
        "postalCode": "P7C2H4",
        "streetName": "CAMERON",
        "streetDirectionId": null,
        "streetTypeId": "ST",
        "placeName": "THUNDER BAY",
        "streetNameDisplayText": "CAMERON ST, THUNDER BAY"
      }
    ]
  },
  {
    "postal": "P7C5C8",
    "result": [
      {
        "electoralDistricts": [
          {
            "election": null,
            "id": 105,
            "name": "Thunder Bay—Atikokan"
          }
        ],
        "pollDivisionIds": [
          10142308
        ],
        "postalCode": "P7C5C8",
        "streetName": "PARKWAY",
        "streetDirectionId": null,
        "streetTypeId": "DR",
        "placeName": "THUNDER BAY",
        "streetNameDisplayText": "PARKWAY DR, THUNDER BAY"
      }
    ]
  },
  {
    "postal": "P7C8B0",
    "result": []
  },
  {
    "postal": "P7C1T4",
    "result": [
      {
        "electoralDistricts": [
          {
            "election": null,
            "id": 105,
            "name": "Thunder Bay—Atikokan"
          }
        ],
        "pollDivisionIds": [
          10142319
        ],
        "postalCode": "P7C1T4",
        "streetName": "AMETHYST",
        "streetDirectionId": null,
        "streetTypeId": "CRES",
        "placeName": "THUNDER BAY",
        "streetNameDisplayText": "AMETHYST CRES, THUNDER BAY"
      }
    ]
  },
  {
    "postal": "P7C7N7",
    "result": []
  },
  {
    "postal": "P7C4L3",
    "result": [
      {
        "electoralDistricts": [
          {
            "election": null,
            "id": 105,
            "name": "Thunder Bay—Atikokan"
          }
        ],
        "pollDivisionIds": [
          10142322
        ],
        "postalCode": "P7C4L3",
        "streetName": "BRUNSWICK",
        "streetDirectionId": "N",
        "streetTypeId": "ST",
        "placeName": "THUNDER BAY",
        "streetNameDisplayText": "BRUNSWICK ST N, THUNDER BAY"
      },
      {
        "electoralDistricts": [
          {
            "election": null,
            "id": 105,
            "name": "Thunder Bay—Atikokan"
          }
        ],
        "pollDivisionIds": [
          10142322
        ],
        "postalCode": "P7C4L3",
        "streetName": "WATERLOO",
        "streetDirectionId": "N",
        "streetTypeId": "ST",
        "placeName": "THUNDER BAY",
        "streetNameDisplayText": "WATERLOO ST N, THUNDER BAY"
      }
    ]
  },
  {
    "postal": "P7C2N2",
    "result": [
      {
        "electoralDistricts": [
          {
            "election": null,
            "id": 105,
            "name": "Thunder Bay—Atikokan"
          }
        ],
        "pollDivisionIds": [
          10142333
        ],
        "postalCode": "P7C2N2",
        "streetName": "OGDEN",
        "streetDirectionId": null,
        "streetTypeId": "ST",
        "placeName": "THUNDER BAY",
        "streetNameDisplayText": "OGDEN ST, THUNDER BAY"
      }
    ]
  },
  {
    "postal": "P7C4N8",
    "result": [
      {
        "electoralDistricts": [
          {
            "election": null,
            "id": 105,
            "name": "Thunder Bay—Atikokan"
          }
        ],
        "pollDivisionIds": [
          10142316
        ],
        "postalCode": "P7C4N8",
        "streetName": "EDWARD",
        "streetDirectionId": "N",
        "streetTypeId": "ST",
        "placeName": "THUNDER BAY",
        "streetNameDisplayText": "EDWARD ST N, THUNDER BAY"
      }
    ]
  },
  {
    "postal": "P7C3M5",
    "result": [
      {
        "electoralDistricts": [
          {
            "election": null,
            "id": 105,
            "name": "Thunder Bay—Atikokan"
          }
        ],
        "pollDivisionIds": [
          10142333
        ],
        "postalCode": "P7C3M5",
        "streetName": "PRINCE ARTHUR BLV",
        "streetDirectionId": null,
        "streetTypeId": "BLVD",
        "placeName": "THUNDER BAY",
        "streetNameDisplayText": "PRINCE ARTHUR BLV BLVD, THUNDER BAY"
      },
      {
        "electoralDistricts": [
          {
            "election": null,
            "id": 105,
            "name": "Thunder Bay—Atikokan"
          }
        ],
        "pollDivisionIds": [
          10142333
        ],
        "postalCode": "P7C3M5",
        "streetName": "PRINCE ARTHUR",
        "streetDirectionId": null,
        "streetTypeId": "BLVD",
        "placeName": "THUNDER BAY",
        "streetNameDisplayText": "PRINCE ARTHUR BLVD, THUNDER BAY"
      }
    ]
  },
  {
    "postal": "P7C6H7",
    "result": []
  },
  {
    "postal": "P7C8Y8",
    "result": []
  },
  {
    "postal": "P7C5R9",
    "result": [
      {
        "electoralDistricts": [
          {
            "election": null,
            "id": 105,
            "name": "Thunder Bay—Atikokan"
          }
        ],
        "pollDivisionIds": [
          10142312
        ],
        "postalCode": "P7C5R9",
        "streetName": "RYERSON",
        "streetDirectionId": null,
        "streetTypeId": "PL",
        "placeName": "THUNDER BAY",
        "streetNameDisplayText": "RYERSON PL, THUNDER BAY"
      }
    ]
  },
  {
    "postal": "P7C8G3",
    "result": []
  },
  {
    "postal": "P7C4N7",
    "result": [
      {
        "electoralDistricts": [
          {
            "election": null,
            "id": 105,
            "name": "Thunder Bay—Atikokan"
          }
        ],
        "pollDivisionIds": [
          10142317
        ],
        "postalCode": "P7C4N7",
        "streetName": "EDWARD",
        "streetDirectionId": "N",
        "streetTypeId": "ST",
        "placeName": "THUNDER BAY",
        "streetNameDisplayText": "EDWARD ST N, THUNDER BAY"
      }
    ]
  },
  {
    "postal": "P7C0B9",
    "result": []
  },
  {
    "postal": "P7C9K7",
    "result": []
  },
  {
    "postal": "P7C9K9",
    "result": []
  },
  {
    "postal": "P7C3Z2",
    "result": [
      {
        "electoralDistricts": [
          {
            "election": null,
            "id": 105,
            "name": "Thunder Bay—Atikokan"
          }
        ],
        "pollDivisionIds": [
          10142329
        ],
        "postalCode": "P7C3Z2",
        "streetName": "MCKELLAR",
        "streetDirectionId": "N",
        "streetTypeId": "ST",
        "placeName": "THUNDER BAY",
        "streetNameDisplayText": "MCKELLAR ST N, THUNDER BAY"
      }
    ]
  },
  {
    "postal": "P7C6W7",
    "result": []
  },
  {
    "postal": "P7C0P1",
    "result": []
  },
  {
    "postal": "P7C3A0",
    "result": []
  },
  {
    "postal": "P7C8L9",
    "result": []
  },
  {
    "postal": "P7C6X0",
    "result": []
  },
  {
    "postal": "P7C3E9",
    "result": [
      {
        "electoralDistricts": [
          {
            "election": null,
            "id": 105,
            "name": "Thunder Bay—Atikokan"
          }
        ],
        "pollDivisionIds": [
          10142333
        ],
        "postalCode": "P7C3E9",
        "streetName": "ALBERTA",
        "streetDirectionId": null,
        "streetTypeId": "ST",
        "placeName": "THUNDER BAY",
        "streetNameDisplayText": "ALBERTA ST, THUNDER BAY"
      }
    ]
  },
  {
    "postal": "P7C0S5",
    "result": []
  },
  {
    "postal": "P7C1A2",
    "result": [
      {
        "electoralDistricts": [
          {
            "election": null,
            "id": 105,
            "name": "Thunder Bay—Atikokan"
          }
        ],
        "pollDivisionIds": [
          10142332
        ],
        "postalCode": "P7C1A2",
        "streetName": "VICTORIA",
        "streetDirectionId": "E",
        "streetTypeId": "AVE",
        "placeName": "THUNDER BAY",
        "streetNameDisplayText": "VICTORIA AVE E, THUNDER BAY"
      }
    ]
  },
  {
    "postal": "P7C5V8",
    "result": [
      {
        "electoralDistricts": [
          {
            "election": null,
            "id": 105,
            "name": "Thunder Bay—Atikokan"
          }
        ],
        "pollDivisionIds": [
          10142327
        ],
        "postalCode": "P7C5V8",
        "streetName": "NORAH",
        "streetDirectionId": null,
        "streetTypeId": "CRES",
        "placeName": "THUNDER BAY",
        "streetNameDisplayText": "NORAH CRES, THUNDER BAY"
      }
    ]
  },
  {
    "postal": "P7C8C5",
    "result": []
  },
  {
    "postal": "P7C6N0",
    "result": []
  },
  {
    "postal": "P7C9E6",
    "result": []
  },
  {
    "postal": "P7C5J7",
    "result": []
  },
  {
    "postal": "P7C2R2",
    "result": [
      {
        "electoralDistricts": [
          {
            "election": null,
            "id": 105,
            "name": "Thunder Bay—Atikokan"
          }
        ],
        "pollDivisionIds": [
          10142335
        ],
        "postalCode": "P7C2R2",
        "streetName": "CHRISTIE",
        "streetDirectionId": null,
        "streetTypeId": "ST",
        "placeName": "THUNDER BAY",
        "streetNameDisplayText": "CHRISTIE ST, THUNDER BAY"
      }
    ]
  },
  {
    "postal": "P7C0P5",
    "result": []
  },
  {
    "postal": "P7C5A7",
    "result": [
      {
        "electoralDistricts": [
          {
            "election": null,
            "id": 105,
            "name": "Thunder Bay—Atikokan"
          }
        ],
        "pollDivisionIds": [
          10142308
        ],
        "postalCode": "P7C5A7",
        "streetName": "MCGILL",
        "streetDirectionId": null,
        "streetTypeId": "CRES",
        "placeName": "THUNDER BAY",
        "streetNameDisplayText": "MCGILL CRES, THUNDER BAY"
      }
    ]
  },
  {
    "postal": "P7C1G1",
    "result": [
      {
        "electoralDistricts": [
          {
            "election": null,
            "id": 105,
            "name": "Thunder Bay—Atikokan"
          }
        ],
        "pollDivisionIds": [
          10142322
        ],
        "postalCode": "P7C1G1",
        "streetName": "VICTORIA",
        "streetDirectionId": "E",
        "streetTypeId": "AVE",
        "placeName": "THUNDER BAY",
        "streetNameDisplayText": "VICTORIA AVE E, THUNDER BAY"
      }
    ]
  },
  {
    "postal": "P7C9R6",
    "result": []
  },
  {
    "postal": "P7C4Z9",
    "result": [
      {
        "electoralDistricts": [
          {
            "election": null,
            "id": 105,
            "name": "Thunder Bay—Atikokan"
          }
        ],
        "pollDivisionIds": [
          10142308
        ],
        "postalCode": "P7C4Z9",
        "streetName": "SIMON FRASER",
        "streetDirectionId": null,
        "streetTypeId": "DR",
        "placeName": "THUNDER BAY",
        "streetNameDisplayText": "SIMON FRASER DR, THUNDER BAY"
      }
    ]
  },
  {
    "postal": "P7C1V5",
    "result": [
      {
        "electoralDistricts": [
          {
            "election": null,
            "id": 105,
            "name": "Thunder Bay—Atikokan"
          }
        ],
        "pollDivisionIds": [
          10142319
        ],
        "postalCode": "P7C1V5",
        "streetName": "CHURCHILL",
        "streetDirectionId": "W",
        "streetTypeId": "DR",
        "placeName": "THUNDER BAY",
        "streetNameDisplayText": "CHURCHILL DR W, THUNDER BAY"
      }
    ]
  },
  {
    "postal": "P7C9Y5",
    "result": []
  },
  {
    "postal": "P7C1P2",
    "result": [
      {
        "electoralDistricts": [
          {
            "election": null,
            "id": 105,
            "name": "Thunder Bay—Atikokan"
          }
        ],
        "pollDivisionIds": [
          10142327
        ],
        "postalCode": "P7C1P2",
        "streetName": "CUMMING",
        "streetDirectionId": null,
        "streetTypeId": "ST",
        "placeName": "THUNDER BAY",
        "streetNameDisplayText": "CUMMING ST, THUNDER BAY"
      }
    ]
  },
  {
    "postal": "P7C5X0",
    "result": []
  },
  {
    "postal": "P7C7B8",
    "result": []
  },
  {
    "postal": "P7C0C6",
    "result": []
  },
  {
    "postal": "P7C6G1",
    "result": []
  },
  {
    "postal": "P7C3K3",
    "result": [
      {
        "electoralDistricts": [
          {
            "election": null,
            "id": 105,
            "name": "Thunder Bay—Atikokan"
          }
        ],
        "pollDivisionIds": [
          10142333
        ],
        "postalCode": "P7C3K3",
        "streetName": "SIMPSON",
        "streetDirectionId": "N",
        "streetTypeId": "ST",
        "placeName": "THUNDER BAY",
        "streetNameDisplayText": "SIMPSON ST N, THUNDER BAY"
      },
      {
        "electoralDistricts": [
          {
            "election": null,
            "id": 105,
            "name": "Thunder Bay—Atikokan"
          }
        ],
        "pollDivisionIds": [
          10142333
        ],
        "postalCode": "P7C3K3",
        "streetName": "SIMPSON",
        "streetDirectionId": null,
        "streetTypeId": "ST",
        "placeName": "THUNDER BAY",
        "streetNameDisplayText": "SIMPSON ST, THUNDER BAY"
      }
    ]
  },
  {
    "postal": "P7C9R0",
    "result": []
  },
  {
    "postal": "P7C4R8",
    "result": [
      {
        "electoralDistricts": [
          {
            "election": null,
            "id": 105,
            "name": "Thunder Bay—Atikokan"
          }
        ],
        "pollDivisionIds": [
          10142316
        ],
        "postalCode": "P7C4R8",
        "streetName": "LELAND",
        "streetDirectionId": "N",
        "streetTypeId": "AVE",
        "placeName": "THUNDER BAY",
        "streetNameDisplayText": "LELAND AVE N, THUNDER BAY"
      }
    ]
  },
  {
    "postal": "P7C5P9",
    "result": [
      {
        "electoralDistricts": [
          {
            "election": null,
            "id": 105,
            "name": "Thunder Bay—Atikokan"
          }
        ],
        "pollDivisionIds": [
          10142308
        ],
        "postalCode": "P7C5P9",
        "streetName": "DALHOUSIE",
        "streetDirectionId": null,
        "streetTypeId": "DR",
        "placeName": "THUNDER BAY",
        "streetNameDisplayText": "DALHOUSIE DR, THUNDER BAY"
      }
    ]
  },
  {
    "postal": "P7C8N4",
    "result": []
  },
  {
    "postal": "P7C8H4",
    "result": []
  },
  {
    "postal": "P7C4V1",
    "result": [
      {
        "electoralDistricts": [
          {
            "election": null,
            "id": 105,
            "name": "Thunder Bay—Atikokan"
          }
        ],
        "pollDivisionIds": [
          10142297
        ],
        "postalCode": "P7C4V1",
        "streetName": "11/17",
        "streetDirectionId": null,
        "streetTypeId": "HWY",
        "placeName": "THUNDER BAY",
        "streetNameDisplayText": "11/17 HWY, THUNDER BAY"
      },
      {
        "electoralDistricts": [
          {
            "election": null,
            "id": 105,
            "name": "Thunder Bay—Atikokan"
          }
        ],
        "pollDivisionIds": [
          10142291
        ],
        "postalCode": "P7C4V1",
        "streetName": "11+17",
        "streetDirectionId": null,
        "streetTypeId": "HWY",
        "placeName": "THUNDER BAY",
        "streetNameDisplayText": "11+17 HWY, THUNDER BAY"
      },
      {
        "electoralDistricts": [
          {
            "election": null,
            "id": 105,
            "name": "Thunder Bay—Atikokan"
          }
        ],
        "pollDivisionIds": [
          10142297
        ],
        "postalCode": "P7C4V1",
        "streetName": "130",
        "streetDirectionId": null,
        "streetTypeId": "HWY",
        "placeName": "ROSSLYN",
        "streetNameDisplayText": "130 HWY, ROSSLYN"
      },
      {
        "electoralDistricts": [
          {
            "election": null,
            "id": 105,
            "name": "Thunder Bay—Atikokan"
          }
        ],
        "pollDivisionIds": [
          10142297
        ],
        "postalCode": "P7C4V1",
        "streetName": "130",
        "streetDirectionId": null,
        "streetTypeId": "HWY",
        "placeName": "THUNDER BAY",
        "streetNameDisplayText": "130 HWY, THUNDER BAY"
      },
      {
        "electoralDistricts": [
          {
            "election": null,
            "id": 105,
            "name": "Thunder Bay—Atikokan"
          }
        ],
        "pollDivisionIds": [
          10142302
        ],
        "postalCode": "P7C4V1",
        "streetName": "25TH",
        "streetDirectionId": null,
        "streetTypeId": "SIDERD",
        "placeName": "THUNDER BAY",
        "streetNameDisplayText": "25TH SIDERD, THUNDER BAY"
      },
      {
        "electoralDistricts": [
          {
            "election": null,
            "id": 105,
            "name": "Thunder Bay—Atikokan"
          }
        ],
        "pollDivisionIds": [
          10142297
        ],
        "postalCode": "P7C4V1",
        "streetName": "ARTHUR",
        "streetDirectionId": "W",
        "streetTypeId": "ST",
        "placeName": "THUNDER BAY",
        "streetNameDisplayText": "ARTHUR ST W, THUNDER BAY"
      },
      {
        "electoralDistricts": [
          {
            "election": null,
            "id": 105,
            "name": "Thunder Bay—Atikokan"
          }
        ],
        "pollDivisionIds": [
          10142297
        ],
        "postalCode": "P7C4V1",
        "streetName": "ARTHUR",
        "streetDirectionId": null,
        "streetTypeId": "ST",
        "placeName": "THUNDER BAY",
        "streetNameDisplayText": "ARTHUR ST, THUNDER BAY"
      },
      {
        "electoralDistricts": [
          {
            "election": null,
            "id": 105,
            "name": "Thunder Bay—Atikokan"
          }
        ],
        "pollDivisionIds": [
          10142297
        ],
        "postalCode": "P7C4V1",
        "streetName": "COOPER",
        "streetDirectionId": null,
        "streetTypeId": "RD",
        "placeName": "THUNDER BAY",
        "streetNameDisplayText": "COOPER RD, THUNDER BAY"
      },
      {
        "electoralDistricts": [
          {
            "election": null,
            "id": 105,
            "name": "Thunder Bay—Atikokan"
          }
        ],
        "pollDivisionIds": [
          10142297
        ],
        "postalCode": "P7C4V1",
        "streetName": "HANIAK",
        "streetDirectionId": null,
        "streetTypeId": "RD",
        "placeName": "THUNDER BAY",
        "streetNameDisplayText": "HANIAK RD, THUNDER BAY"
      },
      {
        "electoralDistricts": [
          {
            "election": null,
            "id": 105,
            "name": "Thunder Bay—Atikokan"
          }
        ],
        "pollDivisionIds": [
          10142295
        ],
        "postalCode": "P7C4V1",
        "streetName": "HANNA",
        "streetDirectionId": null,
        "streetTypeId": "RD",
        "placeName": "THUNDER BAY",
        "streetNameDisplayText": "HANNA RD, THUNDER BAY"
      },
      {
        "electoralDistricts": [
          {
            "election": null,
            "id": 105,
            "name": "Thunder Bay—Atikokan"
          }
        ],
        "pollDivisionIds": [
          10142291
        ],
        "postalCode": "P7C4V1",
        "streetName": "HARSTONE",
        "streetDirectionId": null,
        "streetTypeId": "DR",
        "placeName": "THUNDER BAY",
        "streetNameDisplayText": "HARSTONE DR, THUNDER BAY"
      },
      {
        "electoralDistricts": [
          {
            "election": null,
            "id": 105,
            "name": "Thunder Bay—Atikokan"
          }
        ],
        "pollDivisionIds": [
          10142297
        ],
        "postalCode": "P7C4V1",
        "streetName": "PENNOCK",
        "streetDirectionId": null,
        "streetTypeId": "DR",
        "placeName": "THUNDER BAY",
        "streetNameDisplayText": "PENNOCK DR, THUNDER BAY"
      },
      {
        "electoralDistricts": [
          {
            "election": null,
            "id": 105,
            "name": "Thunder Bay—Atikokan"
          }
        ],
        "pollDivisionIds": [
          10142297
        ],
        "postalCode": "P7C4V1",
        "streetName": "PINEWOOD",
        "streetDirectionId": "N",
        "streetTypeId": "DR",
        "placeName": "THUNDER BAY",
        "streetNameDisplayText": "PINEWOOD DR N, THUNDER BAY"
      },
      {
        "electoralDistricts": [
          {
            "election": null,
            "id": 105,
            "name": "Thunder Bay—Atikokan"
          }
        ],
        "pollDivisionIds": [
          10142297
        ],
        "postalCode": "P7C4V1",
        "streetName": "PINEWOOD",
        "streetDirectionId": null,
        "streetTypeId": "DR",
        "placeName": "THUNDER BAY",
        "streetNameDisplayText": "PINEWOOD DR, THUNDER BAY"
      },
      {
        "electoralDistricts": [
          {
            "election": null,
            "id": 105,
            "name": "Thunder Bay—Atikokan"
          }
        ],
        "pollDivisionIds": [
          10142297
        ],
        "postalCode": "P7C4V1",
        "streetName": "TWIN CITY CROSSRD",
        "streetDirectionId": null,
        "streetTypeId": null,
        "placeName": "THUNDER BAY",
        "streetNameDisplayText": "TWIN CITY CROSSRD, THUNDER BAY"
      }
    ]
  },
  {
    "postal": "P7C1K5",
    "result": [
      {
        "electoralDistricts": [
          {
            "election": null,
            "id": 105,
            "name": "Thunder Bay—Atikokan"
          }
        ],
        "pollDivisionIds": [
          10142322
        ],
        "postalCode": "P7C1K5",
        "streetName": "CHESTNUT",
        "streetDirectionId": null,
        "streetTypeId": "ST",
        "placeName": "THUNDER BAY",
        "streetNameDisplayText": "CHESTNUT ST, THUNDER BAY"
      }
    ]
  },
  {
    "postal": "P7C1Z5",
    "result": [
      {
        "electoralDistricts": [
          {
            "election": null,
            "id": 105,
            "name": "Thunder Bay—Atikokan"
          }
        ],
        "pollDivisionIds": [
          10142319
        ],
        "postalCode": "P7C1Z5",
        "streetName": "REDWOOD",
        "streetDirectionId": "W",
        "streetTypeId": "AVE",
        "placeName": "THUNDER BAY",
        "streetNameDisplayText": "REDWOOD AVE W, THUNDER BAY"
      }
    ]
  },
  {
    "postal": "P7C9L9",
    "result": []
  },
  {
    "postal": "P7C5L2",
    "result": [
      {
        "electoralDistricts": [
          {
            "election": null,
            "id": 105,
            "name": "Thunder Bay—Atikokan"
          }
        ],
        "pollDivisionIds": [
          10142308
        ],
        "postalCode": "P7C5L2",
        "streetName": "THORNLOE",
        "streetDirectionId": null,
        "streetTypeId": "DR",
        "placeName": "THUNDER BAY",
        "streetNameDisplayText": "THORNLOE DR, THUNDER BAY"
      }
    ]
  },
  {
    "postal": "P7C0M2",
    "result": []
  },
  {
    "postal": "P7C1K8",
    "result": [
      {
        "electoralDistricts": [
          {
            "election": null,
            "id": 105,
            "name": "Thunder Bay—Atikokan"
          }
        ],
        "pollDivisionIds": [
          10142322
        ],
        "postalCode": "P7C1K8",
        "streetName": "WILLOW",
        "streetDirectionId": null,
        "streetTypeId": "PL",
        "placeName": "THUNDER BAY",
        "streetNameDisplayText": "WILLOW PL, THUNDER BAY"
      }
    ]
  },
  {
    "postal": "P7C3M7",
    "result": [
      {
        "electoralDistricts": [
          {
            "election": null,
            "id": 105,
            "name": "Thunder Bay—Atikokan"
          }
        ],
        "pollDivisionIds": [
          10142333
        ],
        "postalCode": "P7C3M7",
        "streetName": "PRINCE ARTHUR",
        "streetDirectionId": null,
        "streetTypeId": "BLVD",
        "placeName": "THUNDER BAY",
        "streetNameDisplayText": "PRINCE ARTHUR BLVD, THUNDER BAY"
      }
    ]
  },
  {
    "postal": "P7C1B2",
    "result": [
      {
        "electoralDistricts": [
          {
            "election": null,
            "id": 105,
            "name": "Thunder Bay—Atikokan"
          }
        ],
        "pollDivisionIds": [
          10142329
        ],
        "postalCode": "P7C1B2",
        "streetName": "VICTORIA",
        "streetDirectionId": "E",
        "streetTypeId": "AVE",
        "placeName": "THUNDER BAY",
        "streetNameDisplayText": "VICTORIA AVE E, THUNDER BAY"
      }
    ]
  },
  {
    "postal": "P7C0H9",
    "result": []
  },
  {
    "postal": "P7C8M4",
    "result": []
  },
  {
    "postal": "P7C2M5",
    "result": [
      {
        "electoralDistricts": [
          {
            "election": null,
            "id": 105,
            "name": "Thunder Bay—Atikokan"
          }
        ],
        "pollDivisionIds": [
          10142333
        ],
        "postalCode": "P7C2M5",
        "streetName": "HERON",
        "streetDirectionId": null,
        "streetTypeId": "ST",
        "placeName": "THUNDER BAY",
        "streetNameDisplayText": "HERON ST, THUNDER BAY"
      }
    ]
  },
  {
    "postal": "P7C0T9",
    "result": []
  },
  {
    "postal": "P7C3P1",
    "result": [
      {
        "electoralDistricts": [
          {
            "election": null,
            "id": 105,
            "name": "Thunder Bay—Atikokan"
          }
        ],
        "pollDivisionIds": [
          10142330
        ],
        "postalCode": "P7C3P1",
        "streetName": "MAY",
        "streetDirectionId": "N",
        "streetTypeId": "ST",
        "placeName": "THUNDER BAY",
        "streetNameDisplayText": "MAY ST N, THUNDER BAY"
      }
    ]
  },
  {
    "postal": "P7C1R6",
    "result": [
      {
        "electoralDistricts": [
          {
            "election": null,
            "id": 105,
            "name": "Thunder Bay—Atikokan"
          }
        ],
        "pollDivisionIds": [
          10142309
        ],
        "postalCode": "P7C1R6",
        "streetName": "RIVERVIEW",
        "streetDirectionId": null,
        "streetTypeId": "DR",
        "placeName": "THUNDER BAY",
        "streetNameDisplayText": "RIVERVIEW DR, THUNDER BAY"
      }
    ]
  },
  {
    "postal": "P7C9V5",
    "result": []
  },
  {
    "postal": "P7C9T0",
    "result": []
  },
  {
    "postal": "P7C0A9",
    "result": [
      {
        "electoralDistricts": [
          {
            "election": null,
            "id": 105,
            "name": "Thunder Bay—Atikokan"
          }
        ],
        "pollDivisionIds": [
          10142307
        ],
        "postalCode": "P7C0A9",
        "streetName": "BOBCAT",
        "streetDirectionId": null,
        "streetTypeId": "AVE",
        "placeName": "THUNDER BAY",
        "streetNameDisplayText": "BOBCAT AVE, THUNDER BAY"
      }
    ]
  },
  {
    "postal": "P7C1M3",
    "result": [
      {
        "electoralDistricts": [
          {
            "election": null,
            "id": 105,
            "name": "Thunder Bay—Atikokan"
          }
        ],
        "pollDivisionIds": [
          10142330
        ],
        "postalCode": "P7C1M3",
        "streetName": "MILES",
        "streetDirectionId": "E",
        "streetTypeId": "ST",
        "placeName": "THUNDER BAY",
        "streetNameDisplayText": "MILES ST E, THUNDER BAY"
      },
      {
        "electoralDistricts": [
          {
            "election": null,
            "id": 105,
            "name": "Thunder Bay—Atikokan"
          }
        ],
        "pollDivisionIds": [
          10142309
        ],
        "postalCode": "P7C1M3",
        "streetName": "MILES",
        "streetDirectionId": "W",
        "streetTypeId": "ST",
        "placeName": "THUNDER BAY",
        "streetNameDisplayText": "MILES ST W, THUNDER BAY"
      }
    ]
  },
  {
    "postal": "P7C1W8",
    "result": [
      {
        "electoralDistricts": [
          {
            "election": null,
            "id": 105,
            "name": "Thunder Bay—Atikokan"
          }
        ],
        "pollDivisionIds": [
          10142319
        ],
        "postalCode": "P7C1W8",
        "streetName": "HEMLOCK",
        "streetDirectionId": null,
        "streetTypeId": "PL",
        "placeName": "THUNDER BAY",
        "streetNameDisplayText": "HEMLOCK PL, THUNDER BAY"
      }
    ]
  },
  {
    "postal": "P7C9J1",
    "result": []
  },
  {
    "postal": "P7C8N5",
    "result": []
  },
  {
    "postal": "P7C5X1",
    "result": [
      {
        "electoralDistricts": [
          {
            "election": null,
            "id": 105,
            "name": "Thunder Bay—Atikokan"
          }
        ],
        "pollDivisionIds": [
          10142312
        ],
        "postalCode": "P7C5X1",
        "streetName": "SENECA",
        "streetDirectionId": null,
        "streetTypeId": "CRES",
        "placeName": "THUNDER BAY",
        "streetNameDisplayText": "SENECA CRES, THUNDER BAY"
      }
    ]
  },
  {
    "postal": "P7C6S2",
    "result": []
  },
  {
    "postal": "P7C2A2",
    "result": [
      {
        "electoralDistricts": [
          {
            "election": null,
            "id": 105,
            "name": "Thunder Bay—Atikokan"
          }
        ],
        "pollDivisionIds": [
          10142319
        ],
        "postalCode": "P7C2A2",
        "streetName": "WOODLAWN",
        "streetDirectionId": null,
        "streetTypeId": "AVE",
        "placeName": "THUNDER BAY",
        "streetNameDisplayText": "WOODLAWN AVE, THUNDER BAY"
      }
    ]
  },
  {
    "postal": "P7C6A6",
    "result": [
      {
        "electoralDistricts": [
          {
            "election": null,
            "id": 105,
            "name": "Thunder Bay—Atikokan"
          }
        ],
        "pollDivisionIds": [
          10142302
        ],
        "postalCode": "P7C6A6",
        "streetName": "REINDEER",
        "streetDirectionId": null,
        "streetTypeId": "AVE",
        "placeName": "THUNDER BAY",
        "streetNameDisplayText": "REINDEER AVE, THUNDER BAY"
      }
    ]
  },
  {
    "postal": "P7C0S3",
    "result": []
  },
  {
    "postal": "P7C3E7",
    "result": [
      {
        "electoralDistricts": [
          {
            "election": null,
            "id": 105,
            "name": "Thunder Bay—Atikokan"
          }
        ],
        "pollDivisionIds": [
          10142333
        ],
        "postalCode": "P7C3E7",
        "streetName": "ALBERTA",
        "streetDirectionId": null,
        "streetTypeId": "ST",
        "placeName": "THUNDER BAY",
        "streetNameDisplayText": "ALBERTA ST, THUNDER BAY"
      }
    ]
  },
  {
    "postal": "P7C5R7",
    "result": [
      {
        "electoralDistricts": [
          {
            "election": null,
            "id": 105,
            "name": "Thunder Bay—Atikokan"
          }
        ],
        "pollDivisionIds": [
          10142312
        ],
        "postalCode": "P7C5R7",
        "streetName": "RYERSON",
        "streetDirectionId": null,
        "streetTypeId": "CRES",
        "placeName": "THUNDER BAY",
        "streetNameDisplayText": "RYERSON CRES, THUNDER BAY"
      }
    ]
  },
  {
    "postal": "P7C3R6",
    "result": [
      {
        "electoralDistricts": [
          {
            "election": null,
            "id": 105,
            "name": "Thunder Bay—Atikokan"
          }
        ],
        "pollDivisionIds": [
          10142327
        ],
        "postalCode": "P7C3R6",
        "streetName": "MAY",
        "streetDirectionId": "N",
        "streetTypeId": "ST",
        "placeName": "THUNDER BAY",
        "streetNameDisplayText": "MAY ST N, THUNDER BAY"
      }
    ]
  },
  {
    "postal": "P7C6K4",
    "result": []
  },
  {
    "postal": "P7C2W5",
    "result": [
      {
        "electoralDistricts": [
          {
            "election": null,
            "id": 105,
            "name": "Thunder Bay—Atikokan"
          }
        ],
        "pollDivisionIds": [
          10142327
        ],
        "postalCode": "P7C2W5",
        "streetName": "NORTHERN",
        "streetDirectionId": null,
        "streetTypeId": "AVE",
        "placeName": "THUNDER BAY",
        "streetNameDisplayText": "NORTHERN AVE, THUNDER BAY"
      }
    ]
  },
  {
    "postal": "P7C8W4",
    "result": []
  },
  {
    "postal": "P7C9C2",
    "result": []
  },
  {
    "postal": "P7C2C0",
    "result": []
  },
  {
    "postal": "P7C0E1",
    "result": []
  },
  {
    "postal": "P7C1K9",
    "result": [
      {
        "electoralDistricts": [
          {
            "election": null,
            "id": 105,
            "name": "Thunder Bay—Atikokan"
          }
        ],
        "pollDivisionIds": [
          10142322
        ],
        "postalCode": "P7C1K9",
        "streetName": "WILLOW",
        "streetDirectionId": null,
        "streetTypeId": "PL",
        "placeName": "THUNDER BAY",
        "streetNameDisplayText": "WILLOW PL, THUNDER BAY"
      }
    ]
  },
  {
    "postal": "P7C1G7",
    "result": [
      {
        "electoralDistricts": [
          {
            "election": null,
            "id": 105,
            "name": "Thunder Bay—Atikokan"
          }
        ],
        "pollDivisionIds": [
          10142309
        ],
        "postalCode": "P7C1G7",
        "streetName": "VICTORIA",
        "streetDirectionId": "W",
        "streetTypeId": "AVE",
        "placeName": "THUNDER BAY",
        "streetNameDisplayText": "VICTORIA AVE W, THUNDER BAY"
      }
    ]
  },
  {
    "postal": "P7C4E9",
    "result": [
      {
        "electoralDistricts": [
          {
            "election": null,
            "id": 105,
            "name": "Thunder Bay—Atikokan"
          }
        ],
        "pollDivisionIds": [
          10142327
        ],
        "postalCode": "P7C4E9",
        "streetName": "MARKS",
        "streetDirectionId": "N",
        "streetTypeId": "ST",
        "placeName": "THUNDER BAY",
        "streetNameDisplayText": "MARKS ST N, THUNDER BAY"
      }
    ]
  },
  {
    "postal": "P7C9P0",
    "result": []
  },
  {
    "postal": "P7C5H3",
    "result": [
      {
        "electoralDistricts": [
          {
            "election": null,
            "id": 105,
            "name": "Thunder Bay—Atikokan"
          }
        ],
        "pollDivisionIds": [
          10142322
        ],
        "postalCode": "P7C5H3",
        "streetName": "DEASE",
        "streetDirectionId": null,
        "streetTypeId": "ST",
        "placeName": "THUNDER BAY",
        "streetNameDisplayText": "DEASE ST, THUNDER BAY"
      }
    ]
  },
  {
    "postal": "P7C9X6",
    "result": []
  },
  {
    "postal": "P7C5N7",
    "result": [
      {
        "electoralDistricts": [
          {
            "election": null,
            "id": 105,
            "name": "Thunder Bay—Atikokan"
          }
        ],
        "pollDivisionIds": [
          10142329
        ],
        "postalCode": "P7C5N7",
        "streetName": "DEASE",
        "streetDirectionId": null,
        "streetTypeId": "ST",
        "placeName": "THUNDER BAY",
        "streetNameDisplayText": "DEASE ST, THUNDER BAY"
      },
      {
        "electoralDistricts": [
          {
            "election": null,
            "id": 105,
            "name": "Thunder Bay—Atikokan"
          }
        ],
        "pollDivisionIds": [
          10142329
        ],
        "postalCode": "P7C5N7",
        "streetName": "VICKERS",
        "streetDirectionId": "N",
        "streetTypeId": "ST",
        "placeName": "THUNDER BAY",
        "streetNameDisplayText": "VICKERS ST N, THUNDER BAY"
      }
    ]
  },
  {
    "postal": "P7C5A6",
    "result": [
      {
        "electoralDistricts": [
          {
            "election": null,
            "id": 105,
            "name": "Thunder Bay—Atikokan"
          }
        ],
        "pollDivisionIds": [
          10142327
        ],
        "postalCode": "P7C5A6",
        "streetName": "MARKS",
        "streetDirectionId": "N",
        "streetTypeId": "ST",
        "placeName": "THUNDER BAY",
        "streetNameDisplayText": "MARKS ST N, THUNDER BAY"
      }
    ]
  },
  {
    "postal": "P7C4M0",
    "result": []
  },
  {
    "postal": "P7C3V6",
    "result": [
      {
        "electoralDistricts": [
          {
            "election": null,
            "id": 105,
            "name": "Thunder Bay—Atikokan"
          }
        ],
        "pollDivisionIds": [
          10142330
        ],
        "postalCode": "P7C3V6",
        "streetName": "SYNDICATE",
        "streetDirectionId": "N",
        "streetTypeId": "AVE",
        "placeName": "THUNDER BAY",
        "streetNameDisplayText": "SYNDICATE AVE N, THUNDER BAY"
      }
    ]
  },
  {
    "postal": "P7C1L7",
    "result": [
      {
        "electoralDistricts": [
          {
            "election": null,
            "id": 105,
            "name": "Thunder Bay—Atikokan"
          }
        ],
        "pollDivisionIds": [
          10142316
        ],
        "postalCode": "P7C1L7",
        "streetName": "BIRCHWOOD",
        "streetDirectionId": null,
        "streetTypeId": "CRES",
        "placeName": "THUNDER BAY",
        "streetNameDisplayText": "BIRCHWOOD CRES, THUNDER BAY"
      }
    ]
  },
  {
    "postal": "P7C2P9",
    "result": [
      {
        "electoralDistricts": [
          {
            "election": null,
            "id": 105,
            "name": "Thunder Bay—Atikokan"
          }
        ],
        "pollDivisionIds": [
          10142335
        ],
        "postalCode": "P7C2P9",
        "streetName": "CHRISTIE",
        "streetDirectionId": null,
        "streetTypeId": "ST",
        "placeName": "THUNDER BAY",
        "streetNameDisplayText": "CHRISTIE ST, THUNDER BAY"
      }
    ]
  },
  {
    "postal": "P7C5T4",
    "result": [
      {
        "electoralDistricts": [
          {
            "election": null,
            "id": 105,
            "name": "Thunder Bay—Atikokan"
          }
        ],
        "pollDivisionIds": [
          10142312
        ],
        "postalCode": "P7C5T4",
        "streetName": "ELRON",
        "streetDirectionId": null,
        "streetTypeId": "CRES",
        "placeName": "THUNDER BAY",
        "streetNameDisplayText": "ELRON CRES, THUNDER BAY"
      },
      {
        "electoralDistricts": [
          {
            "election": null,
            "id": 105,
            "name": "Thunder Bay—Atikokan"
          }
        ],
        "pollDivisionIds": [
          10142312
        ],
        "postalCode": "P7C5T4",
        "streetName": "FANSHAW",
        "streetDirectionId": null,
        "streetTypeId": "ST",
        "placeName": "THUNDER BAY",
        "streetNameDisplayText": "FANSHAW ST, THUNDER BAY"
      }
    ]
  },
  {
    "postal": "P7C5Z1",
    "result": [
      {
        "electoralDistricts": [
          {
            "election": null,
            "id": 105,
            "name": "Thunder Bay—Atikokan"
          }
        ],
        "pollDivisionIds": [
          10142307
        ],
        "postalCode": "P7C5Z1",
        "streetName": "MINK",
        "streetDirectionId": null,
        "streetTypeId": "CRT",
        "placeName": "THUNDER BAY",
        "streetNameDisplayText": "MINK CRT, THUNDER BAY"
      },
      {
        "electoralDistricts": [
          {
            "election": null,
            "id": 105,
            "name": "Thunder Bay—Atikokan"
          }
        ],
        "pollDivisionIds": [
          10142307
        ],
        "postalCode": "P7C5Z1",
        "streetName": "WOLVERINE",
        "streetDirectionId": null,
        "streetTypeId": "CRES",
        "placeName": "THUNDER BAY",
        "streetNameDisplayText": "WOLVERINE CRES, THUNDER BAY"
      }
    ]
  },
  {
    "postal": "P7C2X0",
    "result": []
  },
  {
    "postal": "P7C6Z2",
    "result": []
  },
  {
    "postal": "P7C0E0",
    "result": []
  },
  {
    "postal": "P7C3Z5",
    "result": [
      {
        "electoralDistricts": [
          {
            "election": null,
            "id": 105,
            "name": "Thunder Bay—Atikokan"
          }
        ],
        "pollDivisionIds": [
          10142329
        ],
        "postalCode": "P7C3Z5",
        "streetName": "MCKELLAR",
        "streetDirectionId": "N",
        "streetTypeId": "ST",
        "placeName": "THUNDER BAY",
        "streetNameDisplayText": "MCKELLAR ST N, THUNDER BAY"
      }
    ]
  },
  {
    "postal": "P7C8H3",
    "result": []
  },
  {
    "postal": "P7C7S6",
    "result": []
  },
  {
    "postal": "P7C4C1",
    "result": [
      {
        "electoralDistricts": [
          {
            "election": null,
            "id": 105,
            "name": "Thunder Bay—Atikokan"
          }
        ],
        "pollDivisionIds": [
          10142327
        ],
        "postalCode": "P7C4C1",
        "streetName": "VICKERS",
        "streetDirectionId": "N",
        "streetTypeId": "ST",
        "placeName": "THUNDER BAY",
        "streetNameDisplayText": "VICKERS ST N, THUNDER BAY"
      }
    ]
  },
  {
    "postal": "P7C3K2",
    "result": [
      {
        "electoralDistricts": [
          {
            "election": null,
            "id": 105,
            "name": "Thunder Bay—Atikokan"
          }
        ],
        "pollDivisionIds": [
          10142333
        ],
        "postalCode": "P7C3K2",
        "streetName": "SIMPSON",
        "streetDirectionId": "N",
        "streetTypeId": "ST",
        "placeName": "THUNDER BAY",
        "streetNameDisplayText": "SIMPSON ST N, THUNDER BAY"
      },
      {
        "electoralDistricts": [
          {
            "election": null,
            "id": 105,
            "name": "Thunder Bay—Atikokan"
          }
        ],
        "pollDivisionIds": [
          10142333
        ],
        "postalCode": "P7C3K2",
        "streetName": "SIMPSON",
        "streetDirectionId": null,
        "streetTypeId": "ST",
        "placeName": "THUNDER BAY",
        "streetNameDisplayText": "SIMPSON ST, THUNDER BAY"
      }
    ]
  },
  {
    "postal": "P7C1Y5",
    "result": [
      {
        "electoralDistricts": [
          {
            "election": null,
            "id": 105,
            "name": "Thunder Bay—Atikokan"
          }
        ],
        "pollDivisionIds": [
          10142319
        ],
        "postalCode": "P7C1Y5",
        "streetName": "PINEVIEW",
        "streetDirectionId": null,
        "streetTypeId": "BAY",
        "placeName": "THUNDER BAY",
        "streetNameDisplayText": "PINEVIEW BAY, THUNDER BAY"
      }
    ]
  },
  {
    "postal": "P7C6P6",
    "result": []
  },
  {
    "postal": "P7C3N9",
    "result": [
      {
        "electoralDistricts": [
          {
            "election": null,
            "id": 105,
            "name": "Thunder Bay—Atikokan"
          }
        ],
        "pollDivisionIds": [
          10142330
        ],
        "postalCode": "P7C3N9",
        "streetName": "MAY",
        "streetDirectionId": "N",
        "streetTypeId": "ST",
        "placeName": "THUNDER BAY",
        "streetNameDisplayText": "MAY ST N, THUNDER BAY"
      }
    ]
  },
  {
    "postal": "P7C3W2",
    "result": [
      {
        "electoralDistricts": [
          {
            "election": null,
            "id": 105,
            "name": "Thunder Bay—Atikokan"
          }
        ],
        "pollDivisionIds": [
          10142329
        ],
        "postalCode": "P7C3W2",
        "streetName": "SYNDICATE",
        "streetDirectionId": "N",
        "streetTypeId": "AVE",
        "placeName": "THUNDER BAY",
        "streetNameDisplayText": "SYNDICATE AVE N, THUNDER BAY"
      }
    ]
  },
  {
    "postal": "P7C6H8",
    "result": []
  },
  {
    "postal": "P7C9T3",
    "result": []
  },
  {
    "postal": "P7C5L9",
    "result": [
      {
        "electoralDistricts": [
          {
            "election": null,
            "id": 105,
            "name": "Thunder Bay—Atikokan"
          }
        ],
        "pollDivisionIds": [
          10142312
        ],
        "postalCode": "P7C5L9",
        "streetName": "LAMBTON",
        "streetDirectionId": null,
        "streetTypeId": "PL",
        "placeName": "THUNDER BAY",
        "streetNameDisplayText": "LAMBTON PL, THUNDER BAY"
      }
    ]
  },
  {
    "postal": "P7C7X7",
    "result": []
  },
  {
    "postal": "P7C3J5",
    "result": [
      {
        "electoralDistricts": [
          {
            "election": null,
            "id": 105,
            "name": "Thunder Bay—Atikokan"
          }
        ],
        "pollDivisionIds": [
          10142333
        ],
        "postalCode": "P7C3J5",
        "streetName": "SIMPSON",
        "streetDirectionId": "N",
        "streetTypeId": "ST",
        "placeName": "THUNDER BAY",
        "streetNameDisplayText": "SIMPSON ST N, THUNDER BAY"
      },
      {
        "electoralDistricts": [
          {
            "election": null,
            "id": 105,
            "name": "Thunder Bay—Atikokan"
          }
        ],
        "pollDivisionIds": [
          10142333
        ],
        "postalCode": "P7C3J5",
        "streetName": "SIMPSON",
        "streetDirectionId": null,
        "streetTypeId": "ST",
        "placeName": "THUNDER BAY",
        "streetNameDisplayText": "SIMPSON ST, THUNDER BAY"
      }
    ]
  },
  {
    "postal": "P7C4J5",
    "result": [
      {
        "electoralDistricts": [
          {
            "election": null,
            "id": 105,
            "name": "Thunder Bay—Atikokan"
          }
        ],
        "pollDivisionIds": [
          10142327
        ],
        "postalCode": "P7C4J5",
        "streetName": "BALMORAL",
        "streetDirectionId": null,
        "streetTypeId": "ST",
        "placeName": "THUNDER BAY",
        "streetNameDisplayText": "BALMORAL ST, THUNDER BAY"
      }
    ]
  },
  {
    "postal": "P7C6J2",
    "result": []
  },
  {
    "postal": "P7C5V6",
    "result": [
      {
        "electoralDistricts": [
          {
            "election": null,
            "id": 105,
            "name": "Thunder Bay—Atikokan"
          }
        ],
        "pollDivisionIds": [
          10142312
        ],
        "postalCode": "P7C5V6",
        "streetName": "TRINITY",
        "streetDirectionId": null,
        "streetTypeId": "CRES",
        "placeName": "THUNDER BAY",
        "streetNameDisplayText": "TRINITY CRES, THUNDER BAY"
      }
    ]
  },
  {
    "postal": "P7C3N2",
    "result": [
      {
        "electoralDistricts": [
          {
            "election": null,
            "id": 105,
            "name": "Thunder Bay—Atikokan"
          }
        ],
        "pollDivisionIds": [
          10142333
        ],
        "postalCode": "P7C3N2",
        "streetName": "WILEY",
        "streetDirectionId": null,
        "streetTypeId": "ST",
        "placeName": "THUNDER BAY",
        "streetNameDisplayText": "WILEY ST, THUNDER BAY"
      }
    ]
  },
  {
    "postal": "P7C3B1",
    "result": [
      {
        "electoralDistricts": [
          {
            "election": null,
            "id": 105,
            "name": "Thunder Bay—Atikokan"
          }
        ],
        "pollDivisionIds": [
          10142335
        ],
        "postalCode": "P7C3B1",
        "streetName": "MCINTOSH",
        "streetDirectionId": null,
        "streetTypeId": "ST",
        "placeName": "THUNDER BAY",
        "streetNameDisplayText": "MCINTOSH ST, THUNDER BAY"
      }
    ]
  },
  {
    "postal": "P7C8B5",
    "result": []
  },
  {
    "postal": "P7C0K1",
    "result": []
  },
  {
    "postal": "P7C7M7",
    "result": []
  },
  {
    "postal": "P7C2M2",
    "result": [
      {
        "electoralDistricts": [
          {
            "election": null,
            "id": 105,
            "name": "Thunder Bay—Atikokan"
          }
        ],
        "pollDivisionIds": [
          10142333
        ],
        "postalCode": "P7C2M2",
        "streetName": "HERON",
        "streetDirectionId": null,
        "streetTypeId": "ST",
        "placeName": "THUNDER BAY",
        "streetNameDisplayText": "HERON ST, THUNDER BAY"
      }
    ]
  },
  {
    "postal": "P7C9N3",
    "result": []
  },
  {
    "postal": "P7C4Y8",
    "result": []
  },
  {
    "postal": "P7C3V7",
    "result": [
      {
        "electoralDistricts": [
          {
            "election": null,
            "id": 105,
            "name": "Thunder Bay—Atikokan"
          }
        ],
        "pollDivisionIds": [
          10142330
        ],
        "postalCode": "P7C3V7",
        "streetName": "SYNDICATE",
        "streetDirectionId": "N",
        "streetTypeId": "AVE",
        "placeName": "THUNDER BAY",
        "streetNameDisplayText": "SYNDICATE AVE N, THUNDER BAY"
      },
      {
        "electoralDistricts": [
          {
            "election": null,
            "id": 105,
            "name": "Thunder Bay—Atikokan"
          }
        ],
        "pollDivisionIds": [
          10142330
        ],
        "postalCode": "P7C3V7",
        "streetName": "SYNDICATE",
        "streetDirectionId": "S",
        "streetTypeId": "AVE",
        "placeName": "THUNDER BAY",
        "streetNameDisplayText": "SYNDICATE AVE S, THUNDER BAY"
      }
    ]
  },
  {
    "postal": "P7C8Z1",
    "result": []
  },
  {
    "postal": "P7C7B3",
    "result": []
  },
  {
    "postal": "P7C3A8",
    "result": [
      {
        "electoralDistricts": [
          {
            "election": null,
            "id": 105,
            "name": "Thunder Bay—Atikokan"
          }
        ],
        "pollDivisionIds": [
          10142335
        ],
        "postalCode": "P7C3A8",
        "streetName": "MCINTOSH",
        "streetDirectionId": null,
        "streetTypeId": "ST",
        "placeName": "THUNDER BAY",
        "streetNameDisplayText": "MCINTOSH ST, THUNDER BAY"
      }
    ]
  },
  {
    "postal": "P7C7V5",
    "result": []
  },
  {
    "postal": "P7C2T2",
    "result": [
      {
        "electoralDistricts": [
          {
            "election": null,
            "id": 105,
            "name": "Thunder Bay—Atikokan"
          }
        ],
        "pollDivisionIds": [
          10142335
        ],
        "postalCode": "P7C2T2",
        "streetName": "ATLANTIC",
        "streetDirectionId": null,
        "streetTypeId": "AVE",
        "placeName": "THUNDER BAY",
        "streetNameDisplayText": "ATLANTIC AVE, THUNDER BAY"
      }
    ]
  },
  {
    "postal": "P7C6L3",
    "result": []
  },
  {
    "postal": "P7C0L2",
    "result": []
  },
  {
    "postal": "P7C5Y8",
    "result": [
      {
        "electoralDistricts": [
          {
            "election": null,
            "id": 105,
            "name": "Thunder Bay—Atikokan"
          }
        ],
        "pollDivisionIds": [
          10142308
        ],
        "postalCode": "P7C5Y8",
        "streetName": "CHURCHILL",
        "streetDirectionId": null,
        "streetTypeId": "PL",
        "placeName": "THUNDER BAY",
        "streetNameDisplayText": "CHURCHILL PL, THUNDER BAY"
      }
    ]
  },
  {
    "postal": "P7C0B8",
    "result": [
      {
        "electoralDistricts": [
          {
            "election": null,
            "id": 105,
            "name": "Thunder Bay—Atikokan"
          }
        ],
        "pollDivisionIds": [
          10142307
        ],
        "postalCode": "P7C0B8",
        "streetName": "COUGAR",
        "streetDirectionId": null,
        "streetTypeId": "CRES",
        "placeName": "THUNDER BAY",
        "streetNameDisplayText": "COUGAR CRES, THUNDER BAY"
      }
    ]
  },
  {
    "postal": "P7C6R5",
    "result": []
  },
  {
    "postal": "P7C8W6",
    "result": []
  },
  {
    "postal": "P7C8G6",
    "result": []
  },
  {
    "postal": "P7C6X3",
    "result": []
  },
  {
    "postal": "P7C7R7",
    "result": []
  },
  {
    "postal": "P7C4B6",
    "result": [
      {
        "electoralDistricts": [
          {
            "election": null,
            "id": 105,
            "name": "Thunder Bay—Atikokan"
          }
        ],
        "pollDivisionIds": [
          10142327,
          10142325
        ],
        "postalCode": "P7C4B6",
        "streetName": "VICKERS",
        "streetDirectionId": "N",
        "streetTypeId": "ST",
        "placeName": "THUNDER BAY",
        "streetNameDisplayText": "VICKERS ST N, THUNDER BAY"
      }
    ]
  },
  {
    "postal": "P7C3P9",
    "result": [
      {
        "electoralDistricts": [
          {
            "election": null,
            "id": 105,
            "name": "Thunder Bay—Atikokan"
          }
        ],
        "pollDivisionIds": [
          10142332,
          10142327
        ],
        "postalCode": "P7C3P9",
        "streetName": "MAY",
        "streetDirectionId": "N",
        "streetTypeId": "ST",
        "placeName": "THUNDER BAY",
        "streetNameDisplayText": "MAY ST N, THUNDER BAY"
      }
    ]
  },
  {
    "postal": "P7C2T3",
    "result": [
      {
        "electoralDistricts": [
          {
            "election": null,
            "id": 105,
            "name": "Thunder Bay—Atikokan"
          }
        ],
        "pollDivisionIds": [
          10142335
        ],
        "postalCode": "P7C2T3",
        "streetName": "ATLANTIC",
        "streetDirectionId": null,
        "streetTypeId": "AVE",
        "placeName": "THUNDER BAY",
        "streetNameDisplayText": "ATLANTIC AVE, THUNDER BAY"
      }
    ]
  },
  {
    "postal": "P7C1M4",
    "result": [
      {
        "electoralDistricts": [
          {
            "election": null,
            "id": 105,
            "name": "Thunder Bay—Atikokan"
          }
        ],
        "pollDivisionIds": [
          10142309
        ],
        "postalCode": "P7C1M4",
        "streetName": "FRONTENAC",
        "streetDirectionId": null,
        "streetTypeId": "BAY",
        "placeName": "THUNDER BAY",
        "streetNameDisplayText": "FRONTENAC BAY, THUNDER BAY"
      }
    ]
  },
  {
    "postal": "P7C0H1",
    "result": []
  },
  {
    "postal": "P7C9W3",
    "result": []
  },
  {
    "postal": "P7C6P1",
    "result": []
  },
  {
    "postal": "P7C7G2",
    "result": []
  },
  {
    "postal": "P7C4J9",
    "result": [
      {
        "electoralDistricts": [
          {
            "election": null,
            "id": 105,
            "name": "Thunder Bay—Atikokan"
          }
        ],
        "pollDivisionIds": [
          10142322
        ],
        "postalCode": "P7C4J9",
        "streetName": "SELKIRK",
        "streetDirectionId": "N",
        "streetTypeId": "ST",
        "placeName": "THUNDER BAY",
        "streetNameDisplayText": "SELKIRK ST N, THUNDER BAY"
      }
    ]
  },
  {
    "postal": "P7C9E4",
    "result": []
  },
  {
    "postal": "P7C8H0",
    "result": []
  },
  {
    "postal": "P7C4M7",
    "result": [
      {
        "electoralDistricts": [
          {
            "election": null,
            "id": 105,
            "name": "Thunder Bay—Atikokan"
          }
        ],
        "pollDivisionIds": [
          10142319
        ],
        "postalCode": "P7C4M7",
        "streetName": "WESTMINSTER",
        "streetDirectionId": null,
        "streetTypeId": "ST",
        "placeName": "THUNDER BAY",
        "streetNameDisplayText": "WESTMINSTER ST, THUNDER BAY"
      }
    ]
  },
  {
    "postal": "P7C2G9",
    "result": [
      {
        "electoralDistricts": [
          {
            "election": null,
            "id": 105,
            "name": "Thunder Bay—Atikokan"
          }
        ],
        "pollDivisionIds": [
          10142332
        ],
        "postalCode": "P7C2G9",
        "streetName": "CAMERON",
        "streetDirectionId": null,
        "streetTypeId": "ST",
        "placeName": "THUNDER BAY",
        "streetNameDisplayText": "CAMERON ST, THUNDER BAY"
      }
    ]
  },
  {
    "postal": "P7C8T2",
    "result": []
  },
  {
    "postal": "P7C7G7",
    "result": []
  },
  {
    "postal": "P7C4Z3",
    "result": [
      {
        "electoralDistricts": [
          {
            "election": null,
            "id": 105,
            "name": "Thunder Bay—Atikokan"
          }
        ],
        "pollDivisionIds": [
          10142333
        ],
        "postalCode": "P7C4Z3",
        "streetName": "MCKENZIE",
        "streetDirectionId": null,
        "streetTypeId": "ST",
        "placeName": "THUNDER BAY",
        "streetNameDisplayText": "MCKENZIE ST, THUNDER BAY"
      }
    ]
  },
  {
    "postal": "P7C5B3",
    "result": [
      {
        "electoralDistricts": [
          {
            "election": null,
            "id": 105,
            "name": "Thunder Bay—Atikokan"
          }
        ],
        "pollDivisionIds": [
          10142308
        ],
        "postalCode": "P7C5B3",
        "streetName": "SIMON FRASER",
        "streetDirectionId": null,
        "streetTypeId": "DR",
        "placeName": "THUNDER BAY",
        "streetNameDisplayText": "SIMON FRASER DR, THUNDER BAY"
      }
    ]
  },
  {
    "postal": "P7C1S7",
    "result": [
      {
        "electoralDistricts": [
          {
            "election": null,
            "id": 105,
            "name": "Thunder Bay—Atikokan"
          }
        ],
        "pollDivisionIds": [
          10142319
        ],
        "postalCode": "P7C1S7",
        "streetName": "SILLESDALE",
        "streetDirectionId": null,
        "streetTypeId": "CRES",
        "placeName": "THUNDER BAY",
        "streetNameDisplayText": "SILLESDALE CRES, THUNDER BAY"
      }
    ]
  },
  {
    "postal": "P7C2N7",
    "result": [
      {
        "electoralDistricts": [
          {
            "election": null,
            "id": 105,
            "name": "Thunder Bay—Atikokan"
          }
        ],
        "pollDivisionIds": [
          10142333
        ],
        "postalCode": "P7C2N7",
        "streetName": "ROBERTSON",
        "streetDirectionId": null,
        "streetTypeId": "ST",
        "placeName": "THUNDER BAY",
        "streetNameDisplayText": "ROBERTSON ST, THUNDER BAY"
      }
    ]
  },
  {
    "postal": "P7C0H8",
    "result": []
  },
  {
    "postal": "P7C7Z4",
    "result": []
  },
  {
    "postal": "P7C7B1",
    "result": []
  },
  {
    "postal": "P7C7P8",
    "result": []
  },
  {
    "postal": "P7C7N0",
    "result": []
  },
  {
    "postal": "P7C3Y5",
    "result": [
      {
        "electoralDistricts": [
          {
            "election": null,
            "id": 105,
            "name": "Thunder Bay—Atikokan"
          }
        ],
        "pollDivisionIds": [
          10142329
        ],
        "postalCode": "P7C3Y5",
        "streetName": "ARCHIBALD",
        "streetDirectionId": "N",
        "streetTypeId": "ST",
        "placeName": "THUNDER BAY",
        "streetNameDisplayText": "ARCHIBALD ST N, THUNDER BAY"
      },
      {
        "electoralDistricts": [
          {
            "election": null,
            "id": 105,
            "name": "Thunder Bay—Atikokan"
          }
        ],
        "pollDivisionIds": [
          10142328
        ],
        "postalCode": "P7C3Y5",
        "streetName": "ARCHIBALD",
        "streetDirectionId": "S",
        "streetTypeId": "ST",
        "placeName": "THUNDER BAY",
        "streetNameDisplayText": "ARCHIBALD ST S, THUNDER BAY"
      }
    ]
  },
  {
    "postal": "P7C6K1",
    "result": []
  },
  {
    "postal": "P7C9X5",
    "result": []
  },
  {
    "postal": "P7C7S5",
    "result": []
  },
  {
    "postal": "P7C0A4",
    "result": []
  },
  {
    "postal": "P7C4T5",
    "result": [
      {
        "electoralDistricts": [
          {
            "election": null,
            "id": 105,
            "name": "Thunder Bay—Atikokan"
          }
        ],
        "pollDivisionIds": [
          10142312
        ],
        "postalCode": "P7C4T5",
        "streetName": "JAMES",
        "streetDirectionId": "N",
        "streetTypeId": "ST",
        "placeName": "THUNDER BAY",
        "streetNameDisplayText": "JAMES ST N, THUNDER BAY"
      }
    ]
  },
  {
    "postal": "P7C5K1",
    "result": [
      {
        "electoralDistricts": [
          {
            "election": null,
            "id": 105,
            "name": "Thunder Bay—Atikokan"
          }
        ],
        "pollDivisionIds": [
          10142308
        ],
        "postalCode": "P7C5K1",
        "streetName": "LAURENTIAN",
        "streetDirectionId": null,
        "streetTypeId": "DR",
        "placeName": "THUNDER BAY",
        "streetNameDisplayText": "LAURENTIAN DR, THUNDER BAY"
      }
    ]
  },
  {
    "postal": "P7C0Z9",
    "result": []
  },
  {
    "postal": "P7C7T2",
    "result": []
  },
  {
    "postal": "P7C1L5",
    "result": [
      {
        "electoralDistricts": [
          {
            "election": null,
            "id": 105,
            "name": "Thunder Bay—Atikokan"
          }
        ],
        "pollDivisionIds": [
          10142316
        ],
        "postalCode": "P7C1L5",
        "streetName": "BIRCHWOOD",
        "streetDirectionId": null,
        "streetTypeId": "CRES",
        "placeName": "THUNDER BAY",
        "streetNameDisplayText": "BIRCHWOOD CRES, THUNDER BAY"
      }
    ]
  },
  {
    "postal": "P7C3N5",
    "result": [
      {
        "electoralDistricts": [
          {
            "election": null,
            "id": 105,
            "name": "Thunder Bay—Atikokan"
          }
        ],
        "pollDivisionIds": [
          10142333
        ],
        "postalCode": "P7C3N5",
        "streetName": "WILEY",
        "streetDirectionId": null,
        "streetTypeId": "ST",
        "placeName": "THUNDER BAY",
        "streetNameDisplayText": "WILEY ST, THUNDER BAY"
      }
    ]
  },
  {
    "postal": "P7C6H4",
    "result": []
  },
  {
    "postal": "P7C5A5",
    "result": []
  },
  {
    "postal": "P7C3R9",
    "result": [
      {
        "electoralDistricts": [
          {
            "election": null,
            "id": 105,
            "name": "Thunder Bay—Atikokan"
          }
        ],
        "pollDivisionIds": [
          10142330,
          10142333
        ],
        "postalCode": "P7C3R9",
        "streetName": "MAY",
        "streetDirectionId": "N",
        "streetTypeId": "ST",
        "placeName": "THUNDER BAY",
        "streetNameDisplayText": "MAY ST N, THUNDER BAY"
      }
    ]
  },
  {
    "postal": "P7C7L8",
    "result": []
  },
  {
    "postal": "P7C6T6",
    "result": []
  },
  {
    "postal": "P7C7Y7",
    "result": []
  },
  {
    "postal": "P7C3M8",
    "result": [
      {
        "electoralDistricts": [
          {
            "election": null,
            "id": 105,
            "name": "Thunder Bay—Atikokan"
          }
        ],
        "pollDivisionIds": [
          10142333
        ],
        "postalCode": "P7C3M8",
        "streetName": "PRINCE ARTHUR",
        "streetDirectionId": null,
        "streetTypeId": "BLVD",
        "placeName": "THUNDER BAY",
        "streetNameDisplayText": "PRINCE ARTHUR BLVD, THUNDER BAY"
      }
    ]
  },
  {
    "postal": "P7C2E0",
    "result": []
  },
  {
    "postal": "P7C4B5",
    "result": [
      {
        "electoralDistricts": [
          {
            "election": null,
            "id": 105,
            "name": "Thunder Bay—Atikokan"
          }
        ],
        "pollDivisionIds": [
          10142327
        ],
        "postalCode": "P7C4B5",
        "streetName": "VICKERS",
        "streetDirectionId": "N",
        "streetTypeId": "ST",
        "placeName": "THUNDER BAY",
        "streetNameDisplayText": "VICKERS ST N, THUNDER BAY"
      }
    ]
  },
  {
    "postal": "P7C1J3",
    "result": []
  },
  {
    "postal": "P7C5S6",
    "result": [
      {
        "electoralDistricts": [
          {
            "election": null,
            "id": 105,
            "name": "Thunder Bay—Atikokan"
          }
        ],
        "pollDivisionIds": [
          10142333
        ],
        "postalCode": "P7C5S6",
        "streetName": "HARDISTY",
        "streetDirectionId": "N",
        "streetTypeId": "ST",
        "placeName": "THUNDER BAY",
        "streetNameDisplayText": "HARDISTY ST N, THUNDER BAY"
      }
    ]
  },
  {
    "postal": "P7C8P7",
    "result": []
  },
  {
    "postal": "P7C7S7",
    "result": []
  },
  {
    "postal": "P7C4C2",
    "result": [
      {
        "electoralDistricts": [
          {
            "election": null,
            "id": 105,
            "name": "Thunder Bay—Atikokan"
          }
        ],
        "pollDivisionIds": [
          10142329
        ],
        "postalCode": "P7C4C2",
        "streetName": "HAROLD",
        "streetDirectionId": "N",
        "streetTypeId": "ST",
        "placeName": "THUNDER BAY",
        "streetNameDisplayText": "HAROLD ST N, THUNDER BAY"
      }
    ]
  },
  {
    "postal": "P7C5Y0",
    "result": []
  },
  {
    "postal": "P7C2V7",
    "result": [
      {
        "electoralDistricts": [
          {
            "election": null,
            "id": 105,
            "name": "Thunder Bay—Atikokan"
          }
        ],
        "pollDivisionIds": [
          10142333
        ],
        "postalCode": "P7C2V7",
        "streetName": "NORTHERN",
        "streetDirectionId": null,
        "streetTypeId": "AVE",
        "placeName": "THUNDER BAY",
        "streetNameDisplayText": "NORTHERN AVE, THUNDER BAY"
      }
    ]
  },
  {
    "postal": "P7C8P5",
    "result": []
  },
  {
    "postal": "P7C5P5",
    "result": [
      {
        "electoralDistricts": [
          {
            "election": null,
            "id": 105,
            "name": "Thunder Bay—Atikokan"
          }
        ],
        "pollDivisionIds": [
          10142312
        ],
        "postalCode": "P7C5P5",
        "streetName": "RYERSON",
        "streetDirectionId": null,
        "streetTypeId": "CRES",
        "placeName": "THUNDER BAY",
        "streetNameDisplayText": "RYERSON CRES, THUNDER BAY"
      }
    ]
  },
  {
    "postal": "P7C5Z0",
    "result": []
  },
  {
    "postal": "P7C9B0",
    "result": []
  },
  {
    "postal": "P7C1L0",
    "result": []
  },
  {
    "postal": "P7C0B5",
    "result": []
  },
  {
    "postal": "P7C3L2",
    "result": []
  },
  {
    "postal": "P7C3B7",
    "result": [
      {
        "electoralDistricts": [
          {
            "election": null,
            "id": 105,
            "name": "Thunder Bay—Atikokan"
          }
        ],
        "pollDivisionIds": [
          10142335
        ],
        "postalCode": "P7C3B7",
        "streetName": "MCLAUGHLIN",
        "streetDirectionId": null,
        "streetTypeId": "ST",
        "placeName": "THUNDER BAY",
        "streetNameDisplayText": "MCLAUGHLIN ST, THUNDER BAY"
      }
    ]
  },
  {
    "postal": "P7C8L1",
    "result": []
  },
  {
    "postal": "P7C5M4",
    "result": [
      {
        "electoralDistricts": [
          {
            "election": null,
            "id": 105,
            "name": "Thunder Bay—Atikokan"
          }
        ],
        "pollDivisionIds": [
          10142312
        ],
        "postalCode": "P7C5M4",
        "streetName": "SHERIDAN",
        "streetDirectionId": null,
        "streetTypeId": "CRES",
        "placeName": "THUNDER BAY",
        "streetNameDisplayText": "SHERIDAN CRES, THUNDER BAY"
      }
    ]
  },
  {
    "postal": "P7C4G9",
    "result": [
      {
        "electoralDistricts": [
          {
            "election": null,
            "id": 105,
            "name": "Thunder Bay—Atikokan"
          }
        ],
        "pollDivisionIds": [
          10142327
        ],
        "postalCode": "P7C4G9",
        "streetName": "NORAH",
        "streetDirectionId": "N",
        "streetTypeId": "ST",
        "placeName": "THUNDER BAY",
        "streetNameDisplayText": "NORAH ST N, THUNDER BAY"
      }
    ]
  },
  {
    "postal": "P7C0P0",
    "result": []
  },
  {
    "postal": "P7C8G2",
    "result": []
  },
  {
    "postal": "P7C1V9",
    "result": [
      {
        "electoralDistricts": [
          {
            "election": null,
            "id": 105,
            "name": "Thunder Bay—Atikokan"
          }
        ],
        "pollDivisionIds": [
          10142319
        ],
        "postalCode": "P7C1V9",
        "streetName": "CHURCHILL",
        "streetDirectionId": "W",
        "streetTypeId": "DR",
        "placeName": "THUNDER BAY",
        "streetNameDisplayText": "CHURCHILL DR W, THUNDER BAY"
      }
    ]
  },
  {
    "postal": "P7C8N8",
    "result": []
  },
  {
    "postal": "P7C6S8",
    "result": []
  },
  {
    "postal": "P7C8H2",
    "result": []
  },
  {
    "postal": "P7C5R8",
    "result": [
      {
        "electoralDistricts": [
          {
            "election": null,
            "id": 105,
            "name": "Thunder Bay—Atikokan"
          }
        ],
        "pollDivisionIds": [
          10142312
        ],
        "postalCode": "P7C5R8",
        "streetName": "RYERSON",
        "streetDirectionId": null,
        "streetTypeId": "CRES",
        "placeName": "THUNDER BAY",
        "streetNameDisplayText": "RYERSON CRES, THUNDER BAY"
      }
    ]
  },
  {
    "postal": "P7C5L4",
    "result": [
      {
        "electoralDistricts": [
          {
            "election": null,
            "id": 105,
            "name": "Thunder Bay—Atikokan"
          }
        ],
        "pollDivisionIds": [
          10142308
        ],
        "postalCode": "P7C5L4",
        "streetName": "THORNLOE",
        "streetDirectionId": null,
        "streetTypeId": "DR",
        "placeName": "THUNDER BAY",
        "streetNameDisplayText": "THORNLOE DR, THUNDER BAY"
      }
    ]
  },
  {
    "postal": "P7C9E1",
    "result": []
  },
  {
    "postal": "P7C1C4",
    "result": [
      {
        "electoralDistricts": [
          {
            "election": null,
            "id": 105,
            "name": "Thunder Bay—Atikokan"
          }
        ],
        "pollDivisionIds": [
          10142327
        ],
        "postalCode": "P7C1C4",
        "streetName": "VICTORIA",
        "streetDirectionId": "E",
        "streetTypeId": "AVE",
        "placeName": "THUNDER BAY",
        "streetNameDisplayText": "VICTORIA AVE E, THUNDER BAY"
      }
    ]
  },
  {
    "postal": "P7C8W5",
    "result": []
  },
  {
    "postal": "P7C1Y4",
    "result": [
      {
        "electoralDistricts": [
          {
            "election": null,
            "id": 105,
            "name": "Thunder Bay—Atikokan"
          }
        ],
        "pollDivisionIds": [
          10142319
        ],
        "postalCode": "P7C1Y4",
        "streetName": "PINEVIEW",
        "streetDirectionId": null,
        "streetTypeId": "BAY",
        "placeName": "THUNDER BAY",
        "streetNameDisplayText": "PINEVIEW BAY, THUNDER BAY"
      }
    ]
  },
  {
    "postal": "P7C1C0",
    "result": []
  },
  {
    "postal": "P7C2J2",
    "result": [
      {
        "electoralDistricts": [
          {
            "election": null,
            "id": 105,
            "name": "Thunder Bay—Atikokan"
          }
        ],
        "pollDivisionIds": [
          10142329
        ],
        "postalCode": "P7C2J2",
        "streetName": "DEASE",
        "streetDirectionId": null,
        "streetTypeId": "ST",
        "placeName": "THUNDER BAY",
        "streetNameDisplayText": "DEASE ST, THUNDER BAY"
      }
    ]
  },
  {
    "postal": "P7C2J0",
    "result": []
  },
  {
    "postal": "P7C7A3",
    "result": []
  },
  {
    "postal": "P7C8M1",
    "result": []
  },
  {
    "postal": "P7C7T9",
    "result": []
  },
  {
    "postal": "P7C6C0",
    "result": []
  },
  {
    "postal": "P7C7X1",
    "result": []
  },
  {
    "postal": "P7C0G1",
    "result": []
  },
  {
    "postal": "P7C4X2",
    "result": []
  },
  {
    "postal": "P7C0N6",
    "result": []
  },
  {
    "postal": "P7C8E3",
    "result": []
  },
  {
    "postal": "P7C5S8",
    "result": []
  },
  {
    "postal": "P7C0R0",
    "result": []
  },
  {
    "postal": "P7C6J6",
    "result": []
  },
  {
    "postal": "P7C4B4",
    "result": [
      {
        "electoralDistricts": [
          {
            "election": null,
            "id": 105,
            "name": "Thunder Bay—Atikokan"
          }
        ],
        "pollDivisionIds": [
          10142327
        ],
        "postalCode": "P7C4B4",
        "streetName": "VICKERS",
        "streetDirectionId": "N",
        "streetTypeId": "ST",
        "placeName": "THUNDER BAY",
        "streetNameDisplayText": "VICKERS ST N, THUNDER BAY"
      }
    ]
  },
  {
    "postal": "P7C7E3",
    "result": []
  },
  {
    "postal": "P7C3N6",
    "result": [
      {
        "electoralDistricts": [
          {
            "election": null,
            "id": 105,
            "name": "Thunder Bay—Atikokan"
          }
        ],
        "pollDivisionIds": [
          10142333
        ],
        "postalCode": "P7C3N6",
        "streetName": "WILEY",
        "streetDirectionId": null,
        "streetTypeId": "ST",
        "placeName": "THUNDER BAY",
        "streetNameDisplayText": "WILEY ST, THUNDER BAY"
      }
    ]
  },
  {
    "postal": "P7C3X6",
    "result": [
      {
        "electoralDistricts": [
          {
            "election": null,
            "id": 105,
            "name": "Thunder Bay—Atikokan"
          }
        ],
        "pollDivisionIds": [
          10142327
        ],
        "postalCode": "P7C3X6",
        "streetName": "SYNDICATE",
        "streetDirectionId": "N",
        "streetTypeId": "AVE",
        "placeName": "THUNDER BAY",
        "streetNameDisplayText": "SYNDICATE AVE N, THUNDER BAY"
      }
    ]
  },
  {
    "postal": "P7C8L0",
    "result": []
  },
  {
    "postal": "P7C8N1",
    "result": []
  },
  {
    "postal": "P7C4J0",
    "result": []
  },
  {
    "postal": "P7C0X7",
    "result": []
  },
  {
    "postal": "P7C6S4",
    "result": []
  },
  {
    "postal": "P7C0Z0",
    "result": []
  },
  {
    "postal": "P7C9X8",
    "result": []
  },
  {
    "postal": "P7C3H3",
    "result": [
      {
        "electoralDistricts": [
          {
            "election": null,
            "id": 105,
            "name": "Thunder Bay—Atikokan"
          }
        ],
        "pollDivisionIds": [
          10142332
        ],
        "postalCode": "P7C3H3",
        "streetName": "SIMPSON",
        "streetDirectionId": "N",
        "streetTypeId": "ST",
        "placeName": "THUNDER BAY",
        "streetNameDisplayText": "SIMPSON ST N, THUNDER BAY"
      },
      {
        "electoralDistricts": [
          {
            "election": null,
            "id": 105,
            "name": "Thunder Bay—Atikokan"
          }
        ],
        "pollDivisionIds": [
          10142332
        ],
        "postalCode": "P7C3H3",
        "streetName": "SIMPSON",
        "streetDirectionId": null,
        "streetTypeId": "ST",
        "placeName": "THUNDER BAY",
        "streetNameDisplayText": "SIMPSON ST, THUNDER BAY"
      }
    ]
  },
  {
    "postal": "P7C7S2",
    "result": []
  },
  {
    "postal": "P7C3T3",
    "result": [
      {
        "electoralDistricts": [
          {
            "election": null,
            "id": 105,
            "name": "Thunder Bay—Atikokan"
          }
        ],
        "pollDivisionIds": [
          10142329
        ],
        "postalCode": "P7C3T3",
        "streetName": "BRODIE",
        "streetDirectionId": "N",
        "streetTypeId": "ST",
        "placeName": "THUNDER BAY",
        "streetNameDisplayText": "BRODIE ST N, THUNDER BAY"
      }
    ]
  },
  {
    "postal": "P7C9P3",
    "result": []
  },
  {
    "postal": "P7C4H8",
    "result": [
      {
        "electoralDistricts": [
          {
            "election": null,
            "id": 105,
            "name": "Thunder Bay—Atikokan"
          }
        ],
        "pollDivisionIds": [
          10142327
        ],
        "postalCode": "P7C4H8",
        "streetName": "FRANKLIN",
        "streetDirectionId": "N",
        "streetTypeId": "ST",
        "placeName": "THUNDER BAY",
        "streetNameDisplayText": "FRANKLIN ST N, THUNDER BAY"
      }
    ]
  },
  {
    "postal": "P7C6R1",
    "result": []
  },
  {
    "postal": "P7C1S0",
    "result": []
  },
  {
    "postal": "P7C3W8",
    "result": [
      {
        "electoralDistricts": [
          {
            "election": null,
            "id": 105,
            "name": "Thunder Bay—Atikokan"
          }
        ],
        "pollDivisionIds": [
          10142327
        ],
        "postalCode": "P7C3W8",
        "streetName": "SYNDICATE",
        "streetDirectionId": "N",
        "streetTypeId": "AVE",
        "placeName": "THUNDER BAY",
        "streetNameDisplayText": "SYNDICATE AVE N, THUNDER BAY"
      }
    ]
  },
  {
    "postal": "P7C4S3",
    "result": [
      {
        "electoralDistricts": [
          {
            "election": null,
            "id": 105,
            "name": "Thunder Bay—Atikokan"
          }
        ],
        "pollDivisionIds": [
          10142312
        ],
        "postalCode": "P7C4S3",
        "streetName": "LIMBRICK",
        "streetDirectionId": null,
        "streetTypeId": "ST",
        "placeName": "THUNDER BAY",
        "streetNameDisplayText": "LIMBRICK ST, THUNDER BAY"
      }
    ]
  },
  {
    "postal": "P7C1B6",
    "result": [
      {
        "electoralDistricts": [
          {
            "election": null,
            "id": 105,
            "name": "Thunder Bay—Atikokan"
          }
        ],
        "pollDivisionIds": [
          10142326
        ],
        "postalCode": "P7C1B6",
        "streetName": "VICTORIA",
        "streetDirectionId": "E",
        "streetTypeId": "AVE",
        "placeName": "THUNDER BAY",
        "streetNameDisplayText": "VICTORIA AVE E, THUNDER BAY"
      }
    ]
  },
  {
    "postal": "P7C8R3",
    "result": []
  },
  {
    "postal": "P7C4V9",
    "result": []
  },
  {
    "postal": "P7C9W4",
    "result": []
  },
  {
    "postal": "P7C3T4",
    "result": [
      {
        "electoralDistricts": [
          {
            "election": null,
            "id": 105,
            "name": "Thunder Bay—Atikokan"
          }
        ],
        "pollDivisionIds": [
          10142327
        ],
        "postalCode": "P7C3T4",
        "streetName": "BRODIE",
        "streetDirectionId": "N",
        "streetTypeId": "ST",
        "placeName": "THUNDER BAY",
        "streetNameDisplayText": "BRODIE ST N, THUNDER BAY"
      }
    ]
  },
  {
    "postal": "P7C5C7",
    "result": [
      {
        "electoralDistricts": [
          {
            "election": null,
            "id": 105,
            "name": "Thunder Bay—Atikokan"
          }
        ],
        "pollDivisionIds": [
          10142319
        ],
        "postalCode": "P7C5C7",
        "streetName": "PARKWAY",
        "streetDirectionId": null,
        "streetTypeId": "DR",
        "placeName": "THUNDER BAY",
        "streetNameDisplayText": "PARKWAY DR, THUNDER BAY"
      }
    ]
  },
  {
    "postal": "P7C3Y1",
    "result": [
      {
        "electoralDistricts": [
          {
            "election": null,
            "id": 105,
            "name": "Thunder Bay—Atikokan"
          }
        ],
        "pollDivisionIds": [
          10142330
        ],
        "postalCode": "P7C3Y1",
        "streetName": "ARCHIBALD",
        "streetDirectionId": "N",
        "streetTypeId": "ST",
        "placeName": "THUNDER BAY",
        "streetNameDisplayText": "ARCHIBALD ST N, THUNDER BAY"
      }
    ]
  },
  {
    "postal": "P7C5V0",
    "result": []
  },
  {
    "postal": "P7C8G8",
    "result": []
  },
  {
    "postal": "P7C8B1",
    "result": []
  },
  {
    "postal": "P7C4P5",
    "result": [
      {
        "electoralDistricts": [
          {
            "election": null,
            "id": 105,
            "name": "Thunder Bay—Atikokan"
          }
        ],
        "pollDivisionIds": [
          10142319
        ],
        "postalCode": "P7C4P5",
        "streetName": "EDWARD",
        "streetDirectionId": "N",
        "streetTypeId": "ST",
        "placeName": "THUNDER BAY",
        "streetNameDisplayText": "EDWARD ST N, THUNDER BAY"
      }
    ]
  },
  {
    "postal": "P7C7B2",
    "result": []
  },
  {
    "postal": "P7C0R2",
    "result": []
  },
  {
    "postal": "P7C4M4",
    "result": [
      {
        "electoralDistricts": [
          {
            "election": null,
            "id": 105,
            "name": "Thunder Bay—Atikokan"
          }
        ],
        "pollDivisionIds": [
          10142319
        ],
        "postalCode": "P7C4M4",
        "streetName": "WESTVIEW",
        "streetDirectionId": null,
        "streetTypeId": "PL",
        "placeName": "THUNDER BAY",
        "streetNameDisplayText": "WESTVIEW PL, THUNDER BAY"
      }
    ]
  },
  {
    "postal": "P7C7M4",
    "result": []
  },
  {
    "postal": "P7C9S7",
    "result": []
  },
  {
    "postal": "P7C5Z7",
    "result": []
  },
  {
    "postal": "P7C7J7",
    "result": []
  },
  {
    "postal": "P7C8R8",
    "result": []
  },
  {
    "postal": "P7C9X1",
    "result": []
  },
  {
    "postal": "P7C5M9",
    "result": [
      {
        "electoralDistricts": [
          {
            "election": null,
            "id": 105,
            "name": "Thunder Bay—Atikokan"
          }
        ],
        "pollDivisionIds": [
          10142297,
          10142292,
          10142291
        ],
        "postalCode": "P7C5M9",
        "streetName": "11/17",
        "streetDirectionId": null,
        "streetTypeId": "HWY",
        "placeName": "THUNDER BAY",
        "streetNameDisplayText": "11/17 HWY, THUNDER BAY"
      },
      {
        "electoralDistricts": [
          {
            "election": null,
            "id": 105,
            "name": "Thunder Bay—Atikokan"
          }
        ],
        "pollDivisionIds": [
          10142291,
          10142297,
          10142292
        ],
        "postalCode": "P7C5M9",
        "streetName": "11+17",
        "streetDirectionId": null,
        "streetTypeId": "HWY",
        "placeName": "THUNDER BAY",
        "streetNameDisplayText": "11+17 HWY, THUNDER BAY"
      },
      {
        "electoralDistricts": [
          {
            "election": null,
            "id": 105,
            "name": "Thunder Bay—Atikokan"
          }
        ],
        "pollDivisionIds": [
          10142284,
          10142297
        ],
        "postalCode": "P7C5M9",
        "streetName": "17",
        "streetDirectionId": null,
        "streetTypeId": "HWY",
        "placeName": "THUNDER BAY",
        "streetNameDisplayText": "17 HWY, THUNDER BAY"
      },
      {
        "electoralDistricts": [
          {
            "election": null,
            "id": 105,
            "name": "Thunder Bay—Atikokan"
          }
        ],
        "pollDivisionIds": [
          10142297
        ],
        "postalCode": "P7C5M9",
        "streetName": "BIRCH",
        "streetDirectionId": null,
        "streetTypeId": "LANE",
        "placeName": "THUNDER BAY",
        "streetNameDisplayText": "BIRCH LANE, THUNDER BAY"
      },
      {
        "electoralDistricts": [
          {
            "election": null,
            "id": 105,
            "name": "Thunder Bay—Atikokan"
          }
        ],
        "pollDivisionIds": [
          10142297
        ],
        "postalCode": "P7C5M9",
        "streetName": "BLIND LINE",
        "streetDirectionId": null,
        "streetTypeId": "RD",
        "placeName": "THUNDER BAY",
        "streetNameDisplayText": "BLIND LINE RD, THUNDER BAY"
      },
      {
        "electoralDistricts": [
          {
            "election": null,
            "id": 105,
            "name": "Thunder Bay—Atikokan"
          }
        ],
        "pollDivisionIds": [
          10142297
        ],
        "postalCode": "P7C5M9",
        "streetName": "BLINDLINE",
        "streetDirectionId": null,
        "streetTypeId": "RD",
        "placeName": "THUNDER BAY",
        "streetNameDisplayText": "BLINDLINE RD, THUNDER BAY"
      },
      {
        "electoralDistricts": [
          {
            "election": null,
            "id": 105,
            "name": "Thunder Bay—Atikokan"
          }
        ],
        "pollDivisionIds": [
          10142297
        ],
        "postalCode": "P7C5M9",
        "streetName": "CEDAR",
        "streetDirectionId": null,
        "streetTypeId": "LANE",
        "placeName": "THUNDER BAY",
        "streetNameDisplayText": "CEDAR LANE, THUNDER BAY"
      },
      {
        "electoralDistricts": [
          {
            "election": null,
            "id": 105,
            "name": "Thunder Bay—Atikokan"
          }
        ],
        "pollDivisionIds": [
          10142297
        ],
        "postalCode": "P7C5M9",
        "streetName": "FRASER",
        "streetDirectionId": null,
        "streetTypeId": "RD",
        "placeName": "THUNDER BAY",
        "streetNameDisplayText": "FRASER RD, THUNDER BAY"
      },
      {
        "electoralDistricts": [
          {
            "election": null,
            "id": 105,
            "name": "Thunder Bay—Atikokan"
          }
        ],
        "pollDivisionIds": [
          10142297
        ],
        "postalCode": "P7C5M9",
        "streetName": "HARSTONE",
        "streetDirectionId": null,
        "streetTypeId": "DR",
        "placeName": "THUNDER BAY",
        "streetNameDisplayText": "HARSTONE DR, THUNDER BAY"
      },
      {
        "electoralDistricts": [
          {
            "election": null,
            "id": 105,
            "name": "Thunder Bay—Atikokan"
          }
        ],
        "pollDivisionIds": [
          10142297
        ],
        "postalCode": "P7C5M9",
        "streetName": "JELLY",
        "streetDirectionId": null,
        "streetTypeId": "RD",
        "placeName": "THUNDER BAY",
        "streetNameDisplayText": "JELLY RD, THUNDER BAY"
      },
      {
        "electoralDistricts": [
          {
            "election": null,
            "id": 105,
            "name": "Thunder Bay—Atikokan"
          }
        ],
        "pollDivisionIds": [
          10142292
        ],
        "postalCode": "P7C5M9",
        "streetName": "LEGION",
        "streetDirectionId": null,
        "streetTypeId": "DR",
        "placeName": "THUNDER BAY",
        "streetNameDisplayText": "LEGION DR, THUNDER BAY"
      },
      {
        "electoralDistricts": [
          {
            "election": null,
            "id": 105,
            "name": "Thunder Bay—Atikokan"
          }
        ],
        "pollDivisionIds": [
          10142297
        ],
        "postalCode": "P7C5M9",
        "streetName": "MAPLE",
        "streetDirectionId": null,
        "streetTypeId": "ST",
        "placeName": "THUNDER BAY",
        "streetNameDisplayText": "MAPLE ST, THUNDER BAY"
      },
      {
        "electoralDistricts": [
          {
            "election": null,
            "id": 105,
            "name": "Thunder Bay—Atikokan"
          }
        ],
        "pollDivisionIds": [
          10142297
        ],
        "postalCode": "P7C5M9",
        "streetName": "MCFARLANE",
        "streetDirectionId": null,
        "streetTypeId": "RD",
        "placeName": "THUNDER BAY",
        "streetNameDisplayText": "MCFARLANE RD, THUNDER BAY"
      },
      {
        "electoralDistricts": [
          {
            "election": null,
            "id": 105,
            "name": "Thunder Bay—Atikokan"
          }
        ],
        "pollDivisionIds": [
          10142292
        ],
        "postalCode": "P7C5M9",
        "streetName": "OAK LEAF",
        "streetDirectionId": null,
        "streetTypeId": "DR",
        "placeName": "THUNDER BAY",
        "streetNameDisplayText": "OAK LEAF DR, THUNDER BAY"
      },
      {
        "electoralDistricts": [
          {
            "election": null,
            "id": 105,
            "name": "Thunder Bay—Atikokan"
          }
        ],
        "pollDivisionIds": [
          10142291
        ],
        "postalCode": "P7C5M9",
        "streetName": "PEBBLE STONE",
        "streetDirectionId": null,
        "streetTypeId": "RD",
        "placeName": "THUNDER BAY",
        "streetNameDisplayText": "PEBBLE STONE RD, THUNDER BAY"
      },
      {
        "electoralDistricts": [
          {
            "election": null,
            "id": 105,
            "name": "Thunder Bay—Atikokan"
          }
        ],
        "pollDivisionIds": [
          10142291
        ],
        "postalCode": "P7C5M9",
        "streetName": "PEBBLESTONE",
        "streetDirectionId": null,
        "streetTypeId": "RD",
        "placeName": "THUNDER BAY",
        "streetNameDisplayText": "PEBBLESTONE RD, THUNDER BAY"
      },
      {
        "electoralDistricts": [
          {
            "election": null,
            "id": 105,
            "name": "Thunder Bay—Atikokan"
          }
        ],
        "pollDivisionIds": [
          10142297
        ],
        "postalCode": "P7C5M9",
        "streetName": "PENNOCK",
        "streetDirectionId": null,
        "streetTypeId": "DR",
        "placeName": "THUNDER BAY",
        "streetNameDisplayText": "PENNOCK DR, THUNDER BAY"
      },
      {
        "electoralDistricts": [
          {
            "election": null,
            "id": 105,
            "name": "Thunder Bay—Atikokan"
          }
        ],
        "pollDivisionIds": [
          10142297
        ],
        "postalCode": "P7C5M9",
        "streetName": "PINE",
        "streetDirectionId": null,
        "streetTypeId": "ST",
        "placeName": "THUNDER BAY",
        "streetNameDisplayText": "PINE ST, THUNDER BAY"
      },
      {
        "electoralDistricts": [
          {
            "election": null,
            "id": 105,
            "name": "Thunder Bay—Atikokan"
          }
        ],
        "pollDivisionIds": [
          10142292
        ],
        "postalCode": "P7C5M9",
        "streetName": "PINEVIEW",
        "streetDirectionId": null,
        "streetTypeId": "RD",
        "placeName": "THUNDER BAY",
        "streetNameDisplayText": "PINEVIEW RD, THUNDER BAY"
      },
      {
        "electoralDistricts": [
          {
            "election": null,
            "id": 105,
            "name": "Thunder Bay—Atikokan"
          }
        ],
        "pollDivisionIds": [
          10142297
        ],
        "postalCode": "P7C5M9",
        "streetName": "PINEWOOD",
        "streetDirectionId": null,
        "streetTypeId": "DR",
        "placeName": "THUNDER BAY",
        "streetNameDisplayText": "PINEWOOD DR, THUNDER BAY"
      },
      {
        "electoralDistricts": [
          {
            "election": null,
            "id": 105,
            "name": "Thunder Bay—Atikokan"
          }
        ],
        "pollDivisionIds": [
          10142296
        ],
        "postalCode": "P7C5M9",
        "streetName": "POINT DE MEURON",
        "streetDirectionId": null,
        "streetTypeId": "RD",
        "placeName": "MURILLO",
        "streetNameDisplayText": "POINT DE MEURON RD, MURILLO"
      },
      {
        "electoralDistricts": [
          {
            "election": null,
            "id": 105,
            "name": "Thunder Bay—Atikokan"
          }
        ],
        "pollDivisionIds": [
          10142296
        ],
        "postalCode": "P7C5M9",
        "streetName": "POINT DE MEURON",
        "streetDirectionId": null,
        "streetTypeId": "RD",
        "placeName": "THUNDER BAY",
        "streetNameDisplayText": "POINT DE MEURON RD, THUNDER BAY"
      },
      {
        "electoralDistricts": [
          {
            "election": null,
            "id": 105,
            "name": "Thunder Bay—Atikokan"
          }
        ],
        "pollDivisionIds": [
          10142296
        ],
        "postalCode": "P7C5M9",
        "streetName": "POLE LINE",
        "streetDirectionId": null,
        "streetTypeId": "RD",
        "placeName": "MURILLO",
        "streetNameDisplayText": "POLE LINE RD, MURILLO"
      },
      {
        "electoralDistricts": [
          {
            "election": null,
            "id": 105,
            "name": "Thunder Bay—Atikokan"
          }
        ],
        "pollDivisionIds": [
          10142297,
          10142291,
          10142296,
          10142301
        ],
        "postalCode": "P7C5M9",
        "streetName": "POLE LINE",
        "streetDirectionId": null,
        "streetTypeId": "RD",
        "placeName": "THUNDER BAY",
        "streetNameDisplayText": "POLE LINE RD, THUNDER BAY"
      },
      {
        "electoralDistricts": [
          {
            "election": null,
            "id": 105,
            "name": "Thunder Bay—Atikokan"
          }
        ],
        "pollDivisionIds": [
          10142297
        ],
        "postalCode": "P7C5M9",
        "streetName": "RIDLER",
        "streetDirectionId": null,
        "streetTypeId": "DR",
        "placeName": "THUNDER BAY",
        "streetNameDisplayText": "RIDLER DR, THUNDER BAY"
      },
      {
        "electoralDistricts": [
          {
            "election": null,
            "id": 105,
            "name": "Thunder Bay—Atikokan"
          }
        ],
        "pollDivisionIds": [
          10142297
        ],
        "postalCode": "P7C5M9",
        "streetName": "ROSSDALE",
        "streetDirectionId": null,
        "streetTypeId": "ST",
        "placeName": "THUNDER BAY",
        "streetNameDisplayText": "ROSSDALE ST, THUNDER BAY"
      },
      {
        "electoralDistricts": [
          {
            "election": null,
            "id": 105,
            "name": "Thunder Bay—Atikokan"
          }
        ],
        "pollDivisionIds": [
          10142300,
          10142297,
          10142306
        ],
        "postalCode": "P7C5M9",
        "streetName": "ROSSLYN",
        "streetDirectionId": null,
        "streetTypeId": "RD",
        "placeName": "THUNDER BAY",
        "streetNameDisplayText": "ROSSLYN RD, THUNDER BAY"
      },
      {
        "electoralDistricts": [
          {
            "election": null,
            "id": 105,
            "name": "Thunder Bay—Atikokan"
          }
        ],
        "pollDivisionIds": [
          10142300
        ],
        "postalCode": "P7C5M9",
        "streetName": "ROSSLYN",
        "streetDirectionId": null,
        "streetTypeId": "VILLGE",
        "placeName": "THUNDER BAY",
        "streetNameDisplayText": "ROSSLYN VILLGE, THUNDER BAY"
      },
      {
        "electoralDistricts": [
          {
            "election": null,
            "id": 105,
            "name": "Thunder Bay—Atikokan"
          }
        ],
        "pollDivisionIds": [
          10142297
        ],
        "postalCode": "P7C5M9",
        "streetName": "TWIN CITY CROSSRD",
        "streetDirectionId": null,
        "streetTypeId": null,
        "placeName": "THUNDER BAY",
        "streetNameDisplayText": "TWIN CITY CROSSRD, THUNDER BAY"
      },
      {
        "electoralDistricts": [
          {
            "election": null,
            "id": 105,
            "name": "Thunder Bay—Atikokan"
          }
        ],
        "pollDivisionIds": [
          10142297
        ],
        "postalCode": "P7C5M9",
        "streetName": "VIBERT",
        "streetDirectionId": null,
        "streetTypeId": "RD",
        "placeName": "THUNDER BAY",
        "streetNameDisplayText": "VIBERT RD, THUNDER BAY"
      },
      {
        "electoralDistricts": [
          {
            "election": null,
            "id": 105,
            "name": "Thunder Bay—Atikokan"
          }
        ],
        "pollDivisionIds": [
          10142297
        ],
        "postalCode": "P7C5M9",
        "streetName": "WING",
        "streetDirectionId": null,
        "streetTypeId": "RD",
        "placeName": "THUNDER BAY",
        "streetNameDisplayText": "WING RD, THUNDER BAY"
      }
    ]
  },
  {
    "postal": "P7C9B4",
    "result": []
  },
  {
    "postal": "P7C0L9",
    "result": []
  },
  {
    "postal": "P7C9G4",
    "result": []
  },
  {
    "postal": "P7C1J4",
    "result": []
  },
  {
    "postal": "P7C0W6",
    "result": []
  }
]
