[
  {
    "postal": "N7S9J6",
    "result": []
  },
  {
    "postal": "N7S9Z5",
    "result": []
  },
  {
    "postal": "N7S7H8",
    "result": []
  },
  {
    "postal": "N7S0P6",
    "result": []
  },
  {
    "postal": "N7S0S7",
    "result": []
  },
  {
    "postal": "N7S8B9",
    "result": []
  },
  {
    "postal": "N7S2A6",
    "result": [
      {
        "electoralDistricts": [
          {
            "election": null,
            "id": 91,
            "name": "Sarnia—Lambton"
          }
        ],
        "pollDivisionIds": [
          10141399
        ],
        "postalCode": "N7S2A6",
        "streetName": "HAY",
        "streetDirectionId": null,
        "streetTypeId": "ST",
        "placeName": "SARNIA",
        "streetNameDisplayText": "HAY ST, SARNIA"
      }
    ]
  },
  {
    "postal": "N7S7V2",
    "result": []
  },
  {
    "postal": "N7S9P4",
    "result": []
  },
  {
    "postal": "N7S6G0",
    "result": []
  },
  {
    "postal": "N7S2K0",
    "result": []
  },
  {
    "postal": "N7S7N6",
    "result": []
  },
  {
    "postal": "N7S5R3",
    "result": [
      {
        "electoralDistricts": [
          {
            "election": null,
            "id": 91,
            "name": "Sarnia—Lambton"
          }
        ],
        "pollDivisionIds": [
          10141400
        ],
        "postalCode": "N7S5R3",
        "streetName": "WILTSHIRE",
        "streetDirectionId": null,
        "streetTypeId": "DR",
        "placeName": "SARNIA",
        "streetNameDisplayText": "WILTSHIRE DR, SARNIA"
      }
    ]
  },
  {
    "postal": "N7S7K0",
    "result": []
  },
  {
    "postal": "N7S3R2",
    "result": [
      {
        "electoralDistricts": [
          {
            "election": null,
            "id": 91,
            "name": "Sarnia—Lambton"
          }
        ],
        "pollDivisionIds": [
          10141389
        ],
        "postalCode": "N7S3R2",
        "streetName": "CARL",
        "streetDirectionId": null,
        "streetTypeId": "ST",
        "placeName": "SARNIA",
        "streetNameDisplayText": "CARL ST, SARNIA"
      }
    ]
  },
  {
    "postal": "N7S0J1",
    "result": []
  },
  {
    "postal": "N7S0B0",
    "result": []
  },
  {
    "postal": "N7S5Z2",
    "result": [
      {
        "electoralDistricts": [
          {
            "election": null,
            "id": 91,
            "name": "Sarnia—Lambton"
          }
        ],
        "pollDivisionIds": [
          10141411
        ],
        "postalCode": "N7S5Z2",
        "streetName": "BRADFORD",
        "streetDirectionId": null,
        "streetTypeId": "DR",
        "placeName": "SARNIA",
        "streetNameDisplayText": "BRADFORD DR, SARNIA"
      }
    ]
  },
  {
    "postal": "N7S7P3",
    "result": []
  },
  {
    "postal": "N7S2K3",
    "result": [
      {
        "electoralDistricts": [
          {
            "election": null,
            "id": 91,
            "name": "Sarnia—Lambton"
          }
        ],
        "pollDivisionIds": [
          10141389
        ],
        "postalCode": "N7S2K3",
        "streetName": "WEBSTER",
        "streetDirectionId": null,
        "streetTypeId": "DR",
        "placeName": "SARNIA",
        "streetNameDisplayText": "WEBSTER DR, SARNIA"
      }
    ]
  },
  {
    "postal": "N7S7Y6",
    "result": []
  },
  {
    "postal": "N7S1L9",
    "result": [
      {
        "electoralDistricts": [
          {
            "election": null,
            "id": 91,
            "name": "Sarnia—Lambton"
          }
        ],
        "pollDivisionIds": [
          10141410
        ],
        "postalCode": "N7S1L9",
        "streetName": "GERMAIN",
        "streetDirectionId": null,
        "streetTypeId": "ST",
        "placeName": "SARNIA",
        "streetNameDisplayText": "GERMAIN ST, SARNIA"
      }
    ]
  },
  {
    "postal": "N7S8T0",
    "result": []
  },
  {
    "postal": "N7S3K8",
    "result": [
      {
        "electoralDistricts": [
          {
            "election": null,
            "id": 91,
            "name": "Sarnia—Lambton"
          }
        ],
        "pollDivisionIds": [
          10141395
        ],
        "postalCode": "N7S3K8",
        "streetName": "GIFFEL",
        "streetDirectionId": null,
        "streetTypeId": "RD",
        "placeName": "SARNIA",
        "streetNameDisplayText": "GIFFEL RD, SARNIA"
      }
    ]
  },
  {
    "postal": "N7S5W9",
    "result": [
      {
        "electoralDistricts": [
          {
            "election": null,
            "id": 91,
            "name": "Sarnia—Lambton"
          }
        ],
        "pollDivisionIds": [
          10141396,
          10141395
        ],
        "postalCode": "N7S5W9",
        "streetName": "ESSER",
        "streetDirectionId": null,
        "streetTypeId": "CRES",
        "placeName": "SARNIA",
        "streetNameDisplayText": "ESSER CRES, SARNIA"
      }
    ]
  },
  {
    "postal": "N7S6T9",
    "result": []
  },
  {
    "postal": "N7S4H1",
    "result": [
      {
        "electoralDistricts": [
          {
            "election": null,
            "id": 91,
            "name": "Sarnia—Lambton"
          }
        ],
        "pollDivisionIds": [
          10141412
        ],
        "postalCode": "N7S4H1",
        "streetName": "FROST",
        "streetDirectionId": null,
        "streetTypeId": "AVE",
        "placeName": "SARNIA",
        "streetNameDisplayText": "FROST AVE, SARNIA"
      }
    ]
  },
  {
    "postal": "N7S7A2",
    "result": []
  },
  {
    "postal": "N7S5G0",
    "result": []
  },
  {
    "postal": "N7S8V5",
    "result": []
  },
  {
    "postal": "N7S2Y8",
    "result": [
      {
        "electoralDistricts": [
          {
            "election": null,
            "id": 91,
            "name": "Sarnia—Lambton"
          }
        ],
        "pollDivisionIds": [
          10141395
        ],
        "postalCode": "N7S2Y8",
        "streetName": "MURPHY",
        "streetDirectionId": null,
        "streetTypeId": "RD",
        "placeName": "SARNIA",
        "streetNameDisplayText": "MURPHY RD, SARNIA"
      }
    ]
  },
  {
    "postal": "N7S2B6",
    "result": [
      {
        "electoralDistricts": [
          {
            "election": null,
            "id": 91,
            "name": "Sarnia—Lambton"
          }
        ],
        "pollDivisionIds": [
          10141395
        ],
        "postalCode": "N7S2B6",
        "streetName": "MICHIGAN",
        "streetDirectionId": null,
        "streetTypeId": "AVE",
        "placeName": "SARNIA",
        "streetNameDisplayText": "MICHIGAN AVE, SARNIA"
      }
    ]
  },
  {
    "postal": "N7S4W8",
    "result": [
      {
        "electoralDistricts": [
          {
            "election": null,
            "id": 91,
            "name": "Sarnia—Lambton"
          }
        ],
        "pollDivisionIds": [
          10141396
        ],
        "postalCode": "N7S4W8",
        "streetName": "MANOR PARK",
        "streetDirectionId": null,
        "streetTypeId": "CRES",
        "placeName": "SARNIA",
        "streetNameDisplayText": "MANOR PARK CRES, SARNIA"
      }
    ]
  },
  {
    "postal": "N7S8H7",
    "result": []
  },
  {
    "postal": "N7S5P1",
    "result": [
      {
        "electoralDistricts": [
          {
            "election": null,
            "id": 91,
            "name": "Sarnia—Lambton"
          }
        ],
        "pollDivisionIds": [
          10141415
        ],
        "postalCode": "N7S5P1",
        "streetName": "CONFEDERATION",
        "streetDirectionId": null,
        "streetTypeId": "ST",
        "placeName": "SARNIA",
        "streetNameDisplayText": "CONFEDERATION ST, SARNIA"
      }
    ]
  },
  {
    "postal": "N7S2B8",
    "result": [
      {
        "electoralDistricts": [
          {
            "election": null,
            "id": 91,
            "name": "Sarnia—Lambton"
          }
        ],
        "pollDivisionIds": [
          10141395
        ],
        "postalCode": "N7S2B8",
        "streetName": "SEVERIN",
        "streetDirectionId": "S",
        "streetTypeId": "DR",
        "placeName": "SARNIA",
        "streetNameDisplayText": "SEVERIN DR S, SARNIA"
      }
    ]
  },
  {
    "postal": "N7S0P2",
    "result": []
  },
  {
    "postal": "N7S9M1",
    "result": []
  },
  {
    "postal": "N7S3G0",
    "result": []
  },
  {
    "postal": "N7S9Z2",
    "result": []
  },
  {
    "postal": "N7S2A0",
    "result": []
  },
  {
    "postal": "N7S6Y0",
    "result": []
  },
  {
    "postal": "N7S2Z8",
    "result": [
      {
        "electoralDistricts": [
          {
            "election": null,
            "id": 91,
            "name": "Sarnia—Lambton"
          }
        ],
        "pollDivisionIds": [
          10141403
        ],
        "postalCode": "N7S2Z8",
        "streetName": "CARR",
        "streetDirectionId": null,
        "streetTypeId": "ST",
        "placeName": "SARNIA",
        "streetNameDisplayText": "CARR ST, SARNIA"
      }
    ]
  },
  {
    "postal": "N7S7Y3",
    "result": []
  },
  {
    "postal": "N7S6Z5",
    "result": []
  },
  {
    "postal": "N7S6E0",
    "result": []
  },
  {
    "postal": "N7S9B7",
    "result": []
  },
  {
    "postal": "N7S9S5",
    "result": []
  },
  {
    "postal": "N7S3X3",
    "result": [
      {
        "electoralDistricts": [
          {
            "election": null,
            "id": 91,
            "name": "Sarnia—Lambton"
          }
        ],
        "pollDivisionIds": [
          10141403
        ],
        "postalCode": "N7S3X3",
        "streetName": "AMSTERDAM",
        "streetDirectionId": null,
        "streetTypeId": "CRT",
        "placeName": "SARNIA",
        "streetNameDisplayText": "AMSTERDAM CRT, SARNIA"
      }
    ]
  },
  {
    "postal": "N7S7R5",
    "result": []
  },
  {
    "postal": "N7S2X3",
    "result": [
      {
        "electoralDistricts": [
          {
            "election": null,
            "id": 91,
            "name": "Sarnia—Lambton"
          }
        ],
        "pollDivisionIds": [
          10141403
        ],
        "postalCode": "N7S2X3",
        "streetName": "MURPHY",
        "streetDirectionId": null,
        "streetTypeId": "RD",
        "placeName": "SARNIA",
        "streetNameDisplayText": "MURPHY RD, SARNIA"
      }
    ]
  },
  {
    "postal": "N7S8Z9",
    "result": []
  },
  {
    "postal": "N7S0N4",
    "result": []
  },
  {
    "postal": "N7S1K1",
    "result": [
      {
        "electoralDistricts": [
          {
            "election": null,
            "id": 91,
            "name": "Sarnia—Lambton"
          }
        ],
        "pollDivisionIds": [
          10141410
        ],
        "postalCode": "N7S1K1",
        "streetName": "HEMLOCK",
        "streetDirectionId": null,
        "streetTypeId": "AVE",
        "placeName": "SARNIA",
        "streetNameDisplayText": "HEMLOCK AVE, SARNIA"
      }
    ]
  },
  {
    "postal": "N7S1S3",
    "result": [
      {
        "electoralDistricts": [
          {
            "election": null,
            "id": 91,
            "name": "Sarnia—Lambton"
          }
        ],
        "pollDivisionIds": [
          10141403
        ],
        "postalCode": "N7S1S3",
        "streetName": "PARSONS",
        "streetDirectionId": null,
        "streetTypeId": "ST",
        "placeName": "SARNIA",
        "streetNameDisplayText": "PARSONS ST, SARNIA"
      }
    ]
  },
  {
    "postal": "N7S6M4",
    "result": [
      {
        "electoralDistricts": [
          {
            "election": null,
            "id": 91,
            "name": "Sarnia—Lambton"
          }
        ],
        "pollDivisionIds": [
          10141390
        ],
        "postalCode": "N7S6M4",
        "streetName": "BRIDLEPATH",
        "streetDirectionId": null,
        "streetTypeId": "TRAIL",
        "placeName": "SARNIA",
        "streetNameDisplayText": "BRIDLEPATH TRAIL, SARNIA"
      },
      {
        "electoralDistricts": [
          {
            "election": null,
            "id": 91,
            "name": "Sarnia—Lambton"
          }
        ],
        "pollDivisionIds": [
          10141390
        ],
        "postalCode": "N7S6M4",
        "streetName": "WASHINGTON",
        "streetDirectionId": null,
        "streetTypeId": "CRT",
        "placeName": "SARNIA",
        "streetNameDisplayText": "WASHINGTON CRT, SARNIA"
      }
    ]
  },
  {
    "postal": "N7S9A9",
    "result": []
  },
  {
    "postal": "N7S9Z9",
    "result": []
  },
  {
    "postal": "N7S6T4",
    "result": []
  },
  {
    "postal": "N7S0B2",
    "result": [
      {
        "electoralDistricts": [
          {
            "election": null,
            "id": 91,
            "name": "Sarnia—Lambton"
          }
        ],
        "pollDivisionIds": [
          10141390
        ],
        "postalCode": "N7S0B2",
        "streetName": "AUTUMN BREEZE",
        "streetDirectionId": null,
        "streetTypeId": "DR",
        "placeName": "SARNIA",
        "streetNameDisplayText": "AUTUMN BREEZE DR, SARNIA"
      },
      {
        "electoralDistricts": [
          {
            "election": null,
            "id": 91,
            "name": "Sarnia—Lambton"
          }
        ],
        "pollDivisionIds": [
          10141390
        ],
        "postalCode": "N7S0B2",
        "streetName": "BLOOMFIELD",
        "streetDirectionId": null,
        "streetTypeId": "DR",
        "placeName": "SARNIA",
        "streetNameDisplayText": "BLOOMFIELD DR, SARNIA"
      },
      {
        "electoralDistricts": [
          {
            "election": null,
            "id": 91,
            "name": "Sarnia—Lambton"
          }
        ],
        "pollDivisionIds": [
          10141390
        ],
        "postalCode": "N7S0B2",
        "streetName": "CHERRY BLOSSOM",
        "streetDirectionId": null,
        "streetTypeId": "CRT",
        "placeName": "SARNIA",
        "streetNameDisplayText": "CHERRY BLOSSOM CRT, SARNIA"
      },
      {
        "electoralDistricts": [
          {
            "election": null,
            "id": 91,
            "name": "Sarnia—Lambton"
          }
        ],
        "pollDivisionIds": [
          10141390
        ],
        "postalCode": "N7S0B2",
        "streetName": "WASHINGTON",
        "streetDirectionId": null,
        "streetTypeId": "CRT",
        "placeName": "SARNIA",
        "streetNameDisplayText": "WASHINGTON CRT, SARNIA"
      }
    ]
  },
  {
    "postal": "N7S2L9",
    "result": [
      {
        "electoralDistricts": [
          {
            "election": null,
            "id": 91,
            "name": "Sarnia—Lambton"
          }
        ],
        "pollDivisionIds": [
          10141396
        ],
        "postalCode": "N7S2L9",
        "streetName": "LAKESHORE",
        "streetDirectionId": null,
        "streetTypeId": "RD",
        "placeName": "SARNIA",
        "streetNameDisplayText": "LAKESHORE RD, SARNIA"
      }
    ]
  },
  {
    "postal": "N7S8K9",
    "result": []
  },
  {
    "postal": "N7S2H9",
    "result": [
      {
        "electoralDistricts": [
          {
            "election": null,
            "id": 91,
            "name": "Sarnia—Lambton"
          }
        ],
        "pollDivisionIds": [
          10141389
        ],
        "postalCode": "N7S2H9",
        "streetName": "CATHCART",
        "streetDirectionId": null,
        "streetTypeId": "BLVD",
        "placeName": "SARNIA",
        "streetNameDisplayText": "CATHCART BLVD, SARNIA"
      }
    ]
  },
  {
    "postal": "N7S3Z6",
    "result": [
      {
        "electoralDistricts": [
          {
            "election": null,
            "id": 91,
            "name": "Sarnia—Lambton"
          }
        ],
        "pollDivisionIds": [
          10141400
        ],
        "postalCode": "N7S3Z6",
        "streetName": "RETFORD",
        "streetDirectionId": null,
        "streetTypeId": "AVE",
        "placeName": "SARNIA",
        "streetNameDisplayText": "RETFORD AVE, SARNIA"
      }
    ]
  },
  {
    "postal": "N7S3B0",
    "result": []
  },
  {
    "postal": "N7S2H8",
    "result": [
      {
        "electoralDistricts": [
          {
            "election": null,
            "id": 91,
            "name": "Sarnia—Lambton"
          }
        ],
        "pollDivisionIds": [
          10141389
        ],
        "postalCode": "N7S2H8",
        "streetName": "CATHCART",
        "streetDirectionId": null,
        "streetTypeId": "BLVD",
        "placeName": "SARNIA",
        "streetNameDisplayText": "CATHCART BLVD, SARNIA"
      }
    ]
  },
  {
    "postal": "N7S3X2",
    "result": [
      {
        "electoralDistricts": [
          {
            "election": null,
            "id": 91,
            "name": "Sarnia—Lambton"
          }
        ],
        "pollDivisionIds": [
          10141402
        ],
        "postalCode": "N7S3X2",
        "streetName": "ROGER",
        "streetDirectionId": null,
        "streetTypeId": "ST",
        "placeName": "SARNIA",
        "streetNameDisplayText": "ROGER ST, SARNIA"
      }
    ]
  },
  {
    "postal": "N7S2E9",
    "result": [
      {
        "electoralDistricts": [
          {
            "election": null,
            "id": 91,
            "name": "Sarnia—Lambton"
          }
        ],
        "pollDivisionIds": [
          10141395
        ],
        "postalCode": "N7S2E9",
        "streetName": "ERROL",
        "streetDirectionId": "E",
        "streetTypeId": "RD",
        "placeName": "SARNIA",
        "streetNameDisplayText": "ERROL RD E, SARNIA"
      }
    ]
  },
  {
    "postal": "N7S9P6",
    "result": []
  },
  {
    "postal": "N7S9E2",
    "result": []
  },
  {
    "postal": "N7S9H2",
    "result": []
  },
  {
    "postal": "N7S1S8",
    "result": [
      {
        "electoralDistricts": [
          {
            "election": null,
            "id": 91,
            "name": "Sarnia—Lambton"
          }
        ],
        "pollDivisionIds": [
          10141403
        ],
        "postalCode": "N7S1S8",
        "streetName": "WILLA",
        "streetDirectionId": null,
        "streetTypeId": "DR",
        "placeName": "SARNIA",
        "streetNameDisplayText": "WILLA DR, SARNIA"
      }
    ]
  },
  {
    "postal": "N7S3M6",
    "result": [
      {
        "electoralDistricts": [
          {
            "election": null,
            "id": 91,
            "name": "Sarnia—Lambton"
          }
        ],
        "pollDivisionIds": [
          10141395
        ],
        "postalCode": "N7S3M6",
        "streetName": "MILLER",
        "streetDirectionId": null,
        "streetTypeId": "DR",
        "placeName": "SARNIA",
        "streetNameDisplayText": "MILLER DR, SARNIA"
      }
    ]
  },
  {
    "postal": "N7S6Z8",
    "result": []
  },
  {
    "postal": "N7S4J2",
    "result": [
      {
        "electoralDistricts": [
          {
            "election": null,
            "id": 91,
            "name": "Sarnia—Lambton"
          }
        ],
        "pollDivisionIds": [
          10141412
        ],
        "postalCode": "N7S4J2",
        "streetName": "NIAGARA",
        "streetDirectionId": null,
        "streetTypeId": "CRES",
        "placeName": "SARNIA",
        "streetNameDisplayText": "NIAGARA CRES, SARNIA"
      }
    ]
  },
  {
    "postal": "N7S9Y1",
    "result": []
  },
  {
    "postal": "N7S8V6",
    "result": []
  },
  {
    "postal": "N7S6B2",
    "result": [
      {
        "electoralDistricts": [
          {
            "election": null,
            "id": 91,
            "name": "Sarnia—Lambton"
          }
        ],
        "pollDivisionIds": [
          10141411
        ],
        "postalCode": "N7S6B2",
        "streetName": "HUMBER",
        "streetDirectionId": null,
        "streetTypeId": "DR",
        "placeName": "SARNIA",
        "streetNameDisplayText": "HUMBER DR, SARNIA"
      }
    ]
  },
  {
    "postal": "N7S1P8",
    "result": []
  },
  {
    "postal": "N7S0V8",
    "result": []
  },
  {
    "postal": "N7S4Y0",
    "result": []
  },
  {
    "postal": "N7S2T4",
    "result": [
      {
        "electoralDistricts": [
          {
            "election": null,
            "id": 91,
            "name": "Sarnia—Lambton"
          }
        ],
        "pollDivisionIds": [
          10141403
        ],
        "postalCode": "N7S2T4",
        "streetName": "KEMBER",
        "streetDirectionId": null,
        "streetTypeId": "AVE",
        "placeName": "SARNIA",
        "streetNameDisplayText": "KEMBER AVE, SARNIA"
      }
    ]
  },
  {
    "postal": "N7S2S3",
    "result": [
      {
        "electoralDistricts": [
          {
            "election": null,
            "id": 91,
            "name": "Sarnia—Lambton"
          }
        ],
        "pollDivisionIds": [
          10141410
        ],
        "postalCode": "N7S2S3",
        "streetName": "GREY",
        "streetDirectionId": null,
        "streetTypeId": "CRES",
        "placeName": "SARNIA",
        "streetNameDisplayText": "GREY CRES, SARNIA"
      }
    ]
  },
  {
    "postal": "N7S0K0",
    "result": []
  },
  {
    "postal": "N7S5N1",
    "result": [
      {
        "electoralDistricts": [
          {
            "election": null,
            "id": 91,
            "name": "Sarnia—Lambton"
          }
        ],
        "pollDivisionIds": [
          10141415
        ],
        "postalCode": "N7S5N1",
        "streetName": "CHESTER",
        "streetDirectionId": null,
        "streetTypeId": "ST",
        "placeName": "SARNIA",
        "streetNameDisplayText": "CHESTER ST, SARNIA"
      }
    ]
  },
  {
    "postal": "N7S7T0",
    "result": []
  },
  {
    "postal": "N7S9N2",
    "result": []
  },
  {
    "postal": "N7S5L1",
    "result": [
      {
        "electoralDistricts": [
          {
            "election": null,
            "id": 91,
            "name": "Sarnia—Lambton"
          }
        ],
        "pollDivisionIds": [
          10141412
        ],
        "postalCode": "N7S5L1",
        "streetName": "COBBLESTONE",
        "streetDirectionId": null,
        "streetTypeId": "CRES",
        "placeName": "SARNIA",
        "streetNameDisplayText": "COBBLESTONE CRES, SARNIA"
      }
    ]
  },
  {
    "postal": "N7S7G5",
    "result": []
  },
  {
    "postal": "N7S6K2",
    "result": [
      {
        "electoralDistricts": [
          {
            "election": null,
            "id": 91,
            "name": "Sarnia—Lambton"
          }
        ],
        "pollDivisionIds": [
          10141400
        ],
        "postalCode": "N7S6K2",
        "streetName": "THE RAPIDS",
        "streetDirectionId": null,
        "streetTypeId": "PKY",
        "placeName": "SARNIA",
        "streetNameDisplayText": "THE RAPIDS PKY, SARNIA"
      }
    ]
  },
  {
    "postal": "N7S6P9",
    "result": []
  },
  {
    "postal": "N7S0E6",
    "result": [
      {
        "electoralDistricts": [
          {
            "election": null,
            "id": 91,
            "name": "Sarnia—Lambton"
          }
        ],
        "pollDivisionIds": [
          10141390
        ],
        "postalCode": "N7S0E6",
        "streetName": "RIOPELLE",
        "streetDirectionId": null,
        "streetTypeId": "DR",
        "placeName": "SARNIA",
        "streetNameDisplayText": "RIOPELLE DR, SARNIA"
      }
    ]
  },
  {
    "postal": "N7S8R9",
    "result": []
  },
  {
    "postal": "N7S3G9",
    "result": [
      {
        "electoralDistricts": [
          {
            "election": null,
            "id": 91,
            "name": "Sarnia—Lambton"
          }
        ],
        "pollDivisionIds": [
          10141399
        ],
        "postalCode": "N7S3G9",
        "streetName": "O'RAE",
        "streetDirectionId": null,
        "streetTypeId": "AVE",
        "placeName": "SARNIA",
        "streetNameDisplayText": "O'RAE AVE, SARNIA"
      }
    ]
  },
  {
    "postal": "N7S0V7",
    "result": []
  },
  {
    "postal": "N7S2Z1",
    "result": [
      {
        "electoralDistricts": [
          {
            "election": null,
            "id": 91,
            "name": "Sarnia—Lambton"
          }
        ],
        "pollDivisionIds": [
          10141395
        ],
        "postalCode": "N7S2Z1",
        "streetName": "MURPHY",
        "streetDirectionId": null,
        "streetTypeId": "RD",
        "placeName": "SARNIA",
        "streetNameDisplayText": "MURPHY RD, SARNIA"
      }
    ]
  },
  {
    "postal": "N7S7N1",
    "result": []
  },
  {
    "postal": "N7S3C6",
    "result": [
      {
        "electoralDistricts": [
          {
            "election": null,
            "id": 91,
            "name": "Sarnia—Lambton"
          }
        ],
        "pollDivisionIds": [
          10141399
        ],
        "postalCode": "N7S3C6",
        "streetName": "BOND",
        "streetDirectionId": null,
        "streetTypeId": "ST",
        "placeName": "SARNIA",
        "streetNameDisplayText": "BOND ST, SARNIA"
      }
    ]
  },
  {
    "postal": "N7S4M1",
    "result": [
      {
        "electoralDistricts": [
          {
            "election": null,
            "id": 91,
            "name": "Sarnia—Lambton"
          }
        ],
        "pollDivisionIds": [
          10141400
        ],
        "postalCode": "N7S4M1",
        "streetName": "SHEFFIELD",
        "streetDirectionId": null,
        "streetTypeId": "ST",
        "placeName": "SARNIA",
        "streetNameDisplayText": "SHEFFIELD ST, SARNIA"
      }
    ]
  },
  {
    "postal": "N7S9K2",
    "result": []
  },
  {
    "postal": "N7S9S6",
    "result": []
  },
  {
    "postal": "N7S4X1",
    "result": [
      {
        "electoralDistricts": [
          {
            "election": null,
            "id": 91,
            "name": "Sarnia—Lambton"
          }
        ],
        "pollDivisionIds": [
          10141412,
          10141404
        ],
        "postalCode": "N7S4X1",
        "streetName": "MAPLESTONE",
        "streetDirectionId": null,
        "streetTypeId": "AVE",
        "placeName": "SARNIA",
        "streetNameDisplayText": "MAPLESTONE AVE, SARNIA"
      }
    ]
  },
  {
    "postal": "N7S8W2",
    "result": []
  },
  {
    "postal": "N7S7N2",
    "result": []
  },
  {
    "postal": "N7S8S3",
    "result": []
  },
  {
    "postal": "N7S4V0",
    "result": []
  },
  {
    "postal": "N7S6W4",
    "result": []
  },
  {
    "postal": "N7S5M1",
    "result": [
      {
        "electoralDistricts": [
          {
            "election": null,
            "id": 91,
            "name": "Sarnia—Lambton"
          }
        ],
        "pollDivisionIds": [
          10141390
        ],
        "postalCode": "N7S5M1",
        "streetName": "BLACKWELL",
        "streetDirectionId": null,
        "streetTypeId": "RD",
        "placeName": "SARNIA",
        "streetNameDisplayText": "BLACKWELL RD, SARNIA"
      }
    ]
  },
  {
    "postal": "N7S0S4",
    "result": []
  },
  {
    "postal": "N7S5X6",
    "result": [
      {
        "electoralDistricts": [
          {
            "election": null,
            "id": 91,
            "name": "Sarnia—Lambton"
          }
        ],
        "pollDivisionIds": [
          10141389
        ],
        "postalCode": "N7S5X6",
        "streetName": "WILLOW GLEN",
        "streetDirectionId": null,
        "streetTypeId": "CRT",
        "placeName": "SARNIA",
        "streetNameDisplayText": "WILLOW GLEN CRT, SARNIA"
      }
    ]
  },
  {
    "postal": "N7S8L5",
    "result": []
  },
  {
    "postal": "N7S5M8",
    "result": [
      {
        "electoralDistricts": [
          {
            "election": null,
            "id": 91,
            "name": "Sarnia—Lambton"
          }
        ],
        "pollDivisionIds": [
          10141389
        ],
        "postalCode": "N7S5M8",
        "streetName": "CORONATION",
        "streetDirectionId": null,
        "streetTypeId": "LANE",
        "placeName": "SARNIA",
        "streetNameDisplayText": "CORONATION LANE, SARNIA"
      }
    ]
  },
  {
    "postal": "N7S2G3",
    "result": [
      {
        "electoralDistricts": [
          {
            "election": null,
            "id": 91,
            "name": "Sarnia—Lambton"
          }
        ],
        "pollDivisionIds": [
          10141395
        ],
        "postalCode": "N7S2G3",
        "streetName": "ERROL",
        "streetDirectionId": "E",
        "streetTypeId": "RD",
        "placeName": "SARNIA",
        "streetNameDisplayText": "ERROL RD E, SARNIA"
      }
    ]
  },
  {
    "postal": "N7S8E4",
    "result": []
  },
  {
    "postal": "N7S7S9",
    "result": []
  },
  {
    "postal": "N7S1K3",
    "result": [
      {
        "electoralDistricts": [
          {
            "election": null,
            "id": 91,
            "name": "Sarnia—Lambton"
          }
        ],
        "pollDivisionIds": [
          10141410
        ],
        "postalCode": "N7S1K3",
        "streetName": "HICKORY",
        "streetDirectionId": null,
        "streetTypeId": "AVE",
        "placeName": "SARNIA",
        "streetNameDisplayText": "HICKORY AVE, SARNIA"
      }
    ]
  },
  {
    "postal": "N7S4E1",
    "result": [
      {
        "electoralDistricts": [
          {
            "election": null,
            "id": 91,
            "name": "Sarnia—Lambton"
          }
        ],
        "pollDivisionIds": [
          10141415
        ],
        "postalCode": "N7S4E1",
        "streetName": "FAIRVIEW",
        "streetDirectionId": null,
        "streetTypeId": "PL",
        "placeName": "SARNIA",
        "streetNameDisplayText": "FAIRVIEW PL, SARNIA"
      }
    ]
  },
  {
    "postal": "N7S4R2",
    "result": [
      {
        "electoralDistricts": [
          {
            "election": null,
            "id": 91,
            "name": "Sarnia—Lambton"
          }
        ],
        "pollDivisionIds": [
          10141400
        ],
        "postalCode": "N7S4R2",
        "streetName": "EDGEWOOD",
        "streetDirectionId": null,
        "streetTypeId": "ST",
        "placeName": "SARNIA",
        "streetNameDisplayText": "EDGEWOOD ST, SARNIA"
      }
    ]
  },
  {
    "postal": "N7S6T0",
    "result": []
  },
  {
    "postal": "N7S3K5",
    "result": [
      {
        "electoralDistricts": [
          {
            "election": null,
            "id": 91,
            "name": "Sarnia—Lambton"
          }
        ],
        "pollDivisionIds": [
          10141395
        ],
        "postalCode": "N7S3K5",
        "streetName": "GIFFEL",
        "streetDirectionId": null,
        "streetTypeId": "RD",
        "placeName": "SARNIA",
        "streetNameDisplayText": "GIFFEL RD, SARNIA"
      }
    ]
  },
  {
    "postal": "N7S3S3",
    "result": [
      {
        "electoralDistricts": [
          {
            "election": null,
            "id": 91,
            "name": "Sarnia—Lambton"
          }
        ],
        "pollDivisionIds": [
          10141396
        ],
        "postalCode": "N7S3S3",
        "streetName": "MATER",
        "streetDirectionId": null,
        "streetTypeId": "DR",
        "placeName": "SARNIA",
        "streetNameDisplayText": "MATER DR, SARNIA"
      }
    ]
  },
  {
    "postal": "N7S3L4",
    "result": [
      {
        "electoralDistricts": [
          {
            "election": null,
            "id": 91,
            "name": "Sarnia—Lambton"
          }
        ],
        "pollDivisionIds": [
          10141395
        ],
        "postalCode": "N7S3L4",
        "streetName": "CAMELOT",
        "streetDirectionId": null,
        "streetTypeId": "CRES",
        "placeName": "SARNIA",
        "streetNameDisplayText": "CAMELOT CRES, SARNIA"
      }
    ]
  },
  {
    "postal": "N7S9Y2",
    "result": []
  },
  {
    "postal": "N7S1E0",
    "result": []
  },
  {
    "postal": "N7S9A4",
    "result": []
  },
  {
    "postal": "N7S1L3",
    "result": [
      {
        "electoralDistricts": [
          {
            "election": null,
            "id": 91,
            "name": "Sarnia—Lambton"
          }
        ],
        "pollDivisionIds": [
          10141410
        ],
        "postalCode": "N7S1L3",
        "streetName": "MAYFAIR",
        "streetDirectionId": null,
        "streetTypeId": "DR",
        "placeName": "SARNIA",
        "streetNameDisplayText": "MAYFAIR DR, SARNIA"
      }
    ]
  },
  {
    "postal": "N7S6N1",
    "result": [
      {
        "electoralDistricts": [
          {
            "election": null,
            "id": 91,
            "name": "Sarnia—Lambton"
          }
        ],
        "pollDivisionIds": [
          10141412
        ],
        "postalCode": "N7S6N1",
        "streetName": "CASSANDRA",
        "streetDirectionId": null,
        "streetTypeId": "BLVD",
        "placeName": "SARNIA",
        "streetNameDisplayText": "CASSANDRA BLVD, SARNIA"
      }
    ]
  },
  {
    "postal": "N7S6G7",
    "result": [
      {
        "electoralDistricts": [
          {
            "election": null,
            "id": 91,
            "name": "Sarnia—Lambton"
          }
        ],
        "pollDivisionIds": [
          10141415
        ],
        "postalCode": "N7S6G7",
        "streetName": "ROPER",
        "streetDirectionId": null,
        "streetTypeId": "ST",
        "placeName": "SARNIA",
        "streetNameDisplayText": "ROPER ST, SARNIA"
      }
    ]
  },
  {
    "postal": "N7S7W1",
    "result": []
  },
  {
    "postal": "N7S4M6",
    "result": [
      {
        "electoralDistricts": [
          {
            "election": null,
            "id": 91,
            "name": "Sarnia—Lambton"
          }
        ],
        "pollDivisionIds": [
          10141390,
          10141400
        ],
        "postalCode": "N7S4M6",
        "streetName": "MICHIGAN",
        "streetDirectionId": null,
        "streetTypeId": "AVE",
        "placeName": "SARNIA",
        "streetNameDisplayText": "MICHIGAN AVE, SARNIA"
      }
    ]
  },
  {
    "postal": "N7S1K0",
    "result": []
  },
  {
    "postal": "N7S3E2",
    "result": [
      {
        "electoralDistricts": [
          {
            "election": null,
            "id": 91,
            "name": "Sarnia—Lambton"
          }
        ],
        "pollDivisionIds": [
          10141399
        ],
        "postalCode": "N7S3E2",
        "streetName": "LYNDALE",
        "streetDirectionId": null,
        "streetTypeId": "CRES",
        "placeName": "SARNIA",
        "streetNameDisplayText": "LYNDALE CRES, SARNIA"
      }
    ]
  },
  {
    "postal": "N7S5H4",
    "result": [
      {
        "electoralDistricts": [
          {
            "election": null,
            "id": 91,
            "name": "Sarnia—Lambton"
          }
        ],
        "pollDivisionIds": [
          10141412
        ],
        "postalCode": "N7S5H4",
        "streetName": "SPRINGBANK",
        "streetDirectionId": null,
        "streetTypeId": "DR",
        "placeName": "SARNIA",
        "streetNameDisplayText": "SPRINGBANK DR, SARNIA"
      }
    ]
  },
  {
    "postal": "N7S1K7",
    "result": [
      {
        "electoralDistricts": [
          {
            "election": null,
            "id": 91,
            "name": "Sarnia—Lambton"
          }
        ],
        "pollDivisionIds": [
          10141410
        ],
        "postalCode": "N7S1K7",
        "streetName": "MAYFAIR",
        "streetDirectionId": null,
        "streetTypeId": "DR",
        "placeName": "SARNIA",
        "streetNameDisplayText": "MAYFAIR DR, SARNIA"
      }
    ]
  },
  {
    "postal": "N7S0H0",
    "result": []
  },
  {
    "postal": "N7S0J3",
    "result": []
  },
  {
    "postal": "N7S1X6",
    "result": [
      {
        "electoralDistricts": [
          {
            "election": null,
            "id": 91,
            "name": "Sarnia—Lambton"
          }
        ],
        "pollDivisionIds": [
          10141403
        ],
        "postalCode": "N7S1X6",
        "streetName": "EASTLAWN",
        "streetDirectionId": null,
        "streetTypeId": "AVE",
        "placeName": "SARNIA",
        "streetNameDisplayText": "EASTLAWN AVE, SARNIA"
      }
    ]
  },
  {
    "postal": "N7S2Z6",
    "result": [
      {
        "electoralDistricts": [
          {
            "election": null,
            "id": 91,
            "name": "Sarnia—Lambton"
          }
        ],
        "pollDivisionIds": [
          10141389
        ],
        "postalCode": "N7S2Z6",
        "streetName": "MURPHY",
        "streetDirectionId": null,
        "streetTypeId": "RD",
        "placeName": "SARNIA",
        "streetNameDisplayText": "MURPHY RD, SARNIA"
      }
    ]
  },
  {
    "postal": "N7S4R9",
    "result": [
      {
        "electoralDistricts": [
          {
            "election": null,
            "id": 91,
            "name": "Sarnia—Lambton"
          }
        ],
        "pollDivisionIds": [
          10141415
        ],
        "postalCode": "N7S4R9",
        "streetName": "TURNER",
        "streetDirectionId": null,
        "streetTypeId": "DR",
        "placeName": "SARNIA",
        "streetNameDisplayText": "TURNER DR, SARNIA"
      }
    ]
  },
  {
    "postal": "N7S0W8",
    "result": []
  },
  {
    "postal": "N7S1L4",
    "result": [
      {
        "electoralDistricts": [
          {
            "election": null,
            "id": 91,
            "name": "Sarnia—Lambton"
          }
        ],
        "pollDivisionIds": [
          10141410
        ],
        "postalCode": "N7S1L4",
        "streetName": "MAYFAIR",
        "streetDirectionId": null,
        "streetTypeId": "DR",
        "placeName": "SARNIA",
        "streetNameDisplayText": "MAYFAIR DR, SARNIA"
      }
    ]
  },
  {
    "postal": "N7S0C8",
    "result": [
      {
        "electoralDistricts": [
          {
            "election": null,
            "id": 91,
            "name": "Sarnia—Lambton"
          }
        ],
        "pollDivisionIds": [
          10141390
        ],
        "postalCode": "N7S0C8",
        "streetName": "LIZUCHA",
        "streetDirectionId": null,
        "streetTypeId": "DR",
        "placeName": "SARNIA",
        "streetNameDisplayText": "LIZUCHA DR, SARNIA"
      },
      {
        "electoralDistricts": [
          {
            "election": null,
            "id": 91,
            "name": "Sarnia—Lambton"
          }
        ],
        "pollDivisionIds": [
          10141390
        ],
        "postalCode": "N7S0C8",
        "streetName": "PAOLO",
        "streetDirectionId": null,
        "streetTypeId": "ST",
        "placeName": "SARNIA",
        "streetNameDisplayText": "PAOLO ST, SARNIA"
      }
    ]
  },
  {
    "postal": "N7S9X7",
    "result": []
  },
  {
    "postal": "N7S4T1",
    "result": [
      {
        "electoralDistricts": [
          {
            "election": null,
            "id": 91,
            "name": "Sarnia—Lambton"
          }
        ],
        "pollDivisionIds": [
          10141415
        ],
        "postalCode": "N7S4T1",
        "streetName": "MCGREGOR",
        "streetDirectionId": null,
        "streetTypeId": "RD",
        "placeName": "SARNIA",
        "streetNameDisplayText": "MCGREGOR RD, SARNIA"
      }
    ]
  },
  {
    "postal": "N7S0M0",
    "result": []
  },
  {
    "postal": "N7S6A2",
    "result": [
      {
        "electoralDistricts": [
          {
            "election": null,
            "id": 91,
            "name": "Sarnia—Lambton"
          }
        ],
        "pollDivisionIds": [
          10141411
        ],
        "postalCode": "N7S6A2",
        "streetName": "CONESTOGA",
        "streetDirectionId": null,
        "streetTypeId": "DR",
        "placeName": "SARNIA",
        "streetNameDisplayText": "CONESTOGA DR, SARNIA"
      }
    ]
  },
  {
    "postal": "N7S9S8",
    "result": []
  },
  {
    "postal": "N7S9T4",
    "result": []
  },
  {
    "postal": "N7S9Y4",
    "result": []
  },
  {
    "postal": "N7S6G5",
    "result": [
      {
        "electoralDistricts": [
          {
            "election": null,
            "id": 91,
            "name": "Sarnia—Lambton"
          }
        ],
        "pollDivisionIds": [
          10141411
        ],
        "postalCode": "N7S6G5",
        "streetName": "FINCH",
        "streetDirectionId": null,
        "streetTypeId": "DR",
        "placeName": "SARNIA",
        "streetNameDisplayText": "FINCH DR, SARNIA"
      },
      {
        "electoralDistricts": [
          {
            "election": null,
            "id": 91,
            "name": "Sarnia—Lambton"
          }
        ],
        "pollDivisionIds": [
          10141411
        ],
        "postalCode": "N7S6G5",
        "streetName": "WELLINGTON",
        "streetDirectionId": null,
        "streetTypeId": "ST",
        "placeName": "SARNIA",
        "streetNameDisplayText": "WELLINGTON ST, SARNIA"
      }
    ]
  },
  {
    "postal": "N7S6H9",
    "result": [
      {
        "electoralDistricts": [
          {
            "election": null,
            "id": 91,
            "name": "Sarnia—Lambton"
          }
        ],
        "pollDivisionIds": [
          10141412
        ],
        "postalCode": "N7S6H9",
        "streetName": "YORK",
        "streetDirectionId": null,
        "streetTypeId": "CRES",
        "placeName": "SARNIA",
        "streetNameDisplayText": "YORK CRES, SARNIA"
      }
    ]
  },
  {
    "postal": "N7S2P3",
    "result": [
      {
        "electoralDistricts": [
          {
            "election": null,
            "id": 91,
            "name": "Sarnia—Lambton"
          }
        ],
        "pollDivisionIds": [
          10141410
        ],
        "postalCode": "N7S2P3",
        "streetName": "LANSDOWNE",
        "streetDirectionId": "N",
        "streetTypeId": "AVE",
        "placeName": "SARNIA",
        "streetNameDisplayText": "LANSDOWNE AVE N, SARNIA"
      }
    ]
  },
  {
    "postal": "N7S1T6",
    "result": [
      {
        "electoralDistricts": [
          {
            "election": null,
            "id": 91,
            "name": "Sarnia—Lambton"
          }
        ],
        "pollDivisionIds": [
          10141403
        ],
        "postalCode": "N7S1T6",
        "streetName": "WILLA",
        "streetDirectionId": null,
        "streetTypeId": "DR",
        "placeName": "SARNIA",
        "streetNameDisplayText": "WILLA DR, SARNIA"
      }
    ]
  },
  {
    "postal": "N7S4P6",
    "result": [
      {
        "electoralDistricts": [
          {
            "election": null,
            "id": 91,
            "name": "Sarnia—Lambton"
          }
        ],
        "pollDivisionIds": [
          10141400
        ],
        "postalCode": "N7S4P6",
        "streetName": "WINCHESTER",
        "streetDirectionId": null,
        "streetTypeId": "CRES",
        "placeName": "SARNIA",
        "streetNameDisplayText": "WINCHESTER CRES, SARNIA"
      }
    ]
  },
  {
    "postal": "N7S3K1",
    "result": [
      {
        "electoralDistricts": [
          {
            "election": null,
            "id": 91,
            "name": "Sarnia—Lambton"
          }
        ],
        "pollDivisionIds": [
          10141399
        ],
        "postalCode": "N7S3K1",
        "streetName": "FAIRLANE",
        "streetDirectionId": null,
        "streetTypeId": "AVE",
        "placeName": "SARNIA",
        "streetNameDisplayText": "FAIRLANE AVE, SARNIA"
      }
    ]
  },
  {
    "postal": "N7S6X4",
    "result": []
  },
  {
    "postal": "N7S4M8",
    "result": [
      {
        "electoralDistricts": [
          {
            "election": null,
            "id": 91,
            "name": "Sarnia—Lambton"
          }
        ],
        "pollDivisionIds": [
          10141403
        ],
        "postalCode": "N7S4M8",
        "streetName": "PONTIAC",
        "streetDirectionId": null,
        "streetTypeId": "CRT",
        "placeName": "SARNIA",
        "streetNameDisplayText": "PONTIAC CRT, SARNIA"
      }
    ]
  },
  {
    "postal": "N7S2Y1",
    "result": [
      {
        "electoralDistricts": [
          {
            "election": null,
            "id": 91,
            "name": "Sarnia—Lambton"
          }
        ],
        "pollDivisionIds": [
          10141403
        ],
        "postalCode": "N7S2Y1",
        "streetName": "MURPHY",
        "streetDirectionId": null,
        "streetTypeId": "RD",
        "placeName": "SARNIA",
        "streetNameDisplayText": "MURPHY RD, SARNIA"
      }
    ]
  },
  {
    "postal": "N7S6M1",
    "result": [
      {
        "electoralDistricts": [
          {
            "election": null,
            "id": 91,
            "name": "Sarnia—Lambton"
          }
        ],
        "pollDivisionIds": [
          10141390
        ],
        "postalCode": "N7S6M1",
        "streetName": "KAMAL",
        "streetDirectionId": null,
        "streetTypeId": "DR",
        "placeName": "SARNIA",
        "streetNameDisplayText": "KAMAL DR, SARNIA"
      },
      {
        "electoralDistricts": [
          {
            "election": null,
            "id": 91,
            "name": "Sarnia—Lambton"
          }
        ],
        "pollDivisionIds": [
          10141390
        ],
        "postalCode": "N7S6M1",
        "streetName": "KIRAN",
        "streetDirectionId": null,
        "streetTypeId": "CRT",
        "placeName": "SARNIA",
        "streetNameDisplayText": "KIRAN CRT, SARNIA"
      },
      {
        "electoralDistricts": [
          {
            "election": null,
            "id": 91,
            "name": "Sarnia—Lambton"
          }
        ],
        "pollDivisionIds": [
          10141390
        ],
        "postalCode": "N7S6M1",
        "streetName": "WANNER",
        "streetDirectionId": null,
        "streetTypeId": "AVE",
        "placeName": "SARNIA",
        "streetNameDisplayText": "WANNER AVE, SARNIA"
      }
    ]
  },
  {
    "postal": "N7S5L8",
    "result": [
      {
        "electoralDistricts": [
          {
            "election": null,
            "id": 91,
            "name": "Sarnia—Lambton"
          }
        ],
        "pollDivisionIds": [
          10141390
        ],
        "postalCode": "N7S5L8",
        "streetName": "MICHIGAN",
        "streetDirectionId": null,
        "streetTypeId": "AVE",
        "placeName": "SARNIA",
        "streetNameDisplayText": "MICHIGAN AVE, SARNIA"
      }
    ]
  },
  {
    "postal": "N7S3P6",
    "result": []
  },
  {
    "postal": "N7S9A5",
    "result": []
  },
  {
    "postal": "N7S7K1",
    "result": []
  },
  {
    "postal": "N7S3J4",
    "result": [
      {
        "electoralDistricts": [
          {
            "election": null,
            "id": 91,
            "name": "Sarnia—Lambton"
          }
        ],
        "pollDivisionIds": [
          10141399
        ],
        "postalCode": "N7S3J4",
        "streetName": "SOLE",
        "streetDirectionId": null,
        "streetTypeId": "ST",
        "placeName": "SARNIA",
        "streetNameDisplayText": "SOLE ST, SARNIA"
      }
    ]
  },
  {
    "postal": "N7S5E7",
    "result": [
      {
        "electoralDistricts": [
          {
            "election": null,
            "id": 91,
            "name": "Sarnia—Lambton"
          }
        ],
        "pollDivisionIds": [
          10141396
        ],
        "postalCode": "N7S5E7",
        "streetName": "PARKLAND",
        "streetDirectionId": null,
        "streetTypeId": "PL",
        "placeName": "SARNIA",
        "streetNameDisplayText": "PARKLAND PL, SARNIA"
      }
    ]
  },
  {
    "postal": "N7S3A7",
    "result": [
      {
        "electoralDistricts": [
          {
            "election": null,
            "id": 91,
            "name": "Sarnia—Lambton"
          }
        ],
        "pollDivisionIds": [
          10141403
        ],
        "postalCode": "N7S3A7",
        "streetName": "PONTIAC",
        "streetDirectionId": null,
        "streetTypeId": "DR",
        "placeName": "SARNIA",
        "streetNameDisplayText": "PONTIAC DR, SARNIA"
      }
    ]
  },
  {
    "postal": "N7S1B9",
    "result": [
      {
        "electoralDistricts": [
          {
            "election": null,
            "id": 91,
            "name": "Sarnia—Lambton"
          }
        ],
        "pollDivisionIds": [
          10141415
        ],
        "postalCode": "N7S1B9",
        "streetName": "TALFOURD",
        "streetDirectionId": null,
        "streetTypeId": "ST",
        "placeName": "SARNIA",
        "streetNameDisplayText": "TALFOURD ST, SARNIA"
      }
    ]
  },
  {
    "postal": "N7S9E8",
    "result": []
  },
  {
    "postal": "N7S1C9",
    "result": [
      {
        "electoralDistricts": [
          {
            "election": null,
            "id": 91,
            "name": "Sarnia—Lambton"
          }
        ],
        "pollDivisionIds": [
          10141415
        ],
        "postalCode": "N7S1C9",
        "streetName": "WELLINGTON",
        "streetDirectionId": null,
        "streetTypeId": "ST",
        "placeName": "SARNIA",
        "streetNameDisplayText": "WELLINGTON ST, SARNIA"
      }
    ]
  },
  {
    "postal": "N7S3B5",
    "result": [
      {
        "electoralDistricts": [
          {
            "election": null,
            "id": 91,
            "name": "Sarnia—Lambton"
          }
        ],
        "pollDivisionIds": [
          10141399
        ],
        "postalCode": "N7S3B5",
        "streetName": "WESTMINSTER",
        "streetDirectionId": null,
        "streetTypeId": "DR",
        "placeName": "SARNIA",
        "streetNameDisplayText": "WESTMINSTER DR, SARNIA"
      }
    ]
  },
  {
    "postal": "N7S8R0",
    "result": []
  },
  {
    "postal": "N7S3P2",
    "result": [
      {
        "electoralDistricts": [
          {
            "election": null,
            "id": 91,
            "name": "Sarnia—Lambton"
          }
        ],
        "pollDivisionIds": [
          10141389
        ],
        "postalCode": "N7S3P2",
        "streetName": "MILLS",
        "streetDirectionId": null,
        "streetTypeId": "ST",
        "placeName": "SARNIA",
        "streetNameDisplayText": "MILLS ST, SARNIA"
      }
    ]
  },
  {
    "postal": "N7S5V4",
    "result": [
      {
        "electoralDistricts": [
          {
            "election": null,
            "id": 91,
            "name": "Sarnia—Lambton"
          }
        ],
        "pollDivisionIds": [
          10141411
        ],
        "postalCode": "N7S5V4",
        "streetName": "MURPHY",
        "streetDirectionId": null,
        "streetTypeId": "RD",
        "placeName": "SARNIA",
        "streetNameDisplayText": "MURPHY RD, SARNIA"
      }
    ]
  },
  {
    "postal": "N7S4H0",
    "result": []
  },
  {
    "postal": "N7S4S7",
    "result": [
      {
        "electoralDistricts": [
          {
            "election": null,
            "id": 91,
            "name": "Sarnia—Lambton"
          }
        ],
        "pollDivisionIds": [
          10141400
        ],
        "postalCode": "N7S4S7",
        "streetName": "OLYMPUS",
        "streetDirectionId": null,
        "streetTypeId": "CRT",
        "placeName": "SARNIA",
        "streetNameDisplayText": "OLYMPUS CRT, SARNIA"
      }
    ]
  },
  {
    "postal": "N7S6C2",
    "result": [
      {
        "electoralDistricts": [
          {
            "election": null,
            "id": 91,
            "name": "Sarnia—Lambton"
          }
        ],
        "pollDivisionIds": [
          10141411
        ],
        "postalCode": "N7S6C2",
        "streetName": "HUMBER",
        "streetDirectionId": null,
        "streetTypeId": "DR",
        "placeName": "SARNIA",
        "streetNameDisplayText": "HUMBER DR, SARNIA"
      }
    ]
  },
  {
    "postal": "N7S8W3",
    "result": []
  },
  {
    "postal": "N7S4M5",
    "result": [
      {
        "electoralDistricts": [
          {
            "election": null,
            "id": 91,
            "name": "Sarnia—Lambton"
          }
        ],
        "pollDivisionIds": [
          10141402
        ],
        "postalCode": "N7S4M5",
        "streetName": "STACY",
        "streetDirectionId": null,
        "streetTypeId": "CRT",
        "placeName": "SARNIA",
        "streetNameDisplayText": "STACY CRT, SARNIA"
      }
    ]
  },
  {
    "postal": "N7S5T1",
    "result": []
  },
  {
    "postal": "N7S3B3",
    "result": [
      {
        "electoralDistricts": [
          {
            "election": null,
            "id": 91,
            "name": "Sarnia—Lambton"
          }
        ],
        "pollDivisionIds": [
          10141399
        ],
        "postalCode": "N7S3B3",
        "streetName": "HARROGATE",
        "streetDirectionId": null,
        "streetTypeId": "DR",
        "placeName": "SARNIA",
        "streetNameDisplayText": "HARROGATE DR, SARNIA"
      }
    ]
  },
  {
    "postal": "N7S6C6",
    "result": [
      {
        "electoralDistricts": [
          {
            "election": null,
            "id": 91,
            "name": "Sarnia—Lambton"
          }
        ],
        "pollDivisionIds": [
          10141411
        ],
        "postalCode": "N7S6C6",
        "streetName": "ERINDALE",
        "streetDirectionId": null,
        "streetTypeId": "CRT",
        "placeName": "SARNIA",
        "streetNameDisplayText": "ERINDALE CRT, SARNIA"
      },
      {
        "electoralDistricts": [
          {
            "election": null,
            "id": 91,
            "name": "Sarnia—Lambton"
          }
        ],
        "pollDivisionIds": [
          10141411
        ],
        "postalCode": "N7S6C6",
        "streetName": "FANSHAWE",
        "streetDirectionId": null,
        "streetTypeId": "DR",
        "placeName": "SARNIA",
        "streetNameDisplayText": "FANSHAWE DR, SARNIA"
      }
    ]
  },
  {
    "postal": "N7S7N8",
    "result": []
  },
  {
    "postal": "N7S2Y3",
    "result": [
      {
        "electoralDistricts": [
          {
            "election": null,
            "id": 91,
            "name": "Sarnia—Lambton"
          }
        ],
        "pollDivisionIds": [
          10141399
        ],
        "postalCode": "N7S2Y3",
        "streetName": "MURPHY",
        "streetDirectionId": null,
        "streetTypeId": "RD",
        "placeName": "SARNIA",
        "streetNameDisplayText": "MURPHY RD, SARNIA"
      }
    ]
  },
  {
    "postal": "N7S2R6",
    "result": [
      {
        "electoralDistricts": [
          {
            "election": null,
            "id": 91,
            "name": "Sarnia—Lambton"
          }
        ],
        "pollDivisionIds": [
          10141410
        ],
        "postalCode": "N7S2R6",
        "streetName": "MINTO",
        "streetDirectionId": null,
        "streetTypeId": "ST",
        "placeName": "SARNIA",
        "streetNameDisplayText": "MINTO ST, SARNIA"
      }
    ]
  },
  {
    "postal": "N7S7N3",
    "result": []
  },
  {
    "postal": "N7S8J2",
    "result": []
  },
  {
    "postal": "N7S6A9",
    "result": [
      {
        "electoralDistricts": [
          {
            "election": null,
            "id": 91,
            "name": "Sarnia—Lambton"
          }
        ],
        "pollDivisionIds": [
          10141411
        ],
        "postalCode": "N7S6A9",
        "streetName": "HUMBER",
        "streetDirectionId": null,
        "streetTypeId": "DR",
        "placeName": "SARNIA",
        "streetNameDisplayText": "HUMBER DR, SARNIA"
      }
    ]
  },
  {
    "postal": "N7S3V2",
    "result": [
      {
        "electoralDistricts": [
          {
            "election": null,
            "id": 91,
            "name": "Sarnia—Lambton"
          }
        ],
        "pollDivisionIds": [
          10141400
        ],
        "postalCode": "N7S3V2",
        "streetName": "ARLINGTON",
        "streetDirectionId": null,
        "streetTypeId": "CRT",
        "placeName": "SARNIA",
        "streetNameDisplayText": "ARLINGTON CRT, SARNIA"
      }
    ]
  },
  {
    "postal": "N7S2N3",
    "result": []
  },
  {
    "postal": "N7S1S5",
    "result": [
      {
        "electoralDistricts": [
          {
            "election": null,
            "id": 91,
            "name": "Sarnia—Lambton"
          }
        ],
        "pollDivisionIds": [
          10141403
        ],
        "postalCode": "N7S1S5",
        "streetName": "ISABELLA",
        "streetDirectionId": null,
        "streetTypeId": "ST",
        "placeName": "SARNIA",
        "streetNameDisplayText": "ISABELLA ST, SARNIA"
      }
    ]
  },
  {
    "postal": "N7S4T7",
    "result": [
      {
        "electoralDistricts": [
          {
            "election": null,
            "id": 91,
            "name": "Sarnia—Lambton"
          }
        ],
        "pollDivisionIds": [
          10141412
        ],
        "postalCode": "N7S4T7",
        "streetName": "FINCH",
        "streetDirectionId": null,
        "streetTypeId": "DR",
        "placeName": "SARNIA",
        "streetNameDisplayText": "FINCH DR, SARNIA"
      }
    ]
  },
  {
    "postal": "N7S6Y7",
    "result": []
  },
  {
    "postal": "N7S0W7",
    "result": []
  },
  {
    "postal": "N7S2W9",
    "result": [
      {
        "electoralDistricts": [
          {
            "election": null,
            "id": 91,
            "name": "Sarnia—Lambton"
          }
        ],
        "pollDivisionIds": [
          10141403
        ],
        "postalCode": "N7S2W9",
        "streetName": "VROOM",
        "streetDirectionId": null,
        "streetTypeId": "AVE",
        "placeName": "SARNIA",
        "streetNameDisplayText": "VROOM AVE, SARNIA"
      }
    ]
  },
  {
    "postal": "N7S8V0",
    "result": []
  },
  {
    "postal": "N7S0H4",
    "result": []
  },
  {
    "postal": "N7S2T1",
    "result": [
      {
        "electoralDistricts": [
          {
            "election": null,
            "id": 91,
            "name": "Sarnia—Lambton"
          }
        ],
        "pollDivisionIds": [
          10141402
        ],
        "postalCode": "N7S2T1",
        "streetName": "KEMBER",
        "streetDirectionId": null,
        "streetTypeId": "AVE",
        "placeName": "SARNIA",
        "streetNameDisplayText": "KEMBER AVE, SARNIA"
      }
    ]
  },
  {
    "postal": "N7S1B1",
    "result": [
      {
        "electoralDistricts": [
          {
            "election": null,
            "id": 91,
            "name": "Sarnia—Lambton"
          }
        ],
        "pollDivisionIds": [
          10141415
        ],
        "postalCode": "N7S1B1",
        "streetName": "DEVINE",
        "streetDirectionId": null,
        "streetTypeId": "ST",
        "placeName": "SARNIA",
        "streetNameDisplayText": "DEVINE ST, SARNIA"
      }
    ]
  },
  {
    "postal": "N7S8B6",
    "result": []
  },
  {
    "postal": "N7S6H1",
    "result": [
      {
        "electoralDistricts": [
          {
            "election": null,
            "id": 91,
            "name": "Sarnia—Lambton"
          }
        ],
        "pollDivisionIds": [
          10141415
        ],
        "postalCode": "N7S6H1",
        "streetName": "CONFEDERATION",
        "streetDirectionId": null,
        "streetTypeId": "ST",
        "placeName": "SARNIA",
        "streetNameDisplayText": "CONFEDERATION ST, SARNIA"
      }
    ]
  },
  {
    "postal": "N7S8T8",
    "result": []
  },
  {
    "postal": "N7S0T4",
    "result": []
  },
  {
    "postal": "N7S2C4",
    "result": [
      {
        "electoralDistricts": [
          {
            "election": null,
            "id": 91,
            "name": "Sarnia—Lambton"
          }
        ],
        "pollDivisionIds": [
          10141395
        ],
        "postalCode": "N7S2C4",
        "streetName": "SEVERIN",
        "streetDirectionId": "N",
        "streetTypeId": "DR",
        "placeName": "SARNIA",
        "streetNameDisplayText": "SEVERIN DR N, SARNIA"
      }
    ]
  },
  {
    "postal": "N7S8N3",
    "result": []
  },
  {
    "postal": "N7S4L8",
    "result": [
      {
        "electoralDistricts": [
          {
            "election": null,
            "id": 91,
            "name": "Sarnia—Lambton"
          }
        ],
        "pollDivisionIds": [
          10141400
        ],
        "postalCode": "N7S4L8",
        "streetName": "DANBURY",
        "streetDirectionId": null,
        "streetTypeId": "CRES",
        "placeName": "SARNIA",
        "streetNameDisplayText": "DANBURY CRES, SARNIA"
      }
    ]
  },
  {
    "postal": "N7S2B5",
    "result": [
      {
        "electoralDistricts": [
          {
            "election": null,
            "id": 91,
            "name": "Sarnia—Lambton"
          }
        ],
        "pollDivisionIds": [
          10141399
        ],
        "postalCode": "N7S2B5",
        "streetName": "MICHIGAN",
        "streetDirectionId": null,
        "streetTypeId": "AVE",
        "placeName": "SARNIA",
        "streetNameDisplayText": "MICHIGAN AVE, SARNIA"
      }
    ]
  },
  {
    "postal": "N7S3H1",
    "result": [
      {
        "electoralDistricts": [
          {
            "election": null,
            "id": 91,
            "name": "Sarnia—Lambton"
          }
        ],
        "pollDivisionIds": [
          10141399
        ],
        "postalCode": "N7S3H1",
        "streetName": "CONNOLLY",
        "streetDirectionId": null,
        "streetTypeId": "ST",
        "placeName": "SARNIA",
        "streetNameDisplayText": "CONNOLLY ST, SARNIA"
      }
    ]
  },
  {
    "postal": "N7S4Y1",
    "result": []
  },
  {
    "postal": "N7S7E2",
    "result": []
  },
  {
    "postal": "N7S2P5",
    "result": [
      {
        "electoralDistricts": [
          {
            "election": null,
            "id": 91,
            "name": "Sarnia—Lambton"
          }
        ],
        "pollDivisionIds": [
          10141410
        ],
        "postalCode": "N7S2P5",
        "streetName": "MASSEY",
        "streetDirectionId": null,
        "streetTypeId": "CRES",
        "placeName": "SARNIA",
        "streetNameDisplayText": "MASSEY CRES, SARNIA"
      }
    ]
  },
  {
    "postal": "N7S8R7",
    "result": []
  },
  {
    "postal": "N7S9P1",
    "result": []
  },
  {
    "postal": "N7S3B8",
    "result": [
      {
        "electoralDistricts": [
          {
            "election": null,
            "id": 91,
            "name": "Sarnia—Lambton"
          }
        ],
        "pollDivisionIds": [
          10141399
        ],
        "postalCode": "N7S3B8",
        "streetName": "WESTMINSTER",
        "streetDirectionId": null,
        "streetTypeId": "DR",
        "placeName": "SARNIA",
        "streetNameDisplayText": "WESTMINSTER DR, SARNIA"
      }
    ]
  },
  {
    "postal": "N7S3P7",
    "result": []
  },
  {
    "postal": "N7S9B2",
    "result": []
  },
  {
    "postal": "N7S6Z3",
    "result": []
  },
  {
    "postal": "N7S4N5",
    "result": [
      {
        "electoralDistricts": [
          {
            "election": null,
            "id": 91,
            "name": "Sarnia—Lambton"
          }
        ],
        "pollDivisionIds": [
          10141400
        ],
        "postalCode": "N7S4N5",
        "streetName": "DEBORA",
        "streetDirectionId": null,
        "streetTypeId": "CRT",
        "placeName": "SARNIA",
        "streetNameDisplayText": "DEBORA CRT, SARNIA"
      }
    ]
  },
  {
    "postal": "N7S8T3",
    "result": []
  },
  {
    "postal": "N7S1V2",
    "result": [
      {
        "electoralDistricts": [
          {
            "election": null,
            "id": 91,
            "name": "Sarnia—Lambton"
          }
        ],
        "pollDivisionIds": [
          10141403
        ],
        "postalCode": "N7S1V2",
        "streetName": "LOGAN",
        "streetDirectionId": null,
        "streetTypeId": "ST",
        "placeName": "SARNIA",
        "streetNameDisplayText": "LOGAN ST, SARNIA"
      }
    ]
  },
  {
    "postal": "N7S1Y0",
    "result": []
  },
  {
    "postal": "N7S3G6",
    "result": [
      {
        "electoralDistricts": [
          {
            "election": null,
            "id": 91,
            "name": "Sarnia—Lambton"
          }
        ],
        "pollDivisionIds": [
          10141399
        ],
        "postalCode": "N7S3G6",
        "streetName": "HAY",
        "streetDirectionId": null,
        "streetTypeId": "CRT",
        "placeName": "SARNIA",
        "streetNameDisplayText": "HAY CRT, SARNIA"
      }
    ]
  },
  {
    "postal": "N7S3H7",
    "result": [
      {
        "electoralDistricts": [
          {
            "election": null,
            "id": 91,
            "name": "Sarnia—Lambton"
          }
        ],
        "pollDivisionIds": [
          10141399
        ],
        "postalCode": "N7S3H7",
        "streetName": "BEL AIRE",
        "streetDirectionId": null,
        "streetTypeId": "DR",
        "placeName": "SARNIA",
        "streetNameDisplayText": "BEL AIRE DR, SARNIA"
      }
    ]
  },
  {
    "postal": "N7S7X8",
    "result": []
  },
  {
    "postal": "N7S0C7",
    "result": [
      {
        "electoralDistricts": [
          {
            "election": null,
            "id": 91,
            "name": "Sarnia—Lambton"
          }
        ],
        "pollDivisionIds": [
          10141390
        ],
        "postalCode": "N7S0C7",
        "streetName": "FRANCO",
        "streetDirectionId": null,
        "streetTypeId": "AVE",
        "placeName": "SARNIA",
        "streetNameDisplayText": "FRANCO AVE, SARNIA"
      },
      {
        "electoralDistricts": [
          {
            "election": null,
            "id": 91,
            "name": "Sarnia—Lambton"
          }
        ],
        "pollDivisionIds": [
          10141390
        ],
        "postalCode": "N7S0C7",
        "streetName": "LIZUCHA",
        "streetDirectionId": null,
        "streetTypeId": "DR",
        "placeName": "SARNIA",
        "streetNameDisplayText": "LIZUCHA DR, SARNIA"
      }
    ]
  },
  {
    "postal": "N7S0W9",
    "result": []
  },
  {
    "postal": "N7S8E6",
    "result": []
  },
  {
    "postal": "N7S9Z8",
    "result": []
  },
  {
    "postal": "N7S3P4",
    "result": [
      {
        "electoralDistricts": [
          {
            "election": null,
            "id": 91,
            "name": "Sarnia—Lambton"
          }
        ],
        "pollDivisionIds": [
          10141389
        ],
        "postalCode": "N7S3P4",
        "streetName": "MILLS",
        "streetDirectionId": null,
        "streetTypeId": "ST",
        "placeName": "SARNIA",
        "streetNameDisplayText": "MILLS ST, SARNIA"
      }
    ]
  },
  {
    "postal": "N7S6L8",
    "result": [
      {
        "electoralDistricts": [
          {
            "election": null,
            "id": 91,
            "name": "Sarnia—Lambton"
          }
        ],
        "pollDivisionIds": [
          10141411
        ],
        "postalCode": "N7S6L8",
        "streetName": "HEDDEN",
        "streetDirectionId": null,
        "streetTypeId": "CRT",
        "placeName": "SARNIA",
        "streetNameDisplayText": "HEDDEN CRT, SARNIA"
      }
    ]
  },
  {
    "postal": "N7S2R4",
    "result": [
      {
        "electoralDistricts": [
          {
            "election": null,
            "id": 91,
            "name": "Sarnia—Lambton"
          }
        ],
        "pollDivisionIds": [
          10141410
        ],
        "postalCode": "N7S2R4",
        "streetName": "MINTO",
        "streetDirectionId": null,
        "streetTypeId": "ST",
        "placeName": "SARNIA",
        "streetNameDisplayText": "MINTO ST, SARNIA"
      }
    ]
  },
  {
    "postal": "N7S2W1",
    "result": [
      {
        "electoralDistricts": [
          {
            "election": null,
            "id": 91,
            "name": "Sarnia—Lambton"
          }
        ],
        "pollDivisionIds": [
          10141403
        ],
        "postalCode": "N7S2W1",
        "streetName": "WOODHAVEN",
        "streetDirectionId": null,
        "streetTypeId": "AVE",
        "placeName": "SARNIA",
        "streetNameDisplayText": "WOODHAVEN AVE, SARNIA"
      }
    ]
  },
  {
    "postal": "N7S9H8",
    "result": []
  },
  {
    "postal": "N7S8X9",
    "result": []
  },
  {
    "postal": "N7S7H4",
    "result": []
  },
  {
    "postal": "N7S3J1",
    "result": [
      {
        "electoralDistricts": [
          {
            "election": null,
            "id": 91,
            "name": "Sarnia—Lambton"
          }
        ],
        "pollDivisionIds": [
          10141399
        ],
        "postalCode": "N7S3J1",
        "streetName": "SOLE",
        "streetDirectionId": null,
        "streetTypeId": "ST",
        "placeName": "SARNIA",
        "streetNameDisplayText": "SOLE ST, SARNIA"
      }
    ]
  },
  {
    "postal": "N7S1P4",
    "result": [
      {
        "electoralDistricts": [
          {
            "election": null,
            "id": 91,
            "name": "Sarnia—Lambton"
          }
        ],
        "pollDivisionIds": [
          10141403
        ],
        "postalCode": "N7S1P4",
        "streetName": "LONDON",
        "streetDirectionId": null,
        "streetTypeId": "RD",
        "placeName": "SARNIA",
        "streetNameDisplayText": "LONDON RD, SARNIA"
      }
    ]
  },
  {
    "postal": "N7S2A3",
    "result": [
      {
        "electoralDistricts": [
          {
            "election": null,
            "id": 91,
            "name": "Sarnia—Lambton"
          }
        ],
        "pollDivisionIds": [
          10141399
        ],
        "postalCode": "N7S2A3",
        "streetName": "HAY",
        "streetDirectionId": null,
        "streetTypeId": "ST",
        "placeName": "SARNIA",
        "streetNameDisplayText": "HAY ST, SARNIA"
      }
    ]
  },
  {
    "postal": "N7S0Z1",
    "result": []
  },
  {
    "postal": "N7S1C1",
    "result": [
      {
        "electoralDistricts": [
          {
            "election": null,
            "id": 91,
            "name": "Sarnia—Lambton"
          }
        ],
        "pollDivisionIds": [
          10141410
        ],
        "postalCode": "N7S1C1",
        "streetName": "TALFOURD",
        "streetDirectionId": null,
        "streetTypeId": "ST",
        "placeName": "SARNIA",
        "streetNameDisplayText": "TALFOURD ST, SARNIA"
      }
    ]
  },
  {
    "postal": "N7S0H3",
    "result": []
  },
  {
    "postal": "N7S7B0",
    "result": []
  },
  {
    "postal": "N7S5K2",
    "result": [
      {
        "electoralDistricts": [
          {
            "election": null,
            "id": 91,
            "name": "Sarnia—Lambton"
          }
        ],
        "pollDivisionIds": [
          10141396
        ],
        "postalCode": "N7S5K2",
        "streetName": "TRINITY",
        "streetDirectionId": null,
        "streetTypeId": "CRES",
        "placeName": "SARNIA",
        "streetNameDisplayText": "TRINITY CRES, SARNIA"
      }
    ]
  },
  {
    "postal": "N7S1E9",
    "result": [
      {
        "electoralDistricts": [
          {
            "election": null,
            "id": 91,
            "name": "Sarnia—Lambton"
          }
        ],
        "pollDivisionIds": [
          10141415
        ],
        "postalCode": "N7S1E9",
        "streetName": "BORDEN",
        "streetDirectionId": null,
        "streetTypeId": "ST",
        "placeName": "SARNIA",
        "streetNameDisplayText": "BORDEN ST, SARNIA"
      }
    ]
  },
  {
    "postal": "N7S9W7",
    "result": []
  },
  {
    "postal": "N7S5W6",
    "result": [
      {
        "electoralDistricts": [
          {
            "election": null,
            "id": 91,
            "name": "Sarnia—Lambton"
          }
        ],
        "pollDivisionIds": [
          10141396
        ],
        "postalCode": "N7S5W6",
        "streetName": "CONCORDIA",
        "streetDirectionId": null,
        "streetTypeId": "DR",
        "placeName": "SARNIA",
        "streetNameDisplayText": "CONCORDIA DR, SARNIA"
      },
      {
        "electoralDistricts": [
          {
            "election": null,
            "id": 91,
            "name": "Sarnia—Lambton"
          }
        ],
        "pollDivisionIds": [
          10141396
        ],
        "postalCode": "N7S5W6",
        "streetName": "ESSER",
        "streetDirectionId": null,
        "streetTypeId": "CRES",
        "placeName": "SARNIA",
        "streetNameDisplayText": "ESSER CRES, SARNIA"
      }
    ]
  },
  {
    "postal": "N7S6S6",
    "result": []
  },
  {
    "postal": "N7S2P8",
    "result": [
      {
        "electoralDistricts": [
          {
            "election": null,
            "id": 91,
            "name": "Sarnia—Lambton"
          }
        ],
        "pollDivisionIds": [
          10141410
        ],
        "postalCode": "N7S2P8",
        "streetName": "MONTCALM",
        "streetDirectionId": null,
        "streetTypeId": "AVE",
        "placeName": "SARNIA",
        "streetNameDisplayText": "MONTCALM AVE, SARNIA"
      }
    ]
  },
  {
    "postal": "N7S4P8",
    "result": [
      {
        "electoralDistricts": [
          {
            "election": null,
            "id": 91,
            "name": "Sarnia—Lambton"
          }
        ],
        "pollDivisionIds": [
          10141400
        ],
        "postalCode": "N7S4P8",
        "streetName": "HAZELWOOD",
        "streetDirectionId": null,
        "streetTypeId": "CRT",
        "placeName": "SARNIA",
        "streetNameDisplayText": "HAZELWOOD CRT, SARNIA"
      }
    ]
  },
  {
    "postal": "N7S0V9",
    "result": []
  },
  {
    "postal": "N7S5Y2",
    "result": [
      {
        "electoralDistricts": [
          {
            "election": null,
            "id": 91,
            "name": "Sarnia—Lambton"
          }
        ],
        "pollDivisionIds": [
          10141411
        ],
        "postalCode": "N7S5Y2",
        "streetName": "AFTON",
        "streetDirectionId": null,
        "streetTypeId": "CRT",
        "placeName": "SARNIA",
        "streetNameDisplayText": "AFTON CRT, SARNIA"
      }
    ]
  },
  {
    "postal": "N7S7Z7",
    "result": []
  },
  {
    "postal": "N7S6Y8",
    "result": []
  },
  {
    "postal": "N7S2G7",
    "result": [
      {
        "electoralDistricts": [
          {
            "election": null,
            "id": 91,
            "name": "Sarnia—Lambton"
          }
        ],
        "pollDivisionIds": [
          10141395
        ],
        "postalCode": "N7S2G7",
        "streetName": "GURD",
        "streetDirectionId": null,
        "streetTypeId": "ST",
        "placeName": "SARNIA",
        "streetNameDisplayText": "GURD ST, SARNIA"
      }
    ]
  },
  {
    "postal": "N7S8C1",
    "result": []
  },
  {
    "postal": "N7S5C5",
    "result": [
      {
        "electoralDistricts": [
          {
            "election": null,
            "id": 91,
            "name": "Sarnia—Lambton"
          }
        ],
        "pollDivisionIds": [
          10141395
        ],
        "postalCode": "N7S5C5",
        "streetName": "TWIN LAKES",
        "streetDirectionId": null,
        "streetTypeId": "DR",
        "placeName": "SARNIA",
        "streetNameDisplayText": "TWIN LAKES DR, SARNIA"
      }
    ]
  },
  {
    "postal": "N7S2X8",
    "result": [
      {
        "electoralDistricts": [
          {
            "election": null,
            "id": 91,
            "name": "Sarnia—Lambton"
          }
        ],
        "pollDivisionIds": [
          10141403
        ],
        "postalCode": "N7S2X8",
        "streetName": "MURPHY",
        "streetDirectionId": null,
        "streetTypeId": "RD",
        "placeName": "SARNIA",
        "streetNameDisplayText": "MURPHY RD, SARNIA"
      }
    ]
  },
  {
    "postal": "N7S1W5",
    "result": [
      {
        "electoralDistricts": [
          {
            "election": null,
            "id": 91,
            "name": "Sarnia—Lambton"
          }
        ],
        "pollDivisionIds": [
          10141403
        ],
        "postalCode": "N7S1W5",
        "streetName": "EXMOUTH",
        "streetDirectionId": null,
        "streetTypeId": "ST",
        "placeName": "SARNIA",
        "streetNameDisplayText": "EXMOUTH ST, SARNIA"
      }
    ]
  },
  {
    "postal": "N7S7G0",
    "result": []
  },
  {
    "postal": "N7S8J8",
    "result": []
  },
  {
    "postal": "N7S3Y0",
    "result": []
  },
  {
    "postal": "N7S9T7",
    "result": []
  },
  {
    "postal": "N7S5P4",
    "result": [
      {
        "electoralDistricts": [
          {
            "election": null,
            "id": 91,
            "name": "Sarnia—Lambton"
          }
        ],
        "pollDivisionIds": [
          10141411
        ],
        "postalCode": "N7S5P4",
        "streetName": "WELLINGTON",
        "streetDirectionId": null,
        "streetTypeId": "ST",
        "placeName": "SARNIA",
        "streetNameDisplayText": "WELLINGTON ST, SARNIA"
      }
    ]
  },
  {
    "postal": "N7S4B0",
    "result": []
  },
  {
    "postal": "N7S9N8",
    "result": []
  },
  {
    "postal": "N7S4A7",
    "result": [
      {
        "electoralDistricts": [
          {
            "election": null,
            "id": 91,
            "name": "Sarnia—Lambton"
          }
        ],
        "pollDivisionIds": [
          10141389
        ],
        "postalCode": "N7S4A7",
        "streetName": "BOVE",
        "streetDirectionId": null,
        "streetTypeId": "CRT",
        "placeName": "SARNIA",
        "streetNameDisplayText": "BOVE CRT, SARNIA"
      }
    ]
  },
  {
    "postal": "N7S4H9",
    "result": [
      {
        "electoralDistricts": [
          {
            "election": null,
            "id": 91,
            "name": "Sarnia—Lambton"
          }
        ],
        "pollDivisionIds": [
          10141415
        ],
        "postalCode": "N7S4H9",
        "streetName": "NASSAU",
        "streetDirectionId": null,
        "streetTypeId": "CRES",
        "placeName": "SARNIA",
        "streetNameDisplayText": "NASSAU CRES, SARNIA"
      }
    ]
  },
  {
    "postal": "N7S6X1",
    "result": []
  },
  {
    "postal": "N7S9Y7",
    "result": []
  },
  {
    "postal": "N7S2Y5",
    "result": [
      {
        "electoralDistricts": [
          {
            "election": null,
            "id": 91,
            "name": "Sarnia—Lambton"
          }
        ],
        "pollDivisionIds": [
          10141399
        ],
        "postalCode": "N7S2Y5",
        "streetName": "MURPHY",
        "streetDirectionId": null,
        "streetTypeId": "RD",
        "placeName": "SARNIA",
        "streetNameDisplayText": "MURPHY RD, SARNIA"
      }
    ]
  },
  {
    "postal": "N7S8L7",
    "result": []
  },
  {
    "postal": "N7S2A8",
    "result": [
      {
        "electoralDistricts": [
          {
            "election": null,
            "id": 91,
            "name": "Sarnia—Lambton"
          }
        ],
        "pollDivisionIds": [
          10141399
        ],
        "postalCode": "N7S2A8",
        "streetName": "LILAC",
        "streetDirectionId": null,
        "streetTypeId": "AVE",
        "placeName": "SARNIA",
        "streetNameDisplayText": "LILAC AVE, SARNIA"
      }
    ]
  },
  {
    "postal": "N7S2K9",
    "result": [
      {
        "electoralDistricts": [
          {
            "election": null,
            "id": 91,
            "name": "Sarnia—Lambton"
          }
        ],
        "pollDivisionIds": [
          10141389
        ],
        "postalCode": "N7S2K9",
        "streetName": "SYLVAN",
        "streetDirectionId": null,
        "streetTypeId": "CRT",
        "placeName": "SARNIA",
        "streetNameDisplayText": "SYLVAN CRT, SARNIA"
      }
    ]
  },
  {
    "postal": "N7S3E5",
    "result": [
      {
        "electoralDistricts": [
          {
            "election": null,
            "id": 91,
            "name": "Sarnia—Lambton"
          }
        ],
        "pollDivisionIds": [
          10141399
        ],
        "postalCode": "N7S3E5",
        "streetName": "ALLANDALE",
        "streetDirectionId": null,
        "streetTypeId": "DR",
        "placeName": "SARNIA",
        "streetNameDisplayText": "ALLANDALE DR, SARNIA"
      }
    ]
  },
  {
    "postal": "N7S8N6",
    "result": []
  },
  {
    "postal": "N7S8J4",
    "result": []
  },
  {
    "postal": "N7S4R7",
    "result": [
      {
        "electoralDistricts": [
          {
            "election": null,
            "id": 91,
            "name": "Sarnia—Lambton"
          }
        ],
        "pollDivisionIds": [
          10141400
        ],
        "postalCode": "N7S4R7",
        "streetName": "SHEFFIELD",
        "streetDirectionId": null,
        "streetTypeId": "ST",
        "placeName": "SARNIA",
        "streetNameDisplayText": "SHEFFIELD ST, SARNIA"
      }
    ]
  },
  {
    "postal": "N7S9K1",
    "result": []
  },
  {
    "postal": "N7S8E1",
    "result": []
  },
  {
    "postal": "N7S0R1",
    "result": []
  },
  {
    "postal": "N7S4J3",
    "result": [
      {
        "electoralDistricts": [
          {
            "election": null,
            "id": 91,
            "name": "Sarnia—Lambton"
          }
        ],
        "pollDivisionIds": [
          10141412
        ],
        "postalCode": "N7S4J3",
        "streetName": "OSLO",
        "streetDirectionId": null,
        "streetTypeId": "CRES",
        "placeName": "SARNIA",
        "streetNameDisplayText": "OSLO CRES, SARNIA"
      }
    ]
  },
  {
    "postal": "N7S7E7",
    "result": []
  },
  {
    "postal": "N7S0J0",
    "result": []
  },
  {
    "postal": "N7S7R8",
    "result": []
  },
  {
    "postal": "N7S9X0",
    "result": []
  },
  {
    "postal": "N7S7P6",
    "result": []
  },
  {
    "postal": "N7S0R7",
    "result": []
  },
  {
    "postal": "N7S5W1",
    "result": [
      {
        "electoralDistricts": [
          {
            "election": null,
            "id": 91,
            "name": "Sarnia—Lambton"
          }
        ],
        "pollDivisionIds": [
          10141411
        ],
        "postalCode": "N7S5W1",
        "streetName": "CONESTOGA",
        "streetDirectionId": null,
        "streetTypeId": "DR",
        "placeName": "SARNIA",
        "streetNameDisplayText": "CONESTOGA DR, SARNIA"
      }
    ]
  },
  {
    "postal": "N7S0K4",
    "result": []
  },
  {
    "postal": "N7S7N9",
    "result": []
  },
  {
    "postal": "N7S1N0",
    "result": []
  },
  {
    "postal": "N7S6P3",
    "result": []
  },
  {
    "postal": "N7S5A1",
    "result": [
      {
        "electoralDistricts": [
          {
            "election": null,
            "id": 91,
            "name": "Sarnia—Lambton"
          }
        ],
        "pollDivisionIds": [
          10141403
        ],
        "postalCode": "N7S5A1",
        "streetName": "LAMBTON MALL",
        "streetDirectionId": null,
        "streetTypeId": "RD",
        "placeName": "SARNIA",
        "streetNameDisplayText": "LAMBTON MALL RD, SARNIA"
      }
    ]
  },
  {
    "postal": "N7S9M9",
    "result": []
  },
  {
    "postal": "N7S7T6",
    "result": []
  },
  {
    "postal": "N7S3X0",
    "result": []
  },
  {
    "postal": "N7S2T0",
    "result": []
  },
  {
    "postal": "N7S5X9",
    "result": [
      {
        "electoralDistricts": [
          {
            "election": null,
            "id": 91,
            "name": "Sarnia—Lambton"
          }
        ],
        "pollDivisionIds": [
          10141396
        ],
        "postalCode": "N7S5X9",
        "streetName": "OAKRIDGE",
        "streetDirectionId": null,
        "streetTypeId": "TRAIL",
        "placeName": "SARNIA",
        "streetNameDisplayText": "OAKRIDGE TRAIL, SARNIA"
      }
    ]
  },
  {
    "postal": "N7S2R3",
    "result": [
      {
        "electoralDistricts": [
          {
            "election": null,
            "id": 91,
            "name": "Sarnia—Lambton"
          }
        ],
        "pollDivisionIds": [
          10141410
        ],
        "postalCode": "N7S2R3",
        "streetName": "MONTCALM",
        "streetDirectionId": null,
        "streetTypeId": "AVE",
        "placeName": "SARNIA",
        "streetNameDisplayText": "MONTCALM AVE, SARNIA"
      }
    ]
  },
  {
    "postal": "N7S5N2",
    "result": [
      {
        "electoralDistricts": [
          {
            "election": null,
            "id": 91,
            "name": "Sarnia—Lambton"
          }
        ],
        "pollDivisionIds": [
          10141415
        ],
        "postalCode": "N7S5N2",
        "streetName": "CHESTER",
        "streetDirectionId": null,
        "streetTypeId": "ST",
        "placeName": "SARNIA",
        "streetNameDisplayText": "CHESTER ST, SARNIA"
      }
    ]
  },
  {
    "postal": "N7S4Y7",
    "result": [
      {
        "electoralDistricts": [
          {
            "election": null,
            "id": 91,
            "name": "Sarnia—Lambton"
          }
        ],
        "pollDivisionIds": [
          10141415
        ],
        "postalCode": "N7S4Y7",
        "streetName": "HAMPTON",
        "streetDirectionId": null,
        "streetTypeId": "AVE",
        "placeName": "SARNIA",
        "streetNameDisplayText": "HAMPTON AVE, SARNIA"
      }
    ]
  },
  {
    "postal": "N7S7M0",
    "result": []
  },
  {
    "postal": "N7S8P3",
    "result": []
  },
  {
    "postal": "N7S3N3",
    "result": [
      {
        "electoralDistricts": [
          {
            "election": null,
            "id": 91,
            "name": "Sarnia—Lambton"
          }
        ],
        "pollDivisionIds": [
          10141389
        ],
        "postalCode": "N7S3N3",
        "streetName": "LORI",
        "streetDirectionId": null,
        "streetTypeId": "AVE",
        "placeName": "SARNIA",
        "streetNameDisplayText": "LORI AVE, SARNIA"
      }
    ]
  },
  {
    "postal": "N7S7S3",
    "result": []
  },
  {
    "postal": "N7S3V9",
    "result": []
  },
  {
    "postal": "N7S9N7",
    "result": []
  },
  {
    "postal": "N7S0G4",
    "result": []
  },
  {
    "postal": "N7S2E2",
    "result": [
      {
        "electoralDistricts": [
          {
            "election": null,
            "id": 91,
            "name": "Sarnia—Lambton"
          }
        ],
        "pollDivisionIds": [
          10141395
        ],
        "postalCode": "N7S2E2",
        "streetName": "LOMBARDY",
        "streetDirectionId": null,
        "streetTypeId": "DR",
        "placeName": "SARNIA",
        "streetNameDisplayText": "LOMBARDY DR, SARNIA"
      }
    ]
  },
  {
    "postal": "N7S7W8",
    "result": []
  },
  {
    "postal": "N7S7M5",
    "result": []
  },
  {
    "postal": "N7S5W8",
    "result": [
      {
        "electoralDistricts": [
          {
            "election": null,
            "id": 91,
            "name": "Sarnia—Lambton"
          }
        ],
        "pollDivisionIds": [
          10141396
        ],
        "postalCode": "N7S5W8",
        "streetName": "ESSER",
        "streetDirectionId": null,
        "streetTypeId": "CRES",
        "placeName": "SARNIA",
        "streetNameDisplayText": "ESSER CRES, SARNIA"
      }
    ]
  },
  {
    "postal": "N7S5E5",
    "result": [
      {
        "electoralDistricts": [
          {
            "election": null,
            "id": 91,
            "name": "Sarnia—Lambton"
          }
        ],
        "pollDivisionIds": [
          10141396
        ],
        "postalCode": "N7S5E5",
        "streetName": "ERROL",
        "streetDirectionId": "E",
        "streetTypeId": "RD",
        "placeName": "SARNIA",
        "streetNameDisplayText": "ERROL RD E, SARNIA"
      }
    ]
  },
  {
    "postal": "N7S1P9",
    "result": []
  },
  {
    "postal": "N7S8V8",
    "result": []
  },
  {
    "postal": "N7S9G8",
    "result": []
  },
  {
    "postal": "N7S8H9",
    "result": []
  },
  {
    "postal": "N7S1Z1",
    "result": [
      {
        "electoralDistricts": [
          {
            "election": null,
            "id": 91,
            "name": "Sarnia—Lambton"
          }
        ],
        "pollDivisionIds": [
          10141399
        ],
        "postalCode": "N7S1Z1",
        "streetName": "ROSEDALE",
        "streetDirectionId": null,
        "streetTypeId": "AVE",
        "placeName": "SARNIA",
        "streetNameDisplayText": "ROSEDALE AVE, SARNIA"
      }
    ]
  },
  {
    "postal": "N7S8M3",
    "result": []
  },
  {
    "postal": "N7S5H6",
    "result": [
      {
        "electoralDistricts": [
          {
            "election": null,
            "id": 91,
            "name": "Sarnia—Lambton"
          }
        ],
        "pollDivisionIds": [
          10141412
        ],
        "postalCode": "N7S5H6",
        "streetName": "FINCH",
        "streetDirectionId": null,
        "streetTypeId": "DR",
        "placeName": "SARNIA",
        "streetNameDisplayText": "FINCH DR, SARNIA"
      }
    ]
  },
  {
    "postal": "N7S7W7",
    "result": []
  },
  {
    "postal": "N7S4L0",
    "result": []
  },
  {
    "postal": "N7S2N1",
    "result": [
      {
        "electoralDistricts": [
          {
            "election": null,
            "id": 91,
            "name": "Sarnia—Lambton"
          }
        ],
        "pollDivisionIds": [
          10141389
        ],
        "postalCode": "N7S2N1",
        "streetName": "CHUDLEIGH",
        "streetDirectionId": null,
        "streetTypeId": "RD",
        "placeName": "SARNIA",
        "streetNameDisplayText": "CHUDLEIGH RD, SARNIA"
      }
    ]
  },
  {
    "postal": "N7S2H4",
    "result": [
      {
        "electoralDistricts": [
          {
            "election": null,
            "id": 91,
            "name": "Sarnia—Lambton"
          }
        ],
        "pollDivisionIds": [
          10141395
        ],
        "postalCode": "N7S2H4",
        "streetName": "CATHCART",
        "streetDirectionId": null,
        "streetTypeId": "BLVD",
        "placeName": "SARNIA",
        "streetNameDisplayText": "CATHCART BLVD, SARNIA"
      }
    ]
  },
  {
    "postal": "N7S5C8",
    "result": [
      {
        "electoralDistricts": [
          {
            "election": null,
            "id": 91,
            "name": "Sarnia—Lambton"
          }
        ],
        "pollDivisionIds": [
          10141411
        ],
        "postalCode": "N7S5C8",
        "streetName": "BRADFORD",
        "streetDirectionId": null,
        "streetTypeId": "DR",
        "placeName": "SARNIA",
        "streetNameDisplayText": "BRADFORD DR, SARNIA"
      }
    ]
  },
  {
    "postal": "N7S8B0",
    "result": []
  },
  {
    "postal": "N7S1T4",
    "result": [
      {
        "electoralDistricts": [
          {
            "election": null,
            "id": 91,
            "name": "Sarnia—Lambton"
          }
        ],
        "pollDivisionIds": [
          10141403
        ],
        "postalCode": "N7S1T4",
        "streetName": "WILLA",
        "streetDirectionId": null,
        "streetTypeId": "DR",
        "placeName": "SARNIA",
        "streetNameDisplayText": "WILLA DR, SARNIA"
      }
    ]
  },
  {
    "postal": "N7S7N7",
    "result": []
  },
  {
    "postal": "N7S4L3",
    "result": [
      {
        "electoralDistricts": [
          {
            "election": null,
            "id": 91,
            "name": "Sarnia—Lambton"
          }
        ],
        "pollDivisionIds": [
          10141415,
          10141412
        ],
        "postalCode": "N7S4L3",
        "streetName": "TURNER",
        "streetDirectionId": null,
        "streetTypeId": "DR",
        "placeName": "SARNIA",
        "streetNameDisplayText": "TURNER DR, SARNIA"
      }
    ]
  },
  {
    "postal": "N7S2N2",
    "result": [
      {
        "electoralDistricts": [
          {
            "election": null,
            "id": 91,
            "name": "Sarnia—Lambton"
          }
        ],
        "pollDivisionIds": [
          10141389
        ],
        "postalCode": "N7S2N2",
        "streetName": "HILLCREST",
        "streetDirectionId": null,
        "streetTypeId": "DR",
        "placeName": "SARNIA",
        "streetNameDisplayText": "HILLCREST DR, SARNIA"
      },
      {
        "electoralDistricts": [
          {
            "election": null,
            "id": 91,
            "name": "Sarnia—Lambton"
          }
        ],
        "pollDivisionIds": [
          10141389
        ],
        "postalCode": "N7S2N2",
        "streetName": "HILLCREST NISBET",
        "streetDirectionId": null,
        "streetTypeId": "DR",
        "placeName": "SARNIA",
        "streetNameDisplayText": "HILLCREST NISBET DR, SARNIA"
      },
      {
        "electoralDistricts": [
          {
            "election": null,
            "id": 91,
            "name": "Sarnia—Lambton"
          }
        ],
        "pollDivisionIds": [
          10141389
        ],
        "postalCode": "N7S2N2",
        "streetName": "HILLCREST-NISBET",
        "streetDirectionId": null,
        "streetTypeId": "DR",
        "placeName": "SARNIA",
        "streetNameDisplayText": "HILLCREST-NISBET DR, SARNIA"
      }
    ]
  },
  {
    "postal": "N7S4N8",
    "result": [
      {
        "electoralDistricts": [
          {
            "election": null,
            "id": 91,
            "name": "Sarnia—Lambton"
          }
        ],
        "pollDivisionIds": [
          10141400
        ],
        "postalCode": "N7S4N8",
        "streetName": "SALISBURY",
        "streetDirectionId": null,
        "streetTypeId": "ST",
        "placeName": "SARNIA",
        "streetNameDisplayText": "SALISBURY ST, SARNIA"
      }
    ]
  },
  {
    "postal": "N7S3M5",
    "result": [
      {
        "electoralDistricts": [
          {
            "election": null,
            "id": 91,
            "name": "Sarnia—Lambton"
          }
        ],
        "pollDivisionIds": [
          10141395
        ],
        "postalCode": "N7S3M5",
        "streetName": "MILLER",
        "streetDirectionId": null,
        "streetTypeId": "DR",
        "placeName": "SARNIA",
        "streetNameDisplayText": "MILLER DR, SARNIA"
      }
    ]
  },
  {
    "postal": "N7S6H7",
    "result": [
      {
        "electoralDistricts": [
          {
            "election": null,
            "id": 91,
            "name": "Sarnia—Lambton"
          }
        ],
        "pollDivisionIds": [
          10141415
        ],
        "postalCode": "N7S6H7",
        "streetName": "CHANTEL",
        "streetDirectionId": null,
        "streetTypeId": "CRT",
        "placeName": "SARNIA",
        "streetNameDisplayText": "CHANTEL CRT, SARNIA"
      }
    ]
  },
  {
    "postal": "N7S8Y8",
    "result": []
  },
  {
    "postal": "N7S5R9",
    "result": [
      {
        "electoralDistricts": [
          {
            "election": null,
            "id": 91,
            "name": "Sarnia—Lambton"
          }
        ],
        "pollDivisionIds": [
          10141412
        ],
        "postalCode": "N7S5R9",
        "streetName": "FINCH",
        "streetDirectionId": null,
        "streetTypeId": "DR",
        "placeName": "SARNIA",
        "streetNameDisplayText": "FINCH DR, SARNIA"
      }
    ]
  },
  {
    "postal": "N7S8G3",
    "result": []
  },
  {
    "postal": "N7S4N7",
    "result": [
      {
        "electoralDistricts": [
          {
            "election": null,
            "id": 91,
            "name": "Sarnia—Lambton"
          }
        ],
        "pollDivisionIds": [
          10141400
        ],
        "postalCode": "N7S4N7",
        "streetName": "SALISBURY",
        "streetDirectionId": null,
        "streetTypeId": "ST",
        "placeName": "SARNIA",
        "streetNameDisplayText": "SALISBURY ST, SARNIA"
      }
    ]
  },
  {
    "postal": "N7S0B9",
    "result": [
      {
        "electoralDistricts": [
          {
            "election": null,
            "id": 91,
            "name": "Sarnia—Lambton"
          }
        ],
        "pollDivisionIds": [
          10141399
        ],
        "postalCode": "N7S0B9",
        "streetName": "ERICA",
        "streetDirectionId": null,
        "streetTypeId": "CRT",
        "placeName": "SARNIA",
        "streetNameDisplayText": "ERICA CRT, SARNIA"
      }
    ]
  },
  {
    "postal": "N7S9K7",
    "result": []
  },
  {
    "postal": "N7S9K9",
    "result": []
  },
  {
    "postal": "N7S3Z2",
    "result": [
      {
        "electoralDistricts": [
          {
            "election": null,
            "id": 91,
            "name": "Sarnia—Lambton"
          }
        ],
        "pollDivisionIds": [
          10141400
        ],
        "postalCode": "N7S3Z2",
        "streetName": "STAFFORD",
        "streetDirectionId": null,
        "streetTypeId": "PL",
        "placeName": "SARNIA",
        "streetNameDisplayText": "STAFFORD PL, SARNIA"
      }
    ]
  },
  {
    "postal": "N7S6W7",
    "result": []
  },
  {
    "postal": "N7S0P1",
    "result": []
  },
  {
    "postal": "N7S3A0",
    "result": []
  },
  {
    "postal": "N7S8L9",
    "result": []
  },
  {
    "postal": "N7S6X0",
    "result": []
  },
  {
    "postal": "N7S3E9",
    "result": [
      {
        "electoralDistricts": [
          {
            "election": null,
            "id": 91,
            "name": "Sarnia—Lambton"
          }
        ],
        "pollDivisionIds": [
          10141399
        ],
        "postalCode": "N7S3E9",
        "streetName": "GRIFFITH",
        "streetDirectionId": null,
        "streetTypeId": "RD",
        "placeName": "SARNIA",
        "streetNameDisplayText": "GRIFFITH RD, SARNIA"
      }
    ]
  },
  {
    "postal": "N7S0S5",
    "result": []
  },
  {
    "postal": "N7S1A2",
    "result": [
      {
        "electoralDistricts": [
          {
            "election": null,
            "id": 91,
            "name": "Sarnia—Lambton"
          }
        ],
        "pollDivisionIds": [
          10141415
        ],
        "postalCode": "N7S1A2",
        "streetName": "BENNETT",
        "streetDirectionId": null,
        "streetTypeId": "ST",
        "placeName": "SARNIA",
        "streetNameDisplayText": "BENNETT ST, SARNIA"
      }
    ]
  },
  {
    "postal": "N7S5V8",
    "result": [
      {
        "electoralDistricts": [
          {
            "election": null,
            "id": 91,
            "name": "Sarnia—Lambton"
          }
        ],
        "pollDivisionIds": [
          10141411
        ],
        "postalCode": "N7S5V8",
        "streetName": "SENECA",
        "streetDirectionId": null,
        "streetTypeId": "CRT",
        "placeName": "SARNIA",
        "streetNameDisplayText": "SENECA CRT, SARNIA"
      }
    ]
  },
  {
    "postal": "N7S8C5",
    "result": []
  },
  {
    "postal": "N7S6N0",
    "result": []
  },
  {
    "postal": "N7S9E6",
    "result": []
  },
  {
    "postal": "N7S5J7",
    "result": [
      {
        "electoralDistricts": [
          {
            "election": null,
            "id": 91,
            "name": "Sarnia—Lambton"
          }
        ],
        "pollDivisionIds": [
          10141396
        ],
        "postalCode": "N7S5J7",
        "streetName": "ESSER",
        "streetDirectionId": null,
        "streetTypeId": "CRES",
        "placeName": "SARNIA",
        "streetNameDisplayText": "ESSER CRES, SARNIA"
      }
    ]
  },
  {
    "postal": "N7S2R2",
    "result": [
      {
        "electoralDistricts": [
          {
            "election": null,
            "id": 91,
            "name": "Sarnia—Lambton"
          }
        ],
        "pollDivisionIds": [
          10141410
        ],
        "postalCode": "N7S2R2",
        "streetName": "MONTCALM",
        "streetDirectionId": null,
        "streetTypeId": "AVE",
        "placeName": "SARNIA",
        "streetNameDisplayText": "MONTCALM AVE, SARNIA"
      }
    ]
  },
  {
    "postal": "N7S0P5",
    "result": []
  },
  {
    "postal": "N7S5A7",
    "result": [
      {
        "electoralDistricts": [
          {
            "election": null,
            "id": 91,
            "name": "Sarnia—Lambton"
          }
        ],
        "pollDivisionIds": [
          10141415
        ],
        "postalCode": "N7S5A7",
        "streetName": "FINCH",
        "streetDirectionId": null,
        "streetTypeId": "DR",
        "placeName": "SARNIA",
        "streetNameDisplayText": "FINCH DR, SARNIA"
      }
    ]
  },
  {
    "postal": "N7S1G1",
    "result": [
      {
        "electoralDistricts": [
          {
            "election": null,
            "id": 91,
            "name": "Sarnia—Lambton"
          }
        ],
        "pollDivisionIds": [
          10141415
        ],
        "postalCode": "N7S1G1",
        "streetName": "BORDEN",
        "streetDirectionId": null,
        "streetTypeId": "ST",
        "placeName": "SARNIA",
        "streetNameDisplayText": "BORDEN ST, SARNIA"
      }
    ]
  },
  {
    "postal": "N7S9R6",
    "result": []
  },
  {
    "postal": "N7S4Z9",
    "result": []
  },
  {
    "postal": "N7S1V5",
    "result": [
      {
        "electoralDistricts": [
          {
            "election": null,
            "id": 91,
            "name": "Sarnia—Lambton"
          }
        ],
        "pollDivisionIds": [
          10141403
        ],
        "postalCode": "N7S1V5",
        "streetName": "LOGAN",
        "streetDirectionId": null,
        "streetTypeId": "ST",
        "placeName": "SARNIA",
        "streetNameDisplayText": "LOGAN ST, SARNIA"
      }
    ]
  },
  {
    "postal": "N7S9Y5",
    "result": []
  },
  {
    "postal": "N7S1P2",
    "result": [
      {
        "electoralDistricts": [
          {
            "election": null,
            "id": 91,
            "name": "Sarnia—Lambton"
          }
        ],
        "pollDivisionIds": [
          10141410
        ],
        "postalCode": "N7S1P2",
        "streetName": "LONDON",
        "streetDirectionId": null,
        "streetTypeId": "RD",
        "placeName": "SARNIA",
        "streetNameDisplayText": "LONDON RD, SARNIA"
      }
    ]
  },
  {
    "postal": "N7S5X0",
    "result": []
  },
  {
    "postal": "N7S7B8",
    "result": []
  },
  {
    "postal": "N7S0C6",
    "result": [
      {
        "electoralDistricts": [
          {
            "election": null,
            "id": 91,
            "name": "Sarnia—Lambton"
          }
        ],
        "pollDivisionIds": [
          10141390
        ],
        "postalCode": "N7S0C6",
        "streetName": "LIZUCHA",
        "streetDirectionId": null,
        "streetTypeId": "DR",
        "placeName": "SARNIA",
        "streetNameDisplayText": "LIZUCHA DR, SARNIA"
      },
      {
        "electoralDistricts": [
          {
            "election": null,
            "id": 91,
            "name": "Sarnia—Lambton"
          }
        ],
        "pollDivisionIds": [
          10141390
        ],
        "postalCode": "N7S0C6",
        "streetName": "LUCAS",
        "streetDirectionId": null,
        "streetTypeId": "AVE",
        "placeName": "SARNIA",
        "streetNameDisplayText": "LUCAS AVE, SARNIA"
      }
    ]
  },
  {
    "postal": "N7S6G1",
    "result": []
  },
  {
    "postal": "N7S3K3",
    "result": [
      {
        "electoralDistricts": [
          {
            "election": null,
            "id": 91,
            "name": "Sarnia—Lambton"
          }
        ],
        "pollDivisionIds": [
          10141395
        ],
        "postalCode": "N7S3K3",
        "streetName": "ECHO",
        "streetDirectionId": null,
        "streetTypeId": "RD",
        "placeName": "SARNIA",
        "streetNameDisplayText": "ECHO RD, SARNIA"
      }
    ]
  },
  {
    "postal": "N7S9R0",
    "result": []
  },
  {
    "postal": "N7S4R8",
    "result": [
      {
        "electoralDistricts": [
          {
            "election": null,
            "id": 91,
            "name": "Sarnia—Lambton"
          }
        ],
        "pollDivisionIds": [
          10141399
        ],
        "postalCode": "N7S4R8",
        "streetName": "DAGAN",
        "streetDirectionId": null,
        "streetTypeId": "ST",
        "placeName": "SARNIA",
        "streetNameDisplayText": "DAGAN ST, SARNIA"
      }
    ]
  },
  {
    "postal": "N7S5P9",
    "result": [
      {
        "electoralDistricts": [
          {
            "election": null,
            "id": 91,
            "name": "Sarnia—Lambton"
          }
        ],
        "pollDivisionIds": [
          10141396
        ],
        "postalCode": "N7S5P9",
        "streetName": "TRINITY",
        "streetDirectionId": null,
        "streetTypeId": "CRES",
        "placeName": "SARNIA",
        "streetNameDisplayText": "TRINITY CRES, SARNIA"
      }
    ]
  },
  {
    "postal": "N7S8N4",
    "result": []
  },
  {
    "postal": "N7S8H4",
    "result": []
  },
  {
    "postal": "N7S4V1",
    "result": [
      {
        "electoralDistricts": [
          {
            "election": null,
            "id": 91,
            "name": "Sarnia—Lambton"
          }
        ],
        "pollDivisionIds": [
          10141415
        ],
        "postalCode": "N7S4V1",
        "streetName": "TRUDEAU",
        "streetDirectionId": null,
        "streetTypeId": "DR",
        "placeName": "SARNIA",
        "streetNameDisplayText": "TRUDEAU DR, SARNIA"
      }
    ]
  },
  {
    "postal": "N7S1K5",
    "result": [
      {
        "electoralDistricts": [
          {
            "election": null,
            "id": 91,
            "name": "Sarnia—Lambton"
          }
        ],
        "pollDivisionIds": [
          10141410
        ],
        "postalCode": "N7S1K5",
        "streetName": "ATHLONE",
        "streetDirectionId": null,
        "streetTypeId": "ST",
        "placeName": "SARNIA",
        "streetNameDisplayText": "ATHLONE ST, SARNIA"
      }
    ]
  },
  {
    "postal": "N7S1Z5",
    "result": [
      {
        "electoralDistricts": [
          {
            "election": null,
            "id": 91,
            "name": "Sarnia—Lambton"
          }
        ],
        "pollDivisionIds": [
          10141399
        ],
        "postalCode": "N7S1Z5",
        "streetName": "ROSEDALE",
        "streetDirectionId": null,
        "streetTypeId": "AVE",
        "placeName": "SARNIA",
        "streetNameDisplayText": "ROSEDALE AVE, SARNIA"
      }
    ]
  },
  {
    "postal": "N7S9L9",
    "result": []
  },
  {
    "postal": "N7S5L2",
    "result": [
      {
        "electoralDistricts": [
          {
            "election": null,
            "id": 91,
            "name": "Sarnia—Lambton"
          }
        ],
        "pollDivisionIds": [
          10141396
        ],
        "postalCode": "N7S5L2",
        "streetName": "ERROL",
        "streetDirectionId": "E",
        "streetTypeId": "RD",
        "placeName": "SARNIA",
        "streetNameDisplayText": "ERROL RD E, SARNIA"
      }
    ]
  },
  {
    "postal": "N7S0M2",
    "result": []
  },
  {
    "postal": "N7S1K8",
    "result": [
      {
        "electoralDistricts": [
          {
            "election": null,
            "id": 91,
            "name": "Sarnia—Lambton"
          }
        ],
        "pollDivisionIds": [
          10141410
        ],
        "postalCode": "N7S1K8",
        "streetName": "MAYFAIR",
        "streetDirectionId": null,
        "streetTypeId": "DR",
        "placeName": "SARNIA",
        "streetNameDisplayText": "MAYFAIR DR, SARNIA"
      }
    ]
  },
  {
    "postal": "N7S3M7",
    "result": [
      {
        "electoralDistricts": [
          {
            "election": null,
            "id": 91,
            "name": "Sarnia—Lambton"
          }
        ],
        "pollDivisionIds": [
          10141395
        ],
        "postalCode": "N7S3M7",
        "streetName": "HUNT",
        "streetDirectionId": null,
        "streetTypeId": "ST",
        "placeName": "SARNIA",
        "streetNameDisplayText": "HUNT ST, SARNIA"
      }
    ]
  },
  {
    "postal": "N7S1B2",
    "result": [
      {
        "electoralDistricts": [
          {
            "election": null,
            "id": 91,
            "name": "Sarnia—Lambton"
          }
        ],
        "pollDivisionIds": [
          10141415
        ],
        "postalCode": "N7S1B2",
        "streetName": "ST. LAURENT",
        "streetDirectionId": null,
        "streetTypeId": "DR",
        "placeName": "SARNIA",
        "streetNameDisplayText": "ST. LAURENT DR, SARNIA"
      }
    ]
  },
  {
    "postal": "N7S0H9",
    "result": []
  },
  {
    "postal": "N7S8M4",
    "result": []
  },
  {
    "postal": "N7S2M5",
    "result": [
      {
        "electoralDistricts": [
          {
            "election": null,
            "id": 91,
            "name": "Sarnia—Lambton"
          }
        ],
        "pollDivisionIds": [
          10141389
        ],
        "postalCode": "N7S2M5",
        "streetName": "HAIGHT",
        "streetDirectionId": null,
        "streetTypeId": "LANE",
        "placeName": "SARNIA",
        "streetNameDisplayText": "HAIGHT LANE, SARNIA"
      }
    ]
  },
  {
    "postal": "N7S0T9",
    "result": []
  },
  {
    "postal": "N7S3P1",
    "result": [
      {
        "electoralDistricts": [
          {
            "election": null,
            "id": 91,
            "name": "Sarnia—Lambton"
          }
        ],
        "pollDivisionIds": [
          10141389
        ],
        "postalCode": "N7S3P1",
        "streetName": "MILLS",
        "streetDirectionId": null,
        "streetTypeId": "ST",
        "placeName": "SARNIA",
        "streetNameDisplayText": "MILLS ST, SARNIA"
      }
    ]
  },
  {
    "postal": "N7S1R6",
    "result": [
      {
        "electoralDistricts": [
          {
            "election": null,
            "id": 91,
            "name": "Sarnia—Lambton"
          }
        ],
        "pollDivisionIds": [
          10141403
        ],
        "postalCode": "N7S1R6",
        "streetName": "BRENCHLEY",
        "streetDirectionId": null,
        "streetTypeId": "ST",
        "placeName": "SARNIA",
        "streetNameDisplayText": "BRENCHLEY ST, SARNIA"
      }
    ]
  },
  {
    "postal": "N7S9V5",
    "result": []
  },
  {
    "postal": "N7S9T0",
    "result": []
  },
  {
    "postal": "N7S0A9",
    "result": []
  },
  {
    "postal": "N7S1M3",
    "result": [
      {
        "electoralDistricts": [
          {
            "election": null,
            "id": 91,
            "name": "Sarnia—Lambton"
          }
        ],
        "pollDivisionIds": [
          10141410
        ],
        "postalCode": "N7S1M3",
        "streetName": "LISGAR",
        "streetDirectionId": null,
        "streetTypeId": "ST",
        "placeName": "SARNIA",
        "streetNameDisplayText": "LISGAR ST, SARNIA"
      }
    ]
  },
  {
    "postal": "N7S1W8",
    "result": [
      {
        "electoralDistricts": [
          {
            "election": null,
            "id": 91,
            "name": "Sarnia—Lambton"
          }
        ],
        "pollDivisionIds": [
          10141403
        ],
        "postalCode": "N7S1W8",
        "streetName": "EXMOUTH",
        "streetDirectionId": null,
        "streetTypeId": "ST",
        "placeName": "SARNIA",
        "streetNameDisplayText": "EXMOUTH ST, SARNIA"
      }
    ]
  },
  {
    "postal": "N7S9J1",
    "result": []
  },
  {
    "postal": "N7S8N5",
    "result": []
  },
  {
    "postal": "N7S5X1",
    "result": [
      {
        "electoralDistricts": [
          {
            "election": null,
            "id": 91,
            "name": "Sarnia—Lambton"
          }
        ],
        "pollDivisionIds": [
          10141396
        ],
        "postalCode": "N7S5X1",
        "streetName": "CONCORDIA",
        "streetDirectionId": null,
        "streetTypeId": "DR",
        "placeName": "SARNIA",
        "streetNameDisplayText": "CONCORDIA DR, SARNIA"
      },
      {
        "electoralDistricts": [
          {
            "election": null,
            "id": 91,
            "name": "Sarnia—Lambton"
          }
        ],
        "pollDivisionIds": [
          10141396
        ],
        "postalCode": "N7S5X1",
        "streetName": "DALEY",
        "streetDirectionId": null,
        "streetTypeId": "CRT",
        "placeName": "SARNIA",
        "streetNameDisplayText": "DALEY CRT, SARNIA"
      },
      {
        "electoralDistricts": [
          {
            "election": null,
            "id": 91,
            "name": "Sarnia—Lambton"
          }
        ],
        "pollDivisionIds": [
          10141396
        ],
        "postalCode": "N7S5X1",
        "streetName": "ESSER",
        "streetDirectionId": null,
        "streetTypeId": "CRES",
        "placeName": "SARNIA",
        "streetNameDisplayText": "ESSER CRES, SARNIA"
      }
    ]
  },
  {
    "postal": "N7S6S2",
    "result": []
  },
  {
    "postal": "N7S2A2",
    "result": [
      {
        "electoralDistricts": [
          {
            "election": null,
            "id": 91,
            "name": "Sarnia—Lambton"
          }
        ],
        "pollDivisionIds": [
          10141399
        ],
        "postalCode": "N7S2A2",
        "streetName": "CAPRI",
        "streetDirectionId": null,
        "streetTypeId": "ST",
        "placeName": "SARNIA",
        "streetNameDisplayText": "CAPRI ST, SARNIA"
      }
    ]
  },
  {
    "postal": "N7S6A6",
    "result": []
  },
  {
    "postal": "N7S0S3",
    "result": []
  },
  {
    "postal": "N7S3E7",
    "result": [
      {
        "electoralDistricts": [
          {
            "election": null,
            "id": 91,
            "name": "Sarnia—Lambton"
          }
        ],
        "pollDivisionIds": [
          10141399
        ],
        "postalCode": "N7S3E7",
        "streetName": "GRIFFITH",
        "streetDirectionId": null,
        "streetTypeId": "RD",
        "placeName": "SARNIA",
        "streetNameDisplayText": "GRIFFITH RD, SARNIA"
      }
    ]
  },
  {
    "postal": "N7S5R7",
    "result": [
      {
        "electoralDistricts": [
          {
            "election": null,
            "id": 91,
            "name": "Sarnia—Lambton"
          }
        ],
        "pollDivisionIds": [
          10141415
        ],
        "postalCode": "N7S5R7",
        "streetName": "BARRINGTON",
        "streetDirectionId": null,
        "streetTypeId": "CRES",
        "placeName": "SARNIA",
        "streetNameDisplayText": "BARRINGTON CRES, SARNIA"
      }
    ]
  },
  {
    "postal": "N7S3R6",
    "result": [
      {
        "electoralDistricts": [
          {
            "election": null,
            "id": 91,
            "name": "Sarnia—Lambton"
          }
        ],
        "pollDivisionIds": [
          10141389
        ],
        "postalCode": "N7S3R6",
        "streetName": "DELL",
        "streetDirectionId": null,
        "streetTypeId": "AVE",
        "placeName": "SARNIA",
        "streetNameDisplayText": "DELL AVE, SARNIA"
      }
    ]
  },
  {
    "postal": "N7S6K4",
    "result": [
      {
        "electoralDistricts": [
          {
            "election": null,
            "id": 91,
            "name": "Sarnia—Lambton"
          }
        ],
        "pollDivisionIds": [
          10141403
        ],
        "postalCode": "N7S6K4",
        "streetName": "LONDON",
        "streetDirectionId": null,
        "streetTypeId": "RD",
        "placeName": "SARNIA",
        "streetNameDisplayText": "LONDON RD, SARNIA"
      }
    ]
  },
  {
    "postal": "N7S2W5",
    "result": [
      {
        "electoralDistricts": [
          {
            "election": null,
            "id": 91,
            "name": "Sarnia—Lambton"
          }
        ],
        "pollDivisionIds": [
          10141403
        ],
        "postalCode": "N7S2W5",
        "streetName": "NETHERLANDS",
        "streetDirectionId": null,
        "streetTypeId": "PL",
        "placeName": "SARNIA",
        "streetNameDisplayText": "NETHERLANDS PL, SARNIA"
      }
    ]
  },
  {
    "postal": "N7S8W4",
    "result": []
  },
  {
    "postal": "N7S9C2",
    "result": []
  },
  {
    "postal": "N7S2C0",
    "result": []
  },
  {
    "postal": "N7S0E1",
    "result": [
      {
        "electoralDistricts": [
          {
            "election": null,
            "id": 91,
            "name": "Sarnia—Lambton"
          }
        ],
        "pollDivisionIds": [
          10141404
        ],
        "postalCode": "N7S0E1",
        "streetName": "BENTLEY",
        "streetDirectionId": null,
        "streetTypeId": "CRT",
        "placeName": "SARNIA",
        "streetNameDisplayText": "BENTLEY CRT, SARNIA"
      }
    ]
  },
  {
    "postal": "N7S1K9",
    "result": [
      {
        "electoralDistricts": [
          {
            "election": null,
            "id": 91,
            "name": "Sarnia—Lambton"
          }
        ],
        "pollDivisionIds": [
          10141410
        ],
        "postalCode": "N7S1K9",
        "streetName": "MAYFAIR",
        "streetDirectionId": null,
        "streetTypeId": "DR",
        "placeName": "SARNIA",
        "streetNameDisplayText": "MAYFAIR DR, SARNIA"
      }
    ]
  },
  {
    "postal": "N7S1G7",
    "result": [
      {
        "electoralDistricts": [
          {
            "election": null,
            "id": 91,
            "name": "Sarnia—Lambton"
          }
        ],
        "pollDivisionIds": [
          10141415
        ],
        "postalCode": "N7S1G7",
        "streetName": "LANSDOWNE",
        "streetDirectionId": "S",
        "streetTypeId": "AVE",
        "placeName": "SARNIA",
        "streetNameDisplayText": "LANSDOWNE AVE S, SARNIA"
      }
    ]
  },
  {
    "postal": "N7S4E9",
    "result": [
      {
        "electoralDistricts": [
          {
            "election": null,
            "id": 91,
            "name": "Sarnia—Lambton"
          }
        ],
        "pollDivisionIds": [
          10141415
        ],
        "postalCode": "N7S4E9",
        "streetName": "SOMERSET",
        "streetDirectionId": null,
        "streetTypeId": "CRES",
        "placeName": "SARNIA",
        "streetNameDisplayText": "SOMERSET CRES, SARNIA"
      }
    ]
  },
  {
    "postal": "N7S9P0",
    "result": []
  },
  {
    "postal": "N7S5H3",
    "result": [
      {
        "electoralDistricts": [
          {
            "election": null,
            "id": 91,
            "name": "Sarnia—Lambton"
          }
        ],
        "pollDivisionIds": [
          10141412
        ],
        "postalCode": "N7S5H3",
        "streetName": "BIRKDALE",
        "streetDirectionId": null,
        "streetTypeId": "CRES",
        "placeName": "SARNIA",
        "streetNameDisplayText": "BIRKDALE CRES, SARNIA"
      }
    ]
  },
  {
    "postal": "N7S9X6",
    "result": []
  },
  {
    "postal": "N7S5N7",
    "result": [
      {
        "electoralDistricts": [
          {
            "election": null,
            "id": 91,
            "name": "Sarnia—Lambton"
          }
        ],
        "pollDivisionIds": [
          10141415
        ],
        "postalCode": "N7S5N7",
        "streetName": "LOUGAR",
        "streetDirectionId": null,
        "streetTypeId": "AVE",
        "placeName": "SARNIA",
        "streetNameDisplayText": "LOUGAR AVE, SARNIA"
      }
    ]
  },
  {
    "postal": "N7S5A6",
    "result": [
      {
        "electoralDistricts": [
          {
            "election": null,
            "id": 91,
            "name": "Sarnia—Lambton"
          }
        ],
        "pollDivisionIds": [
          10141400
        ],
        "postalCode": "N7S5A6",
        "streetName": "EDGEWOOD",
        "streetDirectionId": null,
        "streetTypeId": "ST",
        "placeName": "SARNIA",
        "streetNameDisplayText": "EDGEWOOD ST, SARNIA"
      }
    ]
  },
  {
    "postal": "N7S4M0",
    "result": []
  },
  {
    "postal": "N7S3V6",
    "result": [
      {
        "electoralDistricts": [
          {
            "election": null,
            "id": 91,
            "name": "Sarnia—Lambton"
          }
        ],
        "pollDivisionIds": [
          10141400
        ],
        "postalCode": "N7S3V6",
        "streetName": "SALISBURY",
        "streetDirectionId": null,
        "streetTypeId": "ST",
        "placeName": "SARNIA",
        "streetNameDisplayText": "SALISBURY ST, SARNIA"
      }
    ]
  },
  {
    "postal": "N7S1L7",
    "result": [
      {
        "electoralDistricts": [
          {
            "election": null,
            "id": 91,
            "name": "Sarnia—Lambton"
          }
        ],
        "pollDivisionIds": [
          10141410
        ],
        "postalCode": "N7S1L7",
        "streetName": "PRESTON",
        "streetDirectionId": null,
        "streetTypeId": "AVE",
        "placeName": "SARNIA",
        "streetNameDisplayText": "PRESTON AVE, SARNIA"
      }
    ]
  },
  {
    "postal": "N7S2P9",
    "result": [
      {
        "electoralDistricts": [
          {
            "election": null,
            "id": 91,
            "name": "Sarnia—Lambton"
          }
        ],
        "pollDivisionIds": [
          10141410
        ],
        "postalCode": "N7S2P9",
        "streetName": "MONTCALM",
        "streetDirectionId": null,
        "streetTypeId": "AVE",
        "placeName": "SARNIA",
        "streetNameDisplayText": "MONTCALM AVE, SARNIA"
      }
    ]
  },
  {
    "postal": "N7S5T4",
    "result": []
  },
  {
    "postal": "N7S5Z1",
    "result": [
      {
        "electoralDistricts": [
          {
            "election": null,
            "id": 91,
            "name": "Sarnia—Lambton"
          }
        ],
        "pollDivisionIds": [
          10141412
        ],
        "postalCode": "N7S5Z1",
        "streetName": "OAKLEA",
        "streetDirectionId": null,
        "streetTypeId": "CRT",
        "placeName": "SARNIA",
        "streetNameDisplayText": "OAKLEA CRT, SARNIA"
      }
    ]
  },
  {
    "postal": "N7S2X0",
    "result": []
  },
  {
    "postal": "N7S6Z2",
    "result": []
  },
  {
    "postal": "N7S0E0",
    "result": []
  },
  {
    "postal": "N7S3Z5",
    "result": [
      {
        "electoralDistricts": [
          {
            "election": null,
            "id": 91,
            "name": "Sarnia—Lambton"
          }
        ],
        "pollDivisionIds": [
          10141400
        ],
        "postalCode": "N7S3Z5",
        "streetName": "RETFORD",
        "streetDirectionId": null,
        "streetTypeId": "AVE",
        "placeName": "SARNIA",
        "streetNameDisplayText": "RETFORD AVE, SARNIA"
      }
    ]
  },
  {
    "postal": "N7S8H3",
    "result": []
  },
  {
    "postal": "N7S7S6",
    "result": []
  },
  {
    "postal": "N7S4C1",
    "result": [
      {
        "electoralDistricts": [
          {
            "election": null,
            "id": 91,
            "name": "Sarnia—Lambton"
          }
        ],
        "pollDivisionIds": [
          10141415
        ],
        "postalCode": "N7S4C1",
        "streetName": "CARDIFF",
        "streetDirectionId": null,
        "streetTypeId": "DR",
        "placeName": "SARNIA",
        "streetNameDisplayText": "CARDIFF DR, SARNIA"
      }
    ]
  },
  {
    "postal": "N7S3K2",
    "result": [
      {
        "electoralDistricts": [
          {
            "election": null,
            "id": 91,
            "name": "Sarnia—Lambton"
          }
        ],
        "pollDivisionIds": [
          10141395
        ],
        "postalCode": "N7S3K2",
        "streetName": "ECHO",
        "streetDirectionId": null,
        "streetTypeId": "RD",
        "placeName": "SARNIA",
        "streetNameDisplayText": "ECHO RD, SARNIA"
      }
    ]
  },
  {
    "postal": "N7S1Y5",
    "result": [
      {
        "electoralDistricts": [
          {
            "election": null,
            "id": 91,
            "name": "Sarnia—Lambton"
          }
        ],
        "pollDivisionIds": [
          10141399
        ],
        "postalCode": "N7S1Y5",
        "streetName": "DAGAN",
        "streetDirectionId": null,
        "streetTypeId": "ST",
        "placeName": "SARNIA",
        "streetNameDisplayText": "DAGAN ST, SARNIA"
      }
    ]
  },
  {
    "postal": "N7S6P6",
    "result": []
  },
  {
    "postal": "N7S3N9",
    "result": [
      {
        "electoralDistricts": [
          {
            "election": null,
            "id": 91,
            "name": "Sarnia—Lambton"
          }
        ],
        "pollDivisionIds": [
          10141389
        ],
        "postalCode": "N7S3N9",
        "streetName": "ELRICK",
        "streetDirectionId": null,
        "streetTypeId": "CRES",
        "placeName": "SARNIA",
        "streetNameDisplayText": "ELRICK CRES, SARNIA"
      }
    ]
  },
  {
    "postal": "N7S3W2",
    "result": [
      {
        "electoralDistricts": [
          {
            "election": null,
            "id": 91,
            "name": "Sarnia—Lambton"
          }
        ],
        "pollDivisionIds": [
          10141400
        ],
        "postalCode": "N7S3W2",
        "streetName": "WILTSHIRE",
        "streetDirectionId": null,
        "streetTypeId": "DR",
        "placeName": "SARNIA",
        "streetNameDisplayText": "WILTSHIRE DR, SARNIA"
      }
    ]
  },
  {
    "postal": "N7S6H8",
    "result": [
      {
        "electoralDistricts": [
          {
            "election": null,
            "id": 91,
            "name": "Sarnia—Lambton"
          }
        ],
        "pollDivisionIds": [
          10141436,
          10141403
        ],
        "postalCode": "N7S6H8",
        "streetName": "L'HERITAGE",
        "streetDirectionId": null,
        "streetTypeId": "DR",
        "placeName": "SARNIA",
        "streetNameDisplayText": "L'HERITAGE DR, SARNIA"
      }
    ]
  },
  {
    "postal": "N7S9T3",
    "result": []
  },
  {
    "postal": "N7S5L9",
    "result": [
      {
        "electoralDistricts": [
          {
            "election": null,
            "id": 91,
            "name": "Sarnia—Lambton"
          }
        ],
        "pollDivisionIds": [
          10141390
        ],
        "postalCode": "N7S5L9",
        "streetName": "BLACKWELL",
        "streetDirectionId": null,
        "streetTypeId": "RD",
        "placeName": "SARNIA",
        "streetNameDisplayText": "BLACKWELL RD, SARNIA"
      }
    ]
  },
  {
    "postal": "N7S7X7",
    "result": []
  },
  {
    "postal": "N7S3J5",
    "result": [
      {
        "electoralDistricts": [
          {
            "election": null,
            "id": 91,
            "name": "Sarnia—Lambton"
          }
        ],
        "pollDivisionIds": [
          10141399
        ],
        "postalCode": "N7S3J5",
        "streetName": "WILSON",
        "streetDirectionId": null,
        "streetTypeId": "DR",
        "placeName": "SARNIA",
        "streetNameDisplayText": "WILSON DR, SARNIA"
      }
    ]
  },
  {
    "postal": "N7S4J5",
    "result": [
      {
        "electoralDistricts": [
          {
            "election": null,
            "id": 91,
            "name": "Sarnia—Lambton"
          }
        ],
        "pollDivisionIds": [
          10141412
        ],
        "postalCode": "N7S4J5",
        "streetName": "PRESTWICK",
        "streetDirectionId": null,
        "streetTypeId": "CRES",
        "placeName": "SARNIA",
        "streetNameDisplayText": "PRESTWICK CRES, SARNIA"
      }
    ]
  },
  {
    "postal": "N7S6J2",
    "result": [
      {
        "electoralDistricts": [
          {
            "election": null,
            "id": 91,
            "name": "Sarnia—Lambton"
          }
        ],
        "pollDivisionIds": [
          10141389
        ],
        "postalCode": "N7S6J2",
        "streetName": "RUTLAND",
        "streetDirectionId": null,
        "streetTypeId": "PL",
        "placeName": "SARNIA",
        "streetNameDisplayText": "RUTLAND PL, SARNIA"
      }
    ]
  },
  {
    "postal": "N7S5V6",
    "result": [
      {
        "electoralDistricts": [
          {
            "election": null,
            "id": 91,
            "name": "Sarnia—Lambton"
          }
        ],
        "pollDivisionIds": [
          10141411
        ],
        "postalCode": "N7S5V6",
        "streetName": "CONESTOGA",
        "streetDirectionId": null,
        "streetTypeId": "DR",
        "placeName": "SARNIA",
        "streetNameDisplayText": "CONESTOGA DR, SARNIA"
      }
    ]
  },
  {
    "postal": "N7S3N2",
    "result": [
      {
        "electoralDistricts": [
          {
            "election": null,
            "id": 91,
            "name": "Sarnia—Lambton"
          }
        ],
        "pollDivisionIds": [
          10141389
        ],
        "postalCode": "N7S3N2",
        "streetName": "LORI",
        "streetDirectionId": null,
        "streetTypeId": "AVE",
        "placeName": "SARNIA",
        "streetNameDisplayText": "LORI AVE, SARNIA"
      }
    ]
  },
  {
    "postal": "N7S3B1",
    "result": [
      {
        "electoralDistricts": [
          {
            "election": null,
            "id": 91,
            "name": "Sarnia—Lambton"
          }
        ],
        "pollDivisionIds": [
          10141403
        ],
        "postalCode": "N7S3B1",
        "streetName": "PONTIAC",
        "streetDirectionId": null,
        "streetTypeId": "DR",
        "placeName": "SARNIA",
        "streetNameDisplayText": "PONTIAC DR, SARNIA"
      }
    ]
  },
  {
    "postal": "N7S8B5",
    "result": []
  },
  {
    "postal": "N7S0K1",
    "result": []
  },
  {
    "postal": "N7S7M7",
    "result": []
  },
  {
    "postal": "N7S2M2",
    "result": [
      {
        "electoralDistricts": [
          {
            "election": null,
            "id": 91,
            "name": "Sarnia—Lambton"
          }
        ],
        "pollDivisionIds": [
          10141396
        ],
        "postalCode": "N7S2M2",
        "streetName": "LAKESHORE",
        "streetDirectionId": null,
        "streetTypeId": "RD",
        "placeName": "SARNIA",
        "streetNameDisplayText": "LAKESHORE RD, SARNIA"
      }
    ]
  },
  {
    "postal": "N7S9N3",
    "result": []
  },
  {
    "postal": "N7S4Y8",
    "result": [
      {
        "electoralDistricts": [
          {
            "election": null,
            "id": 91,
            "name": "Sarnia—Lambton"
          }
        ],
        "pollDivisionIds": [
          10141403
        ],
        "postalCode": "N7S4Y8",
        "streetName": "PONTIAC",
        "streetDirectionId": null,
        "streetTypeId": "CRT",
        "placeName": "SARNIA",
        "streetNameDisplayText": "PONTIAC CRT, SARNIA"
      }
    ]
  },
  {
    "postal": "N7S3V7",
    "result": [
      {
        "electoralDistricts": [
          {
            "election": null,
            "id": 91,
            "name": "Sarnia—Lambton"
          }
        ],
        "pollDivisionIds": [
          10141403
        ],
        "postalCode": "N7S3V7",
        "streetName": "AMSTERDAM",
        "streetDirectionId": null,
        "streetTypeId": "CRT",
        "placeName": "SARNIA",
        "streetNameDisplayText": "AMSTERDAM CRT, SARNIA"
      }
    ]
  },
  {
    "postal": "N7S8Z1",
    "result": []
  },
  {
    "postal": "N7S7B3",
    "result": []
  },
  {
    "postal": "N7S3A8",
    "result": [
      {
        "electoralDistricts": [
          {
            "election": null,
            "id": 91,
            "name": "Sarnia—Lambton"
          }
        ],
        "pollDivisionIds": [
          10141403
        ],
        "postalCode": "N7S3A8",
        "streetName": "PONTIAC",
        "streetDirectionId": null,
        "streetTypeId": "DR",
        "placeName": "SARNIA",
        "streetNameDisplayText": "PONTIAC DR, SARNIA"
      }
    ]
  },
  {
    "postal": "N7S7V5",
    "result": []
  },
  {
    "postal": "N7S2T2",
    "result": [
      {
        "electoralDistricts": [
          {
            "election": null,
            "id": 91,
            "name": "Sarnia—Lambton"
          }
        ],
        "pollDivisionIds": [
          10141403
        ],
        "postalCode": "N7S2T2",
        "streetName": "KEMBER",
        "streetDirectionId": null,
        "streetTypeId": "AVE",
        "placeName": "SARNIA",
        "streetNameDisplayText": "KEMBER AVE, SARNIA"
      }
    ]
  },
  {
    "postal": "N7S6L3",
    "result": [
      {
        "electoralDistricts": [
          {
            "election": null,
            "id": 91,
            "name": "Sarnia—Lambton"
          }
        ],
        "pollDivisionIds": [
          10141415
        ],
        "postalCode": "N7S6L3",
        "streetName": "CHURCHILL",
        "streetDirectionId": null,
        "streetTypeId": "LINE",
        "placeName": "SARNIA",
        "streetNameDisplayText": "CHURCHILL LINE, SARNIA"
      }
    ]
  },
  {
    "postal": "N7S0L2",
    "result": []
  },
  {
    "postal": "N7S5Y8",
    "result": [
      {
        "electoralDistricts": [
          {
            "election": null,
            "id": 91,
            "name": "Sarnia—Lambton"
          }
        ],
        "pollDivisionIds": [
          10141411
        ],
        "postalCode": "N7S5Y8",
        "streetName": "CANADIAN",
        "streetDirectionId": null,
        "streetTypeId": "CRT",
        "placeName": "SARNIA",
        "streetNameDisplayText": "CANADIAN CRT, SARNIA"
      }
    ]
  },
  {
    "postal": "N7S0B8",
    "result": [
      {
        "electoralDistricts": [
          {
            "election": null,
            "id": 91,
            "name": "Sarnia—Lambton"
          }
        ],
        "pollDivisionIds": [
          10141390
        ],
        "postalCode": "N7S0B8",
        "streetName": "AUTUMN BREEZE",
        "streetDirectionId": null,
        "streetTypeId": "DR",
        "placeName": "SARNIA",
        "streetNameDisplayText": "AUTUMN BREEZE DR, SARNIA"
      },
      {
        "electoralDistricts": [
          {
            "election": null,
            "id": 91,
            "name": "Sarnia—Lambton"
          }
        ],
        "pollDivisionIds": [
          10141390
        ],
        "postalCode": "N7S0B8",
        "streetName": "WESTVIEW",
        "streetDirectionId": null,
        "streetTypeId": "CRT",
        "placeName": "SARNIA",
        "streetNameDisplayText": "WESTVIEW CRT, SARNIA"
      }
    ]
  },
  {
    "postal": "N7S6R5",
    "result": []
  },
  {
    "postal": "N7S8W6",
    "result": []
  },
  {
    "postal": "N7S8G6",
    "result": []
  },
  {
    "postal": "N7S6X3",
    "result": []
  },
  {
    "postal": "N7S7R7",
    "result": []
  },
  {
    "postal": "N7S4B6",
    "result": [
      {
        "electoralDistricts": [
          {
            "election": null,
            "id": 91,
            "name": "Sarnia—Lambton"
          }
        ],
        "pollDivisionIds": [
          10141415
        ],
        "postalCode": "N7S4B6",
        "streetName": "CARDIFF",
        "streetDirectionId": null,
        "streetTypeId": "CRT",
        "placeName": "SARNIA",
        "streetNameDisplayText": "CARDIFF CRT, SARNIA"
      }
    ]
  },
  {
    "postal": "N7S3P9",
    "result": [
      {
        "electoralDistricts": [
          {
            "election": null,
            "id": 91,
            "name": "Sarnia—Lambton"
          }
        ],
        "pollDivisionIds": [
          10141389
        ],
        "postalCode": "N7S3P9",
        "streetName": "GRACE",
        "streetDirectionId": null,
        "streetTypeId": "AVE",
        "placeName": "SARNIA",
        "streetNameDisplayText": "GRACE AVE, SARNIA"
      }
    ]
  },
  {
    "postal": "N7S2T3",
    "result": [
      {
        "electoralDistricts": [
          {
            "election": null,
            "id": 91,
            "name": "Sarnia—Lambton"
          }
        ],
        "pollDivisionIds": [
          10141403,
          10141402
        ],
        "postalCode": "N7S2T3",
        "streetName": "KEMBER",
        "streetDirectionId": null,
        "streetTypeId": "AVE",
        "placeName": "SARNIA",
        "streetNameDisplayText": "KEMBER AVE, SARNIA"
      }
    ]
  },
  {
    "postal": "N7S1M4",
    "result": [
      {
        "electoralDistricts": [
          {
            "election": null,
            "id": 91,
            "name": "Sarnia—Lambton"
          }
        ],
        "pollDivisionIds": [
          10141410
        ],
        "postalCode": "N7S1M4",
        "streetName": "TUNIS",
        "streetDirectionId": null,
        "streetTypeId": "AVE",
        "placeName": "SARNIA",
        "streetNameDisplayText": "TUNIS AVE, SARNIA"
      }
    ]
  },
  {
    "postal": "N7S0H1",
    "result": []
  },
  {
    "postal": "N7S9W3",
    "result": []
  },
  {
    "postal": "N7S6P1",
    "result": []
  },
  {
    "postal": "N7S7G2",
    "result": []
  },
  {
    "postal": "N7S4J9",
    "result": [
      {
        "electoralDistricts": [
          {
            "election": null,
            "id": 91,
            "name": "Sarnia—Lambton"
          }
        ],
        "pollDivisionIds": [
          10141412
        ],
        "postalCode": "N7S4J9",
        "streetName": "PRESTWICK",
        "streetDirectionId": null,
        "streetTypeId": "CRES",
        "placeName": "SARNIA",
        "streetNameDisplayText": "PRESTWICK CRES, SARNIA"
      }
    ]
  },
  {
    "postal": "N7S9E4",
    "result": []
  },
  {
    "postal": "N7S8H0",
    "result": []
  },
  {
    "postal": "N7S4M7",
    "result": [
      {
        "electoralDistricts": [
          {
            "election": null,
            "id": 91,
            "name": "Sarnia—Lambton"
          }
        ],
        "pollDivisionIds": [
          10141415
        ],
        "postalCode": "N7S4M7",
        "streetName": "CONFEDERATION",
        "streetDirectionId": null,
        "streetTypeId": "ST",
        "placeName": "SARNIA",
        "streetNameDisplayText": "CONFEDERATION ST, SARNIA"
      }
    ]
  },
  {
    "postal": "N7S2G9",
    "result": [
      {
        "electoralDistricts": [
          {
            "election": null,
            "id": 91,
            "name": "Sarnia—Lambton"
          }
        ],
        "pollDivisionIds": [
          10141395
        ],
        "postalCode": "N7S2G9",
        "streetName": "GURD",
        "streetDirectionId": null,
        "streetTypeId": "ST",
        "placeName": "SARNIA",
        "streetNameDisplayText": "GURD ST, SARNIA"
      }
    ]
  },
  {
    "postal": "N7S8T2",
    "result": []
  },
  {
    "postal": "N7S7G7",
    "result": []
  },
  {
    "postal": "N7S4Z3",
    "result": [
      {
        "electoralDistricts": [
          {
            "election": null,
            "id": 91,
            "name": "Sarnia—Lambton"
          }
        ],
        "pollDivisionIds": [
          10141415
        ],
        "postalCode": "N7S4Z3",
        "streetName": "HAMPTON",
        "streetDirectionId": null,
        "streetTypeId": "AVE",
        "placeName": "SARNIA",
        "streetNameDisplayText": "HAMPTON AVE, SARNIA"
      }
    ]
  },
  {
    "postal": "N7S5B3",
    "result": [
      {
        "electoralDistricts": [
          {
            "election": null,
            "id": 91,
            "name": "Sarnia—Lambton"
          }
        ],
        "pollDivisionIds": [
          10141412
        ],
        "postalCode": "N7S5B3",
        "streetName": "TREEWOOD",
        "streetDirectionId": null,
        "streetTypeId": "CRES",
        "placeName": "SARNIA",
        "streetNameDisplayText": "TREEWOOD CRES, SARNIA"
      }
    ]
  },
  {
    "postal": "N7S1S7",
    "result": [
      {
        "electoralDistricts": [
          {
            "election": null,
            "id": 91,
            "name": "Sarnia—Lambton"
          }
        ],
        "pollDivisionIds": [
          10141403
        ],
        "postalCode": "N7S1S7",
        "streetName": "ISABELLA",
        "streetDirectionId": null,
        "streetTypeId": "ST",
        "placeName": "SARNIA",
        "streetNameDisplayText": "ISABELLA ST, SARNIA"
      }
    ]
  },
  {
    "postal": "N7S2N7",
    "result": [
      {
        "electoralDistricts": [
          {
            "election": null,
            "id": 91,
            "name": "Sarnia—Lambton"
          }
        ],
        "pollDivisionIds": [
          10141410
        ],
        "postalCode": "N7S2N7",
        "streetName": "ABERDEEN",
        "streetDirectionId": null,
        "streetTypeId": "AVE",
        "placeName": "SARNIA",
        "streetNameDisplayText": "ABERDEEN AVE, SARNIA"
      }
    ]
  },
  {
    "postal": "N7S0H8",
    "result": []
  },
  {
    "postal": "N7S7Z4",
    "result": []
  },
  {
    "postal": "N7S7B1",
    "result": []
  },
  {
    "postal": "N7S7P8",
    "result": []
  },
  {
    "postal": "N7S7N0",
    "result": []
  },
  {
    "postal": "N7S3Y5",
    "result": [
      {
        "electoralDistricts": [
          {
            "election": null,
            "id": 91,
            "name": "Sarnia—Lambton"
          }
        ],
        "pollDivisionIds": [
          10141415
        ],
        "postalCode": "N7S3Y5",
        "streetName": "CONFEDERATION",
        "streetDirectionId": null,
        "streetTypeId": "ST",
        "placeName": "SARNIA",
        "streetNameDisplayText": "CONFEDERATION ST, SARNIA"
      }
    ]
  },
  {
    "postal": "N7S6K1",
    "result": [
      {
        "electoralDistricts": [
          {
            "election": null,
            "id": 91,
            "name": "Sarnia—Lambton"
          }
        ],
        "pollDivisionIds": [
          10141410
        ],
        "postalCode": "N7S6K1",
        "streetName": "MURPHY",
        "streetDirectionId": null,
        "streetTypeId": "RD",
        "placeName": "SARNIA",
        "streetNameDisplayText": "MURPHY RD, SARNIA"
      }
    ]
  },
  {
    "postal": "N7S9X5",
    "result": []
  },
  {
    "postal": "N7S7S5",
    "result": []
  },
  {
    "postal": "N7S0A4",
    "result": [
      {
        "electoralDistricts": [
          {
            "election": null,
            "id": 91,
            "name": "Sarnia—Lambton"
          }
        ],
        "pollDivisionIds": [
          10141390
        ],
        "postalCode": "N7S0A4",
        "streetName": "FOREST HILL",
        "streetDirectionId": null,
        "streetTypeId": "CRT",
        "placeName": "SARNIA",
        "streetNameDisplayText": "FOREST HILL CRT, SARNIA"
      },
      {
        "electoralDistricts": [
          {
            "election": null,
            "id": 91,
            "name": "Sarnia—Lambton"
          }
        ],
        "pollDivisionIds": [
          10141390
        ],
        "postalCode": "N7S0A4",
        "streetName": "MANHATTAN",
        "streetDirectionId": null,
        "streetTypeId": "DR",
        "placeName": "SARNIA",
        "streetNameDisplayText": "MANHATTAN DR, SARNIA"
      },
      {
        "electoralDistricts": [
          {
            "election": null,
            "id": 91,
            "name": "Sarnia—Lambton"
          }
        ],
        "pollDivisionIds": [
          10141390
        ],
        "postalCode": "N7S0A4",
        "streetName": "RIOPELLE",
        "streetDirectionId": null,
        "streetTypeId": "DR",
        "placeName": "SARNIA",
        "streetNameDisplayText": "RIOPELLE DR, SARNIA"
      }
    ]
  },
  {
    "postal": "N7S4T5",
    "result": [
      {
        "electoralDistricts": [
          {
            "election": null,
            "id": 91,
            "name": "Sarnia—Lambton"
          }
        ],
        "pollDivisionIds": [
          10141412
        ],
        "postalCode": "N7S4T5",
        "streetName": "TRUDEAU",
        "streetDirectionId": null,
        "streetTypeId": "DR",
        "placeName": "SARNIA",
        "streetNameDisplayText": "TRUDEAU DR, SARNIA"
      }
    ]
  },
  {
    "postal": "N7S5K1",
    "result": [
      {
        "electoralDistricts": [
          {
            "election": null,
            "id": 91,
            "name": "Sarnia—Lambton"
          }
        ],
        "pollDivisionIds": [
          10141396
        ],
        "postalCode": "N7S5K1",
        "streetName": "TAWNY",
        "streetDirectionId": null,
        "streetTypeId": "RD",
        "placeName": "SARNIA",
        "streetNameDisplayText": "TAWNY RD, SARNIA"
      }
    ]
  },
  {
    "postal": "N7S0Z9",
    "result": []
  },
  {
    "postal": "N7S7T2",
    "result": []
  },
  {
    "postal": "N7S1L5",
    "result": [
      {
        "electoralDistricts": [
          {
            "election": null,
            "id": 91,
            "name": "Sarnia—Lambton"
          }
        ],
        "pollDivisionIds": [
          10141410
        ],
        "postalCode": "N7S1L5",
        "streetName": "PRESTON",
        "streetDirectionId": null,
        "streetTypeId": "AVE",
        "placeName": "SARNIA",
        "streetNameDisplayText": "PRESTON AVE, SARNIA"
      }
    ]
  },
  {
    "postal": "N7S3N5",
    "result": [
      {
        "electoralDistricts": [
          {
            "election": null,
            "id": 91,
            "name": "Sarnia—Lambton"
          }
        ],
        "pollDivisionIds": [
          10141389
        ],
        "postalCode": "N7S3N5",
        "streetName": "RANDY",
        "streetDirectionId": null,
        "streetTypeId": "RD",
        "placeName": "SARNIA",
        "streetNameDisplayText": "RANDY RD, SARNIA"
      }
    ]
  },
  {
    "postal": "N7S6H4",
    "result": [
      {
        "electoralDistricts": [
          {
            "election": null,
            "id": 91,
            "name": "Sarnia—Lambton"
          }
        ],
        "pollDivisionIds": [
          10141412
        ],
        "postalCode": "N7S6H4",
        "streetName": "D'ANDREA",
        "streetDirectionId": null,
        "streetTypeId": "TRAIL",
        "placeName": "SARNIA",
        "streetNameDisplayText": "D'ANDREA TRAIL, SARNIA"
      }
    ]
  },
  {
    "postal": "N7S5A5",
    "result": [
      {
        "electoralDistricts": [
          {
            "election": null,
            "id": 91,
            "name": "Sarnia—Lambton"
          }
        ],
        "pollDivisionIds": [
          10141404
        ],
        "postalCode": "N7S5A5",
        "streetName": "FINCH",
        "streetDirectionId": null,
        "streetTypeId": "DR",
        "placeName": "SARNIA",
        "streetNameDisplayText": "FINCH DR, SARNIA"
      }
    ]
  },
  {
    "postal": "N7S3R9",
    "result": [
      {
        "electoralDistricts": [
          {
            "election": null,
            "id": 91,
            "name": "Sarnia—Lambton"
          }
        ],
        "pollDivisionIds": [
          10141396
        ],
        "postalCode": "N7S3R9",
        "streetName": "RUTHERGLEN",
        "streetDirectionId": null,
        "streetTypeId": "CLOSE",
        "placeName": "SARNIA",
        "streetNameDisplayText": "RUTHERGLEN CLOSE, SARNIA"
      }
    ]
  },
  {
    "postal": "N7S7L8",
    "result": []
  },
  {
    "postal": "N7S6T6",
    "result": []
  },
  {
    "postal": "N7S7Y7",
    "result": []
  },
  {
    "postal": "N7S3M8",
    "result": [
      {
        "electoralDistricts": [
          {
            "election": null,
            "id": 91,
            "name": "Sarnia—Lambton"
          }
        ],
        "pollDivisionIds": [
          10141395
        ],
        "postalCode": "N7S3M8",
        "streetName": "HUNT",
        "streetDirectionId": null,
        "streetTypeId": "ST",
        "placeName": "SARNIA",
        "streetNameDisplayText": "HUNT ST, SARNIA"
      }
    ]
  },
  {
    "postal": "N7S2E0",
    "result": []
  },
  {
    "postal": "N7S4B5",
    "result": [
      {
        "electoralDistricts": [
          {
            "election": null,
            "id": 91,
            "name": "Sarnia—Lambton"
          }
        ],
        "pollDivisionIds": [
          10141415
        ],
        "postalCode": "N7S4B5",
        "streetName": "BEDFORD",
        "streetDirectionId": null,
        "streetTypeId": "CRES",
        "placeName": "SARNIA",
        "streetNameDisplayText": "BEDFORD CRES, SARNIA"
      }
    ]
  },
  {
    "postal": "N7S1J3",
    "result": [
      {
        "electoralDistricts": [
          {
            "election": null,
            "id": 91,
            "name": "Sarnia—Lambton"
          }
        ],
        "pollDivisionIds": [
          10141410
        ],
        "postalCode": "N7S1J3",
        "streetName": "OAK",
        "streetDirectionId": null,
        "streetTypeId": "AVE",
        "placeName": "SARNIA",
        "streetNameDisplayText": "OAK AVE, SARNIA"
      }
    ]
  },
  {
    "postal": "N7S5S6",
    "result": [
      {
        "electoralDistricts": [
          {
            "election": null,
            "id": 91,
            "name": "Sarnia—Lambton"
          }
        ],
        "pollDivisionIds": [
          10141396
        ],
        "postalCode": "N7S5S6",
        "streetName": "ERROL",
        "streetDirectionId": "E",
        "streetTypeId": "RD",
        "placeName": "SARNIA",
        "streetNameDisplayText": "ERROL RD E, SARNIA"
      }
    ]
  },
  {
    "postal": "N7S8P7",
    "result": []
  },
  {
    "postal": "N7S7S7",
    "result": []
  },
  {
    "postal": "N7S4C2",
    "result": [
      {
        "electoralDistricts": [
          {
            "election": null,
            "id": 91,
            "name": "Sarnia—Lambton"
          }
        ],
        "pollDivisionIds": [
          10141415
        ],
        "postalCode": "N7S4C2",
        "streetName": "CARDIFF",
        "streetDirectionId": null,
        "streetTypeId": "DR",
        "placeName": "SARNIA",
        "streetNameDisplayText": "CARDIFF DR, SARNIA"
      }
    ]
  },
  {
    "postal": "N7S5Y0",
    "result": []
  },
  {
    "postal": "N7S2V7",
    "result": [
      {
        "electoralDistricts": [
          {
            "election": null,
            "id": 91,
            "name": "Sarnia—Lambton"
          }
        ],
        "pollDivisionIds": [
          10141403
        ],
        "postalCode": "N7S2V7",
        "streetName": "WOODHAVEN",
        "streetDirectionId": null,
        "streetTypeId": "AVE",
        "placeName": "SARNIA",
        "streetNameDisplayText": "WOODHAVEN AVE, SARNIA"
      }
    ]
  },
  {
    "postal": "N7S8P5",
    "result": []
  },
  {
    "postal": "N7S5P5",
    "result": [
      {
        "electoralDistricts": [
          {
            "election": null,
            "id": 91,
            "name": "Sarnia—Lambton"
          }
        ],
        "pollDivisionIds": [
          10141412
        ],
        "postalCode": "N7S5P5",
        "streetName": "COBBLESTONE",
        "streetDirectionId": null,
        "streetTypeId": "CRES",
        "placeName": "SARNIA",
        "streetNameDisplayText": "COBBLESTONE CRES, SARNIA"
      }
    ]
  },
  {
    "postal": "N7S5Z0",
    "result": []
  },
  {
    "postal": "N7S9B0",
    "result": []
  },
  {
    "postal": "N7S1L0",
    "result": []
  },
  {
    "postal": "N7S0B5",
    "result": [
      {
        "electoralDistricts": [
          {
            "election": null,
            "id": 91,
            "name": "Sarnia—Lambton"
          }
        ],
        "pollDivisionIds": [
          10141390
        ],
        "postalCode": "N7S0B5",
        "streetName": "CHELSEA",
        "streetDirectionId": null,
        "streetTypeId": "CRT",
        "placeName": "SARNIA",
        "streetNameDisplayText": "CHELSEA CRT, SARNIA"
      },
      {
        "electoralDistricts": [
          {
            "election": null,
            "id": 91,
            "name": "Sarnia—Lambton"
          }
        ],
        "pollDivisionIds": [
          10141390
        ],
        "postalCode": "N7S0B5",
        "streetName": "RIOPELLE",
        "streetDirectionId": null,
        "streetTypeId": "DR",
        "placeName": "SARNIA",
        "streetNameDisplayText": "RIOPELLE DR, SARNIA"
      }
    ]
  },
  {
    "postal": "N7S3L2",
    "result": [
      {
        "electoralDistricts": [
          {
            "election": null,
            "id": 91,
            "name": "Sarnia—Lambton"
          }
        ],
        "pollDivisionIds": [
          10141395
        ],
        "postalCode": "N7S3L2",
        "streetName": "LANG",
        "streetDirectionId": null,
        "streetTypeId": "ST",
        "placeName": "SARNIA",
        "streetNameDisplayText": "LANG ST, SARNIA"
      }
    ]
  },
  {
    "postal": "N7S3B7",
    "result": [
      {
        "electoralDistricts": [
          {
            "election": null,
            "id": 91,
            "name": "Sarnia—Lambton"
          }
        ],
        "pollDivisionIds": [
          10141399
        ],
        "postalCode": "N7S3B7",
        "streetName": "WESTMINSTER",
        "streetDirectionId": null,
        "streetTypeId": "DR",
        "placeName": "SARNIA",
        "streetNameDisplayText": "WESTMINSTER DR, SARNIA"
      }
    ]
  },
  {
    "postal": "N7S8L1",
    "result": []
  },
  {
    "postal": "N7S5M4",
    "result": [
      {
        "electoralDistricts": [
          {
            "election": null,
            "id": 91,
            "name": "Sarnia—Lambton"
          }
        ],
        "pollDivisionIds": [
          10141441,
          10141390
        ],
        "postalCode": "N7S5M4",
        "streetName": "BLACKWELL",
        "streetDirectionId": null,
        "streetTypeId": "RD",
        "placeName": "SARNIA",
        "streetNameDisplayText": "BLACKWELL RD, SARNIA"
      }
    ]
  },
  {
    "postal": "N7S4G9",
    "result": [
      {
        "electoralDistricts": [
          {
            "election": null,
            "id": 91,
            "name": "Sarnia—Lambton"
          }
        ],
        "pollDivisionIds": [
          10141412
        ],
        "postalCode": "N7S4G9",
        "streetName": "FROST",
        "streetDirectionId": null,
        "streetTypeId": "AVE",
        "placeName": "SARNIA",
        "streetNameDisplayText": "FROST AVE, SARNIA"
      }
    ]
  },
  {
    "postal": "N7S0P0",
    "result": []
  },
  {
    "postal": "N7S8G2",
    "result": []
  },
  {
    "postal": "N7S1V9",
    "result": [
      {
        "electoralDistricts": [
          {
            "election": null,
            "id": 91,
            "name": "Sarnia—Lambton"
          }
        ],
        "pollDivisionIds": [
          10141403
        ],
        "postalCode": "N7S1V9",
        "streetName": "EXMOUTH",
        "streetDirectionId": null,
        "streetTypeId": "ST",
        "placeName": "SARNIA",
        "streetNameDisplayText": "EXMOUTH ST, SARNIA"
      }
    ]
  },
  {
    "postal": "N7S8N8",
    "result": []
  },
  {
    "postal": "N7S6S8",
    "result": []
  },
  {
    "postal": "N7S8H2",
    "result": []
  },
  {
    "postal": "N7S5R8",
    "result": [
      {
        "electoralDistricts": [
          {
            "election": null,
            "id": 91,
            "name": "Sarnia—Lambton"
          }
        ],
        "pollDivisionIds": [
          10141412
        ],
        "postalCode": "N7S5R8",
        "streetName": "BARRINGTON",
        "streetDirectionId": null,
        "streetTypeId": "CRES",
        "placeName": "SARNIA",
        "streetNameDisplayText": "BARRINGTON CRES, SARNIA"
      }
    ]
  },
  {
    "postal": "N7S5L4",
    "result": [
      {
        "electoralDistricts": [
          {
            "election": null,
            "id": 91,
            "name": "Sarnia—Lambton"
          }
        ],
        "pollDivisionIds": [
          10141396
        ],
        "postalCode": "N7S5L4",
        "streetName": "ESSER",
        "streetDirectionId": null,
        "streetTypeId": "CRES",
        "placeName": "SARNIA",
        "streetNameDisplayText": "ESSER CRES, SARNIA"
      }
    ]
  },
  {
    "postal": "N7S9E1",
    "result": []
  },
  {
    "postal": "N7S1C4",
    "result": [
      {
        "electoralDistricts": [
          {
            "election": null,
            "id": 91,
            "name": "Sarnia—Lambton"
          }
        ],
        "pollDivisionIds": [
          10141415
        ],
        "postalCode": "N7S1C4",
        "streetName": "ELSFIELD",
        "streetDirectionId": null,
        "streetTypeId": "CRES",
        "placeName": "SARNIA",
        "streetNameDisplayText": "ELSFIELD CRES, SARNIA"
      }
    ]
  },
  {
    "postal": "N7S8W5",
    "result": []
  },
  {
    "postal": "N7S1Y4",
    "result": [
      {
        "electoralDistricts": [
          {
            "election": null,
            "id": 91,
            "name": "Sarnia—Lambton"
          }
        ],
        "pollDivisionIds": [
          10141399
        ],
        "postalCode": "N7S1Y4",
        "streetName": "JORDON",
        "streetDirectionId": null,
        "streetTypeId": "DR",
        "placeName": "SARNIA",
        "streetNameDisplayText": "JORDON DR, SARNIA"
      }
    ]
  },
  {
    "postal": "N7S1C0",
    "result": []
  },
  {
    "postal": "N7S2J2",
    "result": [
      {
        "electoralDistricts": [
          {
            "election": null,
            "id": 91,
            "name": "Sarnia—Lambton"
          }
        ],
        "pollDivisionIds": [
          10141389,
          10141396
        ],
        "postalCode": "N7S2J2",
        "streetName": "CATHCART",
        "streetDirectionId": null,
        "streetTypeId": "BLVD",
        "placeName": "SARNIA",
        "streetNameDisplayText": "CATHCART BLVD, SARNIA"
      }
    ]
  },
  {
    "postal": "N7S2J0",
    "result": []
  },
  {
    "postal": "N7S7A3",
    "result": []
  },
  {
    "postal": "N7S8M1",
    "result": []
  },
  {
    "postal": "N7S7T9",
    "result": []
  },
  {
    "postal": "N7S6C0",
    "result": []
  },
  {
    "postal": "N7S7X1",
    "result": []
  },
  {
    "postal": "N7S0G1",
    "result": [
      {
        "electoralDistricts": [
          {
            "election": null,
            "id": 91,
            "name": "Sarnia—Lambton"
          }
        ],
        "pollDivisionIds": [
          10141390
        ],
        "postalCode": "N7S0G1",
        "streetName": "SANDPIPER",
        "streetDirectionId": null,
        "streetTypeId": "CRES",
        "placeName": "SARNIA",
        "streetNameDisplayText": "SANDPIPER CRES, SARNIA"
      },
      {
        "electoralDistricts": [
          {
            "election": null,
            "id": 91,
            "name": "Sarnia—Lambton"
          }
        ],
        "pollDivisionIds": [
          10141400
        ],
        "postalCode": "N7S0G1",
        "streetName": "SANDPIPER",
        "streetDirectionId": null,
        "streetTypeId": "DR",
        "placeName": "SARNIA",
        "streetNameDisplayText": "SANDPIPER DR, SARNIA"
      }
    ]
  },
  {
    "postal": "N7S4X2",
    "result": [
      {
        "electoralDistricts": [
          {
            "election": null,
            "id": 91,
            "name": "Sarnia—Lambton"
          }
        ],
        "pollDivisionIds": [
          10141412
        ],
        "postalCode": "N7S4X2",
        "streetName": "MAPLESTONE",
        "streetDirectionId": null,
        "streetTypeId": "AVE",
        "placeName": "SARNIA",
        "streetNameDisplayText": "MAPLESTONE AVE, SARNIA"
      }
    ]
  },
  {
    "postal": "N7S0N6",
    "result": []
  },
  {
    "postal": "N7S8E3",
    "result": []
  },
  {
    "postal": "N7S5S8",
    "result": []
  },
  {
    "postal": "N7S0R0",
    "result": []
  },
  {
    "postal": "N7S6J6",
    "result": [
      {
        "electoralDistricts": [
          {
            "election": null,
            "id": 91,
            "name": "Sarnia—Lambton"
          }
        ],
        "pollDivisionIds": [
          10141400
        ],
        "postalCode": "N7S6J6",
        "streetName": "BERNARD",
        "streetDirectionId": null,
        "streetTypeId": "CRT",
        "placeName": "SARNIA",
        "streetNameDisplayText": "BERNARD CRT, SARNIA"
      }
    ]
  },
  {
    "postal": "N7S4B4",
    "result": [
      {
        "electoralDistricts": [
          {
            "election": null,
            "id": 91,
            "name": "Sarnia—Lambton"
          }
        ],
        "pollDivisionIds": [
          10141415
        ],
        "postalCode": "N7S4B4",
        "streetName": "BEDFORD",
        "streetDirectionId": null,
        "streetTypeId": "CRES",
        "placeName": "SARNIA",
        "streetNameDisplayText": "BEDFORD CRES, SARNIA"
      }
    ]
  },
  {
    "postal": "N7S7E3",
    "result": []
  },
  {
    "postal": "N7S3N6",
    "result": [
      {
        "electoralDistricts": [
          {
            "election": null,
            "id": 91,
            "name": "Sarnia—Lambton"
          }
        ],
        "pollDivisionIds": [
          10141389
        ],
        "postalCode": "N7S3N6",
        "streetName": "ELRICK",
        "streetDirectionId": null,
        "streetTypeId": "CRES",
        "placeName": "SARNIA",
        "streetNameDisplayText": "ELRICK CRES, SARNIA"
      }
    ]
  },
  {
    "postal": "N7S3X6",
    "result": [
      {
        "electoralDistricts": [
          {
            "election": null,
            "id": 91,
            "name": "Sarnia—Lambton"
          }
        ],
        "pollDivisionIds": [
          10141403
        ],
        "postalCode": "N7S3X6",
        "streetName": "AMSTERDAM",
        "streetDirectionId": null,
        "streetTypeId": "CRT",
        "placeName": "SARNIA",
        "streetNameDisplayText": "AMSTERDAM CRT, SARNIA"
      }
    ]
  },
  {
    "postal": "N7S8L0",
    "result": []
  },
  {
    "postal": "N7S8N1",
    "result": []
  },
  {
    "postal": "N7S4J0",
    "result": []
  },
  {
    "postal": "N7S0X7",
    "result": []
  },
  {
    "postal": "N7S6S4",
    "result": []
  },
  {
    "postal": "N7S0Z0",
    "result": []
  },
  {
    "postal": "N7S9X8",
    "result": []
  },
  {
    "postal": "N7S3H3",
    "result": [
      {
        "electoralDistricts": [
          {
            "election": null,
            "id": 91,
            "name": "Sarnia—Lambton"
          }
        ],
        "pollDivisionIds": [
          10141399
        ],
        "postalCode": "N7S3H3",
        "streetName": "BEL AIRE",
        "streetDirectionId": null,
        "streetTypeId": "DR",
        "placeName": "SARNIA",
        "streetNameDisplayText": "BEL AIRE DR, SARNIA"
      }
    ]
  },
  {
    "postal": "N7S7S2",
    "result": []
  },
  {
    "postal": "N7S3T3",
    "result": [
      {
        "electoralDistricts": [
          {
            "election": null,
            "id": 91,
            "name": "Sarnia—Lambton"
          }
        ],
        "pollDivisionIds": [
          10141389
        ],
        "postalCode": "N7S3T3",
        "streetName": "RUTHERGLEN",
        "streetDirectionId": null,
        "streetTypeId": "DR",
        "placeName": "SARNIA",
        "streetNameDisplayText": "RUTHERGLEN DR, SARNIA"
      }
    ]
  },
  {
    "postal": "N7S9P3",
    "result": []
  },
  {
    "postal": "N7S4H8",
    "result": [
      {
        "electoralDistricts": [
          {
            "election": null,
            "id": 91,
            "name": "Sarnia—Lambton"
          }
        ],
        "pollDivisionIds": [
          10141415
        ],
        "postalCode": "N7S4H8",
        "streetName": "NASSAU",
        "streetDirectionId": null,
        "streetTypeId": "CRES",
        "placeName": "SARNIA",
        "streetNameDisplayText": "NASSAU CRES, SARNIA"
      }
    ]
  },
  {
    "postal": "N7S6R1",
    "result": []
  },
  {
    "postal": "N7S1S0",
    "result": []
  },
  {
    "postal": "N7S3W8",
    "result": [
      {
        "electoralDistricts": [
          {
            "election": null,
            "id": 91,
            "name": "Sarnia—Lambton"
          }
        ],
        "pollDivisionIds": [
          10141400
        ],
        "postalCode": "N7S3W8",
        "streetName": "CAMBRIDGE",
        "streetDirectionId": null,
        "streetTypeId": "CRES",
        "placeName": "SARNIA",
        "streetNameDisplayText": "CAMBRIDGE CRES, SARNIA"
      }
    ]
  },
  {
    "postal": "N7S4S3",
    "result": [
      {
        "electoralDistricts": [
          {
            "election": null,
            "id": 91,
            "name": "Sarnia—Lambton"
          }
        ],
        "pollDivisionIds": [
          10141400
        ],
        "postalCode": "N7S4S3",
        "streetName": "SALISBURY",
        "streetDirectionId": null,
        "streetTypeId": "ST",
        "placeName": "SARNIA",
        "streetNameDisplayText": "SALISBURY ST, SARNIA"
      }
    ]
  },
  {
    "postal": "N7S1B6",
    "result": [
      {
        "electoralDistricts": [
          {
            "election": null,
            "id": 91,
            "name": "Sarnia—Lambton"
          }
        ],
        "pollDivisionIds": [
          10141410
        ],
        "postalCode": "N7S1B6",
        "streetName": "LECKIE",
        "streetDirectionId": null,
        "streetTypeId": "DR",
        "placeName": "SARNIA",
        "streetNameDisplayText": "LECKIE DR, SARNIA"
      }
    ]
  },
  {
    "postal": "N7S8R3",
    "result": []
  },
  {
    "postal": "N7S4V9",
    "result": [
      {
        "electoralDistricts": [
          {
            "election": null,
            "id": 91,
            "name": "Sarnia—Lambton"
          }
        ],
        "pollDivisionIds": [
          10141395
        ],
        "postalCode": "N7S4V9",
        "streetName": "OSGOODE",
        "streetDirectionId": null,
        "streetTypeId": "CRT",
        "placeName": "SARNIA",
        "streetNameDisplayText": "OSGOODE CRT, SARNIA"
      }
    ]
  },
  {
    "postal": "N7S9W4",
    "result": []
  },
  {
    "postal": "N7S3T4",
    "result": [
      {
        "electoralDistricts": [
          {
            "election": null,
            "id": 91,
            "name": "Sarnia—Lambton"
          }
        ],
        "pollDivisionIds": [
          10141403
        ],
        "postalCode": "N7S3T4",
        "streetName": "HIGHWAY",
        "streetDirectionId": "E",
        "streetTypeId": "DR",
        "placeName": "SARNIA",
        "streetNameDisplayText": "HIGHWAY DR E, SARNIA"
      }
    ]
  },
  {
    "postal": "N7S5C7",
    "result": [
      {
        "electoralDistricts": [
          {
            "election": null,
            "id": 91,
            "name": "Sarnia—Lambton"
          }
        ],
        "pollDivisionIds": [
          10141411
        ],
        "postalCode": "N7S5C7",
        "streetName": "BRADFORD",
        "streetDirectionId": null,
        "streetTypeId": "DR",
        "placeName": "SARNIA",
        "streetNameDisplayText": "BRADFORD DR, SARNIA"
      }
    ]
  },
  {
    "postal": "N7S3Y1",
    "result": [
      {
        "electoralDistricts": [
          {
            "election": null,
            "id": 91,
            "name": "Sarnia—Lambton"
          }
        ],
        "pollDivisionIds": [
          10141403
        ],
        "postalCode": "N7S3Y1",
        "streetName": "EXMOUTH",
        "streetDirectionId": null,
        "streetTypeId": "ST",
        "placeName": "SARNIA",
        "streetNameDisplayText": "EXMOUTH ST, SARNIA"
      }
    ]
  },
  {
    "postal": "N7S5V0",
    "result": []
  },
  {
    "postal": "N7S8G8",
    "result": []
  },
  {
    "postal": "N7S8B1",
    "result": []
  },
  {
    "postal": "N7S4P5",
    "result": [
      {
        "electoralDistricts": [
          {
            "election": null,
            "id": 91,
            "name": "Sarnia—Lambton"
          }
        ],
        "pollDivisionIds": [
          10141400
        ],
        "postalCode": "N7S4P5",
        "streetName": "WINCHESTER",
        "streetDirectionId": null,
        "streetTypeId": "CRES",
        "placeName": "SARNIA",
        "streetNameDisplayText": "WINCHESTER CRES, SARNIA"
      }
    ]
  },
  {
    "postal": "N7S7B2",
    "result": []
  },
  {
    "postal": "N7S0R2",
    "result": []
  },
  {
    "postal": "N7S4M4",
    "result": [
      {
        "electoralDistricts": [
          {
            "election": null,
            "id": 91,
            "name": "Sarnia—Lambton"
          }
        ],
        "pollDivisionIds": [
          10141402
        ],
        "postalCode": "N7S4M4",
        "streetName": "STACY",
        "streetDirectionId": null,
        "streetTypeId": "CRT",
        "placeName": "SARNIA",
        "streetNameDisplayText": "STACY CRT, SARNIA"
      }
    ]
  },
  {
    "postal": "N7S7M4",
    "result": []
  },
  {
    "postal": "N7S9S7",
    "result": []
  },
  {
    "postal": "N7S5Z7",
    "result": [
      {
        "electoralDistricts": [
          {
            "election": null,
            "id": 91,
            "name": "Sarnia—Lambton"
          }
        ],
        "pollDivisionIds": [
          10141411
        ],
        "postalCode": "N7S5Z7",
        "streetName": "HENLEY",
        "streetDirectionId": null,
        "streetTypeId": "CRES",
        "placeName": "SARNIA",
        "streetNameDisplayText": "HENLEY CRES, SARNIA"
      }
    ]
  },
  {
    "postal": "N7S7J7",
    "result": []
  },
  {
    "postal": "N7S8R8",
    "result": []
  },
  {
    "postal": "N7S9X1",
    "result": []
  },
  {
    "postal": "N7S5M9",
    "result": [
      {
        "electoralDistricts": [
          {
            "election": null,
            "id": 91,
            "name": "Sarnia—Lambton"
          }
        ],
        "pollDivisionIds": [
          10141389
        ],
        "postalCode": "N7S5M9",
        "streetName": "CRESTWOOD",
        "streetDirectionId": null,
        "streetTypeId": "PL",
        "placeName": "SARNIA",
        "streetNameDisplayText": "CRESTWOOD PL, SARNIA"
      }
    ]
  },
  {
    "postal": "N7S9B4",
    "result": []
  },
  {
    "postal": "N7S0L9",
    "result": []
  },
  {
    "postal": "N7S9G4",
    "result": []
  },
  {
    "postal": "N7S1J4",
    "result": [
      {
        "electoralDistricts": [
          {
            "election": null,
            "id": 91,
            "name": "Sarnia—Lambton"
          }
        ],
        "pollDivisionIds": [
          10141410
        ],
        "postalCode": "N7S1J4",
        "streetName": "OAK",
        "streetDirectionId": null,
        "streetTypeId": "AVE",
        "placeName": "SARNIA",
        "streetNameDisplayText": "OAK AVE, SARNIA"
      }
    ]
  },
  {
    "postal": "N7S0W6",
    "result": []
  }
]
