[
  {
    "postal": "N7T9J6",
    "result": []
  },
  {
    "postal": "N7T9Z5",
    "result": []
  },
  {
    "postal": "N7T7H8",
    "result": []
  },
  {
    "postal": "N7T0P6",
    "result": []
  },
  {
    "postal": "N7T0S7",
    "result": []
  },
  {
    "postal": "N7T8B9",
    "result": []
  },
  {
    "postal": "N7T2A6",
    "result": [
      {
        "electoralDistricts": [
          {
            "election": null,
            "id": 91,
            "name": "Sarnia—Lambton"
          }
        ],
        "pollDivisionIds": [
          10141413
        ],
        "postalCode": "N7T2A6",
        "streetName": "CONFEDERATION",
        "streetDirectionId": null,
        "streetTypeId": "ST",
        "placeName": "SARNIA",
        "streetNameDisplayText": "CONFEDERATION ST, SARNIA"
      }
    ]
  },
  {
    "postal": "N7T7V2",
    "result": [
      {
        "electoralDistricts": [
          {
            "election": null,
            "id": 91,
            "name": "Sarnia—Lambton"
          }
        ],
        "pollDivisionIds": [
          10141407
        ],
        "postalCode": "N7T7V2",
        "streetName": "DERBY",
        "streetDirectionId": null,
        "streetTypeId": "LANE",
        "placeName": "SARNIA",
        "streetNameDisplayText": "DERBY LANE, SARNIA"
      }
    ]
  },
  {
    "postal": "N7T9P4",
    "result": []
  },
  {
    "postal": "N7T6G0",
    "result": []
  },
  {
    "postal": "N7T2K0",
    "result": []
  },
  {
    "postal": "N7T7N6",
    "result": []
  },
  {
    "postal": "N7T5R3",
    "result": [
      {
        "electoralDistricts": [
          {
            "election": null,
            "id": 91,
            "name": "Sarnia—Lambton"
          }
        ],
        "pollDivisionIds": [
          10141402
        ],
        "postalCode": "N7T5R3",
        "streetName": "EXMOUTH",
        "streetDirectionId": null,
        "streetTypeId": "ST",
        "placeName": "SARNIA",
        "streetNameDisplayText": "EXMOUTH ST, SARNIA"
      }
    ]
  },
  {
    "postal": "N7T7K0",
    "result": []
  },
  {
    "postal": "N7T3R2",
    "result": [
      {
        "electoralDistricts": [
          {
            "election": null,
            "id": 91,
            "name": "Sarnia—Lambton"
          }
        ],
        "pollDivisionIds": [
          10141414
        ],
        "postalCode": "N7T3R2",
        "streetName": "EAST",
        "streetDirectionId": "S",
        "streetTypeId": "ST",
        "placeName": "SARNIA",
        "streetNameDisplayText": "EAST ST S, SARNIA"
      }
    ]
  },
  {
    "postal": "N7T0J1",
    "result": []
  },
  {
    "postal": "N7T0B0",
    "result": []
  },
  {
    "postal": "N7T5Z2",
    "result": [
      {
        "electoralDistricts": [
          {
            "election": null,
            "id": 91,
            "name": "Sarnia—Lambton"
          }
        ],
        "pollDivisionIds": [
          10141407
        ],
        "postalCode": "N7T5Z2",
        "streetName": "BROCK",
        "streetDirectionId": "N",
        "streetTypeId": "ST",
        "placeName": "SARNIA",
        "streetNameDisplayText": "BROCK ST N, SARNIA"
      }
    ]
  },
  {
    "postal": "N7T7P3",
    "result": [
      {
        "electoralDistricts": [
          {
            "election": null,
            "id": 91,
            "name": "Sarnia—Lambton"
          }
        ],
        "pollDivisionIds": [
          10141409
        ],
        "postalCode": "N7T7P3",
        "streetName": "DEVINE",
        "streetDirectionId": null,
        "streetTypeId": "ST",
        "placeName": "SARNIA",
        "streetNameDisplayText": "DEVINE ST, SARNIA"
      }
    ]
  },
  {
    "postal": "N7T2K3",
    "result": []
  },
  {
    "postal": "N7T7Y6",
    "result": [
      {
        "electoralDistricts": [
          {
            "election": null,
            "id": 91,
            "name": "Sarnia—Lambton"
          }
        ],
        "pollDivisionIds": [
          10141417
        ],
        "postalCode": "N7T7Y6",
        "streetName": "WAYNE",
        "streetDirectionId": null,
        "streetTypeId": "AVE",
        "placeName": "SARNIA",
        "streetNameDisplayText": "WAYNE AVE, SARNIA"
      }
    ]
  },
  {
    "postal": "N7T1L9",
    "result": [
      {
        "electoralDistricts": [
          {
            "election": null,
            "id": 91,
            "name": "Sarnia—Lambton"
          }
        ],
        "pollDivisionIds": [
          10141414
        ],
        "postalCode": "N7T1L9",
        "streetName": "ONTARIO",
        "streetDirectionId": null,
        "streetTypeId": "ST",
        "placeName": "SARNIA",
        "streetNameDisplayText": "ONTARIO ST, SARNIA"
      }
    ]
  },
  {
    "postal": "N7T8T0",
    "result": []
  },
  {
    "postal": "N7T3K8",
    "result": [
      {
        "electoralDistricts": [
          {
            "election": null,
            "id": 91,
            "name": "Sarnia—Lambton"
          }
        ],
        "pollDivisionIds": [
          10141414
        ],
        "postalCode": "N7T3K8",
        "streetName": "RUSSELL",
        "streetDirectionId": "S",
        "streetTypeId": "ST",
        "placeName": "SARNIA",
        "streetNameDisplayText": "RUSSELL ST S, SARNIA"
      }
    ]
  },
  {
    "postal": "N7T5W9",
    "result": [
      {
        "electoralDistricts": [
          {
            "election": null,
            "id": 91,
            "name": "Sarnia—Lambton"
          }
        ],
        "pollDivisionIds": [
          10141407
        ],
        "postalCode": "N7T5W9",
        "streetName": "VICTORIA",
        "streetDirectionId": "N",
        "streetTypeId": "ST",
        "placeName": "SARNIA",
        "streetNameDisplayText": "VICTORIA ST N, SARNIA"
      }
    ]
  },
  {
    "postal": "N7T6T9",
    "result": [
      {
        "electoralDistricts": [
          {
            "election": null,
            "id": 91,
            "name": "Sarnia—Lambton"
          }
        ],
        "pollDivisionIds": [
          10141401
        ],
        "postalCode": "N7T6T9",
        "streetName": "WATSON",
        "streetDirectionId": null,
        "streetTypeId": "ST",
        "placeName": "SARNIA",
        "streetNameDisplayText": "WATSON ST, SARNIA"
      }
    ]
  },
  {
    "postal": "N7T4H1",
    "result": [
      {
        "electoralDistricts": [
          {
            "election": null,
            "id": 91,
            "name": "Sarnia—Lambton"
          }
        ],
        "pollDivisionIds": [
          10141409
        ],
        "postalCode": "N7T4H1",
        "streetName": "ELM",
        "streetDirectionId": null,
        "streetTypeId": "AVE",
        "placeName": "SARNIA",
        "streetNameDisplayText": "ELM AVE, SARNIA"
      }
    ]
  },
  {
    "postal": "N7T7A2",
    "result": [
      {
        "electoralDistricts": [
          {
            "election": null,
            "id": 91,
            "name": "Sarnia—Lambton"
          }
        ],
        "pollDivisionIds": [
          10141401
        ],
        "postalCode": "N7T7A2",
        "streetName": "ELMHURST",
        "streetDirectionId": null,
        "streetTypeId": "AVE",
        "placeName": "SARNIA",
        "streetNameDisplayText": "ELMHURST AVE, SARNIA"
      }
    ]
  },
  {
    "postal": "N7T5G0",
    "result": []
  },
  {
    "postal": "N7T8V5",
    "result": []
  },
  {
    "postal": "N7T2Y8",
    "result": [
      {
        "electoralDistricts": [
          {
            "election": null,
            "id": 91,
            "name": "Sarnia—Lambton"
          }
        ],
        "pollDivisionIds": [
          10141413
        ],
        "postalCode": "N7T2Y8",
        "streetName": "CRAWFORD",
        "streetDirectionId": null,
        "streetTypeId": "ST",
        "placeName": "SARNIA",
        "streetNameDisplayText": "CRAWFORD ST, SARNIA"
      }
    ]
  },
  {
    "postal": "N7T2B6",
    "result": [
      {
        "electoralDistricts": [
          {
            "election": null,
            "id": 91,
            "name": "Sarnia—Lambton"
          }
        ],
        "pollDivisionIds": [
          10141413
        ],
        "postalCode": "N7T2B6",
        "streetName": "CONFEDERATION",
        "streetDirectionId": null,
        "streetTypeId": "ST",
        "placeName": "SARNIA",
        "streetNameDisplayText": "CONFEDERATION ST, SARNIA"
      }
    ]
  },
  {
    "postal": "N7T4W8",
    "result": [
      {
        "electoralDistricts": [
          {
            "election": null,
            "id": 91,
            "name": "Sarnia—Lambton"
          }
        ],
        "pollDivisionIds": [
          10141401
        ],
        "postalCode": "N7T4W8",
        "streetName": "LONDON",
        "streetDirectionId": null,
        "streetTypeId": "RD",
        "placeName": "SARNIA",
        "streetNameDisplayText": "LONDON RD, SARNIA"
      }
    ]
  },
  {
    "postal": "N7T8H7",
    "result": []
  },
  {
    "postal": "N7T5P1",
    "result": [
      {
        "electoralDistricts": [
          {
            "election": null,
            "id": 91,
            "name": "Sarnia—Lambton"
          }
        ],
        "pollDivisionIds": [
          10141401
        ],
        "postalCode": "N7T5P1",
        "streetName": "EXMOUTH",
        "streetDirectionId": null,
        "streetTypeId": "ST",
        "placeName": "SARNIA",
        "streetNameDisplayText": "EXMOUTH ST, SARNIA"
      }
    ]
  },
  {
    "postal": "N7T2B8",
    "result": [
      {
        "electoralDistricts": [
          {
            "election": null,
            "id": 91,
            "name": "Sarnia—Lambton"
          }
        ],
        "pollDivisionIds": [
          10141413
        ],
        "postalCode": "N7T2B8",
        "streetName": "CONFEDERATION",
        "streetDirectionId": null,
        "streetTypeId": "ST",
        "placeName": "SARNIA",
        "streetNameDisplayText": "CONFEDERATION ST, SARNIA"
      }
    ]
  },
  {
    "postal": "N7T0P2",
    "result": []
  },
  {
    "postal": "N7T9M1",
    "result": []
  },
  {
    "postal": "N7T3G0",
    "result": []
  },
  {
    "postal": "N7T9Z2",
    "result": []
  },
  {
    "postal": "N7T2A0",
    "result": []
  },
  {
    "postal": "N7T6Y0",
    "result": []
  },
  {
    "postal": "N7T2Z8",
    "result": [
      {
        "electoralDistricts": [
          {
            "election": null,
            "id": 91,
            "name": "Sarnia—Lambton"
          }
        ],
        "pollDivisionIds": [
          10141413
        ],
        "postalCode": "N7T2Z8",
        "streetName": "EMMA",
        "streetDirectionId": null,
        "streetTypeId": "ST",
        "placeName": "SARNIA",
        "streetNameDisplayText": "EMMA ST, SARNIA"
      }
    ]
  },
  {
    "postal": "N7T7Y3",
    "result": [
      {
        "electoralDistricts": [
          {
            "election": null,
            "id": 91,
            "name": "Sarnia—Lambton"
          }
        ],
        "pollDivisionIds": [
          10141416,
          10141413
        ],
        "postalCode": "N7T7Y3",
        "streetName": "VIDAL",
        "streetDirectionId": "S",
        "streetTypeId": "ST",
        "placeName": "SARNIA",
        "streetNameDisplayText": "VIDAL ST S, SARNIA"
      },
      {
        "electoralDistricts": [
          {
            "election": null,
            "id": 91,
            "name": "Sarnia—Lambton"
          }
        ],
        "pollDivisionIds": [
          10141416
        ],
        "postalCode": "N7T7Y3",
        "streetName": "WAHBOOSE",
        "streetDirectionId": null,
        "streetTypeId": "CIR",
        "placeName": "SARNIA",
        "streetNameDisplayText": "WAHBOOSE CIR, SARNIA"
      }
    ]
  },
  {
    "postal": "N7T6Z5",
    "result": [
      {
        "electoralDistricts": [
          {
            "election": null,
            "id": 91,
            "name": "Sarnia—Lambton"
          }
        ],
        "pollDivisionIds": [
          10141402
        ],
        "postalCode": "N7T6Z5",
        "streetName": "OXFORD",
        "streetDirectionId": null,
        "streetTypeId": "ST",
        "placeName": "SARNIA",
        "streetNameDisplayText": "OXFORD ST, SARNIA"
      }
    ]
  },
  {
    "postal": "N7T6E0",
    "result": []
  },
  {
    "postal": "N7T9B7",
    "result": []
  },
  {
    "postal": "N7T9S5",
    "result": []
  },
  {
    "postal": "N7T3X3",
    "result": [
      {
        "electoralDistricts": [
          {
            "election": null,
            "id": 91,
            "name": "Sarnia—Lambton"
          }
        ],
        "pollDivisionIds": [
          10141407
        ],
        "postalCode": "N7T3X3",
        "streetName": "CROMWELL",
        "streetDirectionId": null,
        "streetTypeId": "ST",
        "placeName": "SARNIA",
        "streetNameDisplayText": "CROMWELL ST, SARNIA"
      }
    ]
  },
  {
    "postal": "N7T7R5",
    "result": [
      {
        "electoralDistricts": [
          {
            "election": null,
            "id": 91,
            "name": "Sarnia—Lambton"
          }
        ],
        "pollDivisionIds": [
          10141409
        ],
        "postalCode": "N7T7R5",
        "streetName": "WESTBURY",
        "streetDirectionId": null,
        "streetTypeId": "CRT",
        "placeName": "SARNIA",
        "streetNameDisplayText": "WESTBURY CRT, SARNIA"
      }
    ]
  },
  {
    "postal": "N7T2X3",
    "result": [
      {
        "electoralDistricts": [
          {
            "election": null,
            "id": 91,
            "name": "Sarnia—Lambton"
          }
        ],
        "pollDivisionIds": [
          10141413
        ],
        "postalCode": "N7T2X3",
        "streetName": "BROCK",
        "streetDirectionId": "S",
        "streetTypeId": "ST",
        "placeName": "SARNIA",
        "streetNameDisplayText": "BROCK ST S, SARNIA"
      }
    ]
  },
  {
    "postal": "N7T8Z9",
    "result": []
  },
  {
    "postal": "N7T0N4",
    "result": []
  },
  {
    "postal": "N7T1K1",
    "result": [
      {
        "electoralDistricts": [
          {
            "election": null,
            "id": 91,
            "name": "Sarnia—Lambton"
          }
        ],
        "pollDivisionIds": [
          10141414
        ],
        "postalCode": "N7T1K1",
        "streetName": "ROSS",
        "streetDirectionId": null,
        "streetTypeId": "AVE",
        "placeName": "SARNIA",
        "streetNameDisplayText": "ROSS AVE, SARNIA"
      }
    ]
  },
  {
    "postal": "N7T1S3",
    "result": [
      {
        "electoralDistricts": [
          {
            "election": null,
            "id": 91,
            "name": "Sarnia—Lambton"
          }
        ],
        "pollDivisionIds": [
          10141409
        ],
        "postalCode": "N7T1S3",
        "streetName": "TALFOURD",
        "streetDirectionId": null,
        "streetTypeId": "ST",
        "placeName": "SARNIA",
        "streetNameDisplayText": "TALFOURD ST, SARNIA"
      }
    ]
  },
  {
    "postal": "N7T6M4",
    "result": [
      {
        "electoralDistricts": [
          {
            "election": null,
            "id": 91,
            "name": "Sarnia—Lambton"
          }
        ],
        "pollDivisionIds": [
          10141397
        ],
        "postalCode": "N7T6M4",
        "streetName": "COTTERBURY",
        "streetDirectionId": null,
        "streetTypeId": "ST",
        "placeName": "SARNIA",
        "streetNameDisplayText": "COTTERBURY ST, SARNIA"
      }
    ]
  },
  {
    "postal": "N7T9A9",
    "result": []
  },
  {
    "postal": "N7T9Z9",
    "result": []
  },
  {
    "postal": "N7T6T4",
    "result": [
      {
        "electoralDistricts": [
          {
            "election": null,
            "id": 91,
            "name": "Sarnia—Lambton"
          }
        ],
        "pollDivisionIds": [
          10141401
        ],
        "postalCode": "N7T6T4",
        "streetName": "CAPEL",
        "streetDirectionId": null,
        "streetTypeId": "ST",
        "placeName": "SARNIA",
        "streetNameDisplayText": "CAPEL ST, SARNIA"
      }
    ]
  },
  {
    "postal": "N7T0B2",
    "result": [
      {
        "electoralDistricts": [
          {
            "election": null,
            "id": 91,
            "name": "Sarnia—Lambton"
          }
        ],
        "pollDivisionIds": [
          10141430
        ],
        "postalCode": "N7T0B2",
        "streetName": "FRONT",
        "streetDirectionId": "N",
        "streetTypeId": "ST",
        "placeName": "SARNIA",
        "streetNameDisplayText": "FRONT ST N, SARNIA"
      }
    ]
  },
  {
    "postal": "N7T2L9",
    "result": []
  },
  {
    "postal": "N7T8K9",
    "result": []
  },
  {
    "postal": "N7T2H9",
    "result": []
  },
  {
    "postal": "N7T3Z6",
    "result": [
      {
        "electoralDistricts": [
          {
            "election": null,
            "id": 91,
            "name": "Sarnia—Lambton"
          }
        ],
        "pollDivisionIds": [
          10141407
        ],
        "postalCode": "N7T3Z6",
        "streetName": "COBDEN",
        "streetDirectionId": null,
        "streetTypeId": "ST",
        "placeName": "SARNIA",
        "streetNameDisplayText": "COBDEN ST, SARNIA"
      }
    ]
  },
  {
    "postal": "N7T3B0",
    "result": []
  },
  {
    "postal": "N7T2H8",
    "result": [
      {
        "electoralDistricts": [
          {
            "election": null,
            "id": 91,
            "name": "Sarnia—Lambton"
          }
        ],
        "pollDivisionIds": [
          10141413
        ],
        "postalCode": "N7T2H8",
        "streetName": "CAMPBELL",
        "streetDirectionId": null,
        "streetTypeId": "ST",
        "placeName": "SARNIA",
        "streetNameDisplayText": "CAMPBELL ST, SARNIA"
      }
    ]
  },
  {
    "postal": "N7T3X2",
    "result": [
      {
        "electoralDistricts": [
          {
            "election": null,
            "id": 91,
            "name": "Sarnia—Lambton"
          }
        ],
        "pollDivisionIds": [
          10141407
        ],
        "postalCode": "N7T3X2",
        "streetName": "CROMWELL",
        "streetDirectionId": null,
        "streetTypeId": "ST",
        "placeName": "SARNIA",
        "streetNameDisplayText": "CROMWELL ST, SARNIA"
      }
    ]
  },
  {
    "postal": "N7T2E9",
    "result": [
      {
        "electoralDistricts": [
          {
            "election": null,
            "id": 91,
            "name": "Sarnia—Lambton"
          }
        ],
        "pollDivisionIds": [
          10141413
        ],
        "postalCode": "N7T2E9",
        "streetName": "ANN",
        "streetDirectionId": null,
        "streetTypeId": "ST",
        "placeName": "SARNIA",
        "streetNameDisplayText": "ANN ST, SARNIA"
      }
    ]
  },
  {
    "postal": "N7T9P6",
    "result": []
  },
  {
    "postal": "N7T9E2",
    "result": []
  },
  {
    "postal": "N7T9H2",
    "result": []
  },
  {
    "postal": "N7T1S8",
    "result": [
      {
        "electoralDistricts": [
          {
            "election": null,
            "id": 91,
            "name": "Sarnia—Lambton"
          }
        ],
        "pollDivisionIds": [
          10141414
        ],
        "postalCode": "N7T1S8",
        "streetName": "RICHARD",
        "streetDirectionId": null,
        "streetTypeId": "ST",
        "placeName": "SARNIA",
        "streetNameDisplayText": "RICHARD ST, SARNIA"
      }
    ]
  },
  {
    "postal": "N7T3M6",
    "result": [
      {
        "electoralDistricts": [
          {
            "election": null,
            "id": 91,
            "name": "Sarnia—Lambton"
          }
        ],
        "pollDivisionIds": [
          10141413
        ],
        "postalCode": "N7T3M6",
        "streetName": "RUSSELL",
        "streetDirectionId": "S",
        "streetTypeId": "ST",
        "placeName": "SARNIA",
        "streetNameDisplayText": "RUSSELL ST S, SARNIA"
      }
    ]
  },
  {
    "postal": "N7T6Z8",
    "result": [
      {
        "electoralDistricts": [
          {
            "election": null,
            "id": 91,
            "name": "Sarnia—Lambton"
          }
        ],
        "pollDivisionIds": [
          10141401
        ],
        "postalCode": "N7T6Z8",
        "streetName": "OXFORD",
        "streetDirectionId": null,
        "streetTypeId": "ST",
        "placeName": "SARNIA",
        "streetNameDisplayText": "OXFORD ST, SARNIA"
      }
    ]
  },
  {
    "postal": "N7T4J2",
    "result": [
      {
        "electoralDistricts": [
          {
            "election": null,
            "id": 91,
            "name": "Sarnia—Lambton"
          }
        ],
        "pollDivisionIds": [
          10141409
        ],
        "postalCode": "N7T4J2",
        "streetName": "BIRCH",
        "streetDirectionId": null,
        "streetTypeId": "AVE",
        "placeName": "SARNIA",
        "streetNameDisplayText": "BIRCH AVE, SARNIA"
      }
    ]
  },
  {
    "postal": "N7T9Y1",
    "result": []
  },
  {
    "postal": "N7T8V6",
    "result": []
  },
  {
    "postal": "N7T6B2",
    "result": [
      {
        "electoralDistricts": [
          {
            "election": null,
            "id": 91,
            "name": "Sarnia—Lambton"
          }
        ],
        "pollDivisionIds": [
          10141407
        ],
        "postalCode": "N7T6B2",
        "streetName": "COLLEGE",
        "streetDirectionId": "N",
        "streetTypeId": "AVE",
        "placeName": "SARNIA",
        "streetNameDisplayText": "COLLEGE AVE N, SARNIA"
      }
    ]
  },
  {
    "postal": "N7T1P8",
    "result": [
      {
        "electoralDistricts": [
          {
            "election": null,
            "id": 91,
            "name": "Sarnia—Lambton"
          }
        ],
        "pollDivisionIds": [
          10141414
        ],
        "postalCode": "N7T1P8",
        "streetName": "TALFOURD",
        "streetDirectionId": null,
        "streetTypeId": "ST",
        "placeName": "SARNIA",
        "streetNameDisplayText": "TALFOURD ST, SARNIA"
      }
    ]
  },
  {
    "postal": "N7T0V8",
    "result": []
  },
  {
    "postal": "N7T4Y0",
    "result": []
  },
  {
    "postal": "N7T2T4",
    "result": [
      {
        "electoralDistricts": [
          {
            "election": null,
            "id": 91,
            "name": "Sarnia—Lambton"
          }
        ],
        "pollDivisionIds": [
          10141413
        ],
        "postalCode": "N7T2T4",
        "streetName": "VIDAL",
        "streetDirectionId": "S",
        "streetTypeId": "ST",
        "placeName": "SARNIA",
        "streetNameDisplayText": "VIDAL ST S, SARNIA"
      }
    ]
  },
  {
    "postal": "N7T2S3",
    "result": [
      {
        "electoralDistricts": [
          {
            "election": null,
            "id": 91,
            "name": "Sarnia—Lambton"
          }
        ],
        "pollDivisionIds": [
          10141413
        ],
        "postalCode": "N7T2S3",
        "streetName": "QUEEN",
        "streetDirectionId": null,
        "streetTypeId": "ST",
        "placeName": "SARNIA",
        "streetNameDisplayText": "QUEEN ST, SARNIA"
      }
    ]
  },
  {
    "postal": "N7T0K0",
    "result": []
  },
  {
    "postal": "N7T5N1",
    "result": [
      {
        "electoralDistricts": [
          {
            "election": null,
            "id": 91,
            "name": "Sarnia—Lambton"
          }
        ],
        "pollDivisionIds": [
          10141397
        ],
        "postalCode": "N7T5N1",
        "streetName": "EXMOUTH",
        "streetDirectionId": null,
        "streetTypeId": "ST",
        "placeName": "SARNIA",
        "streetNameDisplayText": "EXMOUTH ST, SARNIA"
      }
    ]
  },
  {
    "postal": "N7T7T0",
    "result": []
  },
  {
    "postal": "N7T9N2",
    "result": []
  },
  {
    "postal": "N7T5L1",
    "result": [
      {
        "electoralDistricts": [
          {
            "election": null,
            "id": 91,
            "name": "Sarnia—Lambton"
          }
        ],
        "pollDivisionIds": [
          10141402
        ],
        "postalCode": "N7T5L1",
        "streetName": "EASTWOOD",
        "streetDirectionId": null,
        "streetTypeId": "ST",
        "placeName": "SARNIA",
        "streetNameDisplayText": "EASTWOOD ST, SARNIA"
      }
    ]
  },
  {
    "postal": "N7T7G5",
    "result": [
      {
        "electoralDistricts": [
          {
            "election": null,
            "id": 91,
            "name": "Sarnia—Lambton"
          }
        ],
        "pollDivisionIds": [
          10141409
        ],
        "postalCode": "N7T7G5",
        "streetName": "INDIAN",
        "streetDirectionId": "N",
        "streetTypeId": "RD",
        "placeName": "SARNIA",
        "streetNameDisplayText": "INDIAN RD N, SARNIA"
      }
    ]
  },
  {
    "postal": "N7T6K2",
    "result": [
      {
        "electoralDistricts": [
          {
            "election": null,
            "id": 91,
            "name": "Sarnia—Lambton"
          }
        ],
        "pollDivisionIds": [
          10141397
        ],
        "postalCode": "N7T6K2",
        "streetName": "PARK",
        "streetDirectionId": null,
        "streetTypeId": "AVE",
        "placeName": "SARNIA",
        "streetNameDisplayText": "PARK AVE, SARNIA"
      }
    ]
  },
  {
    "postal": "N7T6P9",
    "result": [
      {
        "electoralDistricts": [
          {
            "election": null,
            "id": 91,
            "name": "Sarnia—Lambton"
          }
        ],
        "pollDivisionIds": [
          10141414
        ],
        "postalCode": "N7T6P9",
        "streetName": "RUSSELL",
        "streetDirectionId": "N",
        "streetTypeId": "ST",
        "placeName": "SARNIA",
        "streetNameDisplayText": "RUSSELL ST N, SARNIA"
      }
    ]
  },
  {
    "postal": "N7T0E6",
    "result": []
  },
  {
    "postal": "N7T8R9",
    "result": []
  },
  {
    "postal": "N7T3G9",
    "result": [
      {
        "electoralDistricts": [
          {
            "election": null,
            "id": 91,
            "name": "Sarnia—Lambton"
          }
        ],
        "pollDivisionIds": [
          10141413
        ],
        "postalCode": "N7T3G9",
        "streetName": "PROCTOR",
        "streetDirectionId": null,
        "streetTypeId": "ST",
        "placeName": "SARNIA",
        "streetNameDisplayText": "PROCTOR ST, SARNIA"
      }
    ]
  },
  {
    "postal": "N7T0V7",
    "result": []
  },
  {
    "postal": "N7T2Z1",
    "result": [
      {
        "electoralDistricts": [
          {
            "election": null,
            "id": 91,
            "name": "Sarnia—Lambton"
          }
        ],
        "pollDivisionIds": [
          10141413
        ],
        "postalCode": "N7T2Z1",
        "streetName": "JOHN",
        "streetDirectionId": null,
        "streetTypeId": "ST",
        "placeName": "SARNIA",
        "streetNameDisplayText": "JOHN ST, SARNIA"
      }
    ]
  },
  {
    "postal": "N7T7N1",
    "result": []
  },
  {
    "postal": "N7T3C6",
    "result": []
  },
  {
    "postal": "N7T4M1",
    "result": [
      {
        "electoralDistricts": [
          {
            "election": null,
            "id": 91,
            "name": "Sarnia—Lambton"
          }
        ],
        "pollDivisionIds": [
          10141410
        ],
        "postalCode": "N7T4M1",
        "streetName": "EVERGREEN",
        "streetDirectionId": null,
        "streetTypeId": "DR",
        "placeName": "SARNIA",
        "streetNameDisplayText": "EVERGREEN DR, SARNIA"
      }
    ]
  },
  {
    "postal": "N7T9K2",
    "result": []
  },
  {
    "postal": "N7T9S6",
    "result": []
  },
  {
    "postal": "N7T4X1",
    "result": [
      {
        "electoralDistricts": [
          {
            "election": null,
            "id": 91,
            "name": "Sarnia—Lambton"
          }
        ],
        "pollDivisionIds": [
          10141401
        ],
        "postalCode": "N7T4X1",
        "streetName": "LONDON",
        "streetDirectionId": null,
        "streetTypeId": "RD",
        "placeName": "SARNIA",
        "streetNameDisplayText": "LONDON RD, SARNIA"
      }
    ]
  },
  {
    "postal": "N7T8W2",
    "result": []
  },
  {
    "postal": "N7T7N2",
    "result": [
      {
        "electoralDistricts": [
          {
            "election": null,
            "id": 91,
            "name": "Sarnia—Lambton"
          }
        ],
        "pollDivisionIds": [
          10141407
        ],
        "postalCode": "N7T7N2",
        "streetName": "CHRISTINA",
        "streetDirectionId": "N",
        "streetTypeId": "ST",
        "placeName": "SARNIA",
        "streetNameDisplayText": "CHRISTINA ST N, SARNIA"
      }
    ]
  },
  {
    "postal": "N7T8S3",
    "result": []
  },
  {
    "postal": "N7T4V0",
    "result": []
  },
  {
    "postal": "N7T6W4",
    "result": [
      {
        "electoralDistricts": [
          {
            "election": null,
            "id": 91,
            "name": "Sarnia—Lambton"
          }
        ],
        "pollDivisionIds": [
          10141401
        ],
        "postalCode": "N7T6W4",
        "streetName": "CECIL",
        "streetDirectionId": null,
        "streetTypeId": "ST",
        "placeName": "SARNIA",
        "streetNameDisplayText": "CECIL ST, SARNIA"
      }
    ]
  },
  {
    "postal": "N7T5M1",
    "result": []
  },
  {
    "postal": "N7T0S4",
    "result": []
  },
  {
    "postal": "N7T5X6",
    "result": [
      {
        "electoralDistricts": [
          {
            "election": null,
            "id": 91,
            "name": "Sarnia—Lambton"
          }
        ],
        "pollDivisionIds": [
          10141407
        ],
        "postalCode": "N7T5X6",
        "streetName": "VIDAL",
        "streetDirectionId": "N",
        "streetTypeId": "ST",
        "placeName": "SARNIA",
        "streetNameDisplayText": "VIDAL ST N, SARNIA"
      }
    ]
  },
  {
    "postal": "N7T8L5",
    "result": []
  },
  {
    "postal": "N7T5M8",
    "result": [
      {
        "electoralDistricts": [
          {
            "election": null,
            "id": 91,
            "name": "Sarnia—Lambton"
          }
        ],
        "pollDivisionIds": [
          10141397
        ],
        "postalCode": "N7T5M8",
        "streetName": "EXMOUTH",
        "streetDirectionId": null,
        "streetTypeId": "ST",
        "placeName": "SARNIA",
        "streetNameDisplayText": "EXMOUTH ST, SARNIA"
      }
    ]
  },
  {
    "postal": "N7T2G3",
    "result": [
      {
        "electoralDistricts": [
          {
            "election": null,
            "id": 91,
            "name": "Sarnia—Lambton"
          }
        ],
        "pollDivisionIds": [
          10141413
        ],
        "postalCode": "N7T2G3",
        "streetName": "ALFRED",
        "streetDirectionId": null,
        "streetTypeId": "ST",
        "placeName": "SARNIA",
        "streetNameDisplayText": "ALFRED ST, SARNIA"
      }
    ]
  },
  {
    "postal": "N7T8E4",
    "result": [
      {
        "electoralDistricts": [
          {
            "election": null,
            "id": 91,
            "name": "Sarnia—Lambton"
          }
        ],
        "pollDivisionIds": [
          10141416
        ],
        "postalCode": "N7T8E4",
        "streetName": "CHIPPEWA",
        "streetDirectionId": null,
        "streetTypeId": "CRES",
        "placeName": "SARNIA",
        "streetNameDisplayText": "CHIPPEWA CRES, SARNIA"
      }
    ]
  },
  {
    "postal": "N7T7S9",
    "result": [
      {
        "electoralDistricts": [
          {
            "election": null,
            "id": 91,
            "name": "Sarnia—Lambton"
          }
        ],
        "pollDivisionIds": [
          10141397
        ],
        "postalCode": "N7T7S9",
        "streetName": "LONDON",
        "streetDirectionId": null,
        "streetTypeId": "RD",
        "placeName": "SARNIA",
        "streetNameDisplayText": "LONDON RD, SARNIA"
      }
    ]
  },
  {
    "postal": "N7T1K3",
    "result": [
      {
        "electoralDistricts": [
          {
            "election": null,
            "id": 91,
            "name": "Sarnia—Lambton"
          }
        ],
        "pollDivisionIds": [
          10141409
        ],
        "postalCode": "N7T1K3",
        "streetName": "ROSS",
        "streetDirectionId": null,
        "streetTypeId": "AVE",
        "placeName": "SARNIA",
        "streetNameDisplayText": "ROSS AVE, SARNIA"
      }
    ]
  },
  {
    "postal": "N7T4E1",
    "result": [
      {
        "electoralDistricts": [
          {
            "election": null,
            "id": 91,
            "name": "Sarnia—Lambton"
          }
        ],
        "pollDivisionIds": [
          10141407
        ],
        "postalCode": "N7T4E1",
        "streetName": "LOCHIEL",
        "streetDirectionId": null,
        "streetTypeId": "ST",
        "placeName": "SARNIA",
        "streetNameDisplayText": "LOCHIEL ST, SARNIA"
      }
    ]
  },
  {
    "postal": "N7T4R2",
    "result": [
      {
        "electoralDistricts": [
          {
            "election": null,
            "id": 91,
            "name": "Sarnia—Lambton"
          }
        ],
        "pollDivisionIds": [
          10141407
        ],
        "postalCode": "N7T4R2",
        "streetName": "CHARLOTTE",
        "streetDirectionId": null,
        "streetTypeId": "ST",
        "placeName": "SARNIA",
        "streetNameDisplayText": "CHARLOTTE ST, SARNIA"
      }
    ]
  },
  {
    "postal": "N7T6T0",
    "result": []
  },
  {
    "postal": "N7T3K5",
    "result": [
      {
        "electoralDistricts": [
          {
            "election": null,
            "id": 91,
            "name": "Sarnia—Lambton"
          }
        ],
        "pollDivisionIds": [
          10141414
        ],
        "postalCode": "N7T3K5",
        "streetName": "CONRAD",
        "streetDirectionId": null,
        "streetTypeId": "ST",
        "placeName": "SARNIA",
        "streetNameDisplayText": "CONRAD ST, SARNIA"
      }
    ]
  },
  {
    "postal": "N7T3S3",
    "result": [
      {
        "electoralDistricts": [
          {
            "election": null,
            "id": 91,
            "name": "Sarnia—Lambton"
          }
        ],
        "pollDivisionIds": [
          10141414
        ],
        "postalCode": "N7T3S3",
        "streetName": "EAST",
        "streetDirectionId": "S",
        "streetTypeId": "ST",
        "placeName": "SARNIA",
        "streetNameDisplayText": "EAST ST S, SARNIA"
      }
    ]
  },
  {
    "postal": "N7T3L4",
    "result": [
      {
        "electoralDistricts": [
          {
            "election": null,
            "id": 91,
            "name": "Sarnia—Lambton"
          }
        ],
        "pollDivisionIds": [
          10141414
        ],
        "postalCode": "N7T3L4",
        "streetName": "RUSSELL",
        "streetDirectionId": "S",
        "streetTypeId": "ST",
        "placeName": "SARNIA",
        "streetNameDisplayText": "RUSSELL ST S, SARNIA"
      }
    ]
  },
  {
    "postal": "N7T9Y2",
    "result": []
  },
  {
    "postal": "N7T1E0",
    "result": []
  },
  {
    "postal": "N7T9A4",
    "result": []
  },
  {
    "postal": "N7T1L3",
    "result": [
      {
        "electoralDistricts": [
          {
            "election": null,
            "id": 91,
            "name": "Sarnia—Lambton"
          }
        ],
        "pollDivisionIds": [
          10141414
        ],
        "postalCode": "N7T1L3",
        "streetName": "ONTARIO",
        "streetDirectionId": null,
        "streetTypeId": "ST",
        "placeName": "SARNIA",
        "streetNameDisplayText": "ONTARIO ST, SARNIA"
      }
    ]
  },
  {
    "postal": "N7T6N1",
    "result": [
      {
        "electoralDistricts": [
          {
            "election": null,
            "id": 91,
            "name": "Sarnia—Lambton"
          }
        ],
        "pollDivisionIds": [
          10141397
        ],
        "postalCode": "N7T6N1",
        "streetName": "COLLINGWOOD",
        "streetDirectionId": null,
        "streetTypeId": "ST",
        "placeName": "SARNIA",
        "streetNameDisplayText": "COLLINGWOOD ST, SARNIA"
      }
    ]
  },
  {
    "postal": "N7T6G7",
    "result": []
  },
  {
    "postal": "N7T7W1",
    "result": []
  },
  {
    "postal": "N7T4M6",
    "result": [
      {
        "electoralDistricts": [
          {
            "election": null,
            "id": 91,
            "name": "Sarnia—Lambton"
          }
        ],
        "pollDivisionIds": [
          10141409
        ],
        "postalCode": "N7T4M6",
        "streetName": "OAK",
        "streetDirectionId": null,
        "streetTypeId": "AVE",
        "placeName": "SARNIA",
        "streetNameDisplayText": "OAK AVE, SARNIA"
      }
    ]
  },
  {
    "postal": "N7T1K0",
    "result": []
  },
  {
    "postal": "N7T3E2",
    "result": [
      {
        "electoralDistricts": [
          {
            "election": null,
            "id": 91,
            "name": "Sarnia—Lambton"
          }
        ],
        "pollDivisionIds": [
          10141414
        ],
        "postalCode": "N7T3E2",
        "streetName": "MITTON",
        "streetDirectionId": "S",
        "streetTypeId": "ST",
        "placeName": "SARNIA",
        "streetNameDisplayText": "MITTON ST S, SARNIA"
      }
    ]
  },
  {
    "postal": "N7T5H4",
    "result": [
      {
        "electoralDistricts": [
          {
            "election": null,
            "id": 91,
            "name": "Sarnia—Lambton"
          }
        ],
        "pollDivisionIds": [
          10141397
        ],
        "postalCode": "N7T5H4",
        "streetName": "NELSON",
        "streetDirectionId": null,
        "streetTypeId": "ST",
        "placeName": "SARNIA",
        "streetNameDisplayText": "NELSON ST, SARNIA"
      }
    ]
  },
  {
    "postal": "N7T1K7",
    "result": [
      {
        "electoralDistricts": [
          {
            "election": null,
            "id": 91,
            "name": "Sarnia—Lambton"
          }
        ],
        "pollDivisionIds": [
          10141407
        ],
        "postalCode": "N7T1K7",
        "streetName": "JOHNSTON",
        "streetDirectionId": null,
        "streetTypeId": "ST",
        "placeName": "SARNIA",
        "streetNameDisplayText": "JOHNSTON ST, SARNIA"
      }
    ]
  },
  {
    "postal": "N7T0H0",
    "result": []
  },
  {
    "postal": "N7T0J3",
    "result": []
  },
  {
    "postal": "N7T1X6",
    "result": [
      {
        "electoralDistricts": [
          {
            "election": null,
            "id": 91,
            "name": "Sarnia—Lambton"
          }
        ],
        "pollDivisionIds": [
          10141413
        ],
        "postalCode": "N7T1X6",
        "streetName": "MCGIBBON",
        "streetDirectionId": null,
        "streetTypeId": "ST",
        "placeName": "SARNIA",
        "streetNameDisplayText": "MCGIBBON ST, SARNIA"
      }
    ]
  },
  {
    "postal": "N7T2Z6",
    "result": [
      {
        "electoralDistricts": [
          {
            "election": null,
            "id": 91,
            "name": "Sarnia—Lambton"
          }
        ],
        "pollDivisionIds": [
          10141413
        ],
        "postalCode": "N7T2Z6",
        "streetName": "EMMA",
        "streetDirectionId": null,
        "streetTypeId": "ST",
        "placeName": "SARNIA",
        "streetNameDisplayText": "EMMA ST, SARNIA"
      }
    ]
  },
  {
    "postal": "N7T4R9",
    "result": [
      {
        "electoralDistricts": [
          {
            "election": null,
            "id": 91,
            "name": "Sarnia—Lambton"
          }
        ],
        "pollDivisionIds": [
          10141408
        ],
        "postalCode": "N7T4R9",
        "streetName": "ESSEX",
        "streetDirectionId": null,
        "streetTypeId": "ST",
        "placeName": "SARNIA",
        "streetNameDisplayText": "ESSEX ST, SARNIA"
      }
    ]
  },
  {
    "postal": "N7T0W8",
    "result": []
  },
  {
    "postal": "N7T1L4",
    "result": [
      {
        "electoralDistricts": [
          {
            "election": null,
            "id": 91,
            "name": "Sarnia—Lambton"
          }
        ],
        "pollDivisionIds": [
          10141414
        ],
        "postalCode": "N7T1L4",
        "streetName": "ONTARIO",
        "streetDirectionId": null,
        "streetTypeId": "ST",
        "placeName": "SARNIA",
        "streetNameDisplayText": "ONTARIO ST, SARNIA"
      }
    ]
  },
  {
    "postal": "N7T0C8",
    "result": []
  },
  {
    "postal": "N7T9X7",
    "result": []
  },
  {
    "postal": "N7T4T1",
    "result": [
      {
        "electoralDistricts": [
          {
            "election": null,
            "id": 91,
            "name": "Sarnia—Lambton"
          }
        ],
        "pollDivisionIds": [
          10141407
        ],
        "postalCode": "N7T4T1",
        "streetName": "MARIA",
        "streetDirectionId": null,
        "streetTypeId": "ST",
        "placeName": "SARNIA",
        "streetNameDisplayText": "MARIA ST, SARNIA"
      }
    ]
  },
  {
    "postal": "N7T0M0",
    "result": []
  },
  {
    "postal": "N7T6A2",
    "result": [
      {
        "electoralDistricts": [
          {
            "election": null,
            "id": 91,
            "name": "Sarnia—Lambton"
          }
        ],
        "pollDivisionIds": [
          10141407
        ],
        "postalCode": "N7T6A2",
        "streetName": "EUPHEMIA",
        "streetDirectionId": "N",
        "streetTypeId": "ST",
        "placeName": "SARNIA",
        "streetNameDisplayText": "EUPHEMIA ST N, SARNIA"
      },
      {
        "electoralDistricts": [
          {
            "election": null,
            "id": 91,
            "name": "Sarnia—Lambton"
          }
        ],
        "pollDivisionIds": [
          10141413
        ],
        "postalCode": "N7T6A2",
        "streetName": "EUPHEMIA",
        "streetDirectionId": "S",
        "streetTypeId": "ST",
        "placeName": "SARNIA",
        "streetNameDisplayText": "EUPHEMIA ST S, SARNIA"
      }
    ]
  },
  {
    "postal": "N7T9S8",
    "result": []
  },
  {
    "postal": "N7T9T4",
    "result": []
  },
  {
    "postal": "N7T9Y4",
    "result": []
  },
  {
    "postal": "N7T6G5",
    "result": [
      {
        "electoralDistricts": [
          {
            "election": null,
            "id": 91,
            "name": "Sarnia—Lambton"
          }
        ],
        "pollDivisionIds": [
          10141407
        ],
        "postalCode": "N7T6G5",
        "streetName": "MITTON",
        "streetDirectionId": "N",
        "streetTypeId": "ST",
        "placeName": "SARNIA",
        "streetNameDisplayText": "MITTON ST N, SARNIA"
      },
      {
        "electoralDistricts": [
          {
            "election": null,
            "id": 91,
            "name": "Sarnia—Lambton"
          }
        ],
        "pollDivisionIds": [
          10141413
        ],
        "postalCode": "N7T6G5",
        "streetName": "MITTON",
        "streetDirectionId": "S",
        "streetTypeId": "ST",
        "placeName": "SARNIA",
        "streetNameDisplayText": "MITTON ST S, SARNIA"
      }
    ]
  },
  {
    "postal": "N7T6H9",
    "result": [
      {
        "electoralDistricts": [
          {
            "election": null,
            "id": 91,
            "name": "Sarnia—Lambton"
          }
        ],
        "pollDivisionIds": [
          10141408
        ],
        "postalCode": "N7T6H9",
        "streetName": "MITTON",
        "streetDirectionId": "N",
        "streetTypeId": "ST",
        "placeName": "SARNIA",
        "streetNameDisplayText": "MITTON ST N, SARNIA"
      }
    ]
  },
  {
    "postal": "N7T2P3",
    "result": []
  },
  {
    "postal": "N7T1T6",
    "result": [
      {
        "electoralDistricts": [
          {
            "election": null,
            "id": 91,
            "name": "Sarnia—Lambton"
          }
        ],
        "pollDivisionIds": [
          10141413
        ],
        "postalCode": "N7T1T6",
        "streetName": "DEVINE",
        "streetDirectionId": null,
        "streetTypeId": "ST",
        "placeName": "SARNIA",
        "streetNameDisplayText": "DEVINE ST, SARNIA"
      }
    ]
  },
  {
    "postal": "N7T4P6",
    "result": [
      {
        "electoralDistricts": [
          {
            "election": null,
            "id": 91,
            "name": "Sarnia—Lambton"
          }
        ],
        "pollDivisionIds": [
          10141408
        ],
        "postalCode": "N7T4P6",
        "streetName": "GEORGE",
        "streetDirectionId": null,
        "streetTypeId": "ST",
        "placeName": "SARNIA",
        "streetNameDisplayText": "GEORGE ST, SARNIA"
      }
    ]
  },
  {
    "postal": "N7T3K1",
    "result": [
      {
        "electoralDistricts": [
          {
            "election": null,
            "id": 91,
            "name": "Sarnia—Lambton"
          }
        ],
        "pollDivisionIds": [
          10141413
        ],
        "postalCode": "N7T3K1",
        "streetName": "SHEPHERD",
        "streetDirectionId": null,
        "streetTypeId": "ST",
        "placeName": "SARNIA",
        "streetNameDisplayText": "SHEPHERD ST, SARNIA"
      }
    ]
  },
  {
    "postal": "N7T6X4",
    "result": [
      {
        "electoralDistricts": [
          {
            "election": null,
            "id": 91,
            "name": "Sarnia—Lambton"
          }
        ],
        "pollDivisionIds": [
          10141409
        ],
        "postalCode": "N7T6X4",
        "streetName": "EAST",
        "streetDirectionId": "N",
        "streetTypeId": "ST",
        "placeName": "SARNIA",
        "streetNameDisplayText": "EAST ST N, SARNIA"
      }
    ]
  },
  {
    "postal": "N7T4M8",
    "result": [
      {
        "electoralDistricts": [
          {
            "election": null,
            "id": 91,
            "name": "Sarnia—Lambton"
          }
        ],
        "pollDivisionIds": [
          10141410
        ],
        "postalCode": "N7T4M8",
        "streetName": "OAK",
        "streetDirectionId": null,
        "streetTypeId": "AVE",
        "placeName": "SARNIA",
        "streetNameDisplayText": "OAK AVE, SARNIA"
      }
    ]
  },
  {
    "postal": "N7T2Y1",
    "result": [
      {
        "electoralDistricts": [
          {
            "election": null,
            "id": 91,
            "name": "Sarnia—Lambton"
          }
        ],
        "pollDivisionIds": [
          10141413
        ],
        "postalCode": "N7T2Y1",
        "streetName": "SAMUEL",
        "streetDirectionId": null,
        "streetTypeId": "ST",
        "placeName": "SARNIA",
        "streetNameDisplayText": "SAMUEL ST, SARNIA"
      }
    ]
  },
  {
    "postal": "N7T6M1",
    "result": [
      {
        "electoralDistricts": [
          {
            "election": null,
            "id": 91,
            "name": "Sarnia—Lambton"
          }
        ],
        "pollDivisionIds": [
          10141397
        ],
        "postalCode": "N7T6M1",
        "streetName": "COTTERBURY",
        "streetDirectionId": null,
        "streetTypeId": "ST",
        "placeName": "SARNIA",
        "streetNameDisplayText": "COTTERBURY ST, SARNIA"
      }
    ]
  },
  {
    "postal": "N7T5L8",
    "result": [
      {
        "electoralDistricts": [
          {
            "election": null,
            "id": 91,
            "name": "Sarnia—Lambton"
          }
        ],
        "pollDivisionIds": [
          10141401
        ],
        "postalCode": "N7T5L8",
        "streetName": "CLAXTON",
        "streetDirectionId": null,
        "streetTypeId": "AVE",
        "placeName": "SARNIA",
        "streetNameDisplayText": "CLAXTON AVE, SARNIA"
      }
    ]
  },
  {
    "postal": "N7T3P6",
    "result": [
      {
        "electoralDistricts": [
          {
            "election": null,
            "id": 91,
            "name": "Sarnia—Lambton"
          }
        ],
        "pollDivisionIds": [
          10141414
        ],
        "postalCode": "N7T3P6",
        "streetName": "MACK",
        "streetDirectionId": null,
        "streetTypeId": "AVE",
        "placeName": "SARNIA",
        "streetNameDisplayText": "MACK AVE, SARNIA"
      }
    ]
  },
  {
    "postal": "N7T9A5",
    "result": []
  },
  {
    "postal": "N7T7K1",
    "result": []
  },
  {
    "postal": "N7T3J4",
    "result": [
      {
        "electoralDistricts": [
          {
            "election": null,
            "id": 91,
            "name": "Sarnia—Lambton"
          }
        ],
        "pollDivisionIds": [
          10141414
        ],
        "postalCode": "N7T3J4",
        "streetName": "SHEPHERD",
        "streetDirectionId": null,
        "streetTypeId": "ST",
        "placeName": "SARNIA",
        "streetNameDisplayText": "SHEPHERD ST, SARNIA"
      }
    ]
  },
  {
    "postal": "N7T5E7",
    "result": [
      {
        "electoralDistricts": [
          {
            "election": null,
            "id": 91,
            "name": "Sarnia—Lambton"
          }
        ],
        "pollDivisionIds": [
          10141401
        ],
        "postalCode": "N7T5E7",
        "streetName": "MAXWELL",
        "streetDirectionId": null,
        "streetTypeId": "ST",
        "placeName": "SARNIA",
        "streetNameDisplayText": "MAXWELL ST, SARNIA"
      }
    ]
  },
  {
    "postal": "N7T3A7",
    "result": [
      {
        "electoralDistricts": [
          {
            "election": null,
            "id": 91,
            "name": "Sarnia—Lambton"
          }
        ],
        "pollDivisionIds": [
          10141407
        ],
        "postalCode": "N7T3A7",
        "streetName": "FORSYTH",
        "streetDirectionId": "N",
        "streetTypeId": "ST",
        "placeName": "SARNIA",
        "streetNameDisplayText": "FORSYTH ST N, SARNIA"
      },
      {
        "electoralDistricts": [
          {
            "election": null,
            "id": 91,
            "name": "Sarnia—Lambton"
          }
        ],
        "pollDivisionIds": [
          10141413
        ],
        "postalCode": "N7T3A7",
        "streetName": "FORSYTH",
        "streetDirectionId": "S",
        "streetTypeId": "ST",
        "placeName": "SARNIA",
        "streetNameDisplayText": "FORSYTH ST S, SARNIA"
      }
    ]
  },
  {
    "postal": "N7T1B9",
    "result": [
      {
        "electoralDistricts": [
          {
            "election": null,
            "id": 91,
            "name": "Sarnia—Lambton"
          }
        ],
        "pollDivisionIds": [
          10141413,
          10141408
        ],
        "postalCode": "N7T1B9",
        "streetName": "DAVIS",
        "streetDirectionId": null,
        "streetTypeId": "ST",
        "placeName": "SARNIA",
        "streetNameDisplayText": "DAVIS ST, SARNIA"
      }
    ]
  },
  {
    "postal": "N7T9E8",
    "result": []
  },
  {
    "postal": "N7T1C9",
    "result": [
      {
        "electoralDistricts": [
          {
            "election": null,
            "id": 91,
            "name": "Sarnia—Lambton"
          }
        ],
        "pollDivisionIds": [
          10141408
        ],
        "postalCode": "N7T1C9",
        "streetName": "KATHLEEN",
        "streetDirectionId": null,
        "streetTypeId": "AVE",
        "placeName": "SARNIA",
        "streetNameDisplayText": "KATHLEEN AVE, SARNIA"
      }
    ]
  },
  {
    "postal": "N7T3B5",
    "result": [
      {
        "electoralDistricts": [
          {
            "election": null,
            "id": 91,
            "name": "Sarnia—Lambton"
          }
        ],
        "pollDivisionIds": [
          10141413
        ],
        "postalCode": "N7T3B5",
        "streetName": "STUART",
        "streetDirectionId": null,
        "streetTypeId": "ST",
        "placeName": "SARNIA",
        "streetNameDisplayText": "STUART ST, SARNIA"
      }
    ]
  },
  {
    "postal": "N7T8R0",
    "result": []
  },
  {
    "postal": "N7T3P2",
    "result": [
      {
        "electoralDistricts": [
          {
            "election": null,
            "id": 91,
            "name": "Sarnia—Lambton"
          }
        ],
        "pollDivisionIds": [
          10141414
        ],
        "postalCode": "N7T3P2",
        "streetName": "PALMERSTON",
        "streetDirectionId": "S",
        "streetTypeId": "ST",
        "placeName": "SARNIA",
        "streetNameDisplayText": "PALMERSTON ST S, SARNIA"
      }
    ]
  },
  {
    "postal": "N7T5V4",
    "result": [
      {
        "electoralDistricts": [
          {
            "election": null,
            "id": 91,
            "name": "Sarnia—Lambton"
          }
        ],
        "pollDivisionIds": [
          10141407
        ],
        "postalCode": "N7T5V4",
        "streetName": "CHRISTINA",
        "streetDirectionId": "N",
        "streetTypeId": "ST",
        "placeName": "SARNIA",
        "streetNameDisplayText": "CHRISTINA ST N, SARNIA"
      }
    ]
  },
  {
    "postal": "N7T4H0",
    "result": []
  },
  {
    "postal": "N7T4S7",
    "result": [
      {
        "electoralDistricts": [
          {
            "election": null,
            "id": 91,
            "name": "Sarnia—Lambton"
          }
        ],
        "pollDivisionIds": [
          10141407
        ],
        "postalCode": "N7T4S7",
        "streetName": "MARIA",
        "streetDirectionId": null,
        "streetTypeId": "ST",
        "placeName": "SARNIA",
        "streetNameDisplayText": "MARIA ST, SARNIA"
      }
    ]
  },
  {
    "postal": "N7T6C2",
    "result": [
      {
        "electoralDistricts": [
          {
            "election": null,
            "id": 91,
            "name": "Sarnia—Lambton"
          }
        ],
        "pollDivisionIds": [
          10141397
        ],
        "postalCode": "N7T6C2",
        "streetName": "FLEMING",
        "streetDirectionId": null,
        "streetTypeId": "ST",
        "placeName": "SARNIA",
        "streetNameDisplayText": "FLEMING ST, SARNIA"
      }
    ]
  },
  {
    "postal": "N7T8W3",
    "result": []
  },
  {
    "postal": "N7T4M5",
    "result": [
      {
        "electoralDistricts": [
          {
            "election": null,
            "id": 91,
            "name": "Sarnia—Lambton"
          }
        ],
        "pollDivisionIds": [
          10141410
        ],
        "postalCode": "N7T4M5",
        "streetName": "EVERGREEN",
        "streetDirectionId": null,
        "streetTypeId": "DR",
        "placeName": "SARNIA",
        "streetNameDisplayText": "EVERGREEN DR, SARNIA"
      }
    ]
  },
  {
    "postal": "N7T5T1",
    "result": []
  },
  {
    "postal": "N7T3B3",
    "result": [
      {
        "electoralDistricts": [
          {
            "election": null,
            "id": 91,
            "name": "Sarnia—Lambton"
          }
        ],
        "pollDivisionIds": [
          10141413
        ],
        "postalCode": "N7T3B3",
        "streetName": "STUART",
        "streetDirectionId": null,
        "streetTypeId": "ST",
        "placeName": "SARNIA",
        "streetNameDisplayText": "STUART ST, SARNIA"
      }
    ]
  },
  {
    "postal": "N7T6C6",
    "result": [
      {
        "electoralDistricts": [
          {
            "election": null,
            "id": 91,
            "name": "Sarnia—Lambton"
          }
        ],
        "pollDivisionIds": [
          10141407
        ],
        "postalCode": "N7T6C6",
        "streetName": "FORSYTH",
        "streetDirectionId": "N",
        "streetTypeId": "ST",
        "placeName": "SARNIA",
        "streetNameDisplayText": "FORSYTH ST N, SARNIA"
      }
    ]
  },
  {
    "postal": "N7T7N8",
    "result": [
      {
        "electoralDistricts": [
          {
            "election": null,
            "id": 91,
            "name": "Sarnia—Lambton"
          }
        ],
        "pollDivisionIds": [
          10141397
        ],
        "postalCode": "N7T7N8",
        "streetName": "FRONT",
        "streetDirectionId": "N",
        "streetTypeId": "ST",
        "placeName": "SARNIA",
        "streetNameDisplayText": "FRONT ST N, SARNIA"
      }
    ]
  },
  {
    "postal": "N7T2Y3",
    "result": [
      {
        "electoralDistricts": [
          {
            "election": null,
            "id": 91,
            "name": "Sarnia—Lambton"
          }
        ],
        "pollDivisionIds": [
          10141413
        ],
        "postalCode": "N7T2Y3",
        "streetName": "MARGARET",
        "streetDirectionId": null,
        "streetTypeId": "ST",
        "placeName": "SARNIA",
        "streetNameDisplayText": "MARGARET ST, SARNIA"
      }
    ]
  },
  {
    "postal": "N7T2R6",
    "result": [
      {
        "electoralDistricts": [
          {
            "election": null,
            "id": 91,
            "name": "Sarnia—Lambton"
          }
        ],
        "pollDivisionIds": [
          10141407
        ],
        "postalCode": "N7T2R6",
        "streetName": "QUEEN",
        "streetDirectionId": null,
        "streetTypeId": "ST",
        "placeName": "SARNIA",
        "streetNameDisplayText": "QUEEN ST, SARNIA"
      }
    ]
  },
  {
    "postal": "N7T7N3",
    "result": []
  },
  {
    "postal": "N7T8J2",
    "result": []
  },
  {
    "postal": "N7T6A9",
    "result": [
      {
        "electoralDistricts": [
          {
            "election": null,
            "id": 91,
            "name": "Sarnia—Lambton"
          }
        ],
        "pollDivisionIds": [
          10141407
        ],
        "postalCode": "N7T6A9",
        "streetName": "COLLEGE",
        "streetDirectionId": "N",
        "streetTypeId": "AVE",
        "placeName": "SARNIA",
        "streetNameDisplayText": "COLLEGE AVE N, SARNIA"
      }
    ]
  },
  {
    "postal": "N7T3V2",
    "result": [
      {
        "electoralDistricts": [
          {
            "election": null,
            "id": 91,
            "name": "Sarnia—Lambton"
          }
        ],
        "pollDivisionIds": [
          10141414
        ],
        "postalCode": "N7T3V2",
        "streetName": "ALICE",
        "streetDirectionId": null,
        "streetTypeId": "ST",
        "placeName": "SARNIA",
        "streetNameDisplayText": "ALICE ST, SARNIA"
      }
    ]
  },
  {
    "postal": "N7T2N3",
    "result": [
      {
        "electoralDistricts": [
          {
            "election": null,
            "id": 91,
            "name": "Sarnia—Lambton"
          }
        ],
        "pollDivisionIds": [
          10141407
        ],
        "postalCode": "N7T2N3",
        "streetName": "CHRISTINA",
        "streetDirectionId": "N",
        "streetTypeId": "ST",
        "placeName": "SARNIA",
        "streetNameDisplayText": "CHRISTINA ST N, SARNIA"
      },
      {
        "electoralDistricts": [
          {
            "election": null,
            "id": 91,
            "name": "Sarnia—Lambton"
          }
        ],
        "pollDivisionIds": [
          10141407
        ],
        "postalCode": "N7T2N3",
        "streetName": "CHRISTINA",
        "streetDirectionId": "S",
        "streetTypeId": "ST",
        "placeName": "SARNIA",
        "streetNameDisplayText": "CHRISTINA ST S, SARNIA"
      }
    ]
  },
  {
    "postal": "N7T1S5",
    "result": [
      {
        "electoralDistricts": [
          {
            "election": null,
            "id": 91,
            "name": "Sarnia—Lambton"
          }
        ],
        "pollDivisionIds": [
          10141413
        ],
        "postalCode": "N7T1S5",
        "streetName": "RICHARD",
        "streetDirectionId": null,
        "streetTypeId": "ST",
        "placeName": "SARNIA",
        "streetNameDisplayText": "RICHARD ST, SARNIA"
      }
    ]
  },
  {
    "postal": "N7T4T7",
    "result": [
      {
        "electoralDistricts": [
          {
            "election": null,
            "id": 91,
            "name": "Sarnia—Lambton"
          }
        ],
        "pollDivisionIds": [
          10141408
        ],
        "postalCode": "N7T4T7",
        "streetName": "MARIA",
        "streetDirectionId": null,
        "streetTypeId": "ST",
        "placeName": "SARNIA",
        "streetNameDisplayText": "MARIA ST, SARNIA"
      }
    ]
  },
  {
    "postal": "N7T6Y7",
    "result": [
      {
        "electoralDistricts": [
          {
            "election": null,
            "id": 91,
            "name": "Sarnia—Lambton"
          }
        ],
        "pollDivisionIds": [
          10141401
        ],
        "postalCode": "N7T6Y7",
        "streetName": "EAST",
        "streetDirectionId": "N",
        "streetTypeId": "ST",
        "placeName": "SARNIA",
        "streetNameDisplayText": "EAST ST N, SARNIA"
      }
    ]
  },
  {
    "postal": "N7T0W7",
    "result": []
  },
  {
    "postal": "N7T2W9",
    "result": [
      {
        "electoralDistricts": [
          {
            "election": null,
            "id": 91,
            "name": "Sarnia—Lambton"
          }
        ],
        "pollDivisionIds": [
          10141413
        ],
        "postalCode": "N7T2W9",
        "streetName": "BROCK",
        "streetDirectionId": "S",
        "streetTypeId": "ST",
        "placeName": "SARNIA",
        "streetNameDisplayText": "BROCK ST S, SARNIA"
      }
    ]
  },
  {
    "postal": "N7T8V0",
    "result": []
  },
  {
    "postal": "N7T0H4",
    "result": []
  },
  {
    "postal": "N7T2T1",
    "result": [
      {
        "electoralDistricts": [
          {
            "election": null,
            "id": 91,
            "name": "Sarnia—Lambton"
          }
        ],
        "pollDivisionIds": [
          10141407
        ],
        "postalCode": "N7T2T1",
        "streetName": "VICTORIA",
        "streetDirectionId": "S",
        "streetTypeId": "ST",
        "placeName": "SARNIA",
        "streetNameDisplayText": "VICTORIA ST S, SARNIA"
      }
    ]
  },
  {
    "postal": "N7T1B1",
    "result": []
  },
  {
    "postal": "N7T8B6",
    "result": []
  },
  {
    "postal": "N7T6H1",
    "result": [
      {
        "electoralDistricts": [
          {
            "election": null,
            "id": 91,
            "name": "Sarnia—Lambton"
          }
        ],
        "pollDivisionIds": [
          10141407
        ],
        "postalCode": "N7T6H1",
        "streetName": "MITTON",
        "streetDirectionId": "N",
        "streetTypeId": "ST",
        "placeName": "SARNIA",
        "streetNameDisplayText": "MITTON ST N, SARNIA"
      }
    ]
  },
  {
    "postal": "N7T8T8",
    "result": []
  },
  {
    "postal": "N7T0T4",
    "result": []
  },
  {
    "postal": "N7T2C4",
    "result": [
      {
        "electoralDistricts": [
          {
            "election": null,
            "id": 91,
            "name": "Sarnia—Lambton"
          }
        ],
        "pollDivisionIds": [
          10141413
        ],
        "postalCode": "N7T2C4",
        "streetName": "CONFEDERATION",
        "streetDirectionId": null,
        "streetTypeId": "ST",
        "placeName": "SARNIA",
        "streetNameDisplayText": "CONFEDERATION ST, SARNIA"
      }
    ]
  },
  {
    "postal": "N7T8N3",
    "result": []
  },
  {
    "postal": "N7T4L8",
    "result": [
      {
        "electoralDistricts": [
          {
            "election": null,
            "id": 91,
            "name": "Sarnia—Lambton"
          }
        ],
        "pollDivisionIds": [
          10141410
        ],
        "postalCode": "N7T4L8",
        "streetName": "CHESTNUT",
        "streetDirectionId": null,
        "streetTypeId": "AVE",
        "placeName": "SARNIA",
        "streetNameDisplayText": "CHESTNUT AVE, SARNIA"
      }
    ]
  },
  {
    "postal": "N7T2B5",
    "result": [
      {
        "electoralDistricts": [
          {
            "election": null,
            "id": 91,
            "name": "Sarnia—Lambton"
          }
        ],
        "pollDivisionIds": [
          10141413
        ],
        "postalCode": "N7T2B5",
        "streetName": "CONFEDERATION",
        "streetDirectionId": null,
        "streetTypeId": "ST",
        "placeName": "SARNIA",
        "streetNameDisplayText": "CONFEDERATION ST, SARNIA"
      }
    ]
  },
  {
    "postal": "N7T3H1",
    "result": [
      {
        "electoralDistricts": [
          {
            "election": null,
            "id": 91,
            "name": "Sarnia—Lambton"
          }
        ],
        "pollDivisionIds": [
          10141413
        ],
        "postalCode": "N7T3H1",
        "streetName": "PROCTOR",
        "streetDirectionId": null,
        "streetTypeId": "ST",
        "placeName": "SARNIA",
        "streetNameDisplayText": "PROCTOR ST, SARNIA"
      }
    ]
  },
  {
    "postal": "N7T4Y1",
    "result": [
      {
        "electoralDistricts": [
          {
            "election": null,
            "id": 91,
            "name": "Sarnia—Lambton"
          }
        ],
        "pollDivisionIds": [
          10141402
        ],
        "postalCode": "N7T4Y1",
        "streetName": "LONDON",
        "streetDirectionId": null,
        "streetTypeId": "RD",
        "placeName": "SARNIA",
        "streetNameDisplayText": "LONDON RD, SARNIA"
      }
    ]
  },
  {
    "postal": "N7T7E2",
    "result": [
      {
        "electoralDistricts": [
          {
            "election": null,
            "id": 91,
            "name": "Sarnia—Lambton"
          }
        ],
        "pollDivisionIds": [
          10141402
        ],
        "postalCode": "N7T7E2",
        "streetName": "SOUTHERN",
        "streetDirectionId": null,
        "streetTypeId": "AVE",
        "placeName": "SARNIA",
        "streetNameDisplayText": "SOUTHERN AVE, SARNIA"
      }
    ]
  },
  {
    "postal": "N7T2P5",
    "result": [
      {
        "electoralDistricts": [
          {
            "election": null,
            "id": 91,
            "name": "Sarnia—Lambton"
          }
        ],
        "pollDivisionIds": [
          10141413
        ],
        "postalCode": "N7T2P5",
        "streetName": "ROSE",
        "streetDirectionId": null,
        "streetTypeId": "ST",
        "placeName": "SARNIA",
        "streetNameDisplayText": "ROSE ST, SARNIA"
      }
    ]
  },
  {
    "postal": "N7T8R7",
    "result": []
  },
  {
    "postal": "N7T9P1",
    "result": []
  },
  {
    "postal": "N7T3B8",
    "result": [
      {
        "electoralDistricts": [
          {
            "election": null,
            "id": 91,
            "name": "Sarnia—Lambton"
          }
        ],
        "pollDivisionIds": [
          10141413
        ],
        "postalCode": "N7T3B8",
        "streetName": "STUART",
        "streetDirectionId": null,
        "streetTypeId": "ST",
        "placeName": "SARNIA",
        "streetNameDisplayText": "STUART ST, SARNIA"
      }
    ]
  },
  {
    "postal": "N7T3P7",
    "result": [
      {
        "electoralDistricts": [
          {
            "election": null,
            "id": 91,
            "name": "Sarnia—Lambton"
          }
        ],
        "pollDivisionIds": [
          10141414
        ],
        "postalCode": "N7T3P7",
        "streetName": "MACK",
        "streetDirectionId": null,
        "streetTypeId": "AVE",
        "placeName": "SARNIA",
        "streetNameDisplayText": "MACK AVE, SARNIA"
      }
    ]
  },
  {
    "postal": "N7T9B2",
    "result": []
  },
  {
    "postal": "N7T6Z3",
    "result": [
      {
        "electoralDistricts": [
          {
            "election": null,
            "id": 91,
            "name": "Sarnia—Lambton"
          }
        ],
        "pollDivisionIds": [
          10141402
        ],
        "postalCode": "N7T6Z3",
        "streetName": "OXFORD",
        "streetDirectionId": null,
        "streetTypeId": "ST",
        "placeName": "SARNIA",
        "streetNameDisplayText": "OXFORD ST, SARNIA"
      }
    ]
  },
  {
    "postal": "N7T4N5",
    "result": []
  },
  {
    "postal": "N7T8T3",
    "result": []
  },
  {
    "postal": "N7T1V2",
    "result": [
      {
        "electoralDistricts": [
          {
            "election": null,
            "id": 91,
            "name": "Sarnia—Lambton"
          }
        ],
        "pollDivisionIds": [
          10141413
        ],
        "postalCode": "N7T1V2",
        "streetName": "DEVINE",
        "streetDirectionId": null,
        "streetTypeId": "ST",
        "placeName": "SARNIA",
        "streetNameDisplayText": "DEVINE ST, SARNIA"
      }
    ]
  },
  {
    "postal": "N7T1Y0",
    "result": []
  },
  {
    "postal": "N7T3G6",
    "result": [
      {
        "electoralDistricts": [
          {
            "election": null,
            "id": 91,
            "name": "Sarnia—Lambton"
          }
        ],
        "pollDivisionIds": [
          10141413
        ],
        "postalCode": "N7T3G6",
        "streetName": "PROCTOR",
        "streetDirectionId": null,
        "streetTypeId": "ST",
        "placeName": "SARNIA",
        "streetNameDisplayText": "PROCTOR ST, SARNIA"
      }
    ]
  },
  {
    "postal": "N7T3H7",
    "result": [
      {
        "electoralDistricts": [
          {
            "election": null,
            "id": 91,
            "name": "Sarnia—Lambton"
          }
        ],
        "pollDivisionIds": [
          10141413
        ],
        "postalCode": "N7T3H7",
        "streetName": "SAVOY",
        "streetDirectionId": null,
        "streetTypeId": "ST",
        "placeName": "SARNIA",
        "streetNameDisplayText": "SAVOY ST, SARNIA"
      }
    ]
  },
  {
    "postal": "N7T7X8",
    "result": [
      {
        "electoralDistricts": [
          {
            "election": null,
            "id": 91,
            "name": "Sarnia—Lambton"
          }
        ],
        "pollDivisionIds": [
          10141397
        ],
        "postalCode": "N7T7X8",
        "streetName": "VENETIAN",
        "streetDirectionId": null,
        "streetTypeId": "BLVD",
        "placeName": "POINT EDWARD",
        "streetNameDisplayText": "VENETIAN BLVD, POINT EDWARD"
      }
    ]
  },
  {
    "postal": "N7T0C7",
    "result": []
  },
  {
    "postal": "N7T0W9",
    "result": []
  },
  {
    "postal": "N7T8E6",
    "result": [
      {
        "electoralDistricts": [
          {
            "election": null,
            "id": 91,
            "name": "Sarnia—Lambton"
          }
        ],
        "pollDivisionIds": [
          10141397
        ],
        "postalCode": "N7T8E6",
        "streetName": "SEAWAY",
        "streetDirectionId": null,
        "streetTypeId": "RD",
        "placeName": "SARNIA",
        "streetNameDisplayText": "SEAWAY RD, SARNIA"
      }
    ]
  },
  {
    "postal": "N7T9Z8",
    "result": []
  },
  {
    "postal": "N7T3P4",
    "result": [
      {
        "electoralDistricts": [
          {
            "election": null,
            "id": 91,
            "name": "Sarnia—Lambton"
          }
        ],
        "pollDivisionIds": [
          10141413
        ],
        "postalCode": "N7T3P4",
        "streetName": "PALMERSTON",
        "streetDirectionId": "S",
        "streetTypeId": "ST",
        "placeName": "SARNIA",
        "streetNameDisplayText": "PALMERSTON ST S, SARNIA"
      }
    ]
  },
  {
    "postal": "N7T6L8",
    "result": [
      {
        "electoralDistricts": [
          {
            "election": null,
            "id": 91,
            "name": "Sarnia—Lambton"
          }
        ],
        "pollDivisionIds": [
          10141397
        ],
        "postalCode": "N7T6L8",
        "streetName": "COTTERBURY",
        "streetDirectionId": null,
        "streetTypeId": "ST",
        "placeName": "SARNIA",
        "streetNameDisplayText": "COTTERBURY ST, SARNIA"
      }
    ]
  },
  {
    "postal": "N7T2R4",
    "result": [
      {
        "electoralDistricts": [
          {
            "election": null,
            "id": 91,
            "name": "Sarnia—Lambton"
          }
        ],
        "pollDivisionIds": [
          10141407
        ],
        "postalCode": "N7T2R4",
        "streetName": "QUEEN",
        "streetDirectionId": null,
        "streetTypeId": "ST",
        "placeName": "SARNIA",
        "streetNameDisplayText": "QUEEN ST, SARNIA"
      }
    ]
  },
  {
    "postal": "N7T2W1",
    "result": [
      {
        "electoralDistricts": [
          {
            "election": null,
            "id": 91,
            "name": "Sarnia—Lambton"
          }
        ],
        "pollDivisionIds": [
          10141413
        ],
        "postalCode": "N7T2W1",
        "streetName": "BROCK",
        "streetDirectionId": "S",
        "streetTypeId": "ST",
        "placeName": "SARNIA",
        "streetNameDisplayText": "BROCK ST S, SARNIA"
      }
    ]
  },
  {
    "postal": "N7T9H8",
    "result": []
  },
  {
    "postal": "N7T8X9",
    "result": []
  },
  {
    "postal": "N7T7H4",
    "result": [
      {
        "electoralDistricts": [
          {
            "election": null,
            "id": 91,
            "name": "Sarnia—Lambton"
          }
        ],
        "pollDivisionIds": [
          10141391,
          10141390
        ],
        "postalCode": "N7T7H4",
        "streetName": "BLACKWELL",
        "streetDirectionId": null,
        "streetTypeId": "RD",
        "placeName": "SARNIA",
        "streetNameDisplayText": "BLACKWELL RD, SARNIA"
      },
      {
        "electoralDistricts": [
          {
            "election": null,
            "id": 91,
            "name": "Sarnia—Lambton"
          }
        ],
        "pollDivisionIds": [
          10141391
        ],
        "postalCode": "N7T7H4",
        "streetName": "BLACKWELL",
        "streetDirectionId": null,
        "streetTypeId": "SIDERD",
        "placeName": "SARNIA",
        "streetNameDisplayText": "BLACKWELL SIDERD, SARNIA"
      },
      {
        "electoralDistricts": [
          {
            "election": null,
            "id": 91,
            "name": "Sarnia—Lambton"
          }
        ],
        "pollDivisionIds": [
          10141391
        ],
        "postalCode": "N7T7H4",
        "streetName": "CLEARWATER",
        "streetDirectionId": null,
        "streetTypeId": "CRT",
        "placeName": "SARNIA",
        "streetNameDisplayText": "CLEARWATER CRT, SARNIA"
      },
      {
        "electoralDistricts": [
          {
            "election": null,
            "id": 91,
            "name": "Sarnia—Lambton"
          }
        ],
        "pollDivisionIds": [
          10141391
        ],
        "postalCode": "N7T7H4",
        "streetName": "DORIS",
        "streetDirectionId": null,
        "streetTypeId": "CRT",
        "placeName": "SARNIA",
        "streetNameDisplayText": "DORIS CRT, SARNIA"
      },
      {
        "electoralDistricts": [
          {
            "election": null,
            "id": 91,
            "name": "Sarnia—Lambton"
          }
        ],
        "pollDivisionIds": [
          10141391
        ],
        "postalCode": "N7T7H4",
        "streetName": "GOLDIE",
        "streetDirectionId": null,
        "streetTypeId": "LANE",
        "placeName": "SARNIA",
        "streetNameDisplayText": "GOLDIE LANE, SARNIA"
      },
      {
        "electoralDistricts": [
          {
            "election": null,
            "id": 91,
            "name": "Sarnia—Lambton"
          }
        ],
        "pollDivisionIds": [
          10141391
        ],
        "postalCode": "N7T7H4",
        "streetName": "GREENBRIAR",
        "streetDirectionId": null,
        "streetTypeId": "TRAIL",
        "placeName": "SARNIA",
        "streetNameDisplayText": "GREENBRIAR TRAIL, SARNIA"
      },
      {
        "electoralDistricts": [
          {
            "election": null,
            "id": 91,
            "name": "Sarnia—Lambton"
          }
        ],
        "pollDivisionIds": [
          10141391
        ],
        "postalCode": "N7T7H4",
        "streetName": "HURON",
        "streetDirectionId": null,
        "streetTypeId": "AVE",
        "placeName": "SARNIA",
        "streetNameDisplayText": "HURON AVE, SARNIA"
      },
      {
        "electoralDistricts": [
          {
            "election": null,
            "id": 91,
            "name": "Sarnia—Lambton"
          }
        ],
        "pollDivisionIds": [
          10141391
        ],
        "postalCode": "N7T7H4",
        "streetName": "HURON",
        "streetDirectionId": null,
        "streetTypeId": "LANDNG",
        "placeName": "SARNIA",
        "streetNameDisplayText": "HURON LANDNG, SARNIA"
      },
      {
        "electoralDistricts": [
          {
            "election": null,
            "id": 91,
            "name": "Sarnia—Lambton"
          }
        ],
        "pollDivisionIds": [
          10141391
        ],
        "postalCode": "N7T7H4",
        "streetName": "HURON SHORES",
        "streetDirectionId": null,
        "streetTypeId": "CRT",
        "placeName": "SARNIA",
        "streetNameDisplayText": "HURON SHORES CRT, SARNIA"
      },
      {
        "electoralDistricts": [
          {
            "election": null,
            "id": 91,
            "name": "Sarnia—Lambton"
          }
        ],
        "pollDivisionIds": [
          10141391
        ],
        "postalCode": "N7T7H4",
        "streetName": "HURON SHORES",
        "streetDirectionId": null,
        "streetTypeId": "DR",
        "placeName": "SARNIA",
        "streetNameDisplayText": "HURON SHORES DR, SARNIA"
      },
      {
        "electoralDistricts": [
          {
            "election": null,
            "id": 91,
            "name": "Sarnia—Lambton"
          }
        ],
        "pollDivisionIds": [
          10141391
        ],
        "postalCode": "N7T7H4",
        "streetName": "LAKESHORE",
        "streetDirectionId": null,
        "streetTypeId": "RD",
        "placeName": "SARNIA",
        "streetNameDisplayText": "LAKESHORE RD, SARNIA"
      },
      {
        "electoralDistricts": [
          {
            "election": null,
            "id": 91,
            "name": "Sarnia—Lambton"
          }
        ],
        "pollDivisionIds": [
          10141391
        ],
        "postalCode": "N7T7H4",
        "streetName": "LAKESIDE",
        "streetDirectionId": null,
        "streetTypeId": "DR",
        "placeName": "SARNIA",
        "streetNameDisplayText": "LAKESIDE DR, SARNIA"
      },
      {
        "electoralDistricts": [
          {
            "election": null,
            "id": 91,
            "name": "Sarnia—Lambton"
          }
        ],
        "pollDivisionIds": [
          10141391
        ],
        "postalCode": "N7T7H4",
        "streetName": "LAMBERT",
        "streetDirectionId": null,
        "streetTypeId": "RD",
        "placeName": "SARNIA",
        "streetNameDisplayText": "LAMBERT RD, SARNIA"
      },
      {
        "electoralDistricts": [
          {
            "election": null,
            "id": 91,
            "name": "Sarnia—Lambton"
          }
        ],
        "pollDivisionIds": [
          10141391
        ],
        "postalCode": "N7T7H4",
        "streetName": "LENA",
        "streetDirectionId": null,
        "streetTypeId": "CRT",
        "placeName": "SARNIA",
        "streetNameDisplayText": "LENA CRT, SARNIA"
      },
      {
        "electoralDistricts": [
          {
            "election": null,
            "id": 91,
            "name": "Sarnia—Lambton"
          }
        ],
        "pollDivisionIds": [
          10141391
        ],
        "postalCode": "N7T7H4",
        "streetName": "LEWIS",
        "streetDirectionId": null,
        "streetTypeId": "RD",
        "placeName": "SARNIA",
        "streetNameDisplayText": "LEWIS RD, SARNIA"
      },
      {
        "electoralDistricts": [
          {
            "election": null,
            "id": 91,
            "name": "Sarnia—Lambton"
          }
        ],
        "pollDivisionIds": [
          10141404
        ],
        "postalCode": "N7T7H4",
        "streetName": "LOTTIE NEELY PARK",
        "streetDirectionId": null,
        "streetTypeId": "RD",
        "placeName": "SARNIA",
        "streetNameDisplayText": "LOTTIE NEELY PARK RD, SARNIA"
      },
      {
        "electoralDistricts": [
          {
            "election": null,
            "id": 91,
            "name": "Sarnia—Lambton"
          }
        ],
        "pollDivisionIds": [
          10141391,
          10141390
        ],
        "postalCode": "N7T7H4",
        "streetName": "MICHIGAN",
        "streetDirectionId": null,
        "streetTypeId": "AVE",
        "placeName": "SARNIA",
        "streetNameDisplayText": "MICHIGAN AVE, SARNIA"
      },
      {
        "electoralDistricts": [
          {
            "election": null,
            "id": 91,
            "name": "Sarnia—Lambton"
          }
        ],
        "pollDivisionIds": [
          10141392
        ],
        "postalCode": "N7T7H4",
        "streetName": "MICHIGAN",
        "streetDirectionId": null,
        "streetTypeId": "LINE",
        "placeName": "CAMLACHIE",
        "streetNameDisplayText": "MICHIGAN LINE, CAMLACHIE"
      },
      {
        "electoralDistricts": [
          {
            "election": null,
            "id": 91,
            "name": "Sarnia—Lambton"
          }
        ],
        "pollDivisionIds": [
          10141387,
          10141390,
          10141391
        ],
        "postalCode": "N7T7H4",
        "streetName": "MICHIGAN",
        "streetDirectionId": null,
        "streetTypeId": "LINE",
        "placeName": "SARNIA",
        "streetNameDisplayText": "MICHIGAN LINE, SARNIA"
      },
      {
        "electoralDistricts": [
          {
            "election": null,
            "id": 91,
            "name": "Sarnia—Lambton"
          }
        ],
        "pollDivisionIds": [
          10141390
        ],
        "postalCode": "N7T7H4",
        "streetName": "MODELAND",
        "streetDirectionId": null,
        "streetTypeId": "RD",
        "placeName": "SARNIA",
        "streetNameDisplayText": "MODELAND RD, SARNIA"
      },
      {
        "electoralDistricts": [
          {
            "election": null,
            "id": 91,
            "name": "Sarnia—Lambton"
          }
        ],
        "pollDivisionIds": [
          10141391
        ],
        "postalCode": "N7T7H4",
        "streetName": "OLD LAKESHORE",
        "streetDirectionId": null,
        "streetTypeId": "RD",
        "placeName": "SARNIA",
        "streetNameDisplayText": "OLD LAKESHORE RD, SARNIA"
      },
      {
        "electoralDistricts": [
          {
            "election": null,
            "id": 91,
            "name": "Sarnia—Lambton"
          }
        ],
        "pollDivisionIds": [
          10141391
        ],
        "postalCode": "N7T7H4",
        "streetName": "PASSINGHAM",
        "streetDirectionId": null,
        "streetTypeId": "DR",
        "placeName": "SARNIA",
        "streetNameDisplayText": "PASSINGHAM DR, SARNIA"
      },
      {
        "electoralDistricts": [
          {
            "election": null,
            "id": 91,
            "name": "Sarnia—Lambton"
          }
        ],
        "pollDivisionIds": [
          10141391
        ],
        "postalCode": "N7T7H4",
        "streetName": "TELFER",
        "streetDirectionId": null,
        "streetTypeId": "RD",
        "placeName": "SARNIA",
        "streetNameDisplayText": "TELFER RD, SARNIA"
      },
      {
        "electoralDistricts": [
          {
            "election": null,
            "id": 91,
            "name": "Sarnia—Lambton"
          }
        ],
        "pollDivisionIds": [
          10141390
        ],
        "postalCode": "N7T7H4",
        "streetName": "THURSTON",
        "streetDirectionId": null,
        "streetTypeId": "AVE",
        "placeName": "SARNIA",
        "streetNameDisplayText": "THURSTON AVE, SARNIA"
      },
      {
        "electoralDistricts": [
          {
            "election": null,
            "id": 91,
            "name": "Sarnia—Lambton"
          }
        ],
        "pollDivisionIds": [
          10141390
        ],
        "postalCode": "N7T7H4",
        "streetName": "WESPENCER",
        "streetDirectionId": null,
        "streetTypeId": "GATE",
        "placeName": "SARNIA",
        "streetNameDisplayText": "WESPENCER GATE, SARNIA"
      },
      {
        "electoralDistricts": [
          {
            "election": null,
            "id": 91,
            "name": "Sarnia—Lambton"
          }
        ],
        "pollDivisionIds": [
          10141391
        ],
        "postalCode": "N7T7H4",
        "streetName": "WILMERS",
        "streetDirectionId": null,
        "streetTypeId": "LANE",
        "placeName": "SARNIA",
        "streetNameDisplayText": "WILMERS LANE, SARNIA"
      },
      {
        "electoralDistricts": [
          {
            "election": null,
            "id": 91,
            "name": "Sarnia—Lambton"
          }
        ],
        "pollDivisionIds": [
          10141391
        ],
        "postalCode": "N7T7H4",
        "streetName": "YEATES",
        "streetDirectionId": null,
        "streetTypeId": "CRT",
        "placeName": "SARNIA",
        "streetNameDisplayText": "YEATES CRT, SARNIA"
      }
    ]
  },
  {
    "postal": "N7T3J1",
    "result": [
      {
        "electoralDistricts": [
          {
            "election": null,
            "id": 91,
            "name": "Sarnia—Lambton"
          }
        ],
        "pollDivisionIds": [
          10141408
        ],
        "postalCode": "N7T3J1",
        "streetName": "MACKENZIE",
        "streetDirectionId": "S",
        "streetTypeId": "ST",
        "placeName": "SARNIA",
        "streetNameDisplayText": "MACKENZIE ST S, SARNIA"
      }
    ]
  },
  {
    "postal": "N7T1P4",
    "result": [
      {
        "electoralDistricts": [
          {
            "election": null,
            "id": 91,
            "name": "Sarnia—Lambton"
          }
        ],
        "pollDivisionIds": [
          10141413
        ],
        "postalCode": "N7T1P4",
        "streetName": "TALFOURD",
        "streetDirectionId": null,
        "streetTypeId": "ST",
        "placeName": "SARNIA",
        "streetNameDisplayText": "TALFOURD ST, SARNIA"
      }
    ]
  },
  {
    "postal": "N7T2A3",
    "result": [
      {
        "electoralDistricts": [
          {
            "election": null,
            "id": 91,
            "name": "Sarnia—Lambton"
          }
        ],
        "pollDivisionIds": [
          10141413
        ],
        "postalCode": "N7T2A3",
        "streetName": "CONFEDERATION",
        "streetDirectionId": null,
        "streetTypeId": "ST",
        "placeName": "SARNIA",
        "streetNameDisplayText": "CONFEDERATION ST, SARNIA"
      }
    ]
  },
  {
    "postal": "N7T0Z1",
    "result": []
  },
  {
    "postal": "N7T1C1",
    "result": [
      {
        "electoralDistricts": [
          {
            "election": null,
            "id": 91,
            "name": "Sarnia—Lambton"
          }
        ],
        "pollDivisionIds": [
          10141408
        ],
        "postalCode": "N7T1C1",
        "streetName": "DAVIS",
        "streetDirectionId": null,
        "streetTypeId": "ST",
        "placeName": "SARNIA",
        "streetNameDisplayText": "DAVIS ST, SARNIA"
      }
    ]
  },
  {
    "postal": "N7T0H3",
    "result": []
  },
  {
    "postal": "N7T7B0",
    "result": []
  },
  {
    "postal": "N7T5K2",
    "result": [
      {
        "electoralDistricts": [
          {
            "election": null,
            "id": 91,
            "name": "Sarnia—Lambton"
          }
        ],
        "pollDivisionIds": [
          10141401
        ],
        "postalCode": "N7T5K2",
        "streetName": "NELSON",
        "streetDirectionId": null,
        "streetTypeId": "ST",
        "placeName": "SARNIA",
        "streetNameDisplayText": "NELSON ST, SARNIA"
      }
    ]
  },
  {
    "postal": "N7T1E9",
    "result": [
      {
        "electoralDistricts": [
          {
            "election": null,
            "id": 91,
            "name": "Sarnia—Lambton"
          }
        ],
        "pollDivisionIds": [
          10141409
        ],
        "postalCode": "N7T1E9",
        "streetName": "KATHLEEN",
        "streetDirectionId": null,
        "streetTypeId": "AVE",
        "placeName": "SARNIA",
        "streetNameDisplayText": "KATHLEEN AVE, SARNIA"
      }
    ]
  },
  {
    "postal": "N7T9W7",
    "result": []
  },
  {
    "postal": "N7T5W6",
    "result": [
      {
        "electoralDistricts": [
          {
            "election": null,
            "id": 91,
            "name": "Sarnia—Lambton"
          }
        ],
        "pollDivisionIds": [
          10141397
        ],
        "postalCode": "N7T5W6",
        "streetName": "CHRISTINA",
        "streetDirectionId": "N",
        "streetTypeId": "ST",
        "placeName": "SARNIA",
        "streetNameDisplayText": "CHRISTINA ST N, SARNIA"
      }
    ]
  },
  {
    "postal": "N7T6S6",
    "result": [
      {
        "electoralDistricts": [
          {
            "election": null,
            "id": 91,
            "name": "Sarnia—Lambton"
          }
        ],
        "pollDivisionIds": [
          10141401
        ],
        "postalCode": "N7T6S6",
        "streetName": "RUSSELL",
        "streetDirectionId": "N",
        "streetTypeId": "ST",
        "placeName": "SARNIA",
        "streetNameDisplayText": "RUSSELL ST N, SARNIA"
      }
    ]
  },
  {
    "postal": "N7T2P8",
    "result": []
  },
  {
    "postal": "N7T4P8",
    "result": [
      {
        "electoralDistricts": [
          {
            "election": null,
            "id": 91,
            "name": "Sarnia—Lambton"
          }
        ],
        "pollDivisionIds": [
          10141408
        ],
        "postalCode": "N7T4P8",
        "streetName": "GEORGE",
        "streetDirectionId": null,
        "streetTypeId": "ST",
        "placeName": "SARNIA",
        "streetNameDisplayText": "GEORGE ST, SARNIA"
      }
    ]
  },
  {
    "postal": "N7T0V9",
    "result": []
  },
  {
    "postal": "N7T5Y2",
    "result": []
  },
  {
    "postal": "N7T7Z7",
    "result": [
      {
        "electoralDistricts": [
          {
            "election": null,
            "id": 91,
            "name": "Sarnia—Lambton"
          }
        ],
        "pollDivisionIds": [
          10141408
        ],
        "postalCode": "N7T7Z7",
        "streetName": "RUSSELL",
        "streetDirectionId": "N",
        "streetTypeId": "ST",
        "placeName": "SARNIA",
        "streetNameDisplayText": "RUSSELL ST N, SARNIA"
      }
    ]
  },
  {
    "postal": "N7T6Y8",
    "result": [
      {
        "electoralDistricts": [
          {
            "election": null,
            "id": 91,
            "name": "Sarnia—Lambton"
          }
        ],
        "pollDivisionIds": [
          10141402
        ],
        "postalCode": "N7T6Y8",
        "streetName": "TEMPLE",
        "streetDirectionId": null,
        "streetTypeId": "ST",
        "placeName": "SARNIA",
        "streetNameDisplayText": "TEMPLE ST, SARNIA"
      }
    ]
  },
  {
    "postal": "N7T2G7",
    "result": [
      {
        "electoralDistricts": [
          {
            "election": null,
            "id": 91,
            "name": "Sarnia—Lambton"
          }
        ],
        "pollDivisionIds": [
          10141413
        ],
        "postalCode": "N7T2G7",
        "streetName": "CAMPBELL",
        "streetDirectionId": null,
        "streetTypeId": "ST",
        "placeName": "SARNIA",
        "streetNameDisplayText": "CAMPBELL ST, SARNIA"
      }
    ]
  },
  {
    "postal": "N7T8C1",
    "result": []
  },
  {
    "postal": "N7T5C5",
    "result": [
      {
        "electoralDistricts": [
          {
            "election": null,
            "id": 91,
            "name": "Sarnia—Lambton"
          }
        ],
        "pollDivisionIds": [
          10141397
        ],
        "postalCode": "N7T5C5",
        "streetName": "MAXWELL",
        "streetDirectionId": null,
        "streetTypeId": "ST",
        "placeName": "SARNIA",
        "streetNameDisplayText": "MAXWELL ST, SARNIA"
      }
    ]
  },
  {
    "postal": "N7T2X8",
    "result": []
  },
  {
    "postal": "N7T1W5",
    "result": [
      {
        "electoralDistricts": [
          {
            "election": null,
            "id": 91,
            "name": "Sarnia—Lambton"
          }
        ],
        "pollDivisionIds": [
          10141414
        ],
        "postalCode": "N7T1W5",
        "streetName": "DEVINE",
        "streetDirectionId": null,
        "streetTypeId": "ST",
        "placeName": "SARNIA",
        "streetNameDisplayText": "DEVINE ST, SARNIA"
      }
    ]
  },
  {
    "postal": "N7T7G0",
    "result": []
  },
  {
    "postal": "N7T8J8",
    "result": []
  },
  {
    "postal": "N7T3Y0",
    "result": []
  },
  {
    "postal": "N7T9T7",
    "result": []
  },
  {
    "postal": "N7T5P4",
    "result": [
      {
        "electoralDistricts": [
          {
            "election": null,
            "id": 91,
            "name": "Sarnia—Lambton"
          }
        ],
        "pollDivisionIds": [
          10141401
        ],
        "postalCode": "N7T5P4",
        "streetName": "EXMOUTH",
        "streetDirectionId": null,
        "streetTypeId": "ST",
        "placeName": "SARNIA",
        "streetNameDisplayText": "EXMOUTH ST, SARNIA"
      }
    ]
  },
  {
    "postal": "N7T4B0",
    "result": []
  },
  {
    "postal": "N7T9N8",
    "result": []
  },
  {
    "postal": "N7T4A7",
    "result": [
      {
        "electoralDistricts": [
          {
            "election": null,
            "id": 91,
            "name": "Sarnia—Lambton"
          }
        ],
        "pollDivisionIds": [
          10141407
        ],
        "postalCode": "N7T4A7",
        "streetName": "CAMERON",
        "streetDirectionId": null,
        "streetTypeId": "ST",
        "placeName": "SARNIA",
        "streetNameDisplayText": "CAMERON ST, SARNIA"
      }
    ]
  },
  {
    "postal": "N7T4H9",
    "result": [
      {
        "electoralDistricts": [
          {
            "election": null,
            "id": 91,
            "name": "Sarnia—Lambton"
          }
        ],
        "pollDivisionIds": [
          10141409
        ],
        "postalCode": "N7T4H9",
        "streetName": "CHERRY",
        "streetDirectionId": null,
        "streetTypeId": "DR",
        "placeName": "SARNIA",
        "streetNameDisplayText": "CHERRY DR, SARNIA"
      }
    ]
  },
  {
    "postal": "N7T6X1",
    "result": [
      {
        "electoralDistricts": [
          {
            "election": null,
            "id": 91,
            "name": "Sarnia—Lambton"
          }
        ],
        "pollDivisionIds": [
          10141401
        ],
        "postalCode": "N7T6X1",
        "streetName": "CECIL",
        "streetDirectionId": null,
        "streetTypeId": "ST",
        "placeName": "SARNIA",
        "streetNameDisplayText": "CECIL ST, SARNIA"
      }
    ]
  },
  {
    "postal": "N7T9Y7",
    "result": []
  },
  {
    "postal": "N7T2Y5",
    "result": []
  },
  {
    "postal": "N7T8L7",
    "result": []
  },
  {
    "postal": "N7T2A8",
    "result": [
      {
        "electoralDistricts": [
          {
            "election": null,
            "id": 91,
            "name": "Sarnia—Lambton"
          }
        ],
        "pollDivisionIds": [
          10141413
        ],
        "postalCode": "N7T2A8",
        "streetName": "CONFEDERATION",
        "streetDirectionId": null,
        "streetTypeId": "ST",
        "placeName": "SARNIA",
        "streetNameDisplayText": "CONFEDERATION ST, SARNIA"
      }
    ]
  },
  {
    "postal": "N7T2K9",
    "result": [
      {
        "electoralDistricts": [
          {
            "election": null,
            "id": 91,
            "name": "Sarnia—Lambton"
          }
        ],
        "pollDivisionIds": [
          10141413
        ],
        "postalCode": "N7T2K9",
        "streetName": "TECUMSEH",
        "streetDirectionId": null,
        "streetTypeId": "ST",
        "placeName": "SARNIA",
        "streetNameDisplayText": "TECUMSEH ST, SARNIA"
      }
    ]
  },
  {
    "postal": "N7T3E5",
    "result": [
      {
        "electoralDistricts": [
          {
            "election": null,
            "id": 91,
            "name": "Sarnia—Lambton"
          }
        ],
        "pollDivisionIds": [
          10141413
        ],
        "postalCode": "N7T3E5",
        "streetName": "MITTON",
        "streetDirectionId": "S",
        "streetTypeId": "ST",
        "placeName": "SARNIA",
        "streetNameDisplayText": "MITTON ST S, SARNIA"
      }
    ]
  },
  {
    "postal": "N7T8N6",
    "result": []
  },
  {
    "postal": "N7T8J4",
    "result": []
  },
  {
    "postal": "N7T4R7",
    "result": [
      {
        "electoralDistricts": [
          {
            "election": null,
            "id": 91,
            "name": "Sarnia—Lambton"
          }
        ],
        "pollDivisionIds": [
          10141407
        ],
        "postalCode": "N7T4R7",
        "streetName": "ESSEX",
        "streetDirectionId": null,
        "streetTypeId": "ST",
        "placeName": "SARNIA",
        "streetNameDisplayText": "ESSEX ST, SARNIA"
      }
    ]
  },
  {
    "postal": "N7T9K1",
    "result": []
  },
  {
    "postal": "N7T8E1",
    "result": [
      {
        "electoralDistricts": [
          {
            "election": null,
            "id": 91,
            "name": "Sarnia—Lambton"
          }
        ],
        "pollDivisionIds": [
          10141407
        ],
        "postalCode": "N7T8E1",
        "streetName": "CHRISTINA",
        "streetDirectionId": "S",
        "streetTypeId": "ST",
        "placeName": "SARNIA",
        "streetNameDisplayText": "CHRISTINA ST S, SARNIA"
      }
    ]
  },
  {
    "postal": "N7T0R1",
    "result": []
  },
  {
    "postal": "N7T4J3",
    "result": [
      {
        "electoralDistricts": [
          {
            "election": null,
            "id": 91,
            "name": "Sarnia—Lambton"
          }
        ],
        "pollDivisionIds": [
          10141409
        ],
        "postalCode": "N7T4J3",
        "streetName": "BIRCH",
        "streetDirectionId": null,
        "streetTypeId": "AVE",
        "placeName": "SARNIA",
        "streetNameDisplayText": "BIRCH AVE, SARNIA"
      }
    ]
  },
  {
    "postal": "N7T7E7",
    "result": [
      {
        "electoralDistricts": [
          {
            "election": null,
            "id": 91,
            "name": "Sarnia—Lambton"
          }
        ],
        "pollDivisionIds": [
          10141409
        ],
        "postalCode": "N7T7E7",
        "streetName": "SUPERIOR",
        "streetDirectionId": null,
        "streetTypeId": "ST",
        "placeName": "SARNIA",
        "streetNameDisplayText": "SUPERIOR ST, SARNIA"
      }
    ]
  },
  {
    "postal": "N7T0J0",
    "result": []
  },
  {
    "postal": "N7T7R8",
    "result": []
  },
  {
    "postal": "N7T9X0",
    "result": []
  },
  {
    "postal": "N7T7P6",
    "result": [
      {
        "electoralDistricts": [
          {
            "election": null,
            "id": 91,
            "name": "Sarnia—Lambton"
          }
        ],
        "pollDivisionIds": [
          10141414
        ],
        "postalCode": "N7T7P6",
        "streetName": "DEVINE",
        "streetDirectionId": null,
        "streetTypeId": "ST",
        "placeName": "SARNIA",
        "streetNameDisplayText": "DEVINE ST, SARNIA"
      }
    ]
  },
  {
    "postal": "N7T0R7",
    "result": []
  },
  {
    "postal": "N7T5W1",
    "result": [
      {
        "electoralDistricts": [
          {
            "election": null,
            "id": 91,
            "name": "Sarnia—Lambton"
          }
        ],
        "pollDivisionIds": [
          10141397
        ],
        "postalCode": "N7T5W1",
        "streetName": "CHRISTINA",
        "streetDirectionId": "N",
        "streetTypeId": "ST",
        "placeName": "SARNIA",
        "streetNameDisplayText": "CHRISTINA ST N, SARNIA"
      }
    ]
  },
  {
    "postal": "N7T0K4",
    "result": []
  },
  {
    "postal": "N7T7N9",
    "result": [
      {
        "electoralDistricts": [
          {
            "election": null,
            "id": 91,
            "name": "Sarnia—Lambton"
          }
        ],
        "pollDivisionIds": [
          10141429
        ],
        "postalCode": "N7T7N9",
        "streetName": "MAXWELL",
        "streetDirectionId": null,
        "streetTypeId": "ST",
        "placeName": "SARNIA",
        "streetNameDisplayText": "MAXWELL ST, SARNIA"
      }
    ]
  },
  {
    "postal": "N7T1N0",
    "result": []
  },
  {
    "postal": "N7T6P3",
    "result": [
      {
        "electoralDistricts": [
          {
            "election": null,
            "id": 91,
            "name": "Sarnia—Lambton"
          }
        ],
        "pollDivisionIds": [
          10141397
        ],
        "postalCode": "N7T6P3",
        "streetName": "JAMES",
        "streetDirectionId": null,
        "streetTypeId": "ST",
        "placeName": "SARNIA",
        "streetNameDisplayText": "JAMES ST, SARNIA"
      }
    ]
  },
  {
    "postal": "N7T5A1",
    "result": [
      {
        "electoralDistricts": [
          {
            "election": null,
            "id": 91,
            "name": "Sarnia—Lambton"
          }
        ],
        "pollDivisionIds": [
          10141397
        ],
        "postalCode": "N7T5A1",
        "streetName": "DURAND",
        "streetDirectionId": null,
        "streetTypeId": "ST",
        "placeName": "SARNIA",
        "streetNameDisplayText": "DURAND ST, SARNIA"
      }
    ]
  },
  {
    "postal": "N7T9M9",
    "result": []
  },
  {
    "postal": "N7T7T6",
    "result": [
      {
        "electoralDistricts": [
          {
            "election": null,
            "id": 91,
            "name": "Sarnia—Lambton"
          }
        ],
        "pollDivisionIds": [
          10141402
        ],
        "postalCode": "N7T7T6",
        "streetName": "EVEREST",
        "streetDirectionId": null,
        "streetTypeId": "CRT",
        "placeName": "SARNIA",
        "streetNameDisplayText": "EVEREST CRT, SARNIA"
      }
    ]
  },
  {
    "postal": "N7T3X0",
    "result": []
  },
  {
    "postal": "N7T2T0",
    "result": []
  },
  {
    "postal": "N7T5X9",
    "result": []
  },
  {
    "postal": "N7T2R3",
    "result": [
      {
        "electoralDistricts": [
          {
            "election": null,
            "id": 91,
            "name": "Sarnia—Lambton"
          }
        ],
        "pollDivisionIds": [
          10141413
        ],
        "postalCode": "N7T2R3",
        "streetName": "QUEEN",
        "streetDirectionId": null,
        "streetTypeId": "ST",
        "placeName": "SARNIA",
        "streetNameDisplayText": "QUEEN ST, SARNIA"
      }
    ]
  },
  {
    "postal": "N7T5N2",
    "result": [
      {
        "electoralDistricts": [
          {
            "election": null,
            "id": 91,
            "name": "Sarnia—Lambton"
          }
        ],
        "pollDivisionIds": [
          10141397
        ],
        "postalCode": "N7T5N2",
        "streetName": "EXMOUTH",
        "streetDirectionId": null,
        "streetTypeId": "ST",
        "placeName": "SARNIA",
        "streetNameDisplayText": "EXMOUTH ST, SARNIA"
      }
    ]
  },
  {
    "postal": "N7T4Y7",
    "result": [
      {
        "electoralDistricts": [
          {
            "election": null,
            "id": 91,
            "name": "Sarnia—Lambton"
          }
        ],
        "pollDivisionIds": [
          10141401
        ],
        "postalCode": "N7T4Y7",
        "streetName": "LINCOLN PARK",
        "streetDirectionId": null,
        "streetTypeId": "AVE",
        "placeName": "SARNIA",
        "streetNameDisplayText": "LINCOLN PARK AVE, SARNIA"
      }
    ]
  },
  {
    "postal": "N7T7M0",
    "result": []
  },
  {
    "postal": "N7T8P3",
    "result": []
  },
  {
    "postal": "N7T3N3",
    "result": [
      {
        "electoralDistricts": [
          {
            "election": null,
            "id": 91,
            "name": "Sarnia—Lambton"
          }
        ],
        "pollDivisionIds": [
          10141414
        ],
        "postalCode": "N7T3N3",
        "streetName": "GIBSON",
        "streetDirectionId": null,
        "streetTypeId": "ST",
        "placeName": "SARNIA",
        "streetNameDisplayText": "GIBSON ST, SARNIA"
      }
    ]
  },
  {
    "postal": "N7T7S3",
    "result": [
      {
        "electoralDistricts": [
          {
            "election": null,
            "id": 91,
            "name": "Sarnia—Lambton"
          }
        ],
        "pollDivisionIds": [
          10141409
        ],
        "postalCode": "N7T7S3",
        "streetName": "CANTERBURY",
        "streetDirectionId": null,
        "streetTypeId": "CRT",
        "placeName": "SARNIA",
        "streetNameDisplayText": "CANTERBURY CRT, SARNIA"
      }
    ]
  },
  {
    "postal": "N7T3V9",
    "result": [
      {
        "electoralDistricts": [
          {
            "election": null,
            "id": 91,
            "name": "Sarnia—Lambton"
          }
        ],
        "pollDivisionIds": [
          10141415
        ],
        "postalCode": "N7T3V9",
        "streetName": "INDIAN",
        "streetDirectionId": "S",
        "streetTypeId": "RD",
        "placeName": "SARNIA",
        "streetNameDisplayText": "INDIAN RD S, SARNIA"
      }
    ]
  },
  {
    "postal": "N7T9N7",
    "result": []
  },
  {
    "postal": "N7T0G4",
    "result": []
  },
  {
    "postal": "N7T2E2",
    "result": [
      {
        "electoralDistricts": [
          {
            "election": null,
            "id": 91,
            "name": "Sarnia—Lambton"
          }
        ],
        "pollDivisionIds": [
          10141414
        ],
        "postalCode": "N7T2E2",
        "streetName": "CONFEDERATION",
        "streetDirectionId": null,
        "streetTypeId": "ST",
        "placeName": "SARNIA",
        "streetNameDisplayText": "CONFEDERATION ST, SARNIA"
      }
    ]
  },
  {
    "postal": "N7T7W8",
    "result": []
  },
  {
    "postal": "N7T7M5",
    "result": []
  },
  {
    "postal": "N7T5W8",
    "result": []
  },
  {
    "postal": "N7T5E5",
    "result": [
      {
        "electoralDistricts": [
          {
            "election": null,
            "id": 91,
            "name": "Sarnia—Lambton"
          }
        ],
        "pollDivisionIds": [
          10141401
        ],
        "postalCode": "N7T5E5",
        "streetName": "MAXWELL",
        "streetDirectionId": null,
        "streetTypeId": "ST",
        "placeName": "SARNIA",
        "streetNameDisplayText": "MAXWELL ST, SARNIA"
      }
    ]
  },
  {
    "postal": "N7T1P9",
    "result": [
      {
        "electoralDistricts": [
          {
            "election": null,
            "id": 91,
            "name": "Sarnia—Lambton"
          }
        ],
        "pollDivisionIds": [
          10141414
        ],
        "postalCode": "N7T1P9",
        "streetName": "TALFOURD",
        "streetDirectionId": null,
        "streetTypeId": "ST",
        "placeName": "SARNIA",
        "streetNameDisplayText": "TALFOURD ST, SARNIA"
      }
    ]
  },
  {
    "postal": "N7T8V8",
    "result": []
  },
  {
    "postal": "N7T9G8",
    "result": []
  },
  {
    "postal": "N7T8H9",
    "result": [
      {
        "electoralDistricts": [
          {
            "election": null,
            "id": 91,
            "name": "Sarnia—Lambton"
          }
        ],
        "pollDivisionIds": [
          10141415
        ],
        "postalCode": "N7T8H9",
        "streetName": "INDIAN",
        "streetDirectionId": "S",
        "streetTypeId": "RD",
        "placeName": "SARNIA",
        "streetNameDisplayText": "INDIAN RD S, SARNIA"
      }
    ]
  },
  {
    "postal": "N7T1Z1",
    "result": [
      {
        "electoralDistricts": [
          {
            "election": null,
            "id": 91,
            "name": "Sarnia—Lambton"
          }
        ],
        "pollDivisionIds": [
          10141414
        ],
        "postalCode": "N7T1Z1",
        "streetName": "KINTAIL",
        "streetDirectionId": null,
        "streetTypeId": "ST",
        "placeName": "SARNIA",
        "streetNameDisplayText": "KINTAIL ST, SARNIA"
      }
    ]
  },
  {
    "postal": "N7T8M3",
    "result": []
  },
  {
    "postal": "N7T5H6",
    "result": []
  },
  {
    "postal": "N7T7W7",
    "result": [
      {
        "electoralDistricts": [
          {
            "election": null,
            "id": 91,
            "name": "Sarnia—Lambton"
          }
        ],
        "pollDivisionIds": [
          10141397
        ],
        "postalCode": "N7T7W7",
        "streetName": "VENETIAN",
        "streetDirectionId": null,
        "streetTypeId": "BLVD",
        "placeName": "POINT EDWARD",
        "streetNameDisplayText": "VENETIAN BLVD, POINT EDWARD"
      }
    ]
  },
  {
    "postal": "N7T4L0",
    "result": []
  },
  {
    "postal": "N7T2N1",
    "result": [
      {
        "electoralDistricts": [
          {
            "election": null,
            "id": 91,
            "name": "Sarnia—Lambton"
          }
        ],
        "pollDivisionIds": [
          10141407
        ],
        "postalCode": "N7T2N1",
        "streetName": "CHRISTINA",
        "streetDirectionId": "S",
        "streetTypeId": "ST",
        "placeName": "SARNIA",
        "streetNameDisplayText": "CHRISTINA ST S, SARNIA"
      }
    ]
  },
  {
    "postal": "N7T2H4",
    "result": [
      {
        "electoralDistricts": [
          {
            "election": null,
            "id": 91,
            "name": "Sarnia—Lambton"
          }
        ],
        "pollDivisionIds": [
          10141413
        ],
        "postalCode": "N7T2H4",
        "streetName": "CAMPBELL",
        "streetDirectionId": null,
        "streetTypeId": "ST",
        "placeName": "SARNIA",
        "streetNameDisplayText": "CAMPBELL ST, SARNIA"
      }
    ]
  },
  {
    "postal": "N7T5C8",
    "result": [
      {
        "electoralDistricts": [
          {
            "election": null,
            "id": 91,
            "name": "Sarnia—Lambton"
          }
        ],
        "pollDivisionIds": [
          10141397
        ],
        "postalCode": "N7T5C8",
        "streetName": "MAXWELL",
        "streetDirectionId": null,
        "streetTypeId": "ST",
        "placeName": "SARNIA",
        "streetNameDisplayText": "MAXWELL ST, SARNIA"
      }
    ]
  },
  {
    "postal": "N7T8B0",
    "result": []
  },
  {
    "postal": "N7T1T4",
    "result": [
      {
        "electoralDistricts": [
          {
            "election": null,
            "id": 91,
            "name": "Sarnia—Lambton"
          }
        ],
        "pollDivisionIds": [
          10141413
        ],
        "postalCode": "N7T1T4",
        "streetName": "DEVINE",
        "streetDirectionId": null,
        "streetTypeId": "ST",
        "placeName": "SARNIA",
        "streetNameDisplayText": "DEVINE ST, SARNIA"
      }
    ]
  },
  {
    "postal": "N7T7N7",
    "result": [
      {
        "electoralDistricts": [
          {
            "election": null,
            "id": 91,
            "name": "Sarnia—Lambton"
          }
        ],
        "pollDivisionIds": [
          10141402
        ],
        "postalCode": "N7T7N7",
        "streetName": "ASSINIBOINE",
        "streetDirectionId": null,
        "streetTypeId": "CRES",
        "placeName": "SARNIA",
        "streetNameDisplayText": "ASSINIBOINE CRES, SARNIA"
      }
    ]
  },
  {
    "postal": "N7T4L3",
    "result": [
      {
        "electoralDistricts": [
          {
            "election": null,
            "id": 91,
            "name": "Sarnia—Lambton"
          }
        ],
        "pollDivisionIds": [
          10141410
        ],
        "postalCode": "N7T4L3",
        "streetName": "POPLAR",
        "streetDirectionId": null,
        "streetTypeId": "AVE",
        "placeName": "SARNIA",
        "streetNameDisplayText": "POPLAR AVE, SARNIA"
      }
    ]
  },
  {
    "postal": "N7T2N2",
    "result": [
      {
        "electoralDistricts": [
          {
            "election": null,
            "id": 91,
            "name": "Sarnia—Lambton"
          }
        ],
        "pollDivisionIds": [
          10141407
        ],
        "postalCode": "N7T2N2",
        "streetName": "CHRISTINA",
        "streetDirectionId": "S",
        "streetTypeId": "ST",
        "placeName": "SARNIA",
        "streetNameDisplayText": "CHRISTINA ST S, SARNIA"
      }
    ]
  },
  {
    "postal": "N7T4N8",
    "result": [
      {
        "electoralDistricts": [
          {
            "election": null,
            "id": 91,
            "name": "Sarnia—Lambton"
          }
        ],
        "pollDivisionIds": [
          10141407
        ],
        "postalCode": "N7T4N8",
        "streetName": "GEORGE",
        "streetDirectionId": null,
        "streetTypeId": "ST",
        "placeName": "SARNIA",
        "streetNameDisplayText": "GEORGE ST, SARNIA"
      }
    ]
  },
  {
    "postal": "N7T3M5",
    "result": [
      {
        "electoralDistricts": [
          {
            "election": null,
            "id": 91,
            "name": "Sarnia—Lambton"
          }
        ],
        "pollDivisionIds": [
          10141413
        ],
        "postalCode": "N7T3M5",
        "streetName": "RUSSELL",
        "streetDirectionId": "S",
        "streetTypeId": "ST",
        "placeName": "SARNIA",
        "streetNameDisplayText": "RUSSELL ST S, SARNIA"
      }
    ]
  },
  {
    "postal": "N7T6H7",
    "result": [
      {
        "electoralDistricts": [
          {
            "election": null,
            "id": 91,
            "name": "Sarnia—Lambton"
          }
        ],
        "pollDivisionIds": [
          10141407
        ],
        "postalCode": "N7T6H7",
        "streetName": "MITTON",
        "streetDirectionId": "N",
        "streetTypeId": "ST",
        "placeName": "SARNIA",
        "streetNameDisplayText": "MITTON ST N, SARNIA"
      }
    ]
  },
  {
    "postal": "N7T8Y8",
    "result": []
  },
  {
    "postal": "N7T5R9",
    "result": []
  },
  {
    "postal": "N7T8G3",
    "result": [
      {
        "electoralDistricts": [
          {
            "election": null,
            "id": 91,
            "name": "Sarnia—Lambton"
          }
        ],
        "pollDivisionIds": [
          10141413
        ],
        "postalCode": "N7T8G3",
        "streetName": "SCOTT",
        "streetDirectionId": null,
        "streetTypeId": "RD",
        "placeName": "SARNIA",
        "streetNameDisplayText": "SCOTT RD, SARNIA"
      }
    ]
  },
  {
    "postal": "N7T4N7",
    "result": [
      {
        "electoralDistricts": [
          {
            "election": null,
            "id": 91,
            "name": "Sarnia—Lambton"
          }
        ],
        "pollDivisionIds": [
          10141407
        ],
        "postalCode": "N7T4N7",
        "streetName": "GEORGE",
        "streetDirectionId": null,
        "streetTypeId": "ST",
        "placeName": "SARNIA",
        "streetNameDisplayText": "GEORGE ST, SARNIA"
      }
    ]
  },
  {
    "postal": "N7T0B9",
    "result": [
      {
        "electoralDistricts": [
          {
            "election": null,
            "id": 91,
            "name": "Sarnia—Lambton"
          }
        ],
        "pollDivisionIds": [
          10141407
        ],
        "postalCode": "N7T0B9",
        "streetName": "FRONT",
        "streetDirectionId": "N",
        "streetTypeId": "ST",
        "placeName": "SARNIA",
        "streetNameDisplayText": "FRONT ST N, SARNIA"
      }
    ]
  },
  {
    "postal": "N7T9K7",
    "result": []
  },
  {
    "postal": "N7T9K9",
    "result": []
  },
  {
    "postal": "N7T3Z2",
    "result": [
      {
        "electoralDistricts": [
          {
            "election": null,
            "id": 91,
            "name": "Sarnia—Lambton"
          }
        ],
        "pollDivisionIds": [
          10141414
        ],
        "postalCode": "N7T3Z2",
        "streetName": "CROMWELL",
        "streetDirectionId": null,
        "streetTypeId": "ST",
        "placeName": "SARNIA",
        "streetNameDisplayText": "CROMWELL ST, SARNIA"
      }
    ]
  },
  {
    "postal": "N7T6W7",
    "result": [
      {
        "electoralDistricts": [
          {
            "election": null,
            "id": 91,
            "name": "Sarnia—Lambton"
          }
        ],
        "pollDivisionIds": [
          10141401
        ],
        "postalCode": "N7T6W7",
        "streetName": "CECIL",
        "streetDirectionId": null,
        "streetTypeId": "ST",
        "placeName": "SARNIA",
        "streetNameDisplayText": "CECIL ST, SARNIA"
      }
    ]
  },
  {
    "postal": "N7T0P1",
    "result": []
  },
  {
    "postal": "N7T3A0",
    "result": []
  },
  {
    "postal": "N7T8L9",
    "result": []
  },
  {
    "postal": "N7T6X0",
    "result": []
  },
  {
    "postal": "N7T3E9",
    "result": [
      {
        "electoralDistricts": [
          {
            "election": null,
            "id": 91,
            "name": "Sarnia—Lambton"
          }
        ],
        "pollDivisionIds": [
          10141413
        ],
        "postalCode": "N7T3E9",
        "streetName": "MITTON",
        "streetDirectionId": "S",
        "streetTypeId": "ST",
        "placeName": "SARNIA",
        "streetNameDisplayText": "MITTON ST S, SARNIA"
      }
    ]
  },
  {
    "postal": "N7T0S5",
    "result": []
  },
  {
    "postal": "N7T1A2",
    "result": []
  },
  {
    "postal": "N7T5V8",
    "result": [
      {
        "electoralDistricts": [
          {
            "election": null,
            "id": 91,
            "name": "Sarnia—Lambton"
          }
        ],
        "pollDivisionIds": [
          10141397
        ],
        "postalCode": "N7T5V8",
        "streetName": "CHRISTINA",
        "streetDirectionId": "N",
        "streetTypeId": "ST",
        "placeName": "SARNIA",
        "streetNameDisplayText": "CHRISTINA ST N, SARNIA"
      }
    ]
  },
  {
    "postal": "N7T8C5",
    "result": [
      {
        "electoralDistricts": [
          {
            "election": null,
            "id": 91,
            "name": "Sarnia—Lambton"
          }
        ],
        "pollDivisionIds": [
          10141413
        ],
        "postalCode": "N7T8C5",
        "streetName": "TALFOURD",
        "streetDirectionId": null,
        "streetTypeId": "ST",
        "placeName": "SARNIA",
        "streetNameDisplayText": "TALFOURD ST, SARNIA"
      }
    ]
  },
  {
    "postal": "N7T6N0",
    "result": []
  },
  {
    "postal": "N7T9E6",
    "result": []
  },
  {
    "postal": "N7T5J7",
    "result": [
      {
        "electoralDistricts": [
          {
            "election": null,
            "id": 91,
            "name": "Sarnia—Lambton"
          }
        ],
        "pollDivisionIds": [
          10141397
        ],
        "postalCode": "N7T5J7",
        "streetName": "NELSON",
        "streetDirectionId": null,
        "streetTypeId": "ST",
        "placeName": "SARNIA",
        "streetNameDisplayText": "NELSON ST, SARNIA"
      }
    ]
  },
  {
    "postal": "N7T2R2",
    "result": [
      {
        "electoralDistricts": [
          {
            "election": null,
            "id": 91,
            "name": "Sarnia—Lambton"
          }
        ],
        "pollDivisionIds": [
          10141413
        ],
        "postalCode": "N7T2R2",
        "streetName": "QUEEN",
        "streetDirectionId": null,
        "streetTypeId": "ST",
        "placeName": "SARNIA",
        "streetNameDisplayText": "QUEEN ST, SARNIA"
      }
    ]
  },
  {
    "postal": "N7T0P5",
    "result": []
  },
  {
    "postal": "N7T5A7",
    "result": [
      {
        "electoralDistricts": [
          {
            "election": null,
            "id": 91,
            "name": "Sarnia—Lambton"
          }
        ],
        "pollDivisionIds": [
          10141397
        ],
        "postalCode": "N7T5A7",
        "streetName": "DURAND",
        "streetDirectionId": null,
        "streetTypeId": "ST",
        "placeName": "SARNIA",
        "streetNameDisplayText": "DURAND ST, SARNIA"
      }
    ]
  },
  {
    "postal": "N7T1G1",
    "result": [
      {
        "electoralDistricts": [
          {
            "election": null,
            "id": 91,
            "name": "Sarnia—Lambton"
          }
        ],
        "pollDivisionIds": [
          10141409
        ],
        "postalCode": "N7T1G1",
        "streetName": "KATHLEEN",
        "streetDirectionId": null,
        "streetTypeId": "AVE",
        "placeName": "SARNIA",
        "streetNameDisplayText": "KATHLEEN AVE, SARNIA"
      }
    ]
  },
  {
    "postal": "N7T9R6",
    "result": []
  },
  {
    "postal": "N7T4Z9",
    "result": [
      {
        "electoralDistricts": [
          {
            "election": null,
            "id": 91,
            "name": "Sarnia—Lambton"
          }
        ],
        "pollDivisionIds": [
          10141402
        ],
        "postalCode": "N7T4Z9",
        "streetName": "WILMONT",
        "streetDirectionId": null,
        "streetTypeId": "PL",
        "placeName": "SARNIA",
        "streetNameDisplayText": "WILMONT PL, SARNIA"
      }
    ]
  },
  {
    "postal": "N7T1V5",
    "result": [
      {
        "electoralDistricts": [
          {
            "election": null,
            "id": 91,
            "name": "Sarnia—Lambton"
          }
        ],
        "pollDivisionIds": [
          10141414
        ],
        "postalCode": "N7T1V5",
        "streetName": "DEVINE",
        "streetDirectionId": null,
        "streetTypeId": "ST",
        "placeName": "SARNIA",
        "streetNameDisplayText": "DEVINE ST, SARNIA"
      }
    ]
  },
  {
    "postal": "N7T9Y5",
    "result": []
  },
  {
    "postal": "N7T1P2",
    "result": [
      {
        "electoralDistricts": [
          {
            "election": null,
            "id": 91,
            "name": "Sarnia—Lambton"
          }
        ],
        "pollDivisionIds": [
          10141413
        ],
        "postalCode": "N7T1P2",
        "streetName": "TALFOURD",
        "streetDirectionId": null,
        "streetTypeId": "ST",
        "placeName": "SARNIA",
        "streetNameDisplayText": "TALFOURD ST, SARNIA"
      }
    ]
  },
  {
    "postal": "N7T5X0",
    "result": []
  },
  {
    "postal": "N7T7B8",
    "result": [
      {
        "electoralDistricts": [
          {
            "election": null,
            "id": 91,
            "name": "Sarnia—Lambton"
          }
        ],
        "pollDivisionIds": [
          10141402
        ],
        "postalCode": "N7T7B8",
        "streetName": "TRILLIUM",
        "streetDirectionId": null,
        "streetTypeId": "PK",
        "placeName": "SARNIA",
        "streetNameDisplayText": "TRILLIUM PK, SARNIA"
      }
    ]
  },
  {
    "postal": "N7T0C6",
    "result": []
  },
  {
    "postal": "N7T6G1",
    "result": [
      {
        "electoralDistricts": [
          {
            "election": null,
            "id": 91,
            "name": "Sarnia—Lambton"
          }
        ],
        "pollDivisionIds": [
          10141397
        ],
        "postalCode": "N7T6G1",
        "streetName": "PARKER",
        "streetDirectionId": null,
        "streetTypeId": "ST",
        "placeName": "SARNIA",
        "streetNameDisplayText": "PARKER ST, SARNIA"
      }
    ]
  },
  {
    "postal": "N7T3K3",
    "result": [
      {
        "electoralDistricts": [
          {
            "election": null,
            "id": 91,
            "name": "Sarnia—Lambton"
          }
        ],
        "pollDivisionIds": [
          10141414
        ],
        "postalCode": "N7T3K3",
        "streetName": "CONRAD",
        "streetDirectionId": null,
        "streetTypeId": "ST",
        "placeName": "SARNIA",
        "streetNameDisplayText": "CONRAD ST, SARNIA"
      }
    ]
  },
  {
    "postal": "N7T9R0",
    "result": []
  },
  {
    "postal": "N7T4R8",
    "result": [
      {
        "electoralDistricts": [
          {
            "election": null,
            "id": 91,
            "name": "Sarnia—Lambton"
          }
        ],
        "pollDivisionIds": [
          10141407
        ],
        "postalCode": "N7T4R8",
        "streetName": "ESSEX",
        "streetDirectionId": null,
        "streetTypeId": "ST",
        "placeName": "SARNIA",
        "streetNameDisplayText": "ESSEX ST, SARNIA"
      }
    ]
  },
  {
    "postal": "N7T5P9",
    "result": [
      {
        "electoralDistricts": [
          {
            "election": null,
            "id": 91,
            "name": "Sarnia—Lambton"
          }
        ],
        "pollDivisionIds": [
          10141402
        ],
        "postalCode": "N7T5P9",
        "streetName": "EXMOUTH",
        "streetDirectionId": null,
        "streetTypeId": "ST",
        "placeName": "SARNIA",
        "streetNameDisplayText": "EXMOUTH ST, SARNIA"
      }
    ]
  },
  {
    "postal": "N7T8N4",
    "result": []
  },
  {
    "postal": "N7T8H4",
    "result": []
  },
  {
    "postal": "N7T4V1",
    "result": [
      {
        "electoralDistricts": [
          {
            "election": null,
            "id": 91,
            "name": "Sarnia—Lambton"
          }
        ],
        "pollDivisionIds": [
          10141408
        ],
        "postalCode": "N7T4V1",
        "streetName": "PENROSE",
        "streetDirectionId": null,
        "streetTypeId": "ST",
        "placeName": "SARNIA",
        "streetNameDisplayText": "PENROSE ST, SARNIA"
      }
    ]
  },
  {
    "postal": "N7T1K5",
    "result": [
      {
        "electoralDistricts": [
          {
            "election": null,
            "id": 91,
            "name": "Sarnia—Lambton"
          }
        ],
        "pollDivisionIds": [
          10141409
        ],
        "postalCode": "N7T1K5",
        "streetName": "ROSS",
        "streetDirectionId": null,
        "streetTypeId": "AVE",
        "placeName": "SARNIA",
        "streetNameDisplayText": "ROSS AVE, SARNIA"
      }
    ]
  },
  {
    "postal": "N7T1Z5",
    "result": [
      {
        "electoralDistricts": [
          {
            "election": null,
            "id": 91,
            "name": "Sarnia—Lambton"
          }
        ],
        "pollDivisionIds": [
          10141414
        ],
        "postalCode": "N7T1Z5",
        "streetName": "PHILLIP",
        "streetDirectionId": "W",
        "streetTypeId": "ST",
        "placeName": "SARNIA",
        "streetNameDisplayText": "PHILLIP ST W, SARNIA"
      },
      {
        "electoralDistricts": [
          {
            "election": null,
            "id": 91,
            "name": "Sarnia—Lambton"
          }
        ],
        "pollDivisionIds": [
          10141414
        ],
        "postalCode": "N7T1Z5",
        "streetName": "PHILLIP",
        "streetDirectionId": null,
        "streetTypeId": "ST",
        "placeName": "SARNIA",
        "streetNameDisplayText": "PHILLIP ST, SARNIA"
      }
    ]
  },
  {
    "postal": "N7T9L9",
    "result": []
  },
  {
    "postal": "N7T5L2",
    "result": [
      {
        "electoralDistricts": [
          {
            "election": null,
            "id": 91,
            "name": "Sarnia—Lambton"
          }
        ],
        "pollDivisionIds": [
          10141402
        ],
        "postalCode": "N7T5L2",
        "streetName": "EASTWOOD",
        "streetDirectionId": null,
        "streetTypeId": "ST",
        "placeName": "SARNIA",
        "streetNameDisplayText": "EASTWOOD ST, SARNIA"
      }
    ]
  },
  {
    "postal": "N7T0M2",
    "result": []
  },
  {
    "postal": "N7T1K8",
    "result": [
      {
        "electoralDistricts": [
          {
            "election": null,
            "id": 91,
            "name": "Sarnia—Lambton"
          }
        ],
        "pollDivisionIds": [
          10141407
        ],
        "postalCode": "N7T1K8",
        "streetName": "JOHNSTON",
        "streetDirectionId": null,
        "streetTypeId": "ST",
        "placeName": "SARNIA",
        "streetNameDisplayText": "JOHNSTON ST, SARNIA"
      }
    ]
  },
  {
    "postal": "N7T3M7",
    "result": [
      {
        "electoralDistricts": [
          {
            "election": null,
            "id": 91,
            "name": "Sarnia—Lambton"
          }
        ],
        "pollDivisionIds": [
          10141413
        ],
        "postalCode": "N7T3M7",
        "streetName": "RUSSELL",
        "streetDirectionId": "S",
        "streetTypeId": "ST",
        "placeName": "SARNIA",
        "streetNameDisplayText": "RUSSELL ST S, SARNIA"
      }
    ]
  },
  {
    "postal": "N7T1B2",
    "result": [
      {
        "electoralDistricts": [
          {
            "election": null,
            "id": 91,
            "name": "Sarnia—Lambton"
          }
        ],
        "pollDivisionIds": [
          10141413
        ],
        "postalCode": "N7T1B2",
        "streetName": "DAVIS",
        "streetDirectionId": null,
        "streetTypeId": "ST",
        "placeName": "SARNIA",
        "streetNameDisplayText": "DAVIS ST, SARNIA"
      }
    ]
  },
  {
    "postal": "N7T0H9",
    "result": []
  },
  {
    "postal": "N7T8M4",
    "result": []
  },
  {
    "postal": "N7T2M5",
    "result": [
      {
        "electoralDistricts": [
          {
            "election": null,
            "id": 91,
            "name": "Sarnia—Lambton"
          }
        ],
        "pollDivisionIds": [
          10141407,
          10141446
        ],
        "postalCode": "N7T2M5",
        "streetName": "FRONT",
        "streetDirectionId": "S",
        "streetTypeId": "ST",
        "placeName": "SARNIA",
        "streetNameDisplayText": "FRONT ST S, SARNIA"
      }
    ]
  },
  {
    "postal": "N7T0T9",
    "result": []
  },
  {
    "postal": "N7T3P1",
    "result": [
      {
        "electoralDistricts": [
          {
            "election": null,
            "id": 91,
            "name": "Sarnia—Lambton"
          }
        ],
        "pollDivisionIds": [
          10141413
        ],
        "postalCode": "N7T3P1",
        "streetName": "PALMERSTON",
        "streetDirectionId": "S",
        "streetTypeId": "ST",
        "placeName": "SARNIA",
        "streetNameDisplayText": "PALMERSTON ST S, SARNIA"
      }
    ]
  },
  {
    "postal": "N7T1R6",
    "result": [
      {
        "electoralDistricts": [
          {
            "election": null,
            "id": 91,
            "name": "Sarnia—Lambton"
          }
        ],
        "pollDivisionIds": [
          10141414
        ],
        "postalCode": "N7T1R6",
        "streetName": "TALFOURD",
        "streetDirectionId": null,
        "streetTypeId": "ST",
        "placeName": "SARNIA",
        "streetNameDisplayText": "TALFOURD ST, SARNIA"
      }
    ]
  },
  {
    "postal": "N7T9V5",
    "result": []
  },
  {
    "postal": "N7T9T0",
    "result": []
  },
  {
    "postal": "N7T0A9",
    "result": []
  },
  {
    "postal": "N7T1M3",
    "result": [
      {
        "electoralDistricts": [
          {
            "election": null,
            "id": 91,
            "name": "Sarnia—Lambton"
          }
        ],
        "pollDivisionIds": [
          10141414
        ],
        "postalCode": "N7T1M3",
        "streetName": "ONTARIO",
        "streetDirectionId": null,
        "streetTypeId": "ST",
        "placeName": "SARNIA",
        "streetNameDisplayText": "ONTARIO ST, SARNIA"
      }
    ]
  },
  {
    "postal": "N7T1W8",
    "result": [
      {
        "electoralDistricts": [
          {
            "election": null,
            "id": 91,
            "name": "Sarnia—Lambton"
          }
        ],
        "pollDivisionIds": [
          10141414
        ],
        "postalCode": "N7T1W8",
        "streetName": "DEVINE",
        "streetDirectionId": null,
        "streetTypeId": "ST",
        "placeName": "SARNIA",
        "streetNameDisplayText": "DEVINE ST, SARNIA"
      }
    ]
  },
  {
    "postal": "N7T9J1",
    "result": []
  },
  {
    "postal": "N7T8N5",
    "result": []
  },
  {
    "postal": "N7T5X1",
    "result": []
  },
  {
    "postal": "N7T6S2",
    "result": []
  },
  {
    "postal": "N7T2A2",
    "result": [
      {
        "electoralDistricts": [
          {
            "election": null,
            "id": 91,
            "name": "Sarnia—Lambton"
          }
        ],
        "pollDivisionIds": [
          10141413
        ],
        "postalCode": "N7T2A2",
        "streetName": "CONFEDERATION",
        "streetDirectionId": null,
        "streetTypeId": "ST",
        "placeName": "SARNIA",
        "streetNameDisplayText": "CONFEDERATION ST, SARNIA"
      }
    ]
  },
  {
    "postal": "N7T6A6",
    "result": [
      {
        "electoralDistricts": [
          {
            "election": null,
            "id": 91,
            "name": "Sarnia—Lambton"
          }
        ],
        "pollDivisionIds": [
          10141407
        ],
        "postalCode": "N7T6A6",
        "streetName": "EUPHEMIA",
        "streetDirectionId": "N",
        "streetTypeId": "ST",
        "placeName": "SARNIA",
        "streetNameDisplayText": "EUPHEMIA ST N, SARNIA"
      }
    ]
  },
  {
    "postal": "N7T0S3",
    "result": []
  },
  {
    "postal": "N7T3E7",
    "result": [
      {
        "electoralDistricts": [
          {
            "election": null,
            "id": 91,
            "name": "Sarnia—Lambton"
          }
        ],
        "pollDivisionIds": [
          10141413
        ],
        "postalCode": "N7T3E7",
        "streetName": "MITTON",
        "streetDirectionId": "S",
        "streetTypeId": "ST",
        "placeName": "SARNIA",
        "streetNameDisplayText": "MITTON ST S, SARNIA"
      }
    ]
  },
  {
    "postal": "N7T5R7",
    "result": []
  },
  {
    "postal": "N7T3R6",
    "result": [
      {
        "electoralDistricts": [
          {
            "election": null,
            "id": 91,
            "name": "Sarnia—Lambton"
          }
        ],
        "pollDivisionIds": [
          10141409
        ],
        "postalCode": "N7T3R6",
        "streetName": "EAST",
        "streetDirectionId": "S",
        "streetTypeId": "ST",
        "placeName": "SARNIA",
        "streetNameDisplayText": "EAST ST S, SARNIA"
      }
    ]
  },
  {
    "postal": "N7T6K4",
    "result": [
      {
        "electoralDistricts": [
          {
            "election": null,
            "id": 91,
            "name": "Sarnia—Lambton"
          }
        ],
        "pollDivisionIds": [
          10141408
        ],
        "postalCode": "N7T6K4",
        "streetName": "MACKENZIE",
        "streetDirectionId": "N",
        "streetTypeId": "ST",
        "placeName": "SARNIA",
        "streetNameDisplayText": "MACKENZIE ST N, SARNIA"
      }
    ]
  },
  {
    "postal": "N7T2W5",
    "result": [
      {
        "electoralDistricts": [
          {
            "election": null,
            "id": 91,
            "name": "Sarnia—Lambton"
          }
        ],
        "pollDivisionIds": [
          10141413
        ],
        "postalCode": "N7T2W5",
        "streetName": "BROCK",
        "streetDirectionId": "S",
        "streetTypeId": "ST",
        "placeName": "SARNIA",
        "streetNameDisplayText": "BROCK ST S, SARNIA"
      }
    ]
  },
  {
    "postal": "N7T8W4",
    "result": []
  },
  {
    "postal": "N7T9C2",
    "result": []
  },
  {
    "postal": "N7T2C0",
    "result": []
  },
  {
    "postal": "N7T0E1",
    "result": []
  },
  {
    "postal": "N7T1K9",
    "result": [
      {
        "electoralDistricts": [
          {
            "election": null,
            "id": 91,
            "name": "Sarnia—Lambton"
          }
        ],
        "pollDivisionIds": [
          10141414
        ],
        "postalCode": "N7T1K9",
        "streetName": "ONTARIO",
        "streetDirectionId": null,
        "streetTypeId": "ST",
        "placeName": "SARNIA",
        "streetNameDisplayText": "ONTARIO ST, SARNIA"
      }
    ]
  },
  {
    "postal": "N7T1G7",
    "result": []
  },
  {
    "postal": "N7T4E9",
    "result": [
      {
        "electoralDistricts": [
          {
            "election": null,
            "id": 91,
            "name": "Sarnia—Lambton"
          }
        ],
        "pollDivisionIds": [
          10141408
        ],
        "postalCode": "N7T4E9",
        "streetName": "BRIGHT",
        "streetDirectionId": null,
        "streetTypeId": "ST",
        "placeName": "SARNIA",
        "streetNameDisplayText": "BRIGHT ST, SARNIA"
      }
    ]
  },
  {
    "postal": "N7T9P0",
    "result": []
  },
  {
    "postal": "N7T5H3",
    "result": [
      {
        "electoralDistricts": [
          {
            "election": null,
            "id": 91,
            "name": "Sarnia—Lambton"
          }
        ],
        "pollDivisionIds": [
          10141397
        ],
        "postalCode": "N7T5H3",
        "streetName": "NELSON",
        "streetDirectionId": null,
        "streetTypeId": "ST",
        "placeName": "SARNIA",
        "streetNameDisplayText": "NELSON ST, SARNIA"
      }
    ]
  },
  {
    "postal": "N7T9X6",
    "result": []
  },
  {
    "postal": "N7T5N7",
    "result": [
      {
        "electoralDistricts": [
          {
            "election": null,
            "id": 91,
            "name": "Sarnia—Lambton"
          }
        ],
        "pollDivisionIds": [
          10141401
        ],
        "postalCode": "N7T5N7",
        "streetName": "EXMOUTH",
        "streetDirectionId": null,
        "streetTypeId": "ST",
        "placeName": "SARNIA",
        "streetNameDisplayText": "EXMOUTH ST, SARNIA"
      }
    ]
  },
  {
    "postal": "N7T5A6",
    "result": [
      {
        "electoralDistricts": [
          {
            "election": null,
            "id": 91,
            "name": "Sarnia—Lambton"
          }
        ],
        "pollDivisionIds": [
          10141397
        ],
        "postalCode": "N7T5A6",
        "streetName": "DURAND",
        "streetDirectionId": null,
        "streetTypeId": "ST",
        "placeName": "SARNIA",
        "streetNameDisplayText": "DURAND ST, SARNIA"
      }
    ]
  },
  {
    "postal": "N7T4M0",
    "result": []
  },
  {
    "postal": "N7T3V6",
    "result": [
      {
        "electoralDistricts": [
          {
            "election": null,
            "id": 91,
            "name": "Sarnia—Lambton"
          }
        ],
        "pollDivisionIds": [
          10141409
        ],
        "postalCode": "N7T3V6",
        "streetName": "WALNUT",
        "streetDirectionId": "S",
        "streetTypeId": "AVE",
        "placeName": "SARNIA",
        "streetNameDisplayText": "WALNUT AVE S, SARNIA"
      }
    ]
  },
  {
    "postal": "N7T1L7",
    "result": [
      {
        "electoralDistricts": [
          {
            "election": null,
            "id": 91,
            "name": "Sarnia—Lambton"
          }
        ],
        "pollDivisionIds": [
          10141414
        ],
        "postalCode": "N7T1L7",
        "streetName": "ONTARIO",
        "streetDirectionId": null,
        "streetTypeId": "ST",
        "placeName": "SARNIA",
        "streetNameDisplayText": "ONTARIO ST, SARNIA"
      }
    ]
  },
  {
    "postal": "N7T2P9",
    "result": []
  },
  {
    "postal": "N7T5T4",
    "result": [
      {
        "electoralDistricts": [
          {
            "election": null,
            "id": 91,
            "name": "Sarnia—Lambton"
          }
        ],
        "pollDivisionIds": [
          10141397
        ],
        "postalCode": "N7T5T4",
        "streetName": "WATER",
        "streetDirectionId": null,
        "streetTypeId": "ST",
        "placeName": "SARNIA",
        "streetNameDisplayText": "WATER ST, SARNIA"
      }
    ]
  },
  {
    "postal": "N7T5Z1",
    "result": [
      {
        "electoralDistricts": [
          {
            "election": null,
            "id": 91,
            "name": "Sarnia—Lambton"
          }
        ],
        "pollDivisionIds": [
          10141407
        ],
        "postalCode": "N7T5Z1",
        "streetName": "BROCK",
        "streetDirectionId": "N",
        "streetTypeId": "ST",
        "placeName": "SARNIA",
        "streetNameDisplayText": "BROCK ST N, SARNIA"
      }
    ]
  },
  {
    "postal": "N7T2X0",
    "result": []
  },
  {
    "postal": "N7T6Z2",
    "result": [
      {
        "electoralDistricts": [
          {
            "election": null,
            "id": 91,
            "name": "Sarnia—Lambton"
          }
        ],
        "pollDivisionIds": [
          10141402
        ],
        "postalCode": "N7T6Z2",
        "streetName": "TEMPLE",
        "streetDirectionId": null,
        "streetTypeId": "ST",
        "placeName": "SARNIA",
        "streetNameDisplayText": "TEMPLE ST, SARNIA"
      }
    ]
  },
  {
    "postal": "N7T0E0",
    "result": []
  },
  {
    "postal": "N7T3Z5",
    "result": [
      {
        "electoralDistricts": [
          {
            "election": null,
            "id": 91,
            "name": "Sarnia—Lambton"
          }
        ],
        "pollDivisionIds": [
          10141414
        ],
        "postalCode": "N7T3Z5",
        "streetName": "CROMWELL",
        "streetDirectionId": null,
        "streetTypeId": "ST",
        "placeName": "SARNIA",
        "streetNameDisplayText": "CROMWELL ST, SARNIA"
      }
    ]
  },
  {
    "postal": "N7T8H3",
    "result": [
      {
        "electoralDistricts": [
          {
            "election": null,
            "id": 91,
            "name": "Sarnia—Lambton"
          }
        ],
        "pollDivisionIds": [
          10141407
        ],
        "postalCode": "N7T8H3",
        "streetName": "CHRISTINA",
        "streetDirectionId": "N",
        "streetTypeId": "ST",
        "placeName": "SARNIA",
        "streetNameDisplayText": "CHRISTINA ST N, SARNIA"
      }
    ]
  },
  {
    "postal": "N7T7S6",
    "result": []
  },
  {
    "postal": "N7T4C1",
    "result": [
      {
        "electoralDistricts": [
          {
            "election": null,
            "id": 91,
            "name": "Sarnia—Lambton"
          }
        ],
        "pollDivisionIds": [
          10141407
        ],
        "postalCode": "N7T4C1",
        "streetName": "LOCHIEL",
        "streetDirectionId": null,
        "streetTypeId": "ST",
        "placeName": "SARNIA",
        "streetNameDisplayText": "LOCHIEL ST, SARNIA"
      }
    ]
  },
  {
    "postal": "N7T3K2",
    "result": [
      {
        "electoralDistricts": [
          {
            "election": null,
            "id": 91,
            "name": "Sarnia—Lambton"
          }
        ],
        "pollDivisionIds": [
          10141414
        ],
        "postalCode": "N7T3K2",
        "streetName": "CONRAD",
        "streetDirectionId": null,
        "streetTypeId": "ST",
        "placeName": "SARNIA",
        "streetNameDisplayText": "CONRAD ST, SARNIA"
      }
    ]
  },
  {
    "postal": "N7T1Y5",
    "result": [
      {
        "electoralDistricts": [
          {
            "election": null,
            "id": 91,
            "name": "Sarnia—Lambton"
          }
        ],
        "pollDivisionIds": [
          10141413
        ],
        "postalCode": "N7T1Y5",
        "streetName": "MARY",
        "streetDirectionId": null,
        "streetTypeId": "ST",
        "placeName": "SARNIA",
        "streetNameDisplayText": "MARY ST, SARNIA"
      }
    ]
  },
  {
    "postal": "N7T6P6",
    "result": [
      {
        "electoralDistricts": [
          {
            "election": null,
            "id": 91,
            "name": "Sarnia—Lambton"
          }
        ],
        "pollDivisionIds": [
          10141401
        ],
        "postalCode": "N7T6P6",
        "streetName": "LYDIA",
        "streetDirectionId": null,
        "streetTypeId": "ST",
        "placeName": "SARNIA",
        "streetNameDisplayText": "LYDIA ST, SARNIA"
      }
    ]
  },
  {
    "postal": "N7T3N9",
    "result": [
      {
        "electoralDistricts": [
          {
            "election": null,
            "id": 91,
            "name": "Sarnia—Lambton"
          }
        ],
        "pollDivisionIds": [
          10141414
        ],
        "postalCode": "N7T3N9",
        "streetName": "PALMERSTON",
        "streetDirectionId": "S",
        "streetTypeId": "ST",
        "placeName": "SARNIA",
        "streetNameDisplayText": "PALMERSTON ST S, SARNIA"
      }
    ]
  },
  {
    "postal": "N7T3W2",
    "result": [
      {
        "electoralDistricts": [
          {
            "election": null,
            "id": 91,
            "name": "Sarnia—Lambton"
          }
        ],
        "pollDivisionIds": [
          10141415
        ],
        "postalCode": "N7T3W2",
        "streetName": "INDIAN",
        "streetDirectionId": "S",
        "streetTypeId": "RD",
        "placeName": "SARNIA",
        "streetNameDisplayText": "INDIAN RD S, SARNIA"
      }
    ]
  },
  {
    "postal": "N7T6H8",
    "result": [
      {
        "electoralDistricts": [
          {
            "election": null,
            "id": 91,
            "name": "Sarnia—Lambton"
          }
        ],
        "pollDivisionIds": [
          10141408
        ],
        "postalCode": "N7T6H8",
        "streetName": "MITTON",
        "streetDirectionId": "N",
        "streetTypeId": "ST",
        "placeName": "SARNIA",
        "streetNameDisplayText": "MITTON ST N, SARNIA"
      }
    ]
  },
  {
    "postal": "N7T9T3",
    "result": []
  },
  {
    "postal": "N7T5L9",
    "result": [
      {
        "electoralDistricts": [
          {
            "election": null,
            "id": 91,
            "name": "Sarnia—Lambton"
          }
        ],
        "pollDivisionIds": [
          10141401
        ],
        "postalCode": "N7T5L9",
        "streetName": "CLAXTON",
        "streetDirectionId": null,
        "streetTypeId": "AVE",
        "placeName": "SARNIA",
        "streetNameDisplayText": "CLAXTON AVE, SARNIA"
      }
    ]
  },
  {
    "postal": "N7T7X7",
    "result": []
  },
  {
    "postal": "N7T3J5",
    "result": [
      {
        "electoralDistricts": [
          {
            "election": null,
            "id": 91,
            "name": "Sarnia—Lambton"
          }
        ],
        "pollDivisionIds": [
          10141414
        ],
        "postalCode": "N7T3J5",
        "streetName": "SHEPHERD",
        "streetDirectionId": null,
        "streetTypeId": "ST",
        "placeName": "SARNIA",
        "streetNameDisplayText": "SHEPHERD ST, SARNIA"
      }
    ]
  },
  {
    "postal": "N7T4J5",
    "result": [
      {
        "electoralDistricts": [
          {
            "election": null,
            "id": 91,
            "name": "Sarnia—Lambton"
          }
        ],
        "pollDivisionIds": [
          10141409
        ],
        "postalCode": "N7T4J5",
        "streetName": "CEDAR",
        "streetDirectionId": null,
        "streetTypeId": "CRES",
        "placeName": "SARNIA",
        "streetNameDisplayText": "CEDAR CRES, SARNIA"
      }
    ]
  },
  {
    "postal": "N7T6J2",
    "result": [
      {
        "electoralDistricts": [
          {
            "election": null,
            "id": 91,
            "name": "Sarnia—Lambton"
          }
        ],
        "pollDivisionIds": [
          10141408
        ],
        "postalCode": "N7T6J2",
        "streetName": "MITTON",
        "streetDirectionId": "N",
        "streetTypeId": "ST",
        "placeName": "SARNIA",
        "streetNameDisplayText": "MITTON ST N, SARNIA"
      }
    ]
  },
  {
    "postal": "N7T5V6",
    "result": [
      {
        "electoralDistricts": [
          {
            "election": null,
            "id": 91,
            "name": "Sarnia—Lambton"
          }
        ],
        "pollDivisionIds": [
          10141407
        ],
        "postalCode": "N7T5V6",
        "streetName": "CHRISTINA",
        "streetDirectionId": "N",
        "streetTypeId": "ST",
        "placeName": "SARNIA",
        "streetNameDisplayText": "CHRISTINA ST N, SARNIA"
      }
    ]
  },
  {
    "postal": "N7T3N2",
    "result": [
      {
        "electoralDistricts": [
          {
            "election": null,
            "id": 91,
            "name": "Sarnia—Lambton"
          }
        ],
        "pollDivisionIds": [
          10141414
        ],
        "postalCode": "N7T3N2",
        "streetName": "GIBSON",
        "streetDirectionId": null,
        "streetTypeId": "ST",
        "placeName": "SARNIA",
        "streetNameDisplayText": "GIBSON ST, SARNIA"
      }
    ]
  },
  {
    "postal": "N7T3B1",
    "result": [
      {
        "electoralDistricts": [
          {
            "election": null,
            "id": 91,
            "name": "Sarnia—Lambton"
          }
        ],
        "pollDivisionIds": [
          10141413
        ],
        "postalCode": "N7T3B1",
        "streetName": "STUART",
        "streetDirectionId": null,
        "streetTypeId": "ST",
        "placeName": "SARNIA",
        "streetNameDisplayText": "STUART ST, SARNIA"
      }
    ]
  },
  {
    "postal": "N7T8B5",
    "result": []
  },
  {
    "postal": "N7T0K1",
    "result": []
  },
  {
    "postal": "N7T7M7",
    "result": []
  },
  {
    "postal": "N7T2M2",
    "result": []
  },
  {
    "postal": "N7T9N3",
    "result": []
  },
  {
    "postal": "N7T4Y8",
    "result": [
      {
        "electoralDistricts": [
          {
            "election": null,
            "id": 91,
            "name": "Sarnia—Lambton"
          }
        ],
        "pollDivisionIds": [
          10141401
        ],
        "postalCode": "N7T4Y8",
        "streetName": "LINCOLN PARK",
        "streetDirectionId": null,
        "streetTypeId": "AVE",
        "placeName": "SARNIA",
        "streetNameDisplayText": "LINCOLN PARK AVE, SARNIA"
      }
    ]
  },
  {
    "postal": "N7T3V7",
    "result": [
      {
        "electoralDistricts": [
          {
            "election": null,
            "id": 91,
            "name": "Sarnia—Lambton"
          }
        ],
        "pollDivisionIds": [
          10141409
        ],
        "postalCode": "N7T3V7",
        "streetName": "WALNUT",
        "streetDirectionId": "S",
        "streetTypeId": "AVE",
        "placeName": "SARNIA",
        "streetNameDisplayText": "WALNUT AVE S, SARNIA"
      }
    ]
  },
  {
    "postal": "N7T8Z1",
    "result": []
  },
  {
    "postal": "N7T7B3",
    "result": [
      {
        "electoralDistricts": [
          {
            "election": null,
            "id": 91,
            "name": "Sarnia—Lambton"
          }
        ],
        "pollDivisionIds": [
          10141401
        ],
        "postalCode": "N7T7B3",
        "streetName": "COPLAND",
        "streetDirectionId": null,
        "streetTypeId": "RD",
        "placeName": "SARNIA",
        "streetNameDisplayText": "COPLAND RD, SARNIA"
      }
    ]
  },
  {
    "postal": "N7T3A8",
    "result": [
      {
        "electoralDistricts": [
          {
            "election": null,
            "id": 91,
            "name": "Sarnia—Lambton"
          }
        ],
        "pollDivisionIds": [
          10141413
        ],
        "postalCode": "N7T3A8",
        "streetName": "FORSYTH",
        "streetDirectionId": "S",
        "streetTypeId": "ST",
        "placeName": "SARNIA",
        "streetNameDisplayText": "FORSYTH ST S, SARNIA"
      }
    ]
  },
  {
    "postal": "N7T7V5",
    "result": [
      {
        "electoralDistricts": [
          {
            "election": null,
            "id": 91,
            "name": "Sarnia—Lambton"
          }
        ],
        "pollDivisionIds": [
          10141434
        ],
        "postalCode": "N7T7V5",
        "streetName": "FRONT",
        "streetDirectionId": "N",
        "streetTypeId": "ST",
        "placeName": "SARNIA",
        "streetNameDisplayText": "FRONT ST N, SARNIA"
      }
    ]
  },
  {
    "postal": "N7T2T2",
    "result": [
      {
        "electoralDistricts": [
          {
            "election": null,
            "id": 91,
            "name": "Sarnia—Lambton"
          }
        ],
        "pollDivisionIds": [
          10141413
        ],
        "postalCode": "N7T2T2",
        "streetName": "VIDAL",
        "streetDirectionId": "S",
        "streetTypeId": "ST",
        "placeName": "SARNIA",
        "streetNameDisplayText": "VIDAL ST S, SARNIA"
      }
    ]
  },
  {
    "postal": "N7T6L3",
    "result": [
      {
        "electoralDistricts": [
          {
            "election": null,
            "id": 91,
            "name": "Sarnia—Lambton"
          }
        ],
        "pollDivisionIds": [
          10141408
        ],
        "postalCode": "N7T6L3",
        "streetName": "MACKENZIE",
        "streetDirectionId": "N",
        "streetTypeId": "ST",
        "placeName": "SARNIA",
        "streetNameDisplayText": "MACKENZIE ST N, SARNIA"
      }
    ]
  },
  {
    "postal": "N7T0L2",
    "result": []
  },
  {
    "postal": "N7T5Y8",
    "result": [
      {
        "electoralDistricts": [
          {
            "election": null,
            "id": 91,
            "name": "Sarnia—Lambton"
          }
        ],
        "pollDivisionIds": [
          10141407
        ],
        "postalCode": "N7T5Y8",
        "streetName": "BROCK",
        "streetDirectionId": "N",
        "streetTypeId": "ST",
        "placeName": "SARNIA",
        "streetNameDisplayText": "BROCK ST N, SARNIA"
      }
    ]
  },
  {
    "postal": "N7T0B8",
    "result": []
  },
  {
    "postal": "N7T6R5",
    "result": [
      {
        "electoralDistricts": [
          {
            "election": null,
            "id": 91,
            "name": "Sarnia—Lambton"
          }
        ],
        "pollDivisionIds": [
          10141408
        ],
        "postalCode": "N7T6R5",
        "streetName": "RUSSELL",
        "streetDirectionId": "N",
        "streetTypeId": "ST",
        "placeName": "SARNIA",
        "streetNameDisplayText": "RUSSELL ST N, SARNIA"
      }
    ]
  },
  {
    "postal": "N7T8W6",
    "result": []
  },
  {
    "postal": "N7T8G6",
    "result": []
  },
  {
    "postal": "N7T6X3",
    "result": [
      {
        "electoralDistricts": [
          {
            "election": null,
            "id": 91,
            "name": "Sarnia—Lambton"
          }
        ],
        "pollDivisionIds": [
          10141414
        ],
        "postalCode": "N7T6X3",
        "streetName": "EAST",
        "streetDirectionId": "N",
        "streetTypeId": "ST",
        "placeName": "SARNIA",
        "streetNameDisplayText": "EAST ST N, SARNIA"
      }
    ]
  },
  {
    "postal": "N7T7R7",
    "result": [
      {
        "electoralDistricts": [
          {
            "election": null,
            "id": 91,
            "name": "Sarnia—Lambton"
          }
        ],
        "pollDivisionIds": [
          10141409
        ],
        "postalCode": "N7T7R7",
        "streetName": "WESTBURY",
        "streetDirectionId": null,
        "streetTypeId": "CRT",
        "placeName": "SARNIA",
        "streetNameDisplayText": "WESTBURY CRT, SARNIA"
      }
    ]
  },
  {
    "postal": "N7T4B6",
    "result": [
      {
        "electoralDistricts": [
          {
            "election": null,
            "id": 91,
            "name": "Sarnia—Lambton"
          }
        ],
        "pollDivisionIds": [
          10141419,
          10141408
        ],
        "postalCode": "N7T4B6",
        "streetName": "CAMERON",
        "streetDirectionId": null,
        "streetTypeId": "ST",
        "placeName": "SARNIA",
        "streetNameDisplayText": "CAMERON ST, SARNIA"
      }
    ]
  },
  {
    "postal": "N7T3P9",
    "result": [
      {
        "electoralDistricts": [
          {
            "election": null,
            "id": 91,
            "name": "Sarnia—Lambton"
          }
        ],
        "pollDivisionIds": [
          10141414
        ],
        "postalCode": "N7T3P9",
        "streetName": "KIRBY",
        "streetDirectionId": null,
        "streetTypeId": "ST",
        "placeName": "SARNIA",
        "streetNameDisplayText": "KIRBY ST, SARNIA"
      }
    ]
  },
  {
    "postal": "N7T2T3",
    "result": [
      {
        "electoralDistricts": [
          {
            "election": null,
            "id": 91,
            "name": "Sarnia—Lambton"
          }
        ],
        "pollDivisionIds": [
          10141407
        ],
        "postalCode": "N7T2T3",
        "streetName": "VIDAL",
        "streetDirectionId": "S",
        "streetTypeId": "ST",
        "placeName": "SARNIA",
        "streetNameDisplayText": "VIDAL ST S, SARNIA"
      }
    ]
  },
  {
    "postal": "N7T1M4",
    "result": [
      {
        "electoralDistricts": [
          {
            "election": null,
            "id": 91,
            "name": "Sarnia—Lambton"
          }
        ],
        "pollDivisionIds": [
          10141414
        ],
        "postalCode": "N7T1M4",
        "streetName": "ONTARIO",
        "streetDirectionId": null,
        "streetTypeId": "ST",
        "placeName": "SARNIA",
        "streetNameDisplayText": "ONTARIO ST, SARNIA"
      }
    ]
  },
  {
    "postal": "N7T0H1",
    "result": []
  },
  {
    "postal": "N7T9W3",
    "result": []
  },
  {
    "postal": "N7T6P1",
    "result": [
      {
        "electoralDistricts": [
          {
            "election": null,
            "id": 91,
            "name": "Sarnia—Lambton"
          }
        ],
        "pollDivisionIds": [
          10141401
        ],
        "postalCode": "N7T6P1",
        "streetName": "GORDON",
        "streetDirectionId": null,
        "streetTypeId": "ST",
        "placeName": "SARNIA",
        "streetNameDisplayText": "GORDON ST, SARNIA"
      }
    ]
  },
  {
    "postal": "N7T7G2",
    "result": [
      {
        "electoralDistricts": [
          {
            "election": null,
            "id": 91,
            "name": "Sarnia—Lambton"
          }
        ],
        "pollDivisionIds": [
          10141410
        ],
        "postalCode": "N7T7G2",
        "streetName": "INDIAN",
        "streetDirectionId": "N",
        "streetTypeId": "RD",
        "placeName": "SARNIA",
        "streetNameDisplayText": "INDIAN RD N, SARNIA"
      }
    ]
  },
  {
    "postal": "N7T4J9",
    "result": [
      {
        "electoralDistricts": [
          {
            "election": null,
            "id": 91,
            "name": "Sarnia—Lambton"
          }
        ],
        "pollDivisionIds": [
          10141409
        ],
        "postalCode": "N7T4J9",
        "streetName": "PINE",
        "streetDirectionId": null,
        "streetTypeId": "AVE",
        "placeName": "SARNIA",
        "streetNameDisplayText": "PINE AVE, SARNIA"
      }
    ]
  },
  {
    "postal": "N7T9E4",
    "result": []
  },
  {
    "postal": "N7T8H0",
    "result": []
  },
  {
    "postal": "N7T4M7",
    "result": [
      {
        "electoralDistricts": [
          {
            "election": null,
            "id": 91,
            "name": "Sarnia—Lambton"
          }
        ],
        "pollDivisionIds": [
          10141409
        ],
        "postalCode": "N7T4M7",
        "streetName": "OAK",
        "streetDirectionId": null,
        "streetTypeId": "AVE",
        "placeName": "SARNIA",
        "streetNameDisplayText": "OAK AVE, SARNIA"
      }
    ]
  },
  {
    "postal": "N7T2G9",
    "result": [
      {
        "electoralDistricts": [
          {
            "election": null,
            "id": 91,
            "name": "Sarnia—Lambton"
          }
        ],
        "pollDivisionIds": [
          10141413
        ],
        "postalCode": "N7T2G9",
        "streetName": "CAMPBELL",
        "streetDirectionId": null,
        "streetTypeId": "ST",
        "placeName": "SARNIA",
        "streetNameDisplayText": "CAMPBELL ST, SARNIA"
      }
    ]
  },
  {
    "postal": "N7T8T2",
    "result": []
  },
  {
    "postal": "N7T7G7",
    "result": [
      {
        "electoralDistricts": [
          {
            "election": null,
            "id": 91,
            "name": "Sarnia—Lambton"
          }
        ],
        "pollDivisionIds": [
          10141409
        ],
        "postalCode": "N7T7G7",
        "streetName": "INDIAN",
        "streetDirectionId": "N",
        "streetTypeId": "RD",
        "placeName": "SARNIA",
        "streetNameDisplayText": "INDIAN RD N, SARNIA"
      }
    ]
  },
  {
    "postal": "N7T4Z3",
    "result": [
      {
        "electoralDistricts": [
          {
            "election": null,
            "id": 91,
            "name": "Sarnia—Lambton"
          }
        ],
        "pollDivisionIds": [
          10141402
        ],
        "postalCode": "N7T4Z3",
        "streetName": "LINCOLN PARK",
        "streetDirectionId": null,
        "streetTypeId": "AVE",
        "placeName": "SARNIA",
        "streetNameDisplayText": "LINCOLN PARK AVE, SARNIA"
      }
    ]
  },
  {
    "postal": "N7T5B3",
    "result": [
      {
        "electoralDistricts": [
          {
            "election": null,
            "id": 91,
            "name": "Sarnia—Lambton"
          }
        ],
        "pollDivisionIds": [
          10141397
        ],
        "postalCode": "N7T5B3",
        "streetName": "ELGIN",
        "streetDirectionId": null,
        "streetTypeId": "ST",
        "placeName": "SARNIA",
        "streetNameDisplayText": "ELGIN ST, SARNIA"
      }
    ]
  },
  {
    "postal": "N7T1S7",
    "result": [
      {
        "electoralDistricts": [
          {
            "election": null,
            "id": 91,
            "name": "Sarnia—Lambton"
          }
        ],
        "pollDivisionIds": [
          10141413
        ],
        "postalCode": "N7T1S7",
        "streetName": "RICHARD",
        "streetDirectionId": null,
        "streetTypeId": "ST",
        "placeName": "SARNIA",
        "streetNameDisplayText": "RICHARD ST, SARNIA"
      }
    ]
  },
  {
    "postal": "N7T2N7",
    "result": [
      {
        "electoralDistricts": [
          {
            "election": null,
            "id": 91,
            "name": "Sarnia—Lambton"
          }
        ],
        "pollDivisionIds": [
          10141413
        ],
        "postalCode": "N7T2N7",
        "streetName": "CHRISTINA",
        "streetDirectionId": "S",
        "streetTypeId": "ST",
        "placeName": "SARNIA",
        "streetNameDisplayText": "CHRISTINA ST S, SARNIA"
      }
    ]
  },
  {
    "postal": "N7T0H8",
    "result": []
  },
  {
    "postal": "N7T7Z4",
    "result": []
  },
  {
    "postal": "N7T7B1",
    "result": [
      {
        "electoralDistricts": [
          {
            "election": null,
            "id": 91,
            "name": "Sarnia—Lambton"
          }
        ],
        "pollDivisionIds": [
          10141402
        ],
        "postalCode": "N7T7B1",
        "streetName": "COPLAND",
        "streetDirectionId": null,
        "streetTypeId": "RD",
        "placeName": "SARNIA",
        "streetNameDisplayText": "COPLAND RD, SARNIA"
      }
    ]
  },
  {
    "postal": "N7T7P8",
    "result": [
      {
        "electoralDistricts": [
          {
            "election": null,
            "id": 91,
            "name": "Sarnia—Lambton"
          }
        ],
        "pollDivisionIds": [
          10141409
        ],
        "postalCode": "N7T7P8",
        "streetName": "CANTERBURY",
        "streetDirectionId": null,
        "streetTypeId": "CRT",
        "placeName": "SARNIA",
        "streetNameDisplayText": "CANTERBURY CRT, SARNIA"
      }
    ]
  },
  {
    "postal": "N7T7N0",
    "result": []
  },
  {
    "postal": "N7T3Y5",
    "result": [
      {
        "electoralDistricts": [
          {
            "election": null,
            "id": 91,
            "name": "Sarnia—Lambton"
          }
        ],
        "pollDivisionIds": [
          10141407
        ],
        "postalCode": "N7T3Y5",
        "streetName": "CROMWELL",
        "streetDirectionId": null,
        "streetTypeId": "ST",
        "placeName": "SARNIA",
        "streetNameDisplayText": "CROMWELL ST, SARNIA"
      }
    ]
  },
  {
    "postal": "N7T6K1",
    "result": [
      {
        "electoralDistricts": [
          {
            "election": null,
            "id": 91,
            "name": "Sarnia—Lambton"
          }
        ],
        "pollDivisionIds": [
          10141390
        ],
        "postalCode": "N7T6K1",
        "streetName": "ST VINCENT",
        "streetDirectionId": null,
        "streetTypeId": "ST",
        "placeName": "SARNIA",
        "streetNameDisplayText": "ST VINCENT ST, SARNIA"
      },
      {
        "electoralDistricts": [
          {
            "election": null,
            "id": 91,
            "name": "Sarnia—Lambton"
          }
        ],
        "pollDivisionIds": [
          10141397
        ],
        "postalCode": "N7T6K1",
        "streetName": "ST. VINCENT",
        "streetDirectionId": null,
        "streetTypeId": "ST",
        "placeName": "SARNIA",
        "streetNameDisplayText": "ST. VINCENT ST, SARNIA"
      }
    ]
  },
  {
    "postal": "N7T9X5",
    "result": []
  },
  {
    "postal": "N7T7S5",
    "result": [
      {
        "electoralDistricts": [
          {
            "election": null,
            "id": 91,
            "name": "Sarnia—Lambton"
          }
        ],
        "pollDivisionIds": [
          10141401
        ],
        "postalCode": "N7T7S5",
        "streetName": "EXMOUTH",
        "streetDirectionId": null,
        "streetTypeId": "ST",
        "placeName": "SARNIA",
        "streetNameDisplayText": "EXMOUTH ST, SARNIA"
      }
    ]
  },
  {
    "postal": "N7T0A4",
    "result": [
      {
        "electoralDistricts": [
          {
            "election": null,
            "id": 91,
            "name": "Sarnia—Lambton"
          }
        ],
        "pollDivisionIds": [
          10141397
        ],
        "postalCode": "N7T0A4",
        "streetName": "VENETIAN",
        "streetDirectionId": null,
        "streetTypeId": "BLVD",
        "placeName": "POINT EDWARD",
        "streetNameDisplayText": "VENETIAN BLVD, POINT EDWARD"
      }
    ]
  },
  {
    "postal": "N7T4T5",
    "result": [
      {
        "electoralDistricts": [
          {
            "election": null,
            "id": 91,
            "name": "Sarnia—Lambton"
          }
        ],
        "pollDivisionIds": [
          10141408
        ],
        "postalCode": "N7T4T5",
        "streetName": "MARIA",
        "streetDirectionId": null,
        "streetTypeId": "ST",
        "placeName": "SARNIA",
        "streetNameDisplayText": "MARIA ST, SARNIA"
      }
    ]
  },
  {
    "postal": "N7T5K1",
    "result": [
      {
        "electoralDistricts": [
          {
            "election": null,
            "id": 91,
            "name": "Sarnia—Lambton"
          }
        ],
        "pollDivisionIds": [
          10141401
        ],
        "postalCode": "N7T5K1",
        "streetName": "NELSON",
        "streetDirectionId": null,
        "streetTypeId": "ST",
        "placeName": "SARNIA",
        "streetNameDisplayText": "NELSON ST, SARNIA"
      }
    ]
  },
  {
    "postal": "N7T0Z9",
    "result": []
  },
  {
    "postal": "N7T7T2",
    "result": []
  },
  {
    "postal": "N7T1L5",
    "result": [
      {
        "electoralDistricts": [
          {
            "election": null,
            "id": 91,
            "name": "Sarnia—Lambton"
          }
        ],
        "pollDivisionIds": [
          10141414
        ],
        "postalCode": "N7T1L5",
        "streetName": "ONTARIO",
        "streetDirectionId": null,
        "streetTypeId": "ST",
        "placeName": "SARNIA",
        "streetNameDisplayText": "ONTARIO ST, SARNIA"
      }
    ]
  },
  {
    "postal": "N7T3N5",
    "result": [
      {
        "electoralDistricts": [
          {
            "election": null,
            "id": 91,
            "name": "Sarnia—Lambton"
          }
        ],
        "pollDivisionIds": [
          10141413
        ],
        "postalCode": "N7T3N5",
        "streetName": "MARTIN",
        "streetDirectionId": null,
        "streetTypeId": "ST",
        "placeName": "SARNIA",
        "streetNameDisplayText": "MARTIN ST, SARNIA"
      }
    ]
  },
  {
    "postal": "N7T6H4",
    "result": [
      {
        "electoralDistricts": [
          {
            "election": null,
            "id": 91,
            "name": "Sarnia—Lambton"
          }
        ],
        "pollDivisionIds": [
          10141408
        ],
        "postalCode": "N7T6H4",
        "streetName": "MITTON",
        "streetDirectionId": "N",
        "streetTypeId": "ST",
        "placeName": "SARNIA",
        "streetNameDisplayText": "MITTON ST N, SARNIA"
      }
    ]
  },
  {
    "postal": "N7T5A5",
    "result": [
      {
        "electoralDistricts": [
          {
            "election": null,
            "id": 91,
            "name": "Sarnia—Lambton"
          }
        ],
        "pollDivisionIds": [
          10141397
        ],
        "postalCode": "N7T5A5",
        "streetName": "DURAND",
        "streetDirectionId": null,
        "streetTypeId": "ST",
        "placeName": "SARNIA",
        "streetNameDisplayText": "DURAND ST, SARNIA"
      }
    ]
  },
  {
    "postal": "N7T3R9",
    "result": [
      {
        "electoralDistricts": [
          {
            "election": null,
            "id": 91,
            "name": "Sarnia—Lambton"
          }
        ],
        "pollDivisionIds": [
          10141414
        ],
        "postalCode": "N7T3R9",
        "streetName": "EAST",
        "streetDirectionId": "S",
        "streetTypeId": "ST",
        "placeName": "SARNIA",
        "streetNameDisplayText": "EAST ST S, SARNIA"
      }
    ]
  },
  {
    "postal": "N7T7L8",
    "result": []
  },
  {
    "postal": "N7T6T6",
    "result": [
      {
        "electoralDistricts": [
          {
            "election": null,
            "id": 91,
            "name": "Sarnia—Lambton"
          }
        ],
        "pollDivisionIds": [
          10141401
        ],
        "postalCode": "N7T6T6",
        "streetName": "CAPEL",
        "streetDirectionId": null,
        "streetTypeId": "ST",
        "placeName": "SARNIA",
        "streetNameDisplayText": "CAPEL ST, SARNIA"
      }
    ]
  },
  {
    "postal": "N7T7Y7",
    "result": [
      {
        "electoralDistricts": [
          {
            "election": null,
            "id": 91,
            "name": "Sarnia—Lambton"
          }
        ],
        "pollDivisionIds": [
          10141417
        ],
        "postalCode": "N7T7Y7",
        "streetName": "WAYNE",
        "streetDirectionId": null,
        "streetTypeId": "AVE",
        "placeName": "SARNIA",
        "streetNameDisplayText": "WAYNE AVE, SARNIA"
      }
    ]
  },
  {
    "postal": "N7T3M8",
    "result": [
      {
        "electoralDistricts": [
          {
            "election": null,
            "id": 91,
            "name": "Sarnia—Lambton"
          }
        ],
        "pollDivisionIds": [
          10141413
        ],
        "postalCode": "N7T3M8",
        "streetName": "RUSSELL",
        "streetDirectionId": "S",
        "streetTypeId": "ST",
        "placeName": "SARNIA",
        "streetNameDisplayText": "RUSSELL ST S, SARNIA"
      }
    ]
  },
  {
    "postal": "N7T2E0",
    "result": []
  },
  {
    "postal": "N7T4B5",
    "result": [
      {
        "electoralDistricts": [
          {
            "election": null,
            "id": 91,
            "name": "Sarnia—Lambton"
          }
        ],
        "pollDivisionIds": [
          10141408
        ],
        "postalCode": "N7T4B5",
        "streetName": "CAMERON",
        "streetDirectionId": null,
        "streetTypeId": "ST",
        "placeName": "SARNIA",
        "streetNameDisplayText": "CAMERON ST, SARNIA"
      }
    ]
  },
  {
    "postal": "N7T1J3",
    "result": [
      {
        "electoralDistricts": [
          {
            "election": null,
            "id": 91,
            "name": "Sarnia—Lambton"
          }
        ],
        "pollDivisionIds": [
          10141409
        ],
        "postalCode": "N7T1J3",
        "streetName": "WELLINGTON",
        "streetDirectionId": null,
        "streetTypeId": "ST",
        "placeName": "SARNIA",
        "streetNameDisplayText": "WELLINGTON ST, SARNIA"
      }
    ]
  },
  {
    "postal": "N7T5S6",
    "result": [
      {
        "electoralDistricts": [
          {
            "election": null,
            "id": 91,
            "name": "Sarnia—Lambton"
          }
        ],
        "pollDivisionIds": [
          10141407
        ],
        "postalCode": "N7T5S6",
        "streetName": "FRONT",
        "streetDirectionId": "N",
        "streetTypeId": "ST",
        "placeName": "SARNIA",
        "streetNameDisplayText": "FRONT ST N, SARNIA"
      }
    ]
  },
  {
    "postal": "N7T8P7",
    "result": []
  },
  {
    "postal": "N7T7S7",
    "result": [
      {
        "electoralDistricts": [
          {
            "election": null,
            "id": 91,
            "name": "Sarnia—Lambton"
          }
        ],
        "pollDivisionIds": [
          10141397
        ],
        "postalCode": "N7T7S7",
        "streetName": "NELSON",
        "streetDirectionId": null,
        "streetTypeId": "ST",
        "placeName": "SARNIA",
        "streetNameDisplayText": "NELSON ST, SARNIA"
      }
    ]
  },
  {
    "postal": "N7T4C2",
    "result": []
  },
  {
    "postal": "N7T5Y0",
    "result": []
  },
  {
    "postal": "N7T2V7",
    "result": [
      {
        "electoralDistricts": [
          {
            "election": null,
            "id": 91,
            "name": "Sarnia—Lambton"
          }
        ],
        "pollDivisionIds": [
          10141413
        ],
        "postalCode": "N7T2V7",
        "streetName": "VIDAL",
        "streetDirectionId": "S",
        "streetTypeId": "ST",
        "placeName": "SARNIA",
        "streetNameDisplayText": "VIDAL ST S, SARNIA"
      }
    ]
  },
  {
    "postal": "N7T8P5",
    "result": []
  },
  {
    "postal": "N7T5P5",
    "result": [
      {
        "electoralDistricts": [
          {
            "election": null,
            "id": 91,
            "name": "Sarnia—Lambton"
          }
        ],
        "pollDivisionIds": [
          10141401
        ],
        "postalCode": "N7T5P5",
        "streetName": "EXMOUTH",
        "streetDirectionId": null,
        "streetTypeId": "ST",
        "placeName": "SARNIA",
        "streetNameDisplayText": "EXMOUTH ST, SARNIA"
      }
    ]
  },
  {
    "postal": "N7T5Z0",
    "result": []
  },
  {
    "postal": "N7T9B0",
    "result": []
  },
  {
    "postal": "N7T1L0",
    "result": []
  },
  {
    "postal": "N7T0B5",
    "result": []
  },
  {
    "postal": "N7T3L2",
    "result": [
      {
        "electoralDistricts": [
          {
            "election": null,
            "id": 91,
            "name": "Sarnia—Lambton"
          }
        ],
        "pollDivisionIds": [
          10141408
        ],
        "postalCode": "N7T3L2",
        "streetName": "RUSSELL",
        "streetDirectionId": "S",
        "streetTypeId": "ST",
        "placeName": "SARNIA",
        "streetNameDisplayText": "RUSSELL ST S, SARNIA"
      }
    ]
  },
  {
    "postal": "N7T3B7",
    "result": [
      {
        "electoralDistricts": [
          {
            "election": null,
            "id": 91,
            "name": "Sarnia—Lambton"
          }
        ],
        "pollDivisionIds": [
          10141414
        ],
        "postalCode": "N7T3B7",
        "streetName": "STUART",
        "streetDirectionId": null,
        "streetTypeId": "ST",
        "placeName": "SARNIA",
        "streetNameDisplayText": "STUART ST, SARNIA"
      }
    ]
  },
  {
    "postal": "N7T8L1",
    "result": []
  },
  {
    "postal": "N7T5M4",
    "result": [
      {
        "electoralDistricts": [
          {
            "election": null,
            "id": 91,
            "name": "Sarnia—Lambton"
          }
        ],
        "pollDivisionIds": [
          10141397
        ],
        "postalCode": "N7T5M4",
        "streetName": "EXMOUTH",
        "streetDirectionId": null,
        "streetTypeId": "ST",
        "placeName": "SARNIA",
        "streetNameDisplayText": "EXMOUTH ST, SARNIA"
      }
    ]
  },
  {
    "postal": "N7T4G9",
    "result": [
      {
        "electoralDistricts": [
          {
            "election": null,
            "id": 91,
            "name": "Sarnia—Lambton"
          }
        ],
        "pollDivisionIds": [
          10141409
        ],
        "postalCode": "N7T4G9",
        "streetName": "ELM",
        "streetDirectionId": null,
        "streetTypeId": "AVE",
        "placeName": "SARNIA",
        "streetNameDisplayText": "ELM AVE, SARNIA"
      }
    ]
  },
  {
    "postal": "N7T0P0",
    "result": []
  },
  {
    "postal": "N7T8G2",
    "result": []
  },
  {
    "postal": "N7T1V9",
    "result": [
      {
        "electoralDistricts": [
          {
            "election": null,
            "id": 91,
            "name": "Sarnia—Lambton"
          }
        ],
        "pollDivisionIds": [
          10141414
        ],
        "postalCode": "N7T1V9",
        "streetName": "DEVINE",
        "streetDirectionId": null,
        "streetTypeId": "ST",
        "placeName": "SARNIA",
        "streetNameDisplayText": "DEVINE ST, SARNIA"
      }
    ]
  },
  {
    "postal": "N7T8N8",
    "result": []
  },
  {
    "postal": "N7T6S8",
    "result": [
      {
        "electoralDistricts": [
          {
            "election": null,
            "id": 91,
            "name": "Sarnia—Lambton"
          }
        ],
        "pollDivisionIds": [
          10141397
        ],
        "postalCode": "N7T6S8",
        "streetName": "RUSSELL",
        "streetDirectionId": "N",
        "streetTypeId": "ST",
        "placeName": "SARNIA",
        "streetNameDisplayText": "RUSSELL ST N, SARNIA"
      }
    ]
  },
  {
    "postal": "N7T8H2",
    "result": [
      {
        "electoralDistricts": [
          {
            "election": null,
            "id": 91,
            "name": "Sarnia—Lambton"
          }
        ],
        "pollDivisionIds": [
          10141407
        ],
        "postalCode": "N7T8H2",
        "streetName": "CHRISTINA",
        "streetDirectionId": "N",
        "streetTypeId": "ST",
        "placeName": "SARNIA",
        "streetNameDisplayText": "CHRISTINA ST N, SARNIA"
      }
    ]
  },
  {
    "postal": "N7T5R8",
    "result": [
      {
        "electoralDistricts": [
          {
            "election": null,
            "id": 91,
            "name": "Sarnia—Lambton"
          }
        ],
        "pollDivisionIds": [
          10141397
        ],
        "postalCode": "N7T5R8",
        "streetName": "HARBOUR",
        "streetDirectionId": null,
        "streetTypeId": "RD",
        "placeName": "SARNIA",
        "streetNameDisplayText": "HARBOUR RD, SARNIA"
      }
    ]
  },
  {
    "postal": "N7T5L4",
    "result": [
      {
        "electoralDistricts": [
          {
            "election": null,
            "id": 91,
            "name": "Sarnia—Lambton"
          }
        ],
        "pollDivisionIds": [
          10141401
        ],
        "postalCode": "N7T5L4",
        "streetName": "FELIX",
        "streetDirectionId": null,
        "streetTypeId": "ST",
        "placeName": "SARNIA",
        "streetNameDisplayText": "FELIX ST, SARNIA"
      }
    ]
  },
  {
    "postal": "N7T9E1",
    "result": []
  },
  {
    "postal": "N7T1C4",
    "result": [
      {
        "electoralDistricts": [
          {
            "election": null,
            "id": 91,
            "name": "Sarnia—Lambton"
          }
        ],
        "pollDivisionIds": [
          10141414
        ],
        "postalCode": "N7T1C4",
        "streetName": "DAVIS",
        "streetDirectionId": null,
        "streetTypeId": "ST",
        "placeName": "SARNIA",
        "streetNameDisplayText": "DAVIS ST, SARNIA"
      }
    ]
  },
  {
    "postal": "N7T8W5",
    "result": []
  },
  {
    "postal": "N7T1Y4",
    "result": [
      {
        "electoralDistricts": [
          {
            "election": null,
            "id": 91,
            "name": "Sarnia—Lambton"
          }
        ],
        "pollDivisionIds": [
          10141414
        ],
        "postalCode": "N7T1Y4",
        "streetName": "EDDINGS",
        "streetDirectionId": null,
        "streetTypeId": "ST",
        "placeName": "SARNIA",
        "streetNameDisplayText": "EDDINGS ST, SARNIA"
      }
    ]
  },
  {
    "postal": "N7T1C0",
    "result": []
  },
  {
    "postal": "N7T2J2",
    "result": [
      {
        "electoralDistricts": [
          {
            "election": null,
            "id": 91,
            "name": "Sarnia—Lambton"
          }
        ],
        "pollDivisionIds": [
          10141414
        ],
        "postalCode": "N7T2J2",
        "streetName": "CAMPBELL",
        "streetDirectionId": null,
        "streetTypeId": "ST",
        "placeName": "SARNIA",
        "streetNameDisplayText": "CAMPBELL ST, SARNIA"
      }
    ]
  },
  {
    "postal": "N7T2J0",
    "result": []
  },
  {
    "postal": "N7T7A3",
    "result": [
      {
        "electoralDistricts": [
          {
            "election": null,
            "id": 91,
            "name": "Sarnia—Lambton"
          }
        ],
        "pollDivisionIds": [
          10141401
        ],
        "postalCode": "N7T7A3",
        "streetName": "LYNWOOD",
        "streetDirectionId": null,
        "streetTypeId": "AVE",
        "placeName": "SARNIA",
        "streetNameDisplayText": "LYNWOOD AVE, SARNIA"
      }
    ]
  },
  {
    "postal": "N7T8M1",
    "result": []
  },
  {
    "postal": "N7T7T9",
    "result": [
      {
        "electoralDistricts": [
          {
            "election": null,
            "id": 91,
            "name": "Sarnia—Lambton"
          }
        ],
        "pollDivisionIds": [
          10141407
        ],
        "postalCode": "N7T7T9",
        "streetName": "FRONT",
        "streetDirectionId": "N",
        "streetTypeId": "ST",
        "placeName": "SARNIA",
        "streetNameDisplayText": "FRONT ST N, SARNIA"
      }
    ]
  },
  {
    "postal": "N7T6C0",
    "result": []
  },
  {
    "postal": "N7T7X1",
    "result": [
      {
        "electoralDistricts": [
          {
            "election": null,
            "id": 91,
            "name": "Sarnia—Lambton"
          }
        ],
        "pollDivisionIds": [
          10141407
        ],
        "postalCode": "N7T7X1",
        "streetName": "FRONT",
        "streetDirectionId": "N",
        "streetTypeId": "ST",
        "placeName": "SARNIA",
        "streetNameDisplayText": "FRONT ST N, SARNIA"
      }
    ]
  },
  {
    "postal": "N7T0G1",
    "result": []
  },
  {
    "postal": "N7T4X2",
    "result": [
      {
        "electoralDistricts": [
          {
            "election": null,
            "id": 91,
            "name": "Sarnia—Lambton"
          }
        ],
        "pollDivisionIds": [
          10141401
        ],
        "postalCode": "N7T4X2",
        "streetName": "LONDON",
        "streetDirectionId": null,
        "streetTypeId": "RD",
        "placeName": "SARNIA",
        "streetNameDisplayText": "LONDON RD, SARNIA"
      }
    ]
  },
  {
    "postal": "N7T0N6",
    "result": []
  },
  {
    "postal": "N7T8E3",
    "result": []
  },
  {
    "postal": "N7T5S8",
    "result": []
  },
  {
    "postal": "N7T0R0",
    "result": []
  },
  {
    "postal": "N7T6J6",
    "result": [
      {
        "electoralDistricts": [
          {
            "election": null,
            "id": 91,
            "name": "Sarnia—Lambton"
          }
        ],
        "pollDivisionIds": [
          10141397
        ],
        "postalCode": "N7T6J6",
        "streetName": "MITTON",
        "streetDirectionId": "N",
        "streetTypeId": "ST",
        "placeName": "SARNIA",
        "streetNameDisplayText": "MITTON ST N, SARNIA"
      }
    ]
  },
  {
    "postal": "N7T4B4",
    "result": [
      {
        "electoralDistricts": [
          {
            "election": null,
            "id": 91,
            "name": "Sarnia—Lambton"
          }
        ],
        "pollDivisionIds": [
          10141408
        ],
        "postalCode": "N7T4B4",
        "streetName": "CAMERON",
        "streetDirectionId": null,
        "streetTypeId": "ST",
        "placeName": "SARNIA",
        "streetNameDisplayText": "CAMERON ST, SARNIA"
      }
    ]
  },
  {
    "postal": "N7T7E3",
    "result": [
      {
        "electoralDistricts": [
          {
            "election": null,
            "id": 91,
            "name": "Sarnia—Lambton"
          }
        ],
        "pollDivisionIds": [
          10141402
        ],
        "postalCode": "N7T7E3",
        "streetName": "SOUTHERN",
        "streetDirectionId": null,
        "streetTypeId": "AVE",
        "placeName": "SARNIA",
        "streetNameDisplayText": "SOUTHERN AVE, SARNIA"
      }
    ]
  },
  {
    "postal": "N7T3N6",
    "result": [
      {
        "electoralDistricts": [
          {
            "election": null,
            "id": 91,
            "name": "Sarnia—Lambton"
          }
        ],
        "pollDivisionIds": [
          10141413
        ],
        "postalCode": "N7T3N6",
        "streetName": "MARTIN",
        "streetDirectionId": null,
        "streetTypeId": "ST",
        "placeName": "SARNIA",
        "streetNameDisplayText": "MARTIN ST, SARNIA"
      }
    ]
  },
  {
    "postal": "N7T3X6",
    "result": []
  },
  {
    "postal": "N7T8L0",
    "result": []
  },
  {
    "postal": "N7T8N1",
    "result": []
  },
  {
    "postal": "N7T4J0",
    "result": []
  },
  {
    "postal": "N7T0X7",
    "result": []
  },
  {
    "postal": "N7T6S4",
    "result": [
      {
        "electoralDistricts": [
          {
            "election": null,
            "id": 91,
            "name": "Sarnia—Lambton"
          }
        ],
        "pollDivisionIds": [
          10141401
        ],
        "postalCode": "N7T6S4",
        "streetName": "RUSSELL",
        "streetDirectionId": "N",
        "streetTypeId": "ST",
        "placeName": "SARNIA",
        "streetNameDisplayText": "RUSSELL ST N, SARNIA"
      }
    ]
  },
  {
    "postal": "N7T0Z0",
    "result": []
  },
  {
    "postal": "N7T9X8",
    "result": []
  },
  {
    "postal": "N7T3H3",
    "result": [
      {
        "electoralDistricts": [
          {
            "election": null,
            "id": 91,
            "name": "Sarnia—Lambton"
          }
        ],
        "pollDivisionIds": [
          10141414
        ],
        "postalCode": "N7T3H3",
        "streetName": "HARKNESS",
        "streetDirectionId": null,
        "streetTypeId": "ST",
        "placeName": "SARNIA",
        "streetNameDisplayText": "HARKNESS ST, SARNIA"
      }
    ]
  },
  {
    "postal": "N7T7S2",
    "result": []
  },
  {
    "postal": "N7T3T3",
    "result": [
      {
        "electoralDistricts": [
          {
            "election": null,
            "id": 91,
            "name": "Sarnia—Lambton"
          }
        ],
        "pollDivisionIds": [
          10141414
        ],
        "postalCode": "N7T3T3",
        "streetName": "WHITMORE",
        "streetDirectionId": null,
        "streetTypeId": "AVE",
        "placeName": "SARNIA",
        "streetNameDisplayText": "WHITMORE AVE, SARNIA"
      }
    ]
  },
  {
    "postal": "N7T9P3",
    "result": []
  },
  {
    "postal": "N7T4H8",
    "result": [
      {
        "electoralDistricts": [
          {
            "election": null,
            "id": 91,
            "name": "Sarnia—Lambton"
          }
        ],
        "pollDivisionIds": [
          10141409
        ],
        "postalCode": "N7T4H8",
        "streetName": "CHERRY",
        "streetDirectionId": null,
        "streetTypeId": "DR",
        "placeName": "SARNIA",
        "streetNameDisplayText": "CHERRY DR, SARNIA"
      }
    ]
  },
  {
    "postal": "N7T6R1",
    "result": [
      {
        "electoralDistricts": [
          {
            "election": null,
            "id": 91,
            "name": "Sarnia—Lambton"
          }
        ],
        "pollDivisionIds": [
          10141408
        ],
        "postalCode": "N7T6R1",
        "streetName": "RUSSELL",
        "streetDirectionId": "N",
        "streetTypeId": "ST",
        "placeName": "SARNIA",
        "streetNameDisplayText": "RUSSELL ST N, SARNIA"
      }
    ]
  },
  {
    "postal": "N7T1S0",
    "result": []
  },
  {
    "postal": "N7T3W8",
    "result": [
      {
        "electoralDistricts": [
          {
            "election": null,
            "id": 91,
            "name": "Sarnia—Lambton"
          }
        ],
        "pollDivisionIds": [
          10141410
        ],
        "postalCode": "N7T3W8",
        "streetName": "INDIAN",
        "streetDirectionId": "S",
        "streetTypeId": "RD",
        "placeName": "SARNIA",
        "streetNameDisplayText": "INDIAN RD S, SARNIA"
      }
    ]
  },
  {
    "postal": "N7T4S3",
    "result": [
      {
        "electoralDistricts": [
          {
            "election": null,
            "id": 91,
            "name": "Sarnia—Lambton"
          }
        ],
        "pollDivisionIds": [
          10141408
        ],
        "postalCode": "N7T4S3",
        "streetName": "ESSEX",
        "streetDirectionId": null,
        "streetTypeId": "ST",
        "placeName": "SARNIA",
        "streetNameDisplayText": "ESSEX ST, SARNIA"
      }
    ]
  },
  {
    "postal": "N7T1B6",
    "result": [
      {
        "electoralDistricts": [
          {
            "election": null,
            "id": 91,
            "name": "Sarnia—Lambton"
          }
        ],
        "pollDivisionIds": [
          10141413
        ],
        "postalCode": "N7T1B6",
        "streetName": "DAVIS",
        "streetDirectionId": null,
        "streetTypeId": "ST",
        "placeName": "SARNIA",
        "streetNameDisplayText": "DAVIS ST, SARNIA"
      }
    ]
  },
  {
    "postal": "N7T8R3",
    "result": []
  },
  {
    "postal": "N7T4V9",
    "result": [
      {
        "electoralDistricts": [
          {
            "election": null,
            "id": 91,
            "name": "Sarnia—Lambton"
          }
        ],
        "pollDivisionIds": [
          10141408
        ],
        "postalCode": "N7T4V9",
        "streetName": "LONDON",
        "streetDirectionId": null,
        "streetTypeId": "RD",
        "placeName": "SARNIA",
        "streetNameDisplayText": "LONDON RD, SARNIA"
      }
    ]
  },
  {
    "postal": "N7T9W4",
    "result": []
  },
  {
    "postal": "N7T3T4",
    "result": [
      {
        "electoralDistricts": [
          {
            "election": null,
            "id": 91,
            "name": "Sarnia—Lambton"
          }
        ],
        "pollDivisionIds": [
          10141409
        ],
        "postalCode": "N7T3T4",
        "streetName": "SIDDALL",
        "streetDirectionId": null,
        "streetTypeId": "ST",
        "placeName": "SARNIA",
        "streetNameDisplayText": "SIDDALL ST, SARNIA"
      }
    ]
  },
  {
    "postal": "N7T5C7",
    "result": [
      {
        "electoralDistricts": [
          {
            "election": null,
            "id": 91,
            "name": "Sarnia—Lambton"
          }
        ],
        "pollDivisionIds": [
          10141397
        ],
        "postalCode": "N7T5C7",
        "streetName": "MAXWELL",
        "streetDirectionId": null,
        "streetTypeId": "ST",
        "placeName": "SARNIA",
        "streetNameDisplayText": "MAXWELL ST, SARNIA"
      }
    ]
  },
  {
    "postal": "N7T3Y1",
    "result": [
      {
        "electoralDistricts": [
          {
            "election": null,
            "id": 91,
            "name": "Sarnia—Lambton"
          }
        ],
        "pollDivisionIds": [
          10141407
        ],
        "postalCode": "N7T3Y1",
        "streetName": "CROMWELL",
        "streetDirectionId": null,
        "streetTypeId": "ST",
        "placeName": "SARNIA",
        "streetNameDisplayText": "CROMWELL ST, SARNIA"
      }
    ]
  },
  {
    "postal": "N7T5V0",
    "result": []
  },
  {
    "postal": "N7T8G8",
    "result": [
      {
        "electoralDistricts": [
          {
            "election": null,
            "id": 91,
            "name": "Sarnia—Lambton"
          }
        ],
        "pollDivisionIds": [
          10141413
        ],
        "postalCode": "N7T8G8",
        "streetName": "ST. ANDREW",
        "streetDirectionId": null,
        "streetTypeId": "ST",
        "placeName": "SARNIA",
        "streetNameDisplayText": "ST. ANDREW ST, SARNIA"
      }
    ]
  },
  {
    "postal": "N7T8B1",
    "result": [
      {
        "electoralDistricts": [
          {
            "election": null,
            "id": 91,
            "name": "Sarnia—Lambton"
          }
        ],
        "pollDivisionIds": [
          10141401
        ],
        "postalCode": "N7T8B1",
        "streetName": "EXMOUTH",
        "streetDirectionId": null,
        "streetTypeId": "ST",
        "placeName": "SARNIA",
        "streetNameDisplayText": "EXMOUTH ST, SARNIA"
      }
    ]
  },
  {
    "postal": "N7T4P5",
    "result": [
      {
        "electoralDistricts": [
          {
            "election": null,
            "id": 91,
            "name": "Sarnia—Lambton"
          }
        ],
        "pollDivisionIds": [
          10141408
        ],
        "postalCode": "N7T4P5",
        "streetName": "GEORGE",
        "streetDirectionId": null,
        "streetTypeId": "ST",
        "placeName": "SARNIA",
        "streetNameDisplayText": "GEORGE ST, SARNIA"
      }
    ]
  },
  {
    "postal": "N7T7B2",
    "result": [
      {
        "electoralDistricts": [
          {
            "election": null,
            "id": 91,
            "name": "Sarnia—Lambton"
          }
        ],
        "pollDivisionIds": [
          10141402
        ],
        "postalCode": "N7T7B2",
        "streetName": "COPLAND",
        "streetDirectionId": null,
        "streetTypeId": "RD",
        "placeName": "SARNIA",
        "streetNameDisplayText": "COPLAND RD, SARNIA"
      }
    ]
  },
  {
    "postal": "N7T0R2",
    "result": []
  },
  {
    "postal": "N7T4M4",
    "result": [
      {
        "electoralDistricts": [
          {
            "election": null,
            "id": 91,
            "name": "Sarnia—Lambton"
          }
        ],
        "pollDivisionIds": [
          10141409
        ],
        "postalCode": "N7T4M4",
        "streetName": "EVERGREEN",
        "streetDirectionId": null,
        "streetTypeId": "DR",
        "placeName": "SARNIA",
        "streetNameDisplayText": "EVERGREEN DR, SARNIA"
      }
    ]
  },
  {
    "postal": "N7T7M4",
    "result": []
  },
  {
    "postal": "N7T9S7",
    "result": []
  },
  {
    "postal": "N7T5Z7",
    "result": [
      {
        "electoralDistricts": [
          {
            "election": null,
            "id": 91,
            "name": "Sarnia—Lambton"
          }
        ],
        "pollDivisionIds": [
          10141407
        ],
        "postalCode": "N7T5Z7",
        "streetName": "BROCK",
        "streetDirectionId": "N",
        "streetTypeId": "ST",
        "placeName": "SARNIA",
        "streetNameDisplayText": "BROCK ST N, SARNIA"
      }
    ]
  },
  {
    "postal": "N7T7J7",
    "result": [
      {
        "electoralDistricts": [
          {
            "election": null,
            "id": 91,
            "name": "Sarnia—Lambton"
          }
        ],
        "pollDivisionIds": [
          10141397
        ],
        "postalCode": "N7T7J7",
        "streetName": "NELSON",
        "streetDirectionId": "W",
        "streetTypeId": "ST",
        "placeName": "SARNIA",
        "streetNameDisplayText": "NELSON ST W, SARNIA"
      }
    ]
  },
  {
    "postal": "N7T8R8",
    "result": []
  },
  {
    "postal": "N7T9X1",
    "result": []
  },
  {
    "postal": "N7T5M9",
    "result": [
      {
        "electoralDistricts": [
          {
            "election": null,
            "id": 91,
            "name": "Sarnia—Lambton"
          }
        ],
        "pollDivisionIds": [
          10141397
        ],
        "postalCode": "N7T5M9",
        "streetName": "EXMOUTH",
        "streetDirectionId": null,
        "streetTypeId": "ST",
        "placeName": "SARNIA",
        "streetNameDisplayText": "EXMOUTH ST, SARNIA"
      }
    ]
  },
  {
    "postal": "N7T9B4",
    "result": []
  },
  {
    "postal": "N7T0L9",
    "result": []
  },
  {
    "postal": "N7T9G4",
    "result": []
  },
  {
    "postal": "N7T1J4",
    "result": [
      {
        "electoralDistricts": [
          {
            "election": null,
            "id": 91,
            "name": "Sarnia—Lambton"
          }
        ],
        "pollDivisionIds": [
          10141409
        ],
        "postalCode": "N7T1J4",
        "streetName": "WELLINGTON",
        "streetDirectionId": null,
        "streetTypeId": "ST",
        "placeName": "SARNIA",
        "streetNameDisplayText": "WELLINGTON ST, SARNIA"
      }
    ]
  },
  {
    "postal": "N7T0W6",
    "result": []
  }
]
