[
  {
    "postal": "N3B9J6",
    "result": []
  },
  {
    "postal": "N3B9Z5",
    "result": []
  },
  {
    "postal": "N3B7H8",
    "result": []
  },
  {
    "postal": "N3B0P6",
    "result": []
  },
  {
    "postal": "N3B0S7",
    "result": []
  },
  {
    "postal": "N3B8B9",
    "result": []
  },
  {
    "postal": "N3B2A6",
    "result": [
      {
        "electoralDistricts": [
          {
            "election": null,
            "id": 48,
            "name": "Kitchener—Conestoga"
          }
        ],
        "pollDivisionIds": [
          10139244
        ],
        "postalCode": "N3B2A6",
        "streetName": "DUNKE",
        "streetDirectionId": "N",
        "streetTypeId": "ST",
        "placeName": "ELMIRA",
        "streetNameDisplayText": "DUNKE ST N, ELMIRA"
      }
    ]
  },
  {
    "postal": "N3B7V2",
    "result": []
  },
  {
    "postal": "N3B9P4",
    "result": []
  },
  {
    "postal": "N3B6G0",
    "result": []
  },
  {
    "postal": "N3B2K0",
    "result": []
  },
  {
    "postal": "N3B7N6",
    "result": []
  },
  {
    "postal": "N3B5R3",
    "result": []
  },
  {
    "postal": "N3B7K0",
    "result": []
  },
  {
    "postal": "N3B3R2",
    "result": []
  },
  {
    "postal": "N3B0J1",
    "result": []
  },
  {
    "postal": "N3B0B0",
    "result": []
  },
  {
    "postal": "N3B5Z2",
    "result": []
  },
  {
    "postal": "N3B7P3",
    "result": []
  },
  {
    "postal": "N3B2K3",
    "result": [
      {
        "electoralDistricts": [
          {
            "election": null,
            "id": 48,
            "name": "Kitchener—Conestoga"
          }
        ],
        "pollDivisionIds": [
          10139244
        ],
        "postalCode": "N3B2K3",
        "streetName": "MILL",
        "streetDirectionId": null,
        "streetTypeId": "ST",
        "placeName": "ELMIRA",
        "streetNameDisplayText": "MILL ST, ELMIRA"
      }
    ]
  },
  {
    "postal": "N3B7Y6",
    "result": []
  },
  {
    "postal": "N3B1L9",
    "result": [
      {
        "electoralDistricts": [
          {
            "election": null,
            "id": 48,
            "name": "Kitchener—Conestoga"
          }
        ],
        "pollDivisionIds": [
          10139243
        ],
        "postalCode": "N3B1L9",
        "streetName": "WEIGEL",
        "streetDirectionId": null,
        "streetTypeId": "AVE",
        "placeName": "ELMIRA",
        "streetNameDisplayText": "WEIGEL AVE, ELMIRA"
      }
    ]
  },
  {
    "postal": "N3B8T0",
    "result": []
  },
  {
    "postal": "N3B3K8",
    "result": [
      {
        "electoralDistricts": [
          {
            "election": null,
            "id": 48,
            "name": "Kitchener—Conestoga"
          }
        ],
        "pollDivisionIds": [
          10139243
        ],
        "postalCode": "N3B3K8",
        "streetName": "BRISTOW CREEK",
        "streetDirectionId": null,
        "streetTypeId": "DR",
        "placeName": "ELMIRA",
        "streetNameDisplayText": "BRISTOW CREEK DR, ELMIRA"
      },
      {
        "electoralDistricts": [
          {
            "election": null,
            "id": 48,
            "name": "Kitchener—Conestoga"
          }
        ],
        "pollDivisionIds": [
          10139243
        ],
        "postalCode": "N3B3K8",
        "streetName": "CHURCH",
        "streetDirectionId": "W",
        "streetTypeId": "ST",
        "placeName": "ELMIRA",
        "streetNameDisplayText": "CHURCH ST W, ELMIRA"
      },
      {
        "electoralDistricts": [
          {
            "election": null,
            "id": 48,
            "name": "Kitchener—Conestoga"
          }
        ],
        "pollDivisionIds": [
          10139243
        ],
        "postalCode": "N3B3K8",
        "streetName": "RAISING MILL",
        "streetDirectionId": null,
        "streetTypeId": "GATE",
        "placeName": "ELMIRA",
        "streetNameDisplayText": "RAISING MILL GATE, ELMIRA"
      }
    ]
  },
  {
    "postal": "N3B5W9",
    "result": []
  },
  {
    "postal": "N3B6T9",
    "result": []
  },
  {
    "postal": "N3B4H1",
    "result": []
  },
  {
    "postal": "N3B7A2",
    "result": []
  },
  {
    "postal": "N3B5G0",
    "result": []
  },
  {
    "postal": "N3B8V5",
    "result": []
  },
  {
    "postal": "N3B2Y8",
    "result": [
      {
        "electoralDistricts": [
          {
            "election": null,
            "id": 48,
            "name": "Kitchener—Conestoga"
          }
        ],
        "pollDivisionIds": [
          10139243
        ],
        "postalCode": "N3B2Y8",
        "streetName": "BARNSWALLOW",
        "streetDirectionId": null,
        "streetTypeId": "DR",
        "placeName": "ELMIRA",
        "streetNameDisplayText": "BARNSWALLOW DR, ELMIRA"
      }
    ]
  },
  {
    "postal": "N3B2B6",
    "result": [
      {
        "electoralDistricts": [
          {
            "election": null,
            "id": 48,
            "name": "Kitchener—Conestoga"
          }
        ],
        "pollDivisionIds": [
          10139244
        ],
        "postalCode": "N3B2B6",
        "streetName": "SNYDER",
        "streetDirectionId": "N",
        "streetTypeId": "AVE",
        "placeName": "ELMIRA",
        "streetNameDisplayText": "SNYDER AVE N, ELMIRA"
      }
    ]
  },
  {
    "postal": "N3B4W8",
    "result": []
  },
  {
    "postal": "N3B8H7",
    "result": []
  },
  {
    "postal": "N3B5P1",
    "result": []
  },
  {
    "postal": "N3B2B8",
    "result": [
      {
        "electoralDistricts": [
          {
            "election": null,
            "id": 48,
            "name": "Kitchener—Conestoga"
          }
        ],
        "pollDivisionIds": [
          10139274,
          10139243
        ],
        "postalCode": "N3B2B8",
        "streetName": "HERBERT",
        "streetDirectionId": null,
        "streetTypeId": "ST",
        "placeName": "ELMIRA",
        "streetNameDisplayText": "HERBERT ST, ELMIRA"
      }
    ]
  },
  {
    "postal": "N3B0P2",
    "result": []
  },
  {
    "postal": "N3B9M1",
    "result": []
  },
  {
    "postal": "N3B3G0",
    "result": []
  },
  {
    "postal": "N3B9Z2",
    "result": []
  },
  {
    "postal": "N3B2A0",
    "result": []
  },
  {
    "postal": "N3B6Y0",
    "result": []
  },
  {
    "postal": "N3B2Z8",
    "result": []
  },
  {
    "postal": "N3B7Y3",
    "result": []
  },
  {
    "postal": "N3B6Z5",
    "result": []
  },
  {
    "postal": "N3B6E0",
    "result": []
  },
  {
    "postal": "N3B9B7",
    "result": []
  },
  {
    "postal": "N3B9S5",
    "result": []
  },
  {
    "postal": "N3B3X3",
    "result": []
  },
  {
    "postal": "N3B7R5",
    "result": []
  },
  {
    "postal": "N3B2X3",
    "result": [
      {
        "electoralDistricts": [
          {
            "election": null,
            "id": 48,
            "name": "Kitchener—Conestoga"
          }
        ],
        "pollDivisionIds": [
          10139244
        ],
        "postalCode": "N3B2X3",
        "streetName": "DUKE",
        "streetDirectionId": null,
        "streetTypeId": "ST",
        "placeName": "ELMIRA",
        "streetNameDisplayText": "DUKE ST, ELMIRA"
      }
    ]
  },
  {
    "postal": "N3B8Z9",
    "result": []
  },
  {
    "postal": "N3B0N4",
    "result": []
  },
  {
    "postal": "N3B1K1",
    "result": [
      {
        "electoralDistricts": [
          {
            "election": null,
            "id": 48,
            "name": "Kitchener—Conestoga"
          }
        ],
        "pollDivisionIds": [
          10139245
        ],
        "postalCode": "N3B1K1",
        "streetName": "ASPEN",
        "streetDirectionId": null,
        "streetTypeId": "CRES",
        "placeName": "ELMIRA",
        "streetNameDisplayText": "ASPEN CRES, ELMIRA"
      }
    ]
  },
  {
    "postal": "N3B1S3",
    "result": [
      {
        "electoralDistricts": [
          {
            "election": null,
            "id": 48,
            "name": "Kitchener—Conestoga"
          }
        ],
        "pollDivisionIds": [
          10139246
        ],
        "postalCode": "N3B1S3",
        "streetName": "GREY OWL",
        "streetDirectionId": null,
        "streetTypeId": "DR",
        "placeName": "ELMIRA",
        "streetNameDisplayText": "GREY OWL DR, ELMIRA"
      }
    ]
  },
  {
    "postal": "N3B6M4",
    "result": []
  },
  {
    "postal": "N3B9A9",
    "result": []
  },
  {
    "postal": "N3B9Z9",
    "result": []
  },
  {
    "postal": "N3B6T4",
    "result": []
  },
  {
    "postal": "N3B0B2",
    "result": [
      {
        "electoralDistricts": [
          {
            "election": null,
            "id": 48,
            "name": "Kitchener—Conestoga"
          }
        ],
        "pollDivisionIds": [
          10139244
        ],
        "postalCode": "N3B0B2",
        "streetName": "WYATT",
        "streetDirectionId": "E",
        "streetTypeId": "ST",
        "placeName": "ELMIRA",
        "streetNameDisplayText": "WYATT ST E, ELMIRA"
      }
    ]
  },
  {
    "postal": "N3B2L9",
    "result": [
      {
        "electoralDistricts": [
          {
            "election": null,
            "id": 48,
            "name": "Kitchener—Conestoga"
          }
        ],
        "pollDivisionIds": [
          10139244
        ],
        "postalCode": "N3B2L9",
        "streetName": "RIVERSIDE",
        "streetDirectionId": "E",
        "streetTypeId": "DR",
        "placeName": "ELMIRA",
        "streetNameDisplayText": "RIVERSIDE DR E, ELMIRA"
      }
    ]
  },
  {
    "postal": "N3B8K9",
    "result": []
  },
  {
    "postal": "N3B2H9",
    "result": []
  },
  {
    "postal": "N3B3Z6",
    "result": []
  },
  {
    "postal": "N3B3B0",
    "result": []
  },
  {
    "postal": "N3B2H8",
    "result": [
      {
        "electoralDistricts": [
          {
            "election": null,
            "id": 48,
            "name": "Kitchener—Conestoga"
          }
        ],
        "pollDivisionIds": [
          10139244
        ],
        "postalCode": "N3B2H8",
        "streetName": "WYATT",
        "streetDirectionId": "E",
        "streetTypeId": "ST",
        "placeName": "ELMIRA",
        "streetNameDisplayText": "WYATT ST E, ELMIRA"
      }
    ]
  },
  {
    "postal": "N3B3X2",
    "result": []
  },
  {
    "postal": "N3B2E9",
    "result": [
      {
        "electoralDistricts": [
          {
            "election": null,
            "id": 48,
            "name": "Kitchener—Conestoga"
          }
        ],
        "pollDivisionIds": [
          10139244
        ],
        "postalCode": "N3B2E9",
        "streetName": "COLLEGE",
        "streetDirectionId": "E",
        "streetTypeId": "ST",
        "placeName": "ELMIRA",
        "streetNameDisplayText": "COLLEGE ST E, ELMIRA"
      },
      {
        "electoralDistricts": [
          {
            "election": null,
            "id": 48,
            "name": "Kitchener—Conestoga"
          }
        ],
        "pollDivisionIds": [
          10139244
        ],
        "postalCode": "N3B2E9",
        "streetName": "COLLEGE",
        "streetDirectionId": null,
        "streetTypeId": "ST",
        "placeName": "ELMIRA",
        "streetNameDisplayText": "COLLEGE ST, ELMIRA"
      }
    ]
  },
  {
    "postal": "N3B9P6",
    "result": []
  },
  {
    "postal": "N3B9E2",
    "result": []
  },
  {
    "postal": "N3B9H2",
    "result": []
  },
  {
    "postal": "N3B1S8",
    "result": [
      {
        "electoralDistricts": [
          {
            "election": null,
            "id": 48,
            "name": "Kitchener—Conestoga"
          }
        ],
        "pollDivisionIds": [
          10139246
        ],
        "postalCode": "N3B1S8",
        "streetName": "MOCKINGBIRD",
        "streetDirectionId": null,
        "streetTypeId": "DR",
        "placeName": "ELMIRA",
        "streetNameDisplayText": "MOCKINGBIRD DR, ELMIRA"
      }
    ]
  },
  {
    "postal": "N3B3M6",
    "result": [
      {
        "electoralDistricts": [
          {
            "election": null,
            "id": 48,
            "name": "Kitchener—Conestoga"
          }
        ],
        "pollDivisionIds": [
          10139246
        ],
        "postalCode": "N3B3M6",
        "streetName": "MUSCOVEY",
        "streetDirectionId": null,
        "streetTypeId": "DR",
        "placeName": "ELMIRA",
        "streetNameDisplayText": "MUSCOVEY DR, ELMIRA"
      }
    ]
  },
  {
    "postal": "N3B6Z8",
    "result": []
  },
  {
    "postal": "N3B4J2",
    "result": []
  },
  {
    "postal": "N3B9Y1",
    "result": []
  },
  {
    "postal": "N3B8V6",
    "result": []
  },
  {
    "postal": "N3B6B2",
    "result": []
  },
  {
    "postal": "N3B1P8",
    "result": [
      {
        "electoralDistricts": [
          {
            "election": null,
            "id": 48,
            "name": "Kitchener—Conestoga"
          }
        ],
        "pollDivisionIds": [
          10139243
        ],
        "postalCode": "N3B1P8",
        "streetName": "WILLIAM",
        "streetDirectionId": null,
        "streetTypeId": "ST",
        "placeName": "ELMIRA",
        "streetNameDisplayText": "WILLIAM ST, ELMIRA"
      }
    ]
  },
  {
    "postal": "N3B0V8",
    "result": []
  },
  {
    "postal": "N3B4Y0",
    "result": []
  },
  {
    "postal": "N3B2T4",
    "result": [
      {
        "electoralDistricts": [
          {
            "election": null,
            "id": 48,
            "name": "Kitchener—Conestoga"
          }
        ],
        "pollDivisionIds": [
          10139244
        ],
        "postalCode": "N3B2T4",
        "streetName": "QUEEN",
        "streetDirectionId": null,
        "streetTypeId": "ST",
        "placeName": "ELMIRA",
        "streetNameDisplayText": "QUEEN ST, ELMIRA"
      }
    ]
  },
  {
    "postal": "N3B2S3",
    "result": [
      {
        "electoralDistricts": [
          {
            "election": null,
            "id": 48,
            "name": "Kitchener—Conestoga"
          }
        ],
        "pollDivisionIds": [
          10139244
        ],
        "postalCode": "N3B2S3",
        "streetName": "CROSS",
        "streetDirectionId": null,
        "streetTypeId": "ST",
        "placeName": "ELMIRA",
        "streetNameDisplayText": "CROSS ST, ELMIRA"
      }
    ]
  },
  {
    "postal": "N3B0K0",
    "result": []
  },
  {
    "postal": "N3B5N1",
    "result": []
  },
  {
    "postal": "N3B7T0",
    "result": []
  },
  {
    "postal": "N3B9N2",
    "result": []
  },
  {
    "postal": "N3B5L1",
    "result": []
  },
  {
    "postal": "N3B7G5",
    "result": []
  },
  {
    "postal": "N3B6K2",
    "result": []
  },
  {
    "postal": "N3B6P9",
    "result": []
  },
  {
    "postal": "N3B0E6",
    "result": []
  },
  {
    "postal": "N3B8R9",
    "result": []
  },
  {
    "postal": "N3B3G9",
    "result": [
      {
        "electoralDistricts": [
          {
            "election": null,
            "id": 48,
            "name": "Kitchener—Conestoga"
          }
        ],
        "pollDivisionIds": [
          10139246
        ],
        "postalCode": "N3B3G9",
        "streetName": "PINTAIL",
        "streetDirectionId": null,
        "streetTypeId": "DR",
        "placeName": "ELMIRA",
        "streetNameDisplayText": "PINTAIL DR, ELMIRA"
      }
    ]
  },
  {
    "postal": "N3B0V7",
    "result": []
  },
  {
    "postal": "N3B2Z1",
    "result": [
      {
        "electoralDistricts": [
          {
            "election": null,
            "id": 115,
            "name": "Wellington—Halton Hills"
          }
        ],
        "pollDivisionIds": [
          10142555
        ],
        "postalCode": "N3B2Z1",
        "streetName": "5",
        "streetDirectionId": null,
        "streetTypeId": "SIDERD",
        "placeName": "ELMIRA",
        "streetNameDisplayText": "5 SIDERD, ELMIRA"
      },
      {
        "electoralDistricts": [
          {
            "election": null,
            "id": 115,
            "name": "Wellington—Halton Hills"
          },
          {
            "election": null,
            "id": 48,
            "name": "Kitchener—Conestoga"
          }
        ],
        "pollDivisionIds": [
          10142555,
          10139244,
          10139243,
          10142556
        ],
        "postalCode": "N3B2Z1",
        "streetName": "ARTHUR",
        "streetDirectionId": "N",
        "streetTypeId": "ST",
        "placeName": "ELMIRA",
        "streetNameDisplayText": "ARTHUR ST N, ELMIRA"
      },
      {
        "electoralDistricts": [
          {
            "election": null,
            "id": 48,
            "name": "Kitchener—Conestoga"
          }
        ],
        "pollDivisionIds": [
          10139244,
          10139246,
          10139245
        ],
        "postalCode": "N3B2Z1",
        "streetName": "ARTHUR",
        "streetDirectionId": "S",
        "streetTypeId": "ST",
        "placeName": "ELMIRA",
        "streetNameDisplayText": "ARTHUR ST S, ELMIRA"
      },
      {
        "electoralDistricts": [
          {
            "election": null,
            "id": 48,
            "name": "Kitchener—Conestoga"
          }
        ],
        "pollDivisionIds": [
          10139243
        ],
        "postalCode": "N3B2Z1",
        "streetName": "CEDAR SPRING",
        "streetDirectionId": null,
        "streetTypeId": "RD",
        "placeName": "ELMIRA",
        "streetNameDisplayText": "CEDAR SPRING RD, ELMIRA"
      },
      {
        "electoralDistricts": [
          {
            "election": null,
            "id": 48,
            "name": "Kitchener—Conestoga"
          }
        ],
        "pollDivisionIds": [
          10139243
        ],
        "postalCode": "N3B2Z1",
        "streetName": "CHURCH",
        "streetDirectionId": "W",
        "streetTypeId": "ST",
        "placeName": "ELMIRA",
        "streetNameDisplayText": "CHURCH ST W, ELMIRA"
      },
      {
        "electoralDistricts": [
          {
            "election": null,
            "id": 48,
            "name": "Kitchener—Conestoga"
          }
        ],
        "pollDivisionIds": [
          10139246,
          10139243
        ],
        "postalCode": "N3B2Z1",
        "streetName": "FLORADALE",
        "streetDirectionId": null,
        "streetTypeId": "RD",
        "placeName": "ELMIRA",
        "streetNameDisplayText": "FLORADALE RD, ELMIRA"
      },
      {
        "electoralDistricts": [
          {
            "election": null,
            "id": 48,
            "name": "Kitchener—Conestoga"
          }
        ],
        "pollDivisionIds": [
          10139243
        ],
        "postalCode": "N3B2Z1",
        "streetName": "FLORAPINE",
        "streetDirectionId": null,
        "streetTypeId": "RD",
        "placeName": "ELMIRA",
        "streetNameDisplayText": "FLORAPINE RD, ELMIRA"
      },
      {
        "electoralDistricts": [
          {
            "election": null,
            "id": 48,
            "name": "Kitchener—Conestoga"
          }
        ],
        "pollDivisionIds": [
          10139243
        ],
        "postalCode": "N3B2Z1",
        "streetName": "JESSE",
        "streetDirectionId": null,
        "streetTypeId": "PL",
        "placeName": "ELMIRA",
        "streetNameDisplayText": "JESSE PL, ELMIRA"
      },
      {
        "electoralDistricts": [
          {
            "election": null,
            "id": 48,
            "name": "Kitchener—Conestoga"
          }
        ],
        "pollDivisionIds": [
          10139244
        ],
        "postalCode": "N3B2Z1",
        "streetName": "KENNING",
        "streetDirectionId": null,
        "streetTypeId": "PL",
        "placeName": "ELMIRA",
        "streetNameDisplayText": "KENNING PL, ELMIRA"
      },
      {
        "electoralDistricts": [
          {
            "election": null,
            "id": 115,
            "name": "Wellington—Halton Hills"
          },
          {
            "election": null,
            "id": 48,
            "name": "Kitchener—Conestoga"
          }
        ],
        "pollDivisionIds": [
          10142555,
          10139243
        ],
        "postalCode": "N3B2Z1",
        "streetName": "NOAH",
        "streetDirectionId": null,
        "streetTypeId": "RD",
        "placeName": "ELMIRA",
        "streetNameDisplayText": "NOAH RD, ELMIRA"
      },
      {
        "electoralDistricts": [
          {
            "election": null,
            "id": 48,
            "name": "Kitchener—Conestoga"
          },
          {
            "election": null,
            "id": 115,
            "name": "Wellington—Halton Hills"
          }
        ],
        "pollDivisionIds": [
          10139243,
          10139244,
          10142555
        ],
        "postalCode": "N3B2Z1",
        "streetName": "NORTHFIELD",
        "streetDirectionId": "E",
        "streetTypeId": "DR",
        "placeName": "ELMIRA",
        "streetNameDisplayText": "NORTHFIELD DR E, ELMIRA"
      },
      {
        "electoralDistricts": [
          {
            "election": null,
            "id": 115,
            "name": "Wellington—Halton Hills"
          }
        ],
        "pollDivisionIds": [
          10142555
        ],
        "postalCode": "N3B2Z1",
        "streetName": "NORTHFIELD",
        "streetDirectionId": null,
        "streetTypeId": "DR",
        "placeName": "CENTRE WELLINGTON",
        "streetNameDisplayText": "NORTHFIELD DR, CENTRE WELLINGTON"
      },
      {
        "electoralDistricts": [
          {
            "election": null,
            "id": 48,
            "name": "Kitchener—Conestoga"
          }
        ],
        "pollDivisionIds": [
          10139244,
          10139243
        ],
        "postalCode": "N3B2Z1",
        "streetName": "REID WOODS",
        "streetDirectionId": null,
        "streetTypeId": "DR",
        "placeName": "ELMIRA",
        "streetNameDisplayText": "REID WOODS DR, ELMIRA"
      },
      {
        "electoralDistricts": [
          {
            "election": null,
            "id": 48,
            "name": "Kitchener—Conestoga"
          }
        ],
        "pollDivisionIds": [
          10139243
        ],
        "postalCode": "N3B2Z1",
        "streetName": "RITTER",
        "streetDirectionId": null,
        "streetTypeId": "RD",
        "placeName": "ELMIRA",
        "streetNameDisplayText": "RITTER RD, ELMIRA"
      },
      {
        "electoralDistricts": [
          {
            "election": null,
            "id": 48,
            "name": "Kitchener—Conestoga"
          }
        ],
        "pollDivisionIds": [
          10139244,
          10139243
        ],
        "postalCode": "N3B2Z1",
        "streetName": "SANDY HILLS",
        "streetDirectionId": null,
        "streetTypeId": "DR",
        "placeName": "ELMIRA",
        "streetNameDisplayText": "SANDY HILLS DR, ELMIRA"
      },
      {
        "electoralDistricts": [
          {
            "election": null,
            "id": 48,
            "name": "Kitchener—Conestoga"
          }
        ],
        "pollDivisionIds": [
          10139243
        ],
        "postalCode": "N3B2Z1",
        "streetName": "SEILING",
        "streetDirectionId": null,
        "streetTypeId": "RD",
        "placeName": "ELMIRA",
        "streetNameDisplayText": "SEILING RD, ELMIRA"
      },
      {
        "electoralDistricts": [
          {
            "election": null,
            "id": 48,
            "name": "Kitchener—Conestoga"
          }
        ],
        "pollDivisionIds": [
          10139243
        ],
        "postalCode": "N3B2Z1",
        "streetName": "SIDEROAD 5",
        "streetDirectionId": null,
        "streetTypeId": null,
        "placeName": "ELMIRA",
        "streetNameDisplayText": "SIDEROAD 5, ELMIRA"
      },
      {
        "electoralDistricts": [
          {
            "election": null,
            "id": 48,
            "name": "Kitchener—Conestoga"
          }
        ],
        "pollDivisionIds": [
          10139243
        ],
        "postalCode": "N3B2Z1",
        "streetName": "TILMAN",
        "streetDirectionId": null,
        "streetTypeId": "RD",
        "placeName": "ELMIRA",
        "streetNameDisplayText": "TILMAN RD, ELMIRA"
      },
      {
        "electoralDistricts": [
          {
            "election": null,
            "id": 48,
            "name": "Kitchener—Conestoga"
          }
        ],
        "pollDivisionIds": [
          10139243
        ],
        "postalCode": "N3B2Z1",
        "streetName": "UPPER WOOLWICH",
        "streetDirectionId": null,
        "streetTypeId": "PL",
        "placeName": "ELMIRA",
        "streetNameDisplayText": "UPPER WOOLWICH PL, ELMIRA"
      },
      {
        "electoralDistricts": [
          {
            "election": null,
            "id": 115,
            "name": "Wellington—Halton Hills"
          }
        ],
        "pollDivisionIds": [
          10142555
        ],
        "postalCode": "N3B2Z1",
        "streetName": "WELLINGTON 17",
        "streetDirectionId": null,
        "streetTypeId": "RD",
        "placeName": "ELMIRA",
        "streetNameDisplayText": "WELLINGTON 17 RD, ELMIRA"
      },
      {
        "electoralDistricts": [
          {
            "election": null,
            "id": 85,
            "name": "Perth—Wellington"
          },
          {
            "election": null,
            "id": 115,
            "name": "Wellington—Halton Hills"
          }
        ],
        "pollDivisionIds": [
          10135498,
          10142555
        ],
        "postalCode": "N3B2Z1",
        "streetName": "WELLINGTON RD 17",
        "streetDirectionId": null,
        "streetTypeId": null,
        "placeName": "ELMIRA",
        "streetNameDisplayText": "WELLINGTON RD 17, ELMIRA"
      },
      {
        "electoralDistricts": [
          {
            "election": null,
            "id": 115,
            "name": "Wellington—Halton Hills"
          }
        ],
        "pollDivisionIds": [
          10142555
        ],
        "postalCode": "N3B2Z1",
        "streetName": "WELLINGTON RD 18",
        "streetDirectionId": null,
        "streetTypeId": null,
        "placeName": "ELMIRA",
        "streetNameDisplayText": "WELLINGTON RD 18, ELMIRA"
      },
      {
        "electoralDistricts": [
          {
            "election": null,
            "id": 115,
            "name": "Wellington—Halton Hills"
          }
        ],
        "pollDivisionIds": [
          10142560
        ],
        "postalCode": "N3B2Z1",
        "streetName": "WELLINGTON RD 21",
        "streetDirectionId": null,
        "streetTypeId": null,
        "placeName": "WEST MONTROSE",
        "streetNameDisplayText": "WELLINGTON RD 21, WEST MONTROSE"
      },
      {
        "electoralDistricts": [
          {
            "election": null,
            "id": 48,
            "name": "Kitchener—Conestoga"
          }
        ],
        "pollDivisionIds": [
          10139243
        ],
        "postalCode": "N3B2Z1",
        "streetName": "WITTICK",
        "streetDirectionId": null,
        "streetTypeId": "RD",
        "placeName": "ELMIRA",
        "streetNameDisplayText": "WITTICK RD, ELMIRA"
      }
    ]
  },
  {
    "postal": "N3B7N1",
    "result": []
  },
  {
    "postal": "N3B3C6",
    "result": [
      {
        "electoralDistricts": [
          {
            "election": null,
            "id": 48,
            "name": "Kitchener—Conestoga"
          }
        ],
        "pollDivisionIds": [
          10139246
        ],
        "postalCode": "N3B3C6",
        "streetName": "THRUSH",
        "streetDirectionId": null,
        "streetTypeId": "CRT",
        "placeName": "ELMIRA",
        "streetNameDisplayText": "THRUSH CRT, ELMIRA"
      }
    ]
  },
  {
    "postal": "N3B4M1",
    "result": []
  },
  {
    "postal": "N3B9K2",
    "result": []
  },
  {
    "postal": "N3B9S6",
    "result": []
  },
  {
    "postal": "N3B4X1",
    "result": []
  },
  {
    "postal": "N3B8W2",
    "result": []
  },
  {
    "postal": "N3B7N2",
    "result": []
  },
  {
    "postal": "N3B8S3",
    "result": []
  },
  {
    "postal": "N3B4V0",
    "result": []
  },
  {
    "postal": "N3B6W4",
    "result": []
  },
  {
    "postal": "N3B5M1",
    "result": []
  },
  {
    "postal": "N3B0S4",
    "result": []
  },
  {
    "postal": "N3B5X6",
    "result": []
  },
  {
    "postal": "N3B8L5",
    "result": []
  },
  {
    "postal": "N3B5M8",
    "result": []
  },
  {
    "postal": "N3B2G3",
    "result": [
      {
        "electoralDistricts": [
          {
            "election": null,
            "id": 48,
            "name": "Kitchener—Conestoga"
          }
        ],
        "pollDivisionIds": [
          10139244
        ],
        "postalCode": "N3B2G3",
        "streetName": "BAUMAN",
        "streetDirectionId": null,
        "streetTypeId": "ST",
        "placeName": "ELMIRA",
        "streetNameDisplayText": "BAUMAN ST, ELMIRA"
      }
    ]
  },
  {
    "postal": "N3B8E4",
    "result": []
  },
  {
    "postal": "N3B7S9",
    "result": []
  },
  {
    "postal": "N3B1K3",
    "result": [
      {
        "electoralDistricts": [
          {
            "election": null,
            "id": 48,
            "name": "Kitchener—Conestoga"
          }
        ],
        "pollDivisionIds": [
          10139245
        ],
        "postalCode": "N3B1K3",
        "streetName": "BRUBACHER",
        "streetDirectionId": null,
        "streetTypeId": "ST",
        "placeName": "ELMIRA",
        "streetNameDisplayText": "BRUBACHER ST, ELMIRA"
      }
    ]
  },
  {
    "postal": "N3B4E1",
    "result": []
  },
  {
    "postal": "N3B4R2",
    "result": []
  },
  {
    "postal": "N3B6T0",
    "result": []
  },
  {
    "postal": "N3B3K5",
    "result": [
      {
        "electoralDistricts": [
          {
            "election": null,
            "id": 48,
            "name": "Kitchener—Conestoga"
          }
        ],
        "pollDivisionIds": [
          10139243
        ],
        "postalCode": "N3B3K5",
        "streetName": "CHURCH",
        "streetDirectionId": "W",
        "streetTypeId": "ST",
        "placeName": "ELMIRA",
        "streetNameDisplayText": "CHURCH ST W, ELMIRA"
      },
      {
        "electoralDistricts": [
          {
            "election": null,
            "id": 48,
            "name": "Kitchener—Conestoga"
          }
        ],
        "pollDivisionIds": [
          10139243
        ],
        "postalCode": "N3B3K5",
        "streetName": "HARNESS",
        "streetDirectionId": null,
        "streetTypeId": "LANE",
        "placeName": "ELMIRA",
        "streetNameDisplayText": "HARNESS LANE, ELMIRA"
      }
    ]
  },
  {
    "postal": "N3B3S3",
    "result": []
  },
  {
    "postal": "N3B3L4",
    "result": [
      {
        "electoralDistricts": [
          {
            "election": null,
            "id": 48,
            "name": "Kitchener—Conestoga"
          }
        ],
        "pollDivisionIds": [
          10139246
        ],
        "postalCode": "N3B3L4",
        "streetName": "EARL MARTIN",
        "streetDirectionId": null,
        "streetTypeId": "DR",
        "placeName": "ELMIRA",
        "streetNameDisplayText": "EARL MARTIN DR, ELMIRA"
      }
    ]
  },
  {
    "postal": "N3B9Y2",
    "result": []
  },
  {
    "postal": "N3B1E0",
    "result": []
  },
  {
    "postal": "N3B9A4",
    "result": []
  },
  {
    "postal": "N3B1L3",
    "result": [
      {
        "electoralDistricts": [
          {
            "election": null,
            "id": 48,
            "name": "Kitchener—Conestoga"
          }
        ],
        "pollDivisionIds": [
          10139245
        ],
        "postalCode": "N3B1L3",
        "streetName": "PARK",
        "streetDirectionId": "W",
        "streetTypeId": "AVE",
        "placeName": "ELMIRA",
        "streetNameDisplayText": "PARK AVE W, ELMIRA"
      }
    ]
  },
  {
    "postal": "N3B6N1",
    "result": []
  },
  {
    "postal": "N3B6G7",
    "result": []
  },
  {
    "postal": "N3B7W1",
    "result": []
  },
  {
    "postal": "N3B4M6",
    "result": []
  },
  {
    "postal": "N3B1K0",
    "result": []
  },
  {
    "postal": "N3B3E2",
    "result": [
      {
        "electoralDistricts": [
          {
            "election": null,
            "id": 48,
            "name": "Kitchener—Conestoga"
          }
        ],
        "pollDivisionIds": [
          10139243
        ],
        "postalCode": "N3B3E2",
        "streetName": "SUNSET",
        "streetDirectionId": null,
        "streetTypeId": "PL",
        "placeName": "ELMIRA",
        "streetNameDisplayText": "SUNSET PL, ELMIRA"
      }
    ]
  },
  {
    "postal": "N3B5H4",
    "result": []
  },
  {
    "postal": "N3B1K7",
    "result": [
      {
        "electoralDistricts": [
          {
            "election": null,
            "id": 48,
            "name": "Kitchener—Conestoga"
          }
        ],
        "pollDivisionIds": [
          10139245
        ],
        "postalCode": "N3B1K7",
        "streetName": "SOUTH",
        "streetDirectionId": "W",
        "streetTypeId": "ST",
        "placeName": "ELMIRA",
        "streetNameDisplayText": "SOUTH ST W, ELMIRA"
      }
    ]
  },
  {
    "postal": "N3B0H0",
    "result": []
  },
  {
    "postal": "N3B0J3",
    "result": []
  },
  {
    "postal": "N3B1X6",
    "result": [
      {
        "electoralDistricts": [
          {
            "election": null,
            "id": 48,
            "name": "Kitchener—Conestoga"
          }
        ],
        "pollDivisionIds": [
          10139245
        ],
        "postalCode": "N3B1X6",
        "streetName": "OAK",
        "streetDirectionId": null,
        "streetTypeId": "DR",
        "placeName": "ELMIRA",
        "streetNameDisplayText": "OAK DR, ELMIRA"
      }
    ]
  },
  {
    "postal": "N3B2Z6",
    "result": [
      {
        "electoralDistricts": [
          {
            "election": null,
            "id": 48,
            "name": "Kitchener—Conestoga"
          }
        ],
        "pollDivisionIds": [
          10139244
        ],
        "postalCode": "N3B2Z6",
        "streetName": "FIELD",
        "streetDirectionId": "S",
        "streetTypeId": "DR",
        "placeName": "ELMIRA",
        "streetNameDisplayText": "FIELD DR S, ELMIRA"
      },
      {
        "electoralDistricts": [
          {
            "election": null,
            "id": 48,
            "name": "Kitchener—Conestoga"
          }
        ],
        "pollDivisionIds": [
          10139244
        ],
        "postalCode": "N3B2Z6",
        "streetName": "UNION",
        "streetDirectionId": null,
        "streetTypeId": "ST",
        "placeName": "ELMIRA",
        "streetNameDisplayText": "UNION ST, ELMIRA"
      }
    ]
  },
  {
    "postal": "N3B4R9",
    "result": []
  },
  {
    "postal": "N3B0W8",
    "result": []
  },
  {
    "postal": "N3B1L4",
    "result": [
      {
        "electoralDistricts": [
          {
            "election": null,
            "id": 48,
            "name": "Kitchener—Conestoga"
          }
        ],
        "pollDivisionIds": [
          10139243
        ],
        "postalCode": "N3B1L4",
        "streetName": "PARK",
        "streetDirectionId": "W",
        "streetTypeId": "AVE",
        "placeName": "ELMIRA",
        "streetNameDisplayText": "PARK AVE W, ELMIRA"
      }
    ]
  },
  {
    "postal": "N3B0C8",
    "result": [
      {
        "electoralDistricts": [
          {
            "election": null,
            "id": 48,
            "name": "Kitchener—Conestoga"
          }
        ],
        "pollDivisionIds": [
          10139246
        ],
        "postalCode": "N3B0C8",
        "streetName": "SOUTH PARKWOOD",
        "streetDirectionId": null,
        "streetTypeId": "BLVD",
        "placeName": "ELMIRA",
        "streetNameDisplayText": "SOUTH PARKWOOD BLVD, ELMIRA"
      },
      {
        "electoralDistricts": [
          {
            "election": null,
            "id": 48,
            "name": "Kitchener—Conestoga"
          }
        ],
        "pollDivisionIds": [
          10139246
        ],
        "postalCode": "N3B0C8",
        "streetName": "TIMBER TRAIL",
        "streetDirectionId": null,
        "streetTypeId": "RD",
        "placeName": "ELMIRA",
        "streetNameDisplayText": "TIMBER TRAIL RD, ELMIRA"
      },
      {
        "electoralDistricts": [
          {
            "election": null,
            "id": 48,
            "name": "Kitchener—Conestoga"
          }
        ],
        "pollDivisionIds": [
          10139243,
          10139246
        ],
        "postalCode": "N3B0C8",
        "streetName": "WOODBERRY",
        "streetDirectionId": null,
        "streetTypeId": "CRES",
        "placeName": "ELMIRA",
        "streetNameDisplayText": "WOODBERRY CRES, ELMIRA"
      }
    ]
  },
  {
    "postal": "N3B9X7",
    "result": []
  },
  {
    "postal": "N3B4T1",
    "result": []
  },
  {
    "postal": "N3B0M0",
    "result": []
  },
  {
    "postal": "N3B6A2",
    "result": []
  },
  {
    "postal": "N3B9S8",
    "result": []
  },
  {
    "postal": "N3B9T4",
    "result": []
  },
  {
    "postal": "N3B9Y4",
    "result": []
  },
  {
    "postal": "N3B6G5",
    "result": []
  },
  {
    "postal": "N3B6H9",
    "result": []
  },
  {
    "postal": "N3B2P3",
    "result": [
      {
        "electoralDistricts": [
          {
            "election": null,
            "id": 48,
            "name": "Kitchener—Conestoga"
          }
        ],
        "pollDivisionIds": [
          10139244
        ],
        "postalCode": "N3B2P3",
        "streetName": "ARTHUR",
        "streetDirectionId": "S",
        "streetTypeId": "ST",
        "placeName": "ELMIRA",
        "streetNameDisplayText": "ARTHUR ST S, ELMIRA"
      }
    ]
  },
  {
    "postal": "N3B1T6",
    "result": [
      {
        "electoralDistricts": [
          {
            "election": null,
            "id": 48,
            "name": "Kitchener—Conestoga"
          }
        ],
        "pollDivisionIds": [
          10139246
        ],
        "postalCode": "N3B1T6",
        "streetName": "MEADOWLARK",
        "streetDirectionId": null,
        "streetTypeId": "RD",
        "placeName": "ELMIRA",
        "streetNameDisplayText": "MEADOWLARK RD, ELMIRA"
      }
    ]
  },
  {
    "postal": "N3B4P6",
    "result": []
  },
  {
    "postal": "N3B3K1",
    "result": [
      {
        "electoralDistricts": [
          {
            "election": null,
            "id": 48,
            "name": "Kitchener—Conestoga"
          }
        ],
        "pollDivisionIds": [
          10139243
        ],
        "postalCode": "N3B3K1",
        "streetName": "NORMAN",
        "streetDirectionId": null,
        "streetTypeId": "AVE",
        "placeName": "ELMIRA",
        "streetNameDisplayText": "NORMAN AVE, ELMIRA"
      }
    ]
  },
  {
    "postal": "N3B6X4",
    "result": []
  },
  {
    "postal": "N3B4M8",
    "result": []
  },
  {
    "postal": "N3B2Y1",
    "result": []
  },
  {
    "postal": "N3B6M1",
    "result": []
  },
  {
    "postal": "N3B5L8",
    "result": []
  },
  {
    "postal": "N3B3P6",
    "result": [
      {
        "electoralDistricts": [
          {
            "election": null,
            "id": 48,
            "name": "Kitchener—Conestoga"
          }
        ],
        "pollDivisionIds": [
          10139243
        ],
        "postalCode": "N3B3P6",
        "streetName": "BRISTOW CREEK",
        "streetDirectionId": null,
        "streetTypeId": "DR",
        "placeName": "ELMIRA",
        "streetNameDisplayText": "BRISTOW CREEK DR, ELMIRA"
      },
      {
        "electoralDistricts": [
          {
            "election": null,
            "id": 48,
            "name": "Kitchener—Conestoga"
          }
        ],
        "pollDivisionIds": [
          10139243
        ],
        "postalCode": "N3B3P6",
        "streetName": "ROBB",
        "streetDirectionId": null,
        "streetTypeId": "RD",
        "placeName": "ELMIRA",
        "streetNameDisplayText": "ROBB RD, ELMIRA"
      }
    ]
  },
  {
    "postal": "N3B9A5",
    "result": []
  },
  {
    "postal": "N3B7K1",
    "result": []
  },
  {
    "postal": "N3B3J4",
    "result": [
      {
        "electoralDistricts": [
          {
            "election": null,
            "id": 48,
            "name": "Kitchener—Conestoga"
          }
        ],
        "pollDivisionIds": [
          10139246
        ],
        "postalCode": "N3B3J4",
        "streetName": "CRANE",
        "streetDirectionId": null,
        "streetTypeId": "DR",
        "placeName": "ELMIRA",
        "streetNameDisplayText": "CRANE DR, ELMIRA"
      }
    ]
  },
  {
    "postal": "N3B5E7",
    "result": []
  },
  {
    "postal": "N3B3A7",
    "result": [
      {
        "electoralDistricts": [
          {
            "election": null,
            "id": 48,
            "name": "Kitchener—Conestoga"
          }
        ],
        "pollDivisionIds": [
          10139246
        ],
        "postalCode": "N3B3A7",
        "streetName": "FLAMINGO",
        "streetDirectionId": null,
        "streetTypeId": "DR",
        "placeName": "ELMIRA",
        "streetNameDisplayText": "FLAMINGO DR, ELMIRA"
      }
    ]
  },
  {
    "postal": "N3B1B9",
    "result": [
      {
        "electoralDistricts": [
          {
            "election": null,
            "id": 48,
            "name": "Kitchener—Conestoga"
          }
        ],
        "pollDivisionIds": [
          10139245
        ],
        "postalCode": "N3B1B9",
        "streetName": "ORIOLE",
        "streetDirectionId": "W",
        "streetTypeId": "PKY",
        "placeName": "ELMIRA",
        "streetNameDisplayText": "ORIOLE PKY W, ELMIRA"
      }
    ]
  },
  {
    "postal": "N3B9E8",
    "result": []
  },
  {
    "postal": "N3B1C9",
    "result": [
      {
        "electoralDistricts": [
          {
            "election": null,
            "id": 48,
            "name": "Kitchener—Conestoga"
          }
        ],
        "pollDivisionIds": [
          10139246
        ],
        "postalCode": "N3B1C9",
        "streetName": "TANAGER",
        "streetDirectionId": null,
        "streetTypeId": "ST",
        "placeName": "ELMIRA",
        "streetNameDisplayText": "TANAGER ST, ELMIRA"
      }
    ]
  },
  {
    "postal": "N3B3B5",
    "result": [
      {
        "electoralDistricts": [
          {
            "election": null,
            "id": 48,
            "name": "Kitchener—Conestoga"
          }
        ],
        "pollDivisionIds": [
          10139246
        ],
        "postalCode": "N3B3B5",
        "streetName": "KINGFISHER",
        "streetDirectionId": null,
        "streetTypeId": "DR",
        "placeName": "ELMIRA",
        "streetNameDisplayText": "KINGFISHER DR, ELMIRA"
      }
    ]
  },
  {
    "postal": "N3B8R0",
    "result": []
  },
  {
    "postal": "N3B3P2",
    "result": [
      {
        "electoralDistricts": [
          {
            "election": null,
            "id": 48,
            "name": "Kitchener—Conestoga"
          }
        ],
        "pollDivisionIds": [
          10139246
        ],
        "postalCode": "N3B3P2",
        "streetName": "UNION",
        "streetDirectionId": null,
        "streetTypeId": "ST",
        "placeName": "ELMIRA",
        "streetNameDisplayText": "UNION ST, ELMIRA"
      }
    ]
  },
  {
    "postal": "N3B5V4",
    "result": []
  },
  {
    "postal": "N3B4H0",
    "result": []
  },
  {
    "postal": "N3B4S7",
    "result": []
  },
  {
    "postal": "N3B6C2",
    "result": []
  },
  {
    "postal": "N3B8W3",
    "result": []
  },
  {
    "postal": "N3B4M5",
    "result": []
  },
  {
    "postal": "N3B5T1",
    "result": []
  },
  {
    "postal": "N3B3B3",
    "result": [
      {
        "electoralDistricts": [
          {
            "election": null,
            "id": 48,
            "name": "Kitchener—Conestoga"
          }
        ],
        "pollDivisionIds": [
          10139246
        ],
        "postalCode": "N3B3B3",
        "streetName": "FINCH",
        "streetDirectionId": null,
        "streetTypeId": "PL",
        "placeName": "ELMIRA",
        "streetNameDisplayText": "FINCH PL, ELMIRA"
      }
    ]
  },
  {
    "postal": "N3B6C6",
    "result": []
  },
  {
    "postal": "N3B7N8",
    "result": []
  },
  {
    "postal": "N3B2Y3",
    "result": [
      {
        "electoralDistricts": [
          {
            "election": null,
            "id": 48,
            "name": "Kitchener—Conestoga"
          }
        ],
        "pollDivisionIds": [
          10139244
        ],
        "postalCode": "N3B2Y3",
        "streetName": "UNION",
        "streetDirectionId": null,
        "streetTypeId": "ST",
        "placeName": "ELMIRA",
        "streetNameDisplayText": "UNION ST, ELMIRA"
      }
    ]
  },
  {
    "postal": "N3B2R6",
    "result": [
      {
        "electoralDistricts": [
          {
            "election": null,
            "id": 48,
            "name": "Kitchener—Conestoga"
          }
        ],
        "pollDivisionIds": [
          10139244
        ],
        "postalCode": "N3B2R6",
        "streetName": "MEMORIAL",
        "streetDirectionId": null,
        "streetTypeId": "AVE",
        "placeName": "ELMIRA",
        "streetNameDisplayText": "MEMORIAL AVE, ELMIRA"
      }
    ]
  },
  {
    "postal": "N3B7N3",
    "result": []
  },
  {
    "postal": "N3B8J2",
    "result": []
  },
  {
    "postal": "N3B6A9",
    "result": []
  },
  {
    "postal": "N3B3V2",
    "result": []
  },
  {
    "postal": "N3B2N3",
    "result": [
      {
        "electoralDistricts": [
          {
            "election": null,
            "id": 48,
            "name": "Kitchener—Conestoga"
          }
        ],
        "pollDivisionIds": [
          10139244
        ],
        "postalCode": "N3B2N3",
        "streetName": "ARTHUR",
        "streetDirectionId": "S",
        "streetTypeId": "ST",
        "placeName": "ELMIRA",
        "streetNameDisplayText": "ARTHUR ST S, ELMIRA"
      }
    ]
  },
  {
    "postal": "N3B1S5",
    "result": [
      {
        "electoralDistricts": [
          {
            "election": null,
            "id": 48,
            "name": "Kitchener—Conestoga"
          }
        ],
        "pollDivisionIds": [
          10139246
        ],
        "postalCode": "N3B1S5",
        "streetName": "GREY OWL",
        "streetDirectionId": null,
        "streetTypeId": "DR",
        "placeName": "ELMIRA",
        "streetNameDisplayText": "GREY OWL DR, ELMIRA"
      }
    ]
  },
  {
    "postal": "N3B4T7",
    "result": []
  },
  {
    "postal": "N3B6Y7",
    "result": []
  },
  {
    "postal": "N3B0W7",
    "result": []
  },
  {
    "postal": "N3B2W9",
    "result": [
      {
        "electoralDistricts": [
          {
            "election": null,
            "id": 48,
            "name": "Kitchener—Conestoga"
          }
        ],
        "pollDivisionIds": [
          10139244
        ],
        "postalCode": "N3B2W9",
        "streetName": "DUKE",
        "streetDirectionId": null,
        "streetTypeId": "ST",
        "placeName": "ELMIRA",
        "streetNameDisplayText": "DUKE ST, ELMIRA"
      }
    ]
  },
  {
    "postal": "N3B8V0",
    "result": []
  },
  {
    "postal": "N3B0H4",
    "result": []
  },
  {
    "postal": "N3B2T1",
    "result": [
      {
        "electoralDistricts": [
          {
            "election": null,
            "id": 48,
            "name": "Kitchener—Conestoga"
          }
        ],
        "pollDivisionIds": [
          10139244
        ],
        "postalCode": "N3B2T1",
        "streetName": "QUEEN",
        "streetDirectionId": null,
        "streetTypeId": "ST",
        "placeName": "ELMIRA",
        "streetNameDisplayText": "QUEEN ST, ELMIRA"
      }
    ]
  },
  {
    "postal": "N3B1B1",
    "result": [
      {
        "electoralDistricts": [
          {
            "election": null,
            "id": 48,
            "name": "Kitchener—Conestoga"
          }
        ],
        "pollDivisionIds": [
          10139245
        ],
        "postalCode": "N3B1B1",
        "streetName": "NIGHTINGALE",
        "streetDirectionId": null,
        "streetTypeId": "CRES",
        "placeName": "ELMIRA",
        "streetNameDisplayText": "NIGHTINGALE CRES, ELMIRA"
      }
    ]
  },
  {
    "postal": "N3B8B6",
    "result": []
  },
  {
    "postal": "N3B6H1",
    "result": []
  },
  {
    "postal": "N3B8T8",
    "result": []
  },
  {
    "postal": "N3B0T4",
    "result": []
  },
  {
    "postal": "N3B2C4",
    "result": [
      {
        "electoralDistricts": [
          {
            "election": null,
            "id": 48,
            "name": "Kitchener—Conestoga"
          }
        ],
        "pollDivisionIds": [
          10139243
        ],
        "postalCode": "N3B2C4",
        "streetName": "ANN",
        "streetDirectionId": null,
        "streetTypeId": "ST",
        "placeName": "ELMIRA",
        "streetNameDisplayText": "ANN ST, ELMIRA"
      }
    ]
  },
  {
    "postal": "N3B8N3",
    "result": []
  },
  {
    "postal": "N3B4L8",
    "result": []
  },
  {
    "postal": "N3B2B5",
    "result": [
      {
        "electoralDistricts": [
          {
            "election": null,
            "id": 48,
            "name": "Kitchener—Conestoga"
          }
        ],
        "pollDivisionIds": [
          10139243
        ],
        "postalCode": "N3B2B5",
        "streetName": "SNYDER",
        "streetDirectionId": "N",
        "streetTypeId": "AVE",
        "placeName": "ELMIRA",
        "streetNameDisplayText": "SNYDER AVE N, ELMIRA"
      }
    ]
  },
  {
    "postal": "N3B3H1",
    "result": [
      {
        "electoralDistricts": [
          {
            "election": null,
            "id": 48,
            "name": "Kitchener—Conestoga"
          }
        ],
        "pollDivisionIds": [
          10139246
        ],
        "postalCode": "N3B3H1",
        "streetName": "MOCKINGBIRD",
        "streetDirectionId": null,
        "streetTypeId": "DR",
        "placeName": "ELMIRA",
        "streetNameDisplayText": "MOCKINGBIRD DR, ELMIRA"
      }
    ]
  },
  {
    "postal": "N3B4Y1",
    "result": []
  },
  {
    "postal": "N3B7E2",
    "result": []
  },
  {
    "postal": "N3B2P5",
    "result": [
      {
        "electoralDistricts": [
          {
            "election": null,
            "id": 48,
            "name": "Kitchener—Conestoga"
          }
        ],
        "pollDivisionIds": [
          10139246
        ],
        "postalCode": "N3B2P5",
        "streetName": "ARTHUR",
        "streetDirectionId": "S",
        "streetTypeId": "ST",
        "placeName": "ELMIRA",
        "streetNameDisplayText": "ARTHUR ST S, ELMIRA"
      }
    ]
  },
  {
    "postal": "N3B8R7",
    "result": []
  },
  {
    "postal": "N3B9P1",
    "result": []
  },
  {
    "postal": "N3B3B8",
    "result": [
      {
        "electoralDistricts": [
          {
            "election": null,
            "id": 48,
            "name": "Kitchener—Conestoga"
          }
        ],
        "pollDivisionIds": [
          10139246
        ],
        "postalCode": "N3B3B8",
        "streetName": "KINGFISHER",
        "streetDirectionId": null,
        "streetTypeId": "DR",
        "placeName": "ELMIRA",
        "streetNameDisplayText": "KINGFISHER DR, ELMIRA"
      }
    ]
  },
  {
    "postal": "N3B3P7",
    "result": [
      {
        "electoralDistricts": [
          {
            "election": null,
            "id": 48,
            "name": "Kitchener—Conestoga"
          }
        ],
        "pollDivisionIds": [
          10139246
        ],
        "postalCode": "N3B3P7",
        "streetName": "FIRST",
        "streetDirectionId": "W",
        "streetTypeId": "ST",
        "placeName": "ELMIRA",
        "streetNameDisplayText": "FIRST ST W, ELMIRA"
      },
      {
        "electoralDistricts": [
          {
            "election": null,
            "id": 48,
            "name": "Kitchener—Conestoga"
          }
        ],
        "pollDivisionIds": [
          10139246
        ],
        "postalCode": "N3B3P7",
        "streetName": "MUSCOVEY",
        "streetDirectionId": null,
        "streetTypeId": "DR",
        "placeName": "ELMIRA",
        "streetNameDisplayText": "MUSCOVEY DR, ELMIRA"
      }
    ]
  },
  {
    "postal": "N3B9B2",
    "result": []
  },
  {
    "postal": "N3B6Z3",
    "result": []
  },
  {
    "postal": "N3B4N5",
    "result": []
  },
  {
    "postal": "N3B8T3",
    "result": []
  },
  {
    "postal": "N3B1V2",
    "result": [
      {
        "electoralDistricts": [
          {
            "election": null,
            "id": 48,
            "name": "Kitchener—Conestoga"
          }
        ],
        "pollDivisionIds": [
          10139246
        ],
        "postalCode": "N3B1V2",
        "streetName": "FLAMINGO",
        "streetDirectionId": null,
        "streetTypeId": "DR",
        "placeName": "ELMIRA",
        "streetNameDisplayText": "FLAMINGO DR, ELMIRA"
      }
    ]
  },
  {
    "postal": "N3B1Y0",
    "result": []
  },
  {
    "postal": "N3B3G6",
    "result": [
      {
        "electoralDistricts": [
          {
            "election": null,
            "id": 48,
            "name": "Kitchener—Conestoga"
          }
        ],
        "pollDivisionIds": [
          10139246
        ],
        "postalCode": "N3B3G6",
        "streetName": "MOCKINGBIRD",
        "streetDirectionId": null,
        "streetTypeId": "DR",
        "placeName": "ELMIRA",
        "streetNameDisplayText": "MOCKINGBIRD DR, ELMIRA"
      }
    ]
  },
  {
    "postal": "N3B3H7",
    "result": [
      {
        "electoralDistricts": [
          {
            "election": null,
            "id": 48,
            "name": "Kitchener—Conestoga"
          }
        ],
        "pollDivisionIds": [
          10139246
        ],
        "postalCode": "N3B3H7",
        "streetName": "EAGLE",
        "streetDirectionId": null,
        "streetTypeId": "DR",
        "placeName": "ELMIRA",
        "streetNameDisplayText": "EAGLE DR, ELMIRA"
      },
      {
        "electoralDistricts": [
          {
            "election": null,
            "id": 48,
            "name": "Kitchener—Conestoga"
          }
        ],
        "pollDivisionIds": [
          10139246
        ],
        "postalCode": "N3B3H7",
        "streetName": "FALCON",
        "streetDirectionId": null,
        "streetTypeId": "DR",
        "placeName": "ELMIRA",
        "streetNameDisplayText": "FALCON DR, ELMIRA"
      }
    ]
  },
  {
    "postal": "N3B7X8",
    "result": []
  },
  {
    "postal": "N3B0C7",
    "result": [
      {
        "electoralDistricts": [
          {
            "election": null,
            "id": 48,
            "name": "Kitchener—Conestoga"
          }
        ],
        "pollDivisionIds": [
          10139246,
          10139244
        ],
        "postalCode": "N3B0C7",
        "streetName": "TIMBER TRAIL",
        "streetDirectionId": null,
        "streetTypeId": "RD",
        "placeName": "ELMIRA",
        "streetNameDisplayText": "TIMBER TRAIL RD, ELMIRA"
      }
    ]
  },
  {
    "postal": "N3B0W9",
    "result": []
  },
  {
    "postal": "N3B8E6",
    "result": []
  },
  {
    "postal": "N3B9Z8",
    "result": []
  },
  {
    "postal": "N3B3P4",
    "result": [
      {
        "electoralDistricts": [
          {
            "election": null,
            "id": 48,
            "name": "Kitchener—Conestoga"
          }
        ],
        "pollDivisionIds": [
          10139243
        ],
        "postalCode": "N3B3P4",
        "streetName": "CORAL GABLES",
        "streetDirectionId": null,
        "streetTypeId": "CRES",
        "placeName": "ELMIRA",
        "streetNameDisplayText": "CORAL GABLES CRES, ELMIRA"
      },
      {
        "electoralDistricts": [
          {
            "election": null,
            "id": 48,
            "name": "Kitchener—Conestoga"
          }
        ],
        "pollDivisionIds": [
          10139243
        ],
        "postalCode": "N3B3P4",
        "streetName": "OAKCLIFFE",
        "streetDirectionId": null,
        "streetTypeId": "ST",
        "placeName": "ELMIRA",
        "streetNameDisplayText": "OAKCLIFFE ST, ELMIRA"
      }
    ]
  },
  {
    "postal": "N3B6L8",
    "result": []
  },
  {
    "postal": "N3B2R4",
    "result": [
      {
        "electoralDistricts": [
          {
            "election": null,
            "id": 48,
            "name": "Kitchener—Conestoga"
          }
        ],
        "pollDivisionIds": [
          10139244
        ],
        "postalCode": "N3B2R4",
        "streetName": "MEMORIAL",
        "streetDirectionId": null,
        "streetTypeId": "AVE",
        "placeName": "ELMIRA",
        "streetNameDisplayText": "MEMORIAL AVE, ELMIRA"
      }
    ]
  },
  {
    "postal": "N3B2W1",
    "result": [
      {
        "electoralDistricts": [
          {
            "election": null,
            "id": 48,
            "name": "Kitchener—Conestoga"
          }
        ],
        "pollDivisionIds": [
          10139244
        ],
        "postalCode": "N3B2W1",
        "streetName": "CENTRE",
        "streetDirectionId": null,
        "streetTypeId": "ST",
        "placeName": "ELMIRA",
        "streetNameDisplayText": "CENTRE ST, ELMIRA"
      }
    ]
  },
  {
    "postal": "N3B9H8",
    "result": []
  },
  {
    "postal": "N3B8X9",
    "result": []
  },
  {
    "postal": "N3B7H4",
    "result": []
  },
  {
    "postal": "N3B3J1",
    "result": [
      {
        "electoralDistricts": [
          {
            "election": null,
            "id": 48,
            "name": "Kitchener—Conestoga"
          }
        ],
        "pollDivisionIds": [
          10139246
        ],
        "postalCode": "N3B3J1",
        "streetName": "EAGLE",
        "streetDirectionId": null,
        "streetTypeId": "DR",
        "placeName": "ELMIRA",
        "streetNameDisplayText": "EAGLE DR, ELMIRA"
      }
    ]
  },
  {
    "postal": "N3B1P4",
    "result": [
      {
        "electoralDistricts": [
          {
            "election": null,
            "id": 48,
            "name": "Kitchener—Conestoga"
          }
        ],
        "pollDivisionIds": [
          10139244
        ],
        "postalCode": "N3B1P4",
        "streetName": "WILLIAM",
        "streetDirectionId": null,
        "streetTypeId": "ST",
        "placeName": "ELMIRA",
        "streetNameDisplayText": "WILLIAM ST, ELMIRA"
      }
    ]
  },
  {
    "postal": "N3B2A3",
    "result": []
  },
  {
    "postal": "N3B0Z1",
    "result": []
  },
  {
    "postal": "N3B1C1",
    "result": [
      {
        "electoralDistricts": [
          {
            "election": null,
            "id": 48,
            "name": "Kitchener—Conestoga"
          }
        ],
        "pollDivisionIds": [
          10139246
        ],
        "postalCode": "N3B1C1",
        "streetName": "ORIOLE",
        "streetDirectionId": "W",
        "streetTypeId": "PKY",
        "placeName": "ELMIRA",
        "streetNameDisplayText": "ORIOLE PKY W, ELMIRA"
      }
    ]
  },
  {
    "postal": "N3B0H3",
    "result": []
  },
  {
    "postal": "N3B7B0",
    "result": []
  },
  {
    "postal": "N3B5K2",
    "result": []
  },
  {
    "postal": "N3B1E9",
    "result": [
      {
        "electoralDistricts": [
          {
            "election": null,
            "id": 48,
            "name": "Kitchener—Conestoga"
          }
        ],
        "pollDivisionIds": [
          10139246
        ],
        "postalCode": "N3B1E9",
        "streetName": "CARDINAL",
        "streetDirectionId": null,
        "streetTypeId": "ST",
        "placeName": "ELMIRA",
        "streetNameDisplayText": "CARDINAL ST, ELMIRA"
      }
    ]
  },
  {
    "postal": "N3B9W7",
    "result": []
  },
  {
    "postal": "N3B5W6",
    "result": []
  },
  {
    "postal": "N3B6S6",
    "result": []
  },
  {
    "postal": "N3B2P8",
    "result": [
      {
        "electoralDistricts": [
          {
            "election": null,
            "id": 48,
            "name": "Kitchener—Conestoga"
          }
        ],
        "pollDivisionIds": [
          10139244
        ],
        "postalCode": "N3B2P8",
        "streetName": "MEMORIAL",
        "streetDirectionId": null,
        "streetTypeId": "AVE",
        "placeName": "ELMIRA",
        "streetNameDisplayText": "MEMORIAL AVE, ELMIRA"
      },
      {
        "electoralDistricts": [
          {
            "election": null,
            "id": 48,
            "name": "Kitchener—Conestoga"
          }
        ],
        "pollDivisionIds": [
          10139243
        ],
        "postalCode": "N3B2P8",
        "streetName": "MEMORIAL",
        "streetDirectionId": null,
        "streetTypeId": "DR",
        "placeName": "ELMIRA",
        "streetNameDisplayText": "MEMORIAL DR, ELMIRA"
      }
    ]
  },
  {
    "postal": "N3B4P8",
    "result": []
  },
  {
    "postal": "N3B0V9",
    "result": []
  },
  {
    "postal": "N3B5Y2",
    "result": []
  },
  {
    "postal": "N3B7Z7",
    "result": []
  },
  {
    "postal": "N3B6Y8",
    "result": []
  },
  {
    "postal": "N3B2G7",
    "result": [
      {
        "electoralDistricts": [
          {
            "election": null,
            "id": 48,
            "name": "Kitchener—Conestoga"
          }
        ],
        "pollDivisionIds": [
          10139244
        ],
        "postalCode": "N3B2G7",
        "streetName": "SOUTH",
        "streetDirectionId": "E",
        "streetTypeId": "ST",
        "placeName": "ELMIRA",
        "streetNameDisplayText": "SOUTH ST E, ELMIRA"
      }
    ]
  },
  {
    "postal": "N3B8C1",
    "result": []
  },
  {
    "postal": "N3B5C5",
    "result": []
  },
  {
    "postal": "N3B2X8",
    "result": [
      {
        "electoralDistricts": [
          {
            "election": null,
            "id": 48,
            "name": "Kitchener—Conestoga"
          }
        ],
        "pollDivisionIds": [
          10139244
        ],
        "postalCode": "N3B2X8",
        "streetName": "DUKE",
        "streetDirectionId": null,
        "streetTypeId": "ST",
        "placeName": "ELMIRA",
        "streetNameDisplayText": "DUKE ST, ELMIRA"
      }
    ]
  },
  {
    "postal": "N3B1W5",
    "result": [
      {
        "electoralDistricts": [
          {
            "election": null,
            "id": 48,
            "name": "Kitchener—Conestoga"
          }
        ],
        "pollDivisionIds": [
          10139245
        ],
        "postalCode": "N3B1W5",
        "streetName": "BLUEBIRD",
        "streetDirectionId": null,
        "streetTypeId": "PL",
        "placeName": "ELMIRA",
        "streetNameDisplayText": "BLUEBIRD PL, ELMIRA"
      }
    ]
  },
  {
    "postal": "N3B7G0",
    "result": []
  },
  {
    "postal": "N3B8J8",
    "result": []
  },
  {
    "postal": "N3B3Y0",
    "result": []
  },
  {
    "postal": "N3B9T7",
    "result": []
  },
  {
    "postal": "N3B5P4",
    "result": []
  },
  {
    "postal": "N3B4B0",
    "result": []
  },
  {
    "postal": "N3B9N8",
    "result": []
  },
  {
    "postal": "N3B4A7",
    "result": []
  },
  {
    "postal": "N3B4H9",
    "result": []
  },
  {
    "postal": "N3B6X1",
    "result": []
  },
  {
    "postal": "N3B9Y7",
    "result": []
  },
  {
    "postal": "N3B2Y5",
    "result": [
      {
        "electoralDistricts": [
          {
            "election": null,
            "id": 48,
            "name": "Kitchener—Conestoga"
          }
        ],
        "pollDivisionIds": [
          10139244
        ],
        "postalCode": "N3B2Y5",
        "streetName": "GEORGE",
        "streetDirectionId": null,
        "streetTypeId": "ST",
        "placeName": "ELMIRA",
        "streetNameDisplayText": "GEORGE ST, ELMIRA"
      }
    ]
  },
  {
    "postal": "N3B8L7",
    "result": []
  },
  {
    "postal": "N3B2A8",
    "result": [
      {
        "electoralDistricts": [
          {
            "election": null,
            "id": 48,
            "name": "Kitchener—Conestoga"
          }
        ],
        "pollDivisionIds": [
          10139244
        ],
        "postalCode": "N3B2A8",
        "streetName": "DUNKE",
        "streetDirectionId": "N",
        "streetTypeId": "ST",
        "placeName": "ELMIRA",
        "streetNameDisplayText": "DUNKE ST N, ELMIRA"
      }
    ]
  },
  {
    "postal": "N3B2K9",
    "result": [
      {
        "electoralDistricts": [
          {
            "election": null,
            "id": 48,
            "name": "Kitchener—Conestoga"
          }
        ],
        "pollDivisionIds": [
          10139244
        ],
        "postalCode": "N3B2K9",
        "streetName": "CHURCH",
        "streetDirectionId": "E",
        "streetTypeId": "ST",
        "placeName": "ELMIRA",
        "streetNameDisplayText": "CHURCH ST E, ELMIRA"
      }
    ]
  },
  {
    "postal": "N3B3E5",
    "result": [
      {
        "electoralDistricts": [
          {
            "election": null,
            "id": 48,
            "name": "Kitchener—Conestoga"
          }
        ],
        "pollDivisionIds": [
          10139246
        ],
        "postalCode": "N3B3E5",
        "streetName": "WREN",
        "streetDirectionId": null,
        "streetTypeId": "CRT",
        "placeName": "ELMIRA",
        "streetNameDisplayText": "WREN CRT, ELMIRA"
      }
    ]
  },
  {
    "postal": "N3B8N6",
    "result": []
  },
  {
    "postal": "N3B8J4",
    "result": []
  },
  {
    "postal": "N3B4R7",
    "result": []
  },
  {
    "postal": "N3B9K1",
    "result": []
  },
  {
    "postal": "N3B8E1",
    "result": []
  },
  {
    "postal": "N3B0R1",
    "result": []
  },
  {
    "postal": "N3B4J3",
    "result": []
  },
  {
    "postal": "N3B7E7",
    "result": []
  },
  {
    "postal": "N3B0J0",
    "result": []
  },
  {
    "postal": "N3B7R8",
    "result": []
  },
  {
    "postal": "N3B9X0",
    "result": []
  },
  {
    "postal": "N3B7P6",
    "result": []
  },
  {
    "postal": "N3B0R7",
    "result": []
  },
  {
    "postal": "N3B5W1",
    "result": []
  },
  {
    "postal": "N3B0K4",
    "result": []
  },
  {
    "postal": "N3B7N9",
    "result": []
  },
  {
    "postal": "N3B1N0",
    "result": []
  },
  {
    "postal": "N3B6P3",
    "result": []
  },
  {
    "postal": "N3B5A1",
    "result": []
  },
  {
    "postal": "N3B9M9",
    "result": []
  },
  {
    "postal": "N3B7T6",
    "result": []
  },
  {
    "postal": "N3B3X0",
    "result": []
  },
  {
    "postal": "N3B2T0",
    "result": []
  },
  {
    "postal": "N3B5X9",
    "result": []
  },
  {
    "postal": "N3B2R3",
    "result": [
      {
        "electoralDistricts": [
          {
            "election": null,
            "id": 48,
            "name": "Kitchener—Conestoga"
          }
        ],
        "pollDivisionIds": [
          10139244
        ],
        "postalCode": "N3B2R3",
        "streetName": "MEMORIAL",
        "streetDirectionId": null,
        "streetTypeId": "AVE",
        "placeName": "ELMIRA",
        "streetNameDisplayText": "MEMORIAL AVE, ELMIRA"
      }
    ]
  },
  {
    "postal": "N3B5N2",
    "result": []
  },
  {
    "postal": "N3B4Y7",
    "result": []
  },
  {
    "postal": "N3B7M0",
    "result": []
  },
  {
    "postal": "N3B8P3",
    "result": []
  },
  {
    "postal": "N3B3N3",
    "result": [
      {
        "electoralDistricts": [
          {
            "election": null,
            "id": 48,
            "name": "Kitchener—Conestoga"
          }
        ],
        "pollDivisionIds": [
          10139245
        ],
        "postalCode": "N3B3N3",
        "streetName": "DALEBROOK",
        "streetDirectionId": null,
        "streetTypeId": "ST",
        "placeName": "ELMIRA",
        "streetNameDisplayText": "DALEBROOK ST, ELMIRA"
      },
      {
        "electoralDistricts": [
          {
            "election": null,
            "id": 48,
            "name": "Kitchener—Conestoga"
          }
        ],
        "pollDivisionIds": [
          10139243,
          10139245
        ],
        "postalCode": "N3B3N3",
        "streetName": "PARK",
        "streetDirectionId": "W",
        "streetTypeId": "AVE",
        "placeName": "ELMIRA",
        "streetNameDisplayText": "PARK AVE W, ELMIRA"
      },
      {
        "electoralDistricts": [
          {
            "election": null,
            "id": 48,
            "name": "Kitchener—Conestoga"
          }
        ],
        "pollDivisionIds": [
          10139245
        ],
        "postalCode": "N3B3N3",
        "streetName": "STILLWATER",
        "streetDirectionId": null,
        "streetTypeId": "ST",
        "placeName": "ELMIRA",
        "streetNameDisplayText": "STILLWATER ST, ELMIRA"
      }
    ]
  },
  {
    "postal": "N3B7S3",
    "result": []
  },
  {
    "postal": "N3B3V9",
    "result": []
  },
  {
    "postal": "N3B9N7",
    "result": []
  },
  {
    "postal": "N3B0G4",
    "result": []
  },
  {
    "postal": "N3B2E2",
    "result": [
      {
        "electoralDistricts": [
          {
            "election": null,
            "id": 48,
            "name": "Kitchener—Conestoga"
          }
        ],
        "pollDivisionIds": [
          10139244
        ],
        "postalCode": "N3B2E2",
        "streetName": "HOWARD",
        "streetDirectionId": null,
        "streetTypeId": "AVE",
        "placeName": "ELMIRA",
        "streetNameDisplayText": "HOWARD AVE, ELMIRA"
      }
    ]
  },
  {
    "postal": "N3B7W8",
    "result": []
  },
  {
    "postal": "N3B7M5",
    "result": []
  },
  {
    "postal": "N3B5W8",
    "result": []
  },
  {
    "postal": "N3B5E5",
    "result": []
  },
  {
    "postal": "N3B1P9",
    "result": [
      {
        "electoralDistricts": [
          {
            "election": null,
            "id": 48,
            "name": "Kitchener—Conestoga"
          }
        ],
        "pollDivisionIds": [
          10139244
        ],
        "postalCode": "N3B1P9",
        "streetName": "RIVERSIDE",
        "streetDirectionId": "W",
        "streetTypeId": "DR",
        "placeName": "ELMIRA",
        "streetNameDisplayText": "RIVERSIDE DR W, ELMIRA"
      }
    ]
  },
  {
    "postal": "N3B8V8",
    "result": []
  },
  {
    "postal": "N3B9G8",
    "result": []
  },
  {
    "postal": "N3B8H9",
    "result": []
  },
  {
    "postal": "N3B1Z1",
    "result": [
      {
        "electoralDistricts": [
          {
            "election": null,
            "id": 48,
            "name": "Kitchener—Conestoga"
          }
        ],
        "pollDivisionIds": [
          10139245
        ],
        "postalCode": "N3B1Z1",
        "streetName": "SNYDER",
        "streetDirectionId": "S",
        "streetTypeId": "AVE",
        "placeName": "ELMIRA",
        "streetNameDisplayText": "SNYDER AVE S, ELMIRA"
      }
    ]
  },
  {
    "postal": "N3B8M3",
    "result": []
  },
  {
    "postal": "N3B5H6",
    "result": []
  },
  {
    "postal": "N3B7W7",
    "result": []
  },
  {
    "postal": "N3B4L0",
    "result": []
  },
  {
    "postal": "N3B2N1",
    "result": [
      {
        "electoralDistricts": [
          {
            "election": null,
            "id": 48,
            "name": "Kitchener—Conestoga"
          }
        ],
        "pollDivisionIds": [
          10139244
        ],
        "postalCode": "N3B2N1",
        "streetName": "ARTHUR",
        "streetDirectionId": "S",
        "streetTypeId": "ST",
        "placeName": "ELMIRA",
        "streetNameDisplayText": "ARTHUR ST S, ELMIRA"
      }
    ]
  },
  {
    "postal": "N3B2H4",
    "result": [
      {
        "electoralDistricts": [
          {
            "election": null,
            "id": 48,
            "name": "Kitchener—Conestoga"
          }
        ],
        "pollDivisionIds": [
          10139244
        ],
        "postalCode": "N3B2H4",
        "streetName": "WYATT",
        "streetDirectionId": "E",
        "streetTypeId": "ST",
        "placeName": "ELMIRA",
        "streetNameDisplayText": "WYATT ST E, ELMIRA"
      }
    ]
  },
  {
    "postal": "N3B5C8",
    "result": []
  },
  {
    "postal": "N3B8B0",
    "result": []
  },
  {
    "postal": "N3B1T4",
    "result": [
      {
        "electoralDistricts": [
          {
            "election": null,
            "id": 48,
            "name": "Kitchener—Conestoga"
          }
        ],
        "pollDivisionIds": [
          10139245
        ],
        "postalCode": "N3B1T4",
        "streetName": "MEADOWLARK",
        "streetDirectionId": null,
        "streetTypeId": "RD",
        "placeName": "ELMIRA",
        "streetNameDisplayText": "MEADOWLARK RD, ELMIRA"
      }
    ]
  },
  {
    "postal": "N3B7N7",
    "result": []
  },
  {
    "postal": "N3B4L3",
    "result": []
  },
  {
    "postal": "N3B2N2",
    "result": [
      {
        "electoralDistricts": [
          {
            "election": null,
            "id": 48,
            "name": "Kitchener—Conestoga"
          }
        ],
        "pollDivisionIds": [
          10139245
        ],
        "postalCode": "N3B2N2",
        "streetName": "ARTHUR",
        "streetDirectionId": "S",
        "streetTypeId": "ST",
        "placeName": "ELMIRA",
        "streetNameDisplayText": "ARTHUR ST S, ELMIRA"
      }
    ]
  },
  {
    "postal": "N3B4N8",
    "result": []
  },
  {
    "postal": "N3B3M5",
    "result": [
      {
        "electoralDistricts": [
          {
            "election": null,
            "id": 48,
            "name": "Kitchener—Conestoga"
          }
        ],
        "pollDivisionIds": [
          10139246
        ],
        "postalCode": "N3B3M5",
        "streetName": "KINGFISHER",
        "streetDirectionId": null,
        "streetTypeId": "DR",
        "placeName": "ELMIRA",
        "streetNameDisplayText": "KINGFISHER DR, ELMIRA"
      },
      {
        "electoralDistricts": [
          {
            "election": null,
            "id": 48,
            "name": "Kitchener—Conestoga"
          }
        ],
        "pollDivisionIds": [
          10139246
        ],
        "postalCode": "N3B3M5",
        "streetName": "MUSCOVEY",
        "streetDirectionId": null,
        "streetTypeId": "DR",
        "placeName": "ELMIRA",
        "streetNameDisplayText": "MUSCOVEY DR, ELMIRA"
      },
      {
        "electoralDistricts": [
          {
            "election": null,
            "id": 48,
            "name": "Kitchener—Conestoga"
          }
        ],
        "pollDivisionIds": [
          10139246
        ],
        "postalCode": "N3B3M5",
        "streetName": "SNOW GOOSE",
        "streetDirectionId": null,
        "streetTypeId": "CRES",
        "placeName": "ELMIRA",
        "streetNameDisplayText": "SNOW GOOSE CRES, ELMIRA"
      }
    ]
  },
  {
    "postal": "N3B6H7",
    "result": []
  },
  {
    "postal": "N3B8Y8",
    "result": []
  },
  {
    "postal": "N3B5R9",
    "result": []
  },
  {
    "postal": "N3B8G3",
    "result": []
  },
  {
    "postal": "N3B4N7",
    "result": []
  },
  {
    "postal": "N3B0B9",
    "result": [
      {
        "electoralDistricts": [
          {
            "election": null,
            "id": 48,
            "name": "Kitchener—Conestoga"
          }
        ],
        "pollDivisionIds": [
          10139243
        ],
        "postalCode": "N3B0B9",
        "streetName": "WILLIAM",
        "streetDirectionId": null,
        "streetTypeId": "ST",
        "placeName": "ELMIRA",
        "streetNameDisplayText": "WILLIAM ST, ELMIRA"
      }
    ]
  },
  {
    "postal": "N3B9K7",
    "result": []
  },
  {
    "postal": "N3B9K9",
    "result": []
  },
  {
    "postal": "N3B3Z2",
    "result": []
  },
  {
    "postal": "N3B6W7",
    "result": []
  },
  {
    "postal": "N3B0P1",
    "result": []
  },
  {
    "postal": "N3B3A0",
    "result": []
  },
  {
    "postal": "N3B8L9",
    "result": []
  },
  {
    "postal": "N3B6X0",
    "result": []
  },
  {
    "postal": "N3B3E9",
    "result": [
      {
        "electoralDistricts": [
          {
            "election": null,
            "id": 48,
            "name": "Kitchener—Conestoga"
          }
        ],
        "pollDivisionIds": [
          10139243
        ],
        "postalCode": "N3B3E9",
        "streetName": "SNYDER",
        "streetDirectionId": "N",
        "streetTypeId": "AVE",
        "placeName": "ELMIRA",
        "streetNameDisplayText": "SNYDER AVE N, ELMIRA"
      }
    ]
  },
  {
    "postal": "N3B0S5",
    "result": []
  },
  {
    "postal": "N3B1A2",
    "result": [
      {
        "electoralDistricts": [
          {
            "election": null,
            "id": 48,
            "name": "Kitchener—Conestoga"
          }
        ],
        "pollDivisionIds": [
          10139245
        ],
        "postalCode": "N3B1A2",
        "streetName": "PURPLE MARTIN",
        "streetDirectionId": null,
        "streetTypeId": "CRT",
        "placeName": "ELMIRA",
        "streetNameDisplayText": "PURPLE MARTIN CRT, ELMIRA"
      }
    ]
  },
  {
    "postal": "N3B5V8",
    "result": []
  },
  {
    "postal": "N3B8C5",
    "result": []
  },
  {
    "postal": "N3B6N0",
    "result": []
  },
  {
    "postal": "N3B9E6",
    "result": []
  },
  {
    "postal": "N3B5J7",
    "result": []
  },
  {
    "postal": "N3B2R2",
    "result": [
      {
        "electoralDistricts": [
          {
            "election": null,
            "id": 48,
            "name": "Kitchener—Conestoga"
          }
        ],
        "pollDivisionIds": [
          10139244
        ],
        "postalCode": "N3B2R2",
        "streetName": "MEMORIAL",
        "streetDirectionId": null,
        "streetTypeId": "AVE",
        "placeName": "ELMIRA",
        "streetNameDisplayText": "MEMORIAL AVE, ELMIRA"
      }
    ]
  },
  {
    "postal": "N3B0P5",
    "result": []
  },
  {
    "postal": "N3B5A7",
    "result": []
  },
  {
    "postal": "N3B1G1",
    "result": [
      {
        "electoralDistricts": [
          {
            "election": null,
            "id": 48,
            "name": "Kitchener—Conestoga"
          }
        ],
        "pollDivisionIds": [
          10139245
        ],
        "postalCode": "N3B1G1",
        "streetName": "FIRST",
        "streetDirectionId": "W",
        "streetTypeId": "ST",
        "placeName": "ELMIRA",
        "streetNameDisplayText": "FIRST ST W, ELMIRA"
      }
    ]
  },
  {
    "postal": "N3B9R6",
    "result": []
  },
  {
    "postal": "N3B4Z9",
    "result": []
  },
  {
    "postal": "N3B1V5",
    "result": [
      {
        "electoralDistricts": [
          {
            "election": null,
            "id": 48,
            "name": "Kitchener—Conestoga"
          }
        ],
        "pollDivisionIds": [
          10139244,
          10139246
        ],
        "postalCode": "N3B1V5",
        "streetName": "FLAMINGO",
        "streetDirectionId": null,
        "streetTypeId": "DR",
        "placeName": "ELMIRA",
        "streetNameDisplayText": "FLAMINGO DR, ELMIRA"
      }
    ]
  },
  {
    "postal": "N3B9Y5",
    "result": []
  },
  {
    "postal": "N3B1P2",
    "result": [
      {
        "electoralDistricts": [
          {
            "election": null,
            "id": 48,
            "name": "Kitchener—Conestoga"
          }
        ],
        "pollDivisionIds": [
          10139244
        ],
        "postalCode": "N3B1P2",
        "streetName": "WILLIAM",
        "streetDirectionId": null,
        "streetTypeId": "ST",
        "placeName": "ELMIRA",
        "streetNameDisplayText": "WILLIAM ST, ELMIRA"
      }
    ]
  },
  {
    "postal": "N3B5X0",
    "result": []
  },
  {
    "postal": "N3B7B8",
    "result": []
  },
  {
    "postal": "N3B0C6",
    "result": [
      {
        "electoralDistricts": [
          {
            "election": null,
            "id": 48,
            "name": "Kitchener—Conestoga"
          }
        ],
        "pollDivisionIds": [
          10139246
        ],
        "postalCode": "N3B0C6",
        "streetName": "BUR OAK",
        "streetDirectionId": null,
        "streetTypeId": "DR",
        "placeName": "ELMIRA",
        "streetNameDisplayText": "BUR OAK DR, ELMIRA"
      },
      {
        "electoralDistricts": [
          {
            "election": null,
            "id": 48,
            "name": "Kitchener—Conestoga"
          }
        ],
        "pollDivisionIds": [
          10139246
        ],
        "postalCode": "N3B0C6",
        "streetName": "RICHARD RANK",
        "streetDirectionId": null,
        "streetTypeId": "RD",
        "placeName": "ELMIRA",
        "streetNameDisplayText": "RICHARD RANK RD, ELMIRA"
      }
    ]
  },
  {
    "postal": "N3B6G1",
    "result": []
  },
  {
    "postal": "N3B3K3",
    "result": [
      {
        "electoralDistricts": [
          {
            "election": null,
            "id": 48,
            "name": "Kitchener—Conestoga"
          }
        ],
        "pollDivisionIds": [
          10139244
        ],
        "postalCode": "N3B3K3",
        "streetName": "INDUSTRIAL",
        "streetDirectionId": null,
        "streetTypeId": "DR",
        "placeName": "ELMIRA",
        "streetNameDisplayText": "INDUSTRIAL DR, ELMIRA"
      }
    ]
  },
  {
    "postal": "N3B9R0",
    "result": []
  },
  {
    "postal": "N3B4R8",
    "result": []
  },
  {
    "postal": "N3B5P9",
    "result": []
  },
  {
    "postal": "N3B8N4",
    "result": []
  },
  {
    "postal": "N3B8H4",
    "result": []
  },
  {
    "postal": "N3B4V1",
    "result": []
  },
  {
    "postal": "N3B1K5",
    "result": [
      {
        "electoralDistricts": [
          {
            "election": null,
            "id": 48,
            "name": "Kitchener—Conestoga"
          }
        ],
        "pollDivisionIds": [
          10139245
        ],
        "postalCode": "N3B1K5",
        "streetName": "ERNST",
        "streetDirectionId": null,
        "streetTypeId": "ST",
        "placeName": "ELMIRA",
        "streetNameDisplayText": "ERNST ST, ELMIRA"
      }
    ]
  },
  {
    "postal": "N3B1Z5",
    "result": [
      {
        "electoralDistricts": [
          {
            "election": null,
            "id": 48,
            "name": "Kitchener—Conestoga"
          }
        ],
        "pollDivisionIds": [
          10139244
        ],
        "postalCode": "N3B1Z5",
        "streetName": "ARTHUR",
        "streetDirectionId": "N",
        "streetTypeId": "ST",
        "placeName": "ELMIRA",
        "streetNameDisplayText": "ARTHUR ST N, ELMIRA"
      }
    ]
  },
  {
    "postal": "N3B9L9",
    "result": []
  },
  {
    "postal": "N3B5L2",
    "result": []
  },
  {
    "postal": "N3B0M2",
    "result": []
  },
  {
    "postal": "N3B1K8",
    "result": [
      {
        "electoralDistricts": [
          {
            "election": null,
            "id": 48,
            "name": "Kitchener—Conestoga"
          }
        ],
        "pollDivisionIds": [
          10139245
        ],
        "postalCode": "N3B1K8",
        "streetName": "SOUTH",
        "streetDirectionId": "W",
        "streetTypeId": "ST",
        "placeName": "ELMIRA",
        "streetNameDisplayText": "SOUTH ST W, ELMIRA"
      }
    ]
  },
  {
    "postal": "N3B3M7",
    "result": [
      {
        "electoralDistricts": [
          {
            "election": null,
            "id": 48,
            "name": "Kitchener—Conestoga"
          }
        ],
        "pollDivisionIds": [
          10139243
        ],
        "postalCode": "N3B3M7",
        "streetName": "PORCHLIGHT",
        "streetDirectionId": null,
        "streetTypeId": "DR",
        "placeName": "ELMIRA",
        "streetNameDisplayText": "PORCHLIGHT DR, ELMIRA"
      }
    ]
  },
  {
    "postal": "N3B1B2",
    "result": [
      {
        "electoralDistricts": [
          {
            "election": null,
            "id": 48,
            "name": "Kitchener—Conestoga"
          }
        ],
        "pollDivisionIds": [
          10139245
        ],
        "postalCode": "N3B1B2",
        "streetName": "NIGHTINGALE",
        "streetDirectionId": null,
        "streetTypeId": "CRES",
        "placeName": "ELMIRA",
        "streetNameDisplayText": "NIGHTINGALE CRES, ELMIRA"
      }
    ]
  },
  {
    "postal": "N3B0H9",
    "result": []
  },
  {
    "postal": "N3B8M4",
    "result": []
  },
  {
    "postal": "N3B2M5",
    "result": [
      {
        "electoralDistricts": [
          {
            "election": null,
            "id": 48,
            "name": "Kitchener—Conestoga"
          }
        ],
        "pollDivisionIds": [
          10139244
        ],
        "postalCode": "N3B2M5",
        "streetName": "ARTHUR",
        "streetDirectionId": "S",
        "streetTypeId": "ST",
        "placeName": "ELMIRA",
        "streetNameDisplayText": "ARTHUR ST S, ELMIRA"
      }
    ]
  },
  {
    "postal": "N3B0T9",
    "result": []
  },
  {
    "postal": "N3B3P1",
    "result": [
      {
        "electoralDistricts": [
          {
            "election": null,
            "id": 48,
            "name": "Kitchener—Conestoga"
          }
        ],
        "pollDivisionIds": [
          10139246
        ],
        "postalCode": "N3B3P1",
        "streetName": "UNION",
        "streetDirectionId": null,
        "streetTypeId": "ST",
        "placeName": "ELMIRA",
        "streetNameDisplayText": "UNION ST, ELMIRA"
      }
    ]
  },
  {
    "postal": "N3B1R6",
    "result": [
      {
        "electoralDistricts": [
          {
            "election": null,
            "id": 48,
            "name": "Kitchener—Conestoga"
          }
        ],
        "pollDivisionIds": [
          10139243
        ],
        "postalCode": "N3B1R6",
        "streetName": "RIVERSIDE",
        "streetDirectionId": "W",
        "streetTypeId": "DR",
        "placeName": "ELMIRA",
        "streetNameDisplayText": "RIVERSIDE DR W, ELMIRA"
      }
    ]
  },
  {
    "postal": "N3B9V5",
    "result": []
  },
  {
    "postal": "N3B9T0",
    "result": []
  },
  {
    "postal": "N3B0A9",
    "result": []
  },
  {
    "postal": "N3B1M3",
    "result": [
      {
        "electoralDistricts": [
          {
            "election": null,
            "id": 48,
            "name": "Kitchener—Conestoga"
          }
        ],
        "pollDivisionIds": [
          10139244
        ],
        "postalCode": "N3B1M3",
        "streetName": "CHURCH",
        "streetDirectionId": "E",
        "streetTypeId": "ST",
        "placeName": "ELMIRA",
        "streetNameDisplayText": "CHURCH ST E, ELMIRA"
      },
      {
        "electoralDistricts": [
          {
            "election": null,
            "id": 48,
            "name": "Kitchener—Conestoga"
          }
        ],
        "pollDivisionIds": [
          10139244
        ],
        "postalCode": "N3B1M3",
        "streetName": "CHURCH",
        "streetDirectionId": "W",
        "streetTypeId": "ST",
        "placeName": "ELMIRA",
        "streetNameDisplayText": "CHURCH ST W, ELMIRA"
      }
    ]
  },
  {
    "postal": "N3B1W8",
    "result": [
      {
        "electoralDistricts": [
          {
            "election": null,
            "id": 48,
            "name": "Kitchener—Conestoga"
          }
        ],
        "pollDivisionIds": [
          10139245
        ],
        "postalCode": "N3B1W8",
        "streetName": "BLUEBIRD",
        "streetDirectionId": null,
        "streetTypeId": "PL",
        "placeName": "ELMIRA",
        "streetNameDisplayText": "BLUEBIRD PL, ELMIRA"
      }
    ]
  },
  {
    "postal": "N3B9J1",
    "result": []
  },
  {
    "postal": "N3B8N5",
    "result": []
  },
  {
    "postal": "N3B5X1",
    "result": []
  },
  {
    "postal": "N3B6S2",
    "result": []
  },
  {
    "postal": "N3B2A2",
    "result": [
      {
        "electoralDistricts": [
          {
            "election": null,
            "id": 48,
            "name": "Kitchener—Conestoga"
          }
        ],
        "pollDivisionIds": [
          10139244
        ],
        "postalCode": "N3B2A2",
        "streetName": "ARTHUR",
        "streetDirectionId": "N",
        "streetTypeId": "ST",
        "placeName": "ELMIRA",
        "streetNameDisplayText": "ARTHUR ST N, ELMIRA"
      }
    ]
  },
  {
    "postal": "N3B6A6",
    "result": []
  },
  {
    "postal": "N3B0S3",
    "result": []
  },
  {
    "postal": "N3B3E7",
    "result": [
      {
        "electoralDistricts": [
          {
            "election": null,
            "id": 48,
            "name": "Kitchener—Conestoga"
          }
        ],
        "pollDivisionIds": [
          10139246
        ],
        "postalCode": "N3B3E7",
        "streetName": "NIGHTHAWK",
        "streetDirectionId": null,
        "streetTypeId": "LANE",
        "placeName": "ELMIRA",
        "streetNameDisplayText": "NIGHTHAWK LANE, ELMIRA"
      }
    ]
  },
  {
    "postal": "N3B5R7",
    "result": []
  },
  {
    "postal": "N3B3R6",
    "result": []
  },
  {
    "postal": "N3B6K4",
    "result": []
  },
  {
    "postal": "N3B2W5",
    "result": [
      {
        "electoralDistricts": [
          {
            "election": null,
            "id": 48,
            "name": "Kitchener—Conestoga"
          }
        ],
        "pollDivisionIds": [
          10139244
        ],
        "postalCode": "N3B2W5",
        "streetName": "DUKE",
        "streetDirectionId": null,
        "streetTypeId": "ST",
        "placeName": "ELMIRA",
        "streetNameDisplayText": "DUKE ST, ELMIRA"
      }
    ]
  },
  {
    "postal": "N3B8W4",
    "result": []
  },
  {
    "postal": "N3B9C2",
    "result": []
  },
  {
    "postal": "N3B2C0",
    "result": []
  },
  {
    "postal": "N3B0E1",
    "result": [
      {
        "electoralDistricts": [
          {
            "election": null,
            "id": 48,
            "name": "Kitchener—Conestoga"
          }
        ],
        "pollDivisionIds": [
          10139243
        ],
        "postalCode": "N3B0E1",
        "streetName": "SNYDER",
        "streetDirectionId": "N",
        "streetTypeId": "AVE",
        "placeName": "ELMIRA",
        "streetNameDisplayText": "SNYDER AVE N, ELMIRA"
      }
    ]
  },
  {
    "postal": "N3B1K9",
    "result": [
      {
        "electoralDistricts": [
          {
            "election": null,
            "id": 48,
            "name": "Kitchener—Conestoga"
          }
        ],
        "pollDivisionIds": [
          10139245
        ],
        "postalCode": "N3B1K9",
        "streetName": "PARK",
        "streetDirectionId": "W",
        "streetTypeId": "AVE",
        "placeName": "ELMIRA",
        "streetNameDisplayText": "PARK AVE W, ELMIRA"
      }
    ]
  },
  {
    "postal": "N3B1G7",
    "result": [
      {
        "electoralDistricts": [
          {
            "election": null,
            "id": 48,
            "name": "Kitchener—Conestoga"
          }
        ],
        "pollDivisionIds": [
          10139244
        ],
        "postalCode": "N3B1G7",
        "streetName": "FIRST",
        "streetDirectionId": "E",
        "streetTypeId": "ST",
        "placeName": "ELMIRA",
        "streetNameDisplayText": "FIRST ST E, ELMIRA"
      },
      {
        "electoralDistricts": [
          {
            "election": null,
            "id": 48,
            "name": "Kitchener—Conestoga"
          }
        ],
        "pollDivisionIds": [
          10139245
        ],
        "postalCode": "N3B1G7",
        "streetName": "FIRST",
        "streetDirectionId": "W",
        "streetTypeId": "ST",
        "placeName": "ELMIRA",
        "streetNameDisplayText": "FIRST ST W, ELMIRA"
      }
    ]
  },
  {
    "postal": "N3B4E9",
    "result": []
  },
  {
    "postal": "N3B9P0",
    "result": []
  },
  {
    "postal": "N3B5H3",
    "result": []
  },
  {
    "postal": "N3B9X6",
    "result": []
  },
  {
    "postal": "N3B5N7",
    "result": []
  },
  {
    "postal": "N3B5A6",
    "result": []
  },
  {
    "postal": "N3B4M0",
    "result": []
  },
  {
    "postal": "N3B3V6",
    "result": []
  },
  {
    "postal": "N3B1L7",
    "result": [
      {
        "electoralDistricts": [
          {
            "election": null,
            "id": 48,
            "name": "Kitchener—Conestoga"
          }
        ],
        "pollDivisionIds": [
          10139245
        ],
        "postalCode": "N3B1L7",
        "streetName": "HAMPTON",
        "streetDirectionId": "W",
        "streetTypeId": "ST",
        "placeName": "ELMIRA",
        "streetNameDisplayText": "HAMPTON ST W, ELMIRA"
      },
      {
        "electoralDistricts": [
          {
            "election": null,
            "id": 48,
            "name": "Kitchener—Conestoga"
          }
        ],
        "pollDivisionIds": [
          10139245
        ],
        "postalCode": "N3B1L7",
        "streetName": "HAMPTON",
        "streetDirectionId": null,
        "streetTypeId": "ST",
        "placeName": "ELMIRA",
        "streetNameDisplayText": "HAMPTON ST, ELMIRA"
      }
    ]
  },
  {
    "postal": "N3B2P9",
    "result": []
  },
  {
    "postal": "N3B5T4",
    "result": []
  },
  {
    "postal": "N3B5Z1",
    "result": []
  },
  {
    "postal": "N3B2X0",
    "result": []
  },
  {
    "postal": "N3B6Z2",
    "result": []
  },
  {
    "postal": "N3B0E0",
    "result": []
  },
  {
    "postal": "N3B3Z5",
    "result": []
  },
  {
    "postal": "N3B8H3",
    "result": []
  },
  {
    "postal": "N3B7S6",
    "result": []
  },
  {
    "postal": "N3B4C1",
    "result": []
  },
  {
    "postal": "N3B3K2",
    "result": [
      {
        "electoralDistricts": [
          {
            "election": null,
            "id": 48,
            "name": "Kitchener—Conestoga"
          }
        ],
        "pollDivisionIds": [
          10139246
        ],
        "postalCode": "N3B3K2",
        "streetName": "BARNSWALLOW",
        "streetDirectionId": null,
        "streetTypeId": "DR",
        "placeName": "ELMIRA",
        "streetNameDisplayText": "BARNSWALLOW DR, ELMIRA"
      }
    ]
  },
  {
    "postal": "N3B1Y5",
    "result": [
      {
        "electoralDistricts": [
          {
            "election": null,
            "id": 48,
            "name": "Kitchener—Conestoga"
          }
        ],
        "pollDivisionIds": [
          10139244,
          10139245
        ],
        "postalCode": "N3B1Y5",
        "streetName": "SNYDER",
        "streetDirectionId": "S",
        "streetTypeId": "AVE",
        "placeName": "ELMIRA",
        "streetNameDisplayText": "SNYDER AVE S, ELMIRA"
      },
      {
        "electoralDistricts": [
          {
            "election": null,
            "id": 48,
            "name": "Kitchener—Conestoga"
          }
        ],
        "pollDivisionIds": [
          10139244
        ],
        "postalCode": "N3B1Y5",
        "streetName": "SNYDER'S",
        "streetDirectionId": "N",
        "streetTypeId": "AVE",
        "placeName": "ELMIRA",
        "streetNameDisplayText": "SNYDER'S AVE N, ELMIRA"
      }
    ]
  },
  {
    "postal": "N3B6P6",
    "result": []
  },
  {
    "postal": "N3B3N9",
    "result": [
      {
        "electoralDistricts": [
          {
            "election": null,
            "id": 48,
            "name": "Kitchener—Conestoga"
          }
        ],
        "pollDivisionIds": [
          10139245
        ],
        "postalCode": "N3B3N9",
        "streetName": "BROOKMEAD",
        "streetDirectionId": null,
        "streetTypeId": "ST",
        "placeName": "ELMIRA",
        "streetNameDisplayText": "BROOKMEAD ST, ELMIRA"
      },
      {
        "electoralDistricts": [
          {
            "election": null,
            "id": 48,
            "name": "Kitchener—Conestoga"
          }
        ],
        "pollDivisionIds": [
          10139245
        ],
        "postalCode": "N3B3N9",
        "streetName": "SUGAR KING",
        "streetDirectionId": null,
        "streetTypeId": "DR",
        "placeName": "ELMIRA",
        "streetNameDisplayText": "SUGAR KING DR, ELMIRA"
      }
    ]
  },
  {
    "postal": "N3B3W2",
    "result": []
  },
  {
    "postal": "N3B6H8",
    "result": []
  },
  {
    "postal": "N3B9T3",
    "result": []
  },
  {
    "postal": "N3B5L9",
    "result": []
  },
  {
    "postal": "N3B7X7",
    "result": []
  },
  {
    "postal": "N3B3J5",
    "result": [
      {
        "electoralDistricts": [
          {
            "election": null,
            "id": 48,
            "name": "Kitchener—Conestoga"
          }
        ],
        "pollDivisionIds": [
          10139246
        ],
        "postalCode": "N3B3J5",
        "streetName": "CRANE",
        "streetDirectionId": null,
        "streetTypeId": "DR",
        "placeName": "ELMIRA",
        "streetNameDisplayText": "CRANE DR, ELMIRA"
      }
    ]
  },
  {
    "postal": "N3B4J5",
    "result": []
  },
  {
    "postal": "N3B6J2",
    "result": []
  },
  {
    "postal": "N3B5V6",
    "result": []
  },
  {
    "postal": "N3B3N2",
    "result": [
      {
        "electoralDistricts": [
          {
            "election": null,
            "id": 48,
            "name": "Kitchener—Conestoga"
          }
        ],
        "pollDivisionIds": [
          10139246
        ],
        "postalCode": "N3B3N2",
        "streetName": "ARTHUR",
        "streetDirectionId": "S",
        "streetTypeId": "ST",
        "placeName": "ELMIRA",
        "streetNameDisplayText": "ARTHUR ST S, ELMIRA"
      }
    ]
  },
  {
    "postal": "N3B3B1",
    "result": [
      {
        "electoralDistricts": [
          {
            "election": null,
            "id": 48,
            "name": "Kitchener—Conestoga"
          }
        ],
        "pollDivisionIds": [
          10139244
        ],
        "postalCode": "N3B3B1",
        "streetName": "INDUSTRIAL",
        "streetDirectionId": null,
        "streetTypeId": "DR",
        "placeName": "ELMIRA",
        "streetNameDisplayText": "INDUSTRIAL DR, ELMIRA"
      }
    ]
  },
  {
    "postal": "N3B8B5",
    "result": []
  },
  {
    "postal": "N3B0K1",
    "result": []
  },
  {
    "postal": "N3B7M7",
    "result": []
  },
  {
    "postal": "N3B2M2",
    "result": [
      {
        "electoralDistricts": [
          {
            "election": null,
            "id": 48,
            "name": "Kitchener—Conestoga"
          }
        ],
        "pollDivisionIds": [
          10139244
        ],
        "postalCode": "N3B2M2",
        "streetName": "HIGH",
        "streetDirectionId": null,
        "streetTypeId": "ST",
        "placeName": "ELMIRA",
        "streetNameDisplayText": "HIGH ST, ELMIRA"
      }
    ]
  },
  {
    "postal": "N3B9N3",
    "result": []
  },
  {
    "postal": "N3B4Y8",
    "result": []
  },
  {
    "postal": "N3B3V7",
    "result": []
  },
  {
    "postal": "N3B8Z1",
    "result": []
  },
  {
    "postal": "N3B7B3",
    "result": []
  },
  {
    "postal": "N3B3A8",
    "result": [
      {
        "electoralDistricts": [
          {
            "election": null,
            "id": 48,
            "name": "Kitchener—Conestoga"
          }
        ],
        "pollDivisionIds": [
          10139246
        ],
        "postalCode": "N3B3A8",
        "streetName": "BARNSWALLOW",
        "streetDirectionId": null,
        "streetTypeId": "DR",
        "placeName": "ELMIRA",
        "streetNameDisplayText": "BARNSWALLOW DR, ELMIRA"
      }
    ]
  },
  {
    "postal": "N3B7V5",
    "result": []
  },
  {
    "postal": "N3B2T2",
    "result": [
      {
        "electoralDistricts": [
          {
            "election": null,
            "id": 48,
            "name": "Kitchener—Conestoga"
          }
        ],
        "pollDivisionIds": [
          10139244
        ],
        "postalCode": "N3B2T2",
        "streetName": "QUEEN",
        "streetDirectionId": null,
        "streetTypeId": "ST",
        "placeName": "ELMIRA",
        "streetNameDisplayText": "QUEEN ST, ELMIRA"
      }
    ]
  },
  {
    "postal": "N3B6L3",
    "result": []
  },
  {
    "postal": "N3B0L2",
    "result": []
  },
  {
    "postal": "N3B5Y8",
    "result": []
  },
  {
    "postal": "N3B0B8",
    "result": []
  },
  {
    "postal": "N3B6R5",
    "result": []
  },
  {
    "postal": "N3B8W6",
    "result": []
  },
  {
    "postal": "N3B8G6",
    "result": []
  },
  {
    "postal": "N3B6X3",
    "result": []
  },
  {
    "postal": "N3B7R7",
    "result": []
  },
  {
    "postal": "N3B4B6",
    "result": []
  },
  {
    "postal": "N3B3P9",
    "result": []
  },
  {
    "postal": "N3B2T3",
    "result": [
      {
        "electoralDistricts": [
          {
            "election": null,
            "id": 48,
            "name": "Kitchener—Conestoga"
          }
        ],
        "pollDivisionIds": [
          10139244
        ],
        "postalCode": "N3B2T3",
        "streetName": "QUEEN",
        "streetDirectionId": null,
        "streetTypeId": "ST",
        "placeName": "ELMIRA",
        "streetNameDisplayText": "QUEEN ST, ELMIRA"
      }
    ]
  },
  {
    "postal": "N3B1M4",
    "result": [
      {
        "electoralDistricts": [
          {
            "election": null,
            "id": 48,
            "name": "Kitchener—Conestoga"
          }
        ],
        "pollDivisionIds": [
          10139244
        ],
        "postalCode": "N3B1M4",
        "streetName": "CHURCH",
        "streetDirectionId": "E",
        "streetTypeId": "ST",
        "placeName": "ELMIRA",
        "streetNameDisplayText": "CHURCH ST E, ELMIRA"
      },
      {
        "electoralDistricts": [
          {
            "election": null,
            "id": 48,
            "name": "Kitchener—Conestoga"
          }
        ],
        "pollDivisionIds": [
          10139245
        ],
        "postalCode": "N3B1M4",
        "streetName": "CHURCH",
        "streetDirectionId": "W",
        "streetTypeId": "ST",
        "placeName": "ELMIRA",
        "streetNameDisplayText": "CHURCH ST W, ELMIRA"
      }
    ]
  },
  {
    "postal": "N3B0H1",
    "result": []
  },
  {
    "postal": "N3B9W3",
    "result": []
  },
  {
    "postal": "N3B6P1",
    "result": []
  },
  {
    "postal": "N3B7G2",
    "result": []
  },
  {
    "postal": "N3B4J9",
    "result": []
  },
  {
    "postal": "N3B9E4",
    "result": []
  },
  {
    "postal": "N3B8H0",
    "result": []
  },
  {
    "postal": "N3B4M7",
    "result": []
  },
  {
    "postal": "N3B2G9",
    "result": [
      {
        "electoralDistricts": [
          {
            "election": null,
            "id": 48,
            "name": "Kitchener—Conestoga"
          }
        ],
        "pollDivisionIds": [
          10139244
        ],
        "postalCode": "N3B2G9",
        "streetName": "PARK",
        "streetDirectionId": "E",
        "streetTypeId": "AVE",
        "placeName": "ELMIRA",
        "streetNameDisplayText": "PARK AVE E, ELMIRA"
      }
    ]
  },
  {
    "postal": "N3B8T2",
    "result": []
  },
  {
    "postal": "N3B7G7",
    "result": []
  },
  {
    "postal": "N3B4Z3",
    "result": []
  },
  {
    "postal": "N3B5B3",
    "result": []
  },
  {
    "postal": "N3B1S7",
    "result": [
      {
        "electoralDistricts": [
          {
            "election": null,
            "id": 48,
            "name": "Kitchener—Conestoga"
          }
        ],
        "pollDivisionIds": [
          10139245
        ],
        "postalCode": "N3B1S7",
        "streetName": "MOCKINGBIRD",
        "streetDirectionId": null,
        "streetTypeId": "DR",
        "placeName": "ELMIRA",
        "streetNameDisplayText": "MOCKINGBIRD DR, ELMIRA"
      }
    ]
  },
  {
    "postal": "N3B2N7",
    "result": [
      {
        "electoralDistricts": [
          {
            "election": null,
            "id": 48,
            "name": "Kitchener—Conestoga"
          }
        ],
        "pollDivisionIds": [
          10139245
        ],
        "postalCode": "N3B2N7",
        "streetName": "ARTHUR",
        "streetDirectionId": "S",
        "streetTypeId": "ST",
        "placeName": "ELMIRA",
        "streetNameDisplayText": "ARTHUR ST S, ELMIRA"
      }
    ]
  },
  {
    "postal": "N3B0H8",
    "result": []
  },
  {
    "postal": "N3B7Z4",
    "result": []
  },
  {
    "postal": "N3B7B1",
    "result": []
  },
  {
    "postal": "N3B7P8",
    "result": []
  },
  {
    "postal": "N3B7N0",
    "result": []
  },
  {
    "postal": "N3B3Y5",
    "result": []
  },
  {
    "postal": "N3B6K1",
    "result": []
  },
  {
    "postal": "N3B9X5",
    "result": []
  },
  {
    "postal": "N3B7S5",
    "result": []
  },
  {
    "postal": "N3B0A4",
    "result": [
      {
        "electoralDistricts": [
          {
            "election": null,
            "id": 48,
            "name": "Kitchener—Conestoga"
          }
        ],
        "pollDivisionIds": [
          10139243
        ],
        "postalCode": "N3B0A4",
        "streetName": "MIRANDA",
        "streetDirectionId": null,
        "streetTypeId": "PATH",
        "placeName": "ELMIRA",
        "streetNameDisplayText": "MIRANDA PATH, ELMIRA"
      }
    ]
  },
  {
    "postal": "N3B4T5",
    "result": []
  },
  {
    "postal": "N3B5K1",
    "result": []
  },
  {
    "postal": "N3B0Z9",
    "result": []
  },
  {
    "postal": "N3B7T2",
    "result": []
  },
  {
    "postal": "N3B1L5",
    "result": [
      {
        "electoralDistricts": [
          {
            "election": null,
            "id": 48,
            "name": "Kitchener—Conestoga"
          }
        ],
        "pollDivisionIds": [
          10139245
        ],
        "postalCode": "N3B1L5",
        "streetName": "JAMES",
        "streetDirectionId": null,
        "streetTypeId": "ST",
        "placeName": "ELMIRA",
        "streetNameDisplayText": "JAMES ST, ELMIRA"
      }
    ]
  },
  {
    "postal": "N3B3N5",
    "result": [
      {
        "electoralDistricts": [
          {
            "election": null,
            "id": 48,
            "name": "Kitchener—Conestoga"
          }
        ],
        "pollDivisionIds": [
          10139245
        ],
        "postalCode": "N3B3N5",
        "streetName": "ANNA",
        "streetDirectionId": null,
        "streetTypeId": "ST",
        "placeName": "ELMIRA",
        "streetNameDisplayText": "ANNA ST, ELMIRA"
      },
      {
        "electoralDistricts": [
          {
            "election": null,
            "id": 48,
            "name": "Kitchener—Conestoga"
          }
        ],
        "pollDivisionIds": [
          10139245
        ],
        "postalCode": "N3B3N5",
        "streetName": "PARK",
        "streetDirectionId": "W",
        "streetTypeId": "AVE",
        "placeName": "ELMIRA",
        "streetNameDisplayText": "PARK AVE W, ELMIRA"
      },
      {
        "electoralDistricts": [
          {
            "election": null,
            "id": 48,
            "name": "Kitchener—Conestoga"
          }
        ],
        "pollDivisionIds": [
          10139245
        ],
        "postalCode": "N3B3N5",
        "streetName": "RAISING MILL",
        "streetDirectionId": null,
        "streetTypeId": "GATE",
        "placeName": "ELMIRA",
        "streetNameDisplayText": "RAISING MILL GATE, ELMIRA"
      }
    ]
  },
  {
    "postal": "N3B6H4",
    "result": []
  },
  {
    "postal": "N3B5A5",
    "result": []
  },
  {
    "postal": "N3B3R9",
    "result": []
  },
  {
    "postal": "N3B7L8",
    "result": []
  },
  {
    "postal": "N3B6T6",
    "result": []
  },
  {
    "postal": "N3B7Y7",
    "result": []
  },
  {
    "postal": "N3B3M8",
    "result": [
      {
        "electoralDistricts": [
          {
            "election": null,
            "id": 48,
            "name": "Kitchener—Conestoga"
          }
        ],
        "pollDivisionIds": [
          10139243
        ],
        "postalCode": "N3B3M8",
        "streetName": "PORCHLIGHT",
        "streetDirectionId": null,
        "streetTypeId": "DR",
        "placeName": "ELMIRA",
        "streetNameDisplayText": "PORCHLIGHT DR, ELMIRA"
      }
    ]
  },
  {
    "postal": "N3B2E0",
    "result": []
  },
  {
    "postal": "N3B4B5",
    "result": []
  },
  {
    "postal": "N3B1J3",
    "result": [
      {
        "electoralDistricts": [
          {
            "election": null,
            "id": 48,
            "name": "Kitchener—Conestoga"
          }
        ],
        "pollDivisionIds": [
          10139245
        ],
        "postalCode": "N3B1J3",
        "streetName": "BLUEJAY",
        "streetDirectionId": null,
        "streetTypeId": "RD",
        "placeName": "ELMIRA",
        "streetNameDisplayText": "BLUEJAY RD, ELMIRA"
      }
    ]
  },
  {
    "postal": "N3B5S6",
    "result": []
  },
  {
    "postal": "N3B8P7",
    "result": []
  },
  {
    "postal": "N3B7S7",
    "result": []
  },
  {
    "postal": "N3B4C2",
    "result": []
  },
  {
    "postal": "N3B5Y0",
    "result": []
  },
  {
    "postal": "N3B2V7",
    "result": [
      {
        "electoralDistricts": [
          {
            "election": null,
            "id": 48,
            "name": "Kitchener—Conestoga"
          }
        ],
        "pollDivisionIds": [
          10139244
        ],
        "postalCode": "N3B2V7",
        "streetName": "CENTRE",
        "streetDirectionId": null,
        "streetTypeId": "ST",
        "placeName": "ELMIRA",
        "streetNameDisplayText": "CENTRE ST, ELMIRA"
      }
    ]
  },
  {
    "postal": "N3B8P5",
    "result": []
  },
  {
    "postal": "N3B5P5",
    "result": []
  },
  {
    "postal": "N3B5Z0",
    "result": []
  },
  {
    "postal": "N3B9B0",
    "result": []
  },
  {
    "postal": "N3B1L0",
    "result": []
  },
  {
    "postal": "N3B0B5",
    "result": [
      {
        "electoralDistricts": [
          {
            "election": null,
            "id": 48,
            "name": "Kitchener—Conestoga"
          }
        ],
        "pollDivisionIds": [
          10139243
        ],
        "postalCode": "N3B0B5",
        "streetName": "LIMERA",
        "streetDirectionId": null,
        "streetTypeId": "AVE",
        "placeName": "ELMIRA",
        "streetNameDisplayText": "LIMERA AVE, ELMIRA"
      },
      {
        "electoralDistricts": [
          {
            "election": null,
            "id": 48,
            "name": "Kitchener—Conestoga"
          }
        ],
        "pollDivisionIds": [
          10139243
        ],
        "postalCode": "N3B0B5",
        "streetName": "WILLIAM",
        "streetDirectionId": null,
        "streetTypeId": "ST",
        "placeName": "ELMIRA",
        "streetNameDisplayText": "WILLIAM ST, ELMIRA"
      }
    ]
  },
  {
    "postal": "N3B3L2",
    "result": [
      {
        "electoralDistricts": [
          {
            "election": null,
            "id": 48,
            "name": "Kitchener—Conestoga"
          }
        ],
        "pollDivisionIds": [
          10139246
        ],
        "postalCode": "N3B3L2",
        "streetName": "BITTERNUT",
        "streetDirectionId": null,
        "streetTypeId": "PL",
        "placeName": "ELMIRA",
        "streetNameDisplayText": "BITTERNUT PL, ELMIRA"
      },
      {
        "electoralDistricts": [
          {
            "election": null,
            "id": 48,
            "name": "Kitchener—Conestoga"
          }
        ],
        "pollDivisionIds": [
          10139246
        ],
        "postalCode": "N3B3L2",
        "streetName": "BURLWOOD",
        "streetDirectionId": null,
        "streetTypeId": "DR",
        "placeName": "ELMIRA",
        "streetNameDisplayText": "BURLWOOD DR, ELMIRA"
      }
    ]
  },
  {
    "postal": "N3B3B7",
    "result": [
      {
        "electoralDistricts": [
          {
            "election": null,
            "id": 48,
            "name": "Kitchener—Conestoga"
          }
        ],
        "pollDivisionIds": [
          10139246
        ],
        "postalCode": "N3B3B7",
        "streetName": "KINGFISHER",
        "streetDirectionId": null,
        "streetTypeId": "DR",
        "placeName": "ELMIRA",
        "streetNameDisplayText": "KINGFISHER DR, ELMIRA"
      }
    ]
  },
  {
    "postal": "N3B8L1",
    "result": []
  },
  {
    "postal": "N3B5M4",
    "result": []
  },
  {
    "postal": "N3B4G9",
    "result": []
  },
  {
    "postal": "N3B0P0",
    "result": []
  },
  {
    "postal": "N3B8G2",
    "result": []
  },
  {
    "postal": "N3B1V9",
    "result": [
      {
        "electoralDistricts": [
          {
            "election": null,
            "id": 48,
            "name": "Kitchener—Conestoga"
          }
        ],
        "pollDivisionIds": [
          10139246
        ],
        "postalCode": "N3B1V9",
        "streetName": "GROSBEAK",
        "streetDirectionId": null,
        "streetTypeId": "RD",
        "placeName": "ELMIRA",
        "streetNameDisplayText": "GROSBEAK RD, ELMIRA"
      }
    ]
  },
  {
    "postal": "N3B8N8",
    "result": []
  },
  {
    "postal": "N3B6S8",
    "result": []
  },
  {
    "postal": "N3B8H2",
    "result": []
  },
  {
    "postal": "N3B5R8",
    "result": []
  },
  {
    "postal": "N3B5L4",
    "result": []
  },
  {
    "postal": "N3B9E1",
    "result": []
  },
  {
    "postal": "N3B1C4",
    "result": [
      {
        "electoralDistricts": [
          {
            "election": null,
            "id": 48,
            "name": "Kitchener—Conestoga"
          }
        ],
        "pollDivisionIds": [
          10139246
        ],
        "postalCode": "N3B1C4",
        "streetName": "ORIOLE",
        "streetDirectionId": "W",
        "streetTypeId": "PKY",
        "placeName": "ELMIRA",
        "streetNameDisplayText": "ORIOLE PKY W, ELMIRA"
      }
    ]
  },
  {
    "postal": "N3B8W5",
    "result": []
  },
  {
    "postal": "N3B1Y4",
    "result": [
      {
        "electoralDistricts": [
          {
            "election": null,
            "id": 48,
            "name": "Kitchener—Conestoga"
          }
        ],
        "pollDivisionIds": [
          10139245
        ],
        "postalCode": "N3B1Y4",
        "streetName": "DUNKE",
        "streetDirectionId": "S",
        "streetTypeId": "ST",
        "placeName": "ELMIRA",
        "streetNameDisplayText": "DUNKE ST S, ELMIRA"
      }
    ]
  },
  {
    "postal": "N3B1C0",
    "result": []
  },
  {
    "postal": "N3B2J2",
    "result": [
      {
        "electoralDistricts": [
          {
            "election": null,
            "id": 48,
            "name": "Kitchener—Conestoga"
          }
        ],
        "pollDivisionIds": [
          10139244
        ],
        "postalCode": "N3B2J2",
        "streetName": "WYATT",
        "streetDirectionId": "E",
        "streetTypeId": "ST",
        "placeName": "ELMIRA",
        "streetNameDisplayText": "WYATT ST E, ELMIRA"
      }
    ]
  },
  {
    "postal": "N3B2J0",
    "result": []
  },
  {
    "postal": "N3B7A3",
    "result": []
  },
  {
    "postal": "N3B8M1",
    "result": []
  },
  {
    "postal": "N3B7T9",
    "result": []
  },
  {
    "postal": "N3B6C0",
    "result": []
  },
  {
    "postal": "N3B7X1",
    "result": []
  },
  {
    "postal": "N3B0G1",
    "result": []
  },
  {
    "postal": "N3B4X2",
    "result": []
  },
  {
    "postal": "N3B0N6",
    "result": []
  },
  {
    "postal": "N3B8E3",
    "result": []
  },
  {
    "postal": "N3B5S8",
    "result": []
  },
  {
    "postal": "N3B0R0",
    "result": []
  },
  {
    "postal": "N3B6J6",
    "result": []
  },
  {
    "postal": "N3B4B4",
    "result": []
  },
  {
    "postal": "N3B7E3",
    "result": []
  },
  {
    "postal": "N3B3N6",
    "result": [
      {
        "electoralDistricts": [
          {
            "election": null,
            "id": 48,
            "name": "Kitchener—Conestoga"
          }
        ],
        "pollDivisionIds": [
          10139245
        ],
        "postalCode": "N3B3N6",
        "streetName": "ANNA",
        "streetDirectionId": null,
        "streetTypeId": "ST",
        "placeName": "ELMIRA",
        "streetNameDisplayText": "ANNA ST, ELMIRA"
      },
      {
        "electoralDistricts": [
          {
            "election": null,
            "id": 48,
            "name": "Kitchener—Conestoga"
          }
        ],
        "pollDivisionIds": [
          10139245
        ],
        "postalCode": "N3B3N6",
        "streetName": "PARK",
        "streetDirectionId": "W",
        "streetTypeId": "AVE",
        "placeName": "ELMIRA",
        "streetNameDisplayText": "PARK AVE W, ELMIRA"
      },
      {
        "electoralDistricts": [
          {
            "election": null,
            "id": 48,
            "name": "Kitchener—Conestoga"
          }
        ],
        "pollDivisionIds": [
          10139245
        ],
        "postalCode": "N3B3N6",
        "streetName": "SUGAR KING",
        "streetDirectionId": null,
        "streetTypeId": "DR",
        "placeName": "ELMIRA",
        "streetNameDisplayText": "SUGAR KING DR, ELMIRA"
      }
    ]
  },
  {
    "postal": "N3B3X6",
    "result": []
  },
  {
    "postal": "N3B8L0",
    "result": []
  },
  {
    "postal": "N3B8N1",
    "result": []
  },
  {
    "postal": "N3B4J0",
    "result": []
  },
  {
    "postal": "N3B0X7",
    "result": []
  },
  {
    "postal": "N3B6S4",
    "result": []
  },
  {
    "postal": "N3B0Z0",
    "result": []
  },
  {
    "postal": "N3B9X8",
    "result": []
  },
  {
    "postal": "N3B3H3",
    "result": []
  },
  {
    "postal": "N3B7S2",
    "result": []
  },
  {
    "postal": "N3B3T3",
    "result": []
  },
  {
    "postal": "N3B9P3",
    "result": []
  },
  {
    "postal": "N3B4H8",
    "result": []
  },
  {
    "postal": "N3B6R1",
    "result": []
  },
  {
    "postal": "N3B1S0",
    "result": []
  },
  {
    "postal": "N3B3W8",
    "result": []
  },
  {
    "postal": "N3B4S3",
    "result": []
  },
  {
    "postal": "N3B1B6",
    "result": [
      {
        "electoralDistricts": [
          {
            "election": null,
            "id": 48,
            "name": "Kitchener—Conestoga"
          }
        ],
        "pollDivisionIds": [
          10139244
        ],
        "postalCode": "N3B1B6",
        "streetName": "ORIOLE",
        "streetDirectionId": "E",
        "streetTypeId": "PKY",
        "placeName": "ELMIRA",
        "streetNameDisplayText": "ORIOLE PKY E, ELMIRA"
      },
      {
        "electoralDistricts": [
          {
            "election": null,
            "id": 48,
            "name": "Kitchener—Conestoga"
          }
        ],
        "pollDivisionIds": [
          10139245,
          10139244
        ],
        "postalCode": "N3B1B6",
        "streetName": "ORIOLE",
        "streetDirectionId": "W",
        "streetTypeId": "PKY",
        "placeName": "ELMIRA",
        "streetNameDisplayText": "ORIOLE PKY W, ELMIRA"
      }
    ]
  },
  {
    "postal": "N3B8R3",
    "result": []
  },
  {
    "postal": "N3B4V9",
    "result": []
  },
  {
    "postal": "N3B9W4",
    "result": []
  },
  {
    "postal": "N3B3T4",
    "result": []
  },
  {
    "postal": "N3B5C7",
    "result": []
  },
  {
    "postal": "N3B3Y1",
    "result": []
  },
  {
    "postal": "N3B5V0",
    "result": []
  },
  {
    "postal": "N3B8G8",
    "result": []
  },
  {
    "postal": "N3B8B1",
    "result": []
  },
  {
    "postal": "N3B4P5",
    "result": []
  },
  {
    "postal": "N3B7B2",
    "result": []
  },
  {
    "postal": "N3B0R2",
    "result": []
  },
  {
    "postal": "N3B4M4",
    "result": []
  },
  {
    "postal": "N3B7M4",
    "result": []
  },
  {
    "postal": "N3B9S7",
    "result": []
  },
  {
    "postal": "N3B5Z7",
    "result": []
  },
  {
    "postal": "N3B7J7",
    "result": []
  },
  {
    "postal": "N3B8R8",
    "result": []
  },
  {
    "postal": "N3B9X1",
    "result": []
  },
  {
    "postal": "N3B5M9",
    "result": []
  },
  {
    "postal": "N3B9B4",
    "result": []
  },
  {
    "postal": "N3B0L9",
    "result": []
  },
  {
    "postal": "N3B9G4",
    "result": []
  },
  {
    "postal": "N3B1J4",
    "result": [
      {
        "electoralDistricts": [
          {
            "election": null,
            "id": 48,
            "name": "Kitchener—Conestoga"
          }
        ],
        "pollDivisionIds": [
          10139245
        ],
        "postalCode": "N3B1J4",
        "streetName": "BLUEJAY",
        "streetDirectionId": null,
        "streetTypeId": "RD",
        "placeName": "ELMIRA",
        "streetNameDisplayText": "BLUEJAY RD, ELMIRA"
      }
    ]
  },
  {
    "postal": "N3B0W6",
    "result": []
  }
]
