[
  {
    "postal": "L2H9J6",
    "result": []
  },
  {
    "postal": "L2H9Z5",
    "result": []
  },
  {
    "postal": "L2H7H8",
    "result": []
  },
  {
    "postal": "L2H0P6",
    "result": [
      {
        "electoralDistricts": [
          {
            "election": null,
            "id": 69,
            "name": "Niagara Falls"
          }
        ],
        "pollDivisionIds": [
          10139972
        ],
        "postalCode": "L2H0P6",
        "streetName": "BEAVERDAMS",
        "streetDirectionId": null,
        "streetTypeId": "RD",
        "placeName": "NIAGARA FALLS",
        "streetNameDisplayText": "BEAVERDAMS RD, NIAGARA FALLS"
      }
    ]
  },
  {
    "postal": "L2H0S7",
    "result": [
      {
        "electoralDistricts": [
          {
            "election": null,
            "id": 69,
            "name": "Niagara Falls"
          }
        ],
        "pollDivisionIds": [
          10139993
        ],
        "postalCode": "L2H0S7",
        "streetName": "GARNER",
        "streetDirectionId": null,
        "streetTypeId": "RD",
        "placeName": "NIAGARA FALLS",
        "streetNameDisplayText": "GARNER RD, NIAGARA FALLS"
      }
    ]
  },
  {
    "postal": "L2H8B9",
    "result": []
  },
  {
    "postal": "L2H2A6",
    "result": [
      {
        "electoralDistricts": [
          {
            "election": null,
            "id": 69,
            "name": "Niagara Falls"
          }
        ],
        "pollDivisionIds": [
          10139995
        ],
        "postalCode": "L2H2A6",
        "streetName": "KIRKLAND",
        "streetDirectionId": null,
        "streetTypeId": "DR",
        "placeName": "NIAGARA FALLS",
        "streetNameDisplayText": "KIRKLAND DR, NIAGARA FALLS"
      }
    ]
  },
  {
    "postal": "L2H7V2",
    "result": []
  },
  {
    "postal": "L2H9P4",
    "result": []
  },
  {
    "postal": "L2H6G0",
    "result": []
  },
  {
    "postal": "L2H2K0",
    "result": []
  },
  {
    "postal": "L2H7N6",
    "result": []
  },
  {
    "postal": "L2H5R3",
    "result": []
  },
  {
    "postal": "L2H7K0",
    "result": []
  },
  {
    "postal": "L2H3R2",
    "result": []
  },
  {
    "postal": "L2H0J1",
    "result": [
      {
        "electoralDistricts": [
          {
            "election": null,
            "id": 69,
            "name": "Niagara Falls"
          }
        ],
        "pollDivisionIds": [
          10139993
        ],
        "postalCode": "L2H0J1",
        "streetName": "FAUSTA",
        "streetDirectionId": null,
        "streetTypeId": "BLVD",
        "placeName": "NIAGARA FALLS",
        "streetNameDisplayText": "FAUSTA BLVD, NIAGARA FALLS"
      },
      {
        "electoralDistricts": [
          {
            "election": null,
            "id": 69,
            "name": "Niagara Falls"
          }
        ],
        "pollDivisionIds": [
          10139993
        ],
        "postalCode": "L2H0J1",
        "streetName": "JENNIFER",
        "streetDirectionId": null,
        "streetTypeId": "CRES",
        "placeName": "NIAGARA FALLS",
        "streetNameDisplayText": "JENNIFER CRES, NIAGARA FALLS"
      },
      {
        "electoralDistricts": [
          {
            "election": null,
            "id": 69,
            "name": "Niagara Falls"
          }
        ],
        "pollDivisionIds": [
          10139993
        ],
        "postalCode": "L2H0J1",
        "streetName": "WIENS",
        "streetDirectionId": null,
        "streetTypeId": "BLVD",
        "placeName": "NIAGARA FALLS",
        "streetNameDisplayText": "WIENS BLVD, NIAGARA FALLS"
      }
    ]
  },
  {
    "postal": "L2H0B0",
    "result": []
  },
  {
    "postal": "L2H5Z2",
    "result": []
  },
  {
    "postal": "L2H7P3",
    "result": []
  },
  {
    "postal": "L2H2K3",
    "result": [
      {
        "electoralDistricts": [
          {
            "election": null,
            "id": 69,
            "name": "Niagara Falls"
          }
        ],
        "pollDivisionIds": [
          10139982
        ],
        "postalCode": "L2H2K3",
        "streetName": "BAMBI",
        "streetDirectionId": null,
        "streetTypeId": "CRES",
        "placeName": "NIAGARA FALLS",
        "streetNameDisplayText": "BAMBI CRES, NIAGARA FALLS"
      }
    ]
  },
  {
    "postal": "L2H7Y6",
    "result": []
  },
  {
    "postal": "L2H1L9",
    "result": [
      {
        "electoralDistricts": [
          {
            "election": null,
            "id": 69,
            "name": "Niagara Falls"
          }
        ],
        "pollDivisionIds": [
          10139982,
          10139963
        ],
        "postalCode": "L2H1L9",
        "streetName": "MONTROSE",
        "streetDirectionId": null,
        "streetTypeId": "RD",
        "placeName": "NIAGARA FALLS",
        "streetNameDisplayText": "MONTROSE RD, NIAGARA FALLS"
      }
    ]
  },
  {
    "postal": "L2H8T0",
    "result": []
  },
  {
    "postal": "L2H3K8",
    "result": [
      {
        "electoralDistricts": [
          {
            "election": null,
            "id": 69,
            "name": "Niagara Falls"
          }
        ],
        "pollDivisionIds": [
          10139982
        ],
        "postalCode": "L2H3K8",
        "streetName": "BEAVERDAMS",
        "streetDirectionId": null,
        "streetTypeId": "RD",
        "placeName": "NIAGARA FALLS",
        "streetNameDisplayText": "BEAVERDAMS RD, NIAGARA FALLS"
      }
    ]
  },
  {
    "postal": "L2H5W9",
    "result": []
  },
  {
    "postal": "L2H6T9",
    "result": []
  },
  {
    "postal": "L2H4H1",
    "result": []
  },
  {
    "postal": "L2H7A2",
    "result": []
  },
  {
    "postal": "L2H5G0",
    "result": []
  },
  {
    "postal": "L2H8V5",
    "result": []
  },
  {
    "postal": "L2H2Y8",
    "result": [
      {
        "electoralDistricts": [
          {
            "election": null,
            "id": 69,
            "name": "Niagara Falls"
          }
        ],
        "pollDivisionIds": [
          10139974
        ],
        "postalCode": "L2H2Y8",
        "streetName": "FATIMA",
        "streetDirectionId": null,
        "streetTypeId": "CRT",
        "placeName": "NIAGARA FALLS",
        "streetNameDisplayText": "FATIMA CRT, NIAGARA FALLS"
      },
      {
        "electoralDistricts": [
          {
            "election": null,
            "id": 69,
            "name": "Niagara Falls"
          }
        ],
        "pollDivisionIds": [
          10139974
        ],
        "postalCode": "L2H2Y8",
        "streetName": "MOUNT CARMEL",
        "streetDirectionId": null,
        "streetTypeId": "BLVD",
        "placeName": "NIAGARA FALLS",
        "streetNameDisplayText": "MOUNT CARMEL BLVD, NIAGARA FALLS"
      },
      {
        "electoralDistricts": [
          {
            "election": null,
            "id": 69,
            "name": "Niagara Falls"
          }
        ],
        "pollDivisionIds": [
          10139974
        ],
        "postalCode": "L2H2Y8",
        "streetName": "WESTMINSTER",
        "streetDirectionId": null,
        "streetTypeId": "DR",
        "placeName": "NIAGARA FALLS",
        "streetNameDisplayText": "WESTMINSTER DR, NIAGARA FALLS"
      }
    ]
  },
  {
    "postal": "L2H2B6",
    "result": [
      {
        "electoralDistricts": [
          {
            "election": null,
            "id": 69,
            "name": "Niagara Falls"
          }
        ],
        "pollDivisionIds": [
          10139973
        ],
        "postalCode": "L2H2B6",
        "streetName": "MICHAEL",
        "streetDirectionId": null,
        "streetTypeId": "ST",
        "placeName": "NIAGARA FALLS",
        "streetNameDisplayText": "MICHAEL ST, NIAGARA FALLS"
      }
    ]
  },
  {
    "postal": "L2H4W8",
    "result": []
  },
  {
    "postal": "L2H8H7",
    "result": []
  },
  {
    "postal": "L2H5P1",
    "result": []
  },
  {
    "postal": "L2H2B8",
    "result": [
      {
        "electoralDistricts": [
          {
            "election": null,
            "id": 69,
            "name": "Niagara Falls"
          }
        ],
        "pollDivisionIds": [
          10139973
        ],
        "postalCode": "L2H2B8",
        "streetName": "NERO",
        "streetDirectionId": null,
        "streetTypeId": "CRES",
        "placeName": "NIAGARA FALLS",
        "streetNameDisplayText": "NERO CRES, NIAGARA FALLS"
      }
    ]
  },
  {
    "postal": "L2H0P2",
    "result": [
      {
        "electoralDistricts": [
          {
            "election": null,
            "id": 69,
            "name": "Niagara Falls"
          }
        ],
        "pollDivisionIds": [
          10140002,
          10139967
        ],
        "postalCode": "L2H0P2",
        "streetName": "BLUE ASH",
        "streetDirectionId": null,
        "streetTypeId": "LANE",
        "placeName": "NIAGARA FALLS",
        "streetNameDisplayText": "BLUE ASH LANE, NIAGARA FALLS"
      },
      {
        "electoralDistricts": [
          {
            "election": null,
            "id": 69,
            "name": "Niagara Falls"
          }
        ],
        "pollDivisionIds": [
          10140004,
          10140002
        ],
        "postalCode": "L2H0P2",
        "streetName": "BUCKEYE",
        "streetDirectionId": null,
        "streetTypeId": "CRES",
        "placeName": "NIAGARA FALLS",
        "streetNameDisplayText": "BUCKEYE CRES, NIAGARA FALLS"
      }
    ]
  },
  {
    "postal": "L2H9M1",
    "result": []
  },
  {
    "postal": "L2H3G0",
    "result": []
  },
  {
    "postal": "L2H9Z2",
    "result": []
  },
  {
    "postal": "L2H2A0",
    "result": []
  },
  {
    "postal": "L2H6Y0",
    "result": []
  },
  {
    "postal": "L2H2Z8",
    "result": [
      {
        "electoralDistricts": [
          {
            "election": null,
            "id": 69,
            "name": "Niagara Falls"
          }
        ],
        "pollDivisionIds": [
          10139995
        ],
        "postalCode": "L2H2Z8",
        "streetName": "ANDREA",
        "streetDirectionId": null,
        "streetTypeId": "DR",
        "placeName": "NIAGARA FALLS",
        "streetNameDisplayText": "ANDREA DR, NIAGARA FALLS"
      },
      {
        "electoralDistricts": [
          {
            "election": null,
            "id": 69,
            "name": "Niagara Falls"
          }
        ],
        "pollDivisionIds": [
          10139995
        ],
        "postalCode": "L2H2Z8",
        "streetName": "ETHEL",
        "streetDirectionId": null,
        "streetTypeId": "ST",
        "placeName": "NIAGARA FALLS",
        "streetNameDisplayText": "ETHEL ST, NIAGARA FALLS"
      }
    ]
  },
  {
    "postal": "L2H7Y3",
    "result": []
  },
  {
    "postal": "L2H6Z5",
    "result": []
  },
  {
    "postal": "L2H6E0",
    "result": []
  },
  {
    "postal": "L2H9B7",
    "result": []
  },
  {
    "postal": "L2H9S5",
    "result": []
  },
  {
    "postal": "L2H3X3",
    "result": []
  },
  {
    "postal": "L2H7R5",
    "result": []
  },
  {
    "postal": "L2H2X3",
    "result": [
      {
        "electoralDistricts": [
          {
            "election": null,
            "id": 69,
            "name": "Niagara Falls"
          }
        ],
        "pollDivisionIds": [
          10139974
        ],
        "postalCode": "L2H2X3",
        "streetName": "CARDINAL",
        "streetDirectionId": null,
        "streetTypeId": "DR",
        "placeName": "NIAGARA FALLS",
        "streetNameDisplayText": "CARDINAL DR, NIAGARA FALLS"
      },
      {
        "electoralDistricts": [
          {
            "election": null,
            "id": 69,
            "name": "Niagara Falls"
          }
        ],
        "pollDivisionIds": [
          10139974
        ],
        "postalCode": "L2H2X3",
        "streetName": "NOTRE DAME",
        "streetDirectionId": null,
        "streetTypeId": "CRT",
        "placeName": "NIAGARA FALLS",
        "streetNameDisplayText": "NOTRE DAME CRT, NIAGARA FALLS"
      },
      {
        "electoralDistricts": [
          {
            "election": null,
            "id": 69,
            "name": "Niagara Falls"
          }
        ],
        "pollDivisionIds": [
          10139974
        ],
        "postalCode": "L2H2X3",
        "streetName": "ST AUGUSTINE",
        "streetDirectionId": null,
        "streetTypeId": "CRES",
        "placeName": "NIAGARA FALLS",
        "streetNameDisplayText": "ST AUGUSTINE CRES, NIAGARA FALLS"
      }
    ]
  },
  {
    "postal": "L2H8Z9",
    "result": []
  },
  {
    "postal": "L2H0N4",
    "result": [
      {
        "electoralDistricts": [
          {
            "election": null,
            "id": 69,
            "name": "Niagara Falls"
          }
        ],
        "pollDivisionIds": [
          10140002
        ],
        "postalCode": "L2H0N4",
        "streetName": "HOPTREE",
        "streetDirectionId": null,
        "streetTypeId": "RD",
        "placeName": "NIAGARA FALLS",
        "streetNameDisplayText": "HOPTREE RD, NIAGARA FALLS"
      },
      {
        "electoralDistricts": [
          {
            "election": null,
            "id": 69,
            "name": "Niagara Falls"
          }
        ],
        "pollDivisionIds": [
          10140002
        ],
        "postalCode": "L2H0N4",
        "streetName": "TULIP TREE",
        "streetDirectionId": null,
        "streetTypeId": "DR",
        "placeName": "NIAGARA FALLS",
        "streetNameDisplayText": "TULIP TREE DR, NIAGARA FALLS"
      }
    ]
  },
  {
    "postal": "L2H1K1",
    "result": [
      {
        "electoralDistricts": [
          {
            "election": null,
            "id": 69,
            "name": "Niagara Falls"
          }
        ],
        "pollDivisionIds": [
          10139967,
          10139983
        ],
        "postalCode": "L2H1K1",
        "streetName": "MONTROSE",
        "streetDirectionId": null,
        "streetTypeId": "RD",
        "placeName": "NIAGARA FALLS",
        "streetNameDisplayText": "MONTROSE RD, NIAGARA FALLS"
      }
    ]
  },
  {
    "postal": "L2H1S3",
    "result": [
      {
        "electoralDistricts": [
          {
            "election": null,
            "id": 69,
            "name": "Niagara Falls"
          }
        ],
        "pollDivisionIds": [
          10139995
        ],
        "postalCode": "L2H1S3",
        "streetName": "PITTON",
        "streetDirectionId": null,
        "streetTypeId": "RD",
        "placeName": "NIAGARA FALLS",
        "streetNameDisplayText": "PITTON RD, NIAGARA FALLS"
      }
    ]
  },
  {
    "postal": "L2H6M4",
    "result": []
  },
  {
    "postal": "L2H9A9",
    "result": []
  },
  {
    "postal": "L2H9Z9",
    "result": []
  },
  {
    "postal": "L2H6T4",
    "result": []
  },
  {
    "postal": "L2H0B2",
    "result": [
      {
        "electoralDistricts": [
          {
            "election": null,
            "id": 69,
            "name": "Niagara Falls"
          }
        ],
        "pollDivisionIds": [
          10139993,
          10139994
        ],
        "postalCode": "L2H0B2",
        "streetName": "FORESTVIEW",
        "streetDirectionId": null,
        "streetTypeId": "BLVD",
        "placeName": "NIAGARA FALLS",
        "streetNameDisplayText": "FORESTVIEW BLVD, NIAGARA FALLS"
      },
      {
        "electoralDistricts": [
          {
            "election": null,
            "id": 69,
            "name": "Niagara Falls"
          }
        ],
        "pollDivisionIds": [
          10139993
        ],
        "postalCode": "L2H0B2",
        "streetName": "KELSEY",
        "streetDirectionId": null,
        "streetTypeId": "CRES",
        "placeName": "NIAGARA FALLS",
        "streetNameDisplayText": "KELSEY CRES, NIAGARA FALLS"
      },
      {
        "electoralDistricts": [
          {
            "election": null,
            "id": 69,
            "name": "Niagara Falls"
          }
        ],
        "pollDivisionIds": [
          10139993
        ],
        "postalCode": "L2H0B2",
        "streetName": "PARKSIDE",
        "streetDirectionId": null,
        "streetTypeId": "RD",
        "placeName": "NIAGARA FALLS",
        "streetNameDisplayText": "PARKSIDE RD, NIAGARA FALLS"
      }
    ]
  },
  {
    "postal": "L2H2L9",
    "result": [
      {
        "electoralDistricts": [
          {
            "election": null,
            "id": 69,
            "name": "Niagara Falls"
          }
        ],
        "pollDivisionIds": [
          10139982
        ],
        "postalCode": "L2H2L9",
        "streetName": "GLEN",
        "streetDirectionId": null,
        "streetTypeId": "DR",
        "placeName": "NIAGARA FALLS",
        "streetNameDisplayText": "GLEN DR, NIAGARA FALLS"
      }
    ]
  },
  {
    "postal": "L2H8K9",
    "result": []
  },
  {
    "postal": "L2H2H9",
    "result": [
      {
        "electoralDistricts": [
          {
            "election": null,
            "id": 69,
            "name": "Niagara Falls"
          }
        ],
        "pollDivisionIds": [
          10140008
        ],
        "postalCode": "L2H2H9",
        "streetName": "KING",
        "streetDirectionId": null,
        "streetTypeId": "RD",
        "placeName": "NIAGARA FALLS",
        "streetNameDisplayText": "KING RD, NIAGARA FALLS"
      }
    ]
  },
  {
    "postal": "L2H3Z6",
    "result": []
  },
  {
    "postal": "L2H3B0",
    "result": []
  },
  {
    "postal": "L2H2H8",
    "result": [
      {
        "electoralDistricts": [
          {
            "election": null,
            "id": 69,
            "name": "Niagara Falls"
          }
        ],
        "pollDivisionIds": [
          10140008
        ],
        "postalCode": "L2H2H8",
        "streetName": "BOSSERT",
        "streetDirectionId": null,
        "streetTypeId": "RD",
        "placeName": "NIAGARA FALLS",
        "streetNameDisplayText": "BOSSERT RD, NIAGARA FALLS"
      }
    ]
  },
  {
    "postal": "L2H3X2",
    "result": []
  },
  {
    "postal": "L2H2E9",
    "result": [
      {
        "electoralDistricts": [
          {
            "election": null,
            "id": 69,
            "name": "Niagara Falls"
          }
        ],
        "pollDivisionIds": [
          10140002
        ],
        "postalCode": "L2H2E9",
        "streetName": "MONTROSE",
        "streetDirectionId": null,
        "streetTypeId": "RD",
        "placeName": "NIAGARA FALLS",
        "streetNameDisplayText": "MONTROSE RD, NIAGARA FALLS"
      }
    ]
  },
  {
    "postal": "L2H9P6",
    "result": []
  },
  {
    "postal": "L2H9E2",
    "result": []
  },
  {
    "postal": "L2H9H2",
    "result": []
  },
  {
    "postal": "L2H1S8",
    "result": [
      {
        "electoralDistricts": [
          {
            "election": null,
            "id": 69,
            "name": "Niagara Falls"
          }
        ],
        "pollDivisionIds": [
          10139981,
          10139973
        ],
        "postalCode": "L2H1S8",
        "streetName": "KALAR",
        "streetDirectionId": null,
        "streetTypeId": "RD",
        "placeName": "NIAGARA FALLS",
        "streetNameDisplayText": "KALAR RD, NIAGARA FALLS"
      }
    ]
  },
  {
    "postal": "L2H3M6",
    "result": [
      {
        "electoralDistricts": [
          {
            "election": null,
            "id": 69,
            "name": "Niagara Falls"
          }
        ],
        "pollDivisionIds": [
          10139967,
          10139982
        ],
        "postalCode": "L2H3M6",
        "streetName": "GRAHAM",
        "streetDirectionId": null,
        "streetTypeId": "ST",
        "placeName": "NIAGARA FALLS",
        "streetNameDisplayText": "GRAHAM ST, NIAGARA FALLS"
      }
    ]
  },
  {
    "postal": "L2H6Z8",
    "result": []
  },
  {
    "postal": "L2H4J2",
    "result": []
  },
  {
    "postal": "L2H9Y1",
    "result": []
  },
  {
    "postal": "L2H8V6",
    "result": []
  },
  {
    "postal": "L2H6B2",
    "result": []
  },
  {
    "postal": "L2H1P8",
    "result": [
      {
        "electoralDistricts": [
          {
            "election": null,
            "id": 69,
            "name": "Niagara Falls"
          }
        ],
        "pollDivisionIds": [
          10139982
        ],
        "postalCode": "L2H1P8",
        "streetName": "GREEN",
        "streetDirectionId": null,
        "streetTypeId": "AVE",
        "placeName": "NIAGARA FALLS",
        "streetNameDisplayText": "GREEN AVE, NIAGARA FALLS"
      }
    ]
  },
  {
    "postal": "L2H0V8",
    "result": [
      {
        "electoralDistricts": [
          {
            "election": null,
            "id": 69,
            "name": "Niagara Falls"
          }
        ],
        "pollDivisionIds": [
          10139972
        ],
        "postalCode": "L2H0V8",
        "streetName": "THOROLD STONE",
        "streetDirectionId": null,
        "streetTypeId": "RD",
        "placeName": "NIAGARA FALLS",
        "streetNameDisplayText": "THOROLD STONE RD, NIAGARA FALLS"
      }
    ]
  },
  {
    "postal": "L2H4Y0",
    "result": []
  },
  {
    "postal": "L2H2T4",
    "result": [
      {
        "electoralDistricts": [
          {
            "election": null,
            "id": 69,
            "name": "Niagara Falls"
          }
        ],
        "pollDivisionIds": [
          10139995
        ],
        "postalCode": "L2H2T4",
        "streetName": "KALAR",
        "streetDirectionId": null,
        "streetTypeId": "RD",
        "placeName": "NIAGARA FALLS",
        "streetNameDisplayText": "KALAR RD, NIAGARA FALLS"
      }
    ]
  },
  {
    "postal": "L2H2S3",
    "result": [
      {
        "electoralDistricts": [
          {
            "election": null,
            "id": 69,
            "name": "Niagara Falls"
          }
        ],
        "pollDivisionIds": [
          10140002
        ],
        "postalCode": "L2H2S3",
        "streetName": "BUCKINGHAM",
        "streetDirectionId": null,
        "streetTypeId": "DR",
        "placeName": "NIAGARA FALLS",
        "streetNameDisplayText": "BUCKINGHAM DR, NIAGARA FALLS"
      }
    ]
  },
  {
    "postal": "L2H0K0",
    "result": []
  },
  {
    "postal": "L2H5N1",
    "result": []
  },
  {
    "postal": "L2H7T0",
    "result": []
  },
  {
    "postal": "L2H9N2",
    "result": []
  },
  {
    "postal": "L2H5L1",
    "result": []
  },
  {
    "postal": "L2H7G5",
    "result": []
  },
  {
    "postal": "L2H6K2",
    "result": []
  },
  {
    "postal": "L2H6P9",
    "result": []
  },
  {
    "postal": "L2H0E6",
    "result": [
      {
        "electoralDistricts": [
          {
            "election": null,
            "id": 69,
            "name": "Niagara Falls"
          }
        ],
        "pollDivisionIds": [
          10139993
        ],
        "postalCode": "L2H0E6",
        "streetName": "KELSEY",
        "streetDirectionId": null,
        "streetTypeId": "CRES",
        "placeName": "NIAGARA FALLS",
        "streetNameDisplayText": "KELSEY CRES, NIAGARA FALLS"
      }
    ]
  },
  {
    "postal": "L2H8R9",
    "result": []
  },
  {
    "postal": "L2H3G9",
    "result": [
      {
        "electoralDistricts": [
          {
            "election": null,
            "id": 69,
            "name": "Niagara Falls"
          }
        ],
        "pollDivisionIds": [
          10139973
        ],
        "postalCode": "L2H3G9",
        "streetName": "CAMERON",
        "streetDirectionId": null,
        "streetTypeId": "CRT",
        "placeName": "NIAGARA FALLS",
        "streetNameDisplayText": "CAMERON CRT, NIAGARA FALLS"
      }
    ]
  },
  {
    "postal": "L2H0V7",
    "result": [
      {
        "electoralDistricts": [
          {
            "election": null,
            "id": 69,
            "name": "Niagara Falls"
          }
        ],
        "pollDivisionIds": [
          10139972
        ],
        "postalCode": "L2H0V7",
        "streetName": "THOROLD STONE",
        "streetDirectionId": null,
        "streetTypeId": "RD",
        "placeName": "NIAGARA FALLS",
        "streetNameDisplayText": "THOROLD STONE RD, NIAGARA FALLS"
      }
    ]
  },
  {
    "postal": "L2H2Z1",
    "result": [
      {
        "electoralDistricts": [
          {
            "election": null,
            "id": 69,
            "name": "Niagara Falls"
          }
        ],
        "pollDivisionIds": [
          10139974
        ],
        "postalCode": "L2H2Z1",
        "streetName": "MATTHEWS",
        "streetDirectionId": null,
        "streetTypeId": "DR",
        "placeName": "NIAGARA FALLS",
        "streetNameDisplayText": "MATTHEWS DR, NIAGARA FALLS"
      },
      {
        "electoralDistricts": [
          {
            "election": null,
            "id": 69,
            "name": "Niagara Falls"
          }
        ],
        "pollDivisionIds": [
          10139974
        ],
        "postalCode": "L2H2Z1",
        "streetName": "MOUNT CARMEL",
        "streetDirectionId": null,
        "streetTypeId": "BLVD",
        "placeName": "NIAGARA FALLS",
        "streetNameDisplayText": "MOUNT CARMEL BLVD, NIAGARA FALLS"
      },
      {
        "electoralDistricts": [
          {
            "election": null,
            "id": 69,
            "name": "Niagara Falls"
          }
        ],
        "pollDivisionIds": [
          10139974
        ],
        "postalCode": "L2H2Z1",
        "streetName": "MOUNT OLIVE",
        "streetDirectionId": null,
        "streetTypeId": "CRES",
        "placeName": "NIAGARA FALLS",
        "streetNameDisplayText": "MOUNT OLIVE CRES, NIAGARA FALLS"
      }
    ]
  },
  {
    "postal": "L2H7N1",
    "result": []
  },
  {
    "postal": "L2H3C6",
    "result": [
      {
        "electoralDistricts": [
          {
            "election": null,
            "id": 69,
            "name": "Niagara Falls"
          }
        ],
        "pollDivisionIds": [
          10139974
        ],
        "postalCode": "L2H3C6",
        "streetName": "BISHOP",
        "streetDirectionId": null,
        "streetTypeId": "AVE",
        "placeName": "NIAGARA FALLS",
        "streetNameDisplayText": "BISHOP AVE, NIAGARA FALLS"
      }
    ]
  },
  {
    "postal": "L2H4M1",
    "result": []
  },
  {
    "postal": "L2H9K2",
    "result": []
  },
  {
    "postal": "L2H9S6",
    "result": []
  },
  {
    "postal": "L2H4X1",
    "result": []
  },
  {
    "postal": "L2H8W2",
    "result": []
  },
  {
    "postal": "L2H7N2",
    "result": []
  },
  {
    "postal": "L2H8S3",
    "result": []
  },
  {
    "postal": "L2H4V0",
    "result": []
  },
  {
    "postal": "L2H6W4",
    "result": []
  },
  {
    "postal": "L2H5M1",
    "result": []
  },
  {
    "postal": "L2H0S4",
    "result": [
      {
        "electoralDistricts": [
          {
            "election": null,
            "id": 69,
            "name": "Niagara Falls"
          }
        ],
        "pollDivisionIds": [
          10139972
        ],
        "postalCode": "L2H0S4",
        "streetName": "GARNER",
        "streetDirectionId": null,
        "streetTypeId": "RD",
        "placeName": "NIAGARA FALLS",
        "streetNameDisplayText": "GARNER RD, NIAGARA FALLS"
      }
    ]
  },
  {
    "postal": "L2H5X6",
    "result": []
  },
  {
    "postal": "L2H8L5",
    "result": []
  },
  {
    "postal": "L2H5M8",
    "result": []
  },
  {
    "postal": "L2H2G3",
    "result": [
      {
        "electoralDistricts": [
          {
            "election": null,
            "id": 69,
            "name": "Niagara Falls"
          }
        ],
        "pollDivisionIds": [
          10139973
        ],
        "postalCode": "L2H2G3",
        "streetName": "PRESTON",
        "streetDirectionId": null,
        "streetTypeId": "AVE",
        "placeName": "NIAGARA FALLS",
        "streetNameDisplayText": "PRESTON AVE, NIAGARA FALLS"
      }
    ]
  },
  {
    "postal": "L2H8E4",
    "result": []
  },
  {
    "postal": "L2H7S9",
    "result": []
  },
  {
    "postal": "L2H1K3",
    "result": [
      {
        "electoralDistricts": [
          {
            "election": null,
            "id": 69,
            "name": "Niagara Falls"
          }
        ],
        "pollDivisionIds": [
          10139983
        ],
        "postalCode": "L2H1K3",
        "streetName": "MONTROSE",
        "streetDirectionId": null,
        "streetTypeId": "RD",
        "placeName": "NIAGARA FALLS",
        "streetNameDisplayText": "MONTROSE RD, NIAGARA FALLS"
      }
    ]
  },
  {
    "postal": "L2H4E1",
    "result": []
  },
  {
    "postal": "L2H4R2",
    "result": []
  },
  {
    "postal": "L2H6T0",
    "result": []
  },
  {
    "postal": "L2H3K5",
    "result": [
      {
        "electoralDistricts": [
          {
            "election": null,
            "id": 69,
            "name": "Niagara Falls"
          }
        ],
        "pollDivisionIds": [
          10139982
        ],
        "postalCode": "L2H3K5",
        "streetName": "BEAVER GLEN",
        "streetDirectionId": null,
        "streetTypeId": "DR",
        "placeName": "NIAGARA FALLS",
        "streetNameDisplayText": "BEAVER GLEN DR, NIAGARA FALLS"
      },
      {
        "electoralDistricts": [
          {
            "election": null,
            "id": 69,
            "name": "Niagara Falls"
          }
        ],
        "pollDivisionIds": [
          10139982
        ],
        "postalCode": "L2H3K5",
        "streetName": "BEAVERTON",
        "streetDirectionId": null,
        "streetTypeId": "BLVD",
        "placeName": "NIAGARA FALLS",
        "streetNameDisplayText": "BEAVERTON BLVD, NIAGARA FALLS"
      },
      {
        "electoralDistricts": [
          {
            "election": null,
            "id": 69,
            "name": "Niagara Falls"
          }
        ],
        "pollDivisionIds": [
          10139982
        ],
        "postalCode": "L2H3K5",
        "streetName": "BROOKSIDE",
        "streetDirectionId": null,
        "streetTypeId": "DR",
        "placeName": "NIAGARA FALLS",
        "streetNameDisplayText": "BROOKSIDE DR, NIAGARA FALLS"
      }
    ]
  },
  {
    "postal": "L2H3S3",
    "result": []
  },
  {
    "postal": "L2H3L4",
    "result": [
      {
        "electoralDistricts": [
          {
            "election": null,
            "id": 69,
            "name": "Niagara Falls"
          }
        ],
        "pollDivisionIds": [
          10139994
        ],
        "postalCode": "L2H3L4",
        "streetName": "BRYANNE",
        "streetDirectionId": null,
        "streetTypeId": "CRT",
        "placeName": "NIAGARA FALLS",
        "streetNameDisplayText": "BRYANNE CRT, NIAGARA FALLS"
      },
      {
        "electoralDistricts": [
          {
            "election": null,
            "id": 69,
            "name": "Niagara Falls"
          }
        ],
        "pollDivisionIds": [
          10139994
        ],
        "postalCode": "L2H3L4",
        "streetName": "JULIE",
        "streetDirectionId": null,
        "streetTypeId": "DR",
        "placeName": "NIAGARA FALLS",
        "streetNameDisplayText": "JULIE DR, NIAGARA FALLS"
      }
    ]
  },
  {
    "postal": "L2H9Y2",
    "result": []
  },
  {
    "postal": "L2H1E0",
    "result": []
  },
  {
    "postal": "L2H9A4",
    "result": []
  },
  {
    "postal": "L2H1L3",
    "result": [
      {
        "electoralDistricts": [
          {
            "election": null,
            "id": 69,
            "name": "Niagara Falls"
          }
        ],
        "pollDivisionIds": [
          10139995
        ],
        "postalCode": "L2H1L3",
        "streetName": "MONTROSE",
        "streetDirectionId": null,
        "streetTypeId": "RD",
        "placeName": "NIAGARA FALLS",
        "streetNameDisplayText": "MONTROSE RD, NIAGARA FALLS"
      }
    ]
  },
  {
    "postal": "L2H6N1",
    "result": []
  },
  {
    "postal": "L2H6G7",
    "result": []
  },
  {
    "postal": "L2H7W1",
    "result": []
  },
  {
    "postal": "L2H4M6",
    "result": []
  },
  {
    "postal": "L2H1K0",
    "result": []
  },
  {
    "postal": "L2H3E2",
    "result": [
      {
        "electoralDistricts": [
          {
            "election": null,
            "id": 69,
            "name": "Niagara Falls"
          }
        ],
        "pollDivisionIds": [
          10140002
        ],
        "postalCode": "L2H3E2",
        "streetName": "CHARNWOOD",
        "streetDirectionId": null,
        "streetTypeId": "AVE",
        "placeName": "NIAGARA FALLS",
        "streetNameDisplayText": "CHARNWOOD AVE, NIAGARA FALLS"
      }
    ]
  },
  {
    "postal": "L2H5H4",
    "result": []
  },
  {
    "postal": "L2H1K7",
    "result": [
      {
        "electoralDistricts": [
          {
            "election": null,
            "id": 69,
            "name": "Niagara Falls"
          }
        ],
        "pollDivisionIds": [
          10139982
        ],
        "postalCode": "L2H1K7",
        "streetName": "MONTROSE",
        "streetDirectionId": null,
        "streetTypeId": "RD",
        "placeName": "NIAGARA FALLS",
        "streetNameDisplayText": "MONTROSE RD, NIAGARA FALLS"
      }
    ]
  },
  {
    "postal": "L2H0H0",
    "result": []
  },
  {
    "postal": "L2H0J3",
    "result": [
      {
        "electoralDistricts": [
          {
            "election": null,
            "id": 69,
            "name": "Niagara Falls"
          }
        ],
        "pollDivisionIds": [
          10139993
        ],
        "postalCode": "L2H0J3",
        "streetName": "ANGIE",
        "streetDirectionId": null,
        "streetTypeId": "DR",
        "placeName": "NIAGARA FALLS",
        "streetNameDisplayText": "ANGIE DR, NIAGARA FALLS"
      },
      {
        "electoralDistricts": [
          {
            "election": null,
            "id": 69,
            "name": "Niagara Falls"
          }
        ],
        "pollDivisionIds": [
          10139993
        ],
        "postalCode": "L2H0J3",
        "streetName": "JENNIFER",
        "streetDirectionId": null,
        "streetTypeId": "CRES",
        "placeName": "NIAGARA FALLS",
        "streetNameDisplayText": "JENNIFER CRES, NIAGARA FALLS"
      }
    ]
  },
  {
    "postal": "L2H1X6",
    "result": [
      {
        "electoralDistricts": [
          {
            "election": null,
            "id": 69,
            "name": "Niagara Falls"
          }
        ],
        "pollDivisionIds": [
          10139993
        ],
        "postalCode": "L2H1X6",
        "streetName": "THOROLD TOWNLINE",
        "streetDirectionId": null,
        "streetTypeId": "RD",
        "placeName": "NIAGARA FALLS",
        "streetNameDisplayText": "THOROLD TOWNLINE RD, NIAGARA FALLS"
      }
    ]
  },
  {
    "postal": "L2H2Z6",
    "result": [
      {
        "electoralDistricts": [
          {
            "election": null,
            "id": 69,
            "name": "Niagara Falls"
          }
        ],
        "pollDivisionIds": [
          10139982
        ],
        "postalCode": "L2H2Z6",
        "streetName": "SOUTHVIEW",
        "streetDirectionId": null,
        "streetTypeId": "AVE",
        "placeName": "NIAGARA FALLS",
        "streetNameDisplayText": "SOUTHVIEW AVE, NIAGARA FALLS"
      },
      {
        "electoralDistricts": [
          {
            "election": null,
            "id": 69,
            "name": "Niagara Falls"
          }
        ],
        "pollDivisionIds": [
          10139982
        ],
        "postalCode": "L2H2Z6",
        "streetName": "TRACKVIEW",
        "streetDirectionId": null,
        "streetTypeId": "ST",
        "placeName": "NIAGARA FALLS",
        "streetNameDisplayText": "TRACKVIEW ST, NIAGARA FALLS"
      },
      {
        "electoralDistricts": [
          {
            "election": null,
            "id": 69,
            "name": "Niagara Falls"
          }
        ],
        "pollDivisionIds": [
          10139982
        ],
        "postalCode": "L2H2Z6",
        "streetName": "WINDGATE",
        "streetDirectionId": null,
        "streetTypeId": "DR",
        "placeName": "NIAGARA FALLS",
        "streetNameDisplayText": "WINDGATE DR, NIAGARA FALLS"
      }
    ]
  },
  {
    "postal": "L2H4R9",
    "result": []
  },
  {
    "postal": "L2H0W8",
    "result": [
      {
        "electoralDistricts": [
          {
            "election": null,
            "id": 69,
            "name": "Niagara Falls"
          }
        ],
        "pollDivisionIds": [
          10139993
        ],
        "postalCode": "L2H0W8",
        "streetName": "BEECHWOOD",
        "streetDirectionId": null,
        "streetTypeId": "RD",
        "placeName": "NIAGARA FALLS",
        "streetNameDisplayText": "BEECHWOOD RD, NIAGARA FALLS"
      }
    ]
  },
  {
    "postal": "L2H1L4",
    "result": [
      {
        "electoralDistricts": [
          {
            "election": null,
            "id": 69,
            "name": "Niagara Falls"
          }
        ],
        "pollDivisionIds": [
          10139995
        ],
        "postalCode": "L2H1L4",
        "streetName": "MONTROSE",
        "streetDirectionId": null,
        "streetTypeId": "RD",
        "placeName": "NIAGARA FALLS",
        "streetNameDisplayText": "MONTROSE RD, NIAGARA FALLS"
      }
    ]
  },
  {
    "postal": "L2H0C8",
    "result": [
      {
        "electoralDistricts": [
          {
            "election": null,
            "id": 69,
            "name": "Niagara Falls"
          }
        ],
        "pollDivisionIds": [
          10139993
        ],
        "postalCode": "L2H0C8",
        "streetName": "CONNOR",
        "streetDirectionId": null,
        "streetTypeId": "CRES",
        "placeName": "NIAGARA FALLS",
        "streetNameDisplayText": "CONNOR CRES, NIAGARA FALLS"
      },
      {
        "electoralDistricts": [
          {
            "election": null,
            "id": 69,
            "name": "Niagara Falls"
          }
        ],
        "pollDivisionIds": [
          10139993
        ],
        "postalCode": "L2H0C8",
        "streetName": "DILALLA",
        "streetDirectionId": null,
        "streetTypeId": "CRES",
        "placeName": "NIAGARA FALLS",
        "streetNameDisplayText": "DILALLA CRES, NIAGARA FALLS"
      },
      {
        "electoralDistricts": [
          {
            "election": null,
            "id": 69,
            "name": "Niagara Falls"
          }
        ],
        "pollDivisionIds": [
          10139993
        ],
        "postalCode": "L2H0C8",
        "streetName": "ST MICHAEL",
        "streetDirectionId": null,
        "streetTypeId": "AVE",
        "placeName": "NIAGARA FALLS",
        "streetNameDisplayText": "ST MICHAEL AVE, NIAGARA FALLS"
      }
    ]
  },
  {
    "postal": "L2H9X7",
    "result": []
  },
  {
    "postal": "L2H4T1",
    "result": []
  },
  {
    "postal": "L2H0M0",
    "result": []
  },
  {
    "postal": "L2H6A2",
    "result": []
  },
  {
    "postal": "L2H9S8",
    "result": []
  },
  {
    "postal": "L2H9T4",
    "result": []
  },
  {
    "postal": "L2H9Y4",
    "result": []
  },
  {
    "postal": "L2H6G5",
    "result": []
  },
  {
    "postal": "L2H6H9",
    "result": []
  },
  {
    "postal": "L2H2P3",
    "result": [
      {
        "electoralDistricts": [
          {
            "election": null,
            "id": 69,
            "name": "Niagara Falls"
          }
        ],
        "pollDivisionIds": [
          10139983
        ],
        "postalCode": "L2H2P3",
        "streetName": "ORIOLE",
        "streetDirectionId": null,
        "streetTypeId": "DR",
        "placeName": "NIAGARA FALLS",
        "streetNameDisplayText": "ORIOLE DR, NIAGARA FALLS"
      },
      {
        "electoralDistricts": [
          {
            "election": null,
            "id": 69,
            "name": "Niagara Falls"
          }
        ],
        "pollDivisionIds": [
          10139983
        ],
        "postalCode": "L2H2P3",
        "streetName": "ROBIN",
        "streetDirectionId": null,
        "streetTypeId": "AVE",
        "placeName": "NIAGARA FALLS",
        "streetNameDisplayText": "ROBIN AVE, NIAGARA FALLS"
      }
    ]
  },
  {
    "postal": "L2H1T6",
    "result": [
      {
        "electoralDistricts": [
          {
            "election": null,
            "id": 69,
            "name": "Niagara Falls"
          }
        ],
        "pollDivisionIds": [
          10139995
        ],
        "postalCode": "L2H1T6",
        "streetName": "KALAR",
        "streetDirectionId": null,
        "streetTypeId": "RD",
        "placeName": "NIAGARA FALLS",
        "streetNameDisplayText": "KALAR RD, NIAGARA FALLS"
      }
    ]
  },
  {
    "postal": "L2H4P6",
    "result": []
  },
  {
    "postal": "L2H3K1",
    "result": [
      {
        "electoralDistricts": [
          {
            "election": null,
            "id": 69,
            "name": "Niagara Falls"
          }
        ],
        "pollDivisionIds": [
          10139994
        ],
        "postalCode": "L2H3K1",
        "streetName": "BRYANNE",
        "streetDirectionId": null,
        "streetTypeId": "CRT",
        "placeName": "NIAGARA FALLS",
        "streetNameDisplayText": "BRYANNE CRT, NIAGARA FALLS"
      },
      {
        "electoralDistricts": [
          {
            "election": null,
            "id": 69,
            "name": "Niagara Falls"
          }
        ],
        "pollDivisionIds": [
          10139994
        ],
        "postalCode": "L2H3K1",
        "streetName": "KELLY",
        "streetDirectionId": null,
        "streetTypeId": "DR",
        "placeName": "NIAGARA FALLS",
        "streetNameDisplayText": "KELLY DR, NIAGARA FALLS"
      },
      {
        "electoralDistricts": [
          {
            "election": null,
            "id": 69,
            "name": "Niagara Falls"
          }
        ],
        "pollDivisionIds": [
          10139994
        ],
        "postalCode": "L2H3K1",
        "streetName": "PARKSIDE",
        "streetDirectionId": null,
        "streetTypeId": "RD",
        "placeName": "NIAGARA FALLS",
        "streetNameDisplayText": "PARKSIDE RD, NIAGARA FALLS"
      }
    ]
  },
  {
    "postal": "L2H6X4",
    "result": []
  },
  {
    "postal": "L2H4M8",
    "result": []
  },
  {
    "postal": "L2H2Y1",
    "result": [
      {
        "electoralDistricts": [
          {
            "election": null,
            "id": 69,
            "name": "Niagara Falls"
          }
        ],
        "pollDivisionIds": [
          10139974
        ],
        "postalCode": "L2H2Y1",
        "streetName": "CARDINAL",
        "streetDirectionId": null,
        "streetTypeId": "DR",
        "placeName": "NIAGARA FALLS",
        "streetNameDisplayText": "CARDINAL DR, NIAGARA FALLS"
      },
      {
        "electoralDistricts": [
          {
            "election": null,
            "id": 69,
            "name": "Niagara Falls"
          }
        ],
        "pollDivisionIds": [
          10139974
        ],
        "postalCode": "L2H2Y1",
        "streetName": "MOUNT CARMEL",
        "streetDirectionId": null,
        "streetTypeId": "BLVD",
        "placeName": "NIAGARA FALLS",
        "streetNameDisplayText": "MOUNT CARMEL BLVD, NIAGARA FALLS"
      }
    ]
  },
  {
    "postal": "L2H6M1",
    "result": []
  },
  {
    "postal": "L2H5L8",
    "result": []
  },
  {
    "postal": "L2H3P6",
    "result": [
      {
        "electoralDistricts": [
          {
            "election": null,
            "id": 69,
            "name": "Niagara Falls"
          }
        ],
        "pollDivisionIds": [
          10140009
        ],
        "postalCode": "L2H3P6",
        "streetName": "SODOM",
        "streetDirectionId": null,
        "streetTypeId": "RD",
        "placeName": "NIAGARA FALLS",
        "streetNameDisplayText": "SODOM RD, NIAGARA FALLS"
      }
    ]
  },
  {
    "postal": "L2H9A5",
    "result": []
  },
  {
    "postal": "L2H7K1",
    "result": []
  },
  {
    "postal": "L2H3J4",
    "result": [
      {
        "electoralDistricts": [
          {
            "election": null,
            "id": 69,
            "name": "Niagara Falls"
          }
        ],
        "pollDivisionIds": [
          10139982
        ],
        "postalCode": "L2H3J4",
        "streetName": "MAGNOLIA",
        "streetDirectionId": null,
        "streetTypeId": "DR",
        "placeName": "NIAGARA FALLS",
        "streetNameDisplayText": "MAGNOLIA DR, NIAGARA FALLS"
      }
    ]
  },
  {
    "postal": "L2H5E7",
    "result": []
  },
  {
    "postal": "L2H3A7",
    "result": [
      {
        "electoralDistricts": [
          {
            "election": null,
            "id": 69,
            "name": "Niagara Falls"
          }
        ],
        "pollDivisionIds": [
          10139974
        ],
        "postalCode": "L2H3A7",
        "streetName": "MONASTERY",
        "streetDirectionId": null,
        "streetTypeId": "DR",
        "placeName": "NIAGARA FALLS",
        "streetNameDisplayText": "MONASTERY DR, NIAGARA FALLS"
      },
      {
        "electoralDistricts": [
          {
            "election": null,
            "id": 69,
            "name": "Niagara Falls"
          }
        ],
        "pollDivisionIds": [
          10139974
        ],
        "postalCode": "L2H3A7",
        "streetName": "TRINITY",
        "streetDirectionId": null,
        "streetTypeId": "CRT",
        "placeName": "NIAGARA FALLS",
        "streetNameDisplayText": "TRINITY CRT, NIAGARA FALLS"
      }
    ]
  },
  {
    "postal": "L2H1B9",
    "result": [
      {
        "electoralDistricts": [
          {
            "election": null,
            "id": 69,
            "name": "Niagara Falls"
          }
        ],
        "pollDivisionIds": [
          10139981
        ],
        "postalCode": "L2H1B9",
        "streetName": "MULHERN",
        "streetDirectionId": null,
        "streetTypeId": "ST",
        "placeName": "NIAGARA FALLS",
        "streetNameDisplayText": "MULHERN ST, NIAGARA FALLS"
      }
    ]
  },
  {
    "postal": "L2H9E8",
    "result": []
  },
  {
    "postal": "L2H1C9",
    "result": [
      {
        "electoralDistricts": [
          {
            "election": null,
            "id": 69,
            "name": "Niagara Falls"
          }
        ],
        "pollDivisionIds": [
          10139982
        ],
        "postalCode": "L2H1C9",
        "streetName": "WANLESS",
        "streetDirectionId": null,
        "streetTypeId": "ST",
        "placeName": "NIAGARA FALLS",
        "streetNameDisplayText": "WANLESS ST, NIAGARA FALLS"
      }
    ]
  },
  {
    "postal": "L2H3B5",
    "result": [
      {
        "electoralDistricts": [
          {
            "election": null,
            "id": 69,
            "name": "Niagara Falls"
          }
        ],
        "pollDivisionIds": [
          10139983
        ],
        "postalCode": "L2H3B5",
        "streetName": "ALPINE",
        "streetDirectionId": null,
        "streetTypeId": "DR",
        "placeName": "NIAGARA FALLS",
        "streetNameDisplayText": "ALPINE DR, NIAGARA FALLS"
      },
      {
        "electoralDistricts": [
          {
            "election": null,
            "id": 69,
            "name": "Niagara Falls"
          }
        ],
        "pollDivisionIds": [
          10139983
        ],
        "postalCode": "L2H3B5",
        "streetName": "CORTINA",
        "streetDirectionId": null,
        "streetTypeId": "CRES",
        "placeName": "NIAGARA FALLS",
        "streetNameDisplayText": "CORTINA CRES, NIAGARA FALLS"
      },
      {
        "electoralDistricts": [
          {
            "election": null,
            "id": 69,
            "name": "Niagara Falls"
          }
        ],
        "pollDivisionIds": [
          10139983
        ],
        "postalCode": "L2H3B5",
        "streetName": "KEVIN",
        "streetDirectionId": null,
        "streetTypeId": "DR",
        "placeName": "NIAGARA FALLS",
        "streetNameDisplayText": "KEVIN DR, NIAGARA FALLS"
      }
    ]
  },
  {
    "postal": "L2H8R0",
    "result": []
  },
  {
    "postal": "L2H3P2",
    "result": [
      {
        "electoralDistricts": [
          {
            "election": null,
            "id": 69,
            "name": "Niagara Falls"
          }
        ],
        "pollDivisionIds": [
          10140009
        ],
        "postalCode": "L2H3P2",
        "streetName": "SAUER",
        "streetDirectionId": null,
        "streetTypeId": "RD",
        "placeName": "NIAGARA FALLS",
        "streetNameDisplayText": "SAUER RD, NIAGARA FALLS"
      }
    ]
  },
  {
    "postal": "L2H5V4",
    "result": []
  },
  {
    "postal": "L2H4H0",
    "result": []
  },
  {
    "postal": "L2H4S7",
    "result": []
  },
  {
    "postal": "L2H6C2",
    "result": []
  },
  {
    "postal": "L2H8W3",
    "result": []
  },
  {
    "postal": "L2H4M5",
    "result": []
  },
  {
    "postal": "L2H5T1",
    "result": []
  },
  {
    "postal": "L2H3B3",
    "result": [
      {
        "electoralDistricts": [
          {
            "election": null,
            "id": 69,
            "name": "Niagara Falls"
          }
        ],
        "pollDivisionIds": [
          10139974
        ],
        "postalCode": "L2H3B3",
        "streetName": "MONASTERY",
        "streetDirectionId": null,
        "streetTypeId": "DR",
        "placeName": "NIAGARA FALLS",
        "streetNameDisplayText": "MONASTERY DR, NIAGARA FALLS"
      }
    ]
  },
  {
    "postal": "L2H6C6",
    "result": []
  },
  {
    "postal": "L2H7N8",
    "result": []
  },
  {
    "postal": "L2H2Y3",
    "result": [
      {
        "electoralDistricts": [
          {
            "election": null,
            "id": 69,
            "name": "Niagara Falls"
          }
        ],
        "pollDivisionIds": [
          10139974
        ],
        "postalCode": "L2H2Y3",
        "streetName": "MOUNT CARMEL",
        "streetDirectionId": null,
        "streetTypeId": "BLVD",
        "placeName": "NIAGARA FALLS",
        "streetNameDisplayText": "MOUNT CARMEL BLVD, NIAGARA FALLS"
      }
    ]
  },
  {
    "postal": "L2H2R6",
    "result": [
      {
        "electoralDistricts": [
          {
            "election": null,
            "id": 69,
            "name": "Niagara Falls"
          }
        ],
        "pollDivisionIds": [
          10140002
        ],
        "postalCode": "L2H2R6",
        "streetName": "CUMBERLAND",
        "streetDirectionId": null,
        "streetTypeId": "CRT",
        "placeName": "NIAGARA FALLS",
        "streetNameDisplayText": "CUMBERLAND CRT, NIAGARA FALLS"
      }
    ]
  },
  {
    "postal": "L2H7N3",
    "result": []
  },
  {
    "postal": "L2H8J2",
    "result": []
  },
  {
    "postal": "L2H6A9",
    "result": []
  },
  {
    "postal": "L2H3V2",
    "result": []
  },
  {
    "postal": "L2H2N3",
    "result": [
      {
        "electoralDistricts": [
          {
            "election": null,
            "id": 69,
            "name": "Niagara Falls"
          }
        ],
        "pollDivisionIds": [
          10139983
        ],
        "postalCode": "L2H2N3",
        "streetName": "DONLEE",
        "streetDirectionId": null,
        "streetTypeId": "DR",
        "placeName": "NIAGARA FALLS",
        "streetNameDisplayText": "DONLEE DR, NIAGARA FALLS"
      }
    ]
  },
  {
    "postal": "L2H1S5",
    "result": [
      {
        "electoralDistricts": [
          {
            "election": null,
            "id": 69,
            "name": "Niagara Falls"
          }
        ],
        "pollDivisionIds": [
          10139995
        ],
        "postalCode": "L2H1S5",
        "streetName": "ELDORADO",
        "streetDirectionId": null,
        "streetTypeId": "AVE",
        "placeName": "NIAGARA FALLS",
        "streetNameDisplayText": "ELDORADO AVE, NIAGARA FALLS"
      }
    ]
  },
  {
    "postal": "L2H4T7",
    "result": []
  },
  {
    "postal": "L2H6Y7",
    "result": []
  },
  {
    "postal": "L2H0W7",
    "result": [
      {
        "electoralDistricts": [
          {
            "election": null,
            "id": 69,
            "name": "Niagara Falls"
          }
        ],
        "pollDivisionIds": [
          10139993
        ],
        "postalCode": "L2H0W7",
        "streetName": "BEECHWOOD",
        "streetDirectionId": null,
        "streetTypeId": "RD",
        "placeName": "NIAGARA FALLS",
        "streetNameDisplayText": "BEECHWOOD RD, NIAGARA FALLS"
      }
    ]
  },
  {
    "postal": "L2H2W9",
    "result": [
      {
        "electoralDistricts": [
          {
            "election": null,
            "id": 69,
            "name": "Niagara Falls"
          }
        ],
        "pollDivisionIds": [
          10139982
        ],
        "postalCode": "L2H2W9",
        "streetName": "LUNDY'S",
        "streetDirectionId": null,
        "streetTypeId": "LANE",
        "placeName": "NIAGARA FALLS",
        "streetNameDisplayText": "LUNDY'S LANE, NIAGARA FALLS"
      }
    ]
  },
  {
    "postal": "L2H8V0",
    "result": []
  },
  {
    "postal": "L2H0H4",
    "result": [
      {
        "electoralDistricts": [
          {
            "election": null,
            "id": 69,
            "name": "Niagara Falls"
          }
        ],
        "pollDivisionIds": [
          10139972
        ],
        "postalCode": "L2H0H4",
        "streetName": "TAYLOR",
        "streetDirectionId": null,
        "streetTypeId": "RD",
        "placeName": "NIAGARA FALLS",
        "streetNameDisplayText": "TAYLOR RD, NIAGARA FALLS"
      },
      {
        "electoralDistricts": [
          {
            "election": null,
            "id": 69,
            "name": "Niagara Falls"
          }
        ],
        "pollDivisionIds": [
          10139972
        ],
        "postalCode": "L2H0H4",
        "streetName": "TAYLOR",
        "streetDirectionId": null,
        "streetTypeId": "RD",
        "placeName": "THOROLD",
        "streetNameDisplayText": "TAYLOR RD, THOROLD"
      }
    ]
  },
  {
    "postal": "L2H2T1",
    "result": [
      {
        "electoralDistricts": [
          {
            "election": null,
            "id": 69,
            "name": "Niagara Falls"
          }
        ],
        "pollDivisionIds": [
          10139982
        ],
        "postalCode": "L2H2T1",
        "streetName": "MONTROSE",
        "streetDirectionId": null,
        "streetTypeId": "RD",
        "placeName": "NIAGARA FALLS",
        "streetNameDisplayText": "MONTROSE RD, NIAGARA FALLS"
      }
    ]
  },
  {
    "postal": "L2H1B1",
    "result": [
      {
        "electoralDistricts": [
          {
            "election": null,
            "id": 69,
            "name": "Niagara Falls"
          }
        ],
        "pollDivisionIds": [
          10139983
        ],
        "postalCode": "L2H1B1",
        "streetName": "INDUSTRIAL",
        "streetDirectionId": null,
        "streetTypeId": "ST",
        "placeName": "NIAGARA FALLS",
        "streetNameDisplayText": "INDUSTRIAL ST, NIAGARA FALLS"
      }
    ]
  },
  {
    "postal": "L2H8B6",
    "result": []
  },
  {
    "postal": "L2H6H1",
    "result": []
  },
  {
    "postal": "L2H8T8",
    "result": []
  },
  {
    "postal": "L2H0T4",
    "result": [
      {
        "electoralDistricts": [
          {
            "election": null,
            "id": 69,
            "name": "Niagara Falls"
          }
        ],
        "pollDivisionIds": [
          10139974
        ],
        "postalCode": "L2H0T4",
        "streetName": "KALAR",
        "streetDirectionId": null,
        "streetTypeId": "RD",
        "placeName": "NIAGARA FALLS",
        "streetNameDisplayText": "KALAR RD, NIAGARA FALLS"
      }
    ]
  },
  {
    "postal": "L2H2C4",
    "result": [
      {
        "electoralDistricts": [
          {
            "election": null,
            "id": 69,
            "name": "Niagara Falls"
          }
        ],
        "pollDivisionIds": [
          10139973
        ],
        "postalCode": "L2H2C4",
        "streetName": "PRESTON",
        "streetDirectionId": null,
        "streetTypeId": "AVE",
        "placeName": "NIAGARA FALLS",
        "streetNameDisplayText": "PRESTON AVE, NIAGARA FALLS"
      }
    ]
  },
  {
    "postal": "L2H8N3",
    "result": []
  },
  {
    "postal": "L2H4L8",
    "result": []
  },
  {
    "postal": "L2H2B5",
    "result": [
      {
        "electoralDistricts": [
          {
            "election": null,
            "id": 69,
            "name": "Niagara Falls"
          }
        ],
        "pollDivisionIds": [
          10139981,
          10139973
        ],
        "postalCode": "L2H2B5",
        "streetName": "BROOKDALE",
        "streetDirectionId": null,
        "streetTypeId": "DR",
        "placeName": "NIAGARA FALLS",
        "streetNameDisplayText": "BROOKDALE DR, NIAGARA FALLS"
      }
    ]
  },
  {
    "postal": "L2H3H1",
    "result": [
      {
        "electoralDistricts": [
          {
            "election": null,
            "id": 69,
            "name": "Niagara Falls"
          }
        ],
        "pollDivisionIds": [
          10139982
        ],
        "postalCode": "L2H3H1",
        "streetName": "ASCOT",
        "streetDirectionId": null,
        "streetTypeId": "CIR",
        "placeName": "NIAGARA FALLS",
        "streetNameDisplayText": "ASCOT CIR, NIAGARA FALLS"
      }
    ]
  },
  {
    "postal": "L2H4Y1",
    "result": []
  },
  {
    "postal": "L2H7E2",
    "result": []
  },
  {
    "postal": "L2H2P5",
    "result": [
      {
        "electoralDistricts": [
          {
            "election": null,
            "id": 69,
            "name": "Niagara Falls"
          }
        ],
        "pollDivisionIds": [
          10139983
        ],
        "postalCode": "L2H2P5",
        "streetName": "ORIOLE",
        "streetDirectionId": null,
        "streetTypeId": "DR",
        "placeName": "NIAGARA FALLS",
        "streetNameDisplayText": "ORIOLE DR, NIAGARA FALLS"
      }
    ]
  },
  {
    "postal": "L2H8R7",
    "result": []
  },
  {
    "postal": "L2H9P1",
    "result": []
  },
  {
    "postal": "L2H3B8",
    "result": [
      {
        "electoralDistricts": [
          {
            "election": null,
            "id": 69,
            "name": "Niagara Falls"
          }
        ],
        "pollDivisionIds": [
          10139983
        ],
        "postalCode": "L2H3B8",
        "streetName": "BALDWIN",
        "streetDirectionId": null,
        "streetTypeId": "AVE",
        "placeName": "NIAGARA FALLS",
        "streetNameDisplayText": "BALDWIN AVE, NIAGARA FALLS"
      },
      {
        "electoralDistricts": [
          {
            "election": null,
            "id": 69,
            "name": "Niagara Falls"
          }
        ],
        "pollDivisionIds": [
          10139983
        ],
        "postalCode": "L2H3B8",
        "streetName": "VINCENT",
        "streetDirectionId": null,
        "streetTypeId": "ST",
        "placeName": "NIAGARA FALLS",
        "streetNameDisplayText": "VINCENT ST, NIAGARA FALLS"
      }
    ]
  },
  {
    "postal": "L2H3P7",
    "result": [
      {
        "electoralDistricts": [
          {
            "election": null,
            "id": 69,
            "name": "Niagara Falls"
          }
        ],
        "pollDivisionIds": [
          10140009
        ],
        "postalCode": "L2H3P7",
        "streetName": "SODOM",
        "streetDirectionId": null,
        "streetTypeId": "RD",
        "placeName": "NIAGARA FALLS",
        "streetNameDisplayText": "SODOM RD, NIAGARA FALLS"
      }
    ]
  },
  {
    "postal": "L2H9B2",
    "result": []
  },
  {
    "postal": "L2H6Z3",
    "result": []
  },
  {
    "postal": "L2H4N5",
    "result": []
  },
  {
    "postal": "L2H8T3",
    "result": []
  },
  {
    "postal": "L2H1V2",
    "result": [
      {
        "electoralDistricts": [
          {
            "election": null,
            "id": 69,
            "name": "Niagara Falls"
          }
        ],
        "pollDivisionIds": [
          10139995
        ],
        "postalCode": "L2H1V2",
        "streetName": "BELAIRE",
        "streetDirectionId": null,
        "streetTypeId": "AVE",
        "placeName": "NIAGARA FALLS",
        "streetNameDisplayText": "BELAIRE AVE, NIAGARA FALLS"
      }
    ]
  },
  {
    "postal": "L2H1Y0",
    "result": []
  },
  {
    "postal": "L2H3G6",
    "result": [
      {
        "electoralDistricts": [
          {
            "election": null,
            "id": 69,
            "name": "Niagara Falls"
          }
        ],
        "pollDivisionIds": [
          10139982
        ],
        "postalCode": "L2H3G6",
        "streetName": "HARVEST",
        "streetDirectionId": null,
        "streetTypeId": "CRES",
        "placeName": "NIAGARA FALLS",
        "streetNameDisplayText": "HARVEST CRES, NIAGARA FALLS"
      }
    ]
  },
  {
    "postal": "L2H3H7",
    "result": [
      {
        "electoralDistricts": [
          {
            "election": null,
            "id": 69,
            "name": "Niagara Falls"
          }
        ],
        "pollDivisionIds": [
          10139982
        ],
        "postalCode": "L2H3H7",
        "streetName": "CITATION",
        "streetDirectionId": null,
        "streetTypeId": "RD",
        "placeName": "NIAGARA FALLS",
        "streetNameDisplayText": "CITATION RD, NIAGARA FALLS"
      }
    ]
  },
  {
    "postal": "L2H7X8",
    "result": []
  },
  {
    "postal": "L2H0C7",
    "result": [
      {
        "electoralDistricts": [
          {
            "election": null,
            "id": 69,
            "name": "Niagara Falls"
          }
        ],
        "pollDivisionIds": [
          10139993
        ],
        "postalCode": "L2H0C7",
        "streetName": "CONNOR",
        "streetDirectionId": null,
        "streetTypeId": "CRES",
        "placeName": "NIAGARA FALLS",
        "streetNameDisplayText": "CONNOR CRES, NIAGARA FALLS"
      },
      {
        "electoralDistricts": [
          {
            "election": null,
            "id": 69,
            "name": "Niagara Falls"
          }
        ],
        "pollDivisionIds": [
          10139994,
          10139993
        ],
        "postalCode": "L2H0C7",
        "streetName": "ST MICHAEL",
        "streetDirectionId": null,
        "streetTypeId": "AVE",
        "placeName": "NIAGARA FALLS",
        "streetNameDisplayText": "ST MICHAEL AVE, NIAGARA FALLS"
      }
    ]
  },
  {
    "postal": "L2H0W9",
    "result": [
      {
        "electoralDistricts": [
          {
            "election": null,
            "id": 69,
            "name": "Niagara Falls"
          }
        ],
        "pollDivisionIds": [
          10140002
        ],
        "postalCode": "L2H0W9",
        "streetName": "BROWN",
        "streetDirectionId": null,
        "streetTypeId": "RD",
        "placeName": "NIAGARA FALLS",
        "streetNameDisplayText": "BROWN RD, NIAGARA FALLS"
      }
    ]
  },
  {
    "postal": "L2H8E6",
    "result": []
  },
  {
    "postal": "L2H9Z8",
    "result": []
  },
  {
    "postal": "L2H3P4",
    "result": [
      {
        "electoralDistricts": [
          {
            "election": null,
            "id": 69,
            "name": "Niagara Falls"
          }
        ],
        "pollDivisionIds": [
          10140009
        ],
        "postalCode": "L2H3P4",
        "streetName": "SAUER",
        "streetDirectionId": null,
        "streetTypeId": "RD",
        "placeName": "NIAGARA FALLS",
        "streetNameDisplayText": "SAUER RD, NIAGARA FALLS"
      }
    ]
  },
  {
    "postal": "L2H6L8",
    "result": []
  },
  {
    "postal": "L2H2R4",
    "result": [
      {
        "electoralDistricts": [
          {
            "election": null,
            "id": 69,
            "name": "Niagara Falls"
          }
        ],
        "pollDivisionIds": [
          10140002
        ],
        "postalCode": "L2H2R4",
        "streetName": "DEVON",
        "streetDirectionId": null,
        "streetTypeId": "DR",
        "placeName": "NIAGARA FALLS",
        "streetNameDisplayText": "DEVON DR, NIAGARA FALLS"
      },
      {
        "electoralDistricts": [
          {
            "election": null,
            "id": 69,
            "name": "Niagara Falls"
          }
        ],
        "pollDivisionIds": [
          10140002
        ],
        "postalCode": "L2H2R4",
        "streetName": "HAMPTON",
        "streetDirectionId": null,
        "streetTypeId": "CRT",
        "placeName": "NIAGARA FALLS",
        "streetNameDisplayText": "HAMPTON CRT, NIAGARA FALLS"
      }
    ]
  },
  {
    "postal": "L2H2W1",
    "result": [
      {
        "electoralDistricts": [
          {
            "election": null,
            "id": 69,
            "name": "Niagara Falls"
          }
        ],
        "pollDivisionIds": [
          10139973
        ],
        "postalCode": "L2H2W1",
        "streetName": "FOREST GLEN",
        "streetDirectionId": null,
        "streetTypeId": "DR",
        "placeName": "NIAGARA FALLS",
        "streetNameDisplayText": "FOREST GLEN DR, NIAGARA FALLS"
      },
      {
        "electoralDistricts": [
          {
            "election": null,
            "id": 69,
            "name": "Niagara Falls"
          }
        ],
        "pollDivisionIds": [
          10139973
        ],
        "postalCode": "L2H2W1",
        "streetName": "OAKRIDGE",
        "streetDirectionId": null,
        "streetTypeId": "DR",
        "placeName": "NIAGARA FALLS",
        "streetNameDisplayText": "OAKRIDGE DR, NIAGARA FALLS"
      }
    ]
  },
  {
    "postal": "L2H9H8",
    "result": []
  },
  {
    "postal": "L2H8X9",
    "result": []
  },
  {
    "postal": "L2H7H4",
    "result": []
  },
  {
    "postal": "L2H3J1",
    "result": [
      {
        "electoralDistricts": [
          {
            "election": null,
            "id": 69,
            "name": "Niagara Falls"
          }
        ],
        "pollDivisionIds": [
          10139981
        ],
        "postalCode": "L2H3J1",
        "streetName": "FLEMING",
        "streetDirectionId": null,
        "streetTypeId": "DR",
        "placeName": "NIAGARA FALLS",
        "streetNameDisplayText": "FLEMING DR, NIAGARA FALLS"
      }
    ]
  },
  {
    "postal": "L2H1P4",
    "result": [
      {
        "electoralDistricts": [
          {
            "election": null,
            "id": 69,
            "name": "Niagara Falls"
          }
        ],
        "pollDivisionIds": [
          10139981
        ],
        "postalCode": "L2H1P4",
        "streetName": "BELFAST",
        "streetDirectionId": null,
        "streetTypeId": "AVE",
        "placeName": "NIAGARA FALLS",
        "streetNameDisplayText": "BELFAST AVE, NIAGARA FALLS"
      }
    ]
  },
  {
    "postal": "L2H2A3",
    "result": [
      {
        "electoralDistricts": [
          {
            "election": null,
            "id": 69,
            "name": "Niagara Falls"
          }
        ],
        "pollDivisionIds": [
          10139995
        ],
        "postalCode": "L2H2A3",
        "streetName": "LYNHURST",
        "streetDirectionId": null,
        "streetTypeId": "DR",
        "placeName": "NIAGARA FALLS",
        "streetNameDisplayText": "LYNHURST DR, NIAGARA FALLS"
      }
    ]
  },
  {
    "postal": "L2H0Z1",
    "result": [
      {
        "electoralDistricts": [
          {
            "election": null,
            "id": 69,
            "name": "Niagara Falls"
          }
        ],
        "pollDivisionIds": [
          10140002
        ],
        "postalCode": "L2H0Z1",
        "streetName": "MCLEOD",
        "streetDirectionId": null,
        "streetTypeId": "RD",
        "placeName": "NIAGARA FALLS",
        "streetNameDisplayText": "MCLEOD RD, NIAGARA FALLS"
      }
    ]
  },
  {
    "postal": "L2H1C1",
    "result": [
      {
        "electoralDistricts": [
          {
            "election": null,
            "id": 69,
            "name": "Niagara Falls"
          }
        ],
        "pollDivisionIds": [
          10139982
        ],
        "postalCode": "L2H1C1",
        "streetName": "WOODBINE",
        "streetDirectionId": null,
        "streetTypeId": "ST",
        "placeName": "NIAGARA FALLS",
        "streetNameDisplayText": "WOODBINE ST, NIAGARA FALLS"
      }
    ]
  },
  {
    "postal": "L2H0H3",
    "result": [
      {
        "electoralDistricts": [
          {
            "election": null,
            "id": 69,
            "name": "Niagara Falls"
          }
        ],
        "pollDivisionIds": [
          10139972
        ],
        "postalCode": "L2H0H3",
        "streetName": "TAYLOR",
        "streetDirectionId": null,
        "streetTypeId": "RD",
        "placeName": "NIAGARA FALLS",
        "streetNameDisplayText": "TAYLOR RD, NIAGARA FALLS"
      }
    ]
  },
  {
    "postal": "L2H7B0",
    "result": []
  },
  {
    "postal": "L2H5K2",
    "result": []
  },
  {
    "postal": "L2H1E9",
    "result": [
      {
        "electoralDistricts": [
          {
            "election": null,
            "id": 69,
            "name": "Niagara Falls"
          }
        ],
        "pollDivisionIds": [
          10139982
        ],
        "postalCode": "L2H1E9",
        "streetName": "RYSDALE",
        "streetDirectionId": null,
        "streetTypeId": "AVE",
        "placeName": "NIAGARA FALLS",
        "streetNameDisplayText": "RYSDALE AVE, NIAGARA FALLS"
      },
      {
        "electoralDistricts": [
          {
            "election": null,
            "id": 69,
            "name": "Niagara Falls"
          }
        ],
        "pollDivisionIds": [
          10139982
        ],
        "postalCode": "L2H1E9",
        "streetName": "RYSDALE",
        "streetDirectionId": null,
        "streetTypeId": "ST",
        "placeName": "NIAGARA FALLS",
        "streetNameDisplayText": "RYSDALE ST, NIAGARA FALLS"
      }
    ]
  },
  {
    "postal": "L2H9W7",
    "result": []
  },
  {
    "postal": "L2H5W6",
    "result": []
  },
  {
    "postal": "L2H6S6",
    "result": []
  },
  {
    "postal": "L2H2P8",
    "result": [
      {
        "electoralDistricts": [
          {
            "election": null,
            "id": 69,
            "name": "Niagara Falls"
          }
        ],
        "pollDivisionIds": [
          10139983
        ],
        "postalCode": "L2H2P8",
        "streetName": "SWAN",
        "streetDirectionId": null,
        "streetTypeId": "ST",
        "placeName": "NIAGARA FALLS",
        "streetNameDisplayText": "SWAN ST, NIAGARA FALLS"
      }
    ]
  },
  {
    "postal": "L2H4P8",
    "result": []
  },
  {
    "postal": "L2H0V9",
    "result": [
      {
        "electoralDistricts": [
          {
            "election": null,
            "id": 69,
            "name": "Niagara Falls"
          }
        ],
        "pollDivisionIds": [
          10139972
        ],
        "postalCode": "L2H0V9",
        "streetName": "THOROLD STONE",
        "streetDirectionId": null,
        "streetTypeId": "RD",
        "placeName": "NIAGARA FALLS",
        "streetNameDisplayText": "THOROLD STONE RD, NIAGARA FALLS"
      }
    ]
  },
  {
    "postal": "L2H5Y2",
    "result": []
  },
  {
    "postal": "L2H7Z7",
    "result": []
  },
  {
    "postal": "L2H6Y8",
    "result": []
  },
  {
    "postal": "L2H2G7",
    "result": [
      {
        "electoralDistricts": [
          {
            "election": null,
            "id": 69,
            "name": "Niagara Falls"
          }
        ],
        "pollDivisionIds": [
          10139973
        ],
        "postalCode": "L2H2G7",
        "streetName": "BROOKDALE",
        "streetDirectionId": null,
        "streetTypeId": "DR",
        "placeName": "NIAGARA FALLS",
        "streetNameDisplayText": "BROOKDALE DR, NIAGARA FALLS"
      }
    ]
  },
  {
    "postal": "L2H8C1",
    "result": []
  },
  {
    "postal": "L2H5C5",
    "result": []
  },
  {
    "postal": "L2H2X8",
    "result": [
      {
        "electoralDistricts": [
          {
            "election": null,
            "id": 69,
            "name": "Niagara Falls"
          }
        ],
        "pollDivisionIds": [
          10139982
        ],
        "postalCode": "L2H2X8",
        "streetName": "DELTA",
        "streetDirectionId": null,
        "streetTypeId": "DR",
        "placeName": "NIAGARA FALLS",
        "streetNameDisplayText": "DELTA DR, NIAGARA FALLS"
      }
    ]
  },
  {
    "postal": "L2H1W5",
    "result": [
      {
        "electoralDistricts": [
          {
            "election": null,
            "id": 69,
            "name": "Niagara Falls"
          }
        ],
        "pollDivisionIds": [
          10139982
        ],
        "postalCode": "L2H1W5",
        "streetName": "MCGOWAN",
        "streetDirectionId": null,
        "streetTypeId": "CRT",
        "placeName": "NIAGARA FALLS",
        "streetNameDisplayText": "MCGOWAN CRT, NIAGARA FALLS"
      }
    ]
  },
  {
    "postal": "L2H7G0",
    "result": []
  },
  {
    "postal": "L2H8J8",
    "result": []
  },
  {
    "postal": "L2H3Y0",
    "result": []
  },
  {
    "postal": "L2H9T7",
    "result": []
  },
  {
    "postal": "L2H5P4",
    "result": []
  },
  {
    "postal": "L2H4B0",
    "result": []
  },
  {
    "postal": "L2H9N8",
    "result": []
  },
  {
    "postal": "L2H4A7",
    "result": []
  },
  {
    "postal": "L2H4H9",
    "result": []
  },
  {
    "postal": "L2H6X1",
    "result": []
  },
  {
    "postal": "L2H9Y7",
    "result": []
  },
  {
    "postal": "L2H2Y5",
    "result": [
      {
        "electoralDistricts": [
          {
            "election": null,
            "id": 69,
            "name": "Niagara Falls"
          }
        ],
        "pollDivisionIds": [
          10139973
        ],
        "postalCode": "L2H2Y5",
        "streetName": "FOXE",
        "streetDirectionId": null,
        "streetTypeId": "DR",
        "placeName": "NIAGARA FALLS",
        "streetNameDisplayText": "FOXE DR, NIAGARA FALLS"
      },
      {
        "electoralDistricts": [
          {
            "election": null,
            "id": 69,
            "name": "Niagara Falls"
          }
        ],
        "pollDivisionIds": [
          10139973
        ],
        "postalCode": "L2H2Y5",
        "streetName": "LAVENA",
        "streetDirectionId": null,
        "streetTypeId": "CRT",
        "placeName": "NIAGARA FALLS",
        "streetNameDisplayText": "LAVENA CRT, NIAGARA FALLS"
      },
      {
        "electoralDistricts": [
          {
            "election": null,
            "id": 69,
            "name": "Niagara Falls"
          }
        ],
        "pollDivisionIds": [
          10139973
        ],
        "postalCode": "L2H2Y5",
        "streetName": "NORTHWOOD",
        "streetDirectionId": null,
        "streetTypeId": "DR",
        "placeName": "NIAGARA FALLS",
        "streetNameDisplayText": "NORTHWOOD DR, NIAGARA FALLS"
      }
    ]
  },
  {
    "postal": "L2H8L7",
    "result": []
  },
  {
    "postal": "L2H2A8",
    "result": [
      {
        "electoralDistricts": [
          {
            "election": null,
            "id": 69,
            "name": "Niagara Falls"
          }
        ],
        "pollDivisionIds": [
          10139973
        ],
        "postalCode": "L2H2A8",
        "streetName": "BROOKDALE",
        "streetDirectionId": null,
        "streetTypeId": "DR",
        "placeName": "NIAGARA FALLS",
        "streetNameDisplayText": "BROOKDALE DR, NIAGARA FALLS"
      }
    ]
  },
  {
    "postal": "L2H2K9",
    "result": [
      {
        "electoralDistricts": [
          {
            "election": null,
            "id": 69,
            "name": "Niagara Falls"
          }
        ],
        "pollDivisionIds": [
          10139995
        ],
        "postalCode": "L2H2K9",
        "streetName": "CHARNWOOD",
        "streetDirectionId": null,
        "streetTypeId": "AVE",
        "placeName": "NIAGARA FALLS",
        "streetNameDisplayText": "CHARNWOOD AVE, NIAGARA FALLS"
      }
    ]
  },
  {
    "postal": "L2H3E5",
    "result": [
      {
        "electoralDistricts": [
          {
            "election": null,
            "id": 69,
            "name": "Niagara Falls"
          }
        ],
        "pollDivisionIds": [
          10139982
        ],
        "postalCode": "L2H3E5",
        "streetName": "ASCOT",
        "streetDirectionId": null,
        "streetTypeId": "CIR",
        "placeName": "NIAGARA FALLS",
        "streetNameDisplayText": "ASCOT CIR, NIAGARA FALLS"
      },
      {
        "electoralDistricts": [
          {
            "election": null,
            "id": 69,
            "name": "Niagara Falls"
          }
        ],
        "pollDivisionIds": [
          10139982
        ],
        "postalCode": "L2H3E5",
        "streetName": "CITATION",
        "streetDirectionId": null,
        "streetTypeId": "RD",
        "placeName": "NIAGARA FALLS",
        "streetNameDisplayText": "CITATION RD, NIAGARA FALLS"
      }
    ]
  },
  {
    "postal": "L2H8N6",
    "result": []
  },
  {
    "postal": "L2H8J4",
    "result": []
  },
  {
    "postal": "L2H4R7",
    "result": []
  },
  {
    "postal": "L2H9K1",
    "result": []
  },
  {
    "postal": "L2H8E1",
    "result": []
  },
  {
    "postal": "L2H0R1",
    "result": [
      {
        "electoralDistricts": [
          {
            "election": null,
            "id": 69,
            "name": "Niagara Falls"
          }
        ],
        "pollDivisionIds": [
          10139972
        ],
        "postalCode": "L2H0R1",
        "streetName": "BEECHWOOD",
        "streetDirectionId": null,
        "streetTypeId": "RD",
        "placeName": "NIAGARA FALLS",
        "streetNameDisplayText": "BEECHWOOD RD, NIAGARA FALLS"
      }
    ]
  },
  {
    "postal": "L2H4J3",
    "result": []
  },
  {
    "postal": "L2H7E7",
    "result": []
  },
  {
    "postal": "L2H0J0",
    "result": []
  },
  {
    "postal": "L2H7R8",
    "result": []
  },
  {
    "postal": "L2H9X0",
    "result": []
  },
  {
    "postal": "L2H7P6",
    "result": []
  },
  {
    "postal": "L2H0R7",
    "result": [
      {
        "electoralDistricts": [
          {
            "election": null,
            "id": 69,
            "name": "Niagara Falls"
          }
        ],
        "pollDivisionIds": [
          10139993
        ],
        "postalCode": "L2H0R7",
        "streetName": "BEECHWOOD",
        "streetDirectionId": null,
        "streetTypeId": "RD",
        "placeName": "NIAGARA FALLS",
        "streetNameDisplayText": "BEECHWOOD RD, NIAGARA FALLS"
      }
    ]
  },
  {
    "postal": "L2H5W1",
    "result": []
  },
  {
    "postal": "L2H0K4",
    "result": [
      {
        "electoralDistricts": [
          {
            "election": null,
            "id": 69,
            "name": "Niagara Falls"
          }
        ],
        "pollDivisionIds": [
          10140002
        ],
        "postalCode": "L2H0K4",
        "streetName": "GOLDENROD",
        "streetDirectionId": null,
        "streetTypeId": "TRAIL",
        "placeName": "NIAGARA FALLS",
        "streetNameDisplayText": "GOLDENROD TRAIL, NIAGARA FALLS"
      },
      {
        "electoralDistricts": [
          {
            "election": null,
            "id": 69,
            "name": "Niagara Falls"
          }
        ],
        "pollDivisionIds": [
          10140002
        ],
        "postalCode": "L2H0K4",
        "streetName": "MULBERRY",
        "streetDirectionId": null,
        "streetTypeId": "DR",
        "placeName": "NIAGARA FALLS",
        "streetNameDisplayText": "MULBERRY DR, NIAGARA FALLS"
      }
    ]
  },
  {
    "postal": "L2H7N9",
    "result": []
  },
  {
    "postal": "L2H1N0",
    "result": []
  },
  {
    "postal": "L2H6P3",
    "result": []
  },
  {
    "postal": "L2H5A1",
    "result": []
  },
  {
    "postal": "L2H9M9",
    "result": []
  },
  {
    "postal": "L2H7T6",
    "result": []
  },
  {
    "postal": "L2H3X0",
    "result": []
  },
  {
    "postal": "L2H2T0",
    "result": []
  },
  {
    "postal": "L2H5X9",
    "result": []
  },
  {
    "postal": "L2H2R3",
    "result": [
      {
        "electoralDistricts": [
          {
            "election": null,
            "id": 69,
            "name": "Niagara Falls"
          }
        ],
        "pollDivisionIds": [
          10140002
        ],
        "postalCode": "L2H2R3",
        "streetName": "DEVON",
        "streetDirectionId": null,
        "streetTypeId": "DR",
        "placeName": "NIAGARA FALLS",
        "streetNameDisplayText": "DEVON DR, NIAGARA FALLS"
      },
      {
        "electoralDistricts": [
          {
            "election": null,
            "id": 69,
            "name": "Niagara Falls"
          }
        ],
        "pollDivisionIds": [
          10140002
        ],
        "postalCode": "L2H2R3",
        "streetName": "HAMPTON",
        "streetDirectionId": null,
        "streetTypeId": "CRT",
        "placeName": "NIAGARA FALLS",
        "streetNameDisplayText": "HAMPTON CRT, NIAGARA FALLS"
      }
    ]
  },
  {
    "postal": "L2H5N2",
    "result": []
  },
  {
    "postal": "L2H4Y7",
    "result": []
  },
  {
    "postal": "L2H7M0",
    "result": []
  },
  {
    "postal": "L2H8P3",
    "result": []
  },
  {
    "postal": "L2H3N3",
    "result": [
      {
        "electoralDistricts": [
          {
            "election": null,
            "id": 69,
            "name": "Niagara Falls"
          }
        ],
        "pollDivisionIds": [
          10140002
        ],
        "postalCode": "L2H3N3",
        "streetName": "MONTROSE",
        "streetDirectionId": null,
        "streetTypeId": "RD",
        "placeName": "NIAGARA FALLS",
        "streetNameDisplayText": "MONTROSE RD, NIAGARA FALLS"
      }
    ]
  },
  {
    "postal": "L2H7S3",
    "result": []
  },
  {
    "postal": "L2H3V9",
    "result": []
  },
  {
    "postal": "L2H9N7",
    "result": []
  },
  {
    "postal": "L2H0G4",
    "result": [
      {
        "electoralDistricts": [
          {
            "election": null,
            "id": 69,
            "name": "Niagara Falls"
          }
        ],
        "pollDivisionIds": [
          10139993
        ],
        "postalCode": "L2H0G4",
        "streetName": "EAGLE RIDGE",
        "streetDirectionId": null,
        "streetTypeId": "DR",
        "placeName": "NIAGARA FALLS",
        "streetNameDisplayText": "EAGLE RIDGE DR, NIAGARA FALLS"
      },
      {
        "electoralDistricts": [
          {
            "election": null,
            "id": 69,
            "name": "Niagara Falls"
          }
        ],
        "pollDivisionIds": [
          10139993
        ],
        "postalCode": "L2H0G4",
        "streetName": "FIDDLEHEAD",
        "streetDirectionId": null,
        "streetTypeId": "LANE",
        "placeName": "NIAGARA FALLS",
        "streetNameDisplayText": "FIDDLEHEAD LANE, NIAGARA FALLS"
      },
      {
        "electoralDistricts": [
          {
            "election": null,
            "id": 69,
            "name": "Niagara Falls"
          }
        ],
        "pollDivisionIds": [
          10139993
        ],
        "postalCode": "L2H0G4",
        "streetName": "IRONWOOD",
        "streetDirectionId": null,
        "streetTypeId": "ST",
        "placeName": "NIAGARA FALLS",
        "streetNameDisplayText": "IRONWOOD ST, NIAGARA FALLS"
      }
    ]
  },
  {
    "postal": "L2H2E2",
    "result": [
      {
        "electoralDistricts": [
          {
            "election": null,
            "id": 69,
            "name": "Niagara Falls"
          }
        ],
        "pollDivisionIds": [
          10139995
        ],
        "postalCode": "L2H2E2",
        "streetName": "RIDEAU",
        "streetDirectionId": null,
        "streetTypeId": "ST",
        "placeName": "NIAGARA FALLS",
        "streetNameDisplayText": "RIDEAU ST, NIAGARA FALLS"
      }
    ]
  },
  {
    "postal": "L2H7W8",
    "result": []
  },
  {
    "postal": "L2H7M5",
    "result": []
  },
  {
    "postal": "L2H5W8",
    "result": []
  },
  {
    "postal": "L2H5E5",
    "result": []
  },
  {
    "postal": "L2H1P9",
    "result": [
      {
        "electoralDistricts": [
          {
            "election": null,
            "id": 69,
            "name": "Niagara Falls"
          }
        ],
        "pollDivisionIds": [
          10139982
        ],
        "postalCode": "L2H1P9",
        "streetName": "GREEN",
        "streetDirectionId": null,
        "streetTypeId": "AVE",
        "placeName": "NIAGARA FALLS",
        "streetNameDisplayText": "GREEN AVE, NIAGARA FALLS"
      }
    ]
  },
  {
    "postal": "L2H8V8",
    "result": []
  },
  {
    "postal": "L2H9G8",
    "result": []
  },
  {
    "postal": "L2H8H9",
    "result": []
  },
  {
    "postal": "L2H1Z1",
    "result": [
      {
        "electoralDistricts": [
          {
            "election": null,
            "id": 69,
            "name": "Niagara Falls"
          }
        ],
        "pollDivisionIds": [
          10139995
        ],
        "postalCode": "L2H1Z1",
        "streetName": "ECHO",
        "streetDirectionId": null,
        "streetTypeId": "CIR",
        "placeName": "NIAGARA FALLS",
        "streetNameDisplayText": "ECHO CIR, NIAGARA FALLS"
      }
    ]
  },
  {
    "postal": "L2H8M3",
    "result": []
  },
  {
    "postal": "L2H5H6",
    "result": []
  },
  {
    "postal": "L2H7W7",
    "result": []
  },
  {
    "postal": "L2H4L0",
    "result": []
  },
  {
    "postal": "L2H2N1",
    "result": [
      {
        "electoralDistricts": [
          {
            "election": null,
            "id": 69,
            "name": "Niagara Falls"
          }
        ],
        "pollDivisionIds": [
          10139995
        ],
        "postalCode": "L2H2N1",
        "streetName": "SALISBURY",
        "streetDirectionId": null,
        "streetTypeId": "PL",
        "placeName": "NIAGARA FALLS",
        "streetNameDisplayText": "SALISBURY PL, NIAGARA FALLS"
      }
    ]
  },
  {
    "postal": "L2H2H4",
    "result": [
      {
        "electoralDistricts": [
          {
            "election": null,
            "id": 69,
            "name": "Niagara Falls"
          }
        ],
        "pollDivisionIds": [
          10139982
        ],
        "postalCode": "L2H2H4",
        "streetName": "DELTA",
        "streetDirectionId": null,
        "streetTypeId": "DR",
        "placeName": "NIAGARA FALLS",
        "streetNameDisplayText": "DELTA DR, NIAGARA FALLS"
      }
    ]
  },
  {
    "postal": "L2H5C8",
    "result": []
  },
  {
    "postal": "L2H8B0",
    "result": []
  },
  {
    "postal": "L2H1T4",
    "result": [
      {
        "electoralDistricts": [
          {
            "election": null,
            "id": 69,
            "name": "Niagara Falls"
          }
        ],
        "pollDivisionIds": [
          10139995,
          10140002
        ],
        "postalCode": "L2H1T4",
        "streetName": "KALAR",
        "streetDirectionId": null,
        "streetTypeId": "RD",
        "placeName": "NIAGARA FALLS",
        "streetNameDisplayText": "KALAR RD, NIAGARA FALLS"
      }
    ]
  },
  {
    "postal": "L2H7N7",
    "result": []
  },
  {
    "postal": "L2H4L3",
    "result": []
  },
  {
    "postal": "L2H2N2",
    "result": [
      {
        "electoralDistricts": [
          {
            "election": null,
            "id": 69,
            "name": "Niagara Falls"
          }
        ],
        "pollDivisionIds": [
          10140009
        ],
        "postalCode": "L2H2N2",
        "streetName": "ORT",
        "streetDirectionId": null,
        "streetTypeId": "RD",
        "placeName": "NIAGARA FALLS",
        "streetNameDisplayText": "ORT RD, NIAGARA FALLS"
      }
    ]
  },
  {
    "postal": "L2H4N8",
    "result": []
  },
  {
    "postal": "L2H3M5",
    "result": [
      {
        "electoralDistricts": [
          {
            "election": null,
            "id": 69,
            "name": "Niagara Falls"
          }
        ],
        "pollDivisionIds": [
          10139982
        ],
        "postalCode": "L2H3M5",
        "streetName": "BEAVERTON",
        "streetDirectionId": null,
        "streetTypeId": "BLVD",
        "placeName": "NIAGARA FALLS",
        "streetNameDisplayText": "BEAVERTON BLVD, NIAGARA FALLS"
      },
      {
        "electoralDistricts": [
          {
            "election": null,
            "id": 69,
            "name": "Niagara Falls"
          }
        ],
        "pollDivisionIds": [
          10139982
        ],
        "postalCode": "L2H3M5",
        "streetName": "BROOKSIDE",
        "streetDirectionId": null,
        "streetTypeId": "DR",
        "placeName": "NIAGARA FALLS",
        "streetNameDisplayText": "BROOKSIDE DR, NIAGARA FALLS"
      },
      {
        "electoralDistricts": [
          {
            "election": null,
            "id": 69,
            "name": "Niagara Falls"
          }
        ],
        "pollDivisionIds": [
          10139982
        ],
        "postalCode": "L2H3M5",
        "streetName": "WHITE DOVE",
        "streetDirectionId": null,
        "streetTypeId": "PKY",
        "placeName": "NIAGARA FALLS",
        "streetNameDisplayText": "WHITE DOVE PKY, NIAGARA FALLS"
      },
      {
        "electoralDistricts": [
          {
            "election": null,
            "id": 69,
            "name": "Niagara Falls"
          }
        ],
        "pollDivisionIds": [
          10139982
        ],
        "postalCode": "L2H3M5",
        "streetName": "WINDSONG",
        "streetDirectionId": null,
        "streetTypeId": "DR",
        "placeName": "NIAGARA FALLS",
        "streetNameDisplayText": "WINDSONG DR, NIAGARA FALLS"
      }
    ]
  },
  {
    "postal": "L2H6H7",
    "result": []
  },
  {
    "postal": "L2H8Y8",
    "result": []
  },
  {
    "postal": "L2H5R9",
    "result": []
  },
  {
    "postal": "L2H8G3",
    "result": []
  },
  {
    "postal": "L2H4N7",
    "result": []
  },
  {
    "postal": "L2H0B9",
    "result": [
      {
        "electoralDistricts": [
          {
            "election": null,
            "id": 69,
            "name": "Niagara Falls"
          }
        ],
        "pollDivisionIds": [
          10139993
        ],
        "postalCode": "L2H0B9",
        "streetName": "FORESTVIEW",
        "streetDirectionId": null,
        "streetTypeId": "BLVD",
        "placeName": "NIAGARA FALLS",
        "streetNameDisplayText": "FORESTVIEW BLVD, NIAGARA FALLS"
      }
    ]
  },
  {
    "postal": "L2H9K7",
    "result": []
  },
  {
    "postal": "L2H9K9",
    "result": []
  },
  {
    "postal": "L2H3Z2",
    "result": []
  },
  {
    "postal": "L2H6W7",
    "result": []
  },
  {
    "postal": "L2H0P1",
    "result": [
      {
        "electoralDistricts": [
          {
            "election": null,
            "id": 69,
            "name": "Niagara Falls"
          }
        ],
        "pollDivisionIds": [
          10140002
        ],
        "postalCode": "L2H0P1",
        "streetName": "BUCKEYE",
        "streetDirectionId": null,
        "streetTypeId": "CRES",
        "placeName": "NIAGARA FALLS",
        "streetNameDisplayText": "BUCKEYE CRES, NIAGARA FALLS"
      },
      {
        "electoralDistricts": [
          {
            "election": null,
            "id": 69,
            "name": "Niagara Falls"
          }
        ],
        "pollDivisionIds": [
          10140002,
          10140004
        ],
        "postalCode": "L2H0P1",
        "streetName": "HACKBERRY",
        "streetDirectionId": null,
        "streetTypeId": "TRAIL",
        "placeName": "NIAGARA FALLS",
        "streetNameDisplayText": "HACKBERRY TRAIL, NIAGARA FALLS"
      }
    ]
  },
  {
    "postal": "L2H3A0",
    "result": []
  },
  {
    "postal": "L2H8L9",
    "result": []
  },
  {
    "postal": "L2H6X0",
    "result": []
  },
  {
    "postal": "L2H3E9",
    "result": [
      {
        "electoralDistricts": [
          {
            "election": null,
            "id": 69,
            "name": "Niagara Falls"
          }
        ],
        "pollDivisionIds": [
          10139982
        ],
        "postalCode": "L2H3E9",
        "streetName": "ORCHARD GROVE",
        "streetDirectionId": null,
        "streetTypeId": "PKY",
        "placeName": "NIAGARA FALLS",
        "streetNameDisplayText": "ORCHARD GROVE PKY, NIAGARA FALLS"
      },
      {
        "electoralDistricts": [
          {
            "election": null,
            "id": 69,
            "name": "Niagara Falls"
          }
        ],
        "pollDivisionIds": [
          10139982
        ],
        "postalCode": "L2H3E9",
        "streetName": "WOODSVIEW",
        "streetDirectionId": null,
        "streetTypeId": "CRES",
        "placeName": "NIAGARA FALLS",
        "streetNameDisplayText": "WOODSVIEW CRES, NIAGARA FALLS"
      }
    ]
  },
  {
    "postal": "L2H0S5",
    "result": [
      {
        "electoralDistricts": [
          {
            "election": null,
            "id": 69,
            "name": "Niagara Falls"
          }
        ],
        "pollDivisionIds": [
          10139972
        ],
        "postalCode": "L2H0S5",
        "streetName": "GARNER",
        "streetDirectionId": null,
        "streetTypeId": "RD",
        "placeName": "NIAGARA FALLS",
        "streetNameDisplayText": "GARNER RD, NIAGARA FALLS"
      }
    ]
  },
  {
    "postal": "L2H1A2",
    "result": [
      {
        "electoralDistricts": [
          {
            "election": null,
            "id": 69,
            "name": "Niagara Falls"
          }
        ],
        "pollDivisionIds": [
          10139983
        ],
        "postalCode": "L2H1A2",
        "streetName": "THOROLD STONE",
        "streetDirectionId": null,
        "streetTypeId": "RD",
        "placeName": "NIAGARA FALLS",
        "streetNameDisplayText": "THOROLD STONE RD, NIAGARA FALLS"
      }
    ]
  },
  {
    "postal": "L2H5V8",
    "result": []
  },
  {
    "postal": "L2H8C5",
    "result": []
  },
  {
    "postal": "L2H6N0",
    "result": []
  },
  {
    "postal": "L2H9E6",
    "result": []
  },
  {
    "postal": "L2H5J7",
    "result": []
  },
  {
    "postal": "L2H2R2",
    "result": [
      {
        "electoralDistricts": [
          {
            "election": null,
            "id": 69,
            "name": "Niagara Falls"
          }
        ],
        "pollDivisionIds": [
          10139983
        ],
        "postalCode": "L2H2R2",
        "streetName": "SWAN",
        "streetDirectionId": null,
        "streetTypeId": "ST",
        "placeName": "NIAGARA FALLS",
        "streetNameDisplayText": "SWAN ST, NIAGARA FALLS"
      }
    ]
  },
  {
    "postal": "L2H0P5",
    "result": [
      {
        "electoralDistricts": [
          {
            "election": null,
            "id": 69,
            "name": "Niagara Falls"
          }
        ],
        "pollDivisionIds": [
          10139993
        ],
        "postalCode": "L2H0P5",
        "streetName": "BEAVERDAMS",
        "streetDirectionId": null,
        "streetTypeId": "RD",
        "placeName": "NIAGARA FALLS",
        "streetNameDisplayText": "BEAVERDAMS RD, NIAGARA FALLS"
      }
    ]
  },
  {
    "postal": "L2H5A7",
    "result": []
  },
  {
    "postal": "L2H1G1",
    "result": [
      {
        "electoralDistricts": [
          {
            "election": null,
            "id": 69,
            "name": "Niagara Falls"
          }
        ],
        "pollDivisionIds": [
          10139982
        ],
        "postalCode": "L2H1G1",
        "streetName": "RYSDALE",
        "streetDirectionId": null,
        "streetTypeId": "ST",
        "placeName": "NIAGARA FALLS",
        "streetNameDisplayText": "RYSDALE ST, NIAGARA FALLS"
      }
    ]
  },
  {
    "postal": "L2H9R6",
    "result": []
  },
  {
    "postal": "L2H4Z9",
    "result": []
  },
  {
    "postal": "L2H1V5",
    "result": [
      {
        "electoralDistricts": [
          {
            "election": null,
            "id": 69,
            "name": "Niagara Falls"
          }
        ],
        "pollDivisionIds": [
          10139982
        ],
        "postalCode": "L2H1V5",
        "streetName": "AINTREE",
        "streetDirectionId": null,
        "streetTypeId": "DR",
        "placeName": "NIAGARA FALLS",
        "streetNameDisplayText": "AINTREE DR, NIAGARA FALLS"
      }
    ]
  },
  {
    "postal": "L2H9Y5",
    "result": []
  },
  {
    "postal": "L2H1P2",
    "result": [
      {
        "electoralDistricts": [
          {
            "election": null,
            "id": 69,
            "name": "Niagara Falls"
          }
        ],
        "pollDivisionIds": [
          10139981
        ],
        "postalCode": "L2H1P2",
        "streetName": "BELFAST",
        "streetDirectionId": null,
        "streetTypeId": "AVE",
        "placeName": "NIAGARA FALLS",
        "streetNameDisplayText": "BELFAST AVE, NIAGARA FALLS"
      }
    ]
  },
  {
    "postal": "L2H5X0",
    "result": []
  },
  {
    "postal": "L2H7B8",
    "result": []
  },
  {
    "postal": "L2H0C6",
    "result": [
      {
        "electoralDistricts": [
          {
            "election": null,
            "id": 69,
            "name": "Niagara Falls"
          }
        ],
        "pollDivisionIds": [
          10139994
        ],
        "postalCode": "L2H0C6",
        "streetName": "MILOMIR",
        "streetDirectionId": null,
        "streetTypeId": "ST",
        "placeName": "NIAGARA FALLS",
        "streetNameDisplayText": "MILOMIR ST, NIAGARA FALLS"
      },
      {
        "electoralDistricts": [
          {
            "election": null,
            "id": 69,
            "name": "Niagara Falls"
          }
        ],
        "pollDivisionIds": [
          10139994
        ],
        "postalCode": "L2H0C6",
        "streetName": "ST MICHAEL",
        "streetDirectionId": null,
        "streetTypeId": "AVE",
        "placeName": "NIAGARA FALLS",
        "streetNameDisplayText": "ST MICHAEL AVE, NIAGARA FALLS"
      }
    ]
  },
  {
    "postal": "L2H6G1",
    "result": []
  },
  {
    "postal": "L2H3K3",
    "result": [
      {
        "electoralDistricts": [
          {
            "election": null,
            "id": 69,
            "name": "Niagara Falls"
          }
        ],
        "pollDivisionIds": [
          10139974
        ],
        "postalCode": "L2H3K3",
        "streetName": "MONTROSE",
        "streetDirectionId": null,
        "streetTypeId": "RD",
        "placeName": "NIAGARA FALLS",
        "streetNameDisplayText": "MONTROSE RD, NIAGARA FALLS"
      }
    ]
  },
  {
    "postal": "L2H9R0",
    "result": []
  },
  {
    "postal": "L2H4R8",
    "result": []
  },
  {
    "postal": "L2H5P9",
    "result": []
  },
  {
    "postal": "L2H8N4",
    "result": []
  },
  {
    "postal": "L2H8H4",
    "result": []
  },
  {
    "postal": "L2H4V1",
    "result": []
  },
  {
    "postal": "L2H1K5",
    "result": [
      {
        "electoralDistricts": [
          {
            "election": null,
            "id": 69,
            "name": "Niagara Falls"
          }
        ],
        "pollDivisionIds": [
          10139982
        ],
        "postalCode": "L2H1K5",
        "streetName": "MONTROSE",
        "streetDirectionId": null,
        "streetTypeId": "RD",
        "placeName": "NIAGARA FALLS",
        "streetNameDisplayText": "MONTROSE RD, NIAGARA FALLS"
      }
    ]
  },
  {
    "postal": "L2H1Z5",
    "result": [
      {
        "electoralDistricts": [
          {
            "election": null,
            "id": 69,
            "name": "Niagara Falls"
          }
        ],
        "pollDivisionIds": [
          10139995
        ],
        "postalCode": "L2H1Z5",
        "streetName": "DALENA",
        "streetDirectionId": null,
        "streetTypeId": "PL",
        "placeName": "NIAGARA FALLS",
        "streetNameDisplayText": "DALENA PL, NIAGARA FALLS"
      }
    ]
  },
  {
    "postal": "L2H9L9",
    "result": []
  },
  {
    "postal": "L2H5L2",
    "result": []
  },
  {
    "postal": "L2H0M2",
    "result": [
      {
        "electoralDistricts": [
          {
            "election": null,
            "id": 69,
            "name": "Niagara Falls"
          }
        ],
        "pollDivisionIds": [
          10139993
        ],
        "postalCode": "L2H0M2",
        "streetName": "MADISON",
        "streetDirectionId": null,
        "streetTypeId": "CRES",
        "placeName": "NIAGARA FALLS",
        "streetNameDisplayText": "MADISON CRES, NIAGARA FALLS"
      },
      {
        "electoralDistricts": [
          {
            "election": null,
            "id": 69,
            "name": "Niagara Falls"
          }
        ],
        "pollDivisionIds": [
          10139993
        ],
        "postalCode": "L2H0M2",
        "streetName": "OSPREY",
        "streetDirectionId": null,
        "streetTypeId": "AVE",
        "placeName": "NIAGARA FALLS",
        "streetNameDisplayText": "OSPREY AVE, NIAGARA FALLS"
      },
      {
        "electoralDistricts": [
          {
            "election": null,
            "id": 69,
            "name": "Niagara Falls"
          }
        ],
        "pollDivisionIds": [
          10139993
        ],
        "postalCode": "L2H0M2",
        "streetName": "SHOVELLER",
        "streetDirectionId": null,
        "streetTypeId": "DR",
        "placeName": "NIAGARA FALLS",
        "streetNameDisplayText": "SHOVELLER DR, NIAGARA FALLS"
      }
    ]
  },
  {
    "postal": "L2H1K8",
    "result": [
      {
        "electoralDistricts": [
          {
            "election": null,
            "id": 69,
            "name": "Niagara Falls"
          }
        ],
        "pollDivisionIds": [
          10139982
        ],
        "postalCode": "L2H1K8",
        "streetName": "MONTROSE",
        "streetDirectionId": "S",
        "streetTypeId": "RD",
        "placeName": "NIAGARA FALLS",
        "streetNameDisplayText": "MONTROSE RD S, NIAGARA FALLS"
      },
      {
        "electoralDistricts": [
          {
            "election": null,
            "id": 69,
            "name": "Niagara Falls"
          }
        ],
        "pollDivisionIds": [
          10139982
        ],
        "postalCode": "L2H1K8",
        "streetName": "MONTROSE",
        "streetDirectionId": null,
        "streetTypeId": "RD",
        "placeName": "NIAGARA FALLS",
        "streetNameDisplayText": "MONTROSE RD, NIAGARA FALLS"
      }
    ]
  },
  {
    "postal": "L2H3M7",
    "result": [
      {
        "electoralDistricts": [
          {
            "election": null,
            "id": 69,
            "name": "Niagara Falls"
          }
        ],
        "pollDivisionIds": [
          10139993
        ],
        "postalCode": "L2H3M7",
        "streetName": "DEWAR",
        "streetDirectionId": null,
        "streetTypeId": "AVE",
        "placeName": "NIAGARA FALLS",
        "streetNameDisplayText": "DEWAR AVE, NIAGARA FALLS"
      },
      {
        "electoralDistricts": [
          {
            "election": null,
            "id": 69,
            "name": "Niagara Falls"
          }
        ],
        "pollDivisionIds": [
          10139993
        ],
        "postalCode": "L2H3M7",
        "streetName": "RACEY",
        "streetDirectionId": null,
        "streetTypeId": "AVE",
        "placeName": "NIAGARA FALLS",
        "streetNameDisplayText": "RACEY AVE, NIAGARA FALLS"
      }
    ]
  },
  {
    "postal": "L2H1B2",
    "result": [
      {
        "electoralDistricts": [
          {
            "election": null,
            "id": 69,
            "name": "Niagara Falls"
          }
        ],
        "pollDivisionIds": [
          10139983
        ],
        "postalCode": "L2H1B2",
        "streetName": "MULHERN",
        "streetDirectionId": null,
        "streetTypeId": "ST",
        "placeName": "NIAGARA FALLS",
        "streetNameDisplayText": "MULHERN ST, NIAGARA FALLS"
      }
    ]
  },
  {
    "postal": "L2H0H9",
    "result": [
      {
        "electoralDistricts": [
          {
            "election": null,
            "id": 69,
            "name": "Niagara Falls"
          }
        ],
        "pollDivisionIds": [
          10139993
        ],
        "postalCode": "L2H0H9",
        "streetName": "ANGIE",
        "streetDirectionId": null,
        "streetTypeId": "DR",
        "placeName": "NIAGARA FALLS",
        "streetNameDisplayText": "ANGIE DR, NIAGARA FALLS"
      },
      {
        "electoralDistricts": [
          {
            "election": null,
            "id": 69,
            "name": "Niagara Falls"
          }
        ],
        "pollDivisionIds": [
          10139993
        ],
        "postalCode": "L2H0H9",
        "streetName": "ERNEST",
        "streetDirectionId": null,
        "streetTypeId": "CRES",
        "placeName": "NIAGARA FALLS",
        "streetNameDisplayText": "ERNEST CRES, NIAGARA FALLS"
      },
      {
        "electoralDistricts": [
          {
            "election": null,
            "id": 69,
            "name": "Niagara Falls"
          }
        ],
        "pollDivisionIds": [
          10139993
        ],
        "postalCode": "L2H0H9",
        "streetName": "FAUSTA",
        "streetDirectionId": null,
        "streetTypeId": "BLVD",
        "placeName": "NIAGARA FALLS",
        "streetNameDisplayText": "FAUSTA BLVD, NIAGARA FALLS"
      },
      {
        "electoralDistricts": [
          {
            "election": null,
            "id": 69,
            "name": "Niagara Falls"
          }
        ],
        "pollDivisionIds": [
          10139993
        ],
        "postalCode": "L2H0H9",
        "streetName": "PAULINE",
        "streetDirectionId": null,
        "streetTypeId": "DR",
        "placeName": "NIAGARA FALLS",
        "streetNameDisplayText": "PAULINE DR, NIAGARA FALLS"
      },
      {
        "electoralDistricts": [
          {
            "election": null,
            "id": 69,
            "name": "Niagara Falls"
          }
        ],
        "pollDivisionIds": [
          10139993
        ],
        "postalCode": "L2H0H9",
        "streetName": "WIENS",
        "streetDirectionId": null,
        "streetTypeId": "BLVD",
        "placeName": "NIAGARA FALLS",
        "streetNameDisplayText": "WIENS BLVD, NIAGARA FALLS"
      }
    ]
  },
  {
    "postal": "L2H8M4",
    "result": []
  },
  {
    "postal": "L2H2M5",
    "result": [
      {
        "electoralDistricts": [
          {
            "election": null,
            "id": 69,
            "name": "Niagara Falls"
          }
        ],
        "pollDivisionIds": [
          10139995
        ],
        "postalCode": "L2H2M5",
        "streetName": "WEYBURN",
        "streetDirectionId": null,
        "streetTypeId": "CIR",
        "placeName": "NIAGARA FALLS",
        "streetNameDisplayText": "WEYBURN CIR, NIAGARA FALLS"
      }
    ]
  },
  {
    "postal": "L2H0T9",
    "result": [
      {
        "electoralDistricts": [
          {
            "election": null,
            "id": 69,
            "name": "Niagara Falls"
          }
        ],
        "pollDivisionIds": [
          10139974
        ],
        "postalCode": "L2H0T9",
        "streetName": "MONTROSE",
        "streetDirectionId": null,
        "streetTypeId": "RD",
        "placeName": "NIAGARA FALLS",
        "streetNameDisplayText": "MONTROSE RD, NIAGARA FALLS"
      }
    ]
  },
  {
    "postal": "L2H3P1",
    "result": [
      {
        "electoralDistricts": [
          {
            "election": null,
            "id": 69,
            "name": "Niagara Falls"
          }
        ],
        "pollDivisionIds": [
          10139994
        ],
        "postalCode": "L2H3P1",
        "streetName": "JOSEPH",
        "streetDirectionId": null,
        "streetTypeId": "CRT",
        "placeName": "NIAGARA FALLS",
        "streetNameDisplayText": "JOSEPH CRT, NIAGARA FALLS"
      },
      {
        "electoralDistricts": [
          {
            "election": null,
            "id": 69,
            "name": "Niagara Falls"
          }
        ],
        "pollDivisionIds": [
          10139994
        ],
        "postalCode": "L2H3P1",
        "streetName": "MCGARRY",
        "streetDirectionId": null,
        "streetTypeId": "DR",
        "placeName": "NIAGARA FALLS",
        "streetNameDisplayText": "MCGARRY DR, NIAGARA FALLS"
      }
    ]
  },
  {
    "postal": "L2H1R6",
    "result": [
      {
        "electoralDistricts": [
          {
            "election": null,
            "id": 69,
            "name": "Niagara Falls"
          }
        ],
        "pollDivisionIds": [
          10139982
        ],
        "postalCode": "L2H1R6",
        "streetName": "BEAVERDAMS",
        "streetDirectionId": null,
        "streetTypeId": "RD",
        "placeName": "NIAGARA FALLS",
        "streetNameDisplayText": "BEAVERDAMS RD, NIAGARA FALLS"
      }
    ]
  },
  {
    "postal": "L2H9V5",
    "result": []
  },
  {
    "postal": "L2H9T0",
    "result": []
  },
  {
    "postal": "L2H0A9",
    "result": [
      {
        "electoralDistricts": [
          {
            "election": null,
            "id": 69,
            "name": "Niagara Falls"
          }
        ],
        "pollDivisionIds": [
          10139994
        ],
        "postalCode": "L2H0A9",
        "streetName": "GLAVCIC",
        "streetDirectionId": null,
        "streetTypeId": "DR",
        "placeName": "NIAGARA FALLS",
        "streetNameDisplayText": "GLAVCIC DR, NIAGARA FALLS"
      },
      {
        "electoralDistricts": [
          {
            "election": null,
            "id": 69,
            "name": "Niagara Falls"
          }
        ],
        "pollDivisionIds": [
          10139994
        ],
        "postalCode": "L2H0A9",
        "streetName": "RICHARD",
        "streetDirectionId": null,
        "streetTypeId": "CRES",
        "placeName": "NIAGARA FALLS",
        "streetNameDisplayText": "RICHARD CRES, NIAGARA FALLS"
      },
      {
        "electoralDistricts": [
          {
            "election": null,
            "id": 69,
            "name": "Niagara Falls"
          }
        ],
        "pollDivisionIds": [
          10139995
        ],
        "postalCode": "L2H0A9",
        "streetName": "RICHMOND",
        "streetDirectionId": null,
        "streetTypeId": "CRES",
        "placeName": "NIAGARA FALLS",
        "streetNameDisplayText": "RICHMOND CRES, NIAGARA FALLS"
      }
    ]
  },
  {
    "postal": "L2H1M3",
    "result": [
      {
        "electoralDistricts": [
          {
            "election": null,
            "id": 69,
            "name": "Niagara Falls"
          }
        ],
        "pollDivisionIds": [
          10139995
        ],
        "postalCode": "L2H1M3",
        "streetName": "MONTROSE",
        "streetDirectionId": null,
        "streetTypeId": "RD",
        "placeName": "NIAGARA FALLS",
        "streetNameDisplayText": "MONTROSE RD, NIAGARA FALLS"
      }
    ]
  },
  {
    "postal": "L2H1W8",
    "result": [
      {
        "electoralDistricts": [
          {
            "election": null,
            "id": 69,
            "name": "Niagara Falls"
          }
        ],
        "pollDivisionIds": [
          10139982
        ],
        "postalCode": "L2H1W8",
        "streetName": "PADDOCK TRAIL",
        "streetDirectionId": null,
        "streetTypeId": "DR",
        "placeName": "NIAGARA FALLS",
        "streetNameDisplayText": "PADDOCK TRAIL DR, NIAGARA FALLS"
      }
    ]
  },
  {
    "postal": "L2H9J1",
    "result": []
  },
  {
    "postal": "L2H8N5",
    "result": []
  },
  {
    "postal": "L2H5X1",
    "result": []
  },
  {
    "postal": "L2H6S2",
    "result": []
  },
  {
    "postal": "L2H2A2",
    "result": [
      {
        "electoralDistricts": [
          {
            "election": null,
            "id": 69,
            "name": "Niagara Falls"
          }
        ],
        "pollDivisionIds": [
          10139995
        ],
        "postalCode": "L2H2A2",
        "streetName": "LYNHURST",
        "streetDirectionId": null,
        "streetTypeId": "DR",
        "placeName": "NIAGARA FALLS",
        "streetNameDisplayText": "LYNHURST DR, NIAGARA FALLS"
      }
    ]
  },
  {
    "postal": "L2H6A6",
    "result": []
  },
  {
    "postal": "L2H0S3",
    "result": [
      {
        "electoralDistricts": [
          {
            "election": null,
            "id": 69,
            "name": "Niagara Falls"
          }
        ],
        "pollDivisionIds": [
          10139972
        ],
        "postalCode": "L2H0S3",
        "streetName": "GARNER",
        "streetDirectionId": null,
        "streetTypeId": "RD",
        "placeName": "NIAGARA FALLS",
        "streetNameDisplayText": "GARNER RD, NIAGARA FALLS"
      }
    ]
  },
  {
    "postal": "L2H3E7",
    "result": [
      {
        "electoralDistricts": [
          {
            "election": null,
            "id": 69,
            "name": "Niagara Falls"
          }
        ],
        "pollDivisionIds": [
          10139974
        ],
        "postalCode": "L2H3E7",
        "streetName": "CANTERBURY",
        "streetDirectionId": null,
        "streetTypeId": "CRES",
        "placeName": "NIAGARA FALLS",
        "streetNameDisplayText": "CANTERBURY CRES, NIAGARA FALLS"
      },
      {
        "electoralDistricts": [
          {
            "election": null,
            "id": 69,
            "name": "Niagara Falls"
          }
        ],
        "pollDivisionIds": [
          10139974
        ],
        "postalCode": "L2H3E7",
        "streetName": "MICHELLE",
        "streetDirectionId": null,
        "streetTypeId": "CRT",
        "placeName": "NIAGARA FALLS",
        "streetNameDisplayText": "MICHELLE CRT, NIAGARA FALLS"
      }
    ]
  },
  {
    "postal": "L2H5R7",
    "result": []
  },
  {
    "postal": "L2H3R6",
    "result": []
  },
  {
    "postal": "L2H6K4",
    "result": []
  },
  {
    "postal": "L2H2W5",
    "result": [
      {
        "electoralDistricts": [
          {
            "election": null,
            "id": 69,
            "name": "Niagara Falls"
          }
        ],
        "pollDivisionIds": [
          10139982
        ],
        "postalCode": "L2H2W5",
        "streetName": "POST",
        "streetDirectionId": null,
        "streetTypeId": "RD",
        "placeName": "NIAGARA FALLS",
        "streetNameDisplayText": "POST RD, NIAGARA FALLS"
      }
    ]
  },
  {
    "postal": "L2H8W4",
    "result": []
  },
  {
    "postal": "L2H9C2",
    "result": []
  },
  {
    "postal": "L2H2C0",
    "result": []
  },
  {
    "postal": "L2H0E1",
    "result": [
      {
        "electoralDistricts": [
          {
            "election": null,
            "id": 69,
            "name": "Niagara Falls"
          }
        ],
        "pollDivisionIds": [
          10139993,
          10139967
        ],
        "postalCode": "L2H0E1",
        "streetName": "HENDERSHOT",
        "streetDirectionId": null,
        "streetTypeId": "BLVD",
        "placeName": "NIAGARA FALLS",
        "streetNameDisplayText": "HENDERSHOT BLVD, NIAGARA FALLS"
      },
      {
        "electoralDistricts": [
          {
            "election": null,
            "id": 69,
            "name": "Niagara Falls"
          }
        ],
        "pollDivisionIds": [
          10139993
        ],
        "postalCode": "L2H0E1",
        "streetName": "TAPESTRY",
        "streetDirectionId": null,
        "streetTypeId": "CRT",
        "placeName": "NIAGARA FALLS",
        "streetNameDisplayText": "TAPESTRY CRT, NIAGARA FALLS"
      }
    ]
  },
  {
    "postal": "L2H1K9",
    "result": [
      {
        "electoralDistricts": [
          {
            "election": null,
            "id": 69,
            "name": "Niagara Falls"
          }
        ],
        "pollDivisionIds": [
          10139982
        ],
        "postalCode": "L2H1K9",
        "streetName": "MONTROSE",
        "streetDirectionId": null,
        "streetTypeId": "RD",
        "placeName": "NIAGARA FALLS",
        "streetNameDisplayText": "MONTROSE RD, NIAGARA FALLS"
      }
    ]
  },
  {
    "postal": "L2H1G7",
    "result": [
      {
        "electoralDistricts": [
          {
            "election": null,
            "id": 69,
            "name": "Niagara Falls"
          }
        ],
        "pollDivisionIds": [
          10139982
        ],
        "postalCode": "L2H1G7",
        "streetName": "WAYNE",
        "streetDirectionId": null,
        "streetTypeId": "ST",
        "placeName": "NIAGARA FALLS",
        "streetNameDisplayText": "WAYNE ST, NIAGARA FALLS"
      }
    ]
  },
  {
    "postal": "L2H4E9",
    "result": []
  },
  {
    "postal": "L2H9P0",
    "result": []
  },
  {
    "postal": "L2H5H3",
    "result": []
  },
  {
    "postal": "L2H9X6",
    "result": []
  },
  {
    "postal": "L2H5N7",
    "result": []
  },
  {
    "postal": "L2H5A6",
    "result": []
  },
  {
    "postal": "L2H4M0",
    "result": []
  },
  {
    "postal": "L2H3V6",
    "result": []
  },
  {
    "postal": "L2H1L7",
    "result": [
      {
        "electoralDistricts": [
          {
            "election": null,
            "id": 69,
            "name": "Niagara Falls"
          }
        ],
        "pollDivisionIds": [
          10139995
        ],
        "postalCode": "L2H1L7",
        "streetName": "MONTROSE",
        "streetDirectionId": null,
        "streetTypeId": "RD",
        "placeName": "NIAGARA FALLS",
        "streetNameDisplayText": "MONTROSE RD, NIAGARA FALLS"
      }
    ]
  },
  {
    "postal": "L2H2P9",
    "result": [
      {
        "electoralDistricts": [
          {
            "election": null,
            "id": 69,
            "name": "Niagara Falls"
          }
        ],
        "pollDivisionIds": [
          10139983
        ],
        "postalCode": "L2H2P9",
        "streetName": "SWAN",
        "streetDirectionId": null,
        "streetTypeId": "ST",
        "placeName": "NIAGARA FALLS",
        "streetNameDisplayText": "SWAN ST, NIAGARA FALLS"
      }
    ]
  },
  {
    "postal": "L2H5T4",
    "result": []
  },
  {
    "postal": "L2H5Z1",
    "result": []
  },
  {
    "postal": "L2H2X0",
    "result": []
  },
  {
    "postal": "L2H6Z2",
    "result": []
  },
  {
    "postal": "L2H0E0",
    "result": []
  },
  {
    "postal": "L2H3Z5",
    "result": []
  },
  {
    "postal": "L2H8H3",
    "result": []
  },
  {
    "postal": "L2H7S6",
    "result": []
  },
  {
    "postal": "L2H4C1",
    "result": []
  },
  {
    "postal": "L2H3K2",
    "result": [
      {
        "electoralDistricts": [
          {
            "election": null,
            "id": 69,
            "name": "Niagara Falls"
          }
        ],
        "pollDivisionIds": [
          10139982
        ],
        "postalCode": "L2H3K2",
        "streetName": "KALAR",
        "streetDirectionId": null,
        "streetTypeId": "RD",
        "placeName": "NIAGARA FALLS",
        "streetNameDisplayText": "KALAR RD, NIAGARA FALLS"
      }
    ]
  },
  {
    "postal": "L2H1Y5",
    "result": [
      {
        "electoralDistricts": [
          {
            "election": null,
            "id": 69,
            "name": "Niagara Falls"
          }
        ],
        "pollDivisionIds": [
          10140009
        ],
        "postalCode": "L2H1Y5",
        "streetName": "BAKER",
        "streetDirectionId": null,
        "streetTypeId": "RD",
        "placeName": "NIAGARA FALLS",
        "streetNameDisplayText": "BAKER RD, NIAGARA FALLS"
      }
    ]
  },
  {
    "postal": "L2H6P6",
    "result": []
  },
  {
    "postal": "L2H3N9",
    "result": [
      {
        "electoralDistricts": [
          {
            "election": null,
            "id": 69,
            "name": "Niagara Falls"
          }
        ],
        "pollDivisionIds": [
          10139994
        ],
        "postalCode": "L2H3N9",
        "streetName": "MCGARRY",
        "streetDirectionId": null,
        "streetTypeId": "DR",
        "placeName": "NIAGARA FALLS",
        "streetNameDisplayText": "MCGARRY DR, NIAGARA FALLS"
      },
      {
        "electoralDistricts": [
          {
            "election": null,
            "id": 69,
            "name": "Niagara Falls"
          }
        ],
        "pollDivisionIds": [
          10139994
        ],
        "postalCode": "L2H3N9",
        "streetName": "ST MICHAEL",
        "streetDirectionId": null,
        "streetTypeId": "AVE",
        "placeName": "NIAGARA FALLS",
        "streetNameDisplayText": "ST MICHAEL AVE, NIAGARA FALLS"
      }
    ]
  },
  {
    "postal": "L2H3W2",
    "result": []
  },
  {
    "postal": "L2H6H8",
    "result": []
  },
  {
    "postal": "L2H9T3",
    "result": []
  },
  {
    "postal": "L2H5L9",
    "result": []
  },
  {
    "postal": "L2H7X7",
    "result": []
  },
  {
    "postal": "L2H3J5",
    "result": [
      {
        "electoralDistricts": [
          {
            "election": null,
            "id": 69,
            "name": "Niagara Falls"
          }
        ],
        "pollDivisionIds": [
          10139974
        ],
        "postalCode": "L2H3J5",
        "streetName": "SOLOMON",
        "streetDirectionId": null,
        "streetTypeId": "CIR",
        "placeName": "NIAGARA FALLS",
        "streetNameDisplayText": "SOLOMON CIR, NIAGARA FALLS"
      }
    ]
  },
  {
    "postal": "L2H4J5",
    "result": []
  },
  {
    "postal": "L2H6J2",
    "result": []
  },
  {
    "postal": "L2H5V6",
    "result": []
  },
  {
    "postal": "L2H3N2",
    "result": [
      {
        "electoralDistricts": [
          {
            "election": null,
            "id": 69,
            "name": "Niagara Falls"
          }
        ],
        "pollDivisionIds": [
          10139994
        ],
        "postalCode": "L2H3N2",
        "streetName": "PARKSIDE",
        "streetDirectionId": null,
        "streetTypeId": "RD",
        "placeName": "NIAGARA FALLS",
        "streetNameDisplayText": "PARKSIDE RD, NIAGARA FALLS"
      }
    ]
  },
  {
    "postal": "L2H3B1",
    "result": [
      {
        "electoralDistricts": [
          {
            "election": null,
            "id": 69,
            "name": "Niagara Falls"
          }
        ],
        "pollDivisionIds": [
          10139981
        ],
        "postalCode": "L2H3B1",
        "streetName": "INVERNESS",
        "streetDirectionId": null,
        "streetTypeId": "CRT",
        "placeName": "NIAGARA FALLS",
        "streetNameDisplayText": "INVERNESS CRT, NIAGARA FALLS"
      },
      {
        "electoralDistricts": [
          {
            "election": null,
            "id": 69,
            "name": "Niagara Falls"
          }
        ],
        "pollDivisionIds": [
          10139981
        ],
        "postalCode": "L2H3B1",
        "streetName": "PINELLAS PARK",
        "streetDirectionId": null,
        "streetTypeId": "DR",
        "placeName": "NIAGARA FALLS",
        "streetNameDisplayText": "PINELLAS PARK DR, NIAGARA FALLS"
      },
      {
        "electoralDistricts": [
          {
            "election": null,
            "id": 69,
            "name": "Niagara Falls"
          }
        ],
        "pollDivisionIds": [
          10139981
        ],
        "postalCode": "L2H3B1",
        "streetName": "THISTLEDOWN",
        "streetDirectionId": null,
        "streetTypeId": "LANE",
        "placeName": "NIAGARA FALLS",
        "streetNameDisplayText": "THISTLEDOWN LANE, NIAGARA FALLS"
      }
    ]
  },
  {
    "postal": "L2H8B5",
    "result": []
  },
  {
    "postal": "L2H0K1",
    "result": [
      {
        "electoralDistricts": [
          {
            "election": null,
            "id": 69,
            "name": "Niagara Falls"
          }
        ],
        "pollDivisionIds": [
          10139981,
          10139973
        ],
        "postalCode": "L2H0K1",
        "streetName": "KALAR",
        "streetDirectionId": null,
        "streetTypeId": "RD",
        "placeName": "NIAGARA FALLS",
        "streetNameDisplayText": "KALAR RD, NIAGARA FALLS"
      }
    ]
  },
  {
    "postal": "L2H7M7",
    "result": []
  },
  {
    "postal": "L2H2M2",
    "result": [
      {
        "electoralDistricts": [
          {
            "election": null,
            "id": 69,
            "name": "Niagara Falls"
          }
        ],
        "pollDivisionIds": [
          10140009
        ],
        "postalCode": "L2H2M2",
        "streetName": "ORT",
        "streetDirectionId": null,
        "streetTypeId": "RD",
        "placeName": "NIAGARA FALLS",
        "streetNameDisplayText": "ORT RD, NIAGARA FALLS"
      }
    ]
  },
  {
    "postal": "L2H9N3",
    "result": []
  },
  {
    "postal": "L2H4Y8",
    "result": []
  },
  {
    "postal": "L2H3V7",
    "result": []
  },
  {
    "postal": "L2H8Z1",
    "result": []
  },
  {
    "postal": "L2H7B3",
    "result": []
  },
  {
    "postal": "L2H3A8",
    "result": [
      {
        "electoralDistricts": [
          {
            "election": null,
            "id": 69,
            "name": "Niagara Falls"
          }
        ],
        "pollDivisionIds": [
          10139982
        ],
        "postalCode": "L2H3A8",
        "streetName": "PREAKNESS",
        "streetDirectionId": null,
        "streetTypeId": "AVE",
        "placeName": "NIAGARA FALLS",
        "streetNameDisplayText": "PREAKNESS AVE, NIAGARA FALLS"
      },
      {
        "electoralDistricts": [
          {
            "election": null,
            "id": 69,
            "name": "Niagara Falls"
          }
        ],
        "pollDivisionIds": [
          10139982
        ],
        "postalCode": "L2H3A8",
        "streetName": "PREAKNESS",
        "streetDirectionId": null,
        "streetTypeId": "ST",
        "placeName": "NIAGARA FALLS",
        "streetNameDisplayText": "PREAKNESS ST, NIAGARA FALLS"
      }
    ]
  },
  {
    "postal": "L2H7V5",
    "result": []
  },
  {
    "postal": "L2H2T2",
    "result": [
      {
        "electoralDistricts": [
          {
            "election": null,
            "id": 69,
            "name": "Niagara Falls"
          }
        ],
        "pollDivisionIds": [
          10139981
        ],
        "postalCode": "L2H2T2",
        "streetName": "PADDOCK TRAIL",
        "streetDirectionId": null,
        "streetTypeId": "DR",
        "placeName": "NIAGARA FALLS",
        "streetNameDisplayText": "PADDOCK TRAIL DR, NIAGARA FALLS"
      }
    ]
  },
  {
    "postal": "L2H6L3",
    "result": []
  },
  {
    "postal": "L2H0L2",
    "result": []
  },
  {
    "postal": "L2H5Y8",
    "result": []
  },
  {
    "postal": "L2H0B8",
    "result": [
      {
        "electoralDistricts": [
          {
            "election": null,
            "id": 69,
            "name": "Niagara Falls"
          }
        ],
        "pollDivisionIds": [
          10139994
        ],
        "postalCode": "L2H0B8",
        "streetName": "SILVERSTAR",
        "streetDirectionId": null,
        "streetTypeId": "CRT",
        "placeName": "NIAGARA FALLS",
        "streetNameDisplayText": "SILVERSTAR CRT, NIAGARA FALLS"
      },
      {
        "electoralDistricts": [
          {
            "election": null,
            "id": 69,
            "name": "Niagara Falls"
          }
        ],
        "pollDivisionIds": [
          10139994
        ],
        "postalCode": "L2H0B8",
        "streetName": "ST MICHAEL",
        "streetDirectionId": null,
        "streetTypeId": "AVE",
        "placeName": "NIAGARA FALLS",
        "streetNameDisplayText": "ST MICHAEL AVE, NIAGARA FALLS"
      },
      {
        "electoralDistricts": [
          {
            "election": null,
            "id": 69,
            "name": "Niagara Falls"
          }
        ],
        "pollDivisionIds": [
          10139994,
          10139967
        ],
        "postalCode": "L2H0B8",
        "streetName": "UPPER CANADA",
        "streetDirectionId": null,
        "streetTypeId": "DR",
        "placeName": "NIAGARA FALLS",
        "streetNameDisplayText": "UPPER CANADA DR, NIAGARA FALLS"
      }
    ]
  },
  {
    "postal": "L2H6R5",
    "result": []
  },
  {
    "postal": "L2H8W6",
    "result": []
  },
  {
    "postal": "L2H8G6",
    "result": []
  },
  {
    "postal": "L2H6X3",
    "result": []
  },
  {
    "postal": "L2H7R7",
    "result": []
  },
  {
    "postal": "L2H4B6",
    "result": []
  },
  {
    "postal": "L2H3P9",
    "result": [
      {
        "electoralDistricts": [
          {
            "election": null,
            "id": 69,
            "name": "Niagara Falls"
          }
        ],
        "pollDivisionIds": [
          10139982
        ],
        "postalCode": "L2H3P9",
        "streetName": "ASCOT",
        "streetDirectionId": null,
        "streetTypeId": "CIR",
        "placeName": "NIAGARA FALLS",
        "streetNameDisplayText": "ASCOT CIR, NIAGARA FALLS"
      }
    ]
  },
  {
    "postal": "L2H2T3",
    "result": [
      {
        "electoralDistricts": [
          {
            "election": null,
            "id": 69,
            "name": "Niagara Falls"
          }
        ],
        "pollDivisionIds": [
          10140002,
          10139993,
          10139994,
          10140035
        ],
        "postalCode": "L2H2T3",
        "streetName": "KALAR",
        "streetDirectionId": null,
        "streetTypeId": "RD",
        "placeName": "NIAGARA FALLS",
        "streetNameDisplayText": "KALAR RD, NIAGARA FALLS"
      }
    ]
  },
  {
    "postal": "L2H1M4",
    "result": [
      {
        "electoralDistricts": [
          {
            "election": null,
            "id": 69,
            "name": "Niagara Falls"
          }
        ],
        "pollDivisionIds": [
          10139982
        ],
        "postalCode": "L2H1M4",
        "streetName": "MONTROSE",
        "streetDirectionId": null,
        "streetTypeId": "RD",
        "placeName": "NIAGARA FALLS",
        "streetNameDisplayText": "MONTROSE RD, NIAGARA FALLS"
      }
    ]
  },
  {
    "postal": "L2H0H1",
    "result": []
  },
  {
    "postal": "L2H9W3",
    "result": []
  },
  {
    "postal": "L2H6P1",
    "result": []
  },
  {
    "postal": "L2H7G2",
    "result": []
  },
  {
    "postal": "L2H4J9",
    "result": []
  },
  {
    "postal": "L2H9E4",
    "result": []
  },
  {
    "postal": "L2H8H0",
    "result": []
  },
  {
    "postal": "L2H4M7",
    "result": []
  },
  {
    "postal": "L2H2G9",
    "result": [
      {
        "electoralDistricts": [
          {
            "election": null,
            "id": 69,
            "name": "Niagara Falls"
          }
        ],
        "pollDivisionIds": [
          10139982
        ],
        "postalCode": "L2H2G9",
        "streetName": "DELTA",
        "streetDirectionId": null,
        "streetTypeId": "DR",
        "placeName": "NIAGARA FALLS",
        "streetNameDisplayText": "DELTA DR, NIAGARA FALLS"
      }
    ]
  },
  {
    "postal": "L2H8T2",
    "result": []
  },
  {
    "postal": "L2H7G7",
    "result": []
  },
  {
    "postal": "L2H4Z3",
    "result": []
  },
  {
    "postal": "L2H5B3",
    "result": []
  },
  {
    "postal": "L2H1S7",
    "result": [
      {
        "electoralDistricts": [
          {
            "election": null,
            "id": 69,
            "name": "Niagara Falls"
          }
        ],
        "pollDivisionIds": [
          10139972
        ],
        "postalCode": "L2H1S7",
        "streetName": "KALAR",
        "streetDirectionId": null,
        "streetTypeId": "RD",
        "placeName": "NIAGARA FALLS",
        "streetNameDisplayText": "KALAR RD, NIAGARA FALLS"
      }
    ]
  },
  {
    "postal": "L2H2N7",
    "result": [
      {
        "electoralDistricts": [
          {
            "election": null,
            "id": 69,
            "name": "Niagara Falls"
          }
        ],
        "pollDivisionIds": [
          10139983
        ],
        "postalCode": "L2H2N7",
        "streetName": "CHOROZY",
        "streetDirectionId": null,
        "streetTypeId": "ST",
        "placeName": "NIAGARA FALLS",
        "streetNameDisplayText": "CHOROZY ST, NIAGARA FALLS"
      },
      {
        "electoralDistricts": [
          {
            "election": null,
            "id": 69,
            "name": "Niagara Falls"
          }
        ],
        "pollDivisionIds": [
          10139983
        ],
        "postalCode": "L2H2N7",
        "streetName": "DONLEE",
        "streetDirectionId": null,
        "streetTypeId": "DR",
        "placeName": "NIAGARA FALLS",
        "streetNameDisplayText": "DONLEE DR, NIAGARA FALLS"
      }
    ]
  },
  {
    "postal": "L2H0H8",
    "result": [
      {
        "electoralDistricts": [
          {
            "election": null,
            "id": 69,
            "name": "Niagara Falls"
          }
        ],
        "pollDivisionIds": [
          10139993
        ],
        "postalCode": "L2H0H8",
        "streetName": "ERNEST",
        "streetDirectionId": null,
        "streetTypeId": "CRES",
        "placeName": "NIAGARA FALLS",
        "streetNameDisplayText": "ERNEST CRES, NIAGARA FALLS"
      },
      {
        "electoralDistricts": [
          {
            "election": null,
            "id": 69,
            "name": "Niagara Falls"
          }
        ],
        "pollDivisionIds": [
          10139993
        ],
        "postalCode": "L2H0H8",
        "streetName": "PAULINE",
        "streetDirectionId": null,
        "streetTypeId": "DR",
        "placeName": "NIAGARA FALLS",
        "streetNameDisplayText": "PAULINE DR, NIAGARA FALLS"
      }
    ]
  },
  {
    "postal": "L2H7Z4",
    "result": []
  },
  {
    "postal": "L2H7B1",
    "result": []
  },
  {
    "postal": "L2H7P8",
    "result": []
  },
  {
    "postal": "L2H7N0",
    "result": []
  },
  {
    "postal": "L2H3Y5",
    "result": []
  },
  {
    "postal": "L2H6K1",
    "result": []
  },
  {
    "postal": "L2H9X5",
    "result": []
  },
  {
    "postal": "L2H7S5",
    "result": []
  },
  {
    "postal": "L2H0A4",
    "result": [
      {
        "electoralDistricts": [
          {
            "election": null,
            "id": 69,
            "name": "Niagara Falls"
          }
        ],
        "pollDivisionIds": [
          10139994
        ],
        "postalCode": "L2H0A4",
        "streetName": "COURTNEY",
        "streetDirectionId": null,
        "streetTypeId": "CRES",
        "placeName": "NIAGARA FALLS",
        "streetNameDisplayText": "COURTNEY CRES, NIAGARA FALLS"
      },
      {
        "electoralDistricts": [
          {
            "election": null,
            "id": 69,
            "name": "Niagara Falls"
          }
        ],
        "pollDivisionIds": [
          10139994
        ],
        "postalCode": "L2H0A4",
        "streetName": "SHANNON",
        "streetDirectionId": null,
        "streetTypeId": "DR",
        "placeName": "NIAGARA FALLS",
        "streetNameDisplayText": "SHANNON DR, NIAGARA FALLS"
      }
    ]
  },
  {
    "postal": "L2H4T5",
    "result": []
  },
  {
    "postal": "L2H5K1",
    "result": []
  },
  {
    "postal": "L2H0Z9",
    "result": [
      {
        "electoralDistricts": [
          {
            "election": null,
            "id": 69,
            "name": "Niagara Falls"
          }
        ],
        "pollDivisionIds": [
          10140002
        ],
        "postalCode": "L2H0Z9",
        "streetName": "MONTROSE",
        "streetDirectionId": null,
        "streetTypeId": "RD",
        "placeName": "NIAGARA FALLS",
        "streetNameDisplayText": "MONTROSE RD, NIAGARA FALLS"
      }
    ]
  },
  {
    "postal": "L2H7T2",
    "result": []
  },
  {
    "postal": "L2H1L5",
    "result": [
      {
        "electoralDistricts": [
          {
            "election": null,
            "id": 69,
            "name": "Niagara Falls"
          }
        ],
        "pollDivisionIds": [
          10139995
        ],
        "postalCode": "L2H1L5",
        "streetName": "MONTROSE",
        "streetDirectionId": null,
        "streetTypeId": "RD",
        "placeName": "NIAGARA FALLS",
        "streetNameDisplayText": "MONTROSE RD, NIAGARA FALLS"
      }
    ]
  },
  {
    "postal": "L2H3N5",
    "result": [
      {
        "electoralDistricts": [
          {
            "election": null,
            "id": 69,
            "name": "Niagara Falls"
          }
        ],
        "pollDivisionIds": [
          10139994
        ],
        "postalCode": "L2H3N5",
        "streetName": "BRITTANY",
        "streetDirectionId": null,
        "streetTypeId": "CRT",
        "placeName": "NIAGARA FALLS",
        "streetNameDisplayText": "BRITTANY CRT, NIAGARA FALLS"
      },
      {
        "electoralDistricts": [
          {
            "election": null,
            "id": 69,
            "name": "Niagara Falls"
          }
        ],
        "pollDivisionIds": [
          10139994
        ],
        "postalCode": "L2H3N5",
        "streetName": "ST MICHAEL",
        "streetDirectionId": null,
        "streetTypeId": "AVE",
        "placeName": "NIAGARA FALLS",
        "streetNameDisplayText": "ST MICHAEL AVE, NIAGARA FALLS"
      }
    ]
  },
  {
    "postal": "L2H6H4",
    "result": []
  },
  {
    "postal": "L2H5A5",
    "result": []
  },
  {
    "postal": "L2H3R9",
    "result": []
  },
  {
    "postal": "L2H7L8",
    "result": []
  },
  {
    "postal": "L2H6T6",
    "result": []
  },
  {
    "postal": "L2H7Y7",
    "result": []
  },
  {
    "postal": "L2H3M8",
    "result": [
      {
        "electoralDistricts": [
          {
            "election": null,
            "id": 69,
            "name": "Niagara Falls"
          }
        ],
        "pollDivisionIds": [
          10139993
        ],
        "postalCode": "L2H3M8",
        "streetName": "DEWAR",
        "streetDirectionId": null,
        "streetTypeId": "AVE",
        "placeName": "NIAGARA FALLS",
        "streetNameDisplayText": "DEWAR AVE, NIAGARA FALLS"
      },
      {
        "electoralDistricts": [
          {
            "election": null,
            "id": 69,
            "name": "Niagara Falls"
          }
        ],
        "pollDivisionIds": [
          10139993
        ],
        "postalCode": "L2H3M8",
        "streetName": "MULLEN",
        "streetDirectionId": null,
        "streetTypeId": "CRT",
        "placeName": "NIAGARA FALLS",
        "streetNameDisplayText": "MULLEN CRT, NIAGARA FALLS"
      }
    ]
  },
  {
    "postal": "L2H2E0",
    "result": []
  },
  {
    "postal": "L2H4B5",
    "result": []
  },
  {
    "postal": "L2H1J3",
    "result": [
      {
        "electoralDistricts": [
          {
            "election": null,
            "id": 69,
            "name": "Niagara Falls"
          }
        ],
        "pollDivisionIds": [
          10139983
        ],
        "postalCode": "L2H1J3",
        "streetName": "KENT",
        "streetDirectionId": null,
        "streetTypeId": "AVE",
        "placeName": "NIAGARA FALLS",
        "streetNameDisplayText": "KENT AVE, NIAGARA FALLS"
      }
    ]
  },
  {
    "postal": "L2H5S6",
    "result": []
  },
  {
    "postal": "L2H8P7",
    "result": []
  },
  {
    "postal": "L2H7S7",
    "result": []
  },
  {
    "postal": "L2H4C2",
    "result": []
  },
  {
    "postal": "L2H5Y0",
    "result": []
  },
  {
    "postal": "L2H2V7",
    "result": [
      {
        "electoralDistricts": [
          {
            "election": null,
            "id": 69,
            "name": "Niagara Falls"
          }
        ],
        "pollDivisionIds": [
          10139982
        ],
        "postalCode": "L2H2V7",
        "streetName": "NORTHGATE",
        "streetDirectionId": null,
        "streetTypeId": "AVE",
        "placeName": "NIAGARA FALLS",
        "streetNameDisplayText": "NORTHGATE AVE, NIAGARA FALLS"
      },
      {
        "electoralDistricts": [
          {
            "election": null,
            "id": 69,
            "name": "Niagara Falls"
          }
        ],
        "pollDivisionIds": [
          10139982
        ],
        "postalCode": "L2H2V7",
        "streetName": "TARA",
        "streetDirectionId": null,
        "streetTypeId": "AVE",
        "placeName": "NIAGARA FALLS",
        "streetNameDisplayText": "TARA AVE, NIAGARA FALLS"
      },
      {
        "electoralDistricts": [
          {
            "election": null,
            "id": 69,
            "name": "Niagara Falls"
          }
        ],
        "pollDivisionIds": [
          10139982
        ],
        "postalCode": "L2H2V7",
        "streetName": "TRACKVIEW",
        "streetDirectionId": null,
        "streetTypeId": "ST",
        "placeName": "NIAGARA FALLS",
        "streetNameDisplayText": "TRACKVIEW ST, NIAGARA FALLS"
      }
    ]
  },
  {
    "postal": "L2H8P5",
    "result": []
  },
  {
    "postal": "L2H5P5",
    "result": []
  },
  {
    "postal": "L2H5Z0",
    "result": []
  },
  {
    "postal": "L2H9B0",
    "result": []
  },
  {
    "postal": "L2H1L0",
    "result": []
  },
  {
    "postal": "L2H0B5",
    "result": [
      {
        "electoralDistricts": [
          {
            "election": null,
            "id": 69,
            "name": "Niagara Falls"
          }
        ],
        "pollDivisionIds": [
          10139994
        ],
        "postalCode": "L2H0B5",
        "streetName": "GLAVCIC",
        "streetDirectionId": null,
        "streetTypeId": "DR",
        "placeName": "NIAGARA FALLS",
        "streetNameDisplayText": "GLAVCIC DR, NIAGARA FALLS"
      },
      {
        "electoralDistricts": [
          {
            "election": null,
            "id": 69,
            "name": "Niagara Falls"
          }
        ],
        "pollDivisionIds": [
          10139994,
          10139972
        ],
        "postalCode": "L2H0B5",
        "streetName": "MARY",
        "streetDirectionId": null,
        "streetTypeId": "DR",
        "placeName": "NIAGARA FALLS",
        "streetNameDisplayText": "MARY DR, NIAGARA FALLS"
      }
    ]
  },
  {
    "postal": "L2H3L2",
    "result": [
      {
        "electoralDistricts": [
          {
            "election": null,
            "id": 69,
            "name": "Niagara Falls"
          }
        ],
        "pollDivisionIds": [
          10139981
        ],
        "postalCode": "L2H3L2",
        "streetName": "COSTABILE",
        "streetDirectionId": null,
        "streetTypeId": "DR",
        "placeName": "NIAGARA FALLS",
        "streetNameDisplayText": "COSTABILE DR, NIAGARA FALLS"
      },
      {
        "electoralDistricts": [
          {
            "election": null,
            "id": 69,
            "name": "Niagara Falls"
          }
        ],
        "pollDivisionIds": [
          10139981
        ],
        "postalCode": "L2H3L2",
        "streetName": "PARKWOOD",
        "streetDirectionId": null,
        "streetTypeId": "CRT",
        "placeName": "NIAGARA FALLS",
        "streetNameDisplayText": "PARKWOOD CRT, NIAGARA FALLS"
      }
    ]
  },
  {
    "postal": "L2H3B7",
    "result": [
      {
        "electoralDistricts": [
          {
            "election": null,
            "id": 69,
            "name": "Niagara Falls"
          }
        ],
        "pollDivisionIds": [
          10139983
        ],
        "postalCode": "L2H3B7",
        "streetName": "ALPINE",
        "streetDirectionId": null,
        "streetTypeId": "DR",
        "placeName": "NIAGARA FALLS",
        "streetNameDisplayText": "ALPINE DR, NIAGARA FALLS"
      },
      {
        "electoralDistricts": [
          {
            "election": null,
            "id": 69,
            "name": "Niagara Falls"
          }
        ],
        "pollDivisionIds": [
          10139983
        ],
        "postalCode": "L2H3B7",
        "streetName": "YVETTE CR",
        "streetDirectionId": null,
        "streetTypeId": "CRES",
        "placeName": "NIAGARA FALLS",
        "streetNameDisplayText": "YVETTE CR CRES, NIAGARA FALLS"
      },
      {
        "electoralDistricts": [
          {
            "election": null,
            "id": 69,
            "name": "Niagara Falls"
          }
        ],
        "pollDivisionIds": [
          10139983
        ],
        "postalCode": "L2H3B7",
        "streetName": "YVETTE",
        "streetDirectionId": null,
        "streetTypeId": "CRES",
        "placeName": "NIAGARA FALLS",
        "streetNameDisplayText": "YVETTE CRES, NIAGARA FALLS"
      }
    ]
  },
  {
    "postal": "L2H8L1",
    "result": []
  },
  {
    "postal": "L2H5M4",
    "result": []
  },
  {
    "postal": "L2H4G9",
    "result": []
  },
  {
    "postal": "L2H0P0",
    "result": []
  },
  {
    "postal": "L2H8G2",
    "result": []
  },
  {
    "postal": "L2H1V9",
    "result": [
      {
        "electoralDistricts": [
          {
            "election": null,
            "id": 69,
            "name": "Niagara Falls"
          }
        ],
        "pollDivisionIds": [
          10139982
        ],
        "postalCode": "L2H1V9",
        "streetName": "EPSOM",
        "streetDirectionId": null,
        "streetTypeId": "CRT",
        "placeName": "NIAGARA FALLS",
        "streetNameDisplayText": "EPSOM CRT, NIAGARA FALLS"
      }
    ]
  },
  {
    "postal": "L2H8N8",
    "result": []
  },
  {
    "postal": "L2H6S8",
    "result": []
  },
  {
    "postal": "L2H8H2",
    "result": []
  },
  {
    "postal": "L2H5R8",
    "result": []
  },
  {
    "postal": "L2H5L4",
    "result": []
  },
  {
    "postal": "L2H9E1",
    "result": []
  },
  {
    "postal": "L2H1C4",
    "result": [
      {
        "electoralDistricts": [
          {
            "election": null,
            "id": 69,
            "name": "Niagara Falls"
          }
        ],
        "pollDivisionIds": [
          10139983
        ],
        "postalCode": "L2H1C4",
        "streetName": "WOODBINE",
        "streetDirectionId": null,
        "streetTypeId": "ST",
        "placeName": "NIAGARA FALLS",
        "streetNameDisplayText": "WOODBINE ST, NIAGARA FALLS"
      }
    ]
  },
  {
    "postal": "L2H8W5",
    "result": []
  },
  {
    "postal": "L2H1Y4",
    "result": [
      {
        "electoralDistricts": [
          {
            "election": null,
            "id": 69,
            "name": "Niagara Falls"
          }
        ],
        "pollDivisionIds": [
          10139995
        ],
        "postalCode": "L2H1Y4",
        "streetName": "WESTWOOD",
        "streetDirectionId": null,
        "streetTypeId": "ST",
        "placeName": "NIAGARA FALLS",
        "streetNameDisplayText": "WESTWOOD ST, NIAGARA FALLS"
      }
    ]
  },
  {
    "postal": "L2H1C0",
    "result": []
  },
  {
    "postal": "L2H2J2",
    "result": [
      {
        "electoralDistricts": [
          {
            "election": null,
            "id": 69,
            "name": "Niagara Falls"
          }
        ],
        "pollDivisionIds": [
          10139982
        ],
        "postalCode": "L2H2J2",
        "streetName": "DELTA",
        "streetDirectionId": null,
        "streetTypeId": "DR",
        "placeName": "NIAGARA FALLS",
        "streetNameDisplayText": "DELTA DR, NIAGARA FALLS"
      }
    ]
  },
  {
    "postal": "L2H2J0",
    "result": []
  },
  {
    "postal": "L2H7A3",
    "result": []
  },
  {
    "postal": "L2H8M1",
    "result": []
  },
  {
    "postal": "L2H7T9",
    "result": []
  },
  {
    "postal": "L2H6C0",
    "result": []
  },
  {
    "postal": "L2H7X1",
    "result": []
  },
  {
    "postal": "L2H0G1",
    "result": [
      {
        "electoralDistricts": [
          {
            "election": null,
            "id": 69,
            "name": "Niagara Falls"
          }
        ],
        "pollDivisionIds": [
          10139993
        ],
        "postalCode": "L2H0G1",
        "streetName": "HENDERSHOT",
        "streetDirectionId": null,
        "streetTypeId": "BLVD",
        "placeName": "NIAGARA FALLS",
        "streetNameDisplayText": "HENDERSHOT BLVD, NIAGARA FALLS"
      },
      {
        "electoralDistricts": [
          {
            "election": null,
            "id": 69,
            "name": "Niagara Falls"
          }
        ],
        "pollDivisionIds": [
          10139993
        ],
        "postalCode": "L2H0G1",
        "streetName": "OSPREY",
        "streetDirectionId": null,
        "streetTypeId": "AVE",
        "placeName": "NIAGARA FALLS",
        "streetNameDisplayText": "OSPREY AVE, NIAGARA FALLS"
      }
    ]
  },
  {
    "postal": "L2H4X2",
    "result": []
  },
  {
    "postal": "L2H0N6",
    "result": [
      {
        "electoralDistricts": [
          {
            "election": null,
            "id": 69,
            "name": "Niagara Falls"
          }
        ],
        "pollDivisionIds": [
          10140002
        ],
        "postalCode": "L2H0N6",
        "streetName": "BUTTERNUT",
        "streetDirectionId": null,
        "streetTypeId": "BLVD",
        "placeName": "NIAGARA FALLS",
        "streetNameDisplayText": "BUTTERNUT BLVD, NIAGARA FALLS"
      },
      {
        "electoralDistricts": [
          {
            "election": null,
            "id": 69,
            "name": "Niagara Falls"
          }
        ],
        "pollDivisionIds": [
          10140002
        ],
        "postalCode": "L2H0N6",
        "streetName": "SASSAFRAS",
        "streetDirectionId": null,
        "streetTypeId": "TRAIL",
        "placeName": "NIAGARA FALLS",
        "streetNameDisplayText": "SASSAFRAS TRAIL, NIAGARA FALLS"
      },
      {
        "electoralDistricts": [
          {
            "election": null,
            "id": 69,
            "name": "Niagara Falls"
          }
        ],
        "pollDivisionIds": [
          10140002
        ],
        "postalCode": "L2H0N6",
        "streetName": "SYCAMORE",
        "streetDirectionId": null,
        "streetTypeId": "DR",
        "placeName": "NIAGARA FALLS",
        "streetNameDisplayText": "SYCAMORE DR, NIAGARA FALLS"
      }
    ]
  },
  {
    "postal": "L2H8E3",
    "result": []
  },
  {
    "postal": "L2H5S8",
    "result": []
  },
  {
    "postal": "L2H0R0",
    "result": []
  },
  {
    "postal": "L2H6J6",
    "result": []
  },
  {
    "postal": "L2H4B4",
    "result": []
  },
  {
    "postal": "L2H7E3",
    "result": []
  },
  {
    "postal": "L2H3N6",
    "result": [
      {
        "electoralDistricts": [
          {
            "election": null,
            "id": 69,
            "name": "Niagara Falls"
          }
        ],
        "pollDivisionIds": [
          10139994
        ],
        "postalCode": "L2H3N6",
        "streetName": "BRITTANY",
        "streetDirectionId": null,
        "streetTypeId": "CRT",
        "placeName": "NIAGARA FALLS",
        "streetNameDisplayText": "BRITTANY CRT, NIAGARA FALLS"
      },
      {
        "electoralDistricts": [
          {
            "election": null,
            "id": 69,
            "name": "Niagara Falls"
          }
        ],
        "pollDivisionIds": [
          10139994
        ],
        "postalCode": "L2H3N6",
        "streetName": "ST MICHAEL",
        "streetDirectionId": null,
        "streetTypeId": "AVE",
        "placeName": "NIAGARA FALLS",
        "streetNameDisplayText": "ST MICHAEL AVE, NIAGARA FALLS"
      }
    ]
  },
  {
    "postal": "L2H3X6",
    "result": []
  },
  {
    "postal": "L2H8L0",
    "result": []
  },
  {
    "postal": "L2H8N1",
    "result": []
  },
  {
    "postal": "L2H4J0",
    "result": []
  },
  {
    "postal": "L2H0X7",
    "result": [
      {
        "electoralDistricts": [
          {
            "election": null,
            "id": 69,
            "name": "Niagara Falls"
          }
        ],
        "pollDivisionIds": [
          10139994
        ],
        "postalCode": "L2H0X7",
        "streetName": "GARNER",
        "streetDirectionId": null,
        "streetTypeId": "RD",
        "placeName": "NIAGARA FALLS",
        "streetNameDisplayText": "GARNER RD, NIAGARA FALLS"
      }
    ]
  },
  {
    "postal": "L2H6S4",
    "result": []
  },
  {
    "postal": "L2H0Z0",
    "result": []
  },
  {
    "postal": "L2H9X8",
    "result": []
  },
  {
    "postal": "L2H3H3",
    "result": [
      {
        "electoralDistricts": [
          {
            "election": null,
            "id": 69,
            "name": "Niagara Falls"
          }
        ],
        "pollDivisionIds": [
          10139982
        ],
        "postalCode": "L2H3H3",
        "streetName": "LUNA PARK",
        "streetDirectionId": null,
        "streetTypeId": "CRT",
        "placeName": "NIAGARA FALLS",
        "streetNameDisplayText": "LUNA PARK CRT, NIAGARA FALLS"
      }
    ]
  },
  {
    "postal": "L2H7S2",
    "result": []
  },
  {
    "postal": "L2H3T3",
    "result": []
  },
  {
    "postal": "L2H9P3",
    "result": []
  },
  {
    "postal": "L2H4H8",
    "result": []
  },
  {
    "postal": "L2H6R1",
    "result": []
  },
  {
    "postal": "L2H1S0",
    "result": []
  },
  {
    "postal": "L2H3W8",
    "result": []
  },
  {
    "postal": "L2H4S3",
    "result": []
  },
  {
    "postal": "L2H1B6",
    "result": [
      {
        "electoralDistricts": [
          {
            "election": null,
            "id": 69,
            "name": "Niagara Falls"
          }
        ],
        "pollDivisionIds": [
          10139983
        ],
        "postalCode": "L2H1B6",
        "streetName": "MULHERN",
        "streetDirectionId": null,
        "streetTypeId": "ST",
        "placeName": "NIAGARA FALLS",
        "streetNameDisplayText": "MULHERN ST, NIAGARA FALLS"
      }
    ]
  },
  {
    "postal": "L2H8R3",
    "result": []
  },
  {
    "postal": "L2H4V9",
    "result": []
  },
  {
    "postal": "L2H9W4",
    "result": []
  },
  {
    "postal": "L2H3T4",
    "result": []
  },
  {
    "postal": "L2H5C7",
    "result": []
  },
  {
    "postal": "L2H3Y1",
    "result": []
  },
  {
    "postal": "L2H5V0",
    "result": []
  },
  {
    "postal": "L2H8G8",
    "result": []
  },
  {
    "postal": "L2H8B1",
    "result": []
  },
  {
    "postal": "L2H4P5",
    "result": []
  },
  {
    "postal": "L2H7B2",
    "result": []
  },
  {
    "postal": "L2H0R2",
    "result": [
      {
        "electoralDistricts": [
          {
            "election": null,
            "id": 69,
            "name": "Niagara Falls"
          }
        ],
        "pollDivisionIds": [
          10139972
        ],
        "postalCode": "L2H0R2",
        "streetName": "BEECHWOOD",
        "streetDirectionId": null,
        "streetTypeId": "RD",
        "placeName": "NIAGARA FALLS",
        "streetNameDisplayText": "BEECHWOOD RD, NIAGARA FALLS"
      }
    ]
  },
  {
    "postal": "L2H4M4",
    "result": []
  },
  {
    "postal": "L2H7M4",
    "result": []
  },
  {
    "postal": "L2H9S7",
    "result": []
  },
  {
    "postal": "L2H5Z7",
    "result": []
  },
  {
    "postal": "L2H7J7",
    "result": []
  },
  {
    "postal": "L2H8R8",
    "result": []
  },
  {
    "postal": "L2H9X1",
    "result": []
  },
  {
    "postal": "L2H5M9",
    "result": []
  },
  {
    "postal": "L2H9B4",
    "result": []
  },
  {
    "postal": "L2H0L9",
    "result": [
      {
        "electoralDistricts": [
          {
            "election": null,
            "id": 69,
            "name": "Niagara Falls"
          }
        ],
        "pollDivisionIds": [
          10139993
        ],
        "postalCode": "L2H0L9",
        "streetName": "FORESTVIEW",
        "streetDirectionId": null,
        "streetTypeId": "BLVD",
        "placeName": "NIAGARA FALLS",
        "streetNameDisplayText": "FORESTVIEW BLVD, NIAGARA FALLS"
      },
      {
        "electoralDistricts": [
          {
            "election": null,
            "id": 69,
            "name": "Niagara Falls"
          }
        ],
        "pollDivisionIds": [
          10139993
        ],
        "postalCode": "L2H0L9",
        "streetName": "SHAPTON",
        "streetDirectionId": null,
        "streetTypeId": "CRES",
        "placeName": "NIAGARA FALLS",
        "streetNameDisplayText": "SHAPTON CRES, NIAGARA FALLS"
      }
    ]
  },
  {
    "postal": "L2H9G4",
    "result": []
  },
  {
    "postal": "L2H1J4",
    "result": []
  },
  {
    "postal": "L2H0W6",
    "result": [
      {
        "electoralDistricts": [
          {
            "election": null,
            "id": 69,
            "name": "Niagara Falls"
          }
        ],
        "pollDivisionIds": [
          10139993
        ],
        "postalCode": "L2H0W6",
        "streetName": "BEECHWOOD",
        "streetDirectionId": null,
        "streetTypeId": "RD",
        "placeName": "NIAGARA FALLS",
        "streetNameDisplayText": "BEECHWOOD RD, NIAGARA FALLS"
      }
    ]
  }
]
