[
  {
    "postal": "N2T9J6",
    "result": []
  },
  {
    "postal": "N2T9Z5",
    "result": []
  },
  {
    "postal": "N2T7H8",
    "result": []
  },
  {
    "postal": "N2T0P6",
    "result": []
  },
  {
    "postal": "N2T0S7",
    "result": []
  },
  {
    "postal": "N2T8B9",
    "result": []
  },
  {
    "postal": "N2T2A6",
    "result": [
      {
        "electoralDistricts": [
          {
            "election": null,
            "id": 114,
            "name": "Waterloo"
          }
        ],
        "pollDivisionIds": [
          10126544
        ],
        "postalCode": "N2T2A6",
        "streetName": "THISTLEGLEN",
        "streetDirectionId": null,
        "streetTypeId": "PL",
        "placeName": "WATERLOO",
        "streetNameDisplayText": "THISTLEGLEN PL, WATERLOO"
      }
    ]
  },
  {
    "postal": "N2T7V2",
    "result": []
  },
  {
    "postal": "N2T9P4",
    "result": []
  },
  {
    "postal": "N2T6G0",
    "result": []
  },
  {
    "postal": "N2T2K0",
    "result": []
  },
  {
    "postal": "N2T7N6",
    "result": []
  },
  {
    "postal": "N2T5R3",
    "result": []
  },
  {
    "postal": "N2T7K0",
    "result": []
  },
  {
    "postal": "N2T3R2",
    "result": []
  },
  {
    "postal": "N2T0J1",
    "result": []
  },
  {
    "postal": "N2T0B0",
    "result": []
  },
  {
    "postal": "N2T5Z2",
    "result": []
  },
  {
    "postal": "N2T7P3",
    "result": []
  },
  {
    "postal": "N2T2K3",
    "result": [
      {
        "electoralDistricts": [
          {
            "election": null,
            "id": 114,
            "name": "Waterloo"
          }
        ],
        "pollDivisionIds": [
          10126537
        ],
        "postalCode": "N2T2K3",
        "streetName": "PINEROW",
        "streetDirectionId": null,
        "streetTypeId": "CRES",
        "placeName": "WATERLOO",
        "streetNameDisplayText": "PINEROW CRES, WATERLOO"
      },
      {
        "electoralDistricts": [
          {
            "election": null,
            "id": 114,
            "name": "Waterloo"
          }
        ],
        "pollDivisionIds": [
          10126537,
          10126531
        ],
        "postalCode": "N2T2K3",
        "streetName": "ROYAL BEECH",
        "streetDirectionId": null,
        "streetTypeId": "DR",
        "placeName": "WATERLOO",
        "streetNameDisplayText": "ROYAL BEECH DR, WATERLOO"
      }
    ]
  },
  {
    "postal": "N2T7Y6",
    "result": []
  },
  {
    "postal": "N2T1L9",
    "result": []
  },
  {
    "postal": "N2T8T0",
    "result": []
  },
  {
    "postal": "N2T3K8",
    "result": []
  },
  {
    "postal": "N2T5W9",
    "result": []
  },
  {
    "postal": "N2T6T9",
    "result": []
  },
  {
    "postal": "N2T4H1",
    "result": []
  },
  {
    "postal": "N2T7A2",
    "result": []
  },
  {
    "postal": "N2T5G0",
    "result": []
  },
  {
    "postal": "N2T8V5",
    "result": []
  },
  {
    "postal": "N2T2Y8",
    "result": [
      {
        "electoralDistricts": [
          {
            "election": null,
            "id": 114,
            "name": "Waterloo"
          }
        ],
        "pollDivisionIds": [
          10126531
        ],
        "postalCode": "N2T2Y8",
        "streetName": "SAUVE",
        "streetDirectionId": null,
        "streetTypeId": "CRES",
        "placeName": "WATERLOO",
        "streetNameDisplayText": "SAUVE CRES, WATERLOO"
      }
    ]
  },
  {
    "postal": "N2T2B6",
    "result": [
      {
        "electoralDistricts": [
          {
            "election": null,
            "id": 114,
            "name": "Waterloo"
          }
        ],
        "pollDivisionIds": [
          10126544
        ],
        "postalCode": "N2T2B6",
        "streetName": "WESTVALE",
        "streetDirectionId": null,
        "streetTypeId": "DR",
        "placeName": "WATERLOO",
        "streetNameDisplayText": "WESTVALE DR, WATERLOO"
      }
    ]
  },
  {
    "postal": "N2T4W8",
    "result": []
  },
  {
    "postal": "N2T8H7",
    "result": []
  },
  {
    "postal": "N2T5P1",
    "result": []
  },
  {
    "postal": "N2T2B8",
    "result": [
      {
        "electoralDistricts": [
          {
            "election": null,
            "id": 114,
            "name": "Waterloo"
          }
        ],
        "pollDivisionIds": [
          10126535
        ],
        "postalCode": "N2T2B8",
        "streetName": "CLAIR CREEK",
        "streetDirectionId": null,
        "streetTypeId": "BLVD",
        "placeName": "WATERLOO",
        "streetNameDisplayText": "CLAIR CREEK BLVD, WATERLOO"
      }
    ]
  },
  {
    "postal": "N2T0P2",
    "result": []
  },
  {
    "postal": "N2T9M1",
    "result": []
  },
  {
    "postal": "N2T3G0",
    "result": []
  },
  {
    "postal": "N2T9Z2",
    "result": []
  },
  {
    "postal": "N2T2A0",
    "result": []
  },
  {
    "postal": "N2T6Y0",
    "result": []
  },
  {
    "postal": "N2T2Z8",
    "result": [
      {
        "electoralDistricts": [
          {
            "election": null,
            "id": 114,
            "name": "Waterloo"
          }
        ],
        "pollDivisionIds": [
          10126536
        ],
        "postalCode": "N2T2Z8",
        "streetName": "WESTCROFT",
        "streetDirectionId": null,
        "streetTypeId": "DR",
        "placeName": "WATERLOO",
        "streetNameDisplayText": "WESTCROFT DR, WATERLOO"
      }
    ]
  },
  {
    "postal": "N2T7Y3",
    "result": []
  },
  {
    "postal": "N2T6Z5",
    "result": []
  },
  {
    "postal": "N2T6E0",
    "result": []
  },
  {
    "postal": "N2T9B7",
    "result": []
  },
  {
    "postal": "N2T9S5",
    "result": []
  },
  {
    "postal": "N2T3X3",
    "result": []
  },
  {
    "postal": "N2T7R5",
    "result": []
  },
  {
    "postal": "N2T2X3",
    "result": [
      {
        "electoralDistricts": [
          {
            "election": null,
            "id": 114,
            "name": "Waterloo"
          }
        ],
        "pollDivisionIds": [
          10126531
        ],
        "postalCode": "N2T2X3",
        "streetName": "BRANDENBURG",
        "streetDirectionId": null,
        "streetTypeId": "BLVD",
        "placeName": "WATERLOO",
        "streetNameDisplayText": "BRANDENBURG BLVD, WATERLOO"
      },
      {
        "electoralDistricts": [
          {
            "election": null,
            "id": 114,
            "name": "Waterloo"
          }
        ],
        "pollDivisionIds": [
          10126531
        ],
        "postalCode": "N2T2X3",
        "streetName": "LAUSANNE",
        "streetDirectionId": null,
        "streetTypeId": "CRES",
        "placeName": "WATERLOO",
        "streetNameDisplayText": "LAUSANNE CRES, WATERLOO"
      }
    ]
  },
  {
    "postal": "N2T8Z9",
    "result": []
  },
  {
    "postal": "N2T0N4",
    "result": []
  },
  {
    "postal": "N2T1K1",
    "result": [
      {
        "electoralDistricts": [
          {
            "election": null,
            "id": 114,
            "name": "Waterloo"
          }
        ],
        "pollDivisionIds": [
          10126544
        ],
        "postalCode": "N2T1K1",
        "streetName": "WESTVALE",
        "streetDirectionId": null,
        "streetTypeId": "DR",
        "placeName": "WATERLOO",
        "streetNameDisplayText": "WESTVALE DR, WATERLOO"
      }
    ]
  },
  {
    "postal": "N2T1S3",
    "result": [
      {
        "electoralDistricts": [
          {
            "election": null,
            "id": 114,
            "name": "Waterloo"
          }
        ],
        "pollDivisionIds": [
          10126535
        ],
        "postalCode": "N2T1S3",
        "streetName": "CLAIR CREEK",
        "streetDirectionId": null,
        "streetTypeId": "BLVD",
        "placeName": "WATERLOO",
        "streetNameDisplayText": "CLAIR CREEK BLVD, WATERLOO"
      },
      {
        "electoralDistricts": [
          {
            "election": null,
            "id": 114,
            "name": "Waterloo"
          }
        ],
        "pollDivisionIds": [
          10126535
        ],
        "postalCode": "N2T1S3",
        "streetName": "KINGSMILL",
        "streetDirectionId": null,
        "streetTypeId": "CRT",
        "placeName": "WATERLOO",
        "streetNameDisplayText": "KINGSMILL CRT, WATERLOO"
      }
    ]
  },
  {
    "postal": "N2T6M4",
    "result": []
  },
  {
    "postal": "N2T9A9",
    "result": []
  },
  {
    "postal": "N2T9Z9",
    "result": []
  },
  {
    "postal": "N2T6T4",
    "result": []
  },
  {
    "postal": "N2T0B2",
    "result": [
      {
        "electoralDistricts": [
          {
            "election": null,
            "id": 114,
            "name": "Waterloo"
          }
        ],
        "pollDivisionIds": [
          10126531
        ],
        "postalCode": "N2T0B2",
        "streetName": "MONTPELLIER",
        "streetDirectionId": null,
        "streetTypeId": "DR",
        "placeName": "WATERLOO",
        "streetNameDisplayText": "MONTPELLIER DR, WATERLOO"
      },
      {
        "electoralDistricts": [
          {
            "election": null,
            "id": 114,
            "name": "Waterloo"
          }
        ],
        "pollDivisionIds": [
          10126531
        ],
        "postalCode": "N2T0B2",
        "streetName": "PARIS",
        "streetDirectionId": null,
        "streetTypeId": "BLVD",
        "placeName": "WATERLOO",
        "streetNameDisplayText": "PARIS BLVD, WATERLOO"
      }
    ]
  },
  {
    "postal": "N2T2L9",
    "result": [
      {
        "electoralDistricts": [
          {
            "election": null,
            "id": 114,
            "name": "Waterloo"
          }
        ],
        "pollDivisionIds": [
          10126536
        ],
        "postalCode": "N2T2L9",
        "streetName": "BAKER",
        "streetDirectionId": null,
        "streetTypeId": "ST",
        "placeName": "WATERLOO",
        "streetNameDisplayText": "BAKER ST, WATERLOO"
      },
      {
        "electoralDistricts": [
          {
            "election": null,
            "id": 114,
            "name": "Waterloo"
          }
        ],
        "pollDivisionIds": [
          10126536
        ],
        "postalCode": "N2T2L9",
        "streetName": "GRANGE",
        "streetDirectionId": null,
        "streetTypeId": "CRES",
        "placeName": "WATERLOO",
        "streetNameDisplayText": "GRANGE CRES, WATERLOO"
      }
    ]
  },
  {
    "postal": "N2T8K9",
    "result": []
  },
  {
    "postal": "N2T2H9",
    "result": [
      {
        "electoralDistricts": [
          {
            "election": null,
            "id": 114,
            "name": "Waterloo"
          }
        ],
        "pollDivisionIds": [
          10126536
        ],
        "postalCode": "N2T2H9",
        "streetName": "PORTSMOUTH",
        "streetDirectionId": null,
        "streetTypeId": "GATE",
        "placeName": "WATERLOO",
        "streetNameDisplayText": "PORTSMOUTH GATE, WATERLOO"
      },
      {
        "electoralDistricts": [
          {
            "election": null,
            "id": 114,
            "name": "Waterloo"
          }
        ],
        "pollDivisionIds": [
          10126536
        ],
        "postalCode": "N2T2H9",
        "streetName": "SPRINGFIELD",
        "streetDirectionId": null,
        "streetTypeId": "CRES",
        "placeName": "WATERLOO",
        "streetNameDisplayText": "SPRINGFIELD CRES, WATERLOO"
      },
      {
        "electoralDistricts": [
          {
            "election": null,
            "id": 114,
            "name": "Waterloo"
          }
        ],
        "pollDivisionIds": [
          10126536
        ],
        "postalCode": "N2T2H9",
        "streetName": "WESTVALE",
        "streetDirectionId": null,
        "streetTypeId": "DR",
        "placeName": "WATERLOO",
        "streetNameDisplayText": "WESTVALE DR, WATERLOO"
      }
    ]
  },
  {
    "postal": "N2T3Z6",
    "result": []
  },
  {
    "postal": "N2T3B0",
    "result": []
  },
  {
    "postal": "N2T2H8",
    "result": [
      {
        "electoralDistricts": [
          {
            "election": null,
            "id": 114,
            "name": "Waterloo"
          }
        ],
        "pollDivisionIds": [
          10126536,
          10126544
        ],
        "postalCode": "N2T2H8",
        "streetName": "MIDDLEBURY",
        "streetDirectionId": null,
        "streetTypeId": "DR",
        "placeName": "WATERLOO",
        "streetNameDisplayText": "MIDDLEBURY DR, WATERLOO"
      }
    ]
  },
  {
    "postal": "N2T3X2",
    "result": []
  },
  {
    "postal": "N2T2E9",
    "result": [
      {
        "electoralDistricts": [
          {
            "election": null,
            "id": 114,
            "name": "Waterloo"
          }
        ],
        "pollDivisionIds": [
          10126535
        ],
        "postalCode": "N2T2E9",
        "streetName": "AMBERWOOD",
        "streetDirectionId": null,
        "streetTypeId": "DR",
        "placeName": "WATERLOO",
        "streetNameDisplayText": "AMBERWOOD DR, WATERLOO"
      }
    ]
  },
  {
    "postal": "N2T9P6",
    "result": []
  },
  {
    "postal": "N2T9E2",
    "result": []
  },
  {
    "postal": "N2T9H2",
    "result": []
  },
  {
    "postal": "N2T1S8",
    "result": [
      {
        "electoralDistricts": [
          {
            "election": null,
            "id": 114,
            "name": "Waterloo"
          }
        ],
        "pollDivisionIds": [
          10126535
        ],
        "postalCode": "N2T1S8",
        "streetName": "AMBERWOOD",
        "streetDirectionId": null,
        "streetTypeId": "DR",
        "placeName": "WATERLOO",
        "streetNameDisplayText": "AMBERWOOD DR, WATERLOO"
      },
      {
        "electoralDistricts": [
          {
            "election": null,
            "id": 114,
            "name": "Waterloo"
          }
        ],
        "pollDivisionIds": [
          10126535
        ],
        "postalCode": "N2T1S8",
        "streetName": "BRANSTONE",
        "streetDirectionId": null,
        "streetTypeId": "DR",
        "placeName": "WATERLOO",
        "streetNameDisplayText": "BRANSTONE DR, WATERLOO"
      }
    ]
  },
  {
    "postal": "N2T3M6",
    "result": []
  },
  {
    "postal": "N2T6Z8",
    "result": []
  },
  {
    "postal": "N2T4J2",
    "result": []
  },
  {
    "postal": "N2T9Y1",
    "result": []
  },
  {
    "postal": "N2T8V6",
    "result": []
  },
  {
    "postal": "N2T6B2",
    "result": []
  },
  {
    "postal": "N2T1P8",
    "result": [
      {
        "electoralDistricts": [
          {
            "election": null,
            "id": 114,
            "name": "Waterloo"
          }
        ],
        "pollDivisionIds": [
          10126535
        ],
        "postalCode": "N2T1P8",
        "streetName": "ROXTON",
        "streetDirectionId": null,
        "streetTypeId": "DR",
        "placeName": "WATERLOO",
        "streetNameDisplayText": "ROXTON DR, WATERLOO"
      }
    ]
  },
  {
    "postal": "N2T0V8",
    "result": []
  },
  {
    "postal": "N2T4Y0",
    "result": []
  },
  {
    "postal": "N2T2T4",
    "result": [
      {
        "electoralDistricts": [
          {
            "election": null,
            "id": 114,
            "name": "Waterloo"
          }
        ],
        "pollDivisionIds": [
          10126530
        ],
        "postalCode": "N2T2T4",
        "streetName": "HAVENDALE",
        "streetDirectionId": null,
        "streetTypeId": "CRES",
        "placeName": "WATERLOO",
        "streetNameDisplayText": "HAVENDALE CRES, WATERLOO"
      }
    ]
  },
  {
    "postal": "N2T2S3",
    "result": [
      {
        "electoralDistricts": [
          {
            "election": null,
            "id": 114,
            "name": "Waterloo"
          }
        ],
        "pollDivisionIds": [
          10126534
        ],
        "postalCode": "N2T2S3",
        "streetName": "PINELAND",
        "streetDirectionId": null,
        "streetTypeId": "CRT",
        "placeName": "WATERLOO",
        "streetNameDisplayText": "PINELAND CRT, WATERLOO"
      }
    ]
  },
  {
    "postal": "N2T0K0",
    "result": []
  },
  {
    "postal": "N2T5N1",
    "result": []
  },
  {
    "postal": "N2T7T0",
    "result": []
  },
  {
    "postal": "N2T9N2",
    "result": []
  },
  {
    "postal": "N2T5L1",
    "result": []
  },
  {
    "postal": "N2T7G5",
    "result": []
  },
  {
    "postal": "N2T6K2",
    "result": []
  },
  {
    "postal": "N2T6P9",
    "result": []
  },
  {
    "postal": "N2T0E6",
    "result": []
  },
  {
    "postal": "N2T8R9",
    "result": []
  },
  {
    "postal": "N2T3G9",
    "result": []
  },
  {
    "postal": "N2T0V7",
    "result": []
  },
  {
    "postal": "N2T2Z1",
    "result": [
      {
        "electoralDistricts": [
          {
            "election": null,
            "id": 114,
            "name": "Waterloo"
          }
        ],
        "pollDivisionIds": [
          10126531
        ],
        "postalCode": "N2T2Z1",
        "streetName": "BRANDENBURG",
        "streetDirectionId": null,
        "streetTypeId": "CRT",
        "placeName": "WATERLOO",
        "streetNameDisplayText": "BRANDENBURG CRT, WATERLOO"
      },
      {
        "electoralDistricts": [
          {
            "election": null,
            "id": 114,
            "name": "Waterloo"
          }
        ],
        "pollDivisionIds": [
          10126531
        ],
        "postalCode": "N2T2Z1",
        "streetName": "BRANDENBURG",
        "streetDirectionId": null,
        "streetTypeId": "PL",
        "placeName": "WATERLOO",
        "streetNameDisplayText": "BRANDENBURG PL, WATERLOO"
      }
    ]
  },
  {
    "postal": "N2T7N1",
    "result": []
  },
  {
    "postal": "N2T3C6",
    "result": []
  },
  {
    "postal": "N2T4M1",
    "result": []
  },
  {
    "postal": "N2T9K2",
    "result": []
  },
  {
    "postal": "N2T9S6",
    "result": []
  },
  {
    "postal": "N2T4X1",
    "result": []
  },
  {
    "postal": "N2T8W2",
    "result": []
  },
  {
    "postal": "N2T7N2",
    "result": []
  },
  {
    "postal": "N2T8S3",
    "result": []
  },
  {
    "postal": "N2T4V0",
    "result": []
  },
  {
    "postal": "N2T6W4",
    "result": []
  },
  {
    "postal": "N2T5M1",
    "result": []
  },
  {
    "postal": "N2T0S4",
    "result": []
  },
  {
    "postal": "N2T5X6",
    "result": []
  },
  {
    "postal": "N2T8L5",
    "result": []
  },
  {
    "postal": "N2T5M8",
    "result": []
  },
  {
    "postal": "N2T2G3",
    "result": [
      {
        "electoralDistricts": [
          {
            "election": null,
            "id": 114,
            "name": "Waterloo"
          }
        ],
        "pollDivisionIds": [
          10126535
        ],
        "postalCode": "N2T2G3",
        "streetName": "AMBERWOOD",
        "streetDirectionId": null,
        "streetTypeId": "DR",
        "placeName": "WATERLOO",
        "streetNameDisplayText": "AMBERWOOD DR, WATERLOO"
      },
      {
        "electoralDistricts": [
          {
            "election": null,
            "id": 114,
            "name": "Waterloo"
          }
        ],
        "pollDivisionIds": [
          10126535
        ],
        "postalCode": "N2T2G3",
        "streetName": "ENNISMORE",
        "streetDirectionId": null,
        "streetTypeId": "PL",
        "placeName": "WATERLOO",
        "streetNameDisplayText": "ENNISMORE PL, WATERLOO"
      }
    ]
  },
  {
    "postal": "N2T8E4",
    "result": []
  },
  {
    "postal": "N2T7S9",
    "result": []
  },
  {
    "postal": "N2T1K3",
    "result": []
  },
  {
    "postal": "N2T4E1",
    "result": []
  },
  {
    "postal": "N2T4R2",
    "result": []
  },
  {
    "postal": "N2T6T0",
    "result": []
  },
  {
    "postal": "N2T3K5",
    "result": []
  },
  {
    "postal": "N2T3S3",
    "result": []
  },
  {
    "postal": "N2T3L4",
    "result": []
  },
  {
    "postal": "N2T9Y2",
    "result": []
  },
  {
    "postal": "N2T1E0",
    "result": []
  },
  {
    "postal": "N2T9A4",
    "result": []
  },
  {
    "postal": "N2T1L3",
    "result": []
  },
  {
    "postal": "N2T6N1",
    "result": []
  },
  {
    "postal": "N2T6G7",
    "result": []
  },
  {
    "postal": "N2T7W1",
    "result": []
  },
  {
    "postal": "N2T4M6",
    "result": []
  },
  {
    "postal": "N2T1K0",
    "result": []
  },
  {
    "postal": "N2T3E2",
    "result": []
  },
  {
    "postal": "N2T5H4",
    "result": []
  },
  {
    "postal": "N2T1K7",
    "result": []
  },
  {
    "postal": "N2T0H0",
    "result": []
  },
  {
    "postal": "N2T0J3",
    "result": []
  },
  {
    "postal": "N2T1X6",
    "result": [
      {
        "electoralDistricts": [
          {
            "election": null,
            "id": 114,
            "name": "Waterloo"
          }
        ],
        "pollDivisionIds": [
          10126536
        ],
        "postalCode": "N2T1X6",
        "streetName": "FOXHILL",
        "streetDirectionId": null,
        "streetTypeId": "PL",
        "placeName": "WATERLOO",
        "streetNameDisplayText": "FOXHILL PL, WATERLOO"
      }
    ]
  },
  {
    "postal": "N2T2Z6",
    "result": []
  },
  {
    "postal": "N2T4R9",
    "result": []
  },
  {
    "postal": "N2T0W8",
    "result": []
  },
  {
    "postal": "N2T1L4",
    "result": []
  },
  {
    "postal": "N2T0C8",
    "result": []
  },
  {
    "postal": "N2T9X7",
    "result": []
  },
  {
    "postal": "N2T4T1",
    "result": []
  },
  {
    "postal": "N2T0M0",
    "result": []
  },
  {
    "postal": "N2T6A2",
    "result": []
  },
  {
    "postal": "N2T9S8",
    "result": []
  },
  {
    "postal": "N2T9T4",
    "result": []
  },
  {
    "postal": "N2T9Y4",
    "result": []
  },
  {
    "postal": "N2T6G5",
    "result": []
  },
  {
    "postal": "N2T6H9",
    "result": []
  },
  {
    "postal": "N2T2P3",
    "result": [
      {
        "electoralDistricts": [
          {
            "election": null,
            "id": 114,
            "name": "Waterloo"
          }
        ],
        "pollDivisionIds": [
          10126536
        ],
        "postalCode": "N2T2P3",
        "streetName": "CARDIFF",
        "streetDirectionId": null,
        "streetTypeId": "ST",
        "placeName": "WATERLOO",
        "streetNameDisplayText": "CARDIFF ST, WATERLOO"
      },
      {
        "electoralDistricts": [
          {
            "election": null,
            "id": 114,
            "name": "Waterloo"
          }
        ],
        "pollDivisionIds": [
          10126536
        ],
        "postalCode": "N2T2P3",
        "streetName": "HEATHCLIFF",
        "streetDirectionId": null,
        "streetTypeId": "PL",
        "placeName": "WATERLOO",
        "streetNameDisplayText": "HEATHCLIFF PL, WATERLOO"
      },
      {
        "electoralDistricts": [
          {
            "election": null,
            "id": 114,
            "name": "Waterloo"
          }
        ],
        "pollDivisionIds": [
          10126536
        ],
        "postalCode": "N2T2P3",
        "streetName": "HEATHCLIFFE",
        "streetDirectionId": null,
        "streetTypeId": "PL",
        "placeName": "WATERLOO",
        "streetNameDisplayText": "HEATHCLIFFE PL, WATERLOO"
      }
    ]
  },
  {
    "postal": "N2T1T6",
    "result": [
      {
        "electoralDistricts": [
          {
            "election": null,
            "id": 114,
            "name": "Waterloo"
          }
        ],
        "pollDivisionIds": [
          10126544
        ],
        "postalCode": "N2T1T6",
        "streetName": "HALDANE",
        "streetDirectionId": null,
        "streetTypeId": "CRT",
        "placeName": "WATERLOO",
        "streetNameDisplayText": "HALDANE CRT, WATERLOO"
      }
    ]
  },
  {
    "postal": "N2T4P6",
    "result": []
  },
  {
    "postal": "N2T3K1",
    "result": []
  },
  {
    "postal": "N2T6X4",
    "result": []
  },
  {
    "postal": "N2T4M8",
    "result": []
  },
  {
    "postal": "N2T2Y1",
    "result": [
      {
        "electoralDistricts": [
          {
            "election": null,
            "id": 114,
            "name": "Waterloo"
          }
        ],
        "pollDivisionIds": [
          10126531
        ],
        "postalCode": "N2T2Y1",
        "streetName": "CHABLIS",
        "streetDirectionId": null,
        "streetTypeId": "DR",
        "placeName": "WATERLOO",
        "streetNameDisplayText": "CHABLIS DR, WATERLOO"
      },
      {
        "electoralDistricts": [
          {
            "election": null,
            "id": 114,
            "name": "Waterloo"
          }
        ],
        "pollDivisionIds": [
          10126531
        ],
        "postalCode": "N2T2Y1",
        "streetName": "PARIS",
        "streetDirectionId": null,
        "streetTypeId": "BLVD",
        "placeName": "WATERLOO",
        "streetNameDisplayText": "PARIS BLVD, WATERLOO"
      }
    ]
  },
  {
    "postal": "N2T6M1",
    "result": []
  },
  {
    "postal": "N2T5L8",
    "result": []
  },
  {
    "postal": "N2T3P6",
    "result": []
  },
  {
    "postal": "N2T9A5",
    "result": []
  },
  {
    "postal": "N2T7K1",
    "result": []
  },
  {
    "postal": "N2T3J4",
    "result": []
  },
  {
    "postal": "N2T5E7",
    "result": []
  },
  {
    "postal": "N2T3A7",
    "result": []
  },
  {
    "postal": "N2T1B9",
    "result": []
  },
  {
    "postal": "N2T9E8",
    "result": []
  },
  {
    "postal": "N2T1C9",
    "result": [
      {
        "electoralDistricts": [
          {
            "election": null,
            "id": 114,
            "name": "Waterloo"
          }
        ],
        "pollDivisionIds": [
          10126535
        ],
        "postalCode": "N2T1C9",
        "streetName": "SANDFORD FLEMING",
        "streetDirectionId": null,
        "streetTypeId": "DR",
        "placeName": "WATERLOO",
        "streetNameDisplayText": "SANDFORD FLEMING DR, WATERLOO"
      }
    ]
  },
  {
    "postal": "N2T3B5",
    "result": []
  },
  {
    "postal": "N2T8R0",
    "result": []
  },
  {
    "postal": "N2T3P2",
    "result": []
  },
  {
    "postal": "N2T5V4",
    "result": []
  },
  {
    "postal": "N2T4H0",
    "result": []
  },
  {
    "postal": "N2T4S7",
    "result": []
  },
  {
    "postal": "N2T6C2",
    "result": []
  },
  {
    "postal": "N2T8W3",
    "result": []
  },
  {
    "postal": "N2T4M5",
    "result": []
  },
  {
    "postal": "N2T5T1",
    "result": []
  },
  {
    "postal": "N2T3B3",
    "result": []
  },
  {
    "postal": "N2T6C6",
    "result": []
  },
  {
    "postal": "N2T7N8",
    "result": []
  },
  {
    "postal": "N2T2Y3",
    "result": [
      {
        "electoralDistricts": [
          {
            "election": null,
            "id": 114,
            "name": "Waterloo"
          }
        ],
        "pollDivisionIds": [
          10126531
        ],
        "postalCode": "N2T2Y3",
        "streetName": "KEATS",
        "streetDirectionId": null,
        "streetTypeId": "WAY",
        "placeName": "WATERLOO",
        "streetNameDisplayText": "KEATS WAY, WATERLOO"
      },
      {
        "electoralDistricts": [
          {
            "election": null,
            "id": 114,
            "name": "Waterloo"
          }
        ],
        "pollDivisionIds": [
          10126531
        ],
        "postalCode": "N2T2Y3",
        "streetName": "LUCERNE",
        "streetDirectionId": null,
        "streetTypeId": "AVE",
        "placeName": "WATERLOO",
        "streetNameDisplayText": "LUCERNE AVE, WATERLOO"
      }
    ]
  },
  {
    "postal": "N2T2R6",
    "result": [
      {
        "electoralDistricts": [
          {
            "election": null,
            "id": 114,
            "name": "Waterloo"
          }
        ],
        "pollDivisionIds": [
          10126535
        ],
        "postalCode": "N2T2R6",
        "streetName": "KEATSWOOD",
        "streetDirectionId": null,
        "streetTypeId": "CRES",
        "placeName": "WATERLOO",
        "streetNameDisplayText": "KEATSWOOD CRES, WATERLOO"
      }
    ]
  },
  {
    "postal": "N2T7N3",
    "result": []
  },
  {
    "postal": "N2T8J2",
    "result": []
  },
  {
    "postal": "N2T6A9",
    "result": []
  },
  {
    "postal": "N2T3V2",
    "result": []
  },
  {
    "postal": "N2T2N3",
    "result": [
      {
        "electoralDistricts": [
          {
            "election": null,
            "id": 114,
            "name": "Waterloo"
          }
        ],
        "pollDivisionIds": [
          10126540
        ],
        "postalCode": "N2T2N3",
        "streetName": "COLUMBIA",
        "streetDirectionId": "W",
        "streetTypeId": "ST",
        "placeName": "WATERLOO",
        "streetNameDisplayText": "COLUMBIA ST W, WATERLOO"
      }
    ]
  },
  {
    "postal": "N2T1S5",
    "result": [
      {
        "electoralDistricts": [
          {
            "election": null,
            "id": 114,
            "name": "Waterloo"
          }
        ],
        "pollDivisionIds": [
          10126535
        ],
        "postalCode": "N2T1S5",
        "streetName": "ALEXMUIR",
        "streetDirectionId": null,
        "streetTypeId": "PL",
        "placeName": "WATERLOO",
        "streetNameDisplayText": "ALEXMUIR PL, WATERLOO"
      }
    ]
  },
  {
    "postal": "N2T4T7",
    "result": []
  },
  {
    "postal": "N2T6Y7",
    "result": []
  },
  {
    "postal": "N2T0W7",
    "result": []
  },
  {
    "postal": "N2T2W9",
    "result": [
      {
        "electoralDistricts": [
          {
            "election": null,
            "id": 114,
            "name": "Waterloo"
          }
        ],
        "pollDivisionIds": [
          10126531
        ],
        "postalCode": "N2T2W9",
        "streetName": "BRANDENBURG",
        "streetDirectionId": null,
        "streetTypeId": "BLVD",
        "placeName": "WATERLOO",
        "streetNameDisplayText": "BRANDENBURG BLVD, WATERLOO"
      }
    ]
  },
  {
    "postal": "N2T8V0",
    "result": []
  },
  {
    "postal": "N2T0H4",
    "result": []
  },
  {
    "postal": "N2T2T1",
    "result": [
      {
        "electoralDistricts": [
          {
            "election": null,
            "id": 114,
            "name": "Waterloo"
          }
        ],
        "pollDivisionIds": [
          10126534,
          10126530
        ],
        "postalCode": "N2T2T1",
        "streetName": "BEAVER CREEK",
        "streetDirectionId": null,
        "streetTypeId": "RD",
        "placeName": "WATERLOO",
        "streetNameDisplayText": "BEAVER CREEK RD, WATERLOO"
      },
      {
        "electoralDistricts": [
          {
            "election": null,
            "id": 114,
            "name": "Waterloo"
          }
        ],
        "pollDivisionIds": [
          10126534
        ],
        "postalCode": "N2T2T1",
        "streetName": "DALECROFT",
        "streetDirectionId": null,
        "streetTypeId": "PL",
        "placeName": "WATERLOO",
        "streetNameDisplayText": "DALECROFT PL, WATERLOO"
      },
      {
        "electoralDistricts": [
          {
            "election": null,
            "id": 114,
            "name": "Waterloo"
          }
        ],
        "pollDivisionIds": [
          10126530
        ],
        "postalCode": "N2T2T1",
        "streetName": "HAVENDALE",
        "streetDirectionId": null,
        "streetTypeId": "CRES",
        "placeName": "WATERLOO",
        "streetNameDisplayText": "HAVENDALE CRES, WATERLOO"
      },
      {
        "electoralDistricts": [
          {
            "election": null,
            "id": 114,
            "name": "Waterloo"
          }
        ],
        "pollDivisionIds": [
          10126534
        ],
        "postalCode": "N2T2T1",
        "streetName": "PINELAND",
        "streetDirectionId": null,
        "streetTypeId": "CRT",
        "placeName": "WATERLOO",
        "streetNameDisplayText": "PINELAND CRT, WATERLOO"
      }
    ]
  },
  {
    "postal": "N2T1B1",
    "result": []
  },
  {
    "postal": "N2T8B6",
    "result": []
  },
  {
    "postal": "N2T6H1",
    "result": []
  },
  {
    "postal": "N2T8T8",
    "result": []
  },
  {
    "postal": "N2T0T4",
    "result": []
  },
  {
    "postal": "N2T2C4",
    "result": [
      {
        "electoralDistricts": [
          {
            "election": null,
            "id": 114,
            "name": "Waterloo"
          }
        ],
        "pollDivisionIds": [
          10126537
        ],
        "postalCode": "N2T2C4",
        "streetName": "BEECHWOOD",
        "streetDirectionId": null,
        "streetTypeId": "DR",
        "placeName": "WATERLOO",
        "streetNameDisplayText": "BEECHWOOD DR, WATERLOO"
      }
    ]
  },
  {
    "postal": "N2T8N3",
    "result": []
  },
  {
    "postal": "N2T4L8",
    "result": []
  },
  {
    "postal": "N2T2B5",
    "result": [
      {
        "electoralDistricts": [
          {
            "election": null,
            "id": 114,
            "name": "Waterloo"
          }
        ],
        "pollDivisionIds": [
          10126544
        ],
        "postalCode": "N2T2B5",
        "streetName": "NEWPORT",
        "streetDirectionId": null,
        "streetTypeId": "PL",
        "placeName": "WATERLOO",
        "streetNameDisplayText": "NEWPORT PL, WATERLOO"
      },
      {
        "electoralDistricts": [
          {
            "election": null,
            "id": 114,
            "name": "Waterloo"
          }
        ],
        "pollDivisionIds": [
          10126544
        ],
        "postalCode": "N2T2B5",
        "streetName": "SOUTHAMPTON",
        "streetDirectionId": null,
        "streetTypeId": "PL",
        "placeName": "WATERLOO",
        "streetNameDisplayText": "SOUTHAMPTON PL, WATERLOO"
      }
    ]
  },
  {
    "postal": "N2T3H1",
    "result": []
  },
  {
    "postal": "N2T4Y1",
    "result": []
  },
  {
    "postal": "N2T7E2",
    "result": []
  },
  {
    "postal": "N2T2P5",
    "result": [
      {
        "electoralDistricts": [
          {
            "election": null,
            "id": 114,
            "name": "Waterloo"
          }
        ],
        "pollDivisionIds": [
          10142551,
          10126540
        ],
        "postalCode": "N2T2P5",
        "streetName": "COLUMBIA",
        "streetDirectionId": "W",
        "streetTypeId": "ST",
        "placeName": "WATERLOO",
        "streetNameDisplayText": "COLUMBIA ST W, WATERLOO"
      }
    ]
  },
  {
    "postal": "N2T8R7",
    "result": []
  },
  {
    "postal": "N2T9P1",
    "result": []
  },
  {
    "postal": "N2T3B8",
    "result": []
  },
  {
    "postal": "N2T3P7",
    "result": []
  },
  {
    "postal": "N2T9B2",
    "result": []
  },
  {
    "postal": "N2T6Z3",
    "result": []
  },
  {
    "postal": "N2T4N5",
    "result": []
  },
  {
    "postal": "N2T8T3",
    "result": []
  },
  {
    "postal": "N2T1V2",
    "result": [
      {
        "electoralDistricts": [
          {
            "election": null,
            "id": 114,
            "name": "Waterloo"
          }
        ],
        "pollDivisionIds": [
          10126544
        ],
        "postalCode": "N2T1V2",
        "streetName": "OLD MEADOW",
        "streetDirectionId": null,
        "streetTypeId": "LANE",
        "placeName": "WATERLOO",
        "streetNameDisplayText": "OLD MEADOW LANE, WATERLOO"
      }
    ]
  },
  {
    "postal": "N2T1Y0",
    "result": []
  },
  {
    "postal": "N2T3G6",
    "result": []
  },
  {
    "postal": "N2T3H7",
    "result": []
  },
  {
    "postal": "N2T7X8",
    "result": []
  },
  {
    "postal": "N2T0C7",
    "result": []
  },
  {
    "postal": "N2T0W9",
    "result": []
  },
  {
    "postal": "N2T8E6",
    "result": []
  },
  {
    "postal": "N2T9Z8",
    "result": []
  },
  {
    "postal": "N2T3P4",
    "result": []
  },
  {
    "postal": "N2T6L8",
    "result": []
  },
  {
    "postal": "N2T2R4",
    "result": [
      {
        "electoralDistricts": [
          {
            "election": null,
            "id": 114,
            "name": "Waterloo"
          }
        ],
        "pollDivisionIds": [
          10126536
        ],
        "postalCode": "N2T2R4",
        "streetName": "BAKER",
        "streetDirectionId": null,
        "streetTypeId": "ST",
        "placeName": "WATERLOO",
        "streetNameDisplayText": "BAKER ST, WATERLOO"
      }
    ]
  },
  {
    "postal": "N2T2W1",
    "result": [
      {
        "electoralDistricts": [
          {
            "election": null,
            "id": 114,
            "name": "Waterloo"
          }
        ],
        "pollDivisionIds": [
          10126534
        ],
        "postalCode": "N2T2W1",
        "streetName": "COLUMBIA",
        "streetDirectionId": "W",
        "streetTypeId": "ST",
        "placeName": "WATERLOO",
        "streetNameDisplayText": "COLUMBIA ST W, WATERLOO"
      }
    ]
  },
  {
    "postal": "N2T9H8",
    "result": []
  },
  {
    "postal": "N2T8X9",
    "result": []
  },
  {
    "postal": "N2T7H4",
    "result": []
  },
  {
    "postal": "N2T3J1",
    "result": []
  },
  {
    "postal": "N2T1P4",
    "result": [
      {
        "electoralDistricts": [
          {
            "election": null,
            "id": 114,
            "name": "Waterloo"
          }
        ],
        "pollDivisionIds": [
          10126535
        ],
        "postalCode": "N2T1P4",
        "streetName": "BRANSTONE",
        "streetDirectionId": null,
        "streetTypeId": "DR",
        "placeName": "WATERLOO",
        "streetNameDisplayText": "BRANSTONE DR, WATERLOO"
      }
    ]
  },
  {
    "postal": "N2T2A3",
    "result": [
      {
        "electoralDistricts": [
          {
            "election": null,
            "id": 114,
            "name": "Waterloo"
          }
        ],
        "pollDivisionIds": [
          10126544
        ],
        "postalCode": "N2T2A3",
        "streetName": "ROSEMEADOW",
        "streetDirectionId": null,
        "streetTypeId": "CRES",
        "placeName": "WATERLOO",
        "streetNameDisplayText": "ROSEMEADOW CRES, WATERLOO"
      },
      {
        "electoralDistricts": [
          {
            "election": null,
            "id": 114,
            "name": "Waterloo"
          }
        ],
        "pollDivisionIds": [
          10126544
        ],
        "postalCode": "N2T2A3",
        "streetName": "THORNDALE",
        "streetDirectionId": null,
        "streetTypeId": "DR",
        "placeName": "WATERLOO",
        "streetNameDisplayText": "THORNDALE DR, WATERLOO"
      }
    ]
  },
  {
    "postal": "N2T0Z1",
    "result": []
  },
  {
    "postal": "N2T1C1",
    "result": [
      {
        "electoralDistricts": [
          {
            "election": null,
            "id": 114,
            "name": "Waterloo"
          }
        ],
        "pollDivisionIds": [
          10126544
        ],
        "postalCode": "N2T1C1",
        "streetName": "WESTVALE",
        "streetDirectionId": null,
        "streetTypeId": "DR",
        "placeName": "WATERLOO",
        "streetNameDisplayText": "WESTVALE DR, WATERLOO"
      }
    ]
  },
  {
    "postal": "N2T0H3",
    "result": []
  },
  {
    "postal": "N2T7B0",
    "result": []
  },
  {
    "postal": "N2T5K2",
    "result": []
  },
  {
    "postal": "N2T1E9",
    "result": [
      {
        "electoralDistricts": [
          {
            "election": null,
            "id": 114,
            "name": "Waterloo"
          }
        ],
        "pollDivisionIds": [
          10126535
        ],
        "postalCode": "N2T1E9",
        "streetName": "SANDFORD FLEMING",
        "streetDirectionId": null,
        "streetTypeId": "DR",
        "placeName": "WATERLOO",
        "streetNameDisplayText": "SANDFORD FLEMING DR, WATERLOO"
      }
    ]
  },
  {
    "postal": "N2T9W7",
    "result": []
  },
  {
    "postal": "N2T5W6",
    "result": []
  },
  {
    "postal": "N2T6S6",
    "result": []
  },
  {
    "postal": "N2T2P8",
    "result": [
      {
        "electoralDistricts": [
          {
            "election": null,
            "id": 114,
            "name": "Waterloo"
          }
        ],
        "pollDivisionIds": [
          10126536
        ],
        "postalCode": "N2T2P8",
        "streetName": "WESTFIELD",
        "streetDirectionId": null,
        "streetTypeId": "DR",
        "placeName": "WATERLOO",
        "streetNameDisplayText": "WESTFIELD DR, WATERLOO"
      }
    ]
  },
  {
    "postal": "N2T4P8",
    "result": []
  },
  {
    "postal": "N2T0V9",
    "result": []
  },
  {
    "postal": "N2T5Y2",
    "result": []
  },
  {
    "postal": "N2T7Z7",
    "result": []
  },
  {
    "postal": "N2T6Y8",
    "result": []
  },
  {
    "postal": "N2T2G7",
    "result": [
      {
        "electoralDistricts": [
          {
            "election": null,
            "id": 114,
            "name": "Waterloo"
          }
        ],
        "pollDivisionIds": [
          10126537
        ],
        "postalCode": "N2T2G7",
        "streetName": "BEECHWOOD",
        "streetDirectionId": null,
        "streetTypeId": "DR",
        "placeName": "WATERLOO",
        "streetNameDisplayText": "BEECHWOOD DR, WATERLOO"
      }
    ]
  },
  {
    "postal": "N2T8C1",
    "result": []
  },
  {
    "postal": "N2T5C5",
    "result": []
  },
  {
    "postal": "N2T2X8",
    "result": [
      {
        "electoralDistricts": [
          {
            "election": null,
            "id": 114,
            "name": "Waterloo"
          }
        ],
        "pollDivisionIds": [
          10126531
        ],
        "postalCode": "N2T2X8",
        "streetName": "BERNAY",
        "streetDirectionId": null,
        "streetTypeId": "DR",
        "placeName": "WATERLOO",
        "streetNameDisplayText": "BERNAY DR, WATERLOO"
      },
      {
        "electoralDistricts": [
          {
            "election": null,
            "id": 114,
            "name": "Waterloo"
          }
        ],
        "pollDivisionIds": [
          10126531
        ],
        "postalCode": "N2T2X8",
        "streetName": "CHABLIS",
        "streetDirectionId": null,
        "streetTypeId": "DR",
        "placeName": "WATERLOO",
        "streetNameDisplayText": "CHABLIS DR, WATERLOO"
      }
    ]
  },
  {
    "postal": "N2T1W5",
    "result": [
      {
        "electoralDistricts": [
          {
            "election": null,
            "id": 114,
            "name": "Waterloo"
          }
        ],
        "pollDivisionIds": [
          10126544
        ],
        "postalCode": "N2T1W5",
        "streetName": "THORNDALE",
        "streetDirectionId": null,
        "streetTypeId": "DR",
        "placeName": "WATERLOO",
        "streetNameDisplayText": "THORNDALE DR, WATERLOO"
      }
    ]
  },
  {
    "postal": "N2T7G0",
    "result": []
  },
  {
    "postal": "N2T8J8",
    "result": []
  },
  {
    "postal": "N2T3Y0",
    "result": []
  },
  {
    "postal": "N2T9T7",
    "result": []
  },
  {
    "postal": "N2T5P4",
    "result": []
  },
  {
    "postal": "N2T4B0",
    "result": []
  },
  {
    "postal": "N2T9N8",
    "result": []
  },
  {
    "postal": "N2T4A7",
    "result": []
  },
  {
    "postal": "N2T4H9",
    "result": []
  },
  {
    "postal": "N2T6X1",
    "result": []
  },
  {
    "postal": "N2T9Y7",
    "result": []
  },
  {
    "postal": "N2T2Y5",
    "result": [
      {
        "electoralDistricts": [
          {
            "election": null,
            "id": 114,
            "name": "Waterloo"
          }
        ],
        "pollDivisionIds": [
          10126531
        ],
        "postalCode": "N2T2Y5",
        "streetName": "INTERLAKEN",
        "streetDirectionId": null,
        "streetTypeId": "DR",
        "placeName": "WATERLOO",
        "streetNameDisplayText": "INTERLAKEN DR, WATERLOO"
      }
    ]
  },
  {
    "postal": "N2T8L7",
    "result": []
  },
  {
    "postal": "N2T2A8",
    "result": [
      {
        "electoralDistricts": [
          {
            "election": null,
            "id": 114,
            "name": "Waterloo"
          }
        ],
        "pollDivisionIds": [
          10126544
        ],
        "postalCode": "N2T2A8",
        "streetName": "THORNDALE",
        "streetDirectionId": null,
        "streetTypeId": "DR",
        "placeName": "WATERLOO",
        "streetNameDisplayText": "THORNDALE DR, WATERLOO"
      }
    ]
  },
  {
    "postal": "N2T2K9",
    "result": [
      {
        "electoralDistricts": [
          {
            "election": null,
            "id": 114,
            "name": "Waterloo"
          }
        ],
        "pollDivisionIds": [
          10126537
        ],
        "postalCode": "N2T2K9",
        "streetName": "BEECHWOOD",
        "streetDirectionId": null,
        "streetTypeId": "DR",
        "placeName": "WATERLOO",
        "streetNameDisplayText": "BEECHWOOD DR, WATERLOO"
      }
    ]
  },
  {
    "postal": "N2T3E5",
    "result": []
  },
  {
    "postal": "N2T8N6",
    "result": []
  },
  {
    "postal": "N2T8J4",
    "result": []
  },
  {
    "postal": "N2T4R7",
    "result": []
  },
  {
    "postal": "N2T9K1",
    "result": []
  },
  {
    "postal": "N2T8E1",
    "result": []
  },
  {
    "postal": "N2T0R1",
    "result": []
  },
  {
    "postal": "N2T4J3",
    "result": []
  },
  {
    "postal": "N2T7E7",
    "result": []
  },
  {
    "postal": "N2T0J0",
    "result": []
  },
  {
    "postal": "N2T7R8",
    "result": []
  },
  {
    "postal": "N2T9X0",
    "result": []
  },
  {
    "postal": "N2T7P6",
    "result": []
  },
  {
    "postal": "N2T0R7",
    "result": []
  },
  {
    "postal": "N2T5W1",
    "result": []
  },
  {
    "postal": "N2T0K4",
    "result": []
  },
  {
    "postal": "N2T7N9",
    "result": []
  },
  {
    "postal": "N2T1N0",
    "result": []
  },
  {
    "postal": "N2T6P3",
    "result": []
  },
  {
    "postal": "N2T5A1",
    "result": []
  },
  {
    "postal": "N2T9M9",
    "result": []
  },
  {
    "postal": "N2T7T6",
    "result": []
  },
  {
    "postal": "N2T3X0",
    "result": []
  },
  {
    "postal": "N2T2T0",
    "result": []
  },
  {
    "postal": "N2T5X9",
    "result": []
  },
  {
    "postal": "N2T2R3",
    "result": []
  },
  {
    "postal": "N2T5N2",
    "result": []
  },
  {
    "postal": "N2T4Y7",
    "result": []
  },
  {
    "postal": "N2T7M0",
    "result": []
  },
  {
    "postal": "N2T8P3",
    "result": []
  },
  {
    "postal": "N2T3N3",
    "result": []
  },
  {
    "postal": "N2T7S3",
    "result": []
  },
  {
    "postal": "N2T3V9",
    "result": []
  },
  {
    "postal": "N2T9N7",
    "result": []
  },
  {
    "postal": "N2T0G4",
    "result": []
  },
  {
    "postal": "N2T2E2",
    "result": [
      {
        "electoralDistricts": [
          {
            "election": null,
            "id": 114,
            "name": "Waterloo"
          }
        ],
        "pollDivisionIds": [
          10126544
        ],
        "postalCode": "N2T2E2",
        "streetName": "BOLINGBROOKE",
        "streetDirectionId": null,
        "streetTypeId": "PL",
        "placeName": "WATERLOO",
        "streetNameDisplayText": "BOLINGBROOKE PL, WATERLOO"
      }
    ]
  },
  {
    "postal": "N2T7W8",
    "result": []
  },
  {
    "postal": "N2T7M5",
    "result": []
  },
  {
    "postal": "N2T5W8",
    "result": []
  },
  {
    "postal": "N2T5E5",
    "result": []
  },
  {
    "postal": "N2T1P9",
    "result": [
      {
        "electoralDistricts": [
          {
            "election": null,
            "id": 114,
            "name": "Waterloo"
          }
        ],
        "pollDivisionIds": [
          10126535
        ],
        "postalCode": "N2T1P9",
        "streetName": "CALVINGTON",
        "streetDirectionId": null,
        "streetTypeId": "PL",
        "placeName": "WATERLOO",
        "streetNameDisplayText": "CALVINGTON PL, WATERLOO"
      }
    ]
  },
  {
    "postal": "N2T8V8",
    "result": []
  },
  {
    "postal": "N2T9G8",
    "result": []
  },
  {
    "postal": "N2T8H9",
    "result": []
  },
  {
    "postal": "N2T1Z1",
    "result": [
      {
        "electoralDistricts": [
          {
            "election": null,
            "id": 114,
            "name": "Waterloo"
          }
        ],
        "pollDivisionIds": [
          10126537
        ],
        "postalCode": "N2T1Z1",
        "streetName": "BEECHWOOD",
        "streetDirectionId": null,
        "streetTypeId": "PL",
        "placeName": "WATERLOO",
        "streetNameDisplayText": "BEECHWOOD PL, WATERLOO"
      }
    ]
  },
  {
    "postal": "N2T8M3",
    "result": []
  },
  {
    "postal": "N2T5H6",
    "result": []
  },
  {
    "postal": "N2T7W7",
    "result": []
  },
  {
    "postal": "N2T4L0",
    "result": []
  },
  {
    "postal": "N2T2N1",
    "result": [
      {
        "electoralDistricts": [
          {
            "election": null,
            "id": 114,
            "name": "Waterloo"
          }
        ],
        "pollDivisionIds": [
          10126536
        ],
        "postalCode": "N2T2N1",
        "streetName": "SPRINGFIELD",
        "streetDirectionId": null,
        "streetTypeId": "CRES",
        "placeName": "WATERLOO",
        "streetNameDisplayText": "SPRINGFIELD CRES, WATERLOO"
      }
    ]
  },
  {
    "postal": "N2T2H4",
    "result": [
      {
        "electoralDistricts": [
          {
            "election": null,
            "id": 114,
            "name": "Waterloo"
          }
        ],
        "pollDivisionIds": [
          10126535
        ],
        "postalCode": "N2T2H4",
        "streetName": "LEIGHLAND",
        "streetDirectionId": null,
        "streetTypeId": "DR",
        "placeName": "WATERLOO",
        "streetNameDisplayText": "LEIGHLAND DR, WATERLOO"
      },
      {
        "electoralDistricts": [
          {
            "election": null,
            "id": 114,
            "name": "Waterloo"
          }
        ],
        "pollDivisionIds": [
          10126535
        ],
        "postalCode": "N2T2H4",
        "streetName": "SANDBROOKE",
        "streetDirectionId": null,
        "streetTypeId": "CRT",
        "placeName": "WATERLOO",
        "streetNameDisplayText": "SANDBROOKE CRT, WATERLOO"
      }
    ]
  },
  {
    "postal": "N2T5C8",
    "result": []
  },
  {
    "postal": "N2T8B0",
    "result": []
  },
  {
    "postal": "N2T1T4",
    "result": [
      {
        "electoralDistricts": [
          {
            "election": null,
            "id": 114,
            "name": "Waterloo"
          }
        ],
        "pollDivisionIds": [
          10126544
        ],
        "postalCode": "N2T1T4",
        "streetName": "WESTVALE",
        "streetDirectionId": null,
        "streetTypeId": "DR",
        "placeName": "WATERLOO",
        "streetNameDisplayText": "WESTVALE DR, WATERLOO"
      }
    ]
  },
  {
    "postal": "N2T7N7",
    "result": []
  },
  {
    "postal": "N2T4L3",
    "result": []
  },
  {
    "postal": "N2T2N2",
    "result": [
      {
        "electoralDistricts": [
          {
            "election": null,
            "id": 114,
            "name": "Waterloo"
          }
        ],
        "pollDivisionIds": [
          10126535
        ],
        "postalCode": "N2T2N2",
        "streetName": "CORNRIDGE",
        "streetDirectionId": null,
        "streetTypeId": "PL",
        "placeName": "WATERLOO",
        "streetNameDisplayText": "CORNRIDGE PL, WATERLOO"
      },
      {
        "electoralDistricts": [
          {
            "election": null,
            "id": 114,
            "name": "Waterloo"
          }
        ],
        "pollDivisionIds": [
          10126535
        ],
        "postalCode": "N2T2N2",
        "streetName": "CORNRIDGE",
        "streetDirectionId": null,
        "streetTypeId": "PLACE",
        "placeName": "WATERLOO",
        "streetNameDisplayText": "CORNRIDGE PLACE, WATERLOO"
      },
      {
        "electoralDistricts": [
          {
            "election": null,
            "id": 114,
            "name": "Waterloo"
          }
        ],
        "pollDivisionIds": [
          10126535
        ],
        "postalCode": "N2T2N2",
        "streetName": "ERBSVILLE",
        "streetDirectionId": null,
        "streetTypeId": "RD",
        "placeName": "WATERLOO",
        "streetNameDisplayText": "ERBSVILLE RD, WATERLOO"
      }
    ]
  },
  {
    "postal": "N2T4N8",
    "result": []
  },
  {
    "postal": "N2T3M5",
    "result": []
  },
  {
    "postal": "N2T6H7",
    "result": []
  },
  {
    "postal": "N2T8Y8",
    "result": []
  },
  {
    "postal": "N2T5R9",
    "result": []
  },
  {
    "postal": "N2T8G3",
    "result": []
  },
  {
    "postal": "N2T4N7",
    "result": []
  },
  {
    "postal": "N2T0B9",
    "result": []
  },
  {
    "postal": "N2T9K7",
    "result": []
  },
  {
    "postal": "N2T9K9",
    "result": []
  },
  {
    "postal": "N2T3Z2",
    "result": []
  },
  {
    "postal": "N2T6W7",
    "result": []
  },
  {
    "postal": "N2T0P1",
    "result": []
  },
  {
    "postal": "N2T3A0",
    "result": []
  },
  {
    "postal": "N2T8L9",
    "result": []
  },
  {
    "postal": "N2T6X0",
    "result": []
  },
  {
    "postal": "N2T3E9",
    "result": []
  },
  {
    "postal": "N2T0S5",
    "result": []
  },
  {
    "postal": "N2T1A2",
    "result": [
      {
        "electoralDistricts": [
          {
            "election": null,
            "id": 114,
            "name": "Waterloo"
          }
        ],
        "pollDivisionIds": [
          10126544
        ],
        "postalCode": "N2T1A2",
        "streetName": "GATEVIEW",
        "streetDirectionId": null,
        "streetTypeId": "DR",
        "placeName": "WATERLOO",
        "streetNameDisplayText": "GATEVIEW DR, WATERLOO"
      }
    ]
  },
  {
    "postal": "N2T5V8",
    "result": []
  },
  {
    "postal": "N2T8C5",
    "result": []
  },
  {
    "postal": "N2T6N0",
    "result": []
  },
  {
    "postal": "N2T9E6",
    "result": []
  },
  {
    "postal": "N2T5J7",
    "result": []
  },
  {
    "postal": "N2T2R2",
    "result": [
      {
        "electoralDistricts": [
          {
            "election": null,
            "id": 114,
            "name": "Waterloo"
          }
        ],
        "pollDivisionIds": [
          10126536
        ],
        "postalCode": "N2T2R2",
        "streetName": "WESTFIELD",
        "streetDirectionId": null,
        "streetTypeId": "DR",
        "placeName": "WATERLOO",
        "streetNameDisplayText": "WESTFIELD DR, WATERLOO"
      },
      {
        "electoralDistricts": [
          {
            "election": null,
            "id": 114,
            "name": "Waterloo"
          }
        ],
        "pollDivisionIds": [
          10126536
        ],
        "postalCode": "N2T2R2",
        "streetName": "WESTFIELD",
        "streetDirectionId": null,
        "streetTypeId": "PL",
        "placeName": "WATERLOO",
        "streetNameDisplayText": "WESTFIELD PL, WATERLOO"
      }
    ]
  },
  {
    "postal": "N2T0P5",
    "result": []
  },
  {
    "postal": "N2T5A7",
    "result": []
  },
  {
    "postal": "N2T1G1",
    "result": [
      {
        "electoralDistricts": [
          {
            "election": null,
            "id": 114,
            "name": "Waterloo"
          }
        ],
        "pollDivisionIds": [
          10126535
        ],
        "postalCode": "N2T1G1",
        "streetName": "SANDFORD FLEMING",
        "streetDirectionId": null,
        "streetTypeId": "DR",
        "placeName": "WATERLOO",
        "streetNameDisplayText": "SANDFORD FLEMING DR, WATERLOO"
      }
    ]
  },
  {
    "postal": "N2T9R6",
    "result": []
  },
  {
    "postal": "N2T4Z9",
    "result": []
  },
  {
    "postal": "N2T1V5",
    "result": [
      {
        "electoralDistricts": [
          {
            "election": null,
            "id": 114,
            "name": "Waterloo"
          }
        ],
        "pollDivisionIds": [
          10126544
        ],
        "postalCode": "N2T1V5",
        "streetName": "APPLEDALE",
        "streetDirectionId": null,
        "streetTypeId": "CRES",
        "placeName": "WATERLOO",
        "streetNameDisplayText": "APPLEDALE CRES, WATERLOO"
      }
    ]
  },
  {
    "postal": "N2T9Y5",
    "result": []
  },
  {
    "postal": "N2T1P2",
    "result": [
      {
        "electoralDistricts": [
          {
            "election": null,
            "id": 114,
            "name": "Waterloo"
          }
        ],
        "pollDivisionIds": [
          10126535
        ],
        "postalCode": "N2T1P2",
        "streetName": "REGENCY",
        "streetDirectionId": null,
        "streetTypeId": "CRES",
        "placeName": "WATERLOO",
        "streetNameDisplayText": "REGENCY CRES, WATERLOO"
      }
    ]
  },
  {
    "postal": "N2T5X0",
    "result": []
  },
  {
    "postal": "N2T7B8",
    "result": []
  },
  {
    "postal": "N2T0C6",
    "result": []
  },
  {
    "postal": "N2T6G1",
    "result": []
  },
  {
    "postal": "N2T3K3",
    "result": []
  },
  {
    "postal": "N2T9R0",
    "result": []
  },
  {
    "postal": "N2T4R8",
    "result": []
  },
  {
    "postal": "N2T5P9",
    "result": []
  },
  {
    "postal": "N2T8N4",
    "result": []
  },
  {
    "postal": "N2T8H4",
    "result": []
  },
  {
    "postal": "N2T4V1",
    "result": []
  },
  {
    "postal": "N2T1K5",
    "result": [
      {
        "electoralDistricts": [
          {
            "election": null,
            "id": 114,
            "name": "Waterloo"
          }
        ],
        "pollDivisionIds": [
          10126535
        ],
        "postalCode": "N2T1K5",
        "streetName": "WINCHESTER",
        "streetDirectionId": null,
        "streetTypeId": "DR",
        "placeName": "WATERLOO",
        "streetNameDisplayText": "WINCHESTER DR, WATERLOO"
      }
    ]
  },
  {
    "postal": "N2T1Z5",
    "result": [
      {
        "electoralDistricts": [
          {
            "election": null,
            "id": 114,
            "name": "Waterloo"
          }
        ],
        "pollDivisionIds": [
          10126537
        ],
        "postalCode": "N2T1Z5",
        "streetName": "BEECHWOOD",
        "streetDirectionId": null,
        "streetTypeId": "DR",
        "placeName": "WATERLOO",
        "streetNameDisplayText": "BEECHWOOD DR, WATERLOO"
      },
      {
        "electoralDistricts": [
          {
            "election": null,
            "id": 114,
            "name": "Waterloo"
          }
        ],
        "pollDivisionIds": [
          10126537
        ],
        "postalCode": "N2T1Z5",
        "streetName": "HEMINGWAY",
        "streetDirectionId": null,
        "streetTypeId": "PL",
        "placeName": "WATERLOO",
        "streetNameDisplayText": "HEMINGWAY PL, WATERLOO"
      },
      {
        "electoralDistricts": [
          {
            "election": null,
            "id": 114,
            "name": "Waterloo"
          }
        ],
        "pollDivisionIds": [
          10126537
        ],
        "postalCode": "N2T1Z5",
        "streetName": "SANDBURY",
        "streetDirectionId": null,
        "streetTypeId": "LANE",
        "placeName": "WATERLOO",
        "streetNameDisplayText": "SANDBURY LANE, WATERLOO"
      }
    ]
  },
  {
    "postal": "N2T9L9",
    "result": []
  },
  {
    "postal": "N2T5L2",
    "result": []
  },
  {
    "postal": "N2T0M2",
    "result": []
  },
  {
    "postal": "N2T1K8",
    "result": []
  },
  {
    "postal": "N2T3M7",
    "result": []
  },
  {
    "postal": "N2T1B2",
    "result": [
      {
        "electoralDistricts": [
          {
            "election": null,
            "id": 114,
            "name": "Waterloo"
          }
        ],
        "pollDivisionIds": [
          10126544
        ],
        "postalCode": "N2T1B2",
        "streetName": "THORNBUSH",
        "streetDirectionId": null,
        "streetTypeId": "CRES",
        "placeName": "WATERLOO",
        "streetNameDisplayText": "THORNBUSH CRES, WATERLOO"
      }
    ]
  },
  {
    "postal": "N2T0H9",
    "result": []
  },
  {
    "postal": "N2T8M4",
    "result": []
  },
  {
    "postal": "N2T2M5",
    "result": [
      {
        "electoralDistricts": [
          {
            "election": null,
            "id": 114,
            "name": "Waterloo"
          }
        ],
        "pollDivisionIds": [
          10126544,
          10126536
        ],
        "postalCode": "N2T2M5",
        "streetName": "MIDDLEBURY",
        "streetDirectionId": null,
        "streetTypeId": "DR",
        "placeName": "WATERLOO",
        "streetNameDisplayText": "MIDDLEBURY DR, WATERLOO"
      },
      {
        "electoralDistricts": [
          {
            "election": null,
            "id": 114,
            "name": "Waterloo"
          }
        ],
        "pollDivisionIds": [
          10126536
        ],
        "postalCode": "N2T2M5",
        "streetName": "NORTHAMPTON",
        "streetDirectionId": null,
        "streetTypeId": "CRES",
        "placeName": "WATERLOO",
        "streetNameDisplayText": "NORTHAMPTON CRES, WATERLOO"
      }
    ]
  },
  {
    "postal": "N2T0T9",
    "result": []
  },
  {
    "postal": "N2T3P1",
    "result": []
  },
  {
    "postal": "N2T1R6",
    "result": [
      {
        "electoralDistricts": [
          {
            "election": null,
            "id": 114,
            "name": "Waterloo"
          }
        ],
        "pollDivisionIds": [
          10126535
        ],
        "postalCode": "N2T1R6",
        "streetName": "ROXTON",
        "streetDirectionId": null,
        "streetTypeId": "DR",
        "placeName": "WATERLOO",
        "streetNameDisplayText": "ROXTON DR, WATERLOO"
      }
    ]
  },
  {
    "postal": "N2T9V5",
    "result": []
  },
  {
    "postal": "N2T9T0",
    "result": []
  },
  {
    "postal": "N2T0A9",
    "result": [
      {
        "electoralDistricts": [
          {
            "election": null,
            "id": 114,
            "name": "Waterloo"
          }
        ],
        "pollDivisionIds": [
          10126536
        ],
        "postalCode": "N2T0A9",
        "streetName": "APPLEGATE",
        "streetDirectionId": null,
        "streetTypeId": "CRT",
        "placeName": "WATERLOO",
        "streetNameDisplayText": "APPLEGATE CRT, WATERLOO"
      },
      {
        "electoralDistricts": [
          {
            "election": null,
            "id": 114,
            "name": "Waterloo"
          }
        ],
        "pollDivisionIds": [
          10126536
        ],
        "postalCode": "N2T0A9",
        "streetName": "THORNDALE",
        "streetDirectionId": null,
        "streetTypeId": "DR",
        "placeName": "WATERLOO",
        "streetNameDisplayText": "THORNDALE DR, WATERLOO"
      },
      {
        "electoralDistricts": [
          {
            "election": null,
            "id": 114,
            "name": "Waterloo"
          }
        ],
        "pollDivisionIds": [
          10126536
        ],
        "postalCode": "N2T0A9",
        "streetName": "THORNHILL",
        "streetDirectionId": null,
        "streetTypeId": "PL",
        "placeName": "WATERLOO",
        "streetNameDisplayText": "THORNHILL PL, WATERLOO"
      }
    ]
  },
  {
    "postal": "N2T1M3",
    "result": []
  },
  {
    "postal": "N2T1W8",
    "result": [
      {
        "electoralDistricts": [
          {
            "election": null,
            "id": 114,
            "name": "Waterloo"
          }
        ],
        "pollDivisionIds": [
          10126536
        ],
        "postalCode": "N2T1W8",
        "streetName": "VALLEY RIDGE",
        "streetDirectionId": null,
        "streetTypeId": "CRES",
        "placeName": "WATERLOO",
        "streetNameDisplayText": "VALLEY RIDGE CRES, WATERLOO"
      }
    ]
  },
  {
    "postal": "N2T9J1",
    "result": []
  },
  {
    "postal": "N2T8N5",
    "result": []
  },
  {
    "postal": "N2T5X1",
    "result": []
  },
  {
    "postal": "N2T6S2",
    "result": []
  },
  {
    "postal": "N2T2A2",
    "result": [
      {
        "electoralDistricts": [
          {
            "election": null,
            "id": 114,
            "name": "Waterloo"
          }
        ],
        "pollDivisionIds": [
          10126544
        ],
        "postalCode": "N2T2A2",
        "streetName": "ROSEMEADOW",
        "streetDirectionId": null,
        "streetTypeId": "CRES",
        "placeName": "WATERLOO",
        "streetNameDisplayText": "ROSEMEADOW CRES, WATERLOO"
      },
      {
        "electoralDistricts": [
          {
            "election": null,
            "id": 114,
            "name": "Waterloo"
          }
        ],
        "pollDivisionIds": [
          10126544
        ],
        "postalCode": "N2T2A2",
        "streetName": "THORNDALE",
        "streetDirectionId": null,
        "streetTypeId": "DR",
        "placeName": "WATERLOO",
        "streetNameDisplayText": "THORNDALE DR, WATERLOO"
      }
    ]
  },
  {
    "postal": "N2T6A6",
    "result": []
  },
  {
    "postal": "N2T0S3",
    "result": []
  },
  {
    "postal": "N2T3E7",
    "result": []
  },
  {
    "postal": "N2T5R7",
    "result": []
  },
  {
    "postal": "N2T3R6",
    "result": []
  },
  {
    "postal": "N2T6K4",
    "result": []
  },
  {
    "postal": "N2T2W5",
    "result": [
      {
        "electoralDistricts": [
          {
            "election": null,
            "id": 114,
            "name": "Waterloo"
          }
        ],
        "pollDivisionIds": [
          10126536
        ],
        "postalCode": "N2T2W5",
        "streetName": "BIRCHLEAF",
        "streetDirectionId": null,
        "streetTypeId": "WALK",
        "placeName": "WATERLOO",
        "streetNameDisplayText": "BIRCHLEAF WALK, WATERLOO"
      }
    ]
  },
  {
    "postal": "N2T8W4",
    "result": []
  },
  {
    "postal": "N2T9C2",
    "result": []
  },
  {
    "postal": "N2T2C0",
    "result": []
  },
  {
    "postal": "N2T0E1",
    "result": []
  },
  {
    "postal": "N2T1K9",
    "result": [
      {
        "electoralDistricts": [
          {
            "election": null,
            "id": 114,
            "name": "Waterloo"
          }
        ],
        "pollDivisionIds": [
          10126535
        ],
        "postalCode": "N2T1K9",
        "streetName": "KINGSFORD",
        "streetDirectionId": null,
        "streetTypeId": "PL",
        "placeName": "WATERLOO",
        "streetNameDisplayText": "KINGSFORD PL, WATERLOO"
      }
    ]
  },
  {
    "postal": "N2T1G7",
    "result": []
  },
  {
    "postal": "N2T4E9",
    "result": []
  },
  {
    "postal": "N2T9P0",
    "result": []
  },
  {
    "postal": "N2T5H3",
    "result": []
  },
  {
    "postal": "N2T9X6",
    "result": []
  },
  {
    "postal": "N2T5N7",
    "result": []
  },
  {
    "postal": "N2T5A6",
    "result": []
  },
  {
    "postal": "N2T4M0",
    "result": []
  },
  {
    "postal": "N2T3V6",
    "result": []
  },
  {
    "postal": "N2T1L7",
    "result": []
  },
  {
    "postal": "N2T2P9",
    "result": [
      {
        "electoralDistricts": [
          {
            "election": null,
            "id": 114,
            "name": "Waterloo"
          }
        ],
        "pollDivisionIds": [
          10126536
        ],
        "postalCode": "N2T2P9",
        "streetName": "SILVERMEADOW",
        "streetDirectionId": null,
        "streetTypeId": "PL",
        "placeName": "WATERLOO",
        "streetNameDisplayText": "SILVERMEADOW PL, WATERLOO"
      },
      {
        "electoralDistricts": [
          {
            "election": null,
            "id": 114,
            "name": "Waterloo"
          }
        ],
        "pollDivisionIds": [
          10126536
        ],
        "postalCode": "N2T2P9",
        "streetName": "THORNDALE",
        "streetDirectionId": null,
        "streetTypeId": "DR",
        "placeName": "WATERLOO",
        "streetNameDisplayText": "THORNDALE DR, WATERLOO"
      }
    ]
  },
  {
    "postal": "N2T5T4",
    "result": []
  },
  {
    "postal": "N2T5Z1",
    "result": []
  },
  {
    "postal": "N2T2X0",
    "result": []
  },
  {
    "postal": "N2T6Z2",
    "result": []
  },
  {
    "postal": "N2T0E0",
    "result": []
  },
  {
    "postal": "N2T3Z5",
    "result": []
  },
  {
    "postal": "N2T8H3",
    "result": []
  },
  {
    "postal": "N2T7S6",
    "result": []
  },
  {
    "postal": "N2T4C1",
    "result": []
  },
  {
    "postal": "N2T3K2",
    "result": []
  },
  {
    "postal": "N2T1Y5",
    "result": [
      {
        "electoralDistricts": [
          {
            "election": null,
            "id": 114,
            "name": "Waterloo"
          }
        ],
        "pollDivisionIds": [
          10126536
        ],
        "postalCode": "N2T1Y5",
        "streetName": "EDENVALLEY",
        "streetDirectionId": null,
        "streetTypeId": "CRES",
        "placeName": "WATERLOO",
        "streetNameDisplayText": "EDENVALLEY CRES, WATERLOO"
      }
    ]
  },
  {
    "postal": "N2T6P6",
    "result": []
  },
  {
    "postal": "N2T3N9",
    "result": []
  },
  {
    "postal": "N2T3W2",
    "result": []
  },
  {
    "postal": "N2T6H8",
    "result": []
  },
  {
    "postal": "N2T9T3",
    "result": []
  },
  {
    "postal": "N2T5L9",
    "result": []
  },
  {
    "postal": "N2T7X7",
    "result": []
  },
  {
    "postal": "N2T3J5",
    "result": []
  },
  {
    "postal": "N2T4J5",
    "result": []
  },
  {
    "postal": "N2T6J2",
    "result": []
  },
  {
    "postal": "N2T5V6",
    "result": []
  },
  {
    "postal": "N2T3N2",
    "result": []
  },
  {
    "postal": "N2T3B1",
    "result": []
  },
  {
    "postal": "N2T8B5",
    "result": []
  },
  {
    "postal": "N2T0K1",
    "result": []
  },
  {
    "postal": "N2T7M7",
    "result": []
  },
  {
    "postal": "N2T2M2",
    "result": [
      {
        "electoralDistricts": [
          {
            "election": null,
            "id": 114,
            "name": "Waterloo"
          }
        ],
        "pollDivisionIds": [
          10126536
        ],
        "postalCode": "N2T2M2",
        "streetName": "CARDIFF",
        "streetDirectionId": null,
        "streetTypeId": "ST",
        "placeName": "WATERLOO",
        "streetNameDisplayText": "CARDIFF ST, WATERLOO"
      },
      {
        "electoralDistricts": [
          {
            "election": null,
            "id": 114,
            "name": "Waterloo"
          }
        ],
        "pollDivisionIds": [
          10126536
        ],
        "postalCode": "N2T2M2",
        "streetName": "MILLCROFT",
        "streetDirectionId": null,
        "streetTypeId": "PL",
        "placeName": "WATERLOO",
        "streetNameDisplayText": "MILLCROFT PL, WATERLOO"
      },
      {
        "electoralDistricts": [
          {
            "election": null,
            "id": 114,
            "name": "Waterloo"
          }
        ],
        "pollDivisionIds": [
          10126536
        ],
        "postalCode": "N2T2M2",
        "streetName": "WESTVALE",
        "streetDirectionId": null,
        "streetTypeId": "DR",
        "placeName": "WATERLOO",
        "streetNameDisplayText": "WESTVALE DR, WATERLOO"
      }
    ]
  },
  {
    "postal": "N2T9N3",
    "result": []
  },
  {
    "postal": "N2T4Y8",
    "result": []
  },
  {
    "postal": "N2T3V7",
    "result": []
  },
  {
    "postal": "N2T8Z1",
    "result": []
  },
  {
    "postal": "N2T7B3",
    "result": []
  },
  {
    "postal": "N2T3A8",
    "result": []
  },
  {
    "postal": "N2T7V5",
    "result": []
  },
  {
    "postal": "N2T2T2",
    "result": [
      {
        "electoralDistricts": [
          {
            "election": null,
            "id": 114,
            "name": "Waterloo"
          }
        ],
        "pollDivisionIds": [
          10126534,
          10126530
        ],
        "postalCode": "N2T2T2",
        "streetName": "BEAVER CREEK",
        "streetDirectionId": null,
        "streetTypeId": "RD",
        "placeName": "WATERLOO",
        "streetNameDisplayText": "BEAVER CREEK RD, WATERLOO"
      },
      {
        "electoralDistricts": [
          {
            "election": null,
            "id": 114,
            "name": "Waterloo"
          }
        ],
        "pollDivisionIds": [
          10126530
        ],
        "postalCode": "N2T2T2",
        "streetName": "HAVENDALE",
        "streetDirectionId": null,
        "streetTypeId": "CRES",
        "placeName": "WATERLOO",
        "streetNameDisplayText": "HAVENDALE CRES, WATERLOO"
      },
      {
        "electoralDistricts": [
          {
            "election": null,
            "id": 114,
            "name": "Waterloo"
          }
        ],
        "pollDivisionIds": [
          10126534
        ],
        "postalCode": "N2T2T2",
        "streetName": "PINELAND",
        "streetDirectionId": null,
        "streetTypeId": "CRT",
        "placeName": "WATERLOO",
        "streetNameDisplayText": "PINELAND CRT, WATERLOO"
      }
    ]
  },
  {
    "postal": "N2T6L3",
    "result": []
  },
  {
    "postal": "N2T0L2",
    "result": []
  },
  {
    "postal": "N2T5Y8",
    "result": []
  },
  {
    "postal": "N2T0B8",
    "result": []
  },
  {
    "postal": "N2T6R5",
    "result": []
  },
  {
    "postal": "N2T8W6",
    "result": []
  },
  {
    "postal": "N2T8G6",
    "result": []
  },
  {
    "postal": "N2T6X3",
    "result": []
  },
  {
    "postal": "N2T7R7",
    "result": []
  },
  {
    "postal": "N2T4B6",
    "result": []
  },
  {
    "postal": "N2T3P9",
    "result": []
  },
  {
    "postal": "N2T2T3",
    "result": [
      {
        "electoralDistricts": [
          {
            "election": null,
            "id": 114,
            "name": "Waterloo"
          }
        ],
        "pollDivisionIds": [
          10126530
        ],
        "postalCode": "N2T2T3",
        "streetName": "HAVENDALE",
        "streetDirectionId": null,
        "streetTypeId": "CRES",
        "placeName": "WATERLOO",
        "streetNameDisplayText": "HAVENDALE CRES, WATERLOO"
      },
      {
        "electoralDistricts": [
          {
            "election": null,
            "id": 114,
            "name": "Waterloo"
          }
        ],
        "pollDivisionIds": [
          10126530
        ],
        "postalCode": "N2T2T3",
        "streetName": "HAVENDALE",
        "streetDirectionId": null,
        "streetTypeId": "PL",
        "placeName": "WATERLOO",
        "streetNameDisplayText": "HAVENDALE PL, WATERLOO"
      }
    ]
  },
  {
    "postal": "N2T1M4",
    "result": []
  },
  {
    "postal": "N2T0H1",
    "result": []
  },
  {
    "postal": "N2T9W3",
    "result": []
  },
  {
    "postal": "N2T6P1",
    "result": []
  },
  {
    "postal": "N2T7G2",
    "result": []
  },
  {
    "postal": "N2T4J9",
    "result": []
  },
  {
    "postal": "N2T9E4",
    "result": []
  },
  {
    "postal": "N2T8H0",
    "result": []
  },
  {
    "postal": "N2T4M7",
    "result": []
  },
  {
    "postal": "N2T2G9",
    "result": [
      {
        "electoralDistricts": [
          {
            "election": null,
            "id": 114,
            "name": "Waterloo"
          }
        ],
        "pollDivisionIds": [
          10126537
        ],
        "postalCode": "N2T2G9",
        "streetName": "BEECHWOOD",
        "streetDirectionId": null,
        "streetTypeId": "DR",
        "placeName": "WATERLOO",
        "streetNameDisplayText": "BEECHWOOD DR, WATERLOO"
      }
    ]
  },
  {
    "postal": "N2T8T2",
    "result": []
  },
  {
    "postal": "N2T7G7",
    "result": []
  },
  {
    "postal": "N2T4Z3",
    "result": []
  },
  {
    "postal": "N2T5B3",
    "result": []
  },
  {
    "postal": "N2T1S7",
    "result": [
      {
        "electoralDistricts": [
          {
            "election": null,
            "id": 114,
            "name": "Waterloo"
          }
        ],
        "pollDivisionIds": [
          10126535
        ],
        "postalCode": "N2T1S7",
        "streetName": "AMBERWOOD",
        "streetDirectionId": null,
        "streetTypeId": "DR",
        "placeName": "WATERLOO",
        "streetNameDisplayText": "AMBERWOOD DR, WATERLOO"
      },
      {
        "electoralDistricts": [
          {
            "election": null,
            "id": 114,
            "name": "Waterloo"
          }
        ],
        "pollDivisionIds": [
          10126535
        ],
        "postalCode": "N2T1S7",
        "streetName": "BRANSTONE",
        "streetDirectionId": null,
        "streetTypeId": "DR",
        "placeName": "WATERLOO",
        "streetNameDisplayText": "BRANSTONE DR, WATERLOO"
      }
    ]
  },
  {
    "postal": "N2T2N7",
    "result": [
      {
        "electoralDistricts": [
          {
            "election": null,
            "id": 114,
            "name": "Waterloo"
          }
        ],
        "pollDivisionIds": [
          10126537,
          10126535
        ],
        "postalCode": "N2T2N7",
        "streetName": "BEECHWOOD",
        "streetDirectionId": null,
        "streetTypeId": "DR",
        "placeName": "WATERLOO",
        "streetNameDisplayText": "BEECHWOOD DR, WATERLOO"
      },
      {
        "electoralDistricts": [
          {
            "election": null,
            "id": 114,
            "name": "Waterloo"
          }
        ],
        "pollDivisionIds": [
          10126537
        ],
        "postalCode": "N2T2N7",
        "streetName": "PARADISE",
        "streetDirectionId": null,
        "streetTypeId": "CRES",
        "placeName": "WATERLOO",
        "streetNameDisplayText": "PARADISE CRES, WATERLOO"
      }
    ]
  },
  {
    "postal": "N2T0H8",
    "result": []
  },
  {
    "postal": "N2T7Z4",
    "result": []
  },
  {
    "postal": "N2T7B1",
    "result": []
  },
  {
    "postal": "N2T7P8",
    "result": []
  },
  {
    "postal": "N2T7N0",
    "result": []
  },
  {
    "postal": "N2T3Y5",
    "result": []
  },
  {
    "postal": "N2T6K1",
    "result": []
  },
  {
    "postal": "N2T9X5",
    "result": []
  },
  {
    "postal": "N2T7S5",
    "result": []
  },
  {
    "postal": "N2T0A4",
    "result": [
      {
        "electoralDistricts": [
          {
            "election": null,
            "id": 114,
            "name": "Waterloo"
          }
        ],
        "pollDivisionIds": [
          10126536
        ],
        "postalCode": "N2T0A4",
        "streetName": "WESTHAVEN",
        "streetDirectionId": null,
        "streetTypeId": "ST",
        "placeName": "WATERLOO",
        "streetNameDisplayText": "WESTHAVEN ST, WATERLOO"
      },
      {
        "electoralDistricts": [
          {
            "election": null,
            "id": 114,
            "name": "Waterloo"
          }
        ],
        "pollDivisionIds": [
          10126536
        ],
        "postalCode": "N2T0A4",
        "streetName": "WESTPARK",
        "streetDirectionId": null,
        "streetTypeId": "CRES",
        "placeName": "WATERLOO",
        "streetNameDisplayText": "WESTPARK CRES, WATERLOO"
      }
    ]
  },
  {
    "postal": "N2T4T5",
    "result": []
  },
  {
    "postal": "N2T5K1",
    "result": []
  },
  {
    "postal": "N2T0Z9",
    "result": []
  },
  {
    "postal": "N2T7T2",
    "result": []
  },
  {
    "postal": "N2T1L5",
    "result": []
  },
  {
    "postal": "N2T3N5",
    "result": []
  },
  {
    "postal": "N2T6H4",
    "result": []
  },
  {
    "postal": "N2T5A5",
    "result": []
  },
  {
    "postal": "N2T3R9",
    "result": []
  },
  {
    "postal": "N2T7L8",
    "result": []
  },
  {
    "postal": "N2T6T6",
    "result": []
  },
  {
    "postal": "N2T7Y7",
    "result": []
  },
  {
    "postal": "N2T3M8",
    "result": []
  },
  {
    "postal": "N2T2E0",
    "result": []
  },
  {
    "postal": "N2T4B5",
    "result": []
  },
  {
    "postal": "N2T1J3",
    "result": [
      {
        "electoralDistricts": [
          {
            "election": null,
            "id": 114,
            "name": "Waterloo"
          }
        ],
        "pollDivisionIds": [
          10126544
        ],
        "postalCode": "N2T1J3",
        "streetName": "THORNDALE",
        "streetDirectionId": null,
        "streetTypeId": "DR",
        "placeName": "WATERLOO",
        "streetNameDisplayText": "THORNDALE DR, WATERLOO"
      }
    ]
  },
  {
    "postal": "N2T5S6",
    "result": []
  },
  {
    "postal": "N2T8P7",
    "result": []
  },
  {
    "postal": "N2T7S7",
    "result": []
  },
  {
    "postal": "N2T4C2",
    "result": []
  },
  {
    "postal": "N2T5Y0",
    "result": []
  },
  {
    "postal": "N2T2V7",
    "result": [
      {
        "electoralDistricts": [
          {
            "election": null,
            "id": 114,
            "name": "Waterloo"
          }
        ],
        "pollDivisionIds": [
          10126530
        ],
        "postalCode": "N2T2V7",
        "streetName": "WOODROW",
        "streetDirectionId": null,
        "streetTypeId": "DR",
        "placeName": "WATERLOO",
        "streetNameDisplayText": "WOODROW DR, WATERLOO"
      },
      {
        "electoralDistricts": [
          {
            "election": null,
            "id": 114,
            "name": "Waterloo"
          }
        ],
        "pollDivisionIds": [
          10126530
        ],
        "postalCode": "N2T2V7",
        "streetName": "WOODROW",
        "streetDirectionId": null,
        "streetTypeId": "PL",
        "placeName": "WATERLOO",
        "streetNameDisplayText": "WOODROW PL, WATERLOO"
      }
    ]
  },
  {
    "postal": "N2T8P5",
    "result": []
  },
  {
    "postal": "N2T5P5",
    "result": []
  },
  {
    "postal": "N2T5Z0",
    "result": []
  },
  {
    "postal": "N2T9B0",
    "result": []
  },
  {
    "postal": "N2T1L0",
    "result": []
  },
  {
    "postal": "N2T0B5",
    "result": [
      {
        "electoralDistricts": [
          {
            "election": null,
            "id": 114,
            "name": "Waterloo"
          }
        ],
        "pollDivisionIds": [
          10126531
        ],
        "postalCode": "N2T0B5",
        "streetName": "BAMBERG",
        "streetDirectionId": null,
        "streetTypeId": "CRES",
        "placeName": "WATERLOO",
        "streetNameDisplayText": "BAMBERG CRES, WATERLOO"
      }
    ]
  },
  {
    "postal": "N2T3L2",
    "result": []
  },
  {
    "postal": "N2T3B7",
    "result": []
  },
  {
    "postal": "N2T8L1",
    "result": []
  },
  {
    "postal": "N2T5M4",
    "result": []
  },
  {
    "postal": "N2T4G9",
    "result": []
  },
  {
    "postal": "N2T0P0",
    "result": []
  },
  {
    "postal": "N2T8G2",
    "result": []
  },
  {
    "postal": "N2T1V9",
    "result": [
      {
        "electoralDistricts": [
          {
            "election": null,
            "id": 114,
            "name": "Waterloo"
          }
        ],
        "pollDivisionIds": [
          10126544
        ],
        "postalCode": "N2T1V9",
        "streetName": "APPLEDALE",
        "streetDirectionId": null,
        "streetTypeId": "CRES",
        "placeName": "WATERLOO",
        "streetNameDisplayText": "APPLEDALE CRES, WATERLOO"
      }
    ]
  },
  {
    "postal": "N2T8N8",
    "result": []
  },
  {
    "postal": "N2T6S8",
    "result": []
  },
  {
    "postal": "N2T8H2",
    "result": []
  },
  {
    "postal": "N2T5R8",
    "result": []
  },
  {
    "postal": "N2T5L4",
    "result": []
  },
  {
    "postal": "N2T9E1",
    "result": []
  },
  {
    "postal": "N2T1C4",
    "result": [
      {
        "electoralDistricts": [
          {
            "election": null,
            "id": 114,
            "name": "Waterloo"
          }
        ],
        "pollDivisionIds": [
          10126535
        ],
        "postalCode": "N2T1C4",
        "streetName": "FREDERICK BANTING",
        "streetDirectionId": null,
        "streetTypeId": "PL",
        "placeName": "WATERLOO",
        "streetNameDisplayText": "FREDERICK BANTING PL, WATERLOO"
      }
    ]
  },
  {
    "postal": "N2T8W5",
    "result": []
  },
  {
    "postal": "N2T1Y4",
    "result": [
      {
        "electoralDistricts": [
          {
            "election": null,
            "id": 114,
            "name": "Waterloo"
          }
        ],
        "pollDivisionIds": [
          10126536
        ],
        "postalCode": "N2T1Y4",
        "streetName": "EDENVALLEY",
        "streetDirectionId": null,
        "streetTypeId": "CRES",
        "placeName": "WATERLOO",
        "streetNameDisplayText": "EDENVALLEY CRES, WATERLOO"
      }
    ]
  },
  {
    "postal": "N2T1C0",
    "result": []
  },
  {
    "postal": "N2T2J2",
    "result": [
      {
        "electoralDistricts": [
          {
            "election": null,
            "id": 114,
            "name": "Waterloo"
          }
        ],
        "pollDivisionIds": [
          10126534,
          10126551
        ],
        "postalCode": "N2T2J2",
        "streetName": "TIMBERCROFT",
        "streetDirectionId": null,
        "streetTypeId": "CRES",
        "placeName": "WATERLOO",
        "streetNameDisplayText": "TIMBERCROFT CRES, WATERLOO"
      }
    ]
  },
  {
    "postal": "N2T2J0",
    "result": []
  },
  {
    "postal": "N2T7A3",
    "result": []
  },
  {
    "postal": "N2T8M1",
    "result": []
  },
  {
    "postal": "N2T7T9",
    "result": []
  },
  {
    "postal": "N2T6C0",
    "result": []
  },
  {
    "postal": "N2T7X1",
    "result": []
  },
  {
    "postal": "N2T0G1",
    "result": []
  },
  {
    "postal": "N2T4X2",
    "result": []
  },
  {
    "postal": "N2T0N6",
    "result": []
  },
  {
    "postal": "N2T8E3",
    "result": []
  },
  {
    "postal": "N2T5S8",
    "result": []
  },
  {
    "postal": "N2T0R0",
    "result": []
  },
  {
    "postal": "N2T6J6",
    "result": []
  },
  {
    "postal": "N2T4B4",
    "result": []
  },
  {
    "postal": "N2T7E3",
    "result": []
  },
  {
    "postal": "N2T3N6",
    "result": []
  },
  {
    "postal": "N2T3X6",
    "result": []
  },
  {
    "postal": "N2T8L0",
    "result": []
  },
  {
    "postal": "N2T8N1",
    "result": []
  },
  {
    "postal": "N2T4J0",
    "result": []
  },
  {
    "postal": "N2T0X7",
    "result": []
  },
  {
    "postal": "N2T6S4",
    "result": []
  },
  {
    "postal": "N2T0Z0",
    "result": []
  },
  {
    "postal": "N2T9X8",
    "result": []
  },
  {
    "postal": "N2T3H3",
    "result": []
  },
  {
    "postal": "N2T7S2",
    "result": []
  },
  {
    "postal": "N2T3T3",
    "result": []
  },
  {
    "postal": "N2T9P3",
    "result": []
  },
  {
    "postal": "N2T4H8",
    "result": []
  },
  {
    "postal": "N2T6R1",
    "result": []
  },
  {
    "postal": "N2T1S0",
    "result": []
  },
  {
    "postal": "N2T3W8",
    "result": []
  },
  {
    "postal": "N2T4S3",
    "result": []
  },
  {
    "postal": "N2T1B6",
    "result": [
      {
        "electoralDistricts": [
          {
            "election": null,
            "id": 114,
            "name": "Waterloo"
          }
        ],
        "pollDivisionIds": [
          10126544
        ],
        "postalCode": "N2T1B6",
        "streetName": "WESTVALE",
        "streetDirectionId": null,
        "streetTypeId": "DR",
        "placeName": "WATERLOO",
        "streetNameDisplayText": "WESTVALE DR, WATERLOO"
      }
    ]
  },
  {
    "postal": "N2T8R3",
    "result": []
  },
  {
    "postal": "N2T4V9",
    "result": []
  },
  {
    "postal": "N2T9W4",
    "result": []
  },
  {
    "postal": "N2T3T4",
    "result": []
  },
  {
    "postal": "N2T5C7",
    "result": []
  },
  {
    "postal": "N2T3Y1",
    "result": []
  },
  {
    "postal": "N2T5V0",
    "result": []
  },
  {
    "postal": "N2T8G8",
    "result": []
  },
  {
    "postal": "N2T8B1",
    "result": []
  },
  {
    "postal": "N2T4P5",
    "result": []
  },
  {
    "postal": "N2T7B2",
    "result": []
  },
  {
    "postal": "N2T0R2",
    "result": []
  },
  {
    "postal": "N2T4M4",
    "result": []
  },
  {
    "postal": "N2T7M4",
    "result": []
  },
  {
    "postal": "N2T9S7",
    "result": []
  },
  {
    "postal": "N2T5Z7",
    "result": []
  },
  {
    "postal": "N2T7J7",
    "result": []
  },
  {
    "postal": "N2T8R8",
    "result": []
  },
  {
    "postal": "N2T9X1",
    "result": []
  },
  {
    "postal": "N2T5M9",
    "result": []
  },
  {
    "postal": "N2T9B4",
    "result": []
  },
  {
    "postal": "N2T0L9",
    "result": []
  },
  {
    "postal": "N2T9G4",
    "result": []
  },
  {
    "postal": "N2T1J4",
    "result": []
  },
  {
    "postal": "N2T0W6",
    "result": []
  }
]
