[
  {
    "postal": "M5M9J6",
    "result": []
  },
  {
    "postal": "M5M9Z5",
    "result": []
  },
  {
    "postal": "M5M7H8",
    "result": []
  },
  {
    "postal": "M5M0P6",
    "result": []
  },
  {
    "postal": "M5M0S7",
    "result": []
  },
  {
    "postal": "M5M8B9",
    "result": []
  },
  {
    "postal": "M5M2A6",
    "result": [
      {
        "electoralDistricts": [
          {
            "election": null,
            "id": 25,
            "name": "Eglinton—Lawrence"
          }
        ],
        "pollDivisionIds": [
          10137896
        ],
        "postalCode": "M5M2A6",
        "streetName": "MELROSE",
        "streetDirectionId": null,
        "streetTypeId": "AVE",
        "placeName": "NORTH YORK",
        "streetNameDisplayText": "MELROSE AVE, NORTH YORK"
      }
    ]
  },
  {
    "postal": "M5M7V2",
    "result": []
  },
  {
    "postal": "M5M9P4",
    "result": []
  },
  {
    "postal": "M5M6G0",
    "result": []
  },
  {
    "postal": "M5M2K0",
    "result": []
  },
  {
    "postal": "M5M7N6",
    "result": []
  },
  {
    "postal": "M5M5R3",
    "result": []
  },
  {
    "postal": "M5M7K0",
    "result": []
  },
  {
    "postal": "M5M3R2",
    "result": [
      {
        "electoralDistricts": [
          {
            "election": null,
            "id": 25,
            "name": "Eglinton—Lawrence"
          }
        ],
        "pollDivisionIds": [
          10137895
        ],
        "postalCode": "M5M3R2",
        "streetName": "ESGORE",
        "streetDirectionId": null,
        "streetTypeId": "DR",
        "placeName": "NORTH YORK",
        "streetNameDisplayText": "ESGORE DR, NORTH YORK"
      }
    ]
  },
  {
    "postal": "M5M0J1",
    "result": []
  },
  {
    "postal": "M5M0B0",
    "result": []
  },
  {
    "postal": "M5M5Z2",
    "result": []
  },
  {
    "postal": "M5M7P3",
    "result": []
  },
  {
    "postal": "M5M2K3",
    "result": [
      {
        "electoralDistricts": [
          {
            "election": null,
            "id": 25,
            "name": "Eglinton—Lawrence"
          }
        ],
        "pollDivisionIds": [
          10137894
        ],
        "postalCode": "M5M2K3",
        "streetName": "BROOKE",
        "streetDirectionId": null,
        "streetTypeId": "AVE",
        "placeName": "NORTH YORK",
        "streetNameDisplayText": "BROOKE AVE, NORTH YORK"
      },
      {
        "electoralDistricts": [
          {
            "election": null,
            "id": 104,
            "name": "Thornhill"
          }
        ],
        "pollDivisionIds": [
          10142236
        ],
        "postalCode": "M5M2K3",
        "streetName": "BROOKE",
        "streetDirectionId": null,
        "streetTypeId": "ST",
        "placeName": "NORTH YORK",
        "streetNameDisplayText": "BROOKE ST, NORTH YORK"
      }
    ]
  },
  {
    "postal": "M5M7Y6",
    "result": []
  },
  {
    "postal": "M5M1L9",
    "result": [
      {
        "electoralDistricts": [
          {
            "election": null,
            "id": 25,
            "name": "Eglinton—Lawrence"
          }
        ],
        "pollDivisionIds": [
          10137896
        ],
        "postalCode": "M5M1L9",
        "streetName": "WOBURN",
        "streetDirectionId": null,
        "streetTypeId": "AVE",
        "placeName": "NORTH YORK",
        "streetNameDisplayText": "WOBURN AVE, NORTH YORK"
      }
    ]
  },
  {
    "postal": "M5M8T0",
    "result": []
  },
  {
    "postal": "M5M3K8",
    "result": [
      {
        "electoralDistricts": [
          {
            "election": null,
            "id": 25,
            "name": "Eglinton—Lawrence"
          }
        ],
        "pollDivisionIds": [
          10137902
        ],
        "postalCode": "M5M3K8",
        "streetName": "JEDBURGH",
        "streetDirectionId": null,
        "streetTypeId": "RD",
        "placeName": "TORONTO",
        "streetNameDisplayText": "JEDBURGH RD, TORONTO"
      }
    ]
  },
  {
    "postal": "M5M5W9",
    "result": []
  },
  {
    "postal": "M5M6T9",
    "result": []
  },
  {
    "postal": "M5M4H1",
    "result": [
      {
        "electoralDistricts": [
          {
            "election": null,
            "id": 25,
            "name": "Eglinton—Lawrence"
          }
        ],
        "pollDivisionIds": [
          10137900
        ],
        "postalCode": "M5M4H1",
        "streetName": "LEDBURY",
        "streetDirectionId": null,
        "streetTypeId": "ST",
        "placeName": "NORTH YORK",
        "streetNameDisplayText": "LEDBURY ST, NORTH YORK"
      }
    ]
  },
  {
    "postal": "M5M7A2",
    "result": []
  },
  {
    "postal": "M5M5G0",
    "result": []
  },
  {
    "postal": "M5M8V5",
    "result": []
  },
  {
    "postal": "M5M2Y8",
    "result": [
      {
        "electoralDistricts": [
          {
            "election": null,
            "id": 25,
            "name": "Eglinton—Lawrence"
          }
        ],
        "pollDivisionIds": [
          10137895
        ],
        "postalCode": "M5M2Y8",
        "streetName": "DUNSTER",
        "streetDirectionId": null,
        "streetTypeId": "AVE",
        "placeName": "NORTH YORK",
        "streetNameDisplayText": "DUNSTER AVE, NORTH YORK"
      }
    ]
  },
  {
    "postal": "M5M2B6",
    "result": [
      {
        "electoralDistricts": [
          {
            "election": null,
            "id": 25,
            "name": "Eglinton—Lawrence"
          }
        ],
        "pollDivisionIds": [
          10137897
        ],
        "postalCode": "M5M2B6",
        "streetName": "DELORAINE",
        "streetDirectionId": null,
        "streetTypeId": "AVE",
        "placeName": "NORTH YORK",
        "streetNameDisplayText": "DELORAINE AVE, NORTH YORK"
      }
    ]
  },
  {
    "postal": "M5M4W8",
    "result": []
  },
  {
    "postal": "M5M8H7",
    "result": []
  },
  {
    "postal": "M5M5P1",
    "result": []
  },
  {
    "postal": "M5M2B8",
    "result": [
      {
        "electoralDistricts": [
          {
            "election": null,
            "id": 25,
            "name": "Eglinton—Lawrence"
          }
        ],
        "pollDivisionIds": [
          10137892
        ],
        "postalCode": "M5M2B8",
        "streetName": "DELORAINE",
        "streetDirectionId": null,
        "streetTypeId": "AVE",
        "placeName": "NORTH YORK",
        "streetNameDisplayText": "DELORAINE AVE, NORTH YORK"
      }
    ]
  },
  {
    "postal": "M5M0P2",
    "result": []
  },
  {
    "postal": "M5M9M1",
    "result": []
  },
  {
    "postal": "M5M3G0",
    "result": []
  },
  {
    "postal": "M5M9Z2",
    "result": []
  },
  {
    "postal": "M5M2A0",
    "result": []
  },
  {
    "postal": "M5M6Y0",
    "result": []
  },
  {
    "postal": "M5M2Z8",
    "result": [
      {
        "electoralDistricts": [
          {
            "election": null,
            "id": 25,
            "name": "Eglinton—Lawrence"
          }
        ],
        "pollDivisionIds": [
          10137895
        ],
        "postalCode": "M5M2Z8",
        "streetName": "WILSON",
        "streetDirectionId": null,
        "streetTypeId": "AVE",
        "placeName": "NORTH YORK",
        "streetNameDisplayText": "WILSON AVE, NORTH YORK"
      }
    ]
  },
  {
    "postal": "M5M7Y3",
    "result": []
  },
  {
    "postal": "M5M6Z5",
    "result": []
  },
  {
    "postal": "M5M6E0",
    "result": []
  },
  {
    "postal": "M5M9B7",
    "result": []
  },
  {
    "postal": "M5M9S5",
    "result": []
  },
  {
    "postal": "M5M3X3",
    "result": [
      {
        "electoralDistricts": [
          {
            "election": null,
            "id": 25,
            "name": "Eglinton—Lawrence"
          }
        ],
        "pollDivisionIds": [
          10137901
        ],
        "postalCode": "M5M3X3",
        "streetName": "AVENUE",
        "streetDirectionId": null,
        "streetTypeId": "RD",
        "placeName": "NORTH YORK",
        "streetNameDisplayText": "AVENUE RD, NORTH YORK"
      }
    ]
  },
  {
    "postal": "M5M7R5",
    "result": []
  },
  {
    "postal": "M5M2X3",
    "result": [
      {
        "electoralDistricts": [
          {
            "election": null,
            "id": 25,
            "name": "Eglinton—Lawrence"
          }
        ],
        "pollDivisionIds": [
          10137891
        ],
        "postalCode": "M5M2X3",
        "streetName": "CARMICHAEL",
        "streetDirectionId": null,
        "streetTypeId": "AVE",
        "placeName": "NORTH YORK",
        "streetNameDisplayText": "CARMICHAEL AVE, NORTH YORK"
      }
    ]
  },
  {
    "postal": "M5M8Z9",
    "result": []
  },
  {
    "postal": "M5M0N4",
    "result": []
  },
  {
    "postal": "M5M1K1",
    "result": [
      {
        "electoralDistricts": [
          {
            "election": null,
            "id": 25,
            "name": "Eglinton—Lawrence"
          }
        ],
        "pollDivisionIds": [
          10137896
        ],
        "postalCode": "M5M1K1",
        "streetName": "BEDFORD PARK",
        "streetDirectionId": null,
        "streetTypeId": "AVE",
        "placeName": "NORTH YORK",
        "streetNameDisplayText": "BEDFORD PARK AVE, NORTH YORK"
      }
    ]
  },
  {
    "postal": "M5M1S3",
    "result": [
      {
        "electoralDistricts": [
          {
            "election": null,
            "id": 25,
            "name": "Eglinton—Lawrence"
          }
        ],
        "pollDivisionIds": [
          10137896
        ],
        "postalCode": "M5M1S3",
        "streetName": "BROOKDALE",
        "streetDirectionId": null,
        "streetTypeId": "AVE",
        "placeName": "NORTH YORK",
        "streetNameDisplayText": "BROOKDALE AVE, NORTH YORK"
      }
    ]
  },
  {
    "postal": "M5M6M4",
    "result": []
  },
  {
    "postal": "M5M9A9",
    "result": []
  },
  {
    "postal": "M5M9Z9",
    "result": []
  },
  {
    "postal": "M5M6T4",
    "result": []
  },
  {
    "postal": "M5M0B2",
    "result": []
  },
  {
    "postal": "M5M2L9",
    "result": [
      {
        "electoralDistricts": [
          {
            "election": null,
            "id": 25,
            "name": "Eglinton—Lawrence"
          }
        ],
        "pollDivisionIds": [
          10137895
        ],
        "postalCode": "M5M2L9",
        "streetName": "FELBRIGG",
        "streetDirectionId": null,
        "streetTypeId": "AVE",
        "placeName": "NORTH YORK",
        "streetNameDisplayText": "FELBRIGG AVE, NORTH YORK"
      }
    ]
  },
  {
    "postal": "M5M8K9",
    "result": []
  },
  {
    "postal": "M5M2H9",
    "result": [
      {
        "electoralDistricts": [
          {
            "election": null,
            "id": 25,
            "name": "Eglinton—Lawrence"
          }
        ],
        "pollDivisionIds": [
          10137897
        ],
        "postalCode": "M5M2H9",
        "streetName": "ROE",
        "streetDirectionId": null,
        "streetTypeId": "AVE",
        "placeName": "TORONTO",
        "streetNameDisplayText": "ROE AVE, TORONTO"
      }
    ]
  },
  {
    "postal": "M5M3Z6",
    "result": [
      {
        "electoralDistricts": [
          {
            "election": null,
            "id": 25,
            "name": "Eglinton—Lawrence"
          }
        ],
        "pollDivisionIds": [
          10137892
        ],
        "postalCode": "M5M3Z6",
        "streetName": "AVENUE",
        "streetDirectionId": null,
        "streetTypeId": "RD",
        "placeName": "NORTH YORK",
        "streetNameDisplayText": "AVENUE RD, NORTH YORK"
      }
    ]
  },
  {
    "postal": "M5M3B0",
    "result": []
  },
  {
    "postal": "M5M2H8",
    "result": [
      {
        "electoralDistricts": [
          {
            "election": null,
            "id": 25,
            "name": "Eglinton—Lawrence"
          }
        ],
        "pollDivisionIds": [
          10137897
        ],
        "postalCode": "M5M2H8",
        "streetName": "ROE",
        "streetDirectionId": null,
        "streetTypeId": "AVE",
        "placeName": "TORONTO",
        "streetNameDisplayText": "ROE AVE, TORONTO"
      }
    ]
  },
  {
    "postal": "M5M3X2",
    "result": [
      {
        "electoralDistricts": [
          {
            "election": null,
            "id": 25,
            "name": "Eglinton—Lawrence"
          }
        ],
        "pollDivisionIds": [
          10137901
        ],
        "postalCode": "M5M3X2",
        "streetName": "AVENUE",
        "streetDirectionId": null,
        "streetTypeId": "RD",
        "placeName": "NORTH YORK",
        "streetNameDisplayText": "AVENUE RD, NORTH YORK"
      }
    ]
  },
  {
    "postal": "M5M2E9",
    "result": [
      {
        "electoralDistricts": [
          {
            "election": null,
            "id": 25,
            "name": "Eglinton—Lawrence"
          }
        ],
        "pollDivisionIds": [
          10137897
        ],
        "postalCode": "M5M2E9",
        "streetName": "OLD ORCHARD",
        "streetDirectionId": null,
        "streetTypeId": "GROVE",
        "placeName": "NORTH YORK",
        "streetNameDisplayText": "OLD ORCHARD GROVE, NORTH YORK"
      }
    ]
  },
  {
    "postal": "M5M9P6",
    "result": []
  },
  {
    "postal": "M5M9E2",
    "result": []
  },
  {
    "postal": "M5M9H2",
    "result": []
  },
  {
    "postal": "M5M1S8",
    "result": [
      {
        "electoralDistricts": [
          {
            "election": null,
            "id": 25,
            "name": "Eglinton—Lawrence"
          }
        ],
        "pollDivisionIds": [
          10137902
        ],
        "postalCode": "M5M1S8",
        "streetName": "FAIRLAWN",
        "streetDirectionId": null,
        "streetTypeId": "AVE",
        "placeName": "TORONTO",
        "streetNameDisplayText": "FAIRLAWN AVE, TORONTO"
      }
    ]
  },
  {
    "postal": "M5M3M6",
    "result": [
      {
        "electoralDistricts": [
          {
            "election": null,
            "id": 25,
            "name": "Eglinton—Lawrence"
          }
        ],
        "pollDivisionIds": [
          10137892
        ],
        "postalCode": "M5M3M6",
        "streetName": "RIDLEY",
        "streetDirectionId": null,
        "streetTypeId": "BLVD",
        "placeName": "TORONTO",
        "streetNameDisplayText": "RIDLEY BLVD, TORONTO"
      }
    ]
  },
  {
    "postal": "M5M6Z8",
    "result": []
  },
  {
    "postal": "M5M4J2",
    "result": [
      {
        "electoralDistricts": [
          {
            "election": null,
            "id": 25,
            "name": "Eglinton—Lawrence"
          }
        ],
        "pollDivisionIds": [
          10137896
        ],
        "postalCode": "M5M4J2",
        "streetName": "LEDBURY",
        "streetDirectionId": null,
        "streetTypeId": "ST",
        "placeName": "NORTH YORK",
        "streetNameDisplayText": "LEDBURY ST, NORTH YORK"
      }
    ]
  },
  {
    "postal": "M5M9Y1",
    "result": []
  },
  {
    "postal": "M5M8V6",
    "result": []
  },
  {
    "postal": "M5M6B2",
    "result": []
  },
  {
    "postal": "M5M1P8",
    "result": [
      {
        "electoralDistricts": [
          {
            "election": null,
            "id": 25,
            "name": "Eglinton—Lawrence"
          }
        ],
        "pollDivisionIds": [
          10137902
        ],
        "postalCode": "M5M1P8",
        "streetName": "BROOKDALE",
        "streetDirectionId": null,
        "streetTypeId": "AVE",
        "placeName": "TORONTO",
        "streetNameDisplayText": "BROOKDALE AVE, TORONTO"
      }
    ]
  },
  {
    "postal": "M5M0V8",
    "result": []
  },
  {
    "postal": "M5M4Y0",
    "result": []
  },
  {
    "postal": "M5M2T4",
    "result": [
      {
        "electoralDistricts": [
          {
            "election": null,
            "id": 25,
            "name": "Eglinton—Lawrence"
          }
        ],
        "pollDivisionIds": [
          10137895
        ],
        "postalCode": "M5M2T4",
        "streetName": "JOICEY",
        "streetDirectionId": null,
        "streetTypeId": "BLVD",
        "placeName": "NORTH YORK",
        "streetNameDisplayText": "JOICEY BLVD, NORTH YORK"
      }
    ]
  },
  {
    "postal": "M5M2S3",
    "result": [
      {
        "electoralDistricts": [
          {
            "election": null,
            "id": 25,
            "name": "Eglinton—Lawrence"
          }
        ],
        "pollDivisionIds": [
          10137891
        ],
        "postalCode": "M5M2S3",
        "streetName": "DUNBLAINE",
        "streetDirectionId": null,
        "streetTypeId": "AVE",
        "placeName": "NORTH YORK",
        "streetNameDisplayText": "DUNBLAINE AVE, NORTH YORK"
      }
    ]
  },
  {
    "postal": "M5M0K0",
    "result": []
  },
  {
    "postal": "M5M5N1",
    "result": []
  },
  {
    "postal": "M5M7T0",
    "result": []
  },
  {
    "postal": "M5M9N2",
    "result": []
  },
  {
    "postal": "M5M5L1",
    "result": []
  },
  {
    "postal": "M5M7G5",
    "result": []
  },
  {
    "postal": "M5M6K2",
    "result": []
  },
  {
    "postal": "M5M6P9",
    "result": []
  },
  {
    "postal": "M5M0E6",
    "result": []
  },
  {
    "postal": "M5M8R9",
    "result": []
  },
  {
    "postal": "M5M3G9",
    "result": [
      {
        "electoralDistricts": [
          {
            "election": null,
            "id": 25,
            "name": "Eglinton—Lawrence"
          }
        ],
        "pollDivisionIds": [
          10137895
        ],
        "postalCode": "M5M3G9",
        "streetName": "YONGE",
        "streetDirectionId": null,
        "streetTypeId": "BLVD",
        "placeName": "NORTH YORK",
        "streetNameDisplayText": "YONGE BLVD, NORTH YORK"
      }
    ]
  },
  {
    "postal": "M5M0V7",
    "result": []
  },
  {
    "postal": "M5M2Z1",
    "result": [
      {
        "electoralDistricts": [
          {
            "election": null,
            "id": 25,
            "name": "Eglinton—Lawrence"
          }
        ],
        "pollDivisionIds": [
          10137894
        ],
        "postalCode": "M5M2Z1",
        "streetName": "HEDON",
        "streetDirectionId": null,
        "streetTypeId": "AVE",
        "placeName": "NORTH YORK",
        "streetNameDisplayText": "HEDON AVE, NORTH YORK"
      }
    ]
  },
  {
    "postal": "M5M7N1",
    "result": []
  },
  {
    "postal": "M5M3C6",
    "result": [
      {
        "electoralDistricts": [
          {
            "election": null,
            "id": 25,
            "name": "Eglinton—Lawrence"
          }
        ],
        "pollDivisionIds": [
          10137895
        ],
        "postalCode": "M5M3C6",
        "streetName": "MASON",
        "streetDirectionId": null,
        "streetTypeId": "BLVD",
        "placeName": "NORTH YORK",
        "streetNameDisplayText": "MASON BLVD, NORTH YORK"
      }
    ]
  },
  {
    "postal": "M5M4M1",
    "result": [
      {
        "electoralDistricts": [
          {
            "election": null,
            "id": 25,
            "name": "Eglinton—Lawrence"
          }
        ],
        "pollDivisionIds": [
          10137901
        ],
        "postalCode": "M5M4M1",
        "streetName": "LAWRENCE",
        "streetDirectionId": "W",
        "streetTypeId": "AVE",
        "placeName": "TORONTO",
        "streetNameDisplayText": "LAWRENCE AVE W, TORONTO"
      }
    ]
  },
  {
    "postal": "M5M9K2",
    "result": []
  },
  {
    "postal": "M5M9S6",
    "result": []
  },
  {
    "postal": "M5M4X1",
    "result": []
  },
  {
    "postal": "M5M8W2",
    "result": []
  },
  {
    "postal": "M5M7N2",
    "result": []
  },
  {
    "postal": "M5M8S3",
    "result": []
  },
  {
    "postal": "M5M4V0",
    "result": []
  },
  {
    "postal": "M5M6W4",
    "result": []
  },
  {
    "postal": "M5M5M1",
    "result": []
  },
  {
    "postal": "M5M0S4",
    "result": []
  },
  {
    "postal": "M5M5X6",
    "result": []
  },
  {
    "postal": "M5M8L5",
    "result": []
  },
  {
    "postal": "M5M5M8",
    "result": []
  },
  {
    "postal": "M5M2G3",
    "result": [
      {
        "electoralDistricts": [
          {
            "election": null,
            "id": 25,
            "name": "Eglinton—Lawrence"
          }
        ],
        "pollDivisionIds": [
          10137892
        ],
        "postalCode": "M5M2G3",
        "streetName": "OLD ORCHARD",
        "streetDirectionId": null,
        "streetTypeId": "GROVE",
        "placeName": "NORTH YORK",
        "streetNameDisplayText": "OLD ORCHARD GROVE, NORTH YORK"
      }
    ]
  },
  {
    "postal": "M5M8E4",
    "result": []
  },
  {
    "postal": "M5M7S9",
    "result": []
  },
  {
    "postal": "M5M1K3",
    "result": [
      {
        "electoralDistricts": [
          {
            "election": null,
            "id": 25,
            "name": "Eglinton—Lawrence"
          }
        ],
        "pollDivisionIds": [
          10137896
        ],
        "postalCode": "M5M1K3",
        "streetName": "BEDFORD PARK",
        "streetDirectionId": null,
        "streetTypeId": "AVE",
        "placeName": "NORTH YORK",
        "streetNameDisplayText": "BEDFORD PARK AVE, NORTH YORK"
      }
    ]
  },
  {
    "postal": "M5M4E1",
    "result": [
      {
        "electoralDistricts": [
          {
            "election": null,
            "id": 25,
            "name": "Eglinton—Lawrence"
          }
        ],
        "pollDivisionIds": [
          10137898
        ],
        "postalCode": "M5M4E1",
        "streetName": "GREY",
        "streetDirectionId": null,
        "streetTypeId": "RD",
        "placeName": "NORTH YORK",
        "streetNameDisplayText": "GREY RD, NORTH YORK"
      }
    ]
  },
  {
    "postal": "M5M4R2",
    "result": []
  },
  {
    "postal": "M5M6T0",
    "result": []
  },
  {
    "postal": "M5M3K5",
    "result": [
      {
        "electoralDistricts": [
          {
            "election": null,
            "id": 25,
            "name": "Eglinton—Lawrence"
          }
        ],
        "pollDivisionIds": [
          10137902
        ],
        "postalCode": "M5M3K5",
        "streetName": "JEDBURGH",
        "streetDirectionId": null,
        "streetTypeId": "RD",
        "placeName": "TORONTO",
        "streetNameDisplayText": "JEDBURGH RD, TORONTO"
      }
    ]
  },
  {
    "postal": "M5M3S3",
    "result": [
      {
        "electoralDistricts": [
          {
            "election": null,
            "id": 25,
            "name": "Eglinton—Lawrence"
          }
        ],
        "pollDivisionIds": [
          10137894
        ],
        "postalCode": "M5M3S3",
        "streetName": "ESGORE",
        "streetDirectionId": null,
        "streetTypeId": "DR",
        "placeName": "NORTH YORK",
        "streetNameDisplayText": "ESGORE DR, NORTH YORK"
      }
    ]
  },
  {
    "postal": "M5M3L4",
    "result": [
      {
        "electoralDistricts": [
          {
            "election": null,
            "id": 25,
            "name": "Eglinton—Lawrence"
          }
        ],
        "pollDivisionIds": [
          10137895
        ],
        "postalCode": "M5M3L4",
        "streetName": "RIDLEY",
        "streetDirectionId": null,
        "streetTypeId": "BLVD",
        "placeName": "NORTH YORK",
        "streetNameDisplayText": "RIDLEY BLVD, NORTH YORK"
      }
    ]
  },
  {
    "postal": "M5M9Y2",
    "result": []
  },
  {
    "postal": "M5M1E0",
    "result": []
  },
  {
    "postal": "M5M9A4",
    "result": []
  },
  {
    "postal": "M5M1L3",
    "result": [
      {
        "electoralDistricts": [
          {
            "election": null,
            "id": 25,
            "name": "Eglinton—Lawrence"
          }
        ],
        "pollDivisionIds": [
          10137902
        ],
        "postalCode": "M5M1L3",
        "streetName": "WOBURN",
        "streetDirectionId": null,
        "streetTypeId": "AVE",
        "placeName": "TORONTO",
        "streetNameDisplayText": "WOBURN AVE, TORONTO"
      }
    ]
  },
  {
    "postal": "M5M6N1",
    "result": []
  },
  {
    "postal": "M5M6G7",
    "result": []
  },
  {
    "postal": "M5M7W1",
    "result": []
  },
  {
    "postal": "M5M4M6",
    "result": [
      {
        "electoralDistricts": [
          {
            "election": null,
            "id": 25,
            "name": "Eglinton—Lawrence"
          }
        ],
        "pollDivisionIds": [
          10137895
        ],
        "postalCode": "M5M4M6",
        "streetName": "MCGLASHAN",
        "streetDirectionId": null,
        "streetTypeId": "CRT",
        "placeName": "NORTH YORK",
        "streetNameDisplayText": "MCGLASHAN CRT, NORTH YORK"
      }
    ]
  },
  {
    "postal": "M5M1K0",
    "result": []
  },
  {
    "postal": "M5M3E2",
    "result": [
      {
        "electoralDistricts": [
          {
            "election": null,
            "id": 25,
            "name": "Eglinton—Lawrence"
          }
        ],
        "pollDivisionIds": [
          10137895
        ],
        "postalCode": "M5M3E2",
        "streetName": "MASON",
        "streetDirectionId": null,
        "streetTypeId": "BLVD",
        "placeName": "NORTH YORK",
        "streetNameDisplayText": "MASON BLVD, NORTH YORK"
      }
    ]
  },
  {
    "postal": "M5M5H4",
    "result": []
  },
  {
    "postal": "M5M1K7",
    "result": [
      {
        "electoralDistricts": [
          {
            "election": null,
            "id": 25,
            "name": "Eglinton—Lawrence"
          }
        ],
        "pollDivisionIds": [
          10137903
        ],
        "postalCode": "M5M1K7",
        "streetName": "WOBURN",
        "streetDirectionId": null,
        "streetTypeId": "AVE",
        "placeName": "TORONTO",
        "streetNameDisplayText": "WOBURN AVE, TORONTO"
      }
    ]
  },
  {
    "postal": "M5M0H0",
    "result": []
  },
  {
    "postal": "M5M0J3",
    "result": []
  },
  {
    "postal": "M5M1X6",
    "result": [
      {
        "electoralDistricts": [
          {
            "election": null,
            "id": 25,
            "name": "Eglinton—Lawrence"
          }
        ],
        "pollDivisionIds": [
          10137896
        ],
        "postalCode": "M5M1X6",
        "streetName": "ST GERMAIN",
        "streetDirectionId": null,
        "streetTypeId": "AVE",
        "placeName": "NORTH YORK",
        "streetNameDisplayText": "ST GERMAIN AVE, NORTH YORK"
      }
    ]
  },
  {
    "postal": "M5M2Z6",
    "result": [
      {
        "electoralDistricts": [
          {
            "election": null,
            "id": 25,
            "name": "Eglinton—Lawrence"
          }
        ],
        "pollDivisionIds": [
          10137891
        ],
        "postalCode": "M5M2Z6",
        "streetName": "BURNCREST",
        "streetDirectionId": null,
        "streetTypeId": "DR",
        "placeName": "NORTH YORK",
        "streetNameDisplayText": "BURNCREST DR, NORTH YORK"
      },
      {
        "electoralDistricts": [
          {
            "election": null,
            "id": 25,
            "name": "Eglinton—Lawrence"
          }
        ],
        "pollDivisionIds": [
          10137891
        ],
        "postalCode": "M5M2Z6",
        "streetName": "BURNCREST",
        "streetDirectionId": null,
        "streetTypeId": "DR",
        "placeName": "TORONTO",
        "streetNameDisplayText": "BURNCREST DR, TORONTO"
      }
    ]
  },
  {
    "postal": "M5M4R9",
    "result": []
  },
  {
    "postal": "M5M0W8",
    "result": []
  },
  {
    "postal": "M5M1L4",
    "result": [
      {
        "electoralDistricts": [
          {
            "election": null,
            "id": 25,
            "name": "Eglinton—Lawrence"
          }
        ],
        "pollDivisionIds": [
          10137901
        ],
        "postalCode": "M5M1L4",
        "streetName": "WOBURN",
        "streetDirectionId": null,
        "streetTypeId": "AVE",
        "placeName": "NORTH YORK",
        "streetNameDisplayText": "WOBURN AVE, NORTH YORK"
      }
    ]
  },
  {
    "postal": "M5M0C8",
    "result": []
  },
  {
    "postal": "M5M9X7",
    "result": []
  },
  {
    "postal": "M5M4T1",
    "result": []
  },
  {
    "postal": "M5M0M0",
    "result": []
  },
  {
    "postal": "M5M6A2",
    "result": []
  },
  {
    "postal": "M5M9S8",
    "result": []
  },
  {
    "postal": "M5M9T4",
    "result": []
  },
  {
    "postal": "M5M9Y4",
    "result": []
  },
  {
    "postal": "M5M6G5",
    "result": []
  },
  {
    "postal": "M5M6H9",
    "result": []
  },
  {
    "postal": "M5M2P3",
    "result": [
      {
        "electoralDistricts": [
          {
            "election": null,
            "id": 25,
            "name": "Eglinton—Lawrence"
          }
        ],
        "pollDivisionIds": [
          10137894
        ],
        "postalCode": "M5M2P3",
        "streetName": "HADDINGTON",
        "streetDirectionId": null,
        "streetTypeId": "AVE",
        "placeName": "NORTH YORK",
        "streetNameDisplayText": "HADDINGTON AVE, NORTH YORK"
      }
    ]
  },
  {
    "postal": "M5M1T6",
    "result": [
      {
        "electoralDistricts": [
          {
            "election": null,
            "id": 25,
            "name": "Eglinton—Lawrence"
          }
        ],
        "pollDivisionIds": [
          10137898
        ],
        "postalCode": "M5M1T6",
        "streetName": "FAIRLAWN",
        "streetDirectionId": null,
        "streetTypeId": "AVE",
        "placeName": "NORTH YORK",
        "streetNameDisplayText": "FAIRLAWN AVE, NORTH YORK"
      }
    ]
  },
  {
    "postal": "M5M4P6",
    "result": []
  },
  {
    "postal": "M5M3K1",
    "result": [
      {
        "electoralDistricts": [
          {
            "election": null,
            "id": 25,
            "name": "Eglinton—Lawrence"
          }
        ],
        "pollDivisionIds": [
          10137902
        ],
        "postalCode": "M5M3K1",
        "streetName": "JEDBURGH",
        "streetDirectionId": null,
        "streetTypeId": "RD",
        "placeName": "TORONTO",
        "streetNameDisplayText": "JEDBURGH RD, TORONTO"
      }
    ]
  },
  {
    "postal": "M5M6X4",
    "result": []
  },
  {
    "postal": "M5M4M8",
    "result": [
      {
        "electoralDistricts": [
          {
            "election": null,
            "id": 25,
            "name": "Eglinton—Lawrence"
          }
        ],
        "pollDivisionIds": [
          10137892
        ],
        "postalCode": "M5M4M8",
        "streetName": "WILSON",
        "streetDirectionId": null,
        "streetTypeId": "AVE",
        "placeName": "NORTH YORK",
        "streetNameDisplayText": "WILSON AVE, NORTH YORK"
      }
    ]
  },
  {
    "postal": "M5M2Y1",
    "result": [
      {
        "electoralDistricts": [
          {
            "election": null,
            "id": 25,
            "name": "Eglinton—Lawrence"
          }
        ],
        "pollDivisionIds": [
          10137892
        ],
        "postalCode": "M5M2Y1",
        "streetName": "MCGILLIVRAY",
        "streetDirectionId": null,
        "streetTypeId": "AVE",
        "placeName": "NORTH YORK",
        "streetNameDisplayText": "MCGILLIVRAY AVE, NORTH YORK"
      }
    ]
  },
  {
    "postal": "M5M6M1",
    "result": []
  },
  {
    "postal": "M5M5L8",
    "result": []
  },
  {
    "postal": "M5M3P6",
    "result": []
  },
  {
    "postal": "M5M9A5",
    "result": []
  },
  {
    "postal": "M5M7K1",
    "result": []
  },
  {
    "postal": "M5M3J4",
    "result": [
      {
        "electoralDistricts": [
          {
            "election": null,
            "id": 25,
            "name": "Eglinton—Lawrence"
          }
        ],
        "pollDivisionIds": [
          10137893
        ],
        "postalCode": "M5M3J4",
        "streetName": "YONGE",
        "streetDirectionId": null,
        "streetTypeId": "BLVD",
        "placeName": "NORTH YORK",
        "streetNameDisplayText": "YONGE BLVD, NORTH YORK"
      }
    ]
  },
  {
    "postal": "M5M5E7",
    "result": []
  },
  {
    "postal": "M5M3A7",
    "result": []
  },
  {
    "postal": "M5M1B9",
    "result": [
      {
        "electoralDistricts": [
          {
            "election": null,
            "id": 25,
            "name": "Eglinton—Lawrence"
          }
        ],
        "pollDivisionIds": [
          10137920
        ],
        "postalCode": "M5M1B9",
        "streetName": "LAWRENCE",
        "streetDirectionId": "W",
        "streetTypeId": "AVE",
        "placeName": "NORTH YORK",
        "streetNameDisplayText": "LAWRENCE AVE W, NORTH YORK"
      },
      {
        "electoralDistricts": [
          {
            "election": null,
            "id": 25,
            "name": "Eglinton—Lawrence"
          }
        ],
        "pollDivisionIds": [
          10137920
        ],
        "postalCode": "M5M1B9",
        "streetName": "LAWRENCE AVE WEST",
        "streetDirectionId": "W",
        "streetTypeId": "AVE",
        "placeName": "NORTH YORK",
        "streetNameDisplayText": "LAWRENCE AVE WEST AVE W, NORTH YORK"
      }
    ]
  },
  {
    "postal": "M5M9E8",
    "result": []
  },
  {
    "postal": "M5M1C9",
    "result": [
      {
        "electoralDistricts": [
          {
            "election": null,
            "id": 25,
            "name": "Eglinton—Lawrence"
          }
        ],
        "pollDivisionIds": [
          10137903
        ],
        "postalCode": "M5M1C9",
        "streetName": "GLENGARRY",
        "streetDirectionId": null,
        "streetTypeId": "AVE",
        "placeName": "TORONTO",
        "streetNameDisplayText": "GLENGARRY AVE, TORONTO"
      }
    ]
  },
  {
    "postal": "M5M3B5",
    "result": [
      {
        "electoralDistricts": [
          {
            "election": null,
            "id": 25,
            "name": "Eglinton—Lawrence"
          }
        ],
        "pollDivisionIds": [
          10137893
        ],
        "postalCode": "M5M3B5",
        "streetName": "DELHI",
        "streetDirectionId": null,
        "streetTypeId": "AVE",
        "placeName": "NORTH YORK",
        "streetNameDisplayText": "DELHI AVE, NORTH YORK"
      }
    ]
  },
  {
    "postal": "M5M8R0",
    "result": []
  },
  {
    "postal": "M5M3P2",
    "result": [
      {
        "electoralDistricts": [
          {
            "election": null,
            "id": 25,
            "name": "Eglinton—Lawrence"
          }
        ],
        "pollDivisionIds": [
          10137902
        ],
        "postalCode": "M5M3P2",
        "streetName": "GREER",
        "streetDirectionId": null,
        "streetTypeId": "RD",
        "placeName": "TORONTO",
        "streetNameDisplayText": "GREER RD, TORONTO"
      }
    ]
  },
  {
    "postal": "M5M5V4",
    "result": []
  },
  {
    "postal": "M5M4H0",
    "result": []
  },
  {
    "postal": "M5M4S7",
    "result": []
  },
  {
    "postal": "M5M6C2",
    "result": []
  },
  {
    "postal": "M5M8W3",
    "result": []
  },
  {
    "postal": "M5M4M5",
    "result": [
      {
        "electoralDistricts": [
          {
            "election": null,
            "id": 25,
            "name": "Eglinton—Lawrence"
          }
        ],
        "pollDivisionIds": [
          10137895
        ],
        "postalCode": "M5M4M5",
        "streetName": "HARLEY",
        "streetDirectionId": null,
        "streetTypeId": "AVE",
        "placeName": "NORTH YORK",
        "streetNameDisplayText": "HARLEY AVE, NORTH YORK"
      }
    ]
  },
  {
    "postal": "M5M5T1",
    "result": []
  },
  {
    "postal": "M5M3B3",
    "result": [
      {
        "electoralDistricts": [
          {
            "election": null,
            "id": 25,
            "name": "Eglinton—Lawrence"
          }
        ],
        "pollDivisionIds": [
          10137893
        ],
        "postalCode": "M5M3B3",
        "streetName": "RAVENHILL",
        "streetDirectionId": null,
        "streetTypeId": "RD",
        "placeName": "NORTH YORK",
        "streetNameDisplayText": "RAVENHILL RD, NORTH YORK"
      }
    ]
  },
  {
    "postal": "M5M6C6",
    "result": []
  },
  {
    "postal": "M5M7N8",
    "result": []
  },
  {
    "postal": "M5M2Y3",
    "result": [
      {
        "electoralDistricts": [
          {
            "election": null,
            "id": 25,
            "name": "Eglinton—Lawrence"
          }
        ],
        "pollDivisionIds": [
          10137891
        ],
        "postalCode": "M5M2Y3",
        "streetName": "MCGILLIVRAY",
        "streetDirectionId": null,
        "streetTypeId": "AVE",
        "placeName": "NORTH YORK",
        "streetNameDisplayText": "MCGILLIVRAY AVE, NORTH YORK"
      }
    ]
  },
  {
    "postal": "M5M2R6",
    "result": [
      {
        "electoralDistricts": [
          {
            "election": null,
            "id": 25,
            "name": "Eglinton—Lawrence"
          }
        ],
        "pollDivisionIds": [
          10137894
        ],
        "postalCode": "M5M2R6",
        "streetName": "DUNBLAINE",
        "streetDirectionId": null,
        "streetTypeId": "AVE",
        "placeName": "NORTH YORK",
        "streetNameDisplayText": "DUNBLAINE AVE, NORTH YORK"
      }
    ]
  },
  {
    "postal": "M5M7N3",
    "result": []
  },
  {
    "postal": "M5M8J2",
    "result": []
  },
  {
    "postal": "M5M6A9",
    "result": []
  },
  {
    "postal": "M5M3V2",
    "result": [
      {
        "electoralDistricts": [
          {
            "election": null,
            "id": 25,
            "name": "Eglinton—Lawrence"
          }
        ],
        "pollDivisionIds": [
          10137898
        ],
        "postalCode": "M5M3V2",
        "streetName": "ELM",
        "streetDirectionId": null,
        "streetTypeId": "RD",
        "placeName": "TORONTO",
        "streetNameDisplayText": "ELM RD, TORONTO"
      }
    ]
  },
  {
    "postal": "M5M2N3",
    "result": [
      {
        "electoralDistricts": [
          {
            "election": null,
            "id": 25,
            "name": "Eglinton—Lawrence"
          }
        ],
        "pollDivisionIds": [
          10137891
        ],
        "postalCode": "M5M2N3",
        "streetName": "BANNOCKBURN",
        "streetDirectionId": null,
        "streetTypeId": "AVE",
        "placeName": "NORTH YORK",
        "streetNameDisplayText": "BANNOCKBURN AVE, NORTH YORK"
      }
    ]
  },
  {
    "postal": "M5M1S5",
    "result": [
      {
        "electoralDistricts": [
          {
            "election": null,
            "id": 25,
            "name": "Eglinton—Lawrence"
          }
        ],
        "pollDivisionIds": [
          10137896
        ],
        "postalCode": "M5M1S5",
        "streetName": "BROOKDALE",
        "streetDirectionId": null,
        "streetTypeId": "AVE",
        "placeName": "NORTH YORK",
        "streetNameDisplayText": "BROOKDALE AVE, NORTH YORK"
      }
    ]
  },
  {
    "postal": "M5M4T7",
    "result": []
  },
  {
    "postal": "M5M6Y7",
    "result": []
  },
  {
    "postal": "M5M0W7",
    "result": []
  },
  {
    "postal": "M5M2W9",
    "result": [
      {
        "electoralDistricts": [
          {
            "election": null,
            "id": 25,
            "name": "Eglinton—Lawrence"
          }
        ],
        "pollDivisionIds": [
          10137891
        ],
        "postalCode": "M5M2W9",
        "streetName": "CARMICHAEL",
        "streetDirectionId": null,
        "streetTypeId": "AVE",
        "placeName": "NORTH YORK",
        "streetNameDisplayText": "CARMICHAEL AVE, NORTH YORK"
      }
    ]
  },
  {
    "postal": "M5M8V0",
    "result": []
  },
  {
    "postal": "M5M0H4",
    "result": []
  },
  {
    "postal": "M5M2T1",
    "result": [
      {
        "electoralDistricts": [
          {
            "election": null,
            "id": 25,
            "name": "Eglinton—Lawrence"
          }
        ],
        "pollDivisionIds": [
          10137895
        ],
        "postalCode": "M5M2T1",
        "streetName": "JOICEY",
        "streetDirectionId": null,
        "streetTypeId": "BLVD",
        "placeName": "NORTH YORK",
        "streetNameDisplayText": "JOICEY BLVD, NORTH YORK"
      }
    ]
  },
  {
    "postal": "M5M1B1",
    "result": [
      {
        "electoralDistricts": [
          {
            "election": null,
            "id": 25,
            "name": "Eglinton—Lawrence"
          }
        ],
        "pollDivisionIds": [
          10137901
        ],
        "postalCode": "M5M1B1",
        "streetName": "LAWRENCE",
        "streetDirectionId": "W",
        "streetTypeId": "AVE",
        "placeName": "TORONTO",
        "streetNameDisplayText": "LAWRENCE AVE W, TORONTO"
      }
    ]
  },
  {
    "postal": "M5M8B6",
    "result": []
  },
  {
    "postal": "M5M6H1",
    "result": []
  },
  {
    "postal": "M5M8T8",
    "result": []
  },
  {
    "postal": "M5M0T4",
    "result": []
  },
  {
    "postal": "M5M2C4",
    "result": [
      {
        "electoralDistricts": [
          {
            "election": null,
            "id": 25,
            "name": "Eglinton—Lawrence"
          }
        ],
        "pollDivisionIds": [
          10137896
        ],
        "postalCode": "M5M2C4",
        "streetName": "DELORAINE",
        "streetDirectionId": null,
        "streetTypeId": "AVE",
        "placeName": "NORTH YORK",
        "streetNameDisplayText": "DELORAINE AVE, NORTH YORK"
      }
    ]
  },
  {
    "postal": "M5M8N3",
    "result": []
  },
  {
    "postal": "M5M4L8",
    "result": []
  },
  {
    "postal": "M5M2B5",
    "result": [
      {
        "electoralDistricts": [
          {
            "election": null,
            "id": 25,
            "name": "Eglinton—Lawrence"
          }
        ],
        "pollDivisionIds": [
          10137897
        ],
        "postalCode": "M5M2B5",
        "streetName": "DELORAINE",
        "streetDirectionId": null,
        "streetTypeId": "AVE",
        "placeName": "TORONTO",
        "streetNameDisplayText": "DELORAINE AVE, TORONTO"
      }
    ]
  },
  {
    "postal": "M5M3H1",
    "result": [
      {
        "electoralDistricts": [
          {
            "election": null,
            "id": 25,
            "name": "Eglinton—Lawrence"
          }
        ],
        "pollDivisionIds": [
          10137895
        ],
        "postalCode": "M5M3H1",
        "streetName": "YONGE",
        "streetDirectionId": null,
        "streetTypeId": "BLVD",
        "placeName": "NORTH YORK",
        "streetNameDisplayText": "YONGE BLVD, NORTH YORK"
      }
    ]
  },
  {
    "postal": "M5M4Y1",
    "result": []
  },
  {
    "postal": "M5M7E2",
    "result": []
  },
  {
    "postal": "M5M2P5",
    "result": [
      {
        "electoralDistricts": [
          {
            "election": null,
            "id": 25,
            "name": "Eglinton—Lawrence"
          }
        ],
        "pollDivisionIds": [
          10137892
        ],
        "postalCode": "M5M2P5",
        "streetName": "HADDINGTON",
        "streetDirectionId": null,
        "streetTypeId": "AVE",
        "placeName": "NORTH YORK",
        "streetNameDisplayText": "HADDINGTON AVE, NORTH YORK"
      }
    ]
  },
  {
    "postal": "M5M8R7",
    "result": []
  },
  {
    "postal": "M5M9P1",
    "result": []
  },
  {
    "postal": "M5M3B8",
    "result": [
      {
        "electoralDistricts": [
          {
            "election": null,
            "id": 25,
            "name": "Eglinton—Lawrence"
          }
        ],
        "pollDivisionIds": [
          10137893
        ],
        "postalCode": "M5M3B8",
        "streetName": "DELHI",
        "streetDirectionId": null,
        "streetTypeId": "AVE",
        "placeName": "NORTH YORK",
        "streetNameDisplayText": "DELHI AVE, NORTH YORK"
      }
    ]
  },
  {
    "postal": "M5M3P7",
    "result": [
      {
        "electoralDistricts": [
          {
            "election": null,
            "id": 25,
            "name": "Eglinton—Lawrence"
          }
        ],
        "pollDivisionIds": [
          10137894
        ],
        "postalCode": "M5M3P7",
        "streetName": "GREER",
        "streetDirectionId": null,
        "streetTypeId": "RD",
        "placeName": "NORTH YORK",
        "streetNameDisplayText": "GREER RD, NORTH YORK"
      }
    ]
  },
  {
    "postal": "M5M9B2",
    "result": []
  },
  {
    "postal": "M5M6Z3",
    "result": []
  },
  {
    "postal": "M5M4N5",
    "result": []
  },
  {
    "postal": "M5M8T3",
    "result": []
  },
  {
    "postal": "M5M1V2",
    "result": [
      {
        "electoralDistricts": [
          {
            "election": null,
            "id": 25,
            "name": "Eglinton—Lawrence"
          }
        ],
        "pollDivisionIds": [
          10137896
        ],
        "postalCode": "M5M1V2",
        "streetName": "FAIRLAWN",
        "streetDirectionId": null,
        "streetTypeId": "AVE",
        "placeName": "NORTH YORK",
        "streetNameDisplayText": "FAIRLAWN AVE, NORTH YORK"
      }
    ]
  },
  {
    "postal": "M5M1Y0",
    "result": []
  },
  {
    "postal": "M5M3G6",
    "result": [
      {
        "electoralDistricts": [
          {
            "election": null,
            "id": 25,
            "name": "Eglinton—Lawrence"
          }
        ],
        "pollDivisionIds": [
          10137902
        ],
        "postalCode": "M5M3G6",
        "streetName": "YONGE",
        "streetDirectionId": null,
        "streetTypeId": "BLVD",
        "placeName": "TORONTO",
        "streetNameDisplayText": "YONGE BLVD, TORONTO"
      }
    ]
  },
  {
    "postal": "M5M3H7",
    "result": [
      {
        "electoralDistricts": [
          {
            "election": null,
            "id": 25,
            "name": "Eglinton—Lawrence"
          }
        ],
        "pollDivisionIds": [
          10137894
        ],
        "postalCode": "M5M3H7",
        "streetName": "YONGE",
        "streetDirectionId": null,
        "streetTypeId": "BLVD",
        "placeName": "NORTH YORK",
        "streetNameDisplayText": "YONGE BLVD, NORTH YORK"
      }
    ]
  },
  {
    "postal": "M5M7X8",
    "result": []
  },
  {
    "postal": "M5M0C7",
    "result": []
  },
  {
    "postal": "M5M0W9",
    "result": []
  },
  {
    "postal": "M5M8E6",
    "result": []
  },
  {
    "postal": "M5M9Z8",
    "result": []
  },
  {
    "postal": "M5M3P4",
    "result": [
      {
        "electoralDistricts": [
          {
            "election": null,
            "id": 25,
            "name": "Eglinton—Lawrence"
          }
        ],
        "pollDivisionIds": [
          10137895
        ],
        "postalCode": "M5M3P4",
        "streetName": "GREER",
        "streetDirectionId": null,
        "streetTypeId": "RD",
        "placeName": "TORONTO",
        "streetNameDisplayText": "GREER RD, TORONTO"
      }
    ]
  },
  {
    "postal": "M5M6L8",
    "result": []
  },
  {
    "postal": "M5M2R4",
    "result": [
      {
        "electoralDistricts": [
          {
            "election": null,
            "id": 25,
            "name": "Eglinton—Lawrence"
          }
        ],
        "pollDivisionIds": [
          10137895
        ],
        "postalCode": "M5M2R4",
        "streetName": "HARLEY",
        "streetDirectionId": null,
        "streetTypeId": "AVE",
        "placeName": "NORTH YORK",
        "streetNameDisplayText": "HARLEY AVE, NORTH YORK"
      }
    ]
  },
  {
    "postal": "M5M2W1",
    "result": [
      {
        "electoralDistricts": [
          {
            "election": null,
            "id": 25,
            "name": "Eglinton—Lawrence"
          }
        ],
        "pollDivisionIds": [
          10137891
        ],
        "postalCode": "M5M2W1",
        "streetName": "JOICEY",
        "streetDirectionId": null,
        "streetTypeId": "BLVD",
        "placeName": "NORTH YORK",
        "streetNameDisplayText": "JOICEY BLVD, NORTH YORK"
      }
    ]
  },
  {
    "postal": "M5M9H8",
    "result": []
  },
  {
    "postal": "M5M8X9",
    "result": []
  },
  {
    "postal": "M5M7H4",
    "result": []
  },
  {
    "postal": "M5M3J1",
    "result": [
      {
        "electoralDistricts": [
          {
            "election": null,
            "id": 25,
            "name": "Eglinton—Lawrence"
          }
        ],
        "pollDivisionIds": [
          10137893
        ],
        "postalCode": "M5M3J1",
        "streetName": "YONGE",
        "streetDirectionId": null,
        "streetTypeId": "BLVD",
        "placeName": "NORTH YORK",
        "streetNameDisplayText": "YONGE BLVD, NORTH YORK"
      }
    ]
  },
  {
    "postal": "M5M1P4",
    "result": [
      {
        "electoralDistricts": [
          {
            "election": null,
            "id": 25,
            "name": "Eglinton—Lawrence"
          }
        ],
        "pollDivisionIds": [
          10137902
        ],
        "postalCode": "M5M1P4",
        "streetName": "BROOKDALE",
        "streetDirectionId": null,
        "streetTypeId": "AVE",
        "placeName": "TORONTO",
        "streetNameDisplayText": "BROOKDALE AVE, TORONTO"
      }
    ]
  },
  {
    "postal": "M5M2A3",
    "result": [
      {
        "electoralDistricts": [
          {
            "election": null,
            "id": 25,
            "name": "Eglinton—Lawrence"
          }
        ],
        "pollDivisionIds": [
          10137896
        ],
        "postalCode": "M5M2A3",
        "streetName": "MELROSE",
        "streetDirectionId": null,
        "streetTypeId": "AVE",
        "placeName": "NORTH YORK",
        "streetNameDisplayText": "MELROSE AVE, NORTH YORK"
      }
    ]
  },
  {
    "postal": "M5M0Z1",
    "result": []
  },
  {
    "postal": "M5M1C1",
    "result": [
      {
        "electoralDistricts": [
          {
            "election": null,
            "id": 25,
            "name": "Eglinton—Lawrence"
          }
        ],
        "pollDivisionIds": [
          10137920
        ],
        "postalCode": "M5M1C1",
        "streetName": "LAWRENCE",
        "streetDirectionId": "W",
        "streetTypeId": "AVE",
        "placeName": "NORTH YORK",
        "streetNameDisplayText": "LAWRENCE AVE W, NORTH YORK"
      }
    ]
  },
  {
    "postal": "M5M0H3",
    "result": []
  },
  {
    "postal": "M5M7B0",
    "result": []
  },
  {
    "postal": "M5M5K2",
    "result": []
  },
  {
    "postal": "M5M1E9",
    "result": [
      {
        "electoralDistricts": [
          {
            "election": null,
            "id": 25,
            "name": "Eglinton—Lawrence"
          }
        ],
        "pollDivisionIds": [
          10137900
        ],
        "postalCode": "M5M1E9",
        "streetName": "GLENGARRY",
        "streetDirectionId": null,
        "streetTypeId": "AVE",
        "placeName": "NORTH YORK",
        "streetNameDisplayText": "GLENGARRY AVE, NORTH YORK"
      }
    ]
  },
  {
    "postal": "M5M9W7",
    "result": []
  },
  {
    "postal": "M5M5W6",
    "result": []
  },
  {
    "postal": "M5M6S6",
    "result": []
  },
  {
    "postal": "M5M2P8",
    "result": [
      {
        "electoralDistricts": [
          {
            "election": null,
            "id": 25,
            "name": "Eglinton—Lawrence"
          }
        ],
        "pollDivisionIds": [
          10137891
        ],
        "postalCode": "M5M2P8",
        "streetName": "HADDINGTON",
        "streetDirectionId": null,
        "streetTypeId": "AVE",
        "placeName": "NORTH YORK",
        "streetNameDisplayText": "HADDINGTON AVE, NORTH YORK"
      }
    ]
  },
  {
    "postal": "M5M4P8",
    "result": []
  },
  {
    "postal": "M5M0V9",
    "result": []
  },
  {
    "postal": "M5M5Y2",
    "result": []
  },
  {
    "postal": "M5M7Z7",
    "result": []
  },
  {
    "postal": "M5M6Y8",
    "result": []
  },
  {
    "postal": "M5M2G7",
    "result": [
      {
        "electoralDistricts": [
          {
            "election": null,
            "id": 25,
            "name": "Eglinton—Lawrence"
          }
        ],
        "pollDivisionIds": [
          10137896
        ],
        "postalCode": "M5M2G7",
        "streetName": "OLD ORCHARD",
        "streetDirectionId": null,
        "streetTypeId": "GROVE",
        "placeName": "NORTH YORK",
        "streetNameDisplayText": "OLD ORCHARD GROVE, NORTH YORK"
      }
    ]
  },
  {
    "postal": "M5M8C1",
    "result": []
  },
  {
    "postal": "M5M5C5",
    "result": []
  },
  {
    "postal": "M5M2X8",
    "result": [
      {
        "electoralDistricts": [
          {
            "election": null,
            "id": 25,
            "name": "Eglinton—Lawrence"
          }
        ],
        "pollDivisionIds": [
          10137895
        ],
        "postalCode": "M5M2X8",
        "streetName": "APSLEY",
        "streetDirectionId": null,
        "streetTypeId": "RD",
        "placeName": "NORTH YORK",
        "streetNameDisplayText": "APSLEY RD, NORTH YORK"
      }
    ]
  },
  {
    "postal": "M5M1W5",
    "result": [
      {
        "electoralDistricts": [
          {
            "election": null,
            "id": 25,
            "name": "Eglinton—Lawrence"
          }
        ],
        "pollDivisionIds": [
          10137898
        ],
        "postalCode": "M5M1W5",
        "streetName": "ST GERMAIN",
        "streetDirectionId": null,
        "streetTypeId": "AVE",
        "placeName": "TORONTO",
        "streetNameDisplayText": "ST GERMAIN AVE, TORONTO"
      }
    ]
  },
  {
    "postal": "M5M7G0",
    "result": []
  },
  {
    "postal": "M5M8J8",
    "result": []
  },
  {
    "postal": "M5M3Y0",
    "result": []
  },
  {
    "postal": "M5M9T7",
    "result": []
  },
  {
    "postal": "M5M5P4",
    "result": []
  },
  {
    "postal": "M5M4B0",
    "result": []
  },
  {
    "postal": "M5M9N8",
    "result": []
  },
  {
    "postal": "M5M4A7",
    "result": [
      {
        "electoralDistricts": [
          {
            "election": null,
            "id": 25,
            "name": "Eglinton—Lawrence"
          }
        ],
        "pollDivisionIds": [
          10137894
        ],
        "postalCode": "M5M4A7",
        "streetName": "AVENUE",
        "streetDirectionId": null,
        "streetTypeId": "RD",
        "placeName": "NORTH YORK",
        "streetNameDisplayText": "AVENUE RD, NORTH YORK"
      }
    ]
  },
  {
    "postal": "M5M4H9",
    "result": [
      {
        "electoralDistricts": [
          {
            "election": null,
            "id": 25,
            "name": "Eglinton—Lawrence"
          }
        ],
        "pollDivisionIds": [
          10137896
        ],
        "postalCode": "M5M4H9",
        "streetName": "LEDBURY",
        "streetDirectionId": null,
        "streetTypeId": "ST",
        "placeName": "NORTH YORK",
        "streetNameDisplayText": "LEDBURY ST, NORTH YORK"
      }
    ]
  },
  {
    "postal": "M5M6X1",
    "result": []
  },
  {
    "postal": "M5M9Y7",
    "result": []
  },
  {
    "postal": "M5M2Y5",
    "result": [
      {
        "electoralDistricts": [
          {
            "election": null,
            "id": 25,
            "name": "Eglinton—Lawrence"
          }
        ],
        "pollDivisionIds": [
          10137891
        ],
        "postalCode": "M5M2Y5",
        "streetName": "MCGILLIVRAY",
        "streetDirectionId": null,
        "streetTypeId": "AVE",
        "placeName": "NORTH YORK",
        "streetNameDisplayText": "MCGILLIVRAY AVE, NORTH YORK"
      }
    ]
  },
  {
    "postal": "M5M8L7",
    "result": []
  },
  {
    "postal": "M5M2A8",
    "result": [
      {
        "electoralDistricts": [
          {
            "election": null,
            "id": 25,
            "name": "Eglinton—Lawrence"
          }
        ],
        "pollDivisionIds": [
          10137902
        ],
        "postalCode": "M5M2A8",
        "streetName": "DELORAINE",
        "streetDirectionId": null,
        "streetTypeId": "AVE",
        "placeName": "TORONTO",
        "streetNameDisplayText": "DELORAINE AVE, TORONTO"
      }
    ]
  },
  {
    "postal": "M5M2K9",
    "result": [
      {
        "electoralDistricts": [
          {
            "election": null,
            "id": 25,
            "name": "Eglinton—Lawrence"
          }
        ],
        "pollDivisionIds": [
          10137892
        ],
        "postalCode": "M5M2K9",
        "streetName": "BROOKE",
        "streetDirectionId": null,
        "streetTypeId": "AVE",
        "placeName": "NORTH YORK",
        "streetNameDisplayText": "BROOKE AVE, NORTH YORK"
      }
    ]
  },
  {
    "postal": "M5M3E5",
    "result": [
      {
        "electoralDistricts": [
          {
            "election": null,
            "id": 25,
            "name": "Eglinton—Lawrence"
          }
        ],
        "pollDivisionIds": [
          10137895
        ],
        "postalCode": "M5M3E5",
        "streetName": "DE VERE",
        "streetDirectionId": null,
        "streetTypeId": "GDNS",
        "placeName": "NORTH YORK",
        "streetNameDisplayText": "DE VERE GDNS, NORTH YORK"
      },
      {
        "electoralDistricts": [
          {
            "election": null,
            "id": 25,
            "name": "Eglinton—Lawrence"
          }
        ],
        "pollDivisionIds": [
          10137895
        ],
        "postalCode": "M5M3E5",
        "streetName": "DE VERE",
        "streetDirectionId": null,
        "streetTypeId": "GDNS",
        "placeName": "TORONTO",
        "streetNameDisplayText": "DE VERE GDNS, TORONTO"
      }
    ]
  },
  {
    "postal": "M5M8N6",
    "result": []
  },
  {
    "postal": "M5M8J4",
    "result": []
  },
  {
    "postal": "M5M4R7",
    "result": []
  },
  {
    "postal": "M5M9K1",
    "result": []
  },
  {
    "postal": "M5M8E1",
    "result": []
  },
  {
    "postal": "M5M0R1",
    "result": []
  },
  {
    "postal": "M5M4J3",
    "result": [
      {
        "electoralDistricts": [
          {
            "election": null,
            "id": 25,
            "name": "Eglinton—Lawrence"
          }
        ],
        "pollDivisionIds": [
          10137896
        ],
        "postalCode": "M5M4J3",
        "streetName": "LEDBURY",
        "streetDirectionId": null,
        "streetTypeId": "ST",
        "placeName": "NORTH YORK",
        "streetNameDisplayText": "LEDBURY ST, NORTH YORK"
      }
    ]
  },
  {
    "postal": "M5M7E7",
    "result": []
  },
  {
    "postal": "M5M0J0",
    "result": []
  },
  {
    "postal": "M5M7R8",
    "result": []
  },
  {
    "postal": "M5M9X0",
    "result": []
  },
  {
    "postal": "M5M7P6",
    "result": []
  },
  {
    "postal": "M5M0R7",
    "result": []
  },
  {
    "postal": "M5M5W1",
    "result": []
  },
  {
    "postal": "M5M0K4",
    "result": []
  },
  {
    "postal": "M5M7N9",
    "result": []
  },
  {
    "postal": "M5M1N0",
    "result": []
  },
  {
    "postal": "M5M6P3",
    "result": []
  },
  {
    "postal": "M5M5A1",
    "result": []
  },
  {
    "postal": "M5M9M9",
    "result": []
  },
  {
    "postal": "M5M7T6",
    "result": []
  },
  {
    "postal": "M5M3X0",
    "result": []
  },
  {
    "postal": "M5M2T0",
    "result": []
  },
  {
    "postal": "M5M5X9",
    "result": []
  },
  {
    "postal": "M5M2R3",
    "result": [
      {
        "electoralDistricts": [
          {
            "election": null,
            "id": 25,
            "name": "Eglinton—Lawrence"
          }
        ],
        "pollDivisionIds": [
          10137895
        ],
        "postalCode": "M5M2R3",
        "streetName": "HARLEY",
        "streetDirectionId": null,
        "streetTypeId": "AVE",
        "placeName": "NORTH YORK",
        "streetNameDisplayText": "HARLEY AVE, NORTH YORK"
      }
    ]
  },
  {
    "postal": "M5M5N2",
    "result": []
  },
  {
    "postal": "M5M4Y7",
    "result": []
  },
  {
    "postal": "M5M7M0",
    "result": []
  },
  {
    "postal": "M5M8P3",
    "result": []
  },
  {
    "postal": "M5M3N3",
    "result": [
      {
        "electoralDistricts": [
          {
            "election": null,
            "id": 25,
            "name": "Eglinton—Lawrence"
          }
        ],
        "pollDivisionIds": [
          10137902
        ],
        "postalCode": "M5M3N3",
        "streetName": "GREER",
        "streetDirectionId": null,
        "streetTypeId": "RD",
        "placeName": "TORONTO",
        "streetNameDisplayText": "GREER RD, TORONTO"
      }
    ]
  },
  {
    "postal": "M5M7S3",
    "result": []
  },
  {
    "postal": "M5M3V9",
    "result": [
      {
        "electoralDistricts": [
          {
            "election": null,
            "id": 25,
            "name": "Eglinton—Lawrence"
          }
        ],
        "pollDivisionIds": [
          10137894
        ],
        "postalCode": "M5M3V9",
        "streetName": "ELM",
        "streetDirectionId": null,
        "streetTypeId": "RD",
        "placeName": "TORONTO",
        "streetNameDisplayText": "ELM RD, TORONTO"
      }
    ]
  },
  {
    "postal": "M5M9N7",
    "result": []
  },
  {
    "postal": "M5M0G4",
    "result": []
  },
  {
    "postal": "M5M2E2",
    "result": [
      {
        "electoralDistricts": [
          {
            "election": null,
            "id": 25,
            "name": "Eglinton—Lawrence"
          }
        ],
        "pollDivisionIds": [
          10137895
        ],
        "postalCode": "M5M2E2",
        "streetName": "OLD ORCHARD",
        "streetDirectionId": null,
        "streetTypeId": "GROVE",
        "placeName": "TORONTO",
        "streetNameDisplayText": "OLD ORCHARD GROVE, TORONTO"
      }
    ]
  },
  {
    "postal": "M5M7W8",
    "result": []
  },
  {
    "postal": "M5M7M5",
    "result": []
  },
  {
    "postal": "M5M5W8",
    "result": []
  },
  {
    "postal": "M5M5E5",
    "result": []
  },
  {
    "postal": "M5M1P9",
    "result": [
      {
        "electoralDistricts": [
          {
            "election": null,
            "id": 25,
            "name": "Eglinton—Lawrence"
          }
        ],
        "pollDivisionIds": [
          10137902
        ],
        "postalCode": "M5M1P9",
        "streetName": "BROOKDALE",
        "streetDirectionId": null,
        "streetTypeId": "AVE",
        "placeName": "TORONTO",
        "streetNameDisplayText": "BROOKDALE AVE, TORONTO"
      }
    ]
  },
  {
    "postal": "M5M8V8",
    "result": []
  },
  {
    "postal": "M5M9G8",
    "result": []
  },
  {
    "postal": "M5M8H9",
    "result": []
  },
  {
    "postal": "M5M1Z1",
    "result": [
      {
        "electoralDistricts": [
          {
            "election": null,
            "id": 25,
            "name": "Eglinton—Lawrence"
          }
        ],
        "pollDivisionIds": [
          10137902
        ],
        "postalCode": "M5M1Z1",
        "streetName": "MELROSE",
        "streetDirectionId": null,
        "streetTypeId": "AVE",
        "placeName": "TORONTO",
        "streetNameDisplayText": "MELROSE AVE, TORONTO"
      }
    ]
  },
  {
    "postal": "M5M8M3",
    "result": []
  },
  {
    "postal": "M5M5H6",
    "result": []
  },
  {
    "postal": "M5M7W7",
    "result": []
  },
  {
    "postal": "M5M4L0",
    "result": []
  },
  {
    "postal": "M5M2N1",
    "result": [
      {
        "electoralDistricts": [
          {
            "election": null,
            "id": 25,
            "name": "Eglinton—Lawrence"
          }
        ],
        "pollDivisionIds": [
          10137891
        ],
        "postalCode": "M5M2N1",
        "streetName": "BANNOCKBURN",
        "streetDirectionId": null,
        "streetTypeId": "AVE",
        "placeName": "NORTH YORK",
        "streetNameDisplayText": "BANNOCKBURN AVE, NORTH YORK"
      }
    ]
  },
  {
    "postal": "M5M2H4",
    "result": [
      {
        "electoralDistricts": [
          {
            "election": null,
            "id": 25,
            "name": "Eglinton—Lawrence"
          }
        ],
        "pollDivisionIds": [
          10137895
        ],
        "postalCode": "M5M2H4",
        "streetName": "MCNAIRN",
        "streetDirectionId": null,
        "streetTypeId": "AVE",
        "placeName": "TORONTO",
        "streetNameDisplayText": "MCNAIRN AVE, TORONTO"
      }
    ]
  },
  {
    "postal": "M5M5C8",
    "result": []
  },
  {
    "postal": "M5M8B0",
    "result": []
  },
  {
    "postal": "M5M1T4",
    "result": [
      {
        "electoralDistricts": [
          {
            "election": null,
            "id": 25,
            "name": "Eglinton—Lawrence"
          }
        ],
        "pollDivisionIds": [
          10137902
        ],
        "postalCode": "M5M1T4",
        "streetName": "FAIRLAWN",
        "streetDirectionId": null,
        "streetTypeId": "AVE",
        "placeName": "TORONTO",
        "streetNameDisplayText": "FAIRLAWN AVE, TORONTO"
      }
    ]
  },
  {
    "postal": "M5M7N7",
    "result": []
  },
  {
    "postal": "M5M4L3",
    "result": [
      {
        "electoralDistricts": [
          {
            "election": null,
            "id": 25,
            "name": "Eglinton—Lawrence"
          }
        ],
        "pollDivisionIds": [
          10137896
        ],
        "postalCode": "M5M4L3",
        "streetName": "BARSE",
        "streetDirectionId": null,
        "streetTypeId": "ST",
        "placeName": "NORTH YORK",
        "streetNameDisplayText": "BARSE ST, NORTH YORK"
      }
    ]
  },
  {
    "postal": "M5M2N2",
    "result": [
      {
        "electoralDistricts": [
          {
            "election": null,
            "id": 25,
            "name": "Eglinton—Lawrence"
          }
        ],
        "pollDivisionIds": [
          10137891
        ],
        "postalCode": "M5M2N2",
        "streetName": "BANNOCKBURN",
        "streetDirectionId": null,
        "streetTypeId": "AVE",
        "placeName": "NORTH YORK",
        "streetNameDisplayText": "BANNOCKBURN AVE, NORTH YORK"
      }
    ]
  },
  {
    "postal": "M5M4N8",
    "result": [
      {
        "electoralDistricts": [
          {
            "election": null,
            "id": 25,
            "name": "Eglinton—Lawrence"
          }
        ],
        "pollDivisionIds": [
          10137892
        ],
        "postalCode": "M5M4N8",
        "streetName": "RIDLEY",
        "streetDirectionId": null,
        "streetTypeId": "BLVD",
        "placeName": "NORTH YORK",
        "streetNameDisplayText": "RIDLEY BLVD, NORTH YORK"
      }
    ]
  },
  {
    "postal": "M5M3M5",
    "result": [
      {
        "electoralDistricts": [
          {
            "election": null,
            "id": 25,
            "name": "Eglinton—Lawrence"
          }
        ],
        "pollDivisionIds": [
          10137892
        ],
        "postalCode": "M5M3M5",
        "streetName": "RIDLEY",
        "streetDirectionId": null,
        "streetTypeId": "BLVD",
        "placeName": "NORTH YORK",
        "streetNameDisplayText": "RIDLEY BLVD, NORTH YORK"
      }
    ]
  },
  {
    "postal": "M5M6H7",
    "result": []
  },
  {
    "postal": "M5M8Y8",
    "result": []
  },
  {
    "postal": "M5M5R9",
    "result": []
  },
  {
    "postal": "M5M8G3",
    "result": []
  },
  {
    "postal": "M5M4N7",
    "result": [
      {
        "electoralDistricts": [
          {
            "election": null,
            "id": 25,
            "name": "Eglinton—Lawrence"
          }
        ],
        "pollDivisionIds": [
          10137893
        ],
        "postalCode": "M5M4N7",
        "streetName": "WILSON",
        "streetDirectionId": null,
        "streetTypeId": "AVE",
        "placeName": "NORTH YORK",
        "streetNameDisplayText": "WILSON AVE, NORTH YORK"
      }
    ]
  },
  {
    "postal": "M5M0B9",
    "result": []
  },
  {
    "postal": "M5M9K7",
    "result": []
  },
  {
    "postal": "M5M9K9",
    "result": []
  },
  {
    "postal": "M5M3Z2",
    "result": [
      {
        "electoralDistricts": [
          {
            "election": null,
            "id": 25,
            "name": "Eglinton—Lawrence"
          }
        ],
        "pollDivisionIds": [
          10137897
        ],
        "postalCode": "M5M3Z2",
        "streetName": "AVENUE",
        "streetDirectionId": null,
        "streetTypeId": "RD",
        "placeName": "NORTH YORK",
        "streetNameDisplayText": "AVENUE RD, NORTH YORK"
      }
    ]
  },
  {
    "postal": "M5M6W7",
    "result": []
  },
  {
    "postal": "M5M0P1",
    "result": []
  },
  {
    "postal": "M5M3A0",
    "result": []
  },
  {
    "postal": "M5M8L9",
    "result": []
  },
  {
    "postal": "M5M6X0",
    "result": []
  },
  {
    "postal": "M5M3E9",
    "result": [
      {
        "electoralDistricts": [
          {
            "election": null,
            "id": 25,
            "name": "Eglinton—Lawrence"
          }
        ],
        "pollDivisionIds": [
          10137895
        ],
        "postalCode": "M5M3E9",
        "streetName": "DE VERE",
        "streetDirectionId": null,
        "streetTypeId": "GDNS",
        "placeName": "NORTH YORK",
        "streetNameDisplayText": "DE VERE GDNS, NORTH YORK"
      }
    ]
  },
  {
    "postal": "M5M0S5",
    "result": []
  },
  {
    "postal": "M5M1A2",
    "result": [
      {
        "electoralDistricts": [
          {
            "election": null,
            "id": 25,
            "name": "Eglinton—Lawrence"
          }
        ],
        "pollDivisionIds": [
          10137903
        ],
        "postalCode": "M5M1A2",
        "streetName": "LAWRENCE",
        "streetDirectionId": "W",
        "streetTypeId": "AVE",
        "placeName": "TORONTO",
        "streetNameDisplayText": "LAWRENCE AVE W, TORONTO"
      }
    ]
  },
  {
    "postal": "M5M5V8",
    "result": []
  },
  {
    "postal": "M5M8C5",
    "result": []
  },
  {
    "postal": "M5M6N0",
    "result": []
  },
  {
    "postal": "M5M9E6",
    "result": []
  },
  {
    "postal": "M5M5J7",
    "result": []
  },
  {
    "postal": "M5M2R2",
    "result": [
      {
        "electoralDistricts": [
          {
            "election": null,
            "id": 25,
            "name": "Eglinton—Lawrence"
          }
        ],
        "pollDivisionIds": [
          10137891
        ],
        "postalCode": "M5M2R2",
        "streetName": "HADDINGTON",
        "streetDirectionId": null,
        "streetTypeId": "AVE",
        "placeName": "NORTH YORK",
        "streetNameDisplayText": "HADDINGTON AVE, NORTH YORK"
      }
    ]
  },
  {
    "postal": "M5M0P5",
    "result": []
  },
  {
    "postal": "M5M5A7",
    "result": []
  },
  {
    "postal": "M5M1G1",
    "result": [
      {
        "electoralDistricts": [
          {
            "election": null,
            "id": 25,
            "name": "Eglinton—Lawrence"
          }
        ],
        "pollDivisionIds": [
          10137899
        ],
        "postalCode": "M5M1G1",
        "streetName": "GLENGARRY",
        "streetDirectionId": null,
        "streetTypeId": "AVE",
        "placeName": "NORTH YORK",
        "streetNameDisplayText": "GLENGARRY AVE, NORTH YORK"
      }
    ]
  },
  {
    "postal": "M5M9R6",
    "result": []
  },
  {
    "postal": "M5M4Z9",
    "result": []
  },
  {
    "postal": "M5M1V5",
    "result": [
      {
        "electoralDistricts": [
          {
            "election": null,
            "id": 25,
            "name": "Eglinton—Lawrence"
          }
        ],
        "pollDivisionIds": [
          10137896
        ],
        "postalCode": "M5M1V5",
        "streetName": "FAIRLAWN",
        "streetDirectionId": null,
        "streetTypeId": "AVE",
        "placeName": "NORTH YORK",
        "streetNameDisplayText": "FAIRLAWN AVE, NORTH YORK"
      }
    ]
  },
  {
    "postal": "M5M9Y5",
    "result": []
  },
  {
    "postal": "M5M1P2",
    "result": [
      {
        "electoralDistricts": [
          {
            "election": null,
            "id": 25,
            "name": "Eglinton—Lawrence"
          }
        ],
        "pollDivisionIds": [
          10137902,
          10137903
        ],
        "postalCode": "M5M1P2",
        "streetName": "BROOKDALE",
        "streetDirectionId": null,
        "streetTypeId": "AVE",
        "placeName": "TORONTO",
        "streetNameDisplayText": "BROOKDALE AVE, TORONTO"
      }
    ]
  },
  {
    "postal": "M5M5X0",
    "result": []
  },
  {
    "postal": "M5M7B8",
    "result": []
  },
  {
    "postal": "M5M0C6",
    "result": []
  },
  {
    "postal": "M5M6G1",
    "result": []
  },
  {
    "postal": "M5M3K3",
    "result": [
      {
        "electoralDistricts": [
          {
            "election": null,
            "id": 25,
            "name": "Eglinton—Lawrence"
          }
        ],
        "pollDivisionIds": [
          10137902
        ],
        "postalCode": "M5M3K3",
        "streetName": "JEDBURGH",
        "streetDirectionId": null,
        "streetTypeId": "RD",
        "placeName": "TORONTO",
        "streetNameDisplayText": "JEDBURGH RD, TORONTO"
      }
    ]
  },
  {
    "postal": "M5M9R0",
    "result": []
  },
  {
    "postal": "M5M4R8",
    "result": []
  },
  {
    "postal": "M5M5P9",
    "result": []
  },
  {
    "postal": "M5M8N4",
    "result": []
  },
  {
    "postal": "M5M8H4",
    "result": []
  },
  {
    "postal": "M5M4V1",
    "result": []
  },
  {
    "postal": "M5M1K5",
    "result": [
      {
        "electoralDistricts": [
          {
            "election": null,
            "id": 25,
            "name": "Eglinton—Lawrence"
          }
        ],
        "pollDivisionIds": [
          10137903
        ],
        "postalCode": "M5M1K5",
        "streetName": "WOBURN",
        "streetDirectionId": null,
        "streetTypeId": "AVE",
        "placeName": "TORONTO",
        "streetNameDisplayText": "WOBURN AVE, TORONTO"
      }
    ]
  },
  {
    "postal": "M5M1Z5",
    "result": [
      {
        "electoralDistricts": [
          {
            "election": null,
            "id": 25,
            "name": "Eglinton—Lawrence"
          }
        ],
        "pollDivisionIds": [
          10137898
        ],
        "postalCode": "M5M1Z5",
        "streetName": "MELROSE",
        "streetDirectionId": null,
        "streetTypeId": "AVE",
        "placeName": "NORTH YORK",
        "streetNameDisplayText": "MELROSE AVE, NORTH YORK"
      }
    ]
  },
  {
    "postal": "M5M9L9",
    "result": []
  },
  {
    "postal": "M5M5L2",
    "result": []
  },
  {
    "postal": "M5M0M2",
    "result": []
  },
  {
    "postal": "M5M1K8",
    "result": [
      {
        "electoralDistricts": [
          {
            "election": null,
            "id": 25,
            "name": "Eglinton—Lawrence"
          }
        ],
        "pollDivisionIds": [
          10137903
        ],
        "postalCode": "M5M1K8",
        "streetName": "WOBURN",
        "streetDirectionId": null,
        "streetTypeId": "AVE",
        "placeName": "TORONTO",
        "streetNameDisplayText": "WOBURN AVE, TORONTO"
      }
    ]
  },
  {
    "postal": "M5M3M7",
    "result": []
  },
  {
    "postal": "M5M1B2",
    "result": [
      {
        "electoralDistricts": [
          {
            "election": null,
            "id": 25,
            "name": "Eglinton—Lawrence"
          }
        ],
        "pollDivisionIds": [
          10137901
        ],
        "postalCode": "M5M1B2",
        "streetName": "LAWRENCE",
        "streetDirectionId": "W",
        "streetTypeId": "AVE",
        "placeName": "TORONTO",
        "streetNameDisplayText": "LAWRENCE AVE W, TORONTO"
      }
    ]
  },
  {
    "postal": "M5M0H9",
    "result": []
  },
  {
    "postal": "M5M8M4",
    "result": []
  },
  {
    "postal": "M5M2M5",
    "result": [
      {
        "electoralDistricts": [
          {
            "election": null,
            "id": 25,
            "name": "Eglinton—Lawrence"
          }
        ],
        "pollDivisionIds": [
          10137894
        ],
        "postalCode": "M5M2M5",
        "streetName": "FELBRIGG",
        "streetDirectionId": null,
        "streetTypeId": "AVE",
        "placeName": "NORTH YORK",
        "streetNameDisplayText": "FELBRIGG AVE, NORTH YORK"
      }
    ]
  },
  {
    "postal": "M5M0T9",
    "result": []
  },
  {
    "postal": "M5M3P1",
    "result": [
      {
        "electoralDistricts": [
          {
            "election": null,
            "id": 25,
            "name": "Eglinton—Lawrence"
          }
        ],
        "pollDivisionIds": [
          10137902
        ],
        "postalCode": "M5M3P1",
        "streetName": "GREER",
        "streetDirectionId": null,
        "streetTypeId": "RD",
        "placeName": "TORONTO",
        "streetNameDisplayText": "GREER RD, TORONTO"
      }
    ]
  },
  {
    "postal": "M5M1R6",
    "result": [
      {
        "electoralDistricts": [
          {
            "election": null,
            "id": 25,
            "name": "Eglinton—Lawrence"
          }
        ],
        "pollDivisionIds": [
          10137898,
          10137896
        ],
        "postalCode": "M5M1R6",
        "streetName": "BROOKDALE",
        "streetDirectionId": null,
        "streetTypeId": "AVE",
        "placeName": "NORTH YORK",
        "streetNameDisplayText": "BROOKDALE AVE, NORTH YORK"
      }
    ]
  },
  {
    "postal": "M5M9V5",
    "result": []
  },
  {
    "postal": "M5M9T0",
    "result": []
  },
  {
    "postal": "M5M0A9",
    "result": [
      {
        "electoralDistricts": [
          {
            "election": null,
            "id": 25,
            "name": "Eglinton—Lawrence"
          }
        ],
        "pollDivisionIds": [
          10137903
        ],
        "postalCode": "M5M0A9",
        "streetName": "JEDBURGH",
        "streetDirectionId": null,
        "streetTypeId": "RD",
        "placeName": "TORONTO",
        "streetNameDisplayText": "JEDBURGH RD, TORONTO"
      }
    ]
  },
  {
    "postal": "M5M1M3",
    "result": [
      {
        "electoralDistricts": [
          {
            "election": null,
            "id": 25,
            "name": "Eglinton—Lawrence"
          }
        ],
        "pollDivisionIds": [
          10137903
        ],
        "postalCode": "M5M1M3",
        "streetName": "CRANBROOKE",
        "streetDirectionId": null,
        "streetTypeId": "AVE",
        "placeName": "TORONTO",
        "streetNameDisplayText": "CRANBROOKE AVE, TORONTO"
      }
    ]
  },
  {
    "postal": "M5M1W8",
    "result": [
      {
        "electoralDistricts": [
          {
            "election": null,
            "id": 25,
            "name": "Eglinton—Lawrence"
          }
        ],
        "pollDivisionIds": [
          10137898
        ],
        "postalCode": "M5M1W8",
        "streetName": "ST GERMAIN",
        "streetDirectionId": null,
        "streetTypeId": "AVE",
        "placeName": "NORTH YORK",
        "streetNameDisplayText": "ST GERMAIN AVE, NORTH YORK"
      }
    ]
  },
  {
    "postal": "M5M9J1",
    "result": []
  },
  {
    "postal": "M5M8N5",
    "result": []
  },
  {
    "postal": "M5M5X1",
    "result": []
  },
  {
    "postal": "M5M6S2",
    "result": []
  },
  {
    "postal": "M5M2A2",
    "result": [
      {
        "electoralDistricts": [
          {
            "election": null,
            "id": 25,
            "name": "Eglinton—Lawrence"
          }
        ],
        "pollDivisionIds": [
          10137896
        ],
        "postalCode": "M5M2A2",
        "streetName": "MELROSE",
        "streetDirectionId": null,
        "streetTypeId": "AVE",
        "placeName": "NORTH YORK",
        "streetNameDisplayText": "MELROSE AVE, NORTH YORK"
      }
    ]
  },
  {
    "postal": "M5M6A6",
    "result": []
  },
  {
    "postal": "M5M0S3",
    "result": []
  },
  {
    "postal": "M5M3E7",
    "result": [
      {
        "electoralDistricts": [
          {
            "election": null,
            "id": 25,
            "name": "Eglinton—Lawrence"
          }
        ],
        "pollDivisionIds": [
          10137895
        ],
        "postalCode": "M5M3E7",
        "streetName": "DE VERE",
        "streetDirectionId": null,
        "streetTypeId": "GDNS",
        "placeName": "NORTH YORK",
        "streetNameDisplayText": "DE VERE GDNS, NORTH YORK"
      }
    ]
  },
  {
    "postal": "M5M5R7",
    "result": []
  },
  {
    "postal": "M5M3R6",
    "result": [
      {
        "electoralDistricts": [
          {
            "election": null,
            "id": 25,
            "name": "Eglinton—Lawrence"
          }
        ],
        "pollDivisionIds": [
          10137895
        ],
        "postalCode": "M5M3R6",
        "streetName": "ESGORE",
        "streetDirectionId": null,
        "streetTypeId": "DR",
        "placeName": "NORTH YORK",
        "streetNameDisplayText": "ESGORE DR, NORTH YORK"
      }
    ]
  },
  {
    "postal": "M5M6K4",
    "result": []
  },
  {
    "postal": "M5M2W5",
    "result": [
      {
        "electoralDistricts": [
          {
            "election": null,
            "id": 25,
            "name": "Eglinton—Lawrence"
          }
        ],
        "pollDivisionIds": [
          10137892
        ],
        "postalCode": "M5M2W5",
        "streetName": "CARMICHAEL",
        "streetDirectionId": null,
        "streetTypeId": "AVE",
        "placeName": "NORTH YORK",
        "streetNameDisplayText": "CARMICHAEL AVE, NORTH YORK"
      }
    ]
  },
  {
    "postal": "M5M8W4",
    "result": []
  },
  {
    "postal": "M5M9C2",
    "result": []
  },
  {
    "postal": "M5M2C0",
    "result": []
  },
  {
    "postal": "M5M0E1",
    "result": []
  },
  {
    "postal": "M5M1K9",
    "result": [
      {
        "electoralDistricts": [
          {
            "election": null,
            "id": 25,
            "name": "Eglinton—Lawrence"
          }
        ],
        "pollDivisionIds": [
          10137902
        ],
        "postalCode": "M5M1K9",
        "streetName": "WOBURN",
        "streetDirectionId": null,
        "streetTypeId": "AVE",
        "placeName": "TORONTO",
        "streetNameDisplayText": "WOBURN AVE, TORONTO"
      }
    ]
  },
  {
    "postal": "M5M1G7",
    "result": [
      {
        "electoralDistricts": [
          {
            "election": null,
            "id": 25,
            "name": "Eglinton—Lawrence"
          }
        ],
        "pollDivisionIds": [
          10137902
        ],
        "postalCode": "M5M1G7",
        "streetName": "DOUGLAS",
        "streetDirectionId": null,
        "streetTypeId": "AVE",
        "placeName": "TORONTO",
        "streetNameDisplayText": "DOUGLAS AVE, TORONTO"
      }
    ]
  },
  {
    "postal": "M5M4E9",
    "result": [
      {
        "electoralDistricts": [
          {
            "election": null,
            "id": 25,
            "name": "Eglinton—Lawrence"
          }
        ],
        "pollDivisionIds": [
          10137892
        ],
        "postalCode": "M5M4E9",
        "streetName": "GREY",
        "streetDirectionId": null,
        "streetTypeId": "RD",
        "placeName": "NORTH YORK",
        "streetNameDisplayText": "GREY RD, NORTH YORK"
      }
    ]
  },
  {
    "postal": "M5M9P0",
    "result": []
  },
  {
    "postal": "M5M5H3",
    "result": []
  },
  {
    "postal": "M5M9X6",
    "result": []
  },
  {
    "postal": "M5M5N7",
    "result": []
  },
  {
    "postal": "M5M5A6",
    "result": []
  },
  {
    "postal": "M5M4M0",
    "result": []
  },
  {
    "postal": "M5M3V6",
    "result": [
      {
        "electoralDistricts": [
          {
            "election": null,
            "id": 25,
            "name": "Eglinton—Lawrence"
          }
        ],
        "pollDivisionIds": [
          10137897
        ],
        "postalCode": "M5M3V6",
        "streetName": "ELM",
        "streetDirectionId": null,
        "streetTypeId": "RD",
        "placeName": "TORONTO",
        "streetNameDisplayText": "ELM RD, TORONTO"
      }
    ]
  },
  {
    "postal": "M5M1L7",
    "result": [
      {
        "electoralDistricts": [
          {
            "election": null,
            "id": 25,
            "name": "Eglinton—Lawrence"
          }
        ],
        "pollDivisionIds": [
          10137901
        ],
        "postalCode": "M5M1L7",
        "streetName": "WOBURN",
        "streetDirectionId": null,
        "streetTypeId": "AVE",
        "placeName": "NORTH YORK",
        "streetNameDisplayText": "WOBURN AVE, NORTH YORK"
      }
    ]
  },
  {
    "postal": "M5M2P9",
    "result": [
      {
        "electoralDistricts": [
          {
            "election": null,
            "id": 25,
            "name": "Eglinton—Lawrence"
          }
        ],
        "pollDivisionIds": [
          10137891
        ],
        "postalCode": "M5M2P9",
        "streetName": "HADDINGTON",
        "streetDirectionId": null,
        "streetTypeId": "AVE",
        "placeName": "NORTH YORK",
        "streetNameDisplayText": "HADDINGTON AVE, NORTH YORK"
      }
    ]
  },
  {
    "postal": "M5M5T4",
    "result": []
  },
  {
    "postal": "M5M5Z1",
    "result": []
  },
  {
    "postal": "M5M2X0",
    "result": []
  },
  {
    "postal": "M5M6Z2",
    "result": []
  },
  {
    "postal": "M5M0E0",
    "result": []
  },
  {
    "postal": "M5M3Z5",
    "result": [
      {
        "electoralDistricts": [
          {
            "election": null,
            "id": 25,
            "name": "Eglinton—Lawrence"
          }
        ],
        "pollDivisionIds": [
          10137892
        ],
        "postalCode": "M5M3Z5",
        "streetName": "AVENUE",
        "streetDirectionId": null,
        "streetTypeId": "RD",
        "placeName": "NORTH YORK",
        "streetNameDisplayText": "AVENUE RD, NORTH YORK"
      }
    ]
  },
  {
    "postal": "M5M8H3",
    "result": []
  },
  {
    "postal": "M5M7S6",
    "result": []
  },
  {
    "postal": "M5M4C1",
    "result": [
      {
        "electoralDistricts": [
          {
            "election": null,
            "id": 25,
            "name": "Eglinton—Lawrence"
          }
        ],
        "pollDivisionIds": [
          10137893
        ],
        "postalCode": "M5M4C1",
        "streetName": "BIDEFORD",
        "streetDirectionId": null,
        "streetTypeId": "AVE",
        "placeName": "TORONTO",
        "streetNameDisplayText": "BIDEFORD AVE, TORONTO"
      }
    ]
  },
  {
    "postal": "M5M3K2",
    "result": [
      {
        "electoralDistricts": [
          {
            "election": null,
            "id": 25,
            "name": "Eglinton—Lawrence"
          }
        ],
        "pollDivisionIds": [
          10137902
        ],
        "postalCode": "M5M3K2",
        "streetName": "JEDBURGH",
        "streetDirectionId": null,
        "streetTypeId": "RD",
        "placeName": "TORONTO",
        "streetNameDisplayText": "JEDBURGH RD, TORONTO"
      }
    ]
  },
  {
    "postal": "M5M1Y5",
    "result": [
      {
        "electoralDistricts": [
          {
            "election": null,
            "id": 25,
            "name": "Eglinton—Lawrence"
          }
        ],
        "pollDivisionIds": [
          10137902
        ],
        "postalCode": "M5M1Y5",
        "streetName": "MELROSE",
        "streetDirectionId": null,
        "streetTypeId": "AVE",
        "placeName": "TORONTO",
        "streetNameDisplayText": "MELROSE AVE, TORONTO"
      }
    ]
  },
  {
    "postal": "M5M6P6",
    "result": []
  },
  {
    "postal": "M5M3N9",
    "result": [
      {
        "electoralDistricts": [
          {
            "election": null,
            "id": 25,
            "name": "Eglinton—Lawrence"
          }
        ],
        "pollDivisionIds": [
          10137902
        ],
        "postalCode": "M5M3N9",
        "streetName": "GREER",
        "streetDirectionId": null,
        "streetTypeId": "RD",
        "placeName": "TORONTO",
        "streetNameDisplayText": "GREER RD, TORONTO"
      }
    ]
  },
  {
    "postal": "M5M3W2",
    "result": [
      {
        "electoralDistricts": [
          {
            "election": null,
            "id": 25,
            "name": "Eglinton—Lawrence"
          }
        ],
        "pollDivisionIds": [
          10137897
        ],
        "postalCode": "M5M3W2",
        "streetName": "ELM",
        "streetDirectionId": null,
        "streetTypeId": "RD",
        "placeName": "NORTH YORK",
        "streetNameDisplayText": "ELM RD, NORTH YORK"
      }
    ]
  },
  {
    "postal": "M5M6H8",
    "result": []
  },
  {
    "postal": "M5M9T3",
    "result": []
  },
  {
    "postal": "M5M5L9",
    "result": []
  },
  {
    "postal": "M5M7X7",
    "result": []
  },
  {
    "postal": "M5M3J5",
    "result": [
      {
        "electoralDistricts": [
          {
            "election": null,
            "id": 25,
            "name": "Eglinton—Lawrence"
          }
        ],
        "pollDivisionIds": [
          10137903
        ],
        "postalCode": "M5M3J5",
        "streetName": "JEDBURGH",
        "streetDirectionId": null,
        "streetTypeId": "RD",
        "placeName": "TORONTO",
        "streetNameDisplayText": "JEDBURGH RD, TORONTO"
      }
    ]
  },
  {
    "postal": "M5M4J5",
    "result": [
      {
        "electoralDistricts": [
          {
            "election": null,
            "id": 25,
            "name": "Eglinton—Lawrence"
          }
        ],
        "pollDivisionIds": [
          10137896
        ],
        "postalCode": "M5M4J5",
        "streetName": "LEDBURY",
        "streetDirectionId": null,
        "streetTypeId": "ST",
        "placeName": "NORTH YORK",
        "streetNameDisplayText": "LEDBURY ST, NORTH YORK"
      }
    ]
  },
  {
    "postal": "M5M6J2",
    "result": []
  },
  {
    "postal": "M5M5V6",
    "result": []
  },
  {
    "postal": "M5M3N2",
    "result": [
      {
        "electoralDistricts": [
          {
            "election": null,
            "id": 25,
            "name": "Eglinton—Lawrence"
          }
        ],
        "pollDivisionIds": [
          10137903
        ],
        "postalCode": "M5M3N2",
        "streetName": "GREER",
        "streetDirectionId": null,
        "streetTypeId": "RD",
        "placeName": "TORONTO",
        "streetNameDisplayText": "GREER RD, TORONTO"
      }
    ]
  },
  {
    "postal": "M5M3B1",
    "result": [
      {
        "electoralDistricts": [
          {
            "election": null,
            "id": 25,
            "name": "Eglinton—Lawrence"
          }
        ],
        "pollDivisionIds": [
          10137891,
          10137892
        ],
        "postalCode": "M5M3B1",
        "streetName": "WILSON",
        "streetDirectionId": null,
        "streetTypeId": "AVE",
        "placeName": "NORTH YORK",
        "streetNameDisplayText": "WILSON AVE, NORTH YORK"
      }
    ]
  },
  {
    "postal": "M5M8B5",
    "result": []
  },
  {
    "postal": "M5M0K1",
    "result": []
  },
  {
    "postal": "M5M7M7",
    "result": []
  },
  {
    "postal": "M5M2M2",
    "result": [
      {
        "electoralDistricts": [
          {
            "election": null,
            "id": 25,
            "name": "Eglinton—Lawrence"
          }
        ],
        "pollDivisionIds": [
          10137894
        ],
        "postalCode": "M5M2M2",
        "streetName": "FELBRIGG",
        "streetDirectionId": null,
        "streetTypeId": "AVE",
        "placeName": "NORTH YORK",
        "streetNameDisplayText": "FELBRIGG AVE, NORTH YORK"
      }
    ]
  },
  {
    "postal": "M5M9N3",
    "result": []
  },
  {
    "postal": "M5M4Y8",
    "result": []
  },
  {
    "postal": "M5M3V7",
    "result": [
      {
        "electoralDistricts": [
          {
            "election": null,
            "id": 25,
            "name": "Eglinton—Lawrence"
          }
        ],
        "pollDivisionIds": [
          10137894
        ],
        "postalCode": "M5M3V7",
        "streetName": "ELM",
        "streetDirectionId": null,
        "streetTypeId": "RD",
        "placeName": "TORONTO",
        "streetNameDisplayText": "ELM RD, TORONTO"
      }
    ]
  },
  {
    "postal": "M5M8Z1",
    "result": []
  },
  {
    "postal": "M5M7B3",
    "result": []
  },
  {
    "postal": "M5M3A8",
    "result": []
  },
  {
    "postal": "M5M7V5",
    "result": []
  },
  {
    "postal": "M5M2T2",
    "result": [
      {
        "electoralDistricts": [
          {
            "election": null,
            "id": 25,
            "name": "Eglinton—Lawrence"
          }
        ],
        "pollDivisionIds": [
          10137895
        ],
        "postalCode": "M5M2T2",
        "streetName": "JOICEY",
        "streetDirectionId": null,
        "streetTypeId": "BLVD",
        "placeName": "NORTH YORK",
        "streetNameDisplayText": "JOICEY BLVD, NORTH YORK"
      }
    ]
  },
  {
    "postal": "M5M6L3",
    "result": []
  },
  {
    "postal": "M5M0L2",
    "result": []
  },
  {
    "postal": "M5M5Y8",
    "result": []
  },
  {
    "postal": "M5M0B8",
    "result": []
  },
  {
    "postal": "M5M6R5",
    "result": []
  },
  {
    "postal": "M5M8W6",
    "result": []
  },
  {
    "postal": "M5M8G6",
    "result": []
  },
  {
    "postal": "M5M6X3",
    "result": []
  },
  {
    "postal": "M5M7R7",
    "result": []
  },
  {
    "postal": "M5M4B6",
    "result": [
      {
        "electoralDistricts": [
          {
            "election": null,
            "id": 25,
            "name": "Eglinton—Lawrence"
          }
        ],
        "pollDivisionIds": [
          10137893
        ],
        "postalCode": "M5M4B6",
        "streetName": "AVENUE",
        "streetDirectionId": null,
        "streetTypeId": "RD",
        "placeName": "NORTH YORK",
        "streetNameDisplayText": "AVENUE RD, NORTH YORK"
      }
    ]
  },
  {
    "postal": "M5M3P9",
    "result": [
      {
        "electoralDistricts": [
          {
            "election": null,
            "id": 25,
            "name": "Eglinton—Lawrence"
          }
        ],
        "pollDivisionIds": [
          10137894
        ],
        "postalCode": "M5M3P9",
        "streetName": "ESGORE",
        "streetDirectionId": null,
        "streetTypeId": "DR",
        "placeName": "NORTH YORK",
        "streetNameDisplayText": "ESGORE DR, NORTH YORK"
      }
    ]
  },
  {
    "postal": "M5M2T3",
    "result": [
      {
        "electoralDistricts": [
          {
            "election": null,
            "id": 25,
            "name": "Eglinton—Lawrence"
          }
        ],
        "pollDivisionIds": [
          10137895
        ],
        "postalCode": "M5M2T3",
        "streetName": "JOICEY",
        "streetDirectionId": null,
        "streetTypeId": "BLVD",
        "placeName": "NORTH YORK",
        "streetNameDisplayText": "JOICEY BLVD, NORTH YORK"
      }
    ]
  },
  {
    "postal": "M5M1M4",
    "result": [
      {
        "electoralDistricts": [
          {
            "election": null,
            "id": 25,
            "name": "Eglinton—Lawrence"
          }
        ],
        "pollDivisionIds": [
          10137903
        ],
        "postalCode": "M5M1M4",
        "streetName": "CRANBROOKE",
        "streetDirectionId": null,
        "streetTypeId": "AVE",
        "placeName": "TORONTO",
        "streetNameDisplayText": "CRANBROOKE AVE, TORONTO"
      }
    ]
  },
  {
    "postal": "M5M0H1",
    "result": []
  },
  {
    "postal": "M5M9W3",
    "result": []
  },
  {
    "postal": "M5M6P1",
    "result": []
  },
  {
    "postal": "M5M7G2",
    "result": []
  },
  {
    "postal": "M5M4J9",
    "result": [
      {
        "electoralDistricts": [
          {
            "election": null,
            "id": 25,
            "name": "Eglinton—Lawrence"
          }
        ],
        "pollDivisionIds": [
          10137896
        ],
        "postalCode": "M5M4J9",
        "streetName": "KEREVEN",
        "streetDirectionId": null,
        "streetTypeId": "ST",
        "placeName": "NORTH YORK",
        "streetNameDisplayText": "KEREVEN ST, NORTH YORK"
      }
    ]
  },
  {
    "postal": "M5M9E4",
    "result": []
  },
  {
    "postal": "M5M8H0",
    "result": []
  },
  {
    "postal": "M5M4M7",
    "result": [
      {
        "electoralDistricts": [
          {
            "election": null,
            "id": 25,
            "name": "Eglinton—Lawrence"
          }
        ],
        "pollDivisionIds": [
          10137892
        ],
        "postalCode": "M5M4M7",
        "streetName": "AVENUE",
        "streetDirectionId": null,
        "streetTypeId": "RD",
        "placeName": "NORTH YORK",
        "streetNameDisplayText": "AVENUE RD, NORTH YORK"
      }
    ]
  },
  {
    "postal": "M5M2G9",
    "result": [
      {
        "electoralDistricts": [
          {
            "election": null,
            "id": 25,
            "name": "Eglinton—Lawrence"
          }
        ],
        "pollDivisionIds": [
          10137896
        ],
        "postalCode": "M5M2G9",
        "streetName": "OLD ORCHARD",
        "streetDirectionId": null,
        "streetTypeId": "GROVE",
        "placeName": "NORTH YORK",
        "streetNameDisplayText": "OLD ORCHARD GROVE, NORTH YORK"
      }
    ]
  },
  {
    "postal": "M5M8T2",
    "result": []
  },
  {
    "postal": "M5M7G7",
    "result": []
  },
  {
    "postal": "M5M4Z3",
    "result": []
  },
  {
    "postal": "M5M5B3",
    "result": []
  },
  {
    "postal": "M5M1S7",
    "result": [
      {
        "electoralDistricts": [
          {
            "election": null,
            "id": 25,
            "name": "Eglinton—Lawrence"
          }
        ],
        "pollDivisionIds": [
          10137902
        ],
        "postalCode": "M5M1S7",
        "streetName": "FAIRLAWN",
        "streetDirectionId": null,
        "streetTypeId": "AVE",
        "placeName": "TORONTO",
        "streetNameDisplayText": "FAIRLAWN AVE, TORONTO"
      }
    ]
  },
  {
    "postal": "M5M2N7",
    "result": [
      {
        "electoralDistricts": [
          {
            "election": null,
            "id": 25,
            "name": "Eglinton—Lawrence"
          }
        ],
        "pollDivisionIds": [
          10137895
        ],
        "postalCode": "M5M2N7",
        "streetName": "HADDINGTON",
        "streetDirectionId": null,
        "streetTypeId": "AVE",
        "placeName": "NORTH YORK",
        "streetNameDisplayText": "HADDINGTON AVE, NORTH YORK"
      }
    ]
  },
  {
    "postal": "M5M0H8",
    "result": []
  },
  {
    "postal": "M5M7Z4",
    "result": []
  },
  {
    "postal": "M5M7B1",
    "result": []
  },
  {
    "postal": "M5M7P8",
    "result": []
  },
  {
    "postal": "M5M7N0",
    "result": []
  },
  {
    "postal": "M5M3Y5",
    "result": [
      {
        "electoralDistricts": [
          {
            "election": null,
            "id": 25,
            "name": "Eglinton—Lawrence"
          }
        ],
        "pollDivisionIds": [
          10137898
        ],
        "postalCode": "M5M3Y5",
        "streetName": "AVENUE",
        "streetDirectionId": null,
        "streetTypeId": "RD",
        "placeName": "NORTH YORK",
        "streetNameDisplayText": "AVENUE RD, NORTH YORK"
      }
    ]
  },
  {
    "postal": "M5M6K1",
    "result": []
  },
  {
    "postal": "M5M9X5",
    "result": []
  },
  {
    "postal": "M5M7S5",
    "result": []
  },
  {
    "postal": "M5M0A4",
    "result": [
      {
        "electoralDistricts": [
          {
            "election": null,
            "id": 25,
            "name": "Eglinton—Lawrence"
          }
        ],
        "pollDivisionIds": [
          10137898
        ],
        "postalCode": "M5M0A4",
        "streetName": "ST GERMAIN",
        "streetDirectionId": null,
        "streetTypeId": "AVE",
        "placeName": "TORONTO",
        "streetNameDisplayText": "ST GERMAIN AVE, TORONTO"
      }
    ]
  },
  {
    "postal": "M5M4T5",
    "result": []
  },
  {
    "postal": "M5M5K1",
    "result": []
  },
  {
    "postal": "M5M0Z9",
    "result": []
  },
  {
    "postal": "M5M7T2",
    "result": []
  },
  {
    "postal": "M5M1L5",
    "result": [
      {
        "electoralDistricts": [
          {
            "election": null,
            "id": 25,
            "name": "Eglinton—Lawrence"
          }
        ],
        "pollDivisionIds": [
          10137901
        ],
        "postalCode": "M5M1L5",
        "streetName": "LAWRENCE AVE WEST",
        "streetDirectionId": null,
        "streetTypeId": null,
        "placeName": "TORONTO",
        "streetNameDisplayText": "LAWRENCE AVE WEST, TORONTO"
      },
      {
        "electoralDistricts": [
          {
            "election": null,
            "id": 25,
            "name": "Eglinton—Lawrence"
          }
        ],
        "pollDivisionIds": [
          10137902
        ],
        "postalCode": "M5M1L5",
        "streetName": "WOBURN",
        "streetDirectionId": null,
        "streetTypeId": "AVE",
        "placeName": "NORTH YORK",
        "streetNameDisplayText": "WOBURN AVE, NORTH YORK"
      }
    ]
  },
  {
    "postal": "M5M3N5",
    "result": [
      {
        "electoralDistricts": [
          {
            "election": null,
            "id": 25,
            "name": "Eglinton—Lawrence"
          }
        ],
        "pollDivisionIds": [
          10137902
        ],
        "postalCode": "M5M3N5",
        "streetName": "GREER",
        "streetDirectionId": null,
        "streetTypeId": "RD",
        "placeName": "TORONTO",
        "streetNameDisplayText": "GREER RD, TORONTO"
      }
    ]
  },
  {
    "postal": "M5M6H4",
    "result": []
  },
  {
    "postal": "M5M5A5",
    "result": []
  },
  {
    "postal": "M5M3R9",
    "result": [
      {
        "electoralDistricts": [
          {
            "election": null,
            "id": 25,
            "name": "Eglinton—Lawrence"
          }
        ],
        "pollDivisionIds": [
          10137894
        ],
        "postalCode": "M5M3R9",
        "streetName": "ESGORE",
        "streetDirectionId": null,
        "streetTypeId": "DR",
        "placeName": "NORTH YORK",
        "streetNameDisplayText": "ESGORE DR, NORTH YORK"
      }
    ]
  },
  {
    "postal": "M5M7L8",
    "result": []
  },
  {
    "postal": "M5M6T6",
    "result": []
  },
  {
    "postal": "M5M7Y7",
    "result": []
  },
  {
    "postal": "M5M3M8",
    "result": []
  },
  {
    "postal": "M5M2E0",
    "result": []
  },
  {
    "postal": "M5M4B5",
    "result": []
  },
  {
    "postal": "M5M1J3",
    "result": [
      {
        "electoralDistricts": [
          {
            "election": null,
            "id": 25,
            "name": "Eglinton—Lawrence"
          }
        ],
        "pollDivisionIds": [
          10137902
        ],
        "postalCode": "M5M1J3",
        "streetName": "BEDFORD PARK",
        "streetDirectionId": null,
        "streetTypeId": "AVE",
        "placeName": "TORONTO",
        "streetNameDisplayText": "BEDFORD PARK AVE, TORONTO"
      }
    ]
  },
  {
    "postal": "M5M5S6",
    "result": []
  },
  {
    "postal": "M5M8P7",
    "result": []
  },
  {
    "postal": "M5M7S7",
    "result": []
  },
  {
    "postal": "M5M4C2",
    "result": [
      {
        "electoralDistricts": [
          {
            "election": null,
            "id": 25,
            "name": "Eglinton—Lawrence"
          }
        ],
        "pollDivisionIds": [
          10137893
        ],
        "postalCode": "M5M4C2",
        "streetName": "BIDEFORD",
        "streetDirectionId": null,
        "streetTypeId": "AVE",
        "placeName": "NORTH YORK",
        "streetNameDisplayText": "BIDEFORD AVE, NORTH YORK"
      }
    ]
  },
  {
    "postal": "M5M5Y0",
    "result": []
  },
  {
    "postal": "M5M2V7",
    "result": [
      {
        "electoralDistricts": [
          {
            "election": null,
            "id": 25,
            "name": "Eglinton—Lawrence"
          }
        ],
        "pollDivisionIds": [
          10137892
        ],
        "postalCode": "M5M2V7",
        "streetName": "JOICEY",
        "streetDirectionId": null,
        "streetTypeId": "BLVD",
        "placeName": "NORTH YORK",
        "streetNameDisplayText": "JOICEY BLVD, NORTH YORK"
      }
    ]
  },
  {
    "postal": "M5M8P5",
    "result": []
  },
  {
    "postal": "M5M5P5",
    "result": []
  },
  {
    "postal": "M5M5Z0",
    "result": []
  },
  {
    "postal": "M5M9B0",
    "result": []
  },
  {
    "postal": "M5M1L0",
    "result": []
  },
  {
    "postal": "M5M0B5",
    "result": []
  },
  {
    "postal": "M5M3L2",
    "result": [
      {
        "electoralDistricts": [
          {
            "election": null,
            "id": 25,
            "name": "Eglinton—Lawrence"
          }
        ],
        "pollDivisionIds": [
          10137895
        ],
        "postalCode": "M5M3L2",
        "streetName": "RIDLEY",
        "streetDirectionId": null,
        "streetTypeId": "BLVD",
        "placeName": "TORONTO",
        "streetNameDisplayText": "RIDLEY BLVD, TORONTO"
      }
    ]
  },
  {
    "postal": "M5M3B7",
    "result": [
      {
        "electoralDistricts": [
          {
            "election": null,
            "id": 25,
            "name": "Eglinton—Lawrence"
          }
        ],
        "pollDivisionIds": [
          10137893
        ],
        "postalCode": "M5M3B7",
        "streetName": "DELHI",
        "streetDirectionId": null,
        "streetTypeId": "AVE",
        "placeName": "NORTH YORK",
        "streetNameDisplayText": "DELHI AVE, NORTH YORK"
      }
    ]
  },
  {
    "postal": "M5M8L1",
    "result": []
  },
  {
    "postal": "M5M5M4",
    "result": []
  },
  {
    "postal": "M5M4G9",
    "result": [
      {
        "electoralDistricts": [
          {
            "election": null,
            "id": 25,
            "name": "Eglinton—Lawrence"
          }
        ],
        "pollDivisionIds": [
          10137891
        ],
        "postalCode": "M5M4G9",
        "streetName": "CLYDE",
        "streetDirectionId": null,
        "streetTypeId": "AVE",
        "placeName": "NORTH YORK",
        "streetNameDisplayText": "CLYDE AVE, NORTH YORK"
      }
    ]
  },
  {
    "postal": "M5M0P0",
    "result": []
  },
  {
    "postal": "M5M8G2",
    "result": []
  },
  {
    "postal": "M5M1V9",
    "result": [
      {
        "electoralDistricts": [
          {
            "election": null,
            "id": 25,
            "name": "Eglinton—Lawrence"
          }
        ],
        "pollDivisionIds": [
          10137902
        ],
        "postalCode": "M5M1V9",
        "streetName": "ST GERMAIN",
        "streetDirectionId": null,
        "streetTypeId": "AVE",
        "placeName": "TORONTO",
        "streetNameDisplayText": "ST GERMAIN AVE, TORONTO"
      }
    ]
  },
  {
    "postal": "M5M8N8",
    "result": []
  },
  {
    "postal": "M5M6S8",
    "result": []
  },
  {
    "postal": "M5M8H2",
    "result": []
  },
  {
    "postal": "M5M5R8",
    "result": []
  },
  {
    "postal": "M5M5L4",
    "result": []
  },
  {
    "postal": "M5M9E1",
    "result": []
  },
  {
    "postal": "M5M1C4",
    "result": [
      {
        "electoralDistricts": [
          {
            "election": null,
            "id": 25,
            "name": "Eglinton—Lawrence"
          }
        ],
        "pollDivisionIds": [
          10137900
        ],
        "postalCode": "M5M1C4",
        "streetName": "LAWRENCE",
        "streetDirectionId": "W",
        "streetTypeId": "AVE",
        "placeName": "NORTH YORK",
        "streetNameDisplayText": "LAWRENCE AVE W, NORTH YORK"
      }
    ]
  },
  {
    "postal": "M5M8W5",
    "result": []
  },
  {
    "postal": "M5M1Y4",
    "result": [
      {
        "electoralDistricts": [
          {
            "election": null,
            "id": 25,
            "name": "Eglinton—Lawrence"
          }
        ],
        "pollDivisionIds": [
          10137896
        ],
        "postalCode": "M5M1Y4",
        "streetName": "MARMION",
        "streetDirectionId": null,
        "streetTypeId": "AVE",
        "placeName": "NORTH YORK",
        "streetNameDisplayText": "MARMION AVE, NORTH YORK"
      }
    ]
  },
  {
    "postal": "M5M1C0",
    "result": []
  },
  {
    "postal": "M5M2J2",
    "result": [
      {
        "electoralDistricts": [
          {
            "election": null,
            "id": 25,
            "name": "Eglinton—Lawrence"
          }
        ],
        "pollDivisionIds": [
          10137897
        ],
        "postalCode": "M5M2J2",
        "streetName": "ROE",
        "streetDirectionId": null,
        "streetTypeId": "AVE",
        "placeName": "NORTH YORK",
        "streetNameDisplayText": "ROE AVE, NORTH YORK"
      }
    ]
  },
  {
    "postal": "M5M2J0",
    "result": []
  },
  {
    "postal": "M5M7A3",
    "result": []
  },
  {
    "postal": "M5M8M1",
    "result": []
  },
  {
    "postal": "M5M7T9",
    "result": []
  },
  {
    "postal": "M5M6C0",
    "result": []
  },
  {
    "postal": "M5M7X1",
    "result": []
  },
  {
    "postal": "M5M0G1",
    "result": []
  },
  {
    "postal": "M5M4X2",
    "result": []
  },
  {
    "postal": "M5M0N6",
    "result": []
  },
  {
    "postal": "M5M8E3",
    "result": []
  },
  {
    "postal": "M5M5S8",
    "result": []
  },
  {
    "postal": "M5M0R0",
    "result": []
  },
  {
    "postal": "M5M6J6",
    "result": []
  },
  {
    "postal": "M5M4B4",
    "result": [
      {
        "electoralDistricts": [
          {
            "election": null,
            "id": 25,
            "name": "Eglinton—Lawrence"
          }
        ],
        "pollDivisionIds": [
          10137893
        ],
        "postalCode": "M5M4B4",
        "streetName": "AVENUE",
        "streetDirectionId": null,
        "streetTypeId": "RD",
        "placeName": "NORTH YORK",
        "streetNameDisplayText": "AVENUE RD, NORTH YORK"
      }
    ]
  },
  {
    "postal": "M5M7E3",
    "result": []
  },
  {
    "postal": "M5M3N6",
    "result": [
      {
        "electoralDistricts": [
          {
            "election": null,
            "id": 25,
            "name": "Eglinton—Lawrence"
          }
        ],
        "pollDivisionIds": [
          10137902
        ],
        "postalCode": "M5M3N6",
        "streetName": "GREER",
        "streetDirectionId": null,
        "streetTypeId": "RD",
        "placeName": "TORONTO",
        "streetNameDisplayText": "GREER RD, TORONTO"
      }
    ]
  },
  {
    "postal": "M5M3X6",
    "result": [
      {
        "electoralDistricts": [
          {
            "election": null,
            "id": 25,
            "name": "Eglinton—Lawrence"
          }
        ],
        "pollDivisionIds": [
          10137901
        ],
        "postalCode": "M5M3X6",
        "streetName": "AVENUE",
        "streetDirectionId": null,
        "streetTypeId": "RD",
        "placeName": "NORTH YORK",
        "streetNameDisplayText": "AVENUE RD, NORTH YORK"
      }
    ]
  },
  {
    "postal": "M5M8L0",
    "result": []
  },
  {
    "postal": "M5M8N1",
    "result": []
  },
  {
    "postal": "M5M4J0",
    "result": []
  },
  {
    "postal": "M5M0X7",
    "result": []
  },
  {
    "postal": "M5M6S4",
    "result": []
  },
  {
    "postal": "M5M0Z0",
    "result": []
  },
  {
    "postal": "M5M9X8",
    "result": []
  },
  {
    "postal": "M5M3H3",
    "result": [
      {
        "electoralDistricts": [
          {
            "election": null,
            "id": 25,
            "name": "Eglinton—Lawrence"
          }
        ],
        "pollDivisionIds": [
          10137895
        ],
        "postalCode": "M5M3H3",
        "streetName": "YONGE",
        "streetDirectionId": null,
        "streetTypeId": "BLVD",
        "placeName": "NORTH YORK",
        "streetNameDisplayText": "YONGE BLVD, NORTH YORK"
      }
    ]
  },
  {
    "postal": "M5M7S2",
    "result": []
  },
  {
    "postal": "M5M3T3",
    "result": [
      {
        "electoralDistricts": [
          {
            "election": null,
            "id": 25,
            "name": "Eglinton—Lawrence"
          }
        ],
        "pollDivisionIds": [
          10137902
        ],
        "postalCode": "M5M3T3",
        "streetName": "ELM",
        "streetDirectionId": null,
        "streetTypeId": "RD",
        "placeName": "TORONTO",
        "streetNameDisplayText": "ELM RD, TORONTO"
      }
    ]
  },
  {
    "postal": "M5M9P3",
    "result": []
  },
  {
    "postal": "M5M4H8",
    "result": [
      {
        "electoralDistricts": [
          {
            "election": null,
            "id": 25,
            "name": "Eglinton—Lawrence"
          }
        ],
        "pollDivisionIds": [
          10137896
        ],
        "postalCode": "M5M4H8",
        "streetName": "LEDBURY",
        "streetDirectionId": null,
        "streetTypeId": "ST",
        "placeName": "NORTH YORK",
        "streetNameDisplayText": "LEDBURY ST, NORTH YORK"
      }
    ]
  },
  {
    "postal": "M5M6R1",
    "result": []
  },
  {
    "postal": "M5M1S0",
    "result": []
  },
  {
    "postal": "M5M3W8",
    "result": [
      {
        "electoralDistricts": [
          {
            "election": null,
            "id": 25,
            "name": "Eglinton—Lawrence"
          }
        ],
        "pollDivisionIds": [
          10137894
        ],
        "postalCode": "M5M3W8",
        "streetName": "ELM",
        "streetDirectionId": null,
        "streetTypeId": "RD",
        "placeName": "NORTH YORK",
        "streetNameDisplayText": "ELM RD, NORTH YORK"
      }
    ]
  },
  {
    "postal": "M5M4S3",
    "result": []
  },
  {
    "postal": "M5M1B6",
    "result": [
      {
        "electoralDistricts": [
          {
            "election": null,
            "id": 25,
            "name": "Eglinton—Lawrence"
          }
        ],
        "pollDivisionIds": [
          10137920
        ],
        "postalCode": "M5M1B6",
        "streetName": "LAWRENCE",
        "streetDirectionId": "W",
        "streetTypeId": "AVE",
        "placeName": "NORTH YORK",
        "streetNameDisplayText": "LAWRENCE AVE W, NORTH YORK"
      }
    ]
  },
  {
    "postal": "M5M8R3",
    "result": []
  },
  {
    "postal": "M5M4V9",
    "result": []
  },
  {
    "postal": "M5M9W4",
    "result": []
  },
  {
    "postal": "M5M3T4",
    "result": [
      {
        "electoralDistricts": [
          {
            "election": null,
            "id": 25,
            "name": "Eglinton—Lawrence"
          }
        ],
        "pollDivisionIds": [
          10137902
        ],
        "postalCode": "M5M3T4",
        "streetName": "ELM",
        "streetDirectionId": null,
        "streetTypeId": "RD",
        "placeName": "TORONTO",
        "streetNameDisplayText": "ELM RD, TORONTO"
      }
    ]
  },
  {
    "postal": "M5M5C7",
    "result": []
  },
  {
    "postal": "M5M3Y1",
    "result": [
      {
        "electoralDistricts": [
          {
            "election": null,
            "id": 25,
            "name": "Eglinton—Lawrence"
          }
        ],
        "pollDivisionIds": [
          10137898
        ],
        "postalCode": "M5M3Y1",
        "streetName": "AVENUE",
        "streetDirectionId": null,
        "streetTypeId": "RD",
        "placeName": "NORTH YORK",
        "streetNameDisplayText": "AVENUE RD, NORTH YORK"
      }
    ]
  },
  {
    "postal": "M5M5V0",
    "result": []
  },
  {
    "postal": "M5M8G8",
    "result": []
  },
  {
    "postal": "M5M8B1",
    "result": []
  },
  {
    "postal": "M5M4P5",
    "result": []
  },
  {
    "postal": "M5M7B2",
    "result": []
  },
  {
    "postal": "M5M0R2",
    "result": []
  },
  {
    "postal": "M5M4M4",
    "result": [
      {
        "electoralDistricts": [
          {
            "election": null,
            "id": 25,
            "name": "Eglinton—Lawrence"
          }
        ],
        "pollDivisionIds": [
          10137901
        ],
        "postalCode": "M5M4M4",
        "streetName": "SYLVAN VALLEYWAY",
        "streetDirectionId": null,
        "streetTypeId": null,
        "placeName": "NORTH YORK",
        "streetNameDisplayText": "SYLVAN VALLEYWAY, NORTH YORK"
      }
    ]
  },
  {
    "postal": "M5M7M4",
    "result": []
  },
  {
    "postal": "M5M9S7",
    "result": []
  },
  {
    "postal": "M5M5Z7",
    "result": []
  },
  {
    "postal": "M5M7J7",
    "result": []
  },
  {
    "postal": "M5M8R8",
    "result": []
  },
  {
    "postal": "M5M9X1",
    "result": []
  },
  {
    "postal": "M5M5M9",
    "result": []
  },
  {
    "postal": "M5M9B4",
    "result": []
  },
  {
    "postal": "M5M0L9",
    "result": []
  },
  {
    "postal": "M5M9G4",
    "result": []
  },
  {
    "postal": "M5M1J4",
    "result": [
      {
        "electoralDistricts": [
          {
            "election": null,
            "id": 25,
            "name": "Eglinton—Lawrence"
          }
        ],
        "pollDivisionIds": [
          10137902
        ],
        "postalCode": "M5M1J4",
        "streetName": "BEDFORD PARK",
        "streetDirectionId": null,
        "streetTypeId": "AVE",
        "placeName": "TORONTO",
        "streetNameDisplayText": "BEDFORD PARK AVE, TORONTO"
      }
    ]
  },
  {
    "postal": "M5M0W6",
    "result": []
  }
]
