[
  {
    "postal": "L6K9J6",
    "result": []
  },
  {
    "postal": "L6K9Z5",
    "result": []
  },
  {
    "postal": "L6K7H8",
    "result": []
  },
  {
    "postal": "L6K0P6",
    "result": []
  },
  {
    "postal": "L6K0S7",
    "result": []
  },
  {
    "postal": "L6K8B9",
    "result": []
  },
  {
    "postal": "L6K2A6",
    "result": [
      {
        "electoralDistricts": [
          {
            "election": null,
            "id": 74,
            "name": "Oakville"
          }
        ],
        "pollDivisionIds": [
          10140357
        ],
        "postalCode": "L6K2A6",
        "streetName": "ELMWOOD",
        "streetDirectionId": null,
        "streetTypeId": "RD",
        "placeName": "OAKVILLE",
        "streetNameDisplayText": "ELMWOOD RD, OAKVILLE"
      }
    ]
  },
  {
    "postal": "L6K7V2",
    "result": []
  },
  {
    "postal": "L6K9P4",
    "result": []
  },
  {
    "postal": "L6K6G0",
    "result": []
  },
  {
    "postal": "L6K2K0",
    "result": []
  },
  {
    "postal": "L6K7N6",
    "result": []
  },
  {
    "postal": "L6K5R3",
    "result": []
  },
  {
    "postal": "L6K7K0",
    "result": []
  },
  {
    "postal": "L6K3R2",
    "result": [
      {
        "electoralDistricts": [
          {
            "election": null,
            "id": 74,
            "name": "Oakville"
          }
        ],
        "pollDivisionIds": [
          10140356
        ],
        "postalCode": "L6K3R2",
        "streetName": "ULRIC",
        "streetDirectionId": null,
        "streetTypeId": "CRES",
        "placeName": "OAKVILLE",
        "streetNameDisplayText": "ULRIC CRES, OAKVILLE"
      }
    ]
  },
  {
    "postal": "L6K0J1",
    "result": [
      {
        "electoralDistricts": [
          {
            "election": null,
            "id": 74,
            "name": "Oakville"
          }
        ],
        "pollDivisionIds": [
          10140383
        ],
        "postalCode": "L6K0J1",
        "streetName": "SPEERS",
        "streetDirectionId": null,
        "streetTypeId": "RD",
        "placeName": "OAKVILLE",
        "streetNameDisplayText": "SPEERS RD, OAKVILLE"
      }
    ]
  },
  {
    "postal": "L6K0B0",
    "result": []
  },
  {
    "postal": "L6K5Z2",
    "result": []
  },
  {
    "postal": "L6K7P3",
    "result": []
  },
  {
    "postal": "L6K2K3",
    "result": [
      {
        "electoralDistricts": [
          {
            "election": null,
            "id": 74,
            "name": "Oakville"
          }
        ],
        "pollDivisionIds": [
          10140356
        ],
        "postalCode": "L6K2K3",
        "streetName": "BURTON",
        "streetDirectionId": null,
        "streetTypeId": "RD",
        "placeName": "OAKVILLE",
        "streetNameDisplayText": "BURTON RD, OAKVILLE"
      }
    ]
  },
  {
    "postal": "L6K7Y6",
    "result": []
  },
  {
    "postal": "L6K1L9",
    "result": [
      {
        "electoralDistricts": [
          {
            "election": null,
            "id": 74,
            "name": "Oakville"
          }
        ],
        "pollDivisionIds": [
          10140356
        ],
        "postalCode": "L6K1L9",
        "streetName": "PATRICIA",
        "streetDirectionId": null,
        "streetTypeId": "DR",
        "placeName": "OAKVILLE",
        "streetNameDisplayText": "PATRICIA DR, OAKVILLE"
      }
    ]
  },
  {
    "postal": "L6K8T0",
    "result": []
  },
  {
    "postal": "L6K3K8",
    "result": [
      {
        "electoralDistricts": [
          {
            "election": null,
            "id": 74,
            "name": "Oakville"
          }
        ],
        "pollDivisionIds": [
          10140359
        ],
        "postalCode": "L6K3K8",
        "streetName": "QUEEN MARY",
        "streetDirectionId": null,
        "streetTypeId": "DR",
        "placeName": "OAKVILLE",
        "streetNameDisplayText": "QUEEN MARY DR, OAKVILLE"
      }
    ]
  },
  {
    "postal": "L6K5W9",
    "result": []
  },
  {
    "postal": "L6K6T9",
    "result": []
  },
  {
    "postal": "L6K4H1",
    "result": []
  },
  {
    "postal": "L6K7A2",
    "result": []
  },
  {
    "postal": "L6K5G0",
    "result": []
  },
  {
    "postal": "L6K8V5",
    "result": []
  },
  {
    "postal": "L6K2Y8",
    "result": [
      {
        "electoralDistricts": [
          {
            "election": null,
            "id": 74,
            "name": "Oakville"
          }
        ],
        "pollDivisionIds": [
          10140359
        ],
        "postalCode": "L6K2Y8",
        "streetName": "BROOKFIELD",
        "streetDirectionId": null,
        "streetTypeId": "RD",
        "placeName": "OAKVILLE",
        "streetNameDisplayText": "BROOKFIELD RD, OAKVILLE"
      }
    ]
  },
  {
    "postal": "L6K2B6",
    "result": [
      {
        "electoralDistricts": [
          {
            "election": null,
            "id": 74,
            "name": "Oakville"
          }
        ],
        "pollDivisionIds": [
          10140356
        ],
        "postalCode": "L6K2B6",
        "streetName": "PINEGROVE",
        "streetDirectionId": null,
        "streetTypeId": "RD",
        "placeName": "OAKVILLE",
        "streetNameDisplayText": "PINEGROVE RD, OAKVILLE"
      }
    ]
  },
  {
    "postal": "L6K4W8",
    "result": []
  },
  {
    "postal": "L6K8H7",
    "result": []
  },
  {
    "postal": "L6K5P1",
    "result": []
  },
  {
    "postal": "L6K2B8",
    "result": [
      {
        "electoralDistricts": [
          {
            "election": null,
            "id": 74,
            "name": "Oakville"
          }
        ],
        "pollDivisionIds": [
          10140356
        ],
        "postalCode": "L6K2B8",
        "streetName": "PINEGROVE",
        "streetDirectionId": null,
        "streetTypeId": "RD",
        "placeName": "OAKVILLE",
        "streetNameDisplayText": "PINEGROVE RD, OAKVILLE"
      }
    ]
  },
  {
    "postal": "L6K0P2",
    "result": []
  },
  {
    "postal": "L6K9M1",
    "result": []
  },
  {
    "postal": "L6K3G0",
    "result": []
  },
  {
    "postal": "L6K9Z2",
    "result": []
  },
  {
    "postal": "L6K2A0",
    "result": []
  },
  {
    "postal": "L6K6Y0",
    "result": []
  },
  {
    "postal": "L6K2Z8",
    "result": [
      {
        "electoralDistricts": [
          {
            "election": null,
            "id": 74,
            "name": "Oakville"
          }
        ],
        "pollDivisionIds": [
          10140359
        ],
        "postalCode": "L6K2Z8",
        "streetName": "BRANT",
        "streetDirectionId": null,
        "streetTypeId": "ST",
        "placeName": "OAKVILLE",
        "streetNameDisplayText": "BRANT ST, OAKVILLE"
      }
    ]
  },
  {
    "postal": "L6K7Y3",
    "result": []
  },
  {
    "postal": "L6K6Z5",
    "result": []
  },
  {
    "postal": "L6K6E0",
    "result": []
  },
  {
    "postal": "L6K9B7",
    "result": []
  },
  {
    "postal": "L6K9S5",
    "result": []
  },
  {
    "postal": "L6K3X3",
    "result": [
      {
        "electoralDistricts": [
          {
            "election": null,
            "id": 74,
            "name": "Oakville"
          }
        ],
        "pollDivisionIds": [
          10140357
        ],
        "postalCode": "L6K3X3",
        "streetName": "PRINCE CHARLES",
        "streetDirectionId": null,
        "streetTypeId": "DR",
        "placeName": "OAKVILLE",
        "streetNameDisplayText": "PRINCE CHARLES DR, OAKVILLE"
      }
    ]
  },
  {
    "postal": "L6K7R5",
    "result": []
  },
  {
    "postal": "L6K2X3",
    "result": [
      {
        "electoralDistricts": [
          {
            "election": null,
            "id": 74,
            "name": "Oakville"
          }
        ],
        "pollDivisionIds": [
          10140357
        ],
        "postalCode": "L6K2X3",
        "streetName": "MAURICE",
        "streetDirectionId": null,
        "streetTypeId": "DR",
        "placeName": "OAKVILLE",
        "streetNameDisplayText": "MAURICE DR, OAKVILLE"
      }
    ]
  },
  {
    "postal": "L6K8Z9",
    "result": []
  },
  {
    "postal": "L6K0N4",
    "result": []
  },
  {
    "postal": "L6K1K1",
    "result": []
  },
  {
    "postal": "L6K1S3",
    "result": [
      {
        "electoralDistricts": [
          {
            "election": null,
            "id": 74,
            "name": "Oakville"
          }
        ],
        "pollDivisionIds": [
          10140357
        ],
        "postalCode": "L6K1S3",
        "streetName": "HERALD",
        "streetDirectionId": null,
        "streetTypeId": "AVE",
        "placeName": "OAKVILLE",
        "streetNameDisplayText": "HERALD AVE, OAKVILLE"
      }
    ]
  },
  {
    "postal": "L6K6M4",
    "result": []
  },
  {
    "postal": "L6K9A9",
    "result": []
  },
  {
    "postal": "L6K9Z9",
    "result": []
  },
  {
    "postal": "L6K6T4",
    "result": []
  },
  {
    "postal": "L6K0B2",
    "result": []
  },
  {
    "postal": "L6K2L9",
    "result": [
      {
        "electoralDistricts": [
          {
            "election": null,
            "id": 74,
            "name": "Oakville"
          }
        ],
        "pollDivisionIds": [
          10140356
        ],
        "postalCode": "L6K2L9",
        "streetName": "WENDALL",
        "streetDirectionId": null,
        "streetTypeId": "PL",
        "placeName": "OAKVILLE",
        "streetNameDisplayText": "WENDALL PL, OAKVILLE"
      }
    ]
  },
  {
    "postal": "L6K8K9",
    "result": []
  },
  {
    "postal": "L6K2H9",
    "result": [
      {
        "electoralDistricts": [
          {
            "election": null,
            "id": 74,
            "name": "Oakville"
          }
        ],
        "pollDivisionIds": [
          10140355
        ],
        "postalCode": "L6K2H9",
        "streetName": "WELDON",
        "streetDirectionId": null,
        "streetTypeId": "AVE",
        "placeName": "OAKVILLE",
        "streetNameDisplayText": "WELDON AVE, OAKVILLE"
      }
    ]
  },
  {
    "postal": "L6K3Z6",
    "result": []
  },
  {
    "postal": "L6K3B0",
    "result": []
  },
  {
    "postal": "L6K2H8",
    "result": [
      {
        "electoralDistricts": [
          {
            "election": null,
            "id": 74,
            "name": "Oakville"
          }
        ],
        "pollDivisionIds": [
          10140355
        ],
        "postalCode": "L6K2H8",
        "streetName": "WELDON",
        "streetDirectionId": null,
        "streetTypeId": "AVE",
        "placeName": "OAKVILLE",
        "streetNameDisplayText": "WELDON AVE, OAKVILLE"
      }
    ]
  },
  {
    "postal": "L6K3X2",
    "result": []
  },
  {
    "postal": "L6K2E9",
    "result": [
      {
        "electoralDistricts": [
          {
            "election": null,
            "id": 74,
            "name": "Oakville"
          }
        ],
        "pollDivisionIds": [
          10140357
        ],
        "postalCode": "L6K2E9",
        "streetName": "SPEERS",
        "streetDirectionId": null,
        "streetTypeId": "RD",
        "placeName": "OAKVILLE",
        "streetNameDisplayText": "SPEERS RD, OAKVILLE"
      }
    ]
  },
  {
    "postal": "L6K9P6",
    "result": []
  },
  {
    "postal": "L6K9E2",
    "result": []
  },
  {
    "postal": "L6K9H2",
    "result": []
  },
  {
    "postal": "L6K1S8",
    "result": [
      {
        "electoralDistricts": [
          {
            "election": null,
            "id": 74,
            "name": "Oakville"
          }
        ],
        "pollDivisionIds": [
          10140359
        ],
        "postalCode": "L6K1S8",
        "streetName": "HIGHLAND",
        "streetDirectionId": null,
        "streetTypeId": "RD",
        "placeName": "OAKVILLE",
        "streetNameDisplayText": "HIGHLAND RD, OAKVILLE"
      }
    ]
  },
  {
    "postal": "L6K3M6",
    "result": [
      {
        "electoralDistricts": [
          {
            "election": null,
            "id": 74,
            "name": "Oakville"
          }
        ],
        "pollDivisionIds": [
          10140359
        ],
        "postalCode": "L6K3M6",
        "streetName": "CAROLYN",
        "streetDirectionId": null,
        "streetTypeId": "DR",
        "placeName": "OAKVILLE",
        "streetNameDisplayText": "CAROLYN DR, OAKVILLE"
      }
    ]
  },
  {
    "postal": "L6K6Z8",
    "result": []
  },
  {
    "postal": "L6K4J2",
    "result": []
  },
  {
    "postal": "L6K9Y1",
    "result": []
  },
  {
    "postal": "L6K8V6",
    "result": []
  },
  {
    "postal": "L6K6B2",
    "result": []
  },
  {
    "postal": "L6K1P8",
    "result": [
      {
        "electoralDistricts": [
          {
            "election": null,
            "id": 74,
            "name": "Oakville"
          }
        ],
        "pollDivisionIds": [
          10140355
        ],
        "postalCode": "L6K1P8",
        "streetName": "PARKSIDE",
        "streetDirectionId": null,
        "streetTypeId": "DR",
        "placeName": "OAKVILLE",
        "streetNameDisplayText": "PARKSIDE DR, OAKVILLE"
      }
    ]
  },
  {
    "postal": "L6K0V8",
    "result": []
  },
  {
    "postal": "L6K4Y0",
    "result": []
  },
  {
    "postal": "L6K2T4",
    "result": [
      {
        "electoralDistricts": [
          {
            "election": null,
            "id": 74,
            "name": "Oakville"
          }
        ],
        "pollDivisionIds": [
          10140356
        ],
        "postalCode": "L6K2T4",
        "streetName": "MORDEN",
        "streetDirectionId": null,
        "streetTypeId": "RD",
        "placeName": "OAKVILLE",
        "streetNameDisplayText": "MORDEN RD, OAKVILLE"
      }
    ]
  },
  {
    "postal": "L6K2S3",
    "result": [
      {
        "electoralDistricts": [
          {
            "election": null,
            "id": 74,
            "name": "Oakville"
          }
        ],
        "pollDivisionIds": [
          10140356
        ],
        "postalCode": "L6K2S3",
        "streetName": "MORDEN",
        "streetDirectionId": null,
        "streetTypeId": "RD",
        "placeName": "OAKVILLE",
        "streetNameDisplayText": "MORDEN RD, OAKVILLE"
      }
    ]
  },
  {
    "postal": "L6K0K0",
    "result": []
  },
  {
    "postal": "L6K5N1",
    "result": []
  },
  {
    "postal": "L6K7T0",
    "result": []
  },
  {
    "postal": "L6K9N2",
    "result": []
  },
  {
    "postal": "L6K5L1",
    "result": []
  },
  {
    "postal": "L6K7G5",
    "result": []
  },
  {
    "postal": "L6K6K2",
    "result": []
  },
  {
    "postal": "L6K6P9",
    "result": []
  },
  {
    "postal": "L6K0E6",
    "result": []
  },
  {
    "postal": "L6K8R9",
    "result": []
  },
  {
    "postal": "L6K3G9",
    "result": [
      {
        "electoralDistricts": [
          {
            "election": null,
            "id": 74,
            "name": "Oakville"
          }
        ],
        "pollDivisionIds": [
          10140359
        ],
        "postalCode": "L6K3G9",
        "streetName": "WILSON",
        "streetDirectionId": null,
        "streetTypeId": "ST",
        "placeName": "OAKVILLE",
        "streetNameDisplayText": "WILSON ST, OAKVILLE"
      }
    ]
  },
  {
    "postal": "L6K0V7",
    "result": []
  },
  {
    "postal": "L6K2Z1",
    "result": [
      {
        "electoralDistricts": [
          {
            "election": null,
            "id": 74,
            "name": "Oakville"
          }
        ],
        "pollDivisionIds": [
          10140359
        ],
        "postalCode": "L6K2Z1",
        "streetName": "BROCK",
        "streetDirectionId": null,
        "streetTypeId": "ST",
        "placeName": "OAKVILLE",
        "streetNameDisplayText": "BROCK ST, OAKVILLE"
      }
    ]
  },
  {
    "postal": "L6K7N1",
    "result": []
  },
  {
    "postal": "L6K3C6",
    "result": [
      {
        "electoralDistricts": [
          {
            "election": null,
            "id": 74,
            "name": "Oakville"
          }
        ],
        "pollDivisionIds": [
          10140358
        ],
        "postalCode": "L6K3C6",
        "streetName": "KERR",
        "streetDirectionId": null,
        "streetTypeId": "ST",
        "placeName": "OAKVILLE",
        "streetNameDisplayText": "KERR ST, OAKVILLE"
      }
    ]
  },
  {
    "postal": "L6K4M1",
    "result": []
  },
  {
    "postal": "L6K9K2",
    "result": []
  },
  {
    "postal": "L6K9S6",
    "result": []
  },
  {
    "postal": "L6K4X1",
    "result": []
  },
  {
    "postal": "L6K8W2",
    "result": []
  },
  {
    "postal": "L6K7N2",
    "result": []
  },
  {
    "postal": "L6K8S3",
    "result": []
  },
  {
    "postal": "L6K4V0",
    "result": []
  },
  {
    "postal": "L6K6W4",
    "result": []
  },
  {
    "postal": "L6K5M1",
    "result": []
  },
  {
    "postal": "L6K0S4",
    "result": []
  },
  {
    "postal": "L6K5X6",
    "result": []
  },
  {
    "postal": "L6K8L5",
    "result": []
  },
  {
    "postal": "L6K5M8",
    "result": []
  },
  {
    "postal": "L6K2G3",
    "result": [
      {
        "electoralDistricts": [
          {
            "election": null,
            "id": 74,
            "name": "Oakville"
          }
        ],
        "pollDivisionIds": [
          10140356
        ],
        "postalCode": "L6K2G3",
        "streetName": "SPEERS",
        "streetDirectionId": null,
        "streetTypeId": "RD",
        "placeName": "OAKVILLE",
        "streetNameDisplayText": "SPEERS RD, OAKVILLE"
      }
    ]
  },
  {
    "postal": "L6K8E4",
    "result": []
  },
  {
    "postal": "L6K7S9",
    "result": []
  },
  {
    "postal": "L6K1K3",
    "result": [
      {
        "electoralDistricts": [
          {
            "election": null,
            "id": 74,
            "name": "Oakville"
          }
        ],
        "pollDivisionIds": [
          10140356,
          10140357
        ],
        "postalCode": "L6K1K3",
        "streetName": "REBECCA",
        "streetDirectionId": null,
        "streetTypeId": "ST",
        "placeName": "OAKVILLE",
        "streetNameDisplayText": "REBECCA ST, OAKVILLE"
      }
    ]
  },
  {
    "postal": "L6K4E1",
    "result": []
  },
  {
    "postal": "L6K4R2",
    "result": []
  },
  {
    "postal": "L6K6T0",
    "result": []
  },
  {
    "postal": "L6K3K5",
    "result": [
      {
        "electoralDistricts": [
          {
            "election": null,
            "id": 74,
            "name": "Oakville"
          }
        ],
        "pollDivisionIds": [
          10140359
        ],
        "postalCode": "L6K3K5",
        "streetName": "FORSYTHE",
        "streetDirectionId": null,
        "streetTypeId": "ST",
        "placeName": "OAKVILLE",
        "streetNameDisplayText": "FORSYTHE ST, OAKVILLE"
      }
    ]
  },
  {
    "postal": "L6K3S3",
    "result": [
      {
        "electoralDistricts": [
          {
            "election": null,
            "id": 74,
            "name": "Oakville"
          }
        ],
        "pollDivisionIds": [
          10140357
        ],
        "postalCode": "L6K3S3",
        "streetName": "WYECROFT",
        "streetDirectionId": null,
        "streetTypeId": "RD",
        "placeName": "OAKVILLE",
        "streetNameDisplayText": "WYECROFT RD, OAKVILLE"
      }
    ]
  },
  {
    "postal": "L6K3L4",
    "result": [
      {
        "electoralDistricts": [
          {
            "election": null,
            "id": 74,
            "name": "Oakville"
          }
        ],
        "pollDivisionIds": [
          10140359
        ],
        "postalCode": "L6K3L4",
        "streetName": "QUEEN MARY",
        "streetDirectionId": null,
        "streetTypeId": "DR",
        "placeName": "OAKVILLE",
        "streetNameDisplayText": "QUEEN MARY DR, OAKVILLE"
      }
    ]
  },
  {
    "postal": "L6K9Y2",
    "result": []
  },
  {
    "postal": "L6K1E0",
    "result": []
  },
  {
    "postal": "L6K9A4",
    "result": []
  },
  {
    "postal": "L6K1L3",
    "result": [
      {
        "electoralDistricts": [
          {
            "election": null,
            "id": 74,
            "name": "Oakville"
          }
        ],
        "pollDivisionIds": [
          10140359
        ],
        "postalCode": "L6K1L3",
        "streetName": "HEAD",
        "streetDirectionId": null,
        "streetTypeId": "ST",
        "placeName": "OAKVILLE",
        "streetNameDisplayText": "HEAD ST, OAKVILLE"
      }
    ]
  },
  {
    "postal": "L6K6N1",
    "result": []
  },
  {
    "postal": "L6K6G7",
    "result": []
  },
  {
    "postal": "L6K7W1",
    "result": []
  },
  {
    "postal": "L6K4M6",
    "result": []
  },
  {
    "postal": "L6K1K0",
    "result": []
  },
  {
    "postal": "L6K3E2",
    "result": [
      {
        "electoralDistricts": [
          {
            "election": null,
            "id": 74,
            "name": "Oakville"
          }
        ],
        "pollDivisionIds": [
          10140358
        ],
        "postalCode": "L6K3E2",
        "streetName": "KERR",
        "streetDirectionId": null,
        "streetTypeId": "ST",
        "placeName": "OAKVILLE",
        "streetNameDisplayText": "KERR ST, OAKVILLE"
      }
    ]
  },
  {
    "postal": "L6K5H4",
    "result": []
  },
  {
    "postal": "L6K1K7",
    "result": [
      {
        "electoralDistricts": [
          {
            "election": null,
            "id": 74,
            "name": "Oakville"
          }
        ],
        "pollDivisionIds": [
          10140356
        ],
        "postalCode": "L6K1K7",
        "streetName": "REBECCA",
        "streetDirectionId": null,
        "streetTypeId": "ST",
        "placeName": "OAKVILLE",
        "streetNameDisplayText": "REBECCA ST, OAKVILLE"
      }
    ]
  },
  {
    "postal": "L6K0H0",
    "result": []
  },
  {
    "postal": "L6K0J3",
    "result": []
  },
  {
    "postal": "L6K1X6",
    "result": [
      {
        "electoralDistricts": [
          {
            "election": null,
            "id": 74,
            "name": "Oakville"
          }
        ],
        "pollDivisionIds": [
          10140358
        ],
        "postalCode": "L6K1X6",
        "streetName": "STEWART",
        "streetDirectionId": null,
        "streetTypeId": "ST",
        "placeName": "OAKVILLE",
        "streetNameDisplayText": "STEWART ST, OAKVILLE"
      }
    ]
  },
  {
    "postal": "L6K2Z6",
    "result": [
      {
        "electoralDistricts": [
          {
            "election": null,
            "id": 74,
            "name": "Oakville"
          }
        ],
        "pollDivisionIds": [
          10140359
        ],
        "postalCode": "L6K2Z6",
        "streetName": "BRANT",
        "streetDirectionId": null,
        "streetTypeId": "ST",
        "placeName": "OAKVILLE",
        "streetNameDisplayText": "BRANT ST, OAKVILLE"
      }
    ]
  },
  {
    "postal": "L6K4R9",
    "result": []
  },
  {
    "postal": "L6K0W8",
    "result": []
  },
  {
    "postal": "L6K1L4",
    "result": [
      {
        "electoralDistricts": [
          {
            "election": null,
            "id": 74,
            "name": "Oakville"
          }
        ],
        "pollDivisionIds": [
          10140359
        ],
        "postalCode": "L6K1L4",
        "streetName": "HEAD",
        "streetDirectionId": null,
        "streetTypeId": "ST",
        "placeName": "OAKVILLE",
        "streetNameDisplayText": "HEAD ST, OAKVILLE"
      }
    ]
  },
  {
    "postal": "L6K0C8",
    "result": []
  },
  {
    "postal": "L6K9X7",
    "result": []
  },
  {
    "postal": "L6K4T1",
    "result": []
  },
  {
    "postal": "L6K0M0",
    "result": []
  },
  {
    "postal": "L6K6A2",
    "result": []
  },
  {
    "postal": "L6K9S8",
    "result": []
  },
  {
    "postal": "L6K9T4",
    "result": []
  },
  {
    "postal": "L6K9Y4",
    "result": []
  },
  {
    "postal": "L6K6G5",
    "result": []
  },
  {
    "postal": "L6K6H9",
    "result": []
  },
  {
    "postal": "L6K2P3",
    "result": [
      {
        "electoralDistricts": [
          {
            "election": null,
            "id": 74,
            "name": "Oakville"
          }
        ],
        "pollDivisionIds": [
          10140356
        ],
        "postalCode": "L6K2P3",
        "streetName": "SOUTHVIEW",
        "streetDirectionId": null,
        "streetTypeId": "RD",
        "placeName": "OAKVILLE",
        "streetNameDisplayText": "SOUTHVIEW RD, OAKVILLE"
      }
    ]
  },
  {
    "postal": "L6K1T6",
    "result": [
      {
        "electoralDistricts": [
          {
            "election": null,
            "id": 74,
            "name": "Oakville"
          }
        ],
        "pollDivisionIds": [
          10140356
        ],
        "postalCode": "L6K1T6",
        "streetName": "WILDWOOD",
        "streetDirectionId": null,
        "streetTypeId": "DR",
        "placeName": "OAKVILLE",
        "streetNameDisplayText": "WILDWOOD DR, OAKVILLE"
      }
    ]
  },
  {
    "postal": "L6K4P6",
    "result": []
  },
  {
    "postal": "L6K3K1",
    "result": [
      {
        "electoralDistricts": [
          {
            "election": null,
            "id": 74,
            "name": "Oakville"
          }
        ],
        "pollDivisionIds": [
          10140359
        ],
        "postalCode": "L6K3K1",
        "streetName": "FORSYTHE",
        "streetDirectionId": null,
        "streetTypeId": "ST",
        "placeName": "OAKVILLE",
        "streetNameDisplayText": "FORSYTHE ST, OAKVILLE"
      }
    ]
  },
  {
    "postal": "L6K6X4",
    "result": []
  },
  {
    "postal": "L6K4M8",
    "result": []
  },
  {
    "postal": "L6K2Y1",
    "result": []
  },
  {
    "postal": "L6K6M1",
    "result": []
  },
  {
    "postal": "L6K5L8",
    "result": []
  },
  {
    "postal": "L6K3P6",
    "result": [
      {
        "electoralDistricts": [
          {
            "election": null,
            "id": 74,
            "name": "Oakville"
          }
        ],
        "pollDivisionIds": [
          10140356
        ],
        "postalCode": "L6K3P6",
        "streetName": "MARY",
        "streetDirectionId": null,
        "streetTypeId": "ST",
        "placeName": "OAKVILLE",
        "streetNameDisplayText": "MARY ST, OAKVILLE"
      }
    ]
  },
  {
    "postal": "L6K9A5",
    "result": []
  },
  {
    "postal": "L6K7K1",
    "result": []
  },
  {
    "postal": "L6K3J4",
    "result": [
      {
        "electoralDistricts": [
          {
            "election": null,
            "id": 74,
            "name": "Oakville"
          }
        ],
        "pollDivisionIds": [
          10140359
        ],
        "postalCode": "L6K3J4",
        "streetName": "CHISHOLM",
        "streetDirectionId": null,
        "streetTypeId": "ST",
        "placeName": "OAKVILLE",
        "streetNameDisplayText": "CHISHOLM ST, OAKVILLE"
      }
    ]
  },
  {
    "postal": "L6K5E7",
    "result": []
  },
  {
    "postal": "L6K3A7",
    "result": [
      {
        "electoralDistricts": [
          {
            "election": null,
            "id": 74,
            "name": "Oakville"
          }
        ],
        "pollDivisionIds": [
          10140359
        ],
        "postalCode": "L6K3A7",
        "streetName": "KERR",
        "streetDirectionId": null,
        "streetTypeId": "ST",
        "placeName": "OAKVILLE",
        "streetNameDisplayText": "KERR ST, OAKVILLE"
      }
    ]
  },
  {
    "postal": "L6K1B9",
    "result": [
      {
        "electoralDistricts": [
          {
            "election": null,
            "id": 74,
            "name": "Oakville"
          }
        ],
        "pollDivisionIds": [
          10140359
        ],
        "postalCode": "L6K1B9",
        "streetName": "BURNET",
        "streetDirectionId": null,
        "streetTypeId": "ST",
        "placeName": "OAKVILLE",
        "streetNameDisplayText": "BURNET ST, OAKVILLE"
      }
    ]
  },
  {
    "postal": "L6K9E8",
    "result": []
  },
  {
    "postal": "L6K1C9",
    "result": [
      {
        "electoralDistricts": [
          {
            "election": null,
            "id": 74,
            "name": "Oakville"
          }
        ],
        "pollDivisionIds": [
          10140359
        ],
        "postalCode": "L6K1C9",
        "streetName": "LAKESHORE",
        "streetDirectionId": "W",
        "streetTypeId": "RD",
        "placeName": "OAKVILLE",
        "streetNameDisplayText": "LAKESHORE RD W, OAKVILLE"
      },
      {
        "electoralDistricts": [
          {
            "election": null,
            "id": 74,
            "name": "Oakville"
          }
        ],
        "pollDivisionIds": [
          10140359
        ],
        "postalCode": "L6K1C9",
        "streetName": "LAKESHORE RD. W.",
        "streetDirectionId": "W",
        "streetTypeId": "RD",
        "placeName": "OAKVILLE",
        "streetNameDisplayText": "LAKESHORE RD. W. RD W, OAKVILLE"
      }
    ]
  },
  {
    "postal": "L6K3B5",
    "result": [
      {
        "electoralDistricts": [
          {
            "election": null,
            "id": 74,
            "name": "Oakville"
          }
        ],
        "pollDivisionIds": [
          10140357
        ],
        "postalCode": "L6K3B5",
        "streetName": "KERR",
        "streetDirectionId": null,
        "streetTypeId": "ST",
        "placeName": "OAKVILLE",
        "streetNameDisplayText": "KERR ST, OAKVILLE"
      }
    ]
  },
  {
    "postal": "L6K8R0",
    "result": []
  },
  {
    "postal": "L6K3P2",
    "result": [
      {
        "electoralDistricts": [
          {
            "election": null,
            "id": 74,
            "name": "Oakville"
          }
        ],
        "pollDivisionIds": [
          10140357
        ],
        "postalCode": "L6K3P2",
        "streetName": "MARGARET",
        "streetDirectionId": null,
        "streetTypeId": "DR",
        "placeName": "OAKVILLE",
        "streetNameDisplayText": "MARGARET DR, OAKVILLE"
      }
    ]
  },
  {
    "postal": "L6K5V4",
    "result": []
  },
  {
    "postal": "L6K4H0",
    "result": []
  },
  {
    "postal": "L6K4S7",
    "result": []
  },
  {
    "postal": "L6K6C2",
    "result": []
  },
  {
    "postal": "L6K8W3",
    "result": []
  },
  {
    "postal": "L6K4M5",
    "result": []
  },
  {
    "postal": "L6K5T1",
    "result": []
  },
  {
    "postal": "L6K3B3",
    "result": [
      {
        "electoralDistricts": [
          {
            "election": null,
            "id": 74,
            "name": "Oakville"
          }
        ],
        "pollDivisionIds": [
          10140357
        ],
        "postalCode": "L6K3B3",
        "streetName": "KERR",
        "streetDirectionId": null,
        "streetTypeId": "ST",
        "placeName": "OAKVILLE",
        "streetNameDisplayText": "KERR ST, OAKVILLE"
      }
    ]
  },
  {
    "postal": "L6K6C6",
    "result": []
  },
  {
    "postal": "L6K7N8",
    "result": []
  },
  {
    "postal": "L6K2Y3",
    "result": [
      {
        "electoralDistricts": [
          {
            "election": null,
            "id": 74,
            "name": "Oakville"
          }
        ],
        "pollDivisionIds": [
          10140357
        ],
        "postalCode": "L6K2Y3",
        "streetName": "PRINCESS ANNE",
        "streetDirectionId": null,
        "streetTypeId": "CRT",
        "placeName": "OAKVILLE",
        "streetNameDisplayText": "PRINCESS ANNE CRT, OAKVILLE"
      }
    ]
  },
  {
    "postal": "L6K2R6",
    "result": [
      {
        "electoralDistricts": [
          {
            "election": null,
            "id": 74,
            "name": "Oakville"
          }
        ],
        "pollDivisionIds": [
          10140356
        ],
        "postalCode": "L6K2R6",
        "streetName": "WEIGHTON",
        "streetDirectionId": null,
        "streetTypeId": "DR",
        "placeName": "OAKVILLE",
        "streetNameDisplayText": "WEIGHTON DR, OAKVILLE"
      }
    ]
  },
  {
    "postal": "L6K7N3",
    "result": []
  },
  {
    "postal": "L6K8J2",
    "result": []
  },
  {
    "postal": "L6K6A9",
    "result": []
  },
  {
    "postal": "L6K3V2",
    "result": [
      {
        "electoralDistricts": [
          {
            "election": null,
            "id": 74,
            "name": "Oakville"
          }
        ],
        "pollDivisionIds": [
          10140357,
          10140358
        ],
        "postalCode": "L6K3V2",
        "streetName": "NORMANDY",
        "streetDirectionId": null,
        "streetTypeId": "PL",
        "placeName": "OAKVILLE",
        "streetNameDisplayText": "NORMANDY PL, OAKVILLE"
      }
    ]
  },
  {
    "postal": "L6K2N3",
    "result": [
      {
        "electoralDistricts": [
          {
            "election": null,
            "id": 74,
            "name": "Oakville"
          }
        ],
        "pollDivisionIds": [
          10140356
        ],
        "postalCode": "L6K2N3",
        "streetName": "WOODALE",
        "streetDirectionId": null,
        "streetTypeId": "AVE",
        "placeName": "OAKVILLE",
        "streetNameDisplayText": "WOODALE AVE, OAKVILLE"
      }
    ]
  },
  {
    "postal": "L6K1S5",
    "result": [
      {
        "electoralDistricts": [
          {
            "election": null,
            "id": 74,
            "name": "Oakville"
          }
        ],
        "pollDivisionIds": [
          10140357
        ],
        "postalCode": "L6K1S5",
        "streetName": "MARY",
        "streetDirectionId": null,
        "streetTypeId": "ST",
        "placeName": "OAKVILLE",
        "streetNameDisplayText": "MARY ST, OAKVILLE"
      }
    ]
  },
  {
    "postal": "L6K4T7",
    "result": []
  },
  {
    "postal": "L6K6Y7",
    "result": []
  },
  {
    "postal": "L6K0W7",
    "result": []
  },
  {
    "postal": "L6K2W9",
    "result": [
      {
        "electoralDistricts": [
          {
            "election": null,
            "id": 74,
            "name": "Oakville"
          }
        ],
        "pollDivisionIds": [
          10140357
        ],
        "postalCode": "L6K2W9",
        "streetName": "MAURICE",
        "streetDirectionId": null,
        "streetTypeId": "DR",
        "placeName": "OAKVILLE",
        "streetNameDisplayText": "MAURICE DR, OAKVILLE"
      }
    ]
  },
  {
    "postal": "L6K8V0",
    "result": []
  },
  {
    "postal": "L6K0H4",
    "result": []
  },
  {
    "postal": "L6K2T1",
    "result": [
      {
        "electoralDistricts": [
          {
            "election": null,
            "id": 74,
            "name": "Oakville"
          }
        ],
        "pollDivisionIds": [
          10140356
        ],
        "postalCode": "L6K2T1",
        "streetName": "MORDEN",
        "streetDirectionId": null,
        "streetTypeId": "RD",
        "placeName": "OAKVILLE",
        "streetNameDisplayText": "MORDEN RD, OAKVILLE"
      }
    ]
  },
  {
    "postal": "L6K1B1",
    "result": [
      {
        "electoralDistricts": [
          {
            "election": null,
            "id": 74,
            "name": "Oakville"
          }
        ],
        "pollDivisionIds": [
          10140359
        ],
        "postalCode": "L6K1B1",
        "streetName": "BROOKFIELD",
        "streetDirectionId": null,
        "streetTypeId": "CRES",
        "placeName": "OAKVILLE",
        "streetNameDisplayText": "BROOKFIELD CRES, OAKVILLE"
      }
    ]
  },
  {
    "postal": "L6K8B6",
    "result": []
  },
  {
    "postal": "L6K6H1",
    "result": []
  },
  {
    "postal": "L6K8T8",
    "result": []
  },
  {
    "postal": "L6K0T4",
    "result": []
  },
  {
    "postal": "L6K2C4",
    "result": [
      {
        "electoralDistricts": [
          {
            "election": null,
            "id": 74,
            "name": "Oakville"
          }
        ],
        "pollDivisionIds": [
          10140356
        ],
        "postalCode": "L6K2C4",
        "streetName": "PINEGROVE",
        "streetDirectionId": null,
        "streetTypeId": "RD",
        "placeName": "OAKVILLE",
        "streetNameDisplayText": "PINEGROVE RD, OAKVILLE"
      }
    ]
  },
  {
    "postal": "L6K8N3",
    "result": []
  },
  {
    "postal": "L6K4L8",
    "result": []
  },
  {
    "postal": "L6K2B5",
    "result": [
      {
        "electoralDistricts": [
          {
            "election": null,
            "id": 74,
            "name": "Oakville"
          }
        ],
        "pollDivisionIds": [
          10140356
        ],
        "postalCode": "L6K2B5",
        "streetName": "PINEGROVE",
        "streetDirectionId": null,
        "streetTypeId": "RD",
        "placeName": "OAKVILLE",
        "streetNameDisplayText": "PINEGROVE RD, OAKVILLE"
      }
    ]
  },
  {
    "postal": "L6K3H1",
    "result": [
      {
        "electoralDistricts": [
          {
            "election": null,
            "id": 74,
            "name": "Oakville"
          }
        ],
        "pollDivisionIds": [
          10140359
        ],
        "postalCode": "L6K3H1",
        "streetName": "WILSON",
        "streetDirectionId": null,
        "streetTypeId": "ST",
        "placeName": "OAKVILLE",
        "streetNameDisplayText": "WILSON ST, OAKVILLE"
      }
    ]
  },
  {
    "postal": "L6K4Y1",
    "result": []
  },
  {
    "postal": "L6K7E2",
    "result": []
  },
  {
    "postal": "L6K2P5",
    "result": [
      {
        "electoralDistricts": [
          {
            "election": null,
            "id": 74,
            "name": "Oakville"
          }
        ],
        "pollDivisionIds": [
          10140356
        ],
        "postalCode": "L6K2P5",
        "streetName": "SOUTHVIEW",
        "streetDirectionId": null,
        "streetTypeId": "RD",
        "placeName": "OAKVILLE",
        "streetNameDisplayText": "SOUTHVIEW RD, OAKVILLE"
      }
    ]
  },
  {
    "postal": "L6K8R7",
    "result": []
  },
  {
    "postal": "L6K9P1",
    "result": []
  },
  {
    "postal": "L6K3B8",
    "result": [
      {
        "electoralDistricts": [
          {
            "election": null,
            "id": 74,
            "name": "Oakville"
          }
        ],
        "pollDivisionIds": [
          10140357
        ],
        "postalCode": "L6K3B8",
        "streetName": "KERR",
        "streetDirectionId": null,
        "streetTypeId": "ST",
        "placeName": "OAKILLE",
        "streetNameDisplayText": "KERR ST, OAKILLE"
      },
      {
        "electoralDistricts": [
          {
            "election": null,
            "id": 74,
            "name": "Oakville"
          }
        ],
        "pollDivisionIds": [
          10140357
        ],
        "postalCode": "L6K3B8",
        "streetName": "KERR",
        "streetDirectionId": null,
        "streetTypeId": "ST",
        "placeName": "OAKVILLE",
        "streetNameDisplayText": "KERR ST, OAKVILLE"
      }
    ]
  },
  {
    "postal": "L6K3P7",
    "result": [
      {
        "electoralDistricts": [
          {
            "election": null,
            "id": 74,
            "name": "Oakville"
          }
        ],
        "pollDivisionIds": [
          10140356
        ],
        "postalCode": "L6K3P7",
        "streetName": "MARY",
        "streetDirectionId": null,
        "streetTypeId": "ST",
        "placeName": "OAKVILLE",
        "streetNameDisplayText": "MARY ST, OAKVILLE"
      }
    ]
  },
  {
    "postal": "L6K9B2",
    "result": []
  },
  {
    "postal": "L6K6Z3",
    "result": []
  },
  {
    "postal": "L6K4N5",
    "result": []
  },
  {
    "postal": "L6K8T3",
    "result": []
  },
  {
    "postal": "L6K1V2",
    "result": [
      {
        "electoralDistricts": [
          {
            "election": null,
            "id": 74,
            "name": "Oakville"
          }
        ],
        "pollDivisionIds": [
          10140356
        ],
        "postalCode": "L6K1V2",
        "streetName": "WILDWOOD",
        "streetDirectionId": null,
        "streetTypeId": "DR",
        "placeName": "OAKVILLE",
        "streetNameDisplayText": "WILDWOOD DR, OAKVILLE"
      }
    ]
  },
  {
    "postal": "L6K1Y0",
    "result": []
  },
  {
    "postal": "L6K3G6",
    "result": [
      {
        "electoralDistricts": [
          {
            "election": null,
            "id": 74,
            "name": "Oakville"
          }
        ],
        "pollDivisionIds": [
          10140359
        ],
        "postalCode": "L6K3G6",
        "streetName": "WILSON",
        "streetDirectionId": null,
        "streetTypeId": "ST",
        "placeName": "OAKVILLE",
        "streetNameDisplayText": "WILSON ST, OAKVILLE"
      }
    ]
  },
  {
    "postal": "L6K3H7",
    "result": [
      {
        "electoralDistricts": [
          {
            "election": null,
            "id": 74,
            "name": "Oakville"
          }
        ],
        "pollDivisionIds": [
          10140359
        ],
        "postalCode": "L6K3H7",
        "streetName": "CHISHOLM",
        "streetDirectionId": null,
        "streetTypeId": "ST",
        "placeName": "OAKVILLE",
        "streetNameDisplayText": "CHISHOLM ST, OAKVILLE"
      }
    ]
  },
  {
    "postal": "L6K7X8",
    "result": []
  },
  {
    "postal": "L6K0C7",
    "result": []
  },
  {
    "postal": "L6K0W9",
    "result": []
  },
  {
    "postal": "L6K8E6",
    "result": []
  },
  {
    "postal": "L6K9Z8",
    "result": []
  },
  {
    "postal": "L6K3P4",
    "result": [
      {
        "electoralDistricts": [
          {
            "election": null,
            "id": 74,
            "name": "Oakville"
          }
        ],
        "pollDivisionIds": [
          10140356
        ],
        "postalCode": "L6K3P4",
        "streetName": "MARY",
        "streetDirectionId": null,
        "streetTypeId": "ST",
        "placeName": "OAKVILLE",
        "streetNameDisplayText": "MARY ST, OAKVILLE"
      }
    ]
  },
  {
    "postal": "L6K6L8",
    "result": []
  },
  {
    "postal": "L6K2R4",
    "result": [
      {
        "electoralDistricts": [
          {
            "election": null,
            "id": 74,
            "name": "Oakville"
          }
        ],
        "pollDivisionIds": [
          10140356
        ],
        "postalCode": "L6K2R4",
        "streetName": "WEIGHTON",
        "streetDirectionId": null,
        "streetTypeId": "DR",
        "placeName": "OAKVILLE",
        "streetNameDisplayText": "WEIGHTON DR, OAKVILLE"
      }
    ]
  },
  {
    "postal": "L6K2W1",
    "result": [
      {
        "electoralDistricts": [
          {
            "election": null,
            "id": 74,
            "name": "Oakville"
          }
        ],
        "pollDivisionIds": [
          10140357
        ],
        "postalCode": "L6K2W1",
        "streetName": "DORVAL",
        "streetDirectionId": null,
        "streetTypeId": "DR",
        "placeName": "OAKVILLE",
        "streetNameDisplayText": "DORVAL DR, OAKVILLE"
      }
    ]
  },
  {
    "postal": "L6K9H8",
    "result": []
  },
  {
    "postal": "L6K8X9",
    "result": []
  },
  {
    "postal": "L6K7H4",
    "result": []
  },
  {
    "postal": "L6K3J1",
    "result": [
      {
        "electoralDistricts": [
          {
            "election": null,
            "id": 74,
            "name": "Oakville"
          }
        ],
        "pollDivisionIds": [
          10140359
        ],
        "postalCode": "L6K3J1",
        "streetName": "CHISHOLM",
        "streetDirectionId": null,
        "streetTypeId": "ST",
        "placeName": "OAKVILLE",
        "streetNameDisplayText": "CHISHOLM ST, OAKVILLE"
      }
    ]
  },
  {
    "postal": "L6K1P4",
    "result": [
      {
        "electoralDistricts": [
          {
            "election": null,
            "id": 74,
            "name": "Oakville"
          }
        ],
        "pollDivisionIds": [
          10140355
        ],
        "postalCode": "L6K1P4",
        "streetName": "UNSWORTH",
        "streetDirectionId": null,
        "streetTypeId": "AVE",
        "placeName": "OAKVILLE",
        "streetNameDisplayText": "UNSWORTH AVE, OAKVILLE"
      }
    ]
  },
  {
    "postal": "L6K2A3",
    "result": [
      {
        "electoralDistricts": [
          {
            "election": null,
            "id": 74,
            "name": "Oakville"
          }
        ],
        "pollDivisionIds": [
          10140356
        ],
        "postalCode": "L6K2A3",
        "streetName": "WADSWORTH",
        "streetDirectionId": null,
        "streetTypeId": "ST",
        "placeName": "OAKVILLE",
        "streetNameDisplayText": "WADSWORTH ST, OAKVILLE"
      }
    ]
  },
  {
    "postal": "L6K0Z1",
    "result": []
  },
  {
    "postal": "L6K1C1",
    "result": [
      {
        "electoralDistricts": [
          {
            "election": null,
            "id": 74,
            "name": "Oakville"
          }
        ],
        "pollDivisionIds": [
          10140359
        ],
        "postalCode": "L6K1C1",
        "streetName": "BURNET",
        "streetDirectionId": null,
        "streetTypeId": "ST",
        "placeName": "OAKVILLE",
        "streetNameDisplayText": "BURNET ST, OAKVILLE"
      }
    ]
  },
  {
    "postal": "L6K0H3",
    "result": [
      {
        "electoralDistricts": [
          {
            "election": null,
            "id": 74,
            "name": "Oakville"
          }
        ],
        "pollDivisionIds": [
          10140323,
          10140326,
          10140357
        ],
        "postalCode": "L6K0H3",
        "streetName": "DORVAL",
        "streetDirectionId": null,
        "streetTypeId": "DR",
        "placeName": "OAKVILLE",
        "streetNameDisplayText": "DORVAL DR, OAKVILLE"
      },
      {
        "electoralDistricts": [
          {
            "election": null,
            "id": 74,
            "name": "Oakville"
          }
        ],
        "pollDivisionIds": [
          10140357
        ],
        "postalCode": "L6K0H3",
        "streetName": "HANOVER",
        "streetDirectionId": null,
        "streetTypeId": "ST",
        "placeName": "OAKVILLE",
        "streetNameDisplayText": "HANOVER ST, OAKVILLE"
      },
      {
        "electoralDistricts": [
          {
            "election": null,
            "id": 74,
            "name": "Oakville"
          }
        ],
        "pollDivisionIds": [
          10140357
        ],
        "postalCode": "L6K0H3",
        "streetName": "MILITARY",
        "streetDirectionId": null,
        "streetTypeId": "WAY",
        "placeName": "OAKVILLE",
        "streetNameDisplayText": "MILITARY WAY, OAKVILLE"
      },
      {
        "electoralDistricts": [
          {
            "election": null,
            "id": 74,
            "name": "Oakville"
          }
        ],
        "pollDivisionIds": [
          10140357
        ],
        "postalCode": "L6K0H3",
        "streetName": "ORTONA",
        "streetDirectionId": null,
        "streetTypeId": "GATE",
        "placeName": "OAKVILLE",
        "streetNameDisplayText": "ORTONA GATE, OAKVILLE"
      },
      {
        "electoralDistricts": [
          {
            "election": null,
            "id": 74,
            "name": "Oakville"
          }
        ],
        "pollDivisionIds": [
          10140357
        ],
        "postalCode": "L6K0H3",
        "streetName": "TUDOR",
        "streetDirectionId": null,
        "streetTypeId": "AVE",
        "placeName": "OAKVILLE",
        "streetNameDisplayText": "TUDOR AVE, OAKVILLE"
      }
    ]
  },
  {
    "postal": "L6K7B0",
    "result": []
  },
  {
    "postal": "L6K5K2",
    "result": []
  },
  {
    "postal": "L6K1E9",
    "result": [
      {
        "electoralDistricts": [
          {
            "election": null,
            "id": 74,
            "name": "Oakville"
          }
        ],
        "pollDivisionIds": [
          10140357
        ],
        "postalCode": "L6K1E9",
        "streetName": "LAKESHORE",
        "streetDirectionId": "W",
        "streetTypeId": "RD",
        "placeName": "OAKVILLE",
        "streetNameDisplayText": "LAKESHORE RD W, OAKVILLE"
      }
    ]
  },
  {
    "postal": "L6K9W7",
    "result": []
  },
  {
    "postal": "L6K5W6",
    "result": []
  },
  {
    "postal": "L6K6S6",
    "result": []
  },
  {
    "postal": "L6K2P8",
    "result": [
      {
        "electoralDistricts": [
          {
            "election": null,
            "id": 74,
            "name": "Oakville"
          }
        ],
        "pollDivisionIds": [
          10140356
        ],
        "postalCode": "L6K2P8",
        "streetName": "SOUTHVIEW",
        "streetDirectionId": null,
        "streetTypeId": "RD",
        "placeName": "OAKVILLE",
        "streetNameDisplayText": "SOUTHVIEW RD, OAKVILLE"
      }
    ]
  },
  {
    "postal": "L6K4P8",
    "result": []
  },
  {
    "postal": "L6K0V9",
    "result": []
  },
  {
    "postal": "L6K5Y2",
    "result": []
  },
  {
    "postal": "L6K7Z7",
    "result": []
  },
  {
    "postal": "L6K6Y8",
    "result": []
  },
  {
    "postal": "L6K2G7",
    "result": [
      {
        "electoralDistricts": [
          {
            "election": null,
            "id": 74,
            "name": "Oakville"
          }
        ],
        "pollDivisionIds": [
          10140356,
          10140357
        ],
        "postalCode": "L6K2G7",
        "streetName": "WYECROFT",
        "streetDirectionId": null,
        "streetTypeId": "RD",
        "placeName": "OAKVILLE",
        "streetNameDisplayText": "WYECROFT RD, OAKVILLE"
      }
    ]
  },
  {
    "postal": "L6K8C1",
    "result": []
  },
  {
    "postal": "L6K5C5",
    "result": []
  },
  {
    "postal": "L6K2X8",
    "result": [
      {
        "electoralDistricts": [
          {
            "election": null,
            "id": 74,
            "name": "Oakville"
          }
        ],
        "pollDivisionIds": [
          10140357
        ],
        "postalCode": "L6K2X8",
        "streetName": "FELAN",
        "streetDirectionId": null,
        "streetTypeId": "AVE",
        "placeName": "OAKVILLE",
        "streetNameDisplayText": "FELAN AVE, OAKVILLE"
      }
    ]
  },
  {
    "postal": "L6K1W5",
    "result": [
      {
        "electoralDistricts": [
          {
            "election": null,
            "id": 74,
            "name": "Oakville"
          }
        ],
        "pollDivisionIds": [
          10140358
        ],
        "postalCode": "L6K1W5",
        "streetName": "WASHINGTON",
        "streetDirectionId": null,
        "streetTypeId": "AVE",
        "placeName": "OAKVILLE",
        "streetNameDisplayText": "WASHINGTON AVE, OAKVILLE"
      }
    ]
  },
  {
    "postal": "L6K7G0",
    "result": []
  },
  {
    "postal": "L6K8J8",
    "result": []
  },
  {
    "postal": "L6K3Y0",
    "result": []
  },
  {
    "postal": "L6K9T7",
    "result": []
  },
  {
    "postal": "L6K5P4",
    "result": []
  },
  {
    "postal": "L6K4B0",
    "result": []
  },
  {
    "postal": "L6K9N8",
    "result": []
  },
  {
    "postal": "L6K4A7",
    "result": []
  },
  {
    "postal": "L6K4H9",
    "result": []
  },
  {
    "postal": "L6K6X1",
    "result": []
  },
  {
    "postal": "L6K9Y7",
    "result": []
  },
  {
    "postal": "L6K2Y5",
    "result": [
      {
        "electoralDistricts": [
          {
            "election": null,
            "id": 74,
            "name": "Oakville"
          }
        ],
        "pollDivisionIds": [
          10140359
        ],
        "postalCode": "L6K2Y5",
        "streetName": "BROOKFIELD",
        "streetDirectionId": null,
        "streetTypeId": "RD",
        "placeName": "OAKVILLE",
        "streetNameDisplayText": "BROOKFIELD RD, OAKVILLE"
      }
    ]
  },
  {
    "postal": "L6K8L7",
    "result": []
  },
  {
    "postal": "L6K2A8",
    "result": [
      {
        "electoralDistricts": [
          {
            "election": null,
            "id": 74,
            "name": "Oakville"
          }
        ],
        "pollDivisionIds": [
          10140357
        ],
        "postalCode": "L6K2A8",
        "streetName": "ELMWOOD",
        "streetDirectionId": null,
        "streetTypeId": "RD",
        "placeName": "OAKVILLE",
        "streetNameDisplayText": "ELMWOOD RD, OAKVILLE"
      }
    ]
  },
  {
    "postal": "L6K2K9",
    "result": [
      {
        "electoralDistricts": [
          {
            "election": null,
            "id": 74,
            "name": "Oakville"
          }
        ],
        "pollDivisionIds": [
          10140356
        ],
        "postalCode": "L6K2K9",
        "streetName": "BURTON",
        "streetDirectionId": null,
        "streetTypeId": "RD",
        "placeName": "OAKVILLE",
        "streetNameDisplayText": "BURTON RD, OAKVILLE"
      }
    ]
  },
  {
    "postal": "L6K3E5",
    "result": [
      {
        "electoralDistricts": [
          {
            "election": null,
            "id": 74,
            "name": "Oakville"
          }
        ],
        "pollDivisionIds": [
          10140358
        ],
        "postalCode": "L6K3E5",
        "streetName": "BARTOS",
        "streetDirectionId": null,
        "streetTypeId": "DR",
        "placeName": "OAKVILLE",
        "streetNameDisplayText": "BARTOS DR, OAKVILLE"
      }
    ]
  },
  {
    "postal": "L6K8N6",
    "result": []
  },
  {
    "postal": "L6K8J4",
    "result": []
  },
  {
    "postal": "L6K4R7",
    "result": []
  },
  {
    "postal": "L6K9K1",
    "result": []
  },
  {
    "postal": "L6K8E1",
    "result": []
  },
  {
    "postal": "L6K0R1",
    "result": []
  },
  {
    "postal": "L6K4J3",
    "result": []
  },
  {
    "postal": "L6K7E7",
    "result": []
  },
  {
    "postal": "L6K0J0",
    "result": []
  },
  {
    "postal": "L6K7R8",
    "result": []
  },
  {
    "postal": "L6K9X0",
    "result": []
  },
  {
    "postal": "L6K7P6",
    "result": []
  },
  {
    "postal": "L6K0R7",
    "result": []
  },
  {
    "postal": "L6K5W1",
    "result": []
  },
  {
    "postal": "L6K0K4",
    "result": []
  },
  {
    "postal": "L6K7N9",
    "result": []
  },
  {
    "postal": "L6K1N0",
    "result": []
  },
  {
    "postal": "L6K6P3",
    "result": []
  },
  {
    "postal": "L6K5A1",
    "result": []
  },
  {
    "postal": "L6K9M9",
    "result": []
  },
  {
    "postal": "L6K7T6",
    "result": []
  },
  {
    "postal": "L6K3X0",
    "result": []
  },
  {
    "postal": "L6K2T0",
    "result": []
  },
  {
    "postal": "L6K5X9",
    "result": []
  },
  {
    "postal": "L6K2R3",
    "result": [
      {
        "electoralDistricts": [
          {
            "election": null,
            "id": 74,
            "name": "Oakville"
          }
        ],
        "pollDivisionIds": [
          10140356
        ],
        "postalCode": "L6K2R3",
        "streetName": "WEIGHTON",
        "streetDirectionId": null,
        "streetTypeId": "DR",
        "placeName": "OAKVILLE",
        "streetNameDisplayText": "WEIGHTON DR, OAKVILLE"
      }
    ]
  },
  {
    "postal": "L6K5N2",
    "result": []
  },
  {
    "postal": "L6K4Y7",
    "result": []
  },
  {
    "postal": "L6K7M0",
    "result": []
  },
  {
    "postal": "L6K8P3",
    "result": []
  },
  {
    "postal": "L6K3N3",
    "result": [
      {
        "electoralDistricts": [
          {
            "election": null,
            "id": 74,
            "name": "Oakville"
          }
        ],
        "pollDivisionIds": [
          10140359
        ],
        "postalCode": "L6K3N3",
        "streetName": "RIVER SIDE",
        "streetDirectionId": null,
        "streetTypeId": "DR",
        "placeName": "OAKVILLE",
        "streetNameDisplayText": "RIVER SIDE DR, OAKVILLE"
      }
    ]
  },
  {
    "postal": "L6K7S3",
    "result": []
  },
  {
    "postal": "L6K3V9",
    "result": [
      {
        "electoralDistricts": [
          {
            "election": null,
            "id": 74,
            "name": "Oakville"
          }
        ],
        "pollDivisionIds": [
          10140355
        ],
        "postalCode": "L6K3V9",
        "streetName": "WHITTINGTON",
        "streetDirectionId": null,
        "streetTypeId": "PL",
        "placeName": "OAKVILLE",
        "streetNameDisplayText": "WHITTINGTON PL, OAKVILLE"
      }
    ]
  },
  {
    "postal": "L6K9N7",
    "result": []
  },
  {
    "postal": "L6K0G4",
    "result": []
  },
  {
    "postal": "L6K2E2",
    "result": [
      {
        "electoralDistricts": [
          {
            "election": null,
            "id": 74,
            "name": "Oakville"
          }
        ],
        "pollDivisionIds": [
          10140358
        ],
        "postalCode": "L6K2E2",
        "streetName": "KINGSWOOD",
        "streetDirectionId": null,
        "streetTypeId": "RD",
        "placeName": "OAKVILLE",
        "streetNameDisplayText": "KINGSWOOD RD, OAKVILLE"
      }
    ]
  },
  {
    "postal": "L6K7W8",
    "result": []
  },
  {
    "postal": "L6K7M5",
    "result": []
  },
  {
    "postal": "L6K5W8",
    "result": []
  },
  {
    "postal": "L6K5E5",
    "result": []
  },
  {
    "postal": "L6K1P9",
    "result": [
      {
        "electoralDistricts": [
          {
            "election": null,
            "id": 74,
            "name": "Oakville"
          }
        ],
        "pollDivisionIds": [
          10140356
        ],
        "postalCode": "L6K1P9",
        "streetName": "BROOKSIDE",
        "streetDirectionId": null,
        "streetTypeId": "DR",
        "placeName": "OAKVILLE",
        "streetNameDisplayText": "BROOKSIDE DR, OAKVILLE"
      }
    ]
  },
  {
    "postal": "L6K8V8",
    "result": []
  },
  {
    "postal": "L6K9G8",
    "result": []
  },
  {
    "postal": "L6K8H9",
    "result": []
  },
  {
    "postal": "L6K1Z1",
    "result": [
      {
        "electoralDistricts": [
          {
            "election": null,
            "id": 74,
            "name": "Oakville"
          }
        ],
        "pollDivisionIds": [
          10140359
        ],
        "postalCode": "L6K1Z1",
        "streetName": "SOUTH FORSTER PARK",
        "streetDirectionId": null,
        "streetTypeId": "DR",
        "placeName": "OAKVILLE",
        "streetNameDisplayText": "SOUTH FORSTER PARK DR, OAKVILLE"
      }
    ]
  },
  {
    "postal": "L6K8M3",
    "result": []
  },
  {
    "postal": "L6K5H6",
    "result": []
  },
  {
    "postal": "L6K7W7",
    "result": []
  },
  {
    "postal": "L6K4L0",
    "result": []
  },
  {
    "postal": "L6K2N1",
    "result": [
      {
        "electoralDistricts": [
          {
            "election": null,
            "id": 74,
            "name": "Oakville"
          }
        ],
        "pollDivisionIds": [
          10140356
        ],
        "postalCode": "L6K2N1",
        "streetName": "TAMARACK",
        "streetDirectionId": null,
        "streetTypeId": "CIR",
        "placeName": "OAKVILLE",
        "streetNameDisplayText": "TAMARACK CIR, OAKVILLE"
      }
    ]
  },
  {
    "postal": "L6K2H4",
    "result": [
      {
        "electoralDistricts": [
          {
            "election": null,
            "id": 74,
            "name": "Oakville"
          }
        ],
        "pollDivisionIds": [
          10140356
        ],
        "postalCode": "L6K2H4",
        "streetName": "SOUTH SERVICE",
        "streetDirectionId": "W",
        "streetTypeId": "RD",
        "placeName": "OAKVILLE",
        "streetNameDisplayText": "SOUTH SERVICE RD W, OAKVILLE"
      }
    ]
  },
  {
    "postal": "L6K5C8",
    "result": []
  },
  {
    "postal": "L6K8B0",
    "result": []
  },
  {
    "postal": "L6K1T4",
    "result": [
      {
        "electoralDistricts": [
          {
            "election": null,
            "id": 74,
            "name": "Oakville"
          }
        ],
        "pollDivisionIds": [
          10140356
        ],
        "postalCode": "L6K1T4",
        "streetName": "WILDWOOD",
        "streetDirectionId": null,
        "streetTypeId": "DR",
        "placeName": "OAKVILLE",
        "streetNameDisplayText": "WILDWOOD DR, OAKVILLE"
      }
    ]
  },
  {
    "postal": "L6K7N7",
    "result": []
  },
  {
    "postal": "L6K4L3",
    "result": []
  },
  {
    "postal": "L6K2N2",
    "result": [
      {
        "electoralDistricts": [
          {
            "election": null,
            "id": 74,
            "name": "Oakville"
          }
        ],
        "pollDivisionIds": [
          10140356
        ],
        "postalCode": "L6K2N2",
        "streetName": "WOODALE",
        "streetDirectionId": null,
        "streetTypeId": "AVE",
        "placeName": "OAKVILLE",
        "streetNameDisplayText": "WOODALE AVE, OAKVILLE"
      }
    ]
  },
  {
    "postal": "L6K4N8",
    "result": []
  },
  {
    "postal": "L6K3M5",
    "result": [
      {
        "electoralDistricts": [
          {
            "election": null,
            "id": 74,
            "name": "Oakville"
          }
        ],
        "pollDivisionIds": [
          10140359
        ],
        "postalCode": "L6K3M5",
        "streetName": "CAROLYN",
        "streetDirectionId": null,
        "streetTypeId": "DR",
        "placeName": "OAKVILLE",
        "streetNameDisplayText": "CAROLYN DR, OAKVILLE"
      }
    ]
  },
  {
    "postal": "L6K6H7",
    "result": []
  },
  {
    "postal": "L6K8Y8",
    "result": []
  },
  {
    "postal": "L6K5R9",
    "result": []
  },
  {
    "postal": "L6K8G3",
    "result": []
  },
  {
    "postal": "L6K4N7",
    "result": []
  },
  {
    "postal": "L6K0B9",
    "result": []
  },
  {
    "postal": "L6K9K7",
    "result": []
  },
  {
    "postal": "L6K9K9",
    "result": []
  },
  {
    "postal": "L6K3Z2",
    "result": []
  },
  {
    "postal": "L6K6W7",
    "result": []
  },
  {
    "postal": "L6K0P1",
    "result": []
  },
  {
    "postal": "L6K3A0",
    "result": []
  },
  {
    "postal": "L6K8L9",
    "result": []
  },
  {
    "postal": "L6K6X0",
    "result": []
  },
  {
    "postal": "L6K3E9",
    "result": [
      {
        "electoralDistricts": [
          {
            "election": null,
            "id": 74,
            "name": "Oakville"
          }
        ],
        "pollDivisionIds": [
          10140357
        ],
        "postalCode": "L6K3E9",
        "streetName": "ST AUGUSTINE",
        "streetDirectionId": null,
        "streetTypeId": "DR",
        "placeName": "OAKVILLE",
        "streetNameDisplayText": "ST AUGUSTINE DR, OAKVILLE"
      }
    ]
  },
  {
    "postal": "L6K0S5",
    "result": []
  },
  {
    "postal": "L6K1A2",
    "result": [
      {
        "electoralDistricts": [
          {
            "election": null,
            "id": 74,
            "name": "Oakville"
          }
        ],
        "pollDivisionIds": [
          10140359
        ],
        "postalCode": "L6K1A2",
        "streetName": "WALKER",
        "streetDirectionId": null,
        "streetTypeId": "ST",
        "placeName": "OAKVILLE",
        "streetNameDisplayText": "WALKER ST, OAKVILLE"
      }
    ]
  },
  {
    "postal": "L6K5V8",
    "result": []
  },
  {
    "postal": "L6K8C5",
    "result": []
  },
  {
    "postal": "L6K6N0",
    "result": []
  },
  {
    "postal": "L6K9E6",
    "result": []
  },
  {
    "postal": "L6K5J7",
    "result": []
  },
  {
    "postal": "L6K2R2",
    "result": [
      {
        "electoralDistricts": [
          {
            "election": null,
            "id": 74,
            "name": "Oakville"
          }
        ],
        "pollDivisionIds": [
          10140356
        ],
        "postalCode": "L6K2R2",
        "streetName": "WEIGHTON",
        "streetDirectionId": null,
        "streetTypeId": "DR",
        "placeName": "OAKVILLE",
        "streetNameDisplayText": "WEIGHTON DR, OAKVILLE"
      }
    ]
  },
  {
    "postal": "L6K0P5",
    "result": []
  },
  {
    "postal": "L6K5A7",
    "result": []
  },
  {
    "postal": "L6K1G1",
    "result": [
      {
        "electoralDistricts": [
          {
            "election": null,
            "id": 74,
            "name": "Oakville"
          }
        ],
        "pollDivisionIds": [
          10140355
        ],
        "postalCode": "L6K1G1",
        "streetName": "LAKESHORE",
        "streetDirectionId": "W",
        "streetTypeId": "RD",
        "placeName": "OAKVILLE",
        "streetNameDisplayText": "LAKESHORE RD W, OAKVILLE"
      }
    ]
  },
  {
    "postal": "L6K9R6",
    "result": []
  },
  {
    "postal": "L6K4Z9",
    "result": []
  },
  {
    "postal": "L6K1V5",
    "result": [
      {
        "electoralDistricts": [
          {
            "election": null,
            "id": 74,
            "name": "Oakville"
          }
        ],
        "pollDivisionIds": [
          10140355
        ],
        "postalCode": "L6K1V5",
        "streetName": "WILDWOOD",
        "streetDirectionId": null,
        "streetTypeId": "DR",
        "placeName": "OAKVILLE",
        "streetNameDisplayText": "WILDWOOD DR, OAKVILLE"
      }
    ]
  },
  {
    "postal": "L6K9Y5",
    "result": []
  },
  {
    "postal": "L6K1P2",
    "result": [
      {
        "electoralDistricts": [
          {
            "election": null,
            "id": 74,
            "name": "Oakville"
          }
        ],
        "pollDivisionIds": [
          10140357
        ],
        "postalCode": "L6K1P2",
        "streetName": "WESTSIDE",
        "streetDirectionId": null,
        "streetTypeId": "DR",
        "placeName": "OAKVILLE",
        "streetNameDisplayText": "WESTSIDE DR, OAKVILLE"
      }
    ]
  },
  {
    "postal": "L6K5X0",
    "result": []
  },
  {
    "postal": "L6K7B8",
    "result": []
  },
  {
    "postal": "L6K0C6",
    "result": []
  },
  {
    "postal": "L6K6G1",
    "result": []
  },
  {
    "postal": "L6K3K3",
    "result": [
      {
        "electoralDistricts": [
          {
            "election": null,
            "id": 74,
            "name": "Oakville"
          }
        ],
        "pollDivisionIds": [
          10140359
        ],
        "postalCode": "L6K3K3",
        "streetName": "FORSYTHE",
        "streetDirectionId": null,
        "streetTypeId": "ST",
        "placeName": "OAKVILLE",
        "streetNameDisplayText": "FORSYTHE ST, OAKVILLE"
      }
    ]
  },
  {
    "postal": "L6K9R0",
    "result": []
  },
  {
    "postal": "L6K4R8",
    "result": []
  },
  {
    "postal": "L6K5P9",
    "result": []
  },
  {
    "postal": "L6K8N4",
    "result": []
  },
  {
    "postal": "L6K8H4",
    "result": []
  },
  {
    "postal": "L6K4V1",
    "result": []
  },
  {
    "postal": "L6K1K5",
    "result": [
      {
        "electoralDistricts": [
          {
            "election": null,
            "id": 74,
            "name": "Oakville"
          }
        ],
        "pollDivisionIds": [
          10140356
        ],
        "postalCode": "L6K1K5",
        "streetName": "REBECCA",
        "streetDirectionId": null,
        "streetTypeId": "ST",
        "placeName": "OAKVILLE",
        "streetNameDisplayText": "REBECCA ST, OAKVILLE"
      }
    ]
  },
  {
    "postal": "L6K1Z5",
    "result": [
      {
        "electoralDistricts": [
          {
            "election": null,
            "id": 74,
            "name": "Oakville"
          }
        ],
        "pollDivisionIds": [
          10140358
        ],
        "postalCode": "L6K1Z5",
        "streetName": "NORTH FORSTER PARK",
        "streetDirectionId": null,
        "streetTypeId": "DR",
        "placeName": "OAKVILLE",
        "streetNameDisplayText": "NORTH FORSTER PARK DR, OAKVILLE"
      }
    ]
  },
  {
    "postal": "L6K9L9",
    "result": []
  },
  {
    "postal": "L6K5L2",
    "result": []
  },
  {
    "postal": "L6K0M2",
    "result": []
  },
  {
    "postal": "L6K1K8",
    "result": [
      {
        "electoralDistricts": [
          {
            "election": null,
            "id": 74,
            "name": "Oakville"
          }
        ],
        "pollDivisionIds": [
          10140355,
          10140356
        ],
        "postalCode": "L6K1K8",
        "streetName": "REBECCA",
        "streetDirectionId": null,
        "streetTypeId": "ST",
        "placeName": "OAKVILLE",
        "streetNameDisplayText": "REBECCA ST, OAKVILLE"
      }
    ]
  },
  {
    "postal": "L6K3M7",
    "result": [
      {
        "electoralDistricts": [
          {
            "election": null,
            "id": 74,
            "name": "Oakville"
          }
        ],
        "pollDivisionIds": [
          10140359
        ],
        "postalCode": "L6K3M7",
        "streetName": "OAKWOOD",
        "streetDirectionId": null,
        "streetTypeId": "CRES",
        "placeName": "OAKVILLE",
        "streetNameDisplayText": "OAKWOOD CRES, OAKVILLE"
      }
    ]
  },
  {
    "postal": "L6K1B2",
    "result": [
      {
        "electoralDistricts": [
          {
            "election": null,
            "id": 74,
            "name": "Oakville"
          }
        ],
        "pollDivisionIds": [
          10140359
        ],
        "postalCode": "L6K1B2",
        "streetName": "LAKEWOOD",
        "streetDirectionId": null,
        "streetTypeId": "DR",
        "placeName": "OAKVILLE",
        "streetNameDisplayText": "LAKEWOOD DR, OAKVILLE"
      }
    ]
  },
  {
    "postal": "L6K0H9",
    "result": [
      {
        "electoralDistricts": [
          {
            "election": null,
            "id": 74,
            "name": "Oakville"
          }
        ],
        "pollDivisionIds": [
          10140383
        ],
        "postalCode": "L6K0H9",
        "streetName": "SPEERS",
        "streetDirectionId": null,
        "streetTypeId": "RD",
        "placeName": "OAKVILLE",
        "streetNameDisplayText": "SPEERS RD, OAKVILLE"
      }
    ]
  },
  {
    "postal": "L6K8M4",
    "result": []
  },
  {
    "postal": "L6K2M5",
    "result": [
      {
        "electoralDistricts": [
          {
            "election": null,
            "id": 74,
            "name": "Oakville"
          }
        ],
        "pollDivisionIds": [
          10140356
        ],
        "postalCode": "L6K2M5",
        "streetName": "ASHBURY",
        "streetDirectionId": null,
        "streetTypeId": "RD",
        "placeName": "OAKVILLE",
        "streetNameDisplayText": "ASHBURY RD, OAKVILLE"
      }
    ]
  },
  {
    "postal": "L6K0T9",
    "result": []
  },
  {
    "postal": "L6K3P1",
    "result": [
      {
        "electoralDistricts": [
          {
            "election": null,
            "id": 74,
            "name": "Oakville"
          }
        ],
        "pollDivisionIds": [
          10140355
        ],
        "postalCode": "L6K3P1",
        "streetName": "LAKESHORE",
        "streetDirectionId": "W",
        "streetTypeId": "RD",
        "placeName": "OAKVILLE",
        "streetNameDisplayText": "LAKESHORE RD W, OAKVILLE"
      }
    ]
  },
  {
    "postal": "L6K1R6",
    "result": [
      {
        "electoralDistricts": [
          {
            "election": null,
            "id": 74,
            "name": "Oakville"
          }
        ],
        "pollDivisionIds": [
          10140355
        ],
        "postalCode": "L6K1R6",
        "streetName": "BROOKSIDE",
        "streetDirectionId": null,
        "streetTypeId": "DR",
        "placeName": "OAKVILLE",
        "streetNameDisplayText": "BROOKSIDE DR, OAKVILLE"
      }
    ]
  },
  {
    "postal": "L6K9V5",
    "result": []
  },
  {
    "postal": "L6K9T0",
    "result": []
  },
  {
    "postal": "L6K0A9",
    "result": []
  },
  {
    "postal": "L6K1M3",
    "result": [
      {
        "electoralDistricts": [
          {
            "election": null,
            "id": 74,
            "name": "Oakville"
          }
        ],
        "pollDivisionIds": [
          10140355
        ],
        "postalCode": "L6K1M3",
        "streetName": "PATRICIA",
        "streetDirectionId": null,
        "streetTypeId": "DR",
        "placeName": "OAKVILLE",
        "streetNameDisplayText": "PATRICIA DR, OAKVILLE"
      }
    ]
  },
  {
    "postal": "L6K1W8",
    "result": [
      {
        "electoralDistricts": [
          {
            "election": null,
            "id": 74,
            "name": "Oakville"
          }
        ],
        "pollDivisionIds": [
          10140357
        ],
        "postalCode": "L6K1W8",
        "streetName": "INGLEWOOD",
        "streetDirectionId": null,
        "streetTypeId": "DR",
        "placeName": "OAKVILLE",
        "streetNameDisplayText": "INGLEWOOD DR, OAKVILLE"
      }
    ]
  },
  {
    "postal": "L6K9J1",
    "result": []
  },
  {
    "postal": "L6K8N5",
    "result": []
  },
  {
    "postal": "L6K5X1",
    "result": []
  },
  {
    "postal": "L6K6S2",
    "result": []
  },
  {
    "postal": "L6K2A2",
    "result": [
      {
        "electoralDistricts": [
          {
            "election": null,
            "id": 74,
            "name": "Oakville"
          }
        ],
        "pollDivisionIds": [
          10140356
        ],
        "postalCode": "L6K2A2",
        "streetName": "WADSWORTH",
        "streetDirectionId": null,
        "streetTypeId": "ST",
        "placeName": "OAKVILLE",
        "streetNameDisplayText": "WADSWORTH ST, OAKVILLE"
      }
    ]
  },
  {
    "postal": "L6K6A6",
    "result": []
  },
  {
    "postal": "L6K0S3",
    "result": []
  },
  {
    "postal": "L6K3E7",
    "result": [
      {
        "electoralDistricts": [
          {
            "election": null,
            "id": 74,
            "name": "Oakville"
          }
        ],
        "pollDivisionIds": [
          10140358
        ],
        "postalCode": "L6K3E7",
        "streetName": "BARTOS",
        "streetDirectionId": null,
        "streetTypeId": "DR",
        "placeName": "OAKVILLE",
        "streetNameDisplayText": "BARTOS DR, OAKVILLE"
      }
    ]
  },
  {
    "postal": "L6K5R7",
    "result": []
  },
  {
    "postal": "L6K3R6",
    "result": [
      {
        "electoralDistricts": [
          {
            "election": null,
            "id": 74,
            "name": "Oakville"
          }
        ],
        "pollDivisionIds": [
          10140358
        ],
        "postalCode": "L6K3R6",
        "streetName": "SPEERS",
        "streetDirectionId": null,
        "streetTypeId": "RD",
        "placeName": "OAKVILLE",
        "streetNameDisplayText": "SPEERS RD, OAKVILLE"
      }
    ]
  },
  {
    "postal": "L6K6K4",
    "result": []
  },
  {
    "postal": "L6K2W5",
    "result": []
  },
  {
    "postal": "L6K8W4",
    "result": []
  },
  {
    "postal": "L6K9C2",
    "result": []
  },
  {
    "postal": "L6K2C0",
    "result": []
  },
  {
    "postal": "L6K0E1",
    "result": []
  },
  {
    "postal": "L6K1K9",
    "result": [
      {
        "electoralDistricts": [
          {
            "election": null,
            "id": 74,
            "name": "Oakville"
          }
        ],
        "pollDivisionIds": [
          10140356
        ],
        "postalCode": "L6K1K9",
        "streetName": "REBECCA",
        "streetDirectionId": null,
        "streetTypeId": "ST",
        "placeName": "OAKVILLE",
        "streetNameDisplayText": "REBECCA ST, OAKVILLE"
      }
    ]
  },
  {
    "postal": "L6K1G7",
    "result": [
      {
        "electoralDistricts": [
          {
            "election": null,
            "id": 74,
            "name": "Oakville"
          }
        ],
        "pollDivisionIds": [
          10140359
        ],
        "postalCode": "L6K1G7",
        "streetName": "JOHN",
        "streetDirectionId": null,
        "streetTypeId": "ST",
        "placeName": "OAKVILLE",
        "streetNameDisplayText": "JOHN ST, OAKVILLE"
      }
    ]
  },
  {
    "postal": "L6K4E9",
    "result": []
  },
  {
    "postal": "L6K9P0",
    "result": []
  },
  {
    "postal": "L6K5H3",
    "result": []
  },
  {
    "postal": "L6K9X6",
    "result": []
  },
  {
    "postal": "L6K5N7",
    "result": []
  },
  {
    "postal": "L6K5A6",
    "result": []
  },
  {
    "postal": "L6K4M0",
    "result": []
  },
  {
    "postal": "L6K3V6",
    "result": [
      {
        "electoralDistricts": [
          {
            "election": null,
            "id": 74,
            "name": "Oakville"
          }
        ],
        "pollDivisionIds": [
          10140359
        ],
        "postalCode": "L6K3V6",
        "streetName": "ANDERSON",
        "streetDirectionId": null,
        "streetTypeId": "ST",
        "placeName": "OAKVILLE",
        "streetNameDisplayText": "ANDERSON ST, OAKVILLE"
      }
    ]
  },
  {
    "postal": "L6K1L7",
    "result": [
      {
        "electoralDistricts": [
          {
            "election": null,
            "id": 74,
            "name": "Oakville"
          }
        ],
        "pollDivisionIds": [
          10140359
        ],
        "postalCode": "L6K1L7",
        "streetName": "BOND",
        "streetDirectionId": null,
        "streetTypeId": "ST",
        "placeName": "OAKVILLE",
        "streetNameDisplayText": "BOND ST, OAKVILLE"
      }
    ]
  },
  {
    "postal": "L6K2P9",
    "result": [
      {
        "electoralDistricts": [
          {
            "election": null,
            "id": 74,
            "name": "Oakville"
          }
        ],
        "pollDivisionIds": [
          10140356
        ],
        "postalCode": "L6K2P9",
        "streetName": "WEIGHTON",
        "streetDirectionId": null,
        "streetTypeId": "DR",
        "placeName": "OAKVILLE",
        "streetNameDisplayText": "WEIGHTON DR, OAKVILLE"
      }
    ]
  },
  {
    "postal": "L6K5T4",
    "result": []
  },
  {
    "postal": "L6K5Z1",
    "result": []
  },
  {
    "postal": "L6K2X0",
    "result": []
  },
  {
    "postal": "L6K6Z2",
    "result": []
  },
  {
    "postal": "L6K0E0",
    "result": []
  },
  {
    "postal": "L6K3Z5",
    "result": []
  },
  {
    "postal": "L6K8H3",
    "result": []
  },
  {
    "postal": "L6K7S6",
    "result": []
  },
  {
    "postal": "L6K4C1",
    "result": []
  },
  {
    "postal": "L6K3K2",
    "result": [
      {
        "electoralDistricts": [
          {
            "election": null,
            "id": 74,
            "name": "Oakville"
          }
        ],
        "pollDivisionIds": [
          10140359
        ],
        "postalCode": "L6K3K2",
        "streetName": "FORSYTHE",
        "streetDirectionId": null,
        "streetTypeId": "ST",
        "placeName": "OAKVILLE",
        "streetNameDisplayText": "FORSYTHE ST, OAKVILLE"
      }
    ]
  },
  {
    "postal": "L6K1Y5",
    "result": [
      {
        "electoralDistricts": [
          {
            "election": null,
            "id": 74,
            "name": "Oakville"
          }
        ],
        "pollDivisionIds": [
          10140359
        ],
        "postalCode": "L6K1Y5",
        "streetName": "FORSTER PARK",
        "streetDirectionId": null,
        "streetTypeId": "DR",
        "placeName": "OAKVILLE",
        "streetNameDisplayText": "FORSTER PARK DR, OAKVILLE"
      }
    ]
  },
  {
    "postal": "L6K6P6",
    "result": []
  },
  {
    "postal": "L6K3N9",
    "result": [
      {
        "electoralDistricts": [
          {
            "election": null,
            "id": 74,
            "name": "Oakville"
          }
        ],
        "pollDivisionIds": [
          10140355
        ],
        "postalCode": "L6K3N9",
        "streetName": "REBECCA",
        "streetDirectionId": null,
        "streetTypeId": "ST",
        "placeName": "OAKVILLE",
        "streetNameDisplayText": "REBECCA ST, OAKVILLE"
      }
    ]
  },
  {
    "postal": "L6K3W2",
    "result": [
      {
        "electoralDistricts": [
          {
            "election": null,
            "id": 74,
            "name": "Oakville"
          }
        ],
        "pollDivisionIds": [
          10140359
        ],
        "postalCode": "L6K3W2",
        "streetName": "CHISHOLM",
        "streetDirectionId": null,
        "streetTypeId": "ST",
        "placeName": "OAKVILLE",
        "streetNameDisplayText": "CHISHOLM ST, OAKVILLE"
      }
    ]
  },
  {
    "postal": "L6K6H8",
    "result": []
  },
  {
    "postal": "L6K9T3",
    "result": []
  },
  {
    "postal": "L6K5L9",
    "result": []
  },
  {
    "postal": "L6K7X7",
    "result": []
  },
  {
    "postal": "L6K3J5",
    "result": [
      {
        "electoralDistricts": [
          {
            "election": null,
            "id": 74,
            "name": "Oakville"
          }
        ],
        "pollDivisionIds": [
          10140359
        ],
        "postalCode": "L6K3J5",
        "streetName": "CHISHOLM",
        "streetDirectionId": null,
        "streetTypeId": "ST",
        "placeName": "OAKVILLE",
        "streetNameDisplayText": "CHISHOLM ST, OAKVILLE"
      }
    ]
  },
  {
    "postal": "L6K4J5",
    "result": []
  },
  {
    "postal": "L6K6J2",
    "result": []
  },
  {
    "postal": "L6K5V6",
    "result": []
  },
  {
    "postal": "L6K3N2",
    "result": [
      {
        "electoralDistricts": [
          {
            "election": null,
            "id": 74,
            "name": "Oakville"
          }
        ],
        "pollDivisionIds": [
          10140359
        ],
        "postalCode": "L6K3N2",
        "streetName": "RIVER SIDE",
        "streetDirectionId": null,
        "streetTypeId": "DR",
        "placeName": "OAKVILLE",
        "streetNameDisplayText": "RIVER SIDE DR, OAKVILLE"
      }
    ]
  },
  {
    "postal": "L6K3B1",
    "result": [
      {
        "electoralDistricts": [
          {
            "election": null,
            "id": 74,
            "name": "Oakville"
          }
        ],
        "pollDivisionIds": [
          10140359,
          10140357
        ],
        "postalCode": "L6K3B1",
        "streetName": "KERR",
        "streetDirectionId": null,
        "streetTypeId": "ST",
        "placeName": "OAKVILLE",
        "streetNameDisplayText": "KERR ST, OAKVILLE"
      }
    ]
  },
  {
    "postal": "L6K8B5",
    "result": []
  },
  {
    "postal": "L6K0K1",
    "result": []
  },
  {
    "postal": "L6K7M7",
    "result": []
  },
  {
    "postal": "L6K2M2",
    "result": [
      {
        "electoralDistricts": [
          {
            "election": null,
            "id": 74,
            "name": "Oakville"
          }
        ],
        "pollDivisionIds": [
          10140356
        ],
        "postalCode": "L6K2M2",
        "streetName": "ASHBURY",
        "streetDirectionId": null,
        "streetTypeId": "RD",
        "placeName": "OAKVILLE",
        "streetNameDisplayText": "ASHBURY RD, OAKVILLE"
      }
    ]
  },
  {
    "postal": "L6K9N3",
    "result": []
  },
  {
    "postal": "L6K4Y8",
    "result": []
  },
  {
    "postal": "L6K3V7",
    "result": [
      {
        "electoralDistricts": [
          {
            "election": null,
            "id": 74,
            "name": "Oakville"
          }
        ],
        "pollDivisionIds": [
          10140356
        ],
        "postalCode": "L6K3V7",
        "streetName": "DORVAL",
        "streetDirectionId": null,
        "streetTypeId": "DR",
        "placeName": "OAKVILLE",
        "streetNameDisplayText": "DORVAL DR, OAKVILLE"
      }
    ]
  },
  {
    "postal": "L6K8Z1",
    "result": []
  },
  {
    "postal": "L6K7B3",
    "result": []
  },
  {
    "postal": "L6K3A8",
    "result": [
      {
        "electoralDistricts": [
          {
            "election": null,
            "id": 74,
            "name": "Oakville"
          }
        ],
        "pollDivisionIds": [
          10140357,
          10140359
        ],
        "postalCode": "L6K3A8",
        "streetName": "KERR",
        "streetDirectionId": null,
        "streetTypeId": "ST",
        "placeName": "OAKVILLE",
        "streetNameDisplayText": "KERR ST, OAKVILLE"
      }
    ]
  },
  {
    "postal": "L6K7V5",
    "result": []
  },
  {
    "postal": "L6K2T2",
    "result": [
      {
        "electoralDistricts": [
          {
            "election": null,
            "id": 74,
            "name": "Oakville"
          }
        ],
        "pollDivisionIds": [
          10140356
        ],
        "postalCode": "L6K2T2",
        "streetName": "MORDEN",
        "streetDirectionId": null,
        "streetTypeId": "RD",
        "placeName": "OAKVILLE",
        "streetNameDisplayText": "MORDEN RD, OAKVILLE"
      }
    ]
  },
  {
    "postal": "L6K6L3",
    "result": []
  },
  {
    "postal": "L6K0L2",
    "result": []
  },
  {
    "postal": "L6K5Y8",
    "result": []
  },
  {
    "postal": "L6K0B8",
    "result": []
  },
  {
    "postal": "L6K6R5",
    "result": []
  },
  {
    "postal": "L6K8W6",
    "result": []
  },
  {
    "postal": "L6K8G6",
    "result": []
  },
  {
    "postal": "L6K6X3",
    "result": []
  },
  {
    "postal": "L6K7R7",
    "result": []
  },
  {
    "postal": "L6K4B6",
    "result": []
  },
  {
    "postal": "L6K3P9",
    "result": [
      {
        "electoralDistricts": [
          {
            "election": null,
            "id": 74,
            "name": "Oakville"
          }
        ],
        "pollDivisionIds": [
          10140356
        ],
        "postalCode": "L6K3P9",
        "streetName": "PINEGROVE",
        "streetDirectionId": null,
        "streetTypeId": "RD",
        "placeName": "OAKVILLE",
        "streetNameDisplayText": "PINEGROVE RD, OAKVILLE"
      }
    ]
  },
  {
    "postal": "L6K2T3",
    "result": [
      {
        "electoralDistricts": [
          {
            "election": null,
            "id": 74,
            "name": "Oakville"
          }
        ],
        "pollDivisionIds": [
          10140356
        ],
        "postalCode": "L6K2T3",
        "streetName": "MORDEN",
        "streetDirectionId": null,
        "streetTypeId": "RD",
        "placeName": "OAKVILLE",
        "streetNameDisplayText": "MORDEN RD, OAKVILLE"
      }
    ]
  },
  {
    "postal": "L6K1M4",
    "result": [
      {
        "electoralDistricts": [
          {
            "election": null,
            "id": 74,
            "name": "Oakville"
          }
        ],
        "pollDivisionIds": [
          10140355
        ],
        "postalCode": "L6K1M4",
        "streetName": "PATRICIA",
        "streetDirectionId": null,
        "streetTypeId": "DR",
        "placeName": "OAKVILLE",
        "streetNameDisplayText": "PATRICIA DR, OAKVILLE"
      }
    ]
  },
  {
    "postal": "L6K0H1",
    "result": []
  },
  {
    "postal": "L6K9W3",
    "result": []
  },
  {
    "postal": "L6K6P1",
    "result": []
  },
  {
    "postal": "L6K7G2",
    "result": []
  },
  {
    "postal": "L6K4J9",
    "result": []
  },
  {
    "postal": "L6K9E4",
    "result": []
  },
  {
    "postal": "L6K8H0",
    "result": []
  },
  {
    "postal": "L6K4M7",
    "result": []
  },
  {
    "postal": "L6K2G9",
    "result": []
  },
  {
    "postal": "L6K8T2",
    "result": []
  },
  {
    "postal": "L6K7G7",
    "result": []
  },
  {
    "postal": "L6K4Z3",
    "result": []
  },
  {
    "postal": "L6K5B3",
    "result": []
  },
  {
    "postal": "L6K1S7",
    "result": [
      {
        "electoralDistricts": [
          {
            "election": null,
            "id": 74,
            "name": "Oakville"
          }
        ],
        "pollDivisionIds": [
          10140359
        ],
        "postalCode": "L6K1S7",
        "streetName": "HIGHLAND",
        "streetDirectionId": null,
        "streetTypeId": "RD",
        "placeName": "OAKVILLE",
        "streetNameDisplayText": "HIGHLAND RD, OAKVILLE"
      }
    ]
  },
  {
    "postal": "L6K2N7",
    "result": [
      {
        "electoralDistricts": [
          {
            "election": null,
            "id": 74,
            "name": "Oakville"
          }
        ],
        "pollDivisionIds": [
          10140356
        ],
        "postalCode": "L6K2N7",
        "streetName": "WOODALE",
        "streetDirectionId": null,
        "streetTypeId": "AVE",
        "placeName": "OAKVILLE",
        "streetNameDisplayText": "WOODALE AVE, OAKVILLE"
      }
    ]
  },
  {
    "postal": "L6K0H8",
    "result": [
      {
        "electoralDistricts": [
          {
            "election": null,
            "id": 74,
            "name": "Oakville"
          }
        ],
        "pollDivisionIds": [
          10140357,
          10140340
        ],
        "postalCode": "L6K0H8",
        "streetName": "LAKESHORE",
        "streetDirectionId": "W",
        "streetTypeId": "RD",
        "placeName": "OAKVILLE",
        "streetNameDisplayText": "LAKESHORE RD W, OAKVILLE"
      },
      {
        "electoralDistricts": [
          {
            "election": null,
            "id": 74,
            "name": "Oakville"
          }
        ],
        "pollDivisionIds": [
          10140357
        ],
        "postalCode": "L6K0H8",
        "streetName": "LAKESHORE RD WEST",
        "streetDirectionId": "W",
        "streetTypeId": "RD",
        "placeName": "OAKVILLE",
        "streetNameDisplayText": "LAKESHORE RD WEST RD W, OAKVILLE"
      }
    ]
  },
  {
    "postal": "L6K7Z4",
    "result": []
  },
  {
    "postal": "L6K7B1",
    "result": []
  },
  {
    "postal": "L6K7P8",
    "result": []
  },
  {
    "postal": "L6K7N0",
    "result": []
  },
  {
    "postal": "L6K3Y5",
    "result": []
  },
  {
    "postal": "L6K6K1",
    "result": []
  },
  {
    "postal": "L6K9X5",
    "result": []
  },
  {
    "postal": "L6K7S5",
    "result": []
  },
  {
    "postal": "L6K0A4",
    "result": []
  },
  {
    "postal": "L6K4T5",
    "result": []
  },
  {
    "postal": "L6K5K1",
    "result": []
  },
  {
    "postal": "L6K0Z9",
    "result": []
  },
  {
    "postal": "L6K7T2",
    "result": []
  },
  {
    "postal": "L6K1L5",
    "result": [
      {
        "electoralDistricts": [
          {
            "election": null,
            "id": 74,
            "name": "Oakville"
          }
        ],
        "pollDivisionIds": [
          10140359
        ],
        "postalCode": "L6K1L5",
        "streetName": "HEAD",
        "streetDirectionId": null,
        "streetTypeId": "ST",
        "placeName": "OAKVILLE",
        "streetNameDisplayText": "HEAD ST, OAKVILLE"
      }
    ]
  },
  {
    "postal": "L6K3N5",
    "result": [
      {
        "electoralDistricts": [
          {
            "election": null,
            "id": 74,
            "name": "Oakville"
          }
        ],
        "pollDivisionIds": [
          10140359
        ],
        "postalCode": "L6K3N5",
        "streetName": "RIVER SIDE",
        "streetDirectionId": null,
        "streetTypeId": "DR",
        "placeName": "OAKVILLE",
        "streetNameDisplayText": "RIVER SIDE DR, OAKVILLE"
      }
    ]
  },
  {
    "postal": "L6K6H4",
    "result": []
  },
  {
    "postal": "L6K5A5",
    "result": []
  },
  {
    "postal": "L6K3R9",
    "result": [
      {
        "electoralDistricts": [
          {
            "election": null,
            "id": 74,
            "name": "Oakville"
          }
        ],
        "pollDivisionIds": [
          10140356
        ],
        "postalCode": "L6K3R9",
        "streetName": "SPEERS",
        "streetDirectionId": null,
        "streetTypeId": "RD",
        "placeName": "OAKVILLE",
        "streetNameDisplayText": "SPEERS RD, OAKVILLE"
      }
    ]
  },
  {
    "postal": "L6K7L8",
    "result": []
  },
  {
    "postal": "L6K6T6",
    "result": []
  },
  {
    "postal": "L6K7Y7",
    "result": []
  },
  {
    "postal": "L6K3M8",
    "result": [
      {
        "electoralDistricts": [
          {
            "election": null,
            "id": 74,
            "name": "Oakville"
          }
        ],
        "pollDivisionIds": [
          10140359
        ],
        "postalCode": "L6K3M8",
        "streetName": "OAKWOOD",
        "streetDirectionId": null,
        "streetTypeId": "CRES",
        "placeName": "OAKVILLE",
        "streetNameDisplayText": "OAKWOOD CRES, OAKVILLE"
      }
    ]
  },
  {
    "postal": "L6K2E0",
    "result": []
  },
  {
    "postal": "L6K4B5",
    "result": []
  },
  {
    "postal": "L6K1J3",
    "result": [
      {
        "electoralDistricts": [
          {
            "election": null,
            "id": 74,
            "name": "Oakville"
          }
        ],
        "pollDivisionIds": [
          10140358,
          10140359
        ],
        "postalCode": "L6K1J3",
        "streetName": "REBECCA",
        "streetDirectionId": null,
        "streetTypeId": "ST",
        "placeName": "OAKVILLE",
        "streetNameDisplayText": "REBECCA ST, OAKVILLE"
      }
    ]
  },
  {
    "postal": "L6K5S6",
    "result": []
  },
  {
    "postal": "L6K8P7",
    "result": []
  },
  {
    "postal": "L6K7S7",
    "result": []
  },
  {
    "postal": "L6K4C2",
    "result": []
  },
  {
    "postal": "L6K5Y0",
    "result": []
  },
  {
    "postal": "L6K2V7",
    "result": [
      {
        "electoralDistricts": [
          {
            "election": null,
            "id": 74,
            "name": "Oakville"
          }
        ],
        "pollDivisionIds": [
          10140357
        ],
        "postalCode": "L6K2V7",
        "streetName": "HANOVER",
        "streetDirectionId": null,
        "streetTypeId": "ST",
        "placeName": "OAKVILLE",
        "streetNameDisplayText": "HANOVER ST, OAKVILLE"
      }
    ]
  },
  {
    "postal": "L6K8P5",
    "result": []
  },
  {
    "postal": "L6K5P5",
    "result": []
  },
  {
    "postal": "L6K5Z0",
    "result": []
  },
  {
    "postal": "L6K9B0",
    "result": []
  },
  {
    "postal": "L6K1L0",
    "result": []
  },
  {
    "postal": "L6K0B5",
    "result": []
  },
  {
    "postal": "L6K3L2",
    "result": [
      {
        "electoralDistricts": [
          {
            "election": null,
            "id": 74,
            "name": "Oakville"
          }
        ],
        "pollDivisionIds": [
          10140359
        ],
        "postalCode": "L6K3L2",
        "streetName": "QUEEN MARY",
        "streetDirectionId": null,
        "streetTypeId": "DR",
        "placeName": "OAKVILLE",
        "streetNameDisplayText": "QUEEN MARY DR, OAKVILLE"
      }
    ]
  },
  {
    "postal": "L6K3B7",
    "result": [
      {
        "electoralDistricts": [
          {
            "election": null,
            "id": 74,
            "name": "Oakville"
          }
        ],
        "pollDivisionIds": [
          10140358
        ],
        "postalCode": "L6K3B7",
        "streetName": "KERR",
        "streetDirectionId": null,
        "streetTypeId": "ST",
        "placeName": "OAKVILLE",
        "streetNameDisplayText": "KERR ST, OAKVILLE"
      }
    ]
  },
  {
    "postal": "L6K8L1",
    "result": []
  },
  {
    "postal": "L6K5M4",
    "result": []
  },
  {
    "postal": "L6K4G9",
    "result": []
  },
  {
    "postal": "L6K0P0",
    "result": []
  },
  {
    "postal": "L6K8G2",
    "result": []
  },
  {
    "postal": "L6K1V9",
    "result": [
      {
        "electoralDistricts": [
          {
            "election": null,
            "id": 74,
            "name": "Oakville"
          }
        ],
        "pollDivisionIds": [
          10140357
        ],
        "postalCode": "L6K1V9",
        "streetName": "HAWTHORNE",
        "streetDirectionId": null,
        "streetTypeId": "RD",
        "placeName": "OAKVILLE",
        "streetNameDisplayText": "HAWTHORNE RD, OAKVILLE"
      }
    ]
  },
  {
    "postal": "L6K8N8",
    "result": []
  },
  {
    "postal": "L6K6S8",
    "result": []
  },
  {
    "postal": "L6K8H2",
    "result": []
  },
  {
    "postal": "L6K5R8",
    "result": []
  },
  {
    "postal": "L6K5L4",
    "result": []
  },
  {
    "postal": "L6K9E1",
    "result": []
  },
  {
    "postal": "L6K1C4",
    "result": [
      {
        "electoralDistricts": [
          {
            "election": null,
            "id": 74,
            "name": "Oakville"
          }
        ],
        "pollDivisionIds": [
          10140359
        ],
        "postalCode": "L6K1C4",
        "streetName": "BURNET",
        "streetDirectionId": null,
        "streetTypeId": "ST",
        "placeName": "OAKVILLE",
        "streetNameDisplayText": "BURNET ST, OAKVILLE"
      }
    ]
  },
  {
    "postal": "L6K8W5",
    "result": []
  },
  {
    "postal": "L6K1Y4",
    "result": [
      {
        "electoralDistricts": [
          {
            "election": null,
            "id": 74,
            "name": "Oakville"
          }
        ],
        "pollDivisionIds": [
          10140359
        ],
        "postalCode": "L6K1Y4",
        "streetName": "FORSTER PARK",
        "streetDirectionId": null,
        "streetTypeId": "DR",
        "placeName": "OAKVILLE",
        "streetNameDisplayText": "FORSTER PARK DR, OAKVILLE"
      }
    ]
  },
  {
    "postal": "L6K1C0",
    "result": []
  },
  {
    "postal": "L6K2J2",
    "result": [
      {
        "electoralDistricts": [
          {
            "election": null,
            "id": 74,
            "name": "Oakville"
          }
        ],
        "pollDivisionIds": [
          10140355
        ],
        "postalCode": "L6K2J2",
        "streetName": "GLEN OAK",
        "streetDirectionId": null,
        "streetTypeId": "DR",
        "placeName": "OAKVILLE",
        "streetNameDisplayText": "GLEN OAK DR, OAKVILLE"
      }
    ]
  },
  {
    "postal": "L6K2J0",
    "result": []
  },
  {
    "postal": "L6K7A3",
    "result": []
  },
  {
    "postal": "L6K8M1",
    "result": []
  },
  {
    "postal": "L6K7T9",
    "result": []
  },
  {
    "postal": "L6K6C0",
    "result": []
  },
  {
    "postal": "L6K7X1",
    "result": []
  },
  {
    "postal": "L6K0G1",
    "result": []
  },
  {
    "postal": "L6K4X2",
    "result": []
  },
  {
    "postal": "L6K0N6",
    "result": []
  },
  {
    "postal": "L6K8E3",
    "result": []
  },
  {
    "postal": "L6K5S8",
    "result": []
  },
  {
    "postal": "L6K0R0",
    "result": []
  },
  {
    "postal": "L6K6J6",
    "result": []
  },
  {
    "postal": "L6K4B4",
    "result": []
  },
  {
    "postal": "L6K7E3",
    "result": []
  },
  {
    "postal": "L6K3N6",
    "result": [
      {
        "electoralDistricts": [
          {
            "election": null,
            "id": 74,
            "name": "Oakville"
          }
        ],
        "pollDivisionIds": [
          10140358
        ],
        "postalCode": "L6K3N6",
        "streetName": "RIVER SIDE",
        "streetDirectionId": null,
        "streetTypeId": "DR",
        "placeName": "OAKVILLE",
        "streetNameDisplayText": "RIVER SIDE DR, OAKVILLE"
      },
      {
        "electoralDistricts": [
          {
            "election": null,
            "id": 74,
            "name": "Oakville"
          }
        ],
        "pollDivisionIds": [
          10140358
        ],
        "postalCode": "L6K3N6",
        "streetName": "RIVERSIDE",
        "streetDirectionId": null,
        "streetTypeId": "DR",
        "placeName": "OAKVILLE",
        "streetNameDisplayText": "RIVERSIDE DR, OAKVILLE"
      }
    ]
  },
  {
    "postal": "L6K3X6",
    "result": [
      {
        "electoralDistricts": [
          {
            "election": null,
            "id": 74,
            "name": "Oakville"
          }
        ],
        "pollDivisionIds": [
          10140357,
          10140326
        ],
        "postalCode": "L6K3X6",
        "streetName": "BRANT",
        "streetDirectionId": null,
        "streetTypeId": "ST",
        "placeName": "OAKVILLE",
        "streetNameDisplayText": "BRANT ST, OAKVILLE"
      }
    ]
  },
  {
    "postal": "L6K8L0",
    "result": []
  },
  {
    "postal": "L6K8N1",
    "result": []
  },
  {
    "postal": "L6K4J0",
    "result": []
  },
  {
    "postal": "L6K0X7",
    "result": []
  },
  {
    "postal": "L6K6S4",
    "result": []
  },
  {
    "postal": "L6K0Z0",
    "result": []
  },
  {
    "postal": "L6K9X8",
    "result": []
  },
  {
    "postal": "L6K3H3",
    "result": [
      {
        "electoralDistricts": [
          {
            "election": null,
            "id": 74,
            "name": "Oakville"
          }
        ],
        "pollDivisionIds": [
          10140359
        ],
        "postalCode": "L6K3H3",
        "streetName": "WILSON",
        "streetDirectionId": null,
        "streetTypeId": "ST",
        "placeName": "OAKVILLE",
        "streetNameDisplayText": "WILSON ST, OAKVILLE"
      }
    ]
  },
  {
    "postal": "L6K7S2",
    "result": []
  },
  {
    "postal": "L6K3T3",
    "result": [
      {
        "electoralDistricts": [
          {
            "election": null,
            "id": 74,
            "name": "Oakville"
          }
        ],
        "pollDivisionIds": [
          10140359
        ],
        "postalCode": "L6K3T3",
        "streetName": "FORSYTHE",
        "streetDirectionId": null,
        "streetTypeId": "ST",
        "placeName": "OAKVILLE",
        "streetNameDisplayText": "FORSYTHE ST, OAKVILLE"
      }
    ]
  },
  {
    "postal": "L6K9P3",
    "result": []
  },
  {
    "postal": "L6K4H8",
    "result": []
  },
  {
    "postal": "L6K6R1",
    "result": []
  },
  {
    "postal": "L6K1S0",
    "result": []
  },
  {
    "postal": "L6K3W8",
    "result": [
      {
        "electoralDistricts": [
          {
            "election": null,
            "id": 74,
            "name": "Oakville"
          }
        ],
        "pollDivisionIds": [
          10140357
        ],
        "postalCode": "L6K3W8",
        "streetName": "SPEERS",
        "streetDirectionId": null,
        "streetTypeId": "RD",
        "placeName": "OAKVILLE",
        "streetNameDisplayText": "SPEERS RD, OAKVILLE"
      }
    ]
  },
  {
    "postal": "L6K4S3",
    "result": []
  },
  {
    "postal": "L6K1B6",
    "result": [
      {
        "electoralDistricts": [
          {
            "election": null,
            "id": 74,
            "name": "Oakville"
          }
        ],
        "pollDivisionIds": [
          10140359
        ],
        "postalCode": "L6K1B6",
        "streetName": "BURNET",
        "streetDirectionId": null,
        "streetTypeId": "ST",
        "placeName": "OAKVILLE",
        "streetNameDisplayText": "BURNET ST, OAKVILLE"
      }
    ]
  },
  {
    "postal": "L6K8R3",
    "result": []
  },
  {
    "postal": "L6K4V9",
    "result": []
  },
  {
    "postal": "L6K9W4",
    "result": []
  },
  {
    "postal": "L6K3T4",
    "result": [
      {
        "electoralDistricts": [
          {
            "election": null,
            "id": 74,
            "name": "Oakville"
          }
        ],
        "pollDivisionIds": [
          10140357
        ],
        "postalCode": "L6K3T4",
        "streetName": "BROCK",
        "streetDirectionId": null,
        "streetTypeId": "ST",
        "placeName": "OAKVILLE",
        "streetNameDisplayText": "BROCK ST, OAKVILLE"
      }
    ]
  },
  {
    "postal": "L6K5C7",
    "result": []
  },
  {
    "postal": "L6K3Y1",
    "result": [
      {
        "electoralDistricts": [
          {
            "election": null,
            "id": 74,
            "name": "Oakville"
          }
        ],
        "pollDivisionIds": [
          10140356
        ],
        "postalCode": "L6K3Y1",
        "streetName": "DORVAL",
        "streetDirectionId": null,
        "streetTypeId": "DR",
        "placeName": "OAKVILLE",
        "streetNameDisplayText": "DORVAL DR, OAKVILLE"
      }
    ]
  },
  {
    "postal": "L6K5V0",
    "result": []
  },
  {
    "postal": "L6K8G8",
    "result": []
  },
  {
    "postal": "L6K8B1",
    "result": []
  },
  {
    "postal": "L6K4P5",
    "result": []
  },
  {
    "postal": "L6K7B2",
    "result": []
  },
  {
    "postal": "L6K0R2",
    "result": []
  },
  {
    "postal": "L6K4M4",
    "result": []
  },
  {
    "postal": "L6K7M4",
    "result": []
  },
  {
    "postal": "L6K9S7",
    "result": []
  },
  {
    "postal": "L6K5Z7",
    "result": []
  },
  {
    "postal": "L6K7J7",
    "result": []
  },
  {
    "postal": "L6K8R8",
    "result": []
  },
  {
    "postal": "L6K9X1",
    "result": []
  },
  {
    "postal": "L6K5M9",
    "result": []
  },
  {
    "postal": "L6K9B4",
    "result": []
  },
  {
    "postal": "L6K0L9",
    "result": []
  },
  {
    "postal": "L6K9G4",
    "result": []
  },
  {
    "postal": "L6K1J4",
    "result": [
      {
        "electoralDistricts": [
          {
            "election": null,
            "id": 74,
            "name": "Oakville"
          }
        ],
        "pollDivisionIds": [
          10140359
        ],
        "postalCode": "L6K1J4",
        "streetName": "REBECCA",
        "streetDirectionId": null,
        "streetTypeId": "ST",
        "placeName": "OAKVILLE",
        "streetNameDisplayText": "REBECCA ST, OAKVILLE"
      }
    ]
  },
  {
    "postal": "L6K0W6",
    "result": []
  }
]
