[
  {
    "postal": "L5J9J6",
    "result": []
  },
  {
    "postal": "L5J9Z5",
    "result": []
  },
  {
    "postal": "L5J7H8",
    "result": []
  },
  {
    "postal": "L5J0P6",
    "result": []
  },
  {
    "postal": "L5J0S7",
    "result": []
  },
  {
    "postal": "L5J8B9",
    "result": []
  },
  {
    "postal": "L5J2A6",
    "result": [
      {
        "electoralDistricts": [
          {
            "election": null,
            "id": 63,
            "name": "Mississauga—Lakeshore"
          }
        ],
        "pollDivisionIds": [
          10139767
        ],
        "postalCode": "L5J2A6",
        "streetName": "TRUSCOTT",
        "streetDirectionId": null,
        "streetTypeId": "DR",
        "placeName": "MISSISSAUGA",
        "streetNameDisplayText": "TRUSCOTT DR, MISSISSAUGA"
      }
    ]
  },
  {
    "postal": "L5J7V2",
    "result": []
  },
  {
    "postal": "L5J9P4",
    "result": []
  },
  {
    "postal": "L5J6G0",
    "result": []
  },
  {
    "postal": "L5J2K0",
    "result": []
  },
  {
    "postal": "L5J7N6",
    "result": []
  },
  {
    "postal": "L5J5R3",
    "result": []
  },
  {
    "postal": "L5J7K0",
    "result": []
  },
  {
    "postal": "L5J3R2",
    "result": [
      {
        "electoralDistricts": [
          {
            "election": null,
            "id": 63,
            "name": "Mississauga—Lakeshore"
          }
        ],
        "pollDivisionIds": [
          10139767
        ],
        "postalCode": "L5J3R2",
        "streetName": "LEWISHAM",
        "streetDirectionId": null,
        "streetTypeId": "DR",
        "placeName": "MISSISSAUGA",
        "streetNameDisplayText": "LEWISHAM DR, MISSISSAUGA"
      }
    ]
  },
  {
    "postal": "L5J0J1",
    "result": []
  },
  {
    "postal": "L5J0B0",
    "result": []
  },
  {
    "postal": "L5J5Z2",
    "result": []
  },
  {
    "postal": "L5J7P3",
    "result": []
  },
  {
    "postal": "L5J2K3",
    "result": [
      {
        "electoralDistricts": [
          {
            "election": null,
            "id": 63,
            "name": "Mississauga—Lakeshore"
          }
        ],
        "pollDivisionIds": [
          10139765
        ],
        "postalCode": "L5J2K3",
        "streetName": "BICKFORD",
        "streetDirectionId": null,
        "streetTypeId": "DR",
        "placeName": "MISSISSAUGA",
        "streetNameDisplayText": "BICKFORD DR, MISSISSAUGA"
      }
    ]
  },
  {
    "postal": "L5J7Y6",
    "result": []
  },
  {
    "postal": "L5J1L9",
    "result": [
      {
        "electoralDistricts": [
          {
            "election": null,
            "id": 63,
            "name": "Mississauga—Lakeshore"
          }
        ],
        "pollDivisionIds": [
          10139768
        ],
        "postalCode": "L5J1L9",
        "streetName": "BROMSGROVE",
        "streetDirectionId": null,
        "streetTypeId": "RD",
        "placeName": "MISSISSAUGA",
        "streetNameDisplayText": "BROMSGROVE RD, MISSISSAUGA"
      }
    ]
  },
  {
    "postal": "L5J8T0",
    "result": []
  },
  {
    "postal": "L5J3K8",
    "result": [
      {
        "electoralDistricts": [
          {
            "election": null,
            "id": 63,
            "name": "Mississauga—Lakeshore"
          }
        ],
        "pollDivisionIds": [
          10139765
        ],
        "postalCode": "L5J3K8",
        "streetName": "ROBILLARD",
        "streetDirectionId": null,
        "streetTypeId": "RD",
        "placeName": "MISSISSAUGA",
        "streetNameDisplayText": "ROBILLARD RD, MISSISSAUGA"
      }
    ]
  },
  {
    "postal": "L5J5W9",
    "result": []
  },
  {
    "postal": "L5J6T9",
    "result": []
  },
  {
    "postal": "L5J4H1",
    "result": [
      {
        "electoralDistricts": [
          {
            "election": null,
            "id": 63,
            "name": "Mississauga—Lakeshore"
          }
        ],
        "pollDivisionIds": [
          10139767
        ],
        "postalCode": "L5J4H1",
        "streetName": "BIRCH",
        "streetDirectionId": null,
        "streetTypeId": "CRES",
        "placeName": "MISSISSAUGA",
        "streetNameDisplayText": "BIRCH CRES, MISSISSAUGA"
      }
    ]
  },
  {
    "postal": "L5J7A2",
    "result": []
  },
  {
    "postal": "L5J5G0",
    "result": []
  },
  {
    "postal": "L5J8V5",
    "result": []
  },
  {
    "postal": "L5J2Y8",
    "result": [
      {
        "electoralDistricts": [
          {
            "election": null,
            "id": 63,
            "name": "Mississauga—Lakeshore"
          }
        ],
        "pollDivisionIds": [
          10139769
        ],
        "postalCode": "L5J2Y8",
        "streetName": "SOUTHDOWN",
        "streetDirectionId": null,
        "streetTypeId": "RD",
        "placeName": "MISSISSAUGA",
        "streetNameDisplayText": "SOUTHDOWN RD, MISSISSAUGA"
      }
    ]
  },
  {
    "postal": "L5J2B6",
    "result": [
      {
        "electoralDistricts": [
          {
            "election": null,
            "id": 63,
            "name": "Mississauga—Lakeshore"
          }
        ],
        "pollDivisionIds": [
          10139767
        ],
        "postalCode": "L5J2B6",
        "streetName": "TRUSCOTT",
        "streetDirectionId": null,
        "streetTypeId": "DR",
        "placeName": "MISSISSAUGA",
        "streetNameDisplayText": "TRUSCOTT DR, MISSISSAUGA"
      }
    ]
  },
  {
    "postal": "L5J4W8",
    "result": []
  },
  {
    "postal": "L5J8H7",
    "result": []
  },
  {
    "postal": "L5J5P1",
    "result": []
  },
  {
    "postal": "L5J2B8",
    "result": [
      {
        "electoralDistricts": [
          {
            "election": null,
            "id": 63,
            "name": "Mississauga—Lakeshore"
          }
        ],
        "pollDivisionIds": [
          10139767
        ],
        "postalCode": "L5J2B8",
        "streetName": "TRUSCOTT",
        "streetDirectionId": null,
        "streetTypeId": "DR",
        "placeName": "MISSISSAUGA",
        "streetNameDisplayText": "TRUSCOTT DR, MISSISSAUGA"
      }
    ]
  },
  {
    "postal": "L5J0P2",
    "result": []
  },
  {
    "postal": "L5J9M1",
    "result": []
  },
  {
    "postal": "L5J3G0",
    "result": []
  },
  {
    "postal": "L5J9Z2",
    "result": []
  },
  {
    "postal": "L5J2A0",
    "result": []
  },
  {
    "postal": "L5J6Y0",
    "result": []
  },
  {
    "postal": "L5J2Z8",
    "result": [
      {
        "electoralDistricts": [
          {
            "election": null,
            "id": 63,
            "name": "Mississauga—Lakeshore"
          }
        ],
        "pollDivisionIds": [
          10139761
        ],
        "postalCode": "L5J2Z8",
        "streetName": "FOXFIELD",
        "streetDirectionId": null,
        "streetTypeId": "CRT",
        "placeName": "MISSISSAUGA",
        "streetNameDisplayText": "FOXFIELD CRT, MISSISSAUGA"
      }
    ]
  },
  {
    "postal": "L5J7Y3",
    "result": []
  },
  {
    "postal": "L5J6Z5",
    "result": []
  },
  {
    "postal": "L5J6E0",
    "result": []
  },
  {
    "postal": "L5J9B7",
    "result": []
  },
  {
    "postal": "L5J9S5",
    "result": []
  },
  {
    "postal": "L5J3X3",
    "result": [
      {
        "electoralDistricts": [
          {
            "election": null,
            "id": 63,
            "name": "Mississauga—Lakeshore"
          }
        ],
        "pollDivisionIds": [
          10139767
        ],
        "postalCode": "L5J3X3",
        "streetName": "LOCKHART",
        "streetDirectionId": null,
        "streetTypeId": "RD",
        "placeName": "MISSISSAUGA",
        "streetNameDisplayText": "LOCKHART RD, MISSISSAUGA"
      }
    ]
  },
  {
    "postal": "L5J7R5",
    "result": []
  },
  {
    "postal": "L5J2X3",
    "result": [
      {
        "electoralDistricts": [
          {
            "election": null,
            "id": 63,
            "name": "Mississauga—Lakeshore"
          }
        ],
        "pollDivisionIds": [
          10139765
        ],
        "postalCode": "L5J2X3",
        "streetName": "CLARKSON",
        "streetDirectionId": "N",
        "streetTypeId": "RD",
        "placeName": "MISSISSAUGA",
        "streetNameDisplayText": "CLARKSON RD N, MISSISSAUGA"
      }
    ]
  },
  {
    "postal": "L5J8Z9",
    "result": []
  },
  {
    "postal": "L5J0N4",
    "result": []
  },
  {
    "postal": "L5J1K1",
    "result": [
      {
        "electoralDistricts": [
          {
            "election": null,
            "id": 63,
            "name": "Mississauga—Lakeshore"
          }
        ],
        "pollDivisionIds": [
          10139769
        ],
        "postalCode": "L5J1K1",
        "streetName": "LAKESHORE",
        "streetDirectionId": "W",
        "streetTypeId": "RD",
        "placeName": "MISSISSAUGA",
        "streetNameDisplayText": "LAKESHORE RD W, MISSISSAUGA"
      }
    ]
  },
  {
    "postal": "L5J1S3",
    "result": [
      {
        "electoralDistricts": [
          {
            "election": null,
            "id": 63,
            "name": "Mississauga—Lakeshore"
          }
        ],
        "pollDivisionIds": [
          10139765
        ],
        "postalCode": "L5J1S3",
        "streetName": "AMBRIDGE",
        "streetDirectionId": null,
        "streetTypeId": "CRT",
        "placeName": "MISSISSAUGA",
        "streetNameDisplayText": "AMBRIDGE CRT, MISSISSAUGA"
      }
    ]
  },
  {
    "postal": "L5J6M4",
    "result": []
  },
  {
    "postal": "L5J9A9",
    "result": []
  },
  {
    "postal": "L5J9Z9",
    "result": []
  },
  {
    "postal": "L5J6T4",
    "result": []
  },
  {
    "postal": "L5J0B2",
    "result": []
  },
  {
    "postal": "L5J2L9",
    "result": [
      {
        "electoralDistricts": [
          {
            "election": null,
            "id": 63,
            "name": "Mississauga—Lakeshore"
          }
        ],
        "pollDivisionIds": [
          10139761
        ],
        "postalCode": "L5J2L9",
        "streetName": "WEMBURY",
        "streetDirectionId": null,
        "streetTypeId": "RD",
        "placeName": "MISSISSAUGA",
        "streetNameDisplayText": "WEMBURY RD, MISSISSAUGA"
      }
    ]
  },
  {
    "postal": "L5J8K9",
    "result": []
  },
  {
    "postal": "L5J2H9",
    "result": [
      {
        "electoralDistricts": [
          {
            "election": null,
            "id": 63,
            "name": "Mississauga—Lakeshore"
          }
        ],
        "pollDivisionIds": [
          10139761
        ],
        "postalCode": "L5J2H9",
        "streetName": "BRAMSEY",
        "streetDirectionId": null,
        "streetTypeId": "DR",
        "placeName": "MISSISSAUGA",
        "streetNameDisplayText": "BRAMSEY DR, MISSISSAUGA"
      }
    ]
  },
  {
    "postal": "L5J3Z6",
    "result": [
      {
        "electoralDistricts": [
          {
            "election": null,
            "id": 63,
            "name": "Mississauga—Lakeshore"
          }
        ],
        "pollDivisionIds": [
          10139763
        ],
        "postalCode": "L5J3Z6",
        "streetName": "FLAMINIA",
        "streetDirectionId": null,
        "streetTypeId": "CRT",
        "placeName": "MISSISSAUGA",
        "streetNameDisplayText": "FLAMINIA CRT, MISSISSAUGA"
      }
    ]
  },
  {
    "postal": "L5J3B0",
    "result": []
  },
  {
    "postal": "L5J2H8",
    "result": [
      {
        "electoralDistricts": [
          {
            "election": null,
            "id": 63,
            "name": "Mississauga—Lakeshore"
          }
        ],
        "pollDivisionIds": [
          10139761
        ],
        "postalCode": "L5J2H8",
        "streetName": "BRAMSEY",
        "streetDirectionId": null,
        "streetTypeId": "DR",
        "placeName": "MISSISSAUGA",
        "streetNameDisplayText": "BRAMSEY DR, MISSISSAUGA"
      }
    ]
  },
  {
    "postal": "L5J3X2",
    "result": [
      {
        "electoralDistricts": [
          {
            "election": null,
            "id": 63,
            "name": "Mississauga—Lakeshore"
          }
        ],
        "pollDivisionIds": [
          10139767
        ],
        "postalCode": "L5J3X2",
        "streetName": "LOCKHART",
        "streetDirectionId": null,
        "streetTypeId": "RD",
        "placeName": "MISSISSAUGA",
        "streetNameDisplayText": "LOCKHART RD, MISSISSAUGA"
      }
    ]
  },
  {
    "postal": "L5J2E9",
    "result": [
      {
        "electoralDistricts": [
          {
            "election": null,
            "id": 63,
            "name": "Mississauga—Lakeshore"
          }
        ],
        "pollDivisionIds": [
          10139767
        ],
        "postalCode": "L5J2E9",
        "streetName": "YEOVIL",
        "streetDirectionId": null,
        "streetTypeId": "RD",
        "placeName": "MISSISSAUGA",
        "streetNameDisplayText": "YEOVIL RD, MISSISSAUGA"
      }
    ]
  },
  {
    "postal": "L5J9P6",
    "result": []
  },
  {
    "postal": "L5J9E2",
    "result": []
  },
  {
    "postal": "L5J9H2",
    "result": []
  },
  {
    "postal": "L5J1S8",
    "result": [
      {
        "electoralDistricts": [
          {
            "election": null,
            "id": 63,
            "name": "Mississauga—Lakeshore"
          }
        ],
        "pollDivisionIds": [
          10139761
        ],
        "postalCode": "L5J1S8",
        "streetName": "JALNA",
        "streetDirectionId": null,
        "streetTypeId": "AVE",
        "placeName": "MISSISSAUGA",
        "streetNameDisplayText": "JALNA AVE, MISSISSAUGA"
      }
    ]
  },
  {
    "postal": "L5J3M6",
    "result": [
      {
        "electoralDistricts": [
          {
            "election": null,
            "id": 63,
            "name": "Mississauga—Lakeshore"
          }
        ],
        "pollDivisionIds": [
          10139765
        ],
        "postalCode": "L5J3M6",
        "streetName": "DAVEBROOK",
        "streetDirectionId": null,
        "streetTypeId": "RD",
        "placeName": "MISSISSAUGA",
        "streetNameDisplayText": "DAVEBROOK RD, MISSISSAUGA"
      }
    ]
  },
  {
    "postal": "L5J6Z8",
    "result": []
  },
  {
    "postal": "L5J4J2",
    "result": [
      {
        "electoralDistricts": [
          {
            "election": null,
            "id": 63,
            "name": "Mississauga—Lakeshore"
          }
        ],
        "pollDivisionIds": [
          10139768
        ],
        "postalCode": "L5J4J2",
        "streetName": "BROMSGROVE",
        "streetDirectionId": null,
        "streetTypeId": "RD",
        "placeName": "MISSISSAUGA",
        "streetNameDisplayText": "BROMSGROVE RD, MISSISSAUGA"
      }
    ]
  },
  {
    "postal": "L5J9Y1",
    "result": []
  },
  {
    "postal": "L5J8V6",
    "result": []
  },
  {
    "postal": "L5J6B2",
    "result": []
  },
  {
    "postal": "L5J1P8",
    "result": [
      {
        "electoralDistricts": [
          {
            "election": null,
            "id": 63,
            "name": "Mississauga—Lakeshore"
          }
        ],
        "pollDivisionIds": [
          10139768
        ],
        "postalCode": "L5J1P8",
        "streetName": "LUNDENE",
        "streetDirectionId": null,
        "streetTypeId": "RD",
        "placeName": "MISSISSAUGA",
        "streetNameDisplayText": "LUNDENE RD, MISSISSAUGA"
      }
    ]
  },
  {
    "postal": "L5J0V8",
    "result": []
  },
  {
    "postal": "L5J4Y0",
    "result": []
  },
  {
    "postal": "L5J2T4",
    "result": [
      {
        "electoralDistricts": [
          {
            "election": null,
            "id": 63,
            "name": "Mississauga—Lakeshore"
          }
        ],
        "pollDivisionIds": [
          10139769
        ],
        "postalCode": "L5J2T4",
        "streetName": "MISSENDEN",
        "streetDirectionId": null,
        "streetTypeId": "CRES",
        "placeName": "MISSISSAUGA",
        "streetNameDisplayText": "MISSENDEN CRES, MISSISSAUGA"
      }
    ]
  },
  {
    "postal": "L5J2S3",
    "result": [
      {
        "electoralDistricts": [
          {
            "election": null,
            "id": 63,
            "name": "Mississauga—Lakeshore"
          }
        ],
        "pollDivisionIds": [
          10139769
        ],
        "postalCode": "L5J2S3",
        "streetName": "MEADOW WOOD",
        "streetDirectionId": null,
        "streetTypeId": "RD",
        "placeName": "MISSISSAUGA",
        "streetNameDisplayText": "MEADOW WOOD RD, MISSISSAUGA"
      }
    ]
  },
  {
    "postal": "L5J0K0",
    "result": []
  },
  {
    "postal": "L5J5N1",
    "result": []
  },
  {
    "postal": "L5J7T0",
    "result": []
  },
  {
    "postal": "L5J9N2",
    "result": []
  },
  {
    "postal": "L5J5L1",
    "result": []
  },
  {
    "postal": "L5J7G5",
    "result": []
  },
  {
    "postal": "L5J6K2",
    "result": []
  },
  {
    "postal": "L5J6P9",
    "result": []
  },
  {
    "postal": "L5J0E6",
    "result": []
  },
  {
    "postal": "L5J8R9",
    "result": []
  },
  {
    "postal": "L5J3G9",
    "result": [
      {
        "electoralDistricts": [
          {
            "election": null,
            "id": 63,
            "name": "Mississauga—Lakeshore"
          }
        ],
        "pollDivisionIds": [
          10139765
        ],
        "postalCode": "L5J3G9",
        "streetName": "AGNEW",
        "streetDirectionId": null,
        "streetTypeId": "RD",
        "placeName": "MISSISSAUGA",
        "streetNameDisplayText": "AGNEW RD, MISSISSAUGA"
      }
    ]
  },
  {
    "postal": "L5J0V7",
    "result": []
  },
  {
    "postal": "L5J2Z1",
    "result": [
      {
        "electoralDistricts": [
          {
            "election": null,
            "id": 63,
            "name": "Mississauga—Lakeshore"
          }
        ],
        "pollDivisionIds": [
          10139765
        ],
        "postalCode": "L5J2Z1",
        "streetName": "SOUTHDOWN",
        "streetDirectionId": null,
        "streetTypeId": "RD",
        "placeName": "MISSISSAUGA",
        "streetNameDisplayText": "SOUTHDOWN RD, MISSISSAUGA"
      }
    ]
  },
  {
    "postal": "L5J7N1",
    "result": []
  },
  {
    "postal": "L5J3C6",
    "result": [
      {
        "electoralDistricts": [
          {
            "election": null,
            "id": 63,
            "name": "Mississauga—Lakeshore"
          }
        ],
        "pollDivisionIds": [
          10139761
        ],
        "postalCode": "L5J3C6",
        "streetName": "RANDOR",
        "streetDirectionId": null,
        "streetTypeId": "DR",
        "placeName": "MISSISSAUGA",
        "streetNameDisplayText": "RANDOR DR, MISSISSAUGA"
      }
    ]
  },
  {
    "postal": "L5J4M1",
    "result": [
      {
        "electoralDistricts": [
          {
            "election": null,
            "id": 63,
            "name": "Mississauga—Lakeshore"
          }
        ],
        "pollDivisionIds": [
          10139763
        ],
        "postalCode": "L5J4M1",
        "streetName": "NESDALE",
        "streetDirectionId": null,
        "streetTypeId": "CRT",
        "placeName": "MISSISSAUGA",
        "streetNameDisplayText": "NESDALE CRT, MISSISSAUGA"
      }
    ]
  },
  {
    "postal": "L5J9K2",
    "result": []
  },
  {
    "postal": "L5J9S6",
    "result": []
  },
  {
    "postal": "L5J4X1",
    "result": []
  },
  {
    "postal": "L5J8W2",
    "result": []
  },
  {
    "postal": "L5J7N2",
    "result": []
  },
  {
    "postal": "L5J8S3",
    "result": []
  },
  {
    "postal": "L5J4V0",
    "result": []
  },
  {
    "postal": "L5J6W4",
    "result": []
  },
  {
    "postal": "L5J5M1",
    "result": []
  },
  {
    "postal": "L5J0S4",
    "result": []
  },
  {
    "postal": "L5J5X6",
    "result": []
  },
  {
    "postal": "L5J8L5",
    "result": []
  },
  {
    "postal": "L5J5M8",
    "result": []
  },
  {
    "postal": "L5J2G3",
    "result": [
      {
        "electoralDistricts": [
          {
            "election": null,
            "id": 63,
            "name": "Mississauga—Lakeshore"
          }
        ],
        "pollDivisionIds": [
          10139767
        ],
        "postalCode": "L5J2G3",
        "streetName": "PADSTOW",
        "streetDirectionId": null,
        "streetTypeId": "CRES",
        "placeName": "MISSISSAUGA",
        "streetNameDisplayText": "PADSTOW CRES, MISSISSAUGA"
      }
    ]
  },
  {
    "postal": "L5J8E4",
    "result": []
  },
  {
    "postal": "L5J7S9",
    "result": []
  },
  {
    "postal": "L5J1K3",
    "result": []
  },
  {
    "postal": "L5J4E1",
    "result": [
      {
        "electoralDistricts": [
          {
            "election": null,
            "id": 63,
            "name": "Mississauga—Lakeshore"
          }
        ],
        "pollDivisionIds": [
          10139763
        ],
        "postalCode": "L5J4E1",
        "streetName": "BRIDGESTONE",
        "streetDirectionId": null,
        "streetTypeId": "LANE",
        "placeName": "MISSISSAUGA",
        "streetNameDisplayText": "BRIDGESTONE LANE, MISSISSAUGA"
      }
    ]
  },
  {
    "postal": "L5J4R2",
    "result": []
  },
  {
    "postal": "L5J6T0",
    "result": []
  },
  {
    "postal": "L5J3K5",
    "result": [
      {
        "electoralDistricts": [
          {
            "election": null,
            "id": 63,
            "name": "Mississauga—Lakeshore"
          }
        ],
        "pollDivisionIds": [
          10139765
        ],
        "postalCode": "L5J3K5",
        "streetName": "ROBILLARD",
        "streetDirectionId": null,
        "streetTypeId": "RD",
        "placeName": "MISSISSAUGA",
        "streetNameDisplayText": "ROBILLARD RD, MISSISSAUGA"
      }
    ]
  },
  {
    "postal": "L5J3S3",
    "result": [
      {
        "electoralDistricts": [
          {
            "election": null,
            "id": 63,
            "name": "Mississauga—Lakeshore"
          }
        ],
        "pollDivisionIds": [
          10139767
        ],
        "postalCode": "L5J3S3",
        "streetName": "REISS",
        "streetDirectionId": null,
        "streetTypeId": "CRT",
        "placeName": "MISSISSAUGA",
        "streetNameDisplayText": "REISS CRT, MISSISSAUGA"
      }
    ]
  },
  {
    "postal": "L5J3L4",
    "result": [
      {
        "electoralDistricts": [
          {
            "election": null,
            "id": 63,
            "name": "Mississauga—Lakeshore"
          }
        ],
        "pollDivisionIds": [
          10139765
        ],
        "postalCode": "L5J3L4",
        "streetName": "DELANEY",
        "streetDirectionId": null,
        "streetTypeId": "DR",
        "placeName": "MISSISSAUGA",
        "streetNameDisplayText": "DELANEY DR, MISSISSAUGA"
      }
    ]
  },
  {
    "postal": "L5J9Y2",
    "result": []
  },
  {
    "postal": "L5J1E0",
    "result": []
  },
  {
    "postal": "L5J9A4",
    "result": []
  },
  {
    "postal": "L5J1L3",
    "result": [
      {
        "electoralDistricts": [
          {
            "election": null,
            "id": 63,
            "name": "Mississauga—Lakeshore"
          }
        ],
        "pollDivisionIds": [
          10139765
        ],
        "postalCode": "L5J1L3",
        "streetName": "BALSAM",
        "streetDirectionId": null,
        "streetTypeId": "AVE",
        "placeName": "MISSISSAUGA",
        "streetNameDisplayText": "BALSAM AVE, MISSISSAUGA"
      }
    ]
  },
  {
    "postal": "L5J6N1",
    "result": []
  },
  {
    "postal": "L5J6G7",
    "result": []
  },
  {
    "postal": "L5J7W1",
    "result": []
  },
  {
    "postal": "L5J4M6",
    "result": [
      {
        "electoralDistricts": [
          {
            "election": null,
            "id": 63,
            "name": "Mississauga—Lakeshore"
          }
        ],
        "pollDivisionIds": [
          10139763
        ],
        "postalCode": "L5J4M6",
        "streetName": "ZANTE",
        "streetDirectionId": null,
        "streetTypeId": "CRES",
        "placeName": "MISSISSAUGA",
        "streetNameDisplayText": "ZANTE CRES, MISSISSAUGA"
      }
    ]
  },
  {
    "postal": "L5J1K0",
    "result": []
  },
  {
    "postal": "L5J3E2",
    "result": [
      {
        "electoralDistricts": [
          {
            "election": null,
            "id": 63,
            "name": "Mississauga—Lakeshore"
          }
        ],
        "pollDivisionIds": [
          10139761
        ],
        "postalCode": "L5J3E2",
        "streetName": "CAMELFORD",
        "streetDirectionId": null,
        "streetTypeId": "RD",
        "placeName": "MISSISSAUGA",
        "streetNameDisplayText": "CAMELFORD RD, MISSISSAUGA"
      }
    ]
  },
  {
    "postal": "L5J5H4",
    "result": []
  },
  {
    "postal": "L5J1K7",
    "result": [
      {
        "electoralDistricts": [
          {
            "election": null,
            "id": 63,
            "name": "Mississauga—Lakeshore"
          }
        ],
        "pollDivisionIds": [
          10139769
        ],
        "postalCode": "L5J1K7",
        "streetName": "ROYAL WINDSOR",
        "streetDirectionId": null,
        "streetTypeId": "DR",
        "placeName": "MISSISSAUGA",
        "streetNameDisplayText": "ROYAL WINDSOR DR, MISSISSAUGA"
      }
    ]
  },
  {
    "postal": "L5J0H0",
    "result": []
  },
  {
    "postal": "L5J0J3",
    "result": []
  },
  {
    "postal": "L5J1X6",
    "result": [
      {
        "electoralDistricts": [
          {
            "election": null,
            "id": 63,
            "name": "Mississauga—Lakeshore"
          }
        ],
        "pollDivisionIds": [
          10139767
        ],
        "postalCode": "L5J1X6",
        "streetName": "SEAVIEW",
        "streetDirectionId": null,
        "streetTypeId": "DR",
        "placeName": "MISSISSAUGA",
        "streetNameDisplayText": "SEAVIEW DR, MISSISSAUGA"
      }
    ]
  },
  {
    "postal": "L5J2Z6",
    "result": []
  },
  {
    "postal": "L5J4R9",
    "result": [
      {
        "electoralDistricts": [
          {
            "election": null,
            "id": 63,
            "name": "Mississauga—Lakeshore"
          }
        ],
        "pollDivisionIds": [
          10139769
        ],
        "postalCode": "L5J4R9",
        "streetName": "LAKESHORE",
        "streetDirectionId": "W",
        "streetTypeId": "RD",
        "placeName": "MISSISSAUGA",
        "streetNameDisplayText": "LAKESHORE RD W, MISSISSAUGA"
      }
    ]
  },
  {
    "postal": "L5J0W8",
    "result": []
  },
  {
    "postal": "L5J1L4",
    "result": [
      {
        "electoralDistricts": [
          {
            "election": null,
            "id": 63,
            "name": "Mississauga—Lakeshore"
          }
        ],
        "pollDivisionIds": [
          10139769
        ],
        "postalCode": "L5J1L4",
        "streetName": "BROMSGROVE",
        "streetDirectionId": null,
        "streetTypeId": "RD",
        "placeName": "MISSISSAUGA",
        "streetNameDisplayText": "BROMSGROVE RD, MISSISSAUGA"
      }
    ]
  },
  {
    "postal": "L5J0C8",
    "result": []
  },
  {
    "postal": "L5J9X7",
    "result": []
  },
  {
    "postal": "L5J4T1",
    "result": []
  },
  {
    "postal": "L5J0M0",
    "result": []
  },
  {
    "postal": "L5J6A2",
    "result": []
  },
  {
    "postal": "L5J9S8",
    "result": []
  },
  {
    "postal": "L5J9T4",
    "result": []
  },
  {
    "postal": "L5J9Y4",
    "result": []
  },
  {
    "postal": "L5J6G5",
    "result": []
  },
  {
    "postal": "L5J6H9",
    "result": []
  },
  {
    "postal": "L5J2P3",
    "result": [
      {
        "electoralDistricts": [
          {
            "election": null,
            "id": 63,
            "name": "Mississauga—Lakeshore"
          }
        ],
        "pollDivisionIds": [
          10139763
        ],
        "postalCode": "L5J2P3",
        "streetName": "BOB-O-LINK",
        "streetDirectionId": null,
        "streetTypeId": "RD",
        "placeName": "MISSISSAUGA",
        "streetNameDisplayText": "BOB-O-LINK RD, MISSISSAUGA"
      }
    ]
  },
  {
    "postal": "L5J1T6",
    "result": [
      {
        "electoralDistricts": [
          {
            "election": null,
            "id": 63,
            "name": "Mississauga—Lakeshore"
          }
        ],
        "pollDivisionIds": [
          10139761
        ],
        "postalCode": "L5J1T6",
        "streetName": "BIRCHWOOD",
        "streetDirectionId": null,
        "streetTypeId": "DR",
        "placeName": "MISSISSAUGA",
        "streetNameDisplayText": "BIRCHWOOD DR, MISSISSAUGA"
      }
    ]
  },
  {
    "postal": "L5J4P6",
    "result": [
      {
        "electoralDistricts": [
          {
            "election": null,
            "id": 63,
            "name": "Mississauga—Lakeshore"
          }
        ],
        "pollDivisionIds": [
          10139763
        ],
        "postalCode": "L5J4P6",
        "streetName": "SILVER BIRCH",
        "streetDirectionId": null,
        "streetTypeId": "TRAIL",
        "placeName": "MISSISSAUGA",
        "streetNameDisplayText": "SILVER BIRCH TRAIL, MISSISSAUGA"
      }
    ]
  },
  {
    "postal": "L5J3K1",
    "result": [
      {
        "electoralDistricts": [
          {
            "election": null,
            "id": 63,
            "name": "Mississauga—Lakeshore"
          }
        ],
        "pollDivisionIds": [
          10139765
        ],
        "postalCode": "L5J3K1",
        "streetName": "DUPREE",
        "streetDirectionId": null,
        "streetTypeId": "PL",
        "placeName": "MISSISSAUGA",
        "streetNameDisplayText": "DUPREE PL, MISSISSAUGA"
      }
    ]
  },
  {
    "postal": "L5J6X4",
    "result": []
  },
  {
    "postal": "L5J4M8",
    "result": [
      {
        "electoralDistricts": [
          {
            "election": null,
            "id": 63,
            "name": "Mississauga—Lakeshore"
          }
        ],
        "pollDivisionIds": [
          10139763
        ],
        "postalCode": "L5J4M8",
        "streetName": "ZANTE",
        "streetDirectionId": null,
        "streetTypeId": "CRES",
        "placeName": "MISSISSAUGA",
        "streetNameDisplayText": "ZANTE CRES, MISSISSAUGA"
      }
    ]
  },
  {
    "postal": "L5J2Y1",
    "result": [
      {
        "electoralDistricts": [
          {
            "election": null,
            "id": 63,
            "name": "Mississauga—Lakeshore"
          }
        ],
        "pollDivisionIds": [
          10139769
        ],
        "postalCode": "L5J2Y1",
        "streetName": "INERHOUSE",
        "streetDirectionId": null,
        "streetTypeId": "DR",
        "placeName": "MISSISSAUGA",
        "streetNameDisplayText": "INERHOUSE DR, MISSISSAUGA"
      },
      {
        "electoralDistricts": [
          {
            "election": null,
            "id": 63,
            "name": "Mississauga—Lakeshore"
          }
        ],
        "pollDivisionIds": [
          10139769
        ],
        "postalCode": "L5J2Y1",
        "streetName": "INVERHOUSE",
        "streetDirectionId": null,
        "streetTypeId": "DR",
        "placeName": "MISSISSAUGA",
        "streetNameDisplayText": "INVERHOUSE DR, MISSISSAUGA"
      }
    ]
  },
  {
    "postal": "L5J6M1",
    "result": []
  },
  {
    "postal": "L5J5L8",
    "result": []
  },
  {
    "postal": "L5J3P6",
    "result": [
      {
        "electoralDistricts": [
          {
            "election": null,
            "id": 63,
            "name": "Mississauga—Lakeshore"
          }
        ],
        "pollDivisionIds": [
          10139767
        ],
        "postalCode": "L5J3P6",
        "streetName": "AGORA",
        "streetDirectionId": null,
        "streetTypeId": "RD",
        "placeName": "MISSISSAUGA",
        "streetNameDisplayText": "AGORA RD, MISSISSAUGA"
      }
    ]
  },
  {
    "postal": "L5J9A5",
    "result": []
  },
  {
    "postal": "L5J7K1",
    "result": []
  },
  {
    "postal": "L5J3J4",
    "result": [
      {
        "electoralDistricts": [
          {
            "election": null,
            "id": 63,
            "name": "Mississauga—Lakeshore"
          }
        ],
        "pollDivisionIds": [
          10139765
        ],
        "postalCode": "L5J3J4",
        "streetName": "WELWYN",
        "streetDirectionId": null,
        "streetTypeId": "DR",
        "placeName": "MISSISSAUGA",
        "streetNameDisplayText": "WELWYN DR, MISSISSAUGA"
      }
    ]
  },
  {
    "postal": "L5J5E7",
    "result": []
  },
  {
    "postal": "L5J3A7",
    "result": [
      {
        "electoralDistricts": [
          {
            "election": null,
            "id": 63,
            "name": "Mississauga—Lakeshore"
          }
        ],
        "pollDivisionIds": [
          10139761
        ],
        "postalCode": "L5J3A7",
        "streetName": "CHASEHURST",
        "streetDirectionId": null,
        "streetTypeId": "DR",
        "placeName": "MISSISSAUGA",
        "streetNameDisplayText": "CHASEHURST DR, MISSISSAUGA"
      }
    ]
  },
  {
    "postal": "L5J1B9",
    "result": [
      {
        "electoralDistricts": [
          {
            "election": null,
            "id": 63,
            "name": "Mississauga—Lakeshore"
          }
        ],
        "pollDivisionIds": [
          10139769
        ],
        "postalCode": "L5J1B9",
        "streetName": "ANGELA",
        "streetDirectionId": null,
        "streetTypeId": "CRES",
        "placeName": "MISSISSAUGA",
        "streetNameDisplayText": "ANGELA CRES, MISSISSAUGA"
      }
    ]
  },
  {
    "postal": "L5J9E8",
    "result": []
  },
  {
    "postal": "L5J1C9",
    "result": [
      {
        "electoralDistricts": [
          {
            "election": null,
            "id": 63,
            "name": "Mississauga—Lakeshore"
          }
        ],
        "pollDivisionIds": [
          10139769
        ],
        "postalCode": "L5J1C9",
        "streetName": "SILVERBERRY",
        "streetDirectionId": null,
        "streetTypeId": "CRES",
        "placeName": "MISSISSAUGA",
        "streetNameDisplayText": "SILVERBERRY CRES, MISSISSAUGA"
      }
    ]
  },
  {
    "postal": "L5J3B5",
    "result": [
      {
        "electoralDistricts": [
          {
            "election": null,
            "id": 63,
            "name": "Mississauga—Lakeshore"
          }
        ],
        "pollDivisionIds": [
          10139761
        ],
        "postalCode": "L5J3B5",
        "streetName": "WHITEOAKS",
        "streetDirectionId": null,
        "streetTypeId": "AVE",
        "placeName": "MISSISSAUGA",
        "streetNameDisplayText": "WHITEOAKS AVE, MISSISSAUGA"
      }
    ]
  },
  {
    "postal": "L5J8R0",
    "result": []
  },
  {
    "postal": "L5J3P2",
    "result": [
      {
        "electoralDistricts": [
          {
            "election": null,
            "id": 63,
            "name": "Mississauga—Lakeshore"
          }
        ],
        "pollDivisionIds": [
          10139768
        ],
        "postalCode": "L5J3P2",
        "streetName": "LUDBROOK",
        "streetDirectionId": null,
        "streetTypeId": "CRT",
        "placeName": "MISSISSAUGA",
        "streetNameDisplayText": "LUDBROOK CRT, MISSISSAUGA"
      }
    ]
  },
  {
    "postal": "L5J5V4",
    "result": []
  },
  {
    "postal": "L5J4H0",
    "result": []
  },
  {
    "postal": "L5J4S7",
    "result": [
      {
        "electoralDistricts": [
          {
            "election": null,
            "id": 63,
            "name": "Mississauga—Lakeshore"
          }
        ],
        "pollDivisionIds": [
          10139769
        ],
        "postalCode": "L5J4S7",
        "streetName": "ROYAL WINDSOR",
        "streetDirectionId": null,
        "streetTypeId": "DR",
        "placeName": "MISSISSAUGA",
        "streetNameDisplayText": "ROYAL WINDSOR DR, MISSISSAUGA"
      }
    ]
  },
  {
    "postal": "L5J6C2",
    "result": []
  },
  {
    "postal": "L5J8W3",
    "result": []
  },
  {
    "postal": "L5J4M5",
    "result": [
      {
        "electoralDistricts": [
          {
            "election": null,
            "id": 63,
            "name": "Mississauga—Lakeshore"
          }
        ],
        "pollDivisionIds": [
          10139763
        ],
        "postalCode": "L5J4M5",
        "streetName": "ZANTE",
        "streetDirectionId": null,
        "streetTypeId": "CRT",
        "placeName": "MISSISSAUGA",
        "streetNameDisplayText": "ZANTE CRT, MISSISSAUGA"
      }
    ]
  },
  {
    "postal": "L5J5T1",
    "result": []
  },
  {
    "postal": "L5J3B3",
    "result": [
      {
        "electoralDistricts": [
          {
            "election": null,
            "id": 63,
            "name": "Mississauga—Lakeshore"
          }
        ],
        "pollDivisionIds": [
          10139761
        ],
        "postalCode": "L5J3B3",
        "streetName": "ELITE",
        "streetDirectionId": null,
        "streetTypeId": "RD",
        "placeName": "MISSISSAUGA",
        "streetNameDisplayText": "ELITE RD, MISSISSAUGA"
      }
    ]
  },
  {
    "postal": "L5J6C6",
    "result": []
  },
  {
    "postal": "L5J7N8",
    "result": []
  },
  {
    "postal": "L5J2Y3",
    "result": [
      {
        "electoralDistricts": [
          {
            "election": null,
            "id": 63,
            "name": "Mississauga—Lakeshore"
          }
        ],
        "pollDivisionIds": [
          10139769
        ],
        "postalCode": "L5J2Y3",
        "streetName": "SOUTHDOWN",
        "streetDirectionId": null,
        "streetTypeId": "RD",
        "placeName": "MISSISSAUGA",
        "streetNameDisplayText": "SOUTHDOWN RD, MISSISSAUGA"
      }
    ]
  },
  {
    "postal": "L5J2R6",
    "result": [
      {
        "electoralDistricts": [
          {
            "election": null,
            "id": 63,
            "name": "Mississauga—Lakeshore"
          }
        ],
        "pollDivisionIds": [
          10139769
        ],
        "postalCode": "L5J2R6",
        "streetName": "DAVECATH",
        "streetDirectionId": null,
        "streetTypeId": "RD",
        "placeName": "MISSISSAUGA",
        "streetNameDisplayText": "DAVECATH RD, MISSISSAUGA"
      }
    ]
  },
  {
    "postal": "L5J7N3",
    "result": []
  },
  {
    "postal": "L5J8J2",
    "result": []
  },
  {
    "postal": "L5J6A9",
    "result": []
  },
  {
    "postal": "L5J3V2",
    "result": [
      {
        "electoralDistricts": [
          {
            "election": null,
            "id": 63,
            "name": "Mississauga—Lakeshore"
          }
        ],
        "pollDivisionIds": [
          10139767
        ],
        "postalCode": "L5J3V2",
        "streetName": "KELLY",
        "streetDirectionId": null,
        "streetTypeId": "RD",
        "placeName": "MISSISSAUGA",
        "streetNameDisplayText": "KELLY RD, MISSISSAUGA"
      }
    ]
  },
  {
    "postal": "L5J2N3",
    "result": [
      {
        "electoralDistricts": [
          {
            "election": null,
            "id": 63,
            "name": "Mississauga—Lakeshore"
          }
        ],
        "pollDivisionIds": [
          10139763
        ],
        "postalCode": "L5J2N3",
        "streetName": "RATTRAY PARK",
        "streetDirectionId": null,
        "streetTypeId": "DR",
        "placeName": "MISSISSAUGA",
        "streetNameDisplayText": "RATTRAY PARK DR, MISSISSAUGA"
      }
    ]
  },
  {
    "postal": "L5J1S5",
    "result": [
      {
        "electoralDistricts": [
          {
            "election": null,
            "id": 63,
            "name": "Mississauga—Lakeshore"
          }
        ],
        "pollDivisionIds": [
          10139761
        ],
        "postalCode": "L5J1S5",
        "streetName": "JALNA",
        "streetDirectionId": null,
        "streetTypeId": "AVE",
        "placeName": "MISSISSAUGA",
        "streetNameDisplayText": "JALNA AVE, MISSISSAUGA"
      }
    ]
  },
  {
    "postal": "L5J4T7",
    "result": [
      {
        "electoralDistricts": [
          {
            "election": null,
            "id": 63,
            "name": "Mississauga—Lakeshore"
          }
        ],
        "pollDivisionIds": [
          10139763
        ],
        "postalCode": "L5J4T7",
        "streetName": "CRISTINA",
        "streetDirectionId": null,
        "streetTypeId": "CRT",
        "placeName": "MISSISSAUGA",
        "streetNameDisplayText": "CRISTINA CRT, MISSISSAUGA"
      }
    ]
  },
  {
    "postal": "L5J6Y7",
    "result": []
  },
  {
    "postal": "L5J0W7",
    "result": []
  },
  {
    "postal": "L5J2W9",
    "result": [
      {
        "electoralDistricts": [
          {
            "election": null,
            "id": 63,
            "name": "Mississauga—Lakeshore"
          }
        ],
        "pollDivisionIds": [
          10139765
        ],
        "postalCode": "L5J2W9",
        "streetName": "CLARKSON",
        "streetDirectionId": "N",
        "streetTypeId": "RD",
        "placeName": "MISSISSAUGA",
        "streetNameDisplayText": "CLARKSON RD N, MISSISSAUGA"
      }
    ]
  },
  {
    "postal": "L5J8V0",
    "result": []
  },
  {
    "postal": "L5J0H4",
    "result": []
  },
  {
    "postal": "L5J2T1",
    "result": [
      {
        "electoralDistricts": [
          {
            "election": null,
            "id": 63,
            "name": "Mississauga—Lakeshore"
          }
        ],
        "pollDivisionIds": [
          10139763
        ],
        "postalCode": "L5J2T1",
        "streetName": "APPLE",
        "streetDirectionId": null,
        "streetTypeId": "LANE",
        "placeName": "MISSISSAUGA",
        "streetNameDisplayText": "APPLE LANE, MISSISSAUGA"
      }
    ]
  },
  {
    "postal": "L5J1B1",
    "result": [
      {
        "electoralDistricts": [
          {
            "election": null,
            "id": 63,
            "name": "Mississauga—Lakeshore"
          }
        ],
        "pollDivisionIds": [
          10139763
        ],
        "postalCode": "L5J1B1",
        "streetName": "HALYARD",
        "streetDirectionId": null,
        "streetTypeId": "CRT",
        "placeName": "MISSISSAUGA",
        "streetNameDisplayText": "HALYARD CRT, MISSISSAUGA"
      }
    ]
  },
  {
    "postal": "L5J8B6",
    "result": []
  },
  {
    "postal": "L5J6H1",
    "result": []
  },
  {
    "postal": "L5J8T8",
    "result": []
  },
  {
    "postal": "L5J0T4",
    "result": []
  },
  {
    "postal": "L5J2C4",
    "result": [
      {
        "electoralDistricts": [
          {
            "election": null,
            "id": 63,
            "name": "Mississauga—Lakeshore"
          }
        ],
        "pollDivisionIds": [
          10139761
        ],
        "postalCode": "L5J2C4",
        "streetName": "FALCONRIDGE",
        "streetDirectionId": null,
        "streetTypeId": "CRT",
        "placeName": "MISSISSAUGA",
        "streetNameDisplayText": "FALCONRIDGE CRT, MISSISSAUGA"
      }
    ]
  },
  {
    "postal": "L5J8N3",
    "result": []
  },
  {
    "postal": "L5J4L8",
    "result": [
      {
        "electoralDistricts": [
          {
            "election": null,
            "id": 63,
            "name": "Mississauga—Lakeshore"
          }
        ],
        "pollDivisionIds": [
          10139763
        ],
        "postalCode": "L5J4L8",
        "streetName": "LEFKAS",
        "streetDirectionId": null,
        "streetTypeId": "CRT",
        "placeName": "MISSISSAUGA",
        "streetNameDisplayText": "LEFKAS CRT, MISSISSAUGA"
      }
    ]
  },
  {
    "postal": "L5J2B5",
    "result": [
      {
        "electoralDistricts": [
          {
            "election": null,
            "id": 63,
            "name": "Mississauga—Lakeshore"
          }
        ],
        "pollDivisionIds": [
          10139767
        ],
        "postalCode": "L5J2B5",
        "streetName": "TRUSCOTT",
        "streetDirectionId": null,
        "streetTypeId": "DR",
        "placeName": "MISSISSAUGA",
        "streetNameDisplayText": "TRUSCOTT DR, MISSISSAUGA"
      }
    ]
  },
  {
    "postal": "L5J3H1",
    "result": [
      {
        "electoralDistricts": [
          {
            "election": null,
            "id": 63,
            "name": "Mississauga—Lakeshore"
          }
        ],
        "pollDivisionIds": [
          10139765
        ],
        "postalCode": "L5J3H1",
        "streetName": "AGNEW",
        "streetDirectionId": null,
        "streetTypeId": "RD",
        "placeName": "MISSISSAUGA",
        "streetNameDisplayText": "AGNEW RD, MISSISSAUGA"
      }
    ]
  },
  {
    "postal": "L5J4Y1",
    "result": []
  },
  {
    "postal": "L5J7E2",
    "result": []
  },
  {
    "postal": "L5J2P5",
    "result": [
      {
        "electoralDistricts": [
          {
            "election": null,
            "id": 63,
            "name": "Mississauga—Lakeshore"
          }
        ],
        "pollDivisionIds": [
          10139763
        ],
        "postalCode": "L5J2P5",
        "streetName": "BOB-O-LINK",
        "streetDirectionId": null,
        "streetTypeId": "RD",
        "placeName": "MISSISSAUGA",
        "streetNameDisplayText": "BOB-O-LINK RD, MISSISSAUGA"
      }
    ]
  },
  {
    "postal": "L5J8R7",
    "result": []
  },
  {
    "postal": "L5J9P1",
    "result": []
  },
  {
    "postal": "L5J3B8",
    "result": [
      {
        "electoralDistricts": [
          {
            "election": null,
            "id": 63,
            "name": "Mississauga—Lakeshore"
          }
        ],
        "pollDivisionIds": [
          10139761
        ],
        "postalCode": "L5J3B8",
        "streetName": "WHITEOAKS",
        "streetDirectionId": null,
        "streetTypeId": "AVE",
        "placeName": "MISSISSAUGA",
        "streetNameDisplayText": "WHITEOAKS AVE, MISSISSAUGA"
      }
    ]
  },
  {
    "postal": "L5J3P7",
    "result": [
      {
        "electoralDistricts": [
          {
            "election": null,
            "id": 63,
            "name": "Mississauga—Lakeshore"
          }
        ],
        "pollDivisionIds": [
          10139768
        ],
        "postalCode": "L5J3P7",
        "streetName": "LEWISHAM",
        "streetDirectionId": null,
        "streetTypeId": "DR",
        "placeName": "MISSISSAUGA",
        "streetNameDisplayText": "LEWISHAM DR, MISSISSAUGA"
      }
    ]
  },
  {
    "postal": "L5J9B2",
    "result": []
  },
  {
    "postal": "L5J6Z3",
    "result": []
  },
  {
    "postal": "L5J4N5",
    "result": [
      {
        "electoralDistricts": [
          {
            "election": null,
            "id": 63,
            "name": "Mississauga—Lakeshore"
          }
        ],
        "pollDivisionIds": [
          10139799
        ],
        "postalCode": "L5J4N5",
        "streetName": "TRUSCOTT",
        "streetDirectionId": null,
        "streetTypeId": "DR",
        "placeName": "MISSISSAUGA",
        "streetNameDisplayText": "TRUSCOTT DR, MISSISSAUGA"
      }
    ]
  },
  {
    "postal": "L5J8T3",
    "result": []
  },
  {
    "postal": "L5J1V2",
    "result": [
      {
        "electoralDistricts": [
          {
            "election": null,
            "id": 63,
            "name": "Mississauga—Lakeshore"
          }
        ],
        "pollDivisionIds": [
          10139768
        ],
        "postalCode": "L5J1V2",
        "streetName": "STOCKHOLM",
        "streetDirectionId": null,
        "streetTypeId": "RD",
        "placeName": "MISSISSAUGA",
        "streetNameDisplayText": "STOCKHOLM RD, MISSISSAUGA"
      }
    ]
  },
  {
    "postal": "L5J1Y0",
    "result": []
  },
  {
    "postal": "L5J3G6",
    "result": [
      {
        "electoralDistricts": [
          {
            "election": null,
            "id": 63,
            "name": "Mississauga—Lakeshore"
          }
        ],
        "pollDivisionIds": [
          10139765
        ],
        "postalCode": "L5J3G6",
        "streetName": "PIERRE",
        "streetDirectionId": null,
        "streetTypeId": "PL",
        "placeName": "MISSISSAUGA",
        "streetNameDisplayText": "PIERRE PL, MISSISSAUGA"
      }
    ]
  },
  {
    "postal": "L5J3H7",
    "result": [
      {
        "electoralDistricts": [
          {
            "election": null,
            "id": 63,
            "name": "Mississauga—Lakeshore"
          }
        ],
        "pollDivisionIds": [
          10139765
        ],
        "postalCode": "L5J3H7",
        "streetName": "SPRINGWELL",
        "streetDirectionId": null,
        "streetTypeId": "AVE",
        "placeName": "MISSISSAUGA",
        "streetNameDisplayText": "SPRINGWELL AVE, MISSISSAUGA"
      }
    ]
  },
  {
    "postal": "L5J7X8",
    "result": []
  },
  {
    "postal": "L5J0C7",
    "result": []
  },
  {
    "postal": "L5J0W9",
    "result": []
  },
  {
    "postal": "L5J8E6",
    "result": []
  },
  {
    "postal": "L5J9Z8",
    "result": []
  },
  {
    "postal": "L5J3P4",
    "result": [
      {
        "electoralDistricts": [
          {
            "election": null,
            "id": 63,
            "name": "Mississauga—Lakeshore"
          }
        ],
        "pollDivisionIds": [
          10139767,
          10139768
        ],
        "postalCode": "L5J3P4",
        "streetName": "LUDBROOK",
        "streetDirectionId": null,
        "streetTypeId": "CRT",
        "placeName": "MISSISSAUGA",
        "streetNameDisplayText": "LUDBROOK CRT, MISSISSAUGA"
      }
    ]
  },
  {
    "postal": "L5J6L8",
    "result": []
  },
  {
    "postal": "L5J2R4",
    "result": [
      {
        "electoralDistricts": [
          {
            "election": null,
            "id": 63,
            "name": "Mississauga—Lakeshore"
          }
        ],
        "pollDivisionIds": [
          10139763
        ],
        "postalCode": "L5J2R4",
        "streetName": "BALTIMORE",
        "streetDirectionId": null,
        "streetTypeId": "AVE",
        "placeName": "MISSISSAUGA",
        "streetNameDisplayText": "BALTIMORE AVE, MISSISSAUGA"
      }
    ]
  },
  {
    "postal": "L5J2W1",
    "result": [
      {
        "electoralDistricts": [
          {
            "election": null,
            "id": 63,
            "name": "Mississauga—Lakeshore"
          }
        ],
        "pollDivisionIds": [
          10139761,
          10139769
        ],
        "postalCode": "L5J2W1",
        "streetName": "CLARKSON",
        "streetDirectionId": "N",
        "streetTypeId": "RD",
        "placeName": "MISSISSAUGA",
        "streetNameDisplayText": "CLARKSON RD N, MISSISSAUGA"
      }
    ]
  },
  {
    "postal": "L5J9H8",
    "result": []
  },
  {
    "postal": "L5J8X9",
    "result": []
  },
  {
    "postal": "L5J7H4",
    "result": []
  },
  {
    "postal": "L5J3J1",
    "result": [
      {
        "electoralDistricts": [
          {
            "election": null,
            "id": 63,
            "name": "Mississauga—Lakeshore"
          }
        ],
        "pollDivisionIds": [
          10139765
        ],
        "postalCode": "L5J3J1",
        "streetName": "SPRINGWELL",
        "streetDirectionId": null,
        "streetTypeId": "AVE",
        "placeName": "MISSISSAUGA",
        "streetNameDisplayText": "SPRINGWELL AVE, MISSISSAUGA"
      }
    ]
  },
  {
    "postal": "L5J1P4",
    "result": [
      {
        "electoralDistricts": [
          {
            "election": null,
            "id": 63,
            "name": "Mississauga—Lakeshore"
          }
        ],
        "pollDivisionIds": [
          10139768
        ],
        "postalCode": "L5J1P4",
        "streetName": "WISEMAN",
        "streetDirectionId": null,
        "streetTypeId": "CRT",
        "placeName": "MISSISSAUGA",
        "streetNameDisplayText": "WISEMAN CRT, MISSISSAUGA"
      }
    ]
  },
  {
    "postal": "L5J2A3",
    "result": [
      {
        "electoralDistricts": [
          {
            "election": null,
            "id": 63,
            "name": "Mississauga—Lakeshore"
          }
        ],
        "pollDivisionIds": [
          10139765
        ],
        "postalCode": "L5J2A3",
        "streetName": "TRUSCOTT",
        "streetDirectionId": null,
        "streetTypeId": "DR",
        "placeName": "MISSISSAUGA",
        "streetNameDisplayText": "TRUSCOTT DR, MISSISSAUGA"
      }
    ]
  },
  {
    "postal": "L5J0Z1",
    "result": []
  },
  {
    "postal": "L5J1C1",
    "result": [
      {
        "electoralDistricts": [
          {
            "election": null,
            "id": 63,
            "name": "Mississauga—Lakeshore"
          }
        ],
        "pollDivisionIds": [
          10139769
        ],
        "postalCode": "L5J1C1",
        "streetName": "ANGELA",
        "streetDirectionId": null,
        "streetTypeId": "CRES",
        "placeName": "MISSISSAUGA",
        "streetNameDisplayText": "ANGELA CRES, MISSISSAUGA"
      }
    ]
  },
  {
    "postal": "L5J0H3",
    "result": []
  },
  {
    "postal": "L5J7B0",
    "result": []
  },
  {
    "postal": "L5J5K2",
    "result": []
  },
  {
    "postal": "L5J1E9",
    "result": [
      {
        "electoralDistricts": [
          {
            "election": null,
            "id": 63,
            "name": "Mississauga—Lakeshore"
          }
        ],
        "pollDivisionIds": [
          10139763
        ],
        "postalCode": "L5J1E9",
        "streetName": "STONEHAVEN",
        "streetDirectionId": null,
        "streetTypeId": "DR",
        "placeName": "MISSISSAUGA",
        "streetNameDisplayText": "STONEHAVEN DR, MISSISSAUGA"
      }
    ]
  },
  {
    "postal": "L5J9W7",
    "result": []
  },
  {
    "postal": "L5J5W6",
    "result": []
  },
  {
    "postal": "L5J6S6",
    "result": []
  },
  {
    "postal": "L5J2P8",
    "result": [
      {
        "electoralDistricts": [
          {
            "election": null,
            "id": 63,
            "name": "Mississauga—Lakeshore"
          }
        ],
        "pollDivisionIds": [
          10139763
        ],
        "postalCode": "L5J2P8",
        "streetName": "COUNTRY CLUB",
        "streetDirectionId": null,
        "streetTypeId": "CRES",
        "placeName": "MISSISSAUGA",
        "streetNameDisplayText": "COUNTRY CLUB CRES, MISSISSAUGA"
      }
    ]
  },
  {
    "postal": "L5J4P8",
    "result": [
      {
        "electoralDistricts": [
          {
            "election": null,
            "id": 63,
            "name": "Mississauga—Lakeshore"
          }
        ],
        "pollDivisionIds": [
          10139769
        ],
        "postalCode": "L5J4P8",
        "streetName": "WINSTON CHURCHILL",
        "streetDirectionId": null,
        "streetTypeId": "BLVD",
        "placeName": "MISSISSAUGA",
        "streetNameDisplayText": "WINSTON CHURCHILL BLVD, MISSISSAUGA"
      }
    ]
  },
  {
    "postal": "L5J0V9",
    "result": []
  },
  {
    "postal": "L5J5Y2",
    "result": []
  },
  {
    "postal": "L5J7Z7",
    "result": []
  },
  {
    "postal": "L5J6Y8",
    "result": []
  },
  {
    "postal": "L5J2G7",
    "result": [
      {
        "electoralDistricts": [
          {
            "election": null,
            "id": 63,
            "name": "Mississauga—Lakeshore"
          }
        ],
        "pollDivisionIds": [
          10139767
        ],
        "postalCode": "L5J2G7",
        "streetName": "FONTWELL",
        "streetDirectionId": null,
        "streetTypeId": "CRES",
        "placeName": "MISSISSAUGA",
        "streetNameDisplayText": "FONTWELL CRES, MISSISSAUGA"
      }
    ]
  },
  {
    "postal": "L5J8C1",
    "result": []
  },
  {
    "postal": "L5J5C5",
    "result": []
  },
  {
    "postal": "L5J2X8",
    "result": [
      {
        "electoralDistricts": [
          {
            "election": null,
            "id": 63,
            "name": "Mississauga—Lakeshore"
          }
        ],
        "pollDivisionIds": [
          10139769
        ],
        "postalCode": "L5J2X8",
        "streetName": "INVERHOUSE",
        "streetDirectionId": null,
        "streetTypeId": "DR",
        "placeName": "MISSISSAUGA",
        "streetNameDisplayText": "INVERHOUSE DR, MISSISSAUGA"
      }
    ]
  },
  {
    "postal": "L5J1W5",
    "result": [
      {
        "electoralDistricts": [
          {
            "election": null,
            "id": 63,
            "name": "Mississauga—Lakeshore"
          }
        ],
        "pollDivisionIds": [
          10139768
        ],
        "postalCode": "L5J1W5",
        "streetName": "CONSTABLE",
        "streetDirectionId": null,
        "streetTypeId": "RD",
        "placeName": "MISSISSAUGA",
        "streetNameDisplayText": "CONSTABLE RD, MISSISSAUGA"
      }
    ]
  },
  {
    "postal": "L5J7G0",
    "result": []
  },
  {
    "postal": "L5J8J8",
    "result": []
  },
  {
    "postal": "L5J3Y0",
    "result": []
  },
  {
    "postal": "L5J9T7",
    "result": []
  },
  {
    "postal": "L5J5P4",
    "result": []
  },
  {
    "postal": "L5J4B0",
    "result": []
  },
  {
    "postal": "L5J9N8",
    "result": []
  },
  {
    "postal": "L5J4A7",
    "result": [
      {
        "electoralDistricts": [
          {
            "election": null,
            "id": 63,
            "name": "Mississauga—Lakeshore"
          }
        ],
        "pollDivisionIds": [
          10139761
        ],
        "postalCode": "L5J4A7",
        "streetName": "BIRCHWOOD",
        "streetDirectionId": null,
        "streetTypeId": "DR",
        "placeName": "MISSISSAUGA",
        "streetNameDisplayText": "BIRCHWOOD DR, MISSISSAUGA"
      }
    ]
  },
  {
    "postal": "L5J4H9",
    "result": [
      {
        "electoralDistricts": [
          {
            "election": null,
            "id": 63,
            "name": "Mississauga—Lakeshore"
          }
        ],
        "pollDivisionIds": [
          10139765
        ],
        "postalCode": "L5J4H9",
        "streetName": "CROMBIE",
        "streetDirectionId": null,
        "streetTypeId": "RD",
        "placeName": "MISSISSAUGA",
        "streetNameDisplayText": "CROMBIE RD, MISSISSAUGA"
      }
    ]
  },
  {
    "postal": "L5J6X1",
    "result": []
  },
  {
    "postal": "L5J9Y7",
    "result": []
  },
  {
    "postal": "L5J2Y5",
    "result": [
      {
        "electoralDistricts": [
          {
            "election": null,
            "id": 63,
            "name": "Mississauga—Lakeshore"
          }
        ],
        "pollDivisionIds": [
          10139769
        ],
        "postalCode": "L5J2Y5",
        "streetName": "SOUTHDOWN",
        "streetDirectionId": null,
        "streetTypeId": "RD",
        "placeName": "MISSISSAUGA",
        "streetNameDisplayText": "SOUTHDOWN RD, MISSISSAUGA"
      }
    ]
  },
  {
    "postal": "L5J8L7",
    "result": []
  },
  {
    "postal": "L5J2A8",
    "result": [
      {
        "electoralDistricts": [
          {
            "election": null,
            "id": 63,
            "name": "Mississauga—Lakeshore"
          }
        ],
        "pollDivisionIds": [
          10139767
        ],
        "postalCode": "L5J2A8",
        "streetName": "TRUSCOTT",
        "streetDirectionId": null,
        "streetTypeId": "DR",
        "placeName": "MISSISSAUGA",
        "streetNameDisplayText": "TRUSCOTT DR, MISSISSAUGA"
      }
    ]
  },
  {
    "postal": "L5J2K9",
    "result": [
      {
        "electoralDistricts": [
          {
            "election": null,
            "id": 63,
            "name": "Mississauga—Lakeshore"
          }
        ],
        "pollDivisionIds": [
          10139765
        ],
        "postalCode": "L5J2K9",
        "streetName": "CHRISTOPHER",
        "streetDirectionId": null,
        "streetTypeId": "RD",
        "placeName": "MISSISSAUGA",
        "streetNameDisplayText": "CHRISTOPHER RD, MISSISSAUGA"
      }
    ]
  },
  {
    "postal": "L5J3E5",
    "result": [
      {
        "electoralDistricts": [
          {
            "election": null,
            "id": 63,
            "name": "Mississauga—Lakeshore"
          }
        ],
        "pollDivisionIds": [
          10139761
        ],
        "postalCode": "L5J3E5",
        "streetName": "RAVINE",
        "streetDirectionId": null,
        "streetTypeId": "DR",
        "placeName": "MISSISSAUGA",
        "streetNameDisplayText": "RAVINE DR, MISSISSAUGA"
      }
    ]
  },
  {
    "postal": "L5J8N6",
    "result": []
  },
  {
    "postal": "L5J8J4",
    "result": []
  },
  {
    "postal": "L5J4R7",
    "result": [
      {
        "electoralDistricts": [
          {
            "election": null,
            "id": 63,
            "name": "Mississauga—Lakeshore"
          }
        ],
        "pollDivisionIds": [
          10139769
        ],
        "postalCode": "L5J4R7",
        "streetName": "PENGILLEY",
        "streetDirectionId": null,
        "streetTypeId": "PL",
        "placeName": "MISSISSAUGA",
        "streetNameDisplayText": "PENGILLEY PL, MISSISSAUGA"
      }
    ]
  },
  {
    "postal": "L5J9K1",
    "result": []
  },
  {
    "postal": "L5J8E1",
    "result": []
  },
  {
    "postal": "L5J0R1",
    "result": []
  },
  {
    "postal": "L5J4J3",
    "result": [
      {
        "electoralDistricts": [
          {
            "election": null,
            "id": 63,
            "name": "Mississauga—Lakeshore"
          }
        ],
        "pollDivisionIds": [
          10139763
        ],
        "postalCode": "L5J4J3",
        "streetName": "MARSHWOOD",
        "streetDirectionId": null,
        "streetTypeId": "PL",
        "placeName": "MISSISSAUGA",
        "streetNameDisplayText": "MARSHWOOD PL, MISSISSAUGA"
      }
    ]
  },
  {
    "postal": "L5J7E7",
    "result": []
  },
  {
    "postal": "L5J0J0",
    "result": []
  },
  {
    "postal": "L5J7R8",
    "result": []
  },
  {
    "postal": "L5J9X0",
    "result": []
  },
  {
    "postal": "L5J7P6",
    "result": []
  },
  {
    "postal": "L5J0R7",
    "result": []
  },
  {
    "postal": "L5J5W1",
    "result": []
  },
  {
    "postal": "L5J0K4",
    "result": []
  },
  {
    "postal": "L5J7N9",
    "result": []
  },
  {
    "postal": "L5J1N0",
    "result": []
  },
  {
    "postal": "L5J6P3",
    "result": []
  },
  {
    "postal": "L5J5A1",
    "result": []
  },
  {
    "postal": "L5J9M9",
    "result": []
  },
  {
    "postal": "L5J7T6",
    "result": []
  },
  {
    "postal": "L5J3X0",
    "result": []
  },
  {
    "postal": "L5J2T0",
    "result": []
  },
  {
    "postal": "L5J5X9",
    "result": []
  },
  {
    "postal": "L5J2R3",
    "result": [
      {
        "electoralDistricts": [
          {
            "election": null,
            "id": 63,
            "name": "Mississauga—Lakeshore"
          }
        ],
        "pollDivisionIds": [
          10139763
        ],
        "postalCode": "L5J2R3",
        "streetName": "BALTIMORE",
        "streetDirectionId": null,
        "streetTypeId": "AVE",
        "placeName": "MISSISSAUGA",
        "streetNameDisplayText": "BALTIMORE AVE, MISSISSAUGA"
      }
    ]
  },
  {
    "postal": "L5J5N2",
    "result": []
  },
  {
    "postal": "L5J4Y7",
    "result": []
  },
  {
    "postal": "L5J7M0",
    "result": []
  },
  {
    "postal": "L5J8P3",
    "result": []
  },
  {
    "postal": "L5J3N3",
    "result": [
      {
        "electoralDistricts": [
          {
            "election": null,
            "id": 63,
            "name": "Mississauga—Lakeshore"
          }
        ],
        "pollDivisionIds": [
          10139767
        ],
        "postalCode": "L5J3N3",
        "streetName": "THETFORD",
        "streetDirectionId": null,
        "streetTypeId": "CRT",
        "placeName": "MISSISSAUGA",
        "streetNameDisplayText": "THETFORD CRT, MISSISSAUGA"
      }
    ]
  },
  {
    "postal": "L5J7S3",
    "result": []
  },
  {
    "postal": "L5J3V9",
    "result": [
      {
        "electoralDistricts": [
          {
            "election": null,
            "id": 63,
            "name": "Mississauga—Lakeshore"
          }
        ],
        "pollDivisionIds": [
          10139768
        ],
        "postalCode": "L5J3V9",
        "streetName": "PLAYFORD",
        "streetDirectionId": null,
        "streetTypeId": "RD",
        "placeName": "MISSISSAUGA",
        "streetNameDisplayText": "PLAYFORD RD, MISSISSAUGA"
      }
    ]
  },
  {
    "postal": "L5J9N7",
    "result": []
  },
  {
    "postal": "L5J0G4",
    "result": []
  },
  {
    "postal": "L5J2E2",
    "result": [
      {
        "electoralDistricts": [
          {
            "election": null,
            "id": 63,
            "name": "Mississauga—Lakeshore"
          }
        ],
        "pollDivisionIds": [
          10139767
        ],
        "postalCode": "L5J2E2",
        "streetName": "SANDGATE",
        "streetDirectionId": null,
        "streetTypeId": "CRES",
        "placeName": "MISSISSAUGA",
        "streetNameDisplayText": "SANDGATE CRES, MISSISSAUGA"
      }
    ]
  },
  {
    "postal": "L5J7W8",
    "result": []
  },
  {
    "postal": "L5J7M5",
    "result": []
  },
  {
    "postal": "L5J5W8",
    "result": []
  },
  {
    "postal": "L5J5E5",
    "result": []
  },
  {
    "postal": "L5J1P9",
    "result": [
      {
        "electoralDistricts": [
          {
            "election": null,
            "id": 63,
            "name": "Mississauga—Lakeshore"
          }
        ],
        "pollDivisionIds": [
          10139768
        ],
        "postalCode": "L5J1P9",
        "streetName": "BROOKHURST",
        "streetDirectionId": null,
        "streetTypeId": "RD",
        "placeName": "MISSISSAUGA",
        "streetNameDisplayText": "BROOKHURST RD, MISSISSAUGA"
      }
    ]
  },
  {
    "postal": "L5J8V8",
    "result": []
  },
  {
    "postal": "L5J9G8",
    "result": []
  },
  {
    "postal": "L5J8H9",
    "result": []
  },
  {
    "postal": "L5J1Z1",
    "result": [
      {
        "electoralDistricts": [
          {
            "election": null,
            "id": 63,
            "name": "Mississauga—Lakeshore"
          }
        ],
        "pollDivisionIds": [
          10139761
        ],
        "postalCode": "L5J1Z1",
        "streetName": "TRUSCOTT",
        "streetDirectionId": null,
        "streetTypeId": "DR",
        "placeName": "MISSISSAUGA",
        "streetNameDisplayText": "TRUSCOTT DR, MISSISSAUGA"
      }
    ]
  },
  {
    "postal": "L5J8M3",
    "result": []
  },
  {
    "postal": "L5J5H6",
    "result": []
  },
  {
    "postal": "L5J7W7",
    "result": []
  },
  {
    "postal": "L5J4L0",
    "result": []
  },
  {
    "postal": "L5J2N1",
    "result": [
      {
        "electoralDistricts": [
          {
            "election": null,
            "id": 63,
            "name": "Mississauga—Lakeshore"
          }
        ],
        "pollDivisionIds": [
          10139763
        ],
        "postalCode": "L5J2N1",
        "streetName": "RATTRAY PARK",
        "streetDirectionId": null,
        "streetTypeId": "DR",
        "placeName": "MISSISSAUGA",
        "streetNameDisplayText": "RATTRAY PARK DR, MISSISSAUGA"
      }
    ]
  },
  {
    "postal": "L5J2H4",
    "result": [
      {
        "electoralDistricts": [
          {
            "election": null,
            "id": 63,
            "name": "Mississauga—Lakeshore"
          }
        ],
        "pollDivisionIds": [
          10139761
        ],
        "postalCode": "L5J2H4",
        "streetName": "MILDMAY",
        "streetDirectionId": null,
        "streetTypeId": "CRT",
        "placeName": "MISSISSAUGA",
        "streetNameDisplayText": "MILDMAY CRT, MISSISSAUGA"
      }
    ]
  },
  {
    "postal": "L5J5C8",
    "result": []
  },
  {
    "postal": "L5J8B0",
    "result": []
  },
  {
    "postal": "L5J1T4",
    "result": [
      {
        "electoralDistricts": [
          {
            "election": null,
            "id": 63,
            "name": "Mississauga—Lakeshore"
          }
        ],
        "pollDivisionIds": [
          10139761
        ],
        "postalCode": "L5J1T4",
        "streetName": "BIRCHWOOD",
        "streetDirectionId": null,
        "streetTypeId": "DR",
        "placeName": "MISSISSAUGA",
        "streetNameDisplayText": "BIRCHWOOD DR, MISSISSAUGA"
      }
    ]
  },
  {
    "postal": "L5J7N7",
    "result": []
  },
  {
    "postal": "L5J4L3",
    "result": [
      {
        "electoralDistricts": [
          {
            "election": null,
            "id": 63,
            "name": "Mississauga—Lakeshore"
          }
        ],
        "pollDivisionIds": [
          10139763
        ],
        "postalCode": "L5J4L3",
        "streetName": "KOS",
        "streetDirectionId": null,
        "streetTypeId": "BLVD",
        "placeName": "MISSISSAUGA",
        "streetNameDisplayText": "KOS BLVD, MISSISSAUGA"
      }
    ]
  },
  {
    "postal": "L5J2N2",
    "result": [
      {
        "electoralDistricts": [
          {
            "election": null,
            "id": 63,
            "name": "Mississauga—Lakeshore"
          }
        ],
        "pollDivisionIds": [
          10139763
        ],
        "postalCode": "L5J2N2",
        "streetName": "RATTRAY PARK",
        "streetDirectionId": null,
        "streetTypeId": "DR",
        "placeName": "MISSISSAUGA",
        "streetNameDisplayText": "RATTRAY PARK DR, MISSISSAUGA"
      }
    ]
  },
  {
    "postal": "L5J4N8",
    "result": [
      {
        "electoralDistricts": [
          {
            "election": null,
            "id": 63,
            "name": "Mississauga—Lakeshore"
          }
        ],
        "pollDivisionIds": [
          10139769
        ],
        "postalCode": "L5J4N8",
        "streetName": "LAKESHORE",
        "streetDirectionId": "W",
        "streetTypeId": "RD",
        "placeName": "MISSISSAUGA",
        "streetNameDisplayText": "LAKESHORE RD W, MISSISSAUGA"
      }
    ]
  },
  {
    "postal": "L5J3M5",
    "result": [
      {
        "electoralDistricts": [
          {
            "election": null,
            "id": 63,
            "name": "Mississauga—Lakeshore"
          }
        ],
        "pollDivisionIds": [
          10139765
        ],
        "postalCode": "L5J3M5",
        "streetName": "DAVEBROOK",
        "streetDirectionId": null,
        "streetTypeId": "RD",
        "placeName": "MISSISSAUGA",
        "streetNameDisplayText": "DAVEBROOK RD, MISSISSAUGA"
      }
    ]
  },
  {
    "postal": "L5J6H7",
    "result": []
  },
  {
    "postal": "L5J8Y8",
    "result": []
  },
  {
    "postal": "L5J5R9",
    "result": []
  },
  {
    "postal": "L5J8G3",
    "result": []
  },
  {
    "postal": "L5J4N7",
    "result": [
      {
        "electoralDistricts": [
          {
            "election": null,
            "id": 63,
            "name": "Mississauga—Lakeshore"
          }
        ],
        "pollDivisionIds": [
          10139763
        ],
        "postalCode": "L5J4N7",
        "streetName": "BOULDER CREEK",
        "streetDirectionId": null,
        "streetTypeId": "CRES",
        "placeName": "MISSISSAUGA",
        "streetNameDisplayText": "BOULDER CREEK CRES, MISSISSAUGA"
      }
    ]
  },
  {
    "postal": "L5J0B9",
    "result": []
  },
  {
    "postal": "L5J9K7",
    "result": []
  },
  {
    "postal": "L5J9K9",
    "result": []
  },
  {
    "postal": "L5J3Z2",
    "result": [
      {
        "electoralDistricts": [
          {
            "election": null,
            "id": 63,
            "name": "Mississauga—Lakeshore"
          }
        ],
        "pollDivisionIds": [
          10139768
        ],
        "postalCode": "L5J3Z2",
        "streetName": "SHERHILL",
        "streetDirectionId": null,
        "streetTypeId": "DR",
        "placeName": "MISSISSAUGA",
        "streetNameDisplayText": "SHERHILL DR, MISSISSAUGA"
      }
    ]
  },
  {
    "postal": "L5J6W7",
    "result": []
  },
  {
    "postal": "L5J0P1",
    "result": []
  },
  {
    "postal": "L5J3A0",
    "result": []
  },
  {
    "postal": "L5J8L9",
    "result": []
  },
  {
    "postal": "L5J6X0",
    "result": []
  },
  {
    "postal": "L5J3E9",
    "result": [
      {
        "electoralDistricts": [
          {
            "election": null,
            "id": 63,
            "name": "Mississauga—Lakeshore"
          }
        ],
        "pollDivisionIds": [
          10139761
        ],
        "postalCode": "L5J3E9",
        "streetName": "FAIRMILE",
        "streetDirectionId": null,
        "streetTypeId": "CRT",
        "placeName": "MISSISSAUGA",
        "streetNameDisplayText": "FAIRMILE CRT, MISSISSAUGA"
      }
    ]
  },
  {
    "postal": "L5J0S5",
    "result": []
  },
  {
    "postal": "L5J1A2",
    "result": [
      {
        "electoralDistricts": [
          {
            "election": null,
            "id": 63,
            "name": "Mississauga—Lakeshore"
          }
        ],
        "pollDivisionIds": [
          10139763
        ],
        "postalCode": "L5J1A2",
        "streetName": "WATERSEDGE",
        "streetDirectionId": null,
        "streetTypeId": "RD",
        "placeName": "MISSISSAUGA",
        "streetNameDisplayText": "WATERSEDGE RD, MISSISSAUGA"
      }
    ]
  },
  {
    "postal": "L5J5V8",
    "result": []
  },
  {
    "postal": "L5J8C5",
    "result": []
  },
  {
    "postal": "L5J6N0",
    "result": []
  },
  {
    "postal": "L5J9E6",
    "result": []
  },
  {
    "postal": "L5J5J7",
    "result": []
  },
  {
    "postal": "L5J2R2",
    "result": [
      {
        "electoralDistricts": [
          {
            "election": null,
            "id": 63,
            "name": "Mississauga—Lakeshore"
          }
        ],
        "pollDivisionIds": [
          10139769
        ],
        "postalCode": "L5J2R2",
        "streetName": "COUNTRY CLUB",
        "streetDirectionId": null,
        "streetTypeId": "CRES",
        "placeName": "MISSISSAUGA",
        "streetNameDisplayText": "COUNTRY CLUB CRES, MISSISSAUGA"
      }
    ]
  },
  {
    "postal": "L5J0P5",
    "result": []
  },
  {
    "postal": "L5J5A7",
    "result": []
  },
  {
    "postal": "L5J1G1",
    "result": [
      {
        "electoralDistricts": [
          {
            "election": null,
            "id": 63,
            "name": "Mississauga—Lakeshore"
          }
        ],
        "pollDivisionIds": [
          10139769
        ],
        "postalCode": "L5J1G1",
        "streetName": "SUNNINGDALE",
        "streetDirectionId": null,
        "streetTypeId": "BEND",
        "placeName": "MISSISSAUGA",
        "streetNameDisplayText": "SUNNINGDALE BEND, MISSISSAUGA"
      }
    ]
  },
  {
    "postal": "L5J9R6",
    "result": []
  },
  {
    "postal": "L5J4Z9",
    "result": []
  },
  {
    "postal": "L5J1V5",
    "result": [
      {
        "electoralDistricts": [
          {
            "election": null,
            "id": 63,
            "name": "Mississauga—Lakeshore"
          }
        ],
        "pollDivisionIds": [
          10139765
        ],
        "postalCode": "L5J1V5",
        "streetName": "BARSUDA",
        "streetDirectionId": null,
        "streetTypeId": "DR",
        "placeName": "MISSISSAUGA",
        "streetNameDisplayText": "BARSUDA DR, MISSISSAUGA"
      }
    ]
  },
  {
    "postal": "L5J9Y5",
    "result": []
  },
  {
    "postal": "L5J1P2",
    "result": [
      {
        "electoralDistricts": [
          {
            "election": null,
            "id": 63,
            "name": "Mississauga—Lakeshore"
          }
        ],
        "pollDivisionIds": [
          10139768
        ],
        "postalCode": "L5J1P2",
        "streetName": "WISEMAN",
        "streetDirectionId": null,
        "streetTypeId": "CRT",
        "placeName": "MISSISSAUGA",
        "streetNameDisplayText": "WISEMAN CRT, MISSISSAUGA"
      }
    ]
  },
  {
    "postal": "L5J5X0",
    "result": []
  },
  {
    "postal": "L5J7B8",
    "result": []
  },
  {
    "postal": "L5J0C6",
    "result": []
  },
  {
    "postal": "L5J6G1",
    "result": []
  },
  {
    "postal": "L5J3K3",
    "result": [
      {
        "electoralDistricts": [
          {
            "election": null,
            "id": 63,
            "name": "Mississauga—Lakeshore"
          }
        ],
        "pollDivisionIds": [
          10139765
        ],
        "postalCode": "L5J3K3",
        "streetName": "ROBILLARD",
        "streetDirectionId": null,
        "streetTypeId": "RD",
        "placeName": "MISSISSAUGA",
        "streetNameDisplayText": "ROBILLARD RD, MISSISSAUGA"
      }
    ]
  },
  {
    "postal": "L5J9R0",
    "result": []
  },
  {
    "postal": "L5J4R8",
    "result": [
      {
        "electoralDistricts": [
          {
            "election": null,
            "id": 63,
            "name": "Mississauga—Lakeshore"
          }
        ],
        "pollDivisionIds": [
          10139769
        ],
        "postalCode": "L5J4R8",
        "streetName": "PENGILLEY",
        "streetDirectionId": null,
        "streetTypeId": "PL",
        "placeName": "MISSISSAUGA",
        "streetNameDisplayText": "PENGILLEY PL, MISSISSAUGA"
      }
    ]
  },
  {
    "postal": "L5J5P9",
    "result": []
  },
  {
    "postal": "L5J8N4",
    "result": []
  },
  {
    "postal": "L5J8H4",
    "result": []
  },
  {
    "postal": "L5J4V1",
    "result": []
  },
  {
    "postal": "L5J1K5",
    "result": [
      {
        "electoralDistricts": [
          {
            "election": null,
            "id": 63,
            "name": "Mississauga—Lakeshore"
          }
        ],
        "pollDivisionIds": [
          10139769
        ],
        "postalCode": "L5J1K5",
        "streetName": "ROYAL WINDSOR",
        "streetDirectionId": null,
        "streetTypeId": "DR",
        "placeName": "MISSISSAUGA",
        "streetNameDisplayText": "ROYAL WINDSOR DR, MISSISSAUGA"
      }
    ]
  },
  {
    "postal": "L5J1Z5",
    "result": [
      {
        "electoralDistricts": [
          {
            "election": null,
            "id": 63,
            "name": "Mississauga—Lakeshore"
          }
        ],
        "pollDivisionIds": [
          10139761
        ],
        "postalCode": "L5J1Z5",
        "streetName": "TRUSCOTT",
        "streetDirectionId": null,
        "streetTypeId": "DR",
        "placeName": "MISSISSAUGA",
        "streetNameDisplayText": "TRUSCOTT DR, MISSISSAUGA"
      }
    ]
  },
  {
    "postal": "L5J9L9",
    "result": []
  },
  {
    "postal": "L5J5L2",
    "result": []
  },
  {
    "postal": "L5J0M2",
    "result": []
  },
  {
    "postal": "L5J1K8",
    "result": []
  },
  {
    "postal": "L5J3M7",
    "result": [
      {
        "electoralDistricts": [
          {
            "election": null,
            "id": 63,
            "name": "Mississauga—Lakeshore"
          }
        ],
        "pollDivisionIds": [
          10139765
        ],
        "postalCode": "L5J3M7",
        "streetName": "DAVEBROOK",
        "streetDirectionId": null,
        "streetTypeId": "RD",
        "placeName": "MISSISSAUGA",
        "streetNameDisplayText": "DAVEBROOK RD, MISSISSAUGA"
      }
    ]
  },
  {
    "postal": "L5J1B2",
    "result": [
      {
        "electoralDistricts": [
          {
            "election": null,
            "id": 63,
            "name": "Mississauga—Lakeshore"
          }
        ],
        "pollDivisionIds": [
          10139763
        ],
        "postalCode": "L5J1B2",
        "streetName": "HALYARD",
        "streetDirectionId": null,
        "streetTypeId": "CRT",
        "placeName": "MISSISSAUGA",
        "streetNameDisplayText": "HALYARD CRT, MISSISSAUGA"
      }
    ]
  },
  {
    "postal": "L5J0H9",
    "result": []
  },
  {
    "postal": "L5J8M4",
    "result": []
  },
  {
    "postal": "L5J2M5",
    "result": []
  },
  {
    "postal": "L5J0T9",
    "result": []
  },
  {
    "postal": "L5J3P1",
    "result": [
      {
        "electoralDistricts": [
          {
            "election": null,
            "id": 63,
            "name": "Mississauga—Lakeshore"
          }
        ],
        "pollDivisionIds": [
          10139768
        ],
        "postalCode": "L5J3P1",
        "streetName": "LUDBROOK",
        "streetDirectionId": null,
        "streetTypeId": "CRT",
        "placeName": "MISSISSAUGA",
        "streetNameDisplayText": "LUDBROOK CRT, MISSISSAUGA"
      }
    ]
  },
  {
    "postal": "L5J1R6",
    "result": [
      {
        "electoralDistricts": [
          {
            "election": null,
            "id": 63,
            "name": "Mississauga—Lakeshore"
          }
        ],
        "pollDivisionIds": [
          10139761
        ],
        "postalCode": "L5J1R6",
        "streetName": "ROGERSWOOD",
        "streetDirectionId": null,
        "streetTypeId": "CRT",
        "placeName": "MISSISSAUGA",
        "streetNameDisplayText": "ROGERSWOOD CRT, MISSISSAUGA"
      }
    ]
  },
  {
    "postal": "L5J9V5",
    "result": []
  },
  {
    "postal": "L5J9T0",
    "result": []
  },
  {
    "postal": "L5J0A9",
    "result": [
      {
        "electoralDistricts": [
          {
            "election": null,
            "id": 63,
            "name": "Mississauga—Lakeshore"
          }
        ],
        "pollDivisionIds": [
          10139767
        ],
        "postalCode": "L5J0A9",
        "streetName": "TRUSCOTT",
        "streetDirectionId": null,
        "streetTypeId": "DR",
        "placeName": "MISSISSAUGA",
        "streetNameDisplayText": "TRUSCOTT DR, MISSISSAUGA"
      }
    ]
  },
  {
    "postal": "L5J1M3",
    "result": [
      {
        "electoralDistricts": [
          {
            "election": null,
            "id": 63,
            "name": "Mississauga—Lakeshore"
          }
        ],
        "pollDivisionIds": [
          10139768
        ],
        "postalCode": "L5J1M3",
        "streetName": "WIDEMARR",
        "streetDirectionId": null,
        "streetTypeId": "RD",
        "placeName": "MISSISSAUGA",
        "streetNameDisplayText": "WIDEMARR RD, MISSISSAUGA"
      }
    ]
  },
  {
    "postal": "L5J1W8",
    "result": [
      {
        "electoralDistricts": [
          {
            "election": null,
            "id": 63,
            "name": "Mississauga—Lakeshore"
          }
        ],
        "pollDivisionIds": [
          10139768
        ],
        "postalCode": "L5J1W8",
        "streetName": "CONSTABLE",
        "streetDirectionId": null,
        "streetTypeId": "RD",
        "placeName": "MISSISSAUGA",
        "streetNameDisplayText": "CONSTABLE RD, MISSISSAUGA"
      }
    ]
  },
  {
    "postal": "L5J9J1",
    "result": []
  },
  {
    "postal": "L5J8N5",
    "result": []
  },
  {
    "postal": "L5J5X1",
    "result": []
  },
  {
    "postal": "L5J6S2",
    "result": []
  },
  {
    "postal": "L5J2A2",
    "result": [
      {
        "electoralDistricts": [
          {
            "election": null,
            "id": 63,
            "name": "Mississauga—Lakeshore"
          }
        ],
        "pollDivisionIds": [
          10139765
        ],
        "postalCode": "L5J2A2",
        "streetName": "TRUSCOTT",
        "streetDirectionId": null,
        "streetTypeId": "DR",
        "placeName": "MISSISSAUGA",
        "streetNameDisplayText": "TRUSCOTT DR, MISSISSAUGA"
      }
    ]
  },
  {
    "postal": "L5J6A6",
    "result": []
  },
  {
    "postal": "L5J0S3",
    "result": []
  },
  {
    "postal": "L5J3E7",
    "result": [
      {
        "electoralDistricts": [
          {
            "election": null,
            "id": 63,
            "name": "Mississauga—Lakeshore"
          }
        ],
        "pollDivisionIds": [
          10139761
        ],
        "postalCode": "L5J3E7",
        "streetName": "RAVINE",
        "streetDirectionId": null,
        "streetTypeId": "DR",
        "placeName": "MISSISSAUGA",
        "streetNameDisplayText": "RAVINE DR, MISSISSAUGA"
      }
    ]
  },
  {
    "postal": "L5J5R7",
    "result": []
  },
  {
    "postal": "L5J3R6",
    "result": [
      {
        "electoralDistricts": [
          {
            "election": null,
            "id": 63,
            "name": "Mississauga—Lakeshore"
          }
        ],
        "pollDivisionIds": [
          10139767
        ],
        "postalCode": "L5J3R6",
        "streetName": "LEWISHAM",
        "streetDirectionId": null,
        "streetTypeId": "DR",
        "placeName": "MISSISSAUGA",
        "streetNameDisplayText": "LEWISHAM DR, MISSISSAUGA"
      }
    ]
  },
  {
    "postal": "L5J6K4",
    "result": []
  },
  {
    "postal": "L5J2W5",
    "result": [
      {
        "electoralDistricts": [
          {
            "election": null,
            "id": 63,
            "name": "Mississauga—Lakeshore"
          }
        ],
        "pollDivisionIds": [
          10139765
        ],
        "postalCode": "L5J2W5",
        "streetName": "CLARKSON",
        "streetDirectionId": "N",
        "streetTypeId": "RD",
        "placeName": "MISSISSAUGA",
        "streetNameDisplayText": "CLARKSON RD N, MISSISSAUGA"
      }
    ]
  },
  {
    "postal": "L5J8W4",
    "result": []
  },
  {
    "postal": "L5J9C2",
    "result": []
  },
  {
    "postal": "L5J2C0",
    "result": []
  },
  {
    "postal": "L5J0E1",
    "result": []
  },
  {
    "postal": "L5J1K9",
    "result": [
      {
        "electoralDistricts": [
          {
            "election": null,
            "id": 63,
            "name": "Mississauga—Lakeshore"
          }
        ],
        "pollDivisionIds": [
          10139769
        ],
        "postalCode": "L5J1K9",
        "streetName": "ROYAL WINDSOR",
        "streetDirectionId": null,
        "streetTypeId": "DR",
        "placeName": "MISSISSAUGA",
        "streetNameDisplayText": "ROYAL WINDSOR DR, MISSISSAUGA"
      }
    ]
  },
  {
    "postal": "L5J1G7",
    "result": [
      {
        "electoralDistricts": [
          {
            "election": null,
            "id": 63,
            "name": "Mississauga—Lakeshore"
          }
        ],
        "pollDivisionIds": [
          10139763
        ],
        "postalCode": "L5J1G7",
        "streetName": "PETRIE",
        "streetDirectionId": null,
        "streetTypeId": "WAY",
        "placeName": "MISSISSAUGA",
        "streetNameDisplayText": "PETRIE WAY, MISSISSAUGA"
      }
    ]
  },
  {
    "postal": "L5J4E9",
    "result": [
      {
        "electoralDistricts": [
          {
            "election": null,
            "id": 63,
            "name": "Mississauga—Lakeshore"
          }
        ],
        "pollDivisionIds": [
          10139761
        ],
        "postalCode": "L5J4E9",
        "streetName": "MEDALLION",
        "streetDirectionId": null,
        "streetTypeId": "CRT",
        "placeName": "MISSISSAUGA",
        "streetNameDisplayText": "MEDALLION CRT, MISSISSAUGA"
      }
    ]
  },
  {
    "postal": "L5J9P0",
    "result": []
  },
  {
    "postal": "L5J5H3",
    "result": []
  },
  {
    "postal": "L5J9X6",
    "result": []
  },
  {
    "postal": "L5J5N7",
    "result": []
  },
  {
    "postal": "L5J5A6",
    "result": []
  },
  {
    "postal": "L5J4M0",
    "result": []
  },
  {
    "postal": "L5J3V6",
    "result": [
      {
        "electoralDistricts": [
          {
            "election": null,
            "id": 63,
            "name": "Mississauga—Lakeshore"
          }
        ],
        "pollDivisionIds": [
          10139768
        ],
        "postalCode": "L5J3V6",
        "streetName": "TREDMORE",
        "streetDirectionId": null,
        "streetTypeId": "DR",
        "placeName": "MISSISSAUGA",
        "streetNameDisplayText": "TREDMORE DR, MISSISSAUGA"
      }
    ]
  },
  {
    "postal": "L5J1L7",
    "result": [
      {
        "electoralDistricts": [
          {
            "election": null,
            "id": 63,
            "name": "Mississauga—Lakeshore"
          }
        ],
        "pollDivisionIds": [
          10139768
        ],
        "postalCode": "L5J1L7",
        "streetName": "BROMSGROVE",
        "streetDirectionId": null,
        "streetTypeId": "RD",
        "placeName": "MISSISSAUGA",
        "streetNameDisplayText": "BROMSGROVE RD, MISSISSAUGA"
      }
    ]
  },
  {
    "postal": "L5J2P9",
    "result": [
      {
        "electoralDistricts": [
          {
            "election": null,
            "id": 63,
            "name": "Mississauga—Lakeshore"
          }
        ],
        "pollDivisionIds": [
          10139763
        ],
        "postalCode": "L5J2P9",
        "streetName": "COUNTRY CLUB",
        "streetDirectionId": null,
        "streetTypeId": "CRES",
        "placeName": "MISSISSAUGA",
        "streetNameDisplayText": "COUNTRY CLUB CRES, MISSISSAUGA"
      }
    ]
  },
  {
    "postal": "L5J5T4",
    "result": []
  },
  {
    "postal": "L5J5Z1",
    "result": []
  },
  {
    "postal": "L5J2X0",
    "result": []
  },
  {
    "postal": "L5J6Z2",
    "result": []
  },
  {
    "postal": "L5J0E0",
    "result": []
  },
  {
    "postal": "L5J3Z5",
    "result": [
      {
        "electoralDistricts": [
          {
            "election": null,
            "id": 63,
            "name": "Mississauga—Lakeshore"
          }
        ],
        "pollDivisionIds": [
          10139763
        ],
        "postalCode": "L5J3Z5",
        "streetName": "FLAMINIA",
        "streetDirectionId": null,
        "streetTypeId": "CRT",
        "placeName": "MISSISSAUGA",
        "streetNameDisplayText": "FLAMINIA CRT, MISSISSAUGA"
      }
    ]
  },
  {
    "postal": "L5J8H3",
    "result": []
  },
  {
    "postal": "L5J7S6",
    "result": []
  },
  {
    "postal": "L5J4C1",
    "result": [
      {
        "electoralDistricts": [
          {
            "election": null,
            "id": 63,
            "name": "Mississauga—Lakeshore"
          }
        ],
        "pollDivisionIds": [
          10139763
        ],
        "postalCode": "L5J4C1",
        "streetName": "SILVER BIRCH",
        "streetDirectionId": null,
        "streetTypeId": "TRAIL",
        "placeName": "MISSISSAUGA",
        "streetNameDisplayText": "SILVER BIRCH TRAIL, MISSISSAUGA"
      }
    ]
  },
  {
    "postal": "L5J3K2",
    "result": [
      {
        "electoralDistricts": [
          {
            "election": null,
            "id": 63,
            "name": "Mississauga—Lakeshore"
          }
        ],
        "pollDivisionIds": [
          10139765
        ],
        "postalCode": "L5J3K2",
        "streetName": "DUPREE",
        "streetDirectionId": null,
        "streetTypeId": "PL",
        "placeName": "MISSISSAUGA",
        "streetNameDisplayText": "DUPREE PL, MISSISSAUGA"
      }
    ]
  },
  {
    "postal": "L5J1Y5",
    "result": [
      {
        "electoralDistricts": [
          {
            "election": null,
            "id": 63,
            "name": "Mississauga—Lakeshore"
          }
        ],
        "pollDivisionIds": [
          10139761
        ],
        "postalCode": "L5J1Y5",
        "streetName": "RUSCOMBE",
        "streetDirectionId": null,
        "streetTypeId": "CLOSE",
        "placeName": "MISSISSAUGA",
        "streetNameDisplayText": "RUSCOMBE CLOSE, MISSISSAUGA"
      }
    ]
  },
  {
    "postal": "L5J6P6",
    "result": []
  },
  {
    "postal": "L5J3N9",
    "result": [
      {
        "electoralDistricts": [
          {
            "election": null,
            "id": 63,
            "name": "Mississauga—Lakeshore"
          }
        ],
        "pollDivisionIds": [
          10139768
        ],
        "postalCode": "L5J3N9",
        "streetName": "LUDBROOK",
        "streetDirectionId": null,
        "streetTypeId": "CRT",
        "placeName": "MISSISSAUGA",
        "streetNameDisplayText": "LUDBROOK CRT, MISSISSAUGA"
      }
    ]
  },
  {
    "postal": "L5J3W2",
    "result": [
      {
        "electoralDistricts": [
          {
            "election": null,
            "id": 63,
            "name": "Mississauga—Lakeshore"
          }
        ],
        "pollDivisionIds": [
          10139767
        ],
        "postalCode": "L5J3W2",
        "streetName": "LUNDIGAN",
        "streetDirectionId": null,
        "streetTypeId": "DR",
        "placeName": "MISSISSAUGA",
        "streetNameDisplayText": "LUNDIGAN DR, MISSISSAUGA"
      }
    ]
  },
  {
    "postal": "L5J6H8",
    "result": []
  },
  {
    "postal": "L5J9T3",
    "result": []
  },
  {
    "postal": "L5J5L9",
    "result": []
  },
  {
    "postal": "L5J7X7",
    "result": []
  },
  {
    "postal": "L5J3J5",
    "result": [
      {
        "electoralDistricts": [
          {
            "election": null,
            "id": 63,
            "name": "Mississauga—Lakeshore"
          }
        ],
        "pollDivisionIds": [
          10139765
        ],
        "postalCode": "L5J3J5",
        "streetName": "WELWYN",
        "streetDirectionId": null,
        "streetTypeId": "DR",
        "placeName": "MISSISSAUGA",
        "streetNameDisplayText": "WELWYN DR, MISSISSAUGA"
      }
    ]
  },
  {
    "postal": "L5J4J5",
    "result": [
      {
        "electoralDistricts": [
          {
            "election": null,
            "id": 63,
            "name": "Mississauga—Lakeshore"
          }
        ],
        "pollDivisionIds": [
          10139763
        ],
        "postalCode": "L5J4J5",
        "streetName": "MARSHWOOD",
        "streetDirectionId": null,
        "streetTypeId": "PL",
        "placeName": "MISSISSAUGA",
        "streetNameDisplayText": "MARSHWOOD PL, MISSISSAUGA"
      }
    ]
  },
  {
    "postal": "L5J6J2",
    "result": []
  },
  {
    "postal": "L5J5V6",
    "result": []
  },
  {
    "postal": "L5J3N2",
    "result": [
      {
        "electoralDistricts": [
          {
            "election": null,
            "id": 63,
            "name": "Mississauga—Lakeshore"
          }
        ],
        "pollDivisionIds": [
          10139767
        ],
        "postalCode": "L5J3N2",
        "streetName": "THETFORD",
        "streetDirectionId": null,
        "streetTypeId": "CRT",
        "placeName": "MISSISSAUGA",
        "streetNameDisplayText": "THETFORD CRT, MISSISSAUGA"
      }
    ]
  },
  {
    "postal": "L5J3B1",
    "result": [
      {
        "electoralDistricts": [
          {
            "election": null,
            "id": 63,
            "name": "Mississauga—Lakeshore"
          }
        ],
        "pollDivisionIds": [
          10139761
        ],
        "postalCode": "L5J3B1",
        "streetName": "CALUMET",
        "streetDirectionId": null,
        "streetTypeId": "PL",
        "placeName": "MISSISSAUGA",
        "streetNameDisplayText": "CALUMET PL, MISSISSAUGA"
      }
    ]
  },
  {
    "postal": "L5J8B5",
    "result": []
  },
  {
    "postal": "L5J0K1",
    "result": []
  },
  {
    "postal": "L5J7M7",
    "result": []
  },
  {
    "postal": "L5J2M2",
    "result": [
      {
        "electoralDistricts": [
          {
            "election": null,
            "id": 63,
            "name": "Mississauga—Lakeshore"
          }
        ],
        "pollDivisionIds": [
          10139765
        ],
        "postalCode": "L5J2M2",
        "streetName": "SOUTH SHERIDAN",
        "streetDirectionId": null,
        "streetTypeId": "WAY",
        "placeName": "MISSISSAUGA",
        "streetNameDisplayText": "SOUTH SHERIDAN WAY, MISSISSAUGA"
      }
    ]
  },
  {
    "postal": "L5J9N3",
    "result": []
  },
  {
    "postal": "L5J4Y8",
    "result": []
  },
  {
    "postal": "L5J3V7",
    "result": [
      {
        "electoralDistricts": [
          {
            "election": null,
            "id": 63,
            "name": "Mississauga—Lakeshore"
          }
        ],
        "pollDivisionIds": [
          10139768
        ],
        "postalCode": "L5J3V7",
        "streetName": "PLAYFORD",
        "streetDirectionId": null,
        "streetTypeId": "RD",
        "placeName": "MISSISSAUGA",
        "streetNameDisplayText": "PLAYFORD RD, MISSISSAUGA"
      }
    ]
  },
  {
    "postal": "L5J8Z1",
    "result": []
  },
  {
    "postal": "L5J7B3",
    "result": []
  },
  {
    "postal": "L5J3A8",
    "result": [
      {
        "electoralDistricts": [
          {
            "election": null,
            "id": 63,
            "name": "Mississauga—Lakeshore"
          }
        ],
        "pollDivisionIds": [
          10139761
        ],
        "postalCode": "L5J3A8",
        "streetName": "CHASEHURST",
        "streetDirectionId": null,
        "streetTypeId": "DR",
        "placeName": "MISSISSAUGA",
        "streetNameDisplayText": "CHASEHURST DR, MISSISSAUGA"
      }
    ]
  },
  {
    "postal": "L5J7V5",
    "result": []
  },
  {
    "postal": "L5J2T2",
    "result": [
      {
        "electoralDistricts": [
          {
            "election": null,
            "id": 63,
            "name": "Mississauga—Lakeshore"
          }
        ],
        "pollDivisionIds": [
          10139763
        ],
        "postalCode": "L5J2T2",
        "streetName": "APPLE",
        "streetDirectionId": null,
        "streetTypeId": "LANE",
        "placeName": "MISSISSAUGA",
        "streetNameDisplayText": "APPLE LANE, MISSISSAUGA"
      }
    ]
  },
  {
    "postal": "L5J6L3",
    "result": []
  },
  {
    "postal": "L5J0L2",
    "result": []
  },
  {
    "postal": "L5J5Y8",
    "result": []
  },
  {
    "postal": "L5J0B8",
    "result": []
  },
  {
    "postal": "L5J6R5",
    "result": []
  },
  {
    "postal": "L5J8W6",
    "result": []
  },
  {
    "postal": "L5J8G6",
    "result": []
  },
  {
    "postal": "L5J6X3",
    "result": []
  },
  {
    "postal": "L5J7R7",
    "result": []
  },
  {
    "postal": "L5J4B6",
    "result": [
      {
        "electoralDistricts": [
          {
            "election": null,
            "id": 63,
            "name": "Mississauga—Lakeshore"
          }
        ],
        "pollDivisionIds": [
          10139787
        ],
        "postalCode": "L5J4B6",
        "streetName": "INVERHOUSE",
        "streetDirectionId": null,
        "streetTypeId": "DR",
        "placeName": "MISSISSAUGA",
        "streetNameDisplayText": "INVERHOUSE DR, MISSISSAUGA"
      }
    ]
  },
  {
    "postal": "L5J3P9",
    "result": [
      {
        "electoralDistricts": [
          {
            "election": null,
            "id": 63,
            "name": "Mississauga—Lakeshore"
          }
        ],
        "pollDivisionIds": [
          10139768
        ],
        "postalCode": "L5J3P9",
        "streetName": "LEWISHAM",
        "streetDirectionId": null,
        "streetTypeId": "DR",
        "placeName": "MISSISSAUGA",
        "streetNameDisplayText": "LEWISHAM DR, MISSISSAUGA"
      }
    ]
  },
  {
    "postal": "L5J2T3",
    "result": [
      {
        "electoralDistricts": [
          {
            "election": null,
            "id": 63,
            "name": "Mississauga—Lakeshore"
          }
        ],
        "pollDivisionIds": [
          10139769
        ],
        "postalCode": "L5J2T3",
        "streetName": "MISSENDEN",
        "streetDirectionId": null,
        "streetTypeId": "CRES",
        "placeName": "MISSISSAUGA",
        "streetNameDisplayText": "MISSENDEN CRES, MISSISSAUGA"
      }
    ]
  },
  {
    "postal": "L5J1M4",
    "result": [
      {
        "electoralDistricts": [
          {
            "election": null,
            "id": 63,
            "name": "Mississauga—Lakeshore"
          }
        ],
        "pollDivisionIds": [
          10139768
        ],
        "postalCode": "L5J1M4",
        "streetName": "WIDEMARR",
        "streetDirectionId": null,
        "streetTypeId": "RD",
        "placeName": "MISSISSAUGA",
        "streetNameDisplayText": "WIDEMARR RD, MISSISSAUGA"
      }
    ]
  },
  {
    "postal": "L5J0H1",
    "result": []
  },
  {
    "postal": "L5J9W3",
    "result": []
  },
  {
    "postal": "L5J6P1",
    "result": []
  },
  {
    "postal": "L5J7G2",
    "result": []
  },
  {
    "postal": "L5J4J9",
    "result": [
      {
        "electoralDistricts": [
          {
            "election": null,
            "id": 63,
            "name": "Mississauga—Lakeshore"
          }
        ],
        "pollDivisionIds": [
          10139769
        ],
        "postalCode": "L5J4J9",
        "streetName": "WALDEN",
        "streetDirectionId": null,
        "streetTypeId": "CIR",
        "placeName": "MISSISSAUGA",
        "streetNameDisplayText": "WALDEN CIR, MISSISSAUGA"
      }
    ]
  },
  {
    "postal": "L5J9E4",
    "result": []
  },
  {
    "postal": "L5J8H0",
    "result": []
  },
  {
    "postal": "L5J4M7",
    "result": [
      {
        "electoralDistricts": [
          {
            "election": null,
            "id": 63,
            "name": "Mississauga—Lakeshore"
          }
        ],
        "pollDivisionIds": [
          10139763
        ],
        "postalCode": "L5J4M7",
        "streetName": "ZANTE",
        "streetDirectionId": null,
        "streetTypeId": "CRES",
        "placeName": "MISSISSAUGA",
        "streetNameDisplayText": "ZANTE CRES, MISSISSAUGA"
      }
    ]
  },
  {
    "postal": "L5J2G9",
    "result": [
      {
        "electoralDistricts": [
          {
            "election": null,
            "id": 63,
            "name": "Mississauga—Lakeshore"
          }
        ],
        "pollDivisionIds": [
          10139767
        ],
        "postalCode": "L5J2G9",
        "streetName": "HARTINGTON",
        "streetDirectionId": null,
        "streetTypeId": "CRT",
        "placeName": "MISSISSAUGA",
        "streetNameDisplayText": "HARTINGTON CRT, MISSISSAUGA"
      }
    ]
  },
  {
    "postal": "L5J8T2",
    "result": []
  },
  {
    "postal": "L5J7G7",
    "result": []
  },
  {
    "postal": "L5J4Z3",
    "result": []
  },
  {
    "postal": "L5J5B3",
    "result": []
  },
  {
    "postal": "L5J1S7",
    "result": [
      {
        "electoralDistricts": [
          {
            "election": null,
            "id": 63,
            "name": "Mississauga—Lakeshore"
          }
        ],
        "pollDivisionIds": [
          10139761
        ],
        "postalCode": "L5J1S7",
        "streetName": "JALNA",
        "streetDirectionId": null,
        "streetTypeId": "AVE",
        "placeName": "MISSISSAUGA",
        "streetNameDisplayText": "JALNA AVE, MISSISSAUGA"
      }
    ]
  },
  {
    "postal": "L5J2N7",
    "result": [
      {
        "electoralDistricts": [
          {
            "election": null,
            "id": 63,
            "name": "Mississauga—Lakeshore"
          }
        ],
        "pollDivisionIds": [
          10139763
        ],
        "postalCode": "L5J2N7",
        "streetName": "CALDER",
        "streetDirectionId": null,
        "streetTypeId": "RD",
        "placeName": "MISSISSAUGA",
        "streetNameDisplayText": "CALDER RD, MISSISSAUGA"
      }
    ]
  },
  {
    "postal": "L5J0H8",
    "result": []
  },
  {
    "postal": "L5J7Z4",
    "result": []
  },
  {
    "postal": "L5J7B1",
    "result": []
  },
  {
    "postal": "L5J7P8",
    "result": []
  },
  {
    "postal": "L5J7N0",
    "result": []
  },
  {
    "postal": "L5J3Y5",
    "result": [
      {
        "electoralDistricts": [
          {
            "election": null,
            "id": 63,
            "name": "Mississauga—Lakeshore"
          }
        ],
        "pollDivisionIds": [
          10139768
        ],
        "postalCode": "L5J3Y5",
        "streetName": "CRAMER",
        "streetDirectionId": null,
        "streetTypeId": "ST",
        "placeName": "MISSISSAUGA",
        "streetNameDisplayText": "CRAMER ST, MISSISSAUGA"
      }
    ]
  },
  {
    "postal": "L5J6K1",
    "result": []
  },
  {
    "postal": "L5J9X5",
    "result": []
  },
  {
    "postal": "L5J7S5",
    "result": []
  },
  {
    "postal": "L5J0A4",
    "result": [
      {
        "electoralDistricts": [
          {
            "election": null,
            "id": 63,
            "name": "Mississauga—Lakeshore"
          }
        ],
        "pollDivisionIds": [
          10139769
        ],
        "postalCode": "L5J0A4",
        "streetName": "OANA",
        "streetDirectionId": null,
        "streetTypeId": "DR",
        "placeName": "MISSISSAUGA",
        "streetNameDisplayText": "OANA DR, MISSISSAUGA"
      }
    ]
  },
  {
    "postal": "L5J4T5",
    "result": [
      {
        "electoralDistricts": [
          {
            "election": null,
            "id": 63,
            "name": "Mississauga—Lakeshore"
          }
        ],
        "pollDivisionIds": [
          10139769
        ],
        "postalCode": "L5J4T5",
        "streetName": "LAKESHORE",
        "streetDirectionId": "W",
        "streetTypeId": "RD",
        "placeName": "MISSISSAUGA",
        "streetNameDisplayText": "LAKESHORE RD W, MISSISSAUGA"
      }
    ]
  },
  {
    "postal": "L5J5K1",
    "result": []
  },
  {
    "postal": "L5J0Z9",
    "result": []
  },
  {
    "postal": "L5J7T2",
    "result": []
  },
  {
    "postal": "L5J1L5",
    "result": [
      {
        "electoralDistricts": [
          {
            "election": null,
            "id": 63,
            "name": "Mississauga—Lakeshore"
          }
        ],
        "pollDivisionIds": [
          10139768
        ],
        "postalCode": "L5J1L5",
        "streetName": "BROMSGROVE",
        "streetDirectionId": null,
        "streetTypeId": "RD",
        "placeName": "MISSISSAUGA",
        "streetNameDisplayText": "BROMSGROVE RD, MISSISSAUGA"
      }
    ]
  },
  {
    "postal": "L5J3N5",
    "result": [
      {
        "electoralDistricts": [
          {
            "election": null,
            "id": 63,
            "name": "Mississauga—Lakeshore"
          }
        ],
        "pollDivisionIds": [
          10139767
        ],
        "postalCode": "L5J3N5",
        "streetName": "THETFORD",
        "streetDirectionId": null,
        "streetTypeId": "CRT",
        "placeName": "MISSISSAUGA",
        "streetNameDisplayText": "THETFORD CRT, MISSISSAUGA"
      }
    ]
  },
  {
    "postal": "L5J6H4",
    "result": []
  },
  {
    "postal": "L5J5A5",
    "result": []
  },
  {
    "postal": "L5J3R9",
    "result": [
      {
        "electoralDistricts": [
          {
            "election": null,
            "id": 63,
            "name": "Mississauga—Lakeshore"
          }
        ],
        "pollDivisionIds": [
          10139767
        ],
        "postalCode": "L5J3R9",
        "streetName": "HOBBS",
        "streetDirectionId": null,
        "streetTypeId": "CRES",
        "placeName": "MISSISSAUGA",
        "streetNameDisplayText": "HOBBS CRES, MISSISSAUGA"
      }
    ]
  },
  {
    "postal": "L5J7L8",
    "result": []
  },
  {
    "postal": "L5J6T6",
    "result": []
  },
  {
    "postal": "L5J7Y7",
    "result": []
  },
  {
    "postal": "L5J3M8",
    "result": [
      {
        "electoralDistricts": [
          {
            "election": null,
            "id": 63,
            "name": "Mississauga—Lakeshore"
          }
        ],
        "pollDivisionIds": [
          10139765
        ],
        "postalCode": "L5J3M8",
        "streetName": "DAVEBROOK",
        "streetDirectionId": null,
        "streetTypeId": "RD",
        "placeName": "MISSISSAUGA",
        "streetNameDisplayText": "DAVEBROOK RD, MISSISSAUGA"
      }
    ]
  },
  {
    "postal": "L5J2E0",
    "result": []
  },
  {
    "postal": "L5J4B5",
    "result": [
      {
        "electoralDistricts": [
          {
            "election": null,
            "id": 63,
            "name": "Mississauga—Lakeshore"
          }
        ],
        "pollDivisionIds": [
          10139769
        ],
        "postalCode": "L5J4B5",
        "streetName": "INVERHOUSE",
        "streetDirectionId": null,
        "streetTypeId": "DR",
        "placeName": "MISSISSAUGA",
        "streetNameDisplayText": "INVERHOUSE DR, MISSISSAUGA"
      }
    ]
  },
  {
    "postal": "L5J1J3",
    "result": [
      {
        "electoralDistricts": [
          {
            "election": null,
            "id": 63,
            "name": "Mississauga—Lakeshore"
          }
        ],
        "pollDivisionIds": [
          10139769
        ],
        "postalCode": "L5J1J3",
        "streetName": "LAKESHORE",
        "streetDirectionId": "W",
        "streetTypeId": "RD",
        "placeName": "MISSISSAUGA",
        "streetNameDisplayText": "LAKESHORE RD W, MISSISSAUGA"
      }
    ]
  },
  {
    "postal": "L5J5S6",
    "result": []
  },
  {
    "postal": "L5J8P7",
    "result": []
  },
  {
    "postal": "L5J7S7",
    "result": []
  },
  {
    "postal": "L5J4C2",
    "result": [
      {
        "electoralDistricts": [
          {
            "election": null,
            "id": 63,
            "name": "Mississauga—Lakeshore"
          }
        ],
        "pollDivisionIds": [
          10139763
        ],
        "postalCode": "L5J4C2",
        "streetName": "SILVER BIRCH",
        "streetDirectionId": null,
        "streetTypeId": "TRAIL",
        "placeName": "MISSISSAUGA",
        "streetNameDisplayText": "SILVER BIRCH TRAIL, MISSISSAUGA"
      }
    ]
  },
  {
    "postal": "L5J5Y0",
    "result": []
  },
  {
    "postal": "L5J2V7",
    "result": [
      {
        "electoralDistricts": [
          {
            "election": null,
            "id": 63,
            "name": "Mississauga—Lakeshore"
          }
        ],
        "pollDivisionIds": [
          10139769
        ],
        "postalCode": "L5J2V7",
        "streetName": "CLARKSON",
        "streetDirectionId": "S",
        "streetTypeId": "RD",
        "placeName": "MISSISSAUGA",
        "streetNameDisplayText": "CLARKSON RD S, MISSISSAUGA"
      }
    ]
  },
  {
    "postal": "L5J8P5",
    "result": []
  },
  {
    "postal": "L5J5P5",
    "result": []
  },
  {
    "postal": "L5J5Z0",
    "result": []
  },
  {
    "postal": "L5J9B0",
    "result": []
  },
  {
    "postal": "L5J1L0",
    "result": []
  },
  {
    "postal": "L5J0B5",
    "result": []
  },
  {
    "postal": "L5J3L2",
    "result": [
      {
        "electoralDistricts": [
          {
            "election": null,
            "id": 63,
            "name": "Mississauga—Lakeshore"
          }
        ],
        "pollDivisionIds": [
          10139765
        ],
        "postalCode": "L5J3L2",
        "streetName": "DELANEY",
        "streetDirectionId": null,
        "streetTypeId": "DR",
        "placeName": "MISSISSAUGA",
        "streetNameDisplayText": "DELANEY DR, MISSISSAUGA"
      }
    ]
  },
  {
    "postal": "L5J3B7",
    "result": [
      {
        "electoralDistricts": [
          {
            "election": null,
            "id": 63,
            "name": "Mississauga—Lakeshore"
          }
        ],
        "pollDivisionIds": [
          10139761
        ],
        "postalCode": "L5J3B7",
        "streetName": "WHITEOAKS",
        "streetDirectionId": null,
        "streetTypeId": "AVE",
        "placeName": "MISSISSAUGA",
        "streetNameDisplayText": "WHITEOAKS AVE, MISSISSAUGA"
      }
    ]
  },
  {
    "postal": "L5J8L1",
    "result": []
  },
  {
    "postal": "L5J5M4",
    "result": []
  },
  {
    "postal": "L5J4G9",
    "result": [
      {
        "electoralDistricts": [
          {
            "election": null,
            "id": 63,
            "name": "Mississauga—Lakeshore"
          }
        ],
        "pollDivisionIds": [
          10139767
        ],
        "postalCode": "L5J4G9",
        "streetName": "BIRCH",
        "streetDirectionId": null,
        "streetTypeId": "CRES",
        "placeName": "MISSISSAUGA",
        "streetNameDisplayText": "BIRCH CRES, MISSISSAUGA"
      }
    ]
  },
  {
    "postal": "L5J0P0",
    "result": []
  },
  {
    "postal": "L5J8G2",
    "result": []
  },
  {
    "postal": "L5J1V9",
    "result": [
      {
        "electoralDistricts": [
          {
            "election": null,
            "id": 63,
            "name": "Mississauga—Lakeshore"
          }
        ],
        "pollDivisionIds": [
          10139767
        ],
        "postalCode": "L5J1V9",
        "streetName": "CONSTABLE",
        "streetDirectionId": null,
        "streetTypeId": "RD",
        "placeName": "MISSISSAUGA",
        "streetNameDisplayText": "CONSTABLE RD, MISSISSAUGA"
      }
    ]
  },
  {
    "postal": "L5J8N8",
    "result": []
  },
  {
    "postal": "L5J6S8",
    "result": []
  },
  {
    "postal": "L5J8H2",
    "result": []
  },
  {
    "postal": "L5J5R8",
    "result": []
  },
  {
    "postal": "L5J5L4",
    "result": []
  },
  {
    "postal": "L5J9E1",
    "result": []
  },
  {
    "postal": "L5J1C4",
    "result": [
      {
        "electoralDistricts": [
          {
            "election": null,
            "id": 63,
            "name": "Mississauga—Lakeshore"
          }
        ],
        "pollDivisionIds": [
          10139769
        ],
        "postalCode": "L5J1C4",
        "streetName": "ANGELA",
        "streetDirectionId": null,
        "streetTypeId": "CRES",
        "placeName": "MISSISSAUGA",
        "streetNameDisplayText": "ANGELA CRES, MISSISSAUGA"
      }
    ]
  },
  {
    "postal": "L5J8W5",
    "result": []
  },
  {
    "postal": "L5J1Y4",
    "result": [
      {
        "electoralDistricts": [
          {
            "election": null,
            "id": 63,
            "name": "Mississauga—Lakeshore"
          }
        ],
        "pollDivisionIds": [
          10139761
        ],
        "postalCode": "L5J1Y4",
        "streetName": "RUSCOMBE",
        "streetDirectionId": null,
        "streetTypeId": "CLOSE",
        "placeName": "MISSISSAUGA",
        "streetNameDisplayText": "RUSCOMBE CLOSE, MISSISSAUGA"
      }
    ]
  },
  {
    "postal": "L5J1C0",
    "result": []
  },
  {
    "postal": "L5J2J2",
    "result": [
      {
        "electoralDistricts": [
          {
            "election": null,
            "id": 63,
            "name": "Mississauga—Lakeshore"
          }
        ],
        "pollDivisionIds": [
          10139765
        ],
        "postalCode": "L5J2J2",
        "streetName": "LENARTHUR",
        "streetDirectionId": null,
        "streetTypeId": "DR",
        "placeName": "MISSISSAUGA",
        "streetNameDisplayText": "LENARTHUR DR, MISSISSAUGA"
      }
    ]
  },
  {
    "postal": "L5J2J0",
    "result": []
  },
  {
    "postal": "L5J7A3",
    "result": []
  },
  {
    "postal": "L5J8M1",
    "result": []
  },
  {
    "postal": "L5J7T9",
    "result": []
  },
  {
    "postal": "L5J6C0",
    "result": []
  },
  {
    "postal": "L5J7X1",
    "result": []
  },
  {
    "postal": "L5J0G1",
    "result": []
  },
  {
    "postal": "L5J4X2",
    "result": []
  },
  {
    "postal": "L5J0N6",
    "result": []
  },
  {
    "postal": "L5J8E3",
    "result": []
  },
  {
    "postal": "L5J5S8",
    "result": []
  },
  {
    "postal": "L5J0R0",
    "result": []
  },
  {
    "postal": "L5J6J6",
    "result": []
  },
  {
    "postal": "L5J4B4",
    "result": [
      {
        "electoralDistricts": [
          {
            "election": null,
            "id": 63,
            "name": "Mississauga—Lakeshore"
          }
        ],
        "pollDivisionIds": [
          10139784
        ],
        "postalCode": "L5J4B4",
        "streetName": "INVERHOUSE",
        "streetDirectionId": null,
        "streetTypeId": "DR",
        "placeName": "MISSISSAUGA",
        "streetNameDisplayText": "INVERHOUSE DR, MISSISSAUGA"
      }
    ]
  },
  {
    "postal": "L5J7E3",
    "result": []
  },
  {
    "postal": "L5J3N6",
    "result": [
      {
        "electoralDistricts": [
          {
            "election": null,
            "id": 63,
            "name": "Mississauga—Lakeshore"
          }
        ],
        "pollDivisionIds": [
          10139767
        ],
        "postalCode": "L5J3N6",
        "streetName": "THETFORD",
        "streetDirectionId": null,
        "streetTypeId": "CRT",
        "placeName": "MISSISSAUGA",
        "streetNameDisplayText": "THETFORD CRT, MISSISSAUGA"
      }
    ]
  },
  {
    "postal": "L5J3X6",
    "result": [
      {
        "electoralDistricts": [
          {
            "election": null,
            "id": 63,
            "name": "Mississauga—Lakeshore"
          }
        ],
        "pollDivisionIds": [
          10139767
        ],
        "postalCode": "L5J3X6",
        "streetName": "BANWELL",
        "streetDirectionId": null,
        "streetTypeId": "RD",
        "placeName": "MISSISSAUGA",
        "streetNameDisplayText": "BANWELL RD, MISSISSAUGA"
      }
    ]
  },
  {
    "postal": "L5J8L0",
    "result": []
  },
  {
    "postal": "L5J8N1",
    "result": []
  },
  {
    "postal": "L5J4J0",
    "result": []
  },
  {
    "postal": "L5J0X7",
    "result": []
  },
  {
    "postal": "L5J6S4",
    "result": []
  },
  {
    "postal": "L5J0Z0",
    "result": []
  },
  {
    "postal": "L5J9X8",
    "result": []
  },
  {
    "postal": "L5J3H3",
    "result": [
      {
        "electoralDistricts": [
          {
            "election": null,
            "id": 63,
            "name": "Mississauga—Lakeshore"
          }
        ],
        "pollDivisionIds": [
          10139765
        ],
        "postalCode": "L5J3H3",
        "streetName": "CHIPPENDALE",
        "streetDirectionId": null,
        "streetTypeId": "RD",
        "placeName": "MISSISSAUGA",
        "streetNameDisplayText": "CHIPPENDALE RD, MISSISSAUGA"
      }
    ]
  },
  {
    "postal": "L5J7S2",
    "result": []
  },
  {
    "postal": "L5J3T3",
    "result": [
      {
        "electoralDistricts": [
          {
            "election": null,
            "id": 63,
            "name": "Mississauga—Lakeshore"
          }
        ],
        "pollDivisionIds": [
          10139768
        ],
        "postalCode": "L5J3T3",
        "streetName": "DAIMLER",
        "streetDirectionId": null,
        "streetTypeId": "RD",
        "placeName": "MISSISSAUGA",
        "streetNameDisplayText": "DAIMLER RD, MISSISSAUGA"
      }
    ]
  },
  {
    "postal": "L5J9P3",
    "result": []
  },
  {
    "postal": "L5J4H8",
    "result": [
      {
        "electoralDistricts": [
          {
            "election": null,
            "id": 63,
            "name": "Mississauga—Lakeshore"
          }
        ],
        "pollDivisionIds": [
          10139769
        ],
        "postalCode": "L5J4H8",
        "streetName": "BONNYMEDE",
        "streetDirectionId": null,
        "streetTypeId": "DR",
        "placeName": "MISSISSAUGA",
        "streetNameDisplayText": "BONNYMEDE DR, MISSISSAUGA"
      },
      {
        "electoralDistricts": [
          {
            "election": null,
            "id": 63,
            "name": "Mississauga—Lakeshore"
          }
        ],
        "pollDivisionIds": [
          10139769
        ],
        "postalCode": "L5J4H8",
        "streetName": "BONNYMEDE",
        "streetDirectionId": null,
        "streetTypeId": "RD",
        "placeName": "MISSISSAUGA",
        "streetNameDisplayText": "BONNYMEDE RD, MISSISSAUGA"
      }
    ]
  },
  {
    "postal": "L5J6R1",
    "result": []
  },
  {
    "postal": "L5J1S0",
    "result": []
  },
  {
    "postal": "L5J3W8",
    "result": [
      {
        "electoralDistricts": [
          {
            "election": null,
            "id": 63,
            "name": "Mississauga—Lakeshore"
          }
        ],
        "pollDivisionIds": [
          10139767
        ],
        "postalCode": "L5J3W8",
        "streetName": "BUCKBY",
        "streetDirectionId": null,
        "streetTypeId": "RD",
        "placeName": "MISSISSAUGA",
        "streetNameDisplayText": "BUCKBY RD, MISSISSAUGA"
      }
    ]
  },
  {
    "postal": "L5J4S3",
    "result": [
      {
        "electoralDistricts": [
          {
            "election": null,
            "id": 63,
            "name": "Mississauga—Lakeshore"
          }
        ],
        "pollDivisionIds": [
          10139763
        ],
        "postalCode": "L5J4S3",
        "streetName": "SILVER BIRCH",
        "streetDirectionId": null,
        "streetTypeId": "TRAIL",
        "placeName": "MISSISSAUGA",
        "streetNameDisplayText": "SILVER BIRCH TRAIL, MISSISSAUGA"
      }
    ]
  },
  {
    "postal": "L5J1B6",
    "result": [
      {
        "electoralDistricts": [
          {
            "election": null,
            "id": 63,
            "name": "Mississauga—Lakeshore"
          }
        ],
        "pollDivisionIds": [
          10139763
        ],
        "postalCode": "L5J1B6",
        "streetName": "GREEN",
        "streetDirectionId": null,
        "streetTypeId": "GLADE",
        "placeName": "MISSISSAUGA",
        "streetNameDisplayText": "GREEN GLADE, MISSISSAUGA"
      }
    ]
  },
  {
    "postal": "L5J8R3",
    "result": []
  },
  {
    "postal": "L5J4V9",
    "result": []
  },
  {
    "postal": "L5J9W4",
    "result": []
  },
  {
    "postal": "L5J3T4",
    "result": [
      {
        "electoralDistricts": [
          {
            "election": null,
            "id": 63,
            "name": "Mississauga—Lakeshore"
          }
        ],
        "pollDivisionIds": [
          10139767
        ],
        "postalCode": "L5J3T4",
        "streetName": "BODMIN",
        "streetDirectionId": null,
        "streetTypeId": "RD",
        "placeName": "MISSISSAUGA",
        "streetNameDisplayText": "BODMIN RD, MISSISSAUGA"
      }
    ]
  },
  {
    "postal": "L5J5C7",
    "result": []
  },
  {
    "postal": "L5J3Y1",
    "result": []
  },
  {
    "postal": "L5J5V0",
    "result": []
  },
  {
    "postal": "L5J8G8",
    "result": []
  },
  {
    "postal": "L5J8B1",
    "result": []
  },
  {
    "postal": "L5J4P5",
    "result": [
      {
        "electoralDistricts": [
          {
            "election": null,
            "id": 63,
            "name": "Mississauga—Lakeshore"
          }
        ],
        "pollDivisionIds": [
          10139763
        ],
        "postalCode": "L5J4P5",
        "streetName": "BOULDER CREEK",
        "streetDirectionId": null,
        "streetTypeId": "CRES",
        "placeName": "MISSISSAUGA",
        "streetNameDisplayText": "BOULDER CREEK CRES, MISSISSAUGA"
      }
    ]
  },
  {
    "postal": "L5J7B2",
    "result": []
  },
  {
    "postal": "L5J0R2",
    "result": []
  },
  {
    "postal": "L5J4M4",
    "result": [
      {
        "electoralDistricts": [
          {
            "election": null,
            "id": 63,
            "name": "Mississauga—Lakeshore"
          }
        ],
        "pollDivisionIds": [
          10139763
        ],
        "postalCode": "L5J4M4",
        "streetName": "ZANTE",
        "streetDirectionId": null,
        "streetTypeId": "CRES",
        "placeName": "MISSISSAUGA",
        "streetNameDisplayText": "ZANTE CRES, MISSISSAUGA"
      },
      {
        "electoralDistricts": [
          {
            "election": null,
            "id": 63,
            "name": "Mississauga—Lakeshore"
          }
        ],
        "pollDivisionIds": [
          10139763
        ],
        "postalCode": "L5J4M4",
        "streetName": "ZANTE",
        "streetDirectionId": null,
        "streetTypeId": "CRT",
        "placeName": "MISSISSAUGA",
        "streetNameDisplayText": "ZANTE CRT, MISSISSAUGA"
      }
    ]
  },
  {
    "postal": "L5J7M4",
    "result": []
  },
  {
    "postal": "L5J9S7",
    "result": []
  },
  {
    "postal": "L5J5Z7",
    "result": []
  },
  {
    "postal": "L5J7J7",
    "result": []
  },
  {
    "postal": "L5J8R8",
    "result": []
  },
  {
    "postal": "L5J9X1",
    "result": []
  },
  {
    "postal": "L5J5M9",
    "result": []
  },
  {
    "postal": "L5J9B4",
    "result": []
  },
  {
    "postal": "L5J0L9",
    "result": []
  },
  {
    "postal": "L5J9G4",
    "result": []
  },
  {
    "postal": "L5J1J4",
    "result": [
      {
        "electoralDistricts": [
          {
            "election": null,
            "id": 63,
            "name": "Mississauga—Lakeshore"
          }
        ],
        "pollDivisionIds": [
          10139769
        ],
        "postalCode": "L5J1J4",
        "streetName": "LAKESHORE",
        "streetDirectionId": "W",
        "streetTypeId": "RD",
        "placeName": "MISSISSAUGA",
        "streetNameDisplayText": "LAKESHORE RD W, MISSISSAUGA"
      }
    ]
  },
  {
    "postal": "L5J0W6",
    "result": []
  }
]
