[
  {
    "postal": "K2L9J6",
    "result": []
  },
  {
    "postal": "K2L9Z5",
    "result": []
  },
  {
    "postal": "K2L7H8",
    "result": []
  },
  {
    "postal": "K2L0P6",
    "result": []
  },
  {
    "postal": "K2L0S7",
    "result": []
  },
  {
    "postal": "K2L8B9",
    "result": []
  },
  {
    "postal": "K2L2A6",
    "result": [
      {
        "electoralDistricts": [
          {
            "election": null,
            "id": 43,
            "name": "Kanata—Carleton"
          }
        ],
        "pollDivisionIds": [
          10138953
        ],
        "postalCode": "K2L2A6",
        "streetName": "NANOOK",
        "streetDirectionId": null,
        "streetTypeId": "CRES",
        "placeName": "KANATA",
        "streetNameDisplayText": "NANOOK CRES, KANATA"
      }
    ]
  },
  {
    "postal": "K2L7V2",
    "result": []
  },
  {
    "postal": "K2L9P4",
    "result": []
  },
  {
    "postal": "K2L6G0",
    "result": []
  },
  {
    "postal": "K2L2K0",
    "result": []
  },
  {
    "postal": "K2L7N6",
    "result": []
  },
  {
    "postal": "K2L5R3",
    "result": []
  },
  {
    "postal": "K2L7K0",
    "result": []
  },
  {
    "postal": "K2L3R2",
    "result": [
      {
        "electoralDistricts": [
          {
            "election": null,
            "id": 43,
            "name": "Kanata—Carleton"
          }
        ],
        "pollDivisionIds": [
          10138953
        ],
        "postalCode": "K2L3R2",
        "streetName": "HEWITT",
        "streetDirectionId": null,
        "streetTypeId": "WAY",
        "placeName": "KANATA",
        "streetNameDisplayText": "HEWITT WAY, KANATA"
      }
    ]
  },
  {
    "postal": "K2L0J1",
    "result": []
  },
  {
    "postal": "K2L0B0",
    "result": []
  },
  {
    "postal": "K2L5Z2",
    "result": []
  },
  {
    "postal": "K2L7P3",
    "result": []
  },
  {
    "postal": "K2L2K3",
    "result": [
      {
        "electoralDistricts": [
          {
            "election": null,
            "id": 43,
            "name": "Kanata—Carleton"
          }
        ],
        "pollDivisionIds": [
          10138960
        ],
        "postalCode": "K2L2K3",
        "streetName": "SCHARF",
        "streetDirectionId": null,
        "streetTypeId": "LANE",
        "placeName": "KANATA",
        "streetNameDisplayText": "SCHARF LANE, KANATA"
      }
    ]
  },
  {
    "postal": "K2L7Y6",
    "result": []
  },
  {
    "postal": "K2L1L9",
    "result": [
      {
        "electoralDistricts": [
          {
            "election": null,
            "id": 43,
            "name": "Kanata—Carleton"
          }
        ],
        "pollDivisionIds": [
          10138962
        ],
        "postalCode": "K2L1L9",
        "streetName": "COURTNEY",
        "streetDirectionId": null,
        "streetTypeId": "RD",
        "placeName": "KANATA",
        "streetNameDisplayText": "COURTNEY RD, KANATA"
      }
    ]
  },
  {
    "postal": "K2L8T0",
    "result": []
  },
  {
    "postal": "K2L3K8",
    "result": [
      {
        "electoralDistricts": [
          {
            "election": null,
            "id": 43,
            "name": "Kanata—Carleton"
          }
        ],
        "pollDivisionIds": [
          10138949
        ],
        "postalCode": "K2L3K8",
        "streetName": "JARLAN",
        "streetDirectionId": null,
        "streetTypeId": "TERR",
        "placeName": "KANATA",
        "streetNameDisplayText": "JARLAN TERR, KANATA"
      },
      {
        "electoralDistricts": [
          {
            "election": null,
            "id": 43,
            "name": "Kanata—Carleton"
          }
        ],
        "pollDivisionIds": [
          10138949
        ],
        "postalCode": "K2L3K8",
        "streetName": "MAPLE GROVE",
        "streetDirectionId": null,
        "streetTypeId": "RD",
        "placeName": "KANATA",
        "streetNameDisplayText": "MAPLE GROVE RD, KANATA"
      }
    ]
  },
  {
    "postal": "K2L5W9",
    "result": []
  },
  {
    "postal": "K2L6T9",
    "result": []
  },
  {
    "postal": "K2L4H1",
    "result": [
      {
        "electoralDistricts": [
          {
            "election": null,
            "id": 43,
            "name": "Kanata—Carleton"
          }
        ],
        "pollDivisionIds": [
          10138961
        ],
        "postalCode": "K2L4H1",
        "streetName": "CASTLE GLEN",
        "streetDirectionId": null,
        "streetTypeId": "CRES",
        "placeName": "KANATA",
        "streetNameDisplayText": "CASTLE GLEN CRES, KANATA"
      }
    ]
  },
  {
    "postal": "K2L7A2",
    "result": []
  },
  {
    "postal": "K2L5G0",
    "result": []
  },
  {
    "postal": "K2L8V5",
    "result": []
  },
  {
    "postal": "K2L2Y8",
    "result": [
      {
        "electoralDistricts": [
          {
            "election": null,
            "id": 43,
            "name": "Kanata—Carleton"
          }
        ],
        "pollDivisionIds": [
          10138961,
          10138955
        ],
        "postalCode": "K2L2Y8",
        "streetName": "CASTLEFRANK",
        "streetDirectionId": null,
        "streetTypeId": "RD",
        "placeName": "KANATA",
        "streetNameDisplayText": "CASTLEFRANK RD, KANATA"
      }
    ]
  },
  {
    "postal": "K2L2B6",
    "result": [
      {
        "electoralDistricts": [
          {
            "election": null,
            "id": 43,
            "name": "Kanata—Carleton"
          }
        ],
        "pollDivisionIds": [
          10138953
        ],
        "postalCode": "K2L2B6",
        "streetName": "CHIMO",
        "streetDirectionId": null,
        "streetTypeId": "DR",
        "placeName": "KANATA",
        "streetNameDisplayText": "CHIMO DR, KANATA"
      }
    ]
  },
  {
    "postal": "K2L4W8",
    "result": []
  },
  {
    "postal": "K2L8H7",
    "result": []
  },
  {
    "postal": "K2L5P1",
    "result": []
  },
  {
    "postal": "K2L2B8",
    "result": [
      {
        "electoralDistricts": [
          {
            "election": null,
            "id": 43,
            "name": "Kanata—Carleton"
          }
        ],
        "pollDivisionIds": [
          10138953
        ],
        "postalCode": "K2L2B8",
        "streetName": "BERING",
        "streetDirectionId": null,
        "streetTypeId": "CRT",
        "placeName": "KANATA",
        "streetNameDisplayText": "BERING CRT, KANATA"
      }
    ]
  },
  {
    "postal": "K2L0P2",
    "result": []
  },
  {
    "postal": "K2L9M1",
    "result": []
  },
  {
    "postal": "K2L3G0",
    "result": []
  },
  {
    "postal": "K2L9Z2",
    "result": []
  },
  {
    "postal": "K2L2A0",
    "result": []
  },
  {
    "postal": "K2L6Y0",
    "result": []
  },
  {
    "postal": "K2L2Z8",
    "result": [
      {
        "electoralDistricts": [
          {
            "election": null,
            "id": 43,
            "name": "Kanata—Carleton"
          }
        ],
        "pollDivisionIds": [
          10138959
        ],
        "postalCode": "K2L2Z8",
        "streetName": "MCCURDY",
        "streetDirectionId": null,
        "streetTypeId": "DR",
        "placeName": "KANATA",
        "streetNameDisplayText": "MCCURDY DR, KANATA"
      }
    ]
  },
  {
    "postal": "K2L7Y3",
    "result": []
  },
  {
    "postal": "K2L6Z5",
    "result": []
  },
  {
    "postal": "K2L6E0",
    "result": []
  },
  {
    "postal": "K2L9B7",
    "result": []
  },
  {
    "postal": "K2L9S5",
    "result": []
  },
  {
    "postal": "K2L3X3",
    "result": [
      {
        "electoralDistricts": [
          {
            "election": null,
            "id": 43,
            "name": "Kanata—Carleton"
          }
        ],
        "pollDivisionIds": [
          10138953
        ],
        "postalCode": "K2L3X3",
        "streetName": "TANGUAY",
        "streetDirectionId": null,
        "streetTypeId": "CRT",
        "placeName": "KANATA",
        "streetNameDisplayText": "TANGUAY CRT, KANATA"
      }
    ]
  },
  {
    "postal": "K2L7R5",
    "result": []
  },
  {
    "postal": "K2L2X3",
    "result": [
      {
        "electoralDistricts": [
          {
            "election": null,
            "id": 43,
            "name": "Kanata—Carleton"
          }
        ],
        "pollDivisionIds": [
          10138959
        ],
        "postalCode": "K2L2X3",
        "streetName": "TURNBULL",
        "streetDirectionId": null,
        "streetTypeId": "AVE",
        "placeName": "KANATA",
        "streetNameDisplayText": "TURNBULL AVE, KANATA"
      }
    ]
  },
  {
    "postal": "K2L8Z9",
    "result": []
  },
  {
    "postal": "K2L0N4",
    "result": []
  },
  {
    "postal": "K2L1K1",
    "result": [
      {
        "electoralDistricts": [
          {
            "election": null,
            "id": 43,
            "name": "Kanata—Carleton"
          }
        ],
        "pollDivisionIds": [
          10138955
        ],
        "postalCode": "K2L1K1",
        "streetName": "CARRIAGE",
        "streetDirectionId": null,
        "streetTypeId": "CRT",
        "placeName": "KANATA",
        "streetNameDisplayText": "CARRIAGE CRT, KANATA"
      }
    ]
  },
  {
    "postal": "K2L1S3",
    "result": [
      {
        "electoralDistricts": [
          {
            "election": null,
            "id": 43,
            "name": "Kanata—Carleton"
          }
        ],
        "pollDivisionIds": [
          10138961
        ],
        "postalCode": "K2L1S3",
        "streetName": "LAURIE",
        "streetDirectionId": null,
        "streetTypeId": "CRT",
        "placeName": "KANATA",
        "streetNameDisplayText": "LAURIE CRT, KANATA"
      }
    ]
  },
  {
    "postal": "K2L6M4",
    "result": []
  },
  {
    "postal": "K2L9A9",
    "result": []
  },
  {
    "postal": "K2L9Z9",
    "result": []
  },
  {
    "postal": "K2L6T4",
    "result": []
  },
  {
    "postal": "K2L0B2",
    "result": []
  },
  {
    "postal": "K2L2L9",
    "result": [
      {
        "electoralDistricts": [
          {
            "election": null,
            "id": 43,
            "name": "Kanata—Carleton"
          }
        ],
        "pollDivisionIds": [
          10138959
        ],
        "postalCode": "K2L2L9",
        "streetName": "SHAW",
        "streetDirectionId": null,
        "streetTypeId": "CRT",
        "placeName": "KANATA",
        "streetNameDisplayText": "SHAW CRT, KANATA"
      }
    ]
  },
  {
    "postal": "K2L8K9",
    "result": []
  },
  {
    "postal": "K2L2H9",
    "result": [
      {
        "electoralDistricts": [
          {
            "election": null,
            "id": 43,
            "name": "Kanata—Carleton"
          }
        ],
        "pollDivisionIds": [
          10138960
        ],
        "postalCode": "K2L2H9",
        "streetName": "SEABROOKE",
        "streetDirectionId": null,
        "streetTypeId": "DR",
        "placeName": "KANATA",
        "streetNameDisplayText": "SEABROOKE DR, KANATA"
      }
    ]
  },
  {
    "postal": "K2L3Z6",
    "result": [
      {
        "electoralDistricts": [
          {
            "election": null,
            "id": 43,
            "name": "Kanata—Carleton"
          }
        ],
        "pollDivisionIds": [
          10138949
        ],
        "postalCode": "K2L3Z6",
        "streetName": "ROBARTS",
        "streetDirectionId": null,
        "streetTypeId": "CRES",
        "placeName": "KANATA",
        "streetNameDisplayText": "ROBARTS CRES, KANATA"
      }
    ]
  },
  {
    "postal": "K2L3B0",
    "result": []
  },
  {
    "postal": "K2L2H8",
    "result": [
      {
        "electoralDistricts": [
          {
            "election": null,
            "id": 43,
            "name": "Kanata—Carleton"
          }
        ],
        "pollDivisionIds": [
          10138960
        ],
        "postalCode": "K2L2H8",
        "streetName": "SEABROOKE",
        "streetDirectionId": null,
        "streetTypeId": "DR",
        "placeName": "KANATA",
        "streetNameDisplayText": "SEABROOKE DR, KANATA"
      }
    ]
  },
  {
    "postal": "K2L3X2",
    "result": [
      {
        "electoralDistricts": [
          {
            "election": null,
            "id": 43,
            "name": "Kanata—Carleton"
          }
        ],
        "pollDivisionIds": [
          10138953
        ],
        "postalCode": "K2L3X2",
        "streetName": "TANGUAY",
        "streetDirectionId": null,
        "streetTypeId": "CRT",
        "placeName": "KANATA",
        "streetNameDisplayText": "TANGUAY CRT, KANATA"
      }
    ]
  },
  {
    "postal": "K2L2E9",
    "result": [
      {
        "electoralDistricts": [
          {
            "election": null,
            "id": 43,
            "name": "Kanata—Carleton"
          }
        ],
        "pollDivisionIds": [
          10138955
        ],
        "postalCode": "K2L2E9",
        "streetName": "ABBEYHILL",
        "streetDirectionId": null,
        "streetTypeId": "DR",
        "placeName": "KANATA",
        "streetNameDisplayText": "ABBEYHILL DR, KANATA"
      }
    ]
  },
  {
    "postal": "K2L9P6",
    "result": []
  },
  {
    "postal": "K2L9E2",
    "result": []
  },
  {
    "postal": "K2L9H2",
    "result": []
  },
  {
    "postal": "K2L1S8",
    "result": [
      {
        "electoralDistricts": [
          {
            "election": null,
            "id": 43,
            "name": "Kanata—Carleton"
          }
        ],
        "pollDivisionIds": [
          10138961
        ],
        "postalCode": "K2L1S8",
        "streetName": "SHELDRAKE",
        "streetDirectionId": null,
        "streetTypeId": "DR",
        "placeName": "KANATA",
        "streetNameDisplayText": "SHELDRAKE DR, KANATA"
      }
    ]
  },
  {
    "postal": "K2L3M6",
    "result": [
      {
        "electoralDistricts": [
          {
            "election": null,
            "id": 43,
            "name": "Kanata—Carleton"
          }
        ],
        "pollDivisionIds": [
          10138952,
          10138964
        ],
        "postalCode": "K2L3M6",
        "streetName": "LIGHTFOOT",
        "streetDirectionId": null,
        "streetTypeId": "PL",
        "placeName": "KANATA",
        "streetNameDisplayText": "LIGHTFOOT PL, KANATA"
      }
    ]
  },
  {
    "postal": "K2L6Z8",
    "result": []
  },
  {
    "postal": "K2L4J2",
    "result": []
  },
  {
    "postal": "K2L9Y1",
    "result": []
  },
  {
    "postal": "K2L8V6",
    "result": []
  },
  {
    "postal": "K2L6B2",
    "result": []
  },
  {
    "postal": "K2L1P8",
    "result": [
      {
        "electoralDistricts": [
          {
            "election": null,
            "id": 43,
            "name": "Kanata—Carleton"
          }
        ],
        "pollDivisionIds": [
          10138961
        ],
        "postalCode": "K2L1P8",
        "streetName": "DUNDEGAN",
        "streetDirectionId": null,
        "streetTypeId": "DR",
        "placeName": "KANATA",
        "streetNameDisplayText": "DUNDEGAN DR, KANATA"
      }
    ]
  },
  {
    "postal": "K2L0V8",
    "result": []
  },
  {
    "postal": "K2L4Y0",
    "result": []
  },
  {
    "postal": "K2L2T4",
    "result": [
      {
        "electoralDistricts": [
          {
            "election": null,
            "id": 43,
            "name": "Kanata—Carleton"
          }
        ],
        "pollDivisionIds": [
          10138959
        ],
        "postalCode": "K2L2T4",
        "streetName": "HUNGERFORD",
        "streetDirectionId": null,
        "streetTypeId": "GATE",
        "placeName": "KANATA",
        "streetNameDisplayText": "HUNGERFORD GATE, KANATA"
      }
    ]
  },
  {
    "postal": "K2L2S3",
    "result": [
      {
        "electoralDistricts": [
          {
            "election": null,
            "id": 43,
            "name": "Kanata—Carleton"
          }
        ],
        "pollDivisionIds": [
          10138960
        ],
        "postalCode": "K2L2S3",
        "streetName": "GLENMORISTON",
        "streetDirectionId": null,
        "streetTypeId": "AVE",
        "placeName": "KANATA",
        "streetNameDisplayText": "GLENMORISTON AVE, KANATA"
      }
    ]
  },
  {
    "postal": "K2L0K0",
    "result": []
  },
  {
    "postal": "K2L5N1",
    "result": []
  },
  {
    "postal": "K2L7T0",
    "result": []
  },
  {
    "postal": "K2L9N2",
    "result": []
  },
  {
    "postal": "K2L5L1",
    "result": []
  },
  {
    "postal": "K2L7G5",
    "result": []
  },
  {
    "postal": "K2L6K2",
    "result": []
  },
  {
    "postal": "K2L6P9",
    "result": []
  },
  {
    "postal": "K2L0E6",
    "result": []
  },
  {
    "postal": "K2L8R9",
    "result": []
  },
  {
    "postal": "K2L3G9",
    "result": []
  },
  {
    "postal": "K2L0V7",
    "result": []
  },
  {
    "postal": "K2L2Z1",
    "result": [
      {
        "electoralDistricts": [
          {
            "election": null,
            "id": 43,
            "name": "Kanata—Carleton"
          }
        ],
        "pollDivisionIds": [
          10138955
        ],
        "postalCode": "K2L2Z1",
        "streetName": "ABBEYHILL",
        "streetDirectionId": null,
        "streetTypeId": "DR",
        "placeName": "KANATA",
        "streetNameDisplayText": "ABBEYHILL DR, KANATA"
      }
    ]
  },
  {
    "postal": "K2L7N1",
    "result": []
  },
  {
    "postal": "K2L3C6",
    "result": []
  },
  {
    "postal": "K2L4M1",
    "result": []
  },
  {
    "postal": "K2L9K2",
    "result": []
  },
  {
    "postal": "K2L9S6",
    "result": []
  },
  {
    "postal": "K2L4X1",
    "result": []
  },
  {
    "postal": "K2L8W2",
    "result": []
  },
  {
    "postal": "K2L7N2",
    "result": []
  },
  {
    "postal": "K2L8S3",
    "result": []
  },
  {
    "postal": "K2L4V0",
    "result": []
  },
  {
    "postal": "K2L6W4",
    "result": []
  },
  {
    "postal": "K2L5M1",
    "result": []
  },
  {
    "postal": "K2L0S4",
    "result": []
  },
  {
    "postal": "K2L5X6",
    "result": []
  },
  {
    "postal": "K2L8L5",
    "result": []
  },
  {
    "postal": "K2L5M8",
    "result": []
  },
  {
    "postal": "K2L2G3",
    "result": [
      {
        "electoralDistricts": [
          {
            "election": null,
            "id": 43,
            "name": "Kanata—Carleton"
          }
        ],
        "pollDivisionIds": [
          10138953
        ],
        "postalCode": "K2L2G3",
        "streetName": "BEAUFORT",
        "streetDirectionId": null,
        "streetTypeId": "DR",
        "placeName": "KANATA",
        "streetNameDisplayText": "BEAUFORT DR, KANATA"
      }
    ]
  },
  {
    "postal": "K2L8E4",
    "result": []
  },
  {
    "postal": "K2L7S9",
    "result": []
  },
  {
    "postal": "K2L1K3",
    "result": [
      {
        "electoralDistricts": [
          {
            "election": null,
            "id": 43,
            "name": "Kanata—Carleton"
          }
        ],
        "pollDivisionIds": [
          10138955
        ],
        "postalCode": "K2L1K3",
        "streetName": "WILLIAM'S",
        "streetDirectionId": null,
        "streetTypeId": "WALK",
        "placeName": "KANATA",
        "streetNameDisplayText": "WILLIAM'S WALK, KANATA"
      }
    ]
  },
  {
    "postal": "K2L4E1",
    "result": [
      {
        "electoralDistricts": [
          {
            "election": null,
            "id": 43,
            "name": "Kanata—Carleton"
          }
        ],
        "pollDivisionIds": [
          10138949
        ],
        "postalCode": "K2L4E1",
        "streetName": "JACKMAN",
        "streetDirectionId": null,
        "streetTypeId": "TERR",
        "placeName": "KANATA",
        "streetNameDisplayText": "JACKMAN TERR, KANATA"
      }
    ]
  },
  {
    "postal": "K2L4R2",
    "result": []
  },
  {
    "postal": "K2L6T0",
    "result": []
  },
  {
    "postal": "K2L3K5",
    "result": [
      {
        "electoralDistricts": [
          {
            "election": null,
            "id": 43,
            "name": "Kanata—Carleton"
          }
        ],
        "pollDivisionIds": [
          10138954
        ],
        "postalCode": "K2L3K5",
        "streetName": "STRATAS",
        "streetDirectionId": null,
        "streetTypeId": "CRT",
        "placeName": "KANATA",
        "streetNameDisplayText": "STRATAS CRT, KANATA"
      }
    ]
  },
  {
    "postal": "K2L3S3",
    "result": [
      {
        "electoralDistricts": [
          {
            "election": null,
            "id": 43,
            "name": "Kanata—Carleton"
          }
        ],
        "pollDivisionIds": [
          10138953
        ],
        "postalCode": "K2L3S3",
        "streetName": "PICKFORD",
        "streetDirectionId": null,
        "streetTypeId": "DR",
        "placeName": "KANATA",
        "streetNameDisplayText": "PICKFORD DR, KANATA"
      }
    ]
  },
  {
    "postal": "K2L3L4",
    "result": []
  },
  {
    "postal": "K2L9Y2",
    "result": []
  },
  {
    "postal": "K2L1E0",
    "result": []
  },
  {
    "postal": "K2L9A4",
    "result": []
  },
  {
    "postal": "K2L1L3",
    "result": [
      {
        "electoralDistricts": [
          {
            "election": null,
            "id": 43,
            "name": "Kanata—Carleton"
          }
        ],
        "pollDivisionIds": [
          10138955
        ],
        "postalCode": "K2L1L3",
        "streetName": "ST ANDREWS",
        "streetDirectionId": null,
        "streetTypeId": "CIR",
        "placeName": "KANATA",
        "streetNameDisplayText": "ST ANDREWS CIR, KANATA"
      },
      {
        "electoralDistricts": [
          {
            "election": null,
            "id": 43,
            "name": "Kanata—Carleton"
          }
        ],
        "pollDivisionIds": [
          10138955
        ],
        "postalCode": "K2L1L3",
        "streetName": "ST. ANDREWS",
        "streetDirectionId": null,
        "streetTypeId": "CIR",
        "placeName": "KANATA",
        "streetNameDisplayText": "ST. ANDREWS CIR, KANATA"
      }
    ]
  },
  {
    "postal": "K2L6N1",
    "result": []
  },
  {
    "postal": "K2L6G7",
    "result": []
  },
  {
    "postal": "K2L7W1",
    "result": []
  },
  {
    "postal": "K2L4M6",
    "result": []
  },
  {
    "postal": "K2L1K0",
    "result": []
  },
  {
    "postal": "K2L3E2",
    "result": [
      {
        "electoralDistricts": [
          {
            "election": null,
            "id": 43,
            "name": "Kanata—Carleton"
          }
        ],
        "pollDivisionIds": [
          10138954
        ],
        "postalCode": "K2L3E2",
        "streetName": "CLARKSON",
        "streetDirectionId": null,
        "streetTypeId": "CRES",
        "placeName": "KANATA",
        "streetNameDisplayText": "CLARKSON CRES, KANATA"
      }
    ]
  },
  {
    "postal": "K2L5H4",
    "result": []
  },
  {
    "postal": "K2L1K7",
    "result": [
      {
        "electoralDistricts": [
          {
            "election": null,
            "id": 43,
            "name": "Kanata—Carleton"
          }
        ],
        "pollDivisionIds": [
          10138962
        ],
        "postalCode": "K2L1K7",
        "streetName": "PADDOCK",
        "streetDirectionId": null,
        "streetTypeId": "WAY",
        "placeName": "KANATA",
        "streetNameDisplayText": "PADDOCK WAY, KANATA"
      }
    ]
  },
  {
    "postal": "K2L0H0",
    "result": []
  },
  {
    "postal": "K2L0J3",
    "result": []
  },
  {
    "postal": "K2L1X6",
    "result": [
      {
        "electoralDistricts": [
          {
            "election": null,
            "id": 43,
            "name": "Kanata—Carleton"
          }
        ],
        "pollDivisionIds": [
          10138961
        ],
        "postalCode": "K2L1X6",
        "streetName": "MONTEBELLO",
        "streetDirectionId": null,
        "streetTypeId": "LANE",
        "placeName": "KANATA",
        "streetNameDisplayText": "MONTEBELLO LANE, KANATA"
      }
    ]
  },
  {
    "postal": "K2L2Z6",
    "result": [
      {
        "electoralDistricts": [
          {
            "election": null,
            "id": 43,
            "name": "Kanata—Carleton"
          }
        ],
        "pollDivisionIds": [
          10138959
        ],
        "postalCode": "K2L2Z6",
        "streetName": "MCCURDY",
        "streetDirectionId": null,
        "streetTypeId": "DR",
        "placeName": "KANATA",
        "streetNameDisplayText": "MCCURDY DR, KANATA"
      }
    ]
  },
  {
    "postal": "K2L4R9",
    "result": []
  },
  {
    "postal": "K2L0W8",
    "result": []
  },
  {
    "postal": "K2L1L4",
    "result": [
      {
        "electoralDistricts": [
          {
            "election": null,
            "id": 43,
            "name": "Kanata—Carleton"
          }
        ],
        "pollDivisionIds": [
          10138962
        ],
        "postalCode": "K2L1L4",
        "streetName": "GUILFORD",
        "streetDirectionId": null,
        "streetTypeId": "CRT",
        "placeName": "KANATA",
        "streetNameDisplayText": "GUILFORD CRT, KANATA"
      }
    ]
  },
  {
    "postal": "K2L0C8",
    "result": []
  },
  {
    "postal": "K2L9X7",
    "result": []
  },
  {
    "postal": "K2L4T1",
    "result": []
  },
  {
    "postal": "K2L0M0",
    "result": []
  },
  {
    "postal": "K2L6A2",
    "result": []
  },
  {
    "postal": "K2L9S8",
    "result": []
  },
  {
    "postal": "K2L9T4",
    "result": []
  },
  {
    "postal": "K2L9Y4",
    "result": []
  },
  {
    "postal": "K2L6G5",
    "result": []
  },
  {
    "postal": "K2L6H9",
    "result": []
  },
  {
    "postal": "K2L2P3",
    "result": [
      {
        "electoralDistricts": [
          {
            "election": null,
            "id": 43,
            "name": "Kanata—Carleton"
          }
        ],
        "pollDivisionIds": [
          10138960
        ],
        "postalCode": "K2L2P3",
        "streetName": "SUMNER",
        "streetDirectionId": null,
        "streetTypeId": "ST",
        "placeName": "KANATA",
        "streetNameDisplayText": "SUMNER ST, KANATA"
      }
    ]
  },
  {
    "postal": "K2L1T6",
    "result": [
      {
        "electoralDistricts": [
          {
            "election": null,
            "id": 43,
            "name": "Kanata—Carleton"
          }
        ],
        "pollDivisionIds": [
          10138961
        ],
        "postalCode": "K2L1T6",
        "streetName": "CASTLEFRANK",
        "streetDirectionId": null,
        "streetTypeId": "RD",
        "placeName": "KANATA",
        "streetNameDisplayText": "CASTLEFRANK RD, KANATA"
      }
    ]
  },
  {
    "postal": "K2L4P6",
    "result": []
  },
  {
    "postal": "K2L3K1",
    "result": [
      {
        "electoralDistricts": [
          {
            "election": null,
            "id": 43,
            "name": "Kanata—Carleton"
          }
        ],
        "pollDivisionIds": [
          10138949
        ],
        "postalCode": "K2L3K1",
        "streetName": "GESNER",
        "streetDirectionId": null,
        "streetTypeId": "CRT",
        "placeName": "KANATA",
        "streetNameDisplayText": "GESNER CRT, KANATA"
      }
    ]
  },
  {
    "postal": "K2L6X4",
    "result": []
  },
  {
    "postal": "K2L4M8",
    "result": []
  },
  {
    "postal": "K2L2Y1",
    "result": [
      {
        "electoralDistricts": [
          {
            "election": null,
            "id": 43,
            "name": "Kanata—Carleton"
          }
        ],
        "pollDivisionIds": [
          10138962
        ],
        "postalCode": "K2L2Y1",
        "streetName": "CASTLEFRANK",
        "streetDirectionId": null,
        "streetTypeId": "RD",
        "placeName": "KANATA",
        "streetNameDisplayText": "CASTLEFRANK RD, KANATA"
      }
    ]
  },
  {
    "postal": "K2L6M1",
    "result": []
  },
  {
    "postal": "K2L5L8",
    "result": []
  },
  {
    "postal": "K2L3P6",
    "result": []
  },
  {
    "postal": "K2L9A5",
    "result": []
  },
  {
    "postal": "K2L7K1",
    "result": []
  },
  {
    "postal": "K2L3J4",
    "result": []
  },
  {
    "postal": "K2L5E7",
    "result": []
  },
  {
    "postal": "K2L3A7",
    "result": [
      {
        "electoralDistricts": [
          {
            "election": null,
            "id": 43,
            "name": "Kanata—Carleton"
          }
        ],
        "pollDivisionIds": [
          10138949
        ],
        "postalCode": "K2L3A7",
        "streetName": "FENERTY",
        "streetDirectionId": null,
        "streetTypeId": "CRT",
        "placeName": "KANATA",
        "streetNameDisplayText": "FENERTY CRT, KANATA"
      }
    ]
  },
  {
    "postal": "K2L1B9",
    "result": [
      {
        "electoralDistricts": [
          {
            "election": null,
            "id": 43,
            "name": "Kanata—Carleton"
          }
        ],
        "pollDivisionIds": [
          10138955
        ],
        "postalCode": "K2L1B9",
        "streetName": "SINGAL",
        "streetDirectionId": null,
        "streetTypeId": "ST",
        "placeName": "KANATA",
        "streetNameDisplayText": "SINGAL ST, KANATA"
      }
    ]
  },
  {
    "postal": "K2L9E8",
    "result": []
  },
  {
    "postal": "K2L1C9",
    "result": [
      {
        "electoralDistricts": [
          {
            "election": null,
            "id": 43,
            "name": "Kanata—Carleton"
          }
        ],
        "pollDivisionIds": [
          10138955
        ],
        "postalCode": "K2L1C9",
        "streetName": "ABBOTSFORD",
        "streetDirectionId": null,
        "streetTypeId": "RD",
        "placeName": "KANATA",
        "streetNameDisplayText": "ABBOTSFORD RD, KANATA"
      }
    ]
  },
  {
    "postal": "K2L3B5",
    "result": []
  },
  {
    "postal": "K2L8R0",
    "result": []
  },
  {
    "postal": "K2L3P2",
    "result": [
      {
        "electoralDistricts": [
          {
            "election": null,
            "id": 43,
            "name": "Kanata—Carleton"
          }
        ],
        "pollDivisionIds": [
          10138952,
          10138953
        ],
        "postalCode": "K2L3P2",
        "streetName": "PICKFORD",
        "streetDirectionId": null,
        "streetTypeId": "DR",
        "placeName": "KANATA",
        "streetNameDisplayText": "PICKFORD DR, KANATA"
      }
    ]
  },
  {
    "postal": "K2L5V4",
    "result": []
  },
  {
    "postal": "K2L4H0",
    "result": []
  },
  {
    "postal": "K2L4S7",
    "result": []
  },
  {
    "postal": "K2L6C2",
    "result": []
  },
  {
    "postal": "K2L8W3",
    "result": []
  },
  {
    "postal": "K2L4M5",
    "result": []
  },
  {
    "postal": "K2L5T1",
    "result": []
  },
  {
    "postal": "K2L3B3",
    "result": []
  },
  {
    "postal": "K2L6C6",
    "result": []
  },
  {
    "postal": "K2L7N8",
    "result": []
  },
  {
    "postal": "K2L2Y3",
    "result": [
      {
        "electoralDistricts": [
          {
            "election": null,
            "id": 43,
            "name": "Kanata—Carleton"
          }
        ],
        "pollDivisionIds": [
          10138962
        ],
        "postalCode": "K2L2Y3",
        "streetName": "BANEBERRY",
        "streetDirectionId": null,
        "streetTypeId": "CRES",
        "placeName": "KANATA",
        "streetNameDisplayText": "BANEBERRY CRES, KANATA"
      }
    ]
  },
  {
    "postal": "K2L2R6",
    "result": [
      {
        "electoralDistricts": [
          {
            "election": null,
            "id": 43,
            "name": "Kanata—Carleton"
          }
        ],
        "pollDivisionIds": [
          10138960
        ],
        "postalCode": "K2L2R6",
        "streetName": "SEABROOKE",
        "streetDirectionId": null,
        "streetTypeId": "DR",
        "placeName": "KANATA",
        "streetNameDisplayText": "SEABROOKE DR, KANATA"
      }
    ]
  },
  {
    "postal": "K2L7N3",
    "result": []
  },
  {
    "postal": "K2L8J2",
    "result": []
  },
  {
    "postal": "K2L6A9",
    "result": []
  },
  {
    "postal": "K2L3V2",
    "result": [
      {
        "electoralDistricts": [
          {
            "election": null,
            "id": 43,
            "name": "Kanata—Carleton"
          }
        ],
        "pollDivisionIds": [
          10138952
        ],
        "postalCode": "K2L3V2",
        "streetName": "MCDERMOT",
        "streetDirectionId": null,
        "streetTypeId": "CRT",
        "placeName": "KANATA",
        "streetNameDisplayText": "MCDERMOT CRT, KANATA"
      }
    ]
  },
  {
    "postal": "K2L2N3",
    "result": []
  },
  {
    "postal": "K2L1S5",
    "result": [
      {
        "electoralDistricts": [
          {
            "election": null,
            "id": 43,
            "name": "Kanata—Carleton"
          }
        ],
        "pollDivisionIds": [
          10138961
        ],
        "postalCode": "K2L1S5",
        "streetName": "SHELDRAKE",
        "streetDirectionId": null,
        "streetTypeId": "DR",
        "placeName": "KANATA",
        "streetNameDisplayText": "SHELDRAKE DR, KANATA"
      }
    ]
  },
  {
    "postal": "K2L4T7",
    "result": []
  },
  {
    "postal": "K2L6Y7",
    "result": []
  },
  {
    "postal": "K2L0W7",
    "result": []
  },
  {
    "postal": "K2L2W9",
    "result": [
      {
        "electoralDistricts": [
          {
            "election": null,
            "id": 43,
            "name": "Kanata—Carleton"
          }
        ],
        "pollDivisionIds": [
          10138959
        ],
        "postalCode": "K2L2W9",
        "streetName": "SUNDBACK",
        "streetDirectionId": null,
        "streetTypeId": "LANE",
        "placeName": "KANATA",
        "streetNameDisplayText": "SUNDBACK LANE, KANATA"
      }
    ]
  },
  {
    "postal": "K2L8V0",
    "result": []
  },
  {
    "postal": "K2L0H4",
    "result": []
  },
  {
    "postal": "K2L2T1",
    "result": [
      {
        "electoralDistricts": [
          {
            "election": null,
            "id": 43,
            "name": "Kanata—Carleton"
          }
        ],
        "pollDivisionIds": [
          10138959
        ],
        "postalCode": "K2L2T1",
        "streetName": "HUMPHREY",
        "streetDirectionId": null,
        "streetTypeId": "WAY",
        "placeName": "KANATA",
        "streetNameDisplayText": "HUMPHREY WAY, KANATA"
      }
    ]
  },
  {
    "postal": "K2L1B1",
    "result": [
      {
        "electoralDistricts": [
          {
            "election": null,
            "id": 43,
            "name": "Kanata—Carleton"
          }
        ],
        "pollDivisionIds": [
          10138955
        ],
        "postalCode": "K2L1B1",
        "streetName": "CARBROOKE",
        "streetDirectionId": null,
        "streetTypeId": "ST",
        "placeName": "KANATA",
        "streetNameDisplayText": "CARBROOKE ST, KANATA"
      }
    ]
  },
  {
    "postal": "K2L8B6",
    "result": []
  },
  {
    "postal": "K2L6H1",
    "result": []
  },
  {
    "postal": "K2L8T8",
    "result": []
  },
  {
    "postal": "K2L0T4",
    "result": []
  },
  {
    "postal": "K2L2C4",
    "result": [
      {
        "electoralDistricts": [
          {
            "election": null,
            "id": 43,
            "name": "Kanata—Carleton"
          }
        ],
        "pollDivisionIds": [
          10138954
        ],
        "postalCode": "K2L2C4",
        "streetName": "PICKFORD",
        "streetDirectionId": null,
        "streetTypeId": "DR",
        "placeName": "KANATA",
        "streetNameDisplayText": "PICKFORD DR, KANATA"
      }
    ]
  },
  {
    "postal": "K2L8N3",
    "result": []
  },
  {
    "postal": "K2L4L8",
    "result": []
  },
  {
    "postal": "K2L2B5",
    "result": [
      {
        "electoralDistricts": [
          {
            "election": null,
            "id": 43,
            "name": "Kanata—Carleton"
          }
        ],
        "pollDivisionIds": [
          10138960
        ],
        "postalCode": "K2L2B5",
        "streetName": "HAZELDEAN",
        "streetDirectionId": null,
        "streetTypeId": "RD",
        "placeName": "KANATA",
        "streetNameDisplayText": "HAZELDEAN RD, KANATA"
      }
    ]
  },
  {
    "postal": "K2L3H1",
    "result": [
      {
        "electoralDistricts": [
          {
            "election": null,
            "id": 43,
            "name": "Kanata—Carleton"
          }
        ],
        "pollDivisionIds": [
          10138954
        ],
        "postalCode": "K2L3H1",
        "streetName": "HEARST",
        "streetDirectionId": null,
        "streetTypeId": "WAY",
        "placeName": "KANATA",
        "streetNameDisplayText": "HEARST WAY, KANATA"
      }
    ]
  },
  {
    "postal": "K2L4Y1",
    "result": []
  },
  {
    "postal": "K2L7E2",
    "result": []
  },
  {
    "postal": "K2L2P5",
    "result": [
      {
        "electoralDistricts": [
          {
            "election": null,
            "id": 43,
            "name": "Kanata—Carleton"
          }
        ],
        "pollDivisionIds": [
          10138954
        ],
        "postalCode": "K2L2P5",
        "streetName": "MILLMAN",
        "streetDirectionId": null,
        "streetTypeId": "CRT",
        "placeName": "KANATA",
        "streetNameDisplayText": "MILLMAN CRT, KANATA"
      }
    ]
  },
  {
    "postal": "K2L8R7",
    "result": []
  },
  {
    "postal": "K2L9P1",
    "result": []
  },
  {
    "postal": "K2L3B8",
    "result": []
  },
  {
    "postal": "K2L3P7",
    "result": [
      {
        "electoralDistricts": [
          {
            "election": null,
            "id": 43,
            "name": "Kanata—Carleton"
          }
        ],
        "pollDivisionIds": [
          10138952,
          10138953
        ],
        "postalCode": "K2L3P7",
        "streetName": "PICKFORD",
        "streetDirectionId": null,
        "streetTypeId": "DR",
        "placeName": "KANATA",
        "streetNameDisplayText": "PICKFORD DR, KANATA"
      }
    ]
  },
  {
    "postal": "K2L9B2",
    "result": []
  },
  {
    "postal": "K2L6Z3",
    "result": []
  },
  {
    "postal": "K2L4N5",
    "result": []
  },
  {
    "postal": "K2L8T3",
    "result": []
  },
  {
    "postal": "K2L1V2",
    "result": [
      {
        "electoralDistricts": [
          {
            "election": null,
            "id": 43,
            "name": "Kanata—Carleton"
          }
        ],
        "pollDivisionIds": [
          10138955
        ],
        "postalCode": "K2L1V2",
        "streetName": "HAZELDEAN",
        "streetDirectionId": null,
        "streetTypeId": "RD",
        "placeName": "KANATA",
        "streetNameDisplayText": "HAZELDEAN RD, KANATA"
      }
    ]
  },
  {
    "postal": "K2L1Y0",
    "result": []
  },
  {
    "postal": "K2L3G6",
    "result": []
  },
  {
    "postal": "K2L3H7",
    "result": []
  },
  {
    "postal": "K2L7X8",
    "result": []
  },
  {
    "postal": "K2L0C7",
    "result": []
  },
  {
    "postal": "K2L0W9",
    "result": []
  },
  {
    "postal": "K2L8E6",
    "result": []
  },
  {
    "postal": "K2L9Z8",
    "result": []
  },
  {
    "postal": "K2L3P4",
    "result": []
  },
  {
    "postal": "K2L6L8",
    "result": []
  },
  {
    "postal": "K2L2R4",
    "result": [
      {
        "electoralDistricts": [
          {
            "election": null,
            "id": 43,
            "name": "Kanata—Carleton"
          }
        ],
        "pollDivisionIds": [
          10138961
        ],
        "postalCode": "K2L2R4",
        "streetName": "SEABROOKE",
        "streetDirectionId": null,
        "streetTypeId": "DR",
        "placeName": "KANATA",
        "streetNameDisplayText": "SEABROOKE DR, KANATA"
      }
    ]
  },
  {
    "postal": "K2L2W1",
    "result": [
      {
        "electoralDistricts": [
          {
            "election": null,
            "id": 43,
            "name": "Kanata—Carleton"
          }
        ],
        "pollDivisionIds": [
          10138961
        ],
        "postalCode": "K2L2W1",
        "streetName": "BOYLSTON",
        "streetDirectionId": null,
        "streetTypeId": "LANE",
        "placeName": "KANATA",
        "streetNameDisplayText": "BOYLSTON LANE, KANATA"
      }
    ]
  },
  {
    "postal": "K2L9H8",
    "result": []
  },
  {
    "postal": "K2L8X9",
    "result": []
  },
  {
    "postal": "K2L7H4",
    "result": []
  },
  {
    "postal": "K2L3J1",
    "result": []
  },
  {
    "postal": "K2L1P4",
    "result": [
      {
        "electoralDistricts": [
          {
            "election": null,
            "id": 43,
            "name": "Kanata—Carleton"
          }
        ],
        "pollDivisionIds": [
          10138961
        ],
        "postalCode": "K2L1P4",
        "streetName": "HEATHCLIFFE",
        "streetDirectionId": null,
        "streetTypeId": "CRT",
        "placeName": "KANATA",
        "streetNameDisplayText": "HEATHCLIFFE CRT, KANATA"
      }
    ]
  },
  {
    "postal": "K2L2A3",
    "result": [
      {
        "electoralDistricts": [
          {
            "election": null,
            "id": 43,
            "name": "Kanata—Carleton"
          }
        ],
        "pollDivisionIds": [
          10138949
        ],
        "postalCode": "K2L2A3",
        "streetName": "MCCLINTOCK",
        "streetDirectionId": null,
        "streetTypeId": "WAY",
        "placeName": "KANATA",
        "streetNameDisplayText": "MCCLINTOCK WAY, KANATA"
      }
    ]
  },
  {
    "postal": "K2L0Z1",
    "result": []
  },
  {
    "postal": "K2L1C1",
    "result": [
      {
        "electoralDistricts": [
          {
            "election": null,
            "id": 43,
            "name": "Kanata—Carleton"
          }
        ],
        "pollDivisionIds": [
          10138955
        ],
        "postalCode": "K2L1C1",
        "streetName": "BANNING",
        "streetDirectionId": null,
        "streetTypeId": "RD",
        "placeName": "KANATA",
        "streetNameDisplayText": "BANNING RD, KANATA"
      }
    ]
  },
  {
    "postal": "K2L0H3",
    "result": []
  },
  {
    "postal": "K2L7B0",
    "result": []
  },
  {
    "postal": "K2L5K2",
    "result": []
  },
  {
    "postal": "K2L1E9",
    "result": [
      {
        "electoralDistricts": [
          {
            "election": null,
            "id": 43,
            "name": "Kanata—Carleton"
          }
        ],
        "pollDivisionIds": [
          10138955
        ],
        "postalCode": "K2L1E9",
        "streetName": "DESMOND",
        "streetDirectionId": null,
        "streetTypeId": "AVE",
        "placeName": "KANATA",
        "streetNameDisplayText": "DESMOND AVE, KANATA"
      }
    ]
  },
  {
    "postal": "K2L9W7",
    "result": []
  },
  {
    "postal": "K2L5W6",
    "result": []
  },
  {
    "postal": "K2L6S6",
    "result": []
  },
  {
    "postal": "K2L2P8",
    "result": [
      {
        "electoralDistricts": [
          {
            "election": null,
            "id": 43,
            "name": "Kanata—Carleton"
          }
        ],
        "pollDivisionIds": [
          10138959
        ],
        "postalCode": "K2L2P8",
        "streetName": "MCLAUGHLIN",
        "streetDirectionId": null,
        "streetTypeId": "CRES",
        "placeName": "KANATA",
        "streetNameDisplayText": "MCLAUGHLIN CRES, KANATA"
      }
    ]
  },
  {
    "postal": "K2L4P8",
    "result": []
  },
  {
    "postal": "K2L0V9",
    "result": []
  },
  {
    "postal": "K2L5Y2",
    "result": []
  },
  {
    "postal": "K2L7Z7",
    "result": []
  },
  {
    "postal": "K2L6Y8",
    "result": []
  },
  {
    "postal": "K2L2G7",
    "result": [
      {
        "electoralDistricts": [
          {
            "election": null,
            "id": 43,
            "name": "Kanata—Carleton"
          }
        ],
        "pollDivisionIds": [
          10138949
        ],
        "postalCode": "K2L2G7",
        "streetName": "CHIMO",
        "streetDirectionId": null,
        "streetTypeId": "DR",
        "placeName": "KANATA",
        "streetNameDisplayText": "CHIMO DR, KANATA"
      }
    ]
  },
  {
    "postal": "K2L8C1",
    "result": []
  },
  {
    "postal": "K2L5C5",
    "result": []
  },
  {
    "postal": "K2L2X8",
    "result": [
      {
        "electoralDistricts": [
          {
            "election": null,
            "id": 43,
            "name": "Kanata—Carleton"
          }
        ],
        "pollDivisionIds": [
          10138959
        ],
        "postalCode": "K2L2X8",
        "streetName": "PATCH",
        "streetDirectionId": null,
        "streetTypeId": "WAY",
        "placeName": "KANATA",
        "streetNameDisplayText": "PATCH WAY, KANATA"
      }
    ]
  },
  {
    "postal": "K2L1W5",
    "result": [
      {
        "electoralDistricts": [
          {
            "election": null,
            "id": 43,
            "name": "Kanata—Carleton"
          }
        ],
        "pollDivisionIds": [
          10138953
        ],
        "postalCode": "K2L1W5",
        "streetName": "VANSTONE",
        "streetDirectionId": null,
        "streetTypeId": "DR",
        "placeName": "KANATA",
        "streetNameDisplayText": "VANSTONE DR, KANATA"
      }
    ]
  },
  {
    "postal": "K2L7G0",
    "result": []
  },
  {
    "postal": "K2L8J8",
    "result": []
  },
  {
    "postal": "K2L3Y0",
    "result": []
  },
  {
    "postal": "K2L9T7",
    "result": []
  },
  {
    "postal": "K2L5P4",
    "result": []
  },
  {
    "postal": "K2L4B0",
    "result": []
  },
  {
    "postal": "K2L9N8",
    "result": []
  },
  {
    "postal": "K2L4A7",
    "result": [
      {
        "electoralDistricts": [
          {
            "election": null,
            "id": 43,
            "name": "Kanata—Carleton"
          }
        ],
        "pollDivisionIds": [
          10138949
        ],
        "postalCode": "K2L4A7",
        "streetName": "KATIMAVIK",
        "streetDirectionId": null,
        "streetTypeId": "RD",
        "placeName": "KANATA",
        "streetNameDisplayText": "KATIMAVIK RD, KANATA"
      },
      {
        "electoralDistricts": [
          {
            "election": null,
            "id": 43,
            "name": "Kanata—Carleton"
          }
        ],
        "pollDivisionIds": [
          10138949
        ],
        "postalCode": "K2L4A7",
        "streetName": "MCGIBBON",
        "streetDirectionId": null,
        "streetTypeId": "DR",
        "placeName": "KANATA",
        "streetNameDisplayText": "MCGIBBON DR, KANATA"
      }
    ]
  },
  {
    "postal": "K2L4H9",
    "result": [
      {
        "electoralDistricts": [
          {
            "election": null,
            "id": 43,
            "name": "Kanata—Carleton"
          }
        ],
        "pollDivisionIds": [
          10138949
        ],
        "postalCode": "K2L4H9",
        "streetName": "TERRY FOX",
        "streetDirectionId": null,
        "streetTypeId": "DR",
        "placeName": "KANATA",
        "streetNameDisplayText": "TERRY FOX DR, KANATA"
      }
    ]
  },
  {
    "postal": "K2L6X1",
    "result": []
  },
  {
    "postal": "K2L9Y7",
    "result": []
  },
  {
    "postal": "K2L2Y5",
    "result": [
      {
        "electoralDistricts": [
          {
            "election": null,
            "id": 43,
            "name": "Kanata—Carleton"
          }
        ],
        "pollDivisionIds": [
          10138955
        ],
        "postalCode": "K2L2Y5",
        "streetName": "TORCASTLE",
        "streetDirectionId": null,
        "streetTypeId": "WAY",
        "placeName": "KANATA",
        "streetNameDisplayText": "TORCASTLE WAY, KANATA"
      }
    ]
  },
  {
    "postal": "K2L8L7",
    "result": []
  },
  {
    "postal": "K2L2A8",
    "result": [
      {
        "electoralDistricts": [
          {
            "election": null,
            "id": 43,
            "name": "Kanata—Carleton"
          }
        ],
        "pollDivisionIds": [
          10138953
        ],
        "postalCode": "K2L2A8",
        "streetName": "NANOOK",
        "streetDirectionId": null,
        "streetTypeId": "CRES",
        "placeName": "KANATA",
        "streetNameDisplayText": "NANOOK CRES, KANATA"
      }
    ]
  },
  {
    "postal": "K2L2K9",
    "result": [
      {
        "electoralDistricts": [
          {
            "election": null,
            "id": 43,
            "name": "Kanata—Carleton"
          }
        ],
        "pollDivisionIds": [
          10138954
        ],
        "postalCode": "K2L2K9",
        "streetName": "BARROW",
        "streetDirectionId": null,
        "streetTypeId": "CRES",
        "placeName": "KANATA",
        "streetNameDisplayText": "BARROW CRES, KANATA"
      }
    ]
  },
  {
    "postal": "K2L3E5",
    "result": []
  },
  {
    "postal": "K2L8N6",
    "result": []
  },
  {
    "postal": "K2L8J4",
    "result": []
  },
  {
    "postal": "K2L4R7",
    "result": []
  },
  {
    "postal": "K2L9K1",
    "result": []
  },
  {
    "postal": "K2L8E1",
    "result": []
  },
  {
    "postal": "K2L0R1",
    "result": []
  },
  {
    "postal": "K2L4J3",
    "result": []
  },
  {
    "postal": "K2L7E7",
    "result": []
  },
  {
    "postal": "K2L0J0",
    "result": []
  },
  {
    "postal": "K2L7R8",
    "result": []
  },
  {
    "postal": "K2L9X0",
    "result": []
  },
  {
    "postal": "K2L7P6",
    "result": []
  },
  {
    "postal": "K2L0R7",
    "result": []
  },
  {
    "postal": "K2L5W1",
    "result": []
  },
  {
    "postal": "K2L0K4",
    "result": []
  },
  {
    "postal": "K2L7N9",
    "result": []
  },
  {
    "postal": "K2L1N0",
    "result": []
  },
  {
    "postal": "K2L6P3",
    "result": []
  },
  {
    "postal": "K2L5A1",
    "result": []
  },
  {
    "postal": "K2L9M9",
    "result": []
  },
  {
    "postal": "K2L7T6",
    "result": []
  },
  {
    "postal": "K2L3X0",
    "result": []
  },
  {
    "postal": "K2L2T0",
    "result": []
  },
  {
    "postal": "K2L5X9",
    "result": []
  },
  {
    "postal": "K2L2R3",
    "result": [
      {
        "electoralDistricts": [
          {
            "election": null,
            "id": 43,
            "name": "Kanata—Carleton"
          }
        ],
        "pollDivisionIds": [
          10138961
        ],
        "postalCode": "K2L2R3",
        "streetName": "WINCHESTER",
        "streetDirectionId": null,
        "streetTypeId": "DR",
        "placeName": "KANATA",
        "streetNameDisplayText": "WINCHESTER DR, KANATA"
      }
    ]
  },
  {
    "postal": "K2L5N2",
    "result": []
  },
  {
    "postal": "K2L4Y7",
    "result": []
  },
  {
    "postal": "K2L7M0",
    "result": []
  },
  {
    "postal": "K2L8P3",
    "result": []
  },
  {
    "postal": "K2L3N3",
    "result": [
      {
        "electoralDistricts": [
          {
            "election": null,
            "id": 43,
            "name": "Kanata—Carleton"
          }
        ],
        "pollDivisionIds": [
          10138953,
          10138952
        ],
        "postalCode": "K2L3N3",
        "streetName": "SHEARER",
        "streetDirectionId": null,
        "streetTypeId": "CRES",
        "placeName": "KANATA",
        "streetNameDisplayText": "SHEARER CRES, KANATA"
      }
    ]
  },
  {
    "postal": "K2L7S3",
    "result": []
  },
  {
    "postal": "K2L3V9",
    "result": [
      {
        "electoralDistricts": [
          {
            "election": null,
            "id": 43,
            "name": "Kanata—Carleton"
          }
        ],
        "pollDivisionIds": [
          10138952
        ],
        "postalCode": "K2L3V9",
        "streetName": "SHEARER",
        "streetDirectionId": null,
        "streetTypeId": "CRES",
        "placeName": "KANATA",
        "streetNameDisplayText": "SHEARER CRES, KANATA"
      }
    ]
  },
  {
    "postal": "K2L9N7",
    "result": []
  },
  {
    "postal": "K2L0G4",
    "result": []
  },
  {
    "postal": "K2L2E2",
    "result": [
      {
        "electoralDistricts": [
          {
            "election": null,
            "id": 43,
            "name": "Kanata—Carleton"
          }
        ],
        "pollDivisionIds": [
          10138942,
          10138961
        ],
        "postalCode": "K2L2E2",
        "streetName": "RICKEY",
        "streetDirectionId": null,
        "streetTypeId": "PL",
        "placeName": "KANATA",
        "streetNameDisplayText": "RICKEY PL, KANATA"
      }
    ]
  },
  {
    "postal": "K2L7W8",
    "result": []
  },
  {
    "postal": "K2L7M5",
    "result": []
  },
  {
    "postal": "K2L5W8",
    "result": []
  },
  {
    "postal": "K2L5E5",
    "result": []
  },
  {
    "postal": "K2L1P9",
    "result": [
      {
        "electoralDistricts": [
          {
            "election": null,
            "id": 43,
            "name": "Kanata—Carleton"
          }
        ],
        "pollDivisionIds": [
          10138961
        ],
        "postalCode": "K2L1P9",
        "streetName": "GLAMORGAN",
        "streetDirectionId": null,
        "streetTypeId": "DR",
        "placeName": "KANATA",
        "streetNameDisplayText": "GLAMORGAN DR, KANATA"
      }
    ]
  },
  {
    "postal": "K2L8V8",
    "result": []
  },
  {
    "postal": "K2L9G8",
    "result": []
  },
  {
    "postal": "K2L8H9",
    "result": []
  },
  {
    "postal": "K2L1Z1",
    "result": [
      {
        "electoralDistricts": [
          {
            "election": null,
            "id": 43,
            "name": "Kanata—Carleton"
          }
        ],
        "pollDivisionIds": [
          10138953
        ],
        "postalCode": "K2L1Z1",
        "streetName": "CHIMO",
        "streetDirectionId": null,
        "streetTypeId": "DR",
        "placeName": "KANATA",
        "streetNameDisplayText": "CHIMO DR, KANATA"
      }
    ]
  },
  {
    "postal": "K2L8M3",
    "result": []
  },
  {
    "postal": "K2L5H6",
    "result": []
  },
  {
    "postal": "K2L7W7",
    "result": []
  },
  {
    "postal": "K2L4L0",
    "result": []
  },
  {
    "postal": "K2L2N1",
    "result": [
      {
        "electoralDistricts": [
          {
            "election": null,
            "id": 43,
            "name": "Kanata—Carleton"
          }
        ],
        "pollDivisionIds": [
          10138959
        ],
        "postalCode": "K2L2N1",
        "streetName": "MCLENNAN",
        "streetDirectionId": null,
        "streetTypeId": "WAY",
        "placeName": "KANATA",
        "streetNameDisplayText": "MCLENNAN WAY, KANATA"
      }
    ]
  },
  {
    "postal": "K2L2H4",
    "result": [
      {
        "electoralDistricts": [
          {
            "election": null,
            "id": 43,
            "name": "Kanata—Carleton"
          }
        ],
        "pollDivisionIds": [
          10138961
        ],
        "postalCode": "K2L2H4",
        "streetName": "RICKEY",
        "streetDirectionId": null,
        "streetTypeId": "PL",
        "placeName": "KANATA",
        "streetNameDisplayText": "RICKEY PL, KANATA"
      }
    ]
  },
  {
    "postal": "K2L5C8",
    "result": []
  },
  {
    "postal": "K2L8B0",
    "result": []
  },
  {
    "postal": "K2L1T4",
    "result": [
      {
        "electoralDistricts": [
          {
            "election": null,
            "id": 43,
            "name": "Kanata—Carleton"
          }
        ],
        "pollDivisionIds": [
          10138961
        ],
        "postalCode": "K2L1T4",
        "streetName": "CASTLEFRANK",
        "streetDirectionId": null,
        "streetTypeId": "RD",
        "placeName": "KANATA",
        "streetNameDisplayText": "CASTLEFRANK RD, KANATA"
      }
    ]
  },
  {
    "postal": "K2L7N7",
    "result": []
  },
  {
    "postal": "K2L4L3",
    "result": []
  },
  {
    "postal": "K2L2N2",
    "result": [
      {
        "electoralDistricts": [
          {
            "election": null,
            "id": 43,
            "name": "Kanata—Carleton"
          }
        ],
        "pollDivisionIds": [
          10138949
        ],
        "postalCode": "K2L2N2",
        "streetName": "KATIMAVIK",
        "streetDirectionId": null,
        "streetTypeId": "RD",
        "placeName": "KANATA",
        "streetNameDisplayText": "KATIMAVIK RD, KANATA"
      }
    ]
  },
  {
    "postal": "K2L4N8",
    "result": []
  },
  {
    "postal": "K2L3M5",
    "result": [
      {
        "electoralDistricts": [
          {
            "election": null,
            "id": 43,
            "name": "Kanata—Carleton"
          }
        ],
        "pollDivisionIds": [
          10138952
        ],
        "postalCode": "K2L3M5",
        "streetName": "LIGHTFOOT",
        "streetDirectionId": null,
        "streetTypeId": "PL",
        "placeName": "KANATA",
        "streetNameDisplayText": "LIGHTFOOT PL, KANATA"
      }
    ]
  },
  {
    "postal": "K2L6H7",
    "result": []
  },
  {
    "postal": "K2L8Y8",
    "result": []
  },
  {
    "postal": "K2L5R9",
    "result": []
  },
  {
    "postal": "K2L8G3",
    "result": []
  },
  {
    "postal": "K2L4N7",
    "result": []
  },
  {
    "postal": "K2L0B9",
    "result": []
  },
  {
    "postal": "K2L9K7",
    "result": []
  },
  {
    "postal": "K2L9K9",
    "result": []
  },
  {
    "postal": "K2L3Z2",
    "result": [
      {
        "electoralDistricts": [
          {
            "election": null,
            "id": 43,
            "name": "Kanata—Carleton"
          }
        ],
        "pollDivisionIds": [
          10138949
        ],
        "postalCode": "K2L3Z2",
        "streetName": "HEPBURN",
        "streetDirectionId": null,
        "streetTypeId": "CRT",
        "placeName": "KANATA",
        "streetNameDisplayText": "HEPBURN CRT, KANATA"
      }
    ]
  },
  {
    "postal": "K2L6W7",
    "result": []
  },
  {
    "postal": "K2L0P1",
    "result": []
  },
  {
    "postal": "K2L3A0",
    "result": []
  },
  {
    "postal": "K2L8L9",
    "result": []
  },
  {
    "postal": "K2L6X0",
    "result": []
  },
  {
    "postal": "K2L3E9",
    "result": [
      {
        "electoralDistricts": [
          {
            "election": null,
            "id": 43,
            "name": "Kanata—Carleton"
          }
        ],
        "pollDivisionIds": [
          10138953
        ],
        "postalCode": "K2L3E9",
        "streetName": "BELLEVIEW",
        "streetDirectionId": null,
        "streetTypeId": "DR",
        "placeName": "KANATA",
        "streetNameDisplayText": "BELLEVIEW DR, KANATA"
      }
    ]
  },
  {
    "postal": "K2L0S5",
    "result": []
  },
  {
    "postal": "K2L1A2",
    "result": [
      {
        "electoralDistricts": [
          {
            "election": null,
            "id": 43,
            "name": "Kanata—Carleton"
          }
        ],
        "pollDivisionIds": [
          10138954
        ],
        "postalCode": "K2L1A2",
        "streetName": "INUVIK",
        "streetDirectionId": null,
        "streetTypeId": "CRES",
        "placeName": "KANATA",
        "streetNameDisplayText": "INUVIK CRES, KANATA"
      }
    ]
  },
  {
    "postal": "K2L5V8",
    "result": []
  },
  {
    "postal": "K2L8C5",
    "result": []
  },
  {
    "postal": "K2L6N0",
    "result": []
  },
  {
    "postal": "K2L9E6",
    "result": []
  },
  {
    "postal": "K2L5J7",
    "result": []
  },
  {
    "postal": "K2L2R2",
    "result": [
      {
        "electoralDistricts": [
          {
            "election": null,
            "id": 43,
            "name": "Kanata—Carleton"
          }
        ],
        "pollDivisionIds": [
          10138959
        ],
        "postalCode": "K2L2R2",
        "streetName": "MCCURDY",
        "streetDirectionId": null,
        "streetTypeId": "DR",
        "placeName": "KANATA",
        "streetNameDisplayText": "MCCURDY DR, KANATA"
      }
    ]
  },
  {
    "postal": "K2L0P5",
    "result": []
  },
  {
    "postal": "K2L5A7",
    "result": []
  },
  {
    "postal": "K2L1G1",
    "result": [
      {
        "electoralDistricts": [
          {
            "election": null,
            "id": 43,
            "name": "Kanata—Carleton"
          }
        ],
        "pollDivisionIds": [
          10138955
        ],
        "postalCode": "K2L1G1",
        "streetName": "DESMOND",
        "streetDirectionId": null,
        "streetTypeId": "AVE",
        "placeName": "KANATA",
        "streetNameDisplayText": "DESMOND AVE, KANATA"
      }
    ]
  },
  {
    "postal": "K2L9R6",
    "result": []
  },
  {
    "postal": "K2L4Z9",
    "result": []
  },
  {
    "postal": "K2L1V5",
    "result": []
  },
  {
    "postal": "K2L9Y5",
    "result": []
  },
  {
    "postal": "K2L1P2",
    "result": [
      {
        "electoralDistricts": [
          {
            "election": null,
            "id": 43,
            "name": "Kanata—Carleton"
          }
        ],
        "pollDivisionIds": [
          10138961
        ],
        "postalCode": "K2L1P2",
        "streetName": "ROTHESAY",
        "streetDirectionId": null,
        "streetTypeId": "DR",
        "placeName": "KANATA",
        "streetNameDisplayText": "ROTHESAY DR, KANATA"
      }
    ]
  },
  {
    "postal": "K2L5X0",
    "result": []
  },
  {
    "postal": "K2L7B8",
    "result": []
  },
  {
    "postal": "K2L0C6",
    "result": []
  },
  {
    "postal": "K2L6G1",
    "result": []
  },
  {
    "postal": "K2L3K3",
    "result": [
      {
        "electoralDistricts": [
          {
            "election": null,
            "id": 43,
            "name": "Kanata—Carleton"
          }
        ],
        "pollDivisionIds": [
          10138949
        ],
        "postalCode": "K2L3K3",
        "streetName": "GESNER",
        "streetDirectionId": null,
        "streetTypeId": "CRT",
        "placeName": "KANATA",
        "streetNameDisplayText": "GESNER CRT, KANATA"
      }
    ]
  },
  {
    "postal": "K2L9R0",
    "result": []
  },
  {
    "postal": "K2L4R8",
    "result": []
  },
  {
    "postal": "K2L5P9",
    "result": []
  },
  {
    "postal": "K2L8N4",
    "result": []
  },
  {
    "postal": "K2L8H4",
    "result": []
  },
  {
    "postal": "K2L4V1",
    "result": []
  },
  {
    "postal": "K2L1K5",
    "result": [
      {
        "electoralDistricts": [
          {
            "election": null,
            "id": 43,
            "name": "Kanata—Carleton"
          }
        ],
        "pollDivisionIds": [
          10138962
        ],
        "postalCode": "K2L1K5",
        "streetName": "PADDOCK",
        "streetDirectionId": null,
        "streetTypeId": "WAY",
        "placeName": "KANATA",
        "streetNameDisplayText": "PADDOCK WAY, KANATA"
      }
    ]
  },
  {
    "postal": "K2L1Z5",
    "result": [
      {
        "electoralDistricts": [
          {
            "election": null,
            "id": 43,
            "name": "Kanata—Carleton"
          }
        ],
        "pollDivisionIds": [
          10138953
        ],
        "postalCode": "K2L1Z5",
        "streetName": "BEAUFORT",
        "streetDirectionId": null,
        "streetTypeId": "DR",
        "placeName": "KANATA",
        "streetNameDisplayText": "BEAUFORT DR, KANATA"
      }
    ]
  },
  {
    "postal": "K2L9L9",
    "result": []
  },
  {
    "postal": "K2L5L2",
    "result": []
  },
  {
    "postal": "K2L0M2",
    "result": []
  },
  {
    "postal": "K2L1K8",
    "result": [
      {
        "electoralDistricts": [
          {
            "election": null,
            "id": 43,
            "name": "Kanata—Carleton"
          }
        ],
        "pollDivisionIds": [
          10138962
        ],
        "postalCode": "K2L1K8",
        "streetName": "SHERWOOD",
        "streetDirectionId": null,
        "streetTypeId": "ST",
        "placeName": "KANATA",
        "streetNameDisplayText": "SHERWOOD ST, KANATA"
      }
    ]
  },
  {
    "postal": "K2L3M7",
    "result": [
      {
        "electoralDistricts": [
          {
            "election": null,
            "id": 43,
            "name": "Kanata—Carleton"
          }
        ],
        "pollDivisionIds": [
          10138953
        ],
        "postalCode": "K2L3M7",
        "streetName": "SHEARER",
        "streetDirectionId": null,
        "streetTypeId": "CRES",
        "placeName": "KANATA",
        "streetNameDisplayText": "SHEARER CRES, KANATA"
      }
    ]
  },
  {
    "postal": "K2L1B2",
    "result": []
  },
  {
    "postal": "K2L0H9",
    "result": []
  },
  {
    "postal": "K2L8M4",
    "result": []
  },
  {
    "postal": "K2L2M5",
    "result": [
      {
        "electoralDistricts": [
          {
            "election": null,
            "id": 43,
            "name": "Kanata—Carleton"
          }
        ],
        "pollDivisionIds": [
          10138959
        ],
        "postalCode": "K2L2M5",
        "streetName": "THIESSEN",
        "streetDirectionId": null,
        "streetTypeId": "CRES",
        "placeName": "KANATA",
        "streetNameDisplayText": "THIESSEN CRES, KANATA"
      }
    ]
  },
  {
    "postal": "K2L0T9",
    "result": []
  },
  {
    "postal": "K2L3P1",
    "result": [
      {
        "electoralDistricts": [
          {
            "election": null,
            "id": 43,
            "name": "Kanata—Carleton"
          }
        ],
        "pollDivisionIds": [
          10138953
        ],
        "postalCode": "K2L3P1",
        "streetName": "PICKFORD",
        "streetDirectionId": null,
        "streetTypeId": "DR",
        "placeName": "KANATA",
        "streetNameDisplayText": "PICKFORD DR, KANATA"
      }
    ]
  },
  {
    "postal": "K2L1R6",
    "result": [
      {
        "electoralDistricts": [
          {
            "election": null,
            "id": 43,
            "name": "Kanata—Carleton"
          }
        ],
        "pollDivisionIds": [
          10138961
        ],
        "postalCode": "K2L1R6",
        "streetName": "GLAMORGAN",
        "streetDirectionId": null,
        "streetTypeId": "DR",
        "placeName": "KANATA",
        "streetNameDisplayText": "GLAMORGAN DR, KANATA"
      }
    ]
  },
  {
    "postal": "K2L9V5",
    "result": []
  },
  {
    "postal": "K2L9T0",
    "result": []
  },
  {
    "postal": "K2L0A9",
    "result": []
  },
  {
    "postal": "K2L1M3",
    "result": [
      {
        "electoralDistricts": [
          {
            "election": null,
            "id": 43,
            "name": "Kanata—Carleton"
          }
        ],
        "pollDivisionIds": [
          10138962
        ],
        "postalCode": "K2L1M3",
        "streetName": "OLD COLONY",
        "streetDirectionId": null,
        "streetTypeId": "RD",
        "placeName": "KANATA",
        "streetNameDisplayText": "OLD COLONY RD, KANATA"
      }
    ]
  },
  {
    "postal": "K2L1W8",
    "result": [
      {
        "electoralDistricts": [
          {
            "election": null,
            "id": 43,
            "name": "Kanata—Carleton"
          }
        ],
        "pollDivisionIds": [
          10138961
        ],
        "postalCode": "K2L1W8",
        "streetName": "MORTON",
        "streetDirectionId": null,
        "streetTypeId": "DR",
        "placeName": "KANATA",
        "streetNameDisplayText": "MORTON DR, KANATA"
      }
    ]
  },
  {
    "postal": "K2L9J1",
    "result": []
  },
  {
    "postal": "K2L8N5",
    "result": []
  },
  {
    "postal": "K2L5X1",
    "result": []
  },
  {
    "postal": "K2L6S2",
    "result": []
  },
  {
    "postal": "K2L2A2",
    "result": [
      {
        "electoralDistricts": [
          {
            "election": null,
            "id": 43,
            "name": "Kanata—Carleton"
          }
        ],
        "pollDivisionIds": [
          10138949
        ],
        "postalCode": "K2L2A2",
        "streetName": "MCCLINTOCK",
        "streetDirectionId": null,
        "streetTypeId": "WAY",
        "placeName": "KANATA",
        "streetNameDisplayText": "MCCLINTOCK WAY, KANATA"
      }
    ]
  },
  {
    "postal": "K2L6A6",
    "result": []
  },
  {
    "postal": "K2L0S3",
    "result": []
  },
  {
    "postal": "K2L3E7",
    "result": []
  },
  {
    "postal": "K2L5R7",
    "result": []
  },
  {
    "postal": "K2L3R6",
    "result": [
      {
        "electoralDistricts": [
          {
            "election": null,
            "id": 43,
            "name": "Kanata—Carleton"
          }
        ],
        "pollDivisionIds": [
          10138953
        ],
        "postalCode": "K2L3R6",
        "streetName": "PICKFORD",
        "streetDirectionId": null,
        "streetTypeId": "DR",
        "placeName": "KANATA",
        "streetNameDisplayText": "PICKFORD DR, KANATA"
      }
    ]
  },
  {
    "postal": "K2L6K4",
    "result": []
  },
  {
    "postal": "K2L2W5",
    "result": [
      {
        "electoralDistricts": [
          {
            "election": null,
            "id": 43,
            "name": "Kanata—Carleton"
          }
        ],
        "pollDivisionIds": [
          10138949
        ],
        "postalCode": "K2L2W5",
        "streetName": "SEWELL",
        "streetDirectionId": null,
        "streetTypeId": "WAY",
        "placeName": "KANATA",
        "streetNameDisplayText": "SEWELL WAY, KANATA"
      }
    ]
  },
  {
    "postal": "K2L8W4",
    "result": []
  },
  {
    "postal": "K2L9C2",
    "result": []
  },
  {
    "postal": "K2L2C0",
    "result": []
  },
  {
    "postal": "K2L0E1",
    "result": []
  },
  {
    "postal": "K2L1K9",
    "result": [
      {
        "electoralDistricts": [
          {
            "election": null,
            "id": 43,
            "name": "Kanata—Carleton"
          }
        ],
        "pollDivisionIds": [
          10138962
        ],
        "postalCode": "K2L1K9",
        "streetName": "SHERWOOD",
        "streetDirectionId": null,
        "streetTypeId": "ST",
        "placeName": "KANATA",
        "streetNameDisplayText": "SHERWOOD ST, KANATA"
      }
    ]
  },
  {
    "postal": "K2L1G7",
    "result": [
      {
        "electoralDistricts": [
          {
            "election": null,
            "id": 43,
            "name": "Kanata—Carleton"
          }
        ],
        "pollDivisionIds": [
          10138955
        ],
        "postalCode": "K2L1G7",
        "streetName": "BALBAIR",
        "streetDirectionId": null,
        "streetTypeId": "RD",
        "placeName": "KANATA",
        "streetNameDisplayText": "BALBAIR RD, KANATA"
      }
    ]
  },
  {
    "postal": "K2L4E9",
    "result": [
      {
        "electoralDistricts": [
          {
            "election": null,
            "id": 43,
            "name": "Kanata—Carleton"
          }
        ],
        "pollDivisionIds": [
          10138954
        ],
        "postalCode": "K2L4E9",
        "streetName": "COHEN",
        "streetDirectionId": null,
        "streetTypeId": "AVE",
        "placeName": "KANATA",
        "streetNameDisplayText": "COHEN AVE, KANATA"
      },
      {
        "electoralDistricts": [
          {
            "election": null,
            "id": 43,
            "name": "Kanata—Carleton"
          }
        ],
        "pollDivisionIds": [
          10138954
        ],
        "postalCode": "K2L4E9",
        "streetName": "HEARST",
        "streetDirectionId": null,
        "streetTypeId": "WAY",
        "placeName": "KANATA",
        "streetNameDisplayText": "HEARST WAY, KANATA"
      }
    ]
  },
  {
    "postal": "K2L9P0",
    "result": []
  },
  {
    "postal": "K2L5H3",
    "result": []
  },
  {
    "postal": "K2L9X6",
    "result": []
  },
  {
    "postal": "K2L5N7",
    "result": []
  },
  {
    "postal": "K2L5A6",
    "result": []
  },
  {
    "postal": "K2L4M0",
    "result": []
  },
  {
    "postal": "K2L3V6",
    "result": [
      {
        "electoralDistricts": [
          {
            "election": null,
            "id": 43,
            "name": "Kanata—Carleton"
          }
        ],
        "pollDivisionIds": [
          10138952
        ],
        "postalCode": "K2L3V6",
        "streetName": "SHEARER",
        "streetDirectionId": null,
        "streetTypeId": "CRES",
        "placeName": "KANATA",
        "streetNameDisplayText": "SHEARER CRES, KANATA"
      }
    ]
  },
  {
    "postal": "K2L1L7",
    "result": [
      {
        "electoralDistricts": [
          {
            "election": null,
            "id": 43,
            "name": "Kanata—Carleton"
          }
        ],
        "pollDivisionIds": [
          10138962
        ],
        "postalCode": "K2L1L7",
        "streetName": "COURTNEY",
        "streetDirectionId": null,
        "streetTypeId": "RD",
        "placeName": "KANATA",
        "streetNameDisplayText": "COURTNEY RD, KANATA"
      }
    ]
  },
  {
    "postal": "K2L2P9",
    "result": [
      {
        "electoralDistricts": [
          {
            "election": null,
            "id": 43,
            "name": "Kanata—Carleton"
          }
        ],
        "pollDivisionIds": [
          10138959
        ],
        "postalCode": "K2L2P9",
        "streetName": "MCLAUGHLIN",
        "streetDirectionId": null,
        "streetTypeId": "CRES",
        "placeName": "KANATA",
        "streetNameDisplayText": "MCLAUGHLIN CRES, KANATA"
      }
    ]
  },
  {
    "postal": "K2L5T4",
    "result": []
  },
  {
    "postal": "K2L5Z1",
    "result": []
  },
  {
    "postal": "K2L2X0",
    "result": []
  },
  {
    "postal": "K2L6Z2",
    "result": []
  },
  {
    "postal": "K2L0E0",
    "result": []
  },
  {
    "postal": "K2L3Z5",
    "result": [
      {
        "electoralDistricts": [
          {
            "election": null,
            "id": 43,
            "name": "Kanata—Carleton"
          }
        ],
        "pollDivisionIds": [
          10138949
        ],
        "postalCode": "K2L3Z5",
        "streetName": "HEPBURN",
        "streetDirectionId": null,
        "streetTypeId": "CRT",
        "placeName": "KANATA",
        "streetNameDisplayText": "HEPBURN CRT, KANATA"
      }
    ]
  },
  {
    "postal": "K2L8H3",
    "result": []
  },
  {
    "postal": "K2L7S6",
    "result": []
  },
  {
    "postal": "K2L4C1",
    "result": [
      {
        "electoralDistricts": [
          {
            "election": null,
            "id": 43,
            "name": "Kanata—Carleton"
          }
        ],
        "pollDivisionIds": [
          10138961
        ],
        "postalCode": "K2L4C1",
        "streetName": "CONNELLY",
        "streetDirectionId": null,
        "streetTypeId": "PL",
        "placeName": "KANATA",
        "streetNameDisplayText": "CONNELLY PL, KANATA"
      }
    ]
  },
  {
    "postal": "K2L3K2",
    "result": [
      {
        "electoralDistricts": [
          {
            "election": null,
            "id": 43,
            "name": "Kanata—Carleton"
          }
        ],
        "pollDivisionIds": [
          10138949
        ],
        "postalCode": "K2L3K2",
        "streetName": "GESNER",
        "streetDirectionId": null,
        "streetTypeId": "CRT",
        "placeName": "KANATA",
        "streetNameDisplayText": "GESNER CRT, KANATA"
      }
    ]
  },
  {
    "postal": "K2L1Y5",
    "result": [
      {
        "electoralDistricts": [
          {
            "election": null,
            "id": 43,
            "name": "Kanata—Carleton"
          }
        ],
        "pollDivisionIds": [
          10138961
        ],
        "postalCode": "K2L1Y5",
        "streetName": "SPEARMAN",
        "streetDirectionId": null,
        "streetTypeId": "LANE",
        "placeName": "KANATA",
        "streetNameDisplayText": "SPEARMAN LANE, KANATA"
      }
    ]
  },
  {
    "postal": "K2L6P6",
    "result": []
  },
  {
    "postal": "K2L3N9",
    "result": []
  },
  {
    "postal": "K2L3W2",
    "result": [
      {
        "electoralDistricts": [
          {
            "election": null,
            "id": 43,
            "name": "Kanata—Carleton"
          }
        ],
        "pollDivisionIds": [
          10138952
        ],
        "postalCode": "K2L3W2",
        "streetName": "SHEARER",
        "streetDirectionId": null,
        "streetTypeId": "CRES",
        "placeName": "KANATA",
        "streetNameDisplayText": "SHEARER CRES, KANATA"
      }
    ]
  },
  {
    "postal": "K2L6H8",
    "result": []
  },
  {
    "postal": "K2L9T3",
    "result": []
  },
  {
    "postal": "K2L5L9",
    "result": []
  },
  {
    "postal": "K2L7X7",
    "result": []
  },
  {
    "postal": "K2L3J5",
    "result": [
      {
        "electoralDistricts": [
          {
            "election": null,
            "id": 43,
            "name": "Kanata—Carleton"
          }
        ],
        "pollDivisionIds": [
          10138952
        ],
        "postalCode": "K2L3J5",
        "streetName": "DRAINIE",
        "streetDirectionId": null,
        "streetTypeId": "DR",
        "placeName": "KANATA",
        "streetNameDisplayText": "DRAINIE DR, KANATA"
      }
    ]
  },
  {
    "postal": "K2L4J5",
    "result": []
  },
  {
    "postal": "K2L6J2",
    "result": []
  },
  {
    "postal": "K2L5V6",
    "result": []
  },
  {
    "postal": "K2L3N2",
    "result": [
      {
        "electoralDistricts": [
          {
            "election": null,
            "id": 43,
            "name": "Kanata—Carleton"
          }
        ],
        "pollDivisionIds": [
          10138953,
          10138952
        ],
        "postalCode": "K2L3N2",
        "streetName": "SHEARER",
        "streetDirectionId": null,
        "streetTypeId": "CRES",
        "placeName": "KANATA",
        "streetNameDisplayText": "SHEARER CRES, KANATA"
      }
    ]
  },
  {
    "postal": "K2L3B1",
    "result": [
      {
        "electoralDistricts": [
          {
            "election": null,
            "id": 43,
            "name": "Kanata—Carleton"
          }
        ],
        "pollDivisionIds": [
          10138949
        ],
        "postalCode": "K2L3B1",
        "streetName": "FENERTY",
        "streetDirectionId": null,
        "streetTypeId": "CRT",
        "placeName": "KANATA",
        "streetNameDisplayText": "FENERTY CRT, KANATA"
      }
    ]
  },
  {
    "postal": "K2L8B5",
    "result": []
  },
  {
    "postal": "K2L0K1",
    "result": []
  },
  {
    "postal": "K2L7M7",
    "result": []
  },
  {
    "postal": "K2L2M2",
    "result": [
      {
        "electoralDistricts": [
          {
            "election": null,
            "id": 43,
            "name": "Kanata—Carleton"
          }
        ],
        "pollDivisionIds": [
          10138959
        ],
        "postalCode": "K2L2M2",
        "streetName": "DUNLOP",
        "streetDirectionId": null,
        "streetTypeId": "CRT",
        "placeName": "KANATA",
        "streetNameDisplayText": "DUNLOP CRT, KANATA"
      }
    ]
  },
  {
    "postal": "K2L9N3",
    "result": []
  },
  {
    "postal": "K2L4Y8",
    "result": []
  },
  {
    "postal": "K2L3V7",
    "result": [
      {
        "electoralDistricts": [
          {
            "election": null,
            "id": 43,
            "name": "Kanata—Carleton"
          }
        ],
        "pollDivisionIds": [
          10138952
        ],
        "postalCode": "K2L3V7",
        "streetName": "SHEARER",
        "streetDirectionId": null,
        "streetTypeId": "CRES",
        "placeName": "KANATA",
        "streetNameDisplayText": "SHEARER CRES, KANATA"
      },
      {
        "electoralDistricts": [
          {
            "election": null,
            "id": 43,
            "name": "Kanata—Carleton"
          }
        ],
        "pollDivisionIds": [
          10138953
        ],
        "postalCode": "K2L3V7",
        "streetName": "STURSBERG",
        "streetDirectionId": null,
        "streetTypeId": "WAY",
        "placeName": "KANATA",
        "streetNameDisplayText": "STURSBERG WAY, KANATA"
      }
    ]
  },
  {
    "postal": "K2L8Z1",
    "result": []
  },
  {
    "postal": "K2L7B3",
    "result": []
  },
  {
    "postal": "K2L3A8",
    "result": [
      {
        "electoralDistricts": [
          {
            "election": null,
            "id": 43,
            "name": "Kanata—Carleton"
          }
        ],
        "pollDivisionIds": [
          10138949
        ],
        "postalCode": "K2L3A8",
        "streetName": "FENERTY",
        "streetDirectionId": null,
        "streetTypeId": "CRT",
        "placeName": "KANATA",
        "streetNameDisplayText": "FENERTY CRT, KANATA"
      }
    ]
  },
  {
    "postal": "K2L7V5",
    "result": []
  },
  {
    "postal": "K2L2T2",
    "result": [
      {
        "electoralDistricts": [
          {
            "election": null,
            "id": 43,
            "name": "Kanata—Carleton"
          }
        ],
        "pollDivisionIds": [
          10138959
        ],
        "postalCode": "K2L2T2",
        "streetName": "MCLENNAN",
        "streetDirectionId": null,
        "streetTypeId": "WAY",
        "placeName": "KANATA",
        "streetNameDisplayText": "MCLENNAN WAY, KANATA"
      }
    ]
  },
  {
    "postal": "K2L6L3",
    "result": []
  },
  {
    "postal": "K2L0L2",
    "result": []
  },
  {
    "postal": "K2L5Y8",
    "result": []
  },
  {
    "postal": "K2L0B8",
    "result": []
  },
  {
    "postal": "K2L6R5",
    "result": []
  },
  {
    "postal": "K2L8W6",
    "result": []
  },
  {
    "postal": "K2L8G6",
    "result": []
  },
  {
    "postal": "K2L6X3",
    "result": []
  },
  {
    "postal": "K2L7R7",
    "result": []
  },
  {
    "postal": "K2L4B6",
    "result": [
      {
        "electoralDistricts": [
          {
            "election": null,
            "id": 43,
            "name": "Kanata—Carleton"
          }
        ],
        "pollDivisionIds": [
          10138949
        ],
        "postalCode": "K2L4B6",
        "streetName": "TERRY FOX",
        "streetDirectionId": null,
        "streetTypeId": "DR",
        "placeName": "KANATA",
        "streetNameDisplayText": "TERRY FOX DR, KANATA"
      }
    ]
  },
  {
    "postal": "K2L3P9",
    "result": [
      {
        "electoralDistricts": [
          {
            "election": null,
            "id": 43,
            "name": "Kanata—Carleton"
          }
        ],
        "pollDivisionIds": [
          10138953
        ],
        "postalCode": "K2L3P9",
        "streetName": "PICKFORD",
        "streetDirectionId": null,
        "streetTypeId": "DR",
        "placeName": "KANATA",
        "streetNameDisplayText": "PICKFORD DR, KANATA"
      },
      {
        "electoralDistricts": [
          {
            "election": null,
            "id": 43,
            "name": "Kanata—Carleton"
          }
        ],
        "pollDivisionIds": [
          10138953
        ],
        "postalCode": "K2L3P9",
        "streetName": "VICKERS",
        "streetDirectionId": null,
        "streetTypeId": "WAY",
        "placeName": "KANATA",
        "streetNameDisplayText": "VICKERS WAY, KANATA"
      }
    ]
  },
  {
    "postal": "K2L2T3",
    "result": [
      {
        "electoralDistricts": [
          {
            "election": null,
            "id": 43,
            "name": "Kanata—Carleton"
          }
        ],
        "pollDivisionIds": [
          10138959
        ],
        "postalCode": "K2L2T3",
        "streetName": "MCLENNAN",
        "streetDirectionId": null,
        "streetTypeId": "WAY",
        "placeName": "KANATA",
        "streetNameDisplayText": "MCLENNAN WAY, KANATA"
      }
    ]
  },
  {
    "postal": "K2L1M4",
    "result": [
      {
        "electoralDistricts": [
          {
            "election": null,
            "id": 43,
            "name": "Kanata—Carleton"
          }
        ],
        "pollDivisionIds": [
          10138955
        ],
        "postalCode": "K2L1M4",
        "streetName": "OLD COLONY",
        "streetDirectionId": null,
        "streetTypeId": "RD",
        "placeName": "KANATA",
        "streetNameDisplayText": "OLD COLONY RD, KANATA"
      }
    ]
  },
  {
    "postal": "K2L0H1",
    "result": []
  },
  {
    "postal": "K2L9W3",
    "result": []
  },
  {
    "postal": "K2L6P1",
    "result": []
  },
  {
    "postal": "K2L7G2",
    "result": []
  },
  {
    "postal": "K2L4J9",
    "result": []
  },
  {
    "postal": "K2L9E4",
    "result": []
  },
  {
    "postal": "K2L8H0",
    "result": []
  },
  {
    "postal": "K2L4M7",
    "result": []
  },
  {
    "postal": "K2L2G9",
    "result": [
      {
        "electoralDistricts": [
          {
            "election": null,
            "id": 43,
            "name": "Kanata—Carleton"
          }
        ],
        "pollDivisionIds": [
          10138949
        ],
        "postalCode": "K2L2G9",
        "streetName": "CHIMO",
        "streetDirectionId": null,
        "streetTypeId": "DR",
        "placeName": "KANATA",
        "streetNameDisplayText": "CHIMO DR, KANATA"
      }
    ]
  },
  {
    "postal": "K2L8T2",
    "result": []
  },
  {
    "postal": "K2L7G7",
    "result": []
  },
  {
    "postal": "K2L4Z3",
    "result": []
  },
  {
    "postal": "K2L5B3",
    "result": []
  },
  {
    "postal": "K2L1S7",
    "result": [
      {
        "electoralDistricts": [
          {
            "election": null,
            "id": 43,
            "name": "Kanata—Carleton"
          }
        ],
        "pollDivisionIds": [
          10138961
        ],
        "postalCode": "K2L1S7",
        "streetName": "SHELDRAKE",
        "streetDirectionId": null,
        "streetTypeId": "DR",
        "placeName": "KANATA",
        "streetNameDisplayText": "SHELDRAKE DR, KANATA"
      }
    ]
  },
  {
    "postal": "K2L2N7",
    "result": [
      {
        "electoralDistricts": [
          {
            "election": null,
            "id": 43,
            "name": "Kanata—Carleton"
          }
        ],
        "pollDivisionIds": [
          10138959
        ],
        "postalCode": "K2L2N7",
        "streetName": "MCINTOSH",
        "streetDirectionId": null,
        "streetTypeId": "PL",
        "placeName": "KANATA",
        "streetNameDisplayText": "MCINTOSH PL, KANATA"
      }
    ]
  },
  {
    "postal": "K2L0H8",
    "result": []
  },
  {
    "postal": "K2L7Z4",
    "result": []
  },
  {
    "postal": "K2L7B1",
    "result": []
  },
  {
    "postal": "K2L7P8",
    "result": []
  },
  {
    "postal": "K2L7N0",
    "result": []
  },
  {
    "postal": "K2L3Y5",
    "result": [
      {
        "electoralDistricts": [
          {
            "election": null,
            "id": 43,
            "name": "Kanata—Carleton"
          }
        ],
        "pollDivisionIds": [
          10138949
        ],
        "postalCode": "K2L3Y5",
        "streetName": "MCGIBBON",
        "streetDirectionId": null,
        "streetTypeId": "DR",
        "placeName": "KANATA",
        "streetNameDisplayText": "MCGIBBON DR, KANATA"
      }
    ]
  },
  {
    "postal": "K2L6K1",
    "result": []
  },
  {
    "postal": "K2L9X5",
    "result": []
  },
  {
    "postal": "K2L7S5",
    "result": []
  },
  {
    "postal": "K2L0A4",
    "result": []
  },
  {
    "postal": "K2L4T5",
    "result": []
  },
  {
    "postal": "K2L5K1",
    "result": []
  },
  {
    "postal": "K2L0Z9",
    "result": []
  },
  {
    "postal": "K2L7T2",
    "result": []
  },
  {
    "postal": "K2L1L5",
    "result": [
      {
        "electoralDistricts": [
          {
            "election": null,
            "id": 43,
            "name": "Kanata—Carleton"
          }
        ],
        "pollDivisionIds": [
          10138962
        ],
        "postalCode": "K2L1L5",
        "streetName": "GUILFORD",
        "streetDirectionId": null,
        "streetTypeId": "CRT",
        "placeName": "KANATA",
        "streetNameDisplayText": "GUILFORD CRT, KANATA"
      }
    ]
  },
  {
    "postal": "K2L3N5",
    "result": [
      {
        "electoralDistricts": [
          {
            "election": null,
            "id": 43,
            "name": "Kanata—Carleton"
          }
        ],
        "pollDivisionIds": [
          10138953
        ],
        "postalCode": "K2L3N5",
        "streetName": "BUJOLD",
        "streetDirectionId": null,
        "streetTypeId": "CRT",
        "placeName": "KANATA",
        "streetNameDisplayText": "BUJOLD CRT, KANATA"
      }
    ]
  },
  {
    "postal": "K2L6H4",
    "result": []
  },
  {
    "postal": "K2L5A5",
    "result": []
  },
  {
    "postal": "K2L3R9",
    "result": []
  },
  {
    "postal": "K2L7L8",
    "result": []
  },
  {
    "postal": "K2L6T6",
    "result": []
  },
  {
    "postal": "K2L7Y7",
    "result": []
  },
  {
    "postal": "K2L3M8",
    "result": [
      {
        "electoralDistricts": [
          {
            "election": null,
            "id": 43,
            "name": "Kanata—Carleton"
          }
        ],
        "pollDivisionIds": [
          10138953
        ],
        "postalCode": "K2L3M8",
        "streetName": "SHEARER",
        "streetDirectionId": null,
        "streetTypeId": "CRES",
        "placeName": "KANATA",
        "streetNameDisplayText": "SHEARER CRES, KANATA"
      }
    ]
  },
  {
    "postal": "K2L2E0",
    "result": []
  },
  {
    "postal": "K2L4B5",
    "result": [
      {
        "electoralDistricts": [
          {
            "election": null,
            "id": 43,
            "name": "Kanata—Carleton"
          }
        ],
        "pollDivisionIds": [
          10138955
        ],
        "postalCode": "K2L4B5",
        "streetName": "BRADLEY FARM",
        "streetDirectionId": null,
        "streetTypeId": "CRT",
        "placeName": "KANATA",
        "streetNameDisplayText": "BRADLEY FARM CRT, KANATA"
      }
    ]
  },
  {
    "postal": "K2L1J3",
    "result": [
      {
        "electoralDistricts": [
          {
            "election": null,
            "id": 43,
            "name": "Kanata—Carleton"
          }
        ],
        "pollDivisionIds": [
          10138955
        ],
        "postalCode": "K2L1J3",
        "streetName": "COUNTRY",
        "streetDirectionId": "W",
        "streetTypeId": "LANE",
        "placeName": "KANATA",
        "streetNameDisplayText": "COUNTRY LANE W, KANATA"
      }
    ]
  },
  {
    "postal": "K2L5S6",
    "result": []
  },
  {
    "postal": "K2L8P7",
    "result": []
  },
  {
    "postal": "K2L7S7",
    "result": []
  },
  {
    "postal": "K2L4C2",
    "result": [
      {
        "electoralDistricts": [
          {
            "election": null,
            "id": 43,
            "name": "Kanata—Carleton"
          }
        ],
        "pollDivisionIds": [
          10138949
        ],
        "postalCode": "K2L4C2",
        "streetName": "TERRY FOX",
        "streetDirectionId": null,
        "streetTypeId": "DR",
        "placeName": "KANATA",
        "streetNameDisplayText": "TERRY FOX DR, KANATA"
      }
    ]
  },
  {
    "postal": "K2L5Y0",
    "result": []
  },
  {
    "postal": "K2L2V7",
    "result": [
      {
        "electoralDistricts": [
          {
            "election": null,
            "id": 43,
            "name": "Kanata—Carleton"
          }
        ],
        "pollDivisionIds": [
          10138961
        ],
        "postalCode": "K2L2V7",
        "streetName": "DUNOON",
        "streetDirectionId": null,
        "streetTypeId": "PL",
        "placeName": "KANATA",
        "streetNameDisplayText": "DUNOON PL, KANATA"
      }
    ]
  },
  {
    "postal": "K2L8P5",
    "result": []
  },
  {
    "postal": "K2L5P5",
    "result": []
  },
  {
    "postal": "K2L5Z0",
    "result": []
  },
  {
    "postal": "K2L9B0",
    "result": []
  },
  {
    "postal": "K2L1L0",
    "result": []
  },
  {
    "postal": "K2L0B5",
    "result": []
  },
  {
    "postal": "K2L3L2",
    "result": [
      {
        "electoralDistricts": [
          {
            "election": null,
            "id": 43,
            "name": "Kanata—Carleton"
          }
        ],
        "pollDivisionIds": [
          10138949
        ],
        "postalCode": "K2L3L2",
        "streetName": "FESSENDEN",
        "streetDirectionId": null,
        "streetTypeId": "WAY",
        "placeName": "KANATA",
        "streetNameDisplayText": "FESSENDEN WAY, KANATA"
      },
      {
        "electoralDistricts": [
          {
            "election": null,
            "id": 43,
            "name": "Kanata—Carleton"
          }
        ],
        "pollDivisionIds": [
          10138949
        ],
        "postalCode": "K2L3L2",
        "streetName": "JARLAN",
        "streetDirectionId": null,
        "streetTypeId": "TERR",
        "placeName": "KANATA",
        "streetNameDisplayText": "JARLAN TERR, KANATA"
      }
    ]
  },
  {
    "postal": "K2L3B7",
    "result": []
  },
  {
    "postal": "K2L8L1",
    "result": []
  },
  {
    "postal": "K2L5M4",
    "result": []
  },
  {
    "postal": "K2L4G9",
    "result": [
      {
        "electoralDistricts": [
          {
            "election": null,
            "id": 43,
            "name": "Kanata—Carleton"
          }
        ],
        "pollDivisionIds": [
          10138962,
          10138961
        ],
        "postalCode": "K2L4G9",
        "streetName": "CASTLE GLEN",
        "streetDirectionId": null,
        "streetTypeId": "CRES",
        "placeName": "KANATA",
        "streetNameDisplayText": "CASTLE GLEN CRES, KANATA"
      }
    ]
  },
  {
    "postal": "K2L0P0",
    "result": []
  },
  {
    "postal": "K2L8G2",
    "result": []
  },
  {
    "postal": "K2L1V9",
    "result": [
      {
        "electoralDistricts": [
          {
            "election": null,
            "id": 43,
            "name": "Kanata—Carleton"
          }
        ],
        "pollDivisionIds": [
          10138959
        ],
        "postalCode": "K2L1V9",
        "streetName": "YOUNG",
        "streetDirectionId": null,
        "streetTypeId": "RD",
        "placeName": "KANATA",
        "streetNameDisplayText": "YOUNG RD, KANATA"
      }
    ]
  },
  {
    "postal": "K2L8N8",
    "result": []
  },
  {
    "postal": "K2L6S8",
    "result": []
  },
  {
    "postal": "K2L8H2",
    "result": []
  },
  {
    "postal": "K2L5R8",
    "result": []
  },
  {
    "postal": "K2L5L4",
    "result": []
  },
  {
    "postal": "K2L9E1",
    "result": []
  },
  {
    "postal": "K2L1C4",
    "result": [
      {
        "electoralDistricts": [
          {
            "election": null,
            "id": 43,
            "name": "Kanata—Carleton"
          }
        ],
        "pollDivisionIds": [
          10138955
        ],
        "postalCode": "K2L1C4",
        "streetName": "BANNING",
        "streetDirectionId": null,
        "streetTypeId": "RD",
        "placeName": "KANATA",
        "streetNameDisplayText": "BANNING RD, KANATA"
      }
    ]
  },
  {
    "postal": "K2L8W5",
    "result": []
  },
  {
    "postal": "K2L1Y4",
    "result": [
      {
        "electoralDistricts": [
          {
            "election": null,
            "id": 43,
            "name": "Kanata—Carleton"
          }
        ],
        "pollDivisionIds": [
          10138961
        ],
        "postalCode": "K2L1Y4",
        "streetName": "MCELROY",
        "streetDirectionId": null,
        "streetTypeId": "DR",
        "placeName": "KANATA",
        "streetNameDisplayText": "MCELROY DR, KANATA"
      }
    ]
  },
  {
    "postal": "K2L1C0",
    "result": []
  },
  {
    "postal": "K2L2J2",
    "result": [
      {
        "electoralDistricts": [
          {
            "election": null,
            "id": 43,
            "name": "Kanata—Carleton"
          }
        ],
        "pollDivisionIds": [
          10138949
        ],
        "postalCode": "K2L2J2",
        "streetName": "HAYWOOD",
        "streetDirectionId": null,
        "streetTypeId": "CRES",
        "placeName": "KANATA",
        "streetNameDisplayText": "HAYWOOD CRES, KANATA"
      }
    ]
  },
  {
    "postal": "K2L2J0",
    "result": []
  },
  {
    "postal": "K2L7A3",
    "result": []
  },
  {
    "postal": "K2L8M1",
    "result": []
  },
  {
    "postal": "K2L7T9",
    "result": []
  },
  {
    "postal": "K2L6C0",
    "result": []
  },
  {
    "postal": "K2L7X1",
    "result": []
  },
  {
    "postal": "K2L0G1",
    "result": []
  },
  {
    "postal": "K2L4X2",
    "result": []
  },
  {
    "postal": "K2L0N6",
    "result": []
  },
  {
    "postal": "K2L8E3",
    "result": []
  },
  {
    "postal": "K2L5S8",
    "result": []
  },
  {
    "postal": "K2L0R0",
    "result": []
  },
  {
    "postal": "K2L6J6",
    "result": []
  },
  {
    "postal": "K2L4B4",
    "result": [
      {
        "electoralDistricts": [
          {
            "election": null,
            "id": 43,
            "name": "Kanata—Carleton"
          }
        ],
        "pollDivisionIds": [
          10138955
        ],
        "postalCode": "K2L4B4",
        "streetName": "CASTLEFRANK",
        "streetDirectionId": null,
        "streetTypeId": "RD",
        "placeName": "KANATA",
        "streetNameDisplayText": "CASTLEFRANK RD, KANATA"
      }
    ]
  },
  {
    "postal": "K2L7E3",
    "result": []
  },
  {
    "postal": "K2L3N6",
    "result": [
      {
        "electoralDistricts": [
          {
            "election": null,
            "id": 43,
            "name": "Kanata—Carleton"
          }
        ],
        "pollDivisionIds": [
          10138953
        ],
        "postalCode": "K2L3N6",
        "streetName": "BUJOLD",
        "streetDirectionId": null,
        "streetTypeId": "CRT",
        "placeName": "KANATA",
        "streetNameDisplayText": "BUJOLD CRT, KANATA"
      }
    ]
  },
  {
    "postal": "K2L3X6",
    "result": [
      {
        "electoralDistricts": [
          {
            "election": null,
            "id": 43,
            "name": "Kanata—Carleton"
          }
        ],
        "pollDivisionIds": [
          10138953
        ],
        "postalCode": "K2L3X6",
        "streetName": "TANGUAY",
        "streetDirectionId": null,
        "streetTypeId": "CRT",
        "placeName": "KANATA",
        "streetNameDisplayText": "TANGUAY CRT, KANATA"
      }
    ]
  },
  {
    "postal": "K2L8L0",
    "result": []
  },
  {
    "postal": "K2L8N1",
    "result": []
  },
  {
    "postal": "K2L4J0",
    "result": []
  },
  {
    "postal": "K2L0X7",
    "result": []
  },
  {
    "postal": "K2L6S4",
    "result": []
  },
  {
    "postal": "K2L0Z0",
    "result": []
  },
  {
    "postal": "K2L9X8",
    "result": []
  },
  {
    "postal": "K2L3H3",
    "result": []
  },
  {
    "postal": "K2L7S2",
    "result": []
  },
  {
    "postal": "K2L3T3",
    "result": [
      {
        "electoralDistricts": [
          {
            "election": null,
            "id": 43,
            "name": "Kanata—Carleton"
          }
        ],
        "pollDivisionIds": [
          10138953
        ],
        "postalCode": "K2L3T3",
        "streetName": "ALMOND",
        "streetDirectionId": null,
        "streetTypeId": "LANE",
        "placeName": "KANATA",
        "streetNameDisplayText": "ALMOND LANE, KANATA"
      }
    ]
  },
  {
    "postal": "K2L9P3",
    "result": []
  },
  {
    "postal": "K2L4H8",
    "result": [
      {
        "electoralDistricts": [
          {
            "election": null,
            "id": 43,
            "name": "Kanata—Carleton"
          }
        ],
        "pollDivisionIds": [
          10138976
        ],
        "postalCode": "K2L4H8",
        "streetName": "AIRD",
        "streetDirectionId": null,
        "streetTypeId": "PL",
        "placeName": "KANATA",
        "streetNameDisplayText": "AIRD PL, KANATA"
      }
    ]
  },
  {
    "postal": "K2L6R1",
    "result": []
  },
  {
    "postal": "K2L1S0",
    "result": []
  },
  {
    "postal": "K2L3W8",
    "result": [
      {
        "electoralDistricts": [
          {
            "election": null,
            "id": 43,
            "name": "Kanata—Carleton"
          }
        ],
        "pollDivisionIds": [
          10138953
        ],
        "postalCode": "K2L3W8",
        "streetName": "TANGUAY",
        "streetDirectionId": null,
        "streetTypeId": "CRT",
        "placeName": "KANATA",
        "streetNameDisplayText": "TANGUAY CRT, KANATA"
      }
    ]
  },
  {
    "postal": "K2L4S3",
    "result": []
  },
  {
    "postal": "K2L1B6",
    "result": [
      {
        "electoralDistricts": [
          {
            "election": null,
            "id": 43,
            "name": "Kanata—Carleton"
          }
        ],
        "pollDivisionIds": [
          10138955
        ],
        "postalCode": "K2L1B6",
        "streetName": "BRACO",
        "streetDirectionId": null,
        "streetTypeId": "ST",
        "placeName": "KANATA",
        "streetNameDisplayText": "BRACO ST, KANATA"
      }
    ]
  },
  {
    "postal": "K2L8R3",
    "result": []
  },
  {
    "postal": "K2L4V9",
    "result": []
  },
  {
    "postal": "K2L9W4",
    "result": []
  },
  {
    "postal": "K2L3T4",
    "result": [
      {
        "electoralDistricts": [
          {
            "election": null,
            "id": 43,
            "name": "Kanata—Carleton"
          }
        ],
        "pollDivisionIds": [
          10138953
        ],
        "postalCode": "K2L3T4",
        "streetName": "ALMOND",
        "streetDirectionId": null,
        "streetTypeId": "LANE",
        "placeName": "KANATA",
        "streetNameDisplayText": "ALMOND LANE, KANATA"
      }
    ]
  },
  {
    "postal": "K2L5C7",
    "result": []
  },
  {
    "postal": "K2L3Y1",
    "result": [
      {
        "electoralDistricts": [
          {
            "election": null,
            "id": 43,
            "name": "Kanata—Carleton"
          }
        ],
        "pollDivisionIds": [
          10138953
        ],
        "postalCode": "K2L3Y1",
        "streetName": "BELLEVIEW",
        "streetDirectionId": null,
        "streetTypeId": "DR",
        "placeName": "KANATA",
        "streetNameDisplayText": "BELLEVIEW DR, KANATA"
      }
    ]
  },
  {
    "postal": "K2L5V0",
    "result": []
  },
  {
    "postal": "K2L8G8",
    "result": []
  },
  {
    "postal": "K2L8B1",
    "result": []
  },
  {
    "postal": "K2L4P5",
    "result": []
  },
  {
    "postal": "K2L7B2",
    "result": []
  },
  {
    "postal": "K2L0R2",
    "result": []
  },
  {
    "postal": "K2L4M4",
    "result": []
  },
  {
    "postal": "K2L7M4",
    "result": []
  },
  {
    "postal": "K2L9S7",
    "result": []
  },
  {
    "postal": "K2L5Z7",
    "result": []
  },
  {
    "postal": "K2L7J7",
    "result": []
  },
  {
    "postal": "K2L8R8",
    "result": []
  },
  {
    "postal": "K2L9X1",
    "result": []
  },
  {
    "postal": "K2L5M9",
    "result": []
  },
  {
    "postal": "K2L9B4",
    "result": []
  },
  {
    "postal": "K2L0L9",
    "result": []
  },
  {
    "postal": "K2L9G4",
    "result": []
  },
  {
    "postal": "K2L1J4",
    "result": [
      {
        "electoralDistricts": [
          {
            "election": null,
            "id": 43,
            "name": "Kanata—Carleton"
          }
        ],
        "pollDivisionIds": [
          10138955
        ],
        "postalCode": "K2L1J4",
        "streetName": "COUNTRY",
        "streetDirectionId": "W",
        "streetTypeId": "LANE",
        "placeName": "KANATA",
        "streetNameDisplayText": "COUNTRY LANE W, KANATA"
      }
    ]
  },
  {
    "postal": "K2L0W6",
    "result": []
  },
  {
    "postal": "K2L4C5",
    "result": [
      {
        "electoralDistricts": [
          {
            "election": null,
            "id": 43,
            "name": "Kanata—Carleton"
          }
        ],
        "pollDivisionIds": [
          10138953
        ],
        "postalCode": "K2L4C5",
        "streetName": "MARCASITE",
        "streetDirectionId": null,
        "streetTypeId": "RD",
        "placeName": "KANATA",
        "streetNameDisplayText": "MARCASITE RD, KANATA"
      }
    ]
  },
  {
    "postal": "K2L7E4",
    "result": []
  },
  {
    "postal": "K2L1R9",
    "result": [
      {
        "electoralDistricts": [
          {
            "election": null,
            "id": 43,
            "name": "Kanata—Carleton"
          }
        ],
        "pollDivisionIds": [
          10138961
        ],
        "postalCode": "K2L1R9",
        "streetName": "BINSCARTH",
        "streetDirectionId": null,
        "streetTypeId": "CRES",
        "placeName": "KANATA",
        "streetNameDisplayText": "BINSCARTH CRES, KANATA"
      }
    ]
  },
  {
    "postal": "K2L2P0",
    "result": []
  },
  {
    "postal": "K2L5S4",
    "result": []
  },
  {
    "postal": "K2L5K8",
    "result": []
  },
  {
    "postal": "K2L8K4",
    "result": []
  },
  {
    "postal": "K2L7C1",
    "result": []
  },
  {
    "postal": "K2L7K9",
    "result": []
  },
  {
    "postal": "K2L5J1",
    "result": []
  },
  {
    "postal": "K2L4P9",
    "result": []
  },
  {
    "postal": "K2L0N2",
    "result": []
  },
  {
    "postal": "K2L2G6",
    "result": [
      {
        "electoralDistricts": [
          {
            "election": null,
            "id": 43,
            "name": "Kanata—Carleton"
          }
        ],
        "pollDivisionIds": [
          10138953
        ],
        "postalCode": "K2L2G6",
        "streetName": "BYRD",
        "streetDirectionId": null,
        "streetTypeId": "CRES",
        "placeName": "KANATA",
        "streetNameDisplayText": "BYRD CRES, KANATA"
      }
    ]
  },
  {
    "postal": "K2L6P4",
    "result": []
  },
  {
    "postal": "K2L3J0",
    "result": []
  },
  {
    "postal": "K2L8X4",
    "result": []
  },
  {
    "postal": "K2L1Y3",
    "result": [
      {
        "electoralDistricts": [
          {
            "election": null,
            "id": 43,
            "name": "Kanata—Carleton"
          }
        ],
        "pollDivisionIds": [
          10138961
        ],
        "postalCode": "K2L1Y3",
        "streetName": "MCELROY",
        "streetDirectionId": null,
        "streetTypeId": "DR",
        "placeName": "KANATA",
        "streetNameDisplayText": "MCELROY DR, KANATA"
      }
    ]
  },
  {
    "postal": "K2L1A8",
    "result": []
  },
  {
    "postal": "K2L6Y5",
    "result": []
  },
  {
    "postal": "K2L0J6",
    "result": []
  },
  {
    "postal": "K2L2C9",
    "result": [
      {
        "electoralDistricts": [
          {
            "election": null,
            "id": 43,
            "name": "Kanata—Carleton"
          }
        ],
        "pollDivisionIds": [
          10138952,
          10138960
        ],
        "postalCode": "K2L2C9",
        "streetName": "WINCHESTER",
        "streetDirectionId": null,
        "streetTypeId": "DR",
        "placeName": "KANATA",
        "streetNameDisplayText": "WINCHESTER DR, KANATA"
      }
    ]
  },
  {
    "postal": "K2L8J6",
    "result": []
  },
  {
    "postal": "K2L8T4",
    "result": []
  },
  {
    "postal": "K2L1P7",
    "result": [
      {
        "electoralDistricts": [
          {
            "election": null,
            "id": 43,
            "name": "Kanata—Carleton"
          }
        ],
        "pollDivisionIds": [
          10138961
        ],
        "postalCode": "K2L1P7",
        "streetName": "DUNDEGAN",
        "streetDirectionId": null,
        "streetTypeId": "DR",
        "placeName": "KANATA",
        "streetNameDisplayText": "DUNDEGAN DR, KANATA"
      }
    ]
  },
  {
    "postal": "K2L9V9",
    "result": []
  },
  {
    "postal": "K2L0M1",
    "result": []
  },
  {
    "postal": "K2L6K5",
    "result": []
  },
  {
    "postal": "K2L2T5",
    "result": [
      {
        "electoralDistricts": [
          {
            "election": null,
            "id": 43,
            "name": "Kanata—Carleton"
          }
        ],
        "pollDivisionIds": [
          10138960
        ],
        "postalCode": "K2L2T5",
        "streetName": "GOWRIE",
        "streetDirectionId": null,
        "streetTypeId": "DR",
        "placeName": "KANATA",
        "streetNameDisplayText": "GOWRIE DR, KANATA"
      }
    ]
  },
  {
    "postal": "K2L7E9",
    "result": []
  },
  {
    "postal": "K2L5K5",
    "result": []
  },
  {
    "postal": "K2L3R5",
    "result": [
      {
        "electoralDistricts": [
          {
            "election": null,
            "id": 43,
            "name": "Kanata—Carleton"
          }
        ],
        "pollDivisionIds": [
          10138953
        ],
        "postalCode": "K2L3R5",
        "streetName": "PICKFORD",
        "streetDirectionId": null,
        "streetTypeId": "DR",
        "placeName": "KANATA",
        "streetNameDisplayText": "PICKFORD DR, KANATA"
      }
    ]
  },
  {
    "postal": "K2L5B1",
    "result": []
  },
  {
    "postal": "K2L2P1",
    "result": [
      {
        "electoralDistricts": [
          {
            "election": null,
            "id": 43,
            "name": "Kanata—Carleton"
          }
        ],
        "pollDivisionIds": [
          10138954
        ],
        "postalCode": "K2L2P1",
        "streetName": "EAGLESON",
        "streetDirectionId": null,
        "streetTypeId": "RD",
        "placeName": "KANATA",
        "streetNameDisplayText": "EAGLESON RD, KANATA"
      }
    ]
  },
  {
    "postal": "K2L7L0",
    "result": []
  },
  {
    "postal": "K2L3L6",
    "result": [
      {
        "electoralDistricts": [
          {
            "election": null,
            "id": 43,
            "name": "Kanata—Carleton"
          }
        ],
        "pollDivisionIds": [
          10138949
        ],
        "postalCode": "K2L3L6",
        "streetName": "JARLAN",
        "streetDirectionId": null,
        "streetTypeId": "TERR",
        "placeName": "KANATA",
        "streetNameDisplayText": "JARLAN TERR, KANATA"
      }
    ]
  },
  {
    "postal": "K2L2A4",
    "result": [
      {
        "electoralDistricts": [
          {
            "election": null,
            "id": 43,
            "name": "Kanata—Carleton"
          }
        ],
        "pollDivisionIds": [
          10138949
        ],
        "postalCode": "K2L2A4",
        "streetName": "MCCLINTOCK",
        "streetDirectionId": null,
        "streetTypeId": "WAY",
        "placeName": "KANATA",
        "streetNameDisplayText": "MCCLINTOCK WAY, KANATA"
      }
    ]
  },
  {
    "postal": "K2L8S0",
    "result": []
  },
  {
    "postal": "K2L3L5",
    "result": [
      {
        "electoralDistricts": [
          {
            "election": null,
            "id": 43,
            "name": "Kanata—Carleton"
          }
        ],
        "pollDivisionIds": [
          10138949
        ],
        "postalCode": "K2L3L5",
        "streetName": "JARLAN",
        "streetDirectionId": null,
        "streetTypeId": "TERR",
        "placeName": "KANATA",
        "streetNameDisplayText": "JARLAN TERR, KANATA"
      }
    ]
  },
  {
    "postal": "K2L2R5",
    "result": [
      {
        "electoralDistricts": [
          {
            "election": null,
            "id": 43,
            "name": "Kanata—Carleton"
          }
        ],
        "pollDivisionIds": [
          10138960
        ],
        "postalCode": "K2L2R5",
        "streetName": "SEABROOKE",
        "streetDirectionId": null,
        "streetTypeId": "DR",
        "placeName": "KANATA",
        "streetNameDisplayText": "SEABROOKE DR, KANATA"
      }
    ]
  },
  {
    "postal": "K2L9T6",
    "result": []
  },
  {
    "postal": "K2L8Z2",
    "result": []
  },
  {
    "postal": "K2L0E9",
    "result": []
  },
  {
    "postal": "K2L8C0",
    "result": []
  },
  {
    "postal": "K2L3K7",
    "result": [
      {
        "electoralDistricts": [
          {
            "election": null,
            "id": 43,
            "name": "Kanata—Carleton"
          }
        ],
        "pollDivisionIds": [
          10138954
        ],
        "postalCode": "K2L3K7",
        "streetName": "STRATAS",
        "streetDirectionId": null,
        "streetTypeId": "CRT",
        "placeName": "KANATA",
        "streetNameDisplayText": "STRATAS CRT, KANATA"
      }
    ]
  },
  {
    "postal": "K2L2H3",
    "result": [
      {
        "electoralDistricts": [
          {
            "election": null,
            "id": 43,
            "name": "Kanata—Carleton"
          }
        ],
        "pollDivisionIds": [
          10138949
        ],
        "postalCode": "K2L2H3",
        "streetName": "MCCLURE",
        "streetDirectionId": null,
        "streetTypeId": "CRES",
        "placeName": "KANATA",
        "streetNameDisplayText": "MCCLURE CRES, KANATA"
      }
    ]
  },
  {
    "postal": "K2L2Y6",
    "result": [
      {
        "electoralDistricts": [
          {
            "election": null,
            "id": 43,
            "name": "Kanata—Carleton"
          }
        ],
        "pollDivisionIds": [
          10138955
        ],
        "postalCode": "K2L2Y6",
        "streetName": "TORCASTLE",
        "streetDirectionId": null,
        "streetTypeId": "WAY",
        "placeName": "KANATA",
        "streetNameDisplayText": "TORCASTLE WAY, KANATA"
      }
    ]
  },
  {
    "postal": "K2L7M2",
    "result": []
  },
  {
    "postal": "K2L6E2",
    "result": []
  },
  {
    "postal": "K2L3R0",
    "result": []
  },
  {
    "postal": "K2L4J7",
    "result": []
  },
  {
    "postal": "K2L6N8",
    "result": []
  },
  {
    "postal": "K2L0J7",
    "result": []
  },
  {
    "postal": "K2L7P2",
    "result": []
  },
  {
    "postal": "K2L3T8",
    "result": [
      {
        "electoralDistricts": [
          {
            "election": null,
            "id": 43,
            "name": "Kanata—Carleton"
          }
        ],
        "pollDivisionIds": [
          10138954
        ],
        "postalCode": "K2L3T8",
        "streetName": "DURBIN",
        "streetDirectionId": null,
        "streetTypeId": "CRT",
        "placeName": "KANATA",
        "streetNameDisplayText": "DURBIN CRT, KANATA"
      }
    ]
  },
  {
    "postal": "K2L3S7",
    "result": [
      {
        "electoralDistricts": [
          {
            "election": null,
            "id": 43,
            "name": "Kanata—Carleton"
          }
        ],
        "pollDivisionIds": [
          10138953
        ],
        "postalCode": "K2L3S7",
        "streetName": "PICKFORD",
        "streetDirectionId": null,
        "streetTypeId": "DR",
        "placeName": "KANATA",
        "streetNameDisplayText": "PICKFORD DR, KANATA"
      }
    ]
  },
  {
    "postal": "K2L2S7",
    "result": [
      {
        "electoralDistricts": [
          {
            "election": null,
            "id": 43,
            "name": "Kanata—Carleton"
          }
        ],
        "pollDivisionIds": [
          10138959
        ],
        "postalCode": "K2L2S7",
        "streetName": "MAPLE GROVE",
        "streetDirectionId": null,
        "streetTypeId": "RD",
        "placeName": "KANATA",
        "streetNameDisplayText": "MAPLE GROVE RD, KANATA"
      }
    ]
  },
  {
    "postal": "K2L1S4",
    "result": [
      {
        "electoralDistricts": [
          {
            "election": null,
            "id": 43,
            "name": "Kanata—Carleton"
          }
        ],
        "pollDivisionIds": [
          10138961
        ],
        "postalCode": "K2L1S4",
        "streetName": "LAURIE",
        "streetDirectionId": null,
        "streetTypeId": "CRT",
        "placeName": "KANATA",
        "streetNameDisplayText": "LAURIE CRT, KANATA"
      }
    ]
  },
  {
    "postal": "K2L1L8",
    "result": [
      {
        "electoralDistricts": [
          {
            "election": null,
            "id": 43,
            "name": "Kanata—Carleton"
          }
        ],
        "pollDivisionIds": [
          10138962
        ],
        "postalCode": "K2L1L8",
        "streetName": "COURTNEY",
        "streetDirectionId": null,
        "streetTypeId": "RD",
        "placeName": "KANATA",
        "streetNameDisplayText": "COURTNEY RD, KANATA"
      }
    ]
  },
  {
    "postal": "K2L8E9",
    "result": []
  },
  {
    "postal": "K2L0T0",
    "result": []
  },
  {
    "postal": "K2L3G4",
    "result": [
      {
        "electoralDistricts": [
          {
            "election": null,
            "id": 43,
            "name": "Kanata—Carleton"
          }
        ],
        "pollDivisionIds": [
          10138952
        ],
        "postalCode": "K2L3G4",
        "streetName": "DRESSLER",
        "streetDirectionId": null,
        "streetTypeId": "DR",
        "placeName": "KANATA",
        "streetNameDisplayText": "DRESSLER DR, KANATA"
      }
    ]
  },
  {
    "postal": "K2L0V6",
    "result": []
  },
  {
    "postal": "K2L4W1",
    "result": []
  },
  {
    "postal": "K2L9G9",
    "result": []
  },
  {
    "postal": "K2L5W4",
    "result": []
  },
  {
    "postal": "K2L7M8",
    "result": []
  },
  {
    "postal": "K2L2C2",
    "result": [
      {
        "electoralDistricts": [
          {
            "election": null,
            "id": 43,
            "name": "Kanata—Carleton"
          }
        ],
        "pollDivisionIds": [
          10138954
        ],
        "postalCode": "K2L2C2",
        "streetName": "PICKFORD",
        "streetDirectionId": null,
        "streetTypeId": "DR",
        "placeName": "KANATA",
        "streetNameDisplayText": "PICKFORD DR, KANATA"
      }
    ]
  },
  {
    "postal": "K2L4Y2",
    "result": []
  },
  {
    "postal": "K2L9X9",
    "result": []
  },
  {
    "postal": "K2L3T0",
    "result": []
  },
  {
    "postal": "K2L4T8",
    "result": []
  },
  {
    "postal": "K2L9C4",
    "result": []
  },
  {
    "postal": "K2L8P2",
    "result": []
  },
  {
    "postal": "K2L0Y8",
    "result": []
  },
  {
    "postal": "K2L1G8",
    "result": [
      {
        "electoralDistricts": [
          {
            "election": null,
            "id": 43,
            "name": "Kanata—Carleton"
          }
        ],
        "pollDivisionIds": [
          10138955
        ],
        "postalCode": "K2L1G8",
        "streetName": "BALBAIR",
        "streetDirectionId": null,
        "streetTypeId": "RD",
        "placeName": "KANATA",
        "streetNameDisplayText": "BALBAIR RD, KANATA"
      }
    ]
  },
  {
    "postal": "K2L2T6",
    "result": []
  },
  {
    "postal": "K2L1N7",
    "result": [
      {
        "electoralDistricts": [
          {
            "election": null,
            "id": 43,
            "name": "Kanata—Carleton"
          }
        ],
        "pollDivisionIds": [
          10138962
        ],
        "postalCode": "K2L1N7",
        "streetName": "ROTHESAY",
        "streetDirectionId": null,
        "streetTypeId": "DR",
        "placeName": "KANATA",
        "streetNameDisplayText": "ROTHESAY DR, KANATA"
      }
    ]
  },
  {
    "postal": "K2L0L6",
    "result": []
  },
  {
    "postal": "K2L9V4",
    "result": []
  },
  {
    "postal": "K2L2V1",
    "result": [
      {
        "electoralDistricts": [
          {
            "election": null,
            "id": 43,
            "name": "Kanata—Carleton"
          }
        ],
        "pollDivisionIds": [
          10138953
        ],
        "postalCode": "K2L2V1",
        "streetName": "BERNIER",
        "streetDirectionId": null,
        "streetTypeId": "TERR",
        "placeName": "KANATA",
        "streetNameDisplayText": "BERNIER TERR, KANATA"
      }
    ]
  },
  {
    "postal": "K2L3L8",
    "result": [
      {
        "electoralDistricts": [
          {
            "election": null,
            "id": 43,
            "name": "Kanata—Carleton"
          }
        ],
        "pollDivisionIds": [
          10138952
        ],
        "postalCode": "K2L3L8",
        "streetName": "LIGHTFOOT",
        "streetDirectionId": null,
        "streetTypeId": "PL",
        "placeName": "KANATA",
        "streetNameDisplayText": "LIGHTFOOT PL, KANATA"
      }
    ]
  },
  {
    "postal": "K2L2R8",
    "result": [
      {
        "electoralDistricts": [
          {
            "election": null,
            "id": 43,
            "name": "Kanata—Carleton"
          }
        ],
        "pollDivisionIds": [
          10138960
        ],
        "postalCode": "K2L2R8",
        "streetName": "BARRA",
        "streetDirectionId": null,
        "streetTypeId": "AVE",
        "placeName": "KANATA",
        "streetNameDisplayText": "BARRA AVE, KANATA"
      }
    ]
  },
  {
    "postal": "K2L5C1",
    "result": []
  },
  {
    "postal": "K2L4W3",
    "result": []
  },
  {
    "postal": "K2L5X5",
    "result": []
  },
  {
    "postal": "K2L9W5",
    "result": []
  },
  {
    "postal": "K2L3C4",
    "result": []
  },
  {
    "postal": "K2L1N6",
    "result": [
      {
        "electoralDistricts": [
          {
            "election": null,
            "id": 43,
            "name": "Kanata—Carleton"
          }
        ],
        "pollDivisionIds": [
          10138962
        ],
        "postalCode": "K2L1N6",
        "streetName": "ROTHESAY",
        "streetDirectionId": null,
        "streetTypeId": "DR",
        "placeName": "KANATA",
        "streetNameDisplayText": "ROTHESAY DR, KANATA"
      }
    ]
  },
  {
    "postal": "K2L9S9",
    "result": []
  },
  {
    "postal": "K2L9M2",
    "result": []
  },
  {
    "postal": "K2L8Y4",
    "result": []
  },
  {
    "postal": "K2L7S4",
    "result": []
  },
  {
    "postal": "K2L0K6",
    "result": []
  },
  {
    "postal": "K2L1W3",
    "result": [
      {
        "electoralDistricts": [
          {
            "election": null,
            "id": 43,
            "name": "Kanata—Carleton"
          }
        ],
        "pollDivisionIds": [
          10138953
        ],
        "postalCode": "K2L1W3",
        "streetName": "BELLEVIEW",
        "streetDirectionId": null,
        "streetTypeId": "DR",
        "placeName": "KANATA",
        "streetNameDisplayText": "BELLEVIEW DR, KANATA"
      }
    ]
  },
  {
    "postal": "K2L7R2",
    "result": []
  },
  {
    "postal": "K2L2Y9",
    "result": [
      {
        "electoralDistricts": [
          {
            "election": null,
            "id": 43,
            "name": "Kanata—Carleton"
          }
        ],
        "pollDivisionIds": [
          10138955
        ],
        "postalCode": "K2L2Y9",
        "streetName": "DALRIADA",
        "streetDirectionId": null,
        "streetTypeId": "LANE",
        "placeName": "KANATA",
        "streetNameDisplayText": "DALRIADA LANE, KANATA"
      }
    ]
  },
  {
    "postal": "K2L7G4",
    "result": []
  },
  {
    "postal": "K2L7E5",
    "result": []
  },
  {
    "postal": "K2L9G2",
    "result": []
  },
  {
    "postal": "K2L7Y8",
    "result": []
  },
  {
    "postal": "K2L9V2",
    "result": []
  },
  {
    "postal": "K2L3T7",
    "result": [
      {
        "electoralDistricts": [
          {
            "election": null,
            "id": 43,
            "name": "Kanata—Carleton"
          }
        ],
        "pollDivisionIds": [
          10138954
        ],
        "postalCode": "K2L3T7",
        "streetName": "DURBIN",
        "streetDirectionId": null,
        "streetTypeId": "CRT",
        "placeName": "KANATA",
        "streetNameDisplayText": "DURBIN CRT, KANATA"
      }
    ]
  },
  {
    "postal": "K2L1H0",
    "result": []
  },
  {
    "postal": "K2L1M7",
    "result": [
      {
        "electoralDistricts": [
          {
            "election": null,
            "id": 43,
            "name": "Kanata—Carleton"
          }
        ],
        "pollDivisionIds": [
          10138962
        ],
        "postalCode": "K2L1M7",
        "streetName": "OLD COLONY",
        "streetDirectionId": null,
        "streetTypeId": "RD",
        "placeName": "KANATA",
        "streetNameDisplayText": "OLD COLONY RD, KANATA"
      }
    ]
  },
  {
    "postal": "K2L8V4",
    "result": []
  },
  {
    "postal": "K2L4M2",
    "result": []
  },
  {
    "postal": "K2L0X2",
    "result": []
  },
  {
    "postal": "K2L5Z4",
    "result": []
  },
  {
    "postal": "K2L6V4",
    "result": []
  },
  {
    "postal": "K2L8J3",
    "result": []
  },
  {
    "postal": "K2L8E5",
    "result": []
  },
  {
    "postal": "K2L2V5",
    "result": [
      {
        "electoralDistricts": [
          {
            "election": null,
            "id": 43,
            "name": "Kanata—Carleton"
          }
        ],
        "pollDivisionIds": [
          10138949
        ],
        "postalCode": "K2L2V5",
        "streetName": "DOREY",
        "streetDirectionId": null,
        "streetTypeId": "CRT",
        "placeName": "KANATA",
        "streetNameDisplayText": "DOREY CRT, KANATA"
      }
    ]
  },
  {
    "postal": "K2L7S1",
    "result": []
  },
  {
    "postal": "K2L6V3",
    "result": []
  },
  {
    "postal": "K2L2L8",
    "result": [
      {
        "electoralDistricts": [
          {
            "election": null,
            "id": 43,
            "name": "Kanata—Carleton"
          }
        ],
        "pollDivisionIds": [
          10138959
        ],
        "postalCode": "K2L2L8",
        "streetName": "FORBES",
        "streetDirectionId": null,
        "streetTypeId": "AVE",
        "placeName": "KANATA",
        "streetNameDisplayText": "FORBES AVE, KANATA"
      }
    ]
  },
  {
    "postal": "K2L9V0",
    "result": []
  },
  {
    "postal": "K2L3M4",
    "result": [
      {
        "electoralDistricts": [
          {
            "election": null,
            "id": 43,
            "name": "Kanata—Carleton"
          }
        ],
        "pollDivisionIds": [
          10138952
        ],
        "postalCode": "K2L3M4",
        "streetName": "LIGHTFOOT",
        "streetDirectionId": null,
        "streetTypeId": "PL",
        "placeName": "KANATA",
        "streetNameDisplayText": "LIGHTFOOT PL, KANATA"
      }
    ]
  },
  {
    "postal": "K2L5B2",
    "result": []
  },
  {
    "postal": "K2L3X5",
    "result": [
      {
        "electoralDistricts": [
          {
            "election": null,
            "id": 43,
            "name": "Kanata—Carleton"
          }
        ],
        "pollDivisionIds": [
          10138953
        ],
        "postalCode": "K2L3X5",
        "streetName": "TANGUAY",
        "streetDirectionId": null,
        "streetTypeId": "CRT",
        "placeName": "KANATA",
        "streetNameDisplayText": "TANGUAY CRT, KANATA"
      }
    ]
  },
  {
    "postal": "K2L9R7",
    "result": []
  },
  {
    "postal": "K2L2X2",
    "result": [
      {
        "electoralDistricts": [
          {
            "election": null,
            "id": 43,
            "name": "Kanata—Carleton"
          }
        ],
        "pollDivisionIds": [
          10138959
        ],
        "postalCode": "K2L2X2",
        "streetName": "YOUNG",
        "streetDirectionId": null,
        "streetTypeId": "RD",
        "placeName": "KANATA",
        "streetNameDisplayText": "YOUNG RD, KANATA"
      }
    ]
  },
  {
    "postal": "K2L8Z6",
    "result": []
  },
  {
    "postal": "K2L4R4",
    "result": []
  },
  {
    "postal": "K2L2R1",
    "result": [
      {
        "electoralDistricts": [
          {
            "election": null,
            "id": 43,
            "name": "Kanata—Carleton"
          }
        ],
        "pollDivisionIds": [
          10138959
        ],
        "postalCode": "K2L2R1",
        "streetName": "CURRAN",
        "streetDirectionId": null,
        "streetTypeId": "ST",
        "placeName": "KANATA",
        "streetNameDisplayText": "CURRAN ST, KANATA"
      }
    ]
  },
  {
    "postal": "K2L3R8",
    "result": [
      {
        "electoralDistricts": [
          {
            "election": null,
            "id": 43,
            "name": "Kanata—Carleton"
          }
        ],
        "pollDivisionIds": [
          10138965,
          10138953
        ],
        "postalCode": "K2L3R8",
        "streetName": "BERTON",
        "streetDirectionId": null,
        "streetTypeId": "PL",
        "placeName": "KANATA",
        "streetNameDisplayText": "BERTON PL, KANATA"
      },
      {
        "electoralDistricts": [
          {
            "election": null,
            "id": 43,
            "name": "Kanata—Carleton"
          }
        ],
        "pollDivisionIds": [
          10138953
        ],
        "postalCode": "K2L3R8",
        "streetName": "DECARLO",
        "streetDirectionId": null,
        "streetTypeId": "GDNS",
        "placeName": "KANATA",
        "streetNameDisplayText": "DECARLO GDNS, KANATA"
      }
    ]
  },
  {
    "postal": "K2L9A1",
    "result": []
  },
  {
    "postal": "K2L8L3",
    "result": []
  },
  {
    "postal": "K2L9K4",
    "result": []
  },
  {
    "postal": "K2L9S3",
    "result": []
  },
  {
    "postal": "K2L8N7",
    "result": []
  },
  {
    "postal": "K2L1C6",
    "result": [
      {
        "electoralDistricts": [
          {
            "election": null,
            "id": 43,
            "name": "Kanata—Carleton"
          }
        ],
        "pollDivisionIds": [
          10138955
        ],
        "postalCode": "K2L1C6",
        "streetName": "ABBOTSFORD",
        "streetDirectionId": null,
        "streetTypeId": "RD",
        "placeName": "KANATA",
        "streetNameDisplayText": "ABBOTSFORD RD, KANATA"
      }
    ]
  },
  {
    "postal": "K2L3Z8",
    "result": [
      {
        "electoralDistricts": [
          {
            "election": null,
            "id": 43,
            "name": "Kanata—Carleton"
          }
        ],
        "pollDivisionIds": [
          10138949
        ],
        "postalCode": "K2L3Z8",
        "streetName": "CONANT",
        "streetDirectionId": null,
        "streetTypeId": "PL",
        "placeName": "KANATA",
        "streetNameDisplayText": "CONANT PL, KANATA"
      },
      {
        "electoralDistricts": [
          {
            "election": null,
            "id": 43,
            "name": "Kanata—Carleton"
          }
        ],
        "pollDivisionIds": [
          10138949
        ],
        "postalCode": "K2L3Z8",
        "streetName": "MCGIBBON",
        "streetDirectionId": null,
        "streetTypeId": "DR",
        "placeName": "KANATA",
        "streetNameDisplayText": "MCGIBBON DR, KANATA"
      }
    ]
  },
  {
    "postal": "K2L8G5",
    "result": []
  },
  {
    "postal": "K2L5R6",
    "result": []
  },
  {
    "postal": "K2L2W3",
    "result": [
      {
        "electoralDistricts": [
          {
            "election": null,
            "id": 43,
            "name": "Kanata—Carleton"
          }
        ],
        "pollDivisionIds": [
          10138949
        ],
        "postalCode": "K2L2W3",
        "streetName": "LISTON",
        "streetDirectionId": null,
        "streetTypeId": "CRES",
        "placeName": "KANATA",
        "streetNameDisplayText": "LISTON CRES, KANATA"
      }
    ]
  },
  {
    "postal": "K2L0A0",
    "result": []
  },
  {
    "postal": "K2L6P8",
    "result": []
  },
  {
    "postal": "K2L8N9",
    "result": []
  },
  {
    "postal": "K2L0S9",
    "result": []
  },
  {
    "postal": "K2L8G0",
    "result": []
  },
  {
    "postal": "K2L8C7",
    "result": []
  },
  {
    "postal": "K2L5X8",
    "result": []
  },
  {
    "postal": "K2L7E8",
    "result": []
  },
  {
    "postal": "K2L6X2",
    "result": []
  },
  {
    "postal": "K2L4C6",
    "result": [
      {
        "electoralDistricts": [
          {
            "election": null,
            "id": 43,
            "name": "Kanata—Carleton"
          }
        ],
        "pollDivisionIds": [
          10138954
        ],
        "postalCode": "K2L4C6",
        "streetName": "HAZELDEAN",
        "streetDirectionId": null,
        "streetTypeId": "RD",
        "placeName": "KANATA",
        "streetNameDisplayText": "HAZELDEAN RD, KANATA"
      }
    ]
  },
  {
    "postal": "K2L7H2",
    "result": []
  },
  {
    "postal": "K2L4R0",
    "result": []
  },
  {
    "postal": "K2L6J3",
    "result": []
  },
  {
    "postal": "K2L4B8",
    "result": [
      {
        "electoralDistricts": [
          {
            "election": null,
            "id": 43,
            "name": "Kanata—Carleton"
          }
        ],
        "pollDivisionIds": [
          10138952
        ],
        "postalCode": "K2L4B8",
        "streetName": "HAZELDEAN",
        "streetDirectionId": null,
        "streetTypeId": "RD",
        "placeName": "KANATA",
        "streetNameDisplayText": "HAZELDEAN RD, KANATA"
      }
    ]
  },
  {
    "postal": "K2L6H6",
    "result": []
  },
  {
    "postal": "K2L0S1",
    "result": []
  },
  {
    "postal": "K2L4E3",
    "result": [
      {
        "electoralDistricts": [
          {
            "election": null,
            "id": 43,
            "name": "Kanata—Carleton"
          }
        ],
        "pollDivisionIds": [
          10138952
        ],
        "postalCode": "K2L4E3",
        "streetName": "MACNEIL",
        "streetDirectionId": null,
        "streetTypeId": "CRT",
        "placeName": "KANATA",
        "streetNameDisplayText": "MACNEIL CRT, KANATA"
      }
    ]
  },
  {
    "postal": "K2L7K2",
    "result": []
  },
  {
    "postal": "K2L7T8",
    "result": []
  },
  {
    "postal": "K2L0J9",
    "result": []
  },
  {
    "postal": "K2L5J9",
    "result": []
  },
  {
    "postal": "K2L5S7",
    "result": []
  },
  {
    "postal": "K2L0G9",
    "result": []
  },
  {
    "postal": "K2L3J9",
    "result": [
      {
        "electoralDistricts": [
          {
            "election": null,
            "id": 43,
            "name": "Kanata—Carleton"
          }
        ],
        "pollDivisionIds": [
          10138952
        ],
        "postalCode": "K2L3J9",
        "streetName": "DRAINIE",
        "streetDirectionId": null,
        "streetTypeId": "DR",
        "placeName": "KANATA",
        "streetNameDisplayText": "DRAINIE DR, KANATA"
      }
    ]
  },
  {
    "postal": "K2L2Y0",
    "result": []
  },
  {
    "postal": "K2L8X5",
    "result": []
  },
  {
    "postal": "K2L2M7",
    "result": [
      {
        "electoralDistricts": [
          {
            "election": null,
            "id": 43,
            "name": "Kanata—Carleton"
          }
        ],
        "pollDivisionIds": [
          10138959
        ],
        "postalCode": "K2L2M7",
        "streetName": "TURNBULL",
        "streetDirectionId": null,
        "streetTypeId": "AVE",
        "placeName": "KANATA",
        "streetNameDisplayText": "TURNBULL AVE, KANATA"
      }
    ]
  },
  {
    "postal": "K2L9Z3",
    "result": []
  },
  {
    "postal": "K2L7W2",
    "result": []
  },
  {
    "postal": "K2L3W0",
    "result": []
  },
  {
    "postal": "K2L3M1",
    "result": [
      {
        "electoralDistricts": [
          {
            "election": null,
            "id": 43,
            "name": "Kanata—Carleton"
          }
        ],
        "pollDivisionIds": [
          10138952
        ],
        "postalCode": "K2L3M1",
        "streetName": "LIGHTFOOT",
        "streetDirectionId": null,
        "streetTypeId": "PL",
        "placeName": "KANATA",
        "streetNameDisplayText": "LIGHTFOOT PL, KANATA"
      }
    ]
  },
  {
    "postal": "K2L6A5",
    "result": []
  },
  {
    "postal": "K2L2M9",
    "result": [
      {
        "electoralDistricts": [
          {
            "election": null,
            "id": 43,
            "name": "Kanata—Carleton"
          }
        ],
        "pollDivisionIds": [
          10138959
        ],
        "postalCode": "K2L2M9",
        "streetName": "MCLENNAN",
        "streetDirectionId": null,
        "streetTypeId": "WAY",
        "placeName": "KANATA",
        "streetNameDisplayText": "MCLENNAN WAY, KANATA"
      }
    ]
  },
  {
    "postal": "K2L5C3",
    "result": []
  },
  {
    "postal": "K2L0Y6",
    "result": []
  },
  {
    "postal": "K2L9H7",
    "result": []
  },
  {
    "postal": "K2L3L0",
    "result": []
  },
  {
    "postal": "K2L5N9",
    "result": []
  },
  {
    "postal": "K2L5E3",
    "result": []
  },
  {
    "postal": "K2L7M9",
    "result": []
  },
  {
    "postal": "K2L8N2",
    "result": []
  },
  {
    "postal": "K2L9H3",
    "result": []
  },
  {
    "postal": "K2L2K8",
    "result": [
      {
        "electoralDistricts": [
          {
            "election": null,
            "id": 43,
            "name": "Kanata—Carleton"
          }
        ],
        "pollDivisionIds": [
          10138959
        ],
        "postalCode": "K2L2K8",
        "streetName": "NAISMITH",
        "streetDirectionId": null,
        "streetTypeId": "CRES",
        "placeName": "KANATA",
        "streetNameDisplayText": "NAISMITH CRES, KANATA"
      }
    ]
  },
  {
    "postal": "K2L9L0",
    "result": []
  },
  {
    "postal": "K2L6L9",
    "result": []
  },
  {
    "postal": "K2L6A8",
    "result": []
  },
  {
    "postal": "K2L2K6",
    "result": [
      {
        "electoralDistricts": [
          {
            "election": null,
            "id": 43,
            "name": "Kanata—Carleton"
          }
        ],
        "pollDivisionIds": [
          10138961
        ],
        "postalCode": "K2L2K6",
        "streetName": "CASTLEFRANK",
        "streetDirectionId": null,
        "streetTypeId": "RD",
        "placeName": "KANATA",
        "streetNameDisplayText": "CASTLEFRANK RD, KANATA"
      }
    ]
  },
  {
    "postal": "K2L2M0",
    "result": []
  },
  {
    "postal": "K2L5X7",
    "result": []
  },
  {
    "postal": "K2L0M7",
    "result": []
  },
  {
    "postal": "K2L7A6",
    "result": []
  },
  {
    "postal": "K2L3C5",
    "result": []
  },
  {
    "postal": "K2L2P2",
    "result": [
      {
        "electoralDistricts": [
          {
            "election": null,
            "id": 43,
            "name": "Kanata—Carleton"
          }
        ],
        "pollDivisionIds": [
          10138961
        ],
        "postalCode": "K2L2P2",
        "streetName": "WINCHESTER",
        "streetDirectionId": null,
        "streetTypeId": "DR",
        "placeName": "KANATA",
        "streetNameDisplayText": "WINCHESTER DR, KANATA"
      }
    ]
  },
  {
    "postal": "K2L9N4",
    "result": []
  },
  {
    "postal": "K2L3M9",
    "result": [
      {
        "electoralDistricts": [
          {
            "election": null,
            "id": 43,
            "name": "Kanata—Carleton"
          }
        ],
        "pollDivisionIds": [
          10138953
        ],
        "postalCode": "K2L3M9",
        "streetName": "SHEARER",
        "streetDirectionId": null,
        "streetTypeId": "CRES",
        "placeName": "KANATA",
        "streetNameDisplayText": "SHEARER CRES, KANATA"
      }
    ]
  },
  {
    "postal": "K2L8K6",
    "result": []
  },
  {
    "postal": "K2L1L2",
    "result": [
      {
        "electoralDistricts": [
          {
            "election": null,
            "id": 43,
            "name": "Kanata—Carleton"
          }
        ],
        "pollDivisionIds": [
          10138962
        ],
        "postalCode": "K2L1L2",
        "streetName": "POST",
        "streetDirectionId": null,
        "streetTypeId": "RD",
        "placeName": "KANATA",
        "streetNameDisplayText": "POST RD, KANATA"
      }
    ]
  },
  {
    "postal": "K2L2Z9",
    "result": [
      {
        "electoralDistricts": [
          {
            "election": null,
            "id": 43,
            "name": "Kanata—Carleton"
          }
        ],
        "pollDivisionIds": [
          10138955
        ],
        "postalCode": "K2L2Z9",
        "streetName": "ABBEYHILL",
        "streetDirectionId": null,
        "streetTypeId": "DR",
        "placeName": "KANATA",
        "streetNameDisplayText": "ABBEYHILL DR, KANATA"
      }
    ]
  },
  {
    "postal": "K2L2S2",
    "result": [
      {
        "electoralDistricts": [
          {
            "election": null,
            "id": 43,
            "name": "Kanata—Carleton"
          }
        ],
        "pollDivisionIds": [
          10138960
        ],
        "postalCode": "K2L2S2",
        "streetName": "GLENMORISTON",
        "streetDirectionId": null,
        "streetTypeId": "AVE",
        "placeName": "KANATA",
        "streetNameDisplayText": "GLENMORISTON AVE, KANATA"
      }
    ]
  },
  {
    "postal": "K2L2W2",
    "result": [
      {
        "electoralDistricts": [
          {
            "election": null,
            "id": 43,
            "name": "Kanata—Carleton"
          }
        ],
        "pollDivisionIds": [
          10138961
        ],
        "postalCode": "K2L2W2",
        "streetName": "BOYLSTON",
        "streetDirectionId": null,
        "streetTypeId": "LANE",
        "placeName": "KANATA",
        "streetNameDisplayText": "BOYLSTON LANE, KANATA"
      }
    ]
  },
  {
    "postal": "K2L2C3",
    "result": [
      {
        "electoralDistricts": [
          {
            "election": null,
            "id": 43,
            "name": "Kanata—Carleton"
          }
        ],
        "pollDivisionIds": [
          10138954
        ],
        "postalCode": "K2L2C3",
        "streetName": "PICKFORD",
        "streetDirectionId": null,
        "streetTypeId": "DR",
        "placeName": "KANATA",
        "streetNameDisplayText": "PICKFORD DR, KANATA"
      }
    ]
  },
  {
    "postal": "K2L6L7",
    "result": []
  },
  {
    "postal": "K2L3K0",
    "result": []
  },
  {
    "postal": "K2L3C1",
    "result": []
  },
  {
    "postal": "K2L6M9",
    "result": []
  },
  {
    "postal": "K2L4N9",
    "result": []
  },
  {
    "postal": "K2L3Y7",
    "result": [
      {
        "electoralDistricts": [
          {
            "election": null,
            "id": 43,
            "name": "Kanata—Carleton"
          }
        ],
        "pollDivisionIds": [
          10138949
        ],
        "postalCode": "K2L3Y7",
        "streetName": "ROWE",
        "streetDirectionId": null,
        "streetTypeId": "DR",
        "placeName": "KANATA",
        "streetNameDisplayText": "ROWE DR, KANATA"
      }
    ]
  },
  {
    "postal": "K2L2A9",
    "result": []
  },
  {
    "postal": "K2L6H5",
    "result": []
  },
  {
    "postal": "K2L8B4",
    "result": []
  },
  {
    "postal": "K2L4Z2",
    "result": []
  },
  {
    "postal": "K2L9J0",
    "result": []
  },
  {
    "postal": "K2L7V7",
    "result": []
  },
  {
    "postal": "K2L5T5",
    "result": []
  },
  {
    "postal": "K2L4W5",
    "result": []
  },
  {
    "postal": "K2L1T8",
    "result": [
      {
        "electoralDistricts": [
          {
            "election": null,
            "id": 43,
            "name": "Kanata—Carleton"
          }
        ],
        "pollDivisionIds": [
          10138955
        ],
        "postalCode": "K2L1T8",
        "streetName": "HAZELDEAN",
        "streetDirectionId": null,
        "streetTypeId": "RD",
        "placeName": "KANATA",
        "streetNameDisplayText": "HAZELDEAN RD, KANATA"
      }
    ]
  },
  {
    "postal": "K2L9G6",
    "result": []
  },
  {
    "postal": "K2L1H3",
    "result": [
      {
        "electoralDistricts": [
          {
            "election": null,
            "id": 43,
            "name": "Kanata—Carleton"
          }
        ],
        "pollDivisionIds": [
          10138955
        ],
        "postalCode": "K2L1H3",
        "streetName": "ABBEYHILL",
        "streetDirectionId": null,
        "streetTypeId": "DR",
        "placeName": "KANATA",
        "streetNameDisplayText": "ABBEYHILL DR, KANATA"
      }
    ]
  },
  {
    "postal": "K2L5R5",
    "result": []
  },
  {
    "postal": "K2L8A4",
    "result": []
  },
  {
    "postal": "K2L3T6",
    "result": [
      {
        "electoralDistricts": [
          {
            "election": null,
            "id": 43,
            "name": "Kanata—Carleton"
          }
        ],
        "pollDivisionIds": [
          10138954
        ],
        "postalCode": "K2L3T6",
        "streetName": "DURBIN",
        "streetDirectionId": null,
        "streetTypeId": "CRT",
        "placeName": "KANATA",
        "streetNameDisplayText": "DURBIN CRT, KANATA"
      }
    ]
  },
  {
    "postal": "K2L9W8",
    "result": []
  },
  {
    "postal": "K2L0N3",
    "result": []
  },
  {
    "postal": "K2L7V0",
    "result": []
  },
  {
    "postal": "K2L8T5",
    "result": []
  },
  {
    "postal": "K2L5N3",
    "result": []
  },
  {
    "postal": "K2L5G9",
    "result": []
  },
  {
    "postal": "K2L3X8",
    "result": [
      {
        "electoralDistricts": [
          {
            "election": null,
            "id": 43,
            "name": "Kanata—Carleton"
          }
        ],
        "pollDivisionIds": [
          10138953
        ],
        "postalCode": "K2L3X8",
        "streetName": "TANGUAY",
        "streetDirectionId": null,
        "streetTypeId": "CRT",
        "placeName": "KANATA",
        "streetNameDisplayText": "TANGUAY CRT, KANATA"
      }
    ]
  },
  {
    "postal": "K2L9R3",
    "result": []
  },
  {
    "postal": "K2L2S1",
    "result": [
      {
        "electoralDistricts": [
          {
            "election": null,
            "id": 43,
            "name": "Kanata—Carleton"
          }
        ],
        "pollDivisionIds": [
          10138960
        ],
        "postalCode": "K2L2S1",
        "streetName": "BARRA",
        "streetDirectionId": null,
        "streetTypeId": "AVE",
        "placeName": "KANATA",
        "streetNameDisplayText": "BARRA AVE, KANATA"
      }
    ]
  },
  {
    "postal": "K2L9J7",
    "result": []
  },
  {
    "postal": "K2L2J3",
    "result": [
      {
        "electoralDistricts": [
          {
            "election": null,
            "id": 43,
            "name": "Kanata—Carleton"
          }
        ],
        "pollDivisionIds": [
          10138949
        ],
        "postalCode": "K2L2J3",
        "streetName": "HAYWOOD",
        "streetDirectionId": null,
        "streetTypeId": "CRES",
        "placeName": "KANATA",
        "streetNameDisplayText": "HAYWOOD CRES, KANATA"
      }
    ]
  },
  {
    "postal": "K2L3B6",
    "result": []
  },
  {
    "postal": "K2L8J0",
    "result": []
  },
  {
    "postal": "K2L7R4",
    "result": []
  },
  {
    "postal": "K2L8K8",
    "result": []
  },
  {
    "postal": "K2L4P3",
    "result": []
  },
  {
    "postal": "K2L0A2",
    "result": []
  },
  {
    "postal": "K2L2G2",
    "result": [
      {
        "electoralDistricts": [
          {
            "election": null,
            "id": 43,
            "name": "Kanata—Carleton"
          }
        ],
        "pollDivisionIds": [
          10138955
        ],
        "postalCode": "K2L2G2",
        "streetName": "ORIOLE",
        "streetDirectionId": null,
        "streetTypeId": "AVE",
        "placeName": "KANATA",
        "streetNameDisplayText": "ORIOLE AVE, KANATA"
      }
    ]
  },
  {
    "postal": "K2L5Y9",
    "result": []
  },
  {
    "postal": "K2L7X0",
    "result": []
  },
  {
    "postal": "K2L7W3",
    "result": []
  },
  {
    "postal": "K2L7X5",
    "result": []
  },
  {
    "postal": "K2L5K6",
    "result": []
  },
  {
    "postal": "K2L5B6",
    "result": []
  },
  {
    "postal": "K2L7Z0",
    "result": []
  },
  {
    "postal": "K2L9H6",
    "result": []
  },
  {
    "postal": "K2L1B4",
    "result": [
      {
        "electoralDistricts": [
          {
            "election": null,
            "id": 43,
            "name": "Kanata—Carleton"
          }
        ],
        "pollDivisionIds": [
          10138955
        ],
        "postalCode": "K2L1B4",
        "streetName": "CARBROOKE",
        "streetDirectionId": null,
        "streetTypeId": "ST",
        "placeName": "KANATA",
        "streetNameDisplayText": "CARBROOKE ST, KANATA"
      }
    ]
  },
  {
    "postal": "K2L1A0",
    "result": []
  },
  {
    "postal": "K2L9A0",
    "result": []
  },
  {
    "postal": "K2L1M6",
    "result": [
      {
        "electoralDistricts": [
          {
            "election": null,
            "id": 43,
            "name": "Kanata—Carleton"
          }
        ],
        "pollDivisionIds": [
          10138962
        ],
        "postalCode": "K2L1M6",
        "streetName": "OLD COLONY",
        "streetDirectionId": null,
        "streetTypeId": "RD",
        "placeName": "KANATA",
        "streetNameDisplayText": "OLD COLONY RD, KANATA"
      }
    ]
  },
  {
    "postal": "K2L5H0",
    "result": []
  },
  {
    "postal": "K2L1K6",
    "result": [
      {
        "electoralDistricts": [
          {
            "election": null,
            "id": 43,
            "name": "Kanata—Carleton"
          }
        ],
        "pollDivisionIds": [
          10138962
        ],
        "postalCode": "K2L1K6",
        "streetName": "PADDOCK",
        "streetDirectionId": null,
        "streetTypeId": "WAY",
        "placeName": "KANATA",
        "streetNameDisplayText": "PADDOCK WAY, KANATA"
      }
    ]
  },
  {
    "postal": "K2L5E1",
    "result": []
  },
  {
    "postal": "K2L3T9",
    "result": [
      {
        "electoralDistricts": [
          {
            "election": null,
            "id": 43,
            "name": "Kanata—Carleton"
          }
        ],
        "pollDivisionIds": [
          10138952
        ],
        "postalCode": "K2L3T9",
        "streetName": "MCDERMOT",
        "streetDirectionId": null,
        "streetTypeId": "CRT",
        "placeName": "KANATA",
        "streetNameDisplayText": "MCDERMOT CRT, KANATA"
      }
    ]
  },
  {
    "postal": "K2L2M6",
    "result": [
      {
        "electoralDistricts": [
          {
            "election": null,
            "id": 43,
            "name": "Kanata—Carleton"
          }
        ],
        "pollDivisionIds": [
          10138959
        ],
        "postalCode": "K2L2M6",
        "streetName": "TURNBULL",
        "streetDirectionId": null,
        "streetTypeId": "AVE",
        "placeName": "KANATA",
        "streetNameDisplayText": "TURNBULL AVE, KANATA"
      }
    ]
  },
  {
    "postal": "K2L0G5",
    "result": []
  },
  {
    "postal": "K2L0Y2",
    "result": []
  },
  {
    "postal": "K2L2Y7",
    "result": [
      {
        "electoralDistricts": [
          {
            "election": null,
            "id": 43,
            "name": "Kanata—Carleton"
          }
        ],
        "pollDivisionIds": [
          10138955
        ],
        "postalCode": "K2L2Y7",
        "streetName": "TORCASTLE",
        "streetDirectionId": null,
        "streetTypeId": "WAY",
        "placeName": "KANATA",
        "streetNameDisplayText": "TORCASTLE WAY, KANATA"
      }
    ]
  },
  {
    "postal": "K2L2J7",
    "result": [
      {
        "electoralDistricts": [
          {
            "election": null,
            "id": 43,
            "name": "Kanata—Carleton"
          }
        ],
        "pollDivisionIds": [
          10138962
        ],
        "postalCode": "K2L2J7",
        "streetName": "MCKITRICK",
        "streetDirectionId": null,
        "streetTypeId": "DR",
        "placeName": "KANATA",
        "streetNameDisplayText": "MCKITRICK DR, KANATA"
      }
    ]
  },
  {
    "postal": "K2L4K7",
    "result": []
  },
  {
    "postal": "K2L7P9",
    "result": []
  },
  {
    "postal": "K2L8X0",
    "result": []
  },
  {
    "postal": "K2L3X1",
    "result": [
      {
        "electoralDistricts": [
          {
            "election": null,
            "id": 43,
            "name": "Kanata—Carleton"
          }
        ],
        "pollDivisionIds": [
          10138953
        ],
        "postalCode": "K2L3X1",
        "streetName": "TANGUAY",
        "streetDirectionId": null,
        "streetTypeId": "CRT",
        "placeName": "KANATA",
        "streetNameDisplayText": "TANGUAY CRT, KANATA"
      }
    ]
  },
  {
    "postal": "K2L1R5",
    "result": [
      {
        "electoralDistricts": [
          {
            "election": null,
            "id": 43,
            "name": "Kanata—Carleton"
          }
        ],
        "pollDivisionIds": [
          10138961
        ],
        "postalCode": "K2L1R5",
        "streetName": "GLAMORGAN",
        "streetDirectionId": null,
        "streetTypeId": "DR",
        "placeName": "KANATA",
        "streetNameDisplayText": "GLAMORGAN DR, KANATA"
      }
    ]
  },
  {
    "postal": "K2L6X6",
    "result": []
  },
  {
    "postal": "K2L0Y1",
    "result": []
  },
  {
    "postal": "K2L8G1",
    "result": []
  },
  {
    "postal": "K2L3J3",
    "result": []
  },
  {
    "postal": "K2L8C2",
    "result": []
  },
  {
    "postal": "K2L4X9",
    "result": []
  },
  {
    "postal": "K2L6G9",
    "result": []
  },
  {
    "postal": "K2L4M3",
    "result": []
  },
  {
    "postal": "K2L9P7",
    "result": []
  },
  {
    "postal": "K2L4E5",
    "result": [
      {
        "electoralDistricts": [
          {
            "election": null,
            "id": 43,
            "name": "Kanata—Carleton"
          }
        ],
        "pollDivisionIds": [
          10138955
        ],
        "postalCode": "K2L4E5",
        "streetName": "HAZELDEAN",
        "streetDirectionId": null,
        "streetTypeId": "RD",
        "placeName": "KANATA",
        "streetNameDisplayText": "HAZELDEAN RD, KANATA"
      }
    ]
  },
  {
    "postal": "K2L5K9",
    "result": []
  },
  {
    "postal": "K2L2V2",
    "result": [
      {
        "electoralDistricts": [
          {
            "election": null,
            "id": 43,
            "name": "Kanata—Carleton"
          }
        ],
        "pollDivisionIds": [
          10138953,
          10138949
        ],
        "postalCode": "K2L2V2",
        "streetName": "BERNIER",
        "streetDirectionId": null,
        "streetTypeId": "TERR",
        "placeName": "KANATA",
        "streetNameDisplayText": "BERNIER TERR, KANATA"
      }
    ]
  },
  {
    "postal": "K2L2N9",
    "result": [
      {
        "electoralDistricts": [
          {
            "election": null,
            "id": 43,
            "name": "Kanata—Carleton"
          }
        ],
        "pollDivisionIds": [
          10138959
        ],
        "postalCode": "K2L2N9",
        "streetName": "MCINTOSH",
        "streetDirectionId": null,
        "streetTypeId": "WAY",
        "placeName": "KANATA",
        "streetNameDisplayText": "MCINTOSH WAY, KANATA"
      }
    ]
  },
  {
    "postal": "K2L6L4",
    "result": []
  },
  {
    "postal": "K2L8E0",
    "result": []
  },
  {
    "postal": "K2L0N0",
    "result": []
  },
  {
    "postal": "K2L6R0",
    "result": []
  },
  {
    "postal": "K2L9C1",
    "result": []
  },
  {
    "postal": "K2L4H4",
    "result": [
      {
        "electoralDistricts": [
          {
            "election": null,
            "id": 43,
            "name": "Kanata—Carleton"
          }
        ],
        "pollDivisionIds": [
          10138960
        ],
        "postalCode": "K2L4H4",
        "streetName": "TERRY FOX",
        "streetDirectionId": null,
        "streetTypeId": "DR",
        "placeName": "KANATA",
        "streetNameDisplayText": "TERRY FOX DR, KANATA"
      }
    ]
  },
  {
    "postal": "K2L5W3",
    "result": []
  },
  {
    "postal": "K2L9N9",
    "result": []
  },
  {
    "postal": "K2L1V7",
    "result": [
      {
        "electoralDistricts": [
          {
            "election": null,
            "id": 43,
            "name": "Kanata—Carleton"
          }
        ],
        "pollDivisionIds": [
          10138959
        ],
        "postalCode": "K2L1V7",
        "streetName": "EDGEWATER",
        "streetDirectionId": null,
        "streetTypeId": "ST",
        "placeName": "KANATA",
        "streetNameDisplayText": "EDGEWATER ST, KANATA"
      }
    ]
  },
  {
    "postal": "K2L8J1",
    "result": []
  },
  {
    "postal": "K2L5V9",
    "result": []
  },
  {
    "postal": "K2L2S8",
    "result": [
      {
        "electoralDistricts": [
          {
            "election": null,
            "id": 43,
            "name": "Kanata—Carleton"
          }
        ],
        "pollDivisionIds": [
          10138959
        ],
        "postalCode": "K2L2S8",
        "streetName": "MAPLE GROVE",
        "streetDirectionId": null,
        "streetTypeId": "RD",
        "placeName": "KANATA",
        "streetNameDisplayText": "MAPLE GROVE RD, KANATA"
      }
    ]
  },
  {
    "postal": "K2L6P0",
    "result": []
  },
  {
    "postal": "K2L4J8",
    "result": []
  },
  {
    "postal": "K2L0N1",
    "result": []
  },
  {
    "postal": "K2L1Y7",
    "result": [
      {
        "electoralDistricts": [
          {
            "election": null,
            "id": 43,
            "name": "Kanata—Carleton"
          }
        ],
        "pollDivisionIds": [
          10138953
        ],
        "postalCode": "K2L1Y7",
        "streetName": "LARSEN",
        "streetDirectionId": null,
        "streetTypeId": "CRT",
        "placeName": "KANATA",
        "streetNameDisplayText": "LARSEN CRT, KANATA"
      }
    ]
  },
  {
    "postal": "K2L7W5",
    "result": []
  },
  {
    "postal": "K2L3Z1",
    "result": [
      {
        "electoralDistricts": [
          {
            "election": null,
            "id": 43,
            "name": "Kanata—Carleton"
          }
        ],
        "pollDivisionIds": [
          10138953
        ],
        "postalCode": "K2L3Z1",
        "streetName": "PICKFORD",
        "streetDirectionId": null,
        "streetTypeId": "DR",
        "placeName": "KANATA",
        "streetNameDisplayText": "PICKFORD DR, KANATA"
      }
    ]
  },
  {
    "postal": "K2L7M6",
    "result": []
  },
  {
    "postal": "K2L1W7",
    "result": [
      {
        "electoralDistricts": [
          {
            "election": null,
            "id": 43,
            "name": "Kanata—Carleton"
          }
        ],
        "pollDivisionIds": [
          10138961
        ],
        "postalCode": "K2L1W7",
        "streetName": "MORTON",
        "streetDirectionId": null,
        "streetTypeId": "DR",
        "placeName": "KANATA",
        "streetNameDisplayText": "MORTON DR, KANATA"
      }
    ]
  },
  {
    "postal": "K2L1X1",
    "result": [
      {
        "electoralDistricts": [
          {
            "election": null,
            "id": 43,
            "name": "Kanata—Carleton"
          }
        ],
        "pollDivisionIds": [
          10138961
        ],
        "postalCode": "K2L1X1",
        "streetName": "MORTON",
        "streetDirectionId": null,
        "streetTypeId": "DR",
        "placeName": "KANATA",
        "streetNameDisplayText": "MORTON DR, KANATA"
      }
    ]
  },
  {
    "postal": "K2L0C1",
    "result": []
  },
  {
    "postal": "K2L4N3",
    "result": []
  },
  {
    "postal": "K2L4S8",
    "result": []
  },
  {
    "postal": "K2L1H6",
    "result": [
      {
        "electoralDistricts": [
          {
            "election": null,
            "id": 43,
            "name": "Kanata—Carleton"
          }
        ],
        "pollDivisionIds": [
          10138955
        ],
        "postalCode": "K2L1H6",
        "streetName": "ABBEYHILL",
        "streetDirectionId": null,
        "streetTypeId": "DR",
        "placeName": "KANATA",
        "streetNameDisplayText": "ABBEYHILL DR, KANATA"
      }
    ]
  },
  {
    "postal": "K2L2Z4",
    "result": [
      {
        "electoralDistricts": [
          {
            "election": null,
            "id": 43,
            "name": "Kanata—Carleton"
          }
        ],
        "pollDivisionIds": [
          10138955
        ],
        "postalCode": "K2L2Z4",
        "streetName": "STOKES",
        "streetDirectionId": null,
        "streetTypeId": "CRES",
        "placeName": "KANATA",
        "streetNameDisplayText": "STOKES CRES, KANATA"
      }
    ]
  },
  {
    "postal": "K2L7K3",
    "result": []
  },
  {
    "postal": "K2L8A2",
    "result": []
  },
  {
    "postal": "K2L6J1",
    "result": []
  },
  {
    "postal": "K2L5Z6",
    "result": []
  },
  {
    "postal": "K2L3Z0",
    "result": []
  },
  {
    "postal": "K2L8M0",
    "result": []
  },
  {
    "postal": "K2L1Z6",
    "result": [
      {
        "electoralDistricts": [
          {
            "election": null,
            "id": 43,
            "name": "Kanata—Carleton"
          }
        ],
        "pollDivisionIds": [
          10138953
        ],
        "postalCode": "K2L1Z6",
        "streetName": "HERSCHEL",
        "streetDirectionId": null,
        "streetTypeId": "CRES",
        "placeName": "KANATA",
        "streetNameDisplayText": "HERSCHEL CRES, KANATA"
      }
    ]
  },
  {
    "postal": "K2L8K7",
    "result": []
  },
  {
    "postal": "K2L1N3",
    "result": [
      {
        "electoralDistricts": [
          {
            "election": null,
            "id": 43,
            "name": "Kanata—Carleton"
          }
        ],
        "pollDivisionIds": [
          10138961
        ],
        "postalCode": "K2L1N3",
        "streetName": "BALLANTRAE",
        "streetDirectionId": null,
        "streetTypeId": "WAY",
        "placeName": "KANATA",
        "streetNameDisplayText": "BALLANTRAE WAY, KANATA"
      }
    ]
  },
  {
    "postal": "K2L9S2",
    "result": []
  },
  {
    "postal": "K2L2K1",
    "result": [
      {
        "electoralDistricts": [
          {
            "election": null,
            "id": 43,
            "name": "Kanata—Carleton"
          }
        ],
        "pollDivisionIds": [
          10138954
        ],
        "postalCode": "K2L2K1",
        "streetName": "BARROW",
        "streetDirectionId": null,
        "streetTypeId": "CRES",
        "placeName": "KANATA",
        "streetNameDisplayText": "BARROW CRES, KANATA"
      }
    ]
  },
  {
    "postal": "K2L1E8",
    "result": [
      {
        "electoralDistricts": [
          {
            "election": null,
            "id": 43,
            "name": "Kanata—Carleton"
          }
        ],
        "pollDivisionIds": [
          10138955
        ],
        "postalCode": "K2L1E8",
        "streetName": "DESMOND",
        "streetDirectionId": null,
        "streetTypeId": "AVE",
        "placeName": "KANATA",
        "streetNameDisplayText": "DESMOND AVE, KANATA"
      }
    ]
  },
  {
    "postal": "K2L9B8",
    "result": []
  },
  {
    "postal": "K2L7X4",
    "result": []
  },
  {
    "postal": "K2L1Z4",
    "result": [
      {
        "electoralDistricts": [
          {
            "election": null,
            "id": 43,
            "name": "Kanata—Carleton"
          }
        ],
        "pollDivisionIds": [
          10138953
        ],
        "postalCode": "K2L1Z4",
        "streetName": "BEAUFORT",
        "streetDirectionId": null,
        "streetTypeId": "DR",
        "placeName": "KANATA",
        "streetNameDisplayText": "BEAUFORT DR, KANATA"
      }
    ]
  },
  {
    "postal": "K2L2C7",
    "result": [
      {
        "electoralDistricts": [
          {
            "election": null,
            "id": 43,
            "name": "Kanata—Carleton"
          }
        ],
        "pollDivisionIds": [
          10138954
        ],
        "postalCode": "K2L2C7",
        "streetName": "BARROW",
        "streetDirectionId": null,
        "streetTypeId": "CRES",
        "placeName": "KANATA",
        "streetNameDisplayText": "BARROW CRES, KANATA"
      }
    ]
  },
  {
    "postal": "K2L2E7",
    "result": [
      {
        "electoralDistricts": [
          {
            "election": null,
            "id": 43,
            "name": "Kanata—Carleton"
          }
        ],
        "pollDivisionIds": [
          10138962
        ],
        "postalCode": "K2L2E7",
        "streetName": "CASTLEFRANK",
        "streetDirectionId": null,
        "streetTypeId": "RD",
        "placeName": "KANATA",
        "streetNameDisplayText": "CASTLEFRANK RD, KANATA"
      }
    ]
  },
  {
    "postal": "K2L3R1",
    "result": [
      {
        "electoralDistricts": [
          {
            "election": null,
            "id": 43,
            "name": "Kanata—Carleton"
          }
        ],
        "pollDivisionIds": [
          10138953
        ],
        "postalCode": "K2L3R1",
        "streetName": "HEWITT",
        "streetDirectionId": null,
        "streetTypeId": "WAY",
        "placeName": "KANATA",
        "streetNameDisplayText": "HEWITT WAY, KANATA"
      }
    ]
  },
  {
    "postal": "K2L4K4",
    "result": []
  },
  {
    "postal": "K2L9G3",
    "result": []
  },
  {
    "postal": "K2L6C9",
    "result": []
  },
  {
    "postal": "K2L9H5",
    "result": []
  },
  {
    "postal": "K2L1P5",
    "result": [
      {
        "electoralDistricts": [
          {
            "election": null,
            "id": 43,
            "name": "Kanata—Carleton"
          }
        ],
        "pollDivisionIds": [
          10138961
        ],
        "postalCode": "K2L1P5",
        "streetName": "UXBRIDGE",
        "streetDirectionId": null,
        "streetTypeId": "CRES",
        "placeName": "KANATA",
        "streetNameDisplayText": "UXBRIDGE CRES, KANATA"
      }
    ]
  },
  {
    "postal": "K2L2J5",
    "result": [
      {
        "electoralDistricts": [
          {
            "election": null,
            "id": 43,
            "name": "Kanata—Carleton"
          }
        ],
        "pollDivisionIds": [
          10138959
        ],
        "postalCode": "K2L2J5",
        "streetName": "MCCURDY",
        "streetDirectionId": null,
        "streetTypeId": "DR",
        "placeName": "KANATA",
        "streetNameDisplayText": "MCCURDY DR, KANATA"
      }
    ]
  },
  {
    "postal": "K2L4W6",
    "result": []
  },
  {
    "postal": "K2L8M8",
    "result": []
  },
  {
    "postal": "K2L6C5",
    "result": []
  },
  {
    "postal": "K2L9H0",
    "result": []
  },
  {
    "postal": "K2L1X8",
    "result": [
      {
        "electoralDistricts": [
          {
            "election": null,
            "id": 43,
            "name": "Kanata—Carleton"
          }
        ],
        "pollDivisionIds": [
          10138961
        ],
        "postalCode": "K2L1X8",
        "streetName": "MCELROY",
        "streetDirectionId": null,
        "streetTypeId": "DR",
        "placeName": "KANATA",
        "streetNameDisplayText": "MCELROY DR, KANATA"
      }
    ]
  },
  {
    "postal": "K2L3H4",
    "result": []
  },
  {
    "postal": "K2L4E7",
    "result": []
  },
  {
    "postal": "K2L8A0",
    "result": []
  },
  {
    "postal": "K2L1Z7",
    "result": [
      {
        "electoralDistricts": [
          {
            "election": null,
            "id": 43,
            "name": "Kanata—Carleton"
          }
        ],
        "pollDivisionIds": [
          10138953
        ],
        "postalCode": "K2L1Z7",
        "streetName": "HERSCHEL",
        "streetDirectionId": null,
        "streetTypeId": "CRES",
        "placeName": "KANATA",
        "streetNameDisplayText": "HERSCHEL CRES, KANATA"
      }
    ]
  },
  {
    "postal": "K2L7Z3",
    "result": []
  },
  {
    "postal": "K2L0L7",
    "result": []
  },
  {
    "postal": "K2L2C6",
    "result": [
      {
        "electoralDistricts": [
          {
            "election": null,
            "id": 43,
            "name": "Kanata—Carleton"
          }
        ],
        "pollDivisionIds": [
          10138954
        ],
        "postalCode": "K2L2C6",
        "streetName": "PICKFORD",
        "streetDirectionId": null,
        "streetTypeId": "DR",
        "placeName": "KANATA",
        "streetNameDisplayText": "PICKFORD DR, KANATA"
      }
    ]
  },
  {
    "postal": "K2L6M3",
    "result": []
  },
  {
    "postal": "K2L2J1",
    "result": [
      {
        "electoralDistricts": [
          {
            "election": null,
            "id": 43,
            "name": "Kanata—Carleton"
          }
        ],
        "pollDivisionIds": [
          10138954
        ],
        "postalCode": "K2L2J1",
        "streetName": "BARROW",
        "streetDirectionId": null,
        "streetTypeId": "CRES",
        "placeName": "KANATA",
        "streetNameDisplayText": "BARROW CRES, KANATA"
      }
    ]
  },
  {
    "postal": "K2L3E3",
    "result": [
      {
        "electoralDistricts": [
          {
            "election": null,
            "id": 43,
            "name": "Kanata—Carleton"
          }
        ],
        "pollDivisionIds": [
          10138954
        ],
        "postalCode": "K2L3E3",
        "streetName": "PICKFORD",
        "streetDirectionId": null,
        "streetTypeId": "DR",
        "placeName": "KANATA",
        "streetNameDisplayText": "PICKFORD DR, KANATA"
      }
    ]
  },
  {
    "postal": "K2L6Z9",
    "result": []
  },
  {
    "postal": "K2L3M3",
    "result": [
      {
        "electoralDistricts": [
          {
            "election": null,
            "id": 43,
            "name": "Kanata—Carleton"
          }
        ],
        "pollDivisionIds": [
          10138952
        ],
        "postalCode": "K2L3M3",
        "streetName": "LIGHTFOOT",
        "streetDirectionId": null,
        "streetTypeId": "PL",
        "placeName": "KANATA",
        "streetNameDisplayText": "LIGHTFOOT PL, KANATA"
      }
    ]
  },
  {
    "postal": "K2L9B1",
    "result": []
  },
  {
    "postal": "K2L9J5",
    "result": []
  },
  {
    "postal": "K2L4V8",
    "result": []
  },
  {
    "postal": "K2L6W2",
    "result": []
  },
  {
    "postal": "K2L0V5",
    "result": []
  },
  {
    "postal": "K2L0Z8",
    "result": []
  },
  {
    "postal": "K2L5G2",
    "result": []
  },
  {
    "postal": "K2L4N4",
    "result": []
  },
  {
    "postal": "K2L8G7",
    "result": []
  },
  {
    "postal": "K2L8W1",
    "result": []
  },
  {
    "postal": "K2L1S6",
    "result": [
      {
        "electoralDistricts": [
          {
            "election": null,
            "id": 43,
            "name": "Kanata—Carleton"
          }
        ],
        "pollDivisionIds": [
          10138961
        ],
        "postalCode": "K2L1S6",
        "streetName": "SHELDRAKE",
        "streetDirectionId": null,
        "streetTypeId": "DR",
        "placeName": "KANATA",
        "streetNameDisplayText": "SHELDRAKE DR, KANATA"
      }
    ]
  },
  {
    "postal": "K2L4E0",
    "result": []
  },
  {
    "postal": "K2L4L9",
    "result": []
  },
  {
    "postal": "K2L5Z9",
    "result": []
  },
  {
    "postal": "K2L5V3",
    "result": []
  },
  {
    "postal": "K2L4V2",
    "result": []
  },
  {
    "postal": "K2L7C0",
    "result": []
  },
  {
    "postal": "K2L6L0",
    "result": []
  },
  {
    "postal": "K2L1S9",
    "result": [
      {
        "electoralDistricts": [
          {
            "election": null,
            "id": 43,
            "name": "Kanata—Carleton"
          }
        ],
        "pollDivisionIds": [
          10138961
        ],
        "postalCode": "K2L1S9",
        "streetName": "SHELDRAKE",
        "streetDirectionId": null,
        "streetTypeId": "DR",
        "placeName": "KANATA",
        "streetNameDisplayText": "SHELDRAKE DR, KANATA"
      }
    ]
  },
  {
    "postal": "K2L7R6",
    "result": []
  },
  {
    "postal": "K2L7J0",
    "result": []
  },
  {
    "postal": "K2L5M0",
    "result": []
  },
  {
    "postal": "K2L2E5",
    "result": [
      {
        "electoralDistricts": [
          {
            "election": null,
            "id": 43,
            "name": "Kanata—Carleton"
          }
        ],
        "pollDivisionIds": [
          10138960
        ],
        "postalCode": "K2L2E5",
        "streetName": "MELANIE",
        "streetDirectionId": null,
        "streetTypeId": "CRES",
        "placeName": "KANATA",
        "streetNameDisplayText": "MELANIE CRES, KANATA"
      }
    ]
  },
  {
    "postal": "K2L7C7",
    "result": []
  },
  {
    "postal": "K2L5C0",
    "result": []
  },
  {
    "postal": "K2L8V9",
    "result": []
  },
  {
    "postal": "K2L7E0",
    "result": []
  },
  {
    "postal": "K2L6R4",
    "result": []
  },
  {
    "postal": "K2L3Z7",
    "result": [
      {
        "electoralDistricts": [
          {
            "election": null,
            "id": 43,
            "name": "Kanata—Carleton"
          }
        ],
        "pollDivisionIds": [
          10138949
        ],
        "postalCode": "K2L3Z7",
        "streetName": "CONANT",
        "streetDirectionId": null,
        "streetTypeId": "PL",
        "placeName": "KANATA",
        "streetNameDisplayText": "CONANT PL, KANATA"
      }
    ]
  },
  {
    "postal": "K2L1J9",
    "result": [
      {
        "electoralDistricts": [
          {
            "election": null,
            "id": 43,
            "name": "Kanata—Carleton"
          }
        ],
        "pollDivisionIds": [
          10138955
        ],
        "postalCode": "K2L1J9",
        "streetName": "VILLAGE",
        "streetDirectionId": null,
        "streetTypeId": "GREEN",
        "placeName": "KANATA",
        "streetNameDisplayText": "VILLAGE GREEN, KANATA"
      }
    ]
  },
  {
    "postal": "K2L7K6",
    "result": []
  },
  {
    "postal": "K2L7Y5",
    "result": []
  },
  {
    "postal": "K2L1B7",
    "result": [
      {
        "electoralDistricts": [
          {
            "election": null,
            "id": 43,
            "name": "Kanata—Carleton"
          }
        ],
        "pollDivisionIds": [
          10138955
        ],
        "postalCode": "K2L1B7",
        "streetName": "BRACO",
        "streetDirectionId": null,
        "streetTypeId": "ST",
        "placeName": "KANATA",
        "streetNameDisplayText": "BRACO ST, KANATA"
      }
    ]
  },
  {
    "postal": "K2L4S9",
    "result": []
  },
  {
    "postal": "K2L9R9",
    "result": []
  },
  {
    "postal": "K2L5K7",
    "result": []
  },
  {
    "postal": "K2L6P2",
    "result": []
  },
  {
    "postal": "K2L2C5",
    "result": [
      {
        "electoralDistricts": [
          {
            "election": null,
            "id": 43,
            "name": "Kanata—Carleton"
          }
        ],
        "pollDivisionIds": [
          10138954
        ],
        "postalCode": "K2L2C5",
        "streetName": "PICKFORD",
        "streetDirectionId": null,
        "streetTypeId": "DR",
        "placeName": "KANATA",
        "streetNameDisplayText": "PICKFORD DR, KANATA"
      }
    ]
  },
  {
    "postal": "K2L2N0",
    "result": []
  },
  {
    "postal": "K2L1G0",
    "result": []
  },
  {
    "postal": "K2L4K5",
    "result": []
  },
  {
    "postal": "K2L9B5",
    "result": []
  },
  {
    "postal": "K2L6T5",
    "result": []
  },
  {
    "postal": "K2L1N8",
    "result": [
      {
        "electoralDistricts": [
          {
            "election": null,
            "id": 43,
            "name": "Kanata—Carleton"
          }
        ],
        "pollDivisionIds": [
          10138962
        ],
        "postalCode": "K2L1N8",
        "streetName": "ROTHESAY",
        "streetDirectionId": null,
        "streetTypeId": "DR",
        "placeName": "KANATA",
        "streetNameDisplayText": "ROTHESAY DR, KANATA"
      }
    ]
  },
  {
    "postal": "K2L0C0",
    "result": []
  },
  {
    "postal": "K2L0R9",
    "result": []
  },
  {
    "postal": "K2L7L1",
    "result": []
  },
  {
    "postal": "K2L3Y8",
    "result": [
      {
        "electoralDistricts": [
          {
            "election": null,
            "id": 43,
            "name": "Kanata—Carleton"
          }
        ],
        "pollDivisionIds": [
          10138949
        ],
        "postalCode": "K2L3Y8",
        "streetName": "ROWE",
        "streetDirectionId": null,
        "streetTypeId": "DR",
        "placeName": "KANATA",
        "streetNameDisplayText": "ROWE DR, KANATA"
      }
    ]
  },
  {
    "postal": "K2L7X9",
    "result": []
  },
  {
    "postal": "K2L1A7",
    "result": [
      {
        "electoralDistricts": [
          {
            "election": null,
            "id": 43,
            "name": "Kanata—Carleton"
          }
        ],
        "pollDivisionIds": [
          10138953
        ],
        "postalCode": "K2L1A7",
        "streetName": "AMUNDSEN",
        "streetDirectionId": null,
        "streetTypeId": "CRES",
        "placeName": "KANATA",
        "streetNameDisplayText": "AMUNDSEN CRES, KANATA"
      }
    ]
  },
  {
    "postal": "K2L2T9",
    "result": [
      {
        "electoralDistricts": [
          {
            "election": null,
            "id": 43,
            "name": "Kanata—Carleton"
          }
        ],
        "pollDivisionIds": [
          10138959
        ],
        "postalCode": "K2L2T9",
        "streetName": "MCCURDY",
        "streetDirectionId": null,
        "streetTypeId": "DR",
        "placeName": "KANATA",
        "streetNameDisplayText": "MCCURDY DR, KANATA"
      }
    ]
  },
  {
    "postal": "K2L2E6",
    "result": [
      {
        "electoralDistricts": [
          {
            "election": null,
            "id": 43,
            "name": "Kanata—Carleton"
          }
        ],
        "pollDivisionIds": [
          10138960
        ],
        "postalCode": "K2L2E6",
        "streetName": "CASTLEFRANK",
        "streetDirectionId": null,
        "streetTypeId": "RD",
        "placeName": "KANATA",
        "streetNameDisplayText": "CASTLEFRANK RD, KANATA"
      }
    ]
  },
  {
    "postal": "K2L8Y1",
    "result": []
  },
  {
    "postal": "K2L0J5",
    "result": []
  },
  {
    "postal": "K2L4J1",
    "result": []
  },
  {
    "postal": "K2L1A5",
    "result": [
      {
        "electoralDistricts": [
          {
            "election": null,
            "id": 43,
            "name": "Kanata—Carleton"
          }
        ],
        "pollDivisionIds": [
          10138953
        ],
        "postalCode": "K2L1A5",
        "streetName": "CHIMO",
        "streetDirectionId": null,
        "streetTypeId": "DR",
        "placeName": "KANATA",
        "streetNameDisplayText": "CHIMO DR, KANATA"
      }
    ]
  },
  {
    "postal": "K2L6Z6",
    "result": []
  },
  {
    "postal": "K2L5K4",
    "result": []
  },
  {
    "postal": "K2L7R9",
    "result": []
  },
  {
    "postal": "K2L6G4",
    "result": []
  }
]
