[
  {
    "postal": "L6T9J6",
    "result": []
  },
  {
    "postal": "L6T9Z5",
    "result": []
  },
  {
    "postal": "L6T7H8",
    "result": []
  },
  {
    "postal": "L6T0P6",
    "result": []
  },
  {
    "postal": "L6T0S7",
    "result": []
  },
  {
    "postal": "L6T8B9",
    "result": []
  },
  {
    "postal": "L6T2A6",
    "result": [
      {
        "electoralDistricts": [
          {
            "election": null,
            "id": 8,
            "name": "Brampton Centre"
          }
        ],
        "pollDivisionIds": [
          10137090
        ],
        "postalCode": "L6T2A6",
        "streetName": "ESSEX",
        "streetDirectionId": null,
        "streetTypeId": "PL",
        "placeName": "BRAMPTON",
        "streetNameDisplayText": "ESSEX PL, BRAMPTON"
      }
    ]
  },
  {
    "postal": "L6T7V2",
    "result": []
  },
  {
    "postal": "L6T9P4",
    "result": []
  },
  {
    "postal": "L6T6G0",
    "result": []
  },
  {
    "postal": "L6T2K0",
    "result": []
  },
  {
    "postal": "L6T7N6",
    "result": []
  },
  {
    "postal": "L6T5R3",
    "result": [
      {
        "electoralDistricts": [
          {
            "election": null,
            "id": 9,
            "name": "Brampton East"
          }
        ],
        "pollDivisionIds": [
          10111374
        ],
        "postalCode": "L6T5R3",
        "streetName": "STEELES",
        "streetDirectionId": "E",
        "streetTypeId": "AVE",
        "placeName": "BRAMPTON",
        "streetNameDisplayText": "STEELES AVE E, BRAMPTON"
      }
    ]
  },
  {
    "postal": "L6T7K0",
    "result": []
  },
  {
    "postal": "L6T3R2",
    "result": [
      {
        "electoralDistricts": [
          {
            "election": null,
            "id": 8,
            "name": "Brampton Centre"
          }
        ],
        "pollDivisionIds": [
          10137087
        ],
        "postalCode": "L6T3R2",
        "streetName": "FINSBURY",
        "streetDirectionId": null,
        "streetTypeId": "DR",
        "placeName": "BRAMPTON",
        "streetNameDisplayText": "FINSBURY DR, BRAMPTON"
      }
    ]
  },
  {
    "postal": "L6T0J1",
    "result": [
      {
        "electoralDistricts": [
          {
            "election": null,
            "id": 8,
            "name": "Brampton Centre"
          }
        ],
        "pollDivisionIds": [
          10137089
        ],
        "postalCode": "L6T0J1",
        "streetName": "TORBRAM",
        "streetDirectionId": null,
        "streetTypeId": "RD",
        "placeName": "BRAMPTON",
        "streetNameDisplayText": "TORBRAM RD, BRAMPTON"
      }
    ]
  },
  {
    "postal": "L6T0B0",
    "result": []
  },
  {
    "postal": "L6T5Z2",
    "result": []
  },
  {
    "postal": "L6T7P3",
    "result": []
  },
  {
    "postal": "L6T2K3",
    "result": [
      {
        "electoralDistricts": [
          {
            "election": null,
            "id": 8,
            "name": "Brampton Centre"
          }
        ],
        "pollDivisionIds": [
          10137083
        ],
        "postalCode": "L6T2K3",
        "streetName": "BELMONT",
        "streetDirectionId": null,
        "streetTypeId": "DR",
        "placeName": "BRAMPTON",
        "streetNameDisplayText": "BELMONT DR, BRAMPTON"
      },
      {
        "electoralDistricts": [
          {
            "election": null,
            "id": 8,
            "name": "Brampton Centre"
          }
        ],
        "pollDivisionIds": [
          10137083
        ],
        "postalCode": "L6T2K3",
        "streetName": "CRAIGLEIGH",
        "streetDirectionId": null,
        "streetTypeId": "CRES",
        "placeName": "BRAMPTON ,ON",
        "streetNameDisplayText": "CRAIGLEIGH CRES, BRAMPTON ,ON"
      }
    ]
  },
  {
    "postal": "L6T7Y6",
    "result": []
  },
  {
    "postal": "L6T1L9",
    "result": [
      {
        "electoralDistricts": [
          {
            "election": null,
            "id": 8,
            "name": "Brampton Centre"
          }
        ],
        "pollDivisionIds": [
          10137083
        ],
        "postalCode": "L6T1L9",
        "streetName": "BIRCHBANK",
        "streetDirectionId": null,
        "streetTypeId": "RD",
        "placeName": "BRAMPTON",
        "streetNameDisplayText": "BIRCHBANK RD, BRAMPTON"
      }
    ]
  },
  {
    "postal": "L6T8T0",
    "result": []
  },
  {
    "postal": "L6T3K8",
    "result": [
      {
        "electoralDistricts": [
          {
            "election": null,
            "id": 8,
            "name": "Brampton Centre"
          }
        ],
        "pollDivisionIds": [
          10137089
        ],
        "postalCode": "L6T3K8",
        "streetName": "DRAKE",
        "streetDirectionId": null,
        "streetTypeId": "BLVD",
        "placeName": "BRAMPTON",
        "streetNameDisplayText": "DRAKE BLVD, BRAMPTON"
      }
    ]
  },
  {
    "postal": "L6T5W9",
    "result": []
  },
  {
    "postal": "L6T6T9",
    "result": []
  },
  {
    "postal": "L6T4H1",
    "result": []
  },
  {
    "postal": "L6T7A2",
    "result": []
  },
  {
    "postal": "L6T5G0",
    "result": []
  },
  {
    "postal": "L6T8V5",
    "result": []
  },
  {
    "postal": "L6T2Y8",
    "result": [
      {
        "electoralDistricts": [
          {
            "election": null,
            "id": 8,
            "name": "Brampton Centre"
          }
        ],
        "pollDivisionIds": [
          10137091
        ],
        "postalCode": "L6T2Y8",
        "streetName": "DORSET",
        "streetDirectionId": null,
        "streetTypeId": "DR",
        "placeName": "BRAMPTON",
        "streetNameDisplayText": "DORSET DR, BRAMPTON"
      }
    ]
  },
  {
    "postal": "L6T2B6",
    "result": [
      {
        "electoralDistricts": [
          {
            "election": null,
            "id": 8,
            "name": "Brampton Centre"
          }
        ],
        "pollDivisionIds": [
          10137088
        ],
        "postalCode": "L6T2B6",
        "streetName": "EARNSCLIFFE",
        "streetDirectionId": null,
        "streetTypeId": "CIR",
        "placeName": "BRAMPTON",
        "streetNameDisplayText": "EARNSCLIFFE CIR, BRAMPTON"
      }
    ]
  },
  {
    "postal": "L6T4W8",
    "result": [
      {
        "electoralDistricts": [
          {
            "election": null,
            "id": 8,
            "name": "Brampton Centre"
          }
        ],
        "pollDivisionIds": [
          10137075
        ],
        "postalCode": "L6T4W8",
        "streetName": "WILKINSON",
        "streetDirectionId": null,
        "streetTypeId": "RD",
        "placeName": "BRAMPTON",
        "streetNameDisplayText": "WILKINSON RD, BRAMPTON"
      }
    ]
  },
  {
    "postal": "L6T8H7",
    "result": []
  },
  {
    "postal": "L6T5P1",
    "result": []
  },
  {
    "postal": "L6T2B8",
    "result": [
      {
        "electoralDistricts": [
          {
            "election": null,
            "id": 8,
            "name": "Brampton Centre"
          }
        ],
        "pollDivisionIds": [
          10137087
        ],
        "postalCode": "L6T2B8",
        "streetName": "EARLTON",
        "streetDirectionId": null,
        "streetTypeId": "CRT",
        "placeName": "BRAMPTON",
        "streetNameDisplayText": "EARLTON CRT, BRAMPTON"
      }
    ]
  },
  {
    "postal": "L6T0P2",
    "result": []
  },
  {
    "postal": "L6T9M1",
    "result": []
  },
  {
    "postal": "L6T3G0",
    "result": []
  },
  {
    "postal": "L6T9Z2",
    "result": []
  },
  {
    "postal": "L6T2A0",
    "result": []
  },
  {
    "postal": "L6T6Y0",
    "result": []
  },
  {
    "postal": "L6T2Z8",
    "result": [
      {
        "electoralDistricts": [
          {
            "election": null,
            "id": 8,
            "name": "Brampton Centre"
          }
        ],
        "pollDivisionIds": [
          10137090
        ],
        "postalCode": "L6T2Z8",
        "streetName": "EDENBOROUGH",
        "streetDirectionId": null,
        "streetTypeId": "DR",
        "placeName": "BRAMPTON",
        "streetNameDisplayText": "EDENBOROUGH DR, BRAMPTON"
      }
    ]
  },
  {
    "postal": "L6T7Y3",
    "result": []
  },
  {
    "postal": "L6T6Z5",
    "result": []
  },
  {
    "postal": "L6T6E0",
    "result": []
  },
  {
    "postal": "L6T9B7",
    "result": []
  },
  {
    "postal": "L6T9S5",
    "result": []
  },
  {
    "postal": "L6T3X3",
    "result": [
      {
        "electoralDistricts": [
          {
            "election": null,
            "id": 8,
            "name": "Brampton Centre"
          }
        ],
        "pollDivisionIds": [
          10137101
        ],
        "postalCode": "L6T3X3",
        "streetName": "KNIGHTSBRIDGE",
        "streetDirectionId": null,
        "streetTypeId": "RD",
        "placeName": "BRAMPTON",
        "streetNameDisplayText": "KNIGHTSBRIDGE RD, BRAMPTON"
      }
    ]
  },
  {
    "postal": "L6T7R5",
    "result": []
  },
  {
    "postal": "L6T2X3",
    "result": [
      {
        "electoralDistricts": [
          {
            "election": null,
            "id": 8,
            "name": "Brampton Centre"
          }
        ],
        "pollDivisionIds": [
          10137088
        ],
        "postalCode": "L6T2X3",
        "streetName": "BRAMALEA",
        "streetDirectionId": null,
        "streetTypeId": "RD",
        "placeName": "BRAMPTON",
        "streetNameDisplayText": "BRAMALEA RD, BRAMPTON"
      }
    ]
  },
  {
    "postal": "L6T8Z9",
    "result": []
  },
  {
    "postal": "L6T0N4",
    "result": []
  },
  {
    "postal": "L6T1K1",
    "result": [
      {
        "electoralDistricts": [
          {
            "election": null,
            "id": 8,
            "name": "Brampton Centre"
          }
        ],
        "pollDivisionIds": [
          10137091
        ],
        "postalCode": "L6T1K1",
        "streetName": "DEARBOURNE",
        "streetDirectionId": null,
        "streetTypeId": "BLVD",
        "placeName": "BRAMPTON",
        "streetNameDisplayText": "DEARBOURNE BLVD, BRAMPTON"
      }
    ]
  },
  {
    "postal": "L6T1S3",
    "result": [
      {
        "electoralDistricts": [
          {
            "election": null,
            "id": 8,
            "name": "Brampton Centre"
          }
        ],
        "pollDivisionIds": [
          10137090
        ],
        "postalCode": "L6T1S3",
        "streetName": "DONALDA",
        "streetDirectionId": null,
        "streetTypeId": "PL",
        "placeName": "BRAMPTON",
        "streetNameDisplayText": "DONALDA PL, BRAMPTON"
      }
    ]
  },
  {
    "postal": "L6T6M4",
    "result": []
  },
  {
    "postal": "L6T9A9",
    "result": []
  },
  {
    "postal": "L6T9Z9",
    "result": []
  },
  {
    "postal": "L6T6T4",
    "result": []
  },
  {
    "postal": "L6T0B2",
    "result": [
      {
        "electoralDistricts": [
          {
            "election": null,
            "id": 9,
            "name": "Brampton East"
          }
        ],
        "pollDivisionIds": [
          10111362
        ],
        "postalCode": "L6T0B2",
        "streetName": "FINCH",
        "streetDirectionId": null,
        "streetTypeId": "AVE",
        "placeName": "BRAMPTON",
        "streetNameDisplayText": "FINCH AVE, BRAMPTON"
      }
    ]
  },
  {
    "postal": "L6T2L9",
    "result": [
      {
        "electoralDistricts": [
          {
            "election": null,
            "id": 8,
            "name": "Brampton Centre"
          }
        ],
        "pollDivisionIds": [
          10137081
        ],
        "postalCode": "L6T2L9",
        "streetName": "BRAEMAR",
        "streetDirectionId": null,
        "streetTypeId": "DR",
        "placeName": "BRAMPTON",
        "streetNameDisplayText": "BRAEMAR DR, BRAMPTON"
      }
    ]
  },
  {
    "postal": "L6T8K9",
    "result": []
  },
  {
    "postal": "L6T2H9",
    "result": []
  },
  {
    "postal": "L6T3Z6",
    "result": []
  },
  {
    "postal": "L6T3B0",
    "result": []
  },
  {
    "postal": "L6T2H8",
    "result": [
      {
        "electoralDistricts": [
          {
            "election": null,
            "id": 8,
            "name": "Brampton Centre"
          }
        ],
        "pollDivisionIds": [
          10137075
        ],
        "postalCode": "L6T2H8",
        "streetName": "GLIDDEN",
        "streetDirectionId": null,
        "streetTypeId": "RD",
        "placeName": "BRAMPTON",
        "streetNameDisplayText": "GLIDDEN RD, BRAMPTON"
      }
    ]
  },
  {
    "postal": "L6T3X2",
    "result": []
  },
  {
    "postal": "L6T2E9",
    "result": [
      {
        "electoralDistricts": [
          {
            "election": null,
            "id": 8,
            "name": "Brampton Centre"
          }
        ],
        "pollDivisionIds": [
          10137087
        ],
        "postalCode": "L6T2E9",
        "streetName": "FAVERSHAM",
        "streetDirectionId": null,
        "streetTypeId": "CRT",
        "placeName": "BRAMPTON",
        "streetNameDisplayText": "FAVERSHAM CRT, BRAMPTON"
      }
    ]
  },
  {
    "postal": "L6T9P6",
    "result": []
  },
  {
    "postal": "L6T9E2",
    "result": []
  },
  {
    "postal": "L6T9H2",
    "result": []
  },
  {
    "postal": "L6T1S8",
    "result": [
      {
        "electoralDistricts": [
          {
            "election": null,
            "id": 8,
            "name": "Brampton Centre"
          }
        ],
        "pollDivisionIds": [
          10137091
        ],
        "postalCode": "L6T1S8",
        "streetName": "DONCASTER",
        "streetDirectionId": null,
        "streetTypeId": "DR",
        "placeName": "BRAMPTON",
        "streetNameDisplayText": "DONCASTER DR, BRAMPTON"
      }
    ]
  },
  {
    "postal": "L6T3M6",
    "result": [
      {
        "electoralDistricts": [
          {
            "election": null,
            "id": 8,
            "name": "Brampton Centre"
          }
        ],
        "pollDivisionIds": [
          10137087
        ],
        "postalCode": "L6T3M6",
        "streetName": "FOLKSTONE",
        "streetDirectionId": null,
        "streetTypeId": "CRES",
        "placeName": "BRAMPTON",
        "streetNameDisplayText": "FOLKSTONE CRES, BRAMPTON"
      }
    ]
  },
  {
    "postal": "L6T6Z8",
    "result": []
  },
  {
    "postal": "L6T4J2",
    "result": [
      {
        "electoralDistricts": [
          {
            "election": null,
            "id": 8,
            "name": "Brampton Centre"
          }
        ],
        "pollDivisionIds": [
          10137075
        ],
        "postalCode": "L6T4J2",
        "streetName": "ADVANCE",
        "streetDirectionId": null,
        "streetTypeId": "BLVD",
        "placeName": "BRAMPTON",
        "streetNameDisplayText": "ADVANCE BLVD, BRAMPTON"
      }
    ]
  },
  {
    "postal": "L6T9Y1",
    "result": []
  },
  {
    "postal": "L6T8V6",
    "result": []
  },
  {
    "postal": "L6T6B2",
    "result": []
  },
  {
    "postal": "L6T1P8",
    "result": [
      {
        "electoralDistricts": [
          {
            "election": null,
            "id": 8,
            "name": "Brampton Centre"
          }
        ],
        "pollDivisionIds": [
          10137081
        ],
        "postalCode": "L6T1P8",
        "streetName": "BRENTWOOD",
        "streetDirectionId": null,
        "streetTypeId": "DR",
        "placeName": "BRAMPTON",
        "streetNameDisplayText": "BRENTWOOD DR, BRAMPTON"
      }
    ]
  },
  {
    "postal": "L6T0V8",
    "result": []
  },
  {
    "postal": "L6T4Y0",
    "result": []
  },
  {
    "postal": "L6T2T4",
    "result": [
      {
        "electoralDistricts": [
          {
            "election": null,
            "id": 8,
            "name": "Brampton Centre"
          }
        ],
        "pollDivisionIds": [
          10137082
        ],
        "postalCode": "L6T2T4",
        "streetName": "CLOVERDALE",
        "streetDirectionId": null,
        "streetTypeId": "DR",
        "placeName": "BRAMPTON",
        "streetNameDisplayText": "CLOVERDALE DR, BRAMPTON"
      }
    ]
  },
  {
    "postal": "L6T2S3",
    "result": [
      {
        "electoralDistricts": [
          {
            "election": null,
            "id": 8,
            "name": "Brampton Centre"
          }
        ],
        "pollDivisionIds": [
          10137082
        ],
        "postalCode": "L6T2S3",
        "streetName": "CRAWLEY",
        "streetDirectionId": null,
        "streetTypeId": "DR",
        "placeName": "BRAMPTON",
        "streetNameDisplayText": "CRAWLEY DR, BRAMPTON"
      }
    ]
  },
  {
    "postal": "L6T0K0",
    "result": []
  },
  {
    "postal": "L6T5N1",
    "result": []
  },
  {
    "postal": "L6T7T0",
    "result": []
  },
  {
    "postal": "L6T9N2",
    "result": []
  },
  {
    "postal": "L6T5L1",
    "result": [
      {
        "electoralDistricts": [
          {
            "election": null,
            "id": 8,
            "name": "Brampton Centre"
          }
        ],
        "pollDivisionIds": [
          10137075
        ],
        "postalCode": "L6T5L1",
        "streetName": "ORENDA",
        "streetDirectionId": null,
        "streetTypeId": "RD",
        "placeName": "BRAMPTON",
        "streetNameDisplayText": "ORENDA RD, BRAMPTON"
      }
    ]
  },
  {
    "postal": "L6T7G5",
    "result": []
  },
  {
    "postal": "L6T6K2",
    "result": []
  },
  {
    "postal": "L6T6P9",
    "result": []
  },
  {
    "postal": "L6T0E6",
    "result": []
  },
  {
    "postal": "L6T8R9",
    "result": []
  },
  {
    "postal": "L6T3G9",
    "result": [
      {
        "electoralDistricts": [
          {
            "election": null,
            "id": 8,
            "name": "Brampton Centre"
          }
        ],
        "pollDivisionIds": [
          10137090
        ],
        "postalCode": "L6T3G9",
        "streetName": "DEVLIN",
        "streetDirectionId": null,
        "streetTypeId": "PL",
        "placeName": "BRAMPTON",
        "streetNameDisplayText": "DEVLIN PL, BRAMPTON"
      }
    ]
  },
  {
    "postal": "L6T0V7",
    "result": []
  },
  {
    "postal": "L6T2Z1",
    "result": [
      {
        "electoralDistricts": [
          {
            "election": null,
            "id": 8,
            "name": "Brampton Centre"
          }
        ],
        "pollDivisionIds": [
          10137091
        ],
        "postalCode": "L6T2Z1",
        "streetName": "DARLINGTON",
        "streetDirectionId": null,
        "streetTypeId": "CRES",
        "placeName": "BRAMPTON",
        "streetNameDisplayText": "DARLINGTON CRES, BRAMPTON"
      }
    ]
  },
  {
    "postal": "L6T7N1",
    "result": []
  },
  {
    "postal": "L6T3C6",
    "result": [
      {
        "electoralDistricts": [
          {
            "election": null,
            "id": 8,
            "name": "Brampton Centre"
          }
        ],
        "pollDivisionIds": [
          10137091
        ],
        "postalCode": "L6T3C6",
        "streetName": "DORCHESTER",
        "streetDirectionId": null,
        "streetTypeId": "DR",
        "placeName": "BRAMPTON",
        "streetNameDisplayText": "DORCHESTER DR, BRAMPTON"
      }
    ]
  },
  {
    "postal": "L6T4M1",
    "result": []
  },
  {
    "postal": "L6T9K2",
    "result": []
  },
  {
    "postal": "L6T9S6",
    "result": []
  },
  {
    "postal": "L6T4X1",
    "result": [
      {
        "electoralDistricts": [
          {
            "election": null,
            "id": 8,
            "name": "Brampton Centre"
          }
        ],
        "pollDivisionIds": [
          10137075
        ],
        "postalCode": "L6T4X1",
        "streetName": "WILKINSON",
        "streetDirectionId": null,
        "streetTypeId": "RD",
        "placeName": "BRAMPTON",
        "streetNameDisplayText": "WILKINSON RD, BRAMPTON"
      }
    ]
  },
  {
    "postal": "L6T8W2",
    "result": []
  },
  {
    "postal": "L6T7N2",
    "result": []
  },
  {
    "postal": "L6T8S3",
    "result": []
  },
  {
    "postal": "L6T4V0",
    "result": []
  },
  {
    "postal": "L6T6W4",
    "result": []
  },
  {
    "postal": "L6T5M1",
    "result": [
      {
        "electoralDistricts": [
          {
            "election": null,
            "id": 9,
            "name": "Brampton East"
          }
        ],
        "pollDivisionIds": [
          10111362
        ],
        "postalCode": "L6T5M1",
        "streetName": "PARKSHORE",
        "streetDirectionId": null,
        "streetTypeId": "DR",
        "placeName": "BRAMPTON",
        "streetNameDisplayText": "PARKSHORE DR, BRAMPTON"
      }
    ]
  },
  {
    "postal": "L6T0S4",
    "result": []
  },
  {
    "postal": "L6T5X6",
    "result": []
  },
  {
    "postal": "L6T8L5",
    "result": []
  },
  {
    "postal": "L6T5M8",
    "result": [
      {
        "electoralDistricts": [
          {
            "election": null,
            "id": 9,
            "name": "Brampton East"
          }
        ],
        "pollDivisionIds": [
          10111373
        ],
        "postalCode": "L6T5M8",
        "streetName": "DELTA PARK",
        "streetDirectionId": null,
        "streetTypeId": "BLVD",
        "placeName": "BRAMPTON",
        "streetNameDisplayText": "DELTA PARK BLVD, BRAMPTON"
      }
    ]
  },
  {
    "postal": "L6T2G3",
    "result": [
      {
        "electoralDistricts": [
          {
            "election": null,
            "id": 8,
            "name": "Brampton Centre"
          }
        ],
        "pollDivisionIds": [
          10137087
        ],
        "postalCode": "L6T2G3",
        "streetName": "FORSYTHIA",
        "streetDirectionId": null,
        "streetTypeId": "RD",
        "placeName": "BRAMPTON",
        "streetNameDisplayText": "FORSYTHIA RD, BRAMPTON"
      }
    ]
  },
  {
    "postal": "L6T8E4",
    "result": []
  },
  {
    "postal": "L6T7S9",
    "result": []
  },
  {
    "postal": "L6T1K3",
    "result": [
      {
        "electoralDistricts": [
          {
            "election": null,
            "id": 8,
            "name": "Brampton Centre"
          }
        ],
        "pollDivisionIds": [
          10137091
        ],
        "postalCode": "L6T1K3",
        "streetName": "DUNWICH",
        "streetDirectionId": null,
        "streetTypeId": "PL",
        "placeName": "BRAMPTON",
        "streetNameDisplayText": "DUNWICH PL, BRAMPTON"
      }
    ]
  },
  {
    "postal": "L6T4E1",
    "result": [
      {
        "electoralDistricts": [
          {
            "election": null,
            "id": 9,
            "name": "Brampton East"
          }
        ],
        "pollDivisionIds": [
          10111374
        ],
        "postalCode": "L6T4E1",
        "streetName": "SUMMERLEA",
        "streetDirectionId": null,
        "streetTypeId": "RD",
        "placeName": "BRAMPTON",
        "streetNameDisplayText": "SUMMERLEA RD, BRAMPTON"
      }
    ]
  },
  {
    "postal": "L6T4R2",
    "result": [
      {
        "electoralDistricts": [
          {
            "election": null,
            "id": 8,
            "name": "Brampton Centre"
          }
        ],
        "pollDivisionIds": [
          10137075,
          10111324
        ],
        "postalCode": "L6T4R2",
        "streetName": "SILVER MAPLE",
        "streetDirectionId": null,
        "streetTypeId": "CRT",
        "placeName": "BRAMPTON",
        "streetNameDisplayText": "SILVER MAPLE CRT, BRAMPTON"
      }
    ]
  },
  {
    "postal": "L6T6T0",
    "result": []
  },
  {
    "postal": "L6T3K5",
    "result": [
      {
        "electoralDistricts": [
          {
            "election": null,
            "id": 8,
            "name": "Brampton Centre"
          }
        ],
        "pollDivisionIds": [
          10137089
        ],
        "postalCode": "L6T3K5",
        "streetName": "DUMONT",
        "streetDirectionId": null,
        "streetTypeId": "CRT",
        "placeName": "BRAMPTON",
        "streetNameDisplayText": "DUMONT CRT, BRAMPTON"
      }
    ]
  },
  {
    "postal": "L6T3S3",
    "result": []
  },
  {
    "postal": "L6T3L4",
    "result": [
      {
        "electoralDistricts": [
          {
            "election": null,
            "id": 8,
            "name": "Brampton Centre"
          }
        ],
        "pollDivisionIds": [
          10137089
        ],
        "postalCode": "L6T3L4",
        "streetName": "DRAKE",
        "streetDirectionId": null,
        "streetTypeId": "BLVD",
        "placeName": "BRAMPTON",
        "streetNameDisplayText": "DRAKE BLVD, BRAMPTON"
      }
    ]
  },
  {
    "postal": "L6T9Y2",
    "result": []
  },
  {
    "postal": "L6T1E0",
    "result": []
  },
  {
    "postal": "L6T9A4",
    "result": []
  },
  {
    "postal": "L6T1L3",
    "result": [
      {
        "electoralDistricts": [
          {
            "election": null,
            "id": 8,
            "name": "Brampton Centre"
          }
        ],
        "pollDivisionIds": [
          10137083
        ],
        "postalCode": "L6T1L3",
        "streetName": "ALBION",
        "streetDirectionId": null,
        "streetTypeId": "CRES",
        "placeName": "BRAMPTON",
        "streetNameDisplayText": "ALBION CRES, BRAMPTON"
      }
    ]
  },
  {
    "postal": "L6T6N1",
    "result": []
  },
  {
    "postal": "L6T6G7",
    "result": []
  },
  {
    "postal": "L6T7W1",
    "result": []
  },
  {
    "postal": "L6T4M6",
    "result": [
      {
        "electoralDistricts": [
          {
            "election": null,
            "id": 8,
            "name": "Brampton Centre"
          }
        ],
        "pollDivisionIds": [
          10137075
        ],
        "postalCode": "L6T4M6",
        "streetName": "WILKINSON",
        "streetDirectionId": null,
        "streetTypeId": "RD",
        "placeName": "BRAMPTON",
        "streetNameDisplayText": "WILKINSON RD, BRAMPTON"
      }
    ]
  },
  {
    "postal": "L6T1K0",
    "result": []
  },
  {
    "postal": "L6T3E2",
    "result": [
      {
        "electoralDistricts": [
          {
            "election": null,
            "id": 8,
            "name": "Brampton Centre"
          }
        ],
        "pollDivisionIds": [
          10137091
        ],
        "postalCode": "L6T3E2",
        "streetName": "DORCHESTER",
        "streetDirectionId": null,
        "streetTypeId": "DR",
        "placeName": "BRAMPTON",
        "streetNameDisplayText": "DORCHESTER DR, BRAMPTON"
      }
    ]
  },
  {
    "postal": "L6T5H4",
    "result": [
      {
        "electoralDistricts": [
          {
            "election": null,
            "id": 9,
            "name": "Brampton East"
          }
        ],
        "pollDivisionIds": [
          10111374
        ],
        "postalCode": "L6T5H4",
        "streetName": "NUGGETT",
        "streetDirectionId": null,
        "streetTypeId": "CRT",
        "placeName": "BRAMPTON",
        "streetNameDisplayText": "NUGGETT CRT, BRAMPTON"
      }
    ]
  },
  {
    "postal": "L6T1K7",
    "result": [
      {
        "electoralDistricts": [
          {
            "election": null,
            "id": 8,
            "name": "Brampton Centre"
          }
        ],
        "pollDivisionIds": [
          10137089
        ],
        "postalCode": "L6T1K7",
        "streetName": "DEERFIELD",
        "streetDirectionId": null,
        "streetTypeId": "CRES",
        "placeName": "BRAMPTON",
        "streetNameDisplayText": "DEERFIELD CRES, BRAMPTON"
      }
    ]
  },
  {
    "postal": "L6T0H0",
    "result": []
  },
  {
    "postal": "L6T0J3",
    "result": []
  },
  {
    "postal": "L6T1X6",
    "result": [
      {
        "electoralDistricts": [
          {
            "election": null,
            "id": 8,
            "name": "Brampton Centre"
          }
        ],
        "pollDivisionIds": [
          10137090
        ],
        "postalCode": "L6T1X6",
        "streetName": "BALMORAL",
        "streetDirectionId": null,
        "streetTypeId": "DR",
        "placeName": "BRAMPTON",
        "streetNameDisplayText": "BALMORAL DR, BRAMPTON"
      }
    ]
  },
  {
    "postal": "L6T2Z6",
    "result": [
      {
        "electoralDistricts": [
          {
            "election": null,
            "id": 8,
            "name": "Brampton Centre"
          }
        ],
        "pollDivisionIds": [
          10137090
        ],
        "postalCode": "L6T2Z6",
        "streetName": "EDENBOROUGH",
        "streetDirectionId": null,
        "streetTypeId": "DR",
        "placeName": "BRAMPTON",
        "streetNameDisplayText": "EDENBOROUGH DR, BRAMPTON"
      }
    ]
  },
  {
    "postal": "L6T4R9",
    "result": [
      {
        "electoralDistricts": [
          {
            "election": null,
            "id": 8,
            "name": "Brampton Centre"
          }
        ],
        "pollDivisionIds": [
          10137075
        ],
        "postalCode": "L6T4R9",
        "streetName": "FLORIBUNDA",
        "streetDirectionId": null,
        "streetTypeId": "CRES",
        "placeName": "BRAMPTON",
        "streetNameDisplayText": "FLORIBUNDA CRES, BRAMPTON"
      }
    ]
  },
  {
    "postal": "L6T0W8",
    "result": []
  },
  {
    "postal": "L6T1L4",
    "result": [
      {
        "electoralDistricts": [
          {
            "election": null,
            "id": 8,
            "name": "Brampton Centre"
          }
        ],
        "pollDivisionIds": [
          10137083
        ],
        "postalCode": "L6T1L4",
        "streetName": "ALBION",
        "streetDirectionId": null,
        "streetTypeId": "CRES",
        "placeName": "BRAMPTON",
        "streetNameDisplayText": "ALBION CRES, BRAMPTON"
      }
    ]
  },
  {
    "postal": "L6T0C8",
    "result": [
      {
        "electoralDistricts": [
          {
            "election": null,
            "id": 8,
            "name": "Brampton Centre"
          }
        ],
        "pollDivisionIds": [
          10137075
        ],
        "postalCode": "L6T0C8",
        "streetName": "STEELWELL",
        "streetDirectionId": null,
        "streetTypeId": "RD",
        "placeName": "BRAMPTON",
        "streetNameDisplayText": "STEELWELL RD, BRAMPTON"
      }
    ]
  },
  {
    "postal": "L6T9X7",
    "result": []
  },
  {
    "postal": "L6T4T1",
    "result": [
      {
        "electoralDistricts": [
          {
            "election": null,
            "id": 8,
            "name": "Brampton Centre"
          }
        ],
        "pollDivisionIds": [
          10137083
        ],
        "postalCode": "L6T4T1",
        "streetName": "RAINHAM",
        "streetDirectionId": null,
        "streetTypeId": "CRT",
        "placeName": "BRAMPTON",
        "streetNameDisplayText": "RAINHAM CRT, BRAMPTON"
      }
    ]
  },
  {
    "postal": "L6T0M0",
    "result": []
  },
  {
    "postal": "L6T6A2",
    "result": []
  },
  {
    "postal": "L6T9S8",
    "result": []
  },
  {
    "postal": "L6T9T4",
    "result": []
  },
  {
    "postal": "L6T9Y4",
    "result": []
  },
  {
    "postal": "L6T6G5",
    "result": []
  },
  {
    "postal": "L6T6H9",
    "result": []
  },
  {
    "postal": "L6T2P3",
    "result": [
      {
        "electoralDistricts": [
          {
            "election": null,
            "id": 8,
            "name": "Brampton Centre"
          }
        ],
        "pollDivisionIds": [
          10137082
        ],
        "postalCode": "L6T2P3",
        "streetName": "ASCOT",
        "streetDirectionId": null,
        "streetTypeId": "AVE",
        "placeName": "BRAMPTON",
        "streetNameDisplayText": "ASCOT AVE, BRAMPTON"
      }
    ]
  },
  {
    "postal": "L6T1T6",
    "result": [
      {
        "electoralDistricts": [
          {
            "election": null,
            "id": 8,
            "name": "Brampton Centre"
          }
        ],
        "pollDivisionIds": [
          10137090
        ],
        "postalCode": "L6T1T6",
        "streetName": "DELORAINE",
        "streetDirectionId": null,
        "streetTypeId": "DR",
        "placeName": "BRAMPTON",
        "streetNameDisplayText": "DELORAINE DR, BRAMPTON"
      }
    ]
  },
  {
    "postal": "L6T4P6",
    "result": [
      {
        "electoralDistricts": [
          {
            "election": null,
            "id": 9,
            "name": "Brampton East"
          }
        ],
        "pollDivisionIds": [
          10111374
        ],
        "postalCode": "L6T4P6",
        "streetName": "SUMMERLEA",
        "streetDirectionId": null,
        "streetTypeId": "RD",
        "placeName": "BRAMPTON",
        "streetNameDisplayText": "SUMMERLEA RD, BRAMPTON"
      }
    ]
  },
  {
    "postal": "L6T3K1",
    "result": [
      {
        "electoralDistricts": [
          {
            "election": null,
            "id": 8,
            "name": "Brampton Centre"
          }
        ],
        "pollDivisionIds": [
          10137089
        ],
        "postalCode": "L6T3K1",
        "streetName": "DUKE",
        "streetDirectionId": null,
        "streetTypeId": "RD",
        "placeName": "BRAMPTON",
        "streetNameDisplayText": "DUKE RD, BRAMPTON"
      }
    ]
  },
  {
    "postal": "L6T6X4",
    "result": []
  },
  {
    "postal": "L6T4M8",
    "result": []
  },
  {
    "postal": "L6T2Y1",
    "result": [
      {
        "electoralDistricts": [
          {
            "election": null,
            "id": 8,
            "name": "Brampton Centre"
          }
        ],
        "pollDivisionIds": [
          10137091
        ],
        "postalCode": "L6T2Y1",
        "streetName": "DORSET",
        "streetDirectionId": null,
        "streetTypeId": "DR",
        "placeName": "BRAMPTON",
        "streetNameDisplayText": "DORSET DR, BRAMPTON"
      }
    ]
  },
  {
    "postal": "L6T6M1",
    "result": []
  },
  {
    "postal": "L6T5L8",
    "result": [
      {
        "electoralDistricts": [
          {
            "election": null,
            "id": 9,
            "name": "Brampton East"
          }
        ],
        "pollDivisionIds": [
          10111373
        ],
        "postalCode": "L6T5L8",
        "streetName": "DEVON",
        "streetDirectionId": null,
        "streetTypeId": "RD",
        "placeName": "BRAMPTON",
        "streetNameDisplayText": "DEVON RD, BRAMPTON"
      }
    ]
  },
  {
    "postal": "L6T3P6",
    "result": [
      {
        "electoralDistricts": [
          {
            "election": null,
            "id": 8,
            "name": "Brampton Centre"
          }
        ],
        "pollDivisionIds": [
          10137087
        ],
        "postalCode": "L6T3P6",
        "streetName": "FINCHLEY",
        "streetDirectionId": null,
        "streetTypeId": "CRES",
        "placeName": "BRAMPTON",
        "streetNameDisplayText": "FINCHLEY CRES, BRAMPTON"
      }
    ]
  },
  {
    "postal": "L6T9A5",
    "result": []
  },
  {
    "postal": "L6T7K1",
    "result": []
  },
  {
    "postal": "L6T3J4",
    "result": [
      {
        "electoralDistricts": [
          {
            "election": null,
            "id": 8,
            "name": "Brampton Centre"
          }
        ],
        "pollDivisionIds": [
          10137087
        ],
        "postalCode": "L6T3J4",
        "streetName": "FALLINGDALE",
        "streetDirectionId": null,
        "streetTypeId": "CRES",
        "placeName": "BRAMPTON",
        "streetNameDisplayText": "FALLINGDALE CRES, BRAMPTON"
      }
    ]
  },
  {
    "postal": "L6T5E7",
    "result": [
      {
        "electoralDistricts": [
          {
            "election": null,
            "id": 9,
            "name": "Brampton East"
          }
        ],
        "pollDivisionIds": [
          10111373
        ],
        "postalCode": "L6T5E7",
        "streetName": "DELTA PARK",
        "streetDirectionId": null,
        "streetTypeId": "BLVD",
        "placeName": "BRAMPTON",
        "streetNameDisplayText": "DELTA PARK BLVD, BRAMPTON"
      }
    ]
  },
  {
    "postal": "L6T3A7",
    "result": [
      {
        "electoralDistricts": [
          {
            "election": null,
            "id": 8,
            "name": "Brampton Centre"
          }
        ],
        "pollDivisionIds": [
          10137088
        ],
        "postalCode": "L6T3A7",
        "streetName": "EARLSDALE",
        "streetDirectionId": null,
        "streetTypeId": "CRES",
        "placeName": "BRAMPTON",
        "streetNameDisplayText": "EARLSDALE CRES, BRAMPTON"
      }
    ]
  },
  {
    "postal": "L6T1B9",
    "result": [
      {
        "electoralDistricts": [
          {
            "election": null,
            "id": 8,
            "name": "Brampton Centre"
          }
        ],
        "pollDivisionIds": [
          10137091
        ],
        "postalCode": "L6T1B9",
        "streetName": "EAST",
        "streetDirectionId": null,
        "streetTypeId": "DR",
        "placeName": "BRAMPTON",
        "streetNameDisplayText": "EAST DR, BRAMPTON"
      }
    ]
  },
  {
    "postal": "L6T9E8",
    "result": []
  },
  {
    "postal": "L6T1C9",
    "result": []
  },
  {
    "postal": "L6T3B5",
    "result": [
      {
        "electoralDistricts": [
          {
            "election": null,
            "id": 8,
            "name": "Brampton Centre"
          }
        ],
        "pollDivisionIds": [
          10137091
        ],
        "postalCode": "L6T3B5",
        "streetName": "DELEMERE",
        "streetDirectionId": null,
        "streetTypeId": "RD",
        "placeName": "BRAMPTON",
        "streetNameDisplayText": "DELEMERE RD, BRAMPTON"
      }
    ]
  },
  {
    "postal": "L6T8R0",
    "result": []
  },
  {
    "postal": "L6T3P2",
    "result": [
      {
        "electoralDistricts": [
          {
            "election": null,
            "id": 8,
            "name": "Brampton Centre"
          }
        ],
        "pollDivisionIds": [
          10137089
        ],
        "postalCode": "L6T3P2",
        "streetName": "FLAVIAN",
        "streetDirectionId": null,
        "streetTypeId": "CRES",
        "placeName": "BRAMPTON",
        "streetNameDisplayText": "FLAVIAN CRES, BRAMPTON"
      }
    ]
  },
  {
    "postal": "L6T5V4",
    "result": [
      {
        "electoralDistricts": [
          {
            "election": null,
            "id": 9,
            "name": "Brampton East"
          }
        ],
        "pollDivisionIds": [
          10111361
        ],
        "postalCode": "L6T5V4",
        "streetName": "QUEEN",
        "streetDirectionId": "E",
        "streetTypeId": "ST",
        "placeName": "BRAMPTON",
        "streetNameDisplayText": "QUEEN ST E, BRAMPTON"
      }
    ]
  },
  {
    "postal": "L6T4H0",
    "result": []
  },
  {
    "postal": "L6T4S7",
    "result": [
      {
        "electoralDistricts": [
          {
            "election": null,
            "id": 8,
            "name": "Brampton Centre"
          }
        ],
        "pollDivisionIds": [
          10137083
        ],
        "postalCode": "L6T4S7",
        "streetName": "ADVANCE",
        "streetDirectionId": null,
        "streetTypeId": "BLVD",
        "placeName": "BRAMPTON",
        "streetNameDisplayText": "ADVANCE BLVD, BRAMPTON"
      }
    ]
  },
  {
    "postal": "L6T6C2",
    "result": []
  },
  {
    "postal": "L6T8W3",
    "result": []
  },
  {
    "postal": "L6T4M5",
    "result": []
  },
  {
    "postal": "L6T5T1",
    "result": [
      {
        "electoralDistricts": [
          {
            "election": null,
            "id": 9,
            "name": "Brampton East"
          }
        ],
        "pollDivisionIds": [
          10111374
        ],
        "postalCode": "L6T5T1",
        "streetName": "STEELES",
        "streetDirectionId": "E",
        "streetTypeId": "AVE",
        "placeName": "BRAMPTON",
        "streetNameDisplayText": "STEELES AVE E, BRAMPTON"
      }
    ]
  },
  {
    "postal": "L6T3B3",
    "result": [
      {
        "electoralDistricts": [
          {
            "election": null,
            "id": 8,
            "name": "Brampton Centre"
          }
        ],
        "pollDivisionIds": [
          10137088
        ],
        "postalCode": "L6T3B3",
        "streetName": "EARNSCLIFFE",
        "streetDirectionId": null,
        "streetTypeId": "GATE",
        "placeName": "BRAMPTON",
        "streetNameDisplayText": "EARNSCLIFFE GATE, BRAMPTON"
      }
    ]
  },
  {
    "postal": "L6T6C6",
    "result": []
  },
  {
    "postal": "L6T7N8",
    "result": []
  },
  {
    "postal": "L6T2Y3",
    "result": [
      {
        "electoralDistricts": [
          {
            "election": null,
            "id": 8,
            "name": "Brampton Centre"
          }
        ],
        "pollDivisionIds": [
          10137091
        ],
        "postalCode": "L6T2Y3",
        "streetName": "DORSET",
        "streetDirectionId": null,
        "streetTypeId": "DR",
        "placeName": "BRAMPTON",
        "streetNameDisplayText": "DORSET DR, BRAMPTON"
      }
    ]
  },
  {
    "postal": "L6T2R6",
    "result": [
      {
        "electoralDistricts": [
          {
            "election": null,
            "id": 8,
            "name": "Brampton Centre"
          }
        ],
        "pollDivisionIds": [
          10137082
        ],
        "postalCode": "L6T2R6",
        "streetName": "CRAWLEY",
        "streetDirectionId": null,
        "streetTypeId": "DR",
        "placeName": "BRAMPTON",
        "streetNameDisplayText": "CRAWLEY DR, BRAMPTON"
      }
    ]
  },
  {
    "postal": "L6T7N3",
    "result": []
  },
  {
    "postal": "L6T8J2",
    "result": []
  },
  {
    "postal": "L6T6A9",
    "result": []
  },
  {
    "postal": "L6T3V2",
    "result": []
  },
  {
    "postal": "L6T2N3",
    "result": [
      {
        "electoralDistricts": [
          {
            "election": null,
            "id": 8,
            "name": "Brampton Centre"
          }
        ],
        "pollDivisionIds": [
          10137081
        ],
        "postalCode": "L6T2N3",
        "streetName": "BASILDON",
        "streetDirectionId": null,
        "streetTypeId": "CRES",
        "placeName": "BRAMPTON",
        "streetNameDisplayText": "BASILDON CRES, BRAMPTON"
      }
    ]
  },
  {
    "postal": "L6T1S5",
    "result": [
      {
        "electoralDistricts": [
          {
            "election": null,
            "id": 8,
            "name": "Brampton Centre"
          }
        ],
        "pollDivisionIds": [
          10137082
        ],
        "postalCode": "L6T1S5",
        "streetName": "ALTON",
        "streetDirectionId": null,
        "streetTypeId": "CRT",
        "placeName": "BRAMPTON",
        "streetNameDisplayText": "ALTON CRT, BRAMPTON"
      }
    ]
  },
  {
    "postal": "L6T4T7",
    "result": [
      {
        "electoralDistricts": [
          {
            "election": null,
            "id": 8,
            "name": "Brampton Centre"
          }
        ],
        "pollDivisionIds": [
          10137083
        ],
        "postalCode": "L6T4T7",
        "streetName": "STEELES",
        "streetDirectionId": "E",
        "streetTypeId": "AVE",
        "placeName": "BRAMPTON",
        "streetNameDisplayText": "STEELES AVE E, BRAMPTON"
      }
    ]
  },
  {
    "postal": "L6T6Y7",
    "result": []
  },
  {
    "postal": "L6T0W7",
    "result": []
  },
  {
    "postal": "L6T2W9",
    "result": [
      {
        "electoralDistricts": [
          {
            "election": null,
            "id": 8,
            "name": "Brampton Centre"
          }
        ],
        "pollDivisionIds": [
          10137091
        ],
        "postalCode": "L6T2W9",
        "streetName": "BRAMALEA",
        "streetDirectionId": null,
        "streetTypeId": "RD",
        "placeName": "BRAMPTON",
        "streetNameDisplayText": "BRAMALEA RD, BRAMPTON"
      }
    ]
  },
  {
    "postal": "L6T8V0",
    "result": []
  },
  {
    "postal": "L6T0H4",
    "result": []
  },
  {
    "postal": "L6T2T1",
    "result": [
      {
        "electoralDistricts": [
          {
            "election": null,
            "id": 8,
            "name": "Brampton Centre"
          }
        ],
        "pollDivisionIds": [
          10137082
        ],
        "postalCode": "L6T2T1",
        "streetName": "AINTREE",
        "streetDirectionId": null,
        "streetTypeId": "CRES",
        "placeName": "BRAMPTON",
        "streetNameDisplayText": "AINTREE CRES, BRAMPTON"
      }
    ]
  },
  {
    "postal": "L6T1B1",
    "result": [
      {
        "electoralDistricts": [
          {
            "election": null,
            "id": 8,
            "name": "Brampton Centre"
          }
        ],
        "pollDivisionIds": [
          10137075
        ],
        "postalCode": "L6T1B1",
        "streetName": "FINLEY",
        "streetDirectionId": null,
        "streetTypeId": "RD",
        "placeName": "BRAMPTON",
        "streetNameDisplayText": "FINLEY RD, BRAMPTON"
      }
    ]
  },
  {
    "postal": "L6T8B6",
    "result": []
  },
  {
    "postal": "L6T6H1",
    "result": []
  },
  {
    "postal": "L6T8T8",
    "result": []
  },
  {
    "postal": "L6T0T4",
    "result": []
  },
  {
    "postal": "L6T2C4",
    "result": [
      {
        "electoralDistricts": [
          {
            "election": null,
            "id": 8,
            "name": "Brampton Centre"
          }
        ],
        "pollDivisionIds": [
          10137087
        ],
        "postalCode": "L6T2C4",
        "streetName": "ELROSE",
        "streetDirectionId": null,
        "streetTypeId": "RD",
        "placeName": "BRAMPTON",
        "streetNameDisplayText": "ELROSE RD, BRAMPTON"
      }
    ]
  },
  {
    "postal": "L6T8N3",
    "result": []
  },
  {
    "postal": "L6T4L8",
    "result": [
      {
        "electoralDistricts": [
          {
            "election": null,
            "id": 8,
            "name": "Brampton Centre"
          }
        ],
        "pollDivisionIds": [
          10137083
        ],
        "postalCode": "L6T4L8",
        "streetName": "STRATHEARN",
        "streetDirectionId": null,
        "streetTypeId": "AVE",
        "placeName": "BRAMPTON",
        "streetNameDisplayText": "STRATHEARN AVE, BRAMPTON"
      }
    ]
  },
  {
    "postal": "L6T2B5",
    "result": [
      {
        "electoralDistricts": [
          {
            "election": null,
            "id": 8,
            "name": "Brampton Centre"
          }
        ],
        "pollDivisionIds": [
          10137088
        ],
        "postalCode": "L6T2B5",
        "streetName": "EARNSCLIFFE",
        "streetDirectionId": null,
        "streetTypeId": "CIR",
        "placeName": "BRAMPTON",
        "streetNameDisplayText": "EARNSCLIFFE CIR, BRAMPTON"
      }
    ]
  },
  {
    "postal": "L6T3H1",
    "result": [
      {
        "electoralDistricts": [
          {
            "election": null,
            "id": 8,
            "name": "Brampton Centre"
          }
        ],
        "pollDivisionIds": [
          10137090
        ],
        "postalCode": "L6T3H1",
        "streetName": "DUNBLAINE",
        "streetDirectionId": null,
        "streetTypeId": "CRES",
        "placeName": "BRAMPTON",
        "streetNameDisplayText": "DUNBLAINE CRES, BRAMPTON"
      }
    ]
  },
  {
    "postal": "L6T4Y1",
    "result": []
  },
  {
    "postal": "L6T7E2",
    "result": []
  },
  {
    "postal": "L6T2P5",
    "result": [
      {
        "electoralDistricts": [
          {
            "election": null,
            "id": 8,
            "name": "Brampton Centre"
          }
        ],
        "pollDivisionIds": [
          10137082
        ],
        "postalCode": "L6T2P5",
        "streetName": "ASCOT",
        "streetDirectionId": null,
        "streetTypeId": "AVE",
        "placeName": "BRAMPTON",
        "streetNameDisplayText": "ASCOT AVE, BRAMPTON"
      }
    ]
  },
  {
    "postal": "L6T8R7",
    "result": []
  },
  {
    "postal": "L6T9P1",
    "result": []
  },
  {
    "postal": "L6T3B8",
    "result": [
      {
        "electoralDistricts": [
          {
            "election": null,
            "id": 8,
            "name": "Brampton Centre"
          }
        ],
        "pollDivisionIds": [
          10137091
        ],
        "postalCode": "L6T3B8",
        "streetName": "DOWLING",
        "streetDirectionId": null,
        "streetTypeId": "CRES",
        "placeName": "BRAMPTON",
        "streetNameDisplayText": "DOWLING CRES, BRAMPTON"
      }
    ]
  },
  {
    "postal": "L6T3P7",
    "result": [
      {
        "electoralDistricts": [
          {
            "election": null,
            "id": 8,
            "name": "Brampton Centre"
          }
        ],
        "pollDivisionIds": [
          10137087
        ],
        "postalCode": "L6T3P7",
        "streetName": "FIDELIA",
        "streetDirectionId": null,
        "streetTypeId": "CRES",
        "placeName": "BRAMPTON",
        "streetNameDisplayText": "FIDELIA CRES, BRAMPTON"
      }
    ]
  },
  {
    "postal": "L6T9B2",
    "result": []
  },
  {
    "postal": "L6T6Z3",
    "result": []
  },
  {
    "postal": "L6T4N5",
    "result": [
      {
        "electoralDistricts": [
          {
            "election": null,
            "id": 8,
            "name": "Brampton Centre"
          }
        ],
        "pollDivisionIds": [
          10137075
        ],
        "postalCode": "L6T4N5",
        "streetName": "SILVER MAPLE",
        "streetDirectionId": null,
        "streetTypeId": "CRT",
        "placeName": "BRAMPTON",
        "streetNameDisplayText": "SILVER MAPLE CRT, BRAMPTON"
      }
    ]
  },
  {
    "postal": "L6T8T3",
    "result": []
  },
  {
    "postal": "L6T1V2",
    "result": [
      {
        "electoralDistricts": [
          {
            "election": null,
            "id": 8,
            "name": "Brampton Centre"
          }
        ],
        "pollDivisionIds": [
          10137081
        ],
        "postalCode": "L6T1V2",
        "streetName": "BALMORAL",
        "streetDirectionId": null,
        "streetTypeId": "DR",
        "placeName": "BRAMPTON",
        "streetNameDisplayText": "BALMORAL DR, BRAMPTON"
      }
    ]
  },
  {
    "postal": "L6T1Y0",
    "result": []
  },
  {
    "postal": "L6T3G6",
    "result": [
      {
        "electoralDistricts": [
          {
            "election": null,
            "id": 8,
            "name": "Brampton Centre"
          }
        ],
        "pollDivisionIds": [
          10137090
        ],
        "postalCode": "L6T3G6",
        "streetName": "DRAYTON",
        "streetDirectionId": null,
        "streetTypeId": "CRES",
        "placeName": "BRAMPTON",
        "streetNameDisplayText": "DRAYTON CRES, BRAMPTON"
      }
    ]
  },
  {
    "postal": "L6T3H7",
    "result": [
      {
        "electoralDistricts": [
          {
            "election": null,
            "id": 8,
            "name": "Brampton Centre"
          }
        ],
        "pollDivisionIds": [
          10137087
        ],
        "postalCode": "L6T3H7",
        "streetName": "FINCHGATE",
        "streetDirectionId": null,
        "streetTypeId": "BLVD",
        "placeName": "BRAMPTON",
        "streetNameDisplayText": "FINCHGATE BLVD, BRAMPTON"
      }
    ]
  },
  {
    "postal": "L6T7X8",
    "result": []
  },
  {
    "postal": "L6T0C7",
    "result": [
      {
        "electoralDistricts": [
          {
            "election": null,
            "id": 9,
            "name": "Brampton East"
          }
        ],
        "pollDivisionIds": [
          10111374
        ],
        "postalCode": "L6T0C7",
        "streetName": "QUEEN",
        "streetDirectionId": "E",
        "streetTypeId": "ST",
        "placeName": "BRAMPTON",
        "streetNameDisplayText": "QUEEN ST E, BRAMPTON"
      }
    ]
  },
  {
    "postal": "L6T0W9",
    "result": []
  },
  {
    "postal": "L6T8E6",
    "result": []
  },
  {
    "postal": "L6T9Z8",
    "result": []
  },
  {
    "postal": "L6T3P4",
    "result": [
      {
        "electoralDistricts": [
          {
            "election": null,
            "id": 8,
            "name": "Brampton Centre"
          }
        ],
        "pollDivisionIds": [
          10137089
        ],
        "postalCode": "L6T3P4",
        "streetName": "FLAVIAN",
        "streetDirectionId": null,
        "streetTypeId": "CRES",
        "placeName": "BRAMPTON",
        "streetNameDisplayText": "FLAVIAN CRES, BRAMPTON"
      }
    ]
  },
  {
    "postal": "L6T6L8",
    "result": []
  },
  {
    "postal": "L6T2R4",
    "result": [
      {
        "electoralDistricts": [
          {
            "election": null,
            "id": 8,
            "name": "Brampton Centre"
          }
        ],
        "pollDivisionIds": [
          10137082
        ],
        "postalCode": "L6T2R4",
        "streetName": "ADDINGTON",
        "streetDirectionId": null,
        "streetTypeId": "CRES",
        "placeName": "BRAMPTON",
        "streetNameDisplayText": "ADDINGTON CRES, BRAMPTON"
      }
    ]
  },
  {
    "postal": "L6T2W1",
    "result": [
      {
        "electoralDistricts": [
          {
            "election": null,
            "id": 8,
            "name": "Brampton Centre"
          }
        ],
        "pollDivisionIds": [
          10137083
        ],
        "postalCode": "L6T2W1",
        "streetName": "AUTUMN",
        "streetDirectionId": null,
        "streetTypeId": "BLVD",
        "placeName": "BRAMPTON",
        "streetNameDisplayText": "AUTUMN BLVD, BRAMPTON"
      }
    ]
  },
  {
    "postal": "L6T9H8",
    "result": []
  },
  {
    "postal": "L6T8X9",
    "result": []
  },
  {
    "postal": "L6T7H4",
    "result": []
  },
  {
    "postal": "L6T3J1",
    "result": [
      {
        "electoralDistricts": [
          {
            "election": null,
            "id": 8,
            "name": "Brampton Centre"
          }
        ],
        "pollDivisionIds": [
          10137087
        ],
        "postalCode": "L6T3J1",
        "streetName": "FINCHGATE",
        "streetDirectionId": null,
        "streetTypeId": "BLVD",
        "placeName": "BRAMPTON",
        "streetNameDisplayText": "FINCHGATE BLVD, BRAMPTON"
      }
    ]
  },
  {
    "postal": "L6T1P4",
    "result": [
      {
        "electoralDistricts": [
          {
            "election": null,
            "id": 8,
            "name": "Brampton Centre"
          }
        ],
        "pollDivisionIds": [
          10137091
        ],
        "postalCode": "L6T1P4",
        "streetName": "DARTNELL",
        "streetDirectionId": null,
        "streetTypeId": "PL",
        "placeName": "BRAMPTON",
        "streetNameDisplayText": "DARTNELL PL, BRAMPTON"
      }
    ]
  },
  {
    "postal": "L6T2A3",
    "result": [
      {
        "electoralDistricts": [
          {
            "election": null,
            "id": 8,
            "name": "Brampton Centre"
          }
        ],
        "pollDivisionIds": [
          10137081
        ],
        "postalCode": "L6T2A3",
        "streetName": "BRIAR",
        "streetDirectionId": null,
        "streetTypeId": "PATH",
        "placeName": "BRAMPTON",
        "streetNameDisplayText": "BRIAR PATH, BRAMPTON"
      }
    ]
  },
  {
    "postal": "L6T0Z1",
    "result": []
  },
  {
    "postal": "L6T1C1",
    "result": [
      {
        "electoralDistricts": [
          {
            "election": null,
            "id": 8,
            "name": "Brampton Centre"
          }
        ],
        "pollDivisionIds": [
          10137091
        ],
        "postalCode": "L6T1C1",
        "streetName": "EAST",
        "streetDirectionId": null,
        "streetTypeId": "DR",
        "placeName": "BRAMPTON",
        "streetNameDisplayText": "EAST DR, BRAMPTON"
      }
    ]
  },
  {
    "postal": "L6T0H3",
    "result": [
      {
        "electoralDistricts": [
          {
            "election": null,
            "id": 8,
            "name": "Brampton Centre"
          }
        ],
        "pollDivisionIds": [
          10137103
        ],
        "postalCode": "L6T0H3",
        "streetName": "BRAMALEA",
        "streetDirectionId": null,
        "streetTypeId": "RD",
        "placeName": "BRAMPTON",
        "streetNameDisplayText": "BRAMALEA RD, BRAMPTON"
      }
    ]
  },
  {
    "postal": "L6T7B0",
    "result": []
  },
  {
    "postal": "L6T5K2",
    "result": []
  },
  {
    "postal": "L6T1E9",
    "result": [
      {
        "electoralDistricts": [
          {
            "election": null,
            "id": 8,
            "name": "Brampton Centre"
          }
        ],
        "pollDivisionIds": [
          10137075
        ],
        "postalCode": "L6T1E9",
        "streetName": "ORENDA",
        "streetDirectionId": null,
        "streetTypeId": "RD",
        "placeName": "BRAMPTON",
        "streetNameDisplayText": "ORENDA RD, BRAMPTON"
      }
    ]
  },
  {
    "postal": "L6T9W7",
    "result": []
  },
  {
    "postal": "L6T5W6",
    "result": []
  },
  {
    "postal": "L6T6S6",
    "result": []
  },
  {
    "postal": "L6T2P8",
    "result": [
      {
        "electoralDistricts": [
          {
            "election": null,
            "id": 8,
            "name": "Brampton Centre"
          }
        ],
        "pollDivisionIds": [
          10137082
        ],
        "postalCode": "L6T2P8",
        "streetName": "ABERDEEN",
        "streetDirectionId": null,
        "streetTypeId": "CRES",
        "placeName": "BRAMPTON",
        "streetNameDisplayText": "ABERDEEN CRES, BRAMPTON"
      }
    ]
  },
  {
    "postal": "L6T4P8",
    "result": [
      {
        "electoralDistricts": [
          {
            "election": null,
            "id": 9,
            "name": "Brampton East"
          }
        ],
        "pollDivisionIds": [
          10111374
        ],
        "postalCode": "L6T4P8",
        "streetName": "CARSON",
        "streetDirectionId": null,
        "streetTypeId": "CRT",
        "placeName": "BRAMPTON",
        "streetNameDisplayText": "CARSON CRT, BRAMPTON"
      }
    ]
  },
  {
    "postal": "L6T0V9",
    "result": []
  },
  {
    "postal": "L6T5Y2",
    "result": []
  },
  {
    "postal": "L6T7Z7",
    "result": []
  },
  {
    "postal": "L6T6Y8",
    "result": []
  },
  {
    "postal": "L6T2G7",
    "result": [
      {
        "electoralDistricts": [
          {
            "election": null,
            "id": 8,
            "name": "Brampton Centre"
          }
        ],
        "pollDivisionIds": [
          10137087
        ],
        "postalCode": "L6T2G7",
        "streetName": "FLAMINGO",
        "streetDirectionId": null,
        "streetTypeId": "CRES",
        "placeName": "BRAMPTON",
        "streetNameDisplayText": "FLAMINGO CRES, BRAMPTON"
      }
    ]
  },
  {
    "postal": "L6T8C1",
    "result": []
  },
  {
    "postal": "L6T5C5",
    "result": [
      {
        "electoralDistricts": [
          {
            "election": null,
            "id": 9,
            "name": "Brampton East"
          }
        ],
        "pollDivisionIds": [
          10111374
        ],
        "postalCode": "L6T5C5",
        "streetName": "TORBRAM",
        "streetDirectionId": null,
        "streetTypeId": "RD",
        "placeName": "BRAMPTON",
        "streetNameDisplayText": "TORBRAM RD, BRAMPTON"
      }
    ]
  },
  {
    "postal": "L6T2X8",
    "result": [
      {
        "electoralDistricts": [
          {
            "election": null,
            "id": 8,
            "name": "Brampton Centre"
          }
        ],
        "pollDivisionIds": [
          10137091
        ],
        "postalCode": "L6T2X8",
        "streetName": "DORSET",
        "streetDirectionId": null,
        "streetTypeId": "DR",
        "placeName": "BRAMPTON",
        "streetNameDisplayText": "DORSET DR, BRAMPTON"
      }
    ]
  },
  {
    "postal": "L6T1W5",
    "result": [
      {
        "electoralDistricts": [
          {
            "election": null,
            "id": 8,
            "name": "Brampton Centre"
          }
        ],
        "pollDivisionIds": [
          10137090
        ],
        "postalCode": "L6T1W5",
        "streetName": "BALMORAL",
        "streetDirectionId": null,
        "streetTypeId": "DR",
        "placeName": "BRAMPTON",
        "streetNameDisplayText": "BALMORAL DR, BRAMPTON"
      }
    ]
  },
  {
    "postal": "L6T7G0",
    "result": []
  },
  {
    "postal": "L6T8J8",
    "result": []
  },
  {
    "postal": "L6T3Y0",
    "result": []
  },
  {
    "postal": "L6T9T7",
    "result": []
  },
  {
    "postal": "L6T5P4",
    "result": [
      {
        "electoralDistricts": [
          {
            "election": null,
            "id": 9,
            "name": "Brampton East"
          }
        ],
        "pollDivisionIds": [
          10111362,
          10111373
        ],
        "postalCode": "L6T5P4",
        "streetName": "AUCTION",
        "streetDirectionId": null,
        "streetTypeId": "LANE",
        "placeName": "BRAMPTON",
        "streetNameDisplayText": "AUCTION LANE, BRAMPTON"
      }
    ]
  },
  {
    "postal": "L6T4B0",
    "result": []
  },
  {
    "postal": "L6T9N8",
    "result": []
  },
  {
    "postal": "L6T4A7",
    "result": []
  },
  {
    "postal": "L6T4H9",
    "result": [
      {
        "electoralDistricts": [
          {
            "election": null,
            "id": 8,
            "name": "Brampton Centre"
          }
        ],
        "pollDivisionIds": [
          10137083
        ],
        "postalCode": "L6T4H9",
        "streetName": "ADVANCE",
        "streetDirectionId": null,
        "streetTypeId": "BLVD",
        "placeName": "BRAMPTON",
        "streetNameDisplayText": "ADVANCE BLVD, BRAMPTON"
      }
    ]
  },
  {
    "postal": "L6T6X1",
    "result": []
  },
  {
    "postal": "L6T9Y7",
    "result": []
  },
  {
    "postal": "L6T2Y5",
    "result": [
      {
        "electoralDistricts": [
          {
            "election": null,
            "id": 8,
            "name": "Brampton Centre"
          }
        ],
        "pollDivisionIds": [
          10137091
        ],
        "postalCode": "L6T2Y5",
        "streetName": "DORSET",
        "streetDirectionId": null,
        "streetTypeId": "DR",
        "placeName": "BRAMPTON",
        "streetNameDisplayText": "DORSET DR, BRAMPTON"
      }
    ]
  },
  {
    "postal": "L6T8L7",
    "result": []
  },
  {
    "postal": "L6T2A8",
    "result": [
      {
        "electoralDistricts": [
          {
            "election": null,
            "id": 8,
            "name": "Brampton Centre"
          }
        ],
        "pollDivisionIds": [
          10137088
        ],
        "postalCode": "L6T2A8",
        "streetName": "ELVINA",
        "streetDirectionId": null,
        "streetTypeId": "GATE",
        "placeName": "BRAMPTON",
        "streetNameDisplayText": "ELVINA GATE, BRAMPTON"
      }
    ]
  },
  {
    "postal": "L6T2K9",
    "result": [
      {
        "electoralDistricts": [
          {
            "election": null,
            "id": 8,
            "name": "Brampton Centre"
          }
        ],
        "pollDivisionIds": [
          10137081
        ],
        "postalCode": "L6T2K9",
        "streetName": "BIRCH",
        "streetDirectionId": null,
        "streetTypeId": "RD",
        "placeName": "BRAMPTON",
        "streetNameDisplayText": "BIRCH RD, BRAMPTON"
      }
    ]
  },
  {
    "postal": "L6T3E5",
    "result": [
      {
        "electoralDistricts": [
          {
            "election": null,
            "id": 8,
            "name": "Brampton Centre"
          }
        ],
        "pollDivisionIds": [
          10137090
        ],
        "postalCode": "L6T3E5",
        "streetName": "DORCHESTER",
        "streetDirectionId": null,
        "streetTypeId": "DR",
        "placeName": "BRAMPTON",
        "streetNameDisplayText": "DORCHESTER DR, BRAMPTON"
      }
    ]
  },
  {
    "postal": "L6T8N6",
    "result": []
  },
  {
    "postal": "L6T8J4",
    "result": []
  },
  {
    "postal": "L6T4R7",
    "result": [
      {
        "electoralDistricts": [
          {
            "election": null,
            "id": 8,
            "name": "Brampton Centre"
          }
        ],
        "pollDivisionIds": [
          10137083
        ],
        "postalCode": "L6T4R7",
        "streetName": "ADVANCE",
        "streetDirectionId": null,
        "streetTypeId": "BLVD",
        "placeName": "BRAMPTON",
        "streetNameDisplayText": "ADVANCE BLVD, BRAMPTON"
      }
    ]
  },
  {
    "postal": "L6T9K1",
    "result": []
  },
  {
    "postal": "L6T8E1",
    "result": []
  },
  {
    "postal": "L6T0R1",
    "result": []
  },
  {
    "postal": "L6T4J3",
    "result": [
      {
        "electoralDistricts": [
          {
            "election": null,
            "id": 8,
            "name": "Brampton Centre"
          }
        ],
        "pollDivisionIds": [
          10137075
        ],
        "postalCode": "L6T4J3",
        "streetName": "ADVANCE",
        "streetDirectionId": null,
        "streetTypeId": "BLVD",
        "placeName": "BRAMPTON",
        "streetNameDisplayText": "ADVANCE BLVD, BRAMPTON"
      }
    ]
  },
  {
    "postal": "L6T7E7",
    "result": []
  },
  {
    "postal": "L6T0J0",
    "result": []
  },
  {
    "postal": "L6T7R8",
    "result": []
  },
  {
    "postal": "L6T9X0",
    "result": []
  },
  {
    "postal": "L6T7P6",
    "result": []
  },
  {
    "postal": "L6T0R7",
    "result": []
  },
  {
    "postal": "L6T5W1",
    "result": [
      {
        "electoralDistricts": [
          {
            "election": null,
            "id": 9,
            "name": "Brampton East"
          }
        ],
        "pollDivisionIds": [
          10111373
        ],
        "postalCode": "L6T5W1",
        "streetName": "PARKHURST",
        "streetDirectionId": null,
        "streetTypeId": "SQ",
        "placeName": "BRAMPTON",
        "streetNameDisplayText": "PARKHURST SQ, BRAMPTON"
      }
    ]
  },
  {
    "postal": "L6T0K4",
    "result": []
  },
  {
    "postal": "L6T7N9",
    "result": []
  },
  {
    "postal": "L6T1N0",
    "result": []
  },
  {
    "postal": "L6T6P3",
    "result": []
  },
  {
    "postal": "L6T5A1",
    "result": [
      {
        "electoralDistricts": [
          {
            "election": null,
            "id": 8,
            "name": "Brampton Centre"
          }
        ],
        "pollDivisionIds": [
          10137091
        ],
        "postalCode": "L6T5A1",
        "streetName": "STEELES",
        "streetDirectionId": "E",
        "streetTypeId": "AVE",
        "placeName": "BRAMPTON",
        "streetNameDisplayText": "STEELES AVE E, BRAMPTON"
      }
    ]
  },
  {
    "postal": "L6T9M9",
    "result": []
  },
  {
    "postal": "L6T7T6",
    "result": []
  },
  {
    "postal": "L6T3X0",
    "result": []
  },
  {
    "postal": "L6T2T0",
    "result": []
  },
  {
    "postal": "L6T5X9",
    "result": []
  },
  {
    "postal": "L6T2R3",
    "result": [
      {
        "electoralDistricts": [
          {
            "election": null,
            "id": 8,
            "name": "Brampton Centre"
          }
        ],
        "pollDivisionIds": [
          10137082
        ],
        "postalCode": "L6T2R3",
        "streetName": "ADDINGTON",
        "streetDirectionId": null,
        "streetTypeId": "CRES",
        "placeName": "BRAMPTON",
        "streetNameDisplayText": "ADDINGTON CRES, BRAMPTON"
      }
    ]
  },
  {
    "postal": "L6T5N2",
    "result": []
  },
  {
    "postal": "L6T4Y7",
    "result": [
      {
        "electoralDistricts": [
          {
            "election": null,
            "id": 8,
            "name": "Brampton Centre"
          }
        ],
        "pollDivisionIds": [
          10137075
        ],
        "postalCode": "L6T4Y7",
        "streetName": "ADVANCE",
        "streetDirectionId": null,
        "streetTypeId": "BLVD",
        "placeName": "BRAMPTON",
        "streetNameDisplayText": "ADVANCE BLVD, BRAMPTON"
      }
    ]
  },
  {
    "postal": "L6T7M0",
    "result": []
  },
  {
    "postal": "L6T8P3",
    "result": []
  },
  {
    "postal": "L6T3N3",
    "result": [
      {
        "electoralDistricts": [
          {
            "election": null,
            "id": 8,
            "name": "Brampton Centre"
          }
        ],
        "pollDivisionIds": [
          10137087
        ],
        "postalCode": "L6T3N3",
        "streetName": "FOLKSTONE",
        "streetDirectionId": null,
        "streetTypeId": "CRES",
        "placeName": "BRAMPTON",
        "streetNameDisplayText": "FOLKSTONE CRES, BRAMPTON"
      }
    ]
  },
  {
    "postal": "L6T7S3",
    "result": []
  },
  {
    "postal": "L6T3V9",
    "result": [
      {
        "electoralDistricts": [
          {
            "election": null,
            "id": 9,
            "name": "Brampton East"
          }
        ],
        "pollDivisionIds": [
          10111374
        ],
        "postalCode": "L6T3V9",
        "streetName": "TORBRAM",
        "streetDirectionId": null,
        "streetTypeId": "RD",
        "placeName": "BRAMPTON",
        "streetNameDisplayText": "TORBRAM RD, BRAMPTON"
      }
    ]
  },
  {
    "postal": "L6T9N7",
    "result": []
  },
  {
    "postal": "L6T0G4",
    "result": [
      {
        "electoralDistricts": [
          {
            "election": null,
            "id": 9,
            "name": "Brampton East"
          }
        ],
        "pollDivisionIds": [
          10111361
        ],
        "postalCode": "L6T0G4",
        "streetName": "KELWAYS",
        "streetDirectionId": null,
        "streetTypeId": "CIR",
        "placeName": "BRAMPTON",
        "streetNameDisplayText": "KELWAYS CIR, BRAMPTON"
      },
      {
        "electoralDistricts": [
          {
            "election": null,
            "id": 9,
            "name": "Brampton East"
          }
        ],
        "pollDivisionIds": [
          10111361
        ],
        "postalCode": "L6T0G4",
        "streetName": "SEA CLIFF",
        "streetDirectionId": null,
        "streetTypeId": "CRES",
        "placeName": "BRAMPTON",
        "streetNameDisplayText": "SEA CLIFF CRES, BRAMPTON"
      }
    ]
  },
  {
    "postal": "L6T2E2",
    "result": [
      {
        "electoralDistricts": [
          {
            "election": null,
            "id": 8,
            "name": "Brampton Centre"
          }
        ],
        "pollDivisionIds": [
          10137082
        ],
        "postalCode": "L6T2E2",
        "streetName": "CLARK",
        "streetDirectionId": null,
        "streetTypeId": "BLVD",
        "placeName": "BRAMPTON",
        "streetNameDisplayText": "CLARK BLVD, BRAMPTON"
      }
    ]
  },
  {
    "postal": "L6T7W8",
    "result": []
  },
  {
    "postal": "L6T7M5",
    "result": []
  },
  {
    "postal": "L6T5W8",
    "result": []
  },
  {
    "postal": "L6T5E5",
    "result": [
      {
        "electoralDistricts": [
          {
            "election": null,
            "id": 9,
            "name": "Brampton East"
          }
        ],
        "pollDivisionIds": [
          10111374
        ],
        "postalCode": "L6T5E5",
        "streetName": "VAN DER GRAAF",
        "streetDirectionId": null,
        "streetTypeId": "CRT",
        "placeName": "BRAMPTON",
        "streetNameDisplayText": "VAN DER GRAAF CRT, BRAMPTON"
      }
    ]
  },
  {
    "postal": "L6T1P9",
    "result": [
      {
        "electoralDistricts": [
          {
            "election": null,
            "id": 8,
            "name": "Brampton Centre"
          }
        ],
        "pollDivisionIds": [
          10137081
        ],
        "postalCode": "L6T1P9",
        "streetName": "BRENTWOOD",
        "streetDirectionId": null,
        "streetTypeId": "DR",
        "placeName": "BRAMPTON",
        "streetNameDisplayText": "BRENTWOOD DR, BRAMPTON"
      }
    ]
  },
  {
    "postal": "L6T8V8",
    "result": []
  },
  {
    "postal": "L6T9G8",
    "result": []
  },
  {
    "postal": "L6T8H9",
    "result": []
  },
  {
    "postal": "L6T1Z1",
    "result": [
      {
        "electoralDistricts": [
          {
            "election": null,
            "id": 8,
            "name": "Brampton Centre"
          }
        ],
        "pollDivisionIds": [
          10137081
        ],
        "postalCode": "L6T1Z1",
        "streetName": "BROMLEY",
        "streetDirectionId": null,
        "streetTypeId": "CRES",
        "placeName": "BRAMPTON",
        "streetNameDisplayText": "BROMLEY CRES, BRAMPTON"
      }
    ]
  },
  {
    "postal": "L6T8M3",
    "result": []
  },
  {
    "postal": "L6T5H6",
    "result": [
      {
        "electoralDistricts": [
          {
            "election": null,
            "id": 9,
            "name": "Brampton East"
          }
        ],
        "pollDivisionIds": [
          10111374
        ],
        "postalCode": "L6T5H6",
        "streetName": "BARTON",
        "streetDirectionId": null,
        "streetTypeId": "CRT",
        "placeName": "BRAMPTON",
        "streetNameDisplayText": "BARTON CRT, BRAMPTON"
      }
    ]
  },
  {
    "postal": "L6T7W7",
    "result": []
  },
  {
    "postal": "L6T4L0",
    "result": []
  },
  {
    "postal": "L6T2N1",
    "result": [
      {
        "electoralDistricts": [
          {
            "election": null,
            "id": 8,
            "name": "Brampton Centre"
          }
        ],
        "pollDivisionIds": [
          10137081
        ],
        "postalCode": "L6T2N1",
        "streetName": "BASILDON",
        "streetDirectionId": null,
        "streetTypeId": "CRES",
        "placeName": "BRAMPTON",
        "streetNameDisplayText": "BASILDON CRES, BRAMPTON"
      }
    ]
  },
  {
    "postal": "L6T2H4",
    "result": [
      {
        "electoralDistricts": [
          {
            "election": null,
            "id": 8,
            "name": "Brampton Centre"
          }
        ],
        "pollDivisionIds": [
          10137075
        ],
        "postalCode": "L6T2H4",
        "streetName": "BLAIR",
        "streetDirectionId": null,
        "streetTypeId": "DR",
        "placeName": "BRAMPTON",
        "streetNameDisplayText": "BLAIR DR, BRAMPTON"
      }
    ]
  },
  {
    "postal": "L6T5C8",
    "result": [
      {
        "electoralDistricts": [
          {
            "election": null,
            "id": 8,
            "name": "Brampton Centre"
          }
        ],
        "pollDivisionIds": [
          10137089
        ],
        "postalCode": "L6T5C8",
        "streetName": "TORBRAM",
        "streetDirectionId": null,
        "streetTypeId": "RD",
        "placeName": "BRAMPTON",
        "streetNameDisplayText": "TORBRAM RD, BRAMPTON"
      }
    ]
  },
  {
    "postal": "L6T8B0",
    "result": []
  },
  {
    "postal": "L6T1T4",
    "result": [
      {
        "electoralDistricts": [
          {
            "election": null,
            "id": 8,
            "name": "Brampton Centre"
          }
        ],
        "pollDivisionIds": [
          10137090
        ],
        "postalCode": "L6T1T4",
        "streetName": "DELORAINE",
        "streetDirectionId": null,
        "streetTypeId": "DR",
        "placeName": "BRAMPTON",
        "streetNameDisplayText": "DELORAINE DR, BRAMPTON"
      }
    ]
  },
  {
    "postal": "L6T7N7",
    "result": []
  },
  {
    "postal": "L6T4L3",
    "result": [
      {
        "electoralDistricts": [
          {
            "election": null,
            "id": 8,
            "name": "Brampton Centre"
          }
        ],
        "pollDivisionIds": [
          10137091
        ],
        "postalCode": "L6T4L3",
        "streetName": "MELANIE",
        "streetDirectionId": null,
        "streetTypeId": "DR",
        "placeName": "BRAMPTON",
        "streetNameDisplayText": "MELANIE DR, BRAMPTON"
      }
    ]
  },
  {
    "postal": "L6T2N2",
    "result": [
      {
        "electoralDistricts": [
          {
            "election": null,
            "id": 8,
            "name": "Brampton Centre"
          }
        ],
        "pollDivisionIds": [
          10137081
        ],
        "postalCode": "L6T2N2",
        "streetName": "BASILDON",
        "streetDirectionId": null,
        "streetTypeId": "CRES",
        "placeName": "BRAMPTON",
        "streetNameDisplayText": "BASILDON CRES, BRAMPTON"
      }
    ]
  },
  {
    "postal": "L6T4N8",
    "result": []
  },
  {
    "postal": "L6T3M5",
    "result": [
      {
        "electoralDistricts": [
          {
            "election": null,
            "id": 8,
            "name": "Brampton Centre"
          }
        ],
        "pollDivisionIds": [
          10137087
        ],
        "postalCode": "L6T3M5",
        "streetName": "FOLKSTONE",
        "streetDirectionId": null,
        "streetTypeId": "CRES",
        "placeName": "BRAMPTON",
        "streetNameDisplayText": "FOLKSTONE CRES, BRAMPTON"
      }
    ]
  },
  {
    "postal": "L6T6H7",
    "result": []
  },
  {
    "postal": "L6T8Y8",
    "result": []
  },
  {
    "postal": "L6T5R9",
    "result": [
      {
        "electoralDistricts": [
          {
            "election": null,
            "id": 9,
            "name": "Brampton East"
          }
        ],
        "pollDivisionIds": [
          10111373
        ],
        "postalCode": "L6T5R9",
        "streetName": "TRACEY",
        "streetDirectionId": null,
        "streetTypeId": "BLVD",
        "placeName": "BRAMPTON",
        "streetNameDisplayText": "TRACEY BLVD, BRAMPTON"
      }
    ]
  },
  {
    "postal": "L6T8G3",
    "result": []
  },
  {
    "postal": "L6T4N7",
    "result": [
      {
        "electoralDistricts": [
          {
            "election": null,
            "id": 8,
            "name": "Brampton Centre"
          }
        ],
        "pollDivisionIds": [
          10137075
        ],
        "postalCode": "L6T4N7",
        "streetName": "WILKINSON",
        "streetDirectionId": null,
        "streetTypeId": "RD",
        "placeName": "BRAMPTON",
        "streetNameDisplayText": "WILKINSON RD, BRAMPTON"
      }
    ]
  },
  {
    "postal": "L6T0B9",
    "result": [
      {
        "electoralDistricts": [
          {
            "election": null,
            "id": 9,
            "name": "Brampton East"
          }
        ],
        "pollDivisionIds": [
          10111362
        ],
        "postalCode": "L6T0B9",
        "streetName": "INTERMODAL",
        "streetDirectionId": null,
        "streetTypeId": "DR",
        "placeName": "BRAMPTON",
        "streetNameDisplayText": "INTERMODAL DR, BRAMPTON"
      }
    ]
  },
  {
    "postal": "L6T9K7",
    "result": []
  },
  {
    "postal": "L6T9K9",
    "result": []
  },
  {
    "postal": "L6T3Z2",
    "result": [
      {
        "electoralDistricts": [
          {
            "election": null,
            "id": 8,
            "name": "Brampton Centre"
          }
        ],
        "pollDivisionIds": [
          10137075
        ],
        "postalCode": "L6T3Z2",
        "streetName": "LINCOLN",
        "streetDirectionId": null,
        "streetTypeId": "CRT",
        "placeName": "BRAMPTON",
        "streetNameDisplayText": "LINCOLN CRT, BRAMPTON"
      }
    ]
  },
  {
    "postal": "L6T6W7",
    "result": []
  },
  {
    "postal": "L6T0P1",
    "result": []
  },
  {
    "postal": "L6T3A0",
    "result": []
  },
  {
    "postal": "L6T8L9",
    "result": []
  },
  {
    "postal": "L6T6X0",
    "result": []
  },
  {
    "postal": "L6T3E9",
    "result": [
      {
        "electoralDistricts": [
          {
            "election": null,
            "id": 8,
            "name": "Brampton Centre"
          }
        ],
        "pollDivisionIds": [
          10137091
        ],
        "postalCode": "L6T3E9",
        "streetName": "DUNCANNON",
        "streetDirectionId": null,
        "streetTypeId": "CRES",
        "placeName": "BRAMPTON",
        "streetNameDisplayText": "DUNCANNON CRES, BRAMPTON"
      }
    ]
  },
  {
    "postal": "L6T0S5",
    "result": []
  },
  {
    "postal": "L6T1A2",
    "result": [
      {
        "electoralDistricts": [
          {
            "election": null,
            "id": 8,
            "name": "Brampton Centre"
          }
        ],
        "pollDivisionIds": [
          10137075
        ],
        "postalCode": "L6T1A2",
        "streetName": "STEELES",
        "streetDirectionId": "E",
        "streetTypeId": "AVE",
        "placeName": "BRAMPTON",
        "streetNameDisplayText": "STEELES AVE E, BRAMPTON"
      }
    ]
  },
  {
    "postal": "L6T5V8",
    "result": [
      {
        "electoralDistricts": [
          {
            "election": null,
            "id": 9,
            "name": "Brampton East"
          }
        ],
        "pollDivisionIds": [
          10111362
        ],
        "postalCode": "L6T5V8",
        "streetName": "AUCTION",
        "streetDirectionId": null,
        "streetTypeId": "LANE",
        "placeName": "BRAMPTON",
        "streetNameDisplayText": "AUCTION LANE, BRAMPTON"
      }
    ]
  },
  {
    "postal": "L6T8C5",
    "result": []
  },
  {
    "postal": "L6T6N0",
    "result": []
  },
  {
    "postal": "L6T9E6",
    "result": []
  },
  {
    "postal": "L6T5J7",
    "result": []
  },
  {
    "postal": "L6T2R2",
    "result": [
      {
        "electoralDistricts": [
          {
            "election": null,
            "id": 8,
            "name": "Brampton Centre"
          }
        ],
        "pollDivisionIds": [
          10137082
        ],
        "postalCode": "L6T2R2",
        "streetName": "ADDINGTON",
        "streetDirectionId": null,
        "streetTypeId": "CRES",
        "placeName": "BRAMPTON",
        "streetNameDisplayText": "ADDINGTON CRES, BRAMPTON"
      }
    ]
  },
  {
    "postal": "L6T0P5",
    "result": []
  },
  {
    "postal": "L6T5A7",
    "result": [
      {
        "electoralDistricts": [
          {
            "election": null,
            "id": 8,
            "name": "Brampton Centre"
          }
        ],
        "pollDivisionIds": [
          10137075
        ],
        "postalCode": "L6T5A7",
        "streetName": "WILKINSON",
        "streetDirectionId": null,
        "streetTypeId": "RD",
        "placeName": "BRAMPTON",
        "streetNameDisplayText": "WILKINSON RD, BRAMPTON"
      }
    ]
  },
  {
    "postal": "L6T1G1",
    "result": [
      {
        "electoralDistricts": [
          {
            "election": null,
            "id": 8,
            "name": "Brampton Centre"
          }
        ],
        "pollDivisionIds": [
          10137083
        ],
        "postalCode": "L6T1G1",
        "streetName": "ORENDA",
        "streetDirectionId": null,
        "streetTypeId": "RD",
        "placeName": "BRAMPTON",
        "streetNameDisplayText": "ORENDA RD, BRAMPTON"
      }
    ]
  },
  {
    "postal": "L6T9R6",
    "result": []
  },
  {
    "postal": "L6T4Z9",
    "result": [
      {
        "electoralDistricts": [
          {
            "election": null,
            "id": 8,
            "name": "Brampton Centre"
          }
        ],
        "pollDivisionIds": [
          10137091
        ],
        "postalCode": "L6T4Z9",
        "streetName": "STEELES",
        "streetDirectionId": "E",
        "streetTypeId": "AVE",
        "placeName": "BRAMPTON",
        "streetNameDisplayText": "STEELES AVE E, BRAMPTON"
      }
    ]
  },
  {
    "postal": "L6T1V5",
    "result": [
      {
        "electoralDistricts": [
          {
            "election": null,
            "id": 8,
            "name": "Brampton Centre"
          }
        ],
        "pollDivisionIds": [
          10137082,
          10137081
        ],
        "postalCode": "L6T1V5",
        "streetName": "BALMORAL",
        "streetDirectionId": null,
        "streetTypeId": "DR",
        "placeName": "BRAMPTON",
        "streetNameDisplayText": "BALMORAL DR, BRAMPTON"
      }
    ]
  },
  {
    "postal": "L6T9Y5",
    "result": []
  },
  {
    "postal": "L6T1P2",
    "result": [
      {
        "electoralDistricts": [
          {
            "election": null,
            "id": 8,
            "name": "Brampton Centre"
          }
        ],
        "pollDivisionIds": [
          10137091
        ],
        "postalCode": "L6T1P2",
        "streetName": "DOMBEY",
        "streetDirectionId": null,
        "streetTypeId": "PL",
        "placeName": "BRAMPTON",
        "streetNameDisplayText": "DOMBEY PL, BRAMPTON"
      }
    ]
  },
  {
    "postal": "L6T5X0",
    "result": []
  },
  {
    "postal": "L6T7B8",
    "result": []
  },
  {
    "postal": "L6T0C6",
    "result": []
  },
  {
    "postal": "L6T6G1",
    "result": []
  },
  {
    "postal": "L6T3K3",
    "result": [
      {
        "electoralDistricts": [
          {
            "election": null,
            "id": 8,
            "name": "Brampton Centre"
          }
        ],
        "pollDivisionIds": [
          10137089
        ],
        "postalCode": "L6T3K3",
        "streetName": "DUKE",
        "streetDirectionId": null,
        "streetTypeId": "RD",
        "placeName": "BRAMPTON",
        "streetNameDisplayText": "DUKE RD, BRAMPTON"
      }
    ]
  },
  {
    "postal": "L6T9R0",
    "result": []
  },
  {
    "postal": "L6T4R8",
    "result": [
      {
        "electoralDistricts": [
          {
            "election": null,
            "id": 8,
            "name": "Brampton Centre"
          }
        ],
        "pollDivisionIds": [
          10137075
        ],
        "postalCode": "L6T4R8",
        "streetName": "FLORIBUNDA",
        "streetDirectionId": null,
        "streetTypeId": "CRES",
        "placeName": "BRAMPTON",
        "streetNameDisplayText": "FLORIBUNDA CRES, BRAMPTON"
      }
    ]
  },
  {
    "postal": "L6T5P9",
    "result": [
      {
        "electoralDistricts": [
          {
            "election": null,
            "id": 9,
            "name": "Brampton East"
          }
        ],
        "pollDivisionIds": [
          10111374
        ],
        "postalCode": "L6T5P9",
        "streetName": "COVENTRY",
        "streetDirectionId": null,
        "streetTypeId": "RD",
        "placeName": "BRAMPTON",
        "streetNameDisplayText": "COVENTRY RD, BRAMPTON"
      }
    ]
  },
  {
    "postal": "L6T8N4",
    "result": []
  },
  {
    "postal": "L6T8H4",
    "result": []
  },
  {
    "postal": "L6T4V1",
    "result": [
      {
        "electoralDistricts": [
          {
            "election": null,
            "id": 9,
            "name": "Brampton East"
          }
        ],
        "pollDivisionIds": [
          10111374
        ],
        "postalCode": "L6T4V1",
        "streetName": "CLARK",
        "streetDirectionId": null,
        "streetTypeId": "BLVD",
        "placeName": "BRAMPTON",
        "streetNameDisplayText": "CLARK BLVD, BRAMPTON"
      }
    ]
  },
  {
    "postal": "L6T1K5",
    "result": [
      {
        "electoralDistricts": [
          {
            "election": null,
            "id": 8,
            "name": "Brampton Centre"
          }
        ],
        "pollDivisionIds": [
          10137089
        ],
        "postalCode": "L6T1K5",
        "streetName": "DEERFIELD",
        "streetDirectionId": null,
        "streetTypeId": "CRES",
        "placeName": "BRAMPTON",
        "streetNameDisplayText": "DEERFIELD CRES, BRAMPTON"
      }
    ]
  },
  {
    "postal": "L6T1Z5",
    "result": [
      {
        "electoralDistricts": [
          {
            "election": null,
            "id": 8,
            "name": "Brampton Centre"
          }
        ],
        "pollDivisionIds": [
          10137082
        ],
        "postalCode": "L6T1Z5",
        "streetName": "CONWAY",
        "streetDirectionId": null,
        "streetTypeId": "CRT",
        "placeName": "BRAMPTON",
        "streetNameDisplayText": "CONWAY CRT, BRAMPTON"
      }
    ]
  },
  {
    "postal": "L6T9L9",
    "result": []
  },
  {
    "postal": "L6T5L2",
    "result": [
      {
        "electoralDistricts": [
          {
            "election": null,
            "id": 8,
            "name": "Brampton Centre"
          }
        ],
        "pollDivisionIds": [
          10137075
        ],
        "postalCode": "L6T5L2",
        "streetName": "HEDGEDALE",
        "streetDirectionId": null,
        "streetTypeId": "RD",
        "placeName": "BRAMPTON",
        "streetNameDisplayText": "HEDGEDALE RD, BRAMPTON"
      }
    ]
  },
  {
    "postal": "L6T0M2",
    "result": []
  },
  {
    "postal": "L6T1K8",
    "result": [
      {
        "electoralDistricts": [
          {
            "election": null,
            "id": 8,
            "name": "Brampton Centre"
          }
        ],
        "pollDivisionIds": [
          10137089
        ],
        "postalCode": "L6T1K8",
        "streetName": "DEERFIELD",
        "streetDirectionId": null,
        "streetTypeId": "CRES",
        "placeName": "BRAMPTON",
        "streetNameDisplayText": "DEERFIELD CRES, BRAMPTON"
      }
    ]
  },
  {
    "postal": "L6T3M7",
    "result": [
      {
        "electoralDistricts": [
          {
            "election": null,
            "id": 8,
            "name": "Brampton Centre"
          }
        ],
        "pollDivisionIds": [
          10137087
        ],
        "postalCode": "L6T3M7",
        "streetName": "FOLKSTONE",
        "streetDirectionId": null,
        "streetTypeId": "CRES",
        "placeName": "BRAMPTON",
        "streetNameDisplayText": "FOLKSTONE CRES, BRAMPTON"
      }
    ]
  },
  {
    "postal": "L6T1B2",
    "result": [
      {
        "electoralDistricts": [
          {
            "election": null,
            "id": 8,
            "name": "Brampton Centre"
          }
        ],
        "pollDivisionIds": [
          10137075
        ],
        "postalCode": "L6T1B2",
        "streetName": "FINLEY",
        "streetDirectionId": null,
        "streetTypeId": "RD",
        "placeName": "BRAMPTON",
        "streetNameDisplayText": "FINLEY RD, BRAMPTON"
      }
    ]
  },
  {
    "postal": "L6T0H9",
    "result": []
  },
  {
    "postal": "L6T8M4",
    "result": []
  },
  {
    "postal": "L6T2M5",
    "result": [
      {
        "electoralDistricts": [
          {
            "election": null,
            "id": 8,
            "name": "Brampton Centre"
          }
        ],
        "pollDivisionIds": [
          10137081
        ],
        "postalCode": "L6T2M5",
        "streetName": "BROOKLAND",
        "streetDirectionId": null,
        "streetTypeId": "DR",
        "placeName": "BRAMPTON",
        "streetNameDisplayText": "BROOKLAND DR, BRAMPTON"
      }
    ]
  },
  {
    "postal": "L6T0T9",
    "result": []
  },
  {
    "postal": "L6T3P1",
    "result": [
      {
        "electoralDistricts": [
          {
            "election": null,
            "id": 8,
            "name": "Brampton Centre"
          }
        ],
        "pollDivisionIds": [
          10137089
        ],
        "postalCode": "L6T3P1",
        "streetName": "FLAVIAN",
        "streetDirectionId": null,
        "streetTypeId": "CRT",
        "placeName": "BRAMPTON",
        "streetNameDisplayText": "FLAVIAN CRT, BRAMPTON"
      }
    ]
  },
  {
    "postal": "L6T1R6",
    "result": [
      {
        "electoralDistricts": [
          {
            "election": null,
            "id": 8,
            "name": "Brampton Centre"
          }
        ],
        "pollDivisionIds": [
          10137082
        ],
        "postalCode": "L6T1R6",
        "streetName": "ASCOT",
        "streetDirectionId": null,
        "streetTypeId": "CRT",
        "placeName": "BRAMPTON",
        "streetNameDisplayText": "ASCOT CRT, BRAMPTON"
      }
    ]
  },
  {
    "postal": "L6T9V5",
    "result": []
  },
  {
    "postal": "L6T9T0",
    "result": []
  },
  {
    "postal": "L6T0A9",
    "result": [
      {
        "electoralDistricts": [
          {
            "election": null,
            "id": 9,
            "name": "Brampton East"
          }
        ],
        "pollDivisionIds": [
          10111362
        ],
        "postalCode": "L6T0A9",
        "streetName": "GOREWAY",
        "streetDirectionId": null,
        "streetTypeId": "DR",
        "placeName": "BRAMPTON",
        "streetNameDisplayText": "GOREWAY DR, BRAMPTON"
      }
    ]
  },
  {
    "postal": "L6T1M3",
    "result": [
      {
        "electoralDistricts": [
          {
            "election": null,
            "id": 8,
            "name": "Brampton Centre"
          }
        ],
        "pollDivisionIds": [
          10137091
        ],
        "postalCode": "L6T1M3",
        "streetName": "DRUM OAK",
        "streetDirectionId": null,
        "streetTypeId": "CRES",
        "placeName": "BRAMPTON",
        "streetNameDisplayText": "DRUM OAK CRES, BRAMPTON"
      }
    ]
  },
  {
    "postal": "L6T1W8",
    "result": [
      {
        "electoralDistricts": [
          {
            "election": null,
            "id": 8,
            "name": "Brampton Centre"
          }
        ],
        "pollDivisionIds": [
          10137091
        ],
        "postalCode": "L6T1W8",
        "streetName": "BALMORAL",
        "streetDirectionId": null,
        "streetTypeId": "DR",
        "placeName": "BRAMPTON",
        "streetNameDisplayText": "BALMORAL DR, BRAMPTON"
      }
    ]
  },
  {
    "postal": "L6T9J1",
    "result": []
  },
  {
    "postal": "L6T8N5",
    "result": []
  },
  {
    "postal": "L6T5X1",
    "result": []
  },
  {
    "postal": "L6T6S2",
    "result": []
  },
  {
    "postal": "L6T2A2",
    "result": [
      {
        "electoralDistricts": [
          {
            "election": null,
            "id": 8,
            "name": "Brampton Centre"
          }
        ],
        "pollDivisionIds": [
          10137081
        ],
        "postalCode": "L6T2A2",
        "streetName": "BRIAR",
        "streetDirectionId": null,
        "streetTypeId": "PATH",
        "placeName": "BRAMPTON",
        "streetNameDisplayText": "BRIAR PATH, BRAMPTON"
      }
    ]
  },
  {
    "postal": "L6T6A6",
    "result": []
  },
  {
    "postal": "L6T0S3",
    "result": []
  },
  {
    "postal": "L6T3E7",
    "result": [
      {
        "electoralDistricts": [
          {
            "election": null,
            "id": 8,
            "name": "Brampton Centre"
          }
        ],
        "pollDivisionIds": [
          10137090
        ],
        "postalCode": "L6T3E7",
        "streetName": "DORCHESTER",
        "streetDirectionId": null,
        "streetTypeId": "DR",
        "placeName": "BRAMPTON",
        "streetNameDisplayText": "DORCHESTER DR, BRAMPTON"
      }
    ]
  },
  {
    "postal": "L6T5R7",
    "result": [
      {
        "electoralDistricts": [
          {
            "election": null,
            "id": 9,
            "name": "Brampton East"
          }
        ],
        "pollDivisionIds": [
          10111362
        ],
        "postalCode": "L6T5R7",
        "streetName": "DEERHURST",
        "streetDirectionId": null,
        "streetTypeId": "DR",
        "placeName": "BRAMPTON",
        "streetNameDisplayText": "DEERHURST DR, BRAMPTON"
      }
    ]
  },
  {
    "postal": "L6T3R6",
    "result": []
  },
  {
    "postal": "L6T6K4",
    "result": []
  },
  {
    "postal": "L6T2W5",
    "result": []
  },
  {
    "postal": "L6T8W4",
    "result": []
  },
  {
    "postal": "L6T9C2",
    "result": []
  },
  {
    "postal": "L6T2C0",
    "result": []
  },
  {
    "postal": "L6T0E1",
    "result": [
      {
        "electoralDistricts": [
          {
            "election": null,
            "id": 9,
            "name": "Brampton East"
          }
        ],
        "pollDivisionIds": [
          10111373
        ],
        "postalCode": "L6T0E1",
        "streetName": "INTERMODAL",
        "streetDirectionId": null,
        "streetTypeId": "DR",
        "placeName": "BRAMPTON",
        "streetNameDisplayText": "INTERMODAL DR, BRAMPTON"
      }
    ]
  },
  {
    "postal": "L6T1K9",
    "result": [
      {
        "electoralDistricts": [
          {
            "election": null,
            "id": 8,
            "name": "Brampton Centre"
          }
        ],
        "pollDivisionIds": [
          10137089
        ],
        "postalCode": "L6T1K9",
        "streetName": "DEERFIELD",
        "streetDirectionId": null,
        "streetTypeId": "CRES",
        "placeName": "BRAMPTON",
        "streetNameDisplayText": "DEERFIELD CRES, BRAMPTON"
      }
    ]
  },
  {
    "postal": "L6T1G7",
    "result": []
  },
  {
    "postal": "L6T4E9",
    "result": [
      {
        "electoralDistricts": [
          {
            "election": null,
            "id": 8,
            "name": "Brampton Centre"
          }
        ],
        "pollDivisionIds": [
          10137089
        ],
        "postalCode": "L6T4E9",
        "streetName": "EASTBOURNE",
        "streetDirectionId": null,
        "streetTypeId": "DR",
        "placeName": "BRAMPTON",
        "streetNameDisplayText": "EASTBOURNE DR, BRAMPTON"
      }
    ]
  },
  {
    "postal": "L6T9P0",
    "result": []
  },
  {
    "postal": "L6T5H3",
    "result": [
      {
        "electoralDistricts": [
          {
            "election": null,
            "id": 9,
            "name": "Brampton East"
          }
        ],
        "pollDivisionIds": [
          10111373
        ],
        "postalCode": "L6T5H3",
        "streetName": "DEVON",
        "streetDirectionId": null,
        "streetTypeId": "RD",
        "placeName": "BRAMPTON",
        "streetNameDisplayText": "DEVON RD, BRAMPTON"
      }
    ]
  },
  {
    "postal": "L6T9X6",
    "result": []
  },
  {
    "postal": "L6T5N7",
    "result": [
      {
        "electoralDistricts": [
          {
            "election": null,
            "id": 9,
            "name": "Brampton East"
          }
        ],
        "pollDivisionIds": [
          10111373
        ],
        "postalCode": "L6T5N7",
        "streetName": "AIRPORT",
        "streetDirectionId": null,
        "streetTypeId": "RD",
        "placeName": "BRAMPTON",
        "streetNameDisplayText": "AIRPORT RD, BRAMPTON"
      }
    ]
  },
  {
    "postal": "L6T5A6",
    "result": []
  },
  {
    "postal": "L6T4M0",
    "result": []
  },
  {
    "postal": "L6T3V6",
    "result": [
      {
        "electoralDistricts": [
          {
            "election": null,
            "id": 9,
            "name": "Brampton East"
          }
        ],
        "pollDivisionIds": [
          10111374
        ],
        "postalCode": "L6T3V6",
        "streetName": "SUMMERLEA",
        "streetDirectionId": null,
        "streetTypeId": "RD",
        "placeName": "BRAMPTON",
        "streetNameDisplayText": "SUMMERLEA RD, BRAMPTON"
      }
    ]
  },
  {
    "postal": "L6T1L7",
    "result": [
      {
        "electoralDistricts": [
          {
            "election": null,
            "id": 8,
            "name": "Brampton Centre"
          }
        ],
        "pollDivisionIds": [
          10137083
        ],
        "postalCode": "L6T1L7",
        "streetName": "BIRCHBANK",
        "streetDirectionId": null,
        "streetTypeId": "RD",
        "placeName": "BRAMPTON",
        "streetNameDisplayText": "BIRCHBANK RD, BRAMPTON"
      }
    ]
  },
  {
    "postal": "L6T2P9",
    "result": [
      {
        "electoralDistricts": [
          {
            "election": null,
            "id": 8,
            "name": "Brampton Centre"
          }
        ],
        "pollDivisionIds": [
          10137082
        ],
        "postalCode": "L6T2P9",
        "streetName": "ABERDEEN",
        "streetDirectionId": null,
        "streetTypeId": "CRES",
        "placeName": "BRAMPTON",
        "streetNameDisplayText": "ABERDEEN CRES, BRAMPTON"
      }
    ]
  },
  {
    "postal": "L6T5T4",
    "result": [
      {
        "electoralDistricts": [
          {
            "election": null,
            "id": 8,
            "name": "Brampton Centre"
          }
        ],
        "pollDivisionIds": [
          10137075
        ],
        "postalCode": "L6T5T4",
        "streetName": "WESTCREEK",
        "streetDirectionId": null,
        "streetTypeId": "BLVD",
        "placeName": "BRAMPTON",
        "streetNameDisplayText": "WESTCREEK BLVD, BRAMPTON"
      }
    ]
  },
  {
    "postal": "L6T5Z1",
    "result": []
  },
  {
    "postal": "L6T2X0",
    "result": []
  },
  {
    "postal": "L6T6Z2",
    "result": []
  },
  {
    "postal": "L6T0E0",
    "result": []
  },
  {
    "postal": "L6T3Z5",
    "result": []
  },
  {
    "postal": "L6T8H3",
    "result": []
  },
  {
    "postal": "L6T7S6",
    "result": []
  },
  {
    "postal": "L6T4C1",
    "result": []
  },
  {
    "postal": "L6T3K2",
    "result": [
      {
        "electoralDistricts": [
          {
            "election": null,
            "id": 8,
            "name": "Brampton Centre"
          }
        ],
        "pollDivisionIds": [
          10137089
        ],
        "postalCode": "L6T3K2",
        "streetName": "DUKE",
        "streetDirectionId": null,
        "streetTypeId": "RD",
        "placeName": "BRAMPTON",
        "streetNameDisplayText": "DUKE RD, BRAMPTON"
      }
    ]
  },
  {
    "postal": "L6T1Y5",
    "result": [
      {
        "electoralDistricts": [
          {
            "election": null,
            "id": 8,
            "name": "Brampton Centre"
          }
        ],
        "pollDivisionIds": [
          10137090
        ],
        "postalCode": "L6T1Y5",
        "streetName": "EDGEBROOK",
        "streetDirectionId": null,
        "streetTypeId": "CRES",
        "placeName": "BRAMPTON",
        "streetNameDisplayText": "EDGEBROOK CRES, BRAMPTON"
      }
    ]
  },
  {
    "postal": "L6T6P6",
    "result": []
  },
  {
    "postal": "L6T3N9",
    "result": [
      {
        "electoralDistricts": [
          {
            "election": null,
            "id": 8,
            "name": "Brampton Centre"
          }
        ],
        "pollDivisionIds": [
          10137090
        ],
        "postalCode": "L6T3N9",
        "streetName": "ELLENDALE",
        "streetDirectionId": null,
        "streetTypeId": "CRES",
        "placeName": "BRAMPTON",
        "streetNameDisplayText": "ELLENDALE CRES, BRAMPTON"
      }
    ]
  },
  {
    "postal": "L6T3W2",
    "result": [
      {
        "electoralDistricts": [
          {
            "election": null,
            "id": 8,
            "name": "Brampton Centre"
          }
        ],
        "pollDivisionIds": [
          10137099
        ],
        "postalCode": "L6T3W2",
        "streetName": "KENSINGTON",
        "streetDirectionId": null,
        "streetTypeId": "RD",
        "placeName": "BRAMPTON",
        "streetNameDisplayText": "KENSINGTON RD, BRAMPTON"
      }
    ]
  },
  {
    "postal": "L6T6H8",
    "result": []
  },
  {
    "postal": "L6T9T3",
    "result": []
  },
  {
    "postal": "L6T5L9",
    "result": [
      {
        "electoralDistricts": [
          {
            "election": null,
            "id": 8,
            "name": "Brampton Centre"
          }
        ],
        "pollDivisionIds": [
          10137075
        ],
        "postalCode": "L6T5L9",
        "streetName": "STEELWELL",
        "streetDirectionId": null,
        "streetTypeId": "RD",
        "placeName": "BRAMPTON",
        "streetNameDisplayText": "STEELWELL RD, BRAMPTON"
      }
    ]
  },
  {
    "postal": "L6T7X7",
    "result": []
  },
  {
    "postal": "L6T3J5",
    "result": [
      {
        "electoralDistricts": [
          {
            "election": null,
            "id": 8,
            "name": "Brampton Centre"
          }
        ],
        "pollDivisionIds": [
          10137087
        ],
        "postalCode": "L6T3J5",
        "streetName": "FALLINGDALE",
        "streetDirectionId": null,
        "streetTypeId": "CRES",
        "placeName": "BRAMPTON",
        "streetNameDisplayText": "FALLINGDALE CRES, BRAMPTON"
      }
    ]
  },
  {
    "postal": "L6T4J5",
    "result": [
      {
        "electoralDistricts": [
          {
            "election": null,
            "id": 8,
            "name": "Brampton Centre"
          }
        ],
        "pollDivisionIds": [
          10137075
        ],
        "postalCode": "L6T4J5",
        "streetName": "ADVANCE",
        "streetDirectionId": null,
        "streetTypeId": "BLVD",
        "placeName": "BRAMPTON",
        "streetNameDisplayText": "ADVANCE BLVD, BRAMPTON"
      }
    ]
  },
  {
    "postal": "L6T6J2",
    "result": []
  },
  {
    "postal": "L6T5V6",
    "result": [
      {
        "electoralDistricts": [
          {
            "election": null,
            "id": 9,
            "name": "Brampton East"
          }
        ],
        "pollDivisionIds": [
          10111373
        ],
        "postalCode": "L6T5V6",
        "streetName": "TRACEY",
        "streetDirectionId": null,
        "streetTypeId": "BLVD",
        "placeName": "BRAMPTON",
        "streetNameDisplayText": "TRACEY BLVD, BRAMPTON"
      }
    ]
  },
  {
    "postal": "L6T3N2",
    "result": [
      {
        "electoralDistricts": [
          {
            "election": null,
            "id": 8,
            "name": "Brampton Centre"
          }
        ],
        "pollDivisionIds": [
          10137087
        ],
        "postalCode": "L6T3N2",
        "streetName": "FOLKSTONE",
        "streetDirectionId": null,
        "streetTypeId": "CRES",
        "placeName": "BRAMPTON",
        "streetNameDisplayText": "FOLKSTONE CRES, BRAMPTON"
      }
    ]
  },
  {
    "postal": "L6T3B1",
    "result": [
      {
        "electoralDistricts": [
          {
            "election": null,
            "id": 8,
            "name": "Brampton Centre"
          }
        ],
        "pollDivisionIds": [
          10137088
        ],
        "postalCode": "L6T3B1",
        "streetName": "EDENRIDGE",
        "streetDirectionId": null,
        "streetTypeId": "DR",
        "placeName": "BRAMPTON",
        "streetNameDisplayText": "EDENRIDGE DR, BRAMPTON"
      }
    ]
  },
  {
    "postal": "L6T8B5",
    "result": []
  },
  {
    "postal": "L6T0K1",
    "result": []
  },
  {
    "postal": "L6T7M7",
    "result": []
  },
  {
    "postal": "L6T2M2",
    "result": [
      {
        "electoralDistricts": [
          {
            "election": null,
            "id": 8,
            "name": "Brampton Centre"
          }
        ],
        "pollDivisionIds": [
          10137081
        ],
        "postalCode": "L6T2M2",
        "streetName": "BRAEMAR",
        "streetDirectionId": null,
        "streetTypeId": "DR",
        "placeName": "BRAMPTON",
        "streetNameDisplayText": "BRAEMAR DR, BRAMPTON"
      }
    ]
  },
  {
    "postal": "L6T9N3",
    "result": []
  },
  {
    "postal": "L6T4Y8",
    "result": [
      {
        "electoralDistricts": [
          {
            "election": null,
            "id": 8,
            "name": "Brampton Centre"
          }
        ],
        "pollDivisionIds": [
          10137075
        ],
        "postalCode": "L6T4Y8",
        "streetName": "CLARK",
        "streetDirectionId": null,
        "streetTypeId": "BLVD",
        "placeName": "BRAMPTON",
        "streetNameDisplayText": "CLARK BLVD, BRAMPTON"
      }
    ]
  },
  {
    "postal": "L6T3V7",
    "result": [
      {
        "electoralDistricts": [
          {
            "election": null,
            "id": 9,
            "name": "Brampton East"
          }
        ],
        "pollDivisionIds": [
          10111374
        ],
        "postalCode": "L6T3V7",
        "streetName": "CLARK",
        "streetDirectionId": null,
        "streetTypeId": "BLVD",
        "placeName": "BRAMPTON",
        "streetNameDisplayText": "CLARK BLVD, BRAMPTON"
      }
    ]
  },
  {
    "postal": "L6T8Z1",
    "result": []
  },
  {
    "postal": "L6T7B3",
    "result": []
  },
  {
    "postal": "L6T3A8",
    "result": [
      {
        "electoralDistricts": [
          {
            "election": null,
            "id": 8,
            "name": "Brampton Centre"
          }
        ],
        "pollDivisionIds": [
          10137088
        ],
        "postalCode": "L6T3A8",
        "streetName": "EARLSDALE",
        "streetDirectionId": null,
        "streetTypeId": "CRES",
        "placeName": "BRAMPTON",
        "streetNameDisplayText": "EARLSDALE CRES, BRAMPTON"
      }
    ]
  },
  {
    "postal": "L6T7V5",
    "result": []
  },
  {
    "postal": "L6T2T2",
    "result": [
      {
        "electoralDistricts": [
          {
            "election": null,
            "id": 8,
            "name": "Brampton Centre"
          }
        ],
        "pollDivisionIds": [
          10137082
        ],
        "postalCode": "L6T2T2",
        "streetName": "AINTREE",
        "streetDirectionId": null,
        "streetTypeId": "CRES",
        "placeName": "BRAMPTON",
        "streetNameDisplayText": "AINTREE CRES, BRAMPTON"
      }
    ]
  },
  {
    "postal": "L6T6L3",
    "result": []
  },
  {
    "postal": "L6T0L2",
    "result": []
  },
  {
    "postal": "L6T5Y8",
    "result": []
  },
  {
    "postal": "L6T0B8",
    "result": []
  },
  {
    "postal": "L6T6R5",
    "result": []
  },
  {
    "postal": "L6T8W6",
    "result": []
  },
  {
    "postal": "L6T8G6",
    "result": []
  },
  {
    "postal": "L6T6X3",
    "result": []
  },
  {
    "postal": "L6T7R7",
    "result": []
  },
  {
    "postal": "L6T4B6",
    "result": [
      {
        "electoralDistricts": [
          {
            "election": null,
            "id": 8,
            "name": "Brampton Centre"
          }
        ],
        "pollDivisionIds": [
          10137075
        ],
        "postalCode": "L6T4B6",
        "streetName": "LISA",
        "streetDirectionId": null,
        "streetTypeId": "ST",
        "placeName": "BRAMPTON",
        "streetNameDisplayText": "LISA ST, BRAMPTON"
      }
    ]
  },
  {
    "postal": "L6T3P9",
    "result": [
      {
        "electoralDistricts": [
          {
            "election": null,
            "id": 8,
            "name": "Brampton Centre"
          }
        ],
        "pollDivisionIds": [
          10137087
        ],
        "postalCode": "L6T3P9",
        "streetName": "FINSBURY",
        "streetDirectionId": null,
        "streetTypeId": "DR",
        "placeName": "BRAMPTON",
        "streetNameDisplayText": "FINSBURY DR, BRAMPTON"
      }
    ]
  },
  {
    "postal": "L6T2T3",
    "result": [
      {
        "electoralDistricts": [
          {
            "election": null,
            "id": 8,
            "name": "Brampton Centre"
          }
        ],
        "pollDivisionIds": [
          10137072,
          10137082
        ],
        "postalCode": "L6T2T3",
        "streetName": "AINTREE",
        "streetDirectionId": null,
        "streetTypeId": "CRES",
        "placeName": "BRAMPTON",
        "streetNameDisplayText": "AINTREE CRES, BRAMPTON"
      }
    ]
  },
  {
    "postal": "L6T1M4",
    "result": [
      {
        "electoralDistricts": [
          {
            "election": null,
            "id": 8,
            "name": "Brampton Centre"
          }
        ],
        "pollDivisionIds": [
          10137091
        ],
        "postalCode": "L6T1M4",
        "streetName": "DRUM OAK",
        "streetDirectionId": null,
        "streetTypeId": "CRES",
        "placeName": "BRAMPTON",
        "streetNameDisplayText": "DRUM OAK CRES, BRAMPTON"
      }
    ]
  },
  {
    "postal": "L6T0H1",
    "result": []
  },
  {
    "postal": "L6T9W3",
    "result": []
  },
  {
    "postal": "L6T6P1",
    "result": []
  },
  {
    "postal": "L6T7G2",
    "result": []
  },
  {
    "postal": "L6T4J9",
    "result": [
      {
        "electoralDistricts": [
          {
            "election": null,
            "id": 8,
            "name": "Brampton Centre"
          }
        ],
        "pollDivisionIds": [
          10137091
        ],
        "postalCode": "L6T4J9",
        "streetName": "BRAMALEA",
        "streetDirectionId": null,
        "streetTypeId": "RD",
        "placeName": "BRAMPTON",
        "streetNameDisplayText": "BRAMALEA RD, BRAMPTON"
      }
    ]
  },
  {
    "postal": "L6T9E4",
    "result": []
  },
  {
    "postal": "L6T8H0",
    "result": []
  },
  {
    "postal": "L6T4M7",
    "result": [
      {
        "electoralDistricts": [
          {
            "election": null,
            "id": 9,
            "name": "Brampton East"
          }
        ],
        "pollDivisionIds": [
          10111374
        ],
        "postalCode": "L6T4M7",
        "streetName": "CLARK",
        "streetDirectionId": null,
        "streetTypeId": "BLVD",
        "placeName": "BRAMPTON",
        "streetNameDisplayText": "CLARK BLVD, BRAMPTON"
      }
    ]
  },
  {
    "postal": "L6T2G9",
    "result": [
      {
        "electoralDistricts": [
          {
            "election": null,
            "id": 8,
            "name": "Brampton Centre"
          }
        ],
        "pollDivisionIds": [
          10137087
        ],
        "postalCode": "L6T2G9",
        "streetName": "FERNBANK",
        "streetDirectionId": null,
        "streetTypeId": "RD",
        "placeName": "BRAMPTON",
        "streetNameDisplayText": "FERNBANK RD, BRAMPTON"
      }
    ]
  },
  {
    "postal": "L6T8T2",
    "result": []
  },
  {
    "postal": "L6T7G7",
    "result": []
  },
  {
    "postal": "L6T4Z3",
    "result": []
  },
  {
    "postal": "L6T5B3",
    "result": [
      {
        "electoralDistricts": [
          {
            "election": null,
            "id": 9,
            "name": "Brampton East"
          }
        ],
        "pollDivisionIds": [
          10111373
        ],
        "postalCode": "L6T5B3",
        "streetName": "DEVON",
        "streetDirectionId": null,
        "streetTypeId": "RD",
        "placeName": "BRAMPTON",
        "streetNameDisplayText": "DEVON RD, BRAMPTON"
      }
    ]
  },
  {
    "postal": "L6T1S7",
    "result": [
      {
        "electoralDistricts": [
          {
            "election": null,
            "id": 8,
            "name": "Brampton Centre"
          }
        ],
        "pollDivisionIds": [
          10137091
        ],
        "postalCode": "L6T1S7",
        "streetName": "DONCASTER",
        "streetDirectionId": null,
        "streetTypeId": "DR",
        "placeName": "BRAMPTON",
        "streetNameDisplayText": "DONCASTER DR, BRAMPTON"
      }
    ]
  },
  {
    "postal": "L6T2N7",
    "result": [
      {
        "electoralDistricts": [
          {
            "election": null,
            "id": 8,
            "name": "Brampton Centre"
          }
        ],
        "pollDivisionIds": [
          10137083
        ],
        "postalCode": "L6T2N7",
        "streetName": "ATHLONE",
        "streetDirectionId": null,
        "streetTypeId": "AVE",
        "placeName": "BRAMPTON",
        "streetNameDisplayText": "ATHLONE AVE, BRAMPTON"
      }
    ]
  },
  {
    "postal": "L6T0H8",
    "result": []
  },
  {
    "postal": "L6T7Z4",
    "result": []
  },
  {
    "postal": "L6T7B1",
    "result": []
  },
  {
    "postal": "L6T7P8",
    "result": []
  },
  {
    "postal": "L6T7N0",
    "result": []
  },
  {
    "postal": "L6T3Y5",
    "result": []
  },
  {
    "postal": "L6T6K1",
    "result": []
  },
  {
    "postal": "L6T9X5",
    "result": []
  },
  {
    "postal": "L6T7S5",
    "result": []
  },
  {
    "postal": "L6T0A4",
    "result": [
      {
        "electoralDistricts": [
          {
            "election": null,
            "id": 9,
            "name": "Brampton East"
          }
        ],
        "pollDivisionIds": [
          10111361
        ],
        "postalCode": "L6T0A4",
        "streetName": "MANSWOOD",
        "streetDirectionId": null,
        "streetTypeId": "CRES",
        "placeName": "BRAMPTON",
        "streetNameDisplayText": "MANSWOOD CRES, BRAMPTON"
      }
    ]
  },
  {
    "postal": "L6T4T5",
    "result": [
      {
        "electoralDistricts": [
          {
            "election": null,
            "id": 8,
            "name": "Brampton Centre"
          }
        ],
        "pollDivisionIds": [
          10137075
        ],
        "postalCode": "L6T4T5",
        "streetName": "WESTWYN",
        "streetDirectionId": null,
        "streetTypeId": "CRT",
        "placeName": "BRAMPTON",
        "streetNameDisplayText": "WESTWYN CRT, BRAMPTON"
      }
    ]
  },
  {
    "postal": "L6T5K1",
    "result": [
      {
        "electoralDistricts": [
          {
            "election": null,
            "id": 9,
            "name": "Brampton East"
          }
        ],
        "pollDivisionIds": [
          10111373
        ],
        "postalCode": "L6T5K1",
        "streetName": "INTERMODAL",
        "streetDirectionId": null,
        "streetTypeId": "DR",
        "placeName": "BRAMPTON",
        "streetNameDisplayText": "INTERMODAL DR, BRAMPTON"
      }
    ]
  },
  {
    "postal": "L6T0Z9",
    "result": []
  },
  {
    "postal": "L6T7T2",
    "result": []
  },
  {
    "postal": "L6T1L5",
    "result": [
      {
        "electoralDistricts": [
          {
            "election": null,
            "id": 8,
            "name": "Brampton Centre"
          }
        ],
        "pollDivisionIds": [
          10137083
        ],
        "postalCode": "L6T1L5",
        "streetName": "AVA",
        "streetDirectionId": null,
        "streetTypeId": "CRT",
        "placeName": "BRAMPTON",
        "streetNameDisplayText": "AVA CRT, BRAMPTON"
      }
    ]
  },
  {
    "postal": "L6T3N5",
    "result": [
      {
        "electoralDistricts": [
          {
            "election": null,
            "id": 8,
            "name": "Brampton Centre"
          }
        ],
        "pollDivisionIds": [
          10137087
        ],
        "postalCode": "L6T3N5",
        "streetName": "FOLKSTONE",
        "streetDirectionId": null,
        "streetTypeId": "CRES",
        "placeName": "BRAMPTON",
        "streetNameDisplayText": "FOLKSTONE CRES, BRAMPTON"
      }
    ]
  },
  {
    "postal": "L6T6H4",
    "result": []
  },
  {
    "postal": "L6T5A5",
    "result": []
  },
  {
    "postal": "L6T3R9",
    "result": [
      {
        "electoralDistricts": [
          {
            "election": null,
            "id": 8,
            "name": "Brampton Centre"
          }
        ],
        "pollDivisionIds": [
          10137089
        ],
        "postalCode": "L6T3R9",
        "streetName": "EVESHAM",
        "streetDirectionId": null,
        "streetTypeId": "CRES",
        "placeName": "BRAMPTON",
        "streetNameDisplayText": "EVESHAM CRES, BRAMPTON"
      }
    ]
  },
  {
    "postal": "L6T7L8",
    "result": []
  },
  {
    "postal": "L6T6T6",
    "result": []
  },
  {
    "postal": "L6T7Y7",
    "result": []
  },
  {
    "postal": "L6T3M8",
    "result": [
      {
        "electoralDistricts": [
          {
            "election": null,
            "id": 8,
            "name": "Brampton Centre"
          }
        ],
        "pollDivisionIds": [
          10137087
        ],
        "postalCode": "L6T3M8",
        "streetName": "FOLKSTONE",
        "streetDirectionId": null,
        "streetTypeId": "CRES",
        "placeName": "BRAMPTON",
        "streetNameDisplayText": "FOLKSTONE CRES, BRAMPTON"
      }
    ]
  },
  {
    "postal": "L6T2E0",
    "result": []
  },
  {
    "postal": "L6T4B5",
    "result": [
      {
        "electoralDistricts": [
          {
            "election": null,
            "id": 8,
            "name": "Brampton Centre"
          }
        ],
        "pollDivisionIds": [
          10137079
        ],
        "postalCode": "L6T4B5",
        "streetName": "PEEL CENTRE",
        "streetDirectionId": null,
        "streetTypeId": "DR",
        "placeName": "BRAMPTON",
        "streetNameDisplayText": "PEEL CENTRE DR, BRAMPTON"
      }
    ]
  },
  {
    "postal": "L6T1J3",
    "result": [
      {
        "electoralDistricts": [
          {
            "election": null,
            "id": 8,
            "name": "Brampton Centre"
          }
        ],
        "pollDivisionIds": [
          10137082
        ],
        "postalCode": "L6T1J3",
        "streetName": "AVONDALE",
        "streetDirectionId": null,
        "streetTypeId": "BLVD",
        "placeName": "BRAMPTON",
        "streetNameDisplayText": "AVONDALE BLVD, BRAMPTON"
      }
    ]
  },
  {
    "postal": "L6T5S6",
    "result": [
      {
        "electoralDistricts": [
          {
            "election": null,
            "id": 8,
            "name": "Brampton Centre"
          }
        ],
        "pollDivisionIds": [
          10137075
        ],
        "postalCode": "L6T5S6",
        "streetName": "WESTCREEK",
        "streetDirectionId": null,
        "streetTypeId": "BLVD",
        "placeName": "BRAMPTON",
        "streetNameDisplayText": "WESTCREEK BLVD, BRAMPTON"
      }
    ]
  },
  {
    "postal": "L6T8P7",
    "result": []
  },
  {
    "postal": "L6T7S7",
    "result": []
  },
  {
    "postal": "L6T4C2",
    "result": [
      {
        "electoralDistricts": [
          {
            "election": null,
            "id": 8,
            "name": "Brampton Centre"
          }
        ],
        "pollDivisionIds": [
          10137089
        ],
        "postalCode": "L6T4C2",
        "streetName": "ELLERSLIE",
        "streetDirectionId": null,
        "streetTypeId": "RD",
        "placeName": "BRAMPTON",
        "streetNameDisplayText": "ELLERSLIE RD, BRAMPTON"
      }
    ]
  },
  {
    "postal": "L6T5Y0",
    "result": []
  },
  {
    "postal": "L6T2V7",
    "result": [
      {
        "electoralDistricts": [
          {
            "election": null,
            "id": 8,
            "name": "Brampton Centre"
          }
        ],
        "pollDivisionIds": [
          10137083
        ],
        "postalCode": "L6T2V7",
        "streetName": "AUTUMN",
        "streetDirectionId": null,
        "streetTypeId": "BLVD",
        "placeName": "BRAMPTON",
        "streetNameDisplayText": "AUTUMN BLVD, BRAMPTON"
      }
    ]
  },
  {
    "postal": "L6T8P5",
    "result": []
  },
  {
    "postal": "L6T5P5",
    "result": [
      {
        "electoralDistricts": [
          {
            "election": null,
            "id": 9,
            "name": "Brampton East"
          }
        ],
        "pollDivisionIds": [
          10111374
        ],
        "postalCode": "L6T5P5",
        "streetName": "WALKER",
        "streetDirectionId": null,
        "streetTypeId": "DR",
        "placeName": "BRAMPTON",
        "streetNameDisplayText": "WALKER DR, BRAMPTON"
      }
    ]
  },
  {
    "postal": "L6T5Z0",
    "result": []
  },
  {
    "postal": "L6T9B0",
    "result": []
  },
  {
    "postal": "L6T1L0",
    "result": []
  },
  {
    "postal": "L6T0B5",
    "result": [
      {
        "electoralDistricts": [
          {
            "election": null,
            "id": 9,
            "name": "Brampton East"
          }
        ],
        "pollDivisionIds": [
          10111362
        ],
        "postalCode": "L6T0B5",
        "streetName": "INTERMODAL",
        "streetDirectionId": null,
        "streetTypeId": "DR",
        "placeName": "BRAMPTON",
        "streetNameDisplayText": "INTERMODAL DR, BRAMPTON"
      }
    ]
  },
  {
    "postal": "L6T3L2",
    "result": [
      {
        "electoralDistricts": [
          {
            "election": null,
            "id": 8,
            "name": "Brampton Centre"
          }
        ],
        "pollDivisionIds": [
          10137089
        ],
        "postalCode": "L6T3L2",
        "streetName": "DRAKE",
        "streetDirectionId": null,
        "streetTypeId": "BLVD",
        "placeName": "BRAMPTON",
        "streetNameDisplayText": "DRAKE BLVD, BRAMPTON"
      }
    ]
  },
  {
    "postal": "L6T3B7",
    "result": [
      {
        "electoralDistricts": [
          {
            "election": null,
            "id": 8,
            "name": "Brampton Centre"
          }
        ],
        "pollDivisionIds": [
          10137091
        ],
        "postalCode": "L6T3B7",
        "streetName": "DELEMERE",
        "streetDirectionId": null,
        "streetTypeId": "RD",
        "placeName": "BRAMPTON",
        "streetNameDisplayText": "DELEMERE RD, BRAMPTON"
      }
    ]
  },
  {
    "postal": "L6T8L1",
    "result": []
  },
  {
    "postal": "L6T5M4",
    "result": [
      {
        "electoralDistricts": [
          {
            "election": null,
            "id": 9,
            "name": "Brampton East"
          }
        ],
        "pollDivisionIds": [
          10111362
        ],
        "postalCode": "L6T5M4",
        "streetName": "ARMTHORPE",
        "streetDirectionId": null,
        "streetTypeId": "RD",
        "placeName": "BRAMPTON",
        "streetNameDisplayText": "ARMTHORPE RD, BRAMPTON"
      }
    ]
  },
  {
    "postal": "L6T4G9",
    "result": [
      {
        "electoralDistricts": [
          {
            "election": null,
            "id": 9,
            "name": "Brampton East"
          }
        ],
        "pollDivisionIds": [
          10111374
        ],
        "postalCode": "L6T4G9",
        "streetName": "WALKER",
        "streetDirectionId": null,
        "streetTypeId": "DR",
        "placeName": "BRAMPTON",
        "streetNameDisplayText": "WALKER DR, BRAMPTON"
      }
    ]
  },
  {
    "postal": "L6T0P0",
    "result": []
  },
  {
    "postal": "L6T8G2",
    "result": []
  },
  {
    "postal": "L6T1V9",
    "result": [
      {
        "electoralDistricts": [
          {
            "election": null,
            "id": 8,
            "name": "Brampton Centre"
          }
        ],
        "pollDivisionIds": [
          10137082
        ],
        "postalCode": "L6T1V9",
        "streetName": "BALMORAL",
        "streetDirectionId": null,
        "streetTypeId": "DR",
        "placeName": "BRAMPTON",
        "streetNameDisplayText": "BALMORAL DR, BRAMPTON"
      }
    ]
  },
  {
    "postal": "L6T8N8",
    "result": []
  },
  {
    "postal": "L6T6S8",
    "result": []
  },
  {
    "postal": "L6T8H2",
    "result": []
  },
  {
    "postal": "L6T5R8",
    "result": [
      {
        "electoralDistricts": [
          {
            "election": null,
            "id": 9,
            "name": "Brampton East"
          }
        ],
        "pollDivisionIds": [
          10111362
        ],
        "postalCode": "L6T5R8",
        "streetName": "DEERHURST",
        "streetDirectionId": null,
        "streetTypeId": "DR",
        "placeName": "BRAMPTON",
        "streetNameDisplayText": "DEERHURST DR, BRAMPTON"
      }
    ]
  },
  {
    "postal": "L6T5L4",
    "result": [
      {
        "electoralDistricts": [
          {
            "election": null,
            "id": 9,
            "name": "Brampton East"
          }
        ],
        "pollDivisionIds": [
          10111362
        ],
        "postalCode": "L6T5L4",
        "streetName": "WENTWORTH",
        "streetDirectionId": null,
        "streetTypeId": "CRT",
        "placeName": "BRAMPTON",
        "streetNameDisplayText": "WENTWORTH CRT, BRAMPTON"
      }
    ]
  },
  {
    "postal": "L6T9E1",
    "result": []
  },
  {
    "postal": "L6T1C4",
    "result": []
  },
  {
    "postal": "L6T8W5",
    "result": []
  },
  {
    "postal": "L6T1Y4",
    "result": [
      {
        "electoralDistricts": [
          {
            "election": null,
            "id": 8,
            "name": "Brampton Centre"
          }
        ],
        "pollDivisionIds": [
          10137090
        ],
        "postalCode": "L6T1Y4",
        "streetName": "EXETER",
        "streetDirectionId": null,
        "streetTypeId": "PL",
        "placeName": "BRAMPTON",
        "streetNameDisplayText": "EXETER PL, BRAMPTON"
      }
    ]
  },
  {
    "postal": "L6T1C0",
    "result": []
  },
  {
    "postal": "L6T2J2",
    "result": []
  },
  {
    "postal": "L6T2J0",
    "result": []
  },
  {
    "postal": "L6T7A3",
    "result": []
  },
  {
    "postal": "L6T8M1",
    "result": []
  },
  {
    "postal": "L6T7T9",
    "result": []
  },
  {
    "postal": "L6T6C0",
    "result": []
  },
  {
    "postal": "L6T7X1",
    "result": []
  },
  {
    "postal": "L6T0G1",
    "result": [
      {
        "electoralDistricts": [
          {
            "election": null,
            "id": 8,
            "name": "Brampton Centre"
          }
        ],
        "pollDivisionIds": [
          10137079
        ],
        "postalCode": "L6T0G1",
        "streetName": "BRAMALEA",
        "streetDirectionId": null,
        "streetTypeId": "RD",
        "placeName": "BRAMPTON",
        "streetNameDisplayText": "BRAMALEA RD, BRAMPTON"
      }
    ]
  },
  {
    "postal": "L6T4X2",
    "result": [
      {
        "electoralDistricts": [
          {
            "election": null,
            "id": 9,
            "name": "Brampton East"
          }
        ],
        "pollDivisionIds": [
          10111374
        ],
        "postalCode": "L6T4X2",
        "streetName": "GATEWAY",
        "streetDirectionId": null,
        "streetTypeId": "BLVD",
        "placeName": "BRAMPTON",
        "streetNameDisplayText": "GATEWAY BLVD, BRAMPTON"
      }
    ]
  },
  {
    "postal": "L6T0N6",
    "result": []
  },
  {
    "postal": "L6T8E3",
    "result": []
  },
  {
    "postal": "L6T5S8",
    "result": [
      {
        "electoralDistricts": [
          {
            "election": null,
            "id": 9,
            "name": "Brampton East"
          }
        ],
        "pollDivisionIds": [
          10111362
        ],
        "postalCode": "L6T5S8",
        "streetName": "KENVIEW",
        "streetDirectionId": null,
        "streetTypeId": "BLVD",
        "placeName": "BRAMPTON",
        "streetNameDisplayText": "KENVIEW BLVD, BRAMPTON"
      }
    ]
  },
  {
    "postal": "L6T0R0",
    "result": []
  },
  {
    "postal": "L6T6J6",
    "result": []
  },
  {
    "postal": "L6T4B4",
    "result": []
  },
  {
    "postal": "L6T7E3",
    "result": []
  },
  {
    "postal": "L6T3N6",
    "result": [
      {
        "electoralDistricts": [
          {
            "election": null,
            "id": 8,
            "name": "Brampton Centre"
          }
        ],
        "pollDivisionIds": [
          10137087
        ],
        "postalCode": "L6T3N6",
        "streetName": "FOLKSTONE",
        "streetDirectionId": null,
        "streetTypeId": "CRES",
        "placeName": "BRAMPTON",
        "streetNameDisplayText": "FOLKSTONE CRES, BRAMPTON"
      }
    ]
  },
  {
    "postal": "L6T3X6",
    "result": [
      {
        "electoralDistricts": [
          {
            "election": null,
            "id": 8,
            "name": "Brampton Centre"
          }
        ],
        "pollDivisionIds": [
          10137080
        ],
        "postalCode": "L6T3X6",
        "streetName": "KINGS CROSS",
        "streetDirectionId": null,
        "streetTypeId": "RD",
        "placeName": "BRAMPTON",
        "streetNameDisplayText": "KINGS CROSS RD, BRAMPTON"
      }
    ]
  },
  {
    "postal": "L6T8L0",
    "result": []
  },
  {
    "postal": "L6T8N1",
    "result": []
  },
  {
    "postal": "L6T4J0",
    "result": []
  },
  {
    "postal": "L6T0X7",
    "result": []
  },
  {
    "postal": "L6T6S4",
    "result": []
  },
  {
    "postal": "L6T0Z0",
    "result": []
  },
  {
    "postal": "L6T9X8",
    "result": []
  },
  {
    "postal": "L6T3H3",
    "result": [
      {
        "electoralDistricts": [
          {
            "election": null,
            "id": 8,
            "name": "Brampton Centre"
          }
        ],
        "pollDivisionIds": [
          10137090
        ],
        "postalCode": "L6T3H3",
        "streetName": "ERINGATE",
        "streetDirectionId": null,
        "streetTypeId": "RD",
        "placeName": "BRAMPTON",
        "streetNameDisplayText": "ERINGATE RD, BRAMPTON"
      }
    ]
  },
  {
    "postal": "L6T7S2",
    "result": []
  },
  {
    "postal": "L6T3T3",
    "result": []
  },
  {
    "postal": "L6T9P3",
    "result": []
  },
  {
    "postal": "L6T4H8",
    "result": [
      {
        "electoralDistricts": [
          {
            "election": null,
            "id": 8,
            "name": "Brampton Centre"
          }
        ],
        "pollDivisionIds": [
          10137083
        ],
        "postalCode": "L6T4H8",
        "streetName": "ADVANCE",
        "streetDirectionId": null,
        "streetTypeId": "BLVD",
        "placeName": "BRAMPTON",
        "streetNameDisplayText": "ADVANCE BLVD, BRAMPTON"
      }
    ]
  },
  {
    "postal": "L6T6R1",
    "result": []
  },
  {
    "postal": "L6T1S0",
    "result": []
  },
  {
    "postal": "L6T3W8",
    "result": [
      {
        "electoralDistricts": [
          {
            "election": null,
            "id": 8,
            "name": "Brampton Centre"
          }
        ],
        "pollDivisionIds": [
          10137100
        ],
        "postalCode": "L6T3W8",
        "streetName": "KENSINGTON",
        "streetDirectionId": null,
        "streetTypeId": "RD",
        "placeName": "BRAMPTON",
        "streetNameDisplayText": "KENSINGTON RD, BRAMPTON"
      }
    ]
  },
  {
    "postal": "L6T4S3",
    "result": [
      {
        "electoralDistricts": [
          {
            "election": null,
            "id": 8,
            "name": "Brampton Centre"
          }
        ],
        "pollDivisionIds": [
          10137087
        ],
        "postalCode": "L6T4S3",
        "streetName": "QUEEN",
        "streetDirectionId": "E",
        "streetTypeId": "ST",
        "placeName": "BRAMPTON",
        "streetNameDisplayText": "QUEEN ST E, BRAMPTON"
      }
    ]
  },
  {
    "postal": "L6T1B6",
    "result": [
      {
        "electoralDistricts": [
          {
            "election": null,
            "id": 8,
            "name": "Brampton Centre"
          }
        ],
        "pollDivisionIds": [
          10137091
        ],
        "postalCode": "L6T1B6",
        "streetName": "EAST",
        "streetDirectionId": null,
        "streetTypeId": "DR",
        "placeName": "BRAMPTON",
        "streetNameDisplayText": "EAST DR, BRAMPTON"
      }
    ]
  },
  {
    "postal": "L6T8R3",
    "result": []
  },
  {
    "postal": "L6T4V9",
    "result": []
  },
  {
    "postal": "L6T9W4",
    "result": []
  },
  {
    "postal": "L6T3T4",
    "result": [
      {
        "electoralDistricts": [
          {
            "election": null,
            "id": 8,
            "name": "Brampton Centre"
          }
        ],
        "pollDivisionIds": [
          10137075
        ],
        "postalCode": "L6T3T4",
        "streetName": "TILBURY",
        "streetDirectionId": null,
        "streetTypeId": "CRT",
        "placeName": "BRAMPTON",
        "streetNameDisplayText": "TILBURY CRT, BRAMPTON"
      }
    ]
  },
  {
    "postal": "L6T5C7",
    "result": [
      {
        "electoralDistricts": [
          {
            "election": null,
            "id": 8,
            "name": "Brampton Centre"
          }
        ],
        "pollDivisionIds": [
          10137089
        ],
        "postalCode": "L6T5C7",
        "streetName": "TORBRAM",
        "streetDirectionId": null,
        "streetTypeId": "RD",
        "placeName": "BRAMPTON",
        "streetNameDisplayText": "TORBRAM RD, BRAMPTON"
      }
    ]
  },
  {
    "postal": "L6T3Y1",
    "result": [
      {
        "electoralDistricts": [
          {
            "election": null,
            "id": 8,
            "name": "Brampton Centre"
          }
        ],
        "pollDivisionIds": [
          10137080
        ],
        "postalCode": "L6T3Y1",
        "streetName": "KNIGHTSBRIDGE",
        "streetDirectionId": null,
        "streetTypeId": "RD",
        "placeName": "BRAMPTON",
        "streetNameDisplayText": "KNIGHTSBRIDGE RD, BRAMPTON"
      }
    ]
  },
  {
    "postal": "L6T5V0",
    "result": []
  },
  {
    "postal": "L6T8G8",
    "result": []
  },
  {
    "postal": "L6T8B1",
    "result": []
  },
  {
    "postal": "L6T4P5",
    "result": []
  },
  {
    "postal": "L6T7B2",
    "result": []
  },
  {
    "postal": "L6T0R2",
    "result": []
  },
  {
    "postal": "L6T4M4",
    "result": [
      {
        "electoralDistricts": [
          {
            "election": null,
            "id": 8,
            "name": "Brampton Centre"
          }
        ],
        "pollDivisionIds": [
          10137075
        ],
        "postalCode": "L6T4M4",
        "streetName": "WILKINSON",
        "streetDirectionId": null,
        "streetTypeId": "RD",
        "placeName": "BRAMPTON",
        "streetNameDisplayText": "WILKINSON RD, BRAMPTON"
      }
    ]
  },
  {
    "postal": "L6T7M4",
    "result": []
  },
  {
    "postal": "L6T9S7",
    "result": []
  },
  {
    "postal": "L6T5Z7",
    "result": []
  },
  {
    "postal": "L6T7J7",
    "result": []
  },
  {
    "postal": "L6T8R8",
    "result": []
  },
  {
    "postal": "L6T9X1",
    "result": []
  },
  {
    "postal": "L6T5M9",
    "result": [
      {
        "electoralDistricts": [
          {
            "election": null,
            "id": 8,
            "name": "Brampton Centre"
          }
        ],
        "pollDivisionIds": [
          10137090
        ],
        "postalCode": "L6T5M9",
        "streetName": "BRAMALEA",
        "streetDirectionId": null,
        "streetTypeId": "RD",
        "placeName": "BRAMPTON",
        "streetNameDisplayText": "BRAMALEA RD, BRAMPTON"
      }
    ]
  },
  {
    "postal": "L6T9B4",
    "result": []
  },
  {
    "postal": "L6T0L9",
    "result": []
  },
  {
    "postal": "L6T9G4",
    "result": []
  },
  {
    "postal": "L6T1J4",
    "result": [
      {
        "electoralDistricts": [
          {
            "election": null,
            "id": 8,
            "name": "Brampton Centre"
          }
        ],
        "pollDivisionIds": [
          10137082
        ],
        "postalCode": "L6T1J4",
        "streetName": "AVONDALE",
        "streetDirectionId": null,
        "streetTypeId": "BLVD",
        "placeName": "BRAMPTON",
        "streetNameDisplayText": "AVONDALE BLVD, BRAMPTON"
      }
    ]
  },
  {
    "postal": "L6T0W6",
    "result": []
  }
]
