[
  {
    "postal": "N8H9J6",
    "result": []
  },
  {
    "postal": "N8H9Z5",
    "result": []
  },
  {
    "postal": "N8H7H8",
    "result": []
  },
  {
    "postal": "N8H0P6",
    "result": []
  },
  {
    "postal": "N8H0S7",
    "result": []
  },
  {
    "postal": "N8H8B9",
    "result": []
  },
  {
    "postal": "N8H2A6",
    "result": [
      {
        "electoralDistricts": [
          {
            "election": null,
            "id": 18,
            "name": "Chatham-Kent—Leamington"
          }
        ],
        "pollDivisionIds": [
          10137516
        ],
        "postalCode": "N8H2A6",
        "streetName": "BROWN",
        "streetDirectionId": null,
        "streetTypeId": "ST",
        "placeName": "LEAMINGTON",
        "streetNameDisplayText": "BROWN ST, LEAMINGTON"
      }
    ]
  },
  {
    "postal": "N8H7V2",
    "result": []
  },
  {
    "postal": "N8H9P4",
    "result": []
  },
  {
    "postal": "N8H6G0",
    "result": []
  },
  {
    "postal": "N8H2K0",
    "result": []
  },
  {
    "postal": "N8H7N6",
    "result": []
  },
  {
    "postal": "N8H5R3",
    "result": []
  },
  {
    "postal": "N8H7K0",
    "result": []
  },
  {
    "postal": "N8H3R2",
    "result": [
      {
        "electoralDistricts": [
          {
            "election": null,
            "id": 18,
            "name": "Chatham-Kent—Leamington"
          }
        ],
        "pollDivisionIds": [
          10137516
        ],
        "postalCode": "N8H3R2",
        "streetName": "KIMBALL",
        "streetDirectionId": null,
        "streetTypeId": "AVE",
        "placeName": "LEAMINGTON",
        "streetNameDisplayText": "KIMBALL AVE, LEAMINGTON"
      }
    ]
  },
  {
    "postal": "N8H0J1",
    "result": []
  },
  {
    "postal": "N8H0B0",
    "result": []
  },
  {
    "postal": "N8H5Z2",
    "result": []
  },
  {
    "postal": "N8H7P3",
    "result": []
  },
  {
    "postal": "N8H2K3",
    "result": [
      {
        "electoralDistricts": [
          {
            "election": null,
            "id": 18,
            "name": "Chatham-Kent—Leamington"
          }
        ],
        "pollDivisionIds": [
          10137516
        ],
        "postalCode": "N8H2K3",
        "streetName": "CLAIRE",
        "streetDirectionId": null,
        "streetTypeId": "ST",
        "placeName": "LEAMINGTON",
        "streetNameDisplayText": "CLAIRE ST, LEAMINGTON"
      }
    ]
  },
  {
    "postal": "N8H7Y6",
    "result": []
  },
  {
    "postal": "N8H1L9",
    "result": [
      {
        "electoralDistricts": [
          {
            "election": null,
            "id": 18,
            "name": "Chatham-Kent—Leamington"
          }
        ],
        "pollDivisionIds": [
          10137515,
          10143130
        ],
        "postalCode": "N8H1L9",
        "streetName": "TALBOT",
        "streetDirectionId": "E",
        "streetTypeId": "ST",
        "placeName": "LEAMINGTON",
        "streetNameDisplayText": "TALBOT ST E, LEAMINGTON"
      }
    ]
  },
  {
    "postal": "N8H8T0",
    "result": []
  },
  {
    "postal": "N8H3K8",
    "result": [
      {
        "electoralDistricts": [
          {
            "election": null,
            "id": 18,
            "name": "Chatham-Kent—Leamington"
          }
        ],
        "pollDivisionIds": [
          10137516
        ],
        "postalCode": "N8H3K8",
        "streetName": "SHERK",
        "streetDirectionId": null,
        "streetTypeId": "ST",
        "placeName": "LEAMINGTON",
        "streetNameDisplayText": "SHERK ST, LEAMINGTON"
      }
    ]
  },
  {
    "postal": "N8H5W9",
    "result": []
  },
  {
    "postal": "N8H6T9",
    "result": []
  },
  {
    "postal": "N8H4H1",
    "result": [
      {
        "electoralDistricts": [
          {
            "election": null,
            "id": 18,
            "name": "Chatham-Kent—Leamington"
          }
        ],
        "pollDivisionIds": [
          10137517
        ],
        "postalCode": "N8H4H1",
        "streetName": "ORANGE",
        "streetDirectionId": null,
        "streetTypeId": "ST",
        "placeName": "LEAMINGTON",
        "streetNameDisplayText": "ORANGE ST, LEAMINGTON"
      }
    ]
  },
  {
    "postal": "N8H7A2",
    "result": []
  },
  {
    "postal": "N8H5G0",
    "result": []
  },
  {
    "postal": "N8H8V5",
    "result": []
  },
  {
    "postal": "N8H2Y8",
    "result": [
      {
        "electoralDistricts": [
          {
            "election": null,
            "id": 18,
            "name": "Chatham-Kent—Leamington"
          }
        ],
        "pollDivisionIds": [
          10137517
        ],
        "postalCode": "N8H2Y8",
        "streetName": "PRINCESS",
        "streetDirectionId": null,
        "streetTypeId": "ST",
        "placeName": "LEAMINGTON",
        "streetNameDisplayText": "PRINCESS ST, LEAMINGTON"
      }
    ]
  },
  {
    "postal": "N8H2B6",
    "result": [
      {
        "electoralDistricts": [
          {
            "election": null,
            "id": 18,
            "name": "Chatham-Kent—Leamington"
          }
        ],
        "pollDivisionIds": [
          10137516
        ],
        "postalCode": "N8H2B6",
        "streetName": "OAK",
        "streetDirectionId": "W",
        "streetTypeId": "ST",
        "placeName": "LEAMINGTON",
        "streetNameDisplayText": "OAK ST W, LEAMINGTON"
      }
    ]
  },
  {
    "postal": "N8H4W8",
    "result": [
      {
        "electoralDistricts": [
          {
            "election": null,
            "id": 18,
            "name": "Chatham-Kent—Leamington"
          }
        ],
        "pollDivisionIds": [
          10137518
        ],
        "postalCode": "N8H4W8",
        "streetName": "OAK",
        "streetDirectionId": "E",
        "streetTypeId": "ST",
        "placeName": "LEAMINGTON",
        "streetNameDisplayText": "OAK ST E, LEAMINGTON"
      }
    ]
  },
  {
    "postal": "N8H8H7",
    "result": []
  },
  {
    "postal": "N8H5P1",
    "result": [
      {
        "electoralDistricts": [
          {
            "election": null,
            "id": 18,
            "name": "Chatham-Kent—Leamington"
          }
        ],
        "pollDivisionIds": [
          10137574
        ],
        "postalCode": "N8H5P1",
        "streetName": "HENRY",
        "streetDirectionId": null,
        "streetTypeId": "AVE",
        "placeName": "LEAMINGTON",
        "streetNameDisplayText": "HENRY AVE, LEAMINGTON"
      }
    ]
  },
  {
    "postal": "N8H2B8",
    "result": [
      {
        "electoralDistricts": [
          {
            "election": null,
            "id": 18,
            "name": "Chatham-Kent—Leamington"
          }
        ],
        "pollDivisionIds": [
          10137516,
          10137515
        ],
        "postalCode": "N8H2B8",
        "streetName": "OAK",
        "streetDirectionId": "W",
        "streetTypeId": "ST",
        "placeName": "LEAMINGTON",
        "streetNameDisplayText": "OAK ST W, LEAMINGTON"
      }
    ]
  },
  {
    "postal": "N8H0P2",
    "result": []
  },
  {
    "postal": "N8H9M1",
    "result": []
  },
  {
    "postal": "N8H3G0",
    "result": []
  },
  {
    "postal": "N8H9Z2",
    "result": []
  },
  {
    "postal": "N8H2A0",
    "result": []
  },
  {
    "postal": "N8H6Y0",
    "result": []
  },
  {
    "postal": "N8H2Z8",
    "result": []
  },
  {
    "postal": "N8H7Y3",
    "result": []
  },
  {
    "postal": "N8H6Z5",
    "result": []
  },
  {
    "postal": "N8H6E0",
    "result": []
  },
  {
    "postal": "N8H9B7",
    "result": []
  },
  {
    "postal": "N8H9S5",
    "result": []
  },
  {
    "postal": "N8H3X3",
    "result": []
  },
  {
    "postal": "N8H7R5",
    "result": []
  },
  {
    "postal": "N8H2X3",
    "result": [
      {
        "electoralDistricts": [
          {
            "election": null,
            "id": 18,
            "name": "Chatham-Kent—Leamington"
          }
        ],
        "pollDivisionIds": [
          10137517
        ],
        "postalCode": "N8H2X3",
        "streetName": "VICTORIA",
        "streetDirectionId": "S",
        "streetTypeId": "AVE",
        "placeName": "LEAMINGTON",
        "streetNameDisplayText": "VICTORIA AVE S, LEAMINGTON"
      }
    ]
  },
  {
    "postal": "N8H8Z9",
    "result": []
  },
  {
    "postal": "N8H0N4",
    "result": []
  },
  {
    "postal": "N8H1K1",
    "result": [
      {
        "electoralDistricts": [
          {
            "election": null,
            "id": 18,
            "name": "Chatham-Kent—Leamington"
          }
        ],
        "pollDivisionIds": [
          10137516
        ],
        "postalCode": "N8H1K1",
        "streetName": "NANCY",
        "streetDirectionId": null,
        "streetTypeId": "AVE",
        "placeName": "LEAMINGTON",
        "streetNameDisplayText": "NANCY AVE, LEAMINGTON"
      }
    ]
  },
  {
    "postal": "N8H1S3",
    "result": [
      {
        "electoralDistricts": [
          {
            "election": null,
            "id": 18,
            "name": "Chatham-Kent—Leamington"
          }
        ],
        "pollDivisionIds": [
          10137517
        ],
        "postalCode": "N8H1S3",
        "streetName": "MILL",
        "streetDirectionId": "E",
        "streetTypeId": "ST",
        "placeName": "LEAMINGTON",
        "streetNameDisplayText": "MILL ST E, LEAMINGTON"
      }
    ]
  },
  {
    "postal": "N8H6M4",
    "result": []
  },
  {
    "postal": "N8H9A9",
    "result": []
  },
  {
    "postal": "N8H9Z9",
    "result": []
  },
  {
    "postal": "N8H6T4",
    "result": []
  },
  {
    "postal": "N8H0B2",
    "result": []
  },
  {
    "postal": "N8H2L9",
    "result": [
      {
        "electoralDistricts": [
          {
            "election": null,
            "id": 18,
            "name": "Chatham-Kent—Leamington"
          }
        ],
        "pollDivisionIds": [
          10137516
        ],
        "postalCode": "N8H2L9",
        "streetName": "CONOVER",
        "streetDirectionId": null,
        "streetTypeId": "AVE",
        "placeName": "LEAMINGTON",
        "streetNameDisplayText": "CONOVER AVE, LEAMINGTON"
      }
    ]
  },
  {
    "postal": "N8H8K9",
    "result": []
  },
  {
    "postal": "N8H2H9",
    "result": [
      {
        "electoralDistricts": [
          {
            "election": null,
            "id": 18,
            "name": "Chatham-Kent—Leamington"
          }
        ],
        "pollDivisionIds": [
          10137516
        ],
        "postalCode": "N8H2H9",
        "streetName": "MELROSE",
        "streetDirectionId": null,
        "streetTypeId": "AVE",
        "placeName": "LEAMINGTON",
        "streetNameDisplayText": "MELROSE AVE, LEAMINGTON"
      }
    ]
  },
  {
    "postal": "N8H3Z6",
    "result": [
      {
        "electoralDistricts": [
          {
            "election": null,
            "id": 18,
            "name": "Chatham-Kent—Leamington"
          }
        ],
        "pollDivisionIds": [
          10137516
        ],
        "postalCode": "N8H3Z6",
        "streetName": "MARK",
        "streetDirectionId": null,
        "streetTypeId": "CRES",
        "placeName": "LEAMINGTON",
        "streetNameDisplayText": "MARK CRES, LEAMINGTON"
      }
    ]
  },
  {
    "postal": "N8H3B0",
    "result": []
  },
  {
    "postal": "N8H2H8",
    "result": [
      {
        "electoralDistricts": [
          {
            "election": null,
            "id": 18,
            "name": "Chatham-Kent—Leamington"
          }
        ],
        "pollDivisionIds": [
          10137516
        ],
        "postalCode": "N8H2H8",
        "streetName": "MELROSE",
        "streetDirectionId": null,
        "streetTypeId": "AVE",
        "placeName": "LEAMINGTON",
        "streetNameDisplayText": "MELROSE AVE, LEAMINGTON"
      }
    ]
  },
  {
    "postal": "N8H3X2",
    "result": [
      {
        "electoralDistricts": [
          {
            "election": null,
            "id": 18,
            "name": "Chatham-Kent—Leamington"
          }
        ],
        "pollDivisionIds": [
          10137516
        ],
        "postalCode": "N8H3X2",
        "streetName": "TALBOT",
        "streetDirectionId": "W",
        "streetTypeId": "ST",
        "placeName": "LEAMINGTON",
        "streetNameDisplayText": "TALBOT ST W, LEAMINGTON"
      }
    ]
  },
  {
    "postal": "N8H2E9",
    "result": [
      {
        "electoralDistricts": [
          {
            "election": null,
            "id": 18,
            "name": "Chatham-Kent—Leamington"
          }
        ],
        "pollDivisionIds": [
          10137516
        ],
        "postalCode": "N8H2E9",
        "streetName": "GEORGIA",
        "streetDirectionId": null,
        "streetTypeId": "AVE",
        "placeName": "LEAMINGTON",
        "streetNameDisplayText": "GEORGIA AVE, LEAMINGTON"
      }
    ]
  },
  {
    "postal": "N8H9P6",
    "result": []
  },
  {
    "postal": "N8H9E2",
    "result": []
  },
  {
    "postal": "N8H9H2",
    "result": []
  },
  {
    "postal": "N8H1S8",
    "result": [
      {
        "electoralDistricts": [
          {
            "election": null,
            "id": 18,
            "name": "Chatham-Kent—Leamington"
          }
        ],
        "pollDivisionIds": [
          10137517
        ],
        "postalCode": "N8H1S8",
        "streetName": "MILL",
        "streetDirectionId": "W",
        "streetTypeId": "ST",
        "placeName": "LEAMINGTON",
        "streetNameDisplayText": "MILL ST W, LEAMINGTON"
      }
    ]
  },
  {
    "postal": "N8H3M6",
    "result": [
      {
        "electoralDistricts": [
          {
            "election": null,
            "id": 18,
            "name": "Chatham-Kent—Leamington"
          }
        ],
        "pollDivisionIds": [
          10137515
        ],
        "postalCode": "N8H3M6",
        "streetName": "ELLIOTT",
        "streetDirectionId": null,
        "streetTypeId": "ST",
        "placeName": "LEAMINGTON",
        "streetNameDisplayText": "ELLIOTT ST, LEAMINGTON"
      }
    ]
  },
  {
    "postal": "N8H6Z8",
    "result": []
  },
  {
    "postal": "N8H4J2",
    "result": [
      {
        "electoralDistricts": [
          {
            "election": null,
            "id": 18,
            "name": "Chatham-Kent—Leamington"
          }
        ],
        "pollDivisionIds": [
          10137517
        ],
        "postalCode": "N8H4J2",
        "streetName": "ORANGE",
        "streetDirectionId": null,
        "streetTypeId": "ST",
        "placeName": "LEAMINGTON",
        "streetNameDisplayText": "ORANGE ST, LEAMINGTON"
      }
    ]
  },
  {
    "postal": "N8H9Y1",
    "result": []
  },
  {
    "postal": "N8H8V6",
    "result": []
  },
  {
    "postal": "N8H6B2",
    "result": []
  },
  {
    "postal": "N8H1P8",
    "result": [
      {
        "electoralDistricts": [
          {
            "election": null,
            "id": 18,
            "name": "Chatham-Kent—Leamington"
          }
        ],
        "pollDivisionIds": [
          10137517
        ],
        "postalCode": "N8H1P8",
        "streetName": "ORANGE",
        "streetDirectionId": null,
        "streetTypeId": "ST",
        "placeName": "LEAMINGTON",
        "streetNameDisplayText": "ORANGE ST, LEAMINGTON"
      }
    ]
  },
  {
    "postal": "N8H0V8",
    "result": []
  },
  {
    "postal": "N8H4Y0",
    "result": []
  },
  {
    "postal": "N8H2T4",
    "result": [
      {
        "electoralDistricts": [
          {
            "election": null,
            "id": 18,
            "name": "Chatham-Kent—Leamington"
          }
        ],
        "pollDivisionIds": [
          10137517
        ],
        "postalCode": "N8H2T4",
        "streetName": "ONTARIO",
        "streetDirectionId": null,
        "streetTypeId": "ST",
        "placeName": "LEAMINGTON",
        "streetNameDisplayText": "ONTARIO ST, LEAMINGTON"
      }
    ]
  },
  {
    "postal": "N8H2S3",
    "result": [
      {
        "electoralDistricts": [
          {
            "election": null,
            "id": 18,
            "name": "Chatham-Kent—Leamington"
          }
        ],
        "pollDivisionIds": [
          10137517
        ],
        "postalCode": "N8H2S3",
        "streetName": "WIGLE",
        "streetDirectionId": null,
        "streetTypeId": "ST",
        "placeName": "LEAMINGTON",
        "streetNameDisplayText": "WIGLE ST, LEAMINGTON"
      }
    ]
  },
  {
    "postal": "N8H0K0",
    "result": []
  },
  {
    "postal": "N8H5N1",
    "result": [
      {
        "electoralDistricts": [
          {
            "election": null,
            "id": 18,
            "name": "Chatham-Kent—Leamington"
          }
        ],
        "pollDivisionIds": [
          10137518
        ],
        "postalCode": "N8H5N1",
        "streetName": "CAROLINA WOODS",
        "streetDirectionId": null,
        "streetTypeId": "CRES",
        "placeName": "LEAMINGTON",
        "streetNameDisplayText": "CAROLINA WOODS CRES, LEAMINGTON"
      }
    ]
  },
  {
    "postal": "N8H7T0",
    "result": []
  },
  {
    "postal": "N8H9N2",
    "result": []
  },
  {
    "postal": "N8H5L1",
    "result": [
      {
        "electoralDistricts": [
          {
            "election": null,
            "id": 18,
            "name": "Chatham-Kent—Leamington"
          }
        ],
        "pollDivisionIds": [
          10137517
        ],
        "postalCode": "N8H5L1",
        "streetName": "STURGEON MEADOWS",
        "streetDirectionId": null,
        "streetTypeId": "AVE",
        "placeName": "LEAMINGTON",
        "streetNameDisplayText": "STURGEON MEADOWS AVE, LEAMINGTON"
      }
    ]
  },
  {
    "postal": "N8H7G5",
    "result": []
  },
  {
    "postal": "N8H6K2",
    "result": []
  },
  {
    "postal": "N8H6P9",
    "result": []
  },
  {
    "postal": "N8H0E6",
    "result": [
      {
        "electoralDistricts": [
          {
            "election": null,
            "id": 18,
            "name": "Chatham-Kent—Leamington"
          }
        ],
        "pollDivisionIds": [
          10137517
        ],
        "postalCode": "N8H0E6",
        "streetName": "FOX",
        "streetDirectionId": null,
        "streetTypeId": "ST",
        "placeName": "LEAMINGTON",
        "streetNameDisplayText": "FOX ST, LEAMINGTON"
      }
    ]
  },
  {
    "postal": "N8H8R9",
    "result": []
  },
  {
    "postal": "N8H3G9",
    "result": [
      {
        "electoralDistricts": [
          {
            "election": null,
            "id": 18,
            "name": "Chatham-Kent—Leamington"
          }
        ],
        "pollDivisionIds": [
          10137515
        ],
        "postalCode": "N8H3G9",
        "streetName": "QUEENS",
        "streetDirectionId": null,
        "streetTypeId": "AVE",
        "placeName": "LEAMINGTON",
        "streetNameDisplayText": "QUEENS AVE, LEAMINGTON"
      }
    ]
  },
  {
    "postal": "N8H0V7",
    "result": []
  },
  {
    "postal": "N8H2Z1",
    "result": [
      {
        "electoralDistricts": [
          {
            "election": null,
            "id": 18,
            "name": "Chatham-Kent—Leamington"
          }
        ],
        "pollDivisionIds": [
          10137517
        ],
        "postalCode": "N8H2Z1",
        "streetName": "PRINCESS",
        "streetDirectionId": null,
        "streetTypeId": "ST",
        "placeName": "LEAMINGTON",
        "streetNameDisplayText": "PRINCESS ST, LEAMINGTON"
      }
    ]
  },
  {
    "postal": "N8H7N1",
    "result": []
  },
  {
    "postal": "N8H3C6",
    "result": [
      {
        "electoralDistricts": [
          {
            "election": null,
            "id": 18,
            "name": "Chatham-Kent—Leamington"
          }
        ],
        "pollDivisionIds": [
          10137516
        ],
        "postalCode": "N8H3C6",
        "streetName": "ERIE",
        "streetDirectionId": "S",
        "streetTypeId": "ST",
        "placeName": "LEAMINGTON",
        "streetNameDisplayText": "ERIE ST S, LEAMINGTON"
      }
    ]
  },
  {
    "postal": "N8H4M1",
    "result": [
      {
        "electoralDistricts": [
          {
            "election": null,
            "id": 18,
            "name": "Chatham-Kent—Leamington"
          }
        ],
        "pollDivisionIds": [
          10143123
        ],
        "postalCode": "N8H4M1",
        "streetName": "BENNIE",
        "streetDirectionId": null,
        "streetTypeId": "AVE",
        "placeName": "LEAMINGTON",
        "streetNameDisplayText": "BENNIE AVE, LEAMINGTON"
      }
    ]
  },
  {
    "postal": "N8H9K2",
    "result": []
  },
  {
    "postal": "N8H9S6",
    "result": []
  },
  {
    "postal": "N8H4X1",
    "result": [
      {
        "electoralDistricts": [
          {
            "election": null,
            "id": 18,
            "name": "Chatham-Kent—Leamington"
          }
        ],
        "pollDivisionIds": [
          10137518
        ],
        "postalCode": "N8H4X1",
        "streetName": "WHITWAM",
        "streetDirectionId": null,
        "streetTypeId": "AVE",
        "placeName": "LEAMINGTON",
        "streetNameDisplayText": "WHITWAM AVE, LEAMINGTON"
      }
    ]
  },
  {
    "postal": "N8H8W2",
    "result": []
  },
  {
    "postal": "N8H7N2",
    "result": []
  },
  {
    "postal": "N8H8S3",
    "result": []
  },
  {
    "postal": "N8H4V0",
    "result": []
  },
  {
    "postal": "N8H6W4",
    "result": []
  },
  {
    "postal": "N8H5M1",
    "result": []
  },
  {
    "postal": "N8H0S4",
    "result": []
  },
  {
    "postal": "N8H5X6",
    "result": []
  },
  {
    "postal": "N8H8L5",
    "result": []
  },
  {
    "postal": "N8H5M8",
    "result": [
      {
        "electoralDistricts": [
          {
            "election": null,
            "id": 18,
            "name": "Chatham-Kent—Leamington"
          }
        ],
        "pollDivisionIds": [
          10137518
        ],
        "postalCode": "N8H5M8",
        "streetName": "THERESA",
        "streetDirectionId": null,
        "streetTypeId": "TRAIL",
        "placeName": "LEAMINGTON",
        "streetNameDisplayText": "THERESA TRAIL, LEAMINGTON"
      }
    ]
  },
  {
    "postal": "N8H2G3",
    "result": [
      {
        "electoralDistricts": [
          {
            "election": null,
            "id": 18,
            "name": "Chatham-Kent—Leamington"
          }
        ],
        "pollDivisionIds": [
          10137516
        ],
        "postalCode": "N8H2G3",
        "streetName": "DOUGLAS",
        "streetDirectionId": null,
        "streetTypeId": "AVE",
        "placeName": "LEAMINGTON",
        "streetNameDisplayText": "DOUGLAS AVE, LEAMINGTON"
      }
    ]
  },
  {
    "postal": "N8H8E4",
    "result": []
  },
  {
    "postal": "N8H7S9",
    "result": []
  },
  {
    "postal": "N8H1K3",
    "result": [
      {
        "electoralDistricts": [
          {
            "election": null,
            "id": 18,
            "name": "Chatham-Kent—Leamington"
          }
        ],
        "pollDivisionIds": [
          10137516
        ],
        "postalCode": "N8H1K3",
        "streetName": "NANCY",
        "streetDirectionId": null,
        "streetTypeId": "AVE",
        "placeName": "LEAMINGTON",
        "streetNameDisplayText": "NANCY AVE, LEAMINGTON"
      }
    ]
  },
  {
    "postal": "N8H4E1",
    "result": [
      {
        "electoralDistricts": [
          {
            "election": null,
            "id": 18,
            "name": "Chatham-Kent—Leamington"
          }
        ],
        "pollDivisionIds": [
          10137516
        ],
        "postalCode": "N8H4E1",
        "streetName": "SEACLIFF",
        "streetDirectionId": "W",
        "streetTypeId": "DR",
        "placeName": "LEAMINGTON",
        "streetNameDisplayText": "SEACLIFF DR W, LEAMINGTON"
      }
    ]
  },
  {
    "postal": "N8H4R2",
    "result": [
      {
        "electoralDistricts": [
          {
            "election": null,
            "id": 18,
            "name": "Chatham-Kent—Leamington"
          }
        ],
        "pollDivisionIds": [
          10137516
        ],
        "postalCode": "N8H4R2",
        "streetName": "PAGLIONE",
        "streetDirectionId": null,
        "streetTypeId": "CRES",
        "placeName": "LEAMINGTON",
        "streetNameDisplayText": "PAGLIONE CRES, LEAMINGTON"
      },
      {
        "electoralDistricts": [
          {
            "election": null,
            "id": 18,
            "name": "Chatham-Kent—Leamington"
          }
        ],
        "pollDivisionIds": [
          10137516
        ],
        "postalCode": "N8H4R2",
        "streetName": "PAGLIONE",
        "streetDirectionId": null,
        "streetTypeId": "DR",
        "placeName": "LEAMINGTON",
        "streetNameDisplayText": "PAGLIONE DR, LEAMINGTON"
      }
    ]
  },
  {
    "postal": "N8H6T0",
    "result": []
  },
  {
    "postal": "N8H3K5",
    "result": [
      {
        "electoralDistricts": [
          {
            "election": null,
            "id": 18,
            "name": "Chatham-Kent—Leamington"
          }
        ],
        "pollDivisionIds": [
          10137515
        ],
        "postalCode": "N8H3K5",
        "streetName": "BAIRD",
        "streetDirectionId": null,
        "streetTypeId": "AVE",
        "placeName": "LEAMINGTON",
        "streetNameDisplayText": "BAIRD AVE, LEAMINGTON"
      }
    ]
  },
  {
    "postal": "N8H3S3",
    "result": [
      {
        "electoralDistricts": [
          {
            "election": null,
            "id": 18,
            "name": "Chatham-Kent—Leamington"
          }
        ],
        "pollDivisionIds": [
          10137516
        ],
        "postalCode": "N8H3S3",
        "streetName": "FULLER",
        "streetDirectionId": null,
        "streetTypeId": "AVE",
        "placeName": "LEAMINGTON",
        "streetNameDisplayText": "FULLER AVE, LEAMINGTON"
      }
    ]
  },
  {
    "postal": "N8H3L4",
    "result": [
      {
        "electoralDistricts": [
          {
            "election": null,
            "id": 18,
            "name": "Chatham-Kent—Leamington"
          }
        ],
        "pollDivisionIds": [
          10137516
        ],
        "postalCode": "N8H3L4",
        "streetName": "POPLAR",
        "streetDirectionId": null,
        "streetTypeId": "ST",
        "placeName": "LEAMINGTON",
        "streetNameDisplayText": "POPLAR ST, LEAMINGTON"
      }
    ]
  },
  {
    "postal": "N8H9Y2",
    "result": []
  },
  {
    "postal": "N8H1E0",
    "result": []
  },
  {
    "postal": "N8H9A4",
    "result": []
  },
  {
    "postal": "N8H1L3",
    "result": [
      {
        "electoralDistricts": [
          {
            "election": null,
            "id": 18,
            "name": "Chatham-Kent—Leamington"
          }
        ],
        "pollDivisionIds": [
          10137517
        ],
        "postalCode": "N8H1L3",
        "streetName": "TALBOT",
        "streetDirectionId": "E",
        "streetTypeId": "RD",
        "placeName": "LEAMINGTON",
        "streetNameDisplayText": "TALBOT RD E, LEAMINGTON"
      },
      {
        "electoralDistricts": [
          {
            "election": null,
            "id": 18,
            "name": "Chatham-Kent—Leamington"
          }
        ],
        "pollDivisionIds": [
          10137517
        ],
        "postalCode": "N8H1L3",
        "streetName": "TALBOT",
        "streetDirectionId": "E",
        "streetTypeId": "ST",
        "placeName": "LEAMINGTON",
        "streetNameDisplayText": "TALBOT ST E, LEAMINGTON"
      }
    ]
  },
  {
    "postal": "N8H6N1",
    "result": []
  },
  {
    "postal": "N8H6G7",
    "result": []
  },
  {
    "postal": "N8H7W1",
    "result": []
  },
  {
    "postal": "N8H4M6",
    "result": []
  },
  {
    "postal": "N8H1K0",
    "result": []
  },
  {
    "postal": "N8H3E2",
    "result": [
      {
        "electoralDistricts": [
          {
            "election": null,
            "id": 18,
            "name": "Chatham-Kent—Leamington"
          }
        ],
        "pollDivisionIds": [
          10137516
        ],
        "postalCode": "N8H3E2",
        "streetName": "ERIE",
        "streetDirectionId": "S",
        "streetTypeId": "ST",
        "placeName": "LEAMINGTON",
        "streetNameDisplayText": "ERIE ST S, LEAMINGTON"
      }
    ]
  },
  {
    "postal": "N8H5H4",
    "result": [
      {
        "electoralDistricts": [
          {
            "election": null,
            "id": 18,
            "name": "Chatham-Kent—Leamington"
          }
        ],
        "pollDivisionIds": [
          10137518,
          10137517
        ],
        "postalCode": "N8H5H4",
        "streetName": "STURGEON MEADOWS",
        "streetDirectionId": null,
        "streetTypeId": "AVE",
        "placeName": "LEAMINGTON",
        "streetNameDisplayText": "STURGEON MEADOWS AVE, LEAMINGTON"
      }
    ]
  },
  {
    "postal": "N8H1K7",
    "result": [
      {
        "electoralDistricts": [
          {
            "election": null,
            "id": 18,
            "name": "Chatham-Kent—Leamington"
          }
        ],
        "pollDivisionIds": [
          10137516
        ],
        "postalCode": "N8H1K7",
        "streetName": "GRACE",
        "streetDirectionId": null,
        "streetTypeId": "AVE",
        "placeName": "LEAMINGTON",
        "streetNameDisplayText": "GRACE AVE, LEAMINGTON"
      }
    ]
  },
  {
    "postal": "N8H0H0",
    "result": []
  },
  {
    "postal": "N8H0J3",
    "result": []
  },
  {
    "postal": "N8H1X6",
    "result": [
      {
        "electoralDistricts": [
          {
            "election": null,
            "id": 18,
            "name": "Chatham-Kent—Leamington"
          }
        ],
        "pollDivisionIds": [
          10137517
        ],
        "postalCode": "N8H1X6",
        "streetName": "ASKEW",
        "streetDirectionId": null,
        "streetTypeId": "ST",
        "placeName": "LEAMINGTON",
        "streetNameDisplayText": "ASKEW ST, LEAMINGTON"
      }
    ]
  },
  {
    "postal": "N8H2Z6",
    "result": [
      {
        "electoralDistricts": [
          {
            "election": null,
            "id": 18,
            "name": "Chatham-Kent—Leamington"
          }
        ],
        "pollDivisionIds": [
          10137515
        ],
        "postalCode": "N8H2Z6",
        "streetName": "ERIE",
        "streetDirectionId": "N",
        "streetTypeId": "ST",
        "placeName": "LEAMINGTON",
        "streetNameDisplayText": "ERIE ST N, LEAMINGTON"
      }
    ]
  },
  {
    "postal": "N8H4R9",
    "result": [
      {
        "electoralDistricts": [
          {
            "election": null,
            "id": 18,
            "name": "Chatham-Kent—Leamington"
          }
        ],
        "pollDivisionIds": [
          10137517
        ],
        "postalCode": "N8H4R9",
        "streetName": "MARLBOROUGH",
        "streetDirectionId": "E",
        "streetTypeId": "ST",
        "placeName": "LEAMINGTON",
        "streetNameDisplayText": "MARLBOROUGH ST E, LEAMINGTON"
      }
    ]
  },
  {
    "postal": "N8H0W8",
    "result": []
  },
  {
    "postal": "N8H1L4",
    "result": [
      {
        "electoralDistricts": [
          {
            "election": null,
            "id": 18,
            "name": "Chatham-Kent—Leamington"
          }
        ],
        "pollDivisionIds": [
          10137515
        ],
        "postalCode": "N8H1L4",
        "streetName": "TALBOT",
        "streetDirectionId": "E",
        "streetTypeId": "ST",
        "placeName": "LEAMINGTON",
        "streetNameDisplayText": "TALBOT ST E, LEAMINGTON"
      }
    ]
  },
  {
    "postal": "N8H0C8",
    "result": [
      {
        "electoralDistricts": [
          {
            "election": null,
            "id": 18,
            "name": "Chatham-Kent—Leamington"
          }
        ],
        "pollDivisionIds": [
          10137520
        ],
        "postalCode": "N8H0C8",
        "streetName": "ST. ANDREW'S",
        "streetDirectionId": null,
        "streetTypeId": "CRT",
        "placeName": "LEAMINGTON",
        "streetNameDisplayText": "ST. ANDREW'S CRT, LEAMINGTON"
      },
      {
        "electoralDistricts": [
          {
            "election": null,
            "id": 18,
            "name": "Chatham-Kent—Leamington"
          }
        ],
        "pollDivisionIds": [
          10137520
        ],
        "postalCode": "N8H0C8",
        "streetName": "TANGLEWOOD DR",
        "streetDirectionId": null,
        "streetTypeId": "DR",
        "placeName": "LEAMINGTON",
        "streetNameDisplayText": "TANGLEWOOD DR DR, LEAMINGTON"
      },
      {
        "electoralDistricts": [
          {
            "election": null,
            "id": 18,
            "name": "Chatham-Kent—Leamington"
          }
        ],
        "pollDivisionIds": [
          10137517,
          10137514,
          10137520
        ],
        "postalCode": "N8H0C8",
        "streetName": "TANGLEWOOD",
        "streetDirectionId": null,
        "streetTypeId": "DR",
        "placeName": "LEAMINGTON",
        "streetNameDisplayText": "TANGLEWOOD DR, LEAMINGTON"
      },
      {
        "electoralDistricts": [
          {
            "election": null,
            "id": 18,
            "name": "Chatham-Kent—Leamington"
          }
        ],
        "pollDivisionIds": [
          10137520,
          10137517
        ],
        "postalCode": "N8H0C8",
        "streetName": "TANGLEWOOD DR.",
        "streetDirectionId": null,
        "streetTypeId": "DR",
        "placeName": "LEAMINGTON",
        "streetNameDisplayText": "TANGLEWOOD DR. DR, LEAMINGTON"
      }
    ]
  },
  {
    "postal": "N8H9X7",
    "result": []
  },
  {
    "postal": "N8H4T1",
    "result": [
      {
        "electoralDistricts": [
          {
            "election": null,
            "id": 18,
            "name": "Chatham-Kent—Leamington"
          }
        ],
        "pollDivisionIds": [
          10137516
        ],
        "postalCode": "N8H4T1",
        "streetName": "LATHROP",
        "streetDirectionId": null,
        "streetTypeId": "LANE",
        "placeName": "LEAMINGTON",
        "streetNameDisplayText": "LATHROP LANE, LEAMINGTON"
      }
    ]
  },
  {
    "postal": "N8H0M0",
    "result": []
  },
  {
    "postal": "N8H6A2",
    "result": []
  },
  {
    "postal": "N8H9S8",
    "result": []
  },
  {
    "postal": "N8H9T4",
    "result": []
  },
  {
    "postal": "N8H9Y4",
    "result": []
  },
  {
    "postal": "N8H6G5",
    "result": []
  },
  {
    "postal": "N8H6H9",
    "result": []
  },
  {
    "postal": "N8H2P3",
    "result": [
      {
        "electoralDistricts": [
          {
            "election": null,
            "id": 18,
            "name": "Chatham-Kent—Leamington"
          }
        ],
        "pollDivisionIds": [
          10137517
        ],
        "postalCode": "N8H2P3",
        "streetName": "WHITWAM",
        "streetDirectionId": null,
        "streetTypeId": "AVE",
        "placeName": "LEAMINGTON",
        "streetNameDisplayText": "WHITWAM AVE, LEAMINGTON"
      }
    ]
  },
  {
    "postal": "N8H1T6",
    "result": [
      {
        "electoralDistricts": [
          {
            "election": null,
            "id": 18,
            "name": "Chatham-Kent—Leamington"
          }
        ],
        "pollDivisionIds": [
          10137517
        ],
        "postalCode": "N8H1T6",
        "streetName": "SETTERINGTON",
        "streetDirectionId": null,
        "streetTypeId": "ST",
        "placeName": "LEAMINGTON",
        "streetNameDisplayText": "SETTERINGTON ST, LEAMINGTON"
      }
    ]
  },
  {
    "postal": "N8H4P6",
    "result": []
  },
  {
    "postal": "N8H3K1",
    "result": [
      {
        "electoralDistricts": [
          {
            "election": null,
            "id": 18,
            "name": "Chatham-Kent—Leamington"
          }
        ],
        "pollDivisionIds": [
          10137516
        ],
        "postalCode": "N8H3K1",
        "streetName": "CHESTNUT",
        "streetDirectionId": null,
        "streetTypeId": "ST",
        "placeName": "LEAMINGTON",
        "streetNameDisplayText": "CHESTNUT ST, LEAMINGTON"
      }
    ]
  },
  {
    "postal": "N8H6X4",
    "result": []
  },
  {
    "postal": "N8H4M8",
    "result": [
      {
        "electoralDistricts": [
          {
            "election": null,
            "id": 18,
            "name": "Chatham-Kent—Leamington"
          }
        ],
        "pollDivisionIds": [
          10143123
        ],
        "postalCode": "N8H4M8",
        "streetName": "WINDWOOD",
        "streetDirectionId": null,
        "streetTypeId": "DR",
        "placeName": "LEAMINGTON",
        "streetNameDisplayText": "WINDWOOD DR, LEAMINGTON"
      }
    ]
  },
  {
    "postal": "N8H2Y1",
    "result": [
      {
        "electoralDistricts": [
          {
            "election": null,
            "id": 18,
            "name": "Chatham-Kent—Leamington"
          }
        ],
        "pollDivisionIds": [
          10137517
        ],
        "postalCode": "N8H2Y1",
        "streetName": "PRINCESS",
        "streetDirectionId": null,
        "streetTypeId": "ST",
        "placeName": "LEAMINGTON",
        "streetNameDisplayText": "PRINCESS ST, LEAMINGTON"
      }
    ]
  },
  {
    "postal": "N8H6M1",
    "result": []
  },
  {
    "postal": "N8H5L8",
    "result": [
      {
        "electoralDistricts": [
          {
            "election": null,
            "id": 18,
            "name": "Chatham-Kent—Leamington"
          }
        ],
        "pollDivisionIds": [
          10143123
        ],
        "postalCode": "N8H5L8",
        "streetName": "BENNIE",
        "streetDirectionId": null,
        "streetTypeId": "AVE",
        "placeName": "LEAMINGTON",
        "streetNameDisplayText": "BENNIE AVE, LEAMINGTON"
      },
      {
        "electoralDistricts": [
          {
            "election": null,
            "id": 18,
            "name": "Chatham-Kent—Leamington"
          }
        ],
        "pollDivisionIds": [
          10143123
        ],
        "postalCode": "N8H5L8",
        "streetName": "CHRISTINA",
        "streetDirectionId": null,
        "streetTypeId": "CRES",
        "placeName": "LEAMINGTON",
        "streetNameDisplayText": "CHRISTINA CRES, LEAMINGTON"
      }
    ]
  },
  {
    "postal": "N8H3P6",
    "result": [
      {
        "electoralDistricts": [
          {
            "election": null,
            "id": 18,
            "name": "Chatham-Kent—Leamington"
          }
        ],
        "pollDivisionIds": [
          10137516
        ],
        "postalCode": "N8H3P6",
        "streetName": "GARRY",
        "streetDirectionId": null,
        "streetTypeId": "CRES",
        "placeName": "LEAMINGTON",
        "streetNameDisplayText": "GARRY CRES, LEAMINGTON"
      }
    ]
  },
  {
    "postal": "N8H9A5",
    "result": []
  },
  {
    "postal": "N8H7K1",
    "result": []
  },
  {
    "postal": "N8H3J4",
    "result": [
      {
        "electoralDistricts": [
          {
            "election": null,
            "id": 18,
            "name": "Chatham-Kent—Leamington"
          }
        ],
        "pollDivisionIds": [
          10137517
        ],
        "postalCode": "N8H3J4",
        "streetName": "FOX",
        "streetDirectionId": null,
        "streetTypeId": "ST",
        "placeName": "LEAMINGTON",
        "streetNameDisplayText": "FOX ST, LEAMINGTON"
      }
    ]
  },
  {
    "postal": "N8H5E7",
    "result": []
  },
  {
    "postal": "N8H3A7",
    "result": [
      {
        "electoralDistricts": [
          {
            "election": null,
            "id": 18,
            "name": "Chatham-Kent—Leamington"
          }
        ],
        "pollDivisionIds": [
          10137517
        ],
        "postalCode": "N8H3A7",
        "streetName": "ERIE",
        "streetDirectionId": "S",
        "streetTypeId": "ST",
        "placeName": "LEAMINGTON",
        "streetNameDisplayText": "ERIE ST S, LEAMINGTON"
      }
    ]
  },
  {
    "postal": "N8H1B9",
    "result": [
      {
        "electoralDistricts": [
          {
            "election": null,
            "id": 18,
            "name": "Chatham-Kent—Leamington"
          }
        ],
        "pollDivisionIds": [
          10137515
        ],
        "postalCode": "N8H1B9",
        "streetName": "HAZELTON",
        "streetDirectionId": null,
        "streetTypeId": "ST",
        "placeName": "LEAMINGTON",
        "streetNameDisplayText": "HAZELTON ST, LEAMINGTON"
      }
    ]
  },
  {
    "postal": "N8H9E8",
    "result": []
  },
  {
    "postal": "N8H1C9",
    "result": [
      {
        "electoralDistricts": [
          {
            "election": null,
            "id": 18,
            "name": "Chatham-Kent—Leamington"
          }
        ],
        "pollDivisionIds": [
          10137515
        ],
        "postalCode": "N8H1C9",
        "streetName": "CLARK",
        "streetDirectionId": "E",
        "streetTypeId": "ST",
        "placeName": "LEAMINGTON",
        "streetNameDisplayText": "CLARK ST E, LEAMINGTON"
      }
    ]
  },
  {
    "postal": "N8H3B5",
    "result": [
      {
        "electoralDistricts": [
          {
            "election": null,
            "id": 18,
            "name": "Chatham-Kent—Leamington"
          }
        ],
        "pollDivisionIds": [
          10137517
        ],
        "postalCode": "N8H3B5",
        "streetName": "ERIE",
        "streetDirectionId": "S",
        "streetTypeId": "ST",
        "placeName": "LEAMINGTON",
        "streetNameDisplayText": "ERIE ST S, LEAMINGTON"
      }
    ]
  },
  {
    "postal": "N8H8R0",
    "result": []
  },
  {
    "postal": "N8H3P2",
    "result": [
      {
        "electoralDistricts": [
          {
            "election": null,
            "id": 18,
            "name": "Chatham-Kent—Leamington"
          }
        ],
        "pollDivisionIds": [
          10137516
        ],
        "postalCode": "N8H3P2",
        "streetName": "WESTMORELAND",
        "streetDirectionId": null,
        "streetTypeId": "AVE",
        "placeName": "LEAMINGTON",
        "streetNameDisplayText": "WESTMORELAND AVE, LEAMINGTON"
      }
    ]
  },
  {
    "postal": "N8H5V4",
    "result": []
  },
  {
    "postal": "N8H4H0",
    "result": []
  },
  {
    "postal": "N8H4S7",
    "result": [
      {
        "electoralDistricts": [
          {
            "election": null,
            "id": 18,
            "name": "Chatham-Kent—Leamington"
          }
        ],
        "pollDivisionIds": [
          10137516
        ],
        "postalCode": "N8H4S7",
        "streetName": "HELEN",
        "streetDirectionId": null,
        "streetTypeId": "CRES",
        "placeName": "LEAMINGTON",
        "streetNameDisplayText": "HELEN CRES, LEAMINGTON"
      }
    ]
  },
  {
    "postal": "N8H6C2",
    "result": []
  },
  {
    "postal": "N8H8W3",
    "result": []
  },
  {
    "postal": "N8H4M5",
    "result": []
  },
  {
    "postal": "N8H5T1",
    "result": []
  },
  {
    "postal": "N8H3B3",
    "result": [
      {
        "electoralDistricts": [
          {
            "election": null,
            "id": 18,
            "name": "Chatham-Kent—Leamington"
          }
        ],
        "pollDivisionIds": [
          10137517
        ],
        "postalCode": "N8H3B3",
        "streetName": "ERIE",
        "streetDirectionId": "S",
        "streetTypeId": "ST",
        "placeName": "LEAMINGTON",
        "streetNameDisplayText": "ERIE ST S, LEAMINGTON"
      }
    ]
  },
  {
    "postal": "N8H6C6",
    "result": []
  },
  {
    "postal": "N8H7N8",
    "result": []
  },
  {
    "postal": "N8H2Y3",
    "result": [
      {
        "electoralDistricts": [
          {
            "election": null,
            "id": 18,
            "name": "Chatham-Kent—Leamington"
          }
        ],
        "pollDivisionIds": [
          10137517
        ],
        "postalCode": "N8H2Y3",
        "streetName": "PRINCESS",
        "streetDirectionId": null,
        "streetTypeId": "ST",
        "placeName": "LEAMINGTON",
        "streetNameDisplayText": "PRINCESS ST, LEAMINGTON"
      }
    ]
  },
  {
    "postal": "N8H2R6",
    "result": [
      {
        "electoralDistricts": [
          {
            "election": null,
            "id": 18,
            "name": "Chatham-Kent—Leamington"
          }
        ],
        "pollDivisionIds": [
          10137517
        ],
        "postalCode": "N8H2R6",
        "streetName": "JONES",
        "streetDirectionId": null,
        "streetTypeId": "AVE",
        "placeName": "LEAMINGTON",
        "streetNameDisplayText": "JONES AVE, LEAMINGTON"
      }
    ]
  },
  {
    "postal": "N8H7N3",
    "result": []
  },
  {
    "postal": "N8H8J2",
    "result": []
  },
  {
    "postal": "N8H6A9",
    "result": []
  },
  {
    "postal": "N8H3V2",
    "result": [
      {
        "electoralDistricts": [
          {
            "election": null,
            "id": 18,
            "name": "Chatham-Kent—Leamington"
          }
        ],
        "pollDivisionIds": [
          10137516
        ],
        "postalCode": "N8H3V2",
        "streetName": "ARMSTRONG",
        "streetDirectionId": null,
        "streetTypeId": "DR",
        "placeName": "LEAMINGTON",
        "streetNameDisplayText": "ARMSTRONG DR, LEAMINGTON"
      }
    ]
  },
  {
    "postal": "N8H2N3",
    "result": [
      {
        "electoralDistricts": [
          {
            "election": null,
            "id": 18,
            "name": "Chatham-Kent—Leamington"
          }
        ],
        "pollDivisionIds": [
          10137520
        ],
        "postalCode": "N8H2N3",
        "streetName": "FOSTER",
        "streetDirectionId": null,
        "streetTypeId": "AVE",
        "placeName": "LEAMINGTON",
        "streetNameDisplayText": "FOSTER AVE, LEAMINGTON"
      }
    ]
  },
  {
    "postal": "N8H1S5",
    "result": [
      {
        "electoralDistricts": [
          {
            "election": null,
            "id": 18,
            "name": "Chatham-Kent—Leamington"
          }
        ],
        "pollDivisionIds": [
          10137517
        ],
        "postalCode": "N8H1S5",
        "streetName": "MILL",
        "streetDirectionId": "E",
        "streetTypeId": "ST",
        "placeName": "LEAMINGTON",
        "streetNameDisplayText": "MILL ST E, LEAMINGTON"
      }
    ]
  },
  {
    "postal": "N8H4T7",
    "result": [
      {
        "electoralDistricts": [
          {
            "election": null,
            "id": 18,
            "name": "Chatham-Kent—Leamington"
          }
        ],
        "pollDivisionIds": [
          10137518
        ],
        "postalCode": "N8H4T7",
        "streetName": "CAMELOT",
        "streetDirectionId": null,
        "streetTypeId": "AVE",
        "placeName": "LEAMINGTON",
        "streetNameDisplayText": "CAMELOT AVE, LEAMINGTON"
      }
    ]
  },
  {
    "postal": "N8H6Y7",
    "result": []
  },
  {
    "postal": "N8H0W7",
    "result": []
  },
  {
    "postal": "N8H2W9",
    "result": [
      {
        "electoralDistricts": [
          {
            "election": null,
            "id": 18,
            "name": "Chatham-Kent—Leamington"
          }
        ],
        "pollDivisionIds": [
          10137517
        ],
        "postalCode": "N8H2W9",
        "streetName": "VICTORIA",
        "streetDirectionId": "S",
        "streetTypeId": "AVE",
        "placeName": "LEAMINGTON",
        "streetNameDisplayText": "VICTORIA AVE S, LEAMINGTON"
      }
    ]
  },
  {
    "postal": "N8H8V0",
    "result": []
  },
  {
    "postal": "N8H0H4",
    "result": []
  },
  {
    "postal": "N8H2T1",
    "result": [
      {
        "electoralDistricts": [
          {
            "election": null,
            "id": 18,
            "name": "Chatham-Kent—Leamington"
          }
        ],
        "pollDivisionIds": [
          10137517
        ],
        "postalCode": "N8H2T1",
        "streetName": "WIGLE",
        "streetDirectionId": null,
        "streetTypeId": "ST",
        "placeName": "LEAMINGTON",
        "streetNameDisplayText": "WIGLE ST, LEAMINGTON"
      }
    ]
  },
  {
    "postal": "N8H1B1",
    "result": [
      {
        "electoralDistricts": [
          {
            "election": null,
            "id": 18,
            "name": "Chatham-Kent—Leamington"
          }
        ],
        "pollDivisionIds": [
          10137515
        ],
        "postalCode": "N8H1B1",
        "streetName": "IVAN",
        "streetDirectionId": null,
        "streetTypeId": "ST",
        "placeName": "LEAMINGTON",
        "streetNameDisplayText": "IVAN ST, LEAMINGTON"
      }
    ]
  },
  {
    "postal": "N8H8B6",
    "result": []
  },
  {
    "postal": "N8H6H1",
    "result": []
  },
  {
    "postal": "N8H8T8",
    "result": []
  },
  {
    "postal": "N8H0T4",
    "result": []
  },
  {
    "postal": "N8H2C4",
    "result": [
      {
        "electoralDistricts": [
          {
            "election": null,
            "id": 18,
            "name": "Chatham-Kent—Leamington"
          }
        ],
        "pollDivisionIds": [
          10137517
        ],
        "postalCode": "N8H2C4",
        "streetName": "OAK",
        "streetDirectionId": "E",
        "streetTypeId": "ST",
        "placeName": "LEAMINGTON",
        "streetNameDisplayText": "OAK ST E, LEAMINGTON"
      }
    ]
  },
  {
    "postal": "N8H8N3",
    "result": []
  },
  {
    "postal": "N8H4L8",
    "result": [
      {
        "electoralDistricts": [
          {
            "election": null,
            "id": 18,
            "name": "Chatham-Kent—Leamington"
          }
        ],
        "pollDivisionIds": [
          10143123
        ],
        "postalCode": "N8H4L8",
        "streetName": "ALDERTON",
        "streetDirectionId": null,
        "streetTypeId": "ST",
        "placeName": "LEAMINGTON",
        "streetNameDisplayText": "ALDERTON ST, LEAMINGTON"
      }
    ]
  },
  {
    "postal": "N8H2B5",
    "result": [
      {
        "electoralDistricts": [
          {
            "election": null,
            "id": 18,
            "name": "Chatham-Kent—Leamington"
          }
        ],
        "pollDivisionIds": [
          10137516
        ],
        "postalCode": "N8H2B5",
        "streetName": "OAK",
        "streetDirectionId": "W",
        "streetTypeId": "ST",
        "placeName": "LEAMINGTON",
        "streetNameDisplayText": "OAK ST W, LEAMINGTON"
      }
    ]
  },
  {
    "postal": "N8H3H1",
    "result": [
      {
        "electoralDistricts": [
          {
            "election": null,
            "id": 18,
            "name": "Chatham-Kent—Leamington"
          }
        ],
        "pollDivisionIds": [
          10137515
        ],
        "postalCode": "N8H3H1",
        "streetName": "QUEENS",
        "streetDirectionId": null,
        "streetTypeId": "AVE",
        "placeName": "LEAMINGTON",
        "streetNameDisplayText": "QUEENS AVE, LEAMINGTON"
      }
    ]
  },
  {
    "postal": "N8H4Y1",
    "result": [
      {
        "electoralDistricts": [
          {
            "election": null,
            "id": 18,
            "name": "Chatham-Kent—Leamington"
          }
        ],
        "pollDivisionIds": [
          10137517
        ],
        "postalCode": "N8H4Y1",
        "streetName": "ELIZABETH",
        "streetDirectionId": null,
        "streetTypeId": "CRES",
        "placeName": "LEAMINGTON",
        "streetNameDisplayText": "ELIZABETH CRES, LEAMINGTON"
      }
    ]
  },
  {
    "postal": "N8H7E2",
    "result": []
  },
  {
    "postal": "N8H2P5",
    "result": [
      {
        "electoralDistricts": [
          {
            "election": null,
            "id": 18,
            "name": "Chatham-Kent—Leamington"
          }
        ],
        "pollDivisionIds": [
          10137517
        ],
        "postalCode": "N8H2P5",
        "streetName": "WHITWAM",
        "streetDirectionId": null,
        "streetTypeId": "AVE",
        "placeName": "LEAMINGTON",
        "streetNameDisplayText": "WHITWAM AVE, LEAMINGTON"
      }
    ]
  },
  {
    "postal": "N8H8R7",
    "result": []
  },
  {
    "postal": "N8H9P1",
    "result": []
  },
  {
    "postal": "N8H3B8",
    "result": [
      {
        "electoralDistricts": [
          {
            "election": null,
            "id": 18,
            "name": "Chatham-Kent—Leamington"
          }
        ],
        "pollDivisionIds": [
          10137520
        ],
        "postalCode": "N8H3B8",
        "streetName": "ERIE",
        "streetDirectionId": "S",
        "streetTypeId": "ST",
        "placeName": "LEAMINGTON",
        "streetNameDisplayText": "ERIE ST S, LEAMINGTON"
      }
    ]
  },
  {
    "postal": "N8H3P7",
    "result": [
      {
        "electoralDistricts": [
          {
            "election": null,
            "id": 18,
            "name": "Chatham-Kent—Leamington"
          }
        ],
        "pollDivisionIds": [
          10137516
        ],
        "postalCode": "N8H3P7",
        "streetName": "KIMBALL",
        "streetDirectionId": null,
        "streetTypeId": "AVE",
        "placeName": "LEAMINGTON",
        "streetNameDisplayText": "KIMBALL AVE, LEAMINGTON"
      }
    ]
  },
  {
    "postal": "N8H9B2",
    "result": []
  },
  {
    "postal": "N8H6Z3",
    "result": []
  },
  {
    "postal": "N8H4N5",
    "result": []
  },
  {
    "postal": "N8H8T3",
    "result": []
  },
  {
    "postal": "N8H1V2",
    "result": [
      {
        "electoralDistricts": [
          {
            "election": null,
            "id": 18,
            "name": "Chatham-Kent—Leamington"
          }
        ],
        "pollDivisionIds": [
          10137515
        ],
        "postalCode": "N8H1V2",
        "streetName": "RUSSELL",
        "streetDirectionId": null,
        "streetTypeId": "ST",
        "placeName": "LEAMINGTON",
        "streetNameDisplayText": "RUSSELL ST, LEAMINGTON"
      }
    ]
  },
  {
    "postal": "N8H1Y0",
    "result": []
  },
  {
    "postal": "N8H3G6",
    "result": []
  },
  {
    "postal": "N8H3H7",
    "result": [
      {
        "electoralDistricts": [
          {
            "election": null,
            "id": 18,
            "name": "Chatham-Kent—Leamington"
          }
        ],
        "pollDivisionIds": [
          10137516
        ],
        "postalCode": "N8H3H7",
        "streetName": "SHADY",
        "streetDirectionId": null,
        "streetTypeId": "AVE",
        "placeName": "LEAMINGTON",
        "streetNameDisplayText": "SHADY AVE, LEAMINGTON"
      },
      {
        "electoralDistricts": [
          {
            "election": null,
            "id": 18,
            "name": "Chatham-Kent—Leamington"
          }
        ],
        "pollDivisionIds": [
          10137520
        ],
        "postalCode": "N8H3H7",
        "streetName": "SHADY",
        "streetDirectionId": null,
        "streetTypeId": "LANE",
        "placeName": "LEAMINGTON",
        "streetNameDisplayText": "SHADY LANE, LEAMINGTON"
      }
    ]
  },
  {
    "postal": "N8H7X8",
    "result": []
  },
  {
    "postal": "N8H0C7",
    "result": [
      {
        "electoralDistricts": [
          {
            "election": null,
            "id": 18,
            "name": "Chatham-Kent—Leamington"
          }
        ],
        "pollDivisionIds": [
          10137520,
          10137516
        ],
        "postalCode": "N8H0C7",
        "streetName": "AUGUSTA",
        "streetDirectionId": null,
        "streetTypeId": "DR",
        "placeName": "LEAMINGTON",
        "streetNameDisplayText": "AUGUSTA DR, LEAMINGTON"
      },
      {
        "electoralDistricts": [
          {
            "election": null,
            "id": 18,
            "name": "Chatham-Kent—Leamington"
          }
        ],
        "pollDivisionIds": [
          10137520,
          10137517
        ],
        "postalCode": "N8H0C7",
        "streetName": "AUGUSTA DR.",
        "streetDirectionId": null,
        "streetTypeId": "DR",
        "placeName": "LEAMINGTON",
        "streetNameDisplayText": "AUGUSTA DR. DR, LEAMINGTON"
      },
      {
        "electoralDistricts": [
          {
            "election": null,
            "id": 18,
            "name": "Chatham-Kent—Leamington"
          }
        ],
        "pollDivisionIds": [
          10137520
        ],
        "postalCode": "N8H0C7",
        "streetName": "TANGLEWOOD",
        "streetDirectionId": null,
        "streetTypeId": "DR",
        "placeName": "LEAMINGTON",
        "streetNameDisplayText": "TANGLEWOOD DR, LEAMINGTON"
      }
    ]
  },
  {
    "postal": "N8H0W9",
    "result": []
  },
  {
    "postal": "N8H8E6",
    "result": []
  },
  {
    "postal": "N8H9Z8",
    "result": []
  },
  {
    "postal": "N8H3P4",
    "result": [
      {
        "electoralDistricts": [
          {
            "election": null,
            "id": 18,
            "name": "Chatham-Kent—Leamington"
          }
        ],
        "pollDivisionIds": [
          10137516
        ],
        "postalCode": "N8H3P4",
        "streetName": "WESTMORELAND",
        "streetDirectionId": null,
        "streetTypeId": "AVE",
        "placeName": "LEAMINGTON",
        "streetNameDisplayText": "WESTMORELAND AVE, LEAMINGTON"
      }
    ]
  },
  {
    "postal": "N8H6L8",
    "result": []
  },
  {
    "postal": "N8H2R4",
    "result": [
      {
        "electoralDistricts": [
          {
            "election": null,
            "id": 18,
            "name": "Chatham-Kent—Leamington"
          }
        ],
        "pollDivisionIds": [
          10137518
        ],
        "postalCode": "N8H2R4",
        "streetName": "MARTIN",
        "streetDirectionId": null,
        "streetTypeId": "DR",
        "placeName": "LEAMINGTON",
        "streetNameDisplayText": "MARTIN DR, LEAMINGTON"
      }
    ]
  },
  {
    "postal": "N8H2W1",
    "result": [
      {
        "electoralDistricts": [
          {
            "election": null,
            "id": 18,
            "name": "Chatham-Kent—Leamington"
          }
        ],
        "pollDivisionIds": [
          10137515
        ],
        "postalCode": "N8H2W1",
        "streetName": "VICTORIA",
        "streetDirectionId": "N",
        "streetTypeId": "AVE",
        "placeName": "LEAMINGTON",
        "streetNameDisplayText": "VICTORIA AVE N, LEAMINGTON"
      },
      {
        "electoralDistricts": [
          {
            "election": null,
            "id": 18,
            "name": "Chatham-Kent—Leamington"
          }
        ],
        "pollDivisionIds": [
          10137517
        ],
        "postalCode": "N8H2W1",
        "streetName": "VICTORIA",
        "streetDirectionId": "S",
        "streetTypeId": "AVE",
        "placeName": "LEAMINGTON",
        "streetNameDisplayText": "VICTORIA AVE S, LEAMINGTON"
      }
    ]
  },
  {
    "postal": "N8H9H8",
    "result": []
  },
  {
    "postal": "N8H8X9",
    "result": []
  },
  {
    "postal": "N8H7H4",
    "result": []
  },
  {
    "postal": "N8H3J1",
    "result": [
      {
        "electoralDistricts": [
          {
            "election": null,
            "id": 18,
            "name": "Chatham-Kent—Leamington"
          }
        ],
        "pollDivisionIds": [
          10137517
        ],
        "postalCode": "N8H3J1",
        "streetName": "FOX",
        "streetDirectionId": null,
        "streetTypeId": "ST",
        "placeName": "LEAMINGTON",
        "streetNameDisplayText": "FOX ST, LEAMINGTON"
      }
    ]
  },
  {
    "postal": "N8H1P4",
    "result": []
  },
  {
    "postal": "N8H2A3",
    "result": [
      {
        "electoralDistricts": [
          {
            "election": null,
            "id": 18,
            "name": "Chatham-Kent—Leamington"
          }
        ],
        "pollDivisionIds": [
          10137517
        ],
        "postalCode": "N8H2A3",
        "streetName": "MONTGOMERY",
        "streetDirectionId": null,
        "streetTypeId": "ST",
        "placeName": "LEAMINGTON",
        "streetNameDisplayText": "MONTGOMERY ST, LEAMINGTON"
      }
    ]
  },
  {
    "postal": "N8H0Z1",
    "result": []
  },
  {
    "postal": "N8H1C1",
    "result": [
      {
        "electoralDistricts": [
          {
            "election": null,
            "id": 18,
            "name": "Chatham-Kent—Leamington"
          }
        ],
        "pollDivisionIds": [
          10137515
        ],
        "postalCode": "N8H1C1",
        "streetName": "FOUNDRY",
        "streetDirectionId": null,
        "streetTypeId": "ST",
        "placeName": "LEAMINGTON",
        "streetNameDisplayText": "FOUNDRY ST, LEAMINGTON"
      }
    ]
  },
  {
    "postal": "N8H0H3",
    "result": []
  },
  {
    "postal": "N8H7B0",
    "result": []
  },
  {
    "postal": "N8H5K2",
    "result": [
      {
        "electoralDistricts": [
          {
            "election": null,
            "id": 18,
            "name": "Chatham-Kent—Leamington"
          }
        ],
        "pollDivisionIds": [
          10137520
        ],
        "postalCode": "N8H5K2",
        "streetName": "ERIE GLEN",
        "streetDirectionId": null,
        "streetTypeId": "CRES",
        "placeName": "LEAMINGTON",
        "streetNameDisplayText": "ERIE GLEN CRES, LEAMINGTON"
      }
    ]
  },
  {
    "postal": "N8H1E9",
    "result": [
      {
        "electoralDistricts": [
          {
            "election": null,
            "id": 18,
            "name": "Chatham-Kent—Leamington"
          }
        ],
        "pollDivisionIds": [
          10137515,
          10137516
        ],
        "postalCode": "N8H1E9",
        "streetName": "SMITH",
        "streetDirectionId": null,
        "streetTypeId": "AVE",
        "placeName": "LEAMINGTON",
        "streetNameDisplayText": "SMITH AVE, LEAMINGTON"
      }
    ]
  },
  {
    "postal": "N8H9W7",
    "result": []
  },
  {
    "postal": "N8H5W6",
    "result": []
  },
  {
    "postal": "N8H6S6",
    "result": []
  },
  {
    "postal": "N8H2P8",
    "result": [
      {
        "electoralDistricts": [
          {
            "election": null,
            "id": 18,
            "name": "Chatham-Kent—Leamington"
          }
        ],
        "pollDivisionIds": [
          10137518
        ],
        "postalCode": "N8H2P8",
        "streetName": "DANFORTH",
        "streetDirectionId": null,
        "streetTypeId": "AVE",
        "placeName": "LEAMINGTON",
        "streetNameDisplayText": "DANFORTH AVE, LEAMINGTON"
      }
    ]
  },
  {
    "postal": "N8H4P8",
    "result": [
      {
        "electoralDistricts": [
          {
            "election": null,
            "id": 18,
            "name": "Chatham-Kent—Leamington"
          }
        ],
        "pollDivisionIds": [
          10143123
        ],
        "postalCode": "N8H4P8",
        "streetName": "PLUMBROOK",
        "streetDirectionId": null,
        "streetTypeId": "DR",
        "placeName": "LEAMINGTON",
        "streetNameDisplayText": "PLUMBROOK DR, LEAMINGTON"
      }
    ]
  },
  {
    "postal": "N8H0V9",
    "result": []
  },
  {
    "postal": "N8H5Y2",
    "result": []
  },
  {
    "postal": "N8H7Z7",
    "result": []
  },
  {
    "postal": "N8H6Y8",
    "result": []
  },
  {
    "postal": "N8H2G7",
    "result": [
      {
        "electoralDistricts": [
          {
            "election": null,
            "id": 18,
            "name": "Chatham-Kent—Leamington"
          }
        ],
        "pollDivisionIds": [
          10137518
        ],
        "postalCode": "N8H2G7",
        "streetName": "ALDERTON",
        "streetDirectionId": null,
        "streetTypeId": "ST",
        "placeName": "LEAMINGTON",
        "streetNameDisplayText": "ALDERTON ST, LEAMINGTON"
      }
    ]
  },
  {
    "postal": "N8H8C1",
    "result": []
  },
  {
    "postal": "N8H5C5",
    "result": [
      {
        "electoralDistricts": [
          {
            "election": null,
            "id": 18,
            "name": "Chatham-Kent—Leamington"
          }
        ],
        "pollDivisionIds": [
          10137517
        ],
        "postalCode": "N8H5C5",
        "streetName": "PRINCESS",
        "streetDirectionId": null,
        "streetTypeId": "ST",
        "placeName": "LEAMINGTON",
        "streetNameDisplayText": "PRINCESS ST, LEAMINGTON"
      }
    ]
  },
  {
    "postal": "N8H2X8",
    "result": [
      {
        "electoralDistricts": [
          {
            "election": null,
            "id": 18,
            "name": "Chatham-Kent—Leamington"
          }
        ],
        "pollDivisionIds": [
          10137517
        ],
        "postalCode": "N8H2X8",
        "streetName": "PRINCESS",
        "streetDirectionId": null,
        "streetTypeId": "ST",
        "placeName": "LEAMINGTON",
        "streetNameDisplayText": "PRINCESS ST, LEAMINGTON"
      }
    ]
  },
  {
    "postal": "N8H1W5",
    "result": [
      {
        "electoralDistricts": [
          {
            "election": null,
            "id": 18,
            "name": "Chatham-Kent—Leamington"
          }
        ],
        "pollDivisionIds": [
          10137517
        ],
        "postalCode": "N8H1W5",
        "streetName": "MARLBOROUGH",
        "streetDirectionId": "E",
        "streetTypeId": "ST",
        "placeName": "LEAMINGTON",
        "streetNameDisplayText": "MARLBOROUGH ST E, LEAMINGTON"
      }
    ]
  },
  {
    "postal": "N8H7G0",
    "result": []
  },
  {
    "postal": "N8H8J8",
    "result": []
  },
  {
    "postal": "N8H3Y0",
    "result": []
  },
  {
    "postal": "N8H9T7",
    "result": []
  },
  {
    "postal": "N8H5P4",
    "result": [
      {
        "electoralDistricts": [
          {
            "election": null,
            "id": 18,
            "name": "Chatham-Kent—Leamington"
          }
        ],
        "pollDivisionIds": [
          10137520
        ],
        "postalCode": "N8H5P4",
        "streetName": "ROBSON",
        "streetDirectionId": null,
        "streetTypeId": "RD",
        "placeName": "LEAMINGTON",
        "streetNameDisplayText": "ROBSON RD, LEAMINGTON"
      }
    ]
  },
  {
    "postal": "N8H4B0",
    "result": []
  },
  {
    "postal": "N8H9N8",
    "result": []
  },
  {
    "postal": "N8H4A7",
    "result": [
      {
        "electoralDistricts": [
          {
            "election": null,
            "id": 18,
            "name": "Chatham-Kent—Leamington"
          }
        ],
        "pollDivisionIds": [
          10137516
        ],
        "postalCode": "N8H4A7",
        "streetName": "BAYSHORE",
        "streetDirectionId": null,
        "streetTypeId": "DR",
        "placeName": "LEAMINGTON",
        "streetNameDisplayText": "BAYSHORE DR, LEAMINGTON"
      }
    ]
  },
  {
    "postal": "N8H4H9",
    "result": [
      {
        "electoralDistricts": [
          {
            "election": null,
            "id": 18,
            "name": "Chatham-Kent—Leamington"
          }
        ],
        "pollDivisionIds": [
          10137516
        ],
        "postalCode": "N8H4H9",
        "streetName": "LONGBEACH",
        "streetDirectionId": null,
        "streetTypeId": "DR",
        "placeName": "LEAMINGTON",
        "streetNameDisplayText": "LONGBEACH DR, LEAMINGTON"
      }
    ]
  },
  {
    "postal": "N8H6X1",
    "result": []
  },
  {
    "postal": "N8H9Y7",
    "result": []
  },
  {
    "postal": "N8H2Y5",
    "result": [
      {
        "electoralDistricts": [
          {
            "election": null,
            "id": 18,
            "name": "Chatham-Kent—Leamington"
          }
        ],
        "pollDivisionIds": [
          10137517
        ],
        "postalCode": "N8H2Y5",
        "streetName": "PRINCESS",
        "streetDirectionId": null,
        "streetTypeId": "ST",
        "placeName": "LEAMINGTON",
        "streetNameDisplayText": "PRINCESS ST, LEAMINGTON"
      }
    ]
  },
  {
    "postal": "N8H8L7",
    "result": []
  },
  {
    "postal": "N8H2A8",
    "result": [
      {
        "electoralDistricts": [
          {
            "election": null,
            "id": 18,
            "name": "Chatham-Kent—Leamington"
          }
        ],
        "pollDivisionIds": [
          10137517
        ],
        "postalCode": "N8H2A8",
        "streetName": "OAK",
        "streetDirectionId": "W",
        "streetTypeId": "ST",
        "placeName": "LEAMINGTON",
        "streetNameDisplayText": "OAK ST W, LEAMINGTON"
      }
    ]
  },
  {
    "postal": "N8H2K9",
    "result": [
      {
        "electoralDistricts": [
          {
            "election": null,
            "id": 18,
            "name": "Chatham-Kent—Leamington"
          }
        ],
        "pollDivisionIds": [
          10137516
        ],
        "postalCode": "N8H2K9",
        "streetName": "CORONATION",
        "streetDirectionId": null,
        "streetTypeId": "AVE",
        "placeName": "LEAMINGTON",
        "streetNameDisplayText": "CORONATION AVE, LEAMINGTON"
      }
    ]
  },
  {
    "postal": "N8H3E5",
    "result": [
      {
        "electoralDistricts": [
          {
            "election": null,
            "id": 18,
            "name": "Chatham-Kent—Leamington"
          }
        ],
        "pollDivisionIds": [
          10137520,
          10137516
        ],
        "postalCode": "N8H3E5",
        "streetName": "ERIE",
        "streetDirectionId": "S",
        "streetTypeId": "ST",
        "placeName": "LEAMINGTON",
        "streetNameDisplayText": "ERIE ST S, LEAMINGTON"
      }
    ]
  },
  {
    "postal": "N8H8N6",
    "result": []
  },
  {
    "postal": "N8H8J4",
    "result": []
  },
  {
    "postal": "N8H4R7",
    "result": [
      {
        "electoralDistricts": [
          {
            "election": null,
            "id": 18,
            "name": "Chatham-Kent—Leamington"
          }
        ],
        "pollDivisionIds": [
          10137518
        ],
        "postalCode": "N8H4R7",
        "streetName": "CAMBRIDGE",
        "streetDirectionId": null,
        "streetTypeId": "CRES",
        "placeName": "LEAMINGTON",
        "streetNameDisplayText": "CAMBRIDGE CRES, LEAMINGTON"
      }
    ]
  },
  {
    "postal": "N8H9K1",
    "result": []
  },
  {
    "postal": "N8H8E1",
    "result": []
  },
  {
    "postal": "N8H0R1",
    "result": []
  },
  {
    "postal": "N8H4J3",
    "result": [
      {
        "electoralDistricts": [
          {
            "election": null,
            "id": 18,
            "name": "Chatham-Kent—Leamington"
          }
        ],
        "pollDivisionIds": [
          10137520
        ],
        "postalCode": "N8H4J3",
        "streetName": "DONALD",
        "streetDirectionId": null,
        "streetTypeId": "AVE",
        "placeName": "LEAMINGTON",
        "streetNameDisplayText": "DONALD AVE, LEAMINGTON"
      }
    ]
  },
  {
    "postal": "N8H7E7",
    "result": []
  },
  {
    "postal": "N8H0J0",
    "result": []
  },
  {
    "postal": "N8H7R8",
    "result": []
  },
  {
    "postal": "N8H9X0",
    "result": []
  },
  {
    "postal": "N8H7P6",
    "result": []
  },
  {
    "postal": "N8H0R7",
    "result": []
  },
  {
    "postal": "N8H5W1",
    "result": []
  },
  {
    "postal": "N8H0K4",
    "result": []
  },
  {
    "postal": "N8H7N9",
    "result": []
  },
  {
    "postal": "N8H1N0",
    "result": []
  },
  {
    "postal": "N8H6P3",
    "result": []
  },
  {
    "postal": "N8H5A1",
    "result": [
      {
        "electoralDistricts": [
          {
            "election": null,
            "id": 18,
            "name": "Chatham-Kent—Leamington"
          }
        ],
        "pollDivisionIds": [
          10137516
        ],
        "postalCode": "N8H5A1",
        "streetName": "ORCHARD HEIGHTS",
        "streetDirectionId": null,
        "streetTypeId": "AVE",
        "placeName": "LEAMINGTON",
        "streetNameDisplayText": "ORCHARD HEIGHTS AVE, LEAMINGTON"
      }
    ]
  },
  {
    "postal": "N8H9M9",
    "result": []
  },
  {
    "postal": "N8H7T6",
    "result": []
  },
  {
    "postal": "N8H3X0",
    "result": []
  },
  {
    "postal": "N8H2T0",
    "result": []
  },
  {
    "postal": "N8H5X9",
    "result": []
  },
  {
    "postal": "N8H2R3",
    "result": [
      {
        "electoralDistricts": [
          {
            "election": null,
            "id": 18,
            "name": "Chatham-Kent—Leamington"
          }
        ],
        "pollDivisionIds": [
          10137518
        ],
        "postalCode": "N8H2R3",
        "streetName": "WARREN",
        "streetDirectionId": null,
        "streetTypeId": "AVE",
        "placeName": "LEAMINGTON",
        "streetNameDisplayText": "WARREN AVE, LEAMINGTON"
      }
    ]
  },
  {
    "postal": "N8H5N2",
    "result": [
      {
        "electoralDistricts": [
          {
            "election": null,
            "id": 18,
            "name": "Chatham-Kent—Leamington"
          }
        ],
        "pollDivisionIds": [
          10137518
        ],
        "postalCode": "N8H5N2",
        "streetName": "CAROLINA WOODS",
        "streetDirectionId": null,
        "streetTypeId": "CRES",
        "placeName": "LEAMINGTON",
        "streetNameDisplayText": "CAROLINA WOODS CRES, LEAMINGTON"
      }
    ]
  },
  {
    "postal": "N8H4Y7",
    "result": []
  },
  {
    "postal": "N8H7M0",
    "result": []
  },
  {
    "postal": "N8H8P3",
    "result": []
  },
  {
    "postal": "N8H3N3",
    "result": [
      {
        "electoralDistricts": [
          {
            "election": null,
            "id": 18,
            "name": "Chatham-Kent—Leamington"
          }
        ],
        "pollDivisionIds": [
          10137516
        ],
        "postalCode": "N8H3N3",
        "streetName": "M C R",
        "streetDirectionId": null,
        "streetTypeId": "DR",
        "placeName": "LEAMINGTON",
        "streetNameDisplayText": "M C R DR, LEAMINGTON"
      }
    ]
  },
  {
    "postal": "N8H7S3",
    "result": []
  },
  {
    "postal": "N8H3V9",
    "result": []
  },
  {
    "postal": "N8H9N7",
    "result": []
  },
  {
    "postal": "N8H0G4",
    "result": []
  },
  {
    "postal": "N8H2E2",
    "result": [
      {
        "electoralDistricts": [
          {
            "election": null,
            "id": 18,
            "name": "Chatham-Kent—Leamington"
          }
        ],
        "pollDivisionIds": [
          10137518
        ],
        "postalCode": "N8H2E2",
        "streetName": "MAXON",
        "streetDirectionId": null,
        "streetTypeId": "AVE",
        "placeName": "LEAMINGTON",
        "streetNameDisplayText": "MAXON AVE, LEAMINGTON"
      }
    ]
  },
  {
    "postal": "N8H7W8",
    "result": []
  },
  {
    "postal": "N8H7M5",
    "result": []
  },
  {
    "postal": "N8H5W8",
    "result": []
  },
  {
    "postal": "N8H5E5",
    "result": [
      {
        "electoralDistricts": [
          {
            "election": null,
            "id": 18,
            "name": "Chatham-Kent—Leamington"
          }
        ],
        "pollDivisionIds": [
          10143123
        ],
        "postalCode": "N8H5E5",
        "streetName": "BENNIE",
        "streetDirectionId": null,
        "streetTypeId": "AVE",
        "placeName": "LEAMINGTON",
        "streetNameDisplayText": "BENNIE AVE, LEAMINGTON"
      }
    ]
  },
  {
    "postal": "N8H1P9",
    "result": [
      {
        "electoralDistricts": [
          {
            "election": null,
            "id": 18,
            "name": "Chatham-Kent—Leamington"
          }
        ],
        "pollDivisionIds": [
          10137517
        ],
        "postalCode": "N8H1P9",
        "streetName": "ORANGE",
        "streetDirectionId": null,
        "streetTypeId": "ST",
        "placeName": "LEAMINGTON",
        "streetNameDisplayText": "ORANGE ST, LEAMINGTON"
      }
    ]
  },
  {
    "postal": "N8H8V8",
    "result": []
  },
  {
    "postal": "N8H9G8",
    "result": []
  },
  {
    "postal": "N8H8H9",
    "result": []
  },
  {
    "postal": "N8H1Z1",
    "result": [
      {
        "electoralDistricts": [
          {
            "election": null,
            "id": 18,
            "name": "Chatham-Kent—Leamington"
          }
        ],
        "pollDivisionIds": [
          10137517
        ],
        "postalCode": "N8H1Z1",
        "streetName": "ROBINSON",
        "streetDirectionId": null,
        "streetTypeId": "ST",
        "placeName": "LEAMINGTON",
        "streetNameDisplayText": "ROBINSON ST, LEAMINGTON"
      }
    ]
  },
  {
    "postal": "N8H8M3",
    "result": []
  },
  {
    "postal": "N8H5H6",
    "result": [
      {
        "electoralDistricts": [
          {
            "election": null,
            "id": 18,
            "name": "Chatham-Kent—Leamington"
          }
        ],
        "pollDivisionIds": [
          10137518
        ],
        "postalCode": "N8H5H6",
        "streetName": "ALDERTON",
        "streetDirectionId": null,
        "streetTypeId": "ST",
        "placeName": "LEAMINGTON",
        "streetNameDisplayText": "ALDERTON ST, LEAMINGTON"
      },
      {
        "electoralDistricts": [
          {
            "election": null,
            "id": 18,
            "name": "Chatham-Kent—Leamington"
          }
        ],
        "pollDivisionIds": [
          10137518
        ],
        "postalCode": "N8H5H6",
        "streetName": "SHERMAN",
        "streetDirectionId": null,
        "streetTypeId": "ST",
        "placeName": "LEAMINGTON",
        "streetNameDisplayText": "SHERMAN ST, LEAMINGTON"
      }
    ]
  },
  {
    "postal": "N8H7W7",
    "result": []
  },
  {
    "postal": "N8H4L0",
    "result": []
  },
  {
    "postal": "N8H2N1",
    "result": [
      {
        "electoralDistricts": [
          {
            "election": null,
            "id": 18,
            "name": "Chatham-Kent—Leamington"
          }
        ],
        "pollDivisionIds": [
          10137516
        ],
        "postalCode": "N8H2N1",
        "streetName": "GOLD",
        "streetDirectionId": null,
        "streetTypeId": "COAST",
        "placeName": "LEAMINGTON",
        "streetNameDisplayText": "GOLD COAST, LEAMINGTON"
      }
    ]
  },
  {
    "postal": "N8H2H4",
    "result": [
      {
        "electoralDistricts": [
          {
            "election": null,
            "id": 18,
            "name": "Chatham-Kent—Leamington"
          }
        ],
        "pollDivisionIds": [
          10137516
        ],
        "postalCode": "N8H2H4",
        "streetName": "GLADSTONE",
        "streetDirectionId": null,
        "streetTypeId": "AVE",
        "placeName": "LEAMINGTON",
        "streetNameDisplayText": "GLADSTONE AVE, LEAMINGTON"
      }
    ]
  },
  {
    "postal": "N8H5C8",
    "result": [
      {
        "electoralDistricts": [
          {
            "election": null,
            "id": 18,
            "name": "Chatham-Kent—Leamington"
          }
        ],
        "pollDivisionIds": [
          10137518
        ],
        "postalCode": "N8H5C8",
        "streetName": "SUTTON",
        "streetDirectionId": null,
        "streetTypeId": "DR",
        "placeName": "LEAMINGTON",
        "streetNameDisplayText": "SUTTON DR, LEAMINGTON"
      }
    ]
  },
  {
    "postal": "N8H8B0",
    "result": []
  },
  {
    "postal": "N8H1T4",
    "result": [
      {
        "electoralDistricts": [
          {
            "election": null,
            "id": 18,
            "name": "Chatham-Kent—Leamington"
          }
        ],
        "pollDivisionIds": [
          10137517
        ],
        "postalCode": "N8H1T4",
        "streetName": "SETTERINGTON",
        "streetDirectionId": null,
        "streetTypeId": "ST",
        "placeName": "LEAMINGTON",
        "streetNameDisplayText": "SETTERINGTON ST, LEAMINGTON"
      }
    ]
  },
  {
    "postal": "N8H7N7",
    "result": []
  },
  {
    "postal": "N8H4L3",
    "result": [
      {
        "electoralDistricts": [
          {
            "election": null,
            "id": 18,
            "name": "Chatham-Kent—Leamington"
          }
        ],
        "pollDivisionIds": [
          10143123
        ],
        "postalCode": "N8H4L3",
        "streetName": "BENNIE",
        "streetDirectionId": null,
        "streetTypeId": "AVE",
        "placeName": "LEAMINGTON",
        "streetNameDisplayText": "BENNIE AVE, LEAMINGTON"
      }
    ]
  },
  {
    "postal": "N8H2N2",
    "result": [
      {
        "electoralDistricts": [
          {
            "election": null,
            "id": 18,
            "name": "Chatham-Kent—Leamington"
          }
        ],
        "pollDivisionIds": [
          10137520
        ],
        "postalCode": "N8H2N2",
        "streetName": "FOSTER",
        "streetDirectionId": null,
        "streetTypeId": "AVE",
        "placeName": "LEAMINGTON",
        "streetNameDisplayText": "FOSTER AVE, LEAMINGTON"
      }
    ]
  },
  {
    "postal": "N8H4N8",
    "result": [
      {
        "electoralDistricts": [
          {
            "election": null,
            "id": 18,
            "name": "Chatham-Kent—Leamington"
          }
        ],
        "pollDivisionIds": [
          10143123
        ],
        "postalCode": "N8H4N8",
        "streetName": "ALDERTON",
        "streetDirectionId": null,
        "streetTypeId": "ST",
        "placeName": "LEAMINGTON",
        "streetNameDisplayText": "ALDERTON ST, LEAMINGTON"
      }
    ]
  },
  {
    "postal": "N8H3M5",
    "result": [
      {
        "electoralDistricts": [
          {
            "election": null,
            "id": 18,
            "name": "Chatham-Kent—Leamington"
          }
        ],
        "pollDivisionIds": [
          10137515
        ],
        "postalCode": "N8H3M5",
        "streetName": "ELLIOTT",
        "streetDirectionId": null,
        "streetTypeId": "ST",
        "placeName": "LEAMINGTON",
        "streetNameDisplayText": "ELLIOTT ST, LEAMINGTON"
      }
    ]
  },
  {
    "postal": "N8H6H7",
    "result": []
  },
  {
    "postal": "N8H8Y8",
    "result": []
  },
  {
    "postal": "N8H5R9",
    "result": []
  },
  {
    "postal": "N8H8G3",
    "result": []
  },
  {
    "postal": "N8H4N7",
    "result": [
      {
        "electoralDistricts": [
          {
            "election": null,
            "id": 18,
            "name": "Chatham-Kent—Leamington"
          }
        ],
        "pollDivisionIds": [
          10137516
        ],
        "postalCode": "N8H4N7",
        "streetName": "SHERK",
        "streetDirectionId": null,
        "streetTypeId": "ST",
        "placeName": "LEAMINGTON",
        "streetNameDisplayText": "SHERK ST, LEAMINGTON"
      }
    ]
  },
  {
    "postal": "N8H0B9",
    "result": []
  },
  {
    "postal": "N8H9K7",
    "result": []
  },
  {
    "postal": "N8H9K9",
    "result": []
  },
  {
    "postal": "N8H3Z2",
    "result": [
      {
        "electoralDistricts": [
          {
            "election": null,
            "id": 18,
            "name": "Chatham-Kent—Leamington"
          }
        ],
        "pollDivisionIds": [
          10137516
        ],
        "postalCode": "N8H3Z2",
        "streetName": "GRANDVIEW",
        "streetDirectionId": null,
        "streetTypeId": "CRES",
        "placeName": "LEAMINGTON",
        "streetNameDisplayText": "GRANDVIEW CRES, LEAMINGTON"
      }
    ]
  },
  {
    "postal": "N8H6W7",
    "result": []
  },
  {
    "postal": "N8H0P1",
    "result": []
  },
  {
    "postal": "N8H3A0",
    "result": []
  },
  {
    "postal": "N8H8L9",
    "result": []
  },
  {
    "postal": "N8H6X0",
    "result": []
  },
  {
    "postal": "N8H3E9",
    "result": [
      {
        "electoralDistricts": [
          {
            "election": null,
            "id": 18,
            "name": "Chatham-Kent—Leamington"
          }
        ],
        "pollDivisionIds": [
          10137516
        ],
        "postalCode": "N8H3E9",
        "streetName": "BAYVIEW",
        "streetDirectionId": null,
        "streetTypeId": "PL",
        "placeName": "LEAMINGTON",
        "streetNameDisplayText": "BAYVIEW PL, LEAMINGTON"
      }
    ]
  },
  {
    "postal": "N8H0S5",
    "result": []
  },
  {
    "postal": "N8H1A2",
    "result": [
      {
        "electoralDistricts": [
          {
            "election": null,
            "id": 18,
            "name": "Chatham-Kent—Leamington"
          }
        ],
        "pollDivisionIds": [
          10137515
        ],
        "postalCode": "N8H1A2",
        "streetName": "WILKINSON",
        "streetDirectionId": null,
        "streetTypeId": "DR",
        "placeName": "LEAMINGTON",
        "streetNameDisplayText": "WILKINSON DR, LEAMINGTON"
      }
    ]
  },
  {
    "postal": "N8H5V8",
    "result": []
  },
  {
    "postal": "N8H8C5",
    "result": []
  },
  {
    "postal": "N8H6N0",
    "result": []
  },
  {
    "postal": "N8H9E6",
    "result": []
  },
  {
    "postal": "N8H5J7",
    "result": [
      {
        "electoralDistricts": [
          {
            "election": null,
            "id": 18,
            "name": "Chatham-Kent—Leamington"
          }
        ],
        "pollDivisionIds": [
          10143123
        ],
        "postalCode": "N8H5J7",
        "streetName": "EASTGROVE",
        "streetDirectionId": null,
        "streetTypeId": "CRES",
        "placeName": "LEAMINGTON",
        "streetNameDisplayText": "EASTGROVE CRES, LEAMINGTON"
      },
      {
        "electoralDistricts": [
          {
            "election": null,
            "id": 18,
            "name": "Chatham-Kent—Leamington"
          }
        ],
        "pollDivisionIds": [
          10143123
        ],
        "postalCode": "N8H5J7",
        "streetName": "WAKEFIELD",
        "streetDirectionId": null,
        "streetTypeId": "AVE",
        "placeName": "LEAMINGTON",
        "streetNameDisplayText": "WAKEFIELD AVE, LEAMINGTON"
      }
    ]
  },
  {
    "postal": "N8H2R2",
    "result": [
      {
        "electoralDistricts": [
          {
            "election": null,
            "id": 18,
            "name": "Chatham-Kent—Leamington"
          }
        ],
        "pollDivisionIds": [
          10137518
        ],
        "postalCode": "N8H2R2",
        "streetName": "DANFORTH",
        "streetDirectionId": null,
        "streetTypeId": "AVE",
        "placeName": "LEAMINGTON",
        "streetNameDisplayText": "DANFORTH AVE, LEAMINGTON"
      }
    ]
  },
  {
    "postal": "N8H0P5",
    "result": []
  },
  {
    "postal": "N8H5A7",
    "result": [
      {
        "electoralDistricts": [
          {
            "election": null,
            "id": 18,
            "name": "Chatham-Kent—Leamington"
          }
        ],
        "pollDivisionIds": [
          10143123
        ],
        "postalCode": "N8H5A7",
        "streetName": "PICKWICK",
        "streetDirectionId": null,
        "streetTypeId": "DR",
        "placeName": "LEAMINGTON",
        "streetNameDisplayText": "PICKWICK DR, LEAMINGTON"
      }
    ]
  },
  {
    "postal": "N8H1G1",
    "result": [
      {
        "electoralDistricts": [
          {
            "election": null,
            "id": 18,
            "name": "Chatham-Kent—Leamington"
          }
        ],
        "pollDivisionIds": [
          10137516,
          10137515
        ],
        "postalCode": "N8H1G1",
        "streetName": "SMITH",
        "streetDirectionId": null,
        "streetTypeId": "AVE",
        "placeName": "LEAMINGTON",
        "streetNameDisplayText": "SMITH AVE, LEAMINGTON"
      }
    ]
  },
  {
    "postal": "N8H9R6",
    "result": []
  },
  {
    "postal": "N8H4Z9",
    "result": [
      {
        "electoralDistricts": [
          {
            "election": null,
            "id": 18,
            "name": "Chatham-Kent—Leamington"
          }
        ],
        "pollDivisionIds": [
          10137516
        ],
        "postalCode": "N8H4Z9",
        "streetName": "CHERRYWOOD",
        "streetDirectionId": null,
        "streetTypeId": "AVE",
        "placeName": "LEAMINGTON",
        "streetNameDisplayText": "CHERRYWOOD AVE, LEAMINGTON"
      },
      {
        "electoralDistricts": [
          {
            "election": null,
            "id": 18,
            "name": "Chatham-Kent—Leamington"
          }
        ],
        "pollDivisionIds": [
          10137516
        ],
        "postalCode": "N8H4Z9",
        "streetName": "ORCHARD HEIGHTS",
        "streetDirectionId": null,
        "streetTypeId": "AVE",
        "placeName": "LEAMINGTON",
        "streetNameDisplayText": "ORCHARD HEIGHTS AVE, LEAMINGTON"
      }
    ]
  },
  {
    "postal": "N8H1V5",
    "result": [
      {
        "electoralDistricts": [
          {
            "election": null,
            "id": 18,
            "name": "Chatham-Kent—Leamington"
          }
        ],
        "pollDivisionIds": [
          10137517
        ],
        "postalCode": "N8H1V5",
        "streetName": "MAYNARD",
        "streetDirectionId": null,
        "streetTypeId": "ST",
        "placeName": "LEAMINGTON",
        "streetNameDisplayText": "MAYNARD ST, LEAMINGTON"
      }
    ]
  },
  {
    "postal": "N8H9Y5",
    "result": []
  },
  {
    "postal": "N8H1P2",
    "result": [
      {
        "electoralDistricts": [
          {
            "election": null,
            "id": 18,
            "name": "Chatham-Kent—Leamington"
          }
        ],
        "pollDivisionIds": [
          10137517
        ],
        "postalCode": "N8H1P2",
        "streetName": "GERRARD",
        "streetDirectionId": null,
        "streetTypeId": "ST",
        "placeName": "LEAMINGTON",
        "streetNameDisplayText": "GERRARD ST, LEAMINGTON"
      }
    ]
  },
  {
    "postal": "N8H5X0",
    "result": []
  },
  {
    "postal": "N8H7B8",
    "result": []
  },
  {
    "postal": "N8H0C6",
    "result": []
  },
  {
    "postal": "N8H6G1",
    "result": []
  },
  {
    "postal": "N8H3K3",
    "result": [
      {
        "electoralDistricts": [
          {
            "election": null,
            "id": 18,
            "name": "Chatham-Kent—Leamington"
          }
        ],
        "pollDivisionIds": [
          10137514,
          10137525,
          10137516
        ],
        "postalCode": "N8H3K3",
        "streetName": "CHESTNUT",
        "streetDirectionId": null,
        "streetTypeId": "ST",
        "placeName": "LEAMINGTON",
        "streetNameDisplayText": "CHESTNUT ST, LEAMINGTON"
      }
    ]
  },
  {
    "postal": "N8H9R0",
    "result": []
  },
  {
    "postal": "N8H4R8",
    "result": [
      {
        "electoralDistricts": [
          {
            "election": null,
            "id": 18,
            "name": "Chatham-Kent—Leamington"
          }
        ],
        "pollDivisionIds": [
          10137517
        ],
        "postalCode": "N8H4R8",
        "streetName": "WORCHESTER",
        "streetDirectionId": null,
        "streetTypeId": "AVE",
        "placeName": "LEAMINGTON",
        "streetNameDisplayText": "WORCHESTER AVE, LEAMINGTON"
      }
    ]
  },
  {
    "postal": "N8H5P9",
    "result": [
      {
        "electoralDistricts": [
          {
            "election": null,
            "id": 18,
            "name": "Chatham-Kent—Leamington"
          }
        ],
        "pollDivisionIds": [
          10137520
        ],
        "postalCode": "N8H5P9",
        "streetName": "ROBSON",
        "streetDirectionId": null,
        "streetTypeId": "RD",
        "placeName": "LEAMINGTON",
        "streetNameDisplayText": "ROBSON RD, LEAMINGTON"
      }
    ]
  },
  {
    "postal": "N8H8N4",
    "result": []
  },
  {
    "postal": "N8H8H4",
    "result": []
  },
  {
    "postal": "N8H4V1",
    "result": [
      {
        "electoralDistricts": [
          {
            "election": null,
            "id": 18,
            "name": "Chatham-Kent—Leamington"
          }
        ],
        "pollDivisionIds": [
          10137517
        ],
        "postalCode": "N8H4V1",
        "streetName": "SHERWOOD",
        "streetDirectionId": null,
        "streetTypeId": "AVE",
        "placeName": "LEAMINGTON",
        "streetNameDisplayText": "SHERWOOD AVE, LEAMINGTON"
      }
    ]
  },
  {
    "postal": "N8H1K5",
    "result": [
      {
        "electoralDistricts": [
          {
            "election": null,
            "id": 18,
            "name": "Chatham-Kent—Leamington"
          }
        ],
        "pollDivisionIds": [
          10137516
        ],
        "postalCode": "N8H1K5",
        "streetName": "GRACE",
        "streetDirectionId": null,
        "streetTypeId": "AVE",
        "placeName": "LEAMINGTON",
        "streetNameDisplayText": "GRACE AVE, LEAMINGTON"
      }
    ]
  },
  {
    "postal": "N8H1Z5",
    "result": [
      {
        "electoralDistricts": [
          {
            "election": null,
            "id": 18,
            "name": "Chatham-Kent—Leamington"
          }
        ],
        "pollDivisionIds": [
          10137518
        ],
        "postalCode": "N8H1Z5",
        "streetName": "ROBINSON",
        "streetDirectionId": null,
        "streetTypeId": "ST",
        "placeName": "LEAMINGTON",
        "streetNameDisplayText": "ROBINSON ST, LEAMINGTON"
      }
    ]
  },
  {
    "postal": "N8H9L9",
    "result": []
  },
  {
    "postal": "N8H5L2",
    "result": [
      {
        "electoralDistricts": [
          {
            "election": null,
            "id": 18,
            "name": "Chatham-Kent—Leamington"
          }
        ],
        "pollDivisionIds": [
          10137517
        ],
        "postalCode": "N8H5L2",
        "streetName": "ANFRED",
        "streetDirectionId": null,
        "streetTypeId": "AVE",
        "placeName": "LEAMINGTON",
        "streetNameDisplayText": "ANFRED AVE, LEAMINGTON"
      },
      {
        "electoralDistricts": [
          {
            "election": null,
            "id": 18,
            "name": "Chatham-Kent—Leamington"
          }
        ],
        "pollDivisionIds": [
          10137517
        ],
        "postalCode": "N8H5L2",
        "streetName": "STURGEON MEADOWS",
        "streetDirectionId": null,
        "streetTypeId": "AVE",
        "placeName": "LEAMINGTON",
        "streetNameDisplayText": "STURGEON MEADOWS AVE, LEAMINGTON"
      }
    ]
  },
  {
    "postal": "N8H0M2",
    "result": []
  },
  {
    "postal": "N8H1K8",
    "result": [
      {
        "electoralDistricts": [
          {
            "election": null,
            "id": 18,
            "name": "Chatham-Kent—Leamington"
          }
        ],
        "pollDivisionIds": [
          10137516
        ],
        "postalCode": "N8H1K8",
        "streetName": "GRACE",
        "streetDirectionId": null,
        "streetTypeId": "AVE",
        "placeName": "LEAMINGTON",
        "streetNameDisplayText": "GRACE AVE, LEAMINGTON"
      }
    ]
  },
  {
    "postal": "N8H3M7",
    "result": [
      {
        "electoralDistricts": [
          {
            "election": null,
            "id": 18,
            "name": "Chatham-Kent—Leamington"
          }
        ],
        "pollDivisionIds": [
          10137515
        ],
        "postalCode": "N8H3M7",
        "streetName": "ELLIOTT",
        "streetDirectionId": null,
        "streetTypeId": "ST",
        "placeName": "LEAMINGTON",
        "streetNameDisplayText": "ELLIOTT ST, LEAMINGTON"
      }
    ]
  },
  {
    "postal": "N8H1B2",
    "result": [
      {
        "electoralDistricts": [
          {
            "election": null,
            "id": 18,
            "name": "Chatham-Kent—Leamington"
          }
        ],
        "pollDivisionIds": [
          10137515
        ],
        "postalCode": "N8H1B2",
        "streetName": "IVAN",
        "streetDirectionId": null,
        "streetTypeId": "ST",
        "placeName": "LEAMINGTON",
        "streetNameDisplayText": "IVAN ST, LEAMINGTON"
      }
    ]
  },
  {
    "postal": "N8H0H9",
    "result": []
  },
  {
    "postal": "N8H8M4",
    "result": []
  },
  {
    "postal": "N8H2M5",
    "result": [
      {
        "electoralDistricts": [
          {
            "election": null,
            "id": 18,
            "name": "Chatham-Kent—Leamington"
          }
        ],
        "pollDivisionIds": [
          10137516
        ],
        "postalCode": "N8H2M5",
        "streetName": "PARK",
        "streetDirectionId": null,
        "streetTypeId": "ST",
        "placeName": "LEAMINGTON",
        "streetNameDisplayText": "PARK ST, LEAMINGTON"
      }
    ]
  },
  {
    "postal": "N8H0T9",
    "result": []
  },
  {
    "postal": "N8H3P1",
    "result": [
      {
        "electoralDistricts": [
          {
            "election": null,
            "id": 18,
            "name": "Chatham-Kent—Leamington"
          }
        ],
        "pollDivisionIds": [
          10137516
        ],
        "postalCode": "N8H3P1",
        "streetName": "ROGER",
        "streetDirectionId": null,
        "streetTypeId": "ST",
        "placeName": "LEAMINGTON",
        "streetNameDisplayText": "ROGER ST, LEAMINGTON"
      }
    ]
  },
  {
    "postal": "N8H1R6",
    "result": [
      {
        "electoralDistricts": [
          {
            "election": null,
            "id": 18,
            "name": "Chatham-Kent—Leamington"
          }
        ],
        "pollDivisionIds": [
          10143124
        ],
        "postalCode": "N8H1R6",
        "streetName": "MILL",
        "streetDirectionId": "E",
        "streetTypeId": "ST",
        "placeName": "LEAMINGTON",
        "streetNameDisplayText": "MILL ST E, LEAMINGTON"
      }
    ]
  },
  {
    "postal": "N8H9V5",
    "result": []
  },
  {
    "postal": "N8H9T0",
    "result": []
  },
  {
    "postal": "N8H0A9",
    "result": [
      {
        "electoralDistricts": [
          {
            "election": null,
            "id": 18,
            "name": "Chatham-Kent—Leamington"
          }
        ],
        "pollDivisionIds": [
          10137515
        ],
        "postalCode": "N8H0A9",
        "streetName": "ERIE",
        "streetDirectionId": "N",
        "streetTypeId": "ST",
        "placeName": "LEAMINGTON",
        "streetNameDisplayText": "ERIE ST N, LEAMINGTON"
      }
    ]
  },
  {
    "postal": "N8H1M3",
    "result": [
      {
        "electoralDistricts": [
          {
            "election": null,
            "id": 18,
            "name": "Chatham-Kent—Leamington"
          }
        ],
        "pollDivisionIds": [
          10137515
        ],
        "postalCode": "N8H1M3",
        "streetName": "TALBOT",
        "streetDirectionId": "W",
        "streetTypeId": "ST",
        "placeName": "LEAMINGTON",
        "streetNameDisplayText": "TALBOT ST W, LEAMINGTON"
      }
    ]
  },
  {
    "postal": "N8H1W8",
    "result": [
      {
        "electoralDistricts": [
          {
            "election": null,
            "id": 18,
            "name": "Chatham-Kent—Leamington"
          }
        ],
        "pollDivisionIds": [
          10137517
        ],
        "postalCode": "N8H1W8",
        "streetName": "MARLBOROUGH",
        "streetDirectionId": "E",
        "streetTypeId": "ST",
        "placeName": "LEAMINGTON",
        "streetNameDisplayText": "MARLBOROUGH ST E, LEAMINGTON"
      }
    ]
  },
  {
    "postal": "N8H9J1",
    "result": []
  },
  {
    "postal": "N8H8N5",
    "result": []
  },
  {
    "postal": "N8H5X1",
    "result": []
  },
  {
    "postal": "N8H6S2",
    "result": []
  },
  {
    "postal": "N8H2A2",
    "result": [
      {
        "electoralDistricts": [
          {
            "election": null,
            "id": 18,
            "name": "Chatham-Kent—Leamington"
          }
        ],
        "pollDivisionIds": [
          10137517
        ],
        "postalCode": "N8H2A2",
        "streetName": "MONTGOMERY",
        "streetDirectionId": null,
        "streetTypeId": "ST",
        "placeName": "LEAMINGTON",
        "streetNameDisplayText": "MONTGOMERY ST, LEAMINGTON"
      }
    ]
  },
  {
    "postal": "N8H6A6",
    "result": []
  },
  {
    "postal": "N8H0S3",
    "result": []
  },
  {
    "postal": "N8H3E7",
    "result": [
      {
        "electoralDistricts": [
          {
            "election": null,
            "id": 18,
            "name": "Chatham-Kent—Leamington"
          }
        ],
        "pollDivisionIds": [
          10137516
        ],
        "postalCode": "N8H3E7",
        "streetName": "BAYVIEW",
        "streetDirectionId": null,
        "streetTypeId": "PL",
        "placeName": "LEAMINGTON",
        "streetNameDisplayText": "BAYVIEW PL, LEAMINGTON"
      }
    ]
  },
  {
    "postal": "N8H5R7",
    "result": []
  },
  {
    "postal": "N8H3R6",
    "result": [
      {
        "electoralDistricts": [
          {
            "election": null,
            "id": 18,
            "name": "Chatham-Kent—Leamington"
          }
        ],
        "pollDivisionIds": [
          10137516
        ],
        "postalCode": "N8H3R6",
        "streetName": "CHURCHILL",
        "streetDirectionId": null,
        "streetTypeId": "AVE",
        "placeName": "LEAMINGTON",
        "streetNameDisplayText": "CHURCHILL AVE, LEAMINGTON"
      }
    ]
  },
  {
    "postal": "N8H6K4",
    "result": []
  },
  {
    "postal": "N8H2W5",
    "result": [
      {
        "electoralDistricts": [
          {
            "election": null,
            "id": 18,
            "name": "Chatham-Kent—Leamington"
          }
        ],
        "pollDivisionIds": [
          10137517
        ],
        "postalCode": "N8H2W5",
        "streetName": "VICTORIA",
        "streetDirectionId": "S",
        "streetTypeId": "AVE",
        "placeName": "LEAMINGTON",
        "streetNameDisplayText": "VICTORIA AVE S, LEAMINGTON"
      }
    ]
  },
  {
    "postal": "N8H8W4",
    "result": []
  },
  {
    "postal": "N8H9C2",
    "result": []
  },
  {
    "postal": "N8H2C0",
    "result": []
  },
  {
    "postal": "N8H0E1",
    "result": [
      {
        "electoralDistricts": [
          {
            "election": null,
            "id": 18,
            "name": "Chatham-Kent—Leamington"
          }
        ],
        "pollDivisionIds": [
          10137520,
          10137518
        ],
        "postalCode": "N8H0E1",
        "streetName": "ALEXIA",
        "streetDirectionId": null,
        "streetTypeId": "CRT",
        "placeName": "LEAMINGTON",
        "streetNameDisplayText": "ALEXIA CRT, LEAMINGTON"
      },
      {
        "electoralDistricts": [
          {
            "election": null,
            "id": 18,
            "name": "Chatham-Kent—Leamington"
          }
        ],
        "pollDivisionIds": [
          10137520
        ],
        "postalCode": "N8H0E1",
        "streetName": "DESTINY",
        "streetDirectionId": null,
        "streetTypeId": "DR",
        "placeName": "LEAMINGTON",
        "streetNameDisplayText": "DESTINY DR, LEAMINGTON"
      }
    ]
  },
  {
    "postal": "N8H1K9",
    "result": [
      {
        "electoralDistricts": [
          {
            "election": null,
            "id": 18,
            "name": "Chatham-Kent—Leamington"
          }
        ],
        "pollDivisionIds": [
          10137516
        ],
        "postalCode": "N8H1K9",
        "streetName": "GRACE",
        "streetDirectionId": null,
        "streetTypeId": "AVE",
        "placeName": "LEAMINGTON",
        "streetNameDisplayText": "GRACE AVE, LEAMINGTON"
      }
    ]
  },
  {
    "postal": "N8H1G7",
    "result": [
      {
        "electoralDistricts": [
          {
            "election": null,
            "id": 18,
            "name": "Chatham-Kent—Leamington"
          }
        ],
        "pollDivisionIds": [
          10137515
        ],
        "postalCode": "N8H1G7",
        "streetName": "NELSON",
        "streetDirectionId": null,
        "streetTypeId": "ST",
        "placeName": "LEAMINGTON",
        "streetNameDisplayText": "NELSON ST, LEAMINGTON"
      }
    ]
  },
  {
    "postal": "N8H4E9",
    "result": [
      {
        "electoralDistricts": [
          {
            "election": null,
            "id": 18,
            "name": "Chatham-Kent—Leamington"
          }
        ],
        "pollDivisionIds": [
          10137516
        ],
        "postalCode": "N8H4E9",
        "streetName": "ERIE VIEW",
        "streetDirectionId": null,
        "streetTypeId": "RD",
        "placeName": "LEAMINGTON",
        "streetNameDisplayText": "ERIE VIEW RD, LEAMINGTON"
      }
    ]
  },
  {
    "postal": "N8H9P0",
    "result": []
  },
  {
    "postal": "N8H5H3",
    "result": []
  },
  {
    "postal": "N8H9X6",
    "result": []
  },
  {
    "postal": "N8H5N7",
    "result": [
      {
        "electoralDistricts": [
          {
            "election": null,
            "id": 18,
            "name": "Chatham-Kent—Leamington"
          }
        ],
        "pollDivisionIds": [
          10137518
        ],
        "postalCode": "N8H5N7",
        "streetName": "JOANNE",
        "streetDirectionId": null,
        "streetTypeId": "CRT",
        "placeName": "LEAMINGTON",
        "streetNameDisplayText": "JOANNE CRT, LEAMINGTON"
      }
    ]
  },
  {
    "postal": "N8H5A6",
    "result": [
      {
        "electoralDistricts": [
          {
            "election": null,
            "id": 18,
            "name": "Chatham-Kent—Leamington"
          }
        ],
        "pollDivisionIds": [
          10137520
        ],
        "postalCode": "N8H5A6",
        "streetName": "CHERRY",
        "streetDirectionId": null,
        "streetTypeId": "LANE",
        "placeName": "LEAMINGTON",
        "streetNameDisplayText": "CHERRY LANE, LEAMINGTON"
      }
    ]
  },
  {
    "postal": "N8H4M0",
    "result": []
  },
  {
    "postal": "N8H3V6",
    "result": [
      {
        "electoralDistricts": [
          {
            "election": null,
            "id": 18,
            "name": "Chatham-Kent—Leamington"
          }
        ],
        "pollDivisionIds": [
          10137514
        ],
        "postalCode": "N8H3V6",
        "streetName": "77",
        "streetDirectionId": null,
        "streetTypeId": "HWY",
        "placeName": "LEAMINGTON",
        "streetNameDisplayText": "77 HWY, LEAMINGTON"
      },
      {
        "electoralDistricts": [
          {
            "election": null,
            "id": 18,
            "name": "Chatham-Kent—Leamington"
          }
        ],
        "pollDivisionIds": [
          10137514
        ],
        "postalCode": "N8H3V6",
        "streetName": "COUNTY 14",
        "streetDirectionId": null,
        "streetTypeId": "RD",
        "placeName": "LEAMINGTON",
        "streetNameDisplayText": "COUNTY 14 RD, LEAMINGTON"
      },
      {
        "electoralDistricts": [
          {
            "election": null,
            "id": 18,
            "name": "Chatham-Kent—Leamington"
          }
        ],
        "pollDivisionIds": [
          10137525
        ],
        "postalCode": "N8H3V6",
        "streetName": "COUNTY 37",
        "streetDirectionId": null,
        "streetTypeId": "RD",
        "placeName": "LEAMINGTON",
        "streetNameDisplayText": "COUNTY 37 RD, LEAMINGTON"
      },
      {
        "electoralDistricts": [
          {
            "election": null,
            "id": 18,
            "name": "Chatham-Kent—Leamington"
          }
        ],
        "pollDivisionIds": [
          10137525
        ],
        "postalCode": "N8H3V6",
        "streetName": "COUNTY 37",
        "streetDirectionId": null,
        "streetTypeId": "RD",
        "placeName": "WHEATLEY",
        "streetNameDisplayText": "COUNTY 37 RD, WHEATLEY"
      },
      {
        "electoralDistricts": [
          {
            "election": null,
            "id": 18,
            "name": "Chatham-Kent—Leamington"
          }
        ],
        "pollDivisionIds": [
          10137525
        ],
        "postalCode": "N8H3V6",
        "streetName": "COUNTY RD 37",
        "streetDirectionId": null,
        "streetTypeId": null,
        "placeName": "WHEATLEY",
        "streetNameDisplayText": "COUNTY RD 37, WHEATLEY"
      },
      {
        "electoralDistricts": [
          {
            "election": null,
            "id": 18,
            "name": "Chatham-Kent—Leamington"
          }
        ],
        "pollDivisionIds": [
          10137525
        ],
        "postalCode": "N8H3V6",
        "streetName": "ESSEX COUNTY RD 37",
        "streetDirectionId": null,
        "streetTypeId": "RD",
        "placeName": "LEAMINGTON",
        "streetNameDisplayText": "ESSEX COUNTY RD 37 RD, LEAMINGTON"
      },
      {
        "electoralDistricts": [
          {
            "election": null,
            "id": 18,
            "name": "Chatham-Kent—Leamington"
          }
        ],
        "pollDivisionIds": [
          10137514,
          10137517
        ],
        "postalCode": "N8H3V6",
        "streetName": "MERSEA 12",
        "streetDirectionId": null,
        "streetTypeId": "RD",
        "placeName": "LEAMINGTON",
        "streetNameDisplayText": "MERSEA 12 RD, LEAMINGTON"
      },
      {
        "electoralDistricts": [
          {
            "election": null,
            "id": 18,
            "name": "Chatham-Kent—Leamington"
          }
        ],
        "pollDivisionIds": [
          10137525,
          10137517,
          10137514
        ],
        "postalCode": "N8H3V6",
        "streetName": "MERSEA 15",
        "streetDirectionId": null,
        "streetTypeId": "RD",
        "placeName": "LEAMINGTON",
        "streetNameDisplayText": "MERSEA 15 RD, LEAMINGTON"
      },
      {
        "electoralDistricts": [
          {
            "election": null,
            "id": 18,
            "name": "Chatham-Kent—Leamington"
          }
        ],
        "pollDivisionIds": [
          10137525
        ],
        "postalCode": "N8H3V6",
        "streetName": "MERSEA 19",
        "streetDirectionId": null,
        "streetTypeId": "RD",
        "placeName": "LEAMINGTON",
        "streetNameDisplayText": "MERSEA 19 RD, LEAMINGTON"
      },
      {
        "electoralDistricts": [
          {
            "election": null,
            "id": 18,
            "name": "Chatham-Kent—Leamington"
          }
        ],
        "pollDivisionIds": [
          10137514
        ],
        "postalCode": "N8H3V6",
        "streetName": "MERSEA 4",
        "streetDirectionId": null,
        "streetTypeId": "RD",
        "placeName": "LEAMINGTON",
        "streetNameDisplayText": "MERSEA 4 RD, LEAMINGTON"
      },
      {
        "electoralDistricts": [
          {
            "election": null,
            "id": 18,
            "name": "Chatham-Kent—Leamington"
          }
        ],
        "pollDivisionIds": [
          10137514,
          10137525,
          10137524,
          10137520
        ],
        "postalCode": "N8H3V6",
        "streetName": "MERSEA 5",
        "streetDirectionId": null,
        "streetTypeId": "RD",
        "placeName": "LEAMINGTON",
        "streetNameDisplayText": "MERSEA 5 RD, LEAMINGTON"
      },
      {
        "electoralDistricts": [
          {
            "election": null,
            "id": 18,
            "name": "Chatham-Kent—Leamington"
          }
        ],
        "pollDivisionIds": [
          10137514
        ],
        "postalCode": "N8H3V6",
        "streetName": "MERSEA 6",
        "streetDirectionId": null,
        "streetTypeId": "RD",
        "placeName": "LEAMINGTON",
        "streetNameDisplayText": "MERSEA 6 RD, LEAMINGTON"
      },
      {
        "electoralDistricts": [
          {
            "election": null,
            "id": 18,
            "name": "Chatham-Kent—Leamington"
          }
        ],
        "pollDivisionIds": [
          10137525
        ],
        "postalCode": "N8H3V6",
        "streetName": "MERSEA RD 5",
        "streetDirectionId": null,
        "streetTypeId": null,
        "placeName": "LEAMINGTON",
        "streetNameDisplayText": "MERSEA RD 5, LEAMINGTON"
      },
      {
        "electoralDistricts": [
          {
            "election": null,
            "id": 18,
            "name": "Chatham-Kent—Leamington"
          }
        ],
        "pollDivisionIds": [
          10137525
        ],
        "postalCode": "N8H3V6",
        "streetName": "MERSEA ROAD 19",
        "streetDirectionId": null,
        "streetTypeId": null,
        "placeName": "LEAMINGTON",
        "streetNameDisplayText": "MERSEA ROAD 19, LEAMINGTON"
      },
      {
        "electoralDistricts": [
          {
            "election": null,
            "id": 18,
            "name": "Chatham-Kent—Leamington"
          }
        ],
        "pollDivisionIds": [
          10137525
        ],
        "postalCode": "N8H3V6",
        "streetName": "MERSEA ROAD 5",
        "streetDirectionId": null,
        "streetTypeId": null,
        "placeName": "LEAMINGTON",
        "streetNameDisplayText": "MERSEA ROAD 5, LEAMINGTON"
      },
      {
        "electoralDistricts": [
          {
            "election": null,
            "id": 18,
            "name": "Chatham-Kent—Leamington"
          }
        ],
        "pollDivisionIds": [
          10137514,
          10137517,
          10137525
        ],
        "postalCode": "N8H3V6",
        "streetName": "TALBOT",
        "streetDirectionId": "E",
        "streetTypeId": "RD",
        "placeName": "LEAMINGTON",
        "streetNameDisplayText": "TALBOT RD E, LEAMINGTON"
      },
      {
        "electoralDistricts": [
          {
            "election": null,
            "id": 18,
            "name": "Chatham-Kent—Leamington"
          }
        ],
        "pollDivisionIds": [
          10137524,
          10137525
        ],
        "postalCode": "N8H3V6",
        "streetName": "TALBOT",
        "streetDirectionId": "E",
        "streetTypeId": "RD",
        "placeName": "WHEATLEY",
        "streetNameDisplayText": "TALBOT RD E, WHEATLEY"
      },
      {
        "electoralDistricts": [
          {
            "election": null,
            "id": 18,
            "name": "Chatham-Kent—Leamington"
          }
        ],
        "pollDivisionIds": [
          10137516
        ],
        "postalCode": "N8H3V6",
        "streetName": "TALBOT",
        "streetDirectionId": "W",
        "streetTypeId": "RD",
        "placeName": "LEAMINGTON",
        "streetNameDisplayText": "TALBOT RD W, LEAMINGTON"
      },
      {
        "electoralDistricts": [
          {
            "election": null,
            "id": 18,
            "name": "Chatham-Kent—Leamington"
          }
        ],
        "pollDivisionIds": [
          10137517
        ],
        "postalCode": "N8H3V6",
        "streetName": "TALBOT RDE",
        "streetDirectionId": null,
        "streetTypeId": null,
        "placeName": "LEAMINGTON",
        "streetNameDisplayText": "TALBOT RDE, LEAMINGTON"
      },
      {
        "electoralDistricts": [
          {
            "election": null,
            "id": 18,
            "name": "Chatham-Kent—Leamington"
          }
        ],
        "pollDivisionIds": [
          10137514
        ],
        "postalCode": "N8H3V6",
        "streetName": "TALBOT",
        "streetDirectionId": "E",
        "streetTypeId": "ST",
        "placeName": "LEAMINGTON",
        "streetNameDisplayText": "TALBOT ST E, LEAMINGTON"
      },
      {
        "electoralDistricts": [
          {
            "election": null,
            "id": 18,
            "name": "Chatham-Kent—Leamington"
          }
        ],
        "pollDivisionIds": [
          10137514
        ],
        "postalCode": "N8H3V6",
        "streetName": "WILLAN",
        "streetDirectionId": null,
        "streetTypeId": "LANE",
        "placeName": "LEAMINGTON",
        "streetNameDisplayText": "WILLAN LANE, LEAMINGTON"
      }
    ]
  },
  {
    "postal": "N8H1L7",
    "result": [
      {
        "electoralDistricts": [
          {
            "election": null,
            "id": 18,
            "name": "Chatham-Kent—Leamington"
          }
        ],
        "pollDivisionIds": [
          10137517
        ],
        "postalCode": "N8H1L7",
        "streetName": "TALBOT",
        "streetDirectionId": "E",
        "streetTypeId": "ST",
        "placeName": "LEAMINGTON",
        "streetNameDisplayText": "TALBOT ST E, LEAMINGTON"
      }
    ]
  },
  {
    "postal": "N8H2P9",
    "result": [
      {
        "electoralDistricts": [
          {
            "election": null,
            "id": 18,
            "name": "Chatham-Kent—Leamington"
          }
        ],
        "pollDivisionIds": [
          10137518
        ],
        "postalCode": "N8H2P9",
        "streetName": "DANFORTH",
        "streetDirectionId": null,
        "streetTypeId": "AVE",
        "placeName": "LEAMINGTON",
        "streetNameDisplayText": "DANFORTH AVE, LEAMINGTON"
      }
    ]
  },
  {
    "postal": "N8H5T4",
    "result": []
  },
  {
    "postal": "N8H5Z1",
    "result": []
  },
  {
    "postal": "N8H2X0",
    "result": []
  },
  {
    "postal": "N8H6Z2",
    "result": []
  },
  {
    "postal": "N8H0E0",
    "result": []
  },
  {
    "postal": "N8H3Z5",
    "result": [
      {
        "electoralDistricts": [
          {
            "election": null,
            "id": 18,
            "name": "Chatham-Kent—Leamington"
          }
        ],
        "pollDivisionIds": [
          10137516
        ],
        "postalCode": "N8H3Z5",
        "streetName": "LYON",
        "streetDirectionId": null,
        "streetTypeId": "AVE",
        "placeName": "LEAMINGTON",
        "streetNameDisplayText": "LYON AVE, LEAMINGTON"
      }
    ]
  },
  {
    "postal": "N8H8H3",
    "result": []
  },
  {
    "postal": "N8H7S6",
    "result": []
  },
  {
    "postal": "N8H4C1",
    "result": [
      {
        "electoralDistricts": [
          {
            "election": null,
            "id": 18,
            "name": "Chatham-Kent—Leamington"
          }
        ],
        "pollDivisionIds": [
          10137517
        ],
        "postalCode": "N8H4C1",
        "streetName": "LUTSCH",
        "streetDirectionId": null,
        "streetTypeId": "AVE",
        "placeName": "LEAMINGTON",
        "streetNameDisplayText": "LUTSCH AVE, LEAMINGTON"
      }
    ]
  },
  {
    "postal": "N8H3K2",
    "result": [
      {
        "electoralDistricts": [
          {
            "election": null,
            "id": 18,
            "name": "Chatham-Kent—Leamington"
          }
        ],
        "pollDivisionIds": [
          10137516
        ],
        "postalCode": "N8H3K2",
        "streetName": "CHESTNUT",
        "streetDirectionId": null,
        "streetTypeId": "ST",
        "placeName": "LEAMINGTON",
        "streetNameDisplayText": "CHESTNUT ST, LEAMINGTON"
      }
    ]
  },
  {
    "postal": "N8H1Y5",
    "result": [
      {
        "electoralDistricts": [
          {
            "election": null,
            "id": 18,
            "name": "Chatham-Kent—Leamington"
          }
        ],
        "pollDivisionIds": [
          10137517
        ],
        "postalCode": "N8H1Y5",
        "streetName": "ROBINSON",
        "streetDirectionId": null,
        "streetTypeId": "ST",
        "placeName": "LEAMINGTON",
        "streetNameDisplayText": "ROBINSON ST, LEAMINGTON"
      }
    ]
  },
  {
    "postal": "N8H6P6",
    "result": []
  },
  {
    "postal": "N8H3N9",
    "result": [
      {
        "electoralDistricts": [
          {
            "election": null,
            "id": 18,
            "name": "Chatham-Kent—Leamington"
          }
        ],
        "pollDivisionIds": [
          10137516
        ],
        "postalCode": "N8H3N9",
        "streetName": "ROGER",
        "streetDirectionId": null,
        "streetTypeId": "ST",
        "placeName": "LEAMINGTON",
        "streetNameDisplayText": "ROGER ST, LEAMINGTON"
      }
    ]
  },
  {
    "postal": "N8H3W2",
    "result": []
  },
  {
    "postal": "N8H6H8",
    "result": []
  },
  {
    "postal": "N8H9T3",
    "result": []
  },
  {
    "postal": "N8H5L9",
    "result": []
  },
  {
    "postal": "N8H7X7",
    "result": []
  },
  {
    "postal": "N8H3J5",
    "result": [
      {
        "electoralDistricts": [
          {
            "election": null,
            "id": 18,
            "name": "Chatham-Kent—Leamington"
          }
        ],
        "pollDivisionIds": [
          10137516
        ],
        "postalCode": "N8H3J5",
        "streetName": "FOX",
        "streetDirectionId": null,
        "streetTypeId": "ST",
        "placeName": "LEAMINGTON",
        "streetNameDisplayText": "FOX ST, LEAMINGTON"
      }
    ]
  },
  {
    "postal": "N8H4J5",
    "result": [
      {
        "electoralDistricts": [
          {
            "election": null,
            "id": 18,
            "name": "Chatham-Kent—Leamington"
          }
        ],
        "pollDivisionIds": [
          10137520
        ],
        "postalCode": "N8H4J5",
        "streetName": "DONALD",
        "streetDirectionId": null,
        "streetTypeId": "AVE",
        "placeName": "LEAMINGTON",
        "streetNameDisplayText": "DONALD AVE, LEAMINGTON"
      }
    ]
  },
  {
    "postal": "N8H6J2",
    "result": []
  },
  {
    "postal": "N8H5V6",
    "result": []
  },
  {
    "postal": "N8H3N2",
    "result": [
      {
        "electoralDistricts": [
          {
            "election": null,
            "id": 18,
            "name": "Chatham-Kent—Leamington"
          }
        ],
        "pollDivisionIds": [
          10137516
        ],
        "postalCode": "N8H3N2",
        "streetName": "M C R",
        "streetDirectionId": null,
        "streetTypeId": "DR",
        "placeName": "LEAMINGTON",
        "streetNameDisplayText": "M C R DR, LEAMINGTON"
      }
    ]
  },
  {
    "postal": "N8H3B1",
    "result": [
      {
        "electoralDistricts": [
          {
            "election": null,
            "id": 18,
            "name": "Chatham-Kent—Leamington"
          }
        ],
        "pollDivisionIds": [
          10137517
        ],
        "postalCode": "N8H3B1",
        "streetName": "ERIE",
        "streetDirectionId": "S",
        "streetTypeId": "ST",
        "placeName": "LEAMINGTON",
        "streetNameDisplayText": "ERIE ST S, LEAMINGTON"
      }
    ]
  },
  {
    "postal": "N8H8B5",
    "result": []
  },
  {
    "postal": "N8H0K1",
    "result": []
  },
  {
    "postal": "N8H7M7",
    "result": []
  },
  {
    "postal": "N8H2M2",
    "result": [
      {
        "electoralDistricts": [
          {
            "election": null,
            "id": 18,
            "name": "Chatham-Kent—Leamington"
          }
        ],
        "pollDivisionIds": [
          10137520
        ],
        "postalCode": "N8H2M2",
        "streetName": "FRANKLIN",
        "streetDirectionId": null,
        "streetTypeId": "RD",
        "placeName": "LEAMINGTON",
        "streetNameDisplayText": "FRANKLIN RD, LEAMINGTON"
      }
    ]
  },
  {
    "postal": "N8H9N3",
    "result": []
  },
  {
    "postal": "N8H4Y8",
    "result": []
  },
  {
    "postal": "N8H3V7",
    "result": [
      {
        "electoralDistricts": [
          {
            "election": null,
            "id": 18,
            "name": "Chatham-Kent—Leamington"
          }
        ],
        "pollDivisionIds": [
          10137520
        ],
        "postalCode": "N8H3V7",
        "streetName": "CONCESSION 1",
        "streetDirectionId": null,
        "streetTypeId": null,
        "placeName": "LEAMINGTON",
        "streetNameDisplayText": "CONCESSION 1, LEAMINGTON"
      },
      {
        "electoralDistricts": [
          {
            "election": null,
            "id": 18,
            "name": "Chatham-Kent—Leamington"
          }
        ],
        "pollDivisionIds": [
          10137514
        ],
        "postalCode": "N8H3V7",
        "streetName": "COUNTY 14",
        "streetDirectionId": null,
        "streetTypeId": "RD",
        "placeName": "LEAMINGTON",
        "streetNameDisplayText": "COUNTY 14 RD, LEAMINGTON"
      },
      {
        "electoralDistricts": [
          {
            "election": null,
            "id": 18,
            "name": "Chatham-Kent—Leamington"
          }
        ],
        "pollDivisionIds": [
          10137520
        ],
        "postalCode": "N8H3V7",
        "streetName": "COUNTY 20",
        "streetDirectionId": null,
        "streetTypeId": "RD",
        "placeName": "LEAMINGTON",
        "streetNameDisplayText": "COUNTY 20 RD, LEAMINGTON"
      },
      {
        "electoralDistricts": [
          {
            "election": null,
            "id": 18,
            "name": "Chatham-Kent—Leamington"
          }
        ],
        "pollDivisionIds": [
          10137520
        ],
        "postalCode": "N8H3V7",
        "streetName": "COUNTY RD 20",
        "streetDirectionId": null,
        "streetTypeId": null,
        "placeName": "LEAMINGTON",
        "streetNameDisplayText": "COUNTY RD 20, LEAMINGTON"
      },
      {
        "electoralDistricts": [
          {
            "election": null,
            "id": 18,
            "name": "Chatham-Kent—Leamington"
          }
        ],
        "pollDivisionIds": [
          10137525,
          10137517,
          10137520
        ],
        "postalCode": "N8H3V7",
        "streetName": "DEER RUN",
        "streetDirectionId": null,
        "streetTypeId": "RD",
        "placeName": "LEAMINGTON",
        "streetNameDisplayText": "DEER RUN RD, LEAMINGTON"
      },
      {
        "electoralDistricts": [
          {
            "election": null,
            "id": 18,
            "name": "Chatham-Kent—Leamington"
          }
        ],
        "pollDivisionIds": [
          10137520
        ],
        "postalCode": "N8H3V7",
        "streetName": "EAST BEACH",
        "streetDirectionId": null,
        "streetTypeId": "RD",
        "placeName": "LEAMINGTON",
        "streetNameDisplayText": "EAST BEACH RD, LEAMINGTON"
      },
      {
        "electoralDistricts": [
          {
            "election": null,
            "id": 18,
            "name": "Chatham-Kent—Leamington"
          }
        ],
        "pollDivisionIds": [
          10137525,
          10137520
        ],
        "postalCode": "N8H3V7",
        "streetName": "FOX RUN",
        "streetDirectionId": null,
        "streetTypeId": "RD",
        "placeName": "LEAMINGTON",
        "streetNameDisplayText": "FOX RUN RD, LEAMINGTON"
      },
      {
        "electoralDistricts": [
          {
            "election": null,
            "id": 18,
            "name": "Chatham-Kent—Leamington"
          }
        ],
        "pollDivisionIds": [
          10137520
        ],
        "postalCode": "N8H3V7",
        "streetName": "IROQUOIS",
        "streetDirectionId": null,
        "streetTypeId": "RD",
        "placeName": "LEAMINGTON",
        "streetNameDisplayText": "IROQUOIS RD, LEAMINGTON"
      },
      {
        "electoralDistricts": [
          {
            "election": null,
            "id": 18,
            "name": "Chatham-Kent—Leamington"
          }
        ],
        "pollDivisionIds": [
          10137520
        ],
        "postalCode": "N8H3V7",
        "streetName": "JULIEN",
        "streetDirectionId": null,
        "streetTypeId": "AVE",
        "placeName": "LEAMINGTON",
        "streetNameDisplayText": "JULIEN AVE, LEAMINGTON"
      },
      {
        "electoralDistricts": [
          {
            "election": null,
            "id": 18,
            "name": "Chatham-Kent—Leamington"
          }
        ],
        "pollDivisionIds": [
          10137520
        ],
        "postalCode": "N8H3V7",
        "streetName": "KILDEER",
        "streetDirectionId": null,
        "streetTypeId": "RD",
        "placeName": "LEAMINGTON",
        "streetNameDisplayText": "KILDEER RD, LEAMINGTON"
      },
      {
        "electoralDistricts": [
          {
            "election": null,
            "id": 18,
            "name": "Chatham-Kent—Leamington"
          }
        ],
        "pollDivisionIds": [
          10137520
        ],
        "postalCode": "N8H3V7",
        "streetName": "MARENTETTE",
        "streetDirectionId": null,
        "streetTypeId": "BEACH",
        "placeName": "LEAMINGTON",
        "streetNameDisplayText": "MARENTETTE BEACH, LEAMINGTON"
      },
      {
        "electoralDistricts": [
          {
            "election": null,
            "id": 18,
            "name": "Chatham-Kent—Leamington"
          }
        ],
        "pollDivisionIds": [
          10137520,
          10137516
        ],
        "postalCode": "N8H3V7",
        "streetName": "MERSEA 1",
        "streetDirectionId": null,
        "streetTypeId": "RD",
        "placeName": "LEAMINGTON",
        "streetNameDisplayText": "MERSEA 1 RD, LEAMINGTON"
      },
      {
        "electoralDistricts": [
          {
            "election": null,
            "id": 18,
            "name": "Chatham-Kent—Leamington"
          }
        ],
        "pollDivisionIds": [
          10137517,
          10137520
        ],
        "postalCode": "N8H3V7",
        "streetName": "MERSEA 12",
        "streetDirectionId": null,
        "streetTypeId": "RD",
        "placeName": "LEAMINGTON",
        "streetNameDisplayText": "MERSEA 12 RD, LEAMINGTON"
      },
      {
        "electoralDistricts": [
          {
            "election": null,
            "id": 18,
            "name": "Chatham-Kent—Leamington"
          }
        ],
        "pollDivisionIds": [
          10137517,
          10137525,
          10137520
        ],
        "postalCode": "N8H3V7",
        "streetName": "MERSEA 15",
        "streetDirectionId": null,
        "streetTypeId": "RD",
        "placeName": "LEAMINGTON",
        "streetNameDisplayText": "MERSEA 15 RD, LEAMINGTON"
      },
      {
        "electoralDistricts": [
          {
            "election": null,
            "id": 18,
            "name": "Chatham-Kent—Leamington"
          }
        ],
        "pollDivisionIds": [
          10137520
        ],
        "postalCode": "N8H3V7",
        "streetName": "MERSEA 19",
        "streetDirectionId": null,
        "streetTypeId": "RD",
        "placeName": "LEAMINGTON",
        "streetNameDisplayText": "MERSEA 19 RD, LEAMINGTON"
      },
      {
        "electoralDistricts": [
          {
            "election": null,
            "id": 18,
            "name": "Chatham-Kent—Leamington"
          }
        ],
        "pollDivisionIds": [
          10137517,
          10137520
        ],
        "postalCode": "N8H3V7",
        "streetName": "MERSEA 2",
        "streetDirectionId": null,
        "streetTypeId": "RD",
        "placeName": "LEAMINGTON",
        "streetNameDisplayText": "MERSEA 2 RD, LEAMINGTON"
      },
      {
        "electoralDistricts": [
          {
            "election": null,
            "id": 18,
            "name": "Chatham-Kent—Leamington"
          }
        ],
        "pollDivisionIds": [
          10137525,
          10137520
        ],
        "postalCode": "N8H3V7",
        "streetName": "MERSEA 21",
        "streetDirectionId": null,
        "streetTypeId": "RD",
        "placeName": "LEAMINGTON",
        "streetNameDisplayText": "MERSEA 21 RD, LEAMINGTON"
      },
      {
        "electoralDistricts": [
          {
            "election": null,
            "id": 18,
            "name": "Chatham-Kent—Leamington"
          }
        ],
        "pollDivisionIds": [
          10137514
        ],
        "postalCode": "N8H3V7",
        "streetName": "MERSEA 6",
        "streetDirectionId": null,
        "streetTypeId": "RD",
        "placeName": "LEAMINGTON",
        "streetNameDisplayText": "MERSEA 6 RD, LEAMINGTON"
      },
      {
        "electoralDistricts": [
          {
            "election": null,
            "id": 18,
            "name": "Chatham-Kent—Leamington"
          }
        ],
        "pollDivisionIds": [
          10137520
        ],
        "postalCode": "N8H3V7",
        "streetName": "MERSEA B",
        "streetDirectionId": null,
        "streetTypeId": "RD",
        "placeName": "LEAMINGTON",
        "streetNameDisplayText": "MERSEA B RD, LEAMINGTON"
      },
      {
        "electoralDistricts": [
          {
            "election": null,
            "id": 18,
            "name": "Chatham-Kent—Leamington"
          }
        ],
        "pollDivisionIds": [
          10137520
        ],
        "postalCode": "N8H3V7",
        "streetName": "MERSEA C",
        "streetDirectionId": null,
        "streetTypeId": "RD",
        "placeName": "LEAMINGTON",
        "streetNameDisplayText": "MERSEA C RD, LEAMINGTON"
      },
      {
        "electoralDistricts": [
          {
            "election": null,
            "id": 18,
            "name": "Chatham-Kent—Leamington"
          }
        ],
        "pollDivisionIds": [
          10137514
        ],
        "postalCode": "N8H3V7",
        "streetName": "MERSEA RD 15",
        "streetDirectionId": null,
        "streetTypeId": null,
        "placeName": "LEAMINGTON",
        "streetNameDisplayText": "MERSEA RD 15, LEAMINGTON"
      },
      {
        "electoralDistricts": [
          {
            "election": null,
            "id": 18,
            "name": "Chatham-Kent—Leamington"
          }
        ],
        "pollDivisionIds": [
          10137517
        ],
        "postalCode": "N8H3V7",
        "streetName": "MERSEA RD 2",
        "streetDirectionId": null,
        "streetTypeId": null,
        "placeName": "LEAMINGTON",
        "streetNameDisplayText": "MERSEA RD 2, LEAMINGTON"
      },
      {
        "electoralDistricts": [
          {
            "election": null,
            "id": 18,
            "name": "Chatham-Kent—Leamington"
          }
        ],
        "pollDivisionIds": [
          10137520,
          10143123
        ],
        "postalCode": "N8H3V7",
        "streetName": "MERSEA ROAD 1",
        "streetDirectionId": null,
        "streetTypeId": null,
        "placeName": "LEAMINGTON",
        "streetNameDisplayText": "MERSEA ROAD 1, LEAMINGTON"
      },
      {
        "electoralDistricts": [
          {
            "election": null,
            "id": 18,
            "name": "Chatham-Kent—Leamington"
          }
        ],
        "pollDivisionIds": [
          10137520
        ],
        "postalCode": "N8H3V7",
        "streetName": "MERSEA ROAD 19",
        "streetDirectionId": null,
        "streetTypeId": null,
        "placeName": "LEAMINGTON",
        "streetNameDisplayText": "MERSEA ROAD 19, LEAMINGTON"
      },
      {
        "electoralDistricts": [
          {
            "election": null,
            "id": 18,
            "name": "Chatham-Kent—Leamington"
          }
        ],
        "pollDivisionIds": [
          10137520
        ],
        "postalCode": "N8H3V7",
        "streetName": "MERSEA ROAD 2",
        "streetDirectionId": null,
        "streetTypeId": null,
        "placeName": "LEAMINGTON",
        "streetNameDisplayText": "MERSEA ROAD 2, LEAMINGTON"
      },
      {
        "electoralDistricts": [
          {
            "election": null,
            "id": 18,
            "name": "Chatham-Kent—Leamington"
          }
        ],
        "pollDivisionIds": [
          10137520
        ],
        "postalCode": "N8H3V7",
        "streetName": "MERSEA ROAD B",
        "streetDirectionId": null,
        "streetTypeId": null,
        "placeName": "LEAMINGTON",
        "streetNameDisplayText": "MERSEA ROAD B, LEAMINGTON"
      },
      {
        "electoralDistricts": [
          {
            "election": null,
            "id": 18,
            "name": "Chatham-Kent—Leamington"
          }
        ],
        "pollDivisionIds": [
          10137518,
          10143123
        ],
        "postalCode": "N8H3V7",
        "streetName": "OAK",
        "streetDirectionId": "E",
        "streetTypeId": "ST",
        "placeName": "LEAMINGTON",
        "streetNameDisplayText": "OAK ST E, LEAMINGTON"
      },
      {
        "electoralDistricts": [
          {
            "election": null,
            "id": 18,
            "name": "Chatham-Kent—Leamington"
          }
        ],
        "pollDivisionIds": [
          10137518,
          10137520
        ],
        "postalCode": "N8H3V7",
        "streetName": "SEACLIFF",
        "streetDirectionId": "E",
        "streetTypeId": "DR",
        "placeName": "LEAMINGTON",
        "streetNameDisplayText": "SEACLIFF DR E, LEAMINGTON"
      },
      {
        "electoralDistricts": [
          {
            "election": null,
            "id": 18,
            "name": "Chatham-Kent—Leamington"
          }
        ],
        "pollDivisionIds": [
          10137520
        ],
        "postalCode": "N8H3V7",
        "streetName": "SILVER",
        "streetDirectionId": null,
        "streetTypeId": "AVE",
        "placeName": "LEAMINGTON",
        "streetNameDisplayText": "SILVER AVE, LEAMINGTON"
      }
    ]
  },
  {
    "postal": "N8H8Z1",
    "result": []
  },
  {
    "postal": "N8H7B3",
    "result": []
  },
  {
    "postal": "N8H3A8",
    "result": [
      {
        "electoralDistricts": [
          {
            "election": null,
            "id": 18,
            "name": "Chatham-Kent—Leamington"
          }
        ],
        "pollDivisionIds": [
          10137517
        ],
        "postalCode": "N8H3A8",
        "streetName": "ERIE",
        "streetDirectionId": "S",
        "streetTypeId": "ST",
        "placeName": "LEAMINGTON",
        "streetNameDisplayText": "ERIE ST S, LEAMINGTON"
      }
    ]
  },
  {
    "postal": "N8H7V5",
    "result": []
  },
  {
    "postal": "N8H2T2",
    "result": [
      {
        "electoralDistricts": [
          {
            "election": null,
            "id": 18,
            "name": "Chatham-Kent—Leamington"
          }
        ],
        "pollDivisionIds": [
          10137518
        ],
        "postalCode": "N8H2T2",
        "streetName": "WIGLE",
        "streetDirectionId": null,
        "streetTypeId": "ST",
        "placeName": "LEAMINGTON",
        "streetNameDisplayText": "WIGLE ST, LEAMINGTON"
      }
    ]
  },
  {
    "postal": "N8H6L3",
    "result": []
  },
  {
    "postal": "N8H0L2",
    "result": []
  },
  {
    "postal": "N8H5Y8",
    "result": []
  },
  {
    "postal": "N8H0B8",
    "result": []
  },
  {
    "postal": "N8H6R5",
    "result": []
  },
  {
    "postal": "N8H8W6",
    "result": []
  },
  {
    "postal": "N8H8G6",
    "result": []
  },
  {
    "postal": "N8H6X3",
    "result": []
  },
  {
    "postal": "N8H7R7",
    "result": []
  },
  {
    "postal": "N8H4B6",
    "result": [
      {
        "electoralDistricts": [
          {
            "election": null,
            "id": 18,
            "name": "Chatham-Kent—Leamington"
          }
        ],
        "pollDivisionIds": [
          10137516
        ],
        "postalCode": "N8H4B6",
        "streetName": "BRANTON",
        "streetDirectionId": null,
        "streetTypeId": "DR",
        "placeName": "LEAMINGTON",
        "streetNameDisplayText": "BRANTON DR, LEAMINGTON"
      }
    ]
  },
  {
    "postal": "N8H3P9",
    "result": [
      {
        "electoralDistricts": [
          {
            "election": null,
            "id": 18,
            "name": "Chatham-Kent—Leamington"
          }
        ],
        "pollDivisionIds": [
          10137516
        ],
        "postalCode": "N8H3P9",
        "streetName": "KIMBALL",
        "streetDirectionId": null,
        "streetTypeId": "AVE",
        "placeName": "LEAMINGTON",
        "streetNameDisplayText": "KIMBALL AVE, LEAMINGTON"
      }
    ]
  },
  {
    "postal": "N8H2T3",
    "result": [
      {
        "electoralDistricts": [
          {
            "election": null,
            "id": 18,
            "name": "Chatham-Kent—Leamington"
          }
        ],
        "pollDivisionIds": [
          10137517
        ],
        "postalCode": "N8H2T3",
        "streetName": "WIGLE",
        "streetDirectionId": null,
        "streetTypeId": "ST",
        "placeName": "LEAMINGTON",
        "streetNameDisplayText": "WIGLE ST, LEAMINGTON"
      }
    ]
  },
  {
    "postal": "N8H1M4",
    "result": [
      {
        "electoralDistricts": [
          {
            "election": null,
            "id": 18,
            "name": "Chatham-Kent—Leamington"
          }
        ],
        "pollDivisionIds": [
          10137517
        ],
        "postalCode": "N8H1M4",
        "streetName": "TALBOT",
        "streetDirectionId": "W",
        "streetTypeId": "ST",
        "placeName": "LEAMINGTON",
        "streetNameDisplayText": "TALBOT ST W, LEAMINGTON"
      }
    ]
  },
  {
    "postal": "N8H0H1",
    "result": []
  },
  {
    "postal": "N8H9W3",
    "result": []
  },
  {
    "postal": "N8H6P1",
    "result": []
  },
  {
    "postal": "N8H7G2",
    "result": []
  },
  {
    "postal": "N8H4J9",
    "result": [
      {
        "electoralDistricts": [
          {
            "election": null,
            "id": 18,
            "name": "Chatham-Kent—Leamington"
          }
        ],
        "pollDivisionIds": [
          10137517
        ],
        "postalCode": "N8H4J9",
        "streetName": "MILL",
        "streetDirectionId": "E",
        "streetTypeId": "ST",
        "placeName": "LEAMINGTON",
        "streetNameDisplayText": "MILL ST E, LEAMINGTON"
      }
    ]
  },
  {
    "postal": "N8H9E4",
    "result": []
  },
  {
    "postal": "N8H8H0",
    "result": []
  },
  {
    "postal": "N8H4M7",
    "result": [
      {
        "electoralDistricts": [
          {
            "election": null,
            "id": 18,
            "name": "Chatham-Kent—Leamington"
          }
        ],
        "pollDivisionIds": [
          10143123
        ],
        "postalCode": "N8H4M7",
        "streetName": "LITHGOW",
        "streetDirectionId": null,
        "streetTypeId": "AVE",
        "placeName": "LEAMINGTON",
        "streetNameDisplayText": "LITHGOW AVE, LEAMINGTON"
      }
    ]
  },
  {
    "postal": "N8H2G9",
    "result": [
      {
        "electoralDistricts": [
          {
            "election": null,
            "id": 18,
            "name": "Chatham-Kent—Leamington"
          }
        ],
        "pollDivisionIds": [
          10143123
        ],
        "postalCode": "N8H2G9",
        "streetName": "ALDERTON",
        "streetDirectionId": null,
        "streetTypeId": "ST",
        "placeName": "LEAMINGTON",
        "streetNameDisplayText": "ALDERTON ST, LEAMINGTON"
      }
    ]
  },
  {
    "postal": "N8H8T2",
    "result": []
  },
  {
    "postal": "N8H7G7",
    "result": []
  },
  {
    "postal": "N8H4Z3",
    "result": []
  },
  {
    "postal": "N8H5B3",
    "result": []
  },
  {
    "postal": "N8H1S7",
    "result": [
      {
        "electoralDistricts": [
          {
            "election": null,
            "id": 18,
            "name": "Chatham-Kent—Leamington"
          }
        ],
        "pollDivisionIds": [
          10137517
        ],
        "postalCode": "N8H1S7",
        "streetName": "MILL",
        "streetDirectionId": "E",
        "streetTypeId": "ST",
        "placeName": "LEAMINGTON",
        "streetNameDisplayText": "MILL ST E, LEAMINGTON"
      },
      {
        "electoralDistricts": [
          {
            "election": null,
            "id": 18,
            "name": "Chatham-Kent—Leamington"
          }
        ],
        "pollDivisionIds": [
          10137517
        ],
        "postalCode": "N8H1S7",
        "streetName": "MILL",
        "streetDirectionId": "W",
        "streetTypeId": "ST",
        "placeName": "LEAMINGTON",
        "streetNameDisplayText": "MILL ST W, LEAMINGTON"
      }
    ]
  },
  {
    "postal": "N8H2N7",
    "result": [
      {
        "electoralDistricts": [
          {
            "election": null,
            "id": 18,
            "name": "Chatham-Kent—Leamington"
          }
        ],
        "pollDivisionIds": [
          10137518
        ],
        "postalCode": "N8H2N7",
        "streetName": "LUTSCH",
        "streetDirectionId": null,
        "streetTypeId": "AVE",
        "placeName": "LEAMINGTON",
        "streetNameDisplayText": "LUTSCH AVE, LEAMINGTON"
      }
    ]
  },
  {
    "postal": "N8H0H8",
    "result": []
  },
  {
    "postal": "N8H7Z4",
    "result": []
  },
  {
    "postal": "N8H7B1",
    "result": []
  },
  {
    "postal": "N8H7P8",
    "result": []
  },
  {
    "postal": "N8H7N0",
    "result": []
  },
  {
    "postal": "N8H3Y5",
    "result": [
      {
        "electoralDistricts": [
          {
            "election": null,
            "id": 18,
            "name": "Chatham-Kent—Leamington"
          }
        ],
        "pollDivisionIds": [
          10137516
        ],
        "postalCode": "N8H3Y5",
        "streetName": "SEACLIFF",
        "streetDirectionId": "W",
        "streetTypeId": "DR",
        "placeName": "LEAMINGTON",
        "streetNameDisplayText": "SEACLIFF DR W, LEAMINGTON"
      }
    ]
  },
  {
    "postal": "N8H6K1",
    "result": []
  },
  {
    "postal": "N8H9X5",
    "result": []
  },
  {
    "postal": "N8H7S5",
    "result": []
  },
  {
    "postal": "N8H0A4",
    "result": [
      {
        "electoralDistricts": [
          {
            "election": null,
            "id": 18,
            "name": "Chatham-Kent—Leamington"
          }
        ],
        "pollDivisionIds": [
          10137520
        ],
        "postalCode": "N8H0A4",
        "streetName": "ROBSON",
        "streetDirectionId": null,
        "streetTypeId": "RD",
        "placeName": "LEAMINGTON",
        "streetNameDisplayText": "ROBSON RD, LEAMINGTON"
      }
    ]
  },
  {
    "postal": "N8H4T5",
    "result": [
      {
        "electoralDistricts": [
          {
            "election": null,
            "id": 18,
            "name": "Chatham-Kent—Leamington"
          }
        ],
        "pollDivisionIds": [
          10137582,
          10143123
        ],
        "postalCode": "N8H4T5",
        "streetName": "PICKWICK",
        "streetDirectionId": null,
        "streetTypeId": "DR",
        "placeName": "LEAMINGTON",
        "streetNameDisplayText": "PICKWICK DR, LEAMINGTON"
      }
    ]
  },
  {
    "postal": "N8H5K1",
    "result": [
      {
        "electoralDistricts": [
          {
            "election": null,
            "id": 18,
            "name": "Chatham-Kent—Leamington"
          }
        ],
        "pollDivisionIds": [
          10143123
        ],
        "postalCode": "N8H5K1",
        "streetName": "BENNIE",
        "streetDirectionId": null,
        "streetTypeId": "AVE",
        "placeName": "LEAMINGTON",
        "streetNameDisplayText": "BENNIE AVE, LEAMINGTON"
      }
    ]
  },
  {
    "postal": "N8H0Z9",
    "result": []
  },
  {
    "postal": "N8H7T2",
    "result": []
  },
  {
    "postal": "N8H1L5",
    "result": [
      {
        "electoralDistricts": [
          {
            "election": null,
            "id": 18,
            "name": "Chatham-Kent—Leamington"
          }
        ],
        "pollDivisionIds": [
          10137517
        ],
        "postalCode": "N8H1L5",
        "streetName": "TALBOT",
        "streetDirectionId": "E",
        "streetTypeId": "ST",
        "placeName": "LEAMINGTON",
        "streetNameDisplayText": "TALBOT ST E, LEAMINGTON"
      }
    ]
  },
  {
    "postal": "N8H3N5",
    "result": [
      {
        "electoralDistricts": [
          {
            "election": null,
            "id": 18,
            "name": "Chatham-Kent—Leamington"
          }
        ],
        "pollDivisionIds": [
          10137515
        ],
        "postalCode": "N8H3N5",
        "streetName": "HODGINS",
        "streetDirectionId": null,
        "streetTypeId": "ST",
        "placeName": "LEAMINGTON",
        "streetNameDisplayText": "HODGINS ST, LEAMINGTON"
      }
    ]
  },
  {
    "postal": "N8H6H4",
    "result": []
  },
  {
    "postal": "N8H5A5",
    "result": [
      {
        "electoralDistricts": [
          {
            "election": null,
            "id": 18,
            "name": "Chatham-Kent—Leamington"
          }
        ],
        "pollDivisionIds": [
          10137520
        ],
        "postalCode": "N8H5A5",
        "streetName": "CHERRY",
        "streetDirectionId": null,
        "streetTypeId": "LANE",
        "placeName": "LEAMINGTON",
        "streetNameDisplayText": "CHERRY LANE, LEAMINGTON"
      }
    ]
  },
  {
    "postal": "N8H3R9",
    "result": [
      {
        "electoralDistricts": [
          {
            "election": null,
            "id": 18,
            "name": "Chatham-Kent—Leamington"
          }
        ],
        "pollDivisionIds": [
          10137516
        ],
        "postalCode": "N8H3R9",
        "streetName": "NICHOLAS",
        "streetDirectionId": null,
        "streetTypeId": "ST",
        "placeName": "LEAMINGTON",
        "streetNameDisplayText": "NICHOLAS ST, LEAMINGTON"
      }
    ]
  },
  {
    "postal": "N8H7L8",
    "result": []
  },
  {
    "postal": "N8H6T6",
    "result": []
  },
  {
    "postal": "N8H7Y7",
    "result": []
  },
  {
    "postal": "N8H3M8",
    "result": [
      {
        "electoralDistricts": [
          {
            "election": null,
            "id": 18,
            "name": "Chatham-Kent—Leamington"
          }
        ],
        "pollDivisionIds": [
          10137515
        ],
        "postalCode": "N8H3M8",
        "streetName": "ELLIOTT",
        "streetDirectionId": null,
        "streetTypeId": "ST",
        "placeName": "LEAMINGTON",
        "streetNameDisplayText": "ELLIOTT ST, LEAMINGTON"
      }
    ]
  },
  {
    "postal": "N8H2E0",
    "result": []
  },
  {
    "postal": "N8H4B5",
    "result": [
      {
        "electoralDistricts": [
          {
            "election": null,
            "id": 18,
            "name": "Chatham-Kent—Leamington"
          }
        ],
        "pollDivisionIds": [
          10137516
        ],
        "postalCode": "N8H4B5",
        "streetName": "LATHROP",
        "streetDirectionId": null,
        "streetTypeId": "LANE",
        "placeName": "LEAMINGTON",
        "streetNameDisplayText": "LATHROP LANE, LEAMINGTON"
      }
    ]
  },
  {
    "postal": "N8H1J3",
    "result": [
      {
        "electoralDistricts": [
          {
            "election": null,
            "id": 18,
            "name": "Chatham-Kent—Leamington"
          }
        ],
        "pollDivisionIds": [
          10137516
        ],
        "postalCode": "N8H1J3",
        "streetName": "PEARL",
        "streetDirectionId": null,
        "streetTypeId": "AVE",
        "placeName": "LEAMINGTON",
        "streetNameDisplayText": "PEARL AVE, LEAMINGTON"
      }
    ]
  },
  {
    "postal": "N8H5S6",
    "result": []
  },
  {
    "postal": "N8H8P7",
    "result": []
  },
  {
    "postal": "N8H7S7",
    "result": []
  },
  {
    "postal": "N8H4C2",
    "result": [
      {
        "electoralDistricts": [
          {
            "election": null,
            "id": 18,
            "name": "Chatham-Kent—Leamington"
          }
        ],
        "pollDivisionIds": [
          10137517
        ],
        "postalCode": "N8H4C2",
        "streetName": "ORANGE",
        "streetDirectionId": null,
        "streetTypeId": "ST",
        "placeName": "LEAMINGTON",
        "streetNameDisplayText": "ORANGE ST, LEAMINGTON"
      }
    ]
  },
  {
    "postal": "N8H5Y0",
    "result": []
  },
  {
    "postal": "N8H2V7",
    "result": [
      {
        "electoralDistricts": [
          {
            "election": null,
            "id": 18,
            "name": "Chatham-Kent—Leamington"
          }
        ],
        "pollDivisionIds": [
          10137515
        ],
        "postalCode": "N8H2V7",
        "streetName": "VICTORIA",
        "streetDirectionId": "N",
        "streetTypeId": "AVE",
        "placeName": "LEAMINGTON",
        "streetNameDisplayText": "VICTORIA AVE N, LEAMINGTON"
      }
    ]
  },
  {
    "postal": "N8H8P5",
    "result": []
  },
  {
    "postal": "N8H5P5",
    "result": [
      {
        "electoralDistricts": [
          {
            "election": null,
            "id": 18,
            "name": "Chatham-Kent—Leamington"
          }
        ],
        "pollDivisionIds": [
          10143123
        ],
        "postalCode": "N8H5P5",
        "streetName": "ANTONIO",
        "streetDirectionId": null,
        "streetTypeId": "CRT",
        "placeName": "LEAMINGTON",
        "streetNameDisplayText": "ANTONIO CRT, LEAMINGTON"
      }
    ]
  },
  {
    "postal": "N8H5Z0",
    "result": []
  },
  {
    "postal": "N8H9B0",
    "result": []
  },
  {
    "postal": "N8H1L0",
    "result": []
  },
  {
    "postal": "N8H0B5",
    "result": []
  },
  {
    "postal": "N8H3L2",
    "result": [
      {
        "electoralDistricts": [
          {
            "election": null,
            "id": 18,
            "name": "Chatham-Kent—Leamington"
          }
        ],
        "pollDivisionIds": [
          10137516
        ],
        "postalCode": "N8H3L2",
        "streetName": "SHERK",
        "streetDirectionId": null,
        "streetTypeId": "ST",
        "placeName": "LEAMINGTON",
        "streetNameDisplayText": "SHERK ST, LEAMINGTON"
      }
    ]
  },
  {
    "postal": "N8H3B7",
    "result": [
      {
        "electoralDistricts": [
          {
            "election": null,
            "id": 18,
            "name": "Chatham-Kent—Leamington"
          }
        ],
        "pollDivisionIds": [
          10137517
        ],
        "postalCode": "N8H3B7",
        "streetName": "ERIE",
        "streetDirectionId": "S",
        "streetTypeId": "ST",
        "placeName": "LEAMINGTON",
        "streetNameDisplayText": "ERIE ST S, LEAMINGTON"
      }
    ]
  },
  {
    "postal": "N8H8L1",
    "result": []
  },
  {
    "postal": "N8H5M4",
    "result": [
      {
        "electoralDistricts": [
          {
            "election": null,
            "id": 18,
            "name": "Chatham-Kent—Leamington"
          }
        ],
        "pollDivisionIds": [
          10137516
        ],
        "postalCode": "N8H5M4",
        "streetName": "FRANCESCO",
        "streetDirectionId": null,
        "streetTypeId": "CRT",
        "placeName": "LEAMINGTON",
        "streetNameDisplayText": "FRANCESCO CRT, LEAMINGTON"
      }
    ]
  },
  {
    "postal": "N8H4G9",
    "result": [
      {
        "electoralDistricts": [
          {
            "election": null,
            "id": 18,
            "name": "Chatham-Kent—Leamington"
          }
        ],
        "pollDivisionIds": [
          10137517
        ],
        "postalCode": "N8H4G9",
        "streetName": "LUTSCH",
        "streetDirectionId": null,
        "streetTypeId": "AVE",
        "placeName": "LEAMINGTON",
        "streetNameDisplayText": "LUTSCH AVE, LEAMINGTON"
      }
    ]
  },
  {
    "postal": "N8H0P0",
    "result": []
  },
  {
    "postal": "N8H8G2",
    "result": []
  },
  {
    "postal": "N8H1V9",
    "result": [
      {
        "electoralDistricts": [
          {
            "election": null,
            "id": 18,
            "name": "Chatham-Kent—Leamington"
          }
        ],
        "pollDivisionIds": [
          10137516
        ],
        "postalCode": "N8H1V9",
        "streetName": "MARLBOROUGH",
        "streetDirectionId": "W",
        "streetTypeId": "ST",
        "placeName": "LEAMINGTON",
        "streetNameDisplayText": "MARLBOROUGH ST W, LEAMINGTON"
      }
    ]
  },
  {
    "postal": "N8H8N8",
    "result": []
  },
  {
    "postal": "N8H6S8",
    "result": []
  },
  {
    "postal": "N8H8H2",
    "result": []
  },
  {
    "postal": "N8H5R8",
    "result": []
  },
  {
    "postal": "N8H5L4",
    "result": [
      {
        "electoralDistricts": [
          {
            "election": null,
            "id": 18,
            "name": "Chatham-Kent—Leamington"
          }
        ],
        "pollDivisionIds": [
          10137517
        ],
        "postalCode": "N8H5L4",
        "streetName": "ANFRED",
        "streetDirectionId": null,
        "streetTypeId": "AVE",
        "placeName": "LEAMINGTON",
        "streetNameDisplayText": "ANFRED AVE, LEAMINGTON"
      },
      {
        "electoralDistricts": [
          {
            "election": null,
            "id": 18,
            "name": "Chatham-Kent—Leamington"
          }
        ],
        "pollDivisionIds": [
          10137517
        ],
        "postalCode": "N8H5L4",
        "streetName": "GOSLIN",
        "streetDirectionId": null,
        "streetTypeId": "CRT",
        "placeName": "LEAMINGTON",
        "streetNameDisplayText": "GOSLIN CRT, LEAMINGTON"
      }
    ]
  },
  {
    "postal": "N8H9E1",
    "result": []
  },
  {
    "postal": "N8H1C4",
    "result": [
      {
        "electoralDistricts": [
          {
            "election": null,
            "id": 18,
            "name": "Chatham-Kent—Leamington"
          }
        ],
        "pollDivisionIds": [
          10137515
        ],
        "postalCode": "N8H1C4",
        "streetName": "FOUNDRY",
        "streetDirectionId": null,
        "streetTypeId": "ST",
        "placeName": "LEAMINGTON",
        "streetNameDisplayText": "FOUNDRY ST, LEAMINGTON"
      }
    ]
  },
  {
    "postal": "N8H8W5",
    "result": []
  },
  {
    "postal": "N8H1Y4",
    "result": [
      {
        "electoralDistricts": [
          {
            "election": null,
            "id": 18,
            "name": "Chatham-Kent—Leamington"
          }
        ],
        "pollDivisionIds": [
          10137517
        ],
        "postalCode": "N8H1Y4",
        "streetName": "ROBINSON",
        "streetDirectionId": null,
        "streetTypeId": "ST",
        "placeName": "LEAMINGTON",
        "streetNameDisplayText": "ROBINSON ST, LEAMINGTON"
      }
    ]
  },
  {
    "postal": "N8H1C0",
    "result": []
  },
  {
    "postal": "N8H2J2",
    "result": [
      {
        "electoralDistricts": [
          {
            "election": null,
            "id": 18,
            "name": "Chatham-Kent—Leamington"
          }
        ],
        "pollDivisionIds": [
          10137516
        ],
        "postalCode": "N8H2J2",
        "streetName": "MELROSE",
        "streetDirectionId": null,
        "streetTypeId": "AVE",
        "placeName": "LEAMINGTON",
        "streetNameDisplayText": "MELROSE AVE, LEAMINGTON"
      }
    ]
  },
  {
    "postal": "N8H2J0",
    "result": []
  },
  {
    "postal": "N8H7A3",
    "result": []
  },
  {
    "postal": "N8H8M1",
    "result": []
  },
  {
    "postal": "N8H7T9",
    "result": []
  },
  {
    "postal": "N8H6C0",
    "result": []
  },
  {
    "postal": "N8H7X1",
    "result": []
  },
  {
    "postal": "N8H0G1",
    "result": []
  },
  {
    "postal": "N8H4X2",
    "result": [
      {
        "electoralDistricts": [
          {
            "election": null,
            "id": 18,
            "name": "Chatham-Kent—Leamington"
          }
        ],
        "pollDivisionIds": [
          10143123
        ],
        "postalCode": "N8H4X2",
        "streetName": "EVANS",
        "streetDirectionId": null,
        "streetTypeId": "AVE",
        "placeName": "LEAMINGTON",
        "streetNameDisplayText": "EVANS AVE, LEAMINGTON"
      }
    ]
  },
  {
    "postal": "N8H0N6",
    "result": []
  },
  {
    "postal": "N8H8E3",
    "result": []
  },
  {
    "postal": "N8H5S8",
    "result": []
  },
  {
    "postal": "N8H0R0",
    "result": []
  },
  {
    "postal": "N8H6J6",
    "result": []
  },
  {
    "postal": "N8H4B4",
    "result": [
      {
        "electoralDistricts": [
          {
            "election": null,
            "id": 18,
            "name": "Chatham-Kent—Leamington"
          }
        ],
        "pollDivisionIds": [
          10137516
        ],
        "postalCode": "N8H4B4",
        "streetName": "LATHROP",
        "streetDirectionId": null,
        "streetTypeId": "LANE",
        "placeName": "LEAMINGTON",
        "streetNameDisplayText": "LATHROP LANE, LEAMINGTON"
      }
    ]
  },
  {
    "postal": "N8H7E3",
    "result": []
  },
  {
    "postal": "N8H3N6",
    "result": [
      {
        "electoralDistricts": [
          {
            "election": null,
            "id": 18,
            "name": "Chatham-Kent—Leamington"
          }
        ],
        "pollDivisionIds": [
          10137515
        ],
        "postalCode": "N8H3N6",
        "streetName": "HODGINS",
        "streetDirectionId": null,
        "streetTypeId": "ST",
        "placeName": "LEAMINGTON",
        "streetNameDisplayText": "HODGINS ST, LEAMINGTON"
      }
    ]
  },
  {
    "postal": "N8H3X6",
    "result": [
      {
        "electoralDistricts": [
          {
            "election": null,
            "id": 18,
            "name": "Chatham-Kent—Leamington"
          }
        ],
        "pollDivisionIds": [
          10137517
        ],
        "postalCode": "N8H3X6",
        "streetName": "TALBOT",
        "streetDirectionId": "E",
        "streetTypeId": "ST",
        "placeName": "LEAMINGTON",
        "streetNameDisplayText": "TALBOT ST E, LEAMINGTON"
      }
    ]
  },
  {
    "postal": "N8H8L0",
    "result": []
  },
  {
    "postal": "N8H8N1",
    "result": []
  },
  {
    "postal": "N8H4J0",
    "result": []
  },
  {
    "postal": "N8H0X7",
    "result": []
  },
  {
    "postal": "N8H6S4",
    "result": []
  },
  {
    "postal": "N8H0Z0",
    "result": []
  },
  {
    "postal": "N8H9X8",
    "result": []
  },
  {
    "postal": "N8H3H3",
    "result": [
      {
        "electoralDistricts": [
          {
            "election": null,
            "id": 18,
            "name": "Chatham-Kent—Leamington"
          }
        ],
        "pollDivisionIds": [
          10137515
        ],
        "postalCode": "N8H3H3",
        "streetName": "QUEENS",
        "streetDirectionId": null,
        "streetTypeId": "AVE",
        "placeName": "LEAMINGTON",
        "streetNameDisplayText": "QUEENS AVE, LEAMINGTON"
      }
    ]
  },
  {
    "postal": "N8H7S2",
    "result": []
  },
  {
    "postal": "N8H3T3",
    "result": [
      {
        "electoralDistricts": [
          {
            "election": null,
            "id": 18,
            "name": "Chatham-Kent—Leamington"
          }
        ],
        "pollDivisionIds": [
          10137516
        ],
        "postalCode": "N8H3T3",
        "streetName": "FADER",
        "streetDirectionId": null,
        "streetTypeId": "AVE",
        "placeName": "LEAMINGTON",
        "streetNameDisplayText": "FADER AVE, LEAMINGTON"
      }
    ]
  },
  {
    "postal": "N8H9P3",
    "result": []
  },
  {
    "postal": "N8H4H8",
    "result": [
      {
        "electoralDistricts": [
          {
            "election": null,
            "id": 18,
            "name": "Chatham-Kent—Leamington"
          }
        ],
        "pollDivisionIds": [
          10137516
        ],
        "postalCode": "N8H4H8",
        "streetName": "CREST VIEW",
        "streetDirectionId": null,
        "streetTypeId": "DR",
        "placeName": "LEAMINGTON",
        "streetNameDisplayText": "CREST VIEW DR, LEAMINGTON"
      }
    ]
  },
  {
    "postal": "N8H6R1",
    "result": []
  },
  {
    "postal": "N8H1S0",
    "result": []
  },
  {
    "postal": "N8H3W8",
    "result": []
  },
  {
    "postal": "N8H4S3",
    "result": [
      {
        "electoralDistricts": [
          {
            "election": null,
            "id": 18,
            "name": "Chatham-Kent—Leamington"
          }
        ],
        "pollDivisionIds": [
          10137518
        ],
        "postalCode": "N8H4S3",
        "streetName": "MARLBOROUGH",
        "streetDirectionId": "E",
        "streetTypeId": "ST",
        "placeName": "LEAMINGTON",
        "streetNameDisplayText": "MARLBOROUGH ST E, LEAMINGTON"
      }
    ]
  },
  {
    "postal": "N8H1B6",
    "result": [
      {
        "electoralDistricts": [
          {
            "election": null,
            "id": 18,
            "name": "Chatham-Kent—Leamington"
          }
        ],
        "pollDivisionIds": [
          10137515
        ],
        "postalCode": "N8H1B6",
        "streetName": "HAZELTON",
        "streetDirectionId": null,
        "streetTypeId": "ST",
        "placeName": "LEAMINGTON",
        "streetNameDisplayText": "HAZELTON ST, LEAMINGTON"
      }
    ]
  },
  {
    "postal": "N8H8R3",
    "result": []
  },
  {
    "postal": "N8H4V9",
    "result": [
      {
        "electoralDistricts": [
          {
            "election": null,
            "id": 18,
            "name": "Chatham-Kent—Leamington"
          }
        ],
        "pollDivisionIds": [
          10137518
        ],
        "postalCode": "N8H4V9",
        "streetName": "MARLBOROUGH",
        "streetDirectionId": "E",
        "streetTypeId": "ST",
        "placeName": "LEAMINGTON",
        "streetNameDisplayText": "MARLBOROUGH ST E, LEAMINGTON"
      }
    ]
  },
  {
    "postal": "N8H9W4",
    "result": []
  },
  {
    "postal": "N8H3T4",
    "result": [
      {
        "electoralDistricts": [
          {
            "election": null,
            "id": 18,
            "name": "Chatham-Kent—Leamington"
          }
        ],
        "pollDivisionIds": [
          10137516
        ],
        "postalCode": "N8H3T4",
        "streetName": "FADER",
        "streetDirectionId": null,
        "streetTypeId": "AVE",
        "placeName": "LEAMINGTON",
        "streetNameDisplayText": "FADER AVE, LEAMINGTON"
      }
    ]
  },
  {
    "postal": "N8H5C7",
    "result": [
      {
        "electoralDistricts": [
          {
            "election": null,
            "id": 18,
            "name": "Chatham-Kent—Leamington"
          }
        ],
        "pollDivisionIds": [
          10137516
        ],
        "postalCode": "N8H5C7",
        "streetName": "ELLISON",
        "streetDirectionId": null,
        "streetTypeId": "AVE",
        "placeName": "LEAMINGTON",
        "streetNameDisplayText": "ELLISON AVE, LEAMINGTON"
      }
    ]
  },
  {
    "postal": "N8H3Y1",
    "result": [
      {
        "electoralDistricts": [
          {
            "election": null,
            "id": 18,
            "name": "Chatham-Kent—Leamington"
          }
        ],
        "pollDivisionIds": [
          10137516
        ],
        "postalCode": "N8H3Y1",
        "streetName": "SEACLIFF",
        "streetDirectionId": "W",
        "streetTypeId": "DR",
        "placeName": "LEAMINGTON",
        "streetNameDisplayText": "SEACLIFF DR W, LEAMINGTON"
      }
    ]
  },
  {
    "postal": "N8H5V0",
    "result": []
  },
  {
    "postal": "N8H8G8",
    "result": []
  },
  {
    "postal": "N8H8B1",
    "result": []
  },
  {
    "postal": "N8H4P5",
    "result": [
      {
        "electoralDistricts": [
          {
            "election": null,
            "id": 18,
            "name": "Chatham-Kent—Leamington"
          }
        ],
        "pollDivisionIds": [
          10143123,
          10137518
        ],
        "postalCode": "N8H4P5",
        "streetName": "SUTTON",
        "streetDirectionId": null,
        "streetTypeId": "DR",
        "placeName": "LEAMINGTON",
        "streetNameDisplayText": "SUTTON DR, LEAMINGTON"
      }
    ]
  },
  {
    "postal": "N8H7B2",
    "result": []
  },
  {
    "postal": "N8H0R2",
    "result": []
  },
  {
    "postal": "N8H4M4",
    "result": [
      {
        "electoralDistricts": [
          {
            "election": null,
            "id": 18,
            "name": "Chatham-Kent—Leamington"
          }
        ],
        "pollDivisionIds": [
          10143123
        ],
        "postalCode": "N8H4M4",
        "streetName": "CROZIER",
        "streetDirectionId": null,
        "streetTypeId": "CRES",
        "placeName": "LEAMINGTON",
        "streetNameDisplayText": "CROZIER CRES, LEAMINGTON"
      }
    ]
  },
  {
    "postal": "N8H7M4",
    "result": []
  },
  {
    "postal": "N8H9S7",
    "result": []
  },
  {
    "postal": "N8H5Z7",
    "result": []
  },
  {
    "postal": "N8H7J7",
    "result": []
  },
  {
    "postal": "N8H8R8",
    "result": []
  },
  {
    "postal": "N8H9X1",
    "result": []
  },
  {
    "postal": "N8H5M9",
    "result": [
      {
        "electoralDistricts": [
          {
            "election": null,
            "id": 18,
            "name": "Chatham-Kent—Leamington"
          }
        ],
        "pollDivisionIds": [
          10137518
        ],
        "postalCode": "N8H5M9",
        "streetName": "THERESA",
        "streetDirectionId": null,
        "streetTypeId": "TRAIL",
        "placeName": "LEAMINGTON",
        "streetNameDisplayText": "THERESA TRAIL, LEAMINGTON"
      }
    ]
  },
  {
    "postal": "N8H9B4",
    "result": []
  },
  {
    "postal": "N8H0L9",
    "result": []
  },
  {
    "postal": "N8H9G4",
    "result": []
  },
  {
    "postal": "N8H1J4",
    "result": [
      {
        "electoralDistricts": [
          {
            "election": null,
            "id": 18,
            "name": "Chatham-Kent—Leamington"
          }
        ],
        "pollDivisionIds": [
          10137516
        ],
        "postalCode": "N8H1J4",
        "streetName": "PEARL",
        "streetDirectionId": null,
        "streetTypeId": "AVE",
        "placeName": "LEAMINGTON",
        "streetNameDisplayText": "PEARL AVE, LEAMINGTON"
      }
    ]
  },
  {
    "postal": "N8H0W6",
    "result": []
  }
]
