[
  {
    "postal": "L4B9J6",
    "result": []
  },
  {
    "postal": "L4B9Z5",
    "result": []
  },
  {
    "postal": "L4B7H8",
    "result": []
  },
  {
    "postal": "L4B0P6",
    "result": []
  },
  {
    "postal": "L4B0S7",
    "result": []
  },
  {
    "postal": "L4B8B9",
    "result": []
  },
  {
    "postal": "L4B2A6",
    "result": [
      {
        "electoralDistricts": [
          {
            "election": null,
            "id": 89,
            "name": "Richmond Hill"
          }
        ],
        "pollDivisionIds": [
          10141297
        ],
        "postalCode": "L4B2A6",
        "streetName": "VALLEYMEDE",
        "streetDirectionId": null,
        "streetTypeId": "DR",
        "placeName": "RICHMOND HILL",
        "streetNameDisplayText": "VALLEYMEDE DR, RICHMOND HILL"
      }
    ]
  },
  {
    "postal": "L4B7V2",
    "result": []
  },
  {
    "postal": "L4B9P4",
    "result": []
  },
  {
    "postal": "L4B6G0",
    "result": []
  },
  {
    "postal": "L4B2K0",
    "result": []
  },
  {
    "postal": "L4B7N6",
    "result": []
  },
  {
    "postal": "L4B5R3",
    "result": []
  },
  {
    "postal": "L4B7K0",
    "result": []
  },
  {
    "postal": "L4B3R2",
    "result": [
      {
        "electoralDistricts": [
          {
            "election": null,
            "id": 89,
            "name": "Richmond Hill"
          }
        ],
        "pollDivisionIds": [
          10141292
        ],
        "postalCode": "L4B3R2",
        "streetName": "GREY ALDER",
        "streetDirectionId": null,
        "streetTypeId": "AVE",
        "placeName": "RICHMOND HILL",
        "streetNameDisplayText": "GREY ALDER AVE, RICHMOND HILL"
      },
      {
        "electoralDistricts": [
          {
            "election": null,
            "id": 89,
            "name": "Richmond Hill"
          }
        ],
        "pollDivisionIds": [
          10141292
        ],
        "postalCode": "L4B3R2",
        "streetName": "YELLOW BIRCH",
        "streetDirectionId": null,
        "streetTypeId": "CRES",
        "placeName": "RICHMOND HILL",
        "streetNameDisplayText": "YELLOW BIRCH CRES, RICHMOND HILL"
      }
    ]
  },
  {
    "postal": "L4B0J1",
    "result": []
  },
  {
    "postal": "L4B0B0",
    "result": []
  },
  {
    "postal": "L4B5Z2",
    "result": []
  },
  {
    "postal": "L4B7P3",
    "result": []
  },
  {
    "postal": "L4B2K3",
    "result": [
      {
        "electoralDistricts": [
          {
            "election": null,
            "id": 89,
            "name": "Richmond Hill"
          }
        ],
        "pollDivisionIds": [
          10141296
        ],
        "postalCode": "L4B2K3",
        "streetName": "GLENARDEN",
        "streetDirectionId": null,
        "streetTypeId": "CRES",
        "placeName": "RICHMOND HILL",
        "streetNameDisplayText": "GLENARDEN CRES, RICHMOND HILL"
      }
    ]
  },
  {
    "postal": "L4B7Y6",
    "result": []
  },
  {
    "postal": "L4B1L9",
    "result": [
      {
        "electoralDistricts": [
          {
            "election": null,
            "id": 89,
            "name": "Richmond Hill"
          }
        ],
        "pollDivisionIds": [
          10141297
        ],
        "postalCode": "L4B1L9",
        "streetName": "WEST BEAVER CREEK",
        "streetDirectionId": null,
        "streetTypeId": "RD",
        "placeName": "RICHMOND HILL",
        "streetNameDisplayText": "WEST BEAVER CREEK RD, RICHMOND HILL"
      }
    ]
  },
  {
    "postal": "L4B8T0",
    "result": []
  },
  {
    "postal": "L4B3K8",
    "result": [
      {
        "electoralDistricts": [
          {
            "election": null,
            "id": 89,
            "name": "Richmond Hill"
          }
        ],
        "pollDivisionIds": [
          10141296,
          10141295
        ],
        "postalCode": "L4B3K8",
        "streetName": "BRODIE",
        "streetDirectionId": null,
        "streetTypeId": "DR",
        "placeName": "RICHMOND HILL",
        "streetNameDisplayText": "BRODIE DR, RICHMOND HILL"
      }
    ]
  },
  {
    "postal": "L4B5W9",
    "result": []
  },
  {
    "postal": "L4B6T9",
    "result": []
  },
  {
    "postal": "L4B4H1",
    "result": [
      {
        "electoralDistricts": [
          {
            "election": null,
            "id": 89,
            "name": "Richmond Hill"
          }
        ],
        "pollDivisionIds": [
          10141292
        ],
        "postalCode": "L4B4H1",
        "streetName": "IRON HORSE",
        "streetDirectionId": null,
        "streetTypeId": "AVE",
        "placeName": "RICHMOND HILL",
        "streetNameDisplayText": "IRON HORSE AVE, RICHMOND HILL"
      },
      {
        "electoralDistricts": [
          {
            "election": null,
            "id": 89,
            "name": "Richmond Hill"
          }
        ],
        "pollDivisionIds": [
          10141292
        ],
        "postalCode": "L4B4H1",
        "streetName": "MONET",
        "streetDirectionId": null,
        "streetTypeId": "ST",
        "placeName": "RICHMOND HILL",
        "streetNameDisplayText": "MONET ST, RICHMOND HILL"
      }
    ]
  },
  {
    "postal": "L4B7A2",
    "result": []
  },
  {
    "postal": "L4B5G0",
    "result": []
  },
  {
    "postal": "L4B8V5",
    "result": []
  },
  {
    "postal": "L4B2Y8",
    "result": [
      {
        "electoralDistricts": [
          {
            "election": null,
            "id": 89,
            "name": "Richmond Hill"
          }
        ],
        "pollDivisionIds": [
          10141295,
          10141296
        ],
        "postalCode": "L4B2Y8",
        "streetName": "SPADINA",
        "streetDirectionId": null,
        "streetTypeId": "RD",
        "placeName": "RICHMOND HILL",
        "streetNameDisplayText": "SPADINA RD, RICHMOND HILL"
      },
      {
        "electoralDistricts": [
          {
            "election": null,
            "id": 89,
            "name": "Richmond Hill"
          }
        ],
        "pollDivisionIds": [
          10141295
        ],
        "postalCode": "L4B2Y8",
        "streetName": "WINGATE",
        "streetDirectionId": null,
        "streetTypeId": "CRES",
        "placeName": "RICHMOND HILL",
        "streetNameDisplayText": "WINGATE CRES, RICHMOND HILL"
      }
    ]
  },
  {
    "postal": "L4B2B6",
    "result": [
      {
        "electoralDistricts": [
          {
            "election": null,
            "id": 89,
            "name": "Richmond Hill"
          }
        ],
        "pollDivisionIds": [
          10141297
        ],
        "postalCode": "L4B2B6",
        "streetName": "HEATH",
        "streetDirectionId": null,
        "streetTypeId": "ST",
        "placeName": "RICHMOND HILL",
        "streetNameDisplayText": "HEATH ST, RICHMOND HILL"
      }
    ]
  },
  {
    "postal": "L4B4W8",
    "result": []
  },
  {
    "postal": "L4B8H7",
    "result": []
  },
  {
    "postal": "L4B5P1",
    "result": []
  },
  {
    "postal": "L4B2B8",
    "result": [
      {
        "electoralDistricts": [
          {
            "election": null,
            "id": 89,
            "name": "Richmond Hill"
          }
        ],
        "pollDivisionIds": [
          10141297
        ],
        "postalCode": "L4B2B8",
        "streetName": "HEATH",
        "streetDirectionId": null,
        "streetTypeId": "ST",
        "placeName": "RICHMOND HILL",
        "streetNameDisplayText": "HEATH ST, RICHMOND HILL"
      }
    ]
  },
  {
    "postal": "L4B0P2",
    "result": []
  },
  {
    "postal": "L4B9M1",
    "result": []
  },
  {
    "postal": "L4B3G0",
    "result": []
  },
  {
    "postal": "L4B9Z2",
    "result": []
  },
  {
    "postal": "L4B2A0",
    "result": []
  },
  {
    "postal": "L4B6Y0",
    "result": []
  },
  {
    "postal": "L4B2Z8",
    "result": [
      {
        "electoralDistricts": [
          {
            "election": null,
            "id": 89,
            "name": "Richmond Hill"
          }
        ],
        "pollDivisionIds": [
          10141297
        ],
        "postalCode": "L4B2Z8",
        "streetName": "SHEILA",
        "streetDirectionId": null,
        "streetTypeId": "CRES",
        "placeName": "RICHMOND HILL",
        "streetNameDisplayText": "SHEILA CRES, RICHMOND HILL"
      }
    ]
  },
  {
    "postal": "L4B7Y3",
    "result": []
  },
  {
    "postal": "L4B6Z5",
    "result": []
  },
  {
    "postal": "L4B6E0",
    "result": []
  },
  {
    "postal": "L4B9B7",
    "result": []
  },
  {
    "postal": "L4B9S5",
    "result": []
  },
  {
    "postal": "L4B3X3",
    "result": [
      {
        "electoralDistricts": [
          {
            "election": null,
            "id": 89,
            "name": "Richmond Hill"
          }
        ],
        "pollDivisionIds": [
          10141295
        ],
        "postalCode": "L4B3X3",
        "streetName": "HILLSBOROUGH",
        "streetDirectionId": null,
        "streetTypeId": "CRT",
        "placeName": "RICHMOND HILL",
        "streetNameDisplayText": "HILLSBOROUGH CRT, RICHMOND HILL"
      }
    ]
  },
  {
    "postal": "L4B7R5",
    "result": []
  },
  {
    "postal": "L4B2X3",
    "result": [
      {
        "electoralDistricts": [
          {
            "election": null,
            "id": 89,
            "name": "Richmond Hill"
          }
        ],
        "pollDivisionIds": [
          10141296
        ],
        "postalCode": "L4B2X3",
        "streetName": "AVA",
        "streetDirectionId": null,
        "streetTypeId": "CRES",
        "placeName": "RICHMOND HILL",
        "streetNameDisplayText": "AVA CRES, RICHMOND HILL"
      },
      {
        "electoralDistricts": [
          {
            "election": null,
            "id": 89,
            "name": "Richmond Hill"
          }
        ],
        "pollDivisionIds": [
          10141296
        ],
        "postalCode": "L4B2X3",
        "streetName": "ELDERWOOD",
        "streetDirectionId": null,
        "streetTypeId": "DR",
        "placeName": "RICHMOND HILL",
        "streetNameDisplayText": "ELDERWOOD DR, RICHMOND HILL"
      }
    ]
  },
  {
    "postal": "L4B8Z9",
    "result": []
  },
  {
    "postal": "L4B0N4",
    "result": []
  },
  {
    "postal": "L4B1K1",
    "result": [
      {
        "electoralDistricts": [
          {
            "election": null,
            "id": 89,
            "name": "Richmond Hill"
          }
        ],
        "pollDivisionIds": [
          10141298
        ],
        "postalCode": "L4B1K1",
        "streetName": "WEST WILMOT",
        "streetDirectionId": null,
        "streetTypeId": "ST",
        "placeName": "RICHMOND HILL",
        "streetNameDisplayText": "WEST WILMOT ST, RICHMOND HILL"
      }
    ]
  },
  {
    "postal": "L4B1S3",
    "result": [
      {
        "electoralDistricts": [
          {
            "election": null,
            "id": 89,
            "name": "Richmond Hill"
          }
        ],
        "pollDivisionIds": [
          10141298
        ],
        "postalCode": "L4B1S3",
        "streetName": "CHALMERS",
        "streetDirectionId": null,
        "streetTypeId": "RD",
        "placeName": "RICHMOND HILL",
        "streetNameDisplayText": "CHALMERS RD, RICHMOND HILL"
      },
      {
        "electoralDistricts": [
          {
            "election": null,
            "id": 89,
            "name": "Richmond Hill"
          }
        ],
        "pollDivisionIds": [
          10141298
        ],
        "postalCode": "L4B1S3",
        "streetName": "LASER",
        "streetDirectionId": null,
        "streetTypeId": "CRT",
        "placeName": "RICHMOND HILL",
        "streetNameDisplayText": "LASER CRT, RICHMOND HILL"
      },
      {
        "electoralDistricts": [
          {
            "election": null,
            "id": 89,
            "name": "Richmond Hill"
          }
        ],
        "pollDivisionIds": [
          10141298
        ],
        "postalCode": "L4B1S3",
        "streetName": "PICCADILLY",
        "streetDirectionId": null,
        "streetTypeId": "RD",
        "placeName": "RICHMOND HILL",
        "streetNameDisplayText": "PICCADILLY RD, RICHMOND HILL"
      }
    ]
  },
  {
    "postal": "L4B6M4",
    "result": []
  },
  {
    "postal": "L4B9A9",
    "result": []
  },
  {
    "postal": "L4B9Z9",
    "result": []
  },
  {
    "postal": "L4B6T4",
    "result": []
  },
  {
    "postal": "L4B0B2",
    "result": [
      {
        "electoralDistricts": [
          {
            "election": null,
            "id": 89,
            "name": "Richmond Hill"
          }
        ],
        "pollDivisionIds": [
          10141298
        ],
        "postalCode": "L4B0B2",
        "streetName": "LESLIE",
        "streetDirectionId": null,
        "streetTypeId": "ST",
        "placeName": "RICHMOND HILL",
        "streetNameDisplayText": "LESLIE ST, RICHMOND HILL"
      }
    ]
  },
  {
    "postal": "L4B2L9",
    "result": [
      {
        "electoralDistricts": [
          {
            "election": null,
            "id": 89,
            "name": "Richmond Hill"
          }
        ],
        "pollDivisionIds": [
          10141296
        ],
        "postalCode": "L4B2L9",
        "streetName": "OLD PARK",
        "streetDirectionId": null,
        "streetTypeId": "LANE",
        "placeName": "RICHMOND HILL",
        "streetNameDisplayText": "OLD PARK LANE, RICHMOND HILL"
      },
      {
        "electoralDistricts": [
          {
            "election": null,
            "id": 89,
            "name": "Richmond Hill"
          }
        ],
        "pollDivisionIds": [
          10141296
        ],
        "postalCode": "L4B2L9",
        "streetName": "VESTA",
        "streetDirectionId": null,
        "streetTypeId": "DR",
        "placeName": "RICHMOND HILL",
        "streetNameDisplayText": "VESTA DR, RICHMOND HILL"
      }
    ]
  },
  {
    "postal": "L4B8K9",
    "result": []
  },
  {
    "postal": "L4B2H9",
    "result": [
      {
        "electoralDistricts": [
          {
            "election": null,
            "id": 89,
            "name": "Richmond Hill"
          }
        ],
        "pollDivisionIds": [
          10141296
        ],
        "postalCode": "L4B2H9",
        "streetName": "ARDMORE",
        "streetDirectionId": null,
        "streetTypeId": "CRES",
        "placeName": "RICHMOND HILL",
        "streetNameDisplayText": "ARDMORE CRES, RICHMOND HILL"
      },
      {
        "electoralDistricts": [
          {
            "election": null,
            "id": 89,
            "name": "Richmond Hill"
          }
        ],
        "pollDivisionIds": [
          10141296
        ],
        "postalCode": "L4B2H9",
        "streetName": "GLENARDEN",
        "streetDirectionId": null,
        "streetTypeId": "CRES",
        "placeName": "RICHMOND HILL",
        "streetNameDisplayText": "GLENARDEN CRES, RICHMOND HILL"
      },
      {
        "electoralDistricts": [
          {
            "election": null,
            "id": 89,
            "name": "Richmond Hill"
          }
        ],
        "pollDivisionIds": [
          10141296
        ],
        "postalCode": "L4B2H9",
        "streetName": "HILLHOLM",
        "streetDirectionId": null,
        "streetTypeId": "BLVD",
        "placeName": "RICHMOND HILL",
        "streetNameDisplayText": "HILLHOLM BLVD, RICHMOND HILL"
      }
    ]
  },
  {
    "postal": "L4B3Z6",
    "result": [
      {
        "electoralDistricts": [
          {
            "election": null,
            "id": 89,
            "name": "Richmond Hill"
          }
        ],
        "pollDivisionIds": [
          10141295
        ],
        "postalCode": "L4B3Z6",
        "streetName": "BOAKE",
        "streetDirectionId": null,
        "streetTypeId": "TRAIL",
        "placeName": "RICHMOND HILL",
        "streetNameDisplayText": "BOAKE TRAIL, RICHMOND HILL"
      },
      {
        "electoralDistricts": [
          {
            "election": null,
            "id": 89,
            "name": "Richmond Hill"
          }
        ],
        "pollDivisionIds": [
          10141295
        ],
        "postalCode": "L4B3Z6",
        "streetName": "CLARENDON",
        "streetDirectionId": null,
        "streetTypeId": "DR",
        "placeName": "RICHMOND HILL",
        "streetNameDisplayText": "CLARENDON DR, RICHMOND HILL"
      }
    ]
  },
  {
    "postal": "L4B3B0",
    "result": []
  },
  {
    "postal": "L4B2H8",
    "result": [
      {
        "electoralDistricts": [
          {
            "election": null,
            "id": 89,
            "name": "Richmond Hill"
          }
        ],
        "pollDivisionIds": [
          10141296
        ],
        "postalCode": "L4B2H8",
        "streetName": "ARDMORE",
        "streetDirectionId": null,
        "streetTypeId": "CRES",
        "placeName": "RICHMOND HILL",
        "streetNameDisplayText": "ARDMORE CRES, RICHMOND HILL"
      }
    ]
  },
  {
    "postal": "L4B3X2",
    "result": []
  },
  {
    "postal": "L4B2E9",
    "result": [
      {
        "electoralDistricts": [
          {
            "election": null,
            "id": 89,
            "name": "Richmond Hill"
          }
        ],
        "pollDivisionIds": [
          10141297
        ],
        "postalCode": "L4B2E9",
        "streetName": "GLENHURST",
        "streetDirectionId": null,
        "streetTypeId": "RD",
        "placeName": "RICHMOND HILL",
        "streetNameDisplayText": "GLENHURST RD, RICHMOND HILL"
      }
    ]
  },
  {
    "postal": "L4B9P6",
    "result": []
  },
  {
    "postal": "L4B9E2",
    "result": []
  },
  {
    "postal": "L4B9H2",
    "result": []
  },
  {
    "postal": "L4B1S8",
    "result": [
      {
        "electoralDistricts": [
          {
            "election": null,
            "id": 89,
            "name": "Richmond Hill"
          }
        ],
        "pollDivisionIds": [
          10141298
        ],
        "postalCode": "L4B1S8",
        "streetName": "CHALMERS",
        "streetDirectionId": null,
        "streetTypeId": "RD",
        "placeName": "RICHMOND HILL",
        "streetNameDisplayText": "CHALMERS RD, RICHMOND HILL"
      },
      {
        "electoralDistricts": [
          {
            "election": null,
            "id": 89,
            "name": "Richmond Hill"
          }
        ],
        "pollDivisionIds": [
          10141298
        ],
        "postalCode": "L4B1S8",
        "streetName": "PICCADILLY",
        "streetDirectionId": null,
        "streetTypeId": "RD",
        "placeName": "RICHMOND HILL",
        "streetNameDisplayText": "PICCADILLY RD, RICHMOND HILL"
      }
    ]
  },
  {
    "postal": "L4B3M6",
    "result": [
      {
        "electoralDistricts": [
          {
            "election": null,
            "id": 89,
            "name": "Richmond Hill"
          }
        ],
        "pollDivisionIds": [
          10141297
        ],
        "postalCode": "L4B3M6",
        "streetName": "BAYVIEW",
        "streetDirectionId": null,
        "streetTypeId": "AVE",
        "placeName": "RICHMOND HILL",
        "streetNameDisplayText": "BAYVIEW AVE, RICHMOND HILL"
      }
    ]
  },
  {
    "postal": "L4B6Z8",
    "result": []
  },
  {
    "postal": "L4B4J2",
    "result": [
      {
        "electoralDistricts": [
          {
            "election": null,
            "id": 89,
            "name": "Richmond Hill"
          }
        ],
        "pollDivisionIds": [
          10141291
        ],
        "postalCode": "L4B4J2",
        "streetName": "MELVILLE",
        "streetDirectionId": null,
        "streetTypeId": "ST",
        "placeName": "RICHMOND HILL",
        "streetNameDisplayText": "MELVILLE ST, RICHMOND HILL"
      },
      {
        "electoralDistricts": [
          {
            "election": null,
            "id": 89,
            "name": "Richmond Hill"
          }
        ],
        "pollDivisionIds": [
          10141291
        ],
        "postalCode": "L4B4J2",
        "streetName": "QUETICO",
        "streetDirectionId": null,
        "streetTypeId": "DR",
        "placeName": "RICHMOND HILL",
        "streetNameDisplayText": "QUETICO DR, RICHMOND HILL"
      },
      {
        "electoralDistricts": [
          {
            "election": null,
            "id": 89,
            "name": "Richmond Hill"
          }
        ],
        "pollDivisionIds": [
          10141291
        ],
        "postalCode": "L4B4J2",
        "streetName": "SILVER LINDEN",
        "streetDirectionId": null,
        "streetTypeId": "DR",
        "placeName": "RICHMOND HILL",
        "streetNameDisplayText": "SILVER LINDEN DR, RICHMOND HILL"
      }
    ]
  },
  {
    "postal": "L4B9Y1",
    "result": []
  },
  {
    "postal": "L4B8V6",
    "result": []
  },
  {
    "postal": "L4B6B2",
    "result": []
  },
  {
    "postal": "L4B1P8",
    "result": [
      {
        "electoralDistricts": [
          {
            "election": null,
            "id": 89,
            "name": "Richmond Hill"
          }
        ],
        "pollDivisionIds": [
          10141298
        ],
        "postalCode": "L4B1P8",
        "streetName": "CASTLERIDGE",
        "streetDirectionId": null,
        "streetTypeId": "DR",
        "placeName": "RICHMOND HILL",
        "streetNameDisplayText": "CASTLERIDGE DR, RICHMOND HILL"
      }
    ]
  },
  {
    "postal": "L4B0V8",
    "result": []
  },
  {
    "postal": "L4B4Y0",
    "result": []
  },
  {
    "postal": "L4B2T4",
    "result": [
      {
        "electoralDistricts": [
          {
            "election": null,
            "id": 89,
            "name": "Richmond Hill"
          }
        ],
        "pollDivisionIds": [
          10141295
        ],
        "postalCode": "L4B2T4",
        "streetName": "MONTCLAIR",
        "streetDirectionId": null,
        "streetTypeId": "RD",
        "placeName": "RICHMOND HILL",
        "streetNameDisplayText": "MONTCLAIR RD, RICHMOND HILL"
      }
    ]
  },
  {
    "postal": "L4B2S3",
    "result": [
      {
        "electoralDistricts": [
          {
            "election": null,
            "id": 89,
            "name": "Richmond Hill"
          }
        ],
        "pollDivisionIds": [
          10141298
        ],
        "postalCode": "L4B2S3",
        "streetName": "BRIGGS",
        "streetDirectionId": null,
        "streetTypeId": "AVE",
        "placeName": "RICHMOND HILL",
        "streetNameDisplayText": "BRIGGS AVE, RICHMOND HILL"
      },
      {
        "electoralDistricts": [
          {
            "election": null,
            "id": 89,
            "name": "Richmond Hill"
          }
        ],
        "pollDivisionIds": [
          10141298
        ],
        "postalCode": "L4B2S3",
        "streetName": "TRINITY",
        "streetDirectionId": null,
        "streetTypeId": "CRES",
        "placeName": "RICHMOND HILL",
        "streetNameDisplayText": "TRINITY CRES, RICHMOND HILL"
      }
    ]
  },
  {
    "postal": "L4B0K0",
    "result": []
  },
  {
    "postal": "L4B5N1",
    "result": []
  },
  {
    "postal": "L4B7T0",
    "result": []
  },
  {
    "postal": "L4B9N2",
    "result": []
  },
  {
    "postal": "L4B5L1",
    "result": []
  },
  {
    "postal": "L4B7G5",
    "result": []
  },
  {
    "postal": "L4B6K2",
    "result": []
  },
  {
    "postal": "L4B6P9",
    "result": []
  },
  {
    "postal": "L4B0E6",
    "result": [
      {
        "electoralDistricts": [
          {
            "election": null,
            "id": 89,
            "name": "Richmond Hill"
          }
        ],
        "pollDivisionIds": [
          10141292
        ],
        "postalCode": "L4B0E6",
        "streetName": "BAYVIEW",
        "streetDirectionId": null,
        "streetTypeId": "AVE",
        "placeName": "RICHMOND HILL",
        "streetNameDisplayText": "BAYVIEW AVE, RICHMOND HILL"
      }
    ]
  },
  {
    "postal": "L4B8R9",
    "result": []
  },
  {
    "postal": "L4B3G9",
    "result": [
      {
        "electoralDistricts": [
          {
            "election": null,
            "id": 89,
            "name": "Richmond Hill"
          }
        ],
        "pollDivisionIds": [
          10141296
        ],
        "postalCode": "L4B3G9",
        "streetName": "CORTLEIGH",
        "streetDirectionId": null,
        "streetTypeId": "CRT",
        "placeName": "RICHMOND HILL",
        "streetNameDisplayText": "CORTLEIGH CRT, RICHMOND HILL"
      },
      {
        "electoralDistricts": [
          {
            "election": null,
            "id": 89,
            "name": "Richmond Hill"
          }
        ],
        "pollDivisionIds": [
          10141296
        ],
        "postalCode": "L4B3G9",
        "streetName": "DEWBOURNE",
        "streetDirectionId": null,
        "streetTypeId": "AVE",
        "placeName": "RICHMOND HILL",
        "streetNameDisplayText": "DEWBOURNE AVE, RICHMOND HILL"
      }
    ]
  },
  {
    "postal": "L4B0V7",
    "result": []
  },
  {
    "postal": "L4B2Z1",
    "result": [
      {
        "electoralDistricts": [
          {
            "election": null,
            "id": 89,
            "name": "Richmond Hill"
          }
        ],
        "pollDivisionIds": [
          10141295
        ],
        "postalCode": "L4B2Z1",
        "streetName": "CRESCENTVIEW",
        "streetDirectionId": null,
        "streetTypeId": "RD",
        "placeName": "RICHMOND HILL",
        "streetNameDisplayText": "CRESCENTVIEW RD, RICHMOND HILL"
      }
    ]
  },
  {
    "postal": "L4B7N1",
    "result": []
  },
  {
    "postal": "L4B3C6",
    "result": [
      {
        "electoralDistricts": [
          {
            "election": null,
            "id": 89,
            "name": "Richmond Hill"
          }
        ],
        "pollDivisionIds": [
          10141297
        ],
        "postalCode": "L4B3C6",
        "streetName": "LAGANI",
        "streetDirectionId": null,
        "streetTypeId": "AVE",
        "placeName": "RICHMOND HILL",
        "streetNameDisplayText": "LAGANI AVE, RICHMOND HILL"
      },
      {
        "electoralDistricts": [
          {
            "election": null,
            "id": 89,
            "name": "Richmond Hill"
          }
        ],
        "pollDivisionIds": [
          10141297
        ],
        "postalCode": "L4B3C6",
        "streetName": "STRATHEARN",
        "streetDirectionId": null,
        "streetTypeId": "AVE",
        "placeName": "RICHMOND HILL",
        "streetNameDisplayText": "STRATHEARN AVE, RICHMOND HILL"
      }
    ]
  },
  {
    "postal": "L4B4M1",
    "result": [
      {
        "electoralDistricts": [
          {
            "election": null,
            "id": 89,
            "name": "Richmond Hill"
          }
        ],
        "pollDivisionIds": [
          10141291
        ],
        "postalCode": "L4B4M1",
        "streetName": "NAHANNI",
        "streetDirectionId": null,
        "streetTypeId": "DR",
        "placeName": "RICHMOND HILL",
        "streetNameDisplayText": "NAHANNI DR, RICHMOND HILL"
      }
    ]
  },
  {
    "postal": "L4B9K2",
    "result": []
  },
  {
    "postal": "L4B9S6",
    "result": []
  },
  {
    "postal": "L4B4X1",
    "result": []
  },
  {
    "postal": "L4B8W2",
    "result": []
  },
  {
    "postal": "L4B7N2",
    "result": []
  },
  {
    "postal": "L4B8S3",
    "result": []
  },
  {
    "postal": "L4B4V0",
    "result": []
  },
  {
    "postal": "L4B6W4",
    "result": []
  },
  {
    "postal": "L4B5M1",
    "result": []
  },
  {
    "postal": "L4B0S4",
    "result": []
  },
  {
    "postal": "L4B5X6",
    "result": []
  },
  {
    "postal": "L4B8L5",
    "result": []
  },
  {
    "postal": "L4B5M8",
    "result": []
  },
  {
    "postal": "L4B2G3",
    "result": [
      {
        "electoralDistricts": [
          {
            "election": null,
            "id": 89,
            "name": "Richmond Hill"
          }
        ],
        "pollDivisionIds": [
          10141296
        ],
        "postalCode": "L4B2G3",
        "streetName": "GLENARDEN",
        "streetDirectionId": null,
        "streetTypeId": "CRES",
        "placeName": "RICHMOND HILL",
        "streetNameDisplayText": "GLENARDEN CRES, RICHMOND HILL"
      },
      {
        "electoralDistricts": [
          {
            "election": null,
            "id": 89,
            "name": "Richmond Hill"
          }
        ],
        "pollDivisionIds": [
          10141296
        ],
        "postalCode": "L4B2G3",
        "streetName": "STRATHEARN",
        "streetDirectionId": null,
        "streetTypeId": "AVE",
        "placeName": "RICHMOND HILL",
        "streetNameDisplayText": "STRATHEARN AVE, RICHMOND HILL"
      }
    ]
  },
  {
    "postal": "L4B8E4",
    "result": []
  },
  {
    "postal": "L4B7S9",
    "result": []
  },
  {
    "postal": "L4B1K3",
    "result": [
      {
        "electoralDistricts": [
          {
            "election": null,
            "id": 89,
            "name": "Richmond Hill"
          }
        ],
        "pollDivisionIds": [
          10141297
        ],
        "postalCode": "L4B1K3",
        "streetName": "MURAL",
        "streetDirectionId": null,
        "streetTypeId": "ST",
        "placeName": "RICHMOND HILL",
        "streetNameDisplayText": "MURAL ST, RICHMOND HILL"
      }
    ]
  },
  {
    "postal": "L4B4E1",
    "result": [
      {
        "electoralDistricts": [
          {
            "election": null,
            "id": 89,
            "name": "Richmond Hill"
          }
        ],
        "pollDivisionIds": [
          10141291
        ],
        "postalCode": "L4B4E1",
        "streetName": "COBURG",
        "streetDirectionId": null,
        "streetTypeId": "CRES",
        "placeName": "RICHMOND HILL",
        "streetNameDisplayText": "COBURG CRES, RICHMOND HILL"
      },
      {
        "electoralDistricts": [
          {
            "election": null,
            "id": 89,
            "name": "Richmond Hill"
          }
        ],
        "pollDivisionIds": [
          10141291
        ],
        "postalCode": "L4B4E1",
        "streetName": "ELLESMERE",
        "streetDirectionId": null,
        "streetTypeId": "ST",
        "placeName": "RICHMOND HILL",
        "streetNameDisplayText": "ELLESMERE ST, RICHMOND HILL"
      }
    ]
  },
  {
    "postal": "L4B4R2",
    "result": [
      {
        "electoralDistricts": [
          {
            "election": null,
            "id": 89,
            "name": "Richmond Hill"
          }
        ],
        "pollDivisionIds": [
          10141291
        ],
        "postalCode": "L4B4R2",
        "streetName": "HIGH TECH",
        "streetDirectionId": null,
        "streetTypeId": "RD",
        "placeName": "RICHMOND HILL",
        "streetNameDisplayText": "HIGH TECH RD, RICHMOND HILL"
      }
    ]
  },
  {
    "postal": "L4B6T0",
    "result": []
  },
  {
    "postal": "L4B3K5",
    "result": [
      {
        "electoralDistricts": [
          {
            "election": null,
            "id": 89,
            "name": "Richmond Hill"
          }
        ],
        "pollDivisionIds": [
          10141296
        ],
        "postalCode": "L4B3K5",
        "streetName": "VOGELL",
        "streetDirectionId": null,
        "streetTypeId": "RD",
        "placeName": "RICHMOND HILL",
        "streetNameDisplayText": "VOGELL RD, RICHMOND HILL"
      }
    ]
  },
  {
    "postal": "L4B3S3",
    "result": [
      {
        "electoralDistricts": [
          {
            "election": null,
            "id": 89,
            "name": "Richmond Hill"
          }
        ],
        "pollDivisionIds": [
          10141292
        ],
        "postalCode": "L4B3S3",
        "streetName": "BLACK WALNUT",
        "streetDirectionId": null,
        "streetTypeId": "CRES",
        "placeName": "RICHMOND HILL",
        "streetNameDisplayText": "BLACK WALNUT CRES, RICHMOND HILL"
      }
    ]
  },
  {
    "postal": "L4B3L4",
    "result": [
      {
        "electoralDistricts": [
          {
            "election": null,
            "id": 89,
            "name": "Richmond Hill"
          }
        ],
        "pollDivisionIds": [
          10141298
        ],
        "postalCode": "L4B3L4",
        "streetName": "EAST BEAVER CREEK",
        "streetDirectionId": null,
        "streetTypeId": "RD",
        "placeName": "RICHMOND HILL",
        "streetNameDisplayText": "EAST BEAVER CREEK RD, RICHMOND HILL"
      }
    ]
  },
  {
    "postal": "L4B9Y2",
    "result": []
  },
  {
    "postal": "L4B1E0",
    "result": []
  },
  {
    "postal": "L4B9A4",
    "result": []
  },
  {
    "postal": "L4B1L3",
    "result": [
      {
        "electoralDistricts": [
          {
            "election": null,
            "id": 89,
            "name": "Richmond Hill"
          }
        ],
        "pollDivisionIds": [
          10141297
        ],
        "postalCode": "L4B1L3",
        "streetName": "EAST BEAVER CREEK",
        "streetDirectionId": null,
        "streetTypeId": "RD",
        "placeName": "RICHMOND HILL",
        "streetNameDisplayText": "EAST BEAVER CREEK RD, RICHMOND HILL"
      }
    ]
  },
  {
    "postal": "L4B6N1",
    "result": []
  },
  {
    "postal": "L4B6G7",
    "result": []
  },
  {
    "postal": "L4B7W1",
    "result": []
  },
  {
    "postal": "L4B4M6",
    "result": [
      {
        "electoralDistricts": [
          {
            "election": null,
            "id": 89,
            "name": "Richmond Hill"
          }
        ],
        "pollDivisionIds": [
          10141291
        ],
        "postalCode": "L4B4M6",
        "streetName": "RED MAPLE",
        "streetDirectionId": null,
        "streetTypeId": "RD",
        "placeName": "RICHMOND HILL",
        "streetNameDisplayText": "RED MAPLE RD, RICHMOND HILL"
      }
    ]
  },
  {
    "postal": "L4B1K0",
    "result": []
  },
  {
    "postal": "L4B3E2",
    "result": [
      {
        "electoralDistricts": [
          {
            "election": null,
            "id": 89,
            "name": "Richmond Hill"
          }
        ],
        "pollDivisionIds": [
          10141297
        ],
        "postalCode": "L4B3E2",
        "streetName": "HEARTHSTONE",
        "streetDirectionId": null,
        "streetTypeId": "CRES",
        "placeName": "RICHMOND HILL",
        "streetNameDisplayText": "HEARTHSTONE CRES, RICHMOND HILL"
      },
      {
        "electoralDistricts": [
          {
            "election": null,
            "id": 89,
            "name": "Richmond Hill"
          }
        ],
        "pollDivisionIds": [
          10141297
        ],
        "postalCode": "L4B3E2",
        "streetName": "MEADOWCLIFFE",
        "streetDirectionId": null,
        "streetTypeId": "AVE",
        "placeName": "RICHMOND HILL",
        "streetNameDisplayText": "MEADOWCLIFFE AVE, RICHMOND HILL"
      },
      {
        "electoralDistricts": [
          {
            "election": null,
            "id": 89,
            "name": "Richmond Hill"
          }
        ],
        "pollDivisionIds": [
          10141297
        ],
        "postalCode": "L4B3E2",
        "streetName": "SOUTHGATE",
        "streetDirectionId": null,
        "streetTypeId": "CRES",
        "placeName": "RICHMOND HILL",
        "streetNameDisplayText": "SOUTHGATE CRES, RICHMOND HILL"
      }
    ]
  },
  {
    "postal": "L4B5H4",
    "result": []
  },
  {
    "postal": "L4B1K7",
    "result": [
      {
        "electoralDistricts": [
          {
            "election": null,
            "id": 89,
            "name": "Richmond Hill"
          }
        ],
        "pollDivisionIds": [
          10141298
        ],
        "postalCode": "L4B1K7",
        "streetName": "WEST WILMOT",
        "streetDirectionId": null,
        "streetTypeId": "ST",
        "placeName": "RICHMOND HILL",
        "streetNameDisplayText": "WEST WILMOT ST, RICHMOND HILL"
      }
    ]
  },
  {
    "postal": "L4B0H0",
    "result": []
  },
  {
    "postal": "L4B0J3",
    "result": []
  },
  {
    "postal": "L4B1X6",
    "result": [
      {
        "electoralDistricts": [
          {
            "election": null,
            "id": 89,
            "name": "Richmond Hill"
          }
        ],
        "pollDivisionIds": [
          10141297
        ],
        "postalCode": "L4B1X6",
        "streetName": "BRIGGS",
        "streetDirectionId": null,
        "streetTypeId": "AVE",
        "placeName": "RICHMOND HILL",
        "streetNameDisplayText": "BRIGGS AVE, RICHMOND HILL"
      }
    ]
  },
  {
    "postal": "L4B2Z6",
    "result": [
      {
        "electoralDistricts": [
          {
            "election": null,
            "id": 89,
            "name": "Richmond Hill"
          }
        ],
        "pollDivisionIds": [
          10141297
        ],
        "postalCode": "L4B2Z6",
        "streetName": "VALLEYMEDE",
        "streetDirectionId": null,
        "streetTypeId": "DR",
        "placeName": "RICHMOND HILL",
        "streetNameDisplayText": "VALLEYMEDE DR, RICHMOND HILL"
      }
    ]
  },
  {
    "postal": "L4B4R9",
    "result": []
  },
  {
    "postal": "L4B0W8",
    "result": []
  },
  {
    "postal": "L4B1L4",
    "result": [
      {
        "electoralDistricts": [
          {
            "election": null,
            "id": 89,
            "name": "Richmond Hill"
          }
        ],
        "pollDivisionIds": [
          10141298
        ],
        "postalCode": "L4B1L4",
        "streetName": "EAST BEAVER CREEK",
        "streetDirectionId": null,
        "streetTypeId": "RD",
        "placeName": "RICHMOND HILL",
        "streetNameDisplayText": "EAST BEAVER CREEK RD, RICHMOND HILL"
      }
    ]
  },
  {
    "postal": "L4B0C8",
    "result": []
  },
  {
    "postal": "L4B9X7",
    "result": []
  },
  {
    "postal": "L4B4T1",
    "result": [
      {
        "electoralDistricts": [
          {
            "election": null,
            "id": 89,
            "name": "Richmond Hill"
          }
        ],
        "pollDivisionIds": [
          10141291
        ],
        "postalCode": "L4B4T1",
        "streetName": "KING WILLIAM",
        "streetDirectionId": null,
        "streetTypeId": "CRES",
        "placeName": "RICHMOND HILL",
        "streetNameDisplayText": "KING WILLIAM CRES, RICHMOND HILL"
      }
    ]
  },
  {
    "postal": "L4B0M0",
    "result": []
  },
  {
    "postal": "L4B6A2",
    "result": []
  },
  {
    "postal": "L4B9S8",
    "result": []
  },
  {
    "postal": "L4B9T4",
    "result": []
  },
  {
    "postal": "L4B9Y4",
    "result": []
  },
  {
    "postal": "L4B6G5",
    "result": []
  },
  {
    "postal": "L4B6H9",
    "result": []
  },
  {
    "postal": "L4B2P3",
    "result": [
      {
        "electoralDistricts": [
          {
            "election": null,
            "id": 89,
            "name": "Richmond Hill"
          }
        ],
        "pollDivisionIds": [
          10141298
        ],
        "postalCode": "L4B2P3",
        "streetName": "WEST WILMOT",
        "streetDirectionId": null,
        "streetTypeId": "ST",
        "placeName": "RICHMOND HILL",
        "streetNameDisplayText": "WEST WILMOT ST, RICHMOND HILL"
      }
    ]
  },
  {
    "postal": "L4B1T6",
    "result": [
      {
        "electoralDistricts": [
          {
            "election": null,
            "id": 89,
            "name": "Richmond Hill"
          }
        ],
        "pollDivisionIds": [
          10141298
        ],
        "postalCode": "L4B1T6",
        "streetName": "VALLEYMEDE",
        "streetDirectionId": null,
        "streetTypeId": "DR",
        "placeName": "RICHMOND HILL",
        "streetNameDisplayText": "VALLEYMEDE DR, RICHMOND HILL"
      }
    ]
  },
  {
    "postal": "L4B4P6",
    "result": [
      {
        "electoralDistricts": [
          {
            "election": null,
            "id": 89,
            "name": "Richmond Hill"
          }
        ],
        "pollDivisionIds": [
          10141291
        ],
        "postalCode": "L4B4P6",
        "streetName": "BAFFIN",
        "streetDirectionId": null,
        "streetTypeId": "CRT",
        "placeName": "RICHMOND HILL",
        "streetNameDisplayText": "BAFFIN CRT, RICHMOND HILL"
      }
    ]
  },
  {
    "postal": "L4B3K1",
    "result": [
      {
        "electoralDistricts": [
          {
            "election": null,
            "id": 89,
            "name": "Richmond Hill"
          }
        ],
        "pollDivisionIds": [
          10141297
        ],
        "postalCode": "L4B3K1",
        "streetName": "WEST BEAVER CREEK",
        "streetDirectionId": null,
        "streetTypeId": "RD",
        "placeName": "RICHMOND HILL",
        "streetNameDisplayText": "WEST BEAVER CREEK RD, RICHMOND HILL"
      }
    ]
  },
  {
    "postal": "L4B6X4",
    "result": []
  },
  {
    "postal": "L4B4M8",
    "result": [
      {
        "electoralDistricts": [
          {
            "election": null,
            "id": 89,
            "name": "Richmond Hill"
          }
        ],
        "pollDivisionIds": [
          10141291
        ],
        "postalCode": "L4B4M8",
        "streetName": "BANTRY",
        "streetDirectionId": null,
        "streetTypeId": "AVE",
        "placeName": "RICHMOND HILL",
        "streetNameDisplayText": "BANTRY AVE, RICHMOND HILL"
      },
      {
        "electoralDistricts": [
          {
            "election": null,
            "id": 89,
            "name": "Richmond Hill"
          }
        ],
        "pollDivisionIds": [
          10141291
        ],
        "postalCode": "L4B4M8",
        "streetName": "BASSETT",
        "streetDirectionId": null,
        "streetTypeId": "AVE",
        "placeName": "RICHMOND HILL",
        "streetNameDisplayText": "BASSETT AVE, RICHMOND HILL"
      }
    ]
  },
  {
    "postal": "L4B2Y1",
    "result": [
      {
        "electoralDistricts": [
          {
            "election": null,
            "id": 89,
            "name": "Richmond Hill"
          }
        ],
        "pollDivisionIds": [
          10141296
        ],
        "postalCode": "L4B2Y1",
        "streetName": "CHAPLIN",
        "streetDirectionId": null,
        "streetTypeId": "CRT",
        "placeName": "RICHMOND HILL",
        "streetNameDisplayText": "CHAPLIN CRT, RICHMOND HILL"
      }
    ]
  },
  {
    "postal": "L4B6M1",
    "result": []
  },
  {
    "postal": "L4B5L8",
    "result": []
  },
  {
    "postal": "L4B3P6",
    "result": [
      {
        "electoralDistricts": [
          {
            "election": null,
            "id": 89,
            "name": "Richmond Hill"
          }
        ],
        "pollDivisionIds": [
          10141296
        ],
        "postalCode": "L4B3P6",
        "streetName": "VOGELL",
        "streetDirectionId": null,
        "streetTypeId": "RD",
        "placeName": "RICHMOND HILL",
        "streetNameDisplayText": "VOGELL RD, RICHMOND HILL"
      }
    ]
  },
  {
    "postal": "L4B9A5",
    "result": []
  },
  {
    "postal": "L4B7K1",
    "result": []
  },
  {
    "postal": "L4B3J4",
    "result": [
      {
        "electoralDistricts": [
          {
            "election": null,
            "id": 89,
            "name": "Richmond Hill"
          }
        ],
        "pollDivisionIds": [
          10141298
        ],
        "postalCode": "L4B3J4",
        "streetName": "LISA",
        "streetDirectionId": null,
        "streetTypeId": "CRES",
        "placeName": "RICHMOND HILL",
        "streetNameDisplayText": "LISA CRES, RICHMOND HILL"
      },
      {
        "electoralDistricts": [
          {
            "election": null,
            "id": 89,
            "name": "Richmond Hill"
          }
        ],
        "pollDivisionIds": [
          10141298
        ],
        "postalCode": "L4B3J4",
        "streetName": "VALLEYMEDE",
        "streetDirectionId": null,
        "streetTypeId": "DR",
        "placeName": "RICHMOND HILL",
        "streetNameDisplayText": "VALLEYMEDE DR, RICHMOND HILL"
      }
    ]
  },
  {
    "postal": "L4B5E7",
    "result": []
  },
  {
    "postal": "L4B3A7",
    "result": []
  },
  {
    "postal": "L4B1B9",
    "result": [
      {
        "electoralDistricts": [
          {
            "election": null,
            "id": 89,
            "name": "Richmond Hill"
          }
        ],
        "pollDivisionIds": [
          10141298
        ],
        "postalCode": "L4B1B9",
        "streetName": "WERTHEIM",
        "streetDirectionId": null,
        "streetTypeId": "CRT",
        "placeName": "RICHMOND HILL",
        "streetNameDisplayText": "WERTHEIM CRT, RICHMOND HILL"
      }
    ]
  },
  {
    "postal": "L4B9E8",
    "result": []
  },
  {
    "postal": "L4B1C9",
    "result": [
      {
        "electoralDistricts": [
          {
            "election": null,
            "id": 89,
            "name": "Richmond Hill"
          }
        ],
        "pollDivisionIds": [
          10141298
        ],
        "postalCode": "L4B1C9",
        "streetName": "SIMS",
        "streetDirectionId": null,
        "streetTypeId": "CRES",
        "placeName": "RICHMOND HILL",
        "streetNameDisplayText": "SIMS CRES, RICHMOND HILL"
      }
    ]
  },
  {
    "postal": "L4B3B5",
    "result": []
  },
  {
    "postal": "L4B8R0",
    "result": []
  },
  {
    "postal": "L4B3P2",
    "result": [
      {
        "electoralDistricts": [
          {
            "election": null,
            "id": 89,
            "name": "Richmond Hill"
          }
        ],
        "pollDivisionIds": [
          10141298
        ],
        "postalCode": "L4B3P2",
        "streetName": "7",
        "streetDirectionId": "E",
        "streetTypeId": "HWY",
        "placeName": "RICHMOND HILL",
        "streetNameDisplayText": "7 HWY E, RICHMOND HILL"
      }
    ]
  },
  {
    "postal": "L4B5V4",
    "result": []
  },
  {
    "postal": "L4B4H0",
    "result": []
  },
  {
    "postal": "L4B4S7",
    "result": [
      {
        "electoralDistricts": [
          {
            "election": null,
            "id": 89,
            "name": "Richmond Hill"
          }
        ],
        "pollDivisionIds": [
          10141291
        ],
        "postalCode": "L4B4S7",
        "streetName": "KING WILLIAM",
        "streetDirectionId": null,
        "streetTypeId": "CRES",
        "placeName": "RICHMOND HILL",
        "streetNameDisplayText": "KING WILLIAM CRES, RICHMOND HILL"
      }
    ]
  },
  {
    "postal": "L4B6C2",
    "result": []
  },
  {
    "postal": "L4B8W3",
    "result": []
  },
  {
    "postal": "L4B4M5",
    "result": [
      {
        "electoralDistricts": [
          {
            "election": null,
            "id": 89,
            "name": "Richmond Hill"
          }
        ],
        "pollDivisionIds": [
          10141288
        ],
        "postalCode": "L4B4M5",
        "streetName": "NORTHERN HEIGHTS",
        "streetDirectionId": null,
        "streetTypeId": "DR",
        "placeName": "RICHMOND HILL",
        "streetNameDisplayText": "NORTHERN HEIGHTS DR, RICHMOND HILL"
      }
    ]
  },
  {
    "postal": "L4B5T1",
    "result": []
  },
  {
    "postal": "L4B3B3",
    "result": [
      {
        "electoralDistricts": [
          {
            "election": null,
            "id": 89,
            "name": "Richmond Hill"
          }
        ],
        "pollDivisionIds": [
          10141297
        ],
        "postalCode": "L4B3B3",
        "streetName": "LEEK",
        "streetDirectionId": null,
        "streetTypeId": "CRES",
        "placeName": "RICHMOND HILL",
        "streetNameDisplayText": "LEEK CRES, RICHMOND HILL"
      }
    ]
  },
  {
    "postal": "L4B6C6",
    "result": []
  },
  {
    "postal": "L4B7N8",
    "result": []
  },
  {
    "postal": "L4B2Y3",
    "result": [
      {
        "electoralDistricts": [
          {
            "election": null,
            "id": 89,
            "name": "Richmond Hill"
          }
        ],
        "pollDivisionIds": [
          10141296
        ],
        "postalCode": "L4B2Y3",
        "streetName": "BOAKE",
        "streetDirectionId": null,
        "streetTypeId": "TRAIL",
        "placeName": "RICHMOND HILL",
        "streetNameDisplayText": "BOAKE TRAIL, RICHMOND HILL"
      },
      {
        "electoralDistricts": [
          {
            "election": null,
            "id": 89,
            "name": "Richmond Hill"
          }
        ],
        "pollDivisionIds": [
          10141296
        ],
        "postalCode": "L4B2Y3",
        "streetName": "SPADINA",
        "streetDirectionId": null,
        "streetTypeId": "RD",
        "placeName": "RICHMOND HILL",
        "streetNameDisplayText": "SPADINA RD, RICHMOND HILL"
      }
    ]
  },
  {
    "postal": "L4B2R6",
    "result": [
      {
        "electoralDistricts": [
          {
            "election": null,
            "id": 89,
            "name": "Richmond Hill"
          }
        ],
        "pollDivisionIds": [
          10141298
        ],
        "postalCode": "L4B2R6",
        "streetName": "SAMANTHA",
        "streetDirectionId": null,
        "streetTypeId": "CIR",
        "placeName": "RICHMOND HILL",
        "streetNameDisplayText": "SAMANTHA CIR, RICHMOND HILL"
      }
    ]
  },
  {
    "postal": "L4B7N3",
    "result": []
  },
  {
    "postal": "L4B8J2",
    "result": []
  },
  {
    "postal": "L4B6A9",
    "result": []
  },
  {
    "postal": "L4B3V2",
    "result": []
  },
  {
    "postal": "L4B2N3",
    "result": [
      {
        "electoralDistricts": [
          {
            "election": null,
            "id": 89,
            "name": "Richmond Hill"
          }
        ],
        "pollDivisionIds": [
          10141297
        ],
        "postalCode": "L4B2N3",
        "streetName": "EAST BEAVER CREEK",
        "streetDirectionId": null,
        "streetTypeId": "RD",
        "placeName": "RICHMOND HILL",
        "streetNameDisplayText": "EAST BEAVER CREEK RD, RICHMOND HILL"
      }
    ]
  },
  {
    "postal": "L4B1S5",
    "result": [
      {
        "electoralDistricts": [
          {
            "election": null,
            "id": 89,
            "name": "Richmond Hill"
          }
        ],
        "pollDivisionIds": [
          10141298
        ],
        "postalCode": "L4B1S5",
        "streetName": "PICCADILLY",
        "streetDirectionId": null,
        "streetTypeId": "RD",
        "placeName": "RICHMOND HILL",
        "streetNameDisplayText": "PICCADILLY RD, RICHMOND HILL"
      }
    ]
  },
  {
    "postal": "L4B4T7",
    "result": [
      {
        "electoralDistricts": [
          {
            "election": null,
            "id": 89,
            "name": "Richmond Hill"
          }
        ],
        "pollDivisionIds": [
          10141291
        ],
        "postalCode": "L4B4T7",
        "streetName": "SELKIRK",
        "streetDirectionId": null,
        "streetTypeId": "DR",
        "placeName": "RICHMOND HILL",
        "streetNameDisplayText": "SELKIRK DR, RICHMOND HILL"
      }
    ]
  },
  {
    "postal": "L4B6Y7",
    "result": []
  },
  {
    "postal": "L4B0W7",
    "result": []
  },
  {
    "postal": "L4B2W9",
    "result": [
      {
        "electoralDistricts": [
          {
            "election": null,
            "id": 89,
            "name": "Richmond Hill"
          }
        ],
        "pollDivisionIds": [
          10141296
        ],
        "postalCode": "L4B2W9",
        "streetName": "AVA",
        "streetDirectionId": null,
        "streetTypeId": "CRES",
        "placeName": "RICHMOND HILL",
        "streetNameDisplayText": "AVA CRES, RICHMOND HILL"
      },
      {
        "electoralDistricts": [
          {
            "election": null,
            "id": 89,
            "name": "Richmond Hill"
          }
        ],
        "pollDivisionIds": [
          10141296
        ],
        "postalCode": "L4B2W9",
        "streetName": "ELDERWOOD",
        "streetDirectionId": null,
        "streetTypeId": "DR",
        "placeName": "RICHMOND HILL",
        "streetNameDisplayText": "ELDERWOOD DR, RICHMOND HILL"
      }
    ]
  },
  {
    "postal": "L4B8V0",
    "result": []
  },
  {
    "postal": "L4B0H4",
    "result": []
  },
  {
    "postal": "L4B2T1",
    "result": [
      {
        "electoralDistricts": [
          {
            "election": null,
            "id": 89,
            "name": "Richmond Hill"
          }
        ],
        "pollDivisionIds": [
          10141295
        ],
        "postalCode": "L4B2T1",
        "streetName": "KING'S CROSS",
        "streetDirectionId": null,
        "streetTypeId": "AVE",
        "placeName": "RICHMOND HILL",
        "streetNameDisplayText": "KING'S CROSS AVE, RICHMOND HILL"
      }
    ]
  },
  {
    "postal": "L4B1B1",
    "result": [
      {
        "electoralDistricts": [
          {
            "election": null,
            "id": 89,
            "name": "Richmond Hill"
          }
        ],
        "pollDivisionIds": [
          10141298
        ],
        "postalCode": "L4B1B1",
        "streetName": "ROCKWELL",
        "streetDirectionId": null,
        "streetTypeId": "RD",
        "placeName": "RICHMOND HILL",
        "streetNameDisplayText": "ROCKWELL RD, RICHMOND HILL"
      }
    ]
  },
  {
    "postal": "L4B8B6",
    "result": []
  },
  {
    "postal": "L4B6H1",
    "result": []
  },
  {
    "postal": "L4B8T8",
    "result": []
  },
  {
    "postal": "L4B0T4",
    "result": []
  },
  {
    "postal": "L4B2C4",
    "result": [
      {
        "electoralDistricts": [
          {
            "election": null,
            "id": 89,
            "name": "Richmond Hill"
          }
        ],
        "pollDivisionIds": [
          10141297
        ],
        "postalCode": "L4B2C4",
        "streetName": "STRATHEARN",
        "streetDirectionId": null,
        "streetTypeId": "AVE",
        "placeName": "RICHMOND HILL",
        "streetNameDisplayText": "STRATHEARN AVE, RICHMOND HILL"
      },
      {
        "electoralDistricts": [
          {
            "election": null,
            "id": 89,
            "name": "Richmond Hill"
          }
        ],
        "pollDivisionIds": [
          10141297
        ],
        "postalCode": "L4B2C4",
        "streetName": "VALLEYMEDE",
        "streetDirectionId": null,
        "streetTypeId": "DR",
        "placeName": "RICHMOND HILL",
        "streetNameDisplayText": "VALLEYMEDE DR, RICHMOND HILL"
      }
    ]
  },
  {
    "postal": "L4B8N3",
    "result": []
  },
  {
    "postal": "L4B4L8",
    "result": [
      {
        "electoralDistricts": [
          {
            "election": null,
            "id": 89,
            "name": "Richmond Hill"
          }
        ],
        "pollDivisionIds": [
          10141288
        ],
        "postalCode": "L4B4L8",
        "streetName": "NORTHERN HEIGHTS",
        "streetDirectionId": null,
        "streetTypeId": "DR",
        "placeName": "RICHMOND HILL",
        "streetNameDisplayText": "NORTHERN HEIGHTS DR, RICHMOND HILL"
      }
    ]
  },
  {
    "postal": "L4B2B5",
    "result": [
      {
        "electoralDistricts": [
          {
            "election": null,
            "id": 89,
            "name": "Richmond Hill"
          }
        ],
        "pollDivisionIds": [
          10141297
        ],
        "postalCode": "L4B2B5",
        "streetName": "HEATH",
        "streetDirectionId": null,
        "streetTypeId": "ST",
        "placeName": "RICHMOND HILL",
        "streetNameDisplayText": "HEATH ST, RICHMOND HILL"
      }
    ]
  },
  {
    "postal": "L4B3H1",
    "result": [
      {
        "electoralDistricts": [
          {
            "election": null,
            "id": 89,
            "name": "Richmond Hill"
          }
        ],
        "pollDivisionIds": [
          10141296,
          10141295
        ],
        "postalCode": "L4B3H1",
        "streetName": "BOAKE",
        "streetDirectionId": null,
        "streetTypeId": "TRAIL",
        "placeName": "RICHMOND HILL",
        "streetNameDisplayText": "BOAKE TRAIL, RICHMOND HILL"
      },
      {
        "electoralDistricts": [
          {
            "election": null,
            "id": 89,
            "name": "Richmond Hill"
          }
        ],
        "pollDivisionIds": [
          10141296
        ],
        "postalCode": "L4B3H1",
        "streetName": "DEWBOURNE",
        "streetDirectionId": null,
        "streetTypeId": "AVE",
        "placeName": "RICHMOND HILL",
        "streetNameDisplayText": "DEWBOURNE AVE, RICHMOND HILL"
      },
      {
        "electoralDistricts": [
          {
            "election": null,
            "id": 89,
            "name": "Richmond Hill"
          }
        ],
        "pollDivisionIds": [
          10141296
        ],
        "postalCode": "L4B3H1",
        "streetName": "MANDARIN",
        "streetDirectionId": null,
        "streetTypeId": "CRT",
        "placeName": "RICHMOND HILL",
        "streetNameDisplayText": "MANDARIN CRT, RICHMOND HILL"
      }
    ]
  },
  {
    "postal": "L4B4Y1",
    "result": []
  },
  {
    "postal": "L4B7E2",
    "result": []
  },
  {
    "postal": "L4B2P5",
    "result": [
      {
        "electoralDistricts": [
          {
            "election": null,
            "id": 89,
            "name": "Richmond Hill"
          }
        ],
        "pollDivisionIds": [
          10141297
        ],
        "postalCode": "L4B2P5",
        "streetName": "MIRIAM",
        "streetDirectionId": null,
        "streetTypeId": "CRES",
        "placeName": "RICHMOND HILL",
        "streetNameDisplayText": "MIRIAM CRES, RICHMOND HILL"
      },
      {
        "electoralDistricts": [
          {
            "election": null,
            "id": 89,
            "name": "Richmond Hill"
          }
        ],
        "pollDivisionIds": [
          10141297
        ],
        "postalCode": "L4B2P5",
        "streetName": "RUBIN",
        "streetDirectionId": null,
        "streetTypeId": "ST",
        "placeName": "RICHMOND HILL",
        "streetNameDisplayText": "RUBIN ST, RICHMOND HILL"
      }
    ]
  },
  {
    "postal": "L4B8R7",
    "result": []
  },
  {
    "postal": "L4B9P1",
    "result": []
  },
  {
    "postal": "L4B3B8",
    "result": [
      {
        "electoralDistricts": [
          {
            "election": null,
            "id": 89,
            "name": "Richmond Hill"
          }
        ],
        "pollDivisionIds": [
          10141295
        ],
        "postalCode": "L4B3B8",
        "streetName": "CHILTERN",
        "streetDirectionId": null,
        "streetTypeId": "HILL",
        "placeName": "RICHMOND HILL",
        "streetNameDisplayText": "CHILTERN HILL, RICHMOND HILL"
      }
    ]
  },
  {
    "postal": "L4B3P7",
    "result": [
      {
        "electoralDistricts": [
          {
            "election": null,
            "id": 89,
            "name": "Richmond Hill"
          }
        ],
        "pollDivisionIds": [
          10141298
        ],
        "postalCode": "L4B3P7",
        "streetName": "7",
        "streetDirectionId": "E",
        "streetTypeId": "HWY",
        "placeName": "RICHMOND HILL",
        "streetNameDisplayText": "7 HWY E, RICHMOND HILL"
      }
    ]
  },
  {
    "postal": "L4B9B2",
    "result": []
  },
  {
    "postal": "L4B6Z3",
    "result": []
  },
  {
    "postal": "L4B4N5",
    "result": [
      {
        "electoralDistricts": [
          {
            "election": null,
            "id": 89,
            "name": "Richmond Hill"
          }
        ],
        "pollDivisionIds": [
          10141291
        ],
        "postalCode": "L4B4N5",
        "streetName": "HIGH TECH",
        "streetDirectionId": null,
        "streetTypeId": "RD",
        "placeName": "RICHMOND HILL",
        "streetNameDisplayText": "HIGH TECH RD, RICHMOND HILL"
      }
    ]
  },
  {
    "postal": "L4B8T3",
    "result": []
  },
  {
    "postal": "L4B1V2",
    "result": [
      {
        "electoralDistricts": [
          {
            "election": null,
            "id": 89,
            "name": "Richmond Hill"
          }
        ],
        "pollDivisionIds": [
          10141298
        ],
        "postalCode": "L4B1V2",
        "streetName": "HYDE PARK",
        "streetDirectionId": null,
        "streetTypeId": "DR",
        "placeName": "RICHMOND HILL",
        "streetNameDisplayText": "HYDE PARK DR, RICHMOND HILL"
      },
      {
        "electoralDistricts": [
          {
            "election": null,
            "id": 89,
            "name": "Richmond Hill"
          }
        ],
        "pollDivisionIds": [
          10141297
        ],
        "postalCode": "L4B1V2",
        "streetName": "RED OAK",
        "streetDirectionId": null,
        "streetTypeId": "DR",
        "placeName": "RICHMOND HILL",
        "streetNameDisplayText": "RED OAK DR, RICHMOND HILL"
      }
    ]
  },
  {
    "postal": "L4B1Y0",
    "result": []
  },
  {
    "postal": "L4B3G6",
    "result": [
      {
        "electoralDistricts": [
          {
            "election": null,
            "id": 89,
            "name": "Richmond Hill"
          }
        ],
        "pollDivisionIds": [
          10141296
        ],
        "postalCode": "L4B3G6",
        "streetName": "EASTGATE",
        "streetDirectionId": null,
        "streetTypeId": "CRES",
        "placeName": "RICHMOND HILL",
        "streetNameDisplayText": "EASTGATE CRES, RICHMOND HILL"
      },
      {
        "electoralDistricts": [
          {
            "election": null,
            "id": 89,
            "name": "Richmond Hill"
          }
        ],
        "pollDivisionIds": [
          10141296
        ],
        "postalCode": "L4B3G6",
        "streetName": "HORNER",
        "streetDirectionId": null,
        "streetTypeId": "CRT",
        "placeName": "RICHMOND HILL",
        "streetNameDisplayText": "HORNER CRT, RICHMOND HILL"
      }
    ]
  },
  {
    "postal": "L4B3H7",
    "result": [
      {
        "electoralDistricts": [
          {
            "election": null,
            "id": 89,
            "name": "Richmond Hill"
          }
        ],
        "pollDivisionIds": [
          10141298
        ],
        "postalCode": "L4B3H7",
        "streetName": "WERTHEIM",
        "streetDirectionId": null,
        "streetTypeId": "CRT",
        "placeName": "RICHMOND HILL",
        "streetNameDisplayText": "WERTHEIM CRT, RICHMOND HILL"
      }
    ]
  },
  {
    "postal": "L4B7X8",
    "result": []
  },
  {
    "postal": "L4B0C7",
    "result": [
      {
        "electoralDistricts": [
          {
            "election": null,
            "id": 89,
            "name": "Richmond Hill"
          }
        ],
        "pollDivisionIds": [
          10141298
        ],
        "postalCode": "L4B0C7",
        "streetName": "7",
        "streetDirectionId": "E",
        "streetTypeId": "HWY",
        "placeName": "RICHMOND HILL",
        "streetNameDisplayText": "7 HWY E, RICHMOND HILL"
      }
    ]
  },
  {
    "postal": "L4B0W9",
    "result": []
  },
  {
    "postal": "L4B8E6",
    "result": []
  },
  {
    "postal": "L4B9Z8",
    "result": []
  },
  {
    "postal": "L4B3P4",
    "result": [
      {
        "electoralDistricts": [
          {
            "election": null,
            "id": 89,
            "name": "Richmond Hill"
          }
        ],
        "pollDivisionIds": [
          10141292
        ],
        "postalCode": "L4B3P4",
        "streetName": "BANTRY",
        "streetDirectionId": null,
        "streetTypeId": "AVE",
        "placeName": "RICHMOND HILL",
        "streetNameDisplayText": "BANTRY AVE, RICHMOND HILL"
      },
      {
        "electoralDistricts": [
          {
            "election": null,
            "id": 89,
            "name": "Richmond Hill"
          }
        ],
        "pollDivisionIds": [
          10141284
        ],
        "postalCode": "L4B3P4",
        "streetName": "BATHURST",
        "streetDirectionId": null,
        "streetTypeId": "ST",
        "placeName": "RICHMOND HILL",
        "streetNameDisplayText": "BATHURST ST, RICHMOND HILL"
      },
      {
        "electoralDistricts": [
          {
            "election": null,
            "id": 89,
            "name": "Richmond Hill"
          }
        ],
        "pollDivisionIds": [
          10141282
        ],
        "postalCode": "L4B3P4",
        "streetName": "CARRVILLE",
        "streetDirectionId": null,
        "streetTypeId": "RD",
        "placeName": "RICHMOND HILL",
        "streetNameDisplayText": "CARRVILLE RD, RICHMOND HILL"
      },
      {
        "electoralDistricts": [
          {
            "election": null,
            "id": 89,
            "name": "Richmond Hill"
          }
        ],
        "pollDivisionIds": [
          10141298
        ],
        "postalCode": "L4B3P4",
        "streetName": "EAST BEAVER CREEK",
        "streetDirectionId": null,
        "streetTypeId": "RD",
        "placeName": "RICHMOND HILL",
        "streetNameDisplayText": "EAST BEAVER CREEK RD, RICHMOND HILL"
      },
      {
        "electoralDistricts": [
          {
            "election": null,
            "id": 89,
            "name": "Richmond Hill"
          }
        ],
        "pollDivisionIds": [
          10141286
        ],
        "postalCode": "L4B3P4",
        "streetName": "LORNE",
        "streetDirectionId": null,
        "streetTypeId": "AVE",
        "placeName": "RICHMOND HILL",
        "streetNameDisplayText": "LORNE AVE, RICHMOND HILL"
      },
      {
        "electoralDistricts": [
          {
            "election": null,
            "id": 89,
            "name": "Richmond Hill"
          }
        ],
        "pollDivisionIds": [
          10141285
        ],
        "postalCode": "L4B3P4",
        "streetName": "NEWKIRK",
        "streetDirectionId": null,
        "streetTypeId": "RD",
        "placeName": "RICHMOND HILL",
        "streetNameDisplayText": "NEWKIRK RD, RICHMOND HILL"
      },
      {
        "electoralDistricts": [
          {
            "election": null,
            "id": 89,
            "name": "Richmond Hill"
          }
        ],
        "pollDivisionIds": [
          10141286
        ],
        "postalCode": "L4B3P4",
        "streetName": "PUGSLEY",
        "streetDirectionId": "S",
        "streetTypeId": "AVE",
        "placeName": "RICHMOND HILL",
        "streetNameDisplayText": "PUGSLEY AVE S, RICHMOND HILL"
      }
    ]
  },
  {
    "postal": "L4B6L8",
    "result": []
  },
  {
    "postal": "L4B2R4",
    "result": [
      {
        "electoralDistricts": [
          {
            "election": null,
            "id": 89,
            "name": "Richmond Hill"
          }
        ],
        "pollDivisionIds": [
          10141298
        ],
        "postalCode": "L4B2R4",
        "streetName": "SAMANTHA",
        "streetDirectionId": null,
        "streetTypeId": "CIR",
        "placeName": "RICHMOND HILL",
        "streetNameDisplayText": "SAMANTHA CIR, RICHMOND HILL"
      }
    ]
  },
  {
    "postal": "L4B2W1",
    "result": [
      {
        "electoralDistricts": [
          {
            "election": null,
            "id": 89,
            "name": "Richmond Hill"
          }
        ],
        "pollDivisionIds": [
          10141295
        ],
        "postalCode": "L4B2W1",
        "streetName": "CHADWICK",
        "streetDirectionId": null,
        "streetTypeId": "CRES",
        "placeName": "RICHMOND HILL",
        "streetNameDisplayText": "CHADWICK CRES, RICHMOND HILL"
      }
    ]
  },
  {
    "postal": "L4B9H8",
    "result": []
  },
  {
    "postal": "L4B8X9",
    "result": []
  },
  {
    "postal": "L4B7H4",
    "result": []
  },
  {
    "postal": "L4B3J1",
    "result": [
      {
        "electoralDistricts": [
          {
            "election": null,
            "id": 89,
            "name": "Richmond Hill"
          }
        ],
        "pollDivisionIds": [
          10141295
        ],
        "postalCode": "L4B3J1",
        "streetName": "BROOKSHILL",
        "streetDirectionId": null,
        "streetTypeId": "CRES",
        "placeName": "RICHMOND HILL",
        "streetNameDisplayText": "BROOKSHILL CRES, RICHMOND HILL"
      }
    ]
  },
  {
    "postal": "L4B1P4",
    "result": [
      {
        "electoralDistricts": [
          {
            "election": null,
            "id": 89,
            "name": "Richmond Hill"
          }
        ],
        "pollDivisionIds": [
          10141298
        ],
        "postalCode": "L4B1P4",
        "streetName": "WESTMINSTER",
        "streetDirectionId": null,
        "streetTypeId": "DR",
        "placeName": "RICHMOND HILL",
        "streetNameDisplayText": "WESTMINSTER DR, RICHMOND HILL"
      }
    ]
  },
  {
    "postal": "L4B2A3",
    "result": [
      {
        "electoralDistricts": [
          {
            "election": null,
            "id": 89,
            "name": "Richmond Hill"
          }
        ],
        "pollDivisionIds": [
          10141297
        ],
        "postalCode": "L4B2A3",
        "streetName": "VALLEYMEDE",
        "streetDirectionId": null,
        "streetTypeId": "DR",
        "placeName": "RICHMOND HILL",
        "streetNameDisplayText": "VALLEYMEDE DR, RICHMOND HILL"
      }
    ]
  },
  {
    "postal": "L4B0Z1",
    "result": []
  },
  {
    "postal": "L4B1C1",
    "result": [
      {
        "electoralDistricts": [
          {
            "election": null,
            "id": 89,
            "name": "Richmond Hill"
          }
        ],
        "pollDivisionIds": [
          10141298
        ],
        "postalCode": "L4B1C1",
        "streetName": "REID",
        "streetDirectionId": null,
        "streetTypeId": "ST",
        "placeName": "RICHMOND HILL",
        "streetNameDisplayText": "REID ST, RICHMOND HILL"
      }
    ]
  },
  {
    "postal": "L4B0H3",
    "result": []
  },
  {
    "postal": "L4B7B0",
    "result": []
  },
  {
    "postal": "L4B5K2",
    "result": []
  },
  {
    "postal": "L4B1E9",
    "result": []
  },
  {
    "postal": "L4B9W7",
    "result": []
  },
  {
    "postal": "L4B5W6",
    "result": []
  },
  {
    "postal": "L4B6S6",
    "result": []
  },
  {
    "postal": "L4B2P8",
    "result": [
      {
        "electoralDistricts": [
          {
            "election": null,
            "id": 89,
            "name": "Richmond Hill"
          }
        ],
        "pollDivisionIds": [
          10141297
        ],
        "postalCode": "L4B2P8",
        "streetName": "MIRIAM",
        "streetDirectionId": null,
        "streetTypeId": "CRES",
        "placeName": "RICHMOND HILL",
        "streetNameDisplayText": "MIRIAM CRES, RICHMOND HILL"
      }
    ]
  },
  {
    "postal": "L4B4P8",
    "result": [
      {
        "electoralDistricts": [
          {
            "election": null,
            "id": 89,
            "name": "Richmond Hill"
          }
        ],
        "pollDivisionIds": [
          10141295
        ],
        "postalCode": "L4B4P8",
        "streetName": "CLARENDON",
        "streetDirectionId": null,
        "streetTypeId": "DR",
        "placeName": "RICHMOND HILL",
        "streetNameDisplayText": "CLARENDON DR, RICHMOND HILL"
      },
      {
        "electoralDistricts": [
          {
            "election": null,
            "id": 89,
            "name": "Richmond Hill"
          }
        ],
        "pollDivisionIds": [
          10141295
        ],
        "postalCode": "L4B4P8",
        "streetName": "ORMSBY",
        "streetDirectionId": null,
        "streetTypeId": "CRT",
        "placeName": "RICHMOND HILL",
        "streetNameDisplayText": "ORMSBY CRT, RICHMOND HILL"
      }
    ]
  },
  {
    "postal": "L4B0V9",
    "result": []
  },
  {
    "postal": "L4B5Y2",
    "result": []
  },
  {
    "postal": "L4B7Z7",
    "result": []
  },
  {
    "postal": "L4B6Y8",
    "result": []
  },
  {
    "postal": "L4B2G7",
    "result": [
      {
        "electoralDistricts": [
          {
            "election": null,
            "id": 89,
            "name": "Richmond Hill"
          }
        ],
        "pollDivisionIds": [
          10141296
        ],
        "postalCode": "L4B2G7",
        "streetName": "ARDMORE",
        "streetDirectionId": null,
        "streetTypeId": "CRES",
        "placeName": "RICHMOND HILL",
        "streetNameDisplayText": "ARDMORE CRES, RICHMOND HILL"
      },
      {
        "electoralDistricts": [
          {
            "election": null,
            "id": 89,
            "name": "Richmond Hill"
          }
        ],
        "pollDivisionIds": [
          10141296
        ],
        "postalCode": "L4B2G7",
        "streetName": "GARDINER",
        "streetDirectionId": null,
        "streetTypeId": "CRES",
        "placeName": "RICHMOND HILL",
        "streetNameDisplayText": "GARDINER CRES, RICHMOND HILL"
      }
    ]
  },
  {
    "postal": "L4B8C1",
    "result": []
  },
  {
    "postal": "L4B5C5",
    "result": []
  },
  {
    "postal": "L4B2X8",
    "result": [
      {
        "electoralDistricts": [
          {
            "election": null,
            "id": 89,
            "name": "Richmond Hill"
          }
        ],
        "pollDivisionIds": [
          10141296
        ],
        "postalCode": "L4B2X8",
        "streetName": "EDMUND",
        "streetDirectionId": null,
        "streetTypeId": "CRES",
        "placeName": "RICHMOND HILL",
        "streetNameDisplayText": "EDMUND CRES, RICHMOND HILL"
      }
    ]
  },
  {
    "postal": "L4B1W5",
    "result": [
      {
        "electoralDistricts": [
          {
            "election": null,
            "id": 89,
            "name": "Richmond Hill"
          }
        ],
        "pollDivisionIds": [
          10141297
        ],
        "postalCode": "L4B1W5",
        "streetName": "EDINBURGH",
        "streetDirectionId": null,
        "streetTypeId": "DR",
        "placeName": "RICHMOND HILL",
        "streetNameDisplayText": "EDINBURGH DR, RICHMOND HILL"
      },
      {
        "electoralDistricts": [
          {
            "election": null,
            "id": 89,
            "name": "Richmond Hill"
          }
        ],
        "pollDivisionIds": [
          10141297
        ],
        "postalCode": "L4B1W5",
        "streetName": "HAZELMERE",
        "streetDirectionId": null,
        "streetTypeId": "DR",
        "placeName": "RICHMOND HILL",
        "streetNameDisplayText": "HAZELMERE DR, RICHMOND HILL"
      },
      {
        "electoralDistricts": [
          {
            "election": null,
            "id": 89,
            "name": "Richmond Hill"
          }
        ],
        "pollDivisionIds": [
          10141297
        ],
        "postalCode": "L4B1W5",
        "streetName": "STRATFORD",
        "streetDirectionId": null,
        "streetTypeId": "DR",
        "placeName": "RICHMOND HILL",
        "streetNameDisplayText": "STRATFORD DR, RICHMOND HILL"
      }
    ]
  },
  {
    "postal": "L4B7G0",
    "result": []
  },
  {
    "postal": "L4B8J8",
    "result": []
  },
  {
    "postal": "L4B3Y0",
    "result": []
  },
  {
    "postal": "L4B9T7",
    "result": []
  },
  {
    "postal": "L4B5P4",
    "result": []
  },
  {
    "postal": "L4B4B0",
    "result": []
  },
  {
    "postal": "L4B9N8",
    "result": []
  },
  {
    "postal": "L4B4A7",
    "result": [
      {
        "electoralDistricts": [
          {
            "election": null,
            "id": 89,
            "name": "Richmond Hill"
          }
        ],
        "pollDivisionIds": [
          10141298
        ],
        "postalCode": "L4B4A7",
        "streetName": "YORK",
        "streetDirectionId": null,
        "streetTypeId": "BLVD",
        "placeName": "RICHMOND HILL",
        "streetNameDisplayText": "YORK BLVD, RICHMOND HILL"
      }
    ]
  },
  {
    "postal": "L4B4H9",
    "result": [
      {
        "electoralDistricts": [
          {
            "election": null,
            "id": 89,
            "name": "Richmond Hill"
          }
        ],
        "pollDivisionIds": [
          10141291
        ],
        "postalCode": "L4B4H9",
        "streetName": "BANTRY",
        "streetDirectionId": null,
        "streetTypeId": "AVE",
        "placeName": "RICHMOND HILL",
        "streetNameDisplayText": "BANTRY AVE, RICHMOND HILL"
      },
      {
        "electoralDistricts": [
          {
            "election": null,
            "id": 89,
            "name": "Richmond Hill"
          }
        ],
        "pollDivisionIds": [
          10141291
        ],
        "postalCode": "L4B4H9",
        "streetName": "MELVILLE",
        "streetDirectionId": null,
        "streetTypeId": "ST",
        "placeName": "RICHMOND HILL",
        "streetNameDisplayText": "MELVILLE ST, RICHMOND HILL"
      },
      {
        "electoralDistricts": [
          {
            "election": null,
            "id": 89,
            "name": "Richmond Hill"
          }
        ],
        "pollDivisionIds": [
          10141291
        ],
        "postalCode": "L4B4H9",
        "streetName": "SELKIRK",
        "streetDirectionId": null,
        "streetTypeId": "DR",
        "placeName": "RICHMOND HILL",
        "streetNameDisplayText": "SELKIRK DR, RICHMOND HILL"
      }
    ]
  },
  {
    "postal": "L4B6X1",
    "result": []
  },
  {
    "postal": "L4B9Y7",
    "result": []
  },
  {
    "postal": "L4B2Y5",
    "result": [
      {
        "electoralDistricts": [
          {
            "election": null,
            "id": 89,
            "name": "Richmond Hill"
          }
        ],
        "pollDivisionIds": [
          10141296
        ],
        "postalCode": "L4B2Y5",
        "streetName": "BOAKE",
        "streetDirectionId": null,
        "streetTypeId": "TRAIL",
        "placeName": "RICHMOND HILL",
        "streetNameDisplayText": "BOAKE TRAIL, RICHMOND HILL"
      },
      {
        "electoralDistricts": [
          {
            "election": null,
            "id": 89,
            "name": "Richmond Hill"
          }
        ],
        "pollDivisionIds": [
          10141296
        ],
        "postalCode": "L4B2Y5",
        "streetName": "SPADINA",
        "streetDirectionId": null,
        "streetTypeId": "RD",
        "placeName": "RICHMOND HILL",
        "streetNameDisplayText": "SPADINA RD, RICHMOND HILL"
      }
    ]
  },
  {
    "postal": "L4B8L7",
    "result": []
  },
  {
    "postal": "L4B2A8",
    "result": [
      {
        "electoralDistricts": [
          {
            "election": null,
            "id": 89,
            "name": "Richmond Hill"
          }
        ],
        "pollDivisionIds": [
          10141297
        ],
        "postalCode": "L4B2A8",
        "streetName": "BLACKMORE",
        "streetDirectionId": null,
        "streetTypeId": "AVE",
        "placeName": "RICHMOND HILL",
        "streetNameDisplayText": "BLACKMORE AVE, RICHMOND HILL"
      },
      {
        "electoralDistricts": [
          {
            "election": null,
            "id": 89,
            "name": "Richmond Hill"
          }
        ],
        "pollDivisionIds": [
          10141297
        ],
        "postalCode": "L4B2A8",
        "streetName": "NORTHAMPTON",
        "streetDirectionId": null,
        "streetTypeId": "CRT",
        "placeName": "RICHMOND HILL",
        "streetNameDisplayText": "NORTHAMPTON CRT, RICHMOND HILL"
      }
    ]
  },
  {
    "postal": "L4B2K9",
    "result": [
      {
        "electoralDistricts": [
          {
            "election": null,
            "id": 89,
            "name": "Richmond Hill"
          }
        ],
        "pollDivisionIds": [
          10141296
        ],
        "postalCode": "L4B2K9",
        "streetName": "ALEXANDRA",
        "streetDirectionId": null,
        "streetTypeId": "WOOD",
        "placeName": "RICHMOND HILL",
        "streetNameDisplayText": "ALEXANDRA WOOD, RICHMOND HILL"
      }
    ]
  },
  {
    "postal": "L4B3E5",
    "result": [
      {
        "electoralDistricts": [
          {
            "election": null,
            "id": 89,
            "name": "Richmond Hill"
          }
        ],
        "pollDivisionIds": [
          10141297
        ],
        "postalCode": "L4B3E5",
        "streetName": "16TH",
        "streetDirectionId": null,
        "streetTypeId": "AVE",
        "placeName": "RICHMOND HILL",
        "streetNameDisplayText": "16TH AVE, RICHMOND HILL"
      }
    ]
  },
  {
    "postal": "L4B8N6",
    "result": []
  },
  {
    "postal": "L4B8J4",
    "result": []
  },
  {
    "postal": "L4B4R7",
    "result": []
  },
  {
    "postal": "L4B9K1",
    "result": []
  },
  {
    "postal": "L4B8E1",
    "result": []
  },
  {
    "postal": "L4B0R1",
    "result": []
  },
  {
    "postal": "L4B4J3",
    "result": [
      {
        "electoralDistricts": [
          {
            "election": null,
            "id": 89,
            "name": "Richmond Hill"
          }
        ],
        "pollDivisionIds": [
          10141297
        ],
        "postalCode": "L4B4J3",
        "streetName": "LEEK",
        "streetDirectionId": null,
        "streetTypeId": "CRES",
        "placeName": "RICHMOND HILL",
        "streetNameDisplayText": "LEEK CRES, RICHMOND HILL"
      }
    ]
  },
  {
    "postal": "L4B7E7",
    "result": []
  },
  {
    "postal": "L4B0J0",
    "result": []
  },
  {
    "postal": "L4B7R8",
    "result": []
  },
  {
    "postal": "L4B9X0",
    "result": []
  },
  {
    "postal": "L4B7P6",
    "result": []
  },
  {
    "postal": "L4B0R7",
    "result": []
  },
  {
    "postal": "L4B5W1",
    "result": []
  },
  {
    "postal": "L4B0K4",
    "result": []
  },
  {
    "postal": "L4B7N9",
    "result": []
  },
  {
    "postal": "L4B1N0",
    "result": []
  },
  {
    "postal": "L4B6P3",
    "result": []
  },
  {
    "postal": "L4B5A1",
    "result": []
  },
  {
    "postal": "L4B9M9",
    "result": []
  },
  {
    "postal": "L4B7T6",
    "result": []
  },
  {
    "postal": "L4B3X0",
    "result": []
  },
  {
    "postal": "L4B2T0",
    "result": []
  },
  {
    "postal": "L4B5X9",
    "result": []
  },
  {
    "postal": "L4B2R3",
    "result": [
      {
        "electoralDistricts": [
          {
            "election": null,
            "id": 89,
            "name": "Richmond Hill"
          }
        ],
        "pollDivisionIds": [
          10141298
        ],
        "postalCode": "L4B2R3",
        "streetName": "SAMANTHA",
        "streetDirectionId": null,
        "streetTypeId": "CIR",
        "placeName": "RICHMOND HILL",
        "streetNameDisplayText": "SAMANTHA CIR, RICHMOND HILL"
      }
    ]
  },
  {
    "postal": "L4B5N2",
    "result": []
  },
  {
    "postal": "L4B4Y7",
    "result": []
  },
  {
    "postal": "L4B7M0",
    "result": []
  },
  {
    "postal": "L4B8P3",
    "result": []
  },
  {
    "postal": "L4B3N3",
    "result": [
      {
        "electoralDistricts": [
          {
            "election": null,
            "id": 89,
            "name": "Richmond Hill"
          }
        ],
        "pollDivisionIds": [
          10141298
        ],
        "postalCode": "L4B3N3",
        "streetName": "CHALMERS",
        "streetDirectionId": null,
        "streetTypeId": "RD",
        "placeName": "RICHMOND HILL",
        "streetNameDisplayText": "CHALMERS RD, RICHMOND HILL"
      }
    ]
  },
  {
    "postal": "L4B7S3",
    "result": []
  },
  {
    "postal": "L4B3V9",
    "result": [
      {
        "electoralDistricts": [
          {
            "election": null,
            "id": 89,
            "name": "Richmond Hill"
          }
        ],
        "pollDivisionIds": [
          10141296
        ],
        "postalCode": "L4B3V9",
        "streetName": "GRAYDON",
        "streetDirectionId": null,
        "streetTypeId": "CRES",
        "placeName": "RICHMOND HILL",
        "streetNameDisplayText": "GRAYDON CRES, RICHMOND HILL"
      }
    ]
  },
  {
    "postal": "L4B9N7",
    "result": []
  },
  {
    "postal": "L4B0G4",
    "result": [
      {
        "electoralDistricts": [
          {
            "election": null,
            "id": 89,
            "name": "Richmond Hill"
          }
        ],
        "pollDivisionIds": [
          10141295
        ],
        "postalCode": "L4B0G4",
        "streetName": "DIVON",
        "streetDirectionId": null,
        "streetTypeId": "LANE",
        "placeName": "RICHMOND HILL",
        "streetNameDisplayText": "DIVON LANE, RICHMOND HILL"
      },
      {
        "electoralDistricts": [
          {
            "election": null,
            "id": 89,
            "name": "Richmond Hill"
          }
        ],
        "pollDivisionIds": [
          10141295,
          10141279
        ],
        "postalCode": "L4B0G4",
        "streetName": "DOLAN",
        "streetDirectionId": null,
        "streetTypeId": "LANE",
        "placeName": "RICHMOND HILL",
        "streetNameDisplayText": "DOLAN LANE, RICHMOND HILL"
      },
      {
        "electoralDistricts": [
          {
            "election": null,
            "id": 89,
            "name": "Richmond Hill"
          }
        ],
        "pollDivisionIds": [
          10141295
        ],
        "postalCode": "L4B0G4",
        "streetName": "DUNTON",
        "streetDirectionId": null,
        "streetTypeId": "LANE",
        "placeName": "RICHMOND HILL",
        "streetNameDisplayText": "DUNTON LANE, RICHMOND HILL"
      }
    ]
  },
  {
    "postal": "L4B2E2",
    "result": [
      {
        "electoralDistricts": [
          {
            "election": null,
            "id": 89,
            "name": "Richmond Hill"
          }
        ],
        "pollDivisionIds": [
          10141297
        ],
        "postalCode": "L4B2E2",
        "streetName": "GLENHURST",
        "streetDirectionId": null,
        "streetTypeId": "RD",
        "placeName": "RICHMOND HILL",
        "streetNameDisplayText": "GLENHURST RD, RICHMOND HILL"
      }
    ]
  },
  {
    "postal": "L4B7W8",
    "result": []
  },
  {
    "postal": "L4B7M5",
    "result": []
  },
  {
    "postal": "L4B5W8",
    "result": []
  },
  {
    "postal": "L4B5E5",
    "result": []
  },
  {
    "postal": "L4B1P9",
    "result": [
      {
        "electoralDistricts": [
          {
            "election": null,
            "id": 89,
            "name": "Richmond Hill"
          }
        ],
        "pollDivisionIds": [
          10141298
        ],
        "postalCode": "L4B1P9",
        "streetName": "CASTLERIDGE",
        "streetDirectionId": null,
        "streetTypeId": "DR",
        "placeName": "RICHMOND HILL",
        "streetNameDisplayText": "CASTLERIDGE DR, RICHMOND HILL"
      },
      {
        "electoralDistricts": [
          {
            "election": null,
            "id": 89,
            "name": "Richmond Hill"
          }
        ],
        "pollDivisionIds": [
          10141298
        ],
        "postalCode": "L4B1P9",
        "streetName": "FANSHAWE",
        "streetDirectionId": null,
        "streetTypeId": "DR",
        "placeName": "RICHMOND HILL",
        "streetNameDisplayText": "FANSHAWE DR, RICHMOND HILL"
      }
    ]
  },
  {
    "postal": "L4B8V8",
    "result": []
  },
  {
    "postal": "L4B9G8",
    "result": []
  },
  {
    "postal": "L4B8H9",
    "result": []
  },
  {
    "postal": "L4B1Z1",
    "result": [
      {
        "electoralDistricts": [
          {
            "election": null,
            "id": 89,
            "name": "Richmond Hill"
          }
        ],
        "pollDivisionIds": [
          10141297
        ],
        "postalCode": "L4B1Z1",
        "streetName": "BLACKMORE",
        "streetDirectionId": null,
        "streetTypeId": "AVE",
        "placeName": "RICHMOND HILL",
        "streetNameDisplayText": "BLACKMORE AVE, RICHMOND HILL"
      },
      {
        "electoralDistricts": [
          {
            "election": null,
            "id": 89,
            "name": "Richmond Hill"
          }
        ],
        "pollDivisionIds": [
          10141297
        ],
        "postalCode": "L4B1Z1",
        "streetName": "WALTHAM",
        "streetDirectionId": null,
        "streetTypeId": "CRES",
        "placeName": "RICHMOND HILL",
        "streetNameDisplayText": "WALTHAM CRES, RICHMOND HILL"
      }
    ]
  },
  {
    "postal": "L4B8M3",
    "result": []
  },
  {
    "postal": "L4B5H6",
    "result": []
  },
  {
    "postal": "L4B7W7",
    "result": []
  },
  {
    "postal": "L4B4L0",
    "result": []
  },
  {
    "postal": "L4B2N1",
    "result": [
      {
        "electoralDistricts": [
          {
            "election": null,
            "id": 89,
            "name": "Richmond Hill"
          }
        ],
        "pollDivisionIds": [
          10141298
        ],
        "postalCode": "L4B2N1",
        "streetName": "EAST BEAVER CREEK",
        "streetDirectionId": null,
        "streetTypeId": "RD",
        "placeName": "RICHMOND HILL",
        "streetNameDisplayText": "EAST BEAVER CREEK RD, RICHMOND HILL"
      }
    ]
  },
  {
    "postal": "L4B2H4",
    "result": [
      {
        "electoralDistricts": [
          {
            "election": null,
            "id": 89,
            "name": "Richmond Hill"
          }
        ],
        "pollDivisionIds": [
          10141296
        ],
        "postalCode": "L4B2H4",
        "streetName": "DUNLOE",
        "streetDirectionId": null,
        "streetTypeId": "RD",
        "placeName": "RICHMOND HILL",
        "streetNameDisplayText": "DUNLOE RD, RICHMOND HILL"
      }
    ]
  },
  {
    "postal": "L4B5C8",
    "result": []
  },
  {
    "postal": "L4B8B0",
    "result": []
  },
  {
    "postal": "L4B1T4",
    "result": [
      {
        "electoralDistricts": [
          {
            "election": null,
            "id": 89,
            "name": "Richmond Hill"
          }
        ],
        "pollDivisionIds": [
          10141298
        ],
        "postalCode": "L4B1T4",
        "streetName": "LEICESTER",
        "streetDirectionId": null,
        "streetTypeId": "RD",
        "placeName": "RICHMOND HILL",
        "streetNameDisplayText": "LEICESTER RD, RICHMOND HILL"
      },
      {
        "electoralDistricts": [
          {
            "election": null,
            "id": 89,
            "name": "Richmond Hill"
          }
        ],
        "pollDivisionIds": [
          10141298
        ],
        "postalCode": "L4B1T4",
        "streetName": "VALLEYMEDE",
        "streetDirectionId": null,
        "streetTypeId": "DR",
        "placeName": "RICHMOND HILL",
        "streetNameDisplayText": "VALLEYMEDE DR, RICHMOND HILL"
      }
    ]
  },
  {
    "postal": "L4B7N7",
    "result": []
  },
  {
    "postal": "L4B4L3",
    "result": [
      {
        "electoralDistricts": [
          {
            "election": null,
            "id": 89,
            "name": "Richmond Hill"
          }
        ],
        "pollDivisionIds": [
          10141291
        ],
        "postalCode": "L4B4L3",
        "streetName": "GRASSLANDS",
        "streetDirectionId": null,
        "streetTypeId": "AVE",
        "placeName": "RICHMOND HILL",
        "streetNameDisplayText": "GRASSLANDS AVE, RICHMOND HILL"
      },
      {
        "electoralDistricts": [
          {
            "election": null,
            "id": 89,
            "name": "Richmond Hill"
          }
        ],
        "pollDivisionIds": [
          10141291
        ],
        "postalCode": "L4B4L3",
        "streetName": "NAHANNI",
        "streetDirectionId": null,
        "streetTypeId": "DR",
        "placeName": "RICHMOND HILL",
        "streetNameDisplayText": "NAHANNI DR, RICHMOND HILL"
      },
      {
        "electoralDistricts": [
          {
            "election": null,
            "id": 89,
            "name": "Richmond Hill"
          }
        ],
        "pollDivisionIds": [
          10141291
        ],
        "postalCode": "L4B4L3",
        "streetName": "WATERTON",
        "streetDirectionId": null,
        "streetTypeId": "CRES",
        "placeName": "RICHMOND HILL",
        "streetNameDisplayText": "WATERTON CRES, RICHMOND HILL"
      }
    ]
  },
  {
    "postal": "L4B2N2",
    "result": [
      {
        "electoralDistricts": [
          {
            "election": null,
            "id": 89,
            "name": "Richmond Hill"
          }
        ],
        "pollDivisionIds": [
          10141298
        ],
        "postalCode": "L4B2N2",
        "streetName": "EAST BEAVER CREEK",
        "streetDirectionId": null,
        "streetTypeId": "RD",
        "placeName": "RICHMOND HILL",
        "streetNameDisplayText": "EAST BEAVER CREEK RD, RICHMOND HILL"
      }
    ]
  },
  {
    "postal": "L4B4N8",
    "result": [
      {
        "electoralDistricts": [
          {
            "election": null,
            "id": 89,
            "name": "Richmond Hill"
          }
        ],
        "pollDivisionIds": [
          10141297
        ],
        "postalCode": "L4B4N8",
        "streetName": "LEEK",
        "streetDirectionId": null,
        "streetTypeId": "CRES",
        "placeName": "RICHMOND HILL",
        "streetNameDisplayText": "LEEK CRES, RICHMOND HILL"
      }
    ]
  },
  {
    "postal": "L4B3M5",
    "result": [
      {
        "electoralDistricts": [
          {
            "election": null,
            "id": 89,
            "name": "Richmond Hill"
          }
        ],
        "pollDivisionIds": [
          10141298
        ],
        "postalCode": "L4B3M5",
        "streetName": "BAYVIEW",
        "streetDirectionId": null,
        "streetTypeId": "AVE",
        "placeName": "RICHMOND HILL",
        "streetNameDisplayText": "BAYVIEW AVE, RICHMOND HILL"
      }
    ]
  },
  {
    "postal": "L4B6H7",
    "result": []
  },
  {
    "postal": "L4B8Y8",
    "result": []
  },
  {
    "postal": "L4B5R9",
    "result": []
  },
  {
    "postal": "L4B8G3",
    "result": []
  },
  {
    "postal": "L4B4N7",
    "result": [
      {
        "electoralDistricts": [
          {
            "election": null,
            "id": 89,
            "name": "Richmond Hill"
          }
        ],
        "pollDivisionIds": [
          10141291
        ],
        "postalCode": "L4B4N7",
        "streetName": "HIGH TECH",
        "streetDirectionId": null,
        "streetTypeId": "RD",
        "placeName": "RICHMOND HILL",
        "streetNameDisplayText": "HIGH TECH RD, RICHMOND HILL"
      }
    ]
  },
  {
    "postal": "L4B0B9",
    "result": [
      {
        "electoralDistricts": [
          {
            "election": null,
            "id": 89,
            "name": "Richmond Hill"
          }
        ],
        "pollDivisionIds": [
          10141297
        ],
        "postalCode": "L4B0B9",
        "streetName": "LESLIE",
        "streetDirectionId": null,
        "streetTypeId": "ST",
        "placeName": "RICHMOND HILL",
        "streetNameDisplayText": "LESLIE ST, RICHMOND HILL"
      }
    ]
  },
  {
    "postal": "L4B9K7",
    "result": []
  },
  {
    "postal": "L4B9K9",
    "result": []
  },
  {
    "postal": "L4B3Z2",
    "result": [
      {
        "electoralDistricts": [
          {
            "election": null,
            "id": 89,
            "name": "Richmond Hill"
          }
        ],
        "pollDivisionIds": [
          10141297
        ],
        "postalCode": "L4B3Z2",
        "streetName": "BLACKMORE",
        "streetDirectionId": null,
        "streetTypeId": "AVE",
        "placeName": "RICHMOND HILL",
        "streetNameDisplayText": "BLACKMORE AVE, RICHMOND HILL"
      },
      {
        "electoralDistricts": [
          {
            "election": null,
            "id": 89,
            "name": "Richmond Hill"
          }
        ],
        "pollDivisionIds": [
          10141297
        ],
        "postalCode": "L4B3Z2",
        "streetName": "BRIGGS",
        "streetDirectionId": null,
        "streetTypeId": "AVE",
        "placeName": "RICHMOND HILL",
        "streetNameDisplayText": "BRIGGS AVE, RICHMOND HILL"
      },
      {
        "electoralDistricts": [
          {
            "election": null,
            "id": 89,
            "name": "Richmond Hill"
          }
        ],
        "pollDivisionIds": [
          10141297
        ],
        "postalCode": "L4B3Z2",
        "streetName": "FISICO",
        "streetDirectionId": null,
        "streetTypeId": "CRT",
        "placeName": "RICHMOND HILL",
        "streetNameDisplayText": "FISICO CRT, RICHMOND HILL"
      }
    ]
  },
  {
    "postal": "L4B6W7",
    "result": []
  },
  {
    "postal": "L4B0P1",
    "result": []
  },
  {
    "postal": "L4B3A0",
    "result": []
  },
  {
    "postal": "L4B8L9",
    "result": []
  },
  {
    "postal": "L4B6X0",
    "result": []
  },
  {
    "postal": "L4B3E9",
    "result": [
      {
        "electoralDistricts": [
          {
            "election": null,
            "id": 89,
            "name": "Richmond Hill"
          }
        ],
        "pollDivisionIds": [
          10141297
        ],
        "postalCode": "L4B3E9",
        "streetName": "COMPTON",
        "streetDirectionId": null,
        "streetTypeId": "CRES",
        "placeName": "RICHMOND HILL",
        "streetNameDisplayText": "COMPTON CRES, RICHMOND HILL"
      }
    ]
  },
  {
    "postal": "L4B0S5",
    "result": []
  },
  {
    "postal": "L4B1A2",
    "result": [
      {
        "electoralDistricts": [
          {
            "election": null,
            "id": 89,
            "name": "Richmond Hill"
          }
        ],
        "pollDivisionIds": [
          10141298
        ],
        "postalCode": "L4B1A2",
        "streetName": "DONCREST",
        "streetDirectionId": null,
        "streetTypeId": "RD",
        "placeName": "RICHMOND HILL",
        "streetNameDisplayText": "DONCREST RD, RICHMOND HILL"
      }
    ]
  },
  {
    "postal": "L4B5V8",
    "result": []
  },
  {
    "postal": "L4B8C5",
    "result": []
  },
  {
    "postal": "L4B6N0",
    "result": []
  },
  {
    "postal": "L4B9E6",
    "result": []
  },
  {
    "postal": "L4B5J7",
    "result": []
  },
  {
    "postal": "L4B2R2",
    "result": [
      {
        "electoralDistricts": [
          {
            "election": null,
            "id": 89,
            "name": "Richmond Hill"
          }
        ],
        "pollDivisionIds": [
          10141297
        ],
        "postalCode": "L4B2R2",
        "streetName": "PEARL GATE",
        "streetDirectionId": null,
        "streetTypeId": "CRT",
        "placeName": "RICHMOND HILL",
        "streetNameDisplayText": "PEARL GATE CRT, RICHMOND HILL"
      },
      {
        "electoralDistricts": [
          {
            "election": null,
            "id": 89,
            "name": "Richmond Hill"
          }
        ],
        "pollDivisionIds": [
          10141297
        ],
        "postalCode": "L4B2R2",
        "streetName": "RUBIN",
        "streetDirectionId": null,
        "streetTypeId": "ST",
        "placeName": "RICHMOND HILL",
        "streetNameDisplayText": "RUBIN ST, RICHMOND HILL"
      }
    ]
  },
  {
    "postal": "L4B0P5",
    "result": []
  },
  {
    "postal": "L4B5A7",
    "result": []
  },
  {
    "postal": "L4B1G1",
    "result": []
  },
  {
    "postal": "L4B9R6",
    "result": []
  },
  {
    "postal": "L4B4Z9",
    "result": []
  },
  {
    "postal": "L4B1V5",
    "result": [
      {
        "electoralDistricts": [
          {
            "election": null,
            "id": 89,
            "name": "Richmond Hill"
          }
        ],
        "pollDivisionIds": [
          10141297,
          10141298
        ],
        "postalCode": "L4B1V5",
        "streetName": "RED OAK",
        "streetDirectionId": null,
        "streetTypeId": "DR",
        "placeName": "RICHMOND HILL",
        "streetNameDisplayText": "RED OAK DR, RICHMOND HILL"
      }
    ]
  },
  {
    "postal": "L4B9Y5",
    "result": []
  },
  {
    "postal": "L4B1P2",
    "result": [
      {
        "electoralDistricts": [
          {
            "election": null,
            "id": 89,
            "name": "Richmond Hill"
          }
        ],
        "pollDivisionIds": [
          10141298
        ],
        "postalCode": "L4B1P2",
        "streetName": "QUEENS COLLEGE",
        "streetDirectionId": null,
        "streetTypeId": "DR",
        "placeName": "RICHMOND HILL",
        "streetNameDisplayText": "QUEENS COLLEGE DR, RICHMOND HILL"
      }
    ]
  },
  {
    "postal": "L4B5X0",
    "result": []
  },
  {
    "postal": "L4B7B8",
    "result": []
  },
  {
    "postal": "L4B0C6",
    "result": [
      {
        "electoralDistricts": [
          {
            "election": null,
            "id": 89,
            "name": "Richmond Hill"
          }
        ],
        "pollDivisionIds": [
          10141298
        ],
        "postalCode": "L4B0C6",
        "streetName": "7",
        "streetDirectionId": "E",
        "streetTypeId": "HWY",
        "placeName": "RICHMOND HILL",
        "streetNameDisplayText": "7 HWY E, RICHMOND HILL"
      }
    ]
  },
  {
    "postal": "L4B6G1",
    "result": []
  },
  {
    "postal": "L4B3K3",
    "result": [
      {
        "electoralDistricts": [
          {
            "election": null,
            "id": 89,
            "name": "Richmond Hill"
          }
        ],
        "pollDivisionIds": [
          10141298
        ],
        "postalCode": "L4B3K3",
        "streetName": "WEST PEARCE",
        "streetDirectionId": null,
        "streetTypeId": "ST",
        "placeName": "RICHMOND HILL",
        "streetNameDisplayText": "WEST PEARCE ST, RICHMOND HILL"
      }
    ]
  },
  {
    "postal": "L4B9R0",
    "result": []
  },
  {
    "postal": "L4B4R8",
    "result": [
      {
        "electoralDistricts": [
          {
            "election": null,
            "id": 89,
            "name": "Richmond Hill"
          }
        ],
        "pollDivisionIds": [
          10141330
        ],
        "postalCode": "L4B4R8",
        "streetName": "LESLIE",
        "streetDirectionId": null,
        "streetTypeId": "ST",
        "placeName": "RICHMOND HILL",
        "streetNameDisplayText": "LESLIE ST, RICHMOND HILL"
      }
    ]
  },
  {
    "postal": "L4B5P9",
    "result": []
  },
  {
    "postal": "L4B8N4",
    "result": []
  },
  {
    "postal": "L4B8H4",
    "result": []
  },
  {
    "postal": "L4B4V1",
    "result": [
      {
        "electoralDistricts": [
          {
            "election": null,
            "id": 89,
            "name": "Richmond Hill"
          }
        ],
        "pollDivisionIds": [
          10141298
        ],
        "postalCode": "L4B4V1",
        "streetName": "EAST BEAVER CREEK",
        "streetDirectionId": null,
        "streetTypeId": "RD",
        "placeName": "RICHMOND HILL",
        "streetNameDisplayText": "EAST BEAVER CREEK RD, RICHMOND HILL"
      }
    ]
  },
  {
    "postal": "L4B1K5",
    "result": [
      {
        "electoralDistricts": [
          {
            "election": null,
            "id": 89,
            "name": "Richmond Hill"
          }
        ],
        "pollDivisionIds": [
          10141297
        ],
        "postalCode": "L4B1K5",
        "streetName": "WEST BEAVER CREEK",
        "streetDirectionId": null,
        "streetTypeId": "RD",
        "placeName": "RICHMOND HILL",
        "streetNameDisplayText": "WEST BEAVER CREEK RD, RICHMOND HILL"
      }
    ]
  },
  {
    "postal": "L4B1Z5",
    "result": [
      {
        "electoralDistricts": [
          {
            "election": null,
            "id": 89,
            "name": "Richmond Hill"
          }
        ],
        "pollDivisionIds": [
          10141297
        ],
        "postalCode": "L4B1Z5",
        "streetName": "ASHDOWN",
        "streetDirectionId": null,
        "streetTypeId": "CRES",
        "placeName": "RICHMOND HILL",
        "streetNameDisplayText": "ASHDOWN CRES, RICHMOND HILL"
      },
      {
        "electoralDistricts": [
          {
            "election": null,
            "id": 89,
            "name": "Richmond Hill"
          }
        ],
        "pollDivisionIds": [
          10141297
        ],
        "postalCode": "L4B1Z5",
        "streetName": "BLACKMORE",
        "streetDirectionId": null,
        "streetTypeId": "AVE",
        "placeName": "RICHMOND HILL",
        "streetNameDisplayText": "BLACKMORE AVE, RICHMOND HILL"
      }
    ]
  },
  {
    "postal": "L4B9L9",
    "result": []
  },
  {
    "postal": "L4B5L2",
    "result": []
  },
  {
    "postal": "L4B0M2",
    "result": []
  },
  {
    "postal": "L4B1K8",
    "result": [
      {
        "electoralDistricts": [
          {
            "election": null,
            "id": 89,
            "name": "Richmond Hill"
          }
        ],
        "pollDivisionIds": [
          10141297
        ],
        "postalCode": "L4B1K8",
        "streetName": "KINNEAR",
        "streetDirectionId": null,
        "streetTypeId": "CRT",
        "placeName": "RICHMOND HILL",
        "streetNameDisplayText": "KINNEAR CRT, RICHMOND HILL"
      }
    ]
  },
  {
    "postal": "L4B3M7",
    "result": [
      {
        "electoralDistricts": [
          {
            "election": null,
            "id": 89,
            "name": "Richmond Hill"
          }
        ],
        "pollDivisionIds": [
          10141298
        ],
        "postalCode": "L4B3M7",
        "streetName": "BAYVIEW",
        "streetDirectionId": null,
        "streetTypeId": "AVE",
        "placeName": "RICHMOND HILL",
        "streetNameDisplayText": "BAYVIEW AVE, RICHMOND HILL"
      }
    ]
  },
  {
    "postal": "L4B1B2",
    "result": [
      {
        "electoralDistricts": [
          {
            "election": null,
            "id": 89,
            "name": "Richmond Hill"
          }
        ],
        "pollDivisionIds": [
          10141298
        ],
        "postalCode": "L4B1B2",
        "streetName": "7",
        "streetDirectionId": "E",
        "streetTypeId": "HWY",
        "placeName": "RICHMOND HILL",
        "streetNameDisplayText": "7 HWY E, RICHMOND HILL"
      }
    ]
  },
  {
    "postal": "L4B0H9",
    "result": []
  },
  {
    "postal": "L4B8M4",
    "result": []
  },
  {
    "postal": "L4B2M5",
    "result": [
      {
        "electoralDistricts": [
          {
            "election": null,
            "id": 89,
            "name": "Richmond Hill"
          }
        ],
        "pollDivisionIds": [
          10141296
        ],
        "postalCode": "L4B2M5",
        "streetName": "OLD PARK",
        "streetDirectionId": null,
        "streetTypeId": "LANE",
        "placeName": "RICHMOND HILL",
        "streetNameDisplayText": "OLD PARK LANE, RICHMOND HILL"
      },
      {
        "electoralDistricts": [
          {
            "election": null,
            "id": 89,
            "name": "Richmond Hill"
          }
        ],
        "pollDivisionIds": [
          10141295,
          10141296
        ],
        "postalCode": "L4B2M5",
        "streetName": "WELDRICK",
        "streetDirectionId": "E",
        "streetTypeId": "RD",
        "placeName": "RICHMOND HILL",
        "streetNameDisplayText": "WELDRICK RD E, RICHMOND HILL"
      }
    ]
  },
  {
    "postal": "L4B0T9",
    "result": []
  },
  {
    "postal": "L4B3P1",
    "result": []
  },
  {
    "postal": "L4B1R6",
    "result": [
      {
        "electoralDistricts": [
          {
            "election": null,
            "id": 89,
            "name": "Richmond Hill"
          }
        ],
        "pollDivisionIds": [
          10141298
        ],
        "postalCode": "L4B1R6",
        "streetName": "KEW",
        "streetDirectionId": null,
        "streetTypeId": "GDNS",
        "placeName": "RICHMOND HILL",
        "streetNameDisplayText": "KEW GDNS, RICHMOND HILL"
      }
    ]
  },
  {
    "postal": "L4B9V5",
    "result": []
  },
  {
    "postal": "L4B9T0",
    "result": []
  },
  {
    "postal": "L4B0A9",
    "result": [
      {
        "electoralDistricts": [
          {
            "election": null,
            "id": 89,
            "name": "Richmond Hill"
          }
        ],
        "pollDivisionIds": [
          10141297
        ],
        "postalCode": "L4B0A9",
        "streetName": "LESLIE",
        "streetDirectionId": null,
        "streetTypeId": "ST",
        "placeName": "RICHMOND HILL",
        "streetNameDisplayText": "LESLIE ST, RICHMOND HILL"
      }
    ]
  },
  {
    "postal": "L4B1M3",
    "result": []
  },
  {
    "postal": "L4B1W8",
    "result": [
      {
        "electoralDistricts": [
          {
            "election": null,
            "id": 89,
            "name": "Richmond Hill"
          }
        ],
        "pollDivisionIds": [
          10141297
        ],
        "postalCode": "L4B1W8",
        "streetName": "HAZELMERE",
        "streetDirectionId": null,
        "streetTypeId": "DR",
        "placeName": "RICHMOND HILL",
        "streetNameDisplayText": "HAZELMERE DR, RICHMOND HILL"
      }
    ]
  },
  {
    "postal": "L4B9J1",
    "result": []
  },
  {
    "postal": "L4B8N5",
    "result": []
  },
  {
    "postal": "L4B5X1",
    "result": []
  },
  {
    "postal": "L4B6S2",
    "result": []
  },
  {
    "postal": "L4B2A2",
    "result": [
      {
        "electoralDistricts": [
          {
            "election": null,
            "id": 89,
            "name": "Richmond Hill"
          }
        ],
        "pollDivisionIds": [
          10141297
        ],
        "postalCode": "L4B2A2",
        "streetName": "BLACKMORE",
        "streetDirectionId": null,
        "streetTypeId": "AVE",
        "placeName": "RICHMOND HILL",
        "streetNameDisplayText": "BLACKMORE AVE, RICHMOND HILL"
      },
      {
        "electoralDistricts": [
          {
            "election": null,
            "id": 89,
            "name": "Richmond Hill"
          }
        ],
        "pollDivisionIds": [
          10141297
        ],
        "postalCode": "L4B2A2",
        "streetName": "VALLEYMEDE",
        "streetDirectionId": null,
        "streetTypeId": "DR",
        "placeName": "RICHMOND HILL",
        "streetNameDisplayText": "VALLEYMEDE DR, RICHMOND HILL"
      }
    ]
  },
  {
    "postal": "L4B6A6",
    "result": []
  },
  {
    "postal": "L4B0S3",
    "result": []
  },
  {
    "postal": "L4B3E7",
    "result": [
      {
        "electoralDistricts": [
          {
            "election": null,
            "id": 89,
            "name": "Richmond Hill"
          }
        ],
        "pollDivisionIds": [
          10141297
        ],
        "postalCode": "L4B3E7",
        "streetName": "EASTDALE",
        "streetDirectionId": null,
        "streetTypeId": "CRES",
        "placeName": "RICHMOND HILL",
        "streetNameDisplayText": "EASTDALE CRES, RICHMOND HILL"
      },
      {
        "electoralDistricts": [
          {
            "election": null,
            "id": 89,
            "name": "Richmond Hill"
          }
        ],
        "pollDivisionIds": [
          10141297
        ],
        "postalCode": "L4B3E7",
        "streetName": "MEADOWCLIFFE",
        "streetDirectionId": null,
        "streetTypeId": "AVE",
        "placeName": "RICHMOND HILL",
        "streetNameDisplayText": "MEADOWCLIFFE AVE, RICHMOND HILL"
      }
    ]
  },
  {
    "postal": "L4B5R7",
    "result": []
  },
  {
    "postal": "L4B3R6",
    "result": [
      {
        "electoralDistricts": [
          {
            "election": null,
            "id": 89,
            "name": "Richmond Hill"
          }
        ],
        "pollDivisionIds": [
          10141292
        ],
        "postalCode": "L4B3R6",
        "streetName": "FERN",
        "streetDirectionId": null,
        "streetTypeId": "AVE",
        "placeName": "RICHMOND HILL",
        "streetNameDisplayText": "FERN AVE, RICHMOND HILL"
      },
      {
        "electoralDistricts": [
          {
            "election": null,
            "id": 89,
            "name": "Richmond Hill"
          }
        ],
        "pollDivisionIds": [
          10141292
        ],
        "postalCode": "L4B3R6",
        "streetName": "SILVER FIR",
        "streetDirectionId": null,
        "streetTypeId": "ST",
        "placeName": "RICHMOND HILL",
        "streetNameDisplayText": "SILVER FIR ST, RICHMOND HILL"
      },
      {
        "electoralDistricts": [
          {
            "election": null,
            "id": 89,
            "name": "Richmond Hill"
          }
        ],
        "pollDivisionIds": [
          10141292
        ],
        "postalCode": "L4B3R6",
        "streetName": "SPRINGBROOK",
        "streetDirectionId": null,
        "streetTypeId": "DR",
        "placeName": "RICHMOND HILL",
        "streetNameDisplayText": "SPRINGBROOK DR, RICHMOND HILL"
      }
    ]
  },
  {
    "postal": "L4B6K4",
    "result": []
  },
  {
    "postal": "L4B2W5",
    "result": [
      {
        "electoralDistricts": [
          {
            "election": null,
            "id": 89,
            "name": "Richmond Hill"
          }
        ],
        "pollDivisionIds": [
          10141295
        ],
        "postalCode": "L4B2W5",
        "streetName": "CHADWICK",
        "streetDirectionId": null,
        "streetTypeId": "CRES",
        "placeName": "RICHMOND HILL",
        "streetNameDisplayText": "CHADWICK CRES, RICHMOND HILL"
      }
    ]
  },
  {
    "postal": "L4B8W4",
    "result": []
  },
  {
    "postal": "L4B9C2",
    "result": []
  },
  {
    "postal": "L4B2C0",
    "result": []
  },
  {
    "postal": "L4B0E1",
    "result": []
  },
  {
    "postal": "L4B1K9",
    "result": [
      {
        "electoralDistricts": [
          {
            "election": null,
            "id": 89,
            "name": "Richmond Hill"
          }
        ],
        "pollDivisionIds": [
          10141298
        ],
        "postalCode": "L4B1K9",
        "streetName": "SIMS",
        "streetDirectionId": null,
        "streetTypeId": "CRES",
        "placeName": "RICHMOND HILL",
        "streetNameDisplayText": "SIMS CRES, RICHMOND HILL"
      }
    ]
  },
  {
    "postal": "L4B1G7",
    "result": [
      {
        "electoralDistricts": [
          {
            "election": null,
            "id": 89,
            "name": "Richmond Hill"
          }
        ],
        "pollDivisionIds": [
          10141298
        ],
        "postalCode": "L4B1G7",
        "streetName": "LESLIE",
        "streetDirectionId": null,
        "streetTypeId": "ST",
        "placeName": "RICHMOND HILL",
        "streetNameDisplayText": "LESLIE ST, RICHMOND HILL"
      }
    ]
  },
  {
    "postal": "L4B4E9",
    "result": [
      {
        "electoralDistricts": [
          {
            "election": null,
            "id": 89,
            "name": "Richmond Hill"
          }
        ],
        "pollDivisionIds": [
          10141292
        ],
        "postalCode": "L4B4E9",
        "streetName": "BANTRY",
        "streetDirectionId": null,
        "streetTypeId": "AVE",
        "placeName": "RICHMOND HILL",
        "streetNameDisplayText": "BANTRY AVE, RICHMOND HILL"
      },
      {
        "electoralDistricts": [
          {
            "election": null,
            "id": 89,
            "name": "Richmond Hill"
          }
        ],
        "pollDivisionIds": [
          10141292
        ],
        "postalCode": "L4B4E9",
        "streetName": "YUKON",
        "streetDirectionId": null,
        "streetTypeId": "DR",
        "placeName": "RICHMOND HILL",
        "streetNameDisplayText": "YUKON DR, RICHMOND HILL"
      }
    ]
  },
  {
    "postal": "L4B9P0",
    "result": []
  },
  {
    "postal": "L4B5H3",
    "result": []
  },
  {
    "postal": "L4B9X6",
    "result": []
  },
  {
    "postal": "L4B5N7",
    "result": []
  },
  {
    "postal": "L4B5A6",
    "result": []
  },
  {
    "postal": "L4B4M0",
    "result": []
  },
  {
    "postal": "L4B3V6",
    "result": [
      {
        "electoralDistricts": [
          {
            "election": null,
            "id": 89,
            "name": "Richmond Hill"
          }
        ],
        "pollDivisionIds": [
          10141298
        ],
        "postalCode": "L4B3V6",
        "streetName": "LEICESTER",
        "streetDirectionId": null,
        "streetTypeId": "RD",
        "placeName": "RICHMOND HILL",
        "streetNameDisplayText": "LEICESTER RD, RICHMOND HILL"
      }
    ]
  },
  {
    "postal": "L4B1L7",
    "result": [
      {
        "electoralDistricts": [
          {
            "election": null,
            "id": 89,
            "name": "Richmond Hill"
          }
        ],
        "pollDivisionIds": [
          10141298
        ],
        "postalCode": "L4B1L7",
        "streetName": "WEST WILMOT",
        "streetDirectionId": null,
        "streetTypeId": "ST",
        "placeName": "RICHMOND HILL",
        "streetNameDisplayText": "WEST WILMOT ST, RICHMOND HILL"
      }
    ]
  },
  {
    "postal": "L4B2P9",
    "result": [
      {
        "electoralDistricts": [
          {
            "election": null,
            "id": 89,
            "name": "Richmond Hill"
          }
        ],
        "pollDivisionIds": [
          10141297
        ],
        "postalCode": "L4B2P9",
        "streetName": "PEARL GATE",
        "streetDirectionId": null,
        "streetTypeId": "CRT",
        "placeName": "RICHMOND HILL",
        "streetNameDisplayText": "PEARL GATE CRT, RICHMOND HILL"
      }
    ]
  },
  {
    "postal": "L4B5T4",
    "result": []
  },
  {
    "postal": "L4B5Z1",
    "result": []
  },
  {
    "postal": "L4B2X0",
    "result": []
  },
  {
    "postal": "L4B6Z2",
    "result": []
  },
  {
    "postal": "L4B0E0",
    "result": []
  },
  {
    "postal": "L4B3Z5",
    "result": [
      {
        "electoralDistricts": [
          {
            "election": null,
            "id": 89,
            "name": "Richmond Hill"
          }
        ],
        "pollDivisionIds": [
          10141295
        ],
        "postalCode": "L4B3Z5",
        "streetName": "ALESSIA",
        "streetDirectionId": null,
        "streetTypeId": "CRT",
        "placeName": "RICHMOND HILL",
        "streetNameDisplayText": "ALESSIA CRT, RICHMOND HILL"
      },
      {
        "electoralDistricts": [
          {
            "election": null,
            "id": 89,
            "name": "Richmond Hill"
          }
        ],
        "pollDivisionIds": [
          10141295
        ],
        "postalCode": "L4B3Z5",
        "streetName": "CLARENDON",
        "streetDirectionId": null,
        "streetTypeId": "DR",
        "placeName": "RICHMOND HILL",
        "streetNameDisplayText": "CLARENDON DR, RICHMOND HILL"
      }
    ]
  },
  {
    "postal": "L4B8H3",
    "result": []
  },
  {
    "postal": "L4B7S6",
    "result": []
  },
  {
    "postal": "L4B4C1",
    "result": []
  },
  {
    "postal": "L4B3K2",
    "result": [
      {
        "electoralDistricts": [
          {
            "election": null,
            "id": 89,
            "name": "Richmond Hill"
          }
        ],
        "pollDivisionIds": [
          10141298
        ],
        "postalCode": "L4B3K2",
        "streetName": "HIGHWAY 7",
        "streetDirectionId": "E",
        "streetTypeId": null,
        "placeName": "RICHMOND HILL",
        "streetNameDisplayText": "HIGHWAY 7 E, RICHMOND HILL"
      }
    ]
  },
  {
    "postal": "L4B1Y5",
    "result": [
      {
        "electoralDistricts": [
          {
            "election": null,
            "id": 89,
            "name": "Richmond Hill"
          }
        ],
        "pollDivisionIds": [
          10141297
        ],
        "postalCode": "L4B1Y5",
        "streetName": "EMMANUEL",
        "streetDirectionId": null,
        "streetTypeId": "DR",
        "placeName": "RICHMOND HILL",
        "streetNameDisplayText": "EMMANUEL DR, RICHMOND HILL"
      },
      {
        "electoralDistricts": [
          {
            "election": null,
            "id": 89,
            "name": "Richmond Hill"
          }
        ],
        "pollDivisionIds": [
          10141297
        ],
        "postalCode": "L4B1Y5",
        "streetName": "HANNA",
        "streetDirectionId": null,
        "streetTypeId": "AVE",
        "placeName": "RICHMOND HILL",
        "streetNameDisplayText": "HANNA AVE, RICHMOND HILL"
      }
    ]
  },
  {
    "postal": "L4B6P6",
    "result": []
  },
  {
    "postal": "L4B3N9",
    "result": [
      {
        "electoralDistricts": [
          {
            "election": null,
            "id": 89,
            "name": "Richmond Hill"
          }
        ],
        "pollDivisionIds": [
          10141297
        ],
        "postalCode": "L4B3N9",
        "streetName": "16TH",
        "streetDirectionId": null,
        "streetTypeId": "AVE",
        "placeName": "RICHMOND HILL",
        "streetNameDisplayText": "16TH AVE, RICHMOND HILL"
      }
    ]
  },
  {
    "postal": "L4B3W2",
    "result": [
      {
        "electoralDistricts": [
          {
            "election": null,
            "id": 89,
            "name": "Richmond Hill"
          }
        ],
        "pollDivisionIds": [
          10141296
        ],
        "postalCode": "L4B3W2",
        "streetName": "AVERY",
        "streetDirectionId": null,
        "streetTypeId": "CRT",
        "placeName": "RICHMOND HILL",
        "streetNameDisplayText": "AVERY CRT, RICHMOND HILL"
      },
      {
        "electoralDistricts": [
          {
            "election": null,
            "id": 89,
            "name": "Richmond Hill"
          }
        ],
        "pollDivisionIds": [
          10141295,
          10141296
        ],
        "postalCode": "L4B3W2",
        "streetName": "CLARENDON",
        "streetDirectionId": null,
        "streetTypeId": "DR",
        "placeName": "RICHMOND HILL",
        "streetNameDisplayText": "CLARENDON DR, RICHMOND HILL"
      }
    ]
  },
  {
    "postal": "L4B6H8",
    "result": []
  },
  {
    "postal": "L4B9T3",
    "result": []
  },
  {
    "postal": "L4B5L9",
    "result": []
  },
  {
    "postal": "L4B7X7",
    "result": []
  },
  {
    "postal": "L4B3J5",
    "result": [
      {
        "electoralDistricts": [
          {
            "election": null,
            "id": 89,
            "name": "Richmond Hill"
          }
        ],
        "pollDivisionIds": [
          10141297
        ],
        "postalCode": "L4B3J5",
        "streetName": "BRIGGS",
        "streetDirectionId": null,
        "streetTypeId": "AVE",
        "placeName": "RICHMOND HILL",
        "streetNameDisplayText": "BRIGGS AVE, RICHMOND HILL"
      },
      {
        "electoralDistricts": [
          {
            "election": null,
            "id": 89,
            "name": "Richmond Hill"
          }
        ],
        "pollDivisionIds": [
          10141298,
          10141297
        ],
        "postalCode": "L4B3J5",
        "streetName": "VALLEYMEDE",
        "streetDirectionId": null,
        "streetTypeId": "DR",
        "placeName": "RICHMOND HILL",
        "streetNameDisplayText": "VALLEYMEDE DR, RICHMOND HILL"
      }
    ]
  },
  {
    "postal": "L4B4J5",
    "result": [
      {
        "electoralDistricts": [
          {
            "election": null,
            "id": 89,
            "name": "Richmond Hill"
          }
        ],
        "pollDivisionIds": [
          10141291
        ],
        "postalCode": "L4B4J5",
        "streetName": "BAFFIN",
        "streetDirectionId": null,
        "streetTypeId": "CRT",
        "placeName": "RICHMOND HILL",
        "streetNameDisplayText": "BAFFIN CRT, RICHMOND HILL"
      },
      {
        "electoralDistricts": [
          {
            "election": null,
            "id": 89,
            "name": "Richmond Hill"
          }
        ],
        "pollDivisionIds": [
          10141291
        ],
        "postalCode": "L4B4J5",
        "streetName": "BERESFORD",
        "streetDirectionId": null,
        "streetTypeId": "DR",
        "placeName": "RICHMOND HILL",
        "streetNameDisplayText": "BERESFORD DR, RICHMOND HILL"
      },
      {
        "electoralDistricts": [
          {
            "election": null,
            "id": 89,
            "name": "Richmond Hill"
          }
        ],
        "pollDivisionIds": [
          10141281
        ],
        "postalCode": "L4B4J5",
        "streetName": "BERSFORD",
        "streetDirectionId": null,
        "streetTypeId": "DR",
        "placeName": "RICHMOND HILL",
        "streetNameDisplayText": "BERSFORD DR, RICHMOND HILL"
      }
    ]
  },
  {
    "postal": "L4B6J2",
    "result": []
  },
  {
    "postal": "L4B5V6",
    "result": []
  },
  {
    "postal": "L4B3N2",
    "result": [
      {
        "electoralDistricts": [
          {
            "election": null,
            "id": 89,
            "name": "Richmond Hill"
          }
        ],
        "pollDivisionIds": [
          10141298
        ],
        "postalCode": "L4B3N2",
        "streetName": "7",
        "streetDirectionId": "E",
        "streetTypeId": "HWY",
        "placeName": "RICHMOND HILL",
        "streetNameDisplayText": "7 HWY E, RICHMOND HILL"
      }
    ]
  },
  {
    "postal": "L4B3B1",
    "result": [
      {
        "electoralDistricts": [
          {
            "election": null,
            "id": 89,
            "name": "Richmond Hill"
          }
        ],
        "pollDivisionIds": [
          10141298
        ],
        "postalCode": "L4B3B1",
        "streetName": "WEST BEAVER CREEK",
        "streetDirectionId": null,
        "streetTypeId": "RD",
        "placeName": "RICHMOND HILL",
        "streetNameDisplayText": "WEST BEAVER CREEK RD, RICHMOND HILL"
      }
    ]
  },
  {
    "postal": "L4B8B5",
    "result": []
  },
  {
    "postal": "L4B0K1",
    "result": []
  },
  {
    "postal": "L4B7M7",
    "result": []
  },
  {
    "postal": "L4B2M2",
    "result": [
      {
        "electoralDistricts": [
          {
            "election": null,
            "id": 89,
            "name": "Richmond Hill"
          }
        ],
        "pollDivisionIds": [
          10141296
        ],
        "postalCode": "L4B2M2",
        "streetName": "VESTA",
        "streetDirectionId": null,
        "streetTypeId": "DR",
        "placeName": "RICHMOND HILL",
        "streetNameDisplayText": "VESTA DR, RICHMOND HILL"
      }
    ]
  },
  {
    "postal": "L4B9N3",
    "result": []
  },
  {
    "postal": "L4B4Y8",
    "result": []
  },
  {
    "postal": "L4B3V7",
    "result": [
      {
        "electoralDistricts": [
          {
            "election": null,
            "id": 89,
            "name": "Richmond Hill"
          }
        ],
        "pollDivisionIds": [
          10141296
        ],
        "postalCode": "L4B3V7",
        "streetName": "GREENSHIRE",
        "streetDirectionId": null,
        "streetTypeId": "ST",
        "placeName": "RICHMOND HILL",
        "streetNameDisplayText": "GREENSHIRE ST, RICHMOND HILL"
      },
      {
        "electoralDistricts": [
          {
            "election": null,
            "id": 89,
            "name": "Richmond Hill"
          }
        ],
        "pollDivisionIds": [
          10141296
        ],
        "postalCode": "L4B3V7",
        "streetName": "HEADFORD",
        "streetDirectionId": null,
        "streetTypeId": "AVE",
        "placeName": "RICHMOND HILL",
        "streetNameDisplayText": "HEADFORD AVE, RICHMOND HILL"
      }
    ]
  },
  {
    "postal": "L4B8Z1",
    "result": []
  },
  {
    "postal": "L4B7B3",
    "result": []
  },
  {
    "postal": "L4B3A8",
    "result": [
      {
        "electoralDistricts": [
          {
            "election": null,
            "id": 89,
            "name": "Richmond Hill"
          }
        ],
        "pollDivisionIds": [
          10141298
        ],
        "postalCode": "L4B3A8",
        "streetName": "WERTHEIM",
        "streetDirectionId": null,
        "streetTypeId": "CRT",
        "placeName": "RICHMOND HILL",
        "streetNameDisplayText": "WERTHEIM CRT, RICHMOND HILL"
      }
    ]
  },
  {
    "postal": "L4B7V5",
    "result": []
  },
  {
    "postal": "L4B2T2",
    "result": [
      {
        "electoralDistricts": [
          {
            "election": null,
            "id": 89,
            "name": "Richmond Hill"
          }
        ],
        "pollDivisionIds": [
          10141295
        ],
        "postalCode": "L4B2T2",
        "streetName": "HIGHVIEW",
        "streetDirectionId": null,
        "streetTypeId": "CRES",
        "placeName": "RICHMOND HILL",
        "streetNameDisplayText": "HIGHVIEW CRES, RICHMOND HILL"
      },
      {
        "electoralDistricts": [
          {
            "election": null,
            "id": 89,
            "name": "Richmond Hill"
          }
        ],
        "pollDivisionIds": [
          10141295
        ],
        "postalCode": "L4B2T2",
        "streetName": "KING'S CROSS",
        "streetDirectionId": null,
        "streetTypeId": "AVE",
        "placeName": "RICHMOND HILL",
        "streetNameDisplayText": "KING'S CROSS AVE, RICHMOND HILL"
      }
    ]
  },
  {
    "postal": "L4B6L3",
    "result": []
  },
  {
    "postal": "L4B0L2",
    "result": []
  },
  {
    "postal": "L4B5Y8",
    "result": []
  },
  {
    "postal": "L4B0B8",
    "result": []
  },
  {
    "postal": "L4B6R5",
    "result": []
  },
  {
    "postal": "L4B8W6",
    "result": []
  },
  {
    "postal": "L4B8G6",
    "result": []
  },
  {
    "postal": "L4B6X3",
    "result": []
  },
  {
    "postal": "L4B7R7",
    "result": []
  },
  {
    "postal": "L4B4B6",
    "result": [
      {
        "electoralDistricts": [
          {
            "election": null,
            "id": 89,
            "name": "Richmond Hill"
          }
        ],
        "pollDivisionIds": [
          10141295
        ],
        "postalCode": "L4B4B6",
        "streetName": "BRIMWOOD",
        "streetDirectionId": null,
        "streetTypeId": "CRES",
        "placeName": "RICHMOND HILL",
        "streetNameDisplayText": "BRIMWOOD CRES, RICHMOND HILL"
      }
    ]
  },
  {
    "postal": "L4B3P9",
    "result": [
      {
        "electoralDistricts": [
          {
            "election": null,
            "id": 89,
            "name": "Richmond Hill"
          }
        ],
        "pollDivisionIds": [
          10141292
        ],
        "postalCode": "L4B3P9",
        "streetName": "GREY ALDER",
        "streetDirectionId": null,
        "streetTypeId": "AVE",
        "placeName": "RICHMOND HILL",
        "streetNameDisplayText": "GREY ALDER AVE, RICHMOND HILL"
      },
      {
        "electoralDistricts": [
          {
            "election": null,
            "id": 89,
            "name": "Richmond Hill"
          }
        ],
        "pollDivisionIds": [
          10141292
        ],
        "postalCode": "L4B3P9",
        "streetName": "SPRINGBROOK",
        "streetDirectionId": null,
        "streetTypeId": "DR",
        "placeName": "RICHMOND HILL",
        "streetNameDisplayText": "SPRINGBROOK DR, RICHMOND HILL"
      }
    ]
  },
  {
    "postal": "L4B2T3",
    "result": [
      {
        "electoralDistricts": [
          {
            "election": null,
            "id": 89,
            "name": "Richmond Hill"
          }
        ],
        "pollDivisionIds": [
          10141295
        ],
        "postalCode": "L4B2T3",
        "streetName": "KING'S CROSS",
        "streetDirectionId": null,
        "streetTypeId": "AVE",
        "placeName": "RICHMOND HILL",
        "streetNameDisplayText": "KING'S CROSS AVE, RICHMOND HILL"
      },
      {
        "electoralDistricts": [
          {
            "election": null,
            "id": 89,
            "name": "Richmond Hill"
          }
        ],
        "pollDivisionIds": [
          10141295
        ],
        "postalCode": "L4B2T3",
        "streetName": "MONTCLAIR",
        "streetDirectionId": null,
        "streetTypeId": "RD",
        "placeName": "RICHMOND HILL",
        "streetNameDisplayText": "MONTCLAIR RD, RICHMOND HILL"
      }
    ]
  },
  {
    "postal": "L4B1M4",
    "result": [
      {
        "electoralDistricts": [
          {
            "election": null,
            "id": 89,
            "name": "Richmond Hill"
          }
        ],
        "pollDivisionIds": [
          10141297
        ],
        "postalCode": "L4B1M4",
        "streetName": "MURAL",
        "streetDirectionId": null,
        "streetTypeId": "ST",
        "placeName": "RICHMOND HILL",
        "streetNameDisplayText": "MURAL ST, RICHMOND HILL"
      }
    ]
  },
  {
    "postal": "L4B0H1",
    "result": []
  },
  {
    "postal": "L4B9W3",
    "result": []
  },
  {
    "postal": "L4B6P1",
    "result": []
  },
  {
    "postal": "L4B7G2",
    "result": []
  },
  {
    "postal": "L4B4J9",
    "result": [
      {
        "electoralDistricts": [
          {
            "election": null,
            "id": 89,
            "name": "Richmond Hill"
          }
        ],
        "pollDivisionIds": [
          10141291
        ],
        "postalCode": "L4B4J9",
        "streetName": "BASSETT",
        "streetDirectionId": null,
        "streetTypeId": "AVE",
        "placeName": "RICHMOND HILL",
        "streetNameDisplayText": "BASSETT AVE, RICHMOND HILL"
      }
    ]
  },
  {
    "postal": "L4B9E4",
    "result": []
  },
  {
    "postal": "L4B8H0",
    "result": []
  },
  {
    "postal": "L4B4M7",
    "result": [
      {
        "electoralDistricts": [
          {
            "election": null,
            "id": 89,
            "name": "Richmond Hill"
          }
        ],
        "pollDivisionIds": [
          10141291
        ],
        "postalCode": "L4B4M7",
        "streetName": "BANTRY",
        "streetDirectionId": null,
        "streetTypeId": "AVE",
        "placeName": "RICHMOND HILL",
        "streetNameDisplayText": "BANTRY AVE, RICHMOND HILL"
      }
    ]
  },
  {
    "postal": "L4B2G9",
    "result": [
      {
        "electoralDistricts": [
          {
            "election": null,
            "id": 89,
            "name": "Richmond Hill"
          }
        ],
        "pollDivisionIds": [
          10141296
        ],
        "postalCode": "L4B2G9",
        "streetName": "GLENARDEN",
        "streetDirectionId": null,
        "streetTypeId": "CRES",
        "placeName": "RICHMOND HILL",
        "streetNameDisplayText": "GLENARDEN CRES, RICHMOND HILL"
      }
    ]
  },
  {
    "postal": "L4B8T2",
    "result": []
  },
  {
    "postal": "L4B7G7",
    "result": []
  },
  {
    "postal": "L4B4Z3",
    "result": []
  },
  {
    "postal": "L4B5B3",
    "result": []
  },
  {
    "postal": "L4B1S7",
    "result": [
      {
        "electoralDistricts": [
          {
            "election": null,
            "id": 89,
            "name": "Richmond Hill"
          }
        ],
        "pollDivisionIds": [
          10141298
        ],
        "postalCode": "L4B1S7",
        "streetName": "CASTLERIDGE",
        "streetDirectionId": null,
        "streetTypeId": "DR",
        "placeName": "RICHMOND HILL",
        "streetNameDisplayText": "CASTLERIDGE DR, RICHMOND HILL"
      },
      {
        "electoralDistricts": [
          {
            "election": null,
            "id": 89,
            "name": "Richmond Hill"
          }
        ],
        "pollDivisionIds": [
          10141298
        ],
        "postalCode": "L4B1S7",
        "streetName": "CHALMERS",
        "streetDirectionId": null,
        "streetTypeId": "RD",
        "placeName": "RICHMOND HILL",
        "streetNameDisplayText": "CHALMERS RD, RICHMOND HILL"
      }
    ]
  },
  {
    "postal": "L4B2N7",
    "result": [
      {
        "electoralDistricts": [
          {
            "election": null,
            "id": 89,
            "name": "Richmond Hill"
          }
        ],
        "pollDivisionIds": [
          10141298
        ],
        "postalCode": "L4B2N7",
        "streetName": "7",
        "streetDirectionId": "E",
        "streetTypeId": "HWY",
        "placeName": "RICHMOND HILL",
        "streetNameDisplayText": "7 HWY E, RICHMOND HILL"
      }
    ]
  },
  {
    "postal": "L4B0H8",
    "result": []
  },
  {
    "postal": "L4B7Z4",
    "result": []
  },
  {
    "postal": "L4B7B1",
    "result": []
  },
  {
    "postal": "L4B7P8",
    "result": []
  },
  {
    "postal": "L4B7N0",
    "result": []
  },
  {
    "postal": "L4B3Y5",
    "result": [
      {
        "electoralDistricts": [
          {
            "election": null,
            "id": 89,
            "name": "Richmond Hill"
          }
        ],
        "pollDivisionIds": [
          10141296
        ],
        "postalCode": "L4B3Y5",
        "streetName": "LESLIE",
        "streetDirectionId": null,
        "streetTypeId": "ST",
        "placeName": "RICHMOND HILL",
        "streetNameDisplayText": "LESLIE ST, RICHMOND HILL"
      }
    ]
  },
  {
    "postal": "L4B6K1",
    "result": []
  },
  {
    "postal": "L4B9X5",
    "result": []
  },
  {
    "postal": "L4B7S5",
    "result": []
  },
  {
    "postal": "L4B0A4",
    "result": []
  },
  {
    "postal": "L4B4T5",
    "result": [
      {
        "electoralDistricts": [
          {
            "election": null,
            "id": 89,
            "name": "Richmond Hill"
          }
        ],
        "pollDivisionIds": [
          10141292
        ],
        "postalCode": "L4B4T5",
        "streetName": "LEVELLANDS",
        "streetDirectionId": null,
        "streetTypeId": "CRES",
        "placeName": "RICHMOND HILL",
        "streetNameDisplayText": "LEVELLANDS CRES, RICHMOND HILL"
      },
      {
        "electoralDistricts": [
          {
            "election": null,
            "id": 89,
            "name": "Richmond Hill"
          }
        ],
        "pollDivisionIds": [
          10141292
        ],
        "postalCode": "L4B4T5",
        "streetName": "PRINCE PATRICK",
        "streetDirectionId": null,
        "streetTypeId": "AVE",
        "placeName": "RICHMOND HILL",
        "streetNameDisplayText": "PRINCE PATRICK AVE, RICHMOND HILL"
      },
      {
        "electoralDistricts": [
          {
            "election": null,
            "id": 89,
            "name": "Richmond Hill"
          }
        ],
        "pollDivisionIds": [
          10141292
        ],
        "postalCode": "L4B4T5",
        "streetName": "REVELSTOKE",
        "streetDirectionId": null,
        "streetTypeId": "CRES",
        "placeName": "RICHMOND HILL",
        "streetNameDisplayText": "REVELSTOKE CRES, RICHMOND HILL"
      }
    ]
  },
  {
    "postal": "L4B5K1",
    "result": []
  },
  {
    "postal": "L4B0Z9",
    "result": []
  },
  {
    "postal": "L4B7T2",
    "result": []
  },
  {
    "postal": "L4B1L5",
    "result": [
      {
        "electoralDistricts": [
          {
            "election": null,
            "id": 89,
            "name": "Richmond Hill"
          }
        ],
        "pollDivisionIds": [
          10141297
        ],
        "postalCode": "L4B1L5",
        "streetName": "GRANTON",
        "streetDirectionId": null,
        "streetTypeId": "DR",
        "placeName": "RICHMOND HILL",
        "streetNameDisplayText": "GRANTON DR, RICHMOND HILL"
      }
    ]
  },
  {
    "postal": "L4B3N5",
    "result": [
      {
        "electoralDistricts": [
          {
            "election": null,
            "id": 89,
            "name": "Richmond Hill"
          }
        ],
        "pollDivisionIds": [
          10141297
        ],
        "postalCode": "L4B3N5",
        "streetName": "ROYAL MANOR",
        "streetDirectionId": null,
        "streetTypeId": "CRES",
        "placeName": "RICHMOND HILL",
        "streetNameDisplayText": "ROYAL MANOR CRES, RICHMOND HILL"
      }
    ]
  },
  {
    "postal": "L4B6H4",
    "result": []
  },
  {
    "postal": "L4B5A5",
    "result": []
  },
  {
    "postal": "L4B3R9",
    "result": [
      {
        "electoralDistricts": [
          {
            "election": null,
            "id": 89,
            "name": "Richmond Hill"
          }
        ],
        "pollDivisionIds": [
          10141292
        ],
        "postalCode": "L4B3R9",
        "streetName": "GREEN ASH",
        "streetDirectionId": null,
        "streetTypeId": "CRES",
        "placeName": "RICHMOND HILL",
        "streetNameDisplayText": "GREEN ASH CRES, RICHMOND HILL"
      },
      {
        "electoralDistricts": [
          {
            "election": null,
            "id": 89,
            "name": "Richmond Hill"
          }
        ],
        "pollDivisionIds": [
          10141292
        ],
        "postalCode": "L4B3R9",
        "streetName": "SPRINGBROOK",
        "streetDirectionId": null,
        "streetTypeId": "DR",
        "placeName": "RICHMOND HILL",
        "streetNameDisplayText": "SPRINGBROOK DR, RICHMOND HILL"
      }
    ]
  },
  {
    "postal": "L4B7L8",
    "result": []
  },
  {
    "postal": "L4B6T6",
    "result": []
  },
  {
    "postal": "L4B7Y7",
    "result": []
  },
  {
    "postal": "L4B3M8",
    "result": [
      {
        "electoralDistricts": [
          {
            "election": null,
            "id": 89,
            "name": "Richmond Hill"
          }
        ],
        "pollDivisionIds": [
          10141298
        ],
        "postalCode": "L4B3M8",
        "streetName": "BAYVIEW",
        "streetDirectionId": null,
        "streetTypeId": "AVE",
        "placeName": "RICHMOND HILL",
        "streetNameDisplayText": "BAYVIEW AVE, RICHMOND HILL"
      }
    ]
  },
  {
    "postal": "L4B2E0",
    "result": []
  },
  {
    "postal": "L4B4B5",
    "result": [
      {
        "electoralDistricts": [
          {
            "election": null,
            "id": 89,
            "name": "Richmond Hill"
          }
        ],
        "pollDivisionIds": [
          10141295
        ],
        "postalCode": "L4B4B5",
        "streetName": "EDENBROOK",
        "streetDirectionId": null,
        "streetTypeId": "CRES",
        "placeName": "RICHMOND HILL",
        "streetNameDisplayText": "EDENBROOK CRES, RICHMOND HILL"
      },
      {
        "electoralDistricts": [
          {
            "election": null,
            "id": 89,
            "name": "Richmond Hill"
          }
        ],
        "pollDivisionIds": [
          10141295
        ],
        "postalCode": "L4B4B5",
        "streetName": "FARNHAM",
        "streetDirectionId": null,
        "streetTypeId": "DR",
        "placeName": "RICHMOND HILL",
        "streetNameDisplayText": "FARNHAM DR, RICHMOND HILL"
      }
    ]
  },
  {
    "postal": "L4B1J3",
    "result": [
      {
        "electoralDistricts": [
          {
            "election": null,
            "id": 89,
            "name": "Richmond Hill"
          }
        ],
        "pollDivisionIds": [
          10141297
        ],
        "postalCode": "L4B1J3",
        "streetName": "MURAL",
        "streetDirectionId": null,
        "streetTypeId": "ST",
        "placeName": "RICHMOND HILL",
        "streetNameDisplayText": "MURAL ST, RICHMOND HILL"
      }
    ]
  },
  {
    "postal": "L4B5S6",
    "result": []
  },
  {
    "postal": "L4B8P7",
    "result": []
  },
  {
    "postal": "L4B7S7",
    "result": []
  },
  {
    "postal": "L4B4C2",
    "result": [
      {
        "electoralDistricts": [
          {
            "election": null,
            "id": 89,
            "name": "Richmond Hill"
          }
        ],
        "pollDivisionIds": [
          10141297
        ],
        "postalCode": "L4B4C2",
        "streetName": "LEEK",
        "streetDirectionId": null,
        "streetTypeId": "CRES",
        "placeName": "RICHMOND HILL",
        "streetNameDisplayText": "LEEK CRES, RICHMOND HILL"
      }
    ]
  },
  {
    "postal": "L4B5Y0",
    "result": []
  },
  {
    "postal": "L4B2V7",
    "result": [
      {
        "electoralDistricts": [
          {
            "election": null,
            "id": 89,
            "name": "Richmond Hill"
          }
        ],
        "pollDivisionIds": [
          10141296
        ],
        "postalCode": "L4B2V7",
        "streetName": "GLENAYR",
        "streetDirectionId": null,
        "streetTypeId": "RD",
        "placeName": "RICHMOND HILL",
        "streetNameDisplayText": "GLENAYR RD, RICHMOND HILL"
      }
    ]
  },
  {
    "postal": "L4B8P5",
    "result": []
  },
  {
    "postal": "L4B5P5",
    "result": []
  },
  {
    "postal": "L4B5Z0",
    "result": []
  },
  {
    "postal": "L4B9B0",
    "result": []
  },
  {
    "postal": "L4B1L0",
    "result": []
  },
  {
    "postal": "L4B0B5",
    "result": [
      {
        "electoralDistricts": [
          {
            "election": null,
            "id": 89,
            "name": "Richmond Hill"
          }
        ],
        "pollDivisionIds": [
          10141295
        ],
        "postalCode": "L4B0B5",
        "streetName": "STAPLES",
        "streetDirectionId": null,
        "streetTypeId": "AVE",
        "placeName": "RICHMOND HILL",
        "streetNameDisplayText": "STAPLES AVE, RICHMOND HILL"
      }
    ]
  },
  {
    "postal": "L4B3L2",
    "result": []
  },
  {
    "postal": "L4B3B7",
    "result": [
      {
        "electoralDistricts": [
          {
            "election": null,
            "id": 89,
            "name": "Richmond Hill"
          }
        ],
        "pollDivisionIds": [
          10141295
        ],
        "postalCode": "L4B3B7",
        "streetName": "HILLHURST",
        "streetDirectionId": null,
        "streetTypeId": "DR",
        "placeName": "RICHMOND HILL",
        "streetNameDisplayText": "HILLHURST DR, RICHMOND HILL"
      },
      {
        "electoralDistricts": [
          {
            "election": null,
            "id": 89,
            "name": "Richmond Hill"
          }
        ],
        "pollDivisionIds": [
          10141295
        ],
        "postalCode": "L4B3B7",
        "streetName": "STRATHEARN",
        "streetDirectionId": null,
        "streetTypeId": "AVE",
        "placeName": "RICHMOND HILL",
        "streetNameDisplayText": "STRATHEARN AVE, RICHMOND HILL"
      }
    ]
  },
  {
    "postal": "L4B8L1",
    "result": []
  },
  {
    "postal": "L4B5M4",
    "result": []
  },
  {
    "postal": "L4B4G9",
    "result": [
      {
        "electoralDistricts": [
          {
            "election": null,
            "id": 89,
            "name": "Richmond Hill"
          }
        ],
        "pollDivisionIds": [
          10141291
        ],
        "postalCode": "L4B4G9",
        "streetName": "BALTIC",
        "streetDirectionId": null,
        "streetTypeId": "ST",
        "placeName": "RICHMOND HILL",
        "streetNameDisplayText": "BALTIC ST, RICHMOND HILL"
      },
      {
        "electoralDistricts": [
          {
            "election": null,
            "id": 89,
            "name": "Richmond Hill"
          }
        ],
        "pollDivisionIds": [
          10141291
        ],
        "postalCode": "L4B4G9",
        "streetName": "SILVER LINDEN",
        "streetDirectionId": null,
        "streetTypeId": "DR",
        "placeName": "RICHMOND HILL",
        "streetNameDisplayText": "SILVER LINDEN DR, RICHMOND HILL"
      }
    ]
  },
  {
    "postal": "L4B0P0",
    "result": []
  },
  {
    "postal": "L4B8G2",
    "result": []
  },
  {
    "postal": "L4B1V9",
    "result": [
      {
        "electoralDistricts": [
          {
            "election": null,
            "id": 89,
            "name": "Richmond Hill"
          }
        ],
        "pollDivisionIds": [
          10141297
        ],
        "postalCode": "L4B1V9",
        "streetName": "RED OAK",
        "streetDirectionId": null,
        "streetTypeId": "DR",
        "placeName": "RICHMOND HILL",
        "streetNameDisplayText": "RED OAK DR, RICHMOND HILL"
      }
    ]
  },
  {
    "postal": "L4B8N8",
    "result": []
  },
  {
    "postal": "L4B6S8",
    "result": []
  },
  {
    "postal": "L4B8H2",
    "result": []
  },
  {
    "postal": "L4B5R8",
    "result": []
  },
  {
    "postal": "L4B5L4",
    "result": []
  },
  {
    "postal": "L4B9E1",
    "result": []
  },
  {
    "postal": "L4B1C4",
    "result": [
      {
        "electoralDistricts": [
          {
            "election": null,
            "id": 89,
            "name": "Richmond Hill"
          }
        ],
        "pollDivisionIds": [
          10141298
        ],
        "postalCode": "L4B1C4",
        "streetName": "REID",
        "streetDirectionId": null,
        "streetTypeId": "ST",
        "placeName": "RICHMOND HILL",
        "streetNameDisplayText": "REID ST, RICHMOND HILL"
      }
    ]
  },
  {
    "postal": "L4B8W5",
    "result": []
  },
  {
    "postal": "L4B1Y4",
    "result": [
      {
        "electoralDistricts": [
          {
            "election": null,
            "id": 89,
            "name": "Richmond Hill"
          }
        ],
        "pollDivisionIds": [
          10141297
        ],
        "postalCode": "L4B1Y4",
        "streetName": "EMMANUEL",
        "streetDirectionId": null,
        "streetTypeId": "DR",
        "placeName": "RICHMOND HILL",
        "streetNameDisplayText": "EMMANUEL DR, RICHMOND HILL"
      }
    ]
  },
  {
    "postal": "L4B1C0",
    "result": []
  },
  {
    "postal": "L4B2J2",
    "result": [
      {
        "electoralDistricts": [
          {
            "election": null,
            "id": 89,
            "name": "Richmond Hill"
          }
        ],
        "pollDivisionIds": [
          10141296
        ],
        "postalCode": "L4B2J2",
        "streetName": "DUNLOE",
        "streetDirectionId": null,
        "streetTypeId": "RD",
        "placeName": "RICHMOND HILL",
        "streetNameDisplayText": "DUNLOE RD, RICHMOND HILL"
      },
      {
        "electoralDistricts": [
          {
            "election": null,
            "id": 89,
            "name": "Richmond Hill"
          }
        ],
        "pollDivisionIds": [
          10141296
        ],
        "postalCode": "L4B2J2",
        "streetName": "GLENARDEN",
        "streetDirectionId": null,
        "streetTypeId": "CRES",
        "placeName": "RICHMOND HILL",
        "streetNameDisplayText": "GLENARDEN CRES, RICHMOND HILL"
      },
      {
        "electoralDistricts": [
          {
            "election": null,
            "id": 89,
            "name": "Richmond Hill"
          }
        ],
        "pollDivisionIds": [
          10141296
        ],
        "postalCode": "L4B2J2",
        "streetName": "HILLHOLM",
        "streetDirectionId": null,
        "streetTypeId": "BLVD",
        "placeName": "RICHMOND HILL",
        "streetNameDisplayText": "HILLHOLM BLVD, RICHMOND HILL"
      }
    ]
  },
  {
    "postal": "L4B2J0",
    "result": []
  },
  {
    "postal": "L4B7A3",
    "result": []
  },
  {
    "postal": "L4B8M1",
    "result": []
  },
  {
    "postal": "L4B7T9",
    "result": []
  },
  {
    "postal": "L4B6C0",
    "result": []
  },
  {
    "postal": "L4B7X1",
    "result": []
  },
  {
    "postal": "L4B0G1",
    "result": [
      {
        "electoralDistricts": [
          {
            "election": null,
            "id": 89,
            "name": "Richmond Hill"
          }
        ],
        "pollDivisionIds": [
          10141295
        ],
        "postalCode": "L4B0G1",
        "streetName": "GIARDINA",
        "streetDirectionId": null,
        "streetTypeId": "CRES",
        "placeName": "RICHMOND HILL",
        "streetNameDisplayText": "GIARDINA CRES, RICHMOND HILL"
      }
    ]
  },
  {
    "postal": "L4B4X2",
    "result": []
  },
  {
    "postal": "L4B0N6",
    "result": []
  },
  {
    "postal": "L4B8E3",
    "result": []
  },
  {
    "postal": "L4B5S8",
    "result": []
  },
  {
    "postal": "L4B0R0",
    "result": []
  },
  {
    "postal": "L4B6J6",
    "result": []
  },
  {
    "postal": "L4B4B4",
    "result": [
      {
        "electoralDistricts": [
          {
            "election": null,
            "id": 89,
            "name": "Richmond Hill"
          }
        ],
        "pollDivisionIds": [
          10141295
        ],
        "postalCode": "L4B4B4",
        "streetName": "BOAKE",
        "streetDirectionId": null,
        "streetTypeId": "TRAIL",
        "placeName": "RICHMOND HILL",
        "streetNameDisplayText": "BOAKE TRAIL, RICHMOND HILL"
      },
      {
        "electoralDistricts": [
          {
            "election": null,
            "id": 89,
            "name": "Richmond Hill"
          }
        ],
        "pollDivisionIds": [
          10141295
        ],
        "postalCode": "L4B4B4",
        "streetName": "BRIMWOOD",
        "streetDirectionId": null,
        "streetTypeId": "CRES",
        "placeName": "RICHMOND HILL",
        "streetNameDisplayText": "BRIMWOOD CRES, RICHMOND HILL"
      },
      {
        "electoralDistricts": [
          {
            "election": null,
            "id": 89,
            "name": "Richmond Hill"
          }
        ],
        "pollDivisionIds": [
          10141295
        ],
        "postalCode": "L4B4B4",
        "streetName": "EDENBROOK",
        "streetDirectionId": null,
        "streetTypeId": "CRES",
        "placeName": "RICHMOND HILL",
        "streetNameDisplayText": "EDENBROOK CRES, RICHMOND HILL"
      },
      {
        "electoralDistricts": [
          {
            "election": null,
            "id": 89,
            "name": "Richmond Hill"
          }
        ],
        "pollDivisionIds": [
          10141295
        ],
        "postalCode": "L4B4B4",
        "streetName": "FARMHAM",
        "streetDirectionId": null,
        "streetTypeId": "DR",
        "placeName": "RICHMOND HILL",
        "streetNameDisplayText": "FARMHAM DR, RICHMOND HILL"
      },
      {
        "electoralDistricts": [
          {
            "election": null,
            "id": 89,
            "name": "Richmond Hill"
          }
        ],
        "pollDivisionIds": [
          10141295
        ],
        "postalCode": "L4B4B4",
        "streetName": "FARNHAM",
        "streetDirectionId": null,
        "streetTypeId": "DR",
        "placeName": "RICHMOND HILL",
        "streetNameDisplayText": "FARNHAM DR, RICHMOND HILL"
      }
    ]
  },
  {
    "postal": "L4B7E3",
    "result": []
  },
  {
    "postal": "L4B3N6",
    "result": [
      {
        "electoralDistricts": [
          {
            "election": null,
            "id": 89,
            "name": "Richmond Hill"
          }
        ],
        "pollDivisionIds": [
          10141296
        ],
        "postalCode": "L4B3N6",
        "streetName": "VOGELL",
        "streetDirectionId": null,
        "streetTypeId": "RD",
        "placeName": "RICHMOND HILL",
        "streetNameDisplayText": "VOGELL RD, RICHMOND HILL"
      }
    ]
  },
  {
    "postal": "L4B3X6",
    "result": [
      {
        "electoralDistricts": [
          {
            "election": null,
            "id": 89,
            "name": "Richmond Hill"
          }
        ],
        "pollDivisionIds": [
          10141295
        ],
        "postalCode": "L4B3X6",
        "streetName": "CLARENDON",
        "streetDirectionId": null,
        "streetTypeId": "DR",
        "placeName": "RICHMOND HILL",
        "streetNameDisplayText": "CLARENDON DR, RICHMOND HILL"
      }
    ]
  },
  {
    "postal": "L4B8L0",
    "result": []
  },
  {
    "postal": "L4B8N1",
    "result": []
  },
  {
    "postal": "L4B4J0",
    "result": []
  },
  {
    "postal": "L4B0X7",
    "result": []
  },
  {
    "postal": "L4B6S4",
    "result": []
  },
  {
    "postal": "L4B0Z0",
    "result": []
  },
  {
    "postal": "L4B9X8",
    "result": []
  },
  {
    "postal": "L4B3H3",
    "result": [
      {
        "electoralDistricts": [
          {
            "election": null,
            "id": 89,
            "name": "Richmond Hill"
          }
        ],
        "pollDivisionIds": [
          10141296
        ],
        "postalCode": "L4B3H3",
        "streetName": "LYTTON",
        "streetDirectionId": null,
        "streetTypeId": "BLVD",
        "placeName": "RICHMOND HILL",
        "streetNameDisplayText": "LYTTON BLVD, RICHMOND HILL"
      }
    ]
  },
  {
    "postal": "L4B7S2",
    "result": []
  },
  {
    "postal": "L4B3T3",
    "result": []
  },
  {
    "postal": "L4B9P3",
    "result": []
  },
  {
    "postal": "L4B4H8",
    "result": [
      {
        "electoralDistricts": [
          {
            "election": null,
            "id": 89,
            "name": "Richmond Hill"
          }
        ],
        "pollDivisionIds": [
          10141291
        ],
        "postalCode": "L4B4H8",
        "streetName": "BALTIC",
        "streetDirectionId": null,
        "streetTypeId": "ST",
        "placeName": "RICHMOND HILL",
        "streetNameDisplayText": "BALTIC ST, RICHMOND HILL"
      }
    ]
  },
  {
    "postal": "L4B6R1",
    "result": []
  },
  {
    "postal": "L4B1S0",
    "result": []
  },
  {
    "postal": "L4B3W8",
    "result": [
      {
        "electoralDistricts": [
          {
            "election": null,
            "id": 89,
            "name": "Richmond Hill"
          }
        ],
        "pollDivisionIds": [
          10141295
        ],
        "postalCode": "L4B3W8",
        "streetName": "BOAKE",
        "streetDirectionId": null,
        "streetTypeId": "TRAIL",
        "placeName": "RICHMOND HILL",
        "streetNameDisplayText": "BOAKE TRAIL, RICHMOND HILL"
      },
      {
        "electoralDistricts": [
          {
            "election": null,
            "id": 89,
            "name": "Richmond Hill"
          }
        ],
        "pollDivisionIds": [
          10141295
        ],
        "postalCode": "L4B3W8",
        "streetName": "DELEVAN",
        "streetDirectionId": null,
        "streetTypeId": "CRT",
        "placeName": "RICHMOND HILL",
        "streetNameDisplayText": "DELEVAN CRT, RICHMOND HILL"
      }
    ]
  },
  {
    "postal": "L4B4S3",
    "result": []
  },
  {
    "postal": "L4B1B6",
    "result": [
      {
        "electoralDistricts": [
          {
            "election": null,
            "id": 89,
            "name": "Richmond Hill"
          }
        ],
        "pollDivisionIds": [
          10141298
        ],
        "postalCode": "L4B1B6",
        "streetName": "WEST PEARCE",
        "streetDirectionId": null,
        "streetTypeId": "ST",
        "placeName": "RICHMOND HILL",
        "streetNameDisplayText": "WEST PEARCE ST, RICHMOND HILL"
      }
    ]
  },
  {
    "postal": "L4B8R3",
    "result": []
  },
  {
    "postal": "L4B4V9",
    "result": [
      {
        "electoralDistricts": [
          {
            "election": null,
            "id": 89,
            "name": "Richmond Hill"
          }
        ],
        "pollDivisionIds": [
          10141291
        ],
        "postalCode": "L4B4V9",
        "streetName": "BAYVIEW",
        "streetDirectionId": null,
        "streetTypeId": "AVE",
        "placeName": "RICHMOND HILL",
        "streetNameDisplayText": "BAYVIEW AVE, RICHMOND HILL"
      },
      {
        "electoralDistricts": [
          {
            "election": null,
            "id": 89,
            "name": "Richmond Hill"
          }
        ],
        "pollDivisionIds": [
          10141291
        ],
        "postalCode": "L4B4V9",
        "streetName": "HIGH TECH",
        "streetDirectionId": null,
        "streetTypeId": "RD",
        "placeName": "RICHMOND HILL",
        "streetNameDisplayText": "HIGH TECH RD, RICHMOND HILL"
      }
    ]
  },
  {
    "postal": "L4B9W4",
    "result": []
  },
  {
    "postal": "L4B3T4",
    "result": []
  },
  {
    "postal": "L4B5C7",
    "result": []
  },
  {
    "postal": "L4B3Y1",
    "result": []
  },
  {
    "postal": "L4B5V0",
    "result": []
  },
  {
    "postal": "L4B8G8",
    "result": []
  },
  {
    "postal": "L4B8B1",
    "result": []
  },
  {
    "postal": "L4B4P5",
    "result": [
      {
        "electoralDistricts": [
          {
            "election": null,
            "id": 89,
            "name": "Richmond Hill"
          }
        ],
        "pollDivisionIds": [
          10141291
        ],
        "postalCode": "L4B4P5",
        "streetName": "RIDEAU",
        "streetDirectionId": null,
        "streetTypeId": "DR",
        "placeName": "RICHMOND HILL",
        "streetNameDisplayText": "RIDEAU DR, RICHMOND HILL"
      },
      {
        "electoralDistricts": [
          {
            "election": null,
            "id": 89,
            "name": "Richmond Hill"
          }
        ],
        "pollDivisionIds": [
          10141291
        ],
        "postalCode": "L4B4P5",
        "streetName": "SELKIRK",
        "streetDirectionId": null,
        "streetTypeId": "DR",
        "placeName": "RICHMOND HILL",
        "streetNameDisplayText": "SELKIRK DR, RICHMOND HILL"
      }
    ]
  },
  {
    "postal": "L4B7B2",
    "result": []
  },
  {
    "postal": "L4B0R2",
    "result": []
  },
  {
    "postal": "L4B4M4",
    "result": [
      {
        "electoralDistricts": [
          {
            "election": null,
            "id": 89,
            "name": "Richmond Hill"
          }
        ],
        "pollDivisionIds": [
          10141288
        ],
        "postalCode": "L4B4M4",
        "streetName": "NORTHERN HEIGHTS",
        "streetDirectionId": null,
        "streetTypeId": "DR",
        "placeName": "RICHMOND HILL",
        "streetNameDisplayText": "NORTHERN HEIGHTS DR, RICHMOND HILL"
      }
    ]
  },
  {
    "postal": "L4B7M4",
    "result": []
  },
  {
    "postal": "L4B9S7",
    "result": []
  },
  {
    "postal": "L4B5Z7",
    "result": []
  },
  {
    "postal": "L4B7J7",
    "result": []
  },
  {
    "postal": "L4B8R8",
    "result": []
  },
  {
    "postal": "L4B9X1",
    "result": []
  },
  {
    "postal": "L4B5M9",
    "result": []
  },
  {
    "postal": "L4B9B4",
    "result": []
  },
  {
    "postal": "L4B0L9",
    "result": []
  },
  {
    "postal": "L4B9G4",
    "result": []
  },
  {
    "postal": "L4B1J4",
    "result": [
      {
        "electoralDistricts": [
          {
            "election": null,
            "id": 89,
            "name": "Richmond Hill"
          }
        ],
        "pollDivisionIds": [
          10141297
        ],
        "postalCode": "L4B1J4",
        "streetName": "MURAL",
        "streetDirectionId": null,
        "streetTypeId": "ST",
        "placeName": "RICHMOND HILL",
        "streetNameDisplayText": "MURAL ST, RICHMOND HILL"
      }
    ]
  },
  {
    "postal": "L4B0W6",
    "result": []
  }
]
