[
  {
    "postal": "L3X9J6",
    "result": []
  },
  {
    "postal": "L3X9Z5",
    "result": []
  },
  {
    "postal": "L3X7H8",
    "result": []
  },
  {
    "postal": "L3X0P6",
    "result": []
  },
  {
    "postal": "L3X0S7",
    "result": []
  },
  {
    "postal": "L3X8B9",
    "result": []
  },
  {
    "postal": "L3X2A6",
    "result": [
      {
        "electoralDistricts": [
          {
            "election": null,
            "id": 67,
            "name": "Newmarket—Aurora"
          }
        ],
        "pollDivisionIds": [
          10139871
        ],
        "postalCode": "L3X2A6",
        "streetName": "WALPOLE",
        "streetDirectionId": null,
        "streetTypeId": "CRES",
        "placeName": "NEWMARKET",
        "streetNameDisplayText": "WALPOLE CRES, NEWMARKET"
      },
      {
        "electoralDistricts": [
          {
            "election": null,
            "id": 67,
            "name": "Newmarket—Aurora"
          }
        ],
        "pollDivisionIds": [
          10139871
        ],
        "postalCode": "L3X2A6",
        "streetName": "WILLOWICK",
        "streetDirectionId": null,
        "streetTypeId": "DR",
        "placeName": "NEWMARKET",
        "streetNameDisplayText": "WILLOWICK DR, NEWMARKET"
      }
    ]
  },
  {
    "postal": "L3X7V2",
    "result": []
  },
  {
    "postal": "L3X9P4",
    "result": []
  },
  {
    "postal": "L3X6G0",
    "result": []
  },
  {
    "postal": "L3X2K0",
    "result": []
  },
  {
    "postal": "L3X7N6",
    "result": []
  },
  {
    "postal": "L3X5R3",
    "result": []
  },
  {
    "postal": "L3X7K0",
    "result": []
  },
  {
    "postal": "L3X3R2",
    "result": []
  },
  {
    "postal": "L3X0J1",
    "result": [
      {
        "electoralDistricts": [
          {
            "election": null,
            "id": 67,
            "name": "Newmarket—Aurora"
          }
        ],
        "pollDivisionIds": [
          10139861
        ],
        "postalCode": "L3X0J1",
        "streetName": "CLIFFORD PERRY",
        "streetDirectionId": null,
        "streetTypeId": "PL",
        "placeName": "NEWMARKET",
        "streetNameDisplayText": "CLIFFORD PERRY PL, NEWMARKET"
      },
      {
        "electoralDistricts": [
          {
            "election": null,
            "id": 67,
            "name": "Newmarket—Aurora"
          }
        ],
        "pollDivisionIds": [
          10139861
        ],
        "postalCode": "L3X0J1",
        "streetName": "PREST",
        "streetDirectionId": null,
        "streetTypeId": "WAY",
        "placeName": "NEWMARKET",
        "streetNameDisplayText": "PREST WAY, NEWMARKET"
      }
    ]
  },
  {
    "postal": "L3X0B0",
    "result": []
  },
  {
    "postal": "L3X5Z2",
    "result": []
  },
  {
    "postal": "L3X7P3",
    "result": []
  },
  {
    "postal": "L3X2K3",
    "result": [
      {
        "electoralDistricts": [
          {
            "election": null,
            "id": 67,
            "name": "Newmarket—Aurora"
          }
        ],
        "pollDivisionIds": [
          10139873
        ],
        "postalCode": "L3X2K3",
        "streetName": "DILLMAN",
        "streetDirectionId": null,
        "streetTypeId": "AVE",
        "placeName": "NEWMARKET",
        "streetNameDisplayText": "DILLMAN AVE, NEWMARKET"
      },
      {
        "electoralDistricts": [
          {
            "election": null,
            "id": 67,
            "name": "Newmarket—Aurora"
          }
        ],
        "pollDivisionIds": [
          10139873
        ],
        "postalCode": "L3X2K3",
        "streetName": "PUCKS",
        "streetDirectionId": null,
        "streetTypeId": "PL",
        "placeName": "NEWMARKET",
        "streetNameDisplayText": "PUCKS PL, NEWMARKET"
      },
      {
        "electoralDistricts": [
          {
            "election": null,
            "id": 67,
            "name": "Newmarket—Aurora"
          }
        ],
        "pollDivisionIds": [
          10139873
        ],
        "postalCode": "L3X2K3",
        "streetName": "STONEHAVEN",
        "streetDirectionId": null,
        "streetTypeId": "AVE",
        "placeName": "NEWMARKET",
        "streetNameDisplayText": "STONEHAVEN AVE, NEWMARKET"
      }
    ]
  },
  {
    "postal": "L3X7Y6",
    "result": []
  },
  {
    "postal": "L3X1L9",
    "result": [
      {
        "electoralDistricts": [
          {
            "election": null,
            "id": 67,
            "name": "Newmarket—Aurora"
          }
        ],
        "pollDivisionIds": [
          10139872
        ],
        "postalCode": "L3X1L9",
        "streetName": "PORTMINSTER",
        "streetDirectionId": null,
        "streetTypeId": "CRT",
        "placeName": "NEWMARKET",
        "streetNameDisplayText": "PORTMINSTER CRT, NEWMARKET"
      }
    ]
  },
  {
    "postal": "L3X8T0",
    "result": []
  },
  {
    "postal": "L3X3K8",
    "result": [
      {
        "electoralDistricts": [
          {
            "election": null,
            "id": 67,
            "name": "Newmarket—Aurora"
          }
        ],
        "pollDivisionIds": [
          10139860
        ],
        "postalCode": "L3X3K8",
        "streetName": "EMMA BROADBENT",
        "streetDirectionId": null,
        "streetTypeId": "CRT",
        "placeName": "NEWMARKET",
        "streetNameDisplayText": "EMMA BROADBENT CRT, NEWMARKET"
      },
      {
        "electoralDistricts": [
          {
            "election": null,
            "id": 67,
            "name": "Newmarket—Aurora"
          }
        ],
        "pollDivisionIds": [
          10139860
        ],
        "postalCode": "L3X3K8",
        "streetName": "ROADHOUSE",
        "streetDirectionId": null,
        "streetTypeId": "BLVD",
        "placeName": "NEWMARKET",
        "streetNameDisplayText": "ROADHOUSE BLVD, NEWMARKET"
      }
    ]
  },
  {
    "postal": "L3X5W9",
    "result": []
  },
  {
    "postal": "L3X6T9",
    "result": []
  },
  {
    "postal": "L3X4H1",
    "result": []
  },
  {
    "postal": "L3X7A2",
    "result": []
  },
  {
    "postal": "L3X5G0",
    "result": []
  },
  {
    "postal": "L3X8V5",
    "result": []
  },
  {
    "postal": "L3X2Y8",
    "result": [
      {
        "electoralDistricts": [
          {
            "election": null,
            "id": 67,
            "name": "Newmarket—Aurora"
          }
        ],
        "pollDivisionIds": [
          10139875
        ],
        "postalCode": "L3X2Y8",
        "streetName": "ISAAC PHILLIPS",
        "streetDirectionId": null,
        "streetTypeId": "WAY",
        "placeName": "NEWMARKET",
        "streetNameDisplayText": "ISAAC PHILLIPS WAY, NEWMARKET"
      },
      {
        "electoralDistricts": [
          {
            "election": null,
            "id": 67,
            "name": "Newmarket—Aurora"
          }
        ],
        "pollDivisionIds": [
          10139875
        ],
        "postalCode": "L3X2Y8",
        "streetName": "JOE PERSECHINI",
        "streetDirectionId": null,
        "streetTypeId": "DR",
        "placeName": "NEWMARKET",
        "streetNameDisplayText": "JOE PERSECHINI DR, NEWMARKET"
      }
    ]
  },
  {
    "postal": "L3X2B6",
    "result": [
      {
        "electoralDistricts": [
          {
            "election": null,
            "id": 67,
            "name": "Newmarket—Aurora"
          }
        ],
        "pollDivisionIds": [
          10139871
        ],
        "postalCode": "L3X2B6",
        "streetName": "WALPOLE",
        "streetDirectionId": null,
        "streetTypeId": "CRES",
        "placeName": "NEWMARKET",
        "streetNameDisplayText": "WALPOLE CRES, NEWMARKET"
      }
    ]
  },
  {
    "postal": "L3X4W8",
    "result": []
  },
  {
    "postal": "L3X8H7",
    "result": []
  },
  {
    "postal": "L3X5P1",
    "result": []
  },
  {
    "postal": "L3X2B8",
    "result": [
      {
        "electoralDistricts": [
          {
            "election": null,
            "id": 67,
            "name": "Newmarket—Aurora"
          }
        ],
        "pollDivisionIds": [
          10139870
        ],
        "postalCode": "L3X2B8",
        "streetName": "CARRUTHERS",
        "streetDirectionId": null,
        "streetTypeId": "AVE",
        "placeName": "NEWMARKET",
        "streetNameDisplayText": "CARRUTHERS AVE, NEWMARKET"
      },
      {
        "electoralDistricts": [
          {
            "election": null,
            "id": 67,
            "name": "Newmarket—Aurora"
          }
        ],
        "pollDivisionIds": [
          10139870
        ],
        "postalCode": "L3X2B8",
        "streetName": "RUSHBROOK",
        "streetDirectionId": null,
        "streetTypeId": "DR",
        "placeName": "NEWMARKET",
        "streetNameDisplayText": "RUSHBROOK DR, NEWMARKET"
      }
    ]
  },
  {
    "postal": "L3X0P2",
    "result": []
  },
  {
    "postal": "L3X9M1",
    "result": []
  },
  {
    "postal": "L3X3G0",
    "result": []
  },
  {
    "postal": "L3X9Z2",
    "result": []
  },
  {
    "postal": "L3X2A0",
    "result": []
  },
  {
    "postal": "L3X6Y0",
    "result": []
  },
  {
    "postal": "L3X2Z8",
    "result": [
      {
        "electoralDistricts": [
          {
            "election": null,
            "id": 67,
            "name": "Newmarket—Aurora"
          }
        ],
        "pollDivisionIds": [
          10139860
        ],
        "postalCode": "L3X2Z8",
        "streetName": "FLAGSTONE",
        "streetDirectionId": null,
        "streetTypeId": "WAY",
        "placeName": "NEWMARKET",
        "streetNameDisplayText": "FLAGSTONE WAY, NEWMARKET"
      },
      {
        "electoralDistricts": [
          {
            "election": null,
            "id": 67,
            "name": "Newmarket—Aurora"
          }
        ],
        "pollDivisionIds": [
          10139860
        ],
        "postalCode": "L3X2Z8",
        "streetName": "WOODSPRING",
        "streetDirectionId": null,
        "streetTypeId": "AVE",
        "placeName": "NEWMARKET",
        "streetNameDisplayText": "WOODSPRING AVE, NEWMARKET"
      }
    ]
  },
  {
    "postal": "L3X7Y3",
    "result": []
  },
  {
    "postal": "L3X6Z5",
    "result": []
  },
  {
    "postal": "L3X6E0",
    "result": []
  },
  {
    "postal": "L3X9B7",
    "result": []
  },
  {
    "postal": "L3X9S5",
    "result": []
  },
  {
    "postal": "L3X3X3",
    "result": []
  },
  {
    "postal": "L3X7R5",
    "result": []
  },
  {
    "postal": "L3X2X3",
    "result": [
      {
        "electoralDistricts": [
          {
            "election": null,
            "id": 67,
            "name": "Newmarket—Aurora"
          }
        ],
        "pollDivisionIds": [
          10139860
        ],
        "postalCode": "L3X2X3",
        "streetName": "SPRUCE GROVE",
        "streetDirectionId": null,
        "streetTypeId": "CRES",
        "placeName": "NEWMARKET",
        "streetNameDisplayText": "SPRUCE GROVE CRES, NEWMARKET"
      },
      {
        "electoralDistricts": [
          {
            "election": null,
            "id": 67,
            "name": "Newmarket—Aurora"
          }
        ],
        "pollDivisionIds": [
          10139860
        ],
        "postalCode": "L3X2X3",
        "streetName": "WOOD DUCK",
        "streetDirectionId": null,
        "streetTypeId": "LANE",
        "placeName": "NEWMARKET",
        "streetNameDisplayText": "WOOD DUCK LANE, NEWMARKET"
      }
    ]
  },
  {
    "postal": "L3X8Z9",
    "result": []
  },
  {
    "postal": "L3X0N4",
    "result": []
  },
  {
    "postal": "L3X1K1",
    "result": [
      {
        "electoralDistricts": [
          {
            "election": null,
            "id": 67,
            "name": "Newmarket—Aurora"
          }
        ],
        "pollDivisionIds": [
          10139868
        ],
        "postalCode": "L3X1K1",
        "streetName": "MCCAFFREY",
        "streetDirectionId": null,
        "streetTypeId": "RD",
        "placeName": "NEWMARKET",
        "streetNameDisplayText": "MCCAFFREY RD, NEWMARKET"
      }
    ]
  },
  {
    "postal": "L3X1S3",
    "result": [
      {
        "electoralDistricts": [
          {
            "election": null,
            "id": 67,
            "name": "Newmarket—Aurora"
          }
        ],
        "pollDivisionIds": [
          10139874
        ],
        "postalCode": "L3X1S3",
        "streetName": "BALLARD",
        "streetDirectionId": null,
        "streetTypeId": "CRES",
        "placeName": "NEWMARKET",
        "streetNameDisplayText": "BALLARD CRES, NEWMARKET"
      },
      {
        "electoralDistricts": [
          {
            "election": null,
            "id": 67,
            "name": "Newmarket—Aurora"
          }
        ],
        "pollDivisionIds": [
          10139874
        ],
        "postalCode": "L3X1S3",
        "streetName": "BERGIN",
        "streetDirectionId": null,
        "streetTypeId": "RD",
        "placeName": "NEWMARKET",
        "streetNameDisplayText": "BERGIN RD, NEWMARKET"
      },
      {
        "electoralDistricts": [
          {
            "election": null,
            "id": 67,
            "name": "Newmarket—Aurora"
          }
        ],
        "pollDivisionIds": [
          10139874
        ],
        "postalCode": "L3X1S3",
        "streetName": "CASSIE",
        "streetDirectionId": null,
        "streetTypeId": "RD",
        "placeName": "NEWMARKET",
        "streetNameDisplayText": "CASSIE RD, NEWMARKET"
      },
      {
        "electoralDistricts": [
          {
            "election": null,
            "id": 67,
            "name": "Newmarket—Aurora"
          }
        ],
        "pollDivisionIds": [
          10139874
        ],
        "postalCode": "L3X1S3",
        "streetName": "SAVAGE",
        "streetDirectionId": null,
        "streetTypeId": "RD",
        "placeName": "NEWMARKET",
        "streetNameDisplayText": "SAVAGE RD, NEWMARKET"
      }
    ]
  },
  {
    "postal": "L3X6M4",
    "result": []
  },
  {
    "postal": "L3X9A9",
    "result": []
  },
  {
    "postal": "L3X9Z9",
    "result": []
  },
  {
    "postal": "L3X6T4",
    "result": []
  },
  {
    "postal": "L3X0B2",
    "result": [
      {
        "electoralDistricts": [
          {
            "election": null,
            "id": 67,
            "name": "Newmarket—Aurora"
          }
        ],
        "pollDivisionIds": [
          10139871
        ],
        "postalCode": "L3X0B2",
        "streetName": "BLACKHALL",
        "streetDirectionId": null,
        "streetTypeId": "CRES",
        "placeName": "NEWMARKET",
        "streetNameDisplayText": "BLACKHALL CRES, NEWMARKET"
      },
      {
        "electoralDistricts": [
          {
            "election": null,
            "id": 67,
            "name": "Newmarket—Aurora"
          }
        ],
        "pollDivisionIds": [
          10139871
        ],
        "postalCode": "L3X0B2",
        "streetName": "SHERMAN BROCK",
        "streetDirectionId": null,
        "streetTypeId": "CIR",
        "placeName": "NEWMARKET",
        "streetNameDisplayText": "SHERMAN BROCK CIR, NEWMARKET"
      },
      {
        "electoralDistricts": [
          {
            "election": null,
            "id": 67,
            "name": "Newmarket—Aurora"
          }
        ],
        "pollDivisionIds": [
          10139871
        ],
        "postalCode": "L3X0B2",
        "streetName": "VETERANS",
        "streetDirectionId": null,
        "streetTypeId": "WAY",
        "placeName": "NEWMARKET",
        "streetNameDisplayText": "VETERANS WAY, NEWMARKET"
      },
      {
        "electoralDistricts": [
          {
            "election": null,
            "id": 67,
            "name": "Newmarket—Aurora"
          }
        ],
        "pollDivisionIds": [
          10139871
        ],
        "postalCode": "L3X0B2",
        "streetName": "VETERANS WAYS",
        "streetDirectionId": null,
        "streetTypeId": "WAY",
        "placeName": "NEWMARKET",
        "streetNameDisplayText": "VETERANS WAYS WAY, NEWMARKET"
      }
    ]
  },
  {
    "postal": "L3X2L9",
    "result": [
      {
        "electoralDistricts": [
          {
            "election": null,
            "id": 67,
            "name": "Newmarket—Aurora"
          }
        ],
        "pollDivisionIds": [
          10139870
        ],
        "postalCode": "L3X2L9",
        "streetName": "DONALD",
        "streetDirectionId": null,
        "streetTypeId": "CRT",
        "placeName": "NEWMARKET",
        "streetNameDisplayText": "DONALD CRT, NEWMARKET"
      },
      {
        "electoralDistricts": [
          {
            "election": null,
            "id": 67,
            "name": "Newmarket—Aurora"
          }
        ],
        "pollDivisionIds": [
          10139870
        ],
        "postalCode": "L3X2L9",
        "streetName": "HEWITT",
        "streetDirectionId": null,
        "streetTypeId": "CIR",
        "placeName": "NEWMARKET",
        "streetNameDisplayText": "HEWITT CIR, NEWMARKET"
      }
    ]
  },
  {
    "postal": "L3X8K9",
    "result": []
  },
  {
    "postal": "L3X2H9",
    "result": [
      {
        "electoralDistricts": [
          {
            "election": null,
            "id": 67,
            "name": "Newmarket—Aurora"
          }
        ],
        "pollDivisionIds": [
          10139873
        ],
        "postalCode": "L3X2H9",
        "streetName": "SILKEN LAUMANN",
        "streetDirectionId": null,
        "streetTypeId": "DR",
        "placeName": "NEWMARKET",
        "streetNameDisplayText": "SILKEN LAUMANN DR, NEWMARKET"
      }
    ]
  },
  {
    "postal": "L3X3Z6",
    "result": []
  },
  {
    "postal": "L3X3B0",
    "result": []
  },
  {
    "postal": "L3X2H8",
    "result": [
      {
        "electoralDistricts": [
          {
            "election": null,
            "id": 67,
            "name": "Newmarket—Aurora"
          }
        ],
        "pollDivisionIds": [
          10139873
        ],
        "postalCode": "L3X2H8",
        "streetName": "BEST",
        "streetDirectionId": null,
        "streetTypeId": "CIR",
        "placeName": "NEWMARKET",
        "streetNameDisplayText": "BEST CIR, NEWMARKET"
      },
      {
        "electoralDistricts": [
          {
            "election": null,
            "id": 67,
            "name": "Newmarket—Aurora"
          }
        ],
        "pollDivisionIds": [
          10139873
        ],
        "postalCode": "L3X2H8",
        "streetName": "HILTON",
        "streetDirectionId": null,
        "streetTypeId": "BLVD",
        "placeName": "NEWMARKET",
        "streetNameDisplayText": "HILTON BLVD, NEWMARKET"
      }
    ]
  },
  {
    "postal": "L3X3X2",
    "result": []
  },
  {
    "postal": "L3X2E9",
    "result": [
      {
        "electoralDistricts": [
          {
            "election": null,
            "id": 67,
            "name": "Newmarket—Aurora"
          }
        ],
        "pollDivisionIds": [
          10139869
        ],
        "postalCode": "L3X2E9",
        "streetName": "CLEARMEADOW",
        "streetDirectionId": null,
        "streetTypeId": "BLVD",
        "placeName": "NEWMARKET",
        "streetNameDisplayText": "CLEARMEADOW BLVD, NEWMARKET"
      },
      {
        "electoralDistricts": [
          {
            "election": null,
            "id": 67,
            "name": "Newmarket—Aurora"
          }
        ],
        "pollDivisionIds": [
          10139869
        ],
        "postalCode": "L3X2E9",
        "streetName": "DOUBLETREE",
        "streetDirectionId": null,
        "streetTypeId": "LANE",
        "placeName": "NEWMARKET",
        "streetNameDisplayText": "DOUBLETREE LANE, NEWMARKET"
      },
      {
        "electoralDistricts": [
          {
            "election": null,
            "id": 67,
            "name": "Newmarket—Aurora"
          }
        ],
        "pollDivisionIds": [
          10139869
        ],
        "postalCode": "L3X2E9",
        "streetName": "FLANAGAN",
        "streetDirectionId": null,
        "streetTypeId": "CRT",
        "placeName": "NEWMARKET",
        "streetNameDisplayText": "FLANAGAN CRT, NEWMARKET"
      }
    ]
  },
  {
    "postal": "L3X9P6",
    "result": []
  },
  {
    "postal": "L3X9E2",
    "result": []
  },
  {
    "postal": "L3X9H2",
    "result": []
  },
  {
    "postal": "L3X1S8",
    "result": [
      {
        "electoralDistricts": [
          {
            "election": null,
            "id": 67,
            "name": "Newmarket—Aurora"
          }
        ],
        "pollDivisionIds": [
          10139874
        ],
        "postalCode": "L3X1S8",
        "streetName": "REVELL",
        "streetDirectionId": null,
        "streetTypeId": "RD",
        "placeName": "NEWMARKET",
        "streetNameDisplayText": "REVELL RD, NEWMARKET"
      },
      {
        "electoralDistricts": [
          {
            "election": null,
            "id": 67,
            "name": "Newmarket—Aurora"
          }
        ],
        "pollDivisionIds": [
          10139874
        ],
        "postalCode": "L3X1S8",
        "streetName": "SAVAGE",
        "streetDirectionId": null,
        "streetTypeId": "RD",
        "placeName": "NEWMARKET",
        "streetNameDisplayText": "SAVAGE RD, NEWMARKET"
      }
    ]
  },
  {
    "postal": "L3X3M6",
    "result": []
  },
  {
    "postal": "L3X6Z8",
    "result": []
  },
  {
    "postal": "L3X4J2",
    "result": []
  },
  {
    "postal": "L3X9Y1",
    "result": []
  },
  {
    "postal": "L3X8V6",
    "result": []
  },
  {
    "postal": "L3X6B2",
    "result": []
  },
  {
    "postal": "L3X1P8",
    "result": [
      {
        "electoralDistricts": [
          {
            "election": null,
            "id": 67,
            "name": "Newmarket—Aurora"
          }
        ],
        "pollDivisionIds": [
          10139874
        ],
        "postalCode": "L3X1P8",
        "streetName": "SHANAHAN",
        "streetDirectionId": null,
        "streetTypeId": "BLVD",
        "placeName": "NEWMARKET",
        "streetNameDisplayText": "SHANAHAN BLVD, NEWMARKET"
      }
    ]
  },
  {
    "postal": "L3X0V8",
    "result": []
  },
  {
    "postal": "L3X4Y0",
    "result": []
  },
  {
    "postal": "L3X2T4",
    "result": [
      {
        "electoralDistricts": [
          {
            "election": null,
            "id": 67,
            "name": "Newmarket—Aurora"
          }
        ],
        "pollDivisionIds": [
          10139875
        ],
        "postalCode": "L3X2T4",
        "streetName": "COLERIDGE",
        "streetDirectionId": null,
        "streetTypeId": "DR",
        "placeName": "NEWMARKET",
        "streetNameDisplayText": "COLERIDGE DR, NEWMARKET"
      }
    ]
  },
  {
    "postal": "L3X2S3",
    "result": [
      {
        "electoralDistricts": [
          {
            "election": null,
            "id": 67,
            "name": "Newmarket—Aurora"
          }
        ],
        "pollDivisionIds": [
          10139875
        ],
        "postalCode": "L3X2S3",
        "streetName": "COLUMBUS",
        "streetDirectionId": null,
        "streetTypeId": "WAY",
        "placeName": "NEWMARKET",
        "streetNameDisplayText": "COLUMBUS WAY, NEWMARKET"
      },
      {
        "electoralDistricts": [
          {
            "election": null,
            "id": 67,
            "name": "Newmarket—Aurora"
          }
        ],
        "pollDivisionIds": [
          10139875
        ],
        "postalCode": "L3X2S3",
        "streetName": "SAWMILL VALLEY",
        "streetDirectionId": null,
        "streetTypeId": "DR",
        "placeName": "NEWMARKET",
        "streetNameDisplayText": "SAWMILL VALLEY DR, NEWMARKET"
      },
      {
        "electoralDistricts": [
          {
            "election": null,
            "id": 67,
            "name": "Newmarket—Aurora"
          }
        ],
        "pollDivisionIds": [
          10139875
        ],
        "postalCode": "L3X2S3",
        "streetName": "WARWICK",
        "streetDirectionId": null,
        "streetTypeId": "CRES",
        "placeName": "NEWMARKET",
        "streetNameDisplayText": "WARWICK CRES, NEWMARKET"
      }
    ]
  },
  {
    "postal": "L3X0K0",
    "result": []
  },
  {
    "postal": "L3X5N1",
    "result": []
  },
  {
    "postal": "L3X7T0",
    "result": []
  },
  {
    "postal": "L3X9N2",
    "result": []
  },
  {
    "postal": "L3X5L1",
    "result": []
  },
  {
    "postal": "L3X7G5",
    "result": []
  },
  {
    "postal": "L3X6K2",
    "result": []
  },
  {
    "postal": "L3X6P9",
    "result": []
  },
  {
    "postal": "L3X0E6",
    "result": []
  },
  {
    "postal": "L3X8R9",
    "result": []
  },
  {
    "postal": "L3X3G9",
    "result": [
      {
        "electoralDistricts": [
          {
            "election": null,
            "id": 67,
            "name": "Newmarket—Aurora"
          }
        ],
        "pollDivisionIds": [
          10139861
        ],
        "postalCode": "L3X3G9",
        "streetName": "CARLISSA",
        "streetDirectionId": null,
        "streetTypeId": "RUN",
        "placeName": "NEWMARKET",
        "streetNameDisplayText": "CARLISSA RUN, NEWMARKET"
      },
      {
        "electoralDistricts": [
          {
            "election": null,
            "id": 67,
            "name": "Newmarket—Aurora"
          }
        ],
        "pollDivisionIds": [
          10139861
        ],
        "postalCode": "L3X3G9",
        "streetName": "ROSS PATRICK",
        "streetDirectionId": null,
        "streetTypeId": "CRES",
        "placeName": "NEWMARKET",
        "streetNameDisplayText": "ROSS PATRICK CRES, NEWMARKET"
      }
    ]
  },
  {
    "postal": "L3X0V7",
    "result": []
  },
  {
    "postal": "L3X2Z1",
    "result": [
      {
        "electoralDistricts": [
          {
            "election": null,
            "id": 67,
            "name": "Newmarket—Aurora"
          }
        ],
        "pollDivisionIds": [
          10139875
        ],
        "postalCode": "L3X2Z1",
        "streetName": "OAKTREE",
        "streetDirectionId": null,
        "streetTypeId": "CRES",
        "placeName": "NEWMARKET",
        "streetNameDisplayText": "OAKTREE CRES, NEWMARKET"
      }
    ]
  },
  {
    "postal": "L3X7N1",
    "result": []
  },
  {
    "postal": "L3X3C6",
    "result": [
      {
        "electoralDistricts": [
          {
            "election": null,
            "id": 67,
            "name": "Newmarket—Aurora"
          }
        ],
        "pollDivisionIds": [
          10139861
        ],
        "postalCode": "L3X3C6",
        "streetName": "DEAN BURTON",
        "streetDirectionId": null,
        "streetTypeId": "LANE",
        "placeName": "NEWMARKET",
        "streetNameDisplayText": "DEAN BURTON LANE, NEWMARKET"
      },
      {
        "electoralDistricts": [
          {
            "election": null,
            "id": 67,
            "name": "Newmarket—Aurora"
          }
        ],
        "pollDivisionIds": [
          10139861
        ],
        "postalCode": "L3X3C6",
        "streetName": "MATTHEW BOYD",
        "streetDirectionId": null,
        "streetTypeId": "CRES",
        "placeName": "NEWMARKET",
        "streetNameDisplayText": "MATTHEW BOYD CRES, NEWMARKET"
      }
    ]
  },
  {
    "postal": "L3X4M1",
    "result": []
  },
  {
    "postal": "L3X9K2",
    "result": []
  },
  {
    "postal": "L3X9S6",
    "result": []
  },
  {
    "postal": "L3X4X1",
    "result": []
  },
  {
    "postal": "L3X8W2",
    "result": []
  },
  {
    "postal": "L3X7N2",
    "result": []
  },
  {
    "postal": "L3X8S3",
    "result": []
  },
  {
    "postal": "L3X4V0",
    "result": []
  },
  {
    "postal": "L3X6W4",
    "result": []
  },
  {
    "postal": "L3X5M1",
    "result": []
  },
  {
    "postal": "L3X0S4",
    "result": []
  },
  {
    "postal": "L3X5X6",
    "result": []
  },
  {
    "postal": "L3X8L5",
    "result": []
  },
  {
    "postal": "L3X5M8",
    "result": []
  },
  {
    "postal": "L3X2G3",
    "result": [
      {
        "electoralDistricts": [
          {
            "election": null,
            "id": 67,
            "name": "Newmarket—Aurora"
          }
        ],
        "pollDivisionIds": [
          10139895
        ],
        "postalCode": "L3X2G3",
        "streetName": "STONEHAVEN",
        "streetDirectionId": null,
        "streetTypeId": "AVE",
        "placeName": "NEWMARKET",
        "streetNameDisplayText": "STONEHAVEN AVE, NEWMARKET"
      }
    ]
  },
  {
    "postal": "L3X8E4",
    "result": []
  },
  {
    "postal": "L3X7S9",
    "result": []
  },
  {
    "postal": "L3X1K3",
    "result": [
      {
        "electoralDistricts": [
          {
            "election": null,
            "id": 67,
            "name": "Newmarket—Aurora"
          }
        ],
        "pollDivisionIds": [
          10139868
        ],
        "postalCode": "L3X1K3",
        "streetName": "MCCAFFREY",
        "streetDirectionId": null,
        "streetTypeId": "RD",
        "placeName": "NEWMARKET",
        "streetNameDisplayText": "MCCAFFREY RD, NEWMARKET"
      },
      {
        "electoralDistricts": [
          {
            "election": null,
            "id": 67,
            "name": "Newmarket—Aurora"
          }
        ],
        "pollDivisionIds": [
          10139868
        ],
        "postalCode": "L3X1K3",
        "streetName": "RANNIE",
        "streetDirectionId": null,
        "streetTypeId": "RD",
        "placeName": "NEWMARKET",
        "streetNameDisplayText": "RANNIE RD, NEWMARKET"
      }
    ]
  },
  {
    "postal": "L3X4E1",
    "result": []
  },
  {
    "postal": "L3X4R2",
    "result": []
  },
  {
    "postal": "L3X6T0",
    "result": []
  },
  {
    "postal": "L3X3K5",
    "result": [
      {
        "electoralDistricts": [
          {
            "election": null,
            "id": 67,
            "name": "Newmarket—Aurora"
          }
        ],
        "pollDivisionIds": [
          10139860
        ],
        "postalCode": "L3X3K5",
        "streetName": "KWAPIS",
        "streetDirectionId": null,
        "streetTypeId": "BLVD",
        "placeName": "NEWMARKET",
        "streetNameDisplayText": "KWAPIS BLVD, NEWMARKET"
      }
    ]
  },
  {
    "postal": "L3X3S3",
    "result": []
  },
  {
    "postal": "L3X3L4",
    "result": [
      {
        "electoralDistricts": [
          {
            "election": null,
            "id": 67,
            "name": "Newmarket—Aurora"
          }
        ],
        "pollDivisionIds": [
          10139875
        ],
        "postalCode": "L3X3L4",
        "streetName": "WILLIAM DUNN",
        "streetDirectionId": null,
        "streetTypeId": "CRES",
        "placeName": "NEWMARKET",
        "streetNameDisplayText": "WILLIAM DUNN CRES, NEWMARKET"
      }
    ]
  },
  {
    "postal": "L3X9Y2",
    "result": []
  },
  {
    "postal": "L3X1E0",
    "result": []
  },
  {
    "postal": "L3X9A4",
    "result": []
  },
  {
    "postal": "L3X1L3",
    "result": [
      {
        "electoralDistricts": [
          {
            "election": null,
            "id": 67,
            "name": "Newmarket—Aurora"
          }
        ],
        "pollDivisionIds": [
          10139872
        ],
        "postalCode": "L3X1L3",
        "streetName": "ATAIRE",
        "streetDirectionId": null,
        "streetTypeId": "RD",
        "placeName": "NEWMARKET",
        "streetNameDisplayText": "ATAIRE RD, NEWMARKET"
      },
      {
        "electoralDistricts": [
          {
            "election": null,
            "id": 67,
            "name": "Newmarket—Aurora"
          }
        ],
        "pollDivisionIds": [
          10139872
        ],
        "postalCode": "L3X1L3",
        "streetName": "TEGAL",
        "streetDirectionId": null,
        "streetTypeId": "PL",
        "placeName": "NEWMARKET",
        "streetNameDisplayText": "TEGAL PL, NEWMARKET"
      }
    ]
  },
  {
    "postal": "L3X6N1",
    "result": []
  },
  {
    "postal": "L3X6G7",
    "result": []
  },
  {
    "postal": "L3X7W1",
    "result": []
  },
  {
    "postal": "L3X4M6",
    "result": []
  },
  {
    "postal": "L3X1K0",
    "result": []
  },
  {
    "postal": "L3X3E2",
    "result": [
      {
        "electoralDistricts": [
          {
            "election": null,
            "id": 67,
            "name": "Newmarket—Aurora"
          }
        ],
        "pollDivisionIds": [
          10139871
        ],
        "postalCode": "L3X3E2",
        "streetName": "QUAKER",
        "streetDirectionId": null,
        "streetTypeId": "TRAIL",
        "placeName": "NEWMARKET",
        "streetNameDisplayText": "QUAKER TRAIL, NEWMARKET"
      }
    ]
  },
  {
    "postal": "L3X5H4",
    "result": []
  },
  {
    "postal": "L3X1K7",
    "result": [
      {
        "electoralDistricts": [
          {
            "election": null,
            "id": 67,
            "name": "Newmarket—Aurora"
          }
        ],
        "pollDivisionIds": [
          10139872
        ],
        "postalCode": "L3X1K7",
        "streetName": "NORWICK",
        "streetDirectionId": null,
        "streetTypeId": "RD",
        "placeName": "NEWMARKET",
        "streetNameDisplayText": "NORWICK RD, NEWMARKET"
      },
      {
        "electoralDistricts": [
          {
            "election": null,
            "id": 67,
            "name": "Newmarket—Aurora"
          }
        ],
        "pollDivisionIds": [
          10139872,
          10139873
        ],
        "postalCode": "L3X1K7",
        "streetName": "STONEHAVEN",
        "streetDirectionId": null,
        "streetTypeId": "AVE",
        "placeName": "NEWMARKET",
        "streetNameDisplayText": "STONEHAVEN AVE, NEWMARKET"
      }
    ]
  },
  {
    "postal": "L3X0H0",
    "result": []
  },
  {
    "postal": "L3X0J3",
    "result": [
      {
        "electoralDistricts": [
          {
            "election": null,
            "id": 67,
            "name": "Newmarket—Aurora"
          }
        ],
        "pollDivisionIds": [
          10139861
        ],
        "postalCode": "L3X0J3",
        "streetName": "CLIFFORD PERRY",
        "streetDirectionId": null,
        "streetTypeId": "PL",
        "placeName": "NEWMARKET",
        "streetNameDisplayText": "CLIFFORD PERRY PL, NEWMARKET"
      },
      {
        "electoralDistricts": [
          {
            "election": null,
            "id": 67,
            "name": "Newmarket—Aurora"
          }
        ],
        "pollDivisionIds": [
          10139861
        ],
        "postalCode": "L3X0J3",
        "streetName": "ELVIDGE",
        "streetDirectionId": null,
        "streetTypeId": "TRAIL",
        "placeName": "NEWMARKET",
        "streetNameDisplayText": "ELVIDGE TRAIL, NEWMARKET"
      }
    ]
  },
  {
    "postal": "L3X1X6",
    "result": [
      {
        "electoralDistricts": [
          {
            "election": null,
            "id": 67,
            "name": "Newmarket—Aurora"
          }
        ],
        "pollDivisionIds": [
          10139874
        ],
        "postalCode": "L3X1X6",
        "streetName": "UNITED",
        "streetDirectionId": null,
        "streetTypeId": "CIR",
        "placeName": "NEWMARKET",
        "streetNameDisplayText": "UNITED CIR, NEWMARKET"
      }
    ]
  },
  {
    "postal": "L3X2Z6",
    "result": [
      {
        "electoralDistricts": [
          {
            "election": null,
            "id": 67,
            "name": "Newmarket—Aurora"
          }
        ],
        "pollDivisionIds": [
          10139860
        ],
        "postalCode": "L3X2Z6",
        "streetName": "COACHWHIP",
        "streetDirectionId": null,
        "streetTypeId": "TRAIL",
        "placeName": "NEWMARKET",
        "streetNameDisplayText": "COACHWHIP TRAIL, NEWMARKET"
      },
      {
        "electoralDistricts": [
          {
            "election": null,
            "id": 67,
            "name": "Newmarket—Aurora"
          }
        ],
        "pollDivisionIds": [
          10139860
        ],
        "postalCode": "L3X2Z6",
        "streetName": "TRAILHEAD",
        "streetDirectionId": null,
        "streetTypeId": "AVE",
        "placeName": "NEWMARKET",
        "streetNameDisplayText": "TRAILHEAD AVE, NEWMARKET"
      }
    ]
  },
  {
    "postal": "L3X4R9",
    "result": []
  },
  {
    "postal": "L3X0W8",
    "result": []
  },
  {
    "postal": "L3X1L4",
    "result": [
      {
        "electoralDistricts": [
          {
            "election": null,
            "id": 67,
            "name": "Newmarket—Aurora"
          }
        ],
        "pollDivisionIds": [
          10139856
        ],
        "postalCode": "L3X1L4",
        "streetName": "ATAIRE",
        "streetDirectionId": null,
        "streetTypeId": "RD",
        "placeName": "NEWMARKET",
        "streetNameDisplayText": "ATAIRE RD, NEWMARKET"
      },
      {
        "electoralDistricts": [
          {
            "election": null,
            "id": 67,
            "name": "Newmarket—Aurora"
          }
        ],
        "pollDivisionIds": [
          10139872
        ],
        "postalCode": "L3X1L4",
        "streetName": "KINGSMERE",
        "streetDirectionId": null,
        "streetTypeId": "AVE",
        "placeName": "NEWMARKET",
        "streetNameDisplayText": "KINGSMERE AVE, NEWMARKET"
      }
    ]
  },
  {
    "postal": "L3X0C8",
    "result": [
      {
        "electoralDistricts": [
          {
            "election": null,
            "id": 67,
            "name": "Newmarket—Aurora"
          }
        ],
        "pollDivisionIds": [
          10139871
        ],
        "postalCode": "L3X0C8",
        "streetName": "ART WESTLAKE",
        "streetDirectionId": null,
        "streetTypeId": "AVE",
        "placeName": "NEWMARKET",
        "streetNameDisplayText": "ART WESTLAKE AVE, NEWMARKET"
      },
      {
        "electoralDistricts": [
          {
            "election": null,
            "id": 67,
            "name": "Newmarket—Aurora"
          }
        ],
        "pollDivisionIds": [
          10139871
        ],
        "postalCode": "L3X0C8",
        "streetName": "ATKINS",
        "streetDirectionId": null,
        "streetTypeId": "DR",
        "placeName": "NEWMARKET",
        "streetNameDisplayText": "ATKINS DR, NEWMARKET"
      },
      {
        "electoralDistricts": [
          {
            "election": null,
            "id": 67,
            "name": "Newmarket—Aurora"
          }
        ],
        "pollDivisionIds": [
          10139871
        ],
        "postalCode": "L3X0C8",
        "streetName": "MCCRON",
        "streetDirectionId": null,
        "streetTypeId": "CRES",
        "placeName": "NEWMARKET",
        "streetNameDisplayText": "MCCRON CRES, NEWMARKET"
      },
      {
        "electoralDistricts": [
          {
            "election": null,
            "id": 67,
            "name": "Newmarket—Aurora"
          }
        ],
        "pollDivisionIds": [
          10139871
        ],
        "postalCode": "L3X0C8",
        "streetName": "SHORTREED",
        "streetDirectionId": null,
        "streetTypeId": "TERR",
        "placeName": "NEWMARKET",
        "streetNameDisplayText": "SHORTREED TERR, NEWMARKET"
      }
    ]
  },
  {
    "postal": "L3X9X7",
    "result": []
  },
  {
    "postal": "L3X4T1",
    "result": []
  },
  {
    "postal": "L3X0M0",
    "result": []
  },
  {
    "postal": "L3X6A2",
    "result": []
  },
  {
    "postal": "L3X9S8",
    "result": []
  },
  {
    "postal": "L3X9T4",
    "result": []
  },
  {
    "postal": "L3X9Y4",
    "result": []
  },
  {
    "postal": "L3X6G5",
    "result": []
  },
  {
    "postal": "L3X6H9",
    "result": []
  },
  {
    "postal": "L3X2P3",
    "result": [
      {
        "electoralDistricts": [
          {
            "election": null,
            "id": 67,
            "name": "Newmarket—Aurora"
          }
        ],
        "pollDivisionIds": [
          10139869
        ],
        "postalCode": "L3X2P3",
        "streetName": "MENCZEL",
        "streetDirectionId": null,
        "streetTypeId": "CRES",
        "placeName": "NEWMARKET",
        "streetNameDisplayText": "MENCZEL CRES, NEWMARKET"
      }
    ]
  },
  {
    "postal": "L3X1T6",
    "result": [
      {
        "electoralDistricts": [
          {
            "election": null,
            "id": 67,
            "name": "Newmarket—Aurora"
          }
        ],
        "pollDivisionIds": [
          10139870
        ],
        "postalCode": "L3X1T6",
        "streetName": "BINNS",
        "streetDirectionId": null,
        "streetTypeId": "AVE",
        "placeName": "NEWMARKET",
        "streetNameDisplayText": "BINNS AVE, NEWMARKET"
      },
      {
        "electoralDistricts": [
          {
            "election": null,
            "id": 67,
            "name": "Newmarket—Aurora"
          }
        ],
        "pollDivisionIds": [
          10139870
        ],
        "postalCode": "L3X1T6",
        "streetName": "MCCAFFREY",
        "streetDirectionId": null,
        "streetTypeId": "RD",
        "placeName": "NEWMARKET",
        "streetNameDisplayText": "MCCAFFREY RD, NEWMARKET"
      }
    ]
  },
  {
    "postal": "L3X4P6",
    "result": []
  },
  {
    "postal": "L3X3K1",
    "result": [
      {
        "electoralDistricts": [
          {
            "election": null,
            "id": 67,
            "name": "Newmarket—Aurora"
          }
        ],
        "pollDivisionIds": [
          10139861
        ],
        "postalCode": "L3X3K1",
        "streetName": "BULMER",
        "streetDirectionId": null,
        "streetTypeId": "CRES",
        "placeName": "NEWMARKET",
        "streetNameDisplayText": "BULMER CRES, NEWMARKET"
      },
      {
        "electoralDistricts": [
          {
            "election": null,
            "id": 67,
            "name": "Newmarket—Aurora"
          }
        ],
        "pollDivisionIds": [
          10139861
        ],
        "postalCode": "L3X3K1",
        "streetName": "CARLISSA",
        "streetDirectionId": null,
        "streetTypeId": "RUN",
        "placeName": "NEWMARKET",
        "streetNameDisplayText": "CARLISSA RUN, NEWMARKET"
      }
    ]
  },
  {
    "postal": "L3X6X4",
    "result": []
  },
  {
    "postal": "L3X4M8",
    "result": []
  },
  {
    "postal": "L3X2Y1",
    "result": [
      {
        "electoralDistricts": [
          {
            "election": null,
            "id": 67,
            "name": "Newmarket—Aurora"
          }
        ],
        "pollDivisionIds": [
          10139860
        ],
        "postalCode": "L3X2Y1",
        "streetName": "FLAGSTONE",
        "streetDirectionId": null,
        "streetTypeId": "WAY",
        "placeName": "NEWMARKET",
        "streetNameDisplayText": "FLAGSTONE WAY, NEWMARKET"
      },
      {
        "electoralDistricts": [
          {
            "election": null,
            "id": 67,
            "name": "Newmarket—Aurora"
          }
        ],
        "pollDivisionIds": [
          10139860
        ],
        "postalCode": "L3X2Y1",
        "streetName": "MARBLE",
        "streetDirectionId": null,
        "streetTypeId": "PL",
        "placeName": "NEWMARKET",
        "streetNameDisplayText": "MARBLE PL, NEWMARKET"
      }
    ]
  },
  {
    "postal": "L3X6M1",
    "result": []
  },
  {
    "postal": "L3X5L8",
    "result": []
  },
  {
    "postal": "L3X3P6",
    "result": []
  },
  {
    "postal": "L3X9A5",
    "result": []
  },
  {
    "postal": "L3X7K1",
    "result": []
  },
  {
    "postal": "L3X3J4",
    "result": [
      {
        "electoralDistricts": [
          {
            "election": null,
            "id": 67,
            "name": "Newmarket—Aurora"
          }
        ],
        "pollDivisionIds": [
          10139861
        ],
        "postalCode": "L3X3J4",
        "streetName": "RAY SNOW",
        "streetDirectionId": null,
        "streetTypeId": "BLVD",
        "placeName": "NEWMARKET",
        "streetNameDisplayText": "RAY SNOW BLVD, NEWMARKET"
      },
      {
        "electoralDistricts": [
          {
            "election": null,
            "id": 67,
            "name": "Newmarket—Aurora"
          }
        ],
        "pollDivisionIds": [
          10139861
        ],
        "postalCode": "L3X3J4",
        "streetName": "WOODSPRING",
        "streetDirectionId": null,
        "streetTypeId": "AVE",
        "placeName": "NEWMARKET",
        "streetNameDisplayText": "WOODSPRING AVE, NEWMARKET"
      }
    ]
  },
  {
    "postal": "L3X5E7",
    "result": []
  },
  {
    "postal": "L3X3A7",
    "result": [
      {
        "electoralDistricts": [
          {
            "election": null,
            "id": 67,
            "name": "Newmarket—Aurora"
          }
        ],
        "pollDivisionIds": [
          10139861
        ],
        "postalCode": "L3X3A7",
        "streetName": "MEMORIAL GARDENS",
        "streetDirectionId": null,
        "streetTypeId": "WAY",
        "placeName": "NEWMARKET",
        "streetNameDisplayText": "MEMORIAL GARDENS WAY, NEWMARKET"
      },
      {
        "electoralDistricts": [
          {
            "election": null,
            "id": 67,
            "name": "Newmarket—Aurora"
          }
        ],
        "pollDivisionIds": [
          10139861
        ],
        "postalCode": "L3X3A7",
        "streetName": "MYNDEN",
        "streetDirectionId": null,
        "streetTypeId": "WAY",
        "placeName": "NEWMARKET",
        "streetNameDisplayText": "MYNDEN WAY, NEWMARKET"
      },
      {
        "electoralDistricts": [
          {
            "election": null,
            "id": 67,
            "name": "Newmarket—Aurora"
          }
        ],
        "pollDivisionIds": [
          10139861
        ],
        "postalCode": "L3X3A7",
        "streetName": "WOODSPRING",
        "streetDirectionId": null,
        "streetTypeId": "AVE",
        "placeName": "NEWMARKET",
        "streetNameDisplayText": "WOODSPRING AVE, NEWMARKET"
      }
    ]
  },
  {
    "postal": "L3X1B9",
    "result": [
      {
        "electoralDistricts": [
          {
            "election": null,
            "id": 67,
            "name": "Newmarket—Aurora"
          }
        ],
        "pollDivisionIds": [
          10139868
        ],
        "postalCode": "L3X1B9",
        "streetName": "CROSSLAND",
        "streetDirectionId": null,
        "streetTypeId": "GATE",
        "placeName": "NEWMARKET",
        "streetNameDisplayText": "CROSSLAND GATE, NEWMARKET"
      }
    ]
  },
  {
    "postal": "L3X9E8",
    "result": []
  },
  {
    "postal": "L3X1C9",
    "result": [
      {
        "electoralDistricts": [
          {
            "election": null,
            "id": 67,
            "name": "Newmarket—Aurora"
          }
        ],
        "pollDivisionIds": [
          10139868
        ],
        "postalCode": "L3X1C9",
        "streetName": "MATHEWS",
        "streetDirectionId": null,
        "streetTypeId": "CRT",
        "placeName": "NEWMARKET",
        "streetNameDisplayText": "MATHEWS CRT, NEWMARKET"
      },
      {
        "electoralDistricts": [
          {
            "election": null,
            "id": 67,
            "name": "Newmarket—Aurora"
          }
        ],
        "pollDivisionIds": [
          10139868
        ],
        "postalCode": "L3X1C9",
        "streetName": "SYKES",
        "streetDirectionId": null,
        "streetTypeId": "RD",
        "placeName": "NEWMARKET",
        "streetNameDisplayText": "SYKES RD, NEWMARKET"
      }
    ]
  },
  {
    "postal": "L3X3B5",
    "result": [
      {
        "electoralDistricts": [
          {
            "election": null,
            "id": 67,
            "name": "Newmarket—Aurora"
          }
        ],
        "pollDivisionIds": [
          10139861
        ],
        "postalCode": "L3X3B5",
        "streetName": "KNAPTON",
        "streetDirectionId": null,
        "streetTypeId": "DR",
        "placeName": "NEWMARKET",
        "streetNameDisplayText": "KNAPTON DR, NEWMARKET"
      },
      {
        "electoralDistricts": [
          {
            "election": null,
            "id": 67,
            "name": "Newmarket—Aurora"
          }
        ],
        "pollDivisionIds": [
          10139861
        ],
        "postalCode": "L3X3B5",
        "streetName": "OSBORNE FAMILY",
        "streetDirectionId": null,
        "streetTypeId": "WAY",
        "placeName": "NEWMARKET",
        "streetNameDisplayText": "OSBORNE FAMILY WAY, NEWMARKET"
      }
    ]
  },
  {
    "postal": "L3X8R0",
    "result": []
  },
  {
    "postal": "L3X3P2",
    "result": []
  },
  {
    "postal": "L3X5V4",
    "result": []
  },
  {
    "postal": "L3X4H0",
    "result": []
  },
  {
    "postal": "L3X4S7",
    "result": []
  },
  {
    "postal": "L3X6C2",
    "result": []
  },
  {
    "postal": "L3X8W3",
    "result": []
  },
  {
    "postal": "L3X4M5",
    "result": []
  },
  {
    "postal": "L3X5T1",
    "result": []
  },
  {
    "postal": "L3X3B3",
    "result": [
      {
        "electoralDistricts": [
          {
            "election": null,
            "id": 67,
            "name": "Newmarket—Aurora"
          }
        ],
        "pollDivisionIds": [
          10139861
        ],
        "postalCode": "L3X3B3",
        "streetName": "BEARE",
        "streetDirectionId": null,
        "streetTypeId": "TRAIL",
        "placeName": "NEWMARKET",
        "streetNameDisplayText": "BEARE TRAIL, NEWMARKET"
      },
      {
        "electoralDistricts": [
          {
            "election": null,
            "id": 67,
            "name": "Newmarket—Aurora"
          }
        ],
        "pollDivisionIds": [
          10139861
        ],
        "postalCode": "L3X3B3",
        "streetName": "KNAPTON",
        "streetDirectionId": null,
        "streetTypeId": "DR",
        "placeName": "NEWMARKET",
        "streetNameDisplayText": "KNAPTON DR, NEWMARKET"
      }
    ]
  },
  {
    "postal": "L3X6C6",
    "result": []
  },
  {
    "postal": "L3X7N8",
    "result": []
  },
  {
    "postal": "L3X2Y3",
    "result": [
      {
        "electoralDistricts": [
          {
            "election": null,
            "id": 67,
            "name": "Newmarket—Aurora"
          }
        ],
        "pollDivisionIds": [
          10139860
        ],
        "postalCode": "L3X2Y3",
        "streetName": "FLAGSTONE",
        "streetDirectionId": null,
        "streetTypeId": "WAY",
        "placeName": "NEWMARKET",
        "streetNameDisplayText": "FLAGSTONE WAY, NEWMARKET"
      },
      {
        "electoralDistricts": [
          {
            "election": null,
            "id": 67,
            "name": "Newmarket—Aurora"
          }
        ],
        "pollDivisionIds": [
          10139860
        ],
        "postalCode": "L3X2Y3",
        "streetName": "MARBLE",
        "streetDirectionId": null,
        "streetTypeId": "PL",
        "placeName": "NEWMARKET",
        "streetNameDisplayText": "MARBLE PL, NEWMARKET"
      }
    ]
  },
  {
    "postal": "L3X2R6",
    "result": [
      {
        "electoralDistricts": [
          {
            "election": null,
            "id": 67,
            "name": "Newmarket—Aurora"
          }
        ],
        "pollDivisionIds": [
          10139860
        ],
        "postalCode": "L3X2R6",
        "streetName": "BONSHAW",
        "streetDirectionId": null,
        "streetTypeId": "AVE",
        "placeName": "NEWMARKET",
        "streetNameDisplayText": "BONSHAW AVE, NEWMARKET"
      },
      {
        "electoralDistricts": [
          {
            "election": null,
            "id": 67,
            "name": "Newmarket—Aurora"
          }
        ],
        "pollDivisionIds": [
          10139860
        ],
        "postalCode": "L3X2R6",
        "streetName": "COACHWHIP",
        "streetDirectionId": null,
        "streetTypeId": "TRAIL",
        "placeName": "NEWMARKET",
        "streetNameDisplayText": "COACHWHIP TRAIL, NEWMARKET"
      }
    ]
  },
  {
    "postal": "L3X7N3",
    "result": []
  },
  {
    "postal": "L3X8J2",
    "result": []
  },
  {
    "postal": "L3X6A9",
    "result": []
  },
  {
    "postal": "L3X3V2",
    "result": []
  },
  {
    "postal": "L3X2N3",
    "result": [
      {
        "electoralDistricts": [
          {
            "election": null,
            "id": 67,
            "name": "Newmarket—Aurora"
          }
        ],
        "pollDivisionIds": [
          10139869
        ],
        "postalCode": "L3X2N3",
        "streetName": "RANNIE",
        "streetDirectionId": null,
        "streetTypeId": "RD",
        "placeName": "NEWMARKET",
        "streetNameDisplayText": "RANNIE RD, NEWMARKET"
      }
    ]
  },
  {
    "postal": "L3X1S5",
    "result": [
      {
        "electoralDistricts": [
          {
            "election": null,
            "id": 67,
            "name": "Newmarket—Aurora"
          }
        ],
        "pollDivisionIds": [
          10139874
        ],
        "postalCode": "L3X1S5",
        "streetName": "JELLEY",
        "streetDirectionId": null,
        "streetTypeId": "AVE",
        "placeName": "NEWMARKET",
        "streetNameDisplayText": "JELLEY AVE, NEWMARKET"
      }
    ]
  },
  {
    "postal": "L3X4T7",
    "result": []
  },
  {
    "postal": "L3X6Y7",
    "result": []
  },
  {
    "postal": "L3X0W7",
    "result": []
  },
  {
    "postal": "L3X2W9",
    "result": [
      {
        "electoralDistricts": [
          {
            "election": null,
            "id": 67,
            "name": "Newmarket—Aurora"
          }
        ],
        "pollDivisionIds": [
          10139875
        ],
        "postalCode": "L3X2W9",
        "streetName": "BANBROOKE",
        "streetDirectionId": null,
        "streetTypeId": "CRES",
        "placeName": "NEWMARKET",
        "streetNameDisplayText": "BANBROOKE CRES, NEWMARKET"
      }
    ]
  },
  {
    "postal": "L3X8V0",
    "result": []
  },
  {
    "postal": "L3X0H4",
    "result": [
      {
        "electoralDistricts": [
          {
            "election": null,
            "id": 67,
            "name": "Newmarket—Aurora"
          }
        ],
        "pollDivisionIds": [
          10139868
        ],
        "postalCode": "L3X0H4",
        "streetName": "YARFIELD",
        "streetDirectionId": null,
        "streetTypeId": "CRES",
        "placeName": "NEWMARKET",
        "streetNameDisplayText": "YARFIELD CRES, NEWMARKET"
      }
    ]
  },
  {
    "postal": "L3X2T1",
    "result": [
      {
        "electoralDistricts": [
          {
            "election": null,
            "id": 67,
            "name": "Newmarket—Aurora"
          }
        ],
        "pollDivisionIds": [
          10139875
        ],
        "postalCode": "L3X2T1",
        "streetName": "PETER HALL",
        "streetDirectionId": null,
        "streetTypeId": "DR",
        "placeName": "NEWMARKET",
        "streetNameDisplayText": "PETER HALL DR, NEWMARKET"
      },
      {
        "electoralDistricts": [
          {
            "election": null,
            "id": 67,
            "name": "Newmarket—Aurora"
          }
        ],
        "pollDivisionIds": [
          10139875
        ],
        "postalCode": "L3X2T1",
        "streetName": "SAWMILL VALLEY",
        "streetDirectionId": null,
        "streetTypeId": "DR",
        "placeName": "NEWMARKET",
        "streetNameDisplayText": "SAWMILL VALLEY DR, NEWMARKET"
      },
      {
        "electoralDistricts": [
          {
            "election": null,
            "id": 67,
            "name": "Newmarket—Aurora"
          }
        ],
        "pollDivisionIds": [
          10139875
        ],
        "postalCode": "L3X2T1",
        "streetName": "SOCIETY",
        "streetDirectionId": null,
        "streetTypeId": "CRES",
        "placeName": "NEWMARKET",
        "streetNameDisplayText": "SOCIETY CRES, NEWMARKET"
      }
    ]
  },
  {
    "postal": "L3X1B1",
    "result": [
      {
        "electoralDistricts": [
          {
            "election": null,
            "id": 67,
            "name": "Newmarket—Aurora"
          }
        ],
        "pollDivisionIds": [
          10139868
        ],
        "postalCode": "L3X1B1",
        "streetName": "CROSSLAND",
        "streetDirectionId": null,
        "streetTypeId": "GATE",
        "placeName": "NEWMARKET",
        "streetNameDisplayText": "CROSSLAND GATE, NEWMARKET"
      }
    ]
  },
  {
    "postal": "L3X8B6",
    "result": []
  },
  {
    "postal": "L3X6H1",
    "result": []
  },
  {
    "postal": "L3X8T8",
    "result": []
  },
  {
    "postal": "L3X0T4",
    "result": []
  },
  {
    "postal": "L3X2C4",
    "result": [
      {
        "electoralDistricts": [
          {
            "election": null,
            "id": 67,
            "name": "Newmarket—Aurora"
          }
        ],
        "pollDivisionIds": [
          10139869
        ],
        "postalCode": "L3X2C4",
        "streetName": "AUSTINPAUL",
        "streetDirectionId": null,
        "streetTypeId": "DR",
        "placeName": "NEWMARKET",
        "streetNameDisplayText": "AUSTINPAUL DR, NEWMARKET"
      },
      {
        "electoralDistricts": [
          {
            "election": null,
            "id": 67,
            "name": "Newmarket—Aurora"
          }
        ],
        "pollDivisionIds": [
          10139869
        ],
        "postalCode": "L3X2C4",
        "streetName": "PAXTON",
        "streetDirectionId": null,
        "streetTypeId": "CRES",
        "placeName": "NEWMARKET",
        "streetNameDisplayText": "PAXTON CRES, NEWMARKET"
      }
    ]
  },
  {
    "postal": "L3X8N3",
    "result": []
  },
  {
    "postal": "L3X4L8",
    "result": []
  },
  {
    "postal": "L3X2B5",
    "result": [
      {
        "electoralDistricts": [
          {
            "election": null,
            "id": 67,
            "name": "Newmarket—Aurora"
          }
        ],
        "pollDivisionIds": [
          10139871
        ],
        "postalCode": "L3X2B5",
        "streetName": "WALPOLE",
        "streetDirectionId": null,
        "streetTypeId": "CRES",
        "placeName": "NEWMARKET",
        "streetNameDisplayText": "WALPOLE CRES, NEWMARKET"
      }
    ]
  },
  {
    "postal": "L3X3H1",
    "result": [
      {
        "electoralDistricts": [
          {
            "election": null,
            "id": 67,
            "name": "Newmarket—Aurora"
          }
        ],
        "pollDivisionIds": [
          10139860
        ],
        "postalCode": "L3X3H1",
        "streetName": "KWAPIS",
        "streetDirectionId": null,
        "streetTypeId": "BLVD",
        "placeName": "NEWMARKET",
        "streetNameDisplayText": "KWAPIS BLVD, NEWMARKET"
      },
      {
        "electoralDistricts": [
          {
            "election": null,
            "id": 67,
            "name": "Newmarket—Aurora"
          }
        ],
        "pollDivisionIds": [
          10139860
        ],
        "postalCode": "L3X3H1",
        "streetName": "WOODSPRING",
        "streetDirectionId": null,
        "streetTypeId": "AVE",
        "placeName": "NEWMARKET",
        "streetNameDisplayText": "WOODSPRING AVE, NEWMARKET"
      }
    ]
  },
  {
    "postal": "L3X4Y1",
    "result": []
  },
  {
    "postal": "L3X7E2",
    "result": []
  },
  {
    "postal": "L3X2P5",
    "result": [
      {
        "electoralDistricts": [
          {
            "election": null,
            "id": 67,
            "name": "Newmarket—Aurora"
          }
        ],
        "pollDivisionIds": [
          10139869
        ],
        "postalCode": "L3X2P5",
        "streetName": "OSLER",
        "streetDirectionId": null,
        "streetTypeId": "CRT",
        "placeName": "NEWMARKET",
        "streetNameDisplayText": "OSLER CRT, NEWMARKET"
      }
    ]
  },
  {
    "postal": "L3X8R7",
    "result": []
  },
  {
    "postal": "L3X9P1",
    "result": []
  },
  {
    "postal": "L3X3B8",
    "result": [
      {
        "electoralDistricts": [
          {
            "election": null,
            "id": 67,
            "name": "Newmarket—Aurora"
          }
        ],
        "pollDivisionIds": [
          10139861,
          10139860
        ],
        "postalCode": "L3X3B8",
        "streetName": "ALFRED SMITH",
        "streetDirectionId": null,
        "streetTypeId": "WAY",
        "placeName": "NEWMARKET",
        "streetNameDisplayText": "ALFRED SMITH WAY, NEWMARKET"
      },
      {
        "electoralDistricts": [
          {
            "election": null,
            "id": 67,
            "name": "Newmarket—Aurora"
          }
        ],
        "pollDivisionIds": [
          10139860,
          10139861
        ],
        "postalCode": "L3X3B8",
        "streetName": "WOODSPRING",
        "streetDirectionId": null,
        "streetTypeId": "AVE",
        "placeName": "NEWMARKET",
        "streetNameDisplayText": "WOODSPRING AVE, NEWMARKET"
      }
    ]
  },
  {
    "postal": "L3X3P7",
    "result": []
  },
  {
    "postal": "L3X9B2",
    "result": []
  },
  {
    "postal": "L3X6Z3",
    "result": []
  },
  {
    "postal": "L3X4N5",
    "result": []
  },
  {
    "postal": "L3X8T3",
    "result": []
  },
  {
    "postal": "L3X1V2",
    "result": [
      {
        "electoralDistricts": [
          {
            "election": null,
            "id": 67,
            "name": "Newmarket—Aurora"
          }
        ],
        "pollDivisionIds": [
          10139870
        ],
        "postalCode": "L3X1V2",
        "streetName": "RHODES",
        "streetDirectionId": null,
        "streetTypeId": "CIR",
        "placeName": "NEWMARKET",
        "streetNameDisplayText": "RHODES CIR, NEWMARKET"
      }
    ]
  },
  {
    "postal": "L3X1Y0",
    "result": []
  },
  {
    "postal": "L3X3G6",
    "result": [
      {
        "electoralDistricts": [
          {
            "election": null,
            "id": 67,
            "name": "Newmarket—Aurora"
          }
        ],
        "pollDivisionIds": [
          10139861
        ],
        "postalCode": "L3X3G6",
        "streetName": "CHILCOTT",
        "streetDirectionId": null,
        "streetTypeId": "CRES",
        "placeName": "NEWMARKET",
        "streetNameDisplayText": "CHILCOTT CRES, NEWMARKET"
      },
      {
        "electoralDistricts": [
          {
            "election": null,
            "id": 67,
            "name": "Newmarket—Aurora"
          }
        ],
        "pollDivisionIds": [
          10139861
        ],
        "postalCode": "L3X3G6",
        "streetName": "FORD WILSON",
        "streetDirectionId": null,
        "streetTypeId": "BLVD",
        "placeName": "NEWMARKET",
        "streetNameDisplayText": "FORD WILSON BLVD, NEWMARKET"
      }
    ]
  },
  {
    "postal": "L3X3H7",
    "result": [
      {
        "electoralDistricts": [
          {
            "election": null,
            "id": 67,
            "name": "Newmarket—Aurora"
          }
        ],
        "pollDivisionIds": [
          10139871
        ],
        "postalCode": "L3X3H7",
        "streetName": "POPPY",
        "streetDirectionId": null,
        "streetTypeId": "LANE",
        "placeName": "NEWMARKET",
        "streetNameDisplayText": "POPPY LANE, NEWMARKET"
      },
      {
        "electoralDistricts": [
          {
            "election": null,
            "id": 67,
            "name": "Newmarket—Aurora"
          }
        ],
        "pollDivisionIds": [
          10139871
        ],
        "postalCode": "L3X3H7",
        "streetName": "SHERMAN BROCK",
        "streetDirectionId": null,
        "streetTypeId": "CIR",
        "placeName": "NEWMARKET",
        "streetNameDisplayText": "SHERMAN BROCK CIR, NEWMARKET"
      },
      {
        "electoralDistricts": [
          {
            "election": null,
            "id": 67,
            "name": "Newmarket—Aurora"
          }
        ],
        "pollDivisionIds": [
          10139871
        ],
        "postalCode": "L3X3H7",
        "streetName": "WARBY",
        "streetDirectionId": null,
        "streetTypeId": "TRAIL",
        "placeName": "NEWMARKET",
        "streetNameDisplayText": "WARBY TRAIL, NEWMARKET"
      },
      {
        "electoralDistricts": [
          {
            "election": null,
            "id": 67,
            "name": "Newmarket—Aurora"
          }
        ],
        "pollDivisionIds": [
          10139871
        ],
        "postalCode": "L3X3H7",
        "streetName": "WILBUR PIPHER",
        "streetDirectionId": null,
        "streetTypeId": "CIR",
        "placeName": "NEWMARKET",
        "streetNameDisplayText": "WILBUR PIPHER CIR, NEWMARKET"
      }
    ]
  },
  {
    "postal": "L3X7X8",
    "result": []
  },
  {
    "postal": "L3X0C7",
    "result": [
      {
        "electoralDistricts": [
          {
            "election": null,
            "id": 67,
            "name": "Newmarket—Aurora"
          }
        ],
        "pollDivisionIds": [
          10139871
        ],
        "postalCode": "L3X0C7",
        "streetName": "ART WESTLAKE",
        "streetDirectionId": null,
        "streetTypeId": "AVE",
        "placeName": "NEWMARKET",
        "streetNameDisplayText": "ART WESTLAKE AVE, NEWMARKET"
      },
      {
        "electoralDistricts": [
          {
            "election": null,
            "id": 67,
            "name": "Newmarket—Aurora"
          }
        ],
        "pollDivisionIds": [
          10139871
        ],
        "postalCode": "L3X0C7",
        "streetName": "MCCRON",
        "streetDirectionId": null,
        "streetTypeId": "CRES",
        "placeName": "NEWMARKET",
        "streetNameDisplayText": "MCCRON CRES, NEWMARKET"
      }
    ]
  },
  {
    "postal": "L3X0W9",
    "result": []
  },
  {
    "postal": "L3X8E6",
    "result": []
  },
  {
    "postal": "L3X9Z8",
    "result": []
  },
  {
    "postal": "L3X3P4",
    "result": []
  },
  {
    "postal": "L3X6L8",
    "result": []
  },
  {
    "postal": "L3X2R4",
    "result": [
      {
        "electoralDistricts": [
          {
            "election": null,
            "id": 67,
            "name": "Newmarket—Aurora"
          }
        ],
        "pollDivisionIds": [
          10139860
        ],
        "postalCode": "L3X2R4",
        "streetName": "ASPENWOOD",
        "streetDirectionId": null,
        "streetTypeId": "DR",
        "placeName": "NEWMARKET",
        "streetNameDisplayText": "ASPENWOOD DR, NEWMARKET"
      },
      {
        "electoralDistricts": [
          {
            "election": null,
            "id": 67,
            "name": "Newmarket—Aurora"
          }
        ],
        "pollDivisionIds": [
          10139860
        ],
        "postalCode": "L3X2R4",
        "streetName": "FLAGSTONE",
        "streetDirectionId": null,
        "streetTypeId": "WAY",
        "placeName": "NEWMARKET",
        "streetNameDisplayText": "FLAGSTONE WAY, NEWMARKET"
      }
    ]
  },
  {
    "postal": "L3X2W1",
    "result": [
      {
        "electoralDistricts": [
          {
            "election": null,
            "id": 67,
            "name": "Newmarket—Aurora"
          }
        ],
        "pollDivisionIds": [
          10139875
        ],
        "postalCode": "L3X2W1",
        "streetName": "SAWMILL VALLEY",
        "streetDirectionId": null,
        "streetTypeId": "DR",
        "placeName": "NEWMARKET",
        "streetNameDisplayText": "SAWMILL VALLEY DR, NEWMARKET"
      },
      {
        "electoralDistricts": [
          {
            "election": null,
            "id": 67,
            "name": "Newmarket—Aurora"
          }
        ],
        "pollDivisionIds": [
          10139875
        ],
        "postalCode": "L3X2W1",
        "streetName": "SOCIETY",
        "streetDirectionId": null,
        "streetTypeId": "CRES",
        "placeName": "NEWMARKET",
        "streetNameDisplayText": "SOCIETY CRES, NEWMARKET"
      }
    ]
  },
  {
    "postal": "L3X9H8",
    "result": []
  },
  {
    "postal": "L3X8X9",
    "result": []
  },
  {
    "postal": "L3X7H4",
    "result": []
  },
  {
    "postal": "L3X3J1",
    "result": [
      {
        "electoralDistricts": [
          {
            "election": null,
            "id": 67,
            "name": "Newmarket—Aurora"
          }
        ],
        "pollDivisionIds": [
          10139861
        ],
        "postalCode": "L3X3J1",
        "streetName": "ART WEST",
        "streetDirectionId": null,
        "streetTypeId": "AVE",
        "placeName": "NEWMARKET",
        "streetNameDisplayText": "ART WEST AVE, NEWMARKET"
      },
      {
        "electoralDistricts": [
          {
            "election": null,
            "id": 67,
            "name": "Newmarket—Aurora"
          }
        ],
        "pollDivisionIds": [
          10139861
        ],
        "postalCode": "L3X3J1",
        "streetName": "RAY SNOW",
        "streetDirectionId": null,
        "streetTypeId": "BLVD",
        "placeName": "NEWMARKET",
        "streetNameDisplayText": "RAY SNOW BLVD, NEWMARKET"
      },
      {
        "electoralDistricts": [
          {
            "election": null,
            "id": 67,
            "name": "Newmarket—Aurora"
          }
        ],
        "pollDivisionIds": [
          10139861
        ],
        "postalCode": "L3X3J1",
        "streetName": "WOODSPRING",
        "streetDirectionId": null,
        "streetTypeId": "AVE",
        "placeName": "NEWMARKET",
        "streetNameDisplayText": "WOODSPRING AVE, NEWMARKET"
      }
    ]
  },
  {
    "postal": "L3X1P4",
    "result": [
      {
        "electoralDistricts": [
          {
            "election": null,
            "id": 67,
            "name": "Newmarket—Aurora"
          }
        ],
        "pollDivisionIds": [
          10139872
        ],
        "postalCode": "L3X1P4",
        "streetName": "EXCELLER",
        "streetDirectionId": null,
        "streetTypeId": "CIR",
        "placeName": "NEWMARKET",
        "streetNameDisplayText": "EXCELLER CIR, NEWMARKET"
      }
    ]
  },
  {
    "postal": "L3X2A3",
    "result": [
      {
        "electoralDistricts": [
          {
            "election": null,
            "id": 67,
            "name": "Newmarket—Aurora"
          }
        ],
        "pollDivisionIds": [
          10139871
        ],
        "postalCode": "L3X2A3",
        "streetName": "PINDER",
        "streetDirectionId": null,
        "streetTypeId": "AVE",
        "placeName": "NEWMARKET",
        "streetNameDisplayText": "PINDER AVE, NEWMARKET"
      }
    ]
  },
  {
    "postal": "L3X0Z1",
    "result": []
  },
  {
    "postal": "L3X1C1",
    "result": [
      {
        "electoralDistricts": [
          {
            "election": null,
            "id": 67,
            "name": "Newmarket—Aurora"
          }
        ],
        "pollDivisionIds": [
          10139868
        ],
        "postalCode": "L3X1C1",
        "streetName": "ALEX DONER",
        "streetDirectionId": null,
        "streetTypeId": "DR",
        "placeName": "NEWMARKET",
        "streetNameDisplayText": "ALEX DONER DR, NEWMARKET"
      }
    ]
  },
  {
    "postal": "L3X0H3",
    "result": [
      {
        "electoralDistricts": [
          {
            "election": null,
            "id": 67,
            "name": "Newmarket—Aurora"
          }
        ],
        "pollDivisionIds": [
          10139868
        ],
        "postalCode": "L3X0H3",
        "streetName": "MCGREGOR FARM",
        "streetDirectionId": null,
        "streetTypeId": "TRAIL",
        "placeName": "NEWMARKET",
        "streetNameDisplayText": "MCGREGOR FARM TRAIL, NEWMARKET"
      },
      {
        "electoralDistricts": [
          {
            "election": null,
            "id": 67,
            "name": "Newmarket—Aurora"
          }
        ],
        "pollDivisionIds": [
          10139868
        ],
        "postalCode": "L3X0H3",
        "streetName": "YARFIELD",
        "streetDirectionId": null,
        "streetTypeId": "CRES",
        "placeName": "NEWMARKET",
        "streetNameDisplayText": "YARFIELD CRES, NEWMARKET"
      }
    ]
  },
  {
    "postal": "L3X7B0",
    "result": []
  },
  {
    "postal": "L3X5K2",
    "result": []
  },
  {
    "postal": "L3X1E9",
    "result": [
      {
        "electoralDistricts": [
          {
            "election": null,
            "id": 67,
            "name": "Newmarket—Aurora"
          }
        ],
        "pollDivisionIds": [
          10139868
        ],
        "postalCode": "L3X1E9",
        "streetName": "ALEX DONER",
        "streetDirectionId": null,
        "streetTypeId": "DR",
        "placeName": "NEWMARKET",
        "streetNameDisplayText": "ALEX DONER DR, NEWMARKET"
      }
    ]
  },
  {
    "postal": "L3X9W7",
    "result": []
  },
  {
    "postal": "L3X5W6",
    "result": []
  },
  {
    "postal": "L3X6S6",
    "result": []
  },
  {
    "postal": "L3X2P8",
    "result": [
      {
        "electoralDistricts": [
          {
            "election": null,
            "id": 67,
            "name": "Newmarket—Aurora"
          }
        ],
        "pollDivisionIds": [
          10139869
        ],
        "postalCode": "L3X2P8",
        "streetName": "JORDANRAY",
        "streetDirectionId": null,
        "streetTypeId": "BLVD",
        "placeName": "NEWMARKET",
        "streetNameDisplayText": "JORDANRAY BLVD, NEWMARKET"
      }
    ]
  },
  {
    "postal": "L3X4P8",
    "result": []
  },
  {
    "postal": "L3X0V9",
    "result": []
  },
  {
    "postal": "L3X5Y2",
    "result": []
  },
  {
    "postal": "L3X7Z7",
    "result": []
  },
  {
    "postal": "L3X6Y8",
    "result": []
  },
  {
    "postal": "L3X2G7",
    "result": [
      {
        "electoralDistricts": [
          {
            "election": null,
            "id": 67,
            "name": "Newmarket—Aurora"
          }
        ],
        "pollDivisionIds": [
          10139870
        ],
        "postalCode": "L3X2G7",
        "streetName": "WARNER",
        "streetDirectionId": null,
        "streetTypeId": "CRES",
        "placeName": "NEWMARKET",
        "streetNameDisplayText": "WARNER CRES, NEWMARKET"
      }
    ]
  },
  {
    "postal": "L3X8C1",
    "result": []
  },
  {
    "postal": "L3X5C5",
    "result": []
  },
  {
    "postal": "L3X2X8",
    "result": [
      {
        "electoralDistricts": [
          {
            "election": null,
            "id": 67,
            "name": "Newmarket—Aurora"
          }
        ],
        "pollDivisionIds": [
          10139860
        ],
        "postalCode": "L3X2X8",
        "streetName": "BONSHAW",
        "streetDirectionId": null,
        "streetTypeId": "AVE",
        "placeName": "NEWMARKET",
        "streetNameDisplayText": "BONSHAW AVE, NEWMARKET"
      },
      {
        "electoralDistricts": [
          {
            "election": null,
            "id": 67,
            "name": "Newmarket—Aurora"
          }
        ],
        "pollDivisionIds": [
          10139860
        ],
        "postalCode": "L3X2X8",
        "streetName": "SPRUCE GROVE",
        "streetDirectionId": null,
        "streetTypeId": "CRES",
        "placeName": "NEWMARKET",
        "streetNameDisplayText": "SPRUCE GROVE CRES, NEWMARKET"
      },
      {
        "electoralDistricts": [
          {
            "election": null,
            "id": 67,
            "name": "Newmarket—Aurora"
          }
        ],
        "pollDivisionIds": [
          10139860
        ],
        "postalCode": "L3X2X8",
        "streetName": "WOOD DUCK",
        "streetDirectionId": null,
        "streetTypeId": "LANE",
        "placeName": "NEWMARKET",
        "streetNameDisplayText": "WOOD DUCK LANE, NEWMARKET"
      }
    ]
  },
  {
    "postal": "L3X1W5",
    "result": [
      {
        "electoralDistricts": [
          {
            "election": null,
            "id": 67,
            "name": "Newmarket—Aurora"
          }
        ],
        "pollDivisionIds": [
          10139874
        ],
        "postalCode": "L3X1W5",
        "streetName": "CARADONNA",
        "streetDirectionId": null,
        "streetTypeId": "CRES",
        "placeName": "NEWMARKET",
        "streetNameDisplayText": "CARADONNA CRES, NEWMARKET"
      }
    ]
  },
  {
    "postal": "L3X7G0",
    "result": []
  },
  {
    "postal": "L3X8J8",
    "result": []
  },
  {
    "postal": "L3X3Y0",
    "result": []
  },
  {
    "postal": "L3X9T7",
    "result": []
  },
  {
    "postal": "L3X5P4",
    "result": []
  },
  {
    "postal": "L3X4B0",
    "result": []
  },
  {
    "postal": "L3X9N8",
    "result": []
  },
  {
    "postal": "L3X4A7",
    "result": []
  },
  {
    "postal": "L3X4H9",
    "result": []
  },
  {
    "postal": "L3X6X1",
    "result": []
  },
  {
    "postal": "L3X9Y7",
    "result": []
  },
  {
    "postal": "L3X2Y5",
    "result": [
      {
        "electoralDistricts": [
          {
            "election": null,
            "id": 67,
            "name": "Newmarket—Aurora"
          }
        ],
        "pollDivisionIds": [
          10139873
        ],
        "postalCode": "L3X2Y5",
        "streetName": "SILKEN LAUMANN",
        "streetDirectionId": null,
        "streetTypeId": "DR",
        "placeName": "NEWMARKET",
        "streetNameDisplayText": "SILKEN LAUMANN DR, NEWMARKET"
      },
      {
        "electoralDistricts": [
          {
            "election": null,
            "id": 67,
            "name": "Newmarket—Aurora"
          }
        ],
        "pollDivisionIds": [
          10139873
        ],
        "postalCode": "L3X2Y5",
        "streetName": "SYDOR",
        "streetDirectionId": null,
        "streetTypeId": "CRT",
        "placeName": "NEWMARKET",
        "streetNameDisplayText": "SYDOR CRT, NEWMARKET"
      }
    ]
  },
  {
    "postal": "L3X8L7",
    "result": []
  },
  {
    "postal": "L3X2A8",
    "result": [
      {
        "electoralDistricts": [
          {
            "election": null,
            "id": 67,
            "name": "Newmarket—Aurora"
          }
        ],
        "pollDivisionIds": [
          10139871
        ],
        "postalCode": "L3X2A8",
        "streetName": "PINDER",
        "streetDirectionId": null,
        "streetTypeId": "AVE",
        "placeName": "NEWMARKET",
        "streetNameDisplayText": "PINDER AVE, NEWMARKET"
      },
      {
        "electoralDistricts": [
          {
            "election": null,
            "id": 67,
            "name": "Newmarket—Aurora"
          }
        ],
        "pollDivisionIds": [
          10139871
        ],
        "postalCode": "L3X2A8",
        "streetName": "SKINNER",
        "streetDirectionId": null,
        "streetTypeId": "AVE",
        "placeName": "NEWMARKET",
        "streetNameDisplayText": "SKINNER AVE, NEWMARKET"
      }
    ]
  },
  {
    "postal": "L3X2K9",
    "result": [
      {
        "electoralDistricts": [
          {
            "election": null,
            "id": 67,
            "name": "Newmarket—Aurora"
          }
        ],
        "pollDivisionIds": [
          10139873
        ],
        "postalCode": "L3X2K9",
        "streetName": "BEST",
        "streetDirectionId": null,
        "streetTypeId": "CIR",
        "placeName": "NEWMARKET",
        "streetNameDisplayText": "BEST CIR, NEWMARKET"
      },
      {
        "electoralDistricts": [
          {
            "election": null,
            "id": 67,
            "name": "Newmarket—Aurora"
          }
        ],
        "pollDivisionIds": [
          10139873
        ],
        "postalCode": "L3X2K9",
        "streetName": "STONEHAVEN",
        "streetDirectionId": null,
        "streetTypeId": "AVE",
        "placeName": "NEWMARKET",
        "streetNameDisplayText": "STONEHAVEN AVE, NEWMARKET"
      }
    ]
  },
  {
    "postal": "L3X3E5",
    "result": [
      {
        "electoralDistricts": [
          {
            "election": null,
            "id": 67,
            "name": "Newmarket—Aurora"
          }
        ],
        "pollDivisionIds": [
          10139871
        ],
        "postalCode": "L3X3E5",
        "streetName": "NELLIE LITTLE",
        "streetDirectionId": null,
        "streetTypeId": "CRES",
        "placeName": "NEWMARKET",
        "streetNameDisplayText": "NELLIE LITTLE CRES, NEWMARKET"
      }
    ]
  },
  {
    "postal": "L3X8N6",
    "result": []
  },
  {
    "postal": "L3X8J4",
    "result": []
  },
  {
    "postal": "L3X4R7",
    "result": []
  },
  {
    "postal": "L3X9K1",
    "result": []
  },
  {
    "postal": "L3X8E1",
    "result": []
  },
  {
    "postal": "L3X0R1",
    "result": []
  },
  {
    "postal": "L3X4J3",
    "result": []
  },
  {
    "postal": "L3X7E7",
    "result": []
  },
  {
    "postal": "L3X0J0",
    "result": []
  },
  {
    "postal": "L3X7R8",
    "result": []
  },
  {
    "postal": "L3X9X0",
    "result": []
  },
  {
    "postal": "L3X7P6",
    "result": []
  },
  {
    "postal": "L3X0R7",
    "result": []
  },
  {
    "postal": "L3X5W1",
    "result": []
  },
  {
    "postal": "L3X0K4",
    "result": [
      {
        "electoralDistricts": [
          {
            "election": null,
            "id": 67,
            "name": "Newmarket—Aurora"
          }
        ],
        "pollDivisionIds": [
          10139861
        ],
        "postalCode": "L3X0K4",
        "streetName": "TANGO",
        "streetDirectionId": null,
        "streetTypeId": "CRES",
        "placeName": "NEWMARKET",
        "streetNameDisplayText": "TANGO CRES, NEWMARKET"
      }
    ]
  },
  {
    "postal": "L3X7N9",
    "result": []
  },
  {
    "postal": "L3X1N0",
    "result": []
  },
  {
    "postal": "L3X6P3",
    "result": []
  },
  {
    "postal": "L3X5A1",
    "result": []
  },
  {
    "postal": "L3X9M9",
    "result": []
  },
  {
    "postal": "L3X7T6",
    "result": []
  },
  {
    "postal": "L3X3X0",
    "result": []
  },
  {
    "postal": "L3X2T0",
    "result": []
  },
  {
    "postal": "L3X5X9",
    "result": []
  },
  {
    "postal": "L3X2R3",
    "result": [
      {
        "electoralDistricts": [
          {
            "election": null,
            "id": 67,
            "name": "Newmarket—Aurora"
          }
        ],
        "pollDivisionIds": [
          10139860
        ],
        "postalCode": "L3X2R3",
        "streetName": "FLAGSTONE",
        "streetDirectionId": null,
        "streetTypeId": "WAY",
        "placeName": "NEWMARKET",
        "streetNameDisplayText": "FLAGSTONE WAY, NEWMARKET"
      }
    ]
  },
  {
    "postal": "L3X5N2",
    "result": []
  },
  {
    "postal": "L3X4Y7",
    "result": []
  },
  {
    "postal": "L3X7M0",
    "result": []
  },
  {
    "postal": "L3X8P3",
    "result": []
  },
  {
    "postal": "L3X3N3",
    "result": []
  },
  {
    "postal": "L3X7S3",
    "result": []
  },
  {
    "postal": "L3X3V9",
    "result": []
  },
  {
    "postal": "L3X9N7",
    "result": []
  },
  {
    "postal": "L3X0G4",
    "result": [
      {
        "electoralDistricts": [
          {
            "election": null,
            "id": 67,
            "name": "Newmarket—Aurora"
          }
        ],
        "pollDivisionIds": [
          10139871
        ],
        "postalCode": "L3X0G4",
        "streetName": "WILBUR PIPHER",
        "streetDirectionId": null,
        "streetTypeId": "CIR",
        "placeName": "NEWMARKET",
        "streetNameDisplayText": "WILBUR PIPHER CIR, NEWMARKET"
      }
    ]
  },
  {
    "postal": "L3X2E2",
    "result": [
      {
        "electoralDistricts": [
          {
            "election": null,
            "id": 67,
            "name": "Newmarket—Aurora"
          }
        ],
        "pollDivisionIds": [
          10139869
        ],
        "postalCode": "L3X2E2",
        "streetName": "RUSHBROOK",
        "streetDirectionId": null,
        "streetTypeId": "DR",
        "placeName": "NEWMARKET",
        "streetNameDisplayText": "RUSHBROOK DR, NEWMARKET"
      }
    ]
  },
  {
    "postal": "L3X7W8",
    "result": []
  },
  {
    "postal": "L3X7M5",
    "result": []
  },
  {
    "postal": "L3X5W8",
    "result": []
  },
  {
    "postal": "L3X5E5",
    "result": []
  },
  {
    "postal": "L3X1P9",
    "result": [
      {
        "electoralDistricts": [
          {
            "election": null,
            "id": 67,
            "name": "Newmarket—Aurora"
          }
        ],
        "pollDivisionIds": [
          10139874
        ],
        "postalCode": "L3X1P9",
        "streetName": "SHANAHAN",
        "streetDirectionId": null,
        "streetTypeId": "BLVD",
        "placeName": "NEWMARKET",
        "streetNameDisplayText": "SHANAHAN BLVD, NEWMARKET"
      }
    ]
  },
  {
    "postal": "L3X8V8",
    "result": []
  },
  {
    "postal": "L3X9G8",
    "result": []
  },
  {
    "postal": "L3X8H9",
    "result": []
  },
  {
    "postal": "L3X1Z1",
    "result": [
      {
        "electoralDistricts": [
          {
            "election": null,
            "id": 67,
            "name": "Newmarket—Aurora"
          }
        ],
        "pollDivisionIds": [
          10139874
        ],
        "postalCode": "L3X1Z1",
        "streetName": "BOSWORTH",
        "streetDirectionId": null,
        "streetTypeId": "CRT",
        "placeName": "NEWMARKET",
        "streetNameDisplayText": "BOSWORTH CRT, NEWMARKET"
      }
    ]
  },
  {
    "postal": "L3X8M3",
    "result": []
  },
  {
    "postal": "L3X5H6",
    "result": []
  },
  {
    "postal": "L3X7W7",
    "result": []
  },
  {
    "postal": "L3X4L0",
    "result": []
  },
  {
    "postal": "L3X2N1",
    "result": [
      {
        "electoralDistricts": [
          {
            "election": null,
            "id": 67,
            "name": "Newmarket—Aurora"
          }
        ],
        "pollDivisionIds": [
          10139869
        ],
        "postalCode": "L3X2N1",
        "streetName": "RANNIE",
        "streetDirectionId": null,
        "streetTypeId": "RD",
        "placeName": "NEWMARKET",
        "streetNameDisplayText": "RANNIE RD, NEWMARKET"
      },
      {
        "electoralDistricts": [
          {
            "election": null,
            "id": 67,
            "name": "Newmarket—Aurora"
          }
        ],
        "pollDivisionIds": [
          10139869
        ],
        "postalCode": "L3X2N1",
        "streetName": "RITA'S",
        "streetDirectionId": null,
        "streetTypeId": "AVE",
        "placeName": "NEWMARKET",
        "streetNameDisplayText": "RITA'S AVE, NEWMARKET"
      }
    ]
  },
  {
    "postal": "L3X2H4",
    "result": [
      {
        "electoralDistricts": [
          {
            "election": null,
            "id": 67,
            "name": "Newmarket—Aurora"
          }
        ],
        "pollDivisionIds": [
          10139873
        ],
        "postalCode": "L3X2H4",
        "streetName": "KINRARA",
        "streetDirectionId": null,
        "streetTypeId": "CRT",
        "placeName": "NEWMARKET",
        "streetNameDisplayText": "KINRARA CRT, NEWMARKET"
      },
      {
        "electoralDistricts": [
          {
            "election": null,
            "id": 67,
            "name": "Newmarket—Aurora"
          }
        ],
        "pollDivisionIds": [
          10139873
        ],
        "postalCode": "L3X2H4",
        "streetName": "SHADRACH",
        "streetDirectionId": null,
        "streetTypeId": "DR",
        "placeName": "NEWMARKET",
        "streetNameDisplayText": "SHADRACH DR, NEWMARKET"
      }
    ]
  },
  {
    "postal": "L3X5C8",
    "result": []
  },
  {
    "postal": "L3X8B0",
    "result": []
  },
  {
    "postal": "L3X1T4",
    "result": [
      {
        "electoralDistricts": [
          {
            "election": null,
            "id": 67,
            "name": "Newmarket—Aurora"
          }
        ],
        "pollDivisionIds": [
          10139874
        ],
        "postalCode": "L3X1T4",
        "streetName": "PONTING",
        "streetDirectionId": null,
        "streetTypeId": "PL",
        "placeName": "NEWMARKET",
        "streetNameDisplayText": "PONTING PL, NEWMARKET"
      },
      {
        "electoralDistricts": [
          {
            "election": null,
            "id": 67,
            "name": "Newmarket—Aurora"
          }
        ],
        "pollDivisionIds": [
          10139874
        ],
        "postalCode": "L3X1T4",
        "streetName": "SANDFORD",
        "streetDirectionId": null,
        "streetTypeId": "ST",
        "placeName": "NEWMARKET",
        "streetNameDisplayText": "SANDFORD ST, NEWMARKET"
      },
      {
        "electoralDistricts": [
          {
            "election": null,
            "id": 67,
            "name": "Newmarket—Aurora"
          }
        ],
        "pollDivisionIds": [
          10139874
        ],
        "postalCode": "L3X1T4",
        "streetName": "STELLICK",
        "streetDirectionId": null,
        "streetTypeId": "AVE",
        "placeName": "NEWMARKET",
        "streetNameDisplayText": "STELLICK AVE, NEWMARKET"
      }
    ]
  },
  {
    "postal": "L3X7N7",
    "result": []
  },
  {
    "postal": "L3X4L3",
    "result": []
  },
  {
    "postal": "L3X2N2",
    "result": [
      {
        "electoralDistricts": [
          {
            "election": null,
            "id": 67,
            "name": "Newmarket—Aurora"
          }
        ],
        "pollDivisionIds": [
          10139869
        ],
        "postalCode": "L3X2N2",
        "streetName": "RANNIE",
        "streetDirectionId": null,
        "streetTypeId": "RD",
        "placeName": "NEWMARKET",
        "streetNameDisplayText": "RANNIE RD, NEWMARKET"
      },
      {
        "electoralDistricts": [
          {
            "election": null,
            "id": 67,
            "name": "Newmarket—Aurora"
          }
        ],
        "pollDivisionIds": [
          10139869
        ],
        "postalCode": "L3X2N2",
        "streetName": "RITA'S",
        "streetDirectionId": null,
        "streetTypeId": "AVE",
        "placeName": "NEWMARKET",
        "streetNameDisplayText": "RITA'S AVE, NEWMARKET"
      }
    ]
  },
  {
    "postal": "L3X4N8",
    "result": []
  },
  {
    "postal": "L3X3M5",
    "result": []
  },
  {
    "postal": "L3X6H7",
    "result": []
  },
  {
    "postal": "L3X8Y8",
    "result": []
  },
  {
    "postal": "L3X5R9",
    "result": []
  },
  {
    "postal": "L3X8G3",
    "result": []
  },
  {
    "postal": "L3X4N7",
    "result": []
  },
  {
    "postal": "L3X0B9",
    "result": [
      {
        "electoralDistricts": [
          {
            "election": null,
            "id": 67,
            "name": "Newmarket—Aurora"
          }
        ],
        "pollDivisionIds": [
          10139861
        ],
        "postalCode": "L3X0B9",
        "streetName": "ART WEST",
        "streetDirectionId": null,
        "streetTypeId": "AVE",
        "placeName": "NEWMARKET",
        "streetNameDisplayText": "ART WEST AVE, NEWMARKET"
      },
      {
        "electoralDistricts": [
          {
            "election": null,
            "id": 67,
            "name": "Newmarket—Aurora"
          }
        ],
        "pollDivisionIds": [
          10139861
        ],
        "postalCode": "L3X0B9",
        "streetName": "FREDERICK CURRAN",
        "streetDirectionId": null,
        "streetTypeId": "LANE",
        "placeName": "NEWMARKET",
        "streetNameDisplayText": "FREDERICK CURRAN LANE, NEWMARKET"
      }
    ]
  },
  {
    "postal": "L3X9K7",
    "result": []
  },
  {
    "postal": "L3X9K9",
    "result": []
  },
  {
    "postal": "L3X3Z2",
    "result": []
  },
  {
    "postal": "L3X6W7",
    "result": []
  },
  {
    "postal": "L3X0P1",
    "result": []
  },
  {
    "postal": "L3X3A0",
    "result": []
  },
  {
    "postal": "L3X8L9",
    "result": []
  },
  {
    "postal": "L3X6X0",
    "result": []
  },
  {
    "postal": "L3X3E9",
    "result": [
      {
        "electoralDistricts": [
          {
            "election": null,
            "id": 67,
            "name": "Newmarket—Aurora"
          }
        ],
        "pollDivisionIds": [
          10139869
        ],
        "postalCode": "L3X3E9",
        "streetName": "TOM TAYLOR",
        "streetDirectionId": null,
        "streetTypeId": "CRES",
        "placeName": "NEWMARKET",
        "streetNameDisplayText": "TOM TAYLOR CRES, NEWMARKET"
      }
    ]
  },
  {
    "postal": "L3X0S5",
    "result": []
  },
  {
    "postal": "L3X1A2",
    "result": []
  },
  {
    "postal": "L3X5V8",
    "result": []
  },
  {
    "postal": "L3X8C5",
    "result": []
  },
  {
    "postal": "L3X6N0",
    "result": []
  },
  {
    "postal": "L3X9E6",
    "result": []
  },
  {
    "postal": "L3X5J7",
    "result": []
  },
  {
    "postal": "L3X2R2",
    "result": [
      {
        "electoralDistricts": [
          {
            "election": null,
            "id": 67,
            "name": "Newmarket—Aurora"
          }
        ],
        "pollDivisionIds": [
          10139860
        ],
        "postalCode": "L3X2R2",
        "streetName": "ASPENWOOD",
        "streetDirectionId": null,
        "streetTypeId": "DR",
        "placeName": "NEWMARKET",
        "streetNameDisplayText": "ASPENWOOD DR, NEWMARKET"
      },
      {
        "electoralDistricts": [
          {
            "election": null,
            "id": 67,
            "name": "Newmarket—Aurora"
          }
        ],
        "pollDivisionIds": [
          10139860
        ],
        "postalCode": "L3X2R2",
        "streetName": "COACHWHIP",
        "streetDirectionId": null,
        "streetTypeId": "TRAIL",
        "placeName": "NEWMARKET",
        "streetNameDisplayText": "COACHWHIP TRAIL, NEWMARKET"
      }
    ]
  },
  {
    "postal": "L3X0P5",
    "result": []
  },
  {
    "postal": "L3X5A7",
    "result": []
  },
  {
    "postal": "L3X1G1",
    "result": [
      {
        "electoralDistricts": [
          {
            "election": null,
            "id": 67,
            "name": "Newmarket—Aurora"
          }
        ],
        "pollDivisionIds": [
          10139868
        ],
        "postalCode": "L3X1G1",
        "streetName": "ALEX DONER",
        "streetDirectionId": null,
        "streetTypeId": "DR",
        "placeName": "NEWMARKET",
        "streetNameDisplayText": "ALEX DONER DR, NEWMARKET"
      },
      {
        "electoralDistricts": [
          {
            "election": null,
            "id": 67,
            "name": "Newmarket—Aurora"
          }
        ],
        "pollDivisionIds": [
          10139868
        ],
        "postalCode": "L3X1G1",
        "streetName": "OTTON",
        "streetDirectionId": null,
        "streetTypeId": "RD",
        "placeName": "NEWMARKET",
        "streetNameDisplayText": "OTTON RD, NEWMARKET"
      }
    ]
  },
  {
    "postal": "L3X9R6",
    "result": []
  },
  {
    "postal": "L3X4Z9",
    "result": []
  },
  {
    "postal": "L3X1V5",
    "result": [
      {
        "electoralDistricts": [
          {
            "election": null,
            "id": 67,
            "name": "Newmarket—Aurora"
          }
        ],
        "pollDivisionIds": [
          10139870
        ],
        "postalCode": "L3X1V5",
        "streetName": "KEITH",
        "streetDirectionId": null,
        "streetTypeId": "AVE",
        "placeName": "NEWMARKET",
        "streetNameDisplayText": "KEITH AVE, NEWMARKET"
      }
    ]
  },
  {
    "postal": "L3X9Y5",
    "result": []
  },
  {
    "postal": "L3X1P2",
    "result": [
      {
        "electoralDistricts": [
          {
            "election": null,
            "id": 67,
            "name": "Newmarket—Aurora"
          }
        ],
        "pollDivisionIds": [
          10139872
        ],
        "postalCode": "L3X1P2",
        "streetName": "CREEBRIDGE",
        "streetDirectionId": null,
        "streetTypeId": "CRES",
        "placeName": "NEWMARKET",
        "streetNameDisplayText": "CREEBRIDGE CRES, NEWMARKET"
      },
      {
        "electoralDistricts": [
          {
            "election": null,
            "id": 67,
            "name": "Newmarket—Aurora"
          }
        ],
        "pollDivisionIds": [
          10139872
        ],
        "postalCode": "L3X1P2",
        "streetName": "EXCELLER",
        "streetDirectionId": null,
        "streetTypeId": "CIR",
        "placeName": "NEWMARKET",
        "streetNameDisplayText": "EXCELLER CIR, NEWMARKET"
      },
      {
        "electoralDistricts": [
          {
            "election": null,
            "id": 67,
            "name": "Newmarket—Aurora"
          }
        ],
        "pollDivisionIds": [
          10139872
        ],
        "postalCode": "L3X1P2",
        "streetName": "FOXCROFT",
        "streetDirectionId": null,
        "streetTypeId": "BLVD",
        "placeName": "NEWMARKET",
        "streetNameDisplayText": "FOXCROFT BLVD, NEWMARKET"
      },
      {
        "electoralDistricts": [
          {
            "election": null,
            "id": 67,
            "name": "Newmarket—Aurora"
          }
        ],
        "pollDivisionIds": [
          10139872
        ],
        "postalCode": "L3X1P2",
        "streetName": "HIGHLAND BLADE",
        "streetDirectionId": null,
        "streetTypeId": "RD",
        "placeName": "NEWMARKET",
        "streetNameDisplayText": "HIGHLAND BLADE RD, NEWMARKET"
      },
      {
        "electoralDistricts": [
          {
            "election": null,
            "id": 67,
            "name": "Newmarket—Aurora"
          }
        ],
        "pollDivisionIds": [
          10139872
        ],
        "postalCode": "L3X1P2",
        "streetName": "STONEHAVEN",
        "streetDirectionId": null,
        "streetTypeId": "AVE",
        "placeName": "NEWMARKET",
        "streetNameDisplayText": "STONEHAVEN AVE, NEWMARKET"
      }
    ]
  },
  {
    "postal": "L3X5X0",
    "result": []
  },
  {
    "postal": "L3X7B8",
    "result": []
  },
  {
    "postal": "L3X0C6",
    "result": []
  },
  {
    "postal": "L3X6G1",
    "result": []
  },
  {
    "postal": "L3X3K3",
    "result": [
      {
        "electoralDistricts": [
          {
            "election": null,
            "id": 67,
            "name": "Newmarket—Aurora"
          }
        ],
        "pollDivisionIds": [
          10139861
        ],
        "postalCode": "L3X3K3",
        "streetName": "CARLISSA",
        "streetDirectionId": null,
        "streetTypeId": "RUN",
        "placeName": "NEWMARKET",
        "streetNameDisplayText": "CARLISSA RUN, NEWMARKET"
      },
      {
        "electoralDistricts": [
          {
            "election": null,
            "id": 67,
            "name": "Newmarket—Aurora"
          }
        ],
        "pollDivisionIds": [
          10139861
        ],
        "postalCode": "L3X3K3",
        "streetName": "ROSS PATRICK",
        "streetDirectionId": null,
        "streetTypeId": "CRES",
        "placeName": "NEWMARKET",
        "streetNameDisplayText": "ROSS PATRICK CRES, NEWMARKET"
      },
      {
        "electoralDistricts": [
          {
            "election": null,
            "id": 67,
            "name": "Newmarket—Aurora"
          }
        ],
        "pollDivisionIds": [
          10139861
        ],
        "postalCode": "L3X3K3",
        "streetName": "WILLIAMSON FAMILY",
        "streetDirectionId": null,
        "streetTypeId": "HOLLOW",
        "placeName": "NEWMARKET",
        "streetNameDisplayText": "WILLIAMSON FAMILY HOLLOW, NEWMARKET"
      }
    ]
  },
  {
    "postal": "L3X9R0",
    "result": []
  },
  {
    "postal": "L3X4R8",
    "result": []
  },
  {
    "postal": "L3X5P9",
    "result": []
  },
  {
    "postal": "L3X8N4",
    "result": []
  },
  {
    "postal": "L3X8H4",
    "result": []
  },
  {
    "postal": "L3X4V1",
    "result": []
  },
  {
    "postal": "L3X1K5",
    "result": [
      {
        "electoralDistricts": [
          {
            "election": null,
            "id": 67,
            "name": "Newmarket—Aurora"
          }
        ],
        "pollDivisionIds": [
          10139872
        ],
        "postalCode": "L3X1K5",
        "streetName": "QUANTRA",
        "streetDirectionId": null,
        "streetTypeId": "CRES",
        "placeName": "NEWMARKET",
        "streetNameDisplayText": "QUANTRA CRES, NEWMARKET"
      }
    ]
  },
  {
    "postal": "L3X1Z5",
    "result": [
      {
        "electoralDistricts": [
          {
            "election": null,
            "id": 67,
            "name": "Newmarket—Aurora"
          }
        ],
        "pollDivisionIds": [
          10139874
        ],
        "postalCode": "L3X1Z5",
        "streetName": "WIDDIFIELD",
        "streetDirectionId": null,
        "streetTypeId": "AVE",
        "placeName": "NEWMARKET",
        "streetNameDisplayText": "WIDDIFIELD AVE, NEWMARKET"
      }
    ]
  },
  {
    "postal": "L3X9L9",
    "result": []
  },
  {
    "postal": "L3X5L2",
    "result": []
  },
  {
    "postal": "L3X0M2",
    "result": []
  },
  {
    "postal": "L3X1K8",
    "result": [
      {
        "electoralDistricts": [
          {
            "election": null,
            "id": 67,
            "name": "Newmarket—Aurora"
          }
        ],
        "pollDivisionIds": [
          10139872
        ],
        "postalCode": "L3X1K8",
        "streetName": "LOCKWOOD",
        "streetDirectionId": null,
        "streetTypeId": "CIR",
        "placeName": "NEWMARKET",
        "streetNameDisplayText": "LOCKWOOD CIR, NEWMARKET"
      },
      {
        "electoralDistricts": [
          {
            "election": null,
            "id": 67,
            "name": "Newmarket—Aurora"
          }
        ],
        "pollDivisionIds": [
          10139872
        ],
        "postalCode": "L3X1K8",
        "streetName": "NORWICK",
        "streetDirectionId": null,
        "streetTypeId": "RD",
        "placeName": "NEWMARKET",
        "streetNameDisplayText": "NORWICK RD, NEWMARKET"
      }
    ]
  },
  {
    "postal": "L3X3M7",
    "result": []
  },
  {
    "postal": "L3X1B2",
    "result": [
      {
        "electoralDistricts": [
          {
            "election": null,
            "id": 67,
            "name": "Newmarket—Aurora"
          }
        ],
        "pollDivisionIds": [
          10139868
        ],
        "postalCode": "L3X1B2",
        "streetName": "CROSSLAND",
        "streetDirectionId": null,
        "streetTypeId": "GATE",
        "placeName": "NEWMARKET",
        "streetNameDisplayText": "CROSSLAND GATE, NEWMARKET"
      }
    ]
  },
  {
    "postal": "L3X0H9",
    "result": [
      {
        "electoralDistricts": [
          {
            "election": null,
            "id": 67,
            "name": "Newmarket—Aurora"
          }
        ],
        "pollDivisionIds": [
          10139856,
          10139871
        ],
        "postalCode": "L3X0H9",
        "streetName": "ERNEST COUSINS",
        "streetDirectionId": null,
        "streetTypeId": "CIR",
        "placeName": "NEWMARKET",
        "streetNameDisplayText": "ERNEST COUSINS CIR, NEWMARKET"
      },
      {
        "electoralDistricts": [
          {
            "election": null,
            "id": 67,
            "name": "Newmarket—Aurora"
          }
        ],
        "pollDivisionIds": [
          10139871
        ],
        "postalCode": "L3X0H9",
        "streetName": "GORING",
        "streetDirectionId": null,
        "streetTypeId": "CIR",
        "placeName": "NEWMARKET",
        "streetNameDisplayText": "GORING CIR, NEWMARKET"
      },
      {
        "electoralDistricts": [
          {
            "election": null,
            "id": 67,
            "name": "Newmarket—Aurora"
          }
        ],
        "pollDivisionIds": [
          10139871
        ],
        "postalCode": "L3X0H9",
        "streetName": "HARDEN",
        "streetDirectionId": null,
        "streetTypeId": "TRAIL",
        "placeName": "NEWMARKET",
        "streetNameDisplayText": "HARDEN TRAIL, NEWMARKET"
      },
      {
        "electoralDistricts": [
          {
            "election": null,
            "id": 67,
            "name": "Newmarket—Aurora"
          }
        ],
        "pollDivisionIds": [
          10139871
        ],
        "postalCode": "L3X0H9",
        "streetName": "MEMORIAL",
        "streetDirectionId": null,
        "streetTypeId": "CIR",
        "placeName": "NEWMARKET",
        "streetNameDisplayText": "MEMORIAL CIR, NEWMARKET"
      }
    ]
  },
  {
    "postal": "L3X8M4",
    "result": []
  },
  {
    "postal": "L3X2M5",
    "result": [
      {
        "electoralDistricts": [
          {
            "election": null,
            "id": 67,
            "name": "Newmarket—Aurora"
          }
        ],
        "pollDivisionIds": [
          10139869
        ],
        "postalCode": "L3X2M5",
        "streetName": "CLEARMEADOW",
        "streetDirectionId": null,
        "streetTypeId": "BLVD",
        "placeName": "NEWMARKET",
        "streetNameDisplayText": "CLEARMEADOW BLVD, NEWMARKET"
      },
      {
        "electoralDistricts": [
          {
            "election": null,
            "id": 67,
            "name": "Newmarket—Aurora"
          }
        ],
        "pollDivisionIds": [
          10139869
        ],
        "postalCode": "L3X2M5",
        "streetName": "RITA'S",
        "streetDirectionId": null,
        "streetTypeId": "AVE",
        "placeName": "NEWMARKET",
        "streetNameDisplayText": "RITA'S AVE, NEWMARKET"
      }
    ]
  },
  {
    "postal": "L3X0T9",
    "result": []
  },
  {
    "postal": "L3X3P1",
    "result": []
  },
  {
    "postal": "L3X1R6",
    "result": [
      {
        "electoralDistricts": [
          {
            "election": null,
            "id": 67,
            "name": "Newmarket—Aurora"
          }
        ],
        "pollDivisionIds": [
          10139874
        ],
        "postalCode": "L3X1R6",
        "streetName": "GOLDSMITH",
        "streetDirectionId": null,
        "streetTypeId": "CRES",
        "placeName": "NEWMARKET",
        "streetNameDisplayText": "GOLDSMITH CRES, NEWMARKET"
      },
      {
        "electoralDistricts": [
          {
            "election": null,
            "id": 67,
            "name": "Newmarket—Aurora"
          }
        ],
        "pollDivisionIds": [
          10139874
        ],
        "postalCode": "L3X1R6",
        "streetName": "SAVAGE",
        "streetDirectionId": null,
        "streetTypeId": "RD",
        "placeName": "NEWMARKET",
        "streetNameDisplayText": "SAVAGE RD, NEWMARKET"
      }
    ]
  },
  {
    "postal": "L3X9V5",
    "result": []
  },
  {
    "postal": "L3X9T0",
    "result": []
  },
  {
    "postal": "L3X0A9",
    "result": [
      {
        "electoralDistricts": [
          {
            "election": null,
            "id": 67,
            "name": "Newmarket—Aurora"
          }
        ],
        "pollDivisionIds": [
          10139871
        ],
        "postalCode": "L3X0A9",
        "streetName": "BLENCOWE",
        "streetDirectionId": null,
        "streetTypeId": "CRES",
        "placeName": "NEWMARKET",
        "streetNameDisplayText": "BLENCOWE CRES, NEWMARKET"
      },
      {
        "electoralDistricts": [
          {
            "election": null,
            "id": 67,
            "name": "Newmarket—Aurora"
          }
        ],
        "pollDivisionIds": [
          10139871
        ],
        "postalCode": "L3X0A9",
        "streetName": "MCTAVISH",
        "streetDirectionId": null,
        "streetTypeId": "DR",
        "placeName": "NEWMARKET",
        "streetNameDisplayText": "MCTAVISH DR, NEWMARKET"
      },
      {
        "electoralDistricts": [
          {
            "election": null,
            "id": 67,
            "name": "Newmarket—Aurora"
          }
        ],
        "pollDivisionIds": [
          10139871
        ],
        "postalCode": "L3X0A9",
        "streetName": "MEMORIAL",
        "streetDirectionId": null,
        "streetTypeId": "CIR",
        "placeName": "NEWMARKET",
        "streetNameDisplayText": "MEMORIAL CIR, NEWMARKET"
      }
    ]
  },
  {
    "postal": "L3X1M3",
    "result": [
      {
        "electoralDistricts": [
          {
            "election": null,
            "id": 67,
            "name": "Newmarket—Aurora"
          }
        ],
        "pollDivisionIds": [
          10139872
        ],
        "postalCode": "L3X1M3",
        "streetName": "SECRETARIATE",
        "streetDirectionId": null,
        "streetTypeId": "RD",
        "placeName": "NEWMARKET",
        "streetNameDisplayText": "SECRETARIATE RD, NEWMARKET"
      }
    ]
  },
  {
    "postal": "L3X1W8",
    "result": [
      {
        "electoralDistricts": [
          {
            "election": null,
            "id": 67,
            "name": "Newmarket—Aurora"
          }
        ],
        "pollDivisionIds": [
          10139874
        ],
        "postalCode": "L3X1W8",
        "streetName": "PLAYTER",
        "streetDirectionId": null,
        "streetTypeId": "CRES",
        "placeName": "NEWMARKET",
        "streetNameDisplayText": "PLAYTER CRES, NEWMARKET"
      }
    ]
  },
  {
    "postal": "L3X9J1",
    "result": []
  },
  {
    "postal": "L3X8N5",
    "result": []
  },
  {
    "postal": "L3X5X1",
    "result": []
  },
  {
    "postal": "L3X6S2",
    "result": []
  },
  {
    "postal": "L3X2A2",
    "result": [
      {
        "electoralDistricts": [
          {
            "election": null,
            "id": 67,
            "name": "Newmarket—Aurora"
          }
        ],
        "pollDivisionIds": [
          10139872
        ],
        "postalCode": "L3X2A2",
        "streetName": "IVSBRIDGE",
        "streetDirectionId": null,
        "streetTypeId": "BLVD",
        "placeName": "NEWMARKET",
        "streetNameDisplayText": "IVSBRIDGE BLVD, NEWMARKET"
      }
    ]
  },
  {
    "postal": "L3X6A6",
    "result": []
  },
  {
    "postal": "L3X0S3",
    "result": []
  },
  {
    "postal": "L3X3E7",
    "result": [
      {
        "electoralDistricts": [
          {
            "election": null,
            "id": 67,
            "name": "Newmarket—Aurora"
          }
        ],
        "pollDivisionIds": [
          10139871
        ],
        "postalCode": "L3X3E7",
        "streetName": "FERNBANK",
        "streetDirectionId": null,
        "streetTypeId": "RD",
        "placeName": "NEWMARKET",
        "streetNameDisplayText": "FERNBANK RD, NEWMARKET"
      }
    ]
  },
  {
    "postal": "L3X5R7",
    "result": []
  },
  {
    "postal": "L3X3R6",
    "result": []
  },
  {
    "postal": "L3X6K4",
    "result": []
  },
  {
    "postal": "L3X2W5",
    "result": [
      {
        "electoralDistricts": [
          {
            "election": null,
            "id": 67,
            "name": "Newmarket—Aurora"
          }
        ],
        "pollDivisionIds": [
          10139875
        ],
        "postalCode": "L3X2W5",
        "streetName": "BANBROOKE",
        "streetDirectionId": null,
        "streetTypeId": "CRES",
        "placeName": "NEWMARKET",
        "streetNameDisplayText": "BANBROOKE CRES, NEWMARKET"
      }
    ]
  },
  {
    "postal": "L3X8W4",
    "result": []
  },
  {
    "postal": "L3X9C2",
    "result": []
  },
  {
    "postal": "L3X2C0",
    "result": []
  },
  {
    "postal": "L3X0E1",
    "result": [
      {
        "electoralDistricts": [
          {
            "election": null,
            "id": 67,
            "name": "Newmarket—Aurora"
          }
        ],
        "pollDivisionIds": [
          10139871
        ],
        "postalCode": "L3X0E1",
        "streetName": "ATKINS",
        "streetDirectionId": null,
        "streetTypeId": "DR",
        "placeName": "NEWMARKET",
        "streetNameDisplayText": "ATKINS DR, NEWMARKET"
      },
      {
        "electoralDistricts": [
          {
            "election": null,
            "id": 67,
            "name": "Newmarket—Aurora"
          }
        ],
        "pollDivisionIds": [
          10139871
        ],
        "postalCode": "L3X0E1",
        "streetName": "STUFFLES",
        "streetDirectionId": null,
        "streetTypeId": "CRES",
        "placeName": "NEWMARKET",
        "streetNameDisplayText": "STUFFLES CRES, NEWMARKET"
      }
    ]
  },
  {
    "postal": "L3X1K9",
    "result": [
      {
        "electoralDistricts": [
          {
            "election": null,
            "id": 67,
            "name": "Newmarket—Aurora"
          }
        ],
        "pollDivisionIds": [
          10139872
        ],
        "postalCode": "L3X1K9",
        "streetName": "DAMASCUS",
        "streetDirectionId": null,
        "streetTypeId": "CRT",
        "placeName": "NEWMARKET",
        "streetNameDisplayText": "DAMASCUS CRT, NEWMARKET"
      },
      {
        "electoralDistricts": [
          {
            "election": null,
            "id": 67,
            "name": "Newmarket—Aurora"
          }
        ],
        "pollDivisionIds": [
          10139872
        ],
        "postalCode": "L3X1K9",
        "streetName": "NORSAN",
        "streetDirectionId": null,
        "streetTypeId": "CRT",
        "placeName": "NEWMARKET",
        "streetNameDisplayText": "NORSAN CRT, NEWMARKET"
      }
    ]
  },
  {
    "postal": "L3X1G7",
    "result": [
      {
        "electoralDistricts": [
          {
            "election": null,
            "id": 67,
            "name": "Newmarket—Aurora"
          }
        ],
        "pollDivisionIds": [
          10139868
        ],
        "postalCode": "L3X1G7",
        "streetName": "ALEX DONER",
        "streetDirectionId": null,
        "streetTypeId": "DR",
        "placeName": "NEWMARKET",
        "streetNameDisplayText": "ALEX DONER DR, NEWMARKET"
      },
      {
        "electoralDistricts": [
          {
            "election": null,
            "id": 67,
            "name": "Newmarket—Aurora"
          }
        ],
        "pollDivisionIds": [
          10139868
        ],
        "postalCode": "L3X1G7",
        "streetName": "KIRBY",
        "streetDirectionId": null,
        "streetTypeId": "CRES",
        "placeName": "NEWMARKET",
        "streetNameDisplayText": "KIRBY CRES, NEWMARKET"
      }
    ]
  },
  {
    "postal": "L3X4E9",
    "result": []
  },
  {
    "postal": "L3X9P0",
    "result": []
  },
  {
    "postal": "L3X5H3",
    "result": []
  },
  {
    "postal": "L3X9X6",
    "result": []
  },
  {
    "postal": "L3X5N7",
    "result": []
  },
  {
    "postal": "L3X5A6",
    "result": []
  },
  {
    "postal": "L3X4M0",
    "result": []
  },
  {
    "postal": "L3X3V6",
    "result": []
  },
  {
    "postal": "L3X1L7",
    "result": [
      {
        "electoralDistricts": [
          {
            "election": null,
            "id": 67,
            "name": "Newmarket—Aurora"
          }
        ],
        "pollDivisionIds": [
          10139872
        ],
        "postalCode": "L3X1L7",
        "streetName": "WILDRUSH",
        "streetDirectionId": null,
        "streetTypeId": "PL",
        "placeName": "NEWMARKET",
        "streetNameDisplayText": "WILDRUSH PL, NEWMARKET"
      }
    ]
  },
  {
    "postal": "L3X2P9",
    "result": [
      {
        "electoralDistricts": [
          {
            "election": null,
            "id": 67,
            "name": "Newmarket—Aurora"
          }
        ],
        "pollDivisionIds": [
          10139869
        ],
        "postalCode": "L3X2P9",
        "streetName": "JORDANRAY",
        "streetDirectionId": null,
        "streetTypeId": "BLVD",
        "placeName": "NEWMARKET",
        "streetNameDisplayText": "JORDANRAY BLVD, NEWMARKET"
      }
    ]
  },
  {
    "postal": "L3X5T4",
    "result": []
  },
  {
    "postal": "L3X5Z1",
    "result": []
  },
  {
    "postal": "L3X2X0",
    "result": []
  },
  {
    "postal": "L3X6Z2",
    "result": []
  },
  {
    "postal": "L3X0E0",
    "result": []
  },
  {
    "postal": "L3X3Z5",
    "result": []
  },
  {
    "postal": "L3X8H3",
    "result": []
  },
  {
    "postal": "L3X7S6",
    "result": []
  },
  {
    "postal": "L3X4C1",
    "result": []
  },
  {
    "postal": "L3X3K2",
    "result": [
      {
        "electoralDistricts": [
          {
            "election": null,
            "id": 67,
            "name": "Newmarket—Aurora"
          }
        ],
        "pollDivisionIds": [
          10139861
        ],
        "postalCode": "L3X3K2",
        "streetName": "CARLISSA",
        "streetDirectionId": null,
        "streetTypeId": "RUN",
        "placeName": "NEWMARKET",
        "streetNameDisplayText": "CARLISSA RUN, NEWMARKET"
      },
      {
        "electoralDistricts": [
          {
            "election": null,
            "id": 67,
            "name": "Newmarket—Aurora"
          }
        ],
        "pollDivisionIds": [
          10139861
        ],
        "postalCode": "L3X3K2",
        "streetName": "WILLIAMSON FAMILY",
        "streetDirectionId": null,
        "streetTypeId": "HOLLOW",
        "placeName": "NEWMARKET",
        "streetNameDisplayText": "WILLIAMSON FAMILY HOLLOW, NEWMARKET"
      }
    ]
  },
  {
    "postal": "L3X1Y5",
    "result": [
      {
        "electoralDistricts": [
          {
            "election": null,
            "id": 67,
            "name": "Newmarket—Aurora"
          }
        ],
        "pollDivisionIds": [
          10139870
        ],
        "postalCode": "L3X1Y5",
        "streetName": "MACIVER",
        "streetDirectionId": null,
        "streetTypeId": "BLVD",
        "placeName": "NEWMARKET",
        "streetNameDisplayText": "MACIVER BLVD, NEWMARKET"
      },
      {
        "electoralDistricts": [
          {
            "election": null,
            "id": 67,
            "name": "Newmarket—Aurora"
          }
        ],
        "pollDivisionIds": [
          10139870
        ],
        "postalCode": "L3X1Y5",
        "streetName": "NEEDLER",
        "streetDirectionId": null,
        "streetTypeId": "CRES",
        "placeName": "NEWMARKET",
        "streetNameDisplayText": "NEEDLER CRES, NEWMARKET"
      }
    ]
  },
  {
    "postal": "L3X6P6",
    "result": []
  },
  {
    "postal": "L3X3N9",
    "result": []
  },
  {
    "postal": "L3X3W2",
    "result": []
  },
  {
    "postal": "L3X6H8",
    "result": []
  },
  {
    "postal": "L3X9T3",
    "result": []
  },
  {
    "postal": "L3X5L9",
    "result": []
  },
  {
    "postal": "L3X7X7",
    "result": []
  },
  {
    "postal": "L3X3J5",
    "result": [
      {
        "electoralDistricts": [
          {
            "election": null,
            "id": 67,
            "name": "Newmarket—Aurora"
          }
        ],
        "pollDivisionIds": [
          10139861
        ],
        "postalCode": "L3X3J5",
        "streetName": "CARLISSA",
        "streetDirectionId": null,
        "streetTypeId": "RUN",
        "placeName": "NEWMARKET",
        "streetNameDisplayText": "CARLISSA RUN, NEWMARKET"
      },
      {
        "electoralDistricts": [
          {
            "election": null,
            "id": 67,
            "name": "Newmarket—Aurora"
          }
        ],
        "pollDivisionIds": [
          10139861
        ],
        "postalCode": "L3X3J5",
        "streetName": "KEN BISHOP",
        "streetDirectionId": null,
        "streetTypeId": "WAY",
        "placeName": "NEWMARKET",
        "streetNameDisplayText": "KEN BISHOP WAY, NEWMARKET"
      },
      {
        "electoralDistricts": [
          {
            "election": null,
            "id": 67,
            "name": "Newmarket—Aurora"
          }
        ],
        "pollDivisionIds": [
          10139861
        ],
        "postalCode": "L3X3J5",
        "streetName": "MAE BROOKS",
        "streetDirectionId": null,
        "streetTypeId": "DR",
        "placeName": "NEWMARKET",
        "streetNameDisplayText": "MAE BROOKS DR, NEWMARKET"
      }
    ]
  },
  {
    "postal": "L3X4J5",
    "result": []
  },
  {
    "postal": "L3X6J2",
    "result": []
  },
  {
    "postal": "L3X5V6",
    "result": []
  },
  {
    "postal": "L3X3N2",
    "result": []
  },
  {
    "postal": "L3X3B1",
    "result": [
      {
        "electoralDistricts": [
          {
            "election": null,
            "id": 67,
            "name": "Newmarket—Aurora"
          }
        ],
        "pollDivisionIds": [
          10139861
        ],
        "postalCode": "L3X3B1",
        "streetName": "MYNDEN",
        "streetDirectionId": null,
        "streetTypeId": "WAY",
        "placeName": "NEWMARKET",
        "streetNameDisplayText": "MYNDEN WAY, NEWMARKET"
      },
      {
        "electoralDistricts": [
          {
            "election": null,
            "id": 67,
            "name": "Newmarket—Aurora"
          }
        ],
        "pollDivisionIds": [
          10139861
        ],
        "postalCode": "L3X3B1",
        "streetName": "WILLIAM BOOTH",
        "streetDirectionId": null,
        "streetTypeId": "AVE",
        "placeName": "NEWMARKET",
        "streetNameDisplayText": "WILLIAM BOOTH AVE, NEWMARKET"
      },
      {
        "electoralDistricts": [
          {
            "election": null,
            "id": 67,
            "name": "Newmarket—Aurora"
          }
        ],
        "pollDivisionIds": [
          10139861
        ],
        "postalCode": "L3X3B1",
        "streetName": "WOODSPRING",
        "streetDirectionId": null,
        "streetTypeId": "AVE",
        "placeName": "NEWMARKET",
        "streetNameDisplayText": "WOODSPRING AVE, NEWMARKET"
      }
    ]
  },
  {
    "postal": "L3X8B5",
    "result": []
  },
  {
    "postal": "L3X0K1",
    "result": [
      {
        "electoralDistricts": [
          {
            "election": null,
            "id": 67,
            "name": "Newmarket—Aurora"
          }
        ],
        "pollDivisionIds": [
          10139873
        ],
        "postalCode": "L3X0K1",
        "streetName": "HARRY DOUGLAS",
        "streetDirectionId": null,
        "streetTypeId": "ST",
        "placeName": "NEWMARKET",
        "streetNameDisplayText": "HARRY DOUGLAS ST, NEWMARKET"
      },
      {
        "electoralDistricts": [
          {
            "election": null,
            "id": 67,
            "name": "Newmarket—Aurora"
          }
        ],
        "pollDivisionIds": [
          10139873
        ],
        "postalCode": "L3X0K1",
        "streetName": "HELENA",
        "streetDirectionId": null,
        "streetTypeId": "CRT",
        "placeName": "NEWMARKET",
        "streetNameDisplayText": "HELENA CRT, NEWMARKET"
      },
      {
        "electoralDistricts": [
          {
            "election": null,
            "id": 67,
            "name": "Newmarket—Aurora"
          }
        ],
        "pollDivisionIds": [
          10139873
        ],
        "postalCode": "L3X0K1",
        "streetName": "MICKLEBURGH",
        "streetDirectionId": null,
        "streetTypeId": "DR",
        "placeName": "NEWMARKET",
        "streetNameDisplayText": "MICKLEBURGH DR, NEWMARKET"
      }
    ]
  },
  {
    "postal": "L3X7M7",
    "result": []
  },
  {
    "postal": "L3X2M2",
    "result": [
      {
        "electoralDistricts": [
          {
            "election": null,
            "id": 67,
            "name": "Newmarket—Aurora"
          }
        ],
        "pollDivisionIds": [
          10139873
        ],
        "postalCode": "L3X2M2",
        "streetName": "BROOKER",
        "streetDirectionId": null,
        "streetTypeId": "RIDGE",
        "placeName": "NEWMARKET",
        "streetNameDisplayText": "BROOKER RIDGE, NEWMARKET"
      }
    ]
  },
  {
    "postal": "L3X9N3",
    "result": []
  },
  {
    "postal": "L3X4Y8",
    "result": []
  },
  {
    "postal": "L3X3V7",
    "result": []
  },
  {
    "postal": "L3X8Z1",
    "result": []
  },
  {
    "postal": "L3X7B3",
    "result": []
  },
  {
    "postal": "L3X3A8",
    "result": [
      {
        "electoralDistricts": [
          {
            "election": null,
            "id": 67,
            "name": "Newmarket—Aurora"
          }
        ],
        "pollDivisionIds": [
          10139861
        ],
        "postalCode": "L3X3A8",
        "streetName": "MYNDEN",
        "streetDirectionId": null,
        "streetTypeId": "WAY",
        "placeName": "NEWMARKET",
        "streetNameDisplayText": "MYNDEN WAY, NEWMARKET"
      }
    ]
  },
  {
    "postal": "L3X7V5",
    "result": []
  },
  {
    "postal": "L3X2T2",
    "result": [
      {
        "electoralDistricts": [
          {
            "election": null,
            "id": 67,
            "name": "Newmarket—Aurora"
          }
        ],
        "pollDivisionIds": [
          10139875
        ],
        "postalCode": "L3X2T2",
        "streetName": "WOODBURY",
        "streetDirectionId": null,
        "streetTypeId": "CRES",
        "placeName": "NEWMARKET",
        "streetNameDisplayText": "WOODBURY CRES, NEWMARKET"
      }
    ]
  },
  {
    "postal": "L3X6L3",
    "result": []
  },
  {
    "postal": "L3X0L2",
    "result": [
      {
        "electoralDistricts": [
          {
            "election": null,
            "id": 67,
            "name": "Newmarket—Aurora"
          }
        ],
        "pollDivisionIds": [
          10139861
        ],
        "postalCode": "L3X0L2",
        "streetName": "ALLURE",
        "streetDirectionId": null,
        "streetTypeId": "ST",
        "placeName": "NEWMARKET",
        "streetNameDisplayText": "ALLURE ST, NEWMARKET"
      },
      {
        "electoralDistricts": [
          {
            "election": null,
            "id": 67,
            "name": "Newmarket—Aurora"
          }
        ],
        "pollDivisionIds": [
          10139861
        ],
        "postalCode": "L3X0L2",
        "streetName": "VANTAGE",
        "streetDirectionId": null,
        "streetTypeId": "LOOP",
        "placeName": "NEWMARKET",
        "streetNameDisplayText": "VANTAGE LOOP, NEWMARKET"
      }
    ]
  },
  {
    "postal": "L3X5Y8",
    "result": []
  },
  {
    "postal": "L3X0B8",
    "result": [
      {
        "electoralDistricts": [
          {
            "election": null,
            "id": 67,
            "name": "Newmarket—Aurora"
          }
        ],
        "pollDivisionIds": [
          10139871
        ],
        "postalCode": "L3X0B8",
        "streetName": "GRAINGER",
        "streetDirectionId": null,
        "streetTypeId": "TRAIL",
        "placeName": "NEWMARKET",
        "streetNameDisplayText": "GRAINGER TRAIL, NEWMARKET"
      },
      {
        "electoralDistricts": [
          {
            "election": null,
            "id": 67,
            "name": "Newmarket—Aurora"
          }
        ],
        "pollDivisionIds": [
          10139871
        ],
        "postalCode": "L3X0B8",
        "streetName": "SHERMAN BROCK",
        "streetDirectionId": null,
        "streetTypeId": "CIR",
        "placeName": "NEWMARKET",
        "streetNameDisplayText": "SHERMAN BROCK CIR, NEWMARKET"
      },
      {
        "electoralDistricts": [
          {
            "election": null,
            "id": 67,
            "name": "Newmarket—Aurora"
          }
        ],
        "pollDivisionIds": [
          10139871
        ],
        "postalCode": "L3X0B8",
        "streetName": "WILBUR PIPHER",
        "streetDirectionId": null,
        "streetTypeId": "CIR",
        "placeName": "NEWMARKET",
        "streetNameDisplayText": "WILBUR PIPHER CIR, NEWMARKET"
      }
    ]
  },
  {
    "postal": "L3X6R5",
    "result": []
  },
  {
    "postal": "L3X8W6",
    "result": []
  },
  {
    "postal": "L3X8G6",
    "result": []
  },
  {
    "postal": "L3X6X3",
    "result": []
  },
  {
    "postal": "L3X7R7",
    "result": []
  },
  {
    "postal": "L3X4B6",
    "result": []
  },
  {
    "postal": "L3X3P9",
    "result": []
  },
  {
    "postal": "L3X2T3",
    "result": [
      {
        "electoralDistricts": [
          {
            "election": null,
            "id": 67,
            "name": "Newmarket—Aurora"
          }
        ],
        "pollDivisionIds": [
          10139875
        ],
        "postalCode": "L3X2T3",
        "streetName": "WOODBURY",
        "streetDirectionId": null,
        "streetTypeId": "CRES",
        "placeName": "NEWMARKET",
        "streetNameDisplayText": "WOODBURY CRES, NEWMARKET"
      }
    ]
  },
  {
    "postal": "L3X1M4",
    "result": [
      {
        "electoralDistricts": [
          {
            "election": null,
            "id": 67,
            "name": "Newmarket—Aurora"
          }
        ],
        "pollDivisionIds": [
          10139872
        ],
        "postalCode": "L3X1M4",
        "streetName": "SECRETARIATE",
        "streetDirectionId": null,
        "streetTypeId": "RD",
        "placeName": "NEWMARKET",
        "streetNameDisplayText": "SECRETARIATE RD, NEWMARKET"
      }
    ]
  },
  {
    "postal": "L3X0H1",
    "result": []
  },
  {
    "postal": "L3X9W3",
    "result": []
  },
  {
    "postal": "L3X6P1",
    "result": []
  },
  {
    "postal": "L3X7G2",
    "result": []
  },
  {
    "postal": "L3X4J9",
    "result": []
  },
  {
    "postal": "L3X9E4",
    "result": []
  },
  {
    "postal": "L3X8H0",
    "result": []
  },
  {
    "postal": "L3X4M7",
    "result": []
  },
  {
    "postal": "L3X2G9",
    "result": [
      {
        "electoralDistricts": [
          {
            "election": null,
            "id": 67,
            "name": "Newmarket—Aurora"
          }
        ],
        "pollDivisionIds": [
          10139875
        ],
        "postalCode": "L3X2G9",
        "streetName": "COVENTRY HILL",
        "streetDirectionId": null,
        "streetTypeId": "TRAIL",
        "placeName": "NEWMARKET",
        "streetNameDisplayText": "COVENTRY HILL TRAIL, NEWMARKET"
      }
    ]
  },
  {
    "postal": "L3X8T2",
    "result": []
  },
  {
    "postal": "L3X7G7",
    "result": []
  },
  {
    "postal": "L3X4Z3",
    "result": []
  },
  {
    "postal": "L3X5B3",
    "result": []
  },
  {
    "postal": "L3X1S7",
    "result": [
      {
        "electoralDistricts": [
          {
            "election": null,
            "id": 67,
            "name": "Newmarket—Aurora"
          }
        ],
        "pollDivisionIds": [
          10139874
        ],
        "postalCode": "L3X1S7",
        "streetName": "JELLEY",
        "streetDirectionId": null,
        "streetTypeId": "AVE",
        "placeName": "NEWMARKET",
        "streetNameDisplayText": "JELLEY AVE, NEWMARKET"
      },
      {
        "electoralDistricts": [
          {
            "election": null,
            "id": 67,
            "name": "Newmarket—Aurora"
          }
        ],
        "pollDivisionIds": [
          10139874
        ],
        "postalCode": "L3X1S7",
        "streetName": "KENSIT",
        "streetDirectionId": null,
        "streetTypeId": "AVE",
        "placeName": "NEWMARKET",
        "streetNameDisplayText": "KENSIT AVE, NEWMARKET"
      },
      {
        "electoralDistricts": [
          {
            "election": null,
            "id": 67,
            "name": "Newmarket—Aurora"
          }
        ],
        "pollDivisionIds": [
          10139874
        ],
        "postalCode": "L3X1S7",
        "streetName": "REVELL",
        "streetDirectionId": null,
        "streetTypeId": "RD",
        "placeName": "NEWMARKET",
        "streetNameDisplayText": "REVELL RD, NEWMARKET"
      },
      {
        "electoralDistricts": [
          {
            "election": null,
            "id": 67,
            "name": "Newmarket—Aurora"
          }
        ],
        "pollDivisionIds": [
          10139874
        ],
        "postalCode": "L3X1S7",
        "streetName": "SAVAGE",
        "streetDirectionId": null,
        "streetTypeId": "RD",
        "placeName": "NEWMARKET",
        "streetNameDisplayText": "SAVAGE RD, NEWMARKET"
      }
    ]
  },
  {
    "postal": "L3X2N7",
    "result": [
      {
        "electoralDistricts": [
          {
            "election": null,
            "id": 67,
            "name": "Newmarket—Aurora"
          }
        ],
        "pollDivisionIds": [
          10139871
        ],
        "postalCode": "L3X2N7",
        "streetName": "PELLETIER",
        "streetDirectionId": null,
        "streetTypeId": "CRT",
        "placeName": "NEWMARKET",
        "streetNameDisplayText": "PELLETIER CRT, NEWMARKET"
      }
    ]
  },
  {
    "postal": "L3X0H8",
    "result": []
  },
  {
    "postal": "L3X7Z4",
    "result": []
  },
  {
    "postal": "L3X7B1",
    "result": []
  },
  {
    "postal": "L3X7P8",
    "result": []
  },
  {
    "postal": "L3X7N0",
    "result": []
  },
  {
    "postal": "L3X3Y5",
    "result": []
  },
  {
    "postal": "L3X6K1",
    "result": []
  },
  {
    "postal": "L3X9X5",
    "result": []
  },
  {
    "postal": "L3X7S5",
    "result": []
  },
  {
    "postal": "L3X0A4",
    "result": [
      {
        "electoralDistricts": [
          {
            "election": null,
            "id": 67,
            "name": "Newmarket—Aurora"
          }
        ],
        "pollDivisionIds": [
          10139873
        ],
        "postalCode": "L3X0A4",
        "streetName": "WENDY CULBERT",
        "streetDirectionId": null,
        "streetTypeId": "CRES",
        "placeName": "NEWMARKET",
        "streetNameDisplayText": "WENDY CULBERT CRES, NEWMARKET"
      },
      {
        "electoralDistricts": [
          {
            "election": null,
            "id": 67,
            "name": "Newmarket—Aurora"
          }
        ],
        "pollDivisionIds": [
          10139873
        ],
        "postalCode": "L3X0A4",
        "streetName": "WENDY CUTHRBERT",
        "streetDirectionId": null,
        "streetTypeId": "CRES",
        "placeName": "NEWMARKET",
        "streetNameDisplayText": "WENDY CUTHRBERT CRES, NEWMARKET"
      }
    ]
  },
  {
    "postal": "L3X4T5",
    "result": []
  },
  {
    "postal": "L3X5K1",
    "result": []
  },
  {
    "postal": "L3X0Z9",
    "result": []
  },
  {
    "postal": "L3X7T2",
    "result": []
  },
  {
    "postal": "L3X1L5",
    "result": [
      {
        "electoralDistricts": [
          {
            "election": null,
            "id": 67,
            "name": "Newmarket—Aurora"
          }
        ],
        "pollDivisionIds": [
          10139872
        ],
        "postalCode": "L3X1L5",
        "streetName": "CRESTA RIDER",
        "streetDirectionId": null,
        "streetTypeId": "PL",
        "placeName": "NEWMARKET",
        "streetNameDisplayText": "CRESTA RIDER PL, NEWMARKET"
      },
      {
        "electoralDistricts": [
          {
            "election": null,
            "id": 67,
            "name": "Newmarket—Aurora"
          }
        ],
        "pollDivisionIds": [
          10139872
        ],
        "postalCode": "L3X1L5",
        "streetName": "KINGSMERE",
        "streetDirectionId": null,
        "streetTypeId": "AVE",
        "placeName": "NEWMARKET",
        "streetNameDisplayText": "KINGSMERE AVE, NEWMARKET"
      },
      {
        "electoralDistricts": [
          {
            "election": null,
            "id": 67,
            "name": "Newmarket—Aurora"
          }
        ],
        "pollDivisionIds": [
          10139872
        ],
        "postalCode": "L3X1L5",
        "streetName": "ROBELLINO",
        "streetDirectionId": null,
        "streetTypeId": "CRT",
        "placeName": "NEWMARKET",
        "streetNameDisplayText": "ROBELLINO CRT, NEWMARKET"
      }
    ]
  },
  {
    "postal": "L3X3N5",
    "result": []
  },
  {
    "postal": "L3X6H4",
    "result": []
  },
  {
    "postal": "L3X5A5",
    "result": []
  },
  {
    "postal": "L3X3R9",
    "result": []
  },
  {
    "postal": "L3X7L8",
    "result": []
  },
  {
    "postal": "L3X6T6",
    "result": []
  },
  {
    "postal": "L3X7Y7",
    "result": []
  },
  {
    "postal": "L3X3M8",
    "result": []
  },
  {
    "postal": "L3X2E0",
    "result": []
  },
  {
    "postal": "L3X4B5",
    "result": []
  },
  {
    "postal": "L3X1J3",
    "result": [
      {
        "electoralDistricts": [
          {
            "election": null,
            "id": 67,
            "name": "Newmarket—Aurora"
          }
        ],
        "pollDivisionIds": [
          10139868
        ],
        "postalCode": "L3X1J3",
        "streetName": "MCCAFFREY",
        "streetDirectionId": null,
        "streetTypeId": "RD",
        "placeName": "NEWMARKET",
        "streetNameDisplayText": "MCCAFFREY RD, NEWMARKET"
      }
    ]
  },
  {
    "postal": "L3X5S6",
    "result": []
  },
  {
    "postal": "L3X8P7",
    "result": []
  },
  {
    "postal": "L3X7S7",
    "result": []
  },
  {
    "postal": "L3X4C2",
    "result": []
  },
  {
    "postal": "L3X5Y0",
    "result": []
  },
  {
    "postal": "L3X2V7",
    "result": [
      {
        "electoralDistricts": [
          {
            "election": null,
            "id": 67,
            "name": "Newmarket—Aurora"
          }
        ],
        "pollDivisionIds": [
          10139875
        ],
        "postalCode": "L3X2V7",
        "streetName": "SAWMILL VALLEY",
        "streetDirectionId": null,
        "streetTypeId": "DR",
        "placeName": "NEWMARKET",
        "streetNameDisplayText": "SAWMILL VALLEY DR, NEWMARKET"
      },
      {
        "electoralDistricts": [
          {
            "election": null,
            "id": 67,
            "name": "Newmarket—Aurora"
          }
        ],
        "pollDivisionIds": [
          10139875
        ],
        "postalCode": "L3X2V7",
        "streetName": "VALLEY GREEN",
        "streetDirectionId": null,
        "streetTypeId": "TRAIL",
        "placeName": "NEWMARKET",
        "streetNameDisplayText": "VALLEY GREEN TRAIL, NEWMARKET"
      }
    ]
  },
  {
    "postal": "L3X8P5",
    "result": []
  },
  {
    "postal": "L3X5P5",
    "result": []
  },
  {
    "postal": "L3X5Z0",
    "result": []
  },
  {
    "postal": "L3X9B0",
    "result": []
  },
  {
    "postal": "L3X1L0",
    "result": []
  },
  {
    "postal": "L3X0B5",
    "result": [
      {
        "electoralDistricts": [
          {
            "election": null,
            "id": 67,
            "name": "Newmarket—Aurora"
          }
        ],
        "pollDivisionIds": [
          10139871
        ],
        "postalCode": "L3X0B5",
        "streetName": "GORING",
        "streetDirectionId": null,
        "streetTypeId": "CIR",
        "placeName": "NEWMARKET",
        "streetNameDisplayText": "GORING CIR, NEWMARKET"
      },
      {
        "electoralDistricts": [
          {
            "election": null,
            "id": 67,
            "name": "Newmarket—Aurora"
          }
        ],
        "pollDivisionIds": [
          10139871
        ],
        "postalCode": "L3X0B5",
        "streetName": "MEMORIAL",
        "streetDirectionId": null,
        "streetTypeId": "CIR",
        "placeName": "NEWMARKET",
        "streetNameDisplayText": "MEMORIAL CIR, NEWMARKET"
      },
      {
        "electoralDistricts": [
          {
            "election": null,
            "id": 67,
            "name": "Newmarket—Aurora"
          }
        ],
        "pollDivisionIds": [
          10139871
        ],
        "postalCode": "L3X0B5",
        "streetName": "POPPY",
        "streetDirectionId": null,
        "streetTypeId": "LANE",
        "placeName": "NEWMARKET",
        "streetNameDisplayText": "POPPY LANE, NEWMARKET"
      }
    ]
  },
  {
    "postal": "L3X3L2",
    "result": [
      {
        "electoralDistricts": [
          {
            "election": null,
            "id": 67,
            "name": "Newmarket—Aurora"
          }
        ],
        "pollDivisionIds": [
          10139875
        ],
        "postalCode": "L3X3L2",
        "streetName": "WILLIAM DUNN",
        "streetDirectionId": null,
        "streetTypeId": "CRES",
        "placeName": "NEWMARKET",
        "streetNameDisplayText": "WILLIAM DUNN CRES, NEWMARKET"
      }
    ]
  },
  {
    "postal": "L3X3B7",
    "result": [
      {
        "electoralDistricts": [
          {
            "election": null,
            "id": 67,
            "name": "Newmarket—Aurora"
          }
        ],
        "pollDivisionIds": [
          10139861
        ],
        "postalCode": "L3X3B7",
        "streetName": "ALFRED SMITH",
        "streetDirectionId": null,
        "streetTypeId": "WAY",
        "placeName": "NEWMARKET",
        "streetNameDisplayText": "ALFRED SMITH WAY, NEWMARKET"
      },
      {
        "electoralDistricts": [
          {
            "election": null,
            "id": 67,
            "name": "Newmarket—Aurora"
          }
        ],
        "pollDivisionIds": [
          10139861
        ],
        "postalCode": "L3X3B7",
        "streetName": "KNAPTON",
        "streetDirectionId": null,
        "streetTypeId": "DR",
        "placeName": "NEWMARKET",
        "streetNameDisplayText": "KNAPTON DR, NEWMARKET"
      },
      {
        "electoralDistricts": [
          {
            "election": null,
            "id": 67,
            "name": "Newmarket—Aurora"
          }
        ],
        "pollDivisionIds": [
          10139861
        ],
        "postalCode": "L3X3B7",
        "streetName": "MYNDEN",
        "streetDirectionId": null,
        "streetTypeId": "WAY",
        "placeName": "NEWMARKET",
        "streetNameDisplayText": "MYNDEN WAY, NEWMARKET"
      }
    ]
  },
  {
    "postal": "L3X8L1",
    "result": []
  },
  {
    "postal": "L3X5M4",
    "result": []
  },
  {
    "postal": "L3X4G9",
    "result": []
  },
  {
    "postal": "L3X0P0",
    "result": []
  },
  {
    "postal": "L3X8G2",
    "result": []
  },
  {
    "postal": "L3X1V9",
    "result": [
      {
        "electoralDistricts": [
          {
            "election": null,
            "id": 67,
            "name": "Newmarket—Aurora"
          }
        ],
        "pollDivisionIds": [
          10139873
        ],
        "postalCode": "L3X1V9",
        "streetName": "LYMAN",
        "streetDirectionId": null,
        "streetTypeId": "BLVD",
        "placeName": "NEWMARKET",
        "streetNameDisplayText": "LYMAN BLVD, NEWMARKET"
      },
      {
        "electoralDistricts": [
          {
            "election": null,
            "id": 67,
            "name": "Newmarket—Aurora"
          }
        ],
        "pollDivisionIds": [
          10139873
        ],
        "postalCode": "L3X1V9",
        "streetName": "SCHAEFFER OUTLOOK",
        "streetDirectionId": null,
        "streetTypeId": null,
        "placeName": "NEWMARKET",
        "streetNameDisplayText": "SCHAEFFER OUTLOOK, NEWMARKET"
      }
    ]
  },
  {
    "postal": "L3X8N8",
    "result": []
  },
  {
    "postal": "L3X6S8",
    "result": []
  },
  {
    "postal": "L3X8H2",
    "result": []
  },
  {
    "postal": "L3X5R8",
    "result": []
  },
  {
    "postal": "L3X5L4",
    "result": []
  },
  {
    "postal": "L3X9E1",
    "result": []
  },
  {
    "postal": "L3X1C4",
    "result": [
      {
        "electoralDistricts": [
          {
            "election": null,
            "id": 67,
            "name": "Newmarket—Aurora"
          }
        ],
        "pollDivisionIds": [
          10139868
        ],
        "postalCode": "L3X1C4",
        "streetName": "ALEX DONER",
        "streetDirectionId": null,
        "streetTypeId": "DR",
        "placeName": "NEWMARKET",
        "streetNameDisplayText": "ALEX DONER DR, NEWMARKET"
      }
    ]
  },
  {
    "postal": "L3X8W5",
    "result": []
  },
  {
    "postal": "L3X1Y4",
    "result": [
      {
        "electoralDistricts": [
          {
            "election": null,
            "id": 67,
            "name": "Newmarket—Aurora"
          }
        ],
        "pollDivisionIds": [
          10139870
        ],
        "postalCode": "L3X1Y4",
        "streetName": "BRICKELL",
        "streetDirectionId": null,
        "streetTypeId": "PL",
        "placeName": "NEWMARKET",
        "streetNameDisplayText": "BRICKELL PL, NEWMARKET"
      },
      {
        "electoralDistricts": [
          {
            "election": null,
            "id": 67,
            "name": "Newmarket—Aurora"
          }
        ],
        "pollDivisionIds": [
          10139870
        ],
        "postalCode": "L3X1Y4",
        "streetName": "BRICKELL",
        "streetDirectionId": null,
        "streetTypeId": "RD",
        "placeName": "NEWMARKET",
        "streetNameDisplayText": "BRICKELL RD, NEWMARKET"
      },
      {
        "electoralDistricts": [
          {
            "election": null,
            "id": 67,
            "name": "Newmarket—Aurora"
          }
        ],
        "pollDivisionIds": [
          10139870
        ],
        "postalCode": "L3X1Y4",
        "streetName": "GIBNEY",
        "streetDirectionId": null,
        "streetTypeId": "CRES",
        "placeName": "NEWMARKET",
        "streetNameDisplayText": "GIBNEY CRES, NEWMARKET"
      },
      {
        "electoralDistricts": [
          {
            "election": null,
            "id": 67,
            "name": "Newmarket—Aurora"
          }
        ],
        "pollDivisionIds": [
          10139870
        ],
        "postalCode": "L3X1Y4",
        "streetName": "MACIVER",
        "streetDirectionId": null,
        "streetTypeId": "BLVD",
        "placeName": "NEWMARKET",
        "streetNameDisplayText": "MACIVER BLVD, NEWMARKET"
      },
      {
        "electoralDistricts": [
          {
            "election": null,
            "id": 67,
            "name": "Newmarket—Aurora"
          }
        ],
        "pollDivisionIds": [
          10139870
        ],
        "postalCode": "L3X1Y4",
        "streetName": "NEEDLER",
        "streetDirectionId": null,
        "streetTypeId": "CRES",
        "placeName": "NEWMARKET",
        "streetNameDisplayText": "NEEDLER CRES, NEWMARKET"
      }
    ]
  },
  {
    "postal": "L3X1C0",
    "result": []
  },
  {
    "postal": "L3X2J2",
    "result": [
      {
        "electoralDistricts": [
          {
            "election": null,
            "id": 67,
            "name": "Newmarket—Aurora"
          }
        ],
        "pollDivisionIds": [
          10139871,
          10139873
        ],
        "postalCode": "L3X2J2",
        "streetName": "HEDDLE",
        "streetDirectionId": null,
        "streetTypeId": "CRES",
        "placeName": "NEWMARKET",
        "streetNameDisplayText": "HEDDLE CRES, NEWMARKET"
      },
      {
        "electoralDistricts": [
          {
            "election": null,
            "id": 67,
            "name": "Newmarket—Aurora"
          }
        ],
        "pollDivisionIds": [
          10139871,
          10139873
        ],
        "postalCode": "L3X2J2",
        "streetName": "MCBEAN",
        "streetDirectionId": null,
        "streetTypeId": "AVE",
        "placeName": "NEWMARKET",
        "streetNameDisplayText": "MCBEAN AVE, NEWMARKET"
      }
    ]
  },
  {
    "postal": "L3X2J0",
    "result": []
  },
  {
    "postal": "L3X7A3",
    "result": []
  },
  {
    "postal": "L3X8M1",
    "result": []
  },
  {
    "postal": "L3X7T9",
    "result": []
  },
  {
    "postal": "L3X6C0",
    "result": []
  },
  {
    "postal": "L3X7X1",
    "result": []
  },
  {
    "postal": "L3X0G1",
    "result": [
      {
        "electoralDistricts": [
          {
            "election": null,
            "id": 67,
            "name": "Newmarket—Aurora"
          }
        ],
        "pollDivisionIds": [
          10139861
        ],
        "postalCode": "L3X0G1",
        "streetName": "GORD CLELLAND",
        "streetDirectionId": null,
        "streetTypeId": "GATE",
        "placeName": "NEWMARKET",
        "streetNameDisplayText": "GORD CLELLAND GATE, NEWMARKET"
      },
      {
        "electoralDistricts": [
          {
            "election": null,
            "id": 67,
            "name": "Newmarket—Aurora"
          }
        ],
        "pollDivisionIds": [
          10139861
        ],
        "postalCode": "L3X0G1",
        "streetName": "SLOSS",
        "streetDirectionId": null,
        "streetTypeId": "CRT",
        "placeName": "NEWMARKET",
        "streetNameDisplayText": "SLOSS CRT, NEWMARKET"
      },
      {
        "electoralDistricts": [
          {
            "election": null,
            "id": 67,
            "name": "Newmarket—Aurora"
          }
        ],
        "pollDivisionIds": [
          10139861
        ],
        "postalCode": "L3X0G1",
        "streetName": "WOODSPRING",
        "streetDirectionId": null,
        "streetTypeId": "AVE",
        "placeName": "NEWMARKET",
        "streetNameDisplayText": "WOODSPRING AVE, NEWMARKET"
      }
    ]
  },
  {
    "postal": "L3X4X2",
    "result": []
  },
  {
    "postal": "L3X0N6",
    "result": []
  },
  {
    "postal": "L3X8E3",
    "result": []
  },
  {
    "postal": "L3X5S8",
    "result": []
  },
  {
    "postal": "L3X0R0",
    "result": []
  },
  {
    "postal": "L3X6J6",
    "result": []
  },
  {
    "postal": "L3X4B4",
    "result": []
  },
  {
    "postal": "L3X7E3",
    "result": []
  },
  {
    "postal": "L3X3N6",
    "result": []
  },
  {
    "postal": "L3X3X6",
    "result": []
  },
  {
    "postal": "L3X8L0",
    "result": []
  },
  {
    "postal": "L3X8N1",
    "result": []
  },
  {
    "postal": "L3X4J0",
    "result": []
  },
  {
    "postal": "L3X0X7",
    "result": []
  },
  {
    "postal": "L3X6S4",
    "result": []
  },
  {
    "postal": "L3X0Z0",
    "result": []
  },
  {
    "postal": "L3X9X8",
    "result": []
  },
  {
    "postal": "L3X3H3",
    "result": [
      {
        "electoralDistricts": [
          {
            "election": null,
            "id": 67,
            "name": "Newmarket—Aurora"
          }
        ],
        "pollDivisionIds": [
          10139860
        ],
        "postalCode": "L3X3H3",
        "streetName": "BONSHAW",
        "streetDirectionId": null,
        "streetTypeId": "AVE",
        "placeName": "NEWMARKET",
        "streetNameDisplayText": "BONSHAW AVE, NEWMARKET"
      },
      {
        "electoralDistricts": [
          {
            "election": null,
            "id": 67,
            "name": "Newmarket—Aurora"
          }
        ],
        "pollDivisionIds": [
          10139860
        ],
        "postalCode": "L3X3H3",
        "streetName": "GILPIN",
        "streetDirectionId": null,
        "streetTypeId": "DR",
        "placeName": "NEWMARKET",
        "streetNameDisplayText": "GILPIN DR, NEWMARKET"
      },
      {
        "electoralDistricts": [
          {
            "election": null,
            "id": 67,
            "name": "Newmarket—Aurora"
          }
        ],
        "pollDivisionIds": [
          10139860
        ],
        "postalCode": "L3X3H3",
        "streetName": "KWAPIS",
        "streetDirectionId": null,
        "streetTypeId": "BLVD",
        "placeName": "NEWMARKET",
        "streetNameDisplayText": "KWAPIS BLVD, NEWMARKET"
      }
    ]
  },
  {
    "postal": "L3X7S2",
    "result": []
  },
  {
    "postal": "L3X3T3",
    "result": []
  },
  {
    "postal": "L3X9P3",
    "result": []
  },
  {
    "postal": "L3X4H8",
    "result": []
  },
  {
    "postal": "L3X6R1",
    "result": []
  },
  {
    "postal": "L3X1S0",
    "result": []
  },
  {
    "postal": "L3X3W8",
    "result": []
  },
  {
    "postal": "L3X4S3",
    "result": []
  },
  {
    "postal": "L3X1B6",
    "result": [
      {
        "electoralDistricts": [
          {
            "election": null,
            "id": 67,
            "name": "Newmarket—Aurora"
          }
        ],
        "pollDivisionIds": [
          10139868
        ],
        "postalCode": "L3X1B6",
        "streetName": "CROSSLAND",
        "streetDirectionId": null,
        "streetTypeId": "GATE",
        "placeName": "NEWMARKET",
        "streetNameDisplayText": "CROSSLAND GATE, NEWMARKET"
      },
      {
        "electoralDistricts": [
          {
            "election": null,
            "id": 67,
            "name": "Newmarket—Aurora"
          }
        ],
        "pollDivisionIds": [
          10139868
        ],
        "postalCode": "L3X1B6",
        "streetName": "FAIRWAY",
        "streetDirectionId": null,
        "streetTypeId": "GDNS",
        "placeName": "NEWMARKET",
        "streetNameDisplayText": "FAIRWAY GDNS, NEWMARKET"
      }
    ]
  },
  {
    "postal": "L3X8R3",
    "result": []
  },
  {
    "postal": "L3X4V9",
    "result": []
  },
  {
    "postal": "L3X9W4",
    "result": []
  },
  {
    "postal": "L3X3T4",
    "result": []
  },
  {
    "postal": "L3X5C7",
    "result": []
  },
  {
    "postal": "L3X3Y1",
    "result": []
  },
  {
    "postal": "L3X5V0",
    "result": []
  },
  {
    "postal": "L3X8G8",
    "result": []
  },
  {
    "postal": "L3X8B1",
    "result": []
  },
  {
    "postal": "L3X4P5",
    "result": []
  },
  {
    "postal": "L3X7B2",
    "result": []
  },
  {
    "postal": "L3X0R2",
    "result": []
  },
  {
    "postal": "L3X4M4",
    "result": []
  },
  {
    "postal": "L3X7M4",
    "result": []
  },
  {
    "postal": "L3X9S7",
    "result": []
  },
  {
    "postal": "L3X5Z7",
    "result": []
  },
  {
    "postal": "L3X7J7",
    "result": []
  },
  {
    "postal": "L3X8R8",
    "result": []
  },
  {
    "postal": "L3X9X1",
    "result": []
  },
  {
    "postal": "L3X5M9",
    "result": []
  },
  {
    "postal": "L3X9B4",
    "result": []
  },
  {
    "postal": "L3X0L9",
    "result": []
  },
  {
    "postal": "L3X9G4",
    "result": []
  },
  {
    "postal": "L3X1J4",
    "result": [
      {
        "electoralDistricts": [
          {
            "election": null,
            "id": 67,
            "name": "Newmarket—Aurora"
          }
        ],
        "pollDivisionIds": [
          10139868
        ],
        "postalCode": "L3X1J4",
        "streetName": "MCCAFFREY",
        "streetDirectionId": null,
        "streetTypeId": "RD",
        "placeName": "NEWMARKET",
        "streetNameDisplayText": "MCCAFFREY RD, NEWMARKET"
      }
    ]
  },
  {
    "postal": "L3X0W6",
    "result": []
  }
]
